Origin Time       2025/01/13 21:19:00
Lat.              31.8
Long.             131.6
Depth. (km)       30
Mag.              6.9
Station Code      FKO001
Station Lat.      33.8425
Station Long.     130.5087
Station Height(m) 6
Record Time       2025/01/13 21:20:16
Sampling Freq(Hz) 100Hz
Duration Time(s)  109
Dir.              E-W
Scale Factor      7845(gal)/8223790
Max. Acc. (gal)   4.368
Last Correction   2025/01/13 21:20:17
Memo.             
[...]
     145      342      561      801     1043     1275     1486     1652 
    1780     1876     1935     1950     1911     1819     1674     1466 
    1217      950      660      359       71     -194     -440     -649 
    -811     -938    -1046    -1135    -1196    -1240    -1285    -1325 
   -1360    -1406    -1467    -1520    -1561    -1613    -1676    -1725 
   -1756    -1794    -1836    -1867    -1894    -1922    -1939    -1950 
   -1954    -1945    -1908    -1830    -1705    -1529    -1310    -1063 
    -805     -542     -282      -35      207      445      654      828 
     980     1109     1206     1267     1306     1337     1350     1339 
    1318     1279     1210     1119     1012      878      712      533 
     353      163      -36     -232     -411     -571     -715     -845 
    -954    -1036    -1085    -1109    -1120    -1113    -1093    -1074 
   -1071    -1089    -1125    -1174    -1237    -1302    -1371    -1455 
   -1539    -1590    -1605    -1594    -1543    -1431    -1266    -1067 
    -827     -557     -297      -63      144      319      448      526 
     562      560      518      459      411      382      360      342 
     332      329      341      382      440      502      575      661 
     750      835      930     1021     1090     1131     1143     1121 
    1063      985      896      780      621      437      233      -17 
    -313     -623     -943    -1271    -1579    -1845    -2066    -2245 
   -2373    -2444    -2470    -2455    -2396    -2296    -2173    -2038 
   -1885    -1725    -1568    -1409    -1233    -1053     -864     -669 
    -488     -332     -203      -98      -16       49      120      191 
     252      315      405      513      629      756      882      982 
    1036     1054     1034      955      831      685      525      346 
     171       18     -105     -199     -255     -259     -225     -175 
    -117      -60      -16        2       -2      -29      -76     -133 
    -199     -286     -382     -472     -558     -646     -716     -756 
    -777     -780     -750     -693     -627     -565     -504     -459 
    -445     -450     -469     -513     -575     -634     -679     -710 
    -741     -770     -796     -832     -888     -939     -978    -1001 
   -1004     -993     -980     -969     -961     -953     -939     -916 
    -870     -799     -708     -591     -444     -294     -149        5 
     156      280      387      484      569      631      675      702 
     700      673      642      614      577      538      526      548 
     587      643      722      797      849      876      884      866 
     820      757      680      583      473      360      240      103 
     -41     -199     -383     -583     -791    -1020    -1269    -1517 
   -1749    -1946    -2106    -2226    -2303    -2357    -2388    -2374 
   -2328    -2278    -2219    -2147    -2081    -2027    -1969    -1894 
   -1802    -1686    -1524    -1313    -1071     -796     -488     -156 
     187      529      859     1175     1458     1686     1845     1927 
    1945     1906     1804     1645     1448     1221      967      706 
     454      206      -40     -267     -460     -626     -766     -880 
    -977    -1077    -1183    -1279    -1360    -1433    -1493    -1520 
   -1513    -1501    -1485    -1453    -1428    -1431    -1449    -1478 
   -1516    -1555    -1587    -1607    -1613    -1595    -1551    -1498 
   -1453    -1414    -1383    -1367    -1358    -1343    -1329    -1313 
   -1283    -1228    -1143    -1020     -851     -646     -425     -187 
      76      359      638      920     1202     1466     1691     1880 
    2020     2081     2050     1933     1737     1475     1170      849 
     527      213      -87     -361     -608     -832    -1034    -1213 
   -1386    -1549    -1696    -1826    -1927    -1977    -1980    -1956 
   -1908    -1836    -1750    -1675    -1603    -1522    -1436    -1344 
   -1233    -1085     -912     -733     -546     -353     -171       -6 
     155      310      433      519      584      616      603      548 
     446      297      118      -56     -224     -384     -522     -642 
    -764     -881     -996    -1112    -1220    -1304    -1356    -1387 
   -1404    -1393    -1347    -1285    -1223    -1136    -1015     -878 
    -722     -530     -311      -79      170      445      724      990 
    1246     1491     1709     1890     2043     2160     2212     2185 
    2076     1884     1613     1283      899      459      -25     -540 
   -1077    -1618    -2143    -2637    -3090    -3481    -3786    -3998 
   -4135    -4201    -4186    -4106    -3987    -3838    -3654    -3445 
   -3231    -3001    -2725    -2424    -2107    -1752    -1351     -918 
    -445       70      610     1139     1637     2088     2488     2833 
    3126     3368     3551     3680     3766     3809     3812     3780 
    3701     3569     3389     3172     2905     2583     2216     1826 
    1416      989      567      160     -244     -656    -1057    -1439 
   -1817    -2196    -2556    -2897    -3233    -3554    -3835    -4063 
   -4230    -4321    -4329    -4261    -4128    -3913    -3612    -3245 
   -2837    -2401    -1957    -1530    -1127     -749     -402      -79 
     232      522      766      966     1134     1264     1352     1399 
    1408     1375     1306     1225     1142     1058      977      903 
     807      666      490      301       93     -144     -403     -679 
    -974    -1273    -1552    -1799    -2011    -2176    -2280    -2324 
   -2307    -2215    -2047    -1814    -1514    -1166     -787     -380 
      48      481      888     1267     1630     1965     2251     2493 
    2705     2886     3019     3102     3138     3106     2990     2797 
    2535     2200     1802     1364      900      418      -58     -514 
    -936    -1327    -1687    -2019    -2324    -2594    -2812    -2972 
   -3080    -3138    -3136    -3073    -2945    -2751    -2505    -2234 
   -1929    -1574    -1182     -777     -361       60      454      811 
    1131     1401     1603     1729     1783     1769     1690     1557 
    1393     1188      945      697      463      232       -8     -244 
    -453     -627     -760     -855     -940    -1023    -1092    -1154 
   -1210    -1240    -1242    -1227    -1206    -1163    -1078     -965 
    -841     -702     -545     -392     -256     -130      -16       63 
     106      132      132       94       39      -21     -106     -206 
    -286     -333     -349     -328     -267     -178      -76       25 
     114      179      214      228      207      147       58      -35 
    -128     -221     -297     -344     -379     -414     -452     -508 
    -602     -720     -831     -939    -1050    -1139    -1192    -1213 
   -1209    -1173    -1096    -1000     -900     -785     -660     -533 
    -388     -218      -32      163      371      562      714      819 
     870      853      761      611      409      155     -129     -422 
    -702     -954    -1167    -1325    -1440    -1528    -1588    -1628 
   -1664    -1694    -1702    -1682    -1644    -1590    -1503    -1393 
   -1264    -1119     -955     -792     -638     -487     -337     -194 
     -40      136      324      521      727      934     1124     1283 
    1412     1509     1576     1613     1626     1626     1621     1607 
    1584     1543     1472     1395     1325     1247     1159     1067 
     957      807      627      422      183      -83     -353     -618 
    -876    -1121    -1339    -1525    -1690    -1844    -1977    -2088 
   -2176    -2242    -2273    -2259    -2203    -2099    -1948    -1765 
   -1560    -1343    -1125     -911     -697     -492     -306     -140 
      16      162      268      338      398      446      465      460 
     441      392      302      186       48     -120     -313     -507 
    -697     -893    -1101    -1316    -1536    -1763    -1981    -2193 
   -2405    -2609    -2790    -2945    -3069    -3148    -3172    -3137 
   -3044    -2894    -2687    -2436    -2153    -1827    -1474    -1109 
    -716     -295      130      550      963     1356     1713     2027 
    2309     2554     2749     2905     3032     3123     3161     3154 
    3115     3034     2895     2700     2447     2126     1733     1278 
     765      201     -394    -1005    -1618    -2199    -2720    -3179 
   -3569    -3882    -4112    -4266    -4344    -4328    -4213    -4024 
   -3777    -3470    -3110    -2724    -2323    -1895    -1444     -988 
    -526      -55      405      839     1247     1618     1934     2197 
    2408     2559     2651     2687     2677     2628     2547     2439 
    2304     2142     1958     1760     1533     1271      982      672 
     334      -32     -402     -764    -1131    -1493    -1829    -2135 
   -2419    -2659    -2833    -2934    -2967    -2909    -2749    -2500 
   -2180    -1804    -1397     -989     -607     -251       81      378 
     641      872     1061     1221     1363     1464     1512     1507 
    1462     1372     1242     1078      886      657      396      122 
    -162     -457     -737     -967    -1161    -1343    -1493    -1593 
   -1655    -1684    -1664    -1598    -1509    -1398    -1258    -1096 
    -927     -747     -558     -373     -205      -55       60      136 
     184      207      205      193      182      175      180      206 
     252      313      373      426      464      484      477      453 
     427      382      311      240      175       98       12      -70 
    -156     -259     -372     -492     -626     -774     -930    -1085 
   -1244    -1395    -1516    -1594    -1630    -1618    -1560    -1462 
   -1318    -1138     -940     -739     -529     -298      -49      211 
     490      766     1020     1254     1472     1656     1782     1846 
    1867     1849     1790     1699     1588     1441     1240      996 
     726      426       97     -243     -575     -904    -1229    -1539 
   -1831    -2112    -2370    -2600    -2817    -3029    -3222    -3389 
   -3530    -3643    -3723    -3766    -3777    -3758    -3700    -3612 
   -3495    -3343    -3165    -2975    -2774    -2567    -2365    -2164 
   -1945    -1695    -1424    -1128     -805     -471     -141      193 
     534      868     1188     1493     1771     2010     2212     2392 
    2542     2655     2739     2810     2874     2922     2949     2957 
    2932     2864     2772     2658     2498     2289     2035     1742 
    1413     1061      710      360       10     -314     -618     -927 
   -1243    -1561    -1896    -2249    -2606    -2953    -3285    -3609 
   -3905    -4145    -4333    -4479    -4576    -4619    -4607    -4525 
   -4372    -4153    -3867    -3515    -3099    -2635    -2141    -1625 
   -1102     -588      -85      414      903     1372     1825     2246 
    2623     2940     3192     3373     3470     3488     3438     3322 
    3146     2934     2708     2459     2184     1896     1605     1305 
    1004      719      459      218        5     -180     -356     -530 
    -695     -843     -974    -1090    -1190    -1285    -1372    -1440 
   -1476    -1486    -1468    -1420    -1337    -1232    -1109     -963 
    -804     -648     -508     -399     -313     -251     -210     -175 
    -145     -129     -122     -129     -156     -199     -251     -314 
    -402     -500     -616     -764     -935    -1127    -1332    -1536 
   -1719    -1863    -1948    -1973    -1933    -1818    -1655    -1463 
   -1244    -1011     -787     -575     -369     -180      -14      136 
     272      394      503      604      688      760      824      865 
     868      826      742      623      465      265       51     -175 
    -419     -654     -868    -1063    -1240    -1391    -1513    -1615 
   -1707    -1783    -1834    -1872    -1900    -1911    -1902    -1877 
   -1833    -1767    -1695    -1614    -1498    -1341    -1158     -947 
    -714     -481     -270      -72      106      252      363      454 
     533      599      668      749      846      950     1067     1196 
    1314     1416     1502     1575     1626     1655     1667     1660 
    1618     1556     1487     1402     1306     1213     1124     1038 
     957      881      804      719      630      542      449      334 
     199       49     -129     -336     -562     -822    -1121    -1437 
   -1750    -2062    -2362    -2625    -2839    -3009    -3121    -3169 
   -3175    -3146    -3080    -2990    -2891    -2799    -2712    -2625 
   -2539    -2442    -2313    -2157    -1987    -1798    -1586    -1356 
   -1111     -837     -548     -260       22      302      565      801 
    1013     1208     1383     1553     1729     1903     2053     2172 
    2268     2334     2362     2367     2366     2347     2300     2236 
    2169     2080     1960     1810     1629     1408     1146      850 
     515      148     -220     -569     -905    -1235    -1541    -1819 
   -2079    -2313    -2521    -2718    -2909    -3084    -3234    -3361 
   -3451    -3487    -3457    -3368    -3214    -2974    -2656    -2284 
   -1865    -1417     -966     -525      -91      329      727     1097 
    1443     1756     2016     2230     2407     2539     2635     2713 
    2772     2817     2870     2938     3005     3048     3069     3067 
    3025     2932     2790     2617     2412     2178     1953     1736 
    1503     1263     1030      788      530      272        6     -280 
    -594     -922    -1271    -1638    -2015    -2401    -2797    -3192 
   -3582    -3947    -4274    -4550    -4753    -4874    -4928    -4907 
   -4797    -4603    -4324    -3951    -3497    -2997    -2463    -1911 
   -1367     -849     -353      120      569      981     1351     1684 
    1972     2192     2349     2448     2485     2458     2378     2235 
    2011     1707     1341      916      448      -36     -519     -997 
   -1456    -1876    -2245    -2558    -2798    -2956    -3052    -3096 
   -3075    -3002    -2886    -2722    -2516    -2284    -2046    -1809 
   -1578    -1367    -1163     -957     -754     -560     -363     -163 
      24      191      353      517      666      801      935     1059 
    1169     1267     1370     1467     1544     1606     1648     1660 
    1641     1609     1572     1526     1466     1413     1372     1337 
    1317     1312     1309     1310     1327     1359     1386     1398 
    1397     1359     1263     1111      913      669      378       56 
    -275     -618     -961    -1278    -1570    -1852    -2123    -2377 
   -2627    -2871    -3092    -3279    -3435    -3564    -3651    -3704 
   -3732    -3732    -3709    -3677    -3631    -3558    -3461    -3335 
   -3172    -2963    -2720    -2455    -2176    -1876    -1566    -1262 
    -958     -656     -372     -105      166      444      704      939 
    1162     1362     1521     1649     1756     1830     1873     1896 
    1892     1858     1800     1729     1647     1549     1429     1278 
    1093      880      653      418      186      -29     -220     -384 
    -525     -652     -754     -845     -939    -1030    -1115    -1202 
   -1285    -1354    -1414    -1459    -1478    -1459    -1404    -1328 
   -1243    -1159    -1086    -1013     -942     -882     -818     -738 
    -638     -519     -383     -229      -62      110      278      442 
     604      756      901     1051     1193     1313     1416     1490 
    1512     1468     1364     1197      965      692      405       97 
    -228     -544     -842    -1128    -1393    -1622    -1815    -1984 
   -2115    -2196    -2253    -2303    -2331    -2338    -2334    -2312 
   -2258    -2172    -2057    -1906    -1706    -1470    -1208     -912 
    -584     -249       83      414      730     1016     1279     1528 
    1752     1939     2083     2173     2205     2195     2149     2062 
    1935     1772     1584     1371     1124      854      573      272 
     -49     -382     -718    -1055    -1381    -1683    -1965    -2220 
   -2438    -2609    -2740    -2829    -2863    -2848    -2803    -2714 
   -2565    -2363    -2115    -1818    -1476    -1100     -702     -278 
     163      595     1008     1402     1755     2046     2281     2467 
    2592     2648     2651     2606     2501     2344     2161     1954 
    1729     1499     1278     1061      839      615      392      159 
     -86     -325     -556     -781     -985    -1162    -1327    -1485 
   -1626    -1746    -1844    -1906    -1923    -1914    -1891    -1846 
   -1775    -1698    -1622    -1545    -1466    -1389    -1320    -1251 
   -1179    -1119    -1067    -1021     -992     -977     -969     -967 
    -973     -978     -969     -946     -920     -876     -792     -681 
    -556     -406     -247      -93       54      197      330      454 
     569      670      753      812      850      869      861      827 
     787      746      700      654      619      584      541      498 
     456      394      310      218      118        4     -126     -260 
    -396     -538     -675     -792     -904    -1011    -1093    -1152 
   -1208    -1250    -1266    -1260    -1235    -1178    -1093     -984 
    -851     -700     -542     -386     -236     -101       10       83 
     116      117       87       27      -47     -121     -207     -311 
    -418     -529     -652     -770     -868     -951    -1028    -1080 
   -1096    -1089    -1057     -992     -905     -810     -703     -594 
    -504     -444     -405     -386     -384     -384     -372     -348 
    -315     -274     -211     -141      -66       16       89      137 
     163      168      149       95       13      -86     -198     -326 
    -457     -580     -699     -818     -923    -1005    -1063    -1084 
   -1063    -1021     -970     -896     -811     -730     -653     -580 
    -507     -430     -345     -243     -132      -25       75      168 
     243      297      342      373      383      378      368      348 
     317      292      279      267      252      237      222      205 
     184      163      143      114       75       37      -10      -81 
    -157     -237     -337     -449     -561     -687     -827     -970 
   -1109    -1242    -1362    -1466    -1553    -1626    -1682    -1717 
   -1730    -1726    -1699    -1651    -1594    -1532    -1452    -1355 
   -1254    -1150    -1026     -880     -731     -583     -440     -334 
    -274     -248     -251     -299     -394     -511     -650     -819 
   -1001    -1182    -1360    -1525    -1657    -1750    -1809    -1829 
   -1810    -1752    -1665    -1551    -1409    -1250    -1075     -876 
    -649     -406     -143      145      440      722      984     1225 
    1444     1633     1796     1937     2041     2101     2135     2141 
    2108     2046     1954     1815     1620     1377     1097      777 
     429       81     -256     -585     -897    -1183    -1456    -1713 
   -1929    -2104    -2247    -2353    -2411    -2421    -2394    -2327 
   -2216    -2079    -1918    -1722    -1493    -1244     -984     -703 
    -398      -85      228      549      862     1146     1402     1636 
    1836     2003     2150     2277     2367     2419     2428     2389 
    2296     2149     1952     1710     1428     1113      772      398 
      -9     -436     -876    -1333    -1794    -2239    -2663    -3067 
   -3433    -3759    -4052    -4307    -4509    -4650    -4745    -4784 
