Origin Time       2025/01/13 21:19:00
Lat.              31.8
Long.             131.6
Depth. (km)       30
Mag.              6.9
Station Code      FKO011
Station Lat.      33.3237
Station Long.     130.5118
Station Height(m) 10
Record Time       2025/01/13 21:20:09
Sampling Freq(Hz) 100Hz
Duration Time(s)  113
Dir.              E-W
Scale Factor      7845(gal)/8223790
Max. Acc. (gal)   10.558
Last Correction   2025/01/13 21:20:10
Memo.             
[...]
    8490     8665     8741     8712     8600     8448     8314     8221 
    8128     7969     7728     7458     7225     7079     7020     7003 
    6998     6974     6933     6971     7219     7684     8206     8615 
    8834     8847     8703     8526     8422     8356     8222     7978 
    7665     7344     7079     6920     6839     6759     6627     6420 
    6178     6002     5977     6110     6357     6671     6997     7279 
    7524     7777     8048     8313     8530     8699     8865     9051 
    9263     9487     9656     9699     9589     9367     9150     8996 
    8877     8764     8621     8421     8166     7882     7605     7365 
    7169     7036     6997     7055     7176     7303     7383     7419 
    7479     7614     7836     8095     8267     8257     8056     7740 
    7445     7238     7082     6926     6723     6432     6075     5713 
    5440     5309     5301     5398     5618     5961     6385     6816 
    7195     7512     7793     8091     8452     8842     9173     9404 
    9528     9539     9454     9317     9170     9015     8830     8602 
    8349     8095     7857     7645     7470     7344     7291     7327 
    7434     7623     7892     8203     8517     8807     9049     9208 
    9277     9302     9328     9321     9242     9065     8758     8322 
    7804     7263     6737     6218     5710     5246     4831     4494 
    4284     4226     4326     4563     4884     5254     5621     5922 
    6158     6373     6575     6758     6944     7167     7415     7668 
    7943     8225     8424     8480     8464     8482     8600     8827 
    9130     9440     9690     9809     9802     9757     9705     9622 
    9525     9439     9373     9331     9306     9282     9213     9112 
    9089     9217     9463     9728     9849     9718     9363     8857 
    8284     7789     7465     7252     7029     6741     6409     6053 
    5684     5379     5250     5335     5568     5865     6165     6399 
    6489     6453     6382     6324     6277     6235     6178     6083 
    5938     5790     5707     5694     5694     5692     5729     5880 
    6211     6717     7356     8044     8667     9143     9483     9729 
    9936    10119    10235    10241    10116     9873     9587     9337 
    9140     8969     8795     8607     8430     8337     8398     8542 
    8623     8600     8496     8340     8202     8145     8158     8198 
    8235     8249     8226     8163     8087     8037     7997     7939 
    7855     7754     7678     7622     7535     7447     7415     7420 
    7418     7387     7315     7180     6976     6775     6639     6520 
    6363     6200     6077     6007     5968     5938     5900     5827 
    5738     5684     5707     5844     6103     6443     6833     7250 
    7663     8068     8463     8804     9054     9225     9363     9478 
    9547     9555     9509     9428     9324     9221     9165     9194 
    9298     9405     9444     9398     9305     9240     9239     9262 
    9265     9208     9074     8903     8743     8613     8490     8298 
    7971     7516     6988     6473     6069     5764     5486     5219 
    4912     4550     4226     4020     3998     4222     4654     5169 
    5632     5975     6247     6559     6997     7546     8052     8391 
    8527     8457     8272     8114     8064     8121     8213     8275 
    8283     8233     8143     8037     7951     7935     8017     8199 
    8503     8876     9178     9348     9412     9424     9445     9506 
    9585     9630     9601     9468     9219     8883     8561     8311 
    8135     8058     8087     8214     8395     8507     8446     8222 
    7886     7515     7184     6912     6686     6492     6307     6116 
    5958     5871     5837     5829     5852     5914     6006     6108 
    6234     6397     6585     6795     7042     7325     7616     7847 
    7959     7978     7947     7893     7865     7888     7925     7950 
    7939     7882     7797     7705     7626     7565     7538     7572 
    7693     7896     8135     8314     8345     8239     8062     7875 
    7739     7682     7695     7750     7813     7861     7932     8060 
    8249     8509     8822     9169     9539     9849     9994     9968 
    9837     9634     9387     9119     8787     8355     7894     7476 
    7098     6781     6563     6413     6295     6239     6277     6374 
    6513     6685     6871     7088     7353     7658     7966     8198 
    8291     8257     8160     8066     7978     7817     7523     7128 
    6710     6349     6107     6006     6015     6108     6273     6500 
    6771     7087     7454     7851     8236     8581     8877     9100 
    9236     9292     9267     9151     8939     8681     8434     8224 
    8082     8013     7952     7831     7619     7353     7118     7013 
    7086     7271     7460     7597     7715     7870     8063     8255 
    8403     8500     8590     8706     8842     8978     9081     9099 
    9015     8860     8673     8486     8305     8118     7935     7765 
    7619     7520     7462     7404     7329     7229     7114     7007 
    6916     6849     6825     6828     6843     6851     6840     6824 
    6810     6822     6901     7024     7128     7180     7164     7080 
    6986     6918     6894     6948     7059     7168     7300     7497 
    7758     8091     8483     8870     9192     9400     9491     9508 
    9463     9327     9065     8668     8167     7634     7122     6667 
    6316     6104     6046     6187     6538     7002     7462     7847 
    8131     8363     8631     8958     9243     9396     9431     9375 
    9232     9042     8820     8523     8148     7749     7368     7005 
    6624     6219     5826     5487     5246     5135     5161     5336 
    5682     6165     6716     7291     7836     8290     8668     8986 
    9221     9371     9448     9452     9359     9158     8891     8588 
    8249     7919     7641     7423     7280     7190     7106     7026 
    6964     6925     6926     6976     7060     7172     7337     7584 
    7898     8270     8694     9119     9466     9682     9741     9661 
    9487     9252     8993     8710     8368     7983     7608     7252 
    6922     6658     6478     6413     6496     6705     6991     7300 
    7562     7739     7866     7992     8122     8218     8237     8148 
    7954     7700     7434     7210     7086     7065     7096     7121 
    7092     6998     6871     6770     6763     6880     7080     7291 
    7437     7466     7402     7302     7230     7204     7204     7217 
    7234     7248     7275     7330     7406     7480     7528     7562 
    7620     7731     7920     8201     8521     8789     8941     8953 
    8849     8704     8600     8595     8702     8834     8872     8765 
    8538     8268     8041     7916     7879     7844     7743     7550 
    7253     6889     6542     6266     6089     6030     6077     6201 
    6362     6504     6590     6625     6659     6772     7011     7349 
    7701     7978     8133     8172     8137     8075     8009     7935 
    7820     7624     7360     7084     6837     6628     6443     6277 
    6123     5983     5871     5822     5856     6006     6305     6706 
    7119     7483     7793     8089     8417     8820     9289     9730 
   10080    10307    10389    10358    10251    10054     9784     9485 
    9111     8622     8070     7538     7109     6835     6694     6632 
    6625     6669     6768     6945     7225     7605     8031     8455 
    8861     9216     9481     9629     9644     9529     9306     9005 
    8667     8320     8000     7708     7443     7242     7113     7047 
    7067     7168     7312     7507     7740     7966     8151     8270 
    8291     8214     8058     7842     7627     7452     7299     7138 
    6968     6797     6620     6462     6374     6363     6408     6498 
    6623     6771     6970     7241     7547     7809     7986     8086 
    8118     8117     8132     8162     8171     8154     8112     8032 
    7911     7751     7562     7358     7152     6960     6810     6706 
    6598     6484     6388     6322     6316     6407     6608     6902 
    7206     7464     7661     7800     7924     8056     8168     8255 
    8318     8353     8384     8434     8510     8607     8712     8833 
    8989     9186     9417     9653     9852    10006    10146    10287 
   10424    10546    10615    10615    10555    10461    10354    10210 
    9975     9632     9167     8591     7947     7258     6546     5849 
    5196     4602     4081     3638     3291     3045     2903     2859 
    2880     2943     3045     3219     3492     3834     4209     4595 
    4955     5285     5620     5968     6330     6725     7148     7562 
    7936     8240     8457     8614     8762     8943     9178     9460 
    9748     9996    10207    10390    10566    10771    11016    11302 
   11622    11955    12259    12479    12576    12548    12386    12094 
   11720    11286    10771    10146     9402     8576     7682     6764 
    5922     5200     4599     4163     3889     3730     3646     3600 
    3623     3800     4148     4600     5078     5495     5782     5907 
    5881     5760     5590     5387     5171     4966     4814     4768 
    4838     5043     5400     5879     6466     7125     7807     8473 
    9077     9594    10022    10345    10566    10710    10804    10867 
   10882    10829    10717    10523    10230     9867     9470     9082 
    8729     8418     8171     8027     7998     8040     8104     8195 
    8334     8509     8718     8949     9154     9298     9377     9374 
    9269     9050     8731     8341     7894     7387     6824     6249 
    5687     5136     4612     4162     3831     3659     3647     3781 
    4056     4455     4972     5622     6385     7226     8132     9047 
    9915    10682    11291    11751    12071    12185    12078    11794 
   11346    10739    10022     9301     8671     8164     7771     7481 
    7279     7111     6971     6902     6917     6995     7101     7172 
    7182     7155     7134     7137     7141     7130     7105     7060 
    7017     6993     6961     6902     6817     6704     6539     6322 
    6072     5810     5557     5332     5151     5038     4978     4953 
    4988     5104     5301     5610     6039     6542     7055     7551 
    8051     8544     8968     9271     9450     9510     9463     9370 
    9304     9281     9281     9300     9363     9474     9606     9740 
    9877     9995    10076    10156    10255    10336    10353    10284 
   10103     9821     9509     9235     8985     8704     8371     7990 
    7591     7227     6925     6691     6531     6415     6331     6291 
    6289     6280     6257     6316     6494     6710     6929     7182 
    7445     7695     7932     8129     8224     8228     8198     8137 
    8056     7990     7936     7892     7873     7894     7971     8127 
    8348     8590     8827     9050     9197     9246     9247     9216 
    9113     8939     8730     8538     8382     8232     8104     8023 
    8014     8109     8297     8545     8804     9031     9212     9354 
    9471     9563     9609     9589     9475     9265     9001     8733 
    8494     8302     8135     7956     7755     7555     7393     7307 
    7300     7306     7275     7215     7132     7034     6939     6791 
    6559     6250     5873     5454     5022     4602     4205     3819 
    3481     3252     3164     3233     3404     3630     3897     4168 
    4442     4738     5008     5227     5402     5526     5580     5553 
    5445     5275     5082     4874     4673     4558     4541     4573 
    4680     4922     5313     5834     6442     7106     7804     8507 
    9220     9948    10651    11273    11724    11956    12027    11986 
   11859    11697    11508    11264    10980    10701    10430    10191 
   10022     9910     9829     9736     9614     9512     9468     9493 
    9552     9570     9522     9405     9185     8888     8615     8444 
    8379     8352     8307     8253     8202     8168     8183     8235 
    8274     8274     8214     8089     7946     7807     7631     7422 
    7190     6910     6608     6316     6046     5844     5724     5674 
    5725     5875     6064     6259     6440     6581     6708     6878 
    7074     7230     7300     7277     7177     7003     6782     6554 
    6320     6072     5810     5540     5289     5107     5036     5082 
    5229     5486     5857     6331     6882     7487     8137     8877 
    9710    10547    11299    11923    12375    12610    12617    12436 
   12097    11603    10975    10257     9516     8804     8139     7527 
    6953     6385     5832     5310     4828     4418     4106     3925 
    3920     4071     4307     4591     4909     5252     5640     6091 
    6606     7168     7720     8233     8689     9063     9358     9576 
    9730     9829     9861     9825     9722     9544     9301     9039 
    8810     8657     8618     8706     8903     9142     9333     9439 
    9483     9498     9524     9556     9549     9490     9373     9196 
    9011     8849     8727     8691     8735     8820     8942     9080 
    9197     9277     9282     9166     8924     8575     8139     7615 
    6971     6204     5321     4357     3392     2474     1641      959 
     459      129      -60     -139      -56      220      675     1306 
    2079     2932     3877     4938     6091     7315     8625    10011 
   11421    12792    14065    15191    16159    17003    17737    18311 
   18662    18786    18713    18453    18013    17460    16865    16244 
   15619    15003    14412    13867    13347    12826    12314    11781 
   11169    10480     9721     8872     7932     6926     5902     4858 
    3784     2758     1856     1039      272     -434    -1085    -1663 
   -2139    -2478    -2628    -2600    -2450    -2170    -1702    -1026 
    -164      849     1950     3060     4152     5219     6208     7095 
    7896     8619     9271     9837    10278    10615    10898    11142 
   11360    11550    11695    11778    11803    11796    11762    11676 
   11560    11429    11257    11090    10937    10737    10485    10165 
    9744     9278     8799     8318     7875     7447     7026     6663 
    6358     6057     5714     5293     4792     4268     3798     3410 
    3053     2724     2486     2384     2407     2542     2802     3191 
    3642     4118     4634     5158     5613     5952     6189     6399 
    6619     6862     7176     7562     7947     8337     8787     9309 
    9892    10521    11198    11892    12518    13057    13508    13809 
   13887    13717    13360    12888    12309    11631    10841     9925 
    8934     7962     7103     6421     5937     5643     5537     5632 
    5906     6319     6824     7373     7973     8622     9242     9742 
   10115    10380    10539    10608    10592    10431    10087     9582 
    8937     8187     7396     6613     5881     5217     4658     4249 
    3975     3800     3735     3811     4028     4352     4753     5205 
    5687     6185     6682     7144     7565     7943     8266     8540 
    8749     8839     8811     8702     8552     8407     8297     8224 
    8185     8178     8183     8205     8287     8437     8650     8923 
    9217     9513     9780     9968    10077    10115    10053     9882 
    9609     9250     8826     8379     7943     7523     7134     6758 
    6357     5956     5605     5324     5123     5027     5051     5170 
    5358     5579     5802     6006     6156     6237     6264     6255 
    6243     6253     6285     6328     6354     6355     6369     6423 
    6539     6732     6948     7121     7246     7327     7369     7406 
    7449     7473     7445     7361     7230     7055     6867     6732 
    6689     6739     6871     7069     7292     7507     7713     7902 
    8056     8198     8355     8494     8588     8630     8576     8413 
    8168     7858     7508     7155     6818     6536     6313     6120 
    5944     5786     5684     5664     5709     5796     5927     6089 
    6289     6529     6785     7052     7353     7696     8073     8449 
    8803     9117     9379     9585     9732     9830     9888     9907 
    9909     9896     9848     9756     9637     9522     9440     9396 
    9369     9327     9251     9163     9111     9130     9215     9340 
    9493     9671     9861    10018    10108    10138    10107    10012 
    9853     9609     9290     8949     8610     8268     7929     7624 
    7389     7258     7240     7304     7415     7550     7688     7819 
    7932     8002     8016     7962     7832     7665     7493     7300 
    7094     6894     6716     6569     6447     6342     6243     6130 
    5994     5837     5651     5449     5244     5059     4930     4812 
    4671     4536     4406     4288     4233     4270     4417     4680 
    5030     5433     5886     6388     6937     7511     8098     8684 
    9215     9657    10008    10296    10561    10801    10993    11144 
   11272    11396    11545    11722    11921    12137    12345    12501 
   12568    12534    12384    12131    11807    11445    11053    10600 
   10083     9552     9024     8505     8023     7595     7233     6937 
    6679     6435     6185     5931     5671     5391     5100     4795 
    4460     4125     3816     3539     3283     3003     2700     2419 
    2185     1983     1791     1626     1525     1525     1652     1907 
    2293     2794     3365     4001     4738     5586     6529     7543 
    8606     9668    10650    11481    12155    12692    13136    13524 
   13859    14139    14361    14526    14642    14689    14665    14563 
   14380    14146    13891    13582    13197    12734    12185    11580 
   10930    10207     9408     8565     7690     6798     5891     4982 
    4094     3241     2452     1737     1094      544       94     -256 
    -513     -679     -762     -747     -607     -341        8      394 
     804     1255     1756     2301     2875     3427     3929     4379 
    4769     5117     5464     5819     6174     6556     6968     7388 
    7804     8253     8773     9360     9987    10656    11371    12079 
   12746    13386    13964    14447    14845    15157    15395    15587 
   15708    15736    15700    15638    15556    15430    15241    14978 
   14621    14143    13559    12883    12128    11337    10531     9725 
    8922     8127     7400     6809     6355     6034     5857     5823 
    5899     5995     6019     5945     5829     5729     5625     5456 
    5205     4884     4518     4147     3782     3418     3049     2710 
    2431     2219     2083     2007     1984     2042     2162     2284 
    2390     2502     2639     2806     3011     3280     3635     4071 
    4571     5128     5730     6347     6980     7638     8301     8978 
    9699    10443    11171    11871    12556    13250    13930    14562 
   15148    15689    16154    16509    16737    16849    16846    16748 
   16603    16399    16092    15673    15144    14532    13872    13147 
   12347    11481    10571     9651     8716     7732     6700     5634 
    4553     3468     2396     1391      500     -263     -866    -1308 
   -1638    -1869    -2004    -2054    -2014    -1888    -1660    -1310 
    -847     -280      359     1005     1624     2230     2843     3501 
    4234     5035     5886     6779     7717     8657     9536    10338 
