Origin Time       2025/01/13 21:19:00
Lat.              31.8
Long.             131.6
Depth. (km)       30
Mag.              6.9
Station Code      FKO011
Station Lat.      33.3237
Station Long.     130.5118
Station Height(m) 10
Record Time       2025/01/13 21:20:09
Sampling Freq(Hz) 100Hz
Duration Time(s)  113
Dir.              N-S
Scale Factor      7845(gal)/8223790
Max. Acc. (gal)   12.117
Last Correction   2025/01/13 21:20:10
Memo.             
[...]
   -7211    -6976    -6710    -6453    -6265    -6187    -6212    -6346 
   -6573    -6849    -7134    -7407    -7668    -7917    -8127    -8295 
   -8438    -8569    -8712    -8888    -9108    -9378    -9661    -9926 
  -10179   -10404   -10574   -10683   -10708   -10646   -10550   -10443 
  -10291   -10085    -9837    -9525    -9159    -8785    -8452    -8194 
   -8039    -8001    -8089    -8294    -8615    -9031    -9513   -10039 
  -10619   -11280   -12006   -12762   -13540   -14276   -14913   -15466 
  -15959   -16424   -16893   -17351   -17739   -18013   -18176   -18239 
  -18216   -18118   -17969   -17786   -17539   -17216   -16837   -16390 
  -15884   -15341   -14755   -14143   -13535   -12915   -12279   -11642 
  -10994   -10334    -9674    -9034    -8449    -7924    -7439    -6995 
   -6610    -6284    -6000    -5751    -5521    -5319    -5165    -5058 
   -4965    -4870    -4814    -4835    -4957    -5184    -5517    -5954 
   -6474    -7047    -7655    -8286    -8897    -9462    -9969   -10365 
  -10577   -10613   -10524   -10351   -10138    -9933    -9744    -9559 
   -9386    -9198    -8964    -8698    -8413    -8108    -7796    -7508 
   -7290    -7137    -7005    -6890    -6820    -6822    -6949    -7248 
   -7727    -8361    -9096    -9871   -10628   -11315   -11905   -12367 
  -12650   -12726   -12588   -12226   -11682   -11086   -10519    -9961 
   -9408    -8847    -8260    -7686    -7199    -6856    -6702    -6741 
   -6945    -7317    -7862    -8530    -9310   -10181   -11079   -12033 
  -13109   -14243   -15307   -16256   -17095   -17801   -18339   -18675 
  -18777   -18642   -18322   -17863   -17274   -16583   -15823   -14960 
  -13954   -12825   -11616   -10404    -9240    -8133    -7137    -6320 
   -5698    -5271    -5001    -4827    -4725    -4675    -4646    -4618 
   -4591    -4612    -4734    -4947    -5213    -5532    -5927    -6393 
   -6902    -7431    -7956    -8438    -8866    -9238    -9525    -9742 
   -9956   -10238   -10616   -11053   -11512   -11994   -12538   -13142 
  -13755   -14354   -14917   -15402   -15796   -16097   -16285   -16344 
  -16263   -16051   -15750   -15390   -14949   -14428   -13813   -13058 
  -12206   -11321   -10438    -9634    -8957    -8376    -7874    -7487 
   -7256    -7204    -7346    -7655    -8087    -8564    -9015    -9441 
   -9887   -10366   -10863   -11368   -11850   -12276   -12648   -12977 
  -13271   -13491   -13549   -13367   -12930   -12285   -11500   -10652 
   -9807    -8980    -8179    -7441    -6808    -6308    -5977    -5844 
   -5898    -6088    -6335    -6600    -6905    -7225    -7501    -7746 
   -7970    -8167    -8382    -8656    -8970    -9301    -9641    -9958 
  -10237   -10500   -10717   -10847   -10926   -11006   -11084   -11172 
  -11298   -11465   -11685   -11967   -12293   -12614   -12915   -13177 
  -13390   -13606   -13860   -14127   -14378   -14548   -14582   -14466 
  -14199   -13776   -13236   -12656   -12063   -11426   -10739   -10039 
   -9378    -8802    -8338    -8021    -7861    -7838    -7943    -8187 
   -8525    -8897    -9271    -9617    -9926   -10193   -10385   -10496 
  -10550   -10524   -10363   -10092    -9778    -9436    -9104    -8810 
   -8507    -8175    -7809    -7389    -6943    -6532    -6165    -5844 
   -5607    -5471    -5421    -5449    -5548    -5714    -5944    -6227 
   -6548    -6887    -7218    -7524    -7798    -8039    -8239    -8380 
   -8457    -8459    -8406    -8376    -8437    -8625    -8961    -9443 
  -10038   -10733   -11516   -12347   -13205   -14064   -14850   -15535 
  -16140   -16640   -17011   -17240   -17289   -17173   -16954   -16646 
  -16264   -15859   -15446   -15006   -14531   -14026   -13520   -13049 
  -12644   -12302   -12009   -11765   -11546   -11326   -11105   -10885 
  -10663   -10455   -10285   -10180   -10152   -10165   -10161   -10110 
   -9973    -9730    -9421    -9086    -8726    -8347    -7932    -7452 
   -6905    -6330    -5778    -5313    -4982    -4791    -4720    -4761 
   -4891    -5111    -5451    -5900    -6446    -7078    -7744    -8429 
   -9127    -9794   -10400   -10921   -11319   -11603   -11794   -11881 
  -11866   -11793   -11680   -11526   -11352   -11172   -10994   -10840 
  -10720   -10613   -10513   -10416   -10316   -10227   -10154   -10080 
  -10008    -9948    -9896    -9868    -9863    -9856    -9822    -9756 
   -9659    -9531    -9371    -9186    -9005    -8849    -8679    -8476 
   -8275    -8120    -8060    -8125    -8309    -8576    -8896    -9247 
   -9634   -10123   -10756   -11481   -12237   -13007   -13756   -14467 
  -15136   -15727   -16225   -16630   -16903   -17012   -16938   -16661 
  -16194   -15573   -14802   -13883   -12841   -11718   -10559    -9428 
   -8376    -7420    -6574    -5868    -5312    -4926    -4716    -4644 
   -4668    -4779    -4955    -5202    -5528    -5903    -6299    -6709 
   -7138    -7588    -8071    -8610    -9198    -9807   -10422   -11025 
  -11612   -12174   -12687   -13155   -13599   -13990   -14315   -14596 
  -14818   -14945   -14945   -14801   -14513   -14100   -13572   -12945 
  -12256   -11541   -10825   -10164    -9560    -8984    -8449    -8008 
   -7684    -7489    -7412    -7425    -7518    -7681    -7886    -8139 
   -8456    -8802    -9135    -9450    -9761   -10068   -10370   -10706 
  -11079   -11446   -11774   -12015   -12144   -12183   -12133   -11988 
  -11734   -11353   -10854   -10242    -9536    -8791    -8075    -7456 
   -6959    -6585    -6342    -6250    -6309    -6508    -6837    -7280 
   -7794    -8344    -8918    -9479   -10004   -10516   -11009   -11439 
  -11826   -12195   -12541   -12862   -13131   -13305   -13429   -13551 
  -13664   -13782   -13940   -14138   -14346   -14542   -14697   -14787 
  -14825   -14835   -14809   -14728   -14567   -14293   -13921   -13510 
  -13101   -12692   -12262   -11811   -11348   -10887   -10423    -9937 
   -9432    -8907    -8390    -7931    -7512    -7086    -6663    -6293 
   -6014    -5836    -5773    -5830    -5995    -6282    -6686    -7150 
   -7639    -8125    -8587    -9008    -9333    -9535    -9613    -9540 
   -9320    -8984    -8522    -7994    -7495    -7052    -6664    -6327 
   -6039    -5810    -5655    -5593    -5617    -5733    -5930    -6185 
   -6505    -6930    -7476    -8105    -8783    -9504   -10247   -11014 
  -11796   -12563   -13298   -13995   -14650   -15273   -15838   -16295 
  -16611   -16776   -16810   -16727   -16514   -16174   -15749   -15286 
  -14812   -14338   -13879   -13437   -13022   -12671   -12394   -12164 
  -11975   -11813   -11646   -11460   -11249   -11001   -10702   -10346 
   -9919    -9431    -8919    -8409    -7904    -7418    -6979    -6594 
   -6270    -6037    -5903    -5877    -5972    -6176    -6471    -6853 
   -7302    -7792    -8311    -8834    -9319    -9752   -10131   -10440 
  -10644   -10717   -10636   -10399   -10041    -9614    -9153    -8662 
   -8174    -7719    -7264    -6764    -6250    -5773    -5371    -5077 
   -4922    -4905    -5004    -5185    -5440    -5803    -6305    -6940 
   -7663    -8402    -9120    -9811   -10454   -11044   -11560   -11970 
  -12283   -12490   -12595   -12648   -12675   -12710   -12775   -12858 
  -12977   -13136   -13305   -13468   -13656   -13879   -14111   -14362 
  -14659   -14955   -15188   -15336   -15377   -15294   -15070   -14692 
  -14149   -13444   -12598   -11637   -10594    -9540    -8517    -7553 
   -6673    -5871    -5151    -4585    -4230    -4078    -4141    -4444 
   -4959    -5638    -6440    -7326    -8283    -9285   -10292   -11263 
  -12124   -12829   -13347   -13636   -13706   -13581   -13212   -12588 
  -11754   -10743    -9628    -8502    -7416    -6407    -5502    -4746 
   -4218    -3977    -4031    -4364    -4954    -5759    -6732    -7821 
   -8973   -10156   -11303   -12330   -13203   -13911   -14436   -14782 
  -14963   -14986   -14828   -14521   -14127   -13648   -13096   -12545 
  -12040   -11596   -11221   -10909   -10673   -10563   -10555   -10601 
  -10706   -10862   -11059   -11313   -11596   -11850   -12021   -12091 
  -12067   -11962   -11769   -11508   -11223   -10908   -10557   -10174 
   -9757    -9329    -8942    -8630    -8419    -8380    -8557    -8927 
   -9479   -10233   -11146   -12155   -13225   -14311   -15356   -16321 
  -17189   -17930   -18535   -19021   -19394   -19639   -19741   -19691 
  -19475   -19105   -18598   -17968   -17250   -16480   -15684   -14908 
  -14165   -13448   -12756   -12067   -11349   -10600    -9840    -9103 
   -8429    -7834    -7310    -6871    -6502    -6197    -5985    -5880 
   -5859    -5900    -5985    -6097    -6219    -6335    -6453    -6570 
   -6677    -6794    -6976    -7234    -7557    -7940    -8391    -8932 
   -9533   -10118   -10636   -11075   -11426   -11676   -11811   -11777 
  -11515   -11021   -10328    -9497    -8600    -7676    -6729    -5783 
   -4851    -3933    -3065    -2265    -1521     -870     -361       16 
     291      467      525      448      238      -72     -488    -1019 
   -1642    -2326    -3028    -3715    -4376    -5007    -5625    -6250 
   -6856    -7443    -8027    -8615    -9238    -9926   -10687   -11510 
  -12368   -13248   -14110   -14906   -15669   -16434   -17180   -17882 
  -18496   -18956   -19252   -19379   -19348   -19206   -18990   -18692 
  -18281   -17749   -17073   -16256   -15412   -14643   -13973   -13424 
  -13004   -12691   -12494   -12464   -12614   -12915   -13336   -13849 
  -14450   -15157   -15979   -16906   -17878   -18814   -19661   -20387 
  -20965   -21355   -21516   -21408   -21001   -20317   -19390   -18237 
  -16907   -15473   -13972   -12426   -10862    -9305    -7808    -6416 
   -5163    -4074    -3179    -2479    -1942    -1543    -1246     -990 
    -769     -596     -464     -390     -402     -476     -588     -741 
    -922    -1124    -1372    -1675    -2027    -2444    -2910    -3407 
   -3962    -4588    -5304    -6143    -7094    -8129    -9238   -10374 
  -11465   -12441   -13267   -13940   -14458   -14829   -15045   -15086 
  -14931   -14588   -14089   -13454   -12715   -11923   -11097   -10251 
   -9396    -8552    -7747    -7001    -6350    -5859    -5559    -5456 
   -5557    -5857    -6350    -7038    -7900    -8895    -9983   -11121 
  -12268   -13390   -14432   -15315   -16016   -16557   -16977   -17300 
  -17493   -17543   -17469   -17257   -16920   -16505   -16067   -15657 
  -15286   -14945   -14629   -14342   -14053   -13725   -13360   -12937 
  -12480   -12063   -11682   -11298   -10889   -10453   -10021    -9613 
   -9213    -8830    -8482    -8176    -7943    -7777    -7627    -7485 
   -7376    -7299    -7230    -7148    -7028    -6855    -6639    -6390 
   -6073    -5670    -5178    -4615    -4032    -3480    -2975    -2523 
   -2161    -1934    -1844    -1894    -2108    -2521    -3148    -3943 
   -4881    -5962    -7150    -8428    -9780   -11130   -12394   -13548 
  -14577   -15469   -16232   -16858   -17309   -17577   -17672   -17609 
  -17428   -17176   -16865   -16476   -15975   -15354   -14627   -13818 
  -12941   -12020   -11105   -10204    -9313    -8457    -7657    -6903 
   -6203    -5540    -4897    -4302    -3782    -3350    -3037    -2882 
   -2894    -3055    -3327    -3707    -4226    -4901    -5697    -6574 
   -7495    -8399    -9286   -10192   -11098   -11954   -12765   -13568 
  -14382   -15221   -16069   -16883   -17640   -18308   -18844   -19244 
  -19533   -19723   -19824   -19850   -19786   -19583   -19236   -18783 
  -18249   -17614   -16823   -15840   -14706   -13471   -12164   -10836 
   -9526    -8251    -7049    -5968    -5049    -4357    -3913    -3663 
   -3570    -3623    -3793    -4072    -4445    -4864    -5331    -5879 
   -6478    -7088    -7726    -8398    -9104    -9849   -10633   -11461 
  -12340   -13236   -14077   -14810   -15396   -15804   -16054   -16197 
  -16220   -16077   -15739   -15222   -14582   -13857   -13057   -12229 
  -11402   -10538    -9614    -8661    -7728    -6878    -6164    -5587 
   -5157    -4887    -4735    -4656    -4661    -4757    -4919    -5140 
   -5421    -5729    -6057    -6407    -6755    -7123    -7524    -7906 
   -8237    -8499    -8676    -8784    -8869    -8977    -9104    -9234 
   -9381    -9556    -9747    -9930   -10126   -10412   -10802   -11246 
  -11726   -12244   -12791   -13367   -13952   -14493   -15002   -15485 
  -15896   -16218   -16444   -16561   -16576   -16475   -16202   -15734 
  -15098   -14322   -13433   -12482   -11488   -10480    -9505    -8568 
   -7684    -6913    -6299    -5845    -5570    -5474    -5510    -5655 
   -5907    -6227    -6563    -6871    -7125    -7327    -7468    -7527 
   -7527    -7499    -7442    -7380    -7335    -7291    -7253    -7249 
   -7275    -7339    -7438    -7535    -7631    -7754    -7909    -8101 
   -8365    -8710    -9084    -9471    -9892   -10334   -10771   -11199 
  -11595   -11942   -12237   -12472   -12622   -12677   -12621   -12447 
  -12209   -11959   -11718   -11503   -11330   -11195   -11090   -11029 
  -11051   -11188   -11461   -11873   -12430   -13119   -13876   -14598 
  -15211   -15701   -16081   -16367   -16546   -16572   -16447   -16213 
  -15889   -15488   -15075   -14717   -14427   -14203   -14035   -13900 
  -13806   -13752   -13709   -13676   -13648   -13621   -13587   -13518 
  -13400   -13224   -12999   -12756   -12518   -12303   -12117   -11919 
  -11666   -11326   -10894   -10380    -9774    -9088    -8326    -7468 
   -6512    -5497    -4441    -3362    -2317    -1337     -418      396 
    1080     1655     2096     2361     2470     2431     2243     1939 
    1524      977      311     -459    -1312    -2209    -3123    -4029 
   -4904    -5742    -6555    -7338    -8064    -8739    -9404   -10072 
  -10735   -11404   -12089   -12802   -13555   -14346   -15176   -16052 
  -16965   -17882   -18766   -19552   -20187   -20704   -21136   -21483 
  -21757   -21952   -22029   -21979   -21821   -21562   -21204   -20776 
  -20308   -19807   -19269   -18677   -18027   -17347   -16649   -15957 
  -15280   -14613   -13949   -13297   -12649   -12009   -11407   -10829 
  -10241    -9668    -9144    -8675    -8255    -7866    -7473    -7087 
   -6763    -6513    -6331    -6211    -6115    -6008    -5881    -5721 
   -5530    -5323    -5112    -4915    -4760    -4654    -4569    -4483 
   -4401    -4332    -4270    -4212    -4155    -4078    -3964    -3811 
   -3622    -3423    -3234    -3096    -3056    -3114    -3262    -3524 
   -3915    -4426    -5071    -5832    -6663    -7560    -8488    -9389 
  -10245   -11052   -11778   -12386   -12857   -13180   -13359   -13436 
  -13406   -13261   -13031   -12741   -12411   -12069   -11727   -11404 
  -11128   -10928   -10832   -10844   -10960   -11169   -11458   -11803 
  -12199   -12637   -13078   -13481   -13825   -14095   -14264   -14361 
  -14431   -14477   -14538   -14642   -14769   -14918   -15097   -15286 
  -15485   -15699   -15866   -15948   -15952   -15866   -15689   -15462 
  -15203   -14895   -14542   -14146   -13698   -13216   -12727   -12224 
  -11682   -11109   -10509    -9894    -9278    -8672    -8068    -7464 
   -6856    -6246    -5655    -5094    -4569    -4090    -3651    -3254 
   -2924    -2670    -2506    -2459    -2520    -2656    -2855    -3119 
   -3438    -3792    -4193    -4619    -5049    -5499    -5969    -6439 
   -6913    -7369    -7784    -8168    -8515    -8807    -9062    -9317 
   -9572    -9825   -10076   -10299   -10498   -10696   -10855   -10968 
  -11070   -11182   -11306   -11438   -11564   -11654   -11708   -11738 
  -11747   -11740   -11720   -11691   -11682   -11708   -11727   -11722 
  -11700   -11650   -11583   -11539   -11535   -11577   -11681   -11840 
  -12031   -12255   -12501   -12729   -12955   -13197   -13419   -13591 
  -13707   -13764   -13792   -13832   -13882   -13948   -14048   -14150 
  -14208   -14215   -14173   -14088   -13941   -13725   -13439   -13074 
  -12665   -12237   -11761   -11238   -10696   -10129    -9559    -9027 
   -8537    -8054    -7565    -7090    -6629    -6189    -5783    -5417 
   -5108    -4874    -4719    -4653    -4684    -4812    -5053    -5394 
   -5832    -6390    -7076    -7866    -8726    -9601   -10478   -11354 
  -12210   -13015   -13718   -14324   -14824   -15180   -15414   -15523 
  -15518   -15445   -15327   -15178   -15016   -14829   -14611   -14386 
  -14179   -13961   -13710   -13429   -13104   -12721   -12283   -11777 
  -11198   -10624   -10096    -9590    -9109    -8688    -8344    -8087 
   -7935    -7862    -7840    -7877    -7974    -8113    -8289    -8478 
   -8661    -8837    -8996    -9136    -9265    -9370    -9435    -9482 
   -9512    -9485    -9413    -9312    -9180    -9026    -8865    -8691 
   -8499    -8310    -8135    -7977    -7839    -7703    -7573    -7477 
   -7416    -7384    -7369    -7330    -7257    -7176    -7084    -6970 
   -6853    -6739    -6629    -6563    -6558    -6594    -6656    -6763 
   -6906    -7065    -7271    -7512    -7762    -8052    -8384    -8746 
   -9151    -9594   -10071   -10624   -11269   -11969   -12708   -13474 
  -14235   -14987   -15714   -16397   -17020   -17566   -18031   -18388 
  -18624   -18752   -18763   -18658   -18447   -18144   -17755   -17289 
  -16768   -16187   -15541   -14837   -14081   -13275   -12422   -11531 
  -10612    -9683    -8764    -7840    -6929    -6076    -5286    -4575 
   -3982    -3488    -3082    -2795    -2609    -2501    -2509    -2656 
   -2928    -3300    -3761    -4282    -4834    -5437    -6069    -6677 
   -7272    -7831    -8324    -8762    -9130    -9428    -9703    -9956 
  -10189   -10451   -10741   -11021   -11292   -11566   -11828   -12090 
  -12359   -12631   -12915   -13220   -13551   -13900   -14250   -14578 
  -14875   -15149   -15364   -15499   -15589   -15631   -15615   -15557 
  -15421   -15194   -14909   -14559   -14149   -13690   -13165   -12576 
  -11965   -11365   -10783   -10243    -9794    -9427    -9124    -8912 
   -8791    -8756    -8822    -8953    -9123    -9332    -9536    -9710 
   -9865    -9996   -10098   -10150   -10135   -10069    -9985    -9896 
   -9807    -9725    -9634    -9509    -9367    -9223    -9058    -8889 
   -8726    -8554    -8392    -8262    -8158    -8059    -7954    -7857 
   -7774    -7715    -7658    -7600    -7581    -7605    -7670    -7773 
   -7870    -7951    -8044    -8171    -8320    -8460    -8573    -8648 
   -8680    -8692    -8687    -8658    -8633    -8631    -8658    -8726 
   -8858    -9088    -9443    -9910   -10436   -10991   -11572   -12154 
  -12721   -13266   -13757   -14166   -14472   -14651   -14735   -14756 
  -14705   -14585   -14405   -14148   -13824   -13464   -13070   -12617 
  -12125   -11624   -11090   -10530    -9958    -9382    -8847    -8371 
   -7951    -7609    -7358    -7192    -7125    -7175    -7333    -7573 
   -7867    -8186    -8511    -8838    -9159    -9464    -9740    -9954 
  -10093   -10174   -10183   -10122   -10025    -9896    -9752    -9610 
   -9477    -9358    -9254    -9161    -9093    -9070    -9080    -9109 
   -9171    -9269    -9405    -9564    -9714    -9832    -9925    -9999 
  -10035   -10029    -9988    -9904    -9783    -9648    -9513    -9387 
   -9277    -9186    -9115    -9086    -9109    -9158    -9232    -9335 
   -9456    -9603    -9761    -9896    -9998   -10077   -10122   -10114 
  -10075   -10019    -9956    -9923    -9926    -9942    -9971   -10017 
