Origin Time       2025/01/13 21:19:00
Lat.              31.8
Long.             131.6
Depth. (km)       30
Mag.              6.9
Station Code      FKO014
Station Lat.      33.1496
Station Long.     130.8183
Station Height(m) 325
Record Time       2025/01/13 21:20:12
Sampling Freq(Hz) 100Hz
Duration Time(s)  93
Dir.              E-W
Scale Factor      7845(gal)/8223790
Max. Acc. (gal)   7.662
Last Correction   2025/01/13 21:20:12
Memo.             
[...]
  -13232   -13324   -13356   -13321   -13224   -13063   -12853   -12625 
  -12409   -12260   -12209   -12185   -12118   -12050   -12016   -11989 
  -11997   -12078   -12224   -12406   -12606   -12807   -12982   -13099 
  -13138   -13088   -12960   -12807   -12704   -12714   -12835   -13023 
  -13197   -13286   -13255   -13095   -12881   -12773   -12820   -12918 
  -12989   -13034   -13039   -12976   -12831   -12622   -12397   -12209 
  -12110   -12101   -12102   -12075   -12059   -12040   -12017   -12020 
  -12008   -11979   -12015   -12118   -12235   -12371   -12532   -12661 
  -12714   -12688   -12606   -12523   -12487   -12469   -12456   -12469 
  -12509   -12568   -12675   -12843   -13057   -13259   -13389   -13447 
  -13435   -13308   -13066   -12804   -12614   -12492   -12368   -12190 
  -11992   -11840   -11762   -11765   -11884   -12137   -12474   -12776 
  -12931   -12896   -12731   -12555   -12444   -12409   -12459   -12603 
  -12779   -12897   -12922   -12885   -12843   -12789   -12671   -12478 
  -12239   -12023   -11898   -11913   -12082   -12310   -12464   -12550 
  -12649   -12752   -12825   -12885   -12923   -12891   -12834   -12864 
  -13023   -13292   -13601   -13807   -13818   -13657   -13385   -13066 
  -12762   -12532   -12407   -12359   -12325   -12270   -12190   -12112 
  -12032   -11912   -11811   -11831   -11954   -12125   -12340   -12555 
  -12680   -12694   -12656   -12650   -12712   -12834   -12992   -13124 
  -13177   -13171   -13146   -13080   -12984   -12916   -12869   -12807 
  -12733   -12631   -12492   -12343   -12167   -11981   -11890   -11950 
  -12090   -12216   -12272   -12275   -12280   -12302   -12336   -12407 
  -12560   -12771   -12922   -12937   -12887   -12857   -12825   -12795 
  -12860   -13003   -13078   -13050   -13007   -12984   -12957   -12910 
  -12829   -12717   -12587   -12465   -12394   -12352   -12256   -12091 
  -11931   -11815   -11731   -11668   -11626   -11610   -11631   -11678 
  -11718   -11730   -11700   -11623   -11518   -11422   -11340   -11271 
  -11238   -11269   -11380   -11580   -11838   -12086   -12275   -12391 
  -12425   -12374   -12291   -12231   -12167   -12093   -12083   -12183 
  -12356   -12533   -12653   -12672   -12591   -12478   -12424   -12468 
  -12579   -12694   -12776   -12827   -12854   -12869   -12910   -13003 
  -13111   -13159   -13135   -13089   -13054   -13035   -13065   -13138 
  -13155   -13078   -12989   -12937   -12883   -12800   -12758   -12835 
  -12974   -13042   -13035   -13055   -13119   -13162   -13162   -13136 
  -13108   -13140   -13257   -13377   -13464   -13581   -13747   -13886 
  -13948   -13992   -14038   -14002   -13878   -13748   -13648   -13579 
  -13558   -13572   -13605   -13647   -13675   -13666   -13617   -13575 
  -13581   -13645   -13803   -14073   -14351   -14523   -14598   -14561 
  -14349   -14033   -13756   -13599   -13556   -13599   -13724   -13895 
  -14027   -14065   -14045   -14006   -13892   -13672   -13458   -13320 
  -13203   -13108   -13132   -13270   -13408   -13460   -13432   -13363 
  -13247   -13053   -12819   -12648   -12599   -12642   -12741   -12880 
  -12985   -12982   -12891   -12734   -12509   -12298   -12205   -12218 
  -12252   -12264   -12278   -12301   -12291   -12221   -12091   -11917 
  -11739   -11577   -11458   -11466   -11588   -11685   -11681   -11607 
  -11496   -11384   -11354   -11469   -11692   -11893   -11962   -11919 
  -11875   -11878   -11885   -11890   -11934   -11974   -11927   -11811 
  -11731   -11723   -11728   -11707   -11677   -11607   -11422   -11163 
  -10945   -10779   -10628   -10520   -10543   -10732   -10989   -11203 
  -11385   -11569   -11720   -11823   -11908   -11969   -11974   -11951 
  -11942   -11950   -11981   -12027   -12042   -11986   -11870   -11722 
  -11569   -11480   -11539   -11738   -12005   -12274   -12453   -12475 
  -12366   -12216   -12082   -11979   -11932   -11912   -11828   -11664 
  -11514   -11461   -11462   -11419   -11322   -11222   -11128   -11013 
  -10875   -10768   -10750   -10818   -10948   -11140   -11419   -11766 
  -12074   -12260   -12372   -12514   -12680   -12818   -12991   -13277 
  -13595   -13815   -13938   -14033   -14100   -14102   -14068   -14068 
  -14091   -14053   -13933   -13819   -13806   -13878   -13948   -13992 
  -14049   -14100   -14100   -14056   -14023   -14010   -13957   -13860 
  -13778   -13738   -13726   -13721   -13711   -13705   -13689   -13630 
  -13574   -13608   -13744   -13922   -14107   -14319   -14563   -14785 
  -14931   -15012   -15064   -15052   -14936   -14764   -14613   -14473 
  -14285   -14073   -13898   -13734   -13531   -13311   -13128   -13005 
  -12920   -12869   -12879   -12947   -13030   -13099   -13162   -13217 
  -13239   -13193   -13031   -12745   -12418   -12143   -11942   -11804 
  -11715   -11626   -11483   -11302   -11157   -11082   -11076   -11142 
  -11286   -11468   -11595   -11611   -11547   -11479   -11453   -11481 
  -11574   -11709   -11808   -11821   -11770   -11743   -11834   -12043 
  -12285   -12496   -12633   -12615   -12432   -12195   -11969   -11740 
  -11564   -11511   -11574   -11708   -11853   -11958   -12005   -11961 
  -11834   -11696   -11585   -11469   -11321   -11141   -10948   -10787 
  -10697   -10652   -10594   -10521   -10489   -10459   -10358   -10239 
  -10210   -10265   -10355   -10480   -10644   -10837   -11057   -11307 
  -11580   -11853   -12106   -12329   -12490   -12604   -12725   -12862 
  -13009   -13128   -13149   -13084   -13057   -13127   -13254   -13412 
  -13626   -13875   -14052   -14076   -13968   -13815   -13705   -13674 
  -13764   -13998   -14292   -14523   -14666   -14732   -14675   -14504 
  -14303   -14110   -13913   -13718   -13570   -13487   -13470   -13520 
  -13618   -13722   -13818   -13913   -13969   -13940   -13857   -13818 
  -13859   -13914   -13921   -13903   -13882   -13821   -13736   -13689 
  -13695   -13714   -13705   -13640   -13506   -13319   -13127   -12992 
  -12923   -12922   -12988   -13061   -13112   -13203   -13331   -13443 
  -13551   -13698   -13883   -14080   -14284   -14519   -14764   -14947 
  -15029   -15021   -14926   -14736   -14474   -14197   -13934   -13672 
  -13413   -13171   -12923   -12640   -12386   -12231   -12140   -12058 
  -11982   -11920   -11843   -11718   -11560   -11423   -11296   -11142 
  -10987   -10913   -10960   -11101   -11290   -11481   -11597   -11576 
  -11456   -11311   -11140   -10917   -10669   -10459   -10353   -10359 
  -10453   -10616   -10848   -11083   -11223   -11250   -11240   -11229 
  -11190   -11119   -11041   -10955   -10859   -10759   -10675   -10640 
  -10682   -10774   -10875   -10930   -10875   -10743   -10633   -10590 
  -10604   -10682   -10816   -10948   -11003   -10948   -10827   -10710 
  -10638   -10629   -10717   -10895   -11111   -11302   -11430   -11485 
  -11507   -11564   -11686   -11838   -11944   -12001   -12056   -12139 
  -12272   -12514   -12850   -13188   -13477   -13693   -13786   -13756 
  -13668   -13554   -13446   -13402   -13423   -13451   -13455   -13425 
  -13366   -13289   -13244   -13285   -13412   -13571   -13710   -13806 
  -13896   -14034   -14218   -14376   -14438   -14395   -14276   -14088 
  -13859   -13651   -13498   -13392   -13328   -13317   -13347   -13409 
  -13490   -13554   -13574   -13583   -13618   -13671   -13734   -13829 
  -13967   -14127   -14258   -14324   -14366   -14426   -14476   -14494 
  -14520   -14589   -14671   -14721   -14712   -14656   -14589   -14536 
  -14477   -14374   -14233   -14089   -13927   -13722   -13520   -13379 
  -13312   -13316   -13379   -13463   -13529   -13544   -13464   -13282 
  -13038   -12764   -12460   -12155   -11902   -11727   -11616   -11588 
  -11642   -11711   -11738   -11697   -11569   -11395   -11263   -11211 
  -11241   -11337   -11454   -11504   -11421   -11226   -11010   -10848 
  -10781   -10810   -10893   -10986   -11067   -11106   -11088   -11074 
  -11117   -11175   -11198   -11211   -11226   -11221   -11221   -11280 
  -11407   -11554   -11673   -11739   -11728   -11641   -11537   -11469 
  -11404   -11329   -11291   -11279   -11221   -11114   -11033   -11018 
  -11044   -11099   -11214   -11356   -11441   -11454   -11457   -11488 
  -11550   -11657   -11786   -11884   -11944   -11998   -12044   -12100 
  -12187   -12298   -12414   -12521   -12594   -12642   -12719   -12830 
  -12937   -13039   -13158   -13290   -13419   -13547   -13703   -13879 
  -14021   -14106   -14150   -14175   -14184   -14184   -14196   -14223 
  -14222   -14165   -14091   -14034   -14017   -14062   -14143   -14216 
  -14289   -14391   -14538   -14723   -14886   -14959   -14953   -14913 
  -14829   -14677   -14462   -14215   -13946   -13679   -13452   -13300 
  -13243   -13269   -13323   -13387   -13477   -13591   -13702   -13776 
  -13838   -13930   -14035   -14112   -14142   -14135   -14102   -14023 
  -13921   -13865   -13869   -13879   -13841   -13743   -13597   -13414 
  -13224   -13078   -13015   -12996   -12958   -12920   -12931   -12935 
  -12881   -12823   -12802   -12820   -12908   -13059   -13185   -13215 
  -13143   -12999   -12823   -12650   -12507   -12406   -12326   -12258 
  -12189   -12078   -11921   -11751   -11591   -11469   -11446   -11499 
  -11527   -11484   -11403   -11318   -11257   -11240   -11279   -11375 
  -11481   -11537   -11537   -11481   -11353   -11190   -11065   -11016 
  -11045   -11160   -11338   -11553   -11826   -12162   -12502   -12816 
  -13144   -13473   -13726   -13891   -13995   -14029   -13991   -13929 
  -13855   -13760   -13641   -13458   -13186   -12879   -12582   -12297 
  -12029   -11801   -11631   -11514   -11434   -11375   -11329   -11286 
  -11230   -11164   -11099   -11061   -11053   -11056   -11052   -11044 
  -11060   -11118   -11213   -11352   -11531   -11693   -11800   -11881 
  -11948   -11971   -11958   -11939   -11951   -12010   -12091   -12177 
  -12295   -12436   -12544   -12617   -12692   -12765   -12803   -12810 
  -12798   -12772   -12750   -12734   -12700   -12656   -12629   -12633 
  -12644   -12617   -12534   -12430   -12341   -12266   -12240   -12310 
  -12452   -12614   -12789   -12999   -13240   -13477   -13676   -13842 
  -13965   -14035   -14075   -14083   -14037   -13967   -13890   -13784 
  -13651   -13508   -13365   -13238   -13149   -13073   -12974   -12884 
  -12834   -12785   -12708   -12627   -12550   -12464   -12357   -12239 
  -12133   -12058   -12031   -12085   -12218   -12393   -12567   -12717 
  -12837   -12915   -12953   -12993   -13073   -13185   -13324   -13485 
  -13606   -13603   -13462   -13215   -12919   -12640   -12410   -12235 
  -12113   -12016   -11886   -11712   -11527   -11348   -11198   -11133 
  -11169   -11279   -11427   -11597   -11797   -12036   -12287   -12510 
  -12676   -12758   -12748   -12664   -12537   -12388   -12245   -12137 
  -12109   -12164   -12264   -12386   -12529   -12665   -12772   -12858 
  -12935   -13012   -13103   -13167   -13173   -13132   -13061   -12962 
  -12847   -12753   -12696   -12641   -12591   -12611   -12717   -12885 
  -13108   -13373   -13629   -13819   -13938   -14010   -14030   -14013 
  -13988   -13942   -13867   -13797   -13741   -13679   -13587   -13437 
  -13221   -12970   -12745   -12583   -12515   -12563   -12700   -12868 
  -12985   -13007   -12954   -12846   -12707   -12588   -12517   -12464 
  -12411   -12355   -12283   -12208   -12171   -12181   -12204   -12224 
  -12247   -12258   -12252   -12240   -12208   -12162   -12094   -11970 
  -11816   -11678   -11566   -11491   -11453   -11449   -11475   -11535 
  -11645   -11790   -11947   -12121   -12322   -12532   -12708   -12811 
  -12839   -12830   -12841   -12870   -12861   -12835   -12838   -12833 
  -12769   -12664   -12537   -12378   -12170   -11948   -11780   -11723 
  -11792   -11943   -12148   -12405   -12660   -12858   -12991   -13072 
  -13115   -13140   -13154   -13158   -13155   -13111   -13001   -12849 
  -12680   -12503   -12333   -12182   -12054   -11971   -11955   -12004 
  -12101   -12241   -12425   -12625   -12783   -12884   -12962   -13043 
  -13119   -13163   -13178   -13181   -13151   -13076   -12977   -12866 
  -12719   -12550   -12420   -12333   -12229   -12083   -11938   -11826 
  -11750   -11724   -11784   -11931   -12128   -12348   -12571   -12762 
  -12900   -12980   -12997   -12953   -12872   -12793   -12741   -12707 
  -12691   -12715   -12788   -12880   -12977   -13081   -13169   -13190 
  -13130   -12993   -12793   -12598   -12483   -12451   -12468   -12546 
  -12684   -12803   -12865   -12918   -12980   -13026   -13081   -13204 
  -13394   -13608   -13797   -13925   -13983   -13967   -13869   -13720 
  -13576   -13475   -13444   -13516   -13693   -13922   -14170   -14439 
  -14667   -14783   -14820   -14820   -14781   -14715   -14665   -14650 
  -14661   -14686   -14712   -14732   -14743   -14750   -14770   -14800 
  -14804   -14763   -14697   -14646   -14611   -14573   -14567   -14613 
  -14655   -14638   -14575   -14513   -14501   -14554   -14639   -14717 
  -14779   -14790   -14716   -14586   -14458   -14374   -14334   -14304 
  -14280   -14272   -14274   -14264   -14233   -14207   -14177   -14111 
  -14037   -13988   -13923   -13817   -13689   -13524   -13275   -12962 
  -12640   -12295   -11904   -11520   -11222   -11005   -10835   -10724 
  -10669   -10615   -10508   -10332   -10116    -9883    -9624    -9369 
   -9158    -8953    -8703    -8432    -8176    -7938    -7692    -7430 
   -7164    -6882    -6532    -6119    -5728    -5412    -5166    -4981 
   -4839    -4720    -4630    -4585    -4590    -4656    -4807    -5044 
   -5328    -5614    -5898    -6187    -6474    -6756    -7061    -7415 
   -7789    -8131    -8449    -8739    -8939    -9059    -9182    -9312 
   -9405    -9472    -9522    -9531    -9504    -9490    -9537    -9637 
   -9790   -10014   -10261   -10478   -10704   -10976   -11294   -11668 
  -12101   -12568   -13054   -13551   -14042   -14505   -14893   -15182 
  -15400   -15560   -15668   -15788   -15971   -16218   -16499   -16798 
  -17112   -17431   -17725   -17996   -18284   -18598   -18895   -19145 
  -19353   -19529   -19693   -19861   -20011   -20124   -20177   -20135 
  -19986   -19743   -19442   -19128   -18812   -18480   -18146   -17818 
  -17452   -17034   -16613   -16235   -15917   -15666   -15508   -15461 
  -15481   -15493   -15473   -15442   -15394   -15299   -15178   -15056 
  -14916   -14724   -14496   -14238   -13937   -13620   -13317   -13016 
  -12714   -12430   -12158   -11866   -11542   -11234   -11007   -10867 
  -10787   -10768   -10813   -10895   -10987   -11109   -11291   -11508 
  -11713   -11908   -12085   -12202   -12243   -12225   -12170   -12089 
  -12002   -11943   -11924   -11934   -11955   -12000   -12042   -12025 
  -11951   -11840   -11672   -11448   -11214   -11028   -10882   -10743 
  -10611   -10497   -10376   -10219   -10046    -9872    -9682    -9463 
   -9244    -9062    -8953    -8924    -8941    -8969    -8993    -9004 
   -9000    -9011    -9061    -9163    -9324    -9537    -9774    -9995 
  -10199   -10397   -10574   -10710   -10828   -10937   -11011   -11030 
  -11001   -10951   -10902   -10879   -10912   -11010   -11152   -11302 
  -11442   -11573   -11707   -11853   -12017   -12193   -12372   -12561 
  -12748   -12880   -12958   -13030   -13130   -13257   -13421   -13662 
  -13963   -14237   -14440   -14585   -14663   -14663   -14659   -14752 
  -14921   -15064   -15141   -15151   -15083   -14956   -14829   -14744 
  -14719   -14752   -14816   -14851   -14816   -14717   -14608   -14542 
  -14534   -14555   -14590   -14611   -14565   -14451   -14339   -14265 
  -14219   -14212   -14239   -14258   -14241   -14203   -14160   -14100 
  -14023   -13948   -13864   -13756   -13621   -13478   -13369   -13311 
  -13297   -13328   -13410   -13528   -13666   -13819   -13999   -14183 
  -14339   -14484   -14612   -14697   -14725   -14704   -14621   -14463 
  -14261   -14046   -13828   -13602   -13382   -13174   -12972   -12768 
  -12573   -12425   -12332   -12278   -12270   -12317   -12406   -12537 
  -12717   -12903   -13028   -13096   -13130   -13127   -13099   -13086 
  -13103   -13108   -13061   -12982   -12910   -12845   -12784   -12746 
  -12737   -12753   -12798   -12862   -12911   -12931   -12928   -12897 
  -12834   -12729   -12573   -12380   -12160   -11911   -11651   -11423 
  -11253   -11114   -10982   -10849   -10716   -10592   -10465   -10311 
  -10150   -10022    -9919    -9840    -9817    -9876   -10014   -10230 
  -10536   -10937   -11377   -11773   -12102   -12380   -12604   -12798 
  -13009   -13221   -13378   -13498   -13601   -13633   -13571   -13464 
  -13354   -13238   -13122   -13034   -12962   -12862   -12733   -12588 
  -12436   -12305   -12228   -12198   -12191   -12194   -12198   -12185 
  -12132   -12044   -11923   -11759   -11603   -11483   -11392   -11345 
  -11333   -11315   -11272   -11209   -11153   -11117   -11105   -11140 
  -11222   -11329   -11425   -11477   -11477   -11448   -11404   -11367 
  -11334   -11300   -11263   -11210   -11121   -11003   -10909   -10856 
  -10806   -10751   -10709   -10677   -10642   -10625   -10633   -10659 
  -10700   -10739   -10762   -10809   -10941   -11121   -11276   -11429 
  -11607   -11770   -11917   -12117   -12393   -12696   -12978   -13215 
  -13406   -13582   -13757   -13915   -14067   -14251   -14451   -14625 
  -14770   -14898   -14994   -15021   -14983   -14921   -14841   -14751 
  -14698   -14702   -14728   -14763   -14823   -14902   -14976   -15032 
  -15070   -15088   -15066   -14980   -14845   -14679   -14499   -14322 
  -14164   -14003   -13836   -13697   -13594   -13495   -13412   -13367 
  -13335   -13278   -13198   -13104   -12982   -12869   -12800   -12758 
  -12727   -12711   -12680   -12607   -12513   -12409   -12295   -12202 
  -12145   -12116   -12118   -12154   -12193   -12222   -12264   -12333 
  -12417   -12510   -12610   -12698   -12745   -12749   -12729   -12694 
  -12669   -12673   -12685   -12673   -12615   -12503   -12348   -12171 
  -11975   -11746   -11500   -11250   -10990   -10741   -10543   -10400 
  -10319   -10293   -10289   -10291   -10311   -10349   -10382   -10397 
  -10390   -10366   -10349   -10350   -10351   -10331   -10293   -10249 
  -10216   -10208   -10239   -10311   -10403   -10505   -10597   -10660 
  -10712   -10786   -10902   -11064   -11281   -11551   -11850   -12145 
  -12411   -12645   -12876   -13150   -13477   -13833   -14185   -14504 
  -14774   -14985   -15130   -15211   -15261   -15322   -15385   -15422 
  -15430   -15421   -15377   -15303   -15240   -15222   -15252   -15315 
  -15392   -15445   -15449   -15414   -15377   -15375   -15411   -15452 
  -15462   -15434   -15369   -15272   -15171   -15106   -15097   -15122 
  -15142   -15141   -15107   -15026   -14910   -14794   -14693   -14594 
  -14507   -14426   -14337   -14246   -14172   -14126   -14116   -14133 
  -14175   -14256   -14346   -14385   -14362   -14303   -14208   -14058 
  -13863   -13644   -13414   -13188   -12992   -12837   -12706   -12568 
  -12403   -12221   -12033   -11830   -11624   -11446   -11291   -11160 
  -11078   -11044   -11018   -10972   -10924   -10872   -10797   -10698 
  -10598   -10497   -10381   -10230   -10037    -9826    -9634    -9479 
   -9363    -9274    -9182    -9067    -8931    -8795    -8667    -8533 
   -8405    -8290    -8163    -8014    -7862    -7734    -7649    -7642 
