Origin Time       2025/01/13 21:19:00
Lat.              31.8
Long.             131.6
Depth. (km)       30
Mag.              6.9
Station Code      FKO005
Station Lat.      33.6520
Station Long.     130.6965
Station Height(m) 28
Record Time       2025/01/13 21:20:08
Sampling Freq(Hz) 100Hz
Duration Time(s)  97
Dir.              U-D
Scale Factor      7845(gal)/8223790
Max. Acc. (gal)   1.219
Last Correction   2025/01/13 21:20:08
Memo.             
[...]
   -4214    -4217    -4217    -4214    -4209    -4205    -4206    -4212 
   -4216    -4214    -4210    -4209    -4212    -4213    -4214    -4214 
   -4212    -4210    -4213    -4216    -4218    -4218    -4216    -4213 
   -4210    -4206    -4207    -4212    -4213    -4214    -4213    -4209 
   -4207    -4209    -4210    -4210    -4210    -4209    -4210    -4212 
   -4214    -4216    -4214    -4213    -4212    -4206    -4205    -4207 
   -4213    -4214    -4210    -4207    -4209    -4213    -4214    -4213 
   -4214    -4216    -4212    -4209    -4207    -4205    -4201    -4198 
   -4195    -4194    -4195    -4201    -4203    -4205    -4207    -4206 
   -4206    -4214    -4221    -4221    -4218    -4220    -4220    -4217 
   -4218    -4220    -4216    -4216    -4220    -4222    -4226    -4232 
   -4233    -4229    -4224    -4209    -4189    -4178    -4174    -4168 
   -4166    -4162    -4159    -4167    -4190    -4216    -4239    -4260 
   -4279    -4294    -4307    -4317    -4314    -4298    -4271    -4240 
   -4212    -4187    -4163    -4140    -4117    -4099    -4097    -4109 
   -4128    -4153    -4183    -4210    -4236    -4264    -4286    -4299 
   -4309    -4314    -4309    -4286    -4247    -4203    -4168    -4144 
   -4122    -4093    -4059    -4037    -4041    -4070    -4106    -4140 
   -4168    -4194    -4230    -4272    -4294    -4290    -4272    -4248 
   -4230    -4230    -4224    -4193    -4148    -4104    -4070    -4066 
   -4082    -4095    -4095    -4089    -4097    -4135    -4194    -4249 
   -4275    -4268    -4253    -4252    -4266    -4274    -4247    -4186 
   -4117    -4063    -4040    -4048    -4074    -4102    -4120    -4131 
   -4159    -4207    -4278    -4361    -4436    -4469    -4461    -4436 
   -4414    -4413    -4417    -4380    -4293    -4182    -4086    -4035 
   -4025    -4032    -4040    -4054    -4083    -4144    -4236    -4332 
   -4399    -4436    -4446    -4434    -4410    -4379    -4348    -4326 
   -4301    -4266    -4240    -4234    -4241    -4264    -4288    -4293 
   -4284    -4295    -4326    -4369    -4402    -4406    -4394    -4380 
   -4371    -4353    -4321    -4283    -4255    -4234    -4218    -4197 
   -4163    -4118    -4089    -4101    -4148    -4217    -4291    -4353 
   -4379    -4365    -4321    -4261    -4205    -4148    -4071    -3975 
   -3883    -3815    -3780    -3790    -3846    -3921    -4010    -4120 
   -4234    -4330    -4396    -4434    -4442    -4429    -4398    -4357 
   -4321    -4293    -4263    -4222    -4168    -4113    -4062    -4024 
   -4012    -4037    -4093    -4167    -4239    -4293    -4337    -4395 
   -4469    -4534    -4540    -4450    -4291    -4145    -4079    -4093 
   -4137    -4163    -4158    -4140    -4131    -4141    -4166    -4198 
   -4259    -4351    -4434    -4459    -4398    -4286    -4213    -4216 
   -4257    -4275    -4234    -4140    -4039    -3991    -4004    -4021 
   -3998    -3950    -3947    -4047    -4225    -4379    -4436    -4398 
   -4322    -4270    -4270    -4280    -4233    -4108    -3952    -3859 
   -3892    -4036    -4207    -4318    -4342    -4290    -4187    -4099 
   -4066    -4072    -4102    -4168    -4290    -4459    -4608    -4644 
   -4546    -4386    -4236    -4132    -4074    -4035    -4000    -3986 
   -4008    -4051    -4091    -4091    -4020    -3912    -3843    -3842 
   -3892    -3969    -4050    -4112    -4139    -4139    -4149    -4217 
   -4341    -4477    -4590    -4673    -4746    -4833    -4909    -4896 
   -4752    -4513    -4251    -4047    -3947    -3927    -3951    -3993 
   -3998    -3939    -3855    -3788    -3744    -3732    -3758    -3835 
   -3991    -4206    -4415    -4577    -4653    -4602    -4440    -4237 
   -4055    -3933    -3898    -3946    -4041    -4163    -4293    -4423 
   -4538    -4590    -4531    -4402    -4313    -4353    -4500    -4642 
   -4683    -4622    -4518    -4409    -4305    -4172    -3956    -3686 
   -3473    -3391    -3433    -3578    -3819    -4122    -4421    -4642 
   -4752    -4753    -4691    -4638    -4630    -4629    -4599    -4541 
   -4456    -4336    -4191    -4048    -3936    -3890    -3932    -4008 
   -4035    -4010    -3991    -3993    -3990    -3996    -4040    -4132 
   -4270    -4429    -4563    -4633    -4615    -4513    -4353    -4183 
   -4054    -3993    -4001    -4044    -4072    -4052    -4001    -3983 
   -4071    -4271    -4467    -4526    -4437    -4283    -4155    -4095 
   -4091    -4102    -4126    -4174    -4243    -4322    -4392    -4421 
   -4386    -4318    -4279    -4315    -4430    -4572    -4666    -4665 
   -4557    -4375    -4187    -4045    -3971    -3982    -4072    -4187 
   -4271    -4303    -4302    -4302    -4301    -4249    -4126    -3942 
   -3717    -3541    -3539    -3716    -3942    -4093    -4141    -4133 
   -4159    -4261    -4387    -4487    -4561    -4630    -4716    -4828 
   -4945    -5024    -5047    -4990    -4827    -4583    -4321    -4094 
   -3936    -3861    -3835    -3823    -3797    -3731    -3640    -3628 
   -3753    -3962    -4175    -4340    -4433    -4471    -4498    -4540 
   -4585    -4585    -4504    -4365    -4216    -4102    -4056    -4077 
   -4132    -4187    -4228    -4256    -4264    -4264    -4261    -4201 
   -4058    -3892    -3767    -3747    -3865    -4052    -4199    -4266 
   -4248    -4162    -4090    -4117    -4239    -4409    -4560    -4606 
   -4538    -4422    -4290    -4158    -4056    -3989    -3923    -3856 
   -3838    -3902    -4037    -4178    -4249    -4228    -4162    -4116 
   -4129    -4183    -4220    -4179    -4047    -3904    -3874    -3994 
   -4176    -4290    -4274    -4201    -4218    -4374    -4577    -4687 
   -4612    -4398    -4206    -4180    -4322    -4522    -4635    -4591 
   -4415    -4190    -3993    -3875    -3831    -3829    -3854    -3892 
   -3946    -4037    -4145    -4203    -4187    -4120    -4035    -3989 
   -4040    -4153    -4241    -4260    -4230    -4189    -4168    -4175 
   -4178    -4140    -4086    -4060    -4066    -4098    -4149    -4186 
   -4183    -4158    -4131    -4093    -4060    -4067    -4132    -4248 
   -4390    -4499    -4521    -4434    -4266    -4083    -3981    -3994 
   -4063    -4112    -4125    -4135    -4186    -4291    -4392    -4440 
   -4421    -4347    -4266    -4255    -4315    -4388    -4415    -4374 
   -4267    -4122    -3989    -3901    -3877    -3917    -3982    -4009 
   -3985    -3939    -3923    -3987    -4117    -4220    -4240    -4198 
   -4131    -4078    -4075    -4140    -4278    -4460    -4617    -4702 
   -4749    -4793    -4806    -4715    -4504    -4244    -4051    -3998 
   -4056    -4128    -4132    -4064    -3989    -3997    -4128    -4315 
   -4445    -4463    -4438    -4477    -4614    -4804    -4963    -4997 
   -4869    -4629    -4380    -4205    -4109    -4044    -3956    -3812 
   -3649    -3554    -3581    -3732    -3960    -4183    -4325    -4348 
   -4290    -4237    -4233    -4257    -4267    -4210    -4078    -3946 
   -3873    -3848    -3855    -3893    -3937    -3970    -4027    -4149 
   -4351    -4599    -4807    -4884    -4834    -4735    -4662    -4646 
   -4679    -4700    -4654    -4533    -4371    -4224    -4133    -4120 
   -4163    -4213    -4226    -4187    -4093    -3977    -3905    -3924 
   -4035    -4191    -4325    -4396    -4421    -4419    -4405    -4398 
   -4392    -4353    -4270    -4153    -4029    -3909    -3785    -3674 
   -3611    -3635    -3801    -4097    -4398    -4579    -4606    -4548 
   -4529    -4608    -4737    -4816    -4780    -4622    -4384    -4144 
   -3964    -3852    -3778    -3726    -3704    -3735    -3804    -3862 
   -3890    -3935    -4051    -4230    -4410    -4531    -4568    -4521 
   -4426    -4324    -4206    -4043    -3848    -3684    -3632    -3732 
   -3933    -4159    -4342    -4438    -4448    -4406    -4348    -4315 
   -4326    -4361    -4411    -4456    -4444    -4367    -4239    -4066 
   -3898    -3813    -3838    -3933    -4028    -4064    -4043    -4013 
   -4025    -4102    -4220    -4318    -4326    -4228    -4087    -3989 
   -3970    -4044    -4186    -4326    -4401    -4418    -4436    -4476 
   -4490    -4422    -4264    -4079    -3986    -4028    -4155    -4275 
   -4295    -4218    -4186    -4290    -4487    -4673    -4743    -4653 
   -4460    -4282    -4209    -4251    -4303    -4243    -4086    -3928 
   -3834    -3825    -3892    -3969    -4008    -4010    -4021    -4091 
   -4233    -4390    -4471    -4448    -4376    -4315    -4282    -4283 
   -4318    -4365    -4395    -4386    -4325    -4226    -4163    -4207 
   -4338    -4469    -4533    -4498    -4399    -4330    -4315    -4299 
   -4255    -4186    -4113    -4066    -4051    -4039    -4010    -3975 
   -3952    -3952    -3969    -3979    -3989    -4014    -4072    -4179 
   -4287    -4301    -4229    -4163    -4141    -4174    -4230    -4248 
   -4212    -4193    -4248    -4371    -4511    -4614    -4656    -4646 
   -4606    -4553    -4487    -4372    -4183    -3956    -3759    -3650 
   -3640    -3685    -3748    -3848    -3994    -4171    -4364    -4531 
   -4619    -4598    -4467    -4287    -4136    -4037    -3990    -3990 
   -3998    -3967    -3916    -3947    -4128    -4382    -4581    -4664 
   -4623    -4518    -4425    -4352    -4284    -4259    -4314    -4429 
   -4533    -4545    -4409    -4156    -3925    -3835    -3886    -4001 
   -4110    -4182    -4229    -4274    -4288    -4257    -4207    -4171 
   -4162    -4162    -4129    -4045    -3956    -3931    -3979    -4064 
   -4178    -4329    -4507    -4677    -4765    -4712    -4538    -4320 
   -4153    -4087    -4083    -4071    -4010    -3935    -3923    -3977 
   -4005    -3955    -3879    -3871    -3982    -4164    -4286    -4247 
   -4105    -3985    -3956    -4000    -4039    -4017    -3964    -3952 
   -4006    -4078    -4125    -4163    -4218    -4303    -4423    -4561 
   -4671    -4715    -4684    -4592    -4475    -4372    -4291    -4228 
   -4182    -4143    -4083    -4012    -3970    -3983    -4044    -4135 
   -4229    -4303    -4368    -4418    -4401    -4295    -4136    -3959 
   -3798    -3669    -3573    -3551    -3663    -3904    -4194    -4457 
   -4635    -4703    -4692    -4633    -4523    -4401    -4313    -4297 
   -4369    -4500    -4602    -4603    -4483    -4261    -4033    -3928 
   -3993    -4159    -4326    -4433    -4459    -4422    -4364    -4337 
   -4357    -4379    -4364    -4334    -4290    -4179    -4028    -3924 
   -3900    -3917    -3933    -3919    -3874    -3805    -3727    -3685 
   -3727    -3835    -3946    -4056    -4212    -4391    -4521    -4536 
   -4473    -4460    -4549    -4681    -4784    -4796    -4677    -4472 
   -4283    -4185    -4141    -4072    -3950    -3790    -3646    -3597 
   -3694    -3897    -4112    -4274    -4374    -4422    -4423    -4367 
   -4266    -4162    -4085    -4032    -3994    -3971    -3958    -3964 
   -4024    -4141    -4293    -4437    -4564    -4706    -4880    -5043 
   -5116    -5073    -4951    -4796    -4638    -4509    -4419    -4348 
   -4267    -4168    -4062    -3981    -3948    -3977    -4079    -4217 
   -4311    -4349    -4353    -4329    -4345    -4450    -4563    -4554 
   -4383    -4118    -3912    -3852    -3867    -3839    -3746    -3653 
   -3649    -3777    -3944    -3983    -3897    -3855    -3964    -4209 
   -4492    -4691    -4747    -4698    -4607    -4522    -4450    -4379 
   -4328    -4325    -4364    -4378    -4274    -4072    -3927    -3928 
   -4039    -4191    -4321    -4357    -4299    -4197    -4077    -3966 
   -3893    -3854    -3873    -3996    -4195    -4402    -4549    -4583 
   -4510    -4407    -4324    -4232    -4099    -3950    -3835    -3778 
   -3780    -3831    -3910    -4020    -4141    -4236    -4301    -4344 
   -4361    -4364    -4359    -4307    -4167    -3959    -3771    -3676 
   -3681    -3771    -3889    -3960    -3989    -4008    -4035    -4086 
   -4176    -4322    -4523    -4665    -4594    -4320    -3996    -3778 
   -3723    -3782    -3870    -3904    -3877    -3902    -4068    -4313 
   -4487    -4504    -4391    -4282    -4284    -4394    -4544    -4675 
   -4703    -4592    -4399    -4202    -4075    -4060    -4108    -4143 
   -4158    -4122    -4029    -3969    -3983    -3986    -3929    -3838 
   -3753    -3759    -3893    -4059    -4132    -4074    -3935    -3804 
   -3738    -3717    -3744    -3858    -4040    -4237    -4437    -4634 
   -4800    -4907    -4932    -4868    -4739    -4598    -4487    -4421 
   -4367    -4287    -4191    -4095    -4013    -3977    -3981    -3978 
   -4000    -4093    -4222    -4315    -4342    -4329    -4314    -4283 
   -4213    -4183    -4261    -4406    -4557    -4630    -4565    -4444 
   -4365    -4318    -4264    -4194    -4087    -3973    -3955    -4063 
   -4176    -4206    -4159    -4083    -4051    -4094    -4172    -4280 
   -4405    -4446    -4407    -4392    -4378    -4267    -4086    -3946 
   -3898    -3929    -4004    -4058    -4064    -4126    -4287    -4453 
   -4561    -4583    -4544    -4525    -4526    -4504    -4504    -4525 
   -4449    -4229    -3990    -3850    -3754    -3659    -3694    -3862 
   -3997    -4044    -4071    -4198    -4476    -4788    -4972    -4916 
   -4650    -4368    -4229    -4199    -4159    -4047    -3912    -3828 
   -3867    -4089    -4387    -4519    -4467    -4414    -4445    -4521 
   -4550    -4450    -4253    -4095    -4045    -4033    -3977    -3867 
   -3743    -3692    -3753    -3873    -3998    -4129    -4313    -4558 
   -4816    -5051    -5250    -5406    -5491    -5409    -5097    -4644 
   -4170    -3744    -3462    -3379    -3397    -3362    -3252    -3153 
   -3156    -3323    -3647    -3981    -4182    -4240    -4241    -4283 
   -4391    -4522    -4595    -4513    -4303    -4139    -4079    -4045 
   -3996    -3925    -3925    -4086    -4253    -4374    -4604    -4855 
   -4945    -4857    -4568    -4230    -4133    -4288    -4455    -4428 
   -4168    -3807    -3557    -3551    -3793    -4162    -4405    -4387 
   -4180    -3916    -3755    -3743    -3732    -3690    -3669    -3682 
   -3854    -4189    -4468    -4558    -4482    -4326    -4232    -4272 
   -4376    -4437    -4440    -4429    -4444    -4507    -4550    -4513 
   -4450    -4394    -4310    -4212    -4113    -4062    -4147    -4360 
   -4587    -4730    -4730    -4584    -4387    -4182    -3954    -3785 
   -3758    -3811    -3901    -4023    -4101    -4135    -4205    -4274 
   -4306    -4359    -4410    -4417    -4382    -4275    -4186    -4284 
   -4440    -4360    -4097    -3960    -4050    -4149    -4090    -4009 
   -4054    -4089    -4087    -4179    -4268    -4240    -4187    -4176 
   -4158    -4044    -3861    -3793    -3908    -4025    -4020    -3946 
   -3925    -4050    -4272    -4395    -4336    -4279    -4344    -4386 
   -4333    -4325    -4353    -4263    -4135    -4141    -4233    -4282 
   -4260    -4251    -4337    -4432    -4392    -4287    -4291    -4390 
   -4475    -4549    -4595    -4510    -4337    -4221    -4205    -4267 
   -4355    -4378    -4288    -4149    -4082    -4151    -4276    -4356 
   -4349    -4209    -3962    -3777    -3721    -3708    -3744    -3855 
   -3940    -3925    -3832    -3805    -3963    -4236    -4521    -4727 
   -4733    -4587    -4475    -4525    -4753    -4966    -4989    -4862 
   -4650    -4407    -4280    -4247    -4151    -4044    -4025    -4048 
   -4114    -4272    -4418    -4467    -4433    -4283    -4062    -3998 
   -4168    -4413    -4590    -4599    -4425    -4205    -4045    -3985 
   -4017    -4032    -3964    -3902    -3892    -3905    -3954    -4024 
   -4072    -4043    -3916    -3832    -3901    -4025    -4125    -4195 
   -4209    -4248    -4430    -4660    -4739    -4587    -4243    -3875 
   -3742    -3906    -4133    -4236    -4237    -4167    -4062    -4016 
   -4017    -3971    -3861    -3780    -3843    -4033    -4249    -4403 
   -4402    -4236    -4002    -3781    -3626    -3566    -3549    -3522 
   -3532    -3661    -3948    -4363    -4800    -5175    -5418    -5435 
   -5209    -4854    -4504    -4256    -4129    -4052    -3910    -3655 
   -3357    -3121    -2998    -3011    -3173    -3458    -3789    -4094 
   -4367    -4594    -4704    -4668    -4573    -4514    -4518    -4581 
   -4629    -4557    -4398    -4244    -4147    -4151    -4206    -4202 
   -4104    -3959    -3848    -3786    -3713    -3667    -3724    -3867 
   -4063    -4282    -4498    -4714    -4932    -5134    -5294    -5360 
   -5273    -5059    -4816    -4610    -4484    -4403    -4301    -4210 
   -4180    -4182    -4182    -4155    -4072    -3954    -3855    -3817 
   -3847    -3925    -4027    -4136    -4233    -4301    -4361    -4394 
   -4341    -4202    -3996    -3763    -3605    -3569    -3597    -3666 
   -3813    -3967    -4017    -4036    -4145    -4321    -4453    -4467 
   -4384    -4294    -4261    -4313    -4429    -4544    -4568    -4511 
   -4450    -4403    -4360    -4311    -4217    -4112    -4067    -4097 
   -4194    -4317    -4379    -4371    -4357    -4384    -4448    -4496 
   -4509    -4498    -4479    -4448    -4374    -4247    -4118    -4033 
   -4023    -4082    -4131    -4117    -4099    -4121    -4158    -4216 
   -4293    -4330    -4349    -4423    -4550    -4635    -4608    -4517 
   -4460    -4469    -4459    -4357    -4194    -4013    -3869    -3780 
   -3723    -3684    -3680    -3743    -3883    -4099    -4349    -4513 
   -4526    -4444    -4322    -4185    -4044    -3900    -3766    -3680 
   -3673    -3766    -3925    -4063    -4093    -4050    -4087    -4261 
   -4492    -4689    -4762    -4676    -4502    -4324    -4193    -4056 
   -3815    -3481    -3177    -3057    -3214    -3595    -4102    -4599 
   -4891    -4915    -4799    -4639    -4453    -4301    -4224    -4170 
   -4133    -4110    -4062    -4006    -3967    -3924    -3877    -3831 
   -3821    -3944    -4230    -4558    -4761    -4760    -4627    -4525 
   -4542    -4645    -4720    -4673    -4529    -4388    -4342    -4401 
   -4483    -4511    -4472    -4398    -4376    -4492    -4708    -4865 
   -4850    -4666    -4395    -4180    -4060    -3951    -3812    -3672 
   -3559    -3499    -3512    -3613    -3767    -3958    -4218    -4473 
   -4560    -4438    -4183    -3924    -3780    -3758    -3784    -3782 
   -3755    -3793    -3932    -4086    -4201    -4295    -4384    -4494 
   -4646    -4788    -4800    -4665    -4480    -4326    -4199    -4062 
   -3936    -3840    -3761    -3689    -3616    -3566    -3600    -3707 
   -3819    -3889    -3952    -4117    -4418    -4761    -5044    -5194 
   -5157    -5030    -4962    -4957    -4941    -4861    -4681    -4450 
   -4279    -4190    -4113    -4010    -3902    -3861    -3959    -4170 
   -4395    -4545    -4537    -4361    -4153    -4066    -4116    -4209 
   -4224    -4129    -4031    -4028    -4078    -4082    -4002    -3878 
   -3804    -3865    -4059    -4275    -4403    -4438    -4440    -4461 
   -4507    -4533    -4529    -4515    -4514    -4536    -4546    -4507 
   -4425    -4315    -4212    -4145    -4114    -4082    -4037    -4005 
   -4001    -4032    -4109    -4248    -4455    -4710    -4928    -4981 
   -4799    -4457    -4105    -3846    -3711    -3684    -3693    -3697 
   -3742    -3859    -4033    -4243    -4460    -4639    -4773    -4874 
   -4923    -4904    -4837    -4707    -4510    -4280    -4067    -3962 
