Origin Time       2025/01/13 21:19:00
Lat.              31.8
Long.             131.6
Depth. (km)       30
Mag.              6.9
Station Code      FKO015
Station Lat.      33.1629
Station Long.     130.4052
Station Height(m) 3
Record Time       2025/01/13 21:20:07
Sampling Freq(Hz) 100Hz
Duration Time(s)  142
Dir.              N-S
Scale Factor      7845(gal)/8223790
Max. Acc. (gal)   18.230
Last Correction   2025/01/13 21:20:07
Memo.             
[...]
  -12121   -10879    -9537    -8132    -6712    -5367    -4124    -2990 
   -1985    -1090     -303      341      841     1177     1331     1289 
    1038      577     -113    -1028    -2097    -3281    -4549    -5823 
   -7028    -8108    -9001    -9679   -10166   -10473   -10625   -10682 
  -10659   -10573   -10482   -10422   -10411   -10450   -10520   -10635 
  -10809   -11014   -11242   -11472   -11692   -11925   -12139   -12295 
  -12399   -12436   -12394   -12274   -12070   -11812   -11538   -11257 
  -10968   -10675   -10415   -10222   -10098   -10031   -10041   -10160 
  -10388   -10706   -11122   -11612   -12139   -12694   -13251   -13811 
  -14361   -14833   -15163   -15311   -15250   -15017   -14670   -14243 
  -13761   -13251   -12739   -12247   -11786   -11399   -11097   -10849 
  -10650   -10488   -10327   -10147    -9971    -9809    -9674    -9614 
   -9659    -9783    -9969   -10220   -10524   -10858   -11188   -11500 
  -11803   -12067   -12263   -12403   -12514   -12602   -12664   -12719 
  -12796   -12880   -12937   -12974   -13043   -13177   -13355   -13558 
  -13767   -13926   -13972   -13876   -13649   -13288   -12785   -12222 
  -11692   -11219   -10822   -10524   -10309   -10188   -10173   -10249 
  -10403   -10593   -10768   -10895   -10912   -10777   -10528   -10173 
   -9697    -9113    -8441    -7723    -7003    -6288    -5591    -4930 
   -4321    -3798    -3388    -3105    -2971    -2998    -3183    -3531 
   -4056    -4764    -5647    -6697    -7884    -9148   -10438   -11726 
  -12993   -14188   -15253   -16194   -17020   -17732   -18341   -18843 
  -19238   -19534   -19749   -19908   -20017   -20046   -19967   -19761 
  -19394   -18848   -18127   -17235   -16209   -15086   -13886   -12656 
  -11449   -10285    -9216    -8291    -7538    -6982    -6621    -6442 
   -6431    -6561    -6826    -7236    -7767    -8392    -9078    -9799 
  -10527   -11227   -11878   -12467   -12993   -13463   -13884   -14299 
  -14702   -15043   -15319   -15514   -15566   -15446   -15132   -14609 
  -13879   -12945   -11857   -10686    -9482    -8287    -7142    -6118 
   -5252    -4540    -3971    -3546    -3285    -3196    -3256    -3451 
   -3758    -4143    -4627    -5228    -5949    -6793    -7713    -8649 
   -9567   -10446   -11287   -12102   -12857   -13517   -14111   -14648 
  -15082   -15411   -15639   -15734   -15723   -15649   -15525   -15369 
  -15184   -14947   -14632   -14192   -13585   -12802   -11847   -10741 
   -9524    -8233    -6917    -5611    -4353    -3171    -2104    -1210 
    -526      -67      166      197       37     -275     -679    -1128 
   -1586    -2023    -2446    -2879    -3335    -3805    -4264    -4699 
   -5101    -5455    -5753    -6008    -6232    -6447    -6662    -6876 
   -7106    -7373    -7690    -8106    -8649    -9292   -10006   -10775 
  -11562   -12318   -12981   -13495   -13849   -14064   -14160   -14149 
  -14061   -13930   -13784   -13647   -13552   -13539   -13598   -13691 
  -13806   -13921   -14002   -14041   -14004   -13898   -13783   -13695 
  -13668   -13732   -13875   -14069   -14278   -14461   -14582   -14592 
  -14461   -14172   -13722   -13150   -12519   -11873   -11248   -10673 
  -10158    -9706    -9321    -9013    -8760    -8536    -8333    -8147 
   -7994    -7908    -7901    -7962    -8056    -8160    -8278    -8403 
   -8526    -8658    -8795    -8949    -9127    -9310    -9494    -9670 
   -9805    -9884    -9913    -9871    -9778    -9647    -9470    -9290 
   -9161    -9084    -9085    -9163    -9310    -9541    -9826   -10111 
  -10374   -10596   -10759   -10849   -10860   -10806   -10700   -10562 
  -10436   -10361   -10357   -10431   -10597   -10866   -11206   -11580 
  -11954   -12285   -12571   -12837   -13077   -13278   -13425   -13497 
  -13474   -13332   -13063   -12692   -12216   -11627   -10974   -10305 
   -9628    -8950    -8293    -7659    -7047    -6455    -5896    -5385 
   -4919    -4495    -4126    -3832    -3657    -3638    -3778    -4078 
   -4542    -5134    -5802    -6525    -7302    -8104    -8868    -9589 
  -10318   -11049   -11766   -12499   -13279   -14088   -14877   -15603 
  -16241   -16762   -17132   -17319   -17332   -17189   -16881   -16425 
  -15834   -15115   -14300   -13431   -12577   -11813   -11182   -10709 
  -10431   -10347   -10443   -10694   -11063   -11520   -12033   -12537 
  -13000   -13447   -13864   -14210   -14474   -14662   -14751   -14736 
  -14636   -14470   -14242   -13957   -13609   -13203   -12777   -12375 
  -12025   -11762   -11639   -11685   -11877   -12220   -12718   -13342 
  -14048   -14758   -15394   -15934   -16357   -16618   -16688   -16567 
  -16283   -15884   -15384   -14797   -14141   -13433   -12706   -11993 
  -11302   -10656   -10076    -9532    -9005    -8503    -8014    -7535 
   -7075    -6663    -6342    -6118    -5991    -5968    -6030    -6138 
   -6253    -6335    -6365    -6328    -6220    -6070    -5903    -5746 
   -5632    -5584    -5616    -5703    -5861    -6096    -6380    -6729 
   -7180    -7732    -8388    -9126    -9911   -10754   -11635   -12538 
  -13491   -14500   -15543   -16586   -17585   -18509   -19306   -19912 
  -20317   -20529   -20521   -20268   -19768   -19036   -18076   -16899 
  -15553   -14081   -12507   -10832    -9076    -7314    -5595    -3952 
   -2444    -1113       22      938     1579     1900     1933     1738 
    1344      770       49     -777    -1663    -2582    -3520    -4432 
   -5292    -6114    -6868    -7487    -7947    -8271    -8471    -8546 
   -8529    -8467    -8399    -8372    -8413    -8519    -8725    -9076 
   -9535   -10034   -10521   -10929   -11234   -11469   -11619   -11645 
  -11518   -11206   -10723   -10107    -9371    -8534    -7646    -6739 
   -5830    -4959    -4136    -3338    -2623    -2073    -1699    -1502 
   -1518    -1775    -2281    -3045    -4048    -5231    -6552    -7990 
   -9495   -11038   -12600   -14138   -15611   -16973   -18166   -19156 
  -19940   -20534   -20972   -21281   -21473   -21552   -21543   -21481 
  -21392   -21266   -21100   -20906   -20667   -20343   -19920   -19418 
  -18863   -18301   -17771   -17273   -16831   -16479   -16183   -15907 
  -15635   -15341   -15001   -14605   -14133   -13556   -12857   -12059 
  -11215   -10343    -9470    -8657    -7921    -7233    -6597    -6065 
   -5638    -5265    -4905    -4546    -4171    -3828    -3593    -3411 
   -3221    -3052    -2937    -2886    -2906    -3002    -3160    -3368 
   -3665    -4083    -4612    -5227    -5918    -6713    -7578    -8438 
   -9227    -9899   -10469   -10963   -11375   -11720   -12036   -12337 
  -12606   -12814   -12969   -13085   -13166   -13225   -13279   -13340 
  -13424   -13524   -13626   -13744   -13883   -14049   -14257   -14505 
  -14771   -15022   -15248   -15430   -15507   -15450   -15276   -14974 
  -14539   -13980   -13313   -12563   -11727   -10783    -9737    -8580 
   -7337    -6058    -4762    -3487    -2277    -1154     -175      626 
    1252     1669     1845     1795     1572     1223      765      238 
    -359    -1040    -1782    -2583    -3434    -4303    -5197    -6080 
   -6903    -7623    -8162    -8514    -8702    -8718    -8630    -8492 
   -8271    -8012    -7804    -7676    -7669    -7785    -7997    -8297 
   -8649    -9063    -9566   -10106   -10686   -11318   -11971   -12640 
  -13279   -13833   -14299   -14642   -14808   -14762   -14493   -14042 
  -13487   -12908   -12353   -11853   -11458   -11215   -11119   -11176 
  -11396   -11785   -12345   -13031   -13770   -14523   -15291   -16087 
  -16912   -17730   -18536   -19333   -20102   -20822   -21467   -21987 
  -22330   -22485   -22422   -22107   -21587   -20898   -20054   -19111 
  -18111   -17096   -16158   -15367   -14727   -14223   -13851   -13574 
  -13329   -13099   -12888   -12663   -12401   -12113   -11769   -11334 
  -10839   -10331    -9840    -9427    -9139    -8969    -8918    -8970 
   -9066    -9170    -9262    -9306    -9282    -9184    -9030    -8827 
   -8569    -8253    -7893    -7537    -7272    -7137    -7150    -7348 
   -7722    -8252    -8939    -9745   -10590   -11407   -12156   -12820 
  -13382   -13815   -14123   -14327   -14436   -14447   -14369   -14238 
  -14111   -14026   -14002   -14064   -14206   -14373   -14528   -14659 
  -14744   -14742   -14609   -14350   -13994   -13555   -13046   -12463 
  -11799   -11083   -10354    -9621    -8876    -8116    -7358    -6624 
   -5913    -5236    -4635    -4152    -3786    -3555    -3495    -3628 
   -3952    -4440    -5067    -5802    -6574    -7334    -8059    -8727 
   -9332    -9857   -10291   -10629   -10871   -11024   -11109   -11141 
  -11118   -11002   -10768   -10423    -9954    -9364    -8669    -7852 
   -6914    -5921    -4939    -4023    -3229    -2612    -2197    -1985 
   -1960    -2101    -2365    -2678    -2994    -3289    -3543    -3751 
   -3936    -4139    -4396    -4752    -5233    -5846    -6570    -7361 
   -8162    -8930    -9655   -10318   -10876   -11264   -11435   -11414 
  -11234   -10932   -10597   -10320   -10160   -10169   -10373   -10739 
  -11234   -11836   -12521   -13290   -14115   -14937   -15773   -16656 
  -17547   -18427   -19333   -20271   -21226   -22203   -23170   -24092 
  -24968   -25756   -26426   -26963   -27322   -27476   -27418   -27157 
  -26719   -26114   -25339   -24386   -23232   -21884   -20370   -18706 
  -16922   -15051   -13120   -11180    -9282    -7431    -5630    -3924 
   -2357     -962      234     1242     2035     2559     2782     2677 
    2246     1544      619     -456    -1637    -2901    -4190    -5471 
   -6735    -7928    -9020    -9995   -10824   -11477   -11958   -12307 
  -12540   -12613   -12522   -12291   -11919   -11418   -10816   -10180 
   -9590    -9092    -8726    -8521    -8429    -8407    -8464    -8576 
   -8684    -8762    -8799    -8791    -8766    -8723    -8673    -8635 
   -8618    -8614    -8595    -8561    -8560    -8622    -8704    -8703 
   -8550    -8266    -7917    -7543    -7175    -6871    -6681    -6605 
   -6623    -6718    -6874    -7053    -7246    -7453    -7641    -7762 
   -7796    -7715    -7496    -7153    -6701    -6158    -5567    -4985 
   -4469    -4012    -3605    -3300    -3083    -2918    -2848    -2890 
   -2987    -3130    -3356    -3651    -3978    -4329    -4723    -5169 
   -5657    -6188    -6760    -7391    -8104    -8888    -9729   -10629 
  -11573   -12534   -13506   -14499   -15502   -16468   -17402   -18380 
  -19425   -20491   -21551   -22594   -23616   -24598   -25494   -26262 
  -26878   -27328   -27589   -27656   -27529   -27171   -26585   -25826 
  -24883   -23710   -22329   -20783   -19120   -17389   -15631   -13895 
  -12255   -10763    -9406    -8124    -6851    -5564    -4297    -3106 
   -2030    -1031      -66      815     1572     2180     2608     2890 
    3028     2998     2851     2631     2366     2111     1875     1656 
    1453     1273     1161     1131     1101     1023      923      805 
     629      386       89     -294     -761    -1270    -1831    -2474 
   -3188    -3978    -4876    -5881    -6968    -8117    -9277   -10386 
  -11487   -12588   -13581   -14428   -15174   -15800   -16278   -16611 
  -16827   -16974   -17055   -17019   -16888   -16727   -16533   -16254 
  -15876   -15438   -14986   -14532   -14092   -13729   -13512   -13468 
  -13624   -13991   -14523   -15160   -15873   -16665   -17540   -18450 
  -19349   -20210   -21027   -21793   -22485   -23095   -23620   -24066 
  -24433   -24706   -24900   -25019   -25016   -24895   -24661   -24333 
  -23928   -23423   -22839   -22218   -21548   -20819   -20039   -19217 
  -18353   -17424   -16401   -15253   -13979   -12617   -11219    -9836 
   -8495    -7191    -5958    -4853    -3862    -2979    -2236    -1628 
   -1132     -733     -411     -164       10      126      199      220 
     163       40     -159     -457     -828    -1251    -1719    -2212 
   -2708    -3186    -3626    -4035    -4384    -4675    -4946    -5193 
   -5390    -5529    -5626    -5703    -5742    -5746    -5740    -5729 
   -5753    -5833    -5921    -5981    -6031    -6072    -6099    -6114 
   -6138    -6173    -6214    -6276    -6367    -6480    -6632    -6839 
   -7118    -7501    -8004    -8613    -9316   -10107   -10957   -11842 
  -12741   -13644   -14547   -15456   -16347   -17182   -17919   -18538 
  -19037   -19387   -19568   -19585   -19457   -19207   -18847   -18365 
  -17790   -17173   -16544   -15915   -15319   -14770   -14241   -13724 
  -13201   -12642   -12043   -11373   -10598    -9733    -8802    -7813 
   -6817    -5833    -4830    -3819    -2839    -1918    -1098     -440 
      16      256      282       56     -456    -1256    -2331    -3650 
   -5181    -6887    -8702   -10566   -12436   -14239   -15908   -17396 
  -18650   -19662   -20466   -21049   -21379   -21469   -21327   -20980 
  -20468   -19832   -19126   -18378   -17574   -16753   -15969   -15229 
  -14523   -13849   -13228   -12660   -12114   -11588   -11101   -10659 
  -10269    -9941    -9697    -9531    -9425    -9381    -9416    -9545 
   -9734    -9969   -10261   -10582   -10914   -11276   -11686   -12163 
  -12711   -13355   -14121   -15003   -15975   -16968   -17940   -18914 
  -19847   -20640   -21276   -21751   -22026   -22123   -22068   -21836 
  -21489   -21091   -20621   -20083   -19495   -18831   -18081   -17226 
  -16244   -15152   -13968   -12707   -11398   -10042    -8630    -7191 
   -5745    -4259    -2743    -1235      255     1705     3088     4388 
    5568     6602     7462     8116     8537     8703     8635     8365 
    7901     7275     6511     5620     4638     3593     2492     1379 
     298     -764    -1807    -2820    -3824    -4797    -5676    -6451 
   -7150    -7800    -8406    -8965    -9471    -9929   -10385   -10893 
  -11454   -12064   -12718   -13408   -14102   -14743   -15310   -15784 
  -16139   -16398   -16578   -16654   -16611   -16437   -16133   -15711 
  -15196   -14621   -13992   -13348   -12742   -12194   -11740   -11392 
  -11115   -10928   -10864   -10925   -11094   -11350   -11655   -11965 
  -12233   -12426   -12553   -12642   -12700   -12744   -12793   -12861 
  -12955   -13036   -13101   -13169   -13177   -13105   -12980   -12780 
  -12509   -12170   -11769   -11322   -10821   -10280    -9730    -9163 
   -8595    -8079    -7653    -7317    -7045    -6839    -6710    -6655 
   -6679    -6751    -6813    -6859    -6871    -6814    -6678    -6444 
   -6149    -5854    -5584    -5341    -5132    -4977    -4901    -4936 
   -5108    -5389    -5772    -6276    -6871    -7550    -8303    -9081 
   -9855   -10579   -11203   -11747   -12222   -12623   -12965   -13250 
  -13502   -13755   -14010   -14281   -14578   -14894   -15241   -15622 
  -16021   -16420   -16783   -17103   -17379   -17577   -17676   -17671 
  -17540   -17307   -17003   -16627   -16170   -15596   -14902   -14137 
  -13340   -12517   -11680   -10876   -10125    -9420    -8804    -8320 
   -7982    -7820    -7850    -8073    -8452    -8930    -9456   -10008 
  -10570   -11113   -11599   -12005   -12313   -12521   -12645   -12712 
  -12752   -12750   -12712   -12679   -12626   -12559   -12498   -12394 
  -12251   -12096   -11893   -11657   -11400   -11109   -10790   -10430 
   -9990    -9441    -8785    -8063    -7317    -6594    -5899    -5165 
   -4391    -3608    -2779    -1904    -1021     -126      761     1572 
    2243     2736     3024     3079     2902     2513     1912     1104 
     117    -1031    -2286    -3603    -4949    -6258    -7511    -8718 
   -9842   -10870   -11790   -12588   -13292   -13911   -14423   -14804 
  -15056   -15221   -15340   -15406   -15394   -15307   -15198   -15109 
  -15014   -14899   -14781   -14670   -14588   -14559   -14594   -14698 
  -14874   -15082   -15272   -15439   -15597   -15735   -15851   -15931 
  -15963   -15975   -15946   -15834   -15642   -15385   -15080   -14728 
  -14327   -13915   -13489   -13054   -12644   -12245   -11871   -11556 
  -11268   -10994   -10733   -10469   -10203    -9923    -9621    -9316 
   -9054    -8866    -8719    -8579    -8479    -8452    -8510    -8657 
   -8885    -9193    -9562    -9969   -10420   -10890   -11338   -11761 
  -12168   -12584   -13004   -13409   -13791   -14107   -14361   -14585 
  -14748   -14866   -15007   -15152   -15288   -15460   -15668   -15885 
  -16108   -16337   -16568   -16776   -16939   -17042   -17055   -16973 
  -16802   -16524   -16146   -15681   -15137   -14563   -14021   -13514 
  -13035   -12594   -12189   -11821   -11483   -11176   -10913   -10679 
  -10497   -10372   -10262   -10177   -10114   -10050    -9996    -9933 
   -9841    -9728    -9568    -9355    -9081    -8721    -8274    -7740 
   -7123    -6462    -5783    -5105    -4455    -3856    -3360    -2997 
   -2779    -2735    -2841    -3061    -3369    -3704    -4002    -4245 
   -4430    -4577    -4696    -4777    -4835    -4882    -4924    -4996 
   -5108    -5266    -5505    -5867    -6334    -6867    -7465    -8109 
   -8773    -9470   -10201   -10968   -11796   -12665   -13533   -14382 
  -15174   -15874   -16488   -17001   -17392   -17658   -17813   -17886 
  -17874   -17795   -17663   -17460   -17186   -16848   -16457   -16017 
  -15491   -14874   -14165   -13347   -12433   -11442   -10385    -9293 
   -8185    -7075    -5981    -4927    -3925    -2987    -2169    -1516 
   -1005     -668     -526     -526     -668     -950    -1324    -1796 
   -2376    -3032    -3761    -4554    -5383    -6222    -7055    -7867 
   -8641    -9374   -10066   -10697   -11260   -11765   -12194   -12571 
  -12919   -13217   -13490   -13748   -13977   -14189   -14361   -14470 
  -14535   -14571   -14593   -14598   -14567   -14482   -14328   -14118 
  -13869   -13586   -13302   -13042   -12787   -12536   -12285   -12024 
  -11766   -11466   -11065   -10567    -9972    -9277    -8518    -7735 
   -6960    -6222    -5543    -4928    -4365    -3881    -3481    -3142 
   -2878    -2646    -2416    -2219    -2037    -1869    -1741    -1647 
   -1606    -1645    -1761    -1971    -2296    -2741    -3311    -4008 
   -4824    -5730    -6702    -7743    -8843    -9984   -11163   -12326 
  -13444   -14530   -15554   -16497   -17361   -18125   -18775   -19300 
  -19700   -19992   -20170   -20231   -20194   -20100   -19955   -19743 
  -19469   -19167   -18850   -18512   -18152   -17774   -17374   -16953 
  -16515   -16040   -15498   -14886   -14249   -13613   -12993   -12405 
  -11844   -11331   -10881   -10471   -10093    -9737    -9375    -9000 
   -8584    -8106    -7584    -7051    -6543    -6084    -5705    -5436 
   -5259    -5161    -5192    -5381    -5672    -6012    -6428    -6976 
   -7643    -8413    -9261   -10112   -10953   -11828   -12707   -13549 
  -14338   -15048   -15700   -16293   -16780   -17143   -17373   -17487 
  -17531   -17493   -17363   -17153   -16860   -16545   -16263   -15986 
  -15705   -15412   -15083   -14766   -14494   -14215   -13900   -13556 
  -13144   -12675   -12166   -11549   -10791    -9968    -9050    -7987 
   -6874    -5751    -4588    -3415    -2285    -1223     -259      600 
    1360     1923     2270     2475     2470     2245     1845     1224 
     442     -429    -1410    -2450    -3503    -4588    -5672    -6671 
   -7554    -8330    -8985    -9504    -9869   -10093   -10174   -10095 
   -9942    -9742    -9466    -9173    -8901    -8673    -8523    -8424 
