Origin Time       2025/01/13 21:19:00
Lat.              31.8
Long.             131.6
Depth. (km)       30
Mag.              6.9
Station Code      FKO002
Station Lat.      33.8253
Station Long.     130.7058
Station Height(m) 3
Record Time       2025/01/13 21:20:19
Sampling Freq(Hz) 100Hz
Duration Time(s)  121
Dir.              N-S
Scale Factor      7845(gal)/8223790
Max. Acc. (gal)   7.793
Last Correction   2025/01/13 21:20:19
Memo.             
[...]
   -1736    -1983    -2226    -2463    -2687    -2893    -3071    -3210 
   -3314    -3375    -3389    -3356    -3271    -3142    -2974    -2766 
   -2524    -2257    -1971    -1671    -1355    -1031     -715     -406 
    -102      190      475      738      981     1209     1425     1633 
    1838     2047     2268     2482     2685     2884     3071     3238 
    3397     3537     3646     3731     3788     3808     3796     3751 
    3669     3549     3391     3191     2959     2708     2438     2147 
    1850     1555     1267      993      735      506      309      133 
     -14     -124     -191     -222     -225     -197     -140      -54 
      52      178      317      454      589      735      878     1015 
    1152     1282     1398     1518     1641     1759     1879     1993 
    2100     2197     2285     2366     2435     2486     2525     2544 
    2531     2478     2385     2257     2091     1887     1653     1390 
    1102      799      483      167     -137     -433     -711     -973 
   -1232    -1483    -1728    -1977    -2231    -2486    -2745    -3001 
   -3256    -3504    -3747    -3986    -4207    -4410    -4611    -4801 
   -4972    -5127    -5262    -5364    -5431    -5456    -5452    -5424 
   -5379    -5329    -5275    -5212    -5142    -5066    -4981    -4888 
   -4780    -4656    -4513    -4340    -4125    -3871    -3588    -3277 
   -2944    -2590    -2223    -1848    -1468    -1081     -684     -278 
     147      580     1020     1474     1931     2381     2822     3245 
    3622     3955     4236     4453     4617     4727     4781     4787 
    4739     4649     4531     4383     4201     3993     3757     3489 
    3203     2895     2571     2253     1931     1601     1275      950 
     626      314       21     -253     -515     -760     -988    -1200 
   -1386    -1552    -1699    -1815    -1896    -1941    -1948    -1925 
   -1880    -1818    -1746    -1678    -1624    -1584    -1556    -1530 
   -1491    -1431    -1350    -1246    -1112     -950     -764     -560 
    -342     -108      125      348      565      781      997     1210 
    1409     1597     1773     1929     2057     2157     2238     2305 
    2349     2363     2357     2324     2266     2185     2083     1965 
    1838     1698     1559     1426     1298     1177     1066      958 
     841      707      553      375      170      -62     -318     -595 
    -885    -1186    -1501    -1815    -2130    -2438    -2728    -3007 
   -3277    -3530    -3762    -3970    -4152    -4303    -4419    -4506 
   -4561    -4584    -4580    -4554    -4519    -4484    -4441    -4396 
   -4359    -4328    -4298    -4267    -4226    -4186    -4135    -4054 
   -3955    -3835    -3667    -3450    -3181    -2862    -2506    -2122 
   -1702    -1240     -737     -206      344      916     1487     2047 
    2594     3107     3569     3970     4313     4612     4870     5086 
    5274     5431     5553     5651     5711     5748     5771     5771 
    5761     5753     5733     5688     5605     5476     5309     5101 
    4854     4575     4253     3886     3478     3036     2566     2073 
    1560     1040      526       24     -465     -946    -1413    -1860 
   -2285    -2698    -3088    -3456    -3798    -4117    -4418    -4699 
   -4951    -5181    -5395    -5603    -5802    -5991    -6188    -6381 
   -6550    -6693    -6802    -6866    -6879    -6836    -6731    -6558 
   -6308    -5985    -5598    -5152    -4654    -4113    -3530    -2914 
   -2277    -1637    -1021     -426      164      734     1271     1787 
    2280     2743     3173     3584     3978     4344     4684     4990 
    5247     5455     5622     5755     5856     5917     5945     5934 
    5879     5783     5629     5406     5150     4854     4494     4094 
    3666     3207     2736     2254     1776     1318      897      527 
     191     -121     -403     -657     -868    -1021    -1138    -1217 
   -1263    -1281    -1266    -1219    -1154    -1065     -951     -828 
    -707     -584     -464     -342     -232     -137      -63      -14 
      10       16       -5      -48     -108     -175     -243     -307 
    -357     -386     -398     -392     -379     -371     -365     -365 
    -369     -379     -405     -444     -502     -584     -676     -783 
    -905    -1036    -1159    -1267    -1367    -1463    -1545    -1625 
   -1703    -1772    -1838    -1915    -2006    -2104    -2209    -2312 
   -2417    -2536    -2662    -2791    -2938    -3090    -3233    -3380 
   -3530    -3674    -3815    -3936    -4025    -4077    -4085    -4059 
   -3986    -3854    -3667    -3434    -3160    -2843    -2479    -2076 
   -1637    -1179     -710     -236      221      666     1119     1545 
    1941     2342     2717     3055     3389     3711     3990     4232 
    4432     4588     4700     4756     4762     4735     4679     4596 
    4486     4351     4189     3989     3755     3501     3222     2922 
    2597     2242     1869     1475     1055      614      144     -342 
    -832    -1328    -1815    -2290    -2768    -3219    -3634    -4031 
   -4396    -4719    -4999    -5236    -5435    -5586    -5691    -5761 
   -5813    -5854    -5879    -5875    -5849    -5791    -5691    -5563 
   -5400    -5179    -4915    -4595    -4214    -3793    -3339    -2852 
   -2350    -1833    -1309     -799     -301      186      649     1089 
    1513     1912     2284     2620     2914     3154     3342     3488 
    3577     3604     3593     3538     3430     3296     3138     2948 
    2741     2524     2297     2070     1845     1625     1421     1236 
    1078      946      830      724      622      510      387      264 
     147       33      -79     -194     -306     -413     -508     -581 
    -614     -615     -591     -537     -461     -359     -216      -41 
     164      398      648      909     1181     1451     1719     1977 
    2220     2448     2655     2837     2992     3113     3190     3213 
    3180     3107     2995     2849     2679     2488     2269     2031 
    1783     1529     1266     1000      734      464      190      -85 
    -352     -611     -868    -1112    -1343    -1556    -1738    -1896 
   -2038    -2157    -2250    -2320    -2363    -2378    -2369    -2338 
   -2278    -2197    -2106    -2007    -1908    -1813    -1705    -1598 
   -1506    -1420    -1336    -1264    -1190    -1123    -1061     -989 
    -920     -854     -780     -699     -603     -496     -388     -270 
    -136        8      168      342      518      691      865     1044 
    1225     1405     1571     1707     1817     1906     1960     1976 
    1962     1918     1831     1714     1578     1431     1273     1100 
     923      757      598      444      311      190       67      -52 
    -175     -303     -422     -541     -680     -824     -972    -1150 
   -1340    -1526    -1715    -1899    -2079    -2258    -2430    -2596 
   -2752    -2897    -3030    -3148    -3253    -3357    -3453    -3538 
   -3619    -3697    -3770    -3843    -3917    -3983    -4036    -4068 
   -4086    -4085    -4062    -4033    -3993    -3923    -3834    -3731 
   -3601    -3442    -3252    -3030    -2776    -2489    -2174    -1840 
   -1498    -1152     -801     -454     -120      203      506      780 
    1021     1233     1426     1602     1753     1892     2019     2134 
    2253     2366     2462     2548     2621     2670     2701     2717 
    2712     2682     2641     2589     2516     2435     2336     2212 
    2080     1944     1804     1671     1534     1394     1260     1146 
    1050      972      903      849      816      793      781      772 
     749      733      738      742      739      742      742      739 
     734      718      699      684      661      631      604      572 
     534      496      459      410      351      290      220      139 
      54      -45     -174     -326     -498     -684     -886    -1100 
   -1316    -1534    -1753    -1969    -2180    -2366    -2529    -2677 
   -2798    -2905    -3003    -3086    -3152    -3203    -3231    -3240 
   -3244    -3244    -3235    -3231    -3237    -3242    -3244    -3241 
   -3225    -3191    -3137    -3065    -2968    -2829    -2648    -2425 
   -2160    -1845    -1490    -1101     -672     -218      249      746 
    1259     1768     2273     2770     3246     3697     4125     4526 
    4889     5206     5468     5675     5832     5940     6000     6012 
    5962     5850     5684     5464     5189     4855     4480     4066 
    3601     3098     2563     2006     1429      838      248     -330 
    -913    -1491    -2042    -2570    -3068    -3526    -3951    -4347 
   -4702    -5015    -5289    -5505    -5656    -5755    -5796    -5772 
   -5688    -5549    -5363    -5130    -4847    -4526    -4171    -3786 
   -3381    -2967    -2547    -2122    -1698    -1279     -870     -476 
     -98      270      627      972     1305     1621     1922     2204 
    2463     2701     2917     3100     3253     3384     3495     3585 
    3657     3711     3748     3780     3808     3815     3801     3775 
    3730     3662     3576     3458     3310     3141     2945     2725 
    2486     2223     1944     1649     1332     1000      654      297 
     -68     -449     -834    -1220    -1602    -1966    -2307    -2624 
   -2909    -3154    -3357    -3511    -3611    -3655    -3651    -3603 
   -3503    -3369    -3211    -3025    -2821    -2612    -2398    -2184 
   -1961    -1721    -1472    -1219     -946     -662     -372      -71 
     230      527      824     1117     1395     1657     1899     2119 
    2311     2481     2631     2754     2849     2914     2943     2937 
    2894     2821     2722     2583     2404     2200     1965     1687 
    1385     1063      714      342      -44     -440     -838    -1236 
   -1626    -2003    -2373    -2731    -3080    -3429    -3759    -4064 
   -4351    -4611    -4846    -5047    -5206    -5329    -5412    -5443 
   -5428    -5379    -5294    -5167    -5009    -4827    -4623    -4399 
   -4163    -3924    -3673    -3400    -3117    -2825    -2525    -2224 
   -1915    -1582    -1240     -886     -506      -99      324      757 
    1197     1648     2110     2574     3032     3483     3920     4324 
    4689     5013     5289     5514     5683     5790     5837     5826 
    5767     5652     5483     5273     5011     4699     4355     3973 
    3553     3105     2632     2138     1632     1127      626      129 
    -356     -819    -1256    -1665    -2046    -2385    -2674    -2917 
   -3114    -3258    -3361    -3426    -3441    -3410    -3341    -3233 
   -3103    -2959    -2789    -2619    -2466    -2317    -2176    -2047 
   -1926    -1809    -1698    -1593    -1499    -1425    -1358    -1296 
   -1248    -1205    -1166    -1128    -1082    -1026     -959     -880 
    -784     -675     -548     -398     -236      -68      109      301 
     506      723      940     1161     1382     1591     1796     2003 
    2196     2380     2559     2721     2868     3002     3110     3195 
    3260     3292     3291     3264     3196     3092     2970     2818 
    2639     2440     2218     1971     1707     1426     1124      797 
     448       82     -292     -664    -1023    -1375    -1710    -2029 
   -2326    -2594    -2841    -3065    -3268    -3451    -3611    -3751 
   -3874    -3977    -4062    -4122    -4163    -4186    -4186    -4160 
   -4116    -4058    -3990    -3906    -3808    -3701    -3586    -3466 
   -3343    -3208    -3057    -2894    -2721    -2536    -2350    -2150 
   -1933    -1714    -1497    -1263    -1020     -784     -558     -337 
    -124       79      278      464      639      818      999     1179 
    1351     1520     1694     1872     2056     2243     2428     2610 
    2793     2972     3134     3275     3396     3495     3564     3604 
    3616     3603     3565     3505     3433     3342     3226     3087 
    2922     2733     2527     2304     2072     1833     1587     1337 
    1078      801      525      248      -22     -286     -542     -781 
    -994    -1190    -1370    -1526    -1657    -1763    -1846    -1907 
   -1938    -1941    -1925    -1894    -1852    -1800    -1732    -1645 
   -1544    -1431    -1305    -1159     -996     -826     -646     -444 
    -228       -5      221      445      665      880     1074     1251 
    1413     1556     1682     1788     1865     1911     1923     1910 
    1868     1784     1674     1543     1387     1213     1023      816 
     599      382      157      -72     -307     -546     -792    -1044 
   -1294    -1530    -1753    -1968    -2160    -2324    -2473    -2597 
   -2691    -2762    -2812    -2830    -2824    -2793    -2741    -2660 
   -2548    -2407    -2236    -2043    -1829    -1594    -1337    -1067 
    -793     -511     -228       52      329      595      851     1093 
    1306     1497     1661     1794     1892     1956     1977     1968 
    1931     1857     1741     1586     1394     1161      895      604 
     292      -32     -373     -733    -1101    -1476    -1852    -2215 
   -2569    -2902    -3207    -3500    -3775    -4018    -4248    -4465 
   -4660    -4838    -4997    -5127    -5229    -5308    -5355    -5360 
   -5320    -5240    -5117    -4950    -4749    -4513    -4244    -3940 
   -3595    -3206    -2774    -2301    -1800    -1262     -689      -95 
     521     1152     1791     2432     3073     3704     4309     4880 
    5416     5907     6346     6732     7071     7369     7612     7789 
    7911     7974     7978     7921     7805     7635     7414     7141 
    6822     6450     6034     5579     5086     4573     4036     3466 
    2871     2265     1655     1040      427     -178     -774    -1358 
   -1921    -2461    -2975    -3458    -3912    -4338    -4742    -5109 
   -5431    -5710    -5944    -6122    -6255    -6338    -6362    -6334 
   -6238    -6081    -5881    -5630    -5332    -4995    -4617    -4199 
   -3754    -3285    -2799    -2290    -1765    -1231     -677     -117 
     429      963     1490     1998     2482     2941     3365     3748 
    4094     4398     4666     4900     5092     5236     5339     5390 
    5383     5321     5211     5051     4849     4617     4355     4045 
    3703     3335     2943     2528     2085     1614     1127      622 
     103     -415     -930    -1440    -1937    -2416    -2880    -3323 
   -3726    -4091    -4429    -4733    -4999    -5224    -5408    -5543 
   -5625    -5663    -5656    -5595    -5486    -5335    -5136    -4885 
   -4592    -4271    -3925    -3570    -3214    -2847    -2474    -2106 
   -1738    -1383    -1040     -700     -376      -72      214      483 
     727      954     1163     1348     1512     1659     1787     1912 
    2025     2111     2197     2280     2336     2381     2419     2436 
    2438     2421     2376     2309     2223     2118     2000     1877 
    1744     1606     1471     1333     1197     1082      984      892 
     818      757      696      641      591      548      514      476 
     430      388      341      280      209      132       51      -37 
    -125     -205     -278     -333     -369     -391     -387     -364 
    -326     -256     -157      -49       62      182      305      429 
     562      693      807      911      996     1047     1081     1090 
    1063     1004      904      762      603      426      220       -4 
    -236     -481     -739     -996    -1262    -1534    -1814    -2099 
   -2374    -2643    -2911    -3168    -3408    -3636    -3852    -4047 
   -4214    -4360    -4479    -4569    -4634    -4662    -4658    -4617 
   -4529    -4395    -4224    -4010    -3743    -3429    -3076    -2678 
   -2239    -1782    -1300     -797     -282      247      774     1289 
    1786     2268     2728     3153     3537     3881     4174     4418 
    4610     4741     4808     4816     4773     4680     4531     4333 
    4099     3829     3523     3186     2820     2434     2023     1595 
    1162      715      253     -207     -664    -1115    -1571    -2027 
   -2474    -2907    -3318    -3703    -4062    -4388    -4673    -4918 
   -5111    -5247    -5323    -5335    -5290    -5193    -5042    -4834 
   -4580    -4284    -3955    -3595    -3203    -2785    -2347    -1896 
   -1444     -988     -529      -72      375      803     1210     1606 
    1983     2334     2667     2974     3249     3491     3693     3854 
    3967     4040     4070     4044     3981     3889     3755     3586 
    3387     3152     2891     2602     2289     1966     1634     1301 
     972      642      319        1     -311     -603     -866    -1102 
   -1317    -1512    -1675    -1810    -1918    -1996    -2043    -2056 
   -2039    -2004    -1946    -1863    -1765    -1659    -1547    -1420 
   -1279    -1131     -980     -826     -672     -519     -371     -228 
     -97       24      133      221      294      352      394      418 
     423      418      400      360      302      237      157       64 
     -32     -139     -247     -357     -473     -591     -696     -791 
    -873     -934     -976    -1004    -1011    -1001     -982     -949 
    -901     -857     -812     -758     -706     -660     -611     -564 
    -518     -471     -426     -386     -351     -325     -311     -306 
    -310     -319     -336     -365     -402     -438     -477     -529 
    -584     -641     -712     -791     -872     -957    -1040    -1125 
   -1209    -1283    -1345    -1387    -1413    -1420    -1408    -1381 
   -1332    -1255    -1155    -1021     -855     -673     -471     -248 
     -10      229      473      722      963     1194     1417     1630 
    1838     2035     2219     2390     2551     2695     2820     2917 
    2991     3038     3057     3051     3010     2934     2840     2717 
    2565     2385     2177     1953     1715     1463     1197      915 
     623      330       35     -256     -533     -792    -1039    -1277 
   -1499    -1687    -1840    -1968    -2073    -2153    -2199    -2214 
   -2200    -2153    -2083    -1996    -1894    -1777    -1642    -1493 
   -1324    -1146     -967     -783     -587     -392     -205      -21 
     159      324      465      600      734      855      962     1048 
    1119     1177     1216     1235     1232     1209     1154     1063 
     955      831      675      498      306      102     -102     -315 
    -535     -742     -936    -1123    -1293    -1445    -1580    -1698 
   -1791    -1856    -1906    -1941    -1948    -1931    -1894    -1827 
   -1744    -1648    -1528    -1397    -1258    -1096     -928     -764 
    -587     -406     -230      -56      108      263      415      557 
     692      819      939     1054     1155     1239     1314     1382 
    1437     1478     1498     1499     1493     1470     1424     1358 
    1269     1151     1011      845      658      448      221       -9 
    -249     -496     -743     -986    -1227    -1460    -1691    -1914 
   -2123    -2323    -2496    -2640    -2767    -2868    -2943    -2994 
   -3019    -3018    -2995    -2955    -2890    -2797    -2681    -2551 
   -2412    -2261    -2097    -1930    -1760    -1591    -1412    -1215 
   -1013     -805     -580     -340      -82      198      498      807 
    1117     1433     1756     2079     2386     2674     2948     3217 
    3476     3704     3874     4001     4118     4214     4259     4255 
