Origin Time       2025/01/13 21:19:00
Lat.              31.8
Long.             131.6
Depth. (km)       30
Mag.              6.9
Station Code      FKO008
Station Lat.      33.5712
Station Long.     130.8546
Station Height(m) 70
Record Time       2025/01/13 21:20:13
Sampling Freq(Hz) 100Hz
Duration Time(s)  99
Dir.              U-D
Scale Factor      7845(gal)/8223790
Max. Acc. (gal)   2.659
Last Correction   2025/01/13 21:20:13
Memo.             
[...]
   -9509    -9594    -9661    -9738    -9856   -10011   -10168   -10291 
  -10390   -10494   -10632   -10805   -10970   -11087   -11164   -11233 
  -11329   -11427   -11469   -11450   -11421   -11408   -11372   -11267 
  -11113   -10964   -10862   -10818   -10800   -10752   -10674   -10601 
  -10546   -10471   -10343   -10158    -9929    -9687    -9454    -9234 
   -9055    -8924    -8812    -8700    -8591    -8494    -8421    -8378 
   -8359    -8345    -8338    -8355    -8386    -8401    -8383    -8357 
   -8344    -8325    -8286    -8247    -8237    -8266    -8295    -8282 
   -8213    -8127    -8078    -8071    -8067    -8031    -7974    -7942 
   -7989    -8137    -8344    -8538    -8676    -8784    -8914    -9074 
   -9251    -9423    -9578    -9725    -9886   -10064   -10254   -10450 
  -10631   -10774   -10871   -10921   -10926   -10898   -10851   -10791 
  -10725   -10648   -10567   -10503   -10451   -10407   -10359   -10307 
  -10266   -10260   -10272   -10274   -10258   -10223   -10185   -10166 
  -10165   -10169   -10184   -10215   -10265   -10322   -10369   -10413 
  -10467   -10519   -10567   -10613   -10647   -10675   -10697   -10687 
  -10646   -10596   -10565   -10557   -10552   -10528   -10489   -10457 
  -10454   -10498   -10570   -10621   -10635   -10642   -10687   -10790 
  -10917   -11007   -11032   -11006   -10968   -10939   -10917   -10887 
  -10844   -10778   -10687   -10600   -10539   -10509   -10485   -10436 
  -10369   -10292   -10196   -10088    -9977    -9871    -9764    -9630 
   -9460    -9281    -9134    -9045    -8991    -8919    -8803    -8644 
   -8476    -8344    -8249    -8163    -8062    -7944    -7839    -7769 
   -7730    -7703    -7674    -7654    -7682    -7773    -7913    -8078 
   -8236    -8382    -8523    -8668    -8807    -8922    -9018    -9126 
   -9267    -9423    -9544    -9628    -9722    -9861   -10033   -10199 
  -10328   -10442   -10584   -10763   -10947   -11088   -11163   -11195 
  -11237   -11304   -11384   -11453   -11497   -11531   -11580   -11643 
  -11705   -11739   -11734   -11704   -11677   -11659   -11639   -11595 
  -11503   -11368   -11227   -11110   -11009   -10895   -10744   -10561 
  -10359   -10146    -9915    -9667    -9414    -9175    -8969    -8812 
   -8704    -8642    -8623    -8638    -8676    -8734    -8806    -8895 
   -9016    -9163    -9309    -9436    -9528    -9589    -9647    -9711 
   -9767    -9809    -9850    -9902    -9968   -10044   -10119   -10183 
  -10220   -10220   -10196   -10172   -10156   -10138   -10099   -10035 
   -9964    -9910    -9868    -9818    -9753    -9674    -9586    -9528 
   -9513    -9518    -9521    -9509    -9490    -9498    -9544    -9602 
   -9653    -9715    -9796    -9880    -9950    -9987    -9984    -9957 
   -9921    -9884    -9852    -9823    -9783    -9722    -9661    -9624 
   -9617    -9629    -9625    -9594    -9553    -9525    -9520    -9524 
   -9516    -9504    -9516    -9559    -9613    -9643    -9641    -9644 
   -9680    -9744    -9802    -9821    -9809    -9783    -9745    -9701 
   -9637    -9537    -9424    -9333    -9282    -9270    -9286    -9319 
   -9352    -9390    -9447    -9525    -9610    -9697    -9795    -9910 
  -10042   -10179   -10304   -10427   -10563   -10713   -10859   -10970 
  -11041   -11098   -11144   -11173   -11183   -11161   -11111   -11041 
  -10956   -10862   -10756   -10629   -10470   -10277   -10068    -9869 
   -9686    -9514    -9356    -9204    -9054    -8916    -8793    -8689 
   -8606    -8541    -8479    -8418    -8391    -8413    -8483    -8600 
   -8754    -8923    -9090    -9266    -9455    -9652    -9846   -10022 
  -10162   -10261   -10327   -10385   -10438   -10463   -10461   -10440 
  -10415   -10404   -10408   -10405   -10384   -10338   -10266   -10188 
  -10134   -10102   -10081   -10065   -10042   -10011    -9983    -9975 
   -9980    -9973    -9957    -9946    -9941    -9950    -9977   -10006 
  -10029   -10044   -10039   -10030   -10031   -10034   -10026   -10010 
  -10015   -10053   -10099   -10137   -10168   -10195   -10228   -10278 
  -10338   -10405   -10481   -10542   -10566   -10563   -10536   -10497 
  -10466   -10446   -10436   -10435   -10446   -10465   -10480   -10473 
  -10444   -10420   -10424   -10436   -10446   -10451   -10451   -10446 
  -10455   -10497   -10574   -10669   -10746   -10778   -10763   -10721 
  -10675   -10642   -10624   -10621   -10624   -10613   -10574   -10504 
  -10415   -10331   -10254   -10172   -10066    -9936    -9794    -9660 
   -9537    -9406    -9256    -9089    -8916    -8753    -8618    -8517 
   -8434    -8351    -8252    -8147    -8060    -8009    -8001    -8036 
   -8105    -8199    -8321    -8459    -8594    -8722    -8851    -8993 
   -9138    -9266    -9387    -9520    -9663    -9818    -9957   -10048 
  -10091   -10106   -10103   -10087   -10060   -10002    -9891    -9733 
   -9545    -9347    -9153    -8970    -8808    -8671    -8550    -8448 
   -8374    -8325    -8289    -8259    -8239    -8256    -8345    -8496 
   -8689    -8918    -9167    -9435    -9732   -10068   -10432   -10802 
  -11160   -11485   -11767   -12012   -12213   -12345   -12390   -12344 
  -12244   -12135   -12010   -11858   -11682   -11484   -11260   -11028 
  -10805   -10596   -10392   -10193   -10029    -9894    -9769    -9671 
   -9625    -9636    -9702    -9794    -9880    -9956   -10034   -10125 
  -10223   -10314   -10382   -10427   -10461   -10498   -10543   -10601 
  -10656   -10694   -10720   -10723   -10681   -10597   -10477   -10323 
  -10161   -10002    -9840    -9675    -9522    -9389    -9282    -9216 
   -9167    -9108    -9054    -9030    -9040    -9090    -9162    -9224 
   -9275    -9337    -9432    -9544    -9632    -9671    -9671    -9655 
   -9641    -9621    -9570    -9474    -9347    -9224    -9124    -9040 
   -8942    -8816    -8680    -8571    -8514    -8500    -8513    -8533 
   -8557    -8610    -8702    -8827    -8984    -9151    -9316    -9474 
   -9633    -9802    -9969   -10129   -10288   -10440   -10567   -10656 
  -10719   -10782   -10870   -10974   -11064   -11122   -11145   -11151 
  -11151   -11133   -11099   -11060   -11017   -10968   -10901   -10801 
  -10675   -10536   -10396   -10255   -10107    -9953    -9809    -9682 
   -9566    -9455    -9354    -9266    -9202    -9167    -9148    -9132 
   -9115    -9108    -9119    -9136    -9155    -9184    -9227    -9279 
   -9328    -9350    -9344    -9348    -9394    -9462    -9509    -9529 
   -9548    -9591    -9651    -9688    -9675    -9618    -9560    -9541 
   -9578    -9637    -9670    -9670    -9670    -9680    -9697    -9715 
   -9729    -9733    -9740    -9756    -9775    -9791    -9802    -9815 
   -9845    -9877    -9891    -9875    -9833    -9790    -9775    -9782 
   -9786    -9768    -9732    -9707    -9726    -9801    -9907   -10011 
  -10104   -10192   -10274   -10342   -10381   -10378   -10339   -10282 
  -10227   -10170   -10116   -10079   -10054   -10039   -10041   -10042 
  -10018    -9972    -9923    -9886    -9863    -9837    -9782    -9702 
   -9621    -9541    -9459    -9366    -9261    -9178    -9144    -9157 
   -9186    -9204    -9196    -9181    -9169    -9154    -9143    -9151 
   -9194    -9265    -9331    -9377    -9406    -9447    -9513    -9582 
   -9633    -9667    -9694    -9726    -9765    -9803    -9832    -9845 
   -9849    -9850    -9846    -9841    -9834    -9811    -9767    -9714 
   -9668    -9644    -9634    -9625    -9606    -9574    -9544    -9531 
   -9537    -9578    -9648    -9721    -9786    -9852    -9944   -10064 
  -10184   -10260   -10276   -10260   -10265   -10316   -10378   -10416 
  -10422   -10412   -10419   -10447   -10484   -10508   -10508   -10488 
  -10454   -10427   -10409   -10381   -10328   -10264   -10210   -10180 
  -10176   -10184   -10192   -10195   -10208   -10234   -10243   -10210 
  -10135   -10041    -9933    -9813    -9672    -9505    -9329    -9171 
   -9027    -8893    -8787    -8696    -8604    -8519    -8446    -8383 
   -8325    -8270    -8220    -8187    -8182    -8217    -8280    -8345 
   -8407    -8473    -8542    -8623    -8706    -8783    -8850    -8904 
   -8964    -9053    -9167    -9288    -9401    -9498    -9583    -9670 
   -9764    -9865    -9967   -10057   -10141   -10223   -10296   -10365 
  -10440   -10523   -10608   -10683   -10743   -10795   -10854   -10921 
  -10993   -11049   -11086   -11114   -11152   -11205   -11259   -11296 
  -11307   -11273   -11192   -11087   -10976   -10852   -10700   -10512 
  -10303   -10093    -9900    -9728    -9576    -9439    -9310    -9202 
   -9117    -9042    -8982    -8957    -8964    -8989    -9031    -9090 
   -9170    -9283    -9437    -9610    -9774    -9911   -10035   -10152 
  -10253   -10330   -10380   -10413   -10457   -10515   -10567   -10598 
  -10602   -10594   -10594   -10611   -10633   -10644   -10627   -10597 
  -10571   -10566   -10579   -10585   -10554   -10488   -10390   -10272 
  -10145    -9999    -9832    -9637    -9418    -9185    -8959    -8754 
   -8572    -8405    -8247    -8113    -8032    -8020    -8059    -8110 
   -8152    -8183    -8216    -8282    -8390    -8529    -8683    -8843 
   -9005    -9157    -9290    -9418    -9553    -9698    -9848    -9980 
  -10095   -10216   -10349   -10480   -10596   -10686   -10756   -10818 
  -10882   -10943   -10986   -10994   -10970   -10906   -10809   -10702 
  -10597   -10504   -10423   -10350   -10281   -10211   -10133   -10053 
   -9979    -9913    -9864    -9842    -9842    -9856    -9887    -9940 
  -10008   -10081   -10142   -10187   -10233   -10282   -10332   -10374 
  -10403   -10420   -10443   -10470   -10486   -10476   -10435   -10389 
  -10357   -10338   -10320   -10289   -10237   -10174   -10127   -10104 
  -10089   -10076   -10071   -10073   -10077   -10066   -10042   -10012 
   -9994    -9985    -9958    -9915    -9877    -9849    -9838    -9838 
   -9836    -9836    -9845    -9872    -9925    -9988   -10053   -10119 
  -10170   -10195   -10188   -10156   -10100   -10023    -9934    -9846 
   -9749    -9634    -9522    -9418    -9304    -9165    -9018    -8878 
   -8761    -8680    -8623    -8559    -8483    -8424    -8409    -8448 
   -8534    -8657    -8796    -8947    -9113    -9289    -9463    -9622 
   -9760    -9873    -9975   -10084   -10199   -10295   -10359   -10404 
  -10443   -10480   -10527   -10585   -10627   -10644   -10650   -10652 
  -10667   -10678   -10662   -10617   -10561   -10509   -10461   -10404 
  -10334   -10237   -10116    -9992    -9859    -9711    -9570    -9435 
   -9275    -9078    -8869    -8668    -8484    -8333    -8214    -8108 
   -8020    -7974    -7967    -7985    -8032    -8106    -8195    -8294 
   -8407    -8545    -8712    -8900    -9085    -9271    -9472    -9688 
   -9896   -10077   -10215   -10331   -10450   -10566   -10665   -10731 
  -10762   -10768   -10768   -10766   -10747   -10697   -10619   -10520 
  -10409   -10305   -10215   -10133   -10046    -9948    -9844    -9755 
   -9691    -9660    -9656    -9666    -9688    -9740    -9825    -9940 
  -10087   -10246   -10392   -10525   -10648   -10756   -10856   -10944 
  -11014   -11060   -11074   -11044   -10976   -10868   -10713   -10517 
  -10304   -10102    -9926    -9790    -9690    -9617    -9566    -9541 
   -9549    -9590    -9644    -9701    -9767    -9838    -9922   -10025 
  -10120   -10192   -10261   -10351   -10457   -10558   -10655   -10754 
  -10843   -10922   -10989   -11020   -11016   -11006   -10998   -10991 
  -10989   -10976   -10948   -10917   -10886   -10847   -10794   -10735 
  -10674   -10615   -10563   -10516   -10463   -10404   -10343   -10291 
  -10250   -10201   -10125   -10027    -9941    -9865    -9788    -9691 
   -9559    -9400    -9247    -9120    -9018    -8923    -8837    -8770 
   -8719    -8672    -8615    -8538    -8452    -8365    -8282    -8208 
   -8148    -8097    -8063    -8062    -8093    -8159    -8249    -8360 
   -8498    -8668    -8873    -9109    -9351    -9567    -9752    -9926 
  -10103   -10273   -10420   -10535   -10615   -10667   -10704   -10721 
  -10716   -10685   -10629   -10562   -10500   -10439   -10358   -10261 
  -10145   -10002    -9849    -9699    -9547    -9381    -9201    -9013 
   -8837    -8677    -8529    -8382    -8236    -8109    -8017    -7955 
   -7901    -7842    -7796    -7796    -7848    -7946    -8070    -8189 
   -8299    -8421    -8552    -8689    -8826    -8941    -9034    -9112 
   -9178    -9246    -9317    -9371    -9405    -9433    -9460    -9506 
   -9587    -9703    -9838    -9975   -10110   -10261   -10430   -10598 
  -10754   -10897   -11026   -11155   -11290   -11414   -11506   -11565 
  -11601   -11616   -11612   -11593   -11550   -11472   -11362   -11238 
  -11103   -10957   -10787   -10593   -10401   -10233   -10079    -9923 
   -9763    -9602    -9452    -9331    -9243    -9170    -9107    -9069 
   -9065    -9090    -9140    -9201    -9270    -9337    -9404    -9483 
   -9583    -9698    -9828    -9963   -10099   -10230   -10347   -10461 
  -10582   -10714   -10854   -10995   -11134   -11253   -11352   -11431 
  -11484   -11510   -11506   -11465   -11387   -11276   -11141   -10984 
  -10812   -10629   -10451   -10311   -10208   -10112   -10017    -9923 
   -9836    -9768    -9721    -9680    -9652    -9645    -9664    -9691 
   -9715    -9738    -9764    -9792    -9830    -9863    -9882    -9898 
   -9911    -9910    -9886    -9846    -9799    -9732    -9628    -9502 
   -9362    -9197    -9003    -8788    -8567    -8349    -8139    -7935 
   -7735    -7546    -7376    -7238    -7141    -7082    -7063    -7074 
   -7109    -7180    -7300    -7460    -7645    -7844    -8055    -8284 
   -8533    -8802    -9078    -9352    -9616    -9868   -10102   -10315 
  -10516   -10708   -10886   -11053   -11196   -11314   -11421   -11518 
  -11596   -11662   -11719   -11772   -11821   -11862   -11886   -11890 
  -11874   -11855   -11836   -11804   -11747   -11668   -11572   -11475 
  -11383   -11291   -11198   -11095   -10984   -10871   -10774   -10694 
  -10619   -10535   -10450   -10376   -10314   -10257   -10199   -10139 
  -10088   -10048   -10012    -9980    -9952    -9923    -9906    -9899 
   -9898    -9902    -9907    -9913    -9941    -9990   -10041   -10100 
  -10169   -10235   -10301   -10374   -10443   -10500   -10548   -10596 
  -10628   -10635   -10617   -10578   -10515   -10436   -10351   -10277 
  -10216   -10156   -10081    -9999    -9914    -9833    -9774    -9730 
   -9679    -9609    -9531    -9459    -9413    -9383    -9350    -9301 
   -9244    -9196    -9163    -9142    -9119    -9085    -9042    -8995 
   -8941    -8887    -8816    -8714    -8602    -8495    -8390    -8291 
   -8209    -8127    -8040    -7969    -7924    -7894    -7881    -7873 
   -7863    -7866    -7888    -7927    -7989    -8081    -8194    -8328 
   -8475    -8629    -8785    -8943    -9099    -9246    -9394    -9549 
   -9703    -9859   -10011   -10160   -10305   -10447   -10586   -10732 
  -10863   -10956   -11005   -11013   -10987   -10939   -10864   -10759 
  -10627   -10476   -10326   -10193   -10076    -9950    -9822    -9709 
   -9618    -9562    -9544    -9551    -9578    -9636    -9717    -9805 
   -9900   -10022   -10165   -10316   -10477   -10639   -10801   -10963 
  -11119   -11277   -11430   -11556   -11657   -11726   -11757   -11763 
  -11754   -11732   -11699   -11650   -11588   -11523   -11461   -11399 
  -11326   -11245   -11156   -11056   -10955   -10856   -10758   -10658 
  -10565   -10485   -10416   -10349   -10281   -10212   -10152   -10095 
  -10035    -9973    -9911    -9868    -9852    -9869    -9910    -9972 
  -10045   -10119   -10193   -10261   -10322   -10385   -10455   -10531 
  -10613   -10686   -10732   -10755   -10763   -10760   -10740   -10701 
  -10639   -10540   -10408   -10254   -10083    -9896    -9706    -9517 
   -9337    -9175    -9035    -8915    -8803    -8691    -8592    -8521 
   -8471    -8430    -8403    -8397    -8421    -8469    -8537    -8621 
   -8710    -8797    -8887    -8980    -9069    -9146    -9202    -9236 
   -9246    -9235    -9212    -9181    -9131    -9058    -8969    -8877 
   -8793    -8714    -8634    -8552    -8478    -8432    -8418    -8428 
   -8452    -8496    -8569    -8669    -8797    -8957    -9132    -9319 
   -9518    -9724    -9936   -10153   -10355   -10532   -10685   -10817 
  -10928   -11013   -11065   -11092   -11092   -11071   -11047   -11010 
  -10955   -10901   -10854   -10802   -10741   -10671   -10600   -10534 
  -10466   -10389   -10303   -10214   -10131   -10062   -10004    -9940 
   -9861    -9782    -9717    -9676    -9648    -9612    -9572    -9549 
   -9537    -9533    -9535    -9540    -9549    -9563    -9580    -9591 
   -9587    -9574    -9553    -9525    -9491    -9450    -9412    -9398 
   -9397    -9389    -9387    -9405    -9440    -9491    -9559    -9628 
   -9705    -9799    -9899    -9999   -10103   -10207   -10308   -10400 
  -10482   -10565   -10646   -10709   -10751   -10777   -10787   -10782 
  -10759   -10716   -10651   -10566   -10462   -10338   -10189   -10025 
   -9857    -9698    -9548    -9410    -9292    -9186    -9082    -8988 
   -8916    -8874    -8862    -8876    -8897    -8915    -8937    -8968 
   -9004    -9047    -9096    -9135    -9180    -9244    -9325    -9412 
   -9494    -9568    -9649    -9744    -9849    -9956   -10046   -10118 
  -10184   -10237   -10268   -10281   -10276   -10262   -10255   -10242 
  -10211   -10168   -10114   -10053    -9990    -9927    -9864    -9798 
   -9734    -9687    -9647    -9606    -9579    -9580    -9613    -9668 
   -9728    -9787    -9857    -9944   -10039   -10139   -10233   -10311 
  -10388   -10467   -10548   -10633   -10710   -10768   -10813   -10844 
  -10863   -10879   -10879   -10864   -10847   -10827   -10795   -10760 
  -10721   -10683   -10644   -10606   -10575   -10547   -10508   -10457 
  -10403   -10354   -10307   -10257   -10218   -10181   -10134   -10085 
  -10048   -10018    -9994    -9973    -9956    -9931    -9898    -9868 
   -9842    -9815    -9790    -9767    -9747    -9729    -9717    -9707 
   -9701    -9702    -9717    -9744    -9771    -9791    -9796    -9798 
   -9799    -9798    -9801    -9809    -9805    -9795    -9791    -9788 
   -9772    -9744    -9701    -9647    -9583    -9520    -9458    -9393 
   -9332    -9275    -9220    -9171    -9126    -9074    -9028    -8996 
   -8978    -8974    -8976    -8972    -8965    -8970    -8986    -9003 
   -9019    -9026    -9019    -9012    -9020    -9040    -9073    -9104 
   -9127    -9154    -9197    -9256    -9327    -9401    -9477    -9558 
   -9651    -9760    -9879    -9995   -10116   -10254   -10393   -10519 
  -10627   -10727   -10824   -10918   -10998   -11065   -11113   -11141 
  -11165   -11192   -11225   -11249   -11250   -11240   -11225   -11202 
  -11167   -11125   -11074   -11007   -10930   -10852   -10766   -10678 
  -10600   -10519   -10430   -10334   -10241   -10153   -10061    -9954 
   -9842    -9738    -9651    -9585    -9531    -9477    -9418    -9373 
   -9355    -9355    -9359    -9356    -9342    -9324    -9313    -9305 
   -9294    -9274    -9251    -9228    -9205    -9177    -9142    -9094 
   -9038    -8974    -8908    -8833    -8753    -8681    -8614    -8549 
   -8492    -8446    -8413    -8401    -8409    -8434    -8476    -8525 
   -8576    -8640    -8729    -8838    -8950    -9065    -9178    -9292 
