Origin Time       2025/01/13 21:19:00
Lat.              31.8
Long.             131.6
Depth. (km)       30
Mag.              6.9
Station Code      FKO011
Station Lat.      33.3237
Station Long.     130.5118
Station Height(m) 10
Record Time       2025/01/13 21:20:09
Sampling Freq(Hz) 100Hz
Duration Time(s)  113
Dir.              U-D
Scale Factor      7845(gal)/8223790
Max. Acc. (gal)   3.306
Last Correction   2025/01/13 21:20:10
Memo.             
[...]
   14397    14580    14710    14747    14709    14598    14400    14122 
   13821    13574    13414    13351    13420    13603    13824    14044 
   14283    14531    14763    14951    15043    14974    14746    14405 
   14013    13618    13271    13034    12953    13054    13359    13822 
   14347    14877    15357    15689    15781    15623    15299    14902 
   14494    14129    13806    13497    13240    13144    13270    13591 
   14002    14364    14607    14743    14814    14875    14929    14929 
   14855    14713    14503    14247    14008    13849    13817    13903 
   14048    14202    14347    14462    14526    14547    14554    14531 
   14434    14281    14149    14062    14014    14040    14166    14378 
   14643    14895    15064    15129    15091    14971    14808    14620 
   14419    14215    14015    13814    13602    13382    13181    13050 
   13046    13200    13487    13834    14137    14310    14349    14299 
   14243    14260    14319    14328    14249    14085    13857    13632 
   13491    13466    13555    13724    13914    14088    14218    14305 
   14404    14565    14782    14980    15068    14991    14804    14625 
   14524    14477    14426    14339    14219    14075    13934    13832 
   13795    13822    13864    13863    13783    13635    13470    13374 
   13408    13575    13849    14166    14426    14561    14581    14534 
   14477    14480    14542    14592    14543    14364    14106    13856 
   13682    13618    13682    13851    14053    14215    14314    14378 
   14472    14635    14852    15055    15157    15114    14940    14694 
   14451    14239    14056    13907    13786    13693    13621    13570 
   13590    13725    13946    14183    14349    14385    14296    14129 
   13960    13846    13792    13788    13818    13859    13892    13909 
   13925    13961    14004    14029    14010    13932    13802    13663 
   13560    13529    13595    13747    13917    14048    14116    14146 
   14177    14231    14310    14404    14508    14600    14639    14588 
   14462    14341    14304    14373    14490    14562    14530    14405 
   14220    14021    13853    13726    13645    13629    13664    13714 
   13791    13930    14130    14349    14524    14598    14553    14400 
   14180    13936    13725    13601    13593    13689    13840    13994 
   14118    14185    14183    14118    14021    13919    13806    13674 
   13570    13521    13517    13556    13645    13787    13984    14211 
   14431    14643    14831    14956    14997    14941    14787    14588 
   14442    14411    14486    14643    14859    15091    15283    15423 
   15535    15620    15670    15649    15519    15309    15079    14871 
   14710    14613    14575    14555    14513    14445    14361    14288 
   14257    14270    14312    14391    14503    14584    14581    14494 
   14341    14156    14003    13899    13819    13733    13624    13498 
   13377    13282    13243    13266    13347    13505    13743    14015 
   14258    14431    14543    14619    14661    14656    14625    14616 
   14670    14782    14913    15032    15126    15198    15259    15300 
   15310    15292    15263    15217    15144    15032    14881    14720 
   14593    14497    14377    14196    13975    13738    13487    13238 
   13031    12910    12896    12973    13084    13188    13281    13390 
   13535    13721    13945    14165    14349    14488    14569    14575 
   14505    14384    14276    14242    14291    14412    14570    14717 
   14836    14914    14944    14936    14910    14894    14906    14924 
   14897    14793    14628    14467    14359    14308    14293    14292 
   14308    14347    14386    14419    14481    14602    14742    14864 
   14978    15059    15068    14997    14854    14673    14508    14384 
   14289    14197    14080    13933    13774    13599    13429    13294 
   13196    13120    13059    12997    12954    12957    13028    13188 
   13423    13689    13944    14158    14335    14505    14669    14833 
   15024    15221    15377    15468    15504    15503    15477    15429 
   15337    15172    14955    14731    14516    14283    14025    13782 
   13589    13478    13479    13586    13749    13922    14076    14183 
   14218    14181    14100    14008    13925    13849    13783    13748 
   13780    13884    14035    14202    14332    14385    14355    14251 
   14085    13880    13655    13446    13274    13127    13028    13024 
   13127    13320    13552    13776    13990    14197    14389    14543 
   14627    14631    14592    14542    14481    14391    14262    14107 
   13946    13813    13740    13736    13780    13845    13922    13996 
   14030    14023    14007    14002    14013    14052    14116    14193 
   14296    14443    14621    14777    14851    14835    14742    14600 
   14457    14331    14243    14199    14160    14088    13987    13856 
   13707    13599    13556    13544    13536    13549    13597    13672 
   13775    13880    13944    13969    13994    14030    14088    14184 
   14283    14334    14326    14257    14119    13941    13784    13701 
   13694    13761    13887    14014    14089    14125    14180    14283 
   14407    14501    14520    14469    14405    14364    14345    14365 
   14416    14439    14407    14334    14220    14040    13807    13585 
   13433    13392    13447    13518    13549    13559    13576    13616 
   13711    13896    14153    14424    14648    14774    14773    14686 
   14604    14575    14558    14507    14462    14476    14534    14573 
   14562    14543    14546    14536    14492    14432    14377    14373 
   14461    14600    14708    14764    14829    14956    15106    15214 
   15267    15290    15325    15371    15399    15395    15342    15232 
   15097    14983    14874    14708    14508    14355    14283    14265 
   14277    14308    14326    14315    14307    14330    14400    14540 
   14744    14967    15188    15377    15489    15533    15531    15487 
   15426    15381    15352    15313    15252    15196    15182    15209 
   15263    15321    15334    15279    15167    15012    14851    14728 
   14636    14553    14480    14407    14327    14274    14285    14366 
   14511    14710    14945    15160    15296    15352    15333    15259 
   15165    15061    14936    14793    14644    14501    14393    14332 
   14287    14247    14218    14173    14100    14014    13921    13824 
   13717    13597    13493    13448    13470    13536    13609    13689 
   13775    13815    13784    13728    13687    13679    13695    13726 
   13761    13818    13899    13995    14131    14330    14550    14742 
   14882    14960    14976    14941    14878    14804    14692    14543 
   14388    14208    13972    13705    13478    13320    13171    12968 
   12695    12357    12002    11695    11488    11425    11492    11639 
   11811    11965    12097    12221    12351    12467    12530    12544 
   12526    12478    12444    12506    12696    12996    13373    13786 
   14192    14563    14874    15095    15230    15282    15259    15187 
   15057    14872    14682    14528    14422    14364    14349    14349 
   14326    14268    14177    14058    13922    13763    13570    13352 
   13151    13016    12966    12984    13074    13259    13514    13797 
   14077    14326    14544    14754    14929    15037    15083    15063 
   14968    14812    14609    14369    14102    13869    13741    13707 
   13717    13756    13834    13954    14131    14373    14627    14839 
   15010    15137    15198    15196    15171    15144    15114    15120 
   15191    15295    15384    15441    15472    15499    15531    15542 
   15492    15372    15202    15007    14797    14578    14381    14247 
   14222    14308    14451    14593    14704    14777    14791    14742 
   14646    14536    14423    14300    14152    13963    13755    13574 
   13446    13358    13285    13235    13223    13224    13216    13197 
   13163    13119    13070    12991    12869    12715    12537    12329 
   12089    11834    11605    11431    11325    11288    11307    11376 
   11497    11709    12066    12560    13132    13749    14395    15013 
   15543    15985    16390    16767    17065    17266    17393    17458 
   17452    17402    17316    17165    16953    16721    16502    16312 
   16139    15962    15790    15608    15356    15039    14694    14318 
   13930    13606    13392    13296    13311    13417    13595    13803 
   14004    14166    14246    14238    14196    14133    14023    13883 
   13714    13501    13290    13116    13005    13019    13167    13404 
   13689    13967    14187    14372    14547    14685    14766    14808 
   14827    14825    14818    14850    14953    15111    15275    15421 
   15538    15618    15641    15600    15512    15404    15314    15249 
   15202    15174    15145    15086    14976    14785    14494    14143 
   13787    13441    13090    12760    12501    12316    12209    12216 
   12333    12541    12820    13130    13429    13701    13942    14156 
   14319    14407    14392    14274    14089    13911    13828    13871 
   13983    14091    14162    14195    14223    14287    14358    14415 
   14474    14550    14634    14690    14717    14759    14854    15007 
   15199    15395    15553    15645    15654    15591    15461    15271 
   15068    14886    14682    14435    14170    13894    13645    13490 
   13433    13437    13474    13543    13635    13694    13655    13520 
   13351    13198    13072    12976    12912    12874    12864    12876 
   12927    13034    13174    13300    13390    13455    13518    13593 
   13686    13805    13956    14135    14305    14408    14431    14408 
   14368    14358    14435    14557    14670    14789    14921    15041 
   15136    15191    15195    15138    15006    14812    14581    14335 
   14123    13981    13899    13841    13786    13729    13693    13699 
   13753    13855    13992    14135    14241    14287    14283    14266 
   14274    14324    14436    14604    14809    15030    15229    15377 
   15465    15496    15499    15479    15394    15219    14953    14611 
   14254    13954    13722    13536    13383    13251    13111    12950 
   12784    12637    12546    12548    12638    12791    12974    13146 
   13289    13408    13508    13624    13788    13980    14161    14293 
   14354    14331    14231    14098    14006    14019    14156    14377 
   14634    14881    15080    15229    15363    15525    15735    15974 
   16200    16362    16433    16401    16283    16123    15951    15792 
   15655    15535    15427    15309    15151    14944    14725    14497 
   14254    14048    13921    13845    13788    13720    13637    13564 
   13524    13536    13605    13703    13770    13788    13782    13779 
   13821    13911    14034    14193    14369    14505    14565    14547 
   14453    14292    14083    13848    13621    13413    13204    13007 
   12856    12764    12748    12829    12999    13235    13505    13757 
   13965    14138    14264    14341    14403    14454    14485    14505 
   14521    14521    14504    14489    14488    14478    14442    14381 
   14292    14183    14079    14018    14010    14034    14092    14187 
   14297    14399    14478    14520    14512    14482    14457    14455 
   14503    14601    14721    14824    14886    14910    14906    14889 
   14893    14948    15040    15137    15215    15257    15264    15260 
   15265    15295    15357    15439    15492    15483    15412    15286 
   15109    14905    14706    14546    14432    14343    14250    14153 
   14079    14049    14050    14053    14037    13964    13794    13533 
   13227    12935    12703    12534    12410    12318    12245    12185 
   12172    12245    12399    12621    12876    13128    13350    13516 
   13643    13759    13865    13959    14050    14122    14156    14189 
   14264    14380    14535    14690    14800    14848    14832    14764 
   14697    14652    14623    14602    14566    14494    14404    14314 
   14239    14188    14156    14138    14130    14118    14104    14081 
   14041    14018    14050    14126    14227    14351    14467    14553 
   14638    14747    14863    14968    15055    15118    15160    15186 
   15196    15205    15234    15296    15371    15439    15496    15514 
   15465    15360    15206    15016    14824    14627    14409    14207 
   14022    13842    13680    13537    13433    13394    13408    13459 
   13514    13518    13455    13340    13197    13045    12900    12781 
   12718    12714    12758    12846    12953    13066    13219    13413 
   13602    13745    13832    13875    13896    13915    13942    13991 
   14087    14238    14445    14696    14955    15201    15429    15622 
   15784    15930    16054    16136    16168    16146    16074    15978 
   15878    15780    15674    15573    15469    15340    15190    15051 
   14943    14871    14833    14820    14820    14816    14809    14808 
   14805    14786    14740    14652    14543    14416    14265    14127 
   14041    14007    14010    14031    14027    13965    13841    13656 
   13427    13173    12912    12667    12442    12233    12048    11890 
   11784    11758    11820    11954    12133    12325    12498    12645 
   12785    12922    13049    13185    13329    13460    13581    13698 
   13815    13950    14127    14339    14554    14742    14883    14986 
   15087    15214    15375    15572    15788    15997    16189    16363 
   16528    16692    16869    17073    17289    17481    17620    17698 
   17709    17656    17550    17381    17161    16906    16619    16324 
   16032    15762    15549    15388    15259    15151    15044    14931 
   14802    14655    14515    14408    14327    14246    14146    14017 
   13846    13640    13414    13197    13001    12815    12650    12523 
   12417    12324    12258    12222    12220    12245    12272    12275 
   12251    12214    12190    12201    12256    12344    12456    12591 
   12734    12880    13032    13177    13323    13497    13694    13898 
   14099    14280    14443    14617    14814    15028    15252    15473 
   15661    15799    15873    15892    15881    15867    15869    15880 
   15886    15881    15842    15747    15612    15465    15341    15267 
   15259    15307    15365    15380    15341    15269    15179    15071 
   14949    14813    14669    14521    14369    14210    14060    13948 
   13913    13977    14108    14258    14422    14573    14663    14679 
   14615    14454    14206    13903    13559    13204    12876    12576 
   12302    12060    11842    11674    11578    11541    11553    11585 
   11593    11558    11491    11391    11281    11221    11238    11331 
   11492    11713    11994    12316    12654    13004    13356    13691 
   13983    14210    14386    14540    14659    14735    14797    14879 
   14985    15103    15219    15330    15437    15557    15691    15799 
   15863    15897    15889    15836    15770    15714    15666    15623 
   15601    15627    15678    15709    15719    15703    15643    15539 
   15381    15168    14935    14724    14570    14470    14405    14381 
   14419    14503    14627    14785    14935    15053    15148    15209 
   15248    15291    15352    15444    15566    15688    15800    15908 
   15998    16056    16063    15998    15838    15584    15265    14902 
   14505    14091    13683    13302    12969    12711    12548    12460 
   12415    12390    12382    12409    12471    12559    12649    12711 
   12756    12800    12835    12861    12892    12934    12989    13045 
   13081    13104    13130    13144    13126    13073    12996    12906 
   12822    12777    12798    12880    12989    13103    13200    13266 
   13317    13360    13389    13401    13404    13398    13378    13316 
   13205    13055    12872    12680    12517    12378    12253    12162 
   12117    12124    12178    12286    12469    12696    12920    13161 
   13425    13698    13998    14355    14746    15118    15433    15672 
   15838    15963    16087    16213    16328    16407    16447    16449 
   16399    16295    16163    16005    15823    15628    15445    15295 
   15182    15099    15044    15018    15028    15059    15111    15192 
   15279    15365    15445    15465    15431    15391    15350    15306 
   15257    15234    15246    15256    15257    15287    15348    15446 
   15577    15715    15863    16002    16104    16204    16310    16374 
   16378    16356    16320    16264    16190    16120    16069    16043 
   16025    15986    15927    15851    15739    15604    15469    15334 
   15187    15012    14805    14582    14357    14135    13914    13682 
   13462    13273    13089    12892    12676    12451    12247    12093 
   11998    11952    11938    11946    11982    12040    12109    12191 
   12286    12372    12448    12537    12648    12765    12874    12982 
   13085    13167    13227    13281    13335    13371    13373    13333 
   13266    13198    13136    13101    13113    13146    13186    13228 
   13236    13217    13213    13250    13343    13510    13733    13977 
   14212    14431    14652    14883    15111    15326    15511    15645 
   15731    15795    15850    15900    15962    16058    16191    16343 
   16463    16532    16548    16502    16391    16224    16005    15759 
   15519    15284    15029    14767    14521    14301    14125    13990 
   13887    13834    13807    13770    13740    13724    13695    13668 
   13675    13725    13784    13821    13833    13811    13756    13679 
   13601    13522    13424    13298    13166    13038    12938    12888 
   12892    12943    13018    13090    13178    13279    13382    13481 
   13525    13475    13363    13259    13228    13286    13400    13552 
   13730    13880    13936    13892    13798    13686    13556    13398 
   13248    13144    13085    13086    13180    13350    13574    13837 
   14098    14328    14528    14705    14863    15005    15121    15211 
   15280    15334    15383    15438    15488    15515    15531    15570 
   15650    15759    15877    15988    16096    16212    16339    16459 
   16544    16588    16594    16563    16498    16397    16266    16117 
   15952    15770    15553    15286    15020    14810    14629    14446 
   14249    14035    13821    13610    13389    13169    12968    12799 
   12680    12623    12626    12691    12835    13045    13269    13490 
   13675    13782    13828    13824    13771    13699    13635    13591 
   13594    13660    13776    13917    14067    14223    14382    14527 
   14625    14662    14651    14621    14589    14566    14575    14601 
   14615    14627    14677    14763    14845    14928    15047    15201 
   15365    15483    15480    15357    15183    15003    14829    14636 
   14430    14230    14022    13802    13574    13335    13095    12842 
   12550    12248    11966    11727    11556    11468    11493    11649 
   11904    12213    12560    12928    13301    13667    13992    14229 
   14378    14466    14494    14480    14439    14386    14331    14281 
   14223    14134    14011    13890    13790    13706    13614    13479 
   13308    13169    13089    13034    12987    12965    13001    13100 
   13228    13379    13541    13680    13807    13949    14091    14220 
   14342    14463    14586    14723    14871    15013    15126    15213 
   15288    15356    15418    15512    15653    15813    15979    16162 
