Origin Time       2025/01/13 21:19:00
Lat.              31.8
Long.             131.6
Depth. (km)       30
Mag.              6.9
Station Code      FKO002
Station Lat.      33.8253
Station Long.     130.7058
Station Height(m) 3
Record Time       2025/01/13 21:20:19
Sampling Freq(Hz) 100Hz
Duration Time(s)  121
Dir.              E-W
Scale Factor      7845(gal)/8223790
Max. Acc. (gal)   7.086
Last Correction   2025/01/13 21:20:19
Memo.             
[...]
   -4513    -4540    -4584    -4638    -4707    -4784    -4864    -4943 
   -5019    -5086    -5142    -5190    -5227    -5247    -5250    -5240 
   -5219    -5185    -5134    -5059    -4968    -4857    -4731    -4599 
   -4464    -4330    -4207    -4097    -4006    -3937    -3892    -3877 
   -3883    -3898    -3924    -3958    -4005    -4078    -4176    -4297 
   -4433    -4587    -4749    -4901    -5040    -5159    -5259    -5348 
   -5417    -5471    -5525    -5571    -5618    -5672    -5728    -5790 
   -5860    -5929    -6000    -6080    -6161    -6245    -6338    -6431 
   -6524    -6612    -6689    -6760    -6810    -6825    -6821    -6793 
   -6732    -6646    -6532    -6403    -6254    -6088    -5921    -5749 
   -5574    -5395    -5215    -5039    -4872    -4708    -4554    -4411 
   -4294    -4201    -4121    -4064    -4024    -4004    -4020    -4051 
   -4105    -4195    -4302    -4437    -4608    -4800    -5027    -5287 
   -5574    -5872    -6161    -6438    -6685    -6886    -7051    -7164 
   -7213    -7209    -7155    -7056    -6921    -6748    -6544    -6327 
   -6103    -5871    -5641    -5416    -5201    -5001    -4810    -4634 
   -4477    -4340    -4229    -4139    -4070    -4029    -4009    -4018 
   -4047    -4079    -4120    -4159    -4194    -4233    -4259    -4272 
   -4284    -4293    -4307    -4329    -4355    -4391    -4432    -4471 
   -4507    -4534    -4550    -4560    -4553    -4526    -4477    -4419 
   -4359    -4294    -4220    -4144    -4067    -3990    -3917    -3850 
   -3793    -3744    -3700    -3662    -3620    -3565    -3501    -3419 
   -3315    -3200    -3078    -2967    -2874    -2787    -2725    -2681 
   -2647    -2635    -2636    -2651    -2691    -2749    -2829    -2933 
   -3055    -3192    -3342    -3500    -3674    -3855    -4044    -4253 
   -4472    -4703    -4943    -5177    -5405    -5625    -5830    -6023 
   -6199    -6357    -6500    -6617    -6709    -6781    -6829    -6860 
   -6872    -6860    -6824    -6762    -6674    -6561    -6423    -6259 
   -6084    -5898    -5705    -5514    -5328    -5152    -4997    -4860 
   -4739    -4638    -4537    -4444    -4374    -4314    -4253    -4190 
   -4124    -4051    -3966    -3878    -3788    -3700    -3635    -3599 
   -3592    -3624    -3697    -3801    -3936    -4101    -4290    -4488 
   -4699    -4922    -5148    -5371    -5582    -5776    -5957    -6133 
   -6304    -6462    -6609    -6752    -6878    -6970    -7026    -7045 
   -7022    -6957    -6856    -6717    -6546    -6358    -6154    -5941 
   -5718    -5491    -5259    -5022    -4774    -4511    -4232    -3947 
   -3654    -3357    -3061    -2776    -2509    -2273    -2069    -1900 
   -1763    -1667    -1618    -1605    -1622    -1674    -1757    -1867 
   -1991    -2134    -2303    -2492    -2697    -2925    -3175    -3439 
   -3719    -4023    -4353    -4708    -5078    -5444    -5796    -6135 
   -6459    -6772    -7075    -7372    -7663    -7954    -8229    -8475 
   -8692    -8883    -9049    -9182    -9274    -9328    -9351    -9344 
   -9313    -9261    -9185    -9100    -8999    -8872    -8721    -8546 
   -8351    -8141    -7924    -7697    -7461    -7217    -6976    -6739 
   -6498    -6249    -5998    -5746    -5493    -5246    -5007    -4769 
   -4554    -4374    -4221    -4097    -3997    -3928    -3898    -3900 
   -3931    -3982    -4043    -4114    -4193    -4279    -4380    -4496 
   -4622    -4761    -4916    -5077    -5242    -5409    -5571    -5714 
   -5818    -5883    -5910    -5892    -5838    -5741    -5606    -5449 
   -5269    -5067    -4864    -4654    -4456    -4280    -4114    -3962 
   -3835    -3736    -3663    -3616    -3595    -3592    -3608    -3647 
   -3713    -3800    -3913    -4052    -4205    -4367    -4534    -4698 
   -4857    -5007    -5148    -5278    -5389    -5493    -5590    -5678 
   -5769    -5865    -5967    -6085    -6220    -6357    -6486    -6609 
   -6717    -6808    -6887    -6949    -6993    -7010    -6997    -6953 
   -6870    -6737    -6565    -6358    -6124    -5865    -5583    -5292 
   -4997    -4710    -4433    -4162    -3897    -3654    -3441    -3254 
   -3096    -2967    -2866    -2799    -2764    -2759    -2786    -2829 
   -2884    -2953    -3018    -3069    -3117    -3168    -3222    -3276 
   -3339    -3419    -3511    -3615    -3717    -3812    -3905    -3993 
   -4062    -4117    -4153    -4172    -4185    -4198    -4206    -4206 
   -4198    -4171    -4131    -4081    -4016    -3935    -3836    -3726 
   -3615    -3505    -3404    -3321    -3258    -3221    -3207    -3211 
   -3231    -3271    -3330    -3410    -3512    -3635    -3782    -3955 
   -4149    -4355    -4573    -4814    -5077    -5356    -5651    -5960 
   -6284    -6628    -6978    -7325    -7666    -7986    -8290    -8575 
   -8820    -9034    -9215    -9351    -9448    -9504    -9516    -9489 
   -9418    -9302    -9136    -8920    -8652    -8338    -7986    -7603 
   -7198    -6781    -6362    -5949    -5555    -5193    -4858    -4550 
   -4274    -4021    -3798    -3599    -3416    -3260    -3125    -3006 
   -2917    -2852    -2806    -2791    -2806    -2853    -2932    -3036 
   -3175    -3348    -3543    -3769    -4025    -4305    -4614    -4946 
   -5286    -5638    -5995    -6339    -6654    -6930    -7171    -7368 
   -7518    -7624    -7692    -7728    -7732    -7697    -7639    -7561 
   -7454    -7329    -7190    -7037    -6866    -6673    -6466    -6250 
   -6023    -5792    -5567    -5351    -5150    -4968    -4800    -4649 
   -4503    -4359    -4214    -4056    -3882    -3697    -3505    -3316 
   -3144    -2988    -2864    -2782    -2729    -2695    -2682    -2681 
   -2691    -2713    -2744    -2786    -2839    -2905    -2984    -3075 
   -3175    -3277    -3377    -3472    -3564    -3649    -3732    -3817 
   -3897    -3966    -4029    -4082    -4128    -4179    -4224    -4245 
   -4251    -4245    -4217    -4171    -4120    -4064    -4009    -3963 
   -3933    -3928    -3939    -3954    -3973    -3994    -4018    -4052 
   -4081    -4101    -4117    -4114    -4089    -4068    -4070    -4081 
   -4094    -4120    -4167    -4237    -4324    -4417    -4525    -4654 
   -4800    -4958    -5125    -5306    -5508    -5717    -5930    -6145 
   -6349    -6527    -6675    -6794    -6885    -6940    -6960    -6948 
   -6907    -6848    -6770    -6674    -6561    -6438    -6311    -6189 
   -6079    -5983    -5904    -5848    -5818    -5817    -5846    -5902 
   -5981    -6076    -6180    -6288    -6397    -6492    -6567    -6624 
   -6651    -6648    -6624    -6577    -6508    -6420    -6315    -6189 
   -6048    -5896    -5737    -5575    -5418    -5265    -5109    -4946 
   -4765    -4569    -4368    -4156    -3933    -3700    -3470    -3252 
   -3040    -2836    -2644    -2454    -2273    -2108    -1945    -1779 
   -1622    -1476    -1343    -1229    -1143    -1090    -1075    -1105 
   -1186    -1305    -1462    -1657    -1872    -2100    -2340    -2578 
   -2817    -3052    -3275    -3496    -3713    -3912    -4095    -4263 
   -4411    -4541    -4661    -4776    -4892    -5011    -5134    -5266 
   -5408    -5564    -5728    -5888    -6049    -6204    -6349    -6492 
   -6631    -6763    -6895    -7032    -7168    -7302    -7431    -7562 
   -7682    -7786    -7882    -7959    -8017    -8066    -8095    -8114 
   -8129    -8132    -8131    -8133    -8135    -8133    -8127    -8113 
   -8095    -8064    -8016    -7950    -7852    -7730    -7601    -7462 
   -7310    -7161    -7007    -6843    -6670    -6481    -6277    -6075 
   -5876    -5682    -5497    -5314    -5140    -4986    -4862    -4772 
   -4700    -4642    -4612    -4596    -4576    -4556    -4523    -4469 
   -4395    -4301    -4182    -4044    -3890    -3728    -3565    -3407 
   -3261    -3127    -3017    -2936    -2872    -2832    -2821    -2833 
   -2863    -2897    -2936    -2983    -3033    -3082    -3125    -3160 
   -3190    -3203    -3198    -3171    -3119    -3049    -2961    -2859 
   -2744    -2616    -2473    -2316    -2155    -1993    -1842    -1715 
   -1620    -1556    -1526    -1529    -1571    -1645    -1740    -1853 
   -1984    -2139    -2324    -2528    -2754    -3006    -3272    -3557 
   -3861    -4178    -4500    -4834    -5181    -5533    -5884    -6226 
   -6542    -6822    -7074    -7298    -7499    -7678    -7842    -7997 
   -8148    -8293    -8430    -8561    -8687    -8806    -8905    -8977 
   -9008    -8996    -8951    -8873    -8762    -8634    -8491    -8330 
   -8163    -8000    -7842    -7695    -7566    -7449    -7344    -7252 
   -7176    -7122    -7086    -7064    -7060    -7061    -7061    -7055 
   -7028    -6982    -6914    -6821    -6701    -6567    -6430    -6291 
   -6160    -6037    -5910    -5790    -5671    -5545    -5425    -5308 
   -5198    -5109    -5044    -5000    -4972    -4959    -4970    -4984 
   -4985    -4976    -4955    -4919    -4870    -4815    -4756    -4692 
   -4626    -4563    -4492    -4415    -4340    -4267    -4195    -4132 
   -4078    -4029    -3994    -3977    -3959    -3935    -3901    -3848 
   -3767    -3663    -3537    -3384    -3218    -3051    -2880    -2725 
   -2600    -2505    -2444    -2409    -2394    -2398    -2427    -2484 
   -2571    -2686    -2829    -3010    -3223    -3456    -3697    -3946 
   -4197    -4450    -4703    -4946    -5163    -5350    -5495    -5599 
   -5661    -5675    -5652    -5599    -5512    -5406    -5294    -5169 
   -5042    -4928    -4827    -4741    -4673    -4619    -4573    -4540 
   -4523    -4509    -4486    -4452    -4406    -4349    -4286    -4217 
   -4140    -4050    -3948    -3829    -3693    -3543    -3393    -3256 
   -3134    -3032    -2964    -2936    -2949    -3003    -3091    -3210 
   -3364    -3542    -3728    -3916    -4105    -4288    -4463    -4614 
   -4734    -4830    -4903    -4955    -4986    -4992    -4974    -4935 
   -4878    -4810    -4737    -4660    -4587    -4525    -4468    -4423 
   -4396    -4376    -4375    -4399    -4450    -4533    -4634    -4743 
   -4860    -4969    -5067    -5151    -5217    -5269    -5316    -5364 
   -5412    -5466    -5522    -5582    -5649    -5725    -5803    -5891 
   -5980    -6069    -6162    -6259    -6369    -6481    -6593    -6704 
   -6805    -6901    -6980    -7029    -7052    -7049    -7017    -6955 
   -6858    -6729    -6583    -6428    -6266    -6103    -5931    -5767 
   -5632    -5522    -5441    -5395    -5381    -5395    -5436    -5489 
   -5551    -5617    -5680    -5741    -5790    -5832    -5873    -5910 
   -5935    -5957    -5987    -6022    -6058    -6103    -6154    -6208 
   -6273    -6350    -6424    -6488    -6551    -6610    -6654    -6682 
   -6709    -6739    -6771    -6798    -6820    -6839    -6853    -6855 
   -6841    -6804    -6729    -6632    -6520    -6386    -6232    -6061 
   -5868    -5670    -5471    -5258    -5040    -4835    -4642    -4467 
   -4311    -4166    -4033    -3931    -3843    -3757    -3658    -3538 
   -3408    -3272    -3126    -2972    -2814    -2671    -2550    -2443 
   -2344    -2255    -2177    -2101    -2020    -1934    -1837    -1734 
   -1637    -1547    -1467    -1428    -1431    -1466    -1544    -1671 
   -1842    -2042    -2266    -2519    -2790    -3059    -3334    -3616 
   -3905    -4213    -4538    -4866    -5212    -5571    -5930    -6286 
   -6643    -7002    -7362    -7717    -8071    -8413    -8746    -9080 
   -9389    -9666    -9904   -10096   -10238   -10338   -10389   -10399 
  -10363   -10268   -10107    -9898    -9648    -9339    -8970    -8549 
   -8081    -7574    -7033    -6470    -5906    -5360    -4841    -4353 
   -3904    -3496    -3140    -2832    -2560    -2320    -2106    -1921 
   -1761    -1607    -1449    -1300    -1167    -1063     -985     -922 
    -886     -893     -939    -1026    -1143    -1297    -1509    -1768 
   -2057    -2389    -2751    -3137    -3553    -3970    -4371    -4770 
   -5162    -5525    -5846    -6127    -6372    -6574    -6729    -6840 
   -6901    -6916    -6901    -6868    -6828    -6782    -6741    -6714 
   -6704    -6713    -6745    -6791    -6848    -6922    -7011    -7101 
   -7171    -7211    -7225    -7209    -7161    -7084    -6976    -6839 
   -6666    -6458    -6207    -5918    -5597    -5242    -4868    -4491 
   -4117    -3751    -3392    -3052    -2745    -2465    -2203    -1954 
   -1725    -1533    -1386    -1274    -1201    -1171    -1177    -1215 
   -1285    -1395    -1541    -1709    -1899    -2126    -2381    -2656 
   -2960    -3289    -3630    -3977    -4336    -4693    -5032    -5359 
   -5668    -5938    -6184    -6412    -6620    -6810    -6978    -7122 
   -7241    -7331    -7395    -7412    -7393    -7350    -7267    -7146 
   -7011    -6870    -6721    -6565    -6397    -6230    -6069    -5915 
   -5772    -5632    -5478    -5319    -5162    -5013    -4876    -4742 
   -4615    -4504    -4402    -4301    -4194    -4075    -3958    -3848 
   -3746    -3655    -3573    -3507    -3465    -3442    -3434    -3446 
   -3480    -3541    -3631    -3751    -3890    -4051    -4249    -4482 
   -4742    -5035    -5354    -5697    -6068    -6457    -6851    -7241 
   -7623    -7997    -8353    -8681    -8980    -9244    -9463    -9637 
   -9756    -9814    -9823    -9784    -9687    -9525    -9297    -9020 
   -8696    -8328    -7917    -7464    -6982    -6486    -5973    -5440 
   -4884    -4315    -3736    -3157    -2583    -2000    -1417     -869 
    -359      125      581      996     1352     1652     1904     2110 
    2272     2386     2436     2428     2369     2250     2088     1887 
    1637     1355     1040      689      315      -85     -513     -945 
   -1386    -1846    -2324    -2809    -3287    -3758    -4240    -4731 
   -5225    -5724    -6223    -6721    -7215    -7708    -8189    -8645 
   -9074    -9475    -9838   -10156   -10420   -10624   -10773   -10866 
  -10895   -10856   -10747   -10567   -10335   -10057    -9734    -9370 
   -8972    -8548    -8118    -7693    -7276    -6879    -6508    -6150 
   -5805    -5478    -5169    -4882    -4617    -4359    -4118    -3898 
   -3688    -3485    -3294    -3107    -2926    -2764    -2639    -2548 
   -2500    -2513    -2589    -2714    -2895    -3132    -3420    -3769 
   -4166    -4598    -5065    -5566    -6083    -6601    -7117    -7618 
   -8098    -8549    -8957    -9329    -9667    -9954   -10197   -10395 
  -10548   -10655   -10710   -10720   -10686   -10604   -10476   -10305 
  -10085    -9814    -9495    -9130    -8714    -8247    -7731    -7168 
   -6566    -5945    -5314    -4689    -4077    -3472    -2878    -2297 
   -1744    -1221     -726     -261      153      515      823     1077 
    1275     1418     1510     1551     1547     1506     1418     1282 
    1105      880      604      284      -81     -492     -947    -1426 
   -1912    -2425    -2956    -3493    -4050    -4604    -5138    -5655 
   -6133    -6561    -6951    -7295    -7589    -7838    -8029    -8167 
   -8255    -8298    -8310    -8291    -8229    -8128    -7993    -7827 
   -7634    -7414    -7168    -6903    -6620    -6326    -6031    -5749 
   -5490    -5255    -5062    -4904    -4769    -4675    -4621    -4596 
   -4603    -4627    -4658    -4706    -4757    -4806    -4865    -4938 
   -5026    -5119    -5208    -5300    -5389    -5470    -5544    -5607 
   -5665    -5721    -5773    -5821    -5868    -5917    -5961    -6010 
   -6057    -6097    -6131    -6160    -6188    -6218    -6237    -6250 
   -6249    -6234    -6218    -6191    -6143    -6088    -6023    -5945 
   -5848    -5724    -5589    -5444    -5283    -5107    -4905    -4689 
   -4472    -4249    -4023    -3797    -3580    -3389    -3233    -3102 
   -2990    -2897    -2836    -2820    -2844    -2894    -2971    -3073 
   -3202    -3350    -3497    -3640    -3777    -3902    -4014    -4099 
   -4159    -4201    -4225    -4233    -4230    -4212    -4180    -4144 
   -4097    -4031    -3935    -3825    -3712    -3593    -3480    -3373 
   -3271    -3176    -3088    -3019    -2971    -2934    -2920    -2940 
   -2994    -3076    -3190    -3349    -3554    -3798    -4070    -4363 
   -4671    -4982    -5282    -5568    -5840    -6092    -6335    -6563 
   -6760    -6925    -7057    -7150    -7203    -7218    -7190    -7119 
   -7021    -6903    -6760    -6592    -6411    -6223    -6029    -5840 
   -5649    -5443    -5233    -5019    -4799    -4579    -4359    -4140 
   -3919    -3689    -3460    -3235    -3018    -2813    -2625    -2457 
   -2315    -2205    -2134    -2106    -2111    -2147    -2232    -2365 
   -2536    -2748    -2994    -3265    -3561    -3885    -4226    -4583 
   -4965    -5375    -5800    -6231    -6663    -7094    -7518    -7924 
   -8314    -8675    -8995    -9285    -9543    -9751    -9921   -10061 
  -10162   -10230   -10261   -10242   -10180   -10072    -9903    -9682 
   -9410    -9090    -8729    -8332    -7916    -7496    -7075    -6654 
   -6234    -5825    -5428    -5040    -4669    -4313    -3970    -3651 
   -3353    -3082    -2852    -2651    -2486    -2370    -2303    -2276 
   -2276    -2304    -2376    -2489    -2641    -2820    -3014    -3223 
   -3433    -3642    -3840    -4020    -4194    -4359    -4499    -4631 
   -4746    -4831    -4905    -4965    -4988    -4973    -4916    -4827 
   -4714    -4579    -4422    -4249    -4077    -3917    -3763    -3620 
   -3492    -3376    -3285    -3215    -3153    -3109    -3088    -3086 
   -3102    -3132    -3171    -3233    -3306    -3385    -3483    -3589 
   -3705    -3832    -3960    -4091    -4224    -4352    -4476    -4588 
   -4688    -4780    -4861    -4934    -5011    -5089    -5174    -5269 
   -5364    -5468    -5568    -5657    -5741    -5815    -5880    -5937 
   -5977    -6016    -6060    -6103    -6149    -6191    -6227    -6262 
   -6281    -6284    -6280    -6265    -6239    -6212    -6187    -6160 
   -6126    -6083    -6031    -5971    -5899    -5814    -5710    -5583 
   -5449    -5316    -5185    -5062    -4954    -4868    -4803    -4753 
   -4723    -4712    -4711    -4718    -4727    -4743    -4762    -4787 
   -4820    -4862    -4916    -4981    -5042    -5103    -5161    -5205 
   -5240    -5266    -5281    -5296    -5313    -5340    -5371    -5408 
   -5458    -5514    -5583    -5682    -5802    -5937    -6091    -6258 
   -6430    -6596    -6756    -6902    -7036    -7163    -7273    -7364 
   -7433    -7483    -7512    -7522    -7510    -7476    -7410    -7306 
   -7172    -7003    -6794    -6561    -6308    -6038    -5769    -5510 
   -5262    -5031    -4819    -4627    -4452    -4290    -4152    -4033 
   -3924    -3820    -3734    -3667    -3618    -3595    -3588    -3591 
   -3624    -3688    -3767    -3863    -3974    -4089    -4201    -4313 
   -4422    -4518    -4611    -4711    -4814    -4908    -4990    -5065 
   -5132    -5189    -5235    -5267    -5285    -5297    -5298    -5271 
   -5225    -5169    -5094    -5008    -4911    -4792    -4658    -4519 
   -4379    -4240    -4101    -3962    -3832    -3724    -3635    -3559 
   -3504    -3477    -3483    -3515    -3573    -3659    -3770    -3894 
   -4037    -4191    -4353    -4529    -4718    -4912    -5108    -5300 
   -5489    -5670    -5834    -5988    -6129    -6247    -6349    -6432 
   -6494    -6534    -6551    -6543    -6504    -6435    -6331    -6200 
   -6045    -5867    -5678    -5476    -5258    -5039    -4826    -4612 
