Origin Time       2025/01/13 21:19:00
Lat.              31.8
Long.             131.6
Depth. (km)       30
Mag.              6.9
Station Code      FKO013
Station Lat.      33.2254
Station Long.     130.5608
Station Height(m) 32
Record Time       2025/01/13 21:20:04
Sampling Freq(Hz) 100Hz
Duration Time(s)  111
Dir.              N-S
Scale Factor      7845(gal)/8223790
Max. Acc. (gal)   7.794
Last Correction   2025/01/13 21:20:04
Memo.             
[...]
  -17208   -17220   -17257   -17323   -17405   -17483   -17529   -17533 
  -17496   -17427   -17366   -17359   -17417   -17525   -17645   -17716 
  -17699   -17599   -17424   -17216   -17019   -16838   -16702   -16648 
  -16654   -16656   -16610   -16533   -16472   -16465   -16530   -16664 
  -16841   -17030   -17188   -17270   -17261   -17166   -17008   -16822 
  -16671   -16596   -16579   -16591   -16641   -16729   -16830   -16912 
  -16946   -16947   -16943   -16935   -16939   -16995   -17073   -17128 
  -17166   -17192   -17200   -17184   -17143   -17100   -17077   -17095 
  -17172   -17317   -17504   -17653   -17709   -17651   -17475   -17197 
  -16860   -16495   -16139   -15846   -15672   -15626   -15693   -15859 
  -16078   -16321   -16584   -16848   -17096   -17331   -17563   -17820 
  -18090   -18330   -18524   -18665   -18735   -18769   -18808   -18840 
  -18843   -18810   -18758   -18702   -18627   -18516   -18362   -18131 
  -17829   -17521   -17258   -17064   -16961   -16958   -17038   -17169 
  -17313   -17437   -17521   -17562   -17552   -17490   -17405   -17338 
  -17308   -17302   -17304   -17301   -17263   -17173   -17030   -16861 
  -16702   -16592   -16560   -16605   -16691   -16783   -16829   -16795 
  -16695   -16580   -16490   -16472   -16555   -16725   -16956   -17208 
  -17431   -17585   -17644   -17595   -17473   -17321   -17153   -17000 
  -16919   -16937   -17035   -17185   -17355   -17531   -17694   -17838 
  -17983   -18135   -18292   -18455   -18603   -18698   -18721   -18658 
  -18505   -18293   -18057   -17822   -17609   -17432   -17292   -17172 
  -17043   -16899   -16767   -16673   -16610   -16549   -16488   -16428 
  -16348   -16270   -16217   -16191   -16189   -16227   -16318   -16465 
  -16650   -16849   -17057   -17281   -17523   -17778   -18037   -18285 
  -18497   -18648   -18727   -18748   -18748   -18755   -18777   -18810 
  -18858   -18927   -19021   -19138   -19267   -19364   -19406   -19384 
  -19275   -19074   -18802   -18459   -18069   -17697   -17379   -17120 
  -16915   -16762   -16657   -16575   -16487   -16386   -16237   -16012 
  -15731   -15427   -15132   -14889   -14716   -14598   -14511   -14423 
  -14341   -14296   -14312   -14411   -14590   -14833   -15111   -15396 
  -15678   -15946   -16201   -16461   -16727   -16965   -17127   -17223 
  -17302   -17386   -17467   -17556   -17649   -17730   -17791   -17840 
  -17883   -17917   -17956   -18007   -18075   -18175   -18306   -18453 
  -18619   -18787   -18929   -19013   -19010   -18910   -18711   -18405 
  -18019   -17597   -17151   -16669   -16174   -15708   -15311   -15033 
  -14922   -14960   -15103   -15315   -15558   -15809   -16050   -16260 
  -16460   -16649   -16804   -16923   -16992   -17016   -17034   -17045 
  -17054   -17077   -17109   -17127   -17116   -17062   -16960   -16823 
  -16696   -16646   -16715   -16902   -17213   -17635   -18091   -18527 
  -18910   -19207   -19410   -19485   -19421   -19261   -19039   -18769 
  -18492   -18231   -17999   -17787   -17560   -17294   -16985   -16645 
  -16291   -15969   -15730   -15580   -15529   -15580   -15705   -15880 
  -16082   -16276   -16428   -16506   -16511   -16460   -16371   -16272 
  -16200   -16158   -16137   -16128   -16119   -16082   -16019   -15952 
  -15865   -15727   -15553   -15380   -15195   -14985   -14794   -14670 
  -14636   -14727   -14945   -15276   -15704   -16208   -16781   -17404 
  -18042   -18685   -19332   -19959   -20553   -21096   -21539   -21840 
  -21999   -22019   -21902   -21654   -21305   -20933   -20583   -20243 
  -19899   -19542   -19172   -18804   -18454   -18149   -17891   -17671 
  -17500   -17383   -17323   -17321   -17375   -17478   -17613   -17724 
  -17748   -17651   -17409   -17043   -16598   -16089   -15535   -14997 
  -14517   -14111   -13801   -13614   -13563   -13659   -13909   -14303 
  -14800   -15333   -15865   -16409   -16942   -17431   -17853   -18146 
  -18252   -18162   -17899   -17527   -17113   -16715   -16401   -16195 
  -16081   -16043   -16046   -16047   -16028   -15996   -15985   -16024 
  -16129   -16295   -16503   -16760   -17051   -17331   -17579   -17793 
  -17932   -17980   -17949   -17844   -17675   -17487   -17309   -17146 
  -17028   -16970   -16946   -16947   -16954   -16968   -17005   -17057 
  -17105   -17136   -17155   -17209   -17335   -17532   -17801   -18141 
  -18531   -18955   -19406   -19850   -20241   -20540   -20721   -20784 
  -20730   -20560   -20290   -19938   -19519   -19071   -18646   -18281 
  -17967   -17679   -17409   -17158   -16931   -16725   -16538   -16397 
  -16316   -16293   -16359   -16546   -16823   -17130   -17423   -17643 
  -17729   -17663   -17466   -17188   -16888   -16615   -16409   -16285 
  -16231   -16255   -16359   -16540   -16802   -17120   -17479   -17859 
  -18216   -18542   -18805   -18982   -19093   -19163   -19191   -19171 
  -19091   -18967   -18836   -18684   -18476   -18220   -17917   -17570 
  -17228   -16918   -16648   -16445   -16321   -16283   -16337   -16456 
  -16606   -16760   -16903   -17037   -17154   -17248   -17321   -17332 
  -17212   -16931   -16472   -15878   -15260   -14700   -14227   -13857 
  -13583   -13383   -13252   -13197   -13225   -13335   -13524   -13795 
  -14141   -14530   -14948   -15395   -15858   -16321   -16775   -17208 
  -17567   -17810   -17936   -17961   -17903   -17788   -17667   -17571 
  -17518   -17513   -17548   -17609   -17703   -17832   -17998   -18184 
  -18373   -18580   -18817   -19083   -19369   -19656   -19912   -20105 
  -20191   -20140   -19959   -19643   -19183   -18612   -17967   -17258 
  -16534   -15881   -15364   -15026   -14891   -14951   -15178   -15546 
  -16017   -16521   -16973   -17320   -17554   -17682   -17770   -17876 
  -17999   -18130   -18256   -18347   -18377   -18333   -18214   -18027 
  -17786   -17513   -17235   -16993   -16835   -16776   -16816   -16970 
  -17230   -17551   -17902   -18264   -18600   -18879   -19072   -19155 
  -19113   -18947   -18674   -18324   -17917   -17456   -16962   -16474 
  -16043   -15699   -15434   -15237   -15105   -15012   -14922   -14840 
  -14789   -14779   -14797   -14836   -14909   -15002   -15098   -15206 
  -15322   -15400   -15415   -15371   -15267   -15126   -14987   -14848 
  -14692   -14531   -14405   -14373   -14450   -14608   -14816   -15032 
  -15206   -15338   -15476   -15643   -15843   -16082   -16364   -16672 
  -16966   -17208   -17397   -17537   -17626   -17695   -17787   -17933 
  -18145   -18419   -18751   -19117   -19457   -19750   -19994   -20185 
  -20313   -20355   -20291   -20117   -19851   -19527   -19164   -18769 
  -18372   -18009   -17693   -17435   -17253   -17139   -17078   -17073 
  -17124   -17230   -17378   -17555   -17774   -18052   -18384   -18739 
  -19093   -19423   -19710   -19926   -20058   -20115   -20104   -20016 
  -19865   -19701   -19541   -19372   -19210   -19053   -18900   -18769 
  -18655   -18534   -18380   -18162   -17884   -17571   -17251   -16949 
  -16667   -16433   -16263   -16112   -15952   -15793   -15611   -15402 
  -15205   -15051   -14963   -14959   -15026   -15149   -15296   -15429 
  -15568   -15704   -15804   -15901   -16020   -16147   -16262   -16336 
  -16386   -16425   -16411   -16362   -16298   -16210   -16127   -16069 
  -16042   -16073   -16146   -16216   -16274   -16322   -16368   -16429 
  -16515   -16642   -16831   -17085   -17415   -17828   -18296   -18752 
  -19151   -19468   -19695   -19838   -19896   -19877   -19772   -19557 
  -19246   -18851   -18374   -17871   -17385   -16922   -16530   -16258 
  -16104   -16054   -16075   -16132   -16201   -16241   -16209   -16092 
  -15889   -15645   -15433   -15292   -15279   -15435   -15730   -16120 
  -16572   -17032   -17462   -17844   -18184   -18478   -18690   -18832 
  -18948   -19029   -19075   -19103   -19095   -19052   -19002   -18949 
  -18906   -18886   -18859   -18810   -18747   -18639   -18488   -18331 
  -18168   -17976   -17759   -17509   -17227   -16918   -16602   -16299 
  -16017   -15768   -15573   -15423   -15307   -15238   -15215   -15232 
  -15299   -15422   -15614   -15897   -16264   -16703   -17205   -17717 
  -18212   -18661   -19006   -19259   -19445   -19565   -19658   -19757 
  -19855   -19967   -20081   -20146   -20160   -20135   -20088   -20052 
  -20032   -20040   -20093   -20159   -20227   -20270   -20243   -20131 
  -19917   -19595   -19180   -18679   -18114   -17500   -16838   -16166 
  -15515   -14887   -14314   -13814   -13365   -12970   -12664   -12426 
  -12240   -12098   -11970   -11851   -11777   -11770   -11874   -12118 
  -12490   -12947   -13436   -13903   -14314   -14658   -14933   -15147 
  -15325   -15503   -15703   -15946   -16249   -16610   -17000   -17388 
  -17744   -18061   -18354   -18625   -18883   -19134   -19377   -19622 
  -19857   -20052   -20197   -20271   -20239   -20102   -19893   -19627 
  -19306   -18970   -18638   -18300   -17961   -17628   -17293   -16965 
  -16657   -16372   -16110   -15897   -15763   -15714   -15732   -15801 
  -15886   -15952   -16011   -16069   -16140   -16267   -16444   -16627 
  -16803   -16935   -17018   -17107   -17212   -17309   -17419   -17543 
  -17659   -17768   -17861   -17913   -17922   -17863   -17706   -17475 
  -17208   -16912   -16603   -16335   -16164   -16128   -16225   -16461 
  -16831   -17277   -17748   -18212   -18627   -18966   -19207   -19330 
  -19345   -19261   -19056   -18739   -18349   -17918   -17477   -17041 
  -16629   -16286   -16029   -15850   -15735   -15661   -15610   -15577 
  -15553   -15530   -15543   -15600   -15695   -15847   -16036   -16232 
  -16451   -16684   -16912   -17127   -17316   -17473   -17598   -17720 
  -17882   -18092   -18323   -18573   -18813   -18995   -19128   -19228 
  -19276   -19279   -19232   -19120   -18972   -18808   -18632   -18454 
  -18253   -18022   -17774   -17500   -17203   -16912   -16640   -16372 
  -16106   -15855   -15623   -15402   -15217   -15111   -15103   -15202 
  -15430   -15785   -16237   -16738   -17238   -17729   -18181   -18536 
  -18773   -18885   -18862   -18698   -18441   -18135   -17809   -17498 
  -17194   -16884   -16611   -16382   -16182   -16048   -15997   -16038 
  -16173   -16360   -16580   -16853   -17146   -17421   -17690   -17921 
  -18071   -18131   -18076   -17932   -17739   -17456   -17101   -16734 
  -16357   -16011   -15758   -15600   -15533   -15553   -15653   -15819 
  -16039   -16321   -16664   -17053   -17500   -17999   -18531   -19071 
  -19565   -19970   -20282   -20483   -20551   -20502   -20374   -20179 
  -19947   -19707   -19440   -19144   -18839   -18524   -18208   -17914 
  -17645   -17416   -17234   -17089   -16991   -16949   -16956   -17007 
  -17089   -17186   -17282   -17373   -17454   -17543   -17640   -17726 
  -17817   -17918   -17994   -18049   -18107   -18185   -18297   -18419 
  -18515   -18567   -18536   -18399   -18166   -17838   -17432   -16981 
  -16506   -16040   -15618   -15264   -15012   -14840   -14735   -14701 
  -14697   -14704   -14739   -14790   -14866   -14989   -15142   -15323 
  -15525   -15727   -15920   -16081   -16205   -16306   -16386   -16449 
  -16524   -16610   -16704   -16800   -16883   -16949   -17008   -17042 
  -17045   -17023   -16980   -16937   -16920   -16949   -17032   -17170 
  -17313   -17417   -17458   -17419   -17297   -17101   -16854   -16578 
  -16256   -15896   -15526   -15153   -14783   -14451   -14196   -14064 
  -14060   -14164   -14366   -14628   -14906   -15199   -15516   -15881 
  -16291   -16725   -17180   -17651   -18111   -18528   -18875   -19141 
  -19341   -19489   -19572   -19597   -19588   -19518   -19394   -19252 
  -19101   -18955   -18812   -18670   -18544   -18423   -18306   -18223 
  -18158   -18108   -18091   -18090   -18091   -18087   -18075   -18049 
  -17994   -17891   -17753   -17589   -17400   -17204   -17014   -16818 
  -16623   -16447   -16303   -16210   -16155   -16141   -16191   -16299 
  -16459   -16686   -16950   -17212   -17459   -17663   -17807   -17892 
  -17936   -17975   -18019   -18049   -18090   -18145   -18176   -18189 
  -18196   -18146   -18019   -17840   -17633   -17412   -17190   -17014 
  -16915   -16879   -16920   -17059   -17254   -17463   -17658   -17807 
  -17896   -17902   -17795   -17571   -17254   -16873   -16461   -16055 
  -15692   -15427   -15302   -15315   -15481   -15782   -16148   -16549 
  -16978   -17420   -17861   -18279   -18643   -18966   -19249   -19483 
  -19684   -19862   -20004   -20090   -20098   -20021   -19863   -19630 
  -19326   -18959   -18570   -18204   -17906   -17709   -17612   -17599 
  -17666   -17797   -17967   -18154   -18333   -18489   -18601   -18635 
  -18586   -18445   -18207   -17898   -17539   -17139   -16706   -16235 
  -15735   -15228   -14737   -14311   -13987   -13787   -13734   -13846 
  -14094   -14432   -14825   -15211   -15546   -15808   -15977   -16066 
  -16104   -16113   -16116   -16108   -16085   -16050   -15985   -15876 
  -15723   -15531   -15318   -15118   -14960   -14870   -14866   -14932 
  -15052   -15219   -15406   -15579   -15696   -15735   -15715   -15646 
  -15553   -15481   -15427   -15390   -15364   -15325   -15269   -15207 
  -15130   -15040   -14941   -14867   -14831   -14817   -14817   -14829 
  -14850   -14871   -14910   -14997   -15124   -15287   -15484   -15685 
  -15882   -16079   -16248   -16364   -16438   -16501   -16559   -16592 
  -16609   -16622   -16615   -16580   -16540   -16525   -16568   -16695 
  -16961   -17412   -18022   -18748   -19560   -20417   -21269   -22081 
  -22836   -23492   -24034   -24484   -24850   -25122   -25300   -25385 
  -25385   -25316   -25191   -25023   -24807   -24528   -24185   -23785 
  -23352   -22916   -22492   -22108   -21779   -21486   -21231   -21008 
  -20788   -20580   -20395   -20206   -19989   -19746   -19480   -19197 
  -18891   -18563   -18218   -17844   -17439   -17003   -16514   -16002 
  -15537   -15144   -14824   -14594   -14454   -14382   -14349   -14338 
  -14349   -14355   -14335   -14305   -14280   -14265   -14283   -14334 
  -14416   -14540   -14717   -14952   -15245   -15581   -15959   -16353 
  -16703   -16964   -17108   -17105   -16962   -16714   -16401   -16059 
  -15711   -15365   -15024   -14656   -14243   -13794   -13313   -12810 
  -12317   -11870   -11487   -11159   -10874   -10658   -10525   -10489 
  -10559   -10747   -11053   -11480   -12001   -12590   -13220   -13864 
  -14501   -15122   -15742   -16368   -16969   -17541   -18107   -18667 
  -19209   -19731   -20240   -20713   -21114   -21446   -21720   -21926 
  -22059   -22121   -22133   -22099   -22010   -21882   -21709   -21463 
  -21158   -20822   -20470   -20113   -19758   -19399   -19022   -18640 
  -18269   -17921   -17625   -17383   -17181   -17045   -16985   -16969 
  -16997   -17054   -17116   -17212   -17359   -17535   -17713   -17867 
  -17964   -17995   -17957   -17838   -17643   -17390   -17103   -16826 
  -16599   -16443   -16374   -16386   -16468   -16609   -16800   -17038 
  -17305   -17585   -17844   -18048   -18173   -18207   -18146   -18013 
  -17825   -17599   -17339   -17051   -16760   -16475   -16201   -15948 
  -15699   -15425   -15147   -14902   -14723   -14624   -14617   -14713 
  -14920   -15223   -15608   -16081   -16629   -17220   -17825   -18411 
  -18945   -19403   -19762   -20028   -20216   -20331   -20386   -20401 
  -20387   -20366   -20345   -20325   -20312   -20313   -20322   -20318 
  -20277   -20185   -20029   -19803   -19534   -19268   -19024   -18792 
  -18551   -18284   -17968   -17604   -17220   -16837   -16486   -16214 
  -16048   -15986   -16017   -16113   -16224   -16329   -16432   -16518 
  -16582   -16648   -16725   -16811   -16908   -17019   -17132   -17220 
  -17267   -17269   -17216   -17104   -16935   -16729   -16514   -16326 
  -16198   -16124   -16096   -16094   -16087   -16067   -16021   -15940 
  -15873   -15840   -15858   -15966   -16163   -16433   -16775   -17158 
  -17559   -17948   -18268   -18505   -18657   -18682   -18557   -18300 
  -17925   -17436   -16877   -16302   -15755   -15294   -14936   -14666 
  -14482   -14377   -14331   -14341   -14386   -14457   -14555   -14678 
  -14802   -14925   -15063   -15190   -15296   -15419   -15561   -15687 
  -15774   -15822   -15811   -15751   -15673   -15583   -15487   -15402 
  -15331   -15309   -15341   -15406   -15529   -15734   -16023   -16425 
  -16933   -17491   -18063   -18612   -19102   -19537   -19924   -20243 
  -20499   -20702   -20815   -20838   -20781   -20633   -20428   -20202 
  -19957   -19699   -19425   -19136   -18854   -18588   -18366   -18192 
  -18038   -17921   -17864   -17855   -17878   -17921   -17959   -17968 
  -17925   -17817   -17653   -17471   -17315   -17194   -17112   -17099 
  -17146   -17220   -17336   -17481   -17628   -17791   -17953   -18088 
  -18211   -18326   -18422   -18536   -18717   -18976   -19317   -19728 
  -20183   -20671   -21169   -21639   -22059   -22407   -22653   -22777 
  -22750   -22555   -22219   -21762   -21213   -20617   -20011   -19426 
  -18848   -18260   -17667   -17058   -16416   -15736   -15029   -14322 
  -13624   -12937   -12276   -11669   -11125   -10627   -10185    -9821 
   -9526    -9313    -9181    -9127    -9159    -9234    -9327    -9463 
   -9607    -9745    -9910   -10104   -10351   -10682   -11105   -11635 
  -12259   -12928   -13599   -14223   -14781   -15298   -15777   -16209 
  -16633   -17081   -17548   -18045   -18563   -19075   -19577   -20050 
  -20474   -20871   -21224   -21506   -21745   -21941   -22090   -22226 
  -22334   -22391   -22400   -22330   -22168   -21924   -21593   -21197 
  -20748   -20259   -19782   -19363   -18979   -18624   -18303   -17983 
  -17660   -17331   -16969   -16602   -16239   -15865   -15525   -15244 
  -14997   -14789   -14642   -14547   -14519   -14561   -14643   -14743 
  -14858   -14974   -15064   -15091   -15057   -14991   -14891   -14790 
  -14764   -14831   -14991   -15264   -15623   -16047   -16515   -16992 
  -17481   -17937   -18293   -18578   -18801   -18971   -19141   -19319 
  -19523   -19791   -20094   -20422   -20769   -21085   -21357   -21591 
  -21762   -21867   -21915   -21895   -21802   -21635   -21393   -21103 
  -20788   -20457   -20156   -19930   -19759   -19638   -19554   -19468 
  -19360   -19213   -19010   -18759   -18449   -18096   -17759   -17460 
  -17230   -17099   -17054   -17101   -17262   -17501   -17786   -18106 
  -18436   -18765   -19094   -19411   -19704   -19965   -20178   -20326 
  -20420   -20452   -20383   -20198   -19905   -19518   -19051   -18509 
  -17910   -17271   -16606   -15911   -15171   -14419   -13703   -13028 
  -12433   -11955   -11581   -11310   -11128   -10999   -10918   -10868 
  -10840   -10835   -10852   -10897   -10968   -11076   -11223   -11396 
  -11599   -11830   -12078   -12336   -12594   -12860   -13143   -13433 
  -13730   -14033   -14334   -14636   -14948   -15264   -15580   -15913 
  -16262   -16613   -16964   -17312   -17644   -17946   -18219   -18463 
  -18663   -18825   -18968   -19063   -19095   -19093   -19055   -18985 
  -18908   -18852   -18843   -18890   -18986   -19116   -19265   -19414 
  -19542   -19639   -19678   -19654   -19584   -19456   -19280   -19105 
  -18951   -18850   -18820   -18851   -18954   -19141   -19407   -19715 
  -20027   -20339   -20622   -20844   -20987   -21047   -21028   -20920 
  -20738   -20501   -20218   -19923   -19623   -19311   -19012   -18736 
