Origin Time       2025/01/13 21:19:00
Lat.              31.8
Long.             131.6
Depth. (km)       30
Mag.              6.9
Station Code      FKO012
Station Lat.      33.3320
Station Long.     130.7940
Station Height(m) 48
Record Time       2025/01/13 21:20:17
Sampling Freq(Hz) 100Hz
Duration Time(s)  100
Dir.              U-D
Scale Factor      7845(gal)/8223790
Max. Acc. (gal)   4.860
Last Correction   2025/01/13 21:20:17
Memo.             
[...]
  -12248   -12289   -12340   -12382   -12393   -12418   -12479   -12519 
  -12499   -12465   -12464   -12480   -12476   -12425   -12339   -12289 
  -12279   -12255   -12193   -12098   -11990   -11884   -11786   -11739 
  -11759   -11821   -11920   -12040   -12140   -12205   -12256   -12309 
  -12347   -12349   -12343   -12324   -12267   -12212   -12185   -12167 
  -12166   -12177   -12191   -12232   -12298   -12334   -12340   -12344 
  -12341   -12363   -12420   -12441   -12415   -12405   -12425   -12461 
  -12495   -12491   -12460   -12430   -12402   -12383   -12375   -12368 
  -12355   -12314   -12259   -12231   -12248   -12256   -12197   -12133 
  -12124   -12140   -12175   -12212   -12221   -12252   -12314   -12336 
  -12328   -12330   -12351   -12407   -12478   -12507   -12536   -12592 
  -12641   -12687   -12765   -12827   -12839   -12841   -12804   -12721 
  -12622   -12492   -12398   -12349   -12272   -12210   -12140   -12010 
  -11916   -11865   -11835   -11857   -11870   -11850   -11844   -11832 
  -11824   -11878   -11934   -11973   -12036   -12085   -12096   -12058 
  -11975   -11884   -11781   -11711   -11668   -11570   -11487   -11435 
  -11348   -11288   -11213   -11084   -11032   -10980   -10887   -10887 
  -10883   -10829   -10854   -10854   -10773   -10697   -10602   -10516 
  -10480   -10461   -10531   -10666   -10763   -10866   -10968   -11041 
  -11140   -11218   -11304   -11480   -11616   -11700   -11774   -11755 
  -11738   -11757   -11703   -11685   -11758   -11828   -11913   -12040 
  -12168   -12293   -12445   -12618   -12756   -12860   -12888   -12793 
  -12715   -12702   -12626   -12503   -12447   -12429   -12357   -12276 
  -12220   -12174   -12194   -12139   -11892   -11685   -11608   -11570 
  -11549   -11530   -11557   -11638   -11730   -11855   -12001   -12089 
  -12086   -12093   -12164   -12158   -12047   -11961   -11905   -11863 
  -11805   -11732   -11693   -11665   -11669   -11634   -11449   -11286 
  -11214   -11092   -11003   -10975   -10870   -10782   -10724   -10640 
  -10654   -10679   -10625   -10635   -10725   -10777   -10743   -10698 
  -10756   -10801   -10706   -10685   -10758   -10732   -10756   -10883 
  -10956   -11076   -11302   -11506   -11688   -11902   -12098   -12251 
  -12386   -12407   -12306   -12363   -12490   -12352   -12258   -12255 
  -12145   -12237   -12293   -12185   -12248   -12275   -12301   -12469 
  -12619   -12781   -12923   -13008   -13103   -13217   -13396   -13537 
  -13579   -13633   -13617   -13639   -13757   -13697   -13728   -13869 
  -13743   -13784   -13927   -13783   -13806   -13905   -13722   -13543 
  -13595   -13705   -13628   -13594   -13798   -13949   -13954   -13968 
  -14035   -14158   -14224   -14162   -14152   -14099   -13882   -13811 
  -13741   -13428   -13223   -13126   -13023   -12997   -12937   -12880 
  -12852   -12712   -12568   -12617   -12702   -12641   -12557   -12526 
  -12499   -12476   -12455   -12425   -12411   -12465   -12545   -12592 
  -12622   -12691   -12796   -12788   -12672   -12577   -12567   -12687 
  -12738   -12648   -12644   -12621   -12475   -12411   -12414   -12344 
  -12298   -12347   -12378   -12397   -12442   -12480   -12552   -12626 
  -12695   -12788   -12861   -12854   -12745   -12658   -12646   -12607 
  -12580   -12641   -12706   -12703   -12714   -12719   -12679   -12660 
  -12599   -12478   -12347   -12213   -12125   -12001   -11799   -11605 
  -11403   -11151   -10916   -10736   -10548   -10358   -10184   -10017 
   -9910    -9823    -9737    -9686    -9637    -9695    -9856    -9934 
  -10010   -10147   -10216   -10242   -10303   -10359   -10403   -10434 
  -10435   -10434   -10426   -10405   -10419   -10447   -10434   -10462 
  -10608   -10728   -10746   -10787   -10831   -10789   -10737   -10693 
  -10612   -10505   -10395   -10308   -10224   -10181   -10220   -10268 
  -10301   -10359   -10461   -10574   -10647   -10723   -10806   -10878 
  -10983   -11114   -11203   -11192   -11196   -11299   -11350   -11377 
  -11477   -11535   -11596   -11720   -11826   -11892   -11904   -11894 
  -11893   -11857   -11819   -11821   -11878   -11946   -11946   -11971 
  -12031   -12039   -12058   -12067   -12063   -12098   -12121   -12137 
  -12124   -12035   -11943   -11894   -11867   -11826   -11759   -11709 
  -11723   -11807   -11911   -11979   -12037   -12135   -12270   -12391 
  -12422   -12425   -12514   -12606   -12694   -12837   -12919   -12958 
  -13020   -13028   -12997   -12947   -12870   -12777   -12690   -12664 
  -12656   -12619   -12602   -12565   -12546   -12626   -12742   -12879 
  -13035   -13128   -13169   -13209   -13221   -13200   -13185   -13213 
  -13263   -13284   -13327   -13406   -13433   -13462   -13586   -13682 
  -13655   -13709   -13848   -13825   -13770   -13747   -13636   -13591 
  -13585   -13524   -13493   -13412   -13336   -13363   -13412   -13435 
  -13398   -13340   -13328   -13321   -13271   -13208   -13171   -13163 
  -13162   -13171   -13184   -13147   -13063   -13032   -13120   -13150 
  -13036   -13022   -13050   -12981   -13014   -13051   -13016   -13047 
  -13014   -12943   -12924   -12845   -12791   -12783   -12764   -12779 
  -12788   -12777   -12760   -12730   -12708   -12673   -12631   -12615 
  -12606   -12565   -12492   -12442   -12434   -12409   -12361   -12336 
  -12307   -12240   -12171   -12116   -12035   -11959   -11912   -11855 
  -11812   -11803   -11797   -11777   -11742   -11703   -11650   -11554 
  -11446   -11369   -11296   -11215   -11164   -11110   -11030   -10984 
  -10991   -11028   -11084   -11152   -11238   -11340   -11416   -11452 
  -11441   -11399   -11350   -11303   -11268   -11245   -11183   -11091 
  -11002   -10879   -10724   -10600   -10517   -10455   -10405   -10388 
  -10416   -10450   -10486   -10573   -10700   -10836   -10980   -11126 
  -11280   -11446   -11600   -11758   -11902   -11978   -12008   -12042 
  -12047   -12016   -11996   -11970   -11920   -11869   -11809   -11749 
  -11724   -11722   -11734   -11755   -11742   -11699   -11662   -11639 
  -11649   -11692   -11754   -11839   -11916   -11947   -11973   -12021 
  -12052   -12075   -12097   -12087   -12062   -12052   -12066   -12086 
  -12073   -12033   -12021   -12021   -12009   -11994   -11977   -11951 
  -11942   -11965   -12016   -12089   -12181   -12298   -12420   -12515 
  -12595   -12661   -12711   -12771   -12807   -12802   -12799   -12802 
  -12762   -12683   -12587   -12469   -12344   -12236   -12167   -12148 
  -12159   -12170   -12185   -12239   -12347   -12472   -12575   -12656 
  -12742   -12841   -12928   -13001   -13068   -13122   -13170   -13204 
  -13208   -13209   -13225   -13261   -13331   -13431   -13547   -13655 
  -13732   -13814   -13902   -13959   -13995   -14018   -14013   -14004 
  -13990   -13945   -13879   -13767   -13621   -13493   -13375   -13278 
  -13227   -13186   -13122   -13022   -12892   -12769   -12652   -12536 
  -12447   -12363   -12270   -12216   -12213   -12224   -12195   -12124 
  -12063   -12010   -11946   -11912   -11905   -11888   -11870   -11824 
  -11728   -11608   -11464   -11311   -11200   -11136   -11107   -11080 
  -11011   -10902   -10787   -10705   -10654   -10590   -10512   -10450 
  -10385   -10309   -10249   -10188   -10111   -10046   -10006    -9990 
   -9988    -9995   -10021   -10057   -10084   -10116   -10153   -10192 
  -10231   -10238   -10219   -10197   -10153   -10085   -10015    -9950 
   -9923    -9930    -9953    -9995   -10054   -10120   -10200   -10273 
  -10319   -10341   -10357   -10378   -10390   -10400   -10442   -10500 
  -10551   -10609   -10675   -10762   -10879   -11005   -11146   -11319 
  -11518   -11753   -12002   -12228   -12441   -12657   -12889   -13120 
  -13301   -13458   -13616   -13744   -13845   -13942   -14040   -14149 
  -14247   -14320   -14372   -14382   -14357   -14308   -14218   -14100 
  -13968   -13825   -13683   -13536   -13396   -13278   -13177   -13112 
  -13084   -13077   -13122   -13204   -13285   -13370   -13454   -13535 
  -13603   -13651   -13697   -13741   -13760   -13765   -13755   -13721 
  -13680   -13629   -13590   -13570   -13545   -13518   -13467   -13397 
  -13332   -13254   -13155   -13038   -12896   -12762   -12641   -12510 
  -12410   -12352   -12317   -12289   -12252   -12228   -12210   -12164 
  -12116   -12081   -12033   -11973   -11893   -11826   -11796   -11769 
  -11740   -11715   -11682   -11661   -11638   -11593   -11534   -11439 
  -11318   -11209   -11097   -10997   -10948   -10926   -10912   -10914 
  -10924   -10930   -10909   -10858   -10812   -10782   -10767   -10746 
  -10706   -10677   -10659   -10635   -10615   -10609   -10621   -10651 
  -10705   -10791   -10886   -10967   -11043   -11106   -11151   -11194 
  -11236   -11249   -11233   -11210   -11188   -11173   -11161   -11146 
  -11148   -11160   -11161   -11187   -11259   -11344   -11423   -11520 
  -11637   -11758   -11889   -12020   -12137   -12237   -12322   -12406 
  -12484   -12518   -12513   -12519   -12561   -12610   -12656   -12698 
  -12733   -12761   -12791   -12847   -12930   -13015   -13101   -13211 
  -13333   -13440   -13536   -13629   -13703   -13761   -13805   -13830 
  -13861   -13887   -13884   -13856   -13807   -13745   -13674   -13578 
  -13444   -13284   -13116   -12937   -12733   -12523   -12332   -12170 
  -12047   -11967   -11901   -11842   -11809   -11807   -11807   -11797 
  -11778   -11757   -11745   -11746   -11761   -11777   -11780   -11772 
  -11759   -11750   -11758   -11786   -11819   -11835   -11831   -11815 
  -11809   -11809   -11797   -11777   -11767   -11766   -11757   -11736 
  -11724   -11743   -11804   -11889   -11974   -12047   -12113   -12185 
  -12268   -12359   -12444   -12502   -12537   -12579   -12619   -12637 
  -12638   -12619   -12571   -12510   -12459   -12398   -12301   -12190 
  -12104   -12051   -12004   -11940   -11870   -11794   -11711   -11634 
  -11565   -11510   -11472   -11453   -11462   -11477   -11458   -11426 
  -11414   -11418   -11422   -11429   -11441   -11448   -11441   -11419 
  -11392   -11358   -11322   -11303   -11295   -11272   -11217   -11140 
  -11070   -11010   -10944   -10881   -10848   -10836   -10839   -10864 
  -10912   -10967   -11034   -11114   -11203   -11315   -11458   -11611 
  -11743   -11844   -11921   -11989   -12043   -12083   -12121   -12159 
  -12183   -12185   -12164   -12137   -12114   -12113   -12143   -12177 
  -12202   -12243   -12295   -12356   -12425   -12475   -12499   -12519 
  -12540   -12561   -12580   -12572   -12537   -12488   -12424   -12328 
  -12204   -12064   -11919   -11784   -11669   -11561   -11461   -11373 
  -11283   -11192   -11118   -11061   -11022   -11003   -11003   -11021 
  -11065   -11142   -11261   -11407   -11568   -11753   -11947   -12120 
  -12272   -12421   -12546   -12634   -12704   -12768   -12814   -12830 
  -12822   -12808   -12789   -12765   -12753   -12762   -12791   -12819 
  -12831   -12837   -12845   -12846   -12839   -12841   -12850   -12868 
  -12918   -12987   -13042   -13081   -13115   -13150   -13186   -13201 
  -13205   -13207   -13189   -13158   -13127   -13107   -13099   -13096 
  -13107   -13115   -13107   -13092   -13073   -13055   -13058   -13078 
  -13115   -13165   -13213   -13252   -13284   -13309   -13319   -13305 
  -13289   -13278   -13261   -13235   -13215   -13197   -13177   -13165 
  -13162   -13150   -13108   -13039   -12965   -12885   -12785   -12665 
  -12526   -12361   -12171   -11978   -11790   -11592   -11392   -11210 
  -11033   -10833   -10621   -10428   -10253   -10087    -9929    -9790 
   -9679    -9599    -9562    -9575    -9622    -9687    -9786    -9922 
  -10085   -10265   -10442   -10601   -10737   -10863   -10994   -11129 
  -11256   -11372   -11479   -11561   -11603   -11626   -11639   -11619 
  -11556   -11468   -11372   -11276   -11165   -11020   -10841   -10644 
  -10444   -10250   -10050    -9853    -9667    -9494    -9362    -9278 
   -9213    -9154    -9132    -9153    -9193    -9246    -9306    -9377 
   -9468    -9576    -9688    -9807    -9931   -10057   -10199   -10343 
  -10470   -10584   -10698   -10817   -10947   -11088   -11233   -11365 
  -11476   -11569   -11653   -11728   -11786   -11824   -11871   -11951 
  -12060   -12194   -12351   -12510   -12663   -12815   -12978   -13136 
  -13278   -13412   -13545   -13686   -13836   -13979   -14102   -14191 
  -14264   -14346   -14436   -14516   -14567   -14586   -14596   -14600 
  -14588   -14563   -14542   -14528   -14521   -14521   -14526   -14521 
  -14507   -14501   -14509   -14527   -14555   -14601   -14655   -14710 
  -14752   -14770   -14785   -14824   -14885   -14960   -15036   -15090 
  -15122   -15145   -15147   -15101   -14997   -14847   -14663   -14458 
  -14234   -13984   -13722   -13481   -13277   -13090   -12899   -12712 
  -12552   -12411   -12294   -12210   -12167   -12144   -12116   -12089 
  -12062   -12012   -11943   -11874   -11803   -11738   -11680   -11622 
  -11574   -11542   -11530   -11546   -11573   -11597   -11635   -11693 
  -11757   -11813   -11865   -11912   -11943   -11959   -11975   -12000 
  -12036   -12086   -12140   -12191   -12235   -12286   -12366   -12464 
  -12541   -12595   -12663   -12745   -12825   -12900   -12962   -12991 
  -12987   -12976   -12965   -12951   -12938   -12920   -12907   -12896 
  -12876   -12852   -12819   -12758   -12664   -12553   -12434   -12297 
  -12114   -11888   -11622   -11308   -10944   -10546   -10137    -9734 
   -9342    -8970    -8617    -8271    -7954    -7685    -7456    -7264 
   -7119    -7029    -6994    -7003    -7049    -7130    -7244    -7404 
   -7634    -7921    -8237    -8548    -8853    -9166    -9485    -9794 
  -10096   -10403   -10697   -10966   -11217   -11437   -11597   -11708 
  -11792   -11865   -11936   -12020   -12114   -12214   -12312   -12402 
  -12494   -12577   -12644   -12717   -12816   -12923   -13016   -13090 
  -13144   -13184   -13207   -13224   -13238   -13235   -13208   -13163 
  -13113   -13054   -12993   -12938   -12887   -12837   -12804   -12803 
  -12827   -12860   -12891   -12927   -12976   -13027   -13088   -13163 
  -13244   -13316   -13369   -13401   -13424   -13439   -13454   -13482 
  -13521   -13571   -13640   -13718   -13795   -13865   -13919   -13954 
  -13995   -14045   -14083   -14111   -14145   -14176   -14199   -14208 
  -14184   -14127   -14049   -13945   -13818   -13679   -13517   -13324 
  -13115   -12895   -12676   -12472   -12289   -12136   -12017   -11909 
  -11805   -11727   -11693   -11688   -11697   -11718   -11755   -11801 
  -11827   -11828   -11820   -11813   -11815   -11819   -11812   -11796 
  -11777   -11761   -11743   -11711   -11664   -11603   -11515   -11400 
  -11268   -11125   -10963   -10778   -10586   -10412   -10257   -10111 
   -9975    -9869    -9783    -9714    -9697    -9736    -9806    -9903 
  -10023   -10164   -10324   -10496   -10667   -10828   -10974   -11109 
  -11242   -11375   -11497   -11591   -11653   -11701   -11728   -11723 
  -11682   -11599   -11460   -11268   -11063   -10876   -10700   -10531 
  -10373   -10218   -10053    -9880    -9717    -9574    -9463    -9390 
   -9358    -9366    -9404    -9467    -9579    -9755    -9987   -10266 
  -10574   -10890   -11205   -11519   -11853   -12216   -12596   -12973 
  -13339   -13690   -14013   -14316   -14621   -14916   -15184   -15426 
  -15641   -15820   -15961   -16059   -16121   -16166   -16208   -16247 
  -16276   -16290   -16278   -16233   -16160   -16059   -15942   -15830 
  -15726   -15622   -15519   -15427   -15341   -15255   -15186   -15144 
  -15107   -15060   -15016   -14978   -14921   -14848   -14773   -14688 
  -14573   -14439   -14299   -14125   -13896   -13644   -13396   -13143 
  -12869   -12569   -12255   -11943   -11635   -11329   -11044   -10781 
  -10516   -10273   -10079    -9927    -9810    -9734    -9702    -9687 
   -9683    -9701    -9736    -9780    -9834    -9895    -9953    -9994 
  -10019   -10052   -10088   -10119   -10147   -10173   -10208   -10264 
  -10326   -10376   -10409   -10436   -10470   -10511   -10559   -10628 
  -10705   -10771   -10820   -10840   -10833   -10812   -10767   -10690 
  -10604   -10535   -10467   -10397   -10343   -10305   -10284   -10281 
  -10289   -10312   -10368   -10454   -10561   -10667   -10751   -10820 
  -10901   -10987   -11071   -11152   -11226   -11286   -11333   -11360 
  -11349   -11307   -11253   -11195   -11145   -11098   -11043   -10994 
  -10978   -10986   -11018   -11084   -11178   -11286   -11418   -11580 
  -11753   -11920   -12091   -12271   -12456   -12658   -12885   -13120 
  -13350   -13568   -13779   -13979   -14161   -14316   -14458   -14593 
  -14702   -14789   -14864   -14918   -14953   -14975   -14985   -14991 
  -14989   -14963   -14916   -14854   -14779   -14713   -14675   -14648 
  -14617   -14593   -14570   -14524   -14449   -14349   -14227   -14091 
  -13950   -13801   -13643   -13498   -13367   -13252   -13158   -13072 
  -12974   -12865   -12748   -12619   -12487   -12353   -12224   -12113 
  -12033   -11970   -11901   -11826   -11749   -11655   -11538   -11404 
  -11252   -11071   -10868   -10667   -10485   -10318   -10161   -10033 
   -9948    -9913    -9915    -9942    -9992   -10062   -10138   -10216 
  -10291   -10332   -10347   -10365   -10378   -10378   -10368   -10355 
  -10341   -10330   -10347   -10399   -10455   -10496   -10525   -10554 
  -10590   -10635   -10694   -10771   -10849   -10908   -10956   -11013 
  -11061   -11097   -11136   -11194   -11271   -11367   -11473   -11589 
  -11720   -11866   -12025   -12190   -12359   -12525   -12683   -12835 
  -12997   -13171   -13339   -13504   -13675   -13842   -14006   -14166 
  -14307   -14435   -14566   -14677   -14777   -14885   -14987   -15068 
  -15128   -15171   -15190   -15179   -15149   -15086   -14978   -14850 
  -14708   -14538   -14346   -14143   -13940   -13749   -13567   -13382 
  -13208   -13057   -12928   -12812   -12702   -12603   -12509   -12402 
  -12298   -12212   -12143   -12081   -12017   -11944   -11850   -11746 
  -11643   -11542   -11433   -11310   -11173   -11032   -10893   -10759 
  -10628   -10497   -10365   -10233   -10108    -9987    -9876    -9788 
   -9733    -9715    -9741    -9807    -9903   -10018   -10145   -10284 
  -10442   -10608   -10767   -10926   -11084   -11234   -11379   -11507 
  -11623   -11732   -11828   -11912   -11981   -12016   -12027   -12008 
  -11954   -11886   -11823   -11762   -11699   -11630   -11558   -11492 
  -11446   -11426   -11423   -11445   -11503   -11591   -11682   -11762 
  -11821   -11866   -11901   -11929   -11947   -11963   -11989   -12015 
  -12029   -12047   -12063   -12070   -12078   -12106   -12143   -12183 
  -12225   -12248   -12247   -12240   -12228   -12213   -12212   -12218 
  -12237   -12302   -12413   -12528   -12622   -12703   -12789   -12874 
  -12941   -12991   -13038   -13085   -13131   -13182   -13242   -13306 
  -13385   -13460   -13516   -13562   -13616   -13675   -13718   -13743 
  -13749   -13729   -13667   -13574   -13473   -13373   -13274   -13189 
  -13104   -13001   -12891   -12783   -12669   -12542   -12403   -12275 
  -12159   -12028   -11881   -11732   -11587   -11448   -11314   -11179 
  -11057   -10966   -10906   -10867   -10839   -10813   -10790   -10774 
  -10758   -10751   -10770   -10802   -10825   -10841   -10858   -10878 
  -10905   -10947   -10994   -11043   -11105   -11187   -11271   -11349 
