Origin Time       2025/01/13 21:19:00
Lat.              31.8
Long.             131.6
Depth. (km)       30
Mag.              6.9
Station Code      FKO005
Station Lat.      33.6520
Station Long.     130.6965
Station Height(m) 28
Record Time       2025/01/13 21:20:08
Sampling Freq(Hz) 100Hz
Duration Time(s)  97
Dir.              N-S
Scale Factor      7845(gal)/8223790
Max. Acc. (gal)   4.694
Last Correction   2025/01/13 21:20:08
Memo.             
[...]
     101      225      349      436      459      398      252       66 
     -86     -160     -174     -153      -74      102      342      567 
     734      891     1127     1476     1861     2157     2303     2304 
    2188     1979     1710     1439     1217     1042      854      603 
     301        0     -224     -307     -221       17      333      633 
     855      977      986      886      720      535      363      210 
      83      -22      -91      -85        5      168      423      812 
    1325     1861     2276     2492     2528     2420     2182     1867 
    1547     1267     1020      781      538      325      182      116 
     105      128      191      334      565      832     1065     1242 
    1364     1404     1331     1175     1005      842      629      303 
    -117     -557     -942    -1217    -1343    -1306    -1132     -843 
    -448       51      619     1183     1659     2004     2187     2192 
    2096     2018     2022     2103     2226     2346     2434     2481 
    2490     2448     2354     2226     2060     1830     1503     1077 
     602      144     -278     -676    -1032    -1300    -1445    -1474 
   -1394    -1204     -905     -535     -149      228      604      970 
    1264     1429     1485     1489     1479     1486     1552     1690 
    1853     1961     1949     1829     1678     1533     1374     1206 
    1077     1013     1007     1017      978      874      746      618 
     479      325      157       13      -43       17      172      372 
     594      822     1023     1148     1188     1177     1152     1132 
    1119     1074      943      735      519      340      199      103 
      82      175      349      510      616      720      865     1032 
    1182     1293     1381     1474     1586     1707     1815     1888 
    1895     1834     1742     1660     1605     1559     1487     1363 
    1181      946      704      496      325      168       27     -101 
    -230     -356     -450     -498     -479     -392     -257      -81 
     141      394      638      835      986     1125     1277     1420 
    1522     1578     1580     1507     1354     1147      943      823 
     841      972     1165     1401     1668     1917     2074     2093 
    2002     1865     1672     1339      857      351      -18     -178 
    -184     -140      -78       28      164      287      367      402 
     414      415      406      384      348      298      267      275 
     302      319      344      436      622      854     1058     1221 
    1377     1544     1691     1746     1678     1502     1232      873 
     460       59     -225     -290     -117      210      600      994 
    1351     1615     1753     1791     1798     1815     1841     1854 
    1836     1749     1559     1244      824      403       78     -145 
    -307     -414     -407     -210      183      685     1186     1614 
    1925     2114     2193     2153     1973     1652     1197      650 
      86     -430     -859    -1175    -1351    -1382    -1304    -1158 
    -940     -607     -136      402      891     1259     1490     1595 
    1625     1641     1690     1790     1915     2014     2042     2014 
    1979     1966     1981     2016     2062     2103     2066     1875 
    1514     1067      656      371      229      172      117       -2 
    -194     -426     -664     -888    -1062    -1142    -1100     -934 
    -658     -322       12      319      626      965     1320     1626 
    1809     1856     1817     1755     1699     1637     1557     1506 
    1532     1630     1776     1950     2122     2258     2342     2353 
    2265     2076     1825     1553     1275      973      642      319 
      33     -234     -510     -797    -1077    -1306    -1466    -1552 
   -1544    -1412    -1135     -708     -178      387      936     1433 
    1846     2165     2393     2540     2620     2650     2606     2450 
    2180     1854     1543     1290     1108      997      973     1043 
    1170     1260     1227     1044      754      422       97     -187 
    -415     -600     -749     -832     -837     -796     -741     -638 
    -452     -220        1      194      378      556      746      966 
    1221     1510     1807     2080     2299     2432     2486     2511 
    2517     2461     2328     2157     1996     1879     1782     1659 
    1491     1283     1016      683      290     -157     -627    -1058 
   -1397    -1605    -1661    -1575    -1385    -1143     -886     -612 
    -302       72      544     1089     1632     2069     2338     2439 
    2404     2268     2070     1837     1605     1428     1314     1242 
    1200     1159     1097     1023      953      928     1011     1212 
    1491     1792     2035     2158     2134     1965     1676     1293 
     861      433       16     -402     -805    -1150    -1390    -1494 
   -1441    -1235     -895     -444       81      612     1078     1451 
    1742     1946     2023     1926     1664     1352     1124     1017 
    1017     1113     1298     1552     1813     1989     2019     1906 
    1719     1518     1293     1000      622      195     -189     -460 
    -591     -583     -448     -191      167      579      994     1343 
    1560     1651     1645     1559     1417     1244     1048      861 
     708      591      495      418      390      417      456      460 
     395      282      194      197      317      540      805     1070 
    1316     1506     1583     1528     1387     1252     1182     1161 
    1124     1035      942      928     1000     1085     1142     1165 
    1171     1177     1162     1132     1109     1108     1165     1269 
    1343     1360     1312     1162      930      656      373      129 
     -43     -151     -229     -338     -519     -739     -907     -949 
    -849     -633     -322       67      542     1084     1595     1983 
    2249     2443     2586     2646     2578     2401     2172     1927 
    1691     1474     1281     1131     1039     1003     1000     1003 
    1012     1034     1017      918      756      569      359       78 
    -284     -656     -939    -1093    -1119    -1042     -893     -677 
    -413     -130      132      344      522      688      803      851 
     870      899      967     1094     1316     1634     1946     2143 
    2205     2187     2178     2223     2296     2412     2587     2778 
    2894     2829     2533     2057     1486      916      427       16 
    -378     -769    -1120    -1408    -1637    -1794    -1834    -1733 
   -1491    -1138     -706     -224      271      726     1120     1478 
    1819     2130     2355     2447     2416     2282     2079     1885 
    1761     1715     1744     1800     1798     1676     1455     1205 
    1000      873      826      835      896     1007     1115     1136 
    1038      805      426      -74     -633    -1178    -1637    -1942 
   -2018    -1845    -1482    -1040     -637     -328      -52      280 
     683     1100     1448     1680     1800     1877     1979     2062 
    2054     1976     1927     2000     2162     2307     2386     2396 
    2370     2354     2317     2180     1934     1649     1436     1340 
    1259     1032      625      166     -207     -487     -737     -986 
   -1182    -1198     -980     -625     -245       97      345      487 
     542      546      579      688      830      912      861      668 
     384      113      -29       10      203      530     1021     1647 
    2280     2782     3080     3207     3214     3088     2812     2431 
    2014     1605     1221      918      787      816      893     1012 
    1202     1364     1378     1231      959      579      129     -326 
    -760    -1150    -1428    -1514    -1385    -1074     -668     -255 
     124      453      745      989     1123     1148     1142     1146 
    1197     1314     1466     1621     1753     1840     1926     2065 
    2250     2443     2627     2763     2766     2569     2216     1823 
    1471     1177      919      661      390      144      -52     -249 
    -465     -677     -876    -1047    -1152    -1197    -1174    -1019 
    -687     -206      341      862     1289     1583     1753     1829 
    1788     1625     1431     1332     1395     1636     2015     2447 
    2863     3187     3307     3225     3029     2736     2354     1929 
    1444      812        4     -877    -1674    -2293    -2686    -2778 
   -2551    -2143    -1676    -1189     -727     -337        4      328 
     608      837     1050     1247     1416     1568     1686     1757 
    1840     2016     2326     2683     2965     3168     3337     3443 
    3431     3272     2965     2559     2099     1609     1098      515 
    -155     -842    -1456    -1912    -2197    -2413    -2594    -2633 
   -2440    -2015    -1478     -996     -585     -145      373      908 
    1382     1798     2093     2272     2479     2616     2520     2358 
    2239     2128     2035     1906     1745     1663     1707     1898 
    2180     2370     2334     2122     1871     1633     1351      978 
     487     -121     -639     -908    -1100    -1313    -1428    -1383 
   -1171     -812     -387       24      423      877     1331     1651 
    1833     1910     1902     1846     1713     1497     1281     1102 
     996     1021     1112     1175     1277     1486     1722     1848 
    1765     1444      951      452       71     -230     -526     -735 
    -780     -711     -522     -217       72      310      492      544 
     527      598      811     1142     1503     1825     2126     2417 
    2583     2512     2261     2008     1844     1699     1582     1545 
    1522     1512     1555     1559     1420     1181      930      675 
     407      129     -195     -596    -1040    -1417    -1665    -1819 
   -1872    -1830    -1750    -1590    -1344    -1057     -596      141 
    1016     1806     2412     2851     3144     3333     3481     3561 
    3542     3510     3503     3456     3358     3250     3142     3024 
    2809     2390     1786     1127      495     -124     -774    -1421 
   -1921    -2230    -2407    -2427    -2292    -2119    -1930    -1668 
   -1379    -1065     -625      -51      589     1262     1841     2169 
    2250     2145     1884     1575     1329     1162     1071     1030 
    1073     1366     1838     2177     2396     2691     2907     2876 
    2695     2388     1948     1482     1009      506       28     -382 
    -646     -683     -638     -689     -745     -685     -542     -287 
     126      573      967     1372     1664     1651     1513     1490 
    1509     1491     1502     1559     1649     1742     1748     1661 
    1553     1405     1162      884      616      348      132       -4 
    -130     -224     -218     -198     -275     -405     -530     -679 
    -787     -737     -562     -307       48      454      855     1252 
    1605     1833     1911     1840     1660     1485     1358     1232 
    1102     1024     1043     1161     1278     1300     1281     1356 
    1571     1852     2112     2286     2309     2180     1996     1818 
    1590     1247      793      303     -108     -380     -546     -611 
    -568     -513     -558     -650     -656     -527     -284       32 
     380      743     1121     1479     1734     1836     1792     1633 
    1402     1121      776      391       70      -86     -103     -128 
    -180     -106      147      475      796     1101     1406     1710 
    1991     2243     2496     2808     3199     3581     3778     3646 
    3169     2504     1807     1127      491      -68     -565     -976 
   -1220    -1310    -1378    -1482    -1544    -1489    -1289     -912 
    -422       37      433      828     1210     1475     1593     1621 
    1587     1447     1178      885      688      585      608      888 
    1413     2004     2540     2960     3234     3411     3516     3520 
    3422     3203     2805     2232     1556      892      344      -86 
    -444     -720     -885     -932     -888     -792     -631     -356 
     -20      255      355      186     -217     -684    -1050    -1186 
   -1077     -845     -526      -41      567     1178     1755     2288 
    2737     3060     3221     3200     3044     2801     2478     2095 
    1692     1291      909      571      270      -28     -313     -538 
    -691     -766     -716     -517     -199      199      619      931 
    1063     1080     1017      838      549      209     -129     -418 
    -684     -942    -1089    -1031     -778     -376      114      673 
    1389     2277     3142     3765     4097     4187     4058     3719 
    3234     2721     2300     2008     1807     1705     1740     1858 
    1939     1895     1732     1479     1109      575     -103     -859 
   -1591    -2218    -2733    -3127    -3381    -3488    -3391    -3080 
   -2623    -2053    -1393     -697      -10      648     1273     1867 
    2411     2894     3318     3689     3991     4166     4167     4037 
    3869     3712     3592     3503     3449     3443     3397     3175 
    2759     2170     1413      567     -268    -1061    -1807    -2490 
   -3055    -3443    -3653    -3715    -3618    -3307    -2795    -2182 
   -1557     -932     -280      417     1131     1775     2269     2604 
    2787     2797     2677     2565     2538     2587     2717     2910 
    3133     3361     3589     3815     4013     4156     4225     4164 
    3919     3431     2663     1628      349    -1050    -2301    -3229 
   -3825    -4093    -4020    -3658    -3053    -2235    -1306     -384 
     459     1188     1753     2072     2108     1968     1802     1678 
    1574     1445     1314     1285     1409     1634     1892     2135 
    2386     2694     2987     3100     2909     2400     1660      824 
     -13     -791    -1383    -1686    -1725    -1587    -1363    -1104 
    -808     -491     -198       74      369      708     1048     1316 
    1458     1440     1282     1058      795      472      121     -187 
    -375     -353      -93      341      870     1491     2220     3003 
    3739     4266     4405     4149     3622     2907     2069     1217 
     477      -43     -299     -368     -388     -378     -270      -48 
     228      469      660      859     1067     1179     1121      904 
     622      371      170       -8     -175     -275     -229      -33 
     248      556      854     1121     1324     1404     1309     1046 
     691      336       76      -41      -63      -20       64      121 
     128      144      216      376      621      885     1134     1382 
    1633     1818     1890     1875     1826     1741     1582     1317 
     936      487       91     -118      -51      298      831     1402 
    1919     2351     2671     2828     2785     2521     2070     1524 
     946      360     -180     -585     -805     -859     -811     -747 
    -687     -575     -449     -376     -317     -236     -133       64 
     372      691      988     1309     1649     1992     2328     2579 
    2686     2716     2710     2604     2370     2091     1833     1591 
    1321      980      557      109     -272     -569     -814    -1019 
   -1188    -1314    -1372    -1347    -1260    -1143     -970     -691 
    -317       74      438      815     1270     1775     2230     2609 
    2929     3157     3258     3226     3051     2768     2423     2033 
    1682     1404     1152      945      774      554      260      -83 
    -469     -834    -1116    -1332    -1483    -1495    -1316     -989 
    -589     -183      180      529      891     1186     1340     1379 
    1381     1368     1335     1285     1232     1231     1339     1545 
    1834     2177     2466     2644     2748     2793     2754     2604 
    2362     2079     1783     1482     1139      720      272     -121 
    -419     -646     -841     -990    -1048     -988     -826     -660 
    -529     -359      -87      251      565      822     1081     1375 
    1645     1827     1888     1829     1669     1421     1112      796 
     538      405      436      592      803     1009     1162     1236 
    1243     1201     1125     1035      950      881      835      797 
     749      675      587      530      552      639      738      830 
     891      864      757      625      484      351      234      126 
      44       -8      -54      -83      -62       33      195      402 
     664      986     1305     1543     1640     1593     1497     1439 
    1409     1395     1452     1603     1809     1980     2049     2007 
    1892     1745     1570     1354     1127      926      758      630 
     550      522      565      662      753      804      807      751 
     649      484      232      -64     -307     -436     -441     -324 
     -75      297      714     1039     1200     1229     1201     1169 
    1163     1171     1134     1020      882      758      633      504 
     409      360      359      364      317      224      186      279 
     452      653      884     1162     1529     2002     2479     2845 
    3073     3184     3199     3142     2994     2736     2424     2076 
    1633     1092      496     -122     -712    -1190    -1506    -1663 
   -1679    -1583    -1401    -1152     -891     -683     -533     -379 
    -178       75      378      729     1104     1499     1942     2450 
    2997     3510     3905     4126     4155     4001     3638     3044 
    2296     1514      788      166     -322     -679     -901    -1009 
   -1057    -1069    -1048    -1026    -1023    -1012     -962     -885 
    -816     -781     -756     -692     -567     -409     -238      -29 
     226      486      716      957     1290     1768     2351     2960 
    3528     3985     4263     4345     4251     3966     3470     2772 
    1929     1031      168     -622    -1323    -1899    -2327    -2586 
   -2668    -2593    -2393    -2087    -1701    -1259     -743     -153 
     436      946     1335     1617     1831     1995     2106     2209 
    2385     2648     2937     3208     3443     3591     3634     3608 
    3476     3203     2814     2295     1634      913      214     -383 
    -823    -1120    -1269    -1254    -1123     -916     -649     -338 
      25      456      923     1362     1728     1991     2122     2085 
    1875     1534     1161      847      653      545      456      355 
     243      170      189      259      356      564      859     1109 
    1247     1227     1044      776      481      202      -28     -217 
    -376     -463     -430     -295      -83      205      568      981 
    1405     1782     2033     2122     2103     2050     2007     1996 
    2006     1993     1946     1876     1791     1718     1679     1667 
    1657     1621     1522     1323     1026      697      417      218 
      94       12      -29      -10       45       49      -67     -288 
    -541     -737     -827     -823     -765     -670     -522     -322 
    -101      133      407      731     1081     1389     1582     1652 
    1656     1645     1622     1580     1576     1679     1865     2069 
    2266     2430     2506     2484     2405     2300     2135     1880 
    1544     1162      785      460      176     -103     -383     -603 
    -737     -807     -845     -861     -850     -796     -665     -436 
    -144      156      449      731     1012     1296     1566     1822 
