Origin Time       2025/01/13 21:19:00
Lat.              31.8
Long.             131.6
Depth. (km)       30
Mag.              6.9
Station Code      FKO014
Station Lat.      33.1496
Station Long.     130.8183
Station Height(m) 325
Record Time       2025/01/13 21:20:12
Sampling Freq(Hz) 100Hz
Duration Time(s)  93
Dir.              N-S
Scale Factor      7845(gal)/8223790
Max. Acc. (gal)   3.725
Last Correction   2025/01/13 21:20:12
Memo.             
[...]
   -7792    -7809    -7825    -7846    -7859    -7815    -7724    -7682 
   -7680    -7649    -7600    -7524    -7406    -7308    -7307    -7402 
   -7580    -7834    -8064    -8163    -8159    -8104    -7994    -7870 
   -7780    -7726    -7699    -7704    -7753    -7808    -7820    -7807 
   -7847    -7952    -8037    -8073    -8116    -8198    -8298    -8421 
   -8567    -8677    -8702    -8660    -8588    -8487    -8332    -8155 
   -8020    -7955    -7952    -7996    -8051    -8091    -8101    -8046 
   -7921    -7782    -7655    -7565    -7549    -7604    -7723    -7889 
   -8051    -8194    -8321    -8440    -8526    -8515    -8414    -8291 
   -8160    -8070    -8082    -8148    -8187    -8210    -8244    -8291 
   -8344    -8379    -8364    -8268    -8102    -7952    -7906    -7952 
   -8041    -8156    -8235    -8203    -8122    -8100    -8113    -8122 
   -8154    -8213    -8290    -8376    -8440    -8486    -8537    -8554 
   -8511    -8463    -8434    -8422    -8426    -8440    -8451    -8440 
   -8379    -8282    -8171    -8067    -8014    -8012    -7990    -7948 
   -7948    -7965    -7967    -8046    -8209    -8333    -8348    -8229 
   -7973    -7654    -7362    -7128    -6987    -7005    -7159    -7372 
   -7614    -7805    -7851    -7785    -7707    -7651    -7615    -7616 
   -7685    -7805    -7927    -8028    -8102    -8141    -8152    -8131 
   -8058    -7966    -7884    -7789    -7685    -7631    -7643    -7674 
   -7685    -7657    -7558    -7389    -7199    -7052    -6979    -6997 
   -7111    -7298    -7541    -7807    -8002    -8073    -8035    -7898 
   -7701    -7522    -7414    -7392    -7449    -7562    -7707    -7865 
   -7990    -8050    -8068    -8059    -8006    -7925    -7831    -7713 
   -7588    -7507    -7488    -7492    -7496    -7535    -7624    -7720 
   -7796    -7873    -7977    -8087    -8145    -8121    -8052    -7978 
   -7943    -7989    -8070    -8133    -8206    -8275    -8274    -8176 
   -7989    -7735    -7500    -7389    -7425    -7566    -7781    -8024 
   -8229    -8343    -8352    -8311    -8275    -8259    -8301    -8391 
   -8460    -8483    -8460    -8386    -8282    -8167    -8048    -7944 
   -7897    -7963    -8087    -8149    -8127    -8056    -7940    -7805 
   -7731    -7723    -7743    -7788    -7851    -7952    -8124    -8301 
   -8403    -8419    -8360    -8251    -8152    -8152    -8280    -8455 
   -8591    -8687    -8754    -8746    -8615    -8380    -8108    -7842 
   -7627    -7484    -7408    -7415    -7480    -7542    -7593    -7654 
   -7708    -7761    -7865    -8031    -8217    -8371    -8438    -8424 
   -8382    -8363    -8397    -8498    -8654    -8830    -8968    -9026 
   -8995    -8891    -8760    -8649    -8565    -8549    -8641    -8788 
   -8910    -8978    -9011    -9046    -9093    -9100    -9049    -8972 
   -8847    -8656    -8449    -8289    -8203    -8191    -8236    -8332 
   -8452    -8536    -8571    -8591    -8610    -8627    -8665    -8741 
   -8847    -8941    -8969    -8918    -8797    -8594    -8343    -8149 
   -8090    -8158    -8284    -8403    -8500    -8565    -8557    -8491 
   -8403    -8270    -8091    -7906    -7740    -7615    -7555    -7554 
   -7572    -7588    -7614    -7654    -7713    -7807    -7944    -8105 
   -8244    -8329    -8371    -8380    -8336    -8241    -8149    -8081 
   -8000    -7920    -7875    -7817    -7699    -7553    -7392    -7199 
   -7002    -6824    -6664    -6531    -6436    -6386    -6386    -6440 
   -6536    -6674    -6821    -6899    -6852    -6710    -6551    -6417 
   -6350    -6401    -6535    -6681    -6832    -6986    -7133    -7268 
   -7371    -7411    -7411    -7407    -7377    -7322    -7304    -7339 
   -7376    -7383    -7373    -7398    -7468    -7537    -7614    -7755 
   -7933    -8087    -8203    -8262    -8243    -8155    -8027    -7909 
   -7874    -7974    -8206    -8544    -8959    -9370    -9659    -9817 
   -9926   -10018   -10084   -10126   -10131   -10096   -10021    -9898 
   -9765    -9678    -9590    -9445    -9259    -9076    -8893    -8692 
   -8494    -8318    -8144    -7966    -7843    -7812    -7867    -7990 
   -8127    -8237    -8316    -8336    -8279    -8201    -8151    -8104 
   -8009    -7879    -7738    -7582    -7427    -7280    -7134    -7032 
   -7001    -6998    -6979    -6983    -7065    -7184    -7256    -7256 
   -7200    -7101    -6960    -6813    -6708    -6643    -6577    -6480 
   -6353    -6235    -6185    -6214    -6289    -6426    -6615    -6785 
   -6901    -6991    -7075    -7172    -7291    -7425    -7547    -7643 
   -7689    -7662    -7576    -7465    -7364    -7288    -7242    -7234 
   -7285    -7402    -7568    -7758    -7959    -8145    -8268    -8316 
   -8297    -8206    -8046    -7869    -7740    -7661    -7605    -7603 
   -7666    -7754    -7839    -7908    -7947    -7951    -7935    -7911 
   -7867    -7798    -7746    -7736    -7732    -7720    -7742    -7798 
   -7871    -7987    -8164    -8347    -8491    -8610    -8711    -8796 
   -8874    -8930    -8912    -8808    -8684    -8594    -8530    -8525 
   -8621    -8765    -8904    -9047    -9154    -9180    -9134    -9000 
   -8761    -8480    -8248    -8132    -8171    -8351    -8602    -8849 
   -9030    -9140    -9228    -9306    -9347    -9364    -9393    -9424 
   -9413    -9358    -9309    -9325    -9416    -9529    -9629    -9701 
   -9690    -9580    -9404    -9194    -8995    -8860    -8808    -8808 
   -8841    -8900    -8939    -8935    -8907    -8851    -8764    -8668 
   -8592    -8561    -8583    -8641    -8734    -8849    -8943    -8999 
   -9020    -8996    -8903    -8753    -8584    -8424    -8264    -8106 
   -7970    -7854    -7713    -7523    -7299    -7064    -6835    -6615 
   -6455    -6405    -6470    -6646    -6912    -7202    -7473    -7715 
   -7904    -8033    -8151    -8279    -8434    -8650    -8895    -9116 
   -9301    -9412    -9427    -9364    -9242    -9081    -8912    -8716 
   -8483    -8251    -8046    -7866    -7717    -7607    -7527    -7477 
   -7452    -7430    -7415    -7404    -7376    -7337    -7335    -7377 
   -7416    -7422    -7384    -7288    -7155    -7038    -6959    -6916 
   -6898    -6872    -6826    -6763    -6674    -6570    -6474    -6393 
   -6331    -6284    -6254    -6247    -6277    -6316    -6346    -6389 
   -6458    -6529    -6602    -6683    -6759    -6816    -6851    -6858 
   -6828    -6771    -6712    -6666    -6615    -6567    -6540    -6512 
   -6481    -6469    -6438    -6358    -6285    -6273    -6328    -6478 
   -6714    -6944    -7148    -7377    -7631    -7889    -8174    -8457 
   -8656    -8725    -8660    -8479    -8239    -7983    -7720    -7470 
   -7287    -7215    -7268    -7385    -7522    -7690    -7882    -8063 
   -8272    -8546    -8822    -9023    -9130    -9148    -9094    -9008 
   -8937    -8895    -8877    -8932    -9086    -9259    -9358    -9346 
   -9215    -8980    -8683    -8399    -8220    -8183    -8272    -8463 
   -8722    -9007    -9273    -9475    -9591    -9649    -9686    -9693 
   -9652    -9580    -9501    -9428    -9355    -9267    -9150    -9012 
   -8870    -8726    -8586    -8476    -8406    -8374    -8390    -8448 
   -8527    -8629    -8764    -8908    -9038    -9169    -9312    -9443 
   -9533    -9575    -9610    -9663    -9706    -9720    -9699    -9639 
   -9539    -9412    -9255    -9059    -8838    -8625    -8434    -8280 
   -8179    -8129    -8116    -8124    -8135    -8131    -8087    -8008 
   -7905    -7767    -7618    -7489    -7361    -7206    -7015    -6760 
   -6436    -6089    -5757    -5456    -5231    -5130    -5131    -5150 
   -5134    -5121    -5155    -5209    -5267    -5370    -5530    -5692 
   -5819    -5948    -6118    -6345    -6623    -6925    -7195    -7389 
   -7508    -7560    -7560    -7564    -7627    -7740    -7854    -7943 
   -8002    -8008    -7940    -7842    -7770    -7734    -7723    -7722 
   -7697    -7636    -7543    -7423    -7318    -7299    -7375    -7462 
   -7530    -7611    -7704    -7804    -7929    -8079    -8224    -8332 
   -8374    -8356    -8318    -8270    -8210    -8155    -8127    -8152 
   -8236    -8351    -8484    -8660    -8881    -9128    -9396    -9672 
   -9941   -10179   -10385   -10567   -10708   -10800   -10849   -10835 
  -10747   -10624   -10476   -10288   -10099    -9952    -9822    -9672 
   -9509    -9321    -9092    -8856    -8669    -8548    -8478    -8422 
   -8370    -8316    -8228    -8093    -7951    -7842    -7786    -7800 
   -7851    -7909    -7986    -8073    -8125    -8128    -8097    -8071 
   -8071    -8064    -8008    -7892    -7730    -7538    -7348    -7182 
   -7038    -6961    -6980    -7048    -7134    -7241    -7344    -7423 
   -7484    -7518    -7547    -7599    -7632    -7591    -7480    -7356 
   -7245    -7160    -7119    -7118    -7126    -7129    -7118    -7072 
   -6983    -6863    -6732    -6617    -6552    -6543    -6563    -6602 
   -6662    -6729    -6797    -6872    -6945    -6966    -6902    -6772 
   -6629    -6511    -6438    -6436    -6512    -6628    -6751    -6876 
   -6990    -7091    -7188    -7258    -7299    -7366    -7504    -7678 
   -7840    -7987    -8135    -8275    -8399    -8499    -8560    -8579 
   -8596    -8613    -8598    -8573    -8564    -8559    -8556    -8572 
   -8603    -8652    -8729    -8837    -8954    -9063    -9175    -9309 
   -9467    -9649    -9849   -10035   -10176   -10258   -10276   -10220 
  -10100    -9958    -9845    -9778    -9747    -9728    -9686    -9603 
   -9464    -9278    -9088    -8931    -8823    -8785    -8822    -8891 
   -8953    -9011    -9069    -9088    -9051    -8991    -8918    -8812 
   -8676    -8525    -8371    -8233    -8127    -8052    -8004    -7990 
   -8017    -8067    -8117    -8156    -8186    -8233    -8329    -8459 
   -8565    -8625    -8621    -8530    -8372    -8194    -8017    -7866 
   -7781    -7767    -7797    -7878    -8001    -8112    -8164    -8167 
   -8140    -8070    -7946    -7796    -7620    -7399    -7155    -6916 
   -6701    -6544    -6458    -6411    -6374    -6334    -6255    -6138 
   -6016    -5911    -5841    -5818    -5813    -5813    -5817    -5794 
   -5748    -5722    -5744    -5838    -6021    -6276    -6558    -6818 
   -7006    -7094    -7105    -7067    -6993    -6906    -6813    -6701 
   -6598    -6544    -6558    -6652    -6808    -6963    -7057    -7087 
   -7075    -7030    -6964    -6916    -6922    -6983    -7076    -7186 
   -7288    -7371    -7447    -7523    -7599    -7701    -7857    -8032 
   -8172    -8259    -8286    -8244    -8154    -8060    -7996    -7992 
   -8046    -8143    -8259    -8374    -8490    -8598    -8681    -8739 
   -8768    -8754    -8707    -8654    -8623    -8614    -8637    -8721 
   -8847    -8972    -9076    -9134    -9109    -9027    -8931    -8833 
   -8734    -8652    -8602    -8569    -8541    -8525    -8526    -8536 
   -8534    -8522    -8525    -8544    -8563    -8583    -8602    -8610 
   -8600    -8584    -8583    -8599    -8631    -8695    -8792    -8918 
   -9058    -9185    -9267    -9301    -9302    -9275    -9216    -9146 
   -9096    -9057    -9011    -8984    -8978    -8946    -8891    -8858 
   -8837    -8814    -8811    -8812    -8791    -8768    -8756    -8726 
   -8671    -8618    -8591    -8607    -8687    -8837    -9047    -9271 
   -9443    -9533    -9531    -9433    -9251    -9012    -8754    -8534 
   -8390    -8328    -8334    -8395    -8494    -8613    -8703    -8714 
   -8657    -8583    -8513    -8455    -8419    -8413    -8410    -8375 
   -8289    -8152    -7994    -7847    -7711    -7600    -7542    -7507 
   -7446    -7371    -7310    -7280    -7290    -7321    -7356    -7398 
   -7422    -7404    -7379    -7361    -7338    -7334    -7341    -7314 
   -7272    -7240    -7190    -7121    -7055    -6982    -6912    -6863 
   -6831    -6816    -6825    -6852    -6902    -6983    -7088    -7210 
   -7329    -7423    -7493    -7541    -7562    -7574    -7578    -7554 
   -7483    -7350    -7173    -7002    -6880    -6810    -6778    -6786 
   -6822    -6872    -6936    -7025    -7130    -7240    -7369    -7522 
   -7662    -7788    -7915    -8025    -8105    -8159    -8179    -8155 
   -8094    -8016    -7931    -7846    -7794    -7781    -7789    -7807 
   -7808    -7781    -7739    -7680    -7605    -7558    -7565    -7615 
   -7709    -7862    -8054    -8226    -8344    -8403    -8390    -8307 
   -8199    -8102    -8027    -7986    -7987    -8016    -8056    -8114 
   -8195    -8309    -8464    -8648    -8857    -9094    -9343    -9570 
   -9767    -9931   -10065   -10173   -10264   -10358   -10471   -10569 
  -10625   -10670   -10706   -10701   -10650   -10569   -10454   -10312 
  -10168   -10015    -9842    -9672    -9518    -9346    -9142    -8954 
   -8793    -8614    -8401    -8186    -7979    -7757    -7519    -7315 
   -7163    -7052    -6995    -6984    -6980    -6971    -6940    -6883 
   -6805    -6710    -6619    -6561    -6535    -6532    -6555    -6579 
   -6586    -6581    -6559    -6547    -6597    -6713    -6863    -7036 
   -7203    -7338    -7447    -7537    -7599    -7642    -7668    -7676 
   -7684    -7740    -7870    -8055    -8262    -8441    -8549    -8550 
   -8446    -8303    -8193    -8121    -8089    -8147    -8313    -8519 
   -8726    -8955    -9201    -9400    -9524    -9599    -9633    -9599 
   -9510    -9398    -9248    -9061    -8857    -8640    -8388    -8114 
   -7825    -7507    -7164    -6820    -6498    -6201    -5903    -5597 
   -5306    -5034    -4754    -4494    -4303    -4179    -4110    -4132 
   -4264    -4488    -4792    -5151    -5513    -5829    -6068    -6226 
   -6316    -6365    -6415    -6496    -6600    -6717    -6832    -6925 
   -7010    -7115    -7263    -7461    -7705    -7997    -8347    -8731 
   -9113    -9483    -9826   -10107   -10315   -10449   -10497   -10461 
  -10361   -10223   -10079    -9945    -9818    -9698    -9591    -9481 
   -9340    -9151    -8927    -8696    -8494    -8357    -8293    -8291 
   -8360    -8480    -8621    -8776    -8939    -9092    -9197    -9235 
   -9223    -9194    -9182    -9202    -9248    -9309    -9378    -9435 
   -9456    -9456    -9463    -9467    -9471    -9493    -9505    -9464 
   -9371    -9238    -9053    -8845    -8660    -8522    -8428    -8391 
   -8442    -8563    -8703    -8846    -9003    -9148    -9254    -9321 
   -9369    -9402    -9420    -9413    -9355    -9224    -9023    -8764 
   -8457    -8102    -7713    -7337    -7003    -6720    -6515    -6415 
   -6397    -6408    -6404    -6361    -6292    -6226    -6176    -6157 
   -6187    -6255    -6351    -6473    -6610    -6754    -6901    -7038 
   -7130    -7157    -7128    -7051    -6937    -6818    -6706    -6608 
   -6515    -6404    -6276    -6160    -6066    -5999    -5976    -5987 
   -5992    -5988    -5991    -6012    -6058    -6156    -6308    -6481 
   -6627    -6723    -6797    -6894    -7018    -7172    -7389    -7686 
   -8029    -8372    -8695    -8989    -9261    -9514    -9733    -9890 
   -9979   -10041   -10125   -10223   -10331   -10466   -10596   -10663 
  -10652   -10579   -10467   -10349   -10227   -10100    -9988    -9892 
   -9779    -9630    -9450    -9259    -9107    -9008    -8958    -8964 
   -8992    -9020    -9053    -9093    -9138    -9186    -9238    -9263 
   -9240    -9181    -9100    -9009    -8941    -8927    -8986    -9103 
   -9262    -9444    -9614    -9748    -9840    -9882    -9884    -9855 
   -9795    -9710    -9579    -9371    -9096    -8785    -8480    -8191 
   -7927    -7712    -7546    -7392    -7242    -7099    -6953    -6840 
   -6764    -6664    -6525    -6390    -6249    -6069    -5899    -5823 
   -5865    -5979    -6126    -6286    -6442    -6586    -6724    -6849 
   -6953    -7033    -7094    -7149    -7221    -7337    -7511    -7715 
   -7898    -8043    -8164    -8249    -8290    -8302    -8284    -8239 
   -8181    -8112    -8023    -7924    -7807    -7662    -7493    -7298 
   -7072    -6855    -6678    -6551    -6500    -6552    -6701    -6905 
   -7117    -7322    -7527    -7723    -7909    -8090    -8248    -8401 
   -8556    -8677    -8750    -8795    -8806    -8777    -8746    -8756 
   -8791    -8823    -8847    -8860    -8853    -8829    -8780    -8699 
   -8599    -8523    -8498    -8511    -8563    -8652    -8738    -8777 
   -8784    -8773    -8737    -8695    -8676    -8680    -8708    -8768 
   -8851    -8937    -9009    -9065    -9097    -9109    -9115    -9103 
   -9053    -8958    -8827    -8683    -8560    -8461    -8371    -8286 
   -8194    -8078    -7947    -7801    -7623    -7438    -7290    -7175 
   -7067    -6982    -6936    -6899    -6840    -6759    -6663    -6547 
   -6405    -6234    -6042    -5856    -5717    -5633    -5594    -5618 
   -5713    -5829    -5944    -6070    -6216    -6357    -6492    -6642 
   -6818    -7013    -7199    -7358    -7497    -7641    -7794    -7942 
   -8077    -8201    -8283    -8278    -8189    -8054    -7896    -7747 
   -7657    -7646    -7693    -7778    -7882    -7975    -8037    -8073 
   -8093    -8106    -8137    -8199    -8274    -8338    -8399    -8467 
   -8530    -8588    -8673    -8807    -8974    -9157    -9339    -9513 
   -9657    -9774    -9895   -10021   -10137   -10247   -10336   -10365 
  -10318   -10195    -9994    -9744    -9494    -9259    -9054    -8887 
   -8750    -8640    -8550    -8471    -8390    -8303    -8209    -8117 
   -8046    -7994    -7958    -7932    -7897    -7832    -7716    -7538 
   -7323    -7134    -6994    -6879    -6804    -6768    -6717    -6601 
   -6411    -6143    -5837    -5544    -5300    -5139    -5096    -5171 
   -5325    -5514    -5707    -5887    -6056    -6220    -6381    -6534 
   -6682    -6843    -7033    -7246    -7461    -7674    -7889    -8077 
   -8228    -8371    -8534    -8719    -8897    -9053    -9188    -9305 
   -9416    -9539    -9667    -9780    -9872    -9914    -9879    -9767 
   -9591    -9369    -9131    -8908    -8711    -8538    -8387    -8255 
   -8136    -8048    -7997    -7985    -8004    -8031    -8041    -8039 
   -8035    -8046    -8082    -8155    -8272    -8426    -8602    -8797 
   -9012    -9223    -9420    -9610    -9772    -9895    -9980   -10006 
   -9967    -9894    -9805    -9699    -9585    -9472    -9364    -9244 
   -9090    -8916    -8756    -8618    -8521    -8496    -8529    -8587 
   -8665    -8731    -8762    -8762    -8749    -8735    -8723    -8681 
   -8608    -8519    -8415    -8299    -8197    -8137    -8131    -8170 
   -8239    -8317    -8379    -8394    -8349    -8248    -8090    -7892 
   -7688    -7506    -7364    -7284    -7283    -7339    -7412    -7476 
   -7524    -7539    -7495    -7407    -7308    -7225    -7173    -7187 
   -7281    -7420    -7569    -7719    -7824    -7843    -7794    -7701 
   -7564    -7399    -7240    -7106    -6988    -6879    -6778    -6647 
   -6450    -6187    -5872    -5547    -5262    -5046    -4907    -4842 
   -4818    -4807    -4781    -4743    -4711    -4693    -4703    -4765 
   -4870    -4978    -5082    -5186    -5283    -5374    -5470    -5583 
   -5714    -5856    -6012    -6218    -6485    -6789    -7109    -7438 
   -7744    -8012    -8239    -8414    -8563    -8735    -8943    -9167 
   -9408    -9649    -9860   -10021   -10122   -10164   -10160   -10106 
  -10004    -9895    -9810    -9751    -9724    -9733    -9759    -9784 
