Origin Time       2025/01/13 21:19:00
Lat.              31.8
Long.             131.6
Depth. (km)       30
Mag.              6.9
Station Code      FKO009
Station Lat.      33.4954
Station Long.     130.5164
Station Height(m) 34
Record Time       2025/01/13 21:20:13
Sampling Freq(Hz) 100Hz
Duration Time(s)  100
Dir.              N-S
Scale Factor      7845(gal)/8223790
Max. Acc. (gal)   2.832
Last Correction   2025/01/13 21:20:14
Memo.             
[...]
  -11271   -11206   -11156   -11148   -11183   -11221   -11273   -11335 
  -11391   -11464   -11531   -11608   -11705   -11766   -11792   -11790 
  -11749   -11700   -11670   -11680   -11732   -11790   -11835   -11855 
  -11830   -11782   -11738   -11684   -11622   -11550   -11446   -11330 
  -11202   -11056   -10926   -10827   -10737   -10677   -10660   -10674 
  -10714   -10783   -10870   -10972   -11079   -11187   -11315   -11454 
  -11600   -11761   -11905   -12009   -12071   -12097   -12082   -12015 
  -11913   -11774   -11604   -11452   -11294   -11138   -11020   -10903 
  -10813   -10756   -10698   -10656   -10632   -10606   -10598   -10604 
  -10616   -10655   -10702   -10752   -10849   -10957   -11060   -11200 
  -11365   -11547   -11736   -11890   -12024   -12140   -12221   -12297 
  -12387   -12492   -12569   -12614   -12640   -12602   -12503   -12384 
  -12239   -12051   -11832   -11628   -11449   -11277   -11148   -11061 
  -10998   -10980   -10995   -11017   -11055   -11091   -11124   -11173 
  -11218   -11246   -11298   -11368   -11435   -11512   -11585   -11653 
  -11723   -11788   -11846   -11861   -11813   -11736   -11642   -11537 
  -11438   -11362   -11286   -11194   -11128   -11086   -11032   -10978 
  -10920   -10859   -10825   -10802   -10790   -10821   -10881   -10968 
  -11087   -11196   -11286   -11330   -11306   -11242   -11141   -11011 
  -10910   -10833   -10798   -10832   -10902   -11010   -11142   -11244 
  -11321   -11367   -11353   -11298   -11213   -11122   -11057   -11010 
  -10995   -11034   -11098   -11184   -11302   -11429   -11551   -11658 
  -11751   -11803   -11794   -11769   -11713   -11616   -11531   -11461 
  -11425   -11422   -11433   -11479   -11529   -11560   -11601   -11647 
  -11688   -11713   -11722   -11753   -11763   -11716   -11681   -11608 
  -11479   -11368   -11245   -11129   -11070   -11007   -10971   -10989 
  -10987   -10984   -10997   -10980   -10957   -10932   -10910   -10917 
  -10955   -11040   -11159   -11275   -11404   -11551   -11701   -11840 
  -11935   -11998   -12036   -12006   -11931   -11832   -11692   -11538 
  -11403   -11288   -11205   -11144   -11090   -11059   -11026   -10953 
  -10881   -10824   -10751   -10714   -10739   -10795   -10895   -11016 
  -11149   -11310   -11457   -11605   -11761   -11877   -11974   -12040 
  -12070   -12083   -12033   -11958   -11889   -11781   -11688   -11627 
  -11569   -11538   -11518   -11503   -11473   -11396   -11281   -11125 
  -10952   -10795   -10663   -10579   -10535   -10538   -10615   -10727 
  -10852   -11010   -11173   -11338   -11499   -11623   -11712   -11794 
  -11859   -11897   -11931   -11961   -11990   -12025   -12046   -12069 
  -12098   -12101   -12077   -12043   -11963   -11836   -11703   -11569 
  -11433   -11338   -11298   -11300   -11350   -11427   -11510   -11607 
  -11705   -11777   -11827   -11824   -11751   -11642   -11503   -11353 
  -11237   -11151   -11097   -11099   -11132   -11169   -11238   -11298 
  -11319   -11337   -11331   -11292   -11260   -11238   -11215   -11202 
  -11217   -11248   -11276   -11315   -11354   -11391   -11435   -11441 
  -11414   -11385   -11323   -11259   -11215   -11153   -11103   -11068 
  -11043   -11057   -11068   -11071   -11094   -11092   -11098   -11134 
  -11157   -11209   -11276   -11304   -11334   -11348   -11349   -11387 
  -11423   -11468   -11522   -11558   -11603   -11628   -11639   -11657 
  -11641   -11611   -11588   -11553   -11499   -11445   -11419   -11410 
  -11402   -11437   -11506   -11580   -11645   -11650   -11624   -11585 
  -11477   -11360   -11280   -11209   -11152   -11091   -11024   -10972 
  -10909   -10862   -10871   -10929   -11037   -11175   -11322   -11483 
  -11620   -11732   -11831   -11888   -11920   -11944   -11959   -11961 
  -11927   -11862   -11777   -11665   -11512   -11298   -11074   -10867 
  -10656   -10478   -10342   -10249   -10211   -10193   -10199   -10233 
  -10296   -10427   -10613   -10829   -11063   -11279   -11489   -11673 
  -11794   -11882   -11928   -11909   -11866   -11793   -11669   -11541 
  -11416   -11275   -11137   -11011   -10898   -10832   -10808   -10820 
  -10878   -10951   -11043   -11145   -11237   -11338   -11439   -11545 
  -11669   -11788   -11924   -12064   -12172   -12293   -12395   -12437 
  -12451   -12405   -12306   -12190   -12027   -11838   -11664   -11504 
  -11394   -11337   -11338   -11400   -11529   -11720   -11921   -12094 
  -12233   -12316   -12355   -12361   -12344   -12320   -12287   -12243 
  -12195   -12133   -12050   -11931   -11785   -11620   -11426   -11248 
  -11107   -10962   -10855   -10806   -10763   -10744   -10735   -10724 
  -10752   -10760   -10760   -10793   -10810   -10856   -10951   -11033 
  -11114   -11190   -11260   -11362   -11452   -11514   -11565   -11565 
  -11535   -11489   -11415   -11365   -11344   -11321   -11325   -11337 
  -11331   -11314   -11281   -11242   -11195   -11126   -11041   -10932 
  -10797   -10663   -10546   -10446   -10395   -10393   -10428   -10503 
  -10611   -10747   -10909   -11082   -11241   -11357   -11448   -11508 
  -11538   -11588   -11645   -11684   -11751   -11820   -11878   -11969 
  -12044   -12116   -12195   -12191   -12150   -12114   -12015   -11915 
  -11862   -11821   -11834   -11875   -11927   -12021   -12098   -12167 
  -12260   -12321   -12361   -12368   -12337   -12313   -12239   -12125 
  -12036   -11912   -11772   -11673   -11588   -11545   -11556   -11576 
  -11611   -11622   -11614   -11630   -11610   -11564   -11537   -11508 
  -11495   -11492   -11504   -11557   -11593   -11607   -11588   -11488 
  -11371   -11250   -11065   -10887   -10717   -10517   -10347   -10181 
   -9999    -9840    -9675    -9532    -9456    -9406    -9408    -9475 
   -9568    -9690    -9810    -9915   -10038   -10168   -10318   -10503 
  -10700   -10922   -11167   -11398   -11615   -11800   -11934   -12015 
  -12028   -11985   -11884   -11742   -11597   -11421   -11237   -11091 
  -10963   -10878   -10843   -10855   -10935   -11063   -11230   -11433 
  -11632   -11803   -11947   -12040   -12077   -12085   -12043   -11982 
  -11939   -11894   -11873   -11861   -11812   -11774   -11732   -11664 
  -11628   -11615   -11601   -11630   -11692   -11766   -11840   -11911 
  -11985   -12037   -12071   -12106   -12106   -12067   -12023   -11948 
  -11854   -11758   -11657   -11604   -11604   -11581   -11568   -11574 
  -11534   -11472   -11394   -11268   -11159   -11053   -10944   -10899 
  -10879   -10882   -10947   -11018   -11102   -11183   -11222   -11240 
  -11225   -11199   -11173   -11121   -11084   -11053   -11025   -11044 
  -11075   -11128   -11209   -11272   -11350   -11439   -11502   -11566 
  -11615   -11649   -11696   -11708   -11720   -11788   -11857   -11952 
  -12100   -12233   -12351   -12436   -12455   -12426   -12324   -12147 
  -11956   -11722   -11476   -11275   -11070   -10893   -10779   -10698 
  -10675   -10717   -10793   -10897   -11021   -11117   -11176   -11218 
  -11213   -11152   -11068   -10979   -10914   -10902   -10944   -11045 
  -11172   -11300   -11425   -11520   -11592   -11643   -11670   -11681 
  -11661   -11624   -11585   -11518   -11437   -11367   -11310   -11273 
  -11253   -11241   -11229   -11190   -11111   -11010   -10890   -10743 
  -10602   -10477   -10380   -10334   -10338   -10392   -10504   -10666 
  -10859   -11068   -11271   -11457   -11646   -11828   -11969   -12087 
  -12175   -12220   -12251   -12229   -12170   -12135   -12093   -12063 
  -12060   -12031   -12006   -11990   -11944   -11878   -11790   -11697 
  -11612   -11531   -11473   -11438   -11423   -11427   -11425   -11387 
  -11310   -11227   -11159   -11092   -11036   -10990   -10939   -10891 
  -10859   -10829   -10805   -10804   -10845   -10935   -11045   -11168 
  -11300   -11421   -11493   -11519   -11523   -11495   -11433   -11371 
  -11294   -11213   -11167   -11146   -11153   -11202   -11252   -11295 
  -11345   -11373   -11384   -11400   -11411   -11437   -11480   -11514 
  -11556   -11570   -11558   -11572   -11546   -11500   -11488   -11446 
  -11406   -11376   -11306   -11244   -11183   -11117   -11097   -11084 
  -11091   -11159   -11210   -11257   -11319   -11344   -11380   -11419 
  -11442   -11514   -11584   -11643   -11731   -11797   -11843   -11859 
  -11817   -11757   -11696   -11616   -11551   -11533   -11522   -11499 
  -11483   -11454   -11415   -11384   -11349   -11333   -11348   -11361 
  -11387   -11418   -11423   -11429   -11442   -11458   -11502   -11573 
  -11655   -11763   -11869   -11956   -12028   -12055   -12060   -12043 
  -12008   -12000   -11983   -11977   -12008   -12017   -12059   -12125 
  -12154   -12218   -12255   -12220   -12213   -12152   -12031   -11936 
  -11801   -11657   -11538   -11427   -11377   -11361   -11381   -11460 
  -11538   -11631   -11735   -11803   -11869   -11909   -11913   -11900 
  -11831   -11751   -11664   -11545   -11460   -11384   -11303   -11244 
  -11157   -11072   -11002   -10895   -10786   -10679   -10571   -10490 
  -10431   -10400   -10393   -10397   -10432   -10482   -10550   -10644 
  -10712   -10763   -10824   -10854   -10868   -10895   -10913   -10947 
  -11024   -11090   -11152   -11226   -11265   -11287   -11302   -11269 
  -11221   -11165   -11078   -10991   -10908   -10816   -10732   -10650 
  -10567   -10492   -10420   -10369   -10350   -10368   -10413   -10471 
  -10540   -10588   -10609   -10639   -10655   -10659   -10683   -10729 
  -10802   -10912   -11051   -11200   -11367   -11524   -11646   -11750 
  -11820   -11842   -11846   -11831   -11803   -11790   -11773   -11766 
  -11812   -11866   -11946   -12078   -12235   -12415   -12603   -12788 
  -12961   -13101   -13235   -13347   -13437   -13531   -13595   -13640 
  -13674   -13653   -13594   -13508   -13381   -13235   -13076   -12883 
  -12671   -12444   -12185   -11902   -11610   -11304   -11002   -10705 
  -10412   -10185   -10015    -9887    -9836    -9823    -9869    -9967 
  -10056   -10197   -10339   -10463   -10652   -10802   -10918   -11057 
  -11145   -11213   -11264   -11275   -11304   -11318   -11308   -11327 
  -11338   -11333   -11307   -11256   -11198   -11106   -11001   -10909 
  -10813   -10743   -10696   -10674   -10706   -10752   -10817   -10918 
  -11007   -11083   -11179   -11264   -11323   -11394   -11456   -11484 
  -11506   -11511   -11499   -11479   -11458   -11458   -11479   -11502 
  -11504   -11473   -11402   -11279   -11129   -10971   -10810   -10681 
  -10588   -10516   -10471   -10471   -10511   -10544   -10586   -10662 
  -10728   -10804   -10887   -10933   -10984   -11037   -11082   -11171 
  -11276   -11391   -11539   -11711   -11921   -12154   -12397   -12627 
  -12806   -12968   -13085   -13127   -13158   -13138   -13051   -12951 
  -12804   -12613   -12433   -12235   -12021   -11820   -11595   -11367 
  -11194   -11068   -10955   -10863   -10814   -10793   -10783   -10797 
  -10824   -10866   -10933   -11025   -11142   -11290   -11458   -11627 
  -11794   -11942   -12043   -12144   -12226   -12272   -12310   -12307 
  -12243   -12147   -11994   -11774   -11520   -11260   -11014   -10801 
  -10597   -10412   -10284   -10174   -10050    -9948    -9848    -9753 
   -9694    -9657    -9644    -9679    -9751    -9840    -9946   -10072 
  -10214   -10343   -10454   -10563   -10643   -10717   -10812   -10899 
  -11018   -11148   -11260   -11385   -11483   -11537   -11584   -11603 
  -11585   -11566   -11529   -11441   -11329   -11210   -11068   -10924 
  -10794   -10669   -10570   -10501   -10453   -10444   -10459   -10488 
  -10543   -10613   -10696   -10814   -10966   -11138   -11315   -11487 
  -11661   -11844   -12042   -12224   -12407   -12613   -12785   -12928 
  -13055   -13120   -13134   -13104   -13022   -12927   -12830   -12712 
  -12592   -12484   -12366   -12232   -12124   -12035   -11956   -11911 
  -11894   -11928   -12008   -12096   -12216   -12366   -12513   -12677 
  -12838   -12969   -13084   -13159   -13193   -13184   -13109   -12989 
  -12804   -12555   -12293   -12000   -11699   -11441   -11187   -10970 
  -10818   -10675   -10570   -10496   -10412   -10368   -10327   -10269 
  -10250   -10245   -10268   -10336   -10411   -10525   -10660   -10808 
  -10993   -11159   -11327   -11489   -11587   -11700   -11796   -11830 
  -11863   -11832   -11750   -11653   -11483   -11307   -11155   -10990 
  -10867   -10762   -10652   -10562   -10463   -10380   -10307   -10218 
  -10168   -10134   -10122   -10185   -10262   -10361   -10497   -10615 
  -10737   -10852   -10925   -10997   -11049   -11068   -11091   -11105 
  -11111   -11145   -11187   -11238   -11306   -11383   -11488   -11603 
  -11699   -11786   -11844   -11865   -11857   -11813   -11770   -11754 
  -11740   -11742   -11767   -11782   -11805   -11830   -11812   -11801 
  -11780   -11732   -11705   -11674   -11662   -11666   -11630   -11610 
  -11596   -11547   -11518   -11484   -11446   -11446   -11446   -11452 
  -11475   -11481   -11495   -11479   -11429   -11389   -11341   -11288 
  -11264   -11246   -11222   -11180   -11138   -11101   -11055   -11017 
  -10998   -11007   -11051   -11109   -11182   -11268   -11341   -11404 
  -11469   -11522   -11558   -11588   -11611   -11616   -11616   -11605 
  -11574   -11542   -11507   -11460   -11412   -11349   -11273   -11179 
  -11060   -10951   -10827   -10690   -10570   -10454   -10377   -10350 
  -10357   -10432   -10548   -10678   -10856   -11051   -11249   -11487 
  -11730   -11983   -12258   -12536   -12839   -13154   -13446   -13734 
  -13988   -14173   -14301   -14362   -14368   -14323   -14224   -14103 
  -13957   -13788   -13625   -13456   -13292   -13139   -12960   -12761 
  -12560   -12345   -12136   -11919   -11705   -11511   -11317   -11149 
  -11001   -10866   -10787   -10733   -10698   -10697   -10683   -10667 
  -10640   -10586   -10525   -10434   -10331   -10243   -10131   -10018 
   -9933    -9825    -9709    -9618    -9537    -9485    -9477    -9477 
   -9479    -9495    -9495    -9490    -9521    -9578    -9648    -9749 
   -9884   -10042   -10206   -10365   -10512   -10629   -10731   -10831 
  -10928   -11024   -11102   -11179   -11261   -11323   -11387   -11456 
  -11514   -11587   -11666   -11727   -11785   -11823   -11832   -11827 
  -11788   -11713   -11635   -11549   -11468   -11403   -11358   -11352 
  -11362   -11385   -11443   -11503   -11564   -11645   -11719   -11766 
  -11817   -11862   -11896   -11956   -12017   -12093   -12222   -12359 
  -12499   -12658   -12792   -12885   -12943   -12953   -12901   -12796 
  -12636   -12442   -12236   -12010   -11790   -11585   -11385   -11196 
  -11024   -10860   -10689   -10524   -10384   -10257   -10138   -10035 
   -9946    -9865    -9794    -9734    -9699    -9684    -9682    -9694 
   -9732    -9822    -9942   -10089   -10278   -10466   -10642   -10812 
  -10966   -11130   -11284   -11433   -11614   -11782   -11939   -12124 
  -12303   -12484   -12688   -12864   -13019   -13138   -13181   -13169 
  -13074   -12906   -12687   -12394   -12062   -11712   -11354   -11021 
  -10698   -10389   -10123    -9882    -9667    -9510    -9398    -9324 
   -9300    -9324    -9398    -9524    -9695    -9915   -10189   -10482 
  -10766   -11049   -11321   -11578   -11844   -12096   -12305   -12472 
  -12586   -12648   -12680   -12699   -12712   -12715   -12692   -12661 
  -12625   -12572   -12492   -12388   -12275   -12148   -12019   -11901 
  -11786   -11661   -11546   -11457   -11377   -11318   -11276   -11230 
  -11217   -11245   -11287   -11353   -11433   -11508   -11612   -11735 
  -11848   -11962   -12074   -12170   -12259   -12347   -12426   -12505 
  -12586   -12656   -12719   -12784   -12839   -12887   -12926   -12919 
  -12862   -12762   -12618   -12463   -12290   -12083   -11889   -11697 
  -11500   -11338   -11190   -11030   -10874   -10696   -10481   -10255 
  -10015    -9787    -9606    -9483    -9425    -9425    -9489    -9599 
   -9748    -9933   -10120   -10332   -10575   -10790   -10991   -11178 
  -11306   -11418   -11488   -11483   -11473   -11441   -11368   -11318 
  -11253   -11163   -11083   -10972   -10844   -10729   -10621   -10542 
  -10488   -10457   -10450   -10439   -10419   -10389   -10354   -10326 
  -10293   -10289   -10334   -10411   -10534   -10683   -10840   -11024 
  -11211   -11387   -11577   -11794   -12035   -12276   -12505   -12730 
  -12930   -13104   -13259   -13374   -13467   -13512   -13498   -13479 
  -13423   -13313   -13185   -13011   -12785   -12545   -12289   -12032 
  -11788   -11556   -11364   -11190   -11006   -10849   -10723   -10624 
  -10565   -10542   -10579   -10660   -10778   -10944   -11119   -11318 
  -11538   -11754   -11985   -12221   -12455   -12694   -12914   -13099 
  -13220   -13284   -13308   -13269   -13200   -13115   -12995   -12872 
  -12754   -12622   -12496   -12372   -12220   -12058   -11898   -11730 
  -11581   -11452   -11307   -11172   -11065   -10953   -10839   -10732 
  -10612   -10490   -10376   -10273   -10204   -10164   -10161   -10193 
  -10242   -10327   -10431   -10546   -10694   -10854   -11037   -11263 
  -11507   -11767   -12031   -12276   -12510   -12722   -12906   -13041 
  -13128   -13204   -13232   -13213   -13161   -13054   -12923   -12764 
  -12560   -12372   -12195   -12021   -11897   -11805   -11722   -11672 
  -11634   -11588   -11557   -11543   -11566   -11627   -11720   -11875 
  -12054   -12218   -12383   -12513   -12625   -12729   -12777   -12789 
  -12762   -12679   -12568   -12425   -12241   -12035   -11817   -11607 
  -11391   -11173   -10991   -10825   -10687   -10581   -10461   -10361 
  -10281   -10211   -10212   -10235   -10260   -10336   -10407   -10470 
  -10570   -10654   -10714   -10744   -10724   -10682   -10605   -10507 
  -10423   -10346   -10288   -10269   -10291   -10362   -10467   -10588 
  -10719   -10852   -10976   -11065   -11126   -11186   -11217   -11219 
  -11223   -11222   -11226   -11253   -11290   -11329   -11353   -11354 
  -11318   -11227   -11098   -10926   -10714   -10494   -10274   -10081 
   -9926    -9795    -9695    -9630    -9593    -9586    -9628    -9707 
   -9791    -9882    -9967   -10029   -10102   -10177   -10246   -10339 
  -10447   -10569   -10702   -10829   -10962   -11097   -11230   -11373 
  -11496   -11588   -11670   -11735   -11803   -11866   -11912   -11973 
  -12028   -12086   -12189   -12274   -12357   -12484   -12603   -12714 
  -12800   -12835   -12853   -12849   -12815   -12766   -12711   -12649 
  -12580   -12511   -12420   -12291   -12164   -12044   -11920   -11794 
  -11647   -11487   -11345   -11217   -11102   -11002   -10933   -10899 
  -10882   -10893   -10930   -10998   -11113   -11229   -11345   -11491 
  -11619   -11709   -11782   -11821   -11834   -11838   -11816   -11785 
  -11767   -11751   -11747   -11774   -11831   -11913   -11994   -12047 
  -12073   -12081   -12085   -12047   -11958   -11866   -11776   -11692 
  -11627   -11539   -11431   -11335   -11227   -11102   -10976   -10855 
  -10751   -10654   -10565   -10481   -10385   -10299   -10222   -10147 
  -10092   -10037   -10002   -10017   -10049   -10112   -10216   -10318 
  -10435   -10573   -10716   -10868   -11005   -11117   -11234   -11327 
  -11375   -11407   -11412   -11377   -11326   -11265   -11183   -11092 
  -11009   -10928   -10858   -10798   -10741   -10697   -10666   -10640 
  -10633   -10654   -10689   -10744   -10822   -10895   -10982   -11107 
