Origin Time       2025/01/13 21:19:00
Lat.              31.8
Long.             131.6
Depth. (km)       30
Mag.              6.9
Station Code      FKO013
Station Lat.      33.2254
Station Long.     130.5608
Station Height(m) 32
Record Time       2025/01/13 21:20:04
Sampling Freq(Hz) 100Hz
Duration Time(s)  111
Dir.              U-D
Scale Factor      7845(gal)/8223790
Max. Acc. (gal)   2.335
Last Correction   2025/01/13 21:20:04
Memo.             
[...]
   10855    10935    10951    10910    10831    10712    10597    10552 
   10574    10612    10639    10673    10724    10773    10779    10735 
   10635    10474    10274    10072     9875     9695     9575     9516 
    9467     9451     9505     9605     9741     9926    10150    10401 
   10658    10889    11098    11276    11376    11391    11340    11206 
   11013    10814    10636    10503    10432    10432    10474    10513 
   10531    10521    10477    10420    10390    10386    10405    10476 
   10598    10754    10920    11065    11176    11256    11318    11377 
   11423    11435    11421    11356    11223    11052    10883    10764 
   10701    10628    10521    10427    10357    10301    10272    10285 
   10335    10392    10423    10400    10349    10311    10269    10220 
   10218    10277    10388    10507    10548    10508    10440    10370 
   10319    10288    10228    10145    10080    10030     9992     9979 
    9981     9999    10039    10093    10145    10195    10230    10233 
   10216    10206    10211    10230    10250    10268    10277    10258 
   10218    10173    10158    10196    10265    10316    10345    10389 
   10446    10494    10546    10605    10659    10692    10678    10635 
   10589    10521    10419    10320    10264    10238    10241    10273 
   10292    10272    10238    10199    10137    10057     9972     9865 
    9748     9671     9657     9693     9752     9830     9917     9980 
   10010    10035    10089    10191    10336    10488    10619    10741 
   10831    10840    10789    10729    10673    10624    10605    10602 
   10611    10644    10687    10729    10779    10816    10840    10862 
   10843    10783    10727    10678    10628    10575    10519    10466 
   10454    10484    10509    10513    10512    10507    10485    10446 
   10388    10328    10288    10278    10328    10431    10544    10647 
   10737    10797    10822    10854    10899    10921    10917    10912 
   10901    10886    10885    10885    10879    10899    10932    10935 
   10922    10916    10894    10833    10743    10633    10530    10450 
   10362    10233    10115    10046     9998     9972     9992    10038 
   10079    10080    10006     9880     9768     9697     9648     9614 
    9597     9601     9625     9643     9656     9715     9837     9987 
   10130    10254    10359    10454    10535    10598    10650    10705 
   10759    10795    10837    10891    10941    10997    11074    11175 
   11306    11454    11576    11627    11610    11549    11450    11314 
   11153    10990    10824    10659    10530    10467    10466    10481 
   10481    10478    10500    10559    10642    10729    10829    10935 
   11038    11126    11196    11271    11354    11421    11438    11404 
   11357    11302    11226    11149    11084    10999    10898    10825 
   10786    10747    10719    10728    10759    10800    10835    10831 
   10786    10716    10609    10473    10320    10152     9983     9830 
    9715     9657     9640     9637     9676     9782     9914    10031 
   10137    10250    10381    10524    10686    10859    11010    11125 
   11222    11306    11367    11408    11408    11329    11184    11028 
   10885    10759    10679    10666    10712    10813    10920    10978 
   11033    11114    11178    11226    11292    11369    11435    11466 
   11462    11450    11418    11344    11252    11149    11009    10833 
   10652    10492    10361    10255    10181    10147    10130    10091 
   10023     9934     9826     9709     9591     9467     9327     9170 
    9022     8934     8934     8988     9085     9277     9549     9845 
   10142    10397    10570    10694    10787    10802    10763    10728 
   10678    10590    10481    10358    10207    10011     9814     9667 
    9578     9562     9639     9772     9925    10099    10289    10474 
   10655    10821    10939    11011    11053    11070    11068    11036 
   10953    10839    10702    10536    10372    10243    10137    10042 
    9972     9913     9860     9833     9830     9842     9886     9971 
   10077    10197    10339    10489    10662    10852    11010    11122 
   11210    11276    11314    11302    11254    11180    11065    10949 
   10862    10778    10693    10616    10512    10363    10222    10102 
    9994     9915     9853     9787     9715     9637     9591     9624 
    9701     9790     9898     9987    10026    10041    10042    10015 
    9975     9948     9949     9985    10048    10104    10145    10176 
   10204    10239    10268    10250    10174    10066     9968     9903 
    9871     9863     9882     9933    10011    10104    10223    10373 
   10520    10650    10768    10855    10926    11005    11049    11056 
   11063    11067    11065    11079    11107    11133    11142    11138 
   11125    11124    11151    11192    11242    11286    11292    11271 
   11196    11047    10870    10700    10520    10346    10219    10145 
   10108    10114    10174    10301    10482    10662    10806    10941 
   11060    11130    11178    11236    11279    11281    11248    11186 
   11113    11051    11020    11003    10984    10997    11052    11122 
   11207    11311    11416    11522    11634    11736    11820    11881 
   11934    11994    12064    12125    12158    12175    12216    12266 
   12298    12333    12378    12391    12348    12275    12190    12074 
   11919    11749    11576    11403    11253    11128    10990    10851 
   10743    10643    10527    10404    10277    10162    10091    10053 
   10018     9976     9938     9882     9780     9655     9531     9402 
    9282     9169     9057     8988     8988     9024     9059     9084 
    9116     9165     9242     9355     9458     9489     9462     9437 
    9412     9356     9277     9181     9067     8973     8918     8874 
    8830     8826     8887     8978     9081     9208     9346     9481 
    9609     9706     9757     9760     9714     9660     9636     9602 
    9528     9450     9391     9354     9359     9416     9518     9659 
    9815     9985    10170    10326    10434    10534    10638    10732 
   10820    10893    10925    10898    10814    10694    10577    10482 
   10400    10314    10234    10187    10176    10211    10295    10409 
   10548    10702    10856    11007    11136    11237    11337    11430 
   11530    11653    11770    11855    11894    11862    11761    11618 
   11464    11341    11265    11226    11236    11271    11287    11303 
   11362    11460    11580    11701    11813    11925    12021    12081 
   12098    12073    12002    11897    11763    11600    11421    11267 
   11149    11044    10951    10886    10831    10759    10673    10585 
   10500    10420    10350    10284    10215    10172    10150    10115 
   10037     9910     9764     9620     9467     9313     9173     9055 
    8966     8905     8880     8885     8907     8927     8941     8968 
    9001     9026     9063     9119     9159     9213     9315     9444 
    9563     9670     9787     9919    10056    10200    10354    10532 
   10723    10885    11018    11142    11236    11292    11327    11342 
   11317    11249    11156    11048    10941    10859    10802    10777 
   10795    10868    10983    11133    11304    11481    11645    11770 
   11861    11943    12009    12027    12005    11974    11905    11774 
   11615    11449    11288    11137    10970    10789    10604    10400 
   10195    10030     9910     9817     9729     9641     9556     9470 
    9394     9339     9296     9282     9310     9358     9410     9463 
    9524     9598     9672     9756     9876    10034    10192    10338 
   10497    10635    10723    10783    10813    10812    10801    10775 
   10723    10644    10554    10473    10415    10389    10403    10434 
   10484    10555    10625    10693    10762    10814    10858    10893 
   10889    10866    10851    10825    10800    10827    10899    10993 
   11103    11199    11245    11264    11269    11253    11203    11145 
   11086    10989    10876    10786    10693    10592    10494    10382 
   10242    10089     9927     9751     9605     9518     9475     9464 
    9472     9498     9533     9552     9548     9513     9439     9362 
    9320     9323     9367     9437     9518     9595     9656     9718 
    9776     9803     9803     9792     9775     9738     9682     9633 
    9579     9506     9454     9427     9409     9432     9513     9628 
    9775     9952    10133    10324    10508    10666    10828    10963 
   11022    11057    11092    11098    11105    11136    11153    11151 
   11159    11167    11161    11160    11157    11140    11109    11068 
   11007    10921    10812    10681    10536    10395    10255    10130 
   10042    10002     9992     9977     9948     9942     9979    10046 
   10156    10304    10446    10578    10712    10798    10820    10833 
   10855    10867    10883    10922    10967    11011    11075    11138 
   11179    11225    11295    11373    11456    11543    11623    11691 
   11763    11838    11892    11915    11897    11832    11726    11592 
   11437    11263    11090    10925    10743    10562    10400    10220 
   10037     9879     9732     9591     9483     9424     9405     9443 
    9551     9707     9894    10103    10297    10454    10602    10744 
   10854    10935    10989    10993    10949    10894    10845    10786 
   10720    10655    10571    10478    10405    10342    10288    10270 
   10285    10322    10386    10478    10584    10696    10814    10930 
   11040    11146    11246    11315    11330    11314    11288    11242 
   11165    11056    10917    10764    10597    10416    10230    10046 
    9873     9713     9556     9410     9273     9132     8999     8922 
    8930     8976     9028     9124     9277     9464     9678     9921 
   10174    10419    10654    10883    11097    11279    11425    11530 
   11615    11703    11789    11847    11869    11870    11835    11765 
   11676    11566    11429    11256    11068    10890    10714    10532 
   10345    10157     9983     9842     9741     9680     9645     9630 
    9640     9667     9714     9799     9902     9965     9995    10044 
   10089    10098    10100    10104    10087    10065    10057    10052 
   10062    10111    10208    10362    10558    10767    10975    11180 
   11376    11570    11753    11875    11924    11921    11897    11838 
   11742    11649    11565    11460    11368    11313    11245    11161 
   11091    11010    10901    10789    10708    10665    10625    10584 
   10531    10457    10386    10319    10233    10158    10120    10126 
   10170    10253    10374    10520    10675    10831    10970    11083 
   11155    11192    11219    11240    11252    11240    11209    11199 
   11198    11172    11151    11138    11095    11007    10899    10786 
   10665    10540    10417    10274    10115     9967     9828     9697 
    9601     9551     9540     9551     9575     9621     9683     9751 
    9807     9840     9876     9918     9938     9933     9917     9888 
    9842     9756     9628     9475     9324     9192     9077     8992 
    8958     8977     9054     9177     9336     9540     9767     9979 
   10180    10373    10542    10678    10790    10889    10974    11060 
   11146    11203    11219    11211    11187    11152    11075    10966 
   10871    10779    10675    10574    10471    10372    10292    10239 
   10212    10206    10227    10272    10322    10381    10463    10566 
   10685    10822    10962    11079    11184    11281    11365    11434 
   11473    11470    11422    11333    11222    11115    11020    10943 
   10882    10832    10790    10752    10720    10687    10633    10562 
   10473    10354    10230    10104     9952     9788     9649     9540 
    9459     9409     9393     9390     9393     9427     9505     9606 
    9721     9865    10018    10166    10328    10490    10636    10775 
   10901    11021    11168    11335    11496    11635    11750    11861 
   11974    12073    12154    12228    12285    12302    12258    12171 
   12077    11950    11804    11699    11589    11452    11341    11232 
   11092    10940    10778    10616    10465    10327    10204    10092 
   10000     9926     9872     9868     9900     9948    10026    10130 
   10226    10318    10422    10519    10601    10701    10808    10895 
   10975    11044    11090    11101    11082    11052    11006    10930 
   10831    10704    10559    10420    10285    10172    10085    10015 
    9994    10012    10027    10038    10049    10019     9954     9903 
    9872     9849     9848     9884     9938     9981    10007    10021 
   10022    10010    10008    10030    10041    10050    10083    10122 
   10173    10268    10381    10496    10628    10771    10897    11002 
   11098    11187    11260    11325    11381    11427    11456    11442 
   11391    11325    11259    11199    11151    11119    11091    11053 
   11020    10978    10929    10894    10851    10797    10758    10723 
   10702    10724    10762    10778    10782    10794    10801    10782 
   10746    10700    10650    10602    10563    10539    10535    10559 
   10612    10678    10746    10804    10852    10903    10948    10967 
   10970    10966    10963    10991    11055    11142    11259    11385 
   11500    11631    11778    11907    12019    12110    12172    12212 
   12237    12235    12187    12102    11989    11834    11638    11402 
   11113    10779    10423    10062     9699     9339     9019     8742 
    8490     8283     8144     8077     8064     8117     8241     8413 
    8627     8872     9115     9356     9586     9775     9940    10071 
   10147    10185    10201    10211    10215    10203    10185    10160 
   10107    10053    10010     9965     9919     9886     9865     9842 
    9801     9749     9702     9655     9616     9598     9593     9583 
    9578     9586     9605     9628     9671     9752     9844     9923 
    9998    10072    10129    10164    10197    10223    10231    10238 
   10276    10343    10424    10544    10710    10887    11053    11222 
   11399    11553    11668    11759    11839    11901    11943    11981 
   12029    12070    12100    12125    12135    12140    12167    12218 
   12266    12306    12337    12353    12348    12312    12252    12178 
   12077    11961    11850    11745    11650    11562    11464    11369 
   11299    11221    11117    11021    10944    10859    10771    10701 
   10620    10515    10423    10372    10343    10332    10354    10390 
   10409    10442    10497    10520    10503    10463    10384    10261 
   10104     9929     9745     9540     9320     9108     8904     8726 
    8594     8482     8387     8328     8295     8256     8220     8216 
    8237     8280     8371     8496     8638     8799     8984     9181 
    9374     9566     9740     9873     9975    10056    10114    10152 
   10141    10060     9950     9834     9694     9543     9412     9289 
    9151     9015     8926     8884     8870     8900     8973     9073 
    9185     9315     9464     9620     9784     9973    10176    10389 
   10613    10851    11121    11406    11682    11958    12206    12384 
   12475    12498    12469    12366    12204    12021    11801    11568 
   11380    11232    11126    11092    11106    11136    11196    11269 
   11329    11387    11429    11441    11450    11466    11464    11446 
   11435    11433    11431    11434    11434    11422    11395    11361 
   11327    11302    11280    11260    11232    11176    11099    11010 
   10910    10824    10756    10693    10636    10569    10471    10361 
   10235    10098     9963     9832     9707     9618     9564     9547 
    9578     9648     9738     9842     9963    10102    10245    10366 
   10469    10567    10644    10702    10756    10801    10829    10836 
   10813    10777    10733    10675    10596    10500    10386    10261 
   10153    10061     9975     9903     9852     9810     9775     9763 
    9788     9837     9895     9973    10052    10112    10180    10255 
   10328    10422    10542    10678    10809    10940    11090    11246 
   11395    11526    11626    11692    11712    11686    11624    11522 
   11385    11230    11041    10824    10598    10346    10080     9834 
    9605     9396     9232     9109     9011     8934     8878     8850 
    8853     8884     8954     9066     9212     9385     9570     9774 
   10008    10257    10517    10808    11106    11377    11628    11880 
   12112    12299    12430    12509    12519    12455    12345    12195 
   11996    11773    11542    11277    10995    10746    10525    10319 
   10141    10006     9876     9725     9587     9474     9369     9285 
    9234     9213     9208     9220     9265     9331     9408     9514 
    9661     9861    10096    10343    10598    10840    11055    11250 
   11425    11569    11684    11758    11786    11770    11691    11560 
   11414    11237    11022    10809    10588    10343    10115     9917 
    9718     9535     9383     9244     9131     9073     9051     9055 
    9107     9212     9363     9559     9791    10052    10322    10588 
   10832    11044    11245    11418    11543    11643    11711    11727 
   11697    11634    11530    11368    11172    10980    10791    10619 
   10490    10404    10357    10355    10401    10485    10593    10723 
   10864    10999    11124    11237    11334    11414    11481    11537 
   11557    11554    11546    11514    11452    11365    11254    11129 
   10974    10789    10590    10373    10157     9963     9786     9651 
    9576     9539     9540     9586     9652     9718     9795     9877 
    9942    10004    10061    10088    10093    10083    10064    10050 
   10031    10019    10022    10033    10049    10065    10077    10083 
   10085    10114    10164    10208    10269    10346    10389    10412 
   10454    10511    10578    10665    10748    10820    10879    10914 
   10925    10916    10879    10829    10774    10727    10692    10647 
   10600    10566    10528    10480    10442    10415    10393    10392 
   10409    10442    10494    10565    10652    10754    10858    10971 
   11076    11141    11195    11256    11291    11317    11338    11335 
   11310    11261    11190    11105    11003    10894    10785    10685 
   10621    10596    10573    10561    10563    10559    10550    10548 
   10532    10503    10474    10428    10358    10280    10185    10079 
    9988     9900     9811     9741     9682     9622     9571     9532 
    9498     9458     9439     9456     9472     9501     9567     9640 
    9710     9787     9865     9942    10018    10084    10152    10235 
   10314    10409    10548    10693    10839    11018    11206    11385 
   11574    11754    11916    12064    12189    12268    12294    12275 
   12229    12155    12055    11946    11820    11666    11497    11329 
   11153    10963    10764    10561    10345    10118     9892     9664 
    9455     9289     9151     9028     8941     8887     8850     8834 
    8843     8889     8970     9080     9213     9379     9560     9730 
    9896    10072    10239    10400    10574    10763    10941    11097 
   11229    11341    11429    11487    11515    11526    11519    11484 
   11412    11321    11229    11134    11043    10955    10870    10800 
   10725    10633    10542    10442    10328    10227    10131    10030 
