Origin Time       2025/01/13 21:19:00
Lat.              31.8
Long.             131.6
Depth. (km)       30
Mag.              6.9
Station Code      FKO009
Station Lat.      33.4954
Station Long.     130.5164
Station Height(m) 34
Record Time       2025/01/13 21:20:13
Sampling Freq(Hz) 100Hz
Duration Time(s)  100
Dir.              U-D
Scale Factor      7845(gal)/8223790
Max. Acc. (gal)   1.102
Last Correction   2025/01/13 21:20:14
Memo.             
[...]
  -19496   -19512   -19496   -19471   -19422   -19359   -19321   -19310 
  -19305   -19306   -19317   -19334   -19353   -19369   -19396   -19444 
  -19504   -19573   -19638   -19691   -19731   -19747   -19730   -19701 
  -19680   -19651   -19620   -19577   -19496   -19394   -19305   -19253 
  -19240   -19241   -19242   -19237   -19214   -19186   -19167   -19155 
  -19165   -19207   -19253   -19287   -19300   -19280   -19253   -19253 
  -19260   -19261   -19275   -19302   -19334   -19368   -19414   -19468 
  -19498   -19512   -19539   -19561   -19565   -19539   -19476   -19414 
  -19384   -19376   -19387   -19407   -19425   -19448   -19475   -19499 
  -19529   -19545   -19562   -19599   -19624   -19638   -19646   -19622 
  -19583   -19558   -19538   -19525   -19516   -19489   -19453   -19431 
  -19422   -19402   -19364   -19340   -19342   -19359   -19371   -19377 
  -19379   -19367   -19357   -19367   -19372   -19369   -19376   -19386 
  -19384   -19384   -19373   -19334   -19296   -19273   -19236   -19190 
  -19157   -19132   -19118   -19136   -19171   -19210   -19273   -19341 
  -19400   -19462   -19518   -19542   -19534   -19508   -19480   -19453 
  -19419   -19383   -19349   -19318   -19296   -19276   -19259   -19260 
  -19271   -19276   -19283   -19291   -19291   -19283   -19282   -19291 
  -19282   -19261   -19257   -19264   -19292   -19342   -19379   -19413 
  -19462   -19504   -19525   -19531   -19523   -19507   -19480   -19453 
  -19453   -19473   -19494   -19507   -19496   -19464   -19452   -19461 
  -19469   -19480   -19489   -19488   -19473   -19458   -19450   -19437 
  -19430   -19438   -19433   -19415   -19394   -19338   -19282   -19272 
  -19282   -19311   -19396   -19487   -19537   -19557   -19550   -19530 
  -19502   -19468   -19441   -19415   -19384   -19367   -19365   -19386 
  -19423   -19456   -19476   -19500   -19523   -19530   -19542   -19579 
  -19622   -19657   -19699   -19739   -19753   -19738   -19711   -19672 
  -19627   -19583   -19534   -19487   -19453   -19423   -19387   -19367 
  -19381   -19426   -19479   -19530   -19575   -19603   -19619   -19643 
  -19681   -19720   -19764   -19812   -19839   -19845   -19836   -19813 
  -19791   -19780   -19778   -19784   -19778   -19755   -19719   -19684 
  -19676   -19700   -19747   -19824   -19904   -19943   -19955   -19948 
  -19927   -19911   -19909   -19915   -19904   -19858   -19799   -19755 
  -19726   -19707   -19701   -19708   -19732   -19755   -19772   -19805 
  -19830   -19831   -19851   -19888   -19901   -19908   -19917   -19921 
  -19916   -19894   -19865   -19830   -19785   -19747   -19720   -19689 
  -19669   -19651   -19604   -19539   -19468   -19369   -19252   -19148 
  -19062   -18979   -18916   -18881   -18859   -18855   -18891   -18959 
  -19032   -19120   -19205   -19252   -19267   -19264   -19255   -19255 
  -19268   -19271   -19255   -19233   -19211   -19184   -19153   -19125 
  -19105   -19086   -19066   -19059   -19071   -19098   -19128   -19145 
  -19163   -19198   -19241   -19284   -19323   -19354   -19375   -19395 
  -19414   -19417   -19403   -19391   -19369   -19325   -19284   -19267 
  -19255   -19255   -19264   -19265   -19261   -19246   -19214   -19186 
  -19171   -19151   -19134   -19130   -19129   -19132   -19136   -19140 
  -19167   -19213   -19264   -19306   -19321   -19333   -19357   -19368 
  -19377   -19390   -19387   -19386   -19377   -19352   -19330   -19314 
  -19296   -19283   -19276   -19283   -19298   -19313   -19333   -19345 
  -19345   -19348   -19338   -19311   -19292   -19286   -19282   -19282 
  -19284   -19290   -19309   -19333   -19356   -19383   -19410   -19431 
  -19448   -19458   -19462   -19464   -19468   -19453   -19413   -19371 
  -19346   -19341   -19346   -19360   -19371   -19373   -19376   -19376 
  -19373   -19375   -19379   -19399   -19437   -19461   -19465   -19462 
  -19453   -19433   -19411   -19390   -19364   -19334   -19305   -19302 
  -19338   -19391   -19438   -19465   -19472   -19464   -19450   -19442 
  -19441   -19450   -19475   -19494   -19500   -19495   -19464   -19433 
  -19423   -19418   -19426   -19458   -19488   -19518   -19556   -19585 
  -19607   -19619   -19607   -19592   -19577   -19542   -19507   -19481 
  -19449   -19411   -19377   -19354   -19353   -19363   -19380   -19410 
  -19433   -19435   -19440   -19450   -19472   -19515   -19564   -19602 
  -19619   -19610   -19569   -19511   -19467   -19450   -19442   -19434 
  -19423   -19377   -19303   -19240   -19178   -19120   -19076   -19029 
  -18985   -18958   -18949   -18976   -19035   -19103   -19197   -19306 
  -19415   -19512   -19577   -19615   -19638   -19642   -19630   -19599 
  -19552   -19492   -19434   -19398   -19384   -19379   -19375   -19383 
  -19400   -19426   -19458   -19481   -19492   -19508   -19530   -19554 
  -19585   -19616   -19642   -19669   -19696   -19719   -19746   -19772 
  -19799   -19827   -19831   -19812   -19789   -19749   -19695   -19658 
  -19643   -19623   -19587   -19543   -19502   -19467   -19444   -19444 
  -19464   -19489   -19527   -19585   -19645   -19696   -19745   -19781 
  -19795   -19777   -19731   -19668   -19619   -19588   -19566   -19560 
  -19556   -19533   -19503   -19476   -19445   -19426   -19421   -19413 
  -19414   -19422   -19423   -19418   -19402   -19380   -19361   -19345 
  -19323   -19294   -19267   -19238   -19218   -19224   -19241   -19264 
  -19294   -19311   -19326   -19367   -19421   -19468   -19516   -19575 
  -19633   -19678   -19705   -19716   -19710   -19676   -19611   -19538 
  -19476   -19414   -19354   -19317   -19299   -19283   -19263   -19240 
  -19224   -19222   -19222   -19217   -19215   -19205   -19186   -19168 
  -19160   -19172   -19205   -19234   -19261   -19296   -19323   -19330 
  -19327   -19327   -19334   -19346   -19353   -19350   -19342   -19327 
  -19314   -19306   -19307   -19314   -19334   -19386   -19446   -19496 
  -19546   -19581   -19604   -19630   -19651   -19668   -19676   -19669 
  -19668   -19664   -19639   -19616   -19602   -19577   -19550   -19519 
  -19494   -19469   -19433   -19406   -19388   -19363   -19336   -19317 
  -19296   -19276   -19246   -19209   -19176   -19152   -19138   -19147 
  -19174   -19203   -19215   -19207   -19202   -19202   -19178   -19136 
  -19091   -19047   -19016   -18994   -18968   -18947   -18935   -18933 
  -18962   -19014   -19067   -19110   -19151   -19188   -19217   -19225 
  -19219   -19219   -19224   -19219   -19214   -19221   -19233   -19230 
  -19225   -19241   -19253   -19251   -19255   -19275   -19306   -19354 
  -19410   -19465   -19518   -19545   -19554   -19565   -19561   -19549 
  -19550   -19554   -19549   -19550   -19552   -19546   -19534   -19519 
  -19506   -19489   -19464   -19437   -19407   -19359   -19287   -19205 
  -19134   -19076   -19022   -18993   -18994   -19009   -19025   -19041 
  -19057   -19078   -19097   -19114   -19144   -19170   -19176   -19172 
  -19157   -19143   -19141   -19151   -19168   -19184   -19180   -19174 
  -19170   -19165   -19186   -19225   -19267   -19323   -19386   -19438 
  -19487   -19534   -19572   -19597   -19615   -19630   -19634   -19626 
  -19626   -19637   -19643   -19647   -19647   -19637   -19620   -19607 
  -19603   -19616   -19624   -19623   -19635   -19654   -19680   -19718 
  -19750   -19772   -19778   -19764   -19749   -19738   -19727   -19734 
  -19747   -19757   -19774   -19784   -19784   -19796   -19809   -19819 
  -19836   -19859   -19877   -19882   -19881   -19896   -19923   -19948 
  -19971   -19984   -19977   -19953   -19916   -19885   -19878   -19882 
  -19880   -19888   -19900   -19900   -19907   -19926   -19943   -19966 
  -19993   -20015   -20034   -20031   -20020   -20031   -20048   -20067 
  -20104   -20139   -20147   -20129   -20102   -20085   -20069   -20040 
  -20028   -20025   -20012   -19996   -19975   -19944   -19911   -19882 
  -19858   -19828   -19789   -19747   -19697   -19638   -19583   -19539 
  -19515   -19512   -19512   -19519   -19535   -19541   -19538   -19539 
  -19525   -19504   -19487   -19461   -19441   -19425   -19394   -19373 
  -19369   -19356   -19337   -19313   -19279   -19241   -19202   -19170 
  -19151   -19141   -19136   -19125   -19105   -19086   -19066   -19049 
  -19048   -19055   -19068   -19084   -19094   -19099   -19087   -19049 
  -19003   -18963   -18922   -18894   -18882   -18878   -18885   -18898 
  -18905   -18906   -18910   -18908   -18910   -18935   -18967   -19003 
  -19048   -19090   -19143   -19209   -19265   -19311   -19342   -19352 
  -19352   -19336   -19309   -19288   -19272   -19260   -19251   -19238 
  -19234   -19232   -19222   -19226   -19224   -19205   -19184   -19151 
  -19107   -19072   -19036   -19001   -18972   -18937   -18905   -18887 
  -18873   -18873   -18891   -18917   -18954   -18998   -19041   -19076 
  -19101   -19124   -19143   -19144   -19149   -19167   -19184   -19209 
  -19240   -19271   -19296   -19303   -19295   -19290   -19272   -19240 
  -19215   -19207   -19222   -19252   -19278   -19311   -19359   -19387 
  -19386   -19372   -19344   -19319   -19317   -19326   -19338   -19345 
  -19332   -19306   -19283   -19259   -19248   -19264   -19287   -19294 
  -19295   -19303   -19321   -19350   -19379   -19417   -19468   -19502 
  -19519   -19537   -19553   -19561   -19570   -19588   -19606   -19614 
  -19614   -19603   -19585   -19572   -19565   -19566   -19577   -19584 
  -19591   -19604   -19610   -19611   -19620   -19623   -19624   -19631 
  -19641   -19666   -19704   -19727   -19746   -19769   -19782   -19792 
  -19800   -19813   -19835   -19851   -19861   -19865   -19855   -19826 
  -19778   -19726   -19681   -19642   -19616   -19607   -19603   -19606 
  -19627   -19656   -19683   -19711   -19722   -19716   -19701   -19668 
  -19635   -19619   -19615   -19631   -19670   -19704   -19728   -19739 
  -19722   -19687   -19650   -19600   -19539   -19481   -19435   -19404 
  -19383   -19371   -19375   -19384   -19395   -19414   -19444   -19468 
  -19480   -19495   -19516   -19525   -19512   -19498   -19479   -19449 
  -19413   -19381   -19363   -19354   -19352   -19361   -19384   -19418 
  -19453   -19489   -19525   -19549   -19558   -19553   -19542   -19523 
  -19495   -19476   -19461   -19442   -19425   -19398   -19364   -19334 
  -19313   -19313   -19333   -19352   -19363   -19377   -19392   -19399 
  -19403   -19419   -19458   -19496   -19521   -19542   -19560   -19569 
  -19583   -19593   -19603   -19620   -19624   -19618   -19615   -19592 
  -19573   -19589   -19618   -19641   -19672   -19711   -19749   -19780 
  -19799   -19811   -19811   -19793   -19773   -19757   -19735   -19705 
  -19669   -19637   -19600   -19564   -19545   -19537   -19523   -19510 
  -19495   -19488   -19496   -19499   -19502   -19515   -19519   -19511 
  -19504   -19496   -19504   -19521   -19530   -19552   -19585   -19599 
  -19596   -19585   -19573   -19556   -19516   -19467   -19422   -19375 
  -19322   -19278   -19245   -19217   -19191   -19168   -19149   -19132 
  -19121   -19128   -19149   -19167   -19184   -19209   -19230   -19248 
  -19256   -19264   -19286   -19307   -19321   -19338   -19350   -19350 
  -19341   -19323   -19315   -19327   -19349   -19384   -19434   -19484 
  -19519   -19538   -19543   -19539   -19533   -19543   -19570   -19591 
  -19606   -19608   -19587   -19548   -19499   -19452   -19430   -19419 
  -19407   -19403   -19403   -19399   -19399   -19403   -19399   -19386 
  -19375   -19369   -19369   -19357   -19333   -19321   -19310   -19286 
  -19267   -19251   -19233   -19222   -19210   -19207   -19209   -19203 
  -19205   -19226   -19259   -19284   -19295   -19307   -19325   -19330 
  -19332   -19338   -19346   -19354   -19359   -19363   -19380   -19392 
  -19391   -19380   -19363   -19350   -19346   -19346   -19353   -19364 
  -19367   -19365   -19365   -19346   -19302   -19255   -19201   -19137 
  -19076   -19016   -18966   -18941   -18927   -18917   -18912   -18893 
  -18852   -18806   -18763   -18728   -18700   -18675   -18666   -18673 
  -18689   -18719   -18760   -18800   -18824   -18843   -18863   -18873 
  -18875   -18895   -18927   -18963   -19005   -19044   -19090   -19136 
  -19168   -19197   -19236   -19269   -19286   -19303   -19327   -19348 
  -19372   -19402   -19433   -19458   -19476   -19503   -19539   -19570 
  -19608   -19664   -19722   -19776   -19820   -19843   -19862   -19874 
  -19873   -19873   -19874   -19863   -19843   -19815   -19776   -19722 
  -19657   -19602   -19561   -19537   -19523   -19511   -19503   -19489 
  -19457   -19425   -19414   -19404   -19400   -19413   -19427   -19450 
  -19494   -19539   -19585   -19630   -19658   -19685   -19711   -19720 
  -19728   -19726   -19711   -19693   -19668   -19643   -19629   -19616 
  -19606   -19589   -19566   -19535   -19489   -19448   -19422   -19406 
  -19411   -19440   -19488   -19550   -19604   -19646   -19685   -19711 
  -19718   -19734   -19762   -19786   -19808   -19835   -19854   -19861 
  -19861   -19851   -19846   -19851   -19850   -19851   -19865   -19877 
  -19889   -19907   -19927   -19955   -19984   -19996   -20002   -20013 
  -20021   -20024   -20028   -20028   -20011   -19982   -19951   -19913 
  -19884   -19867   -19840   -19813   -19799   -19774   -19742   -19722 
  -19691   -19650   -19626   -19608   -19592   -19592   -19589   -19579 
  -19576   -19581   -19595   -19612   -19607   -19584   -19557   -19515 
  -19450   -19375   -19291   -19201   -19109   -19010   -18908   -18821 
  -18746   -18665   -18586   -18520   -18453   -18385   -18343   -18320 
  -18299   -18288   -18283   -18274   -18277   -18287   -18315   -18370 
  -18426   -18482   -18555   -18625   -18678   -18717   -18748   -18774 
  -18794   -18806   -18804   -18800   -18801   -18792   -18773   -18756 
  -18735   -18712   -18698   -18688   -18677   -18675   -18684   -18702 
  -18738   -18781   -18831   -18887   -18936   -18987   -19056   -19125 
  -19188   -19261   -19325   -19373   -19413   -19426   -19423   -19423 
  -19410   -19379   -19354   -19332   -19300   -19272   -19256   -19257 
  -19273   -19288   -19298   -19313   -19332   -19348   -19361   -19386 
  -19414   -19440   -19467   -19492   -19518   -19550   -19581   -19620 
  -19677   -19735   -19788   -19845   -19889   -19916   -19934   -19932 
  -19923   -19915   -19885   -19840   -19811   -19785   -19761   -19746 
  -19743   -19753   -19761   -19762   -19768   -19769   -19761   -19753 
  -19743   -19724   -19707   -19701   -19705   -19714   -19720   -19724 
  -19732   -19751   -19785   -19828   -19873   -19912   -19934   -19934 
  -19913   -19880   -19838   -19796   -19755   -19727   -19712   -19687 
  -19657   -19641   -19618   -19592   -19575   -19553   -19534   -19515 
  -19485   -19464   -19454   -19437   -19426   -19429   -19434   -19438 
  -19448   -19472   -19510   -19541   -19575   -19618   -19656   -19676 
  -19684   -19691   -19700   -19710   -19739   -19786   -19823   -19835 
  -19832   -19828   -19822   -19808   -19795   -19789   -19797   -19799 
  -19793   -19799   -19805   -19801   -19799   -19793   -19793   -19805 
  -19808   -19808   -19808   -19799   -19791   -19778   -19745   -19710 
  -19670   -19615   -19552   -19480   -19403   -19329   -19251   -19176 
  -19117   -19067   -19037   -19025   -19029   -19045   -19066   -19097 
  -19144   -19183   -19215   -19265   -19315   -19350   -19380   -19399 
  -19407   -19404   -19383   -19349   -19310   -19260   -19207   -19153 
  -19103   -19053   -19001   -18963   -18944   -18932   -18933   -18955 
  -18989   -19022   -19051   -19086   -19130   -19170   -19199   -19228 
  -19245   -19248   -19244   -19234   -19221   -19199   -19167   -19136 
  -19110   -19078   -19043   -19030   -19039   -19047   -19063   -19080 
  -19095   -19114   -19132   -19147   -19167   -19187   -19214   -19255 
  -19290   -19319   -19348   -19368   -19386   -19400   -19407   -19404 
  -19396   -19373   -19342   -19309   -19278   -19251   -19226   -19215 
  -19209   -19191   -19182   -19165   -19132   -19107   -19087   -19062 
  -19045   -19025   -19008   -19010   -19018   -19039   -19083   -19140 
  -19209   -19283   -19369   -19473   -19575   -19662   -19739   -19796 
  -19830   -19842   -19843   -19847   -19838   -19818   -19804   -19778 
  -19743   -19716   -19696   -19683   -19674   -19665   -19670   -19692 
  -19700   -19700   -19705   -19705   -19693   -19674   -19664   -19647 
  -19629   -19620   -19615   -19616   -19618   -19603   -19597   -19603 
  -19604   -19607   -19611   -19614   -19614   -19606   -19593   -19585 
  -19572   -19558   -19557   -19562   -19568   -19556   -19529   -19504 
  -19471   -19427   -19402   -19386   -19369   -19354   -19338   -19329 
  -19313   -19291   -19283   -19280   -19278   -19290   -19309   -19327 
  -19353   -19376   -19396   -19423   -19444   -19446   -19441   -19426 
  -19400   -19373   -19348   -19322   -19298   -19275   -19261   -19252 
  -19236   -19213   -19199   -19186   -19161   -19136   -19114   -19094 
  -19071   -19059   -19052   -19047   -19059   -19082   -19101   -19126 
  -19149   -19172   -19211   -19248   -19284   -19322   -19342   -19357 
  -19363   -19354   -19346   -19333   -19309   -19284   -19263   -19236 
  -19201   -19167   -19130   -19087   -19044   -19012   -18987   -18960 
  -18933   -18913   -18904   -18898   -18886   -18875   -18873   -18875 
  -18868   -18859   -18856   -18844   -18840   -18863   -18887   -18902 
  -18921   -18941   -18962   -18986   -19016   -19071   -19143   -19205 
  -19252   -19298   -19352   -19403   -19445   -19481   -19512   -19535 
  -19560   -19603   -19661   -19708   -19738   -19757   -19770   -19764 
  -19739   -19704   -19669   -19635   -19599   -19568   -19543   -19521 
  -19511   -19502   -19488   -19461   -19423   -19398   -19384   -19381 
  -19392   -19411   -19437   -19465   -19494   -19531   -19568   -19607 
  -19660   -19719   -19773   -19828   -19880   -19923   -19955   -19966 
  -19974   -19994   -20008   -20015   -20013   -19994   -19971   -19953 
  -19946   -19946   -19936   -19912   -19880   -19838   -19796   -19755 
  -19708   -19653   -19599   -19560   -19548   -19553   -19569   -19592 
  -19620   -19651   -19687   -19715   -19732   -19751   -19776   -19801 
  -19819   -19816   -19799   -19770   -19743   -19710   -19672   -19643 
  -19611   -19593   -19604   -19620   -19637   -19651   -19653   -19643 
  -19633   -19629   -19622   -19610   -19591   -19569   -19548   -19515 
  -19473   -19440   -19410   -19381   -19345   -19295   -19242   -19184 
  -19124   -19071   -19030   -18991   -18954   -18936   -18927   -18909 
  -18914   -18936   -18966   -19005   -19036   -19074   -19121   -19165 
  -19209   -19255   -19302   -19346   -19387   -19423   -19452   -19468 
  -19475   -19477   -19471   -19444   -19399   -19356   -19318   -19273 
  -19233   -19209   -19182   -19148   -19116   -19084   -19071   -19064 
  -19064   -19097   -19141   -19176   -19232   -19303   -19367   -19437 
  -19518   -19587   -19650   -19703   -19723   -19722   -19723   -19710 
  -19700   -19711   -19714   -19710   -19700   -19680   -19665   -19637 
  -19602   -19566   -19512   -19453   -19410   -19373   -19334   -19290 
  -19246   -19198   -19148   -19109   -19082   -19070   -19074   -19082 
  -19097   -19128   -19164   -19187   -19213   -19236   -19251   -19279 
  -19313   -19340   -19376   -19411   -19430   -19444   -19449   -19453 
  -19456   -19440   -19407   -19369   -19319   -19261   -19202   -19134 
