Origin Time       2025/01/13 21:19:00
Lat.              31.8
Long.             131.6
Depth. (km)       30
Mag.              6.9
Station Code      FKO004
Station Lat.      33.7366
Station Long.     131.0121
Station Height(m) 3
Record Time       2025/01/13 21:20:21
Sampling Freq(Hz) 100Hz
Duration Time(s)  93
Dir.              N-S
Scale Factor      7845(gal)/8223790
Max. Acc. (gal)   5.920
Last Correction   2025/01/13 21:20:21
Memo.             
[...]
   -3192    -3377    -3628    -3920    -4198    -4407    -4530    -4606 
   -4680    -4754    -4824    -4916    -5035    -5171    -5302    -5389 
   -5414    -5373    -5254    -5076    -4873    -4662    -4455    -4218 
   -3897    -3480    -2991    -2461    -1929    -1455    -1074     -772 
    -535     -378     -301     -309     -399     -544     -688     -787 
    -835     -878     -962    -1069    -1150    -1179    -1158    -1097 
    -993     -853     -734     -695     -750     -899    -1136    -1440 
   -1748    -2008    -2236    -2467    -2710    -2982    -3289    -3618 
   -3952    -4263    -4513    -4693    -4830    -4959    -5112    -5287 
   -5467    -5621    -5719    -5740    -5705    -5670    -5644    -5609 
   -5564    -5497    -5406    -5281    -5103    -4882    -4629    -4341 
   -4054    -3797    -3603    -3468    -3341    -3157    -2890    -2555 
   -2188    -1825    -1505    -1247    -1026     -828     -693     -641 
    -645     -654     -630     -575     -513     -469     -498     -662 
    -963    -1329    -1671    -1934    -2126    -2262    -2358    -2408 
   -2380    -2286    -2204    -2191    -2268    -2434    -2652    -2856 
   -2987    -3051    -3117    -3210    -3291    -3333    -3314    -3226 
   -3107    -3030    -3024    -3028    -2982    -2891    -2798    -2728 
   -2695    -2717    -2802    -2932    -3079    -3235    -3376    -3473 
   -3546    -3612    -3658    -3696    -3750    -3800    -3786    -3689 
   -3528    -3308    -3056    -2829    -2643    -2485    -2354    -2231 
   -2099    -1989    -1921    -1868    -1834    -1845    -1917    -2062 
   -2239    -2412    -2586    -2762    -2941    -3126    -3279    -3385 
   -3496    -3635    -3798    -3993    -4210    -4403    -4534    -4626 
   -4689    -4695    -4639    -4521    -4351    -4160    -3967    -3788 
   -3616    -3416    -3159    -2867    -2593    -2393    -2311    -2339 
   -2443    -2593    -2758    -2875    -2914    -2906    -2875    -2795 
   -2639    -2407    -2120    -1817    -1522    -1248     -993     -757 
    -572     -487     -517     -633     -777     -899     -973    -1011 
   -1038    -1061    -1090    -1140    -1197    -1254    -1323    -1417 
   -1566    -1815    -2173    -2577    -2959    -3296    -3600    -3870 
   -4087    -4221    -4280    -4301    -4290    -4261    -4251    -4241 
   -4194    -4097    -3964    -3834    -3740    -3700    -3696    -3705 
   -3715    -3736    -3757    -3734    -3646    -3505    -3314    -3076 
   -2840    -2656    -2556    -2565    -2685    -2874    -3078    -3280 
   -3477    -3647    -3750    -3780    -3759    -3690    -3573    -3419 
   -3234    -3052    -2901    -2776    -2693    -2666    -2682    -2722 
   -2759    -2772    -2798    -2878    -3018    -3195    -3360    -3445 
   -3426    -3331    -3192    -3017    -2820    -2633    -2486    -2398 
   -2370    -2386    -2459    -2590    -2718    -2791    -2806    -2817 
   -2868    -2921    -2906    -2798    -2617    -2416    -2224    -2066 
   -1989    -2008    -2085    -2201    -2376    -2639    -2992    -3391 
   -3789    -4175    -4534    -4843    -5076    -5204    -5236    -5209 
   -5155    -5081    -4970    -4827    -4693    -4618    -4611    -4656 
   -4722    -4777    -4791    -4754    -4679    -4569    -4422    -4218 
   -3951    -3623    -3258    -2876    -2471    -2049    -1625    -1212 
    -857     -622     -519     -506     -517     -513     -500     -494 
    -473     -432     -409     -410     -372     -265     -125      -10 
      28      -20     -135     -317     -576     -886    -1205    -1510 
   -1786    -2006    -2157    -2253    -2332    -2448    -2627    -2859 
   -3121    -3364    -3566    -3761    -3971    -4230    -4587    -5017 
   -5449    -5841    -6161    -6385    -6521    -6594    -6631    -6648 
   -6625    -6539    -6412    -6270    -6114    -5948    -5786    -5621 
   -5435    -5216    -4974    -4723    -4471    -4228    -3982    -3678 
   -3281    -2824    -2354    -1895    -1470    -1084     -715     -378 
     -97      129      322      487      592      599      531      463 
     419      371      305      243      217      261      363      427 
     372      157     -194     -626    -1077    -1480    -1810    -2146 
   -2563    -3038    -3511    -3932    -4272    -4541    -4764    -4947 
   -5086    -5189    -5277    -5341    -5350    -5289    -5166    -4999 
   -4820    -4680    -4594    -4545    -4533    -4572    -4638    -4688 
   -4689    -4626    -4502    -4320    -4087    -3813    -3499    -3169 
   -2870    -2621    -2428    -2290    -2204    -2177    -2189    -2185 
   -2145    -2079    -1996    -1903    -1799    -1671    -1509    -1335 
   -1198    -1134    -1127    -1154    -1212    -1296    -1399    -1518 
   -1648    -1790    -1949    -2097    -2189    -2197    -2118    -1973 
   -1795    -1591    -1377    -1178    -1007     -851     -715     -623 
    -576     -561     -584     -668     -837    -1075    -1318    -1540 
   -1741    -1919    -2089    -2270    -2439    -2573    -2689    -2810 
   -2940    -3087    -3275    -3515    -3798    -4094    -4383    -4669 
   -4951    -5231    -5508    -5740    -5890    -5956    -5961    -5937 
   -5904    -5896    -5940    -6006    -6033    -5987    -5887    -5768 
   -5651    -5528    -5363    -5138    -4865    -4541    -4167    -3773 
   -3368    -2938    -2498    -2068    -1659    -1291     -961     -652 
    -373     -121       99      288      454      600      712      792 
     842      854      824      760      654      496      287       25 
    -282     -653    -1116    -1655    -2218    -2779    -3327    -3847 
   -4317    -4733    -5077    -5359    -5628    -5900    -6160    -6415 
   -6663    -6882    -7075    -7227    -7300    -7275    -7156    -6949 
   -6683    -6381    -6046    -5684    -5313    -4932    -4534    -4098 
   -3623    -3164    -2778    -2467    -2204    -1966    -1736    -1490 
   -1237    -1003     -788     -575     -371     -189      -33       81 
     159      209      224      190       89     -103     -398     -760 
   -1111    -1404    -1663    -1902    -2114    -2285    -2404    -2505 
   -2662    -2902    -3198    -3511    -3801    -4063    -4313    -4571 
   -4873    -5209    -5501    -5698    -5807    -5838    -5775    -5593 
   -5296    -4936    -4565    -4210    -3879    -3597    -3373    -3187 
   -3034    -2901    -2741    -2539    -2307    -2052    -1775    -1471 
   -1135     -783     -434     -122      103      241      315      317 
     240       94     -135     -444     -792    -1146    -1490    -1803 
   -2072    -2315    -2566    -2836    -3111    -3352    -3554    -3755 
   -3960    -4162    -4387    -4656    -4973    -5312    -5603    -5802 
   -5921    -5980    -5994    -5973    -5934    -5906    -5898    -5876 
   -5815    -5714    -5568    -5377    -5146    -4878    -4579    -4245 
   -3863    -3443    -3011    -2583    -2182    -1822    -1475    -1117 
    -776     -488     -267     -103       31      135      172      132 
      40      -68     -174     -268     -360     -450     -550     -668 
    -780     -855     -892     -913     -945    -1016    -1169    -1401 
   -1665    -1941    -2251    -2604    -2998    -3437    -3888    -4324 
   -4741    -5119    -5429    -5653    -5787    -5834    -5809    -5733 
   -5634    -5548    -5494    -5478    -5521    -5624    -5732    -5784 
   -5773    -5721    -5659    -5603    -5521    -5368    -5154    -4885 
   -4553    -4145    -3693    -3258    -2876    -2562    -2344    -2228 
   -2191    -2201    -2220    -2216    -2155    -2014    -1800    -1522 
   -1189     -838     -499     -164      128      321      394      355 
     221       31     -183     -415     -645     -834     -959    -1044 
   -1125    -1224    -1336    -1444    -1556    -1696    -1873    -2088 
   -2323    -2538    -2713    -2864    -3007    -3152    -3299    -3430 
   -3538    -3626    -3689    -3750    -3829    -3910    -3987    -4063 
   -4139    -4209    -4248    -4245    -4233    -4239    -4256    -4271 
   -4260    -4212    -4144    -4091    -4081    -4108    -4153    -4207 
   -4268    -4344    -4437    -4533    -4634    -4726    -4762    -4734 
   -4645    -4487    -4272    -4037    -3852    -3767    -3759    -3780 
   -3766    -3688    -3574    -3439    -3272    -3086    -2882    -2658 
   -2439    -2255    -2104    -1958    -1813    -1674    -1521    -1360 
   -1227    -1138    -1102    -1119    -1162    -1215    -1239    -1200 
   -1116    -1016     -930     -903     -963    -1105    -1321    -1610 
   -1957    -2330    -2721    -3148    -3582    -3978    -4315    -4573 
   -4754    -4887    -4976    -5051    -5165    -5327    -5537    -5791 
   -6045    -6273    -6467    -6598    -6629    -6561    -6403    -6139 
   -5759    -5267    -4681    -4033    -3365    -2700    -2060    -1490 
   -1009     -608     -297      -67       99      222      315      402 
     504      634      812     1023     1225     1406     1552     1633 
    1649     1615     1524     1372     1170      903      545      101 
    -414     -969    -1514    -2037    -2547    -3036    -3469    -3823 
   -4101    -4322    -4521    -4743    -5009    -5321    -5671    -6026 
   -6340    -6596    -6785    -6917    -7003    -7060    -7075    -7022 
   -6875    -6628    -6296    -5913    -5495    -5038    -4519    -3929 
   -3277    -2587    -1884    -1209     -612     -117      261      480 
     523      438      283       98      -86     -263     -422     -552 
    -657     -731     -765     -776     -793     -846     -961    -1139 
   -1356    -1586    -1825    -2072    -2319    -2573    -2821    -3044 
   -3227    -3352    -3397    -3383    -3330    -3264    -3210    -3173 
   -3173    -3253    -3453    -3777    -4185    -4607    -4978    -5255 
   -5448    -5590    -5683    -5719    -5687    -5574    -5385    -5124 
   -4818    -4518    -4248    -4001    -3763    -3528    -3311    -3156 
   -3073    -3033    -2999    -2955    -2890    -2814    -2741    -2660 
   -2555    -2427    -2274    -2110    -1983    -1917    -1898    -1923 
   -1985    -2062    -2160    -2288    -2417    -2509    -2560    -2575 
   -2543    -2471    -2363    -2239    -2137    -2064    -2008    -1973 
   -1954    -1945    -1960    -2015    -2103    -2207    -2339    -2506 
   -2700    -2930    -3215    -3530    -3844    -4126    -4349    -4518 
   -4630    -4698    -4746    -4779    -4784    -4756    -4707    -4668 
   -4634    -4607    -4587    -4538    -4457    -4367    -4256    -4132 
   -3993    -3804    -3562    -3288    -3003    -2747    -2525    -2305 
   -2084    -1884    -1709    -1549    -1405    -1289    -1219    -1178 
   -1123    -1007     -801     -522     -203      125      430      681 
     877      996     1004      900      704      450      186      -35 
    -194     -306     -386     -471     -598     -774     -982    -1212 
   -1479    -1818    -2230    -2697    -3214    -3747    -4236    -4660 
   -5035    -5371    -5657    -5887    -6048    -6135    -6157    -6127 
   -6080    -6058    -6088    -6165    -6269    -6381    -6507    -6647 
   -6771    -6844    -6837    -6718    -6485    -6169    -5807    -5425 
   -5031    -4621    -4199    -3794    -3427    -3119    -2860    -2621 
   -2403    -2224    -2089    -1976    -1865    -1748    -1603    -1425 
   -1232    -1046     -859     -670     -481     -294     -109       39 
     117      130      112       71       10      -58     -113     -167 
    -257     -402     -588     -816    -1082    -1378    -1711    -2087 
   -2466    -2814    -3111    -3339    -3505    -3620    -3705    -3790 
   -3889    -4024    -4240    -4546    -4922    -5328    -5718    -6061 
   -6335    -6532    -6660    -6723    -6702    -6601    -6432    -6201 
   -5930    -5636    -5328    -5026    -4727    -4428    -4148    -3900 
   -3680    -3473    -3289    -3134    -2998    -2871    -2720    -2497 
   -2207    -1876    -1513    -1163     -872     -626     -421     -270 
    -164     -105      -87     -102     -126     -135     -126     -105 
     -78      -76     -101     -141     -210     -322     -484     -692 
    -923    -1177    -1463    -1784    -2147    -2556    -2980    -3383 
   -3747    -4068    -4345    -4579    -4757    -4862    -4907    -4923 
   -4923    -4919    -4932    -4962    -4999    -5044    -5094    -5138 
   -5151    -5121    -5066    -5003    -4939    -4889    -4860    -4834 
   -4792    -4733    -4646    -4500    -4287    -4029    -3743    -3442 
   -3133    -2824    -2533    -2265    -2008    -1748    -1459    -1132 
    -770     -378       16      365      629      796      895      935 
     915      853      761      649      533      430      337      237 
     108      -67     -290     -558     -855    -1158    -1456    -1767 
   -2092    -2425    -2756    -3059    -3296    -3476    -3632    -3784 
   -3950    -4158    -4406    -4683    -4980    -5260    -5505    -5710 
   -5872    -6000    -6106    -6207    -6343    -6517    -6708    -6893 
   -7056    -7186    -7273    -7321    -7323    -7267    -7156    -7009 
   -6802    -6521    -6184    -5792    -5344    -4838    -4295    -3753 
   -3237    -2762    -2309    -1836    -1328     -796     -251      287 
     791     1244     1641     1975     2250     2465     2608     2694 
    2744     2747     2708     2640     2539     2396     2234     2072 
    1912     1750     1576     1366     1086      722      276     -220 
    -758    -1358    -2015    -2706    -3407    -4086    -4723    -5306 
   -5829    -6285    -6686    -7045    -7357    -7631    -7892    -8151 
   -8403    -8646    -8851    -8997    -9074    -9066    -8961    -8761 
   -8459    -8044    -7534    -6948    -6311    -5665    -5035    -4438 
   -3905    -3451    -3076    -2782    -2567    -2407    -2255    -2076 
   -1837    -1526    -1161     -768     -359       62      460      816 
    1136     1416     1640     1810     1911     1922     1840     1684 
    1494     1306     1138     1001      901      800      648      440 
     186     -121     -473     -849    -1248    -1675    -2122    -2587 
   -3067    -3545    -3998    -4407    -4774    -5101    -5375    -5599 
   -5809    -6021    -6223    -6431    -6666    -6899    -7101    -7261 
   -7366    -7423    -7458    -7480    -7477    -7439    -7369    -7275 
   -7149    -6976    -6752    -6490    -6203    -5875    -5491    -5051 
   -4567    -4068    -3592    -3144    -2736    -2393    -2107    -1841 
   -1576    -1301    -1004     -675     -294      144      630     1131 
    1601     2015     2365     2643     2837     2967     3057     3095 
    3057     2960     2818     2644     2448     2212     1918     1571 
    1167      719      247     -260     -795    -1344    -1915    -2497 
   -3092    -3712    -4345    -4982    -5597    -6138    -6583    -6928 
   -7171    -7344    -7481    -7584    -7653    -7705    -7730    -7719 
   -7693    -7636    -7531    -7396    -7234    -7028    -6774    -6481 
   -6153    -5805    -5441    -5071    -4719    -4392    -4071    -3750 
   -3418    -3046    -2646    -2232    -1792    -1337     -900     -487 
    -102      234      500      697      827      885      877      820 
     726      603      475      359      229       70      -93     -249 
    -415     -602     -815    -1044    -1267    -1487    -1706    -1910 
   -2096    -2257    -2393    -2527    -2678    -2848    -3049    -3295 
   -3593    -3937    -4306    -4675    -5043    -5390    -5682    -5915 
   -6097    -6219    -6296    -6358    -6401    -6434    -6477    -6509 
   -6493    -6420    -6297    -6124    -5922    -5694    -5440    -5155 
   -4831    -4469    -4075    -3666    -3272    -2902    -2544    -2207 
   -1887    -1564    -1242     -931     -623     -319      -40      222 
     469      679      872     1066     1229     1358     1466     1540 
    1568     1536     1443     1308     1139      962      788      556 
     253      -90     -496     -955    -1421    -1885    -2374    -2897 
   -3439    -3975    -4492    -4965    -5378    -5738    -6039    -6262 
   -6413    -6497    -6515    -6482    -6435    -6417    -6416    -6397 
   -6374    -6343    -6261    -6126    -5950    -5737    -5506    -5265 
   -5008    -4727    -4398    -4010    -3584    -3145    -2714    -2308 
   -1952    -1656    -1417    -1228    -1067     -913     -766     -627 
    -494     -372     -251     -113       28      141      214      247 
     240      175       51     -133     -383     -684    -1016    -1366 
   -1696    -1984    -2245    -2500    -2770    -3055    -3338    -3618 
   -3909    -4193    -4449    -4707    -4978    -5220    -5406    -5537 
   -5622    -5663    -5665    -5637    -5590    -5518    -5414    -5290 
   -5166    -5055    -4958    -4860    -4752    -4612    -4438    -4251 
   -4045    -3815    -3568    -3319    -3098    -2911    -2766    -2662 
   -2574    -2496    -2421    -2351    -2322    -2340    -2357    -2351 
   -2319    -2242    -2133    -2012    -1896    -1806    -1738    -1671 
   -1601    -1534    -1480    -1443    -1429    -1440    -1464    -1494 
   -1512    -1503    -1482    -1445    -1378    -1278    -1167    -1065 
    -974     -897     -845     -824     -838     -896    -1001    -1154 
   -1360    -1610    -1883    -2162    -2435    -2689    -2917    -3122 
   -3304    -3466    -3618    -3754    -3869    -3963    -4047    -4129 
   -4185    -4199    -4209    -4230    -4255    -4287    -4355    -4461 
   -4575    -4664    -4734    -4789    -4814    -4808    -4788    -4738 
   -4634    -4480    -4293    -4097    -3905    -3726    -3561    -3397 
   -3218    -3024    -2825    -2610    -2350    -2060    -1772    -1505 
   -1271    -1073     -907     -776     -692     -654     -635     -633 
    -656     -699     -756     -837     -946    -1094    -1297    -1537 
   -1796    -2073    -2363    -2647    -2909    -3152    -3380    -3592 
   -3771    -3902    -4005    -4090    -4162    -4228    -4283    -4321 
   -4353    -4388    -4425    -4457    -4498    -4553    -4625    -4698 
   -4752    -4783    -4812    -4846    -4864    -4847    -4780    -4642 
   -4429    -4164    -3879    -3596    -3322    -3053    -2782    -2516 
   -2272    -2050    -1850    -1664    -1472    -1262    -1031     -796 
    -585     -415     -290     -209     -156     -122     -124     -178 
    -283     -441     -652     -886    -1107    -1318    -1551    -1810 
   -2095    -2403    -2714    -3017    -3307    -3568    -3793    -3993 
   -4159    -4283    -4386    -4472    -4541    -4607    -4666    -4706 
   -4730    -4753    -4785    -4828    -4878    -4932    -4995    -5051 
   -5086    -5085    -5044    -4958    -4818    -4626    -4395    -4148 
   -3897    -3630    -3348    -3064    -2781    -2508    -2255    -2012 
   -1775    -1551    -1344    -1162    -1003     -853     -714     -583 
    -454     -334     -237     -184     -191     -251     -357     -500 
    -675     -866    -1061    -1270    -1513    -1772    -2026    -2255 
   -2450    -2609    -2756    -2930    -3144    -3375    -3618    -3863 
   -4101    -4332    -4545    -4730    -4874    -4972    -5040    -5090 
   -5123    -5150    -5166    -5175    -5185    -5188    -5181    -5165 
   -5127    -5076    -5009    -4911    -4789    -4649    -4480    -4288 
   -4082    -3850    -3589    -3304    -2995    -2659    -2309    -1989 
   -1717    -1490    -1301    -1123     -959     -830     -731     -670 
    -648     -648     -654     -669     -696     -730     -768     -814 
