Origin Time       2025/01/13 21:19:00
Lat.              31.8
Long.             131.6
Depth. (km)       30
Mag.              6.9
Station Code      FKO009
Station Lat.      33.4954
Station Long.     130.5164
Station Height(m) 34
Record Time       2025/01/13 21:20:13
Sampling Freq(Hz) 100Hz
Duration Time(s)  100
Dir.              E-W
Scale Factor      7845(gal)/8223790
Max. Acc. (gal)   2.563
Last Correction   2025/01/13 21:20:14
Memo.             
[...]
    7499     7402     7269     7102     6917     6712     6531     6403 
    6307     6265     6258     6231     6188     6123     6031     5931 
    5822     5732     5701     5719     5780     5872     5999     6168 
    6331     6484     6656     6833     6990     7109     7195     7258 
    7280     7268     7267     7288     7303     7298     7275     7221 
    7103     6936     6764     6602     6457     6328     6218     6139 
    6075     6007     5956     5911     5853     5805     5783     5775 
    5778     5782     5807     5869     5937     6008     6069     6122 
    6174     6210     6250     6319     6397     6486     6593     6694 
    6777     6817     6810     6783     6717     6615     6519     6397 
    6237     6084     5925     5760     5632     5509     5418     5405 
    5416     5464     5571     5682     5786     5888     5976     6062 
    6142     6218     6313     6417     6531     6640     6731     6813 
    6870     6894     6895     6863     6802     6735     6656     6589 
    6547     6509     6480     6463     6413     6335     6255     6160 
    6053     5948     5853     5776     5701     5628     5582     5563 
    5564     5586     5630     5707     5802     5887     5961     6014 
    6033     6015     5980     5964     5960     5956     5977     6021 
    6052     6092     6156     6214     6254     6265     6253     6241 
    6208     6153     6107     6069     6035     6011     5991     5961 
    5906     5827     5741     5640     5528     5416     5302     5220 
    5174     5161     5208     5321     5479     5665     5853     6043 
    6239     6401     6521     6623     6687     6700     6693     6683 
    6654     6621     6590     6544     6512     6511     6520     6544 
    6579     6597     6610     6617     6596     6552     6517     6525 
    6573     6648     6770     6914     7037     7123     7183     7209 
    7195     7137     7061     6975     6860     6745     6644     6540 
    6436     6339     6232     6123     6006     5867     5728     5601 
    5472     5377     5324     5294     5301     5341     5409     5522 
    5672     5837     6025     6231     6427     6588     6716     6805 
    6837     6818     6754     6658     6559     6457     6363     6295 
    6251     6234     6249     6295     6365     6440     6507     6577 
    6646     6670     6663     6652     6621     6578     6548     6558 
    6605     6660     6735     6840     6934     6999     7041     7040 
    7006     6934     6816     6698     6578     6434     6309     6195 
    6076     5996     5950     5934     5960     5987     6010     6050 
    6084     6122     6166     6197     6231     6255     6258     6262 
    6264     6251     6230     6205     6165     6091     5988     5879 
    5773     5671     5590     5529     5466     5406     5379     5367 
    5355     5350     5347     5350     5340     5327     5348     5401 
    5479     5583     5676     5756     5832     5865     5867     5890 
    5919     5948     5987     6037     6083     6108     6120     6126 
    6122     6135     6168     6219     6307     6396     6469     6540 
    6578     6574     6547     6498     6447     6389     6323     6277 
    6250     6231     6224     6237     6258     6261     6242     6222 
    6205     6192     6176     6165     6162     6146     6145     6181 
    6245     6338     6453     6575     6705     6809     6878     6926 
    6941     6921     6879     6836     6804     6762     6709     6669 
    6621     6556     6494     6438     6388     6335     6276     6242 
    6227     6197     6170     6157     6141     6141     6168     6211 
    6288     6401     6538     6693     6853     6994     7111     7221 
    7306     7356     7385     7410     7422     7402     7348     7260 
    7137     7001     6855     6720     6616     6525     6448     6400 
    6373     6363     6362     6350     6335     6305     6241     6170 
    6097     5999     5900     5814     5742     5679     5607     5549 
    5510     5474     5449     5425     5404     5405     5408     5420 
    5475     5524     5567     5649     5742     5819     5899     5977 
    6042     6102     6156     6196     6226     6242     6231     6189 
    6142     6100     6041     5971     5908     5827     5724     5610 
    5497     5386     5262     5157     5093     5051     5051     5107 
    5198     5336     5502     5674     5863     6035     6180     6327 
    6475     6639     6802     6936     7048     7122     7165     7194 
    7199     7187     7149     7084     7037     7014     6971     6905 
    6824     6713     6583     6446     6331     6232     6135     6080 
    6088     6146     6228     6308     6365     6394     6404     6411 
    6432     6459     6490     6535     6594     6663     6710     6729 
    6747     6754     6767     6832     6941     7064     7194     7318 
    7415     7473     7480     7441     7366     7250     7126     7021 
    6917     6812     6701     6583     6478     6361     6219     6065 
    5894     5699     5483     5258     5063     4897     4756     4677 
    4673     4752     4932     5197     5514     5854     6201     6565 
    6929     7265     7553     7773     7938     8063     8137     8162 
    8154     8089     7970     7832     7668     7454     7202     6918 
    6625     6351     6107     5891     5726     5620     5533     5467 
    5439     5420     5395     5409     5476     5594     5763     5964 
    6189     6457     6752     7045     7327     7565     7712     7776 
    7777     7709     7585     7412     7196     6956     6697     6432 
    6197     5981     5772     5583     5420     5281     5175     5116 
    5111     5139     5181     5239     5313     5398     5472     5528 
    5598     5680     5757     5854     5961     6046     6104     6139 
    6154     6154     6131     6080     6008     5922     5807     5672 
    5545     5428     5323     5247     5212     5204     5224     5273 
    5358     5486     5648     5850     6091     6319     6519     6702 
    6845     6951     7041     7105     7140     7159     7160     7145 
    7096     7002     6875     6706     6512     6313     6119     5937 
    5755     5578     5433     5312     5221     5178     5184     5248 
    5368     5545     5788     6075     6378     6700     7040     7383 
    7695     7965     8191     8357     8464     8513     8503     8456 
    8375     8263     8147     8024     7884     7735     7568     7396 
    7219     7020     6836     6675     6515     6376     6261     6181 
    6133     6079     6043     6023     5977     5935     5896     5857 
    5846     5840     5840     5850     5823     5795     5776     5740 
    5734     5776     5849     5954     6068     6200     6347     6474 
    6596     6716     6820     6928     7024     7113     7227     7342 
    7456     7584     7701     7811     7900     7928     7901     7816 
    7662     7474     7267     7025     6756     6493     6253     6021 
    5792     5601     5467     5368     5302     5279     5290     5306 
    5333     5405     5512     5637     5805     5996     6169     6328 
    6463     6566     6647     6683     6687     6673     6624     6563 
    6500     6419     6328     6212     6076     5941     5790     5644 
    5503     5367     5275     5206     5155     5148     5152     5169 
    5227     5296     5386     5524     5660     5805     5980     6143 
    6307     6493     6646     6759     6847     6882     6859     6791 
    6696     6594     6484     6380     6297     6203     6093     5983 
    5880     5786     5684     5590     5514     5439     5383     5348 
    5313     5310     5344     5393     5486     5618     5751     5900 
    6089     6299     6500     6696     6880     7025     7114     7164 
    7187     7182     7128     7026     6924     6831     6733     6647 
    6581     6525     6466     6401     6353     6305     6237     6158 
    6080     6000     5923     5850     5791     5738     5697     5705 
    5755     5833     5938     6037     6138     6253     6338     6393 
    6434     6430     6392     6357     6311     6261     6235     6227 
    6249     6295     6347     6408     6481     6539     6556     6536 
    6500     6446     6381     6345     6335     6335     6358     6404 
    6466     6546     6637     6740     6848     6943     7018     7074 
    7111     7141     7153     7155     7153     7117     7053     6983 
    6910     6839     6768     6701     6646     6586     6538     6519 
    6515     6521     6527     6528     6544     6552     6532     6500 
    6467     6432     6377     6289     6184     6064     5917     5759 
    5605     5452     5297     5163     5059     4959     4860     4791 
    4738     4699     4707     4764     4861     5003     5171     5379 
    5621     5864     6111     6367     6616     6856     7082     7272 
    7438     7578     7668     7708     7708     7646     7524     7364 
    7177     6964     6740     6525     6322     6134     5973     5850 
    5771     5719     5665     5621     5593     5551     5525     5567 
    5645     5745     5891     6060     6220     6376     6529     6660 
    6760     6833     6866     6849     6793     6691     6563     6416 
    6230     6025     5832     5668     5540     5437     5370     5358 
    5385     5433     5499     5582     5691     5823     5975     6156 
    6365     6582     6782     6951     7069     7114     7084     7007 
    6886     6720     6535     6346     6164     5984     5796     5624 
    5470     5306     5159     5071     5035     5039     5093     5193 
    5316     5466     5651     5868     6095     6313     6524     6737 
    6941     7107     7238     7365     7473     7534     7561     7565 
    7534     7458     7350     7231     7083     6889     6704     6558 
    6426     6301     6208     6161     6139     6122     6112     6103 
    6088     6102     6133     6158     6191     6234     6292     6378 
    6475     6571     6662     6724     6760     6786     6786     6763 
    6705     6575     6397     6220     6037     5854     5710     5587 
    5493     5452     5447     5478     5545     5611     5688     5799 
    5896     5975     6075     6193     6320     6463     6619     6767 
    6902     7036     7176     7310     7411     7483     7537     7558 
    7519     7435     7325     7179     6995     6777     6554     6357 
    6164     5987     5852     5755     5697     5668     5672     5710 
    5760     5836     5950     6064     6153     6212     6250     6278 
    6284     6270     6254     6235     6220     6207     6200     6218 
    6249     6286     6343     6394     6419     6416     6385     6346 
    6312     6270     6227     6195     6173     6165     6180     6218 
    6272     6336     6416     6509     6600     6678     6758     6828 
    6866     6864     6824     6752     6663     6542     6378     6203 
    6025     5841     5670     5522     5398     5306     5263     5277 
    5323     5387     5467     5547     5618     5690     5780     5899 
    6030     6170     6338     6501     6647     6787     6907     6994 
    7029     7002     6947     6878     6786     6689     6613     6565 
    6525     6501     6501     6507     6509     6528     6577     6655 
    6762     6891     7020     7145     7258     7338     7404     7449 
    7443     7408     7360     7291     7207     7117     7034     6975 
    6912     6840     6781     6723     6655     6606     6585     6561 
    6531     6490     6421     6338     6239     6130     6054     6011 
    5972     5957     5964     5981     6018     6068     6134     6216 
    6296     6376     6450     6496     6511     6488     6432     6365 
    6274     6160     6065     6006     5969     5948     5940     5948 
    5948     5927     5921     5917     5895     5891     5906     5915 
    5914     5906     5917     5956     6003     6076     6177     6277 
    6357     6420     6463     6475     6454     6397     6313     6218 
    6108     6011     5941     5867     5775     5674     5575     5494 
    5439     5395     5374     5386     5414     5472     5590     5745 
    5910     6089     6280     6459     6631     6809     6980     7141 
    7299     7452     7605     7744     7844     7913     7958     7971 
    7955     7893     7781     7624     7423     7194     6928     6620 
    6300     6000     5728     5493     5321     5220     5190     5236 
    5344     5498     5682     5856     6002     6135     6261     6381 
    6507     6648     6797     6930     7051     7171     7257     7290 
    7291     7258     7190     7087     6939     6758     6563     6345 
    6108     5879     5670     5489     5336     5216     5130     5071 
    5036     5022     5028     5055     5107     5194     5305     5439 
    5590     5748     5919     6106     6299     6492     6669     6816 
    6926     7013     7084     7115     7122     7137     7155     7179 
    7204     7213     7207     7186     7159     7140     7107     7061 
    7001     6916     6825     6718     6592     6467     6330     6176 
    6041     5935     5868     5817     5764     5736     5715     5679 
    5657     5657     5672     5698     5730     5790     5869     5965 
    6100     6281     6502     6731     6949     7173     7380     7537 
    7655     7735     7755     7738     7703     7643     7547     7408 
    7242     7060     6855     6639     6423     6203     5979     5755 
    5525     5282     5023     4765     4518     4280     4078     3909 
    3766     3684     3649     3627     3662     3765     3906     4097 
    4318     4565     4845     5109     5358     5611     5819     5983 
    6130     6234     6295     6334     6357     6380     6401     6407 
    6411     6419     6428     6444     6465     6475     6459     6421 
    6380     6330     6273     6223     6185     6170     6178     6204 
    6261     6367     6497     6642     6802     6967     7122     7249 
    7338     7404     7442     7442     7430     7422     7400     7364 
    7315     7258     7191     7109     7032     6968     6903     6812 
    6709     6639     6589     6547     6536     6550     6574     6615 
    6690     6801     6914     7028     7160     7292     7408     7503 
    7560     7596     7627     7631     7627     7620     7587     7538 
    7473     7380     7268     7129     6966     6812     6664     6527 
    6423     6340     6262     6184     6103     6027     5964     5886 
    5796     5706     5595     5468     5343     5225     5101     4970 
    4866     4792     4733     4710     4730     4774     4841     4924 
    5013     5108     5208     5310     5435     5583     5748     5929 
    6118     6291     6442     6566     6666     6744     6782     6778 
    6755     6709     6632     6528     6411     6269     6106     5938 
    5779     5660     5587     5556     5591     5679     5790     5918 
    6048     6157     6241     6305     6361     6404     6431     6458 
    6478     6496     6512     6502     6474     6440     6374     6284 
    6187     6066     5922     5746     5557     5387     5231     5094 
    5020     4993     4990     5027     5096     5186     5297     5418 
    5549     5697     5857     6018     6181     6373     6581     6775 
    6979     7175     7314     7422     7519     7588     7628     7643 
    7622     7581     7519     7433     7348     7273     7195     7117 
    7047     6983     6926     6871     6833     6814     6798     6786 
    6777     6764     6740     6706     6667     6615     6550     6480 
    6393     6296     6203     6104     5994     5883     5748     5598 
    5485     5408     5360     5356     5370     5401     5472     5572 
    5692     5830     5964     6088     6211     6330     6438     6546 
    6654     6760     6860     6949     7044     7141     7218     7271 
    7306     7334     7335     7308     7280     7242     7182     7113 
    7037     6952     6862     6775     6702     6648     6600     6544 
    6511     6490     6469     6465     6469     6462     6454     6438 
    6407     6374     6335     6296     6269     6250     6253     6284 
    6332     6399     6462     6509     6551     6585     6600     6598 
    6593     6593     6581     6552     6538     6536     6529     6535 
    6554     6567     6577     6577     6573     6565     6517     6457 
    6420     6370     6303     6250     6193     6118     6034     5953 
    5876     5787     5694     5618     5557     5503     5456     5425 
    5405     5387     5387     5398     5402     5418     5440     5433 
    5409     5373     5329     5290     5256     5223     5188     5154 
    5147     5173     5213     5269     5341     5416     5498     5602 
    5730     5873     6003     6127     6264     6386     6492     6610 
    6736     6849     6953     7056     7169     7276     7358     7438 
    7503     7523     7507     7460     7371     7254     7113     6937 
    6748     6562     6378     6195     6021     5871     5737     5622 
    5537     5476     5439     5421     5421     5454     5505     5574 
    5678     5784     5884     6008     6137     6253     6372     6475 
    6547     6589     6596     6597     6592     6554     6507     6466 
    6415     6345     6274     6211     6147     6087     6049     6016 
    5979     5979     6015     6076     6173     6282     6392     6524 
    6667     6824     6994     7160     7322     7470     7599     7704 
    7765     7782     7766     7716     7650     7574     7488     7396 
    7284     7128     6941     6744     6529     6308     6096     5913 
    5763     5640     5570     5548     5552     5601     5702     5829 
    5976     6149     6322     6482     6660     6852     7026     7184 
    7327     7438     7500     7506     7464     7391     7273     7117 
    6945     6748     6538     6347     6165     5987     5826     5672 
    5528     5405     5297     5208     5135     5073     5032     5005 
    4986     4990     5008     5039     5096     5171     5262     5367 
    5474     5593     5714     5819     5922     6008     6066     6122 
    6170     6210     6254     6296     6330     6349     6349     6340 
    6332     6319     6304     6292     6265     6231     6193     6141 
    6072     6014     5973     5935     5914     5922     5935     5972 
    6035     6095     6145     6199     6245     6277     6327     6399 
    6469     6552     6651     6743     6828     6903     6961     6999 
    7011     7009     7011     7007     6983     6967     6955     6928 
    6914     6917     6917     6929     6948     6959     6976     6995 
    7002     7002     6987     6953     6897     6810     6718     6629 
    6538     6461     6411     6376     6353     6335     6319     6307 
    6288     6266     6232     6170     6114     6085     6048     6015 
    6012     6019     6037     6073     6124     6187     6246     6303 
    6363     6417     6474     6536     6586     6627     6679     6721 
    6741     6770     6812     6839     6852     6872     6891     6897 
    6891     6870     6828     6779     6728     6673     6632     6604 
    6578     6554     6532     6513     6496     6473     6438     6386 
    6313     6245     6189     6124     6052     5988     5930     5871 
    5826     5796     5760     5729     5725     5726     5711     5698 
    5674     5624     5575     5529     5474     5418     5363     5312 
