Origin Time       2025/01/13 21:19:00
Lat.              31.8
Long.             131.6
Depth. (km)       30
Mag.              6.9
Station Code      FKO004
Station Lat.      33.7366
Station Long.     131.0121
Station Height(m) 3
Record Time       2025/01/13 21:20:21
Sampling Freq(Hz) 100Hz
Duration Time(s)  93
Dir.              U-D
Scale Factor      7845(gal)/8223790
Max. Acc. (gal)   1.196
Last Correction   2025/01/13 21:20:21
Memo.             
[...]
   -8230    -8144    -8024    -7962    -8032    -8160    -8222    -8208 
   -8199    -8248    -8302    -8314    -8328    -8382    -8444    -8479 
   -8518    -8567    -8575    -8517    -8406    -8283    -8244    -8314 
   -8410    -8480    -8513    -8503    -8456    -8380    -8307    -8245 
   -8147    -8059    -8098    -8210    -8243    -8209    -8212    -8266 
   -8328    -8361    -8359    -8360    -8382    -8379    -8326    -8256 
   -8187    -8106    -8037    -7997    -7954    -7882    -7846    -7889 
   -7951    -7983    -8020    -8093    -8174    -8212    -8240    -8340 
   -8494    -8637    -8768    -8887    -8970    -9032    -9067    -9032 
   -8950    -8896    -8889    -8866    -8761    -8592    -8463    -8440 
   -8483    -8530    -8559    -8518    -8406    -8301    -8212    -8077 
   -7947    -7919    -7965    -7978    -7921    -7831    -7746    -7684 
   -7630    -7593    -7615    -7673    -7704    -7715    -7736    -7777 
   -7871    -7974    -7966    -7904    -7948    -8109    -8260    -8318 
   -8301    -8295    -8378    -8536    -8665    -8688    -8611    -8534 
   -8568    -8677    -8711    -8641    -8594    -8648    -8754    -8806 
   -8750    -8656    -8621    -8646    -8668    -8641    -8565    -8488 
   -8457    -8475    -8526    -8608    -8700    -8741    -8706    -8638 
   -8573    -8510    -8456    -8398    -8306    -8210    -8178    -8201 
   -8189    -8081    -7936    -7869    -7879    -7832    -7662    -7465 
   -7349    -7308    -7321    -7371    -7400    -7389    -7389    -7445 
   -7561    -7685    -7776    -7866    -7977    -8083    -8166    -8206 
   -8230    -8286    -8345    -8351    -8347    -8384    -8422    -8433 
   -8460    -8534    -8623    -8684    -8738    -8866    -9072    -9212 
   -9177    -9059    -9020    -9065    -9086    -9026    -8923    -8835 
   -8757    -8664    -8575    -8496    -8378    -8217    -8098    -8066 
   -8066    -8054    -8059    -8097    -8137    -8147    -8154    -8201 
   -8240    -8193    -8079    -7997    -7986    -8002    -8009    -8013 
   -8023    -8020    -7993    -7987    -8094    -8280    -8384    -8371 
   -8387    -8469    -8498    -8429    -8355    -8349    -8368    -8345 
   -8330    -8390    -8476    -8540    -8594    -8634    -8626    -8571 
   -8519    -8509    -8544    -8607    -8665    -8715    -8766    -8783 
   -8730    -8635    -8518    -8382    -8272    -8229    -8218    -8168 
   -8071    -7989    -7989    -8062    -8132    -8174    -8232    -8329 
   -8436    -8505    -8522    -8518    -8534    -8553    -8554    -8567 
   -8599    -8622    -8619    -8625    -8698    -8808    -8858    -8804 
   -8680    -8557    -8509    -8553    -8635    -8681    -8680    -8676 
   -8692    -8683    -8580    -8384    -8143    -7924    -7798    -7753 
   -7719    -7680    -7672    -7726    -7823    -7915    -8002    -8140 
   -8328    -8513    -8677    -8802    -8880    -8961    -9050    -9069 
   -8997    -8905    -8842    -8797    -8752    -8694    -8621    -8527 
   -8421    -8375    -8424    -8469    -8451    -8429    -8441    -8457 
   -8464    -8453    -8442    -8476    -8523    -8487    -8355    -8198 
   -8073    -7998    -7962    -7952    -7952    -7940    -7916    -7892 
   -7855    -7788    -7722    -7708    -7761    -7851    -7939    -8002 
   -8037    -8046    -8047    -8066    -8129    -8270    -8463    -8658 
   -8839    -8996    -9131    -9247    -9320    -9342    -9328    -9265 
   -9128    -8973    -8860    -8783    -8715    -8662    -8630    -8595 
   -8534    -8414    -8237    -8086    -8017    -7974    -7878    -7723 
   -7577    -7543    -7632    -7747    -7839    -7912    -7967    -8032 
   -8131    -8205    -8198    -8135    -8100    -8156    -8284    -8391 
   -8424    -8415    -8407    -8383    -8322    -8278    -8294    -8320 
   -8286    -8185    -8082    -8044    -8037    -8021    -8040    -8125 
   -8260    -8410    -8521    -8556    -8534    -8525    -8577    -8644 
   -8634    -8559    -8505    -8534    -8615    -8687    -8727    -8726 
   -8676    -8603    -8496    -8320    -8097    -7897    -7796    -7831 
   -7931    -7975    -7942    -7894    -7865    -7832    -7769    -7655 
   -7519    -7443    -7487    -7593    -7669    -7673    -7628    -7616 
   -7692    -7827    -7971    -8101    -8202    -8271    -8294    -8275 
   -8256    -8271    -8318    -8398    -8496    -8553    -8517    -8451 
   -8440    -8483    -8519    -8506    -8459    -8432    -8459    -8529 
   -8619    -8684    -8645    -8509    -8382    -8310    -8272    -8260 
   -8293    -8399    -8546    -8664    -8730    -8750    -8722    -8669 
   -8640    -8627    -8595    -8519    -8399    -8253    -8137    -8059 
   -7966    -7840    -7727    -7643    -7561    -7461    -7344    -7242 
   -7210    -7245    -7311    -7418    -7566    -7669    -7669    -7666 
   -7750    -7857    -7912    -7936    -8005    -8194    -8444    -8614 
   -8698    -8770    -8830    -8862    -8883    -8899    -8911    -8905 
   -8869    -8853    -8881    -8878    -8799    -8715    -8687    -8695 
   -8712    -8718    -8700    -8648    -8548    -8434    -8363    -8332 
   -8294    -8236    -8186    -8171    -8205    -8253    -8272    -8267 
   -8256    -8248    -8243    -8230    -8191    -8116    -8028    -7959 
   -7909    -7866    -7842    -7835    -7842    -7886    -7973    -8067 
   -8167    -8283    -8419    -8556    -8637    -8638    -8642    -8718 
   -8804    -8824    -8796    -8745    -8671    -8588    -8514    -8469 
   -8461    -8469    -8494    -8545    -8586    -8569    -8517    -8491 
   -8511    -8537    -8538    -8526    -8510    -8482    -8452    -8428 
   -8392    -8343    -8310    -8330    -8394    -8453    -8469    -8434 
   -8375    -8340    -8357    -8383    -8355    -8268    -8164    -8082 
   -8036    -7992    -7912    -7830    -7792    -7786    -7767    -7730 
   -7711    -7731    -7755    -7761    -7751    -7734    -7747    -7843 
   -8010    -8198    -8391    -8587    -8742    -8827    -8851    -8835 
   -8797    -8758    -8710    -8644    -8579    -8553    -8580    -8622 
   -8629    -8576    -8495    -8426    -8375    -8340    -8341    -8370 
   -8395    -8413    -8419    -8413    -8402    -8364    -8289    -8226 
   -8218    -8243    -8267    -8279    -8287    -8355    -8490    -8580 
   -8561    -8503    -8468    -8424    -8336    -8206    -8041    -7840 
   -7639    -7508    -7477    -7477    -7452    -7454    -7526    -7626 
   -7731    -7857    -8000    -8132    -8229    -8290    -8355    -8459 
   -8592    -8704    -8775    -8826    -8864    -8904    -8982    -9073 
   -9116    -9082    -8993    -8911    -8869    -8804    -8676    -8548 
   -8465    -8392    -8307    -8221    -8154    -8135    -8156    -8175 
   -8183    -8203    -8229    -8233    -8218    -8182    -8112    -8013 
   -7885    -7754    -7659    -7585    -7484    -7376    -7300    -7273 
   -7292    -7329    -7364    -7414    -7493    -7603    -7750    -7940 
   -8132    -8283    -8415    -8541    -8625    -8657    -8657    -8638 
   -8629    -8649    -8671    -8642    -8548    -8452    -8444    -8498 
   -8526    -8513    -8488    -8437    -8334    -8220    -8144    -8087 
   -8017    -7951    -7911    -7886    -7855    -7836    -7858    -7906 
   -7970    -8060    -8171    -8271    -8359    -8442    -8511    -8563 
   -8621    -8667    -8658    -8617    -8595    -8603    -8618    -8631 
   -8646    -8648    -8625    -8596    -8554    -8475    -8394    -8406 
   -8532    -8668    -8714    -8667    -8576    -8484    -8399    -8306 
   -8224    -8186    -8181    -8170    -8164    -8176    -8162    -8090 
   -8028    -8043    -8102    -8120    -8077    -8004    -7917    -7828 
   -7758    -7717    -7699    -7701    -7754    -7852    -7925    -7962 
   -8017    -8110    -8237    -8367    -8444    -8469    -8509    -8572 
   -8603    -8595    -8599    -8626    -8626    -8546    -8417    -8302 
   -8195    -8052    -7908    -7843    -7850    -7854    -7855    -7878 
   -7877    -7840    -7850    -7955    -8085    -8122    -8060    -8032 
   -8105    -8182    -8197    -8181    -8154    -8127    -8120    -8112 
   -8063    -7994    -7933    -7917    -8005    -8163    -8268    -8270 
   -8244    -8280    -8368    -8463    -8556    -8652    -8721    -8730 
   -8711    -8704    -8699    -8680    -8661    -8652    -8657    -8675 
   -8679    -8667    -8656    -8634    -8580    -8513    -8446    -8375 
   -8325    -8349    -8449    -8554    -8588    -8552    -8517    -8502 
   -8461    -8390    -8329    -8310    -8338    -8410    -8510    -8606 
   -8683    -8756    -8830    -8885    -8910    -8901    -8885    -8887 
   -8874    -8810    -8706    -8602    -8525    -8475    -8421    -8334 
   -8206    -8039    -7881    -7782    -7726    -7690    -7689    -7712 
   -7711    -7673    -7651    -7665    -7681    -7690    -7700    -7703 
   -7730    -7812    -7916    -7998    -8071    -8168    -8283    -8399 
   -8536    -8688    -8824    -8937    -9046    -9167    -9250    -9238 
   -9163    -9092    -9039    -8999    -8943    -8820    -8626    -8421 
   -8257    -8147    -8067    -7998    -7960    -7987    -8047    -8067 
   -8017    -7898    -7771    -7715    -7717    -7692    -7620    -7585 
   -7646    -7757    -7830    -7825    -7798    -7828    -7915    -7992 
   -8039    -8052    -8036    -8052    -8139    -8235    -8303    -8370 
   -8445    -8540    -8677    -8854    -9045    -9238    -9389    -9447 
   -9439    -9404    -9359    -9319    -9248    -9117    -8986    -8897 
   -8793    -8649    -8503    -8376    -8251    -8122    -8000    -7878 
   -7747    -7618    -7515    -7464    -7466    -7523    -7619    -7692 
   -7711    -7727    -7776    -7839    -7917    -8025    -8164    -8305 
   -8410    -8476    -8506    -8514    -8525    -8541    -8557    -8576 
   -8600    -8631    -8662    -8688    -8710    -8719    -8722    -8757 
   -8837    -8916    -8959    -8993    -9040    -9073    -9054    -8993 
   -8935    -8895    -8861    -8823    -8775    -8703    -8606    -8500 
   -8415    -8367    -8325    -8266    -8226    -8276    -8413    -8537 
   -8586    -8586    -8576    -8571    -8575    -8568    -8532    -8486 
   -8472    -8496    -8517    -8480    -8387    -8307    -8282    -8283 
   -8274    -8224    -8135    -8044    -7977    -7931    -7898    -7890 
   -7925    -7989    -8060    -8112    -8131    -8128    -8117    -8110 
   -8143    -8248    -8403    -8552    -8665    -8758    -8853    -8935 
   -8949    -8887    -8812    -8757    -8691    -8590    -8464    -8344 
   -8272    -8274    -8317    -8361    -8392    -8395    -8375    -8357 
   -8351    -8345    -8311    -8228    -8144    -8117    -8147    -8198 
   -8243    -8282    -8306    -8302    -8290    -8287    -8275    -8237 
   -8175    -8106    -8060    -8029    -7990    -7963    -7979    -8043 
   -8128    -8213    -8289    -8367    -8459    -8571    -8711    -8841 
   -8888    -8858    -8830    -8831    -8819    -8795    -8768    -8735 
   -8721    -8727    -8706    -8635    -8537    -8414    -8283    -8170 
   -8071    -7981    -7916    -7881    -7867    -7850    -7815    -7800 
   -7831    -7888    -7943    -7997    -8073    -8167    -8244    -8305 
   -8360    -8390    -8403    -8448    -8536    -8649    -8754    -8820 
   -8870    -8926    -8973    -9011    -9031    -9020    -8996    -8980 
   -8945    -8872    -8768    -8625    -8453    -8295    -8144    -7975 
   -7827    -7746    -7719    -7709    -7686    -7651    -7631    -7631 
   -7651    -7720    -7838    -7948    -8023    -8087    -8162    -8244 
   -8311    -8330    -8297    -8241    -8190    -8149    -8122    -8091 
   -8043    -8009    -8020    -8044    -8051    -8020    -7956    -7906 
   -7897    -7919    -7966    -8052    -8176    -8341    -8548    -8762 
   -8968    -9148    -9259    -9294    -9308    -9329    -9305    -9181 
   -8984    -8775    -8573    -8367    -8149    -7948    -7805    -7701 
   -7587    -7491    -7447    -7422    -7387    -7360    -7365    -7418 
   -7492    -7539    -7570    -7635    -7717    -7788    -7865    -7967 
   -8068    -8139    -8158    -8137    -8116    -8086    -8008    -7916 
   -7861    -7813    -7757    -7735    -7773    -7855    -7969    -8108 
   -8274    -8479    -8695    -8870    -9011    -9153    -9277    -9346 
   -9337    -9263    -9161    -9043    -8905    -8753    -8590    -8402 
   -8213    -8078    -7981    -7859    -7736    -7668    -7663    -7719 
   -7794    -7850    -7909    -8002    -8104    -8198    -8310    -8455 
   -8594    -8680    -8716    -8753    -8811    -8841    -8785    -8676 
   -8581    -8511    -8432    -8352    -8314    -8349    -8422    -8457 
   -8433    -8401    -8406    -8468    -8561    -8634    -8658    -8675 
   -8738    -8835    -8919    -8954    -8950    -8964    -9042    -9151 
   -9232    -9262    -9258    -9224    -9148    -9013    -8846    -8704 
   -8610    -8530    -8436    -8325    -8210    -8116    -8073    -8087 
   -8133    -8185    -8237    -8301    -8382    -8457    -8498    -8496 
   -8457    -8390    -8310    -8239    -8163    -8050    -7905    -7788 
   -7738    -7723    -7676    -7600    -7545    -7541    -7570    -7589 
   -7608    -7669    -7749    -7800    -7824    -7824    -7789    -7735 
   -7695    -7674    -7653    -7614    -7573    -7581    -7658    -7765 
   -7855    -7929    -8002    -8063    -8102    -8117    -8090    -8029 
   -7985    -7970    -7959    -7951    -7933    -7886    -7828    -7803 
   -7820    -7877    -7960    -8027    -8047    -8031    -7997    -7958 
   -7905    -7828    -7746    -7682    -7626    -7535    -7408    -7277 
   -7167    -7092    -7060    -7048    -7049    -7087    -7160    -7241 
   -7329    -7420    -7504    -7585    -7658    -7712    -7774    -7847 
   -7906    -7973    -8073    -8187    -8284    -8343    -8349    -8348 
   -8392    -8488    -8607    -8742    -8869    -8955    -8999    -9028 
   -9050    -9051    -9018    -8935    -8835    -8745    -8667    -8625 
   -8637    -8677    -8730    -8800    -8881    -8943    -8991    -9016 
   -8993    -8934    -8865    -8780    -8683    -8590    -8500    -8428 
   -8387    -8352    -8307    -8278    -8256    -8239    -8233    -8220 
   -8178    -8110    -8025    -7939    -7863    -7777    -7669    -7584 
   -7558    -7573    -7612    -7661    -7676    -7632    -7574    -7555 
   -7587    -7646    -7699    -7735    -7786    -7859    -7923    -7956 
   -7975    -8016    -8086    -8167    -8245    -8317    -8382    -8448 
   -8522    -8618    -8739    -8864    -8972    -9053    -9107    -9161 
   -9215    -9252    -9296    -9355    -9396    -9381    -9328    -9274 
   -9228    -9192    -9189    -9208    -9221    -9235    -9234    -9189 
   -9109    -9019    -8939    -8876    -8807    -8719    -8615    -8519 
   -8469    -8444    -8367    -8241    -8116    -7986    -7836    -7684 
   -7550    -7430    -7322    -7250    -7221    -7226    -7279    -7384 
   -7524    -7670    -7784    -7871    -7959    -8044    -8114    -8175 
   -8239    -8317    -8429    -8560    -8654    -8692    -8715    -8748 
   -8792    -8845    -8872    -8857    -8820    -8749    -8633    -8522 
   -8419    -8293    -8164    -8066    -7985    -7908    -7846    -7804 
   -7784    -7780    -7773    -7758    -7755    -7794    -7894    -8032 
   -8149    -8218    -8280    -8360    -8399    -8357    -8240    -8071 
   -7916    -7834    -7797    -7750    -7670    -7585    -7543    -7551 
   -7564    -7534    -7481    -7445    -7427    -7415    -7389    -7339 
   -7283    -7271    -7312    -7376    -7468    -7600    -7750    -7923 
   -8102    -8270    -8436    -8573    -8664    -8748    -8845    -8943 
   -9018    -9031    -9007    -8997    -9008    -9015    -8991    -8947 
   -8911    -8887    -8884    -8908    -8918    -8901    -8880    -8856 
   -8864    -8912    -8950    -8955    -8926    -8873    -8847    -8869 
   -8896    -8885    -8843    -8807    -8810    -8831    -8816    -8753 
   -8688    -8644    -8606    -8569    -8537    -8505    -8482    -8468 
   -8430    -8355    -8266    -8155    -8020    -7916    -7861    -7838 
   -7854    -7902    -7933    -7924    -7919    -7965    -8041    -8114 
   -8201    -8328    -8464    -8554    -8613    -8696    -8800    -8856 
   -8861    -8872    -8895    -8924    -8957    -8951    -8887    -8789 
   -8681    -8583    -8513    -8486    -8487    -8480    -8446    -8425 
   -8434    -8465    -8527    -8614    -8654    -8603    -8532    -8526 
   -8560    -8571    -8559    -8561    -8583    -8591    -8559    -8518 
   -8498    -8488    -8480    -8476    -8488    -8503    -8513    -8517 
   -8513    -8500    -8478    -8438    -8398    -8368    -8326    -8259 
   -8185    -8118    -8081    -8085    -8097    -8098    -8095    -8073 
   -8021    -7992    -7989    -7967    -7933    -7913    -7896    -7871 
   -7839    -7797    -7781    -7800    -7828    -7871    -7946    -8019 
   -8068    -8125    -8201    -8291    -8413    -8565    -8716    -8851 
   -8984    -9111    -9225    -9324    -9405    -9466    -9509    -9531 
   -9516    -9464    -9381    -9266    -9132    -8997    -8861    -8734 
   -8622    -8511    -8411    -8338    -8276    -8214    -8158    -8108 
   -8062    -8020    -7979    -7939    -7913    -7901    -7900    -7919 
   -7954    -7997    -8040    -8074    -8100    -8141    -8206    -8262 
   -8271    -8236    -8174    -8098    -8033    -7986    -7943    -7886 
   -7808    -7708    -7611    -7547    -7524    -7531    -7553    -7577 
   -7612    -7655    -7681    -7689    -7703    -7742    -7819    -7935 
   -8058    -8164    -8263    -8376    -8519    -8703    -8885    -9019 
   -9111    -9190    -9251    -9288    -9297    -9271    -9227    -9166 
   -9069    -8950    -8842    -8742    -8649    -8575    -8518    -8456 
   -8370    -8253    -8112    -7992    -7921    -7854    -7765    -7677 
   -7599    -7538    -7500    -7474    -7465    -7484    -7515    -7549 
   -7595    -7628    -7616    -7604    -7642    -7713    -7785    -7839 
   -7881    -7939    -8032    -8114    -8147    -8172    -8218    -8257 
   -8274    -8279    -8284    -8279    -8252    -8222    -8213    -8216 
   -8197    -8151    -8124    -8113    -8070    -7990    -7909    -7851 
   -7830    -7834    -7838    -7854    -7905    -7982    -8070    -8158 
   -8225    -8275    -8317    -8345    -8353    -8349    -8344    -8337 
   -8333    -8338    -8352    -8392    -8453    -8491    -8500    -8499 
   -8476    -8425    -8351    -8259    -8174    -8128    -8117    -8118 
   -8117    -8109    -8100    -8109    -8148    -8197    -8235    -8290 
   -8391    -8527    -8667    -8789    -8893    -8970    -8995    -8969 
   -8946    -8949    -8935    -8870    -8764    -8638    -8495    -8343 
   -8203    -8090    -7986    -7884    -7793    -7715    -7645    -7599 
   -7576    -7564    -7576    -7605    -7620    -7638    -7696    -7782 
   -7875    -7967    -8067    -8175    -8272    -8340    -8371    -8370 
   -8345    -8316    -8298    -8279    -8247    -8218    -8195    -8166 
   -8125    -8082    -8044    -8020    -8004    -7974    -7929    -7898 
   -7902    -7925    -7954    -7979    -7993    -8008    -8037    -8068 
   -8085    -8090    -8082    -8050    -8019    -8010    -8017    -8023 
   -8027    -8036    -8066    -8102    -8122    -8143    -8201    -8295 
   -8397    -8484    -8553    -8617    -8689    -8760    -8814    -8866 
   -8918    -8945    -8947    -8937    -8884    -8777    -8662    -8560 
   -8465    -8380    -8284    -8186    -8104    -8019    -7928    -7859 
