Origin Time       2025/01/13 21:19:00
Lat.              31.8
Long.             131.6
Depth. (km)       30
Mag.              6.9
Station Code      FKO015
Station Lat.      33.1629
Station Long.     130.4052
Station Height(m) 3
Record Time       2025/01/13 21:20:07
Sampling Freq(Hz) 100Hz
Duration Time(s)  142
Dir.              E-W
Scale Factor      7845(gal)/8223790
Max. Acc. (gal)   15.858
Last Correction   2025/01/13 21:20:07
Memo.             
[...]
   -9506    -9292    -9047    -8761    -8424    -8047    -7645    -7230 
   -6840    -6498    -6203    -5968    -5814    -5744    -5765    -5895 
   -6123    -6435    -6821    -7250    -7682    -8082    -8442    -8792 
   -9169    -9586   -10017   -10430   -10817   -11155   -11421   -11634 
  -11817   -11981   -12190   -12510   -12945   -13508   -14208   -15018 
  -15924   -16888   -17829   -18697   -19445   -20029   -20463   -20737 
  -20846   -20834   -20703   -20432   -20050   -19550   -18894   -18076 
  -17096   -15965   -14721   -13392   -12012   -10663    -9417    -8334 
   -7462    -6833    -6446    -6276    -6304    -6550    -7013    -7659 
   -8465    -9416   -10469   -11597   -12789   -13998   -15184   -16325 
  -17375   -18312   -19128   -19795   -20304   -20641   -20785   -20760 
  -20605   -20340   -19969   -19495   -18916   -18234   -17456   -16598 
  -15696   -14786   -13940   -13238   -12687   -12298   -12106   -12085 
  -12204   -12441   -12738   -13059   -13381   -13632   -13778   -13821 
  -13741   -13532   -13189   -12730   -12228   -11731   -11272   -10939 
  -10782   -10751   -10797   -10883   -10971   -11034   -11034   -10930 
  -10697   -10320    -9850    -9356    -8833    -8290    -7785    -7353 
   -6979    -6615    -6223    -5806    -5347    -4842    -4348    -3901 
   -3511    -3199    -2983    -2872    -2878    -2999    -3246    -3642 
   -4187    -4903    -5794    -6804    -7874    -8974   -10045   -11025 
  -11892   -12613   -13154   -13524   -13747   -13860   -13910   -13907 
  -13873   -13838   -13776   -13674   -13501   -13182   -12703   -12089 
  -11371   -10624    -9886    -9171    -8546    -8050    -7696    -7518 
   -7506    -7624    -7873    -8259    -8791    -9463   -10227   -11053 
  -11919   -12762   -13520   -14157   -14655   -15024   -15295   -15504 
  -15674   -15847   -16060   -16337   -16695   -17126   -17624   -18180 
  -18752   -19295   -19772   -20150   -20432   -20618   -20688   -20648 
  -20513   -20282   -19966   -19566   -19060   -18426   -17649   -16729 
  -15703   -14613   -13487   -12370   -11290   -10255    -9306    -8479 
   -7753    -7113    -6600    -6258    -6096    -6124    -6346    -6778 
   -7435    -8284    -9304   -10447   -11626   -12799   -13934   -14974 
  -15924   -16783   -17524   -18211   -18881   -19489   -20020   -20428 
  -20660   -20756   -20746   -20634   -20433   -20151   -19791   -19369 
  -18905   -18426   -17992   -17635   -17336   -17070   -16788   -16464 
  -16106   -15692   -15233   -14787   -14335   -13853   -13383   -12923 
  -12421   -11873   -11286   -10667   -10021    -9359    -8698    -8043 
   -7414    -6858    -6423    -6115    -5927    -5842    -5818    -5817 
   -5829    -5842    -5840    -5811    -5779    -5782    -5784    -5749 
   -5691    -5606    -5485    -5378    -5341    -5402    -5547    -5736 
   -5941    -6157    -6370    -6579    -6767    -6910    -7028    -7152 
   -7306    -7512    -7761    -8043    -8398    -8881    -9475   -10122 
  -10794   -11422   -11923   -12258   -12398   -12341   -12109   -11765 
  -11384   -10974   -10562   -10218    -9926    -9705    -9598    -9540 
   -9490    -9456    -9391    -9305    -9262    -9277    -9359    -9535 
   -9821   -10211   -10679   -11214   -11790   -12359   -12868   -13294 
  -13605   -13763   -13765   -13595   -13254   -12807   -12289   -11696 
  -11071   -10458    -9899    -9466    -9225    -9211    -9448    -9958 
  -10690   -11545   -12453   -13333   -14107   -14739   -15192   -15449 
  -15506   -15344   -14963   -14391   -13679   -12889   -12066   -11263 
  -10554    -9973    -9539    -9275    -9200    -9309    -9606   -10087 
  -10705   -11418   -12212   -13036   -13832   -14558   -15191   -15689 
  -15989   -16056   -15900   -15506   -14908   -14175   -13306   -12317 
  -11296   -10328    -9490    -8823    -8363    -8187    -8324    -8741 
   -9416   -10318   -11383   -12545   -13695   -14696   -15476   -15993 
  -16195   -16101   -15776   -15296   -14748   -14181   -13622   -13107 
  -12680   -12375   -12201   -12109   -12069   -12096   -12185   -12316 
  -12463   -12599   -12721   -12806   -12812   -12729   -12569   -12339 
  -12059   -11784   -11506   -11229   -10993   -10779   -10574   -10378 
  -10166    -9946    -9765    -9621    -9509    -9464    -9494    -9599 
   -9790   -10031   -10291   -10561   -10825   -11068   -11280   -11446 
  -11568   -11682   -11801   -11929   -12112   -12375   -12723   -13171 
  -13718   -14357   -15056   -15762   -16441   -17082   -17674   -18199 
  -18650   -18998   -19232   -19368   -19425   -19431   -19418   -19360 
  -19237   -19063   -18864   -18661   -18435   -18166   -17869   -17562 
  -17238   -16893   -16564   -16286   -16048   -15853   -15705   -15577 
  -15433   -15242   -14978   -14619   -14166   -13614   -12933   -12112 
  -11190   -10196    -9175    -8205    -7362    -6737    -6416    -6412 
   -6689    -7202    -7905    -8739    -9636   -10547   -11488   -12442 
  -13371   -14260   -15056   -15692   -16128   -16333   -16305   -16077 
  -15681   -15152   -14534   -13868   -13208   -12626   -12140   -11753 
  -11512   -11412   -11415   -11515   -11676   -11863   -12078   -12294 
  -12495   -12684   -12833   -12942   -13024   -13039   -12985   -12903 
  -12783   -12663   -12621   -12656   -12771   -12970   -13201   -13466 
  -13763   -14019   -14214   -14353   -14407   -14378   -14296   -14161 
  -13964   -13691   -13355   -12978   -12571   -12144   -11716   -11294 
  -10893   -10542   -10258   -10062    -9963    -9946   -10000   -10091 
  -10177   -10222   -10183   -10029    -9783    -9482    -9127    -8729 
   -8313    -7896    -7501    -7150    -6866    -6683    -6615    -6643 
   -6762    -6971    -7314    -7819    -8472    -9285   -10234   -11254 
  -12310   -13355   -14311   -15136   -15785   -16218   -16402   -16289 
  -15870   -15196   -14288   -13186   -11993   -10779    -9570    -8451 
   -7518    -6778    -6223    -5880    -5752    -5821    -6053    -6382 
   -6768    -7179    -7547    -7850    -8077    -8179    -8147    -8001 
   -7757    -7456    -7153    -6879    -6655    -6497    -6430    -6471 
   -6612    -6833    -7156    -7588    -8125    -8785    -9582   -10478 
  -11419   -12359   -13242   -14006   -14600   -14994   -15155   -15056 
  -14732   -14245   -13662   -13077   -12565   -12159   -11877   -11705 
  -11637   -11651   -11707   -11786   -11888   -11967   -11993   -11943 
  -11757   -11396   -10894   -10273    -9524    -8676    -7804    -6933 
   -6066    -5250    -4534    -3952    -3561    -3404    -3505    -3871 
   -4471    -5251    -6145    -7091    -8046    -8969    -9826   -10577 
  -11219   -11790   -12309   -12795   -13265   -13694   -14087   -14476 
  -14848   -15209   -15593   -16024   -16519   -17101   -17747   -18408 
  -19053   -19653   -20163   -20552   -20790   -20846   -20710   -20364 
  -19795   -19010   -18007   -16808   -15483   -14069   -12576   -11068 
   -9622    -8259    -6997    -5881    -4934    -4190    -3673    -3375 
   -3331    -3569    -4036    -4735    -5699    -6891    -8272    -9832 
  -11531   -13323   -15137   -16910   -18562   -20020   -21259   -22264 
  -22979   -23371   -23442   -23238   -22812   -22195   -21442   -20603 
  -19684   -18681   -17604   -16417   -15083   -13628   -12066   -10413 
   -8735    -7078    -5481    -4008    -2691    -1607     -842     -387 
    -244     -496    -1143    -2150    -3546    -5282    -7242    -9358 
  -11546   -13732   -15867   -17874   -19696   -21330   -22766   -24007 
  -25061   -25906   -26538   -26963   -27195   -27234   -27067   -26666 
  -26002   -25078   -23928   -22600   -21166   -19688   -18144   -16540 
  -14945   -13414   -11992   -10717    -9606    -8660    -7900    -7372 
   -7082    -6957    -6953    -7086    -7365    -7788    -8355    -9090 
   -9987   -10984   -12040   -13099   -14108   -15055   -15916   -16640 
  -17197   -17605   -17871   -17964   -17899   -17745   -17568   -17374 
  -17124   -16816   -16441   -15986   -15457   -14851   -14168   -13425 
  -12671   -12017   -11530   -11103   -10667   -10289    -9918    -9428 
   -8854    -8194    -7453    -6794    -6259    -5729    -5190    -4807 
   -4680    -4754    -5032    -5571    -6357    -7364    -8553    -9871 
  -11214   -12482   -13620   -14569   -15295   -15784   -16024   -16067 
  -15967   -15731   -15372   -14899   -14342   -13734   -13034   -12235 
  -11411   -10615    -9894    -9294    -8799    -8383    -8062    -7828 
   -7678    -7616    -7624    -7753    -8017    -8332    -8672    -9038 
   -9396    -9767   -10129   -10417   -10628   -10763   -10793   -10686 
  -10476   -10196    -9809    -9358    -8930    -8540    -8216    -7942 
   -7689    -7460    -7253    -7082    -6934    -6809    -6743    -6704 
   -6679    -6732    -6840    -7001    -7296    -7726    -8262    -8912 
   -9640   -10415   -11202   -11935   -12588   -13109   -13446   -13590 
  -13541   -13319   -12942   -12448   -11921   -11448   -11102   -10917 
  -10936   -11186   -11566   -12031   -12621   -13259   -13894   -14562 
  -15182   -15699   -16154   -16505   -16748   -16933   -17037   -17064 
  -17043   -16969   -16845   -16688   -16530   -16386   -16229   -16060 
  -15903   -15777   -15658   -15510   -15357   -15226   -15117   -15030 
  -14943   -14818   -14639   -14420   -14192   -13909   -13531   -13070 
  -12511   -11861   -11141   -10362    -9547    -8704    -7832    -6978 
   -6188    -5460    -4796    -4197    -3680    -3307    -3113    -3056 
   -3113    -3272    -3489    -3690    -3820    -3825    -3684    -3429 
   -3102    -2717    -2319    -1996    -1802    -1707    -1699    -1842 
   -2197    -2755    -3488    -4399    -5468    -6642    -7855    -9032 
  -10146   -11195   -12139   -12946   -13609   -14122   -14482   -14651 
  -14566   -14193   -13521   -12591   -11466   -10220    -8966    -7843 
   -6944    -6289    -5934    -5960    -6313    -6917    -7739    -8714 
   -9795   -10918   -11974   -12927   -13755   -14401   -14898   -15306 
  -15622   -15843   -16002   -16100   -16087   -15971   -15793   -15535 
  -15228   -14940   -14675   -14449   -14278   -14169   -14168   -14296 
  -14543   -14897   -15341   -15844   -16389   -16939   -17406   -17713 
  -17844   -17780   -17524   -17113   -16602   -16078   -15619   -15249 
  -15012   -14945   -15030   -15250   -15591   -16015   -16480   -16924 
  -17309   -17618   -17822   -17918   -17915   -17853   -17782   -17725 
  -17722   -17821   -18038   -18347   -18736   -19209   -19716   -20209 
  -20661   -21024   -21254   -21316   -21189   -20871   -20348   -19638 
  -18792   -17853   -16849   -15809   -14801   -13892   -13097   -12424 
  -11916   -11607   -11475   -11500   -11669   -11943   -12302   -12760 
  -13347   -14076   -14883   -15692   -16455   -17136   -17722   -18188 
  -18513   -18708   -18750   -18647   -18432   -18077   -17578   -16992 
  -16326   -15580   -14824   -14094   -13382   -12712   -12104   -11565 
  -11098   -10696   -10320    -9941    -9539    -9054    -8445    -7724 
   -6886    -5940    -4927    -3871    -2832    -1912    -1188     -727 
    -575     -719    -1171    -1944    -3002    -4278    -5690    -7169 
   -8671   -10127   -11450   -12587   -13525   -14262   -14841   -15317 
  -15678   -15969   -16239   -16472   -16679   -16849   -16911   -16846 
  -16646   -16243   -15619   -14785   -13725   -12474   -11086    -9580 
   -8025    -6527    -5170    -4037    -3206    -2722    -2614    -2859 
   -3391    -4180    -5197    -6380    -7689    -9099   -10570   -12086 
  -13625   -15178   -16710   -18166   -19500   -20660   -21612   -22299 
  -22677   -22798   -22711   -22416   -21951   -21290   -20410   -19356 
  -18184   -16943   -15676   -14405   -13161   -11947   -10737    -9549 
   -8440    -7423    -6465    -5564    -4696    -3804    -2925    -2107 
   -1331     -615        5      534      932     1132     1146      988 
     594      -63     -949    -2073    -3418    -4934    -6608    -8401 
  -10268   -12159   -13964   -15622   -17116   -18385   -19400   -20227 
  -20927   -21519   -22023   -22457   -22801   -23049   -23168   -23145 
  -23060   -22929   -22702   -22416   -22073   -21636   -21120   -20509 
  -19777   -18945   -18007   -16946   -15750   -14400   -12945   -11400 
   -9736    -8036    -6384    -4799    -3345    -2057     -942      -47 
     612     1078     1329     1340     1112      662       47     -718 
   -1622    -2573    -3520    -4456    -5332    -6127    -6831    -7383 
   -7765    -8013    -8167    -8270    -8348    -8394    -8424    -8469 
   -8526    -8613    -8723    -8850    -9031    -9285    -9648   -10143 
  -10705   -11281   -11871   -12456   -12984   -13414   -13726   -13853 
  -13757   -13509   -13165   -12776   -12399   -12013   -11659   -11437 
  -11315   -11272   -11333   -11483   -11746   -12144   -12629   -13123 
  -13558   -13898   -14104   -14158   -14088   -13894   -13571   -13153 
  -12676   -12185   -11707   -11219   -10682   -10115    -9567    -9036 
   -8537    -8090    -7685    -7338    -7061    -6862    -6786    -6828 
   -6939    -7128    -7375    -7630    -7905    -8193    -8483    -8787 
   -9049    -9247    -9389    -9427    -9370    -9286    -9217    -9202 
   -9261    -9414    -9676   -10002   -10354   -10731   -11107   -11465 
  -11789   -12043   -12179   -12141   -11924   -11615   -11245   -10802 
  -10308    -9780    -9255    -8780    -8387    -8139    -8054    -8113 
   -8302    -8618    -9086    -9688   -10378   -11183   -12120   -13120 
  -14158   -15271   -16468   -17745   -19101   -20491   -21845   -23137 
  -24364   -25485   -26446   -27216   -27800   -28231   -28513   -28626 
  -28607   -28528   -28402   -28213   -27966   -27679   -27346   -26947 
  -26461   -25920   -25336   -24656   -23851   -22929   -21886   -20710 
  -19427   -18079   -16684   -15298   -13957   -12660   -11469   -10442 
   -9574    -8860    -8279    -7823    -7530    -7434    -7538    -7807 
   -8212    -8765    -9437   -10196   -11041   -11970   -12951   -13930 
  -14855   -15716   -16491   -17089   -17458   -17604   -17514   -17181 
  -16634   -15894   -14976   -13929   -12788   -11601   -10454    -9398 
   -8436    -7573    -6821    -6192    -5671    -5209    -4793    -4455 
   -4216    -4091    -4081    -4164    -4340    -4633    -5063    -5613 
   -6254    -6991    -7817    -8725    -9697   -10671   -11599   -12465 
  -13244   -13932   -14511   -14924   -15190   -15331   -15319   -15209 
  -15078   -14990   -14994   -15048   -15120   -15219   -15292   -15307 
  -15253   -15083   -14790   -14391   -13895   -13344   -12795   -12298 
  -11870   -11481   -11145   -10874   -10651   -10481   -10336   -10211 
  -10127   -10033    -9925    -9873    -9872    -9907   -10015   -10195 
  -10439   -10773   -11171   -11562   -11938   -12316   -12699   -13128 
  -13637   -14195   -14790   -15434   -16129   -16885   -17660   -18400 
  -19070   -19610   -19978   -20166   -20167   -19942   -19454   -18716 
  -17724   -16506   -15117   -13601   -12081   -10652    -9292    -7986 
   -6758    -5641    -4665    -3825    -3169    -2686    -2312    -2115 
   -2070    -2058    -2115    -2241    -2361    -2469    -2538    -2560 
   -2562    -2500    -2354    -2150    -1927    -1737    -1595    -1506 
   -1510    -1651    -1937    -2354    -2917    -3647    -4491    -5412 
   -6389    -7361    -8332    -9305   -10214   -11055   -11855   -12609 
  -13311   -13954   -14512   -14985   -15357   -15612   -15772   -15847 
  -15858   -15826   -15753   -15669   -15561   -15388   -15190   -14997 
  -14783   -14561   -14347   -14114   -13869   -13640   -13425   -13220 
  -13000   -12745   -12451   -12101   -11707   -11267   -10747   -10162 
   -9585    -9057    -8580    -8222    -8050    -8040    -8206    -8571 
   -9105    -9819   -10700   -11685   -12752   -13868   -14997   -16123 
  -17231   -18316   -19350   -20271   -21046   -21648   -22056   -22287 
  -22338   -22210   -21910   -21421   -20795   -20090   -19319   -18495 
  -17629   -16735   -15797   -14781   -13702   -12596   -11427   -10187 
   -8938    -7715    -6535    -5439    -4482    -3703    -3091    -2667 
   -2462    -2423    -2527    -2786    -3194    -3748    -4445    -5283 
   -6212    -7172    -8178    -9250   -10366   -11514   -12676   -13809 
  -14879   -15843   -16638   -17247   -17658   -17833   -17778   -17547 
  -17155   -16606   -15952   -15261   -14575   -13909   -13292   -12784 
  -12428   -12209   -12102   -12116   -12253   -12475   -12750   -13059 
  -13393   -13757   -14126   -14462   -14751   -14956   -15066   -15072 
  -14936   -14634   -14180   -13585   -12853   -11997   -10991    -9833 
   -8556    -7169    -5722    -4318    -2992    -1787     -789      -20 
     518      810      862      658      202     -450    -1309    -2377 
   -3615    -5005    -6517    -8077    -9653   -11209   -12672   -14013 
  -15183   -16102   -16745   -17126   -17254   -17142   -16833   -16407 
  -15920   -15384   -14818   -14269   -13733   -13224   -12779   -12386 
  -12082   -11894   -11804   -11820   -11909   -12066   -12318   -12611 
  -12937   -13313   -13705   -14115   -14569   -15013   -15402   -15765 
  -16105   -16368   -16579   -16808   -17032   -17247   -17504   -17780 
  -18065   -18382   -18677   -18932   -19176   -19345   -19423   -19441 
  -19356   -19182   -18945   -18615   -18230   -17872   -17560   -17289 
  -17051   -16864   -16733   -16629   -16548   -16480   -16434   -16457 
  -16522   -16561   -16586   -16591   -16553   -16503   -16467   -16464 
  -16533   -16626   -16703   -16838   -17047   -17238   -17371   -17428 
  -17343   -17096   -16690   -16144   -15469   -14642   -13709   -12731 
  -11763   -10859   -10014    -9254    -8629    -8129    -7695    -7306 
   -7006    -6777    -6575    -6455    -6400    -6385    -6502    -6747 
   -7087    -7545    -8029    -8479    -8911    -9244    -9479    -9687 
   -9806    -9788    -9679    -9487    -9213    -8892    -8549    -8175 
   -7819    -7512    -7229    -7034    -6978    -7003    -7163    -7496 
   -7942    -8495    -9112    -9709   -10295   -10841   -11322   -11774 
  -12204   -12571   -12877   -13132   -13311   -13408   -13414   -13292 
  -13069   -12765   -12361   -11885   -11377   -10859   -10393   -10026 
   -9757    -9606    -9594    -9710    -9954   -10316   -10767   -11303 
  -11925   -12598   -13277   -13950   -14584   -15114   -15556   -15889 
  -16042   -16056   -15969   -15739   -15406   -15005   -14504   -13915 
  -13269   -12546   -11778   -10983   -10130    -9262    -8421    -7603 
   -6844    -6189    -5611    -5139    -4826    -4610    -4510    -4617 
   -4862    -5213    -5744    -6397    -7107    -7917    -8789    -9657 
  -10548   -11419   -12164   -12802   -13366   -13791   -14103   -14351 
  -14455   -14416   -14299   -14015   -13570   -13054   -12441   -11728 
  -10991   -10237    -9477    -8791    -8176    -7582    -7079    -6705 
   -6417    -6268    -6269    -6350    -6562    -6947    -7410    -7971 
   -8676    -9440   -10264   -11191   -12181   -13236   -14385   -15550 
  -16715   -17925   -19103   -20167   -21120   -21903   -22468   -22821 
  -22939   -22820   -22500   -21973   -21259   -20420   -19464   -18392 
  -17240   -16025   -14748   -13466   -12214   -10949    -9714    -8583 
   -7522    -6556    -5782    -5173    -4696    -4375    -4170    -4104 
   -4245    -4556    -4993    -5574    -6277    -7064    -7924    -8831 
   -9753   -10675   -11583   -12433   -13239   -14015   -14740   -15466 
