Origin Time       2025/01/13 21:19:00
Lat.              31.8
Long.             131.6
Depth. (km)       30
Mag.              6.9
Station Code      FKO010
Station Lat.      33.4236
Station Long.     130.6691
Station Height(m) 61
Record Time       2025/01/13 21:20:27
Sampling Freq(Hz) 100Hz
Duration Time(s)  70
Dir.              E-W
Scale Factor      7845(gal)/8223790
Max. Acc. (gal)   2.303
Last Correction   2025/01/13 21:20:28
Memo.             
[...]
   -8827    -8889    -8922    -8904    -8833    -8731    -8608    -8483 
   -8368    -8247    -8121    -8006    -7925    -7911    -7965    -8067 
   -8208    -8390    -8600    -8815    -9011    -9154    -9231    -9259 
   -9246    -9204    -9155    -9100    -9034    -8973    -8922    -8883 
   -8851    -8811    -8768    -8743    -8726    -8702    -8673    -8644 
   -8614    -8598    -8606    -8642    -8706    -8792    -8895    -9003 
   -9084    -9123    -9139    -9134    -9104    -9047    -8950    -8824 
   -8706    -8610    -8533    -8487    -8478    -8483    -8492    -8505 
   -8500    -8479    -8441    -8395    -8357    -8337    -8333    -8348 
   -8374    -8399    -8436    -8483    -8533    -8591    -8665    -8745 
   -8824    -8892    -8930    -8945    -8946    -8931    -8897    -8837 
   -8748    -8668    -8619    -8583    -8559    -8550    -8554    -8583 
   -8630    -8669    -8712    -8764    -8808    -8856    -8895    -8914 
   -8912    -8883    -8822    -8731    -8606    -8475    -8357    -8262 
   -8202    -8193    -8247    -8370    -8542    -8741    -8939    -9112 
   -9235    -9292    -9288    -9228    -9117    -8969    -8815    -8688 
   -8600    -8542    -8503    -8467    -8424    -8382    -8352    -8337 
   -8345    -8382    -8444    -8517    -8592    -8646    -8665    -8660 
   -8634    -8595    -8532    -8442    -8345    -8239    -8124    -8028 
   -7951    -7902    -7905    -7965    -8067    -8199    -8334    -8475 
   -8617    -8741    -8841    -8911    -8923    -8877    -8784    -8642 
   -8473    -8302    -8141    -8023    -7967    -7967    -8014    -8095 
   -8189    -8276    -8348    -8406    -8459    -8499    -8507    -8487 
   -8453    -8419    -8399    -8394    -8392    -8401    -8421    -8446 
   -8472    -8502    -8534    -8556    -8576    -8591    -8595    -8613 
   -8634    -8642    -8664    -8696    -8738    -8812    -8901    -8989 
   -9069    -9120    -9146    -9139    -9089    -9007    -8903    -8804 
   -8722    -8644    -8572    -8503    -8436    -8390    -8371    -8370 
   -8364    -8348    -8328    -8301    -8290    -8301    -8328    -8380 
   -8455    -8530    -8577    -8565    -8483    -8337    -8143    -7927 
   -7720    -7547    -7431    -7379    -7384    -7442    -7537    -7653 
   -7796    -7950    -8090    -8222    -8347    -8463    -8575    -8671 
   -8750    -8812    -8839    -8835    -8799    -8723    -8613    -8484 
   -8345    -8206    -8101    -8059    -8075    -8156    -8305    -8503 
   -8748    -9026    -9315    -9593    -9846   -10045   -10152   -10146 
  -10019    -9790    -9505    -9193    -8865    -8537    -8232    -7985 
   -7843    -7823    -7912    -8089    -8329    -8610    -8908    -9207 
   -9472    -9668    -9794    -9860    -9863    -9794    -9657    -9468 
   -9244    -9011    -8780    -8573    -8415    -8317    -8289    -8322 
   -8391    -8488    -8614    -8752    -8899    -9036    -9135    -9192 
   -9197    -9143    -9055    -8938    -8785    -8611    -8430    -8251 
   -8091    -7971    -7897    -7862    -7859    -7888    -7944    -8039 
   -8178    -8344    -8536    -8760    -9001    -9240    -9464    -9648 
   -9757    -9767    -9675    -9504    -9282    -9038    -8799    -8602 
   -8463    -8383    -8368    -8409    -8482    -8556    -8617    -8654 
   -8662    -8644    -8595    -8526    -8468    -8434    -8410    -8399 
   -8402    -8425    -8495    -8614    -8757    -8911    -9059    -9166 
   -9224    -9225    -9175    -9109    -9045    -8988    -8953    -8943 
   -8954    -8981    -9022    -9057    -9084    -9115    -9143    -9163 
   -9181    -9198    -9219    -9229    -9223    -9190    -9132    -9054 
   -8950    -8827    -8694    -8536    -8359    -8162    -7932    -7692 
   -7465    -7272    -7148    -7107    -7145    -7257    -7430    -7639 
   -7851    -8052    -8232    -8374    -8464    -8511    -8515    -8471 
   -8378    -8255    -8131    -8023    -7944    -7896    -7875    -7873 
   -7877    -7869    -7823    -7744    -7639    -7518    -7418    -7354 
   -7315    -7304    -7310    -7323    -7358    -7406    -7460    -7531 
   -7604    -7663    -7720    -7761    -7769    -7747    -7693    -7595 
   -7470    -7350    -7242    -7153    -7091    -7072    -7110    -7203 
   -7345    -7539    -7781    -8056    -8360    -8679    -8973    -9225 
   -9423    -9537    -9556    -9487    -9335    -9123    -8885    -8642 
   -8422    -8244    -8109    -8025    -8008    -8063    -8210    -8453 
   -8775    -9144    -9514    -9834   -10076   -10237   -10320   -10347 
  -10342   -10328   -10304   -10254   -10170   -10041    -9856    -9629 
   -9379    -9120    -8891    -8731    -8652    -8646    -8704    -8816 
   -8966    -9127    -9281    -9416    -9516    -9559    -9544    -9479 
   -9366    -9216    -9051    -8880    -8714    -8580    -8473    -8375 
   -8284    -8187    -8073    -7950    -7830    -7731    -7692    -7732 
   -7844    -8020    -8224    -8421    -8614    -8800    -8957    -9088 
   -9192    -9247    -9269    -9256    -9186    -9065    -8916    -8761 
   -8619    -8500    -8403    -8338    -8303    -8278    -8263    -8253 
   -8233    -8216    -8218    -8237    -8274    -8326    -8375    -8418 
   -8457    -8495    -8541    -8591    -8644    -8702    -8760    -8822 
   -8889    -8949    -9000    -9032    -9057    -9093    -9130    -9174 
   -9243    -9321    -9401    -9487    -9566    -9628    -9663    -9668 
   -9641    -9571    -9450    -9277    -9050    -8793    -8560    -8375 
   -8266    -8255    -8330    -8469    -8662    -8877    -9080    -9251 
   -9366    -9424    -9420    -9342    -9202    -9024    -8803    -8542 
   -8266    -8001    -7785    -7631    -7537    -7491    -7485    -7528 
   -7619    -7732    -7855    -7965    -8048    -8120    -8190    -8259 
   -8322    -8384    -8444    -8491    -8517    -8507    -8446    -8320 
   -8122    -7873    -7605    -7352    -7142    -6993    -6914    -6936 
   -7038    -7204    -7437    -7705    -7970    -8212    -8413    -8549 
   -8604    -8571    -8463    -8305    -8121    -7946    -7804    -7695 
   -7627    -7615    -7666    -7777    -7940    -8143    -8352    -8544 
   -8700    -8803    -8850    -8853    -8830    -8818    -8831    -8866 
   -8927    -9000    -9061    -9108    -9139    -9155    -9165    -9159 
   -9146    -9143    -9155    -9174    -9198    -9219    -9220    -9192 
   -9135    -9055    -8949    -8804    -8633    -8453    -8278    -8129 
   -8021    -7955    -7940    -7967    -8023    -8094    -8159    -8194 
   -8194    -8168    -8127    -8068    -7996    -7913    -7824    -7736 
   -7670    -7628    -7609    -7609    -7626    -7662    -7716    -7778 
   -7838    -7879    -7892    -7892    -7888    -7881    -7888    -7915 
   -7947    -8008    -8104    -8221    -8356    -8502    -8650    -8804 
   -8941    -9054    -9136    -9169    -9150    -9078    -8961    -8833 
   -8721    -8635    -8596    -8602    -8658    -8760    -8887    -9034 
   -9174    -9279    -9358    -9387    -9347    -9255    -9123    -8962 
   -8797    -8644    -8513    -8417    -8344    -8280    -8239    -8225 
   -8232    -8262    -8299    -8326    -8343    -8359    -8375    -8398 
   -8438    -8491    -8556    -8627    -8684    -8702    -8669    -8594 
   -8486    -8359    -8241    -8164    -8139    -8181    -8289    -8437 
   -8613    -8787    -8918    -8992    -9012    -8981    -8910    -8814 
   -8710    -8622    -8572    -8568    -8607    -8683    -8780    -8888 
   -8981    -9026    -9012    -8945    -8831    -8711    -8611    -8540 
   -8523    -8569    -8665    -8802    -8954    -9117    -9293    -9452 
   -9594    -9729    -9832    -9894    -9915    -9882    -9787    -9643 
   -9468    -9281    -9078    -8868    -8673    -8503    -8365    -8274 
   -8226    -8232    -8293    -8399    -8548    -8723    -8903    -9080 
   -9235    -9354    -9452    -9520    -9543    -9524    -9459    -9370 
   -9278    -9190    -9121    -9088    -9092    -9131    -9185    -9235 
   -9281    -9302    -9281    -9234    -9158    -9042    -8910    -8764 
   -8623    -8519    -8445    -8407    -8414    -8451    -8513    -8611 
   -8746    -8914    -9115    -9335    -9562    -9780    -9954   -10062 
  -10093   -10030    -9880    -9663    -9383    -9067    -8734    -8402 
   -8105    -7858    -7682    -7591    -7585    -7647    -7750    -7869 
   -7985    -8082    -8159    -8212    -8236    -8221    -8158    -8066 
   -7948    -7816    -7685    -7573    -7493    -7443    -7426    -7437 
   -7446    -7441    -7423    -7400    -7391    -7415    -7473    -7562 
   -7682    -7812    -7944    -8068    -8167    -8248    -8317    -8379 
   -8456    -8541    -8634    -8754    -8901    -9069    -9252    -9437 
   -9601    -9715    -9764    -9744    -9657    -9513    -9340    -9166 
   -9015    -8891    -8788    -8715    -8685    -8691    -8719    -8760 
   -8796    -8818    -8820    -8806    -8775    -8739    -8719    -8730 
   -8787    -8883    -9005    -9136    -9247    -9313    -9315    -9239 
   -9097    -8893    -8634    -8348    -8071    -7852    -7716    -7676 
   -7738    -7890    -8108    -8360    -8618    -8847    -9019    -9115 
   -9132    -9081    -8976    -8831    -8681    -8546    -8437    -8382 
   -8383    -8430    -8513    -8622    -8748    -8889    -9035    -9181 
   -9310    -9406    -9470    -9514    -9544    -9567    -9582    -9575 
   -9545    -9491    -9409    -9301    -9166    -9019    -8883    -8779 
   -8714    -8685    -8687    -8707    -8719    -8702    -8665    -8610 
   -8513    -8375    -8203    -8005    -7805    -7624    -7470    -7358 
   -7295    -7294    -7364    -7497    -7684    -7894    -8114    -8314 
   -8479    -8629    -8745    -8819    -8860    -8850    -8799    -8721 
   -8623    -8532    -8451    -8394    -8372    -8368    -8378    -8411 
   -8467    -8523    -8575    -8618    -8635    -8623    -8583    -8511 
   -8422    -8332    -8247    -8185    -8141    -8117    -8116    -8128 
   -8143    -8154    -8158    -8154    -8145    -8131    -8112    -8087 
   -8067    -8052    -8041    -8041    -8046    -8054    -8078    -8116 
   -8158    -8206    -8259    -8311    -8365    -8410    -8438    -8449 
   -8453    -8463    -8494    -8552    -8630    -8721    -8815    -8905 
   -8997    -9086    -9162    -9227    -9279    -9323    -9358    -9374 
   -9366    -9336    -9293    -9254    -9225    -9201    -9193    -9198 
   -9202    -9208    -9209    -9204    -9205    -9200    -9185    -9159 
   -9107    -9024    -8914    -8773    -8610    -8444    -8302    -8187 
   -8100    -8043    -8021    -8046    -8117    -8218    -8356    -8521 
   -8698    -8876    -9039    -9186    -9313    -9400    -9458    -9487 
   -9475    -9429    -9346    -9227    -9099    -8955    -8811    -8687 
   -8580    -8498    -8461    -8471    -8527    -8627    -8760    -8916 
   -9081    -9231    -9354    -9441    -9481    -9467    -9393    -9265 
   -9101    -8907    -8703    -8518    -8372    -8271    -8210    -8186 
   -8201    -8235    -8276    -8330    -8383    -8425    -8460    -8486 
   -8494    -8471    -8414    -8338    -8251    -8167    -8097    -8029 
   -7970    -7913    -7836    -7753    -7663    -7557    -7442    -7325 
   -7213    -7133    -7095    -7096    -7146    -7240    -7371    -7534 
   -7719    -7924    -8140    -8351    -8546    -8719    -8856    -8958 
   -9030    -9061    -9065    -9067    -9066    -9067    -9084    -9105 
   -9142    -9196    -9255    -9331    -9410    -9482    -9549    -9586 
   -9582    -9537    -9431    -9270    -9072    -8833    -8576    -8325 
   -8085    -7878    -7732    -7647    -7631    -7678    -7776    -7911 
   -8073    -8241    -8402    -8532    -8607    -8625    -8591    -8519 
   -8425    -8316    -8210    -8114    -8032    -7962    -7897    -7839 
   -7792    -7763    -7777    -7834    -7933    -8087    -8279    -8482 
   -8680    -8854    -8976    -9042    -9058    -9016    -8934    -8842 
   -8764    -8731    -8745    -8791    -8889    -9022    -9174    -9344 
   -9497    -9616    -9687    -9691    -9633    -9509    -9315    -9062 
   -8779    -8487    -8205    -7946    -7716    -7524    -7379    -7283 
   -7238    -7258    -7348    -7504    -7723    -7986    -8272    -8557 
   -8820    -9059    -9265    -9414    -9510    -9552    -9537    -9481 
   -9389    -9266    -9130    -8988    -8860    -8784    -8768    -8803 
   -8904    -9045    -9196    -9350    -9474    -9549    -9574    -9528 
   -9420    -9274    -9096    -8903    -8706    -8521    -8353    -8199 
   -8066    -7963    -7894    -7854    -7836    -7839    -7844    -7846 
   -7865    -7888    -7916    -7973    -8044    -8121    -8199    -8270 
   -8328    -8365    -8382    -8370    -8336    -8291    -8245    -8209 
   -8179    -8154    -8141    -8137    -8144    -8160    -8171    -8175 
   -8170    -8163    -8162    -8160    -8163    -8167    -8160    -8156 
   -8163    -8172    -8194    -8222    -8259    -8297    -8330    -8363 
   -8387    -8391    -8380    -8345    -8290    -8230    -8175    -8131 
   -8102    -8102    -8131    -8178    -8232    -8268    -8275    -8244 
   -8172    -8075    -7975    -7896    -7859    -7874    -7958    -8120 
   -8328    -8564    -8815    -9027    -9174    -9247    -9239    -9154 
   -9001    -8810    -8603    -8392    -8190    -8017    -7890    -7817 
   -7803    -7854    -7960    -8108    -8291    -8496    -8703    -8897 
   -9062    -9173    -9209    -9161    -9038    -8854    -8621    -8353 
   -8068    -7790    -7543    -7342    -7202    -7129    -7125    -7192 
   -7322    -7515    -7771    -8075    -8413    -8780    -9157    -9533 
   -9900   -10241   -10539   -10781   -10936   -10997   -10971   -10860 
  -10685   -10465   -10211    -9936    -9649    -9366    -9103    -8860 
   -8644    -8469    -8341    -8263    -8230    -8240    -8278    -8336 
   -8411    -8500    -8598    -8721    -8858    -8986    -9105    -9209 
   -9283    -9340    -9373    -9374    -9351    -9301    -9223    -9121 
   -8996    -8861    -8743    -8652    -8595    -8588    -8631    -8719 
   -8847    -9011    -9189    -9359    -9510    -9634    -9710    -9726 
   -9680    -9576    -9427    -9255    -9088    -8927    -8795    -8706 
   -8644    -8611    -8604    -8608    -8614    -8610    -8594    -8563 
   -8511    -8446    -8374    -8283    -8181    -8082    -7985    -7888 
   -7798    -7720    -7653    -7612    -7609    -7647    -7731    -7870 
   -8052    -8262    -8479    -8681    -8853    -8974    -9031    -9032 
   -8991    -8908    -8799    -8683    -8565    -8457    -8380    -8334 
   -8324    -8340    -8380    -8452    -8536    -8607    -8664    -8694 
   -8680    -8627    -8536    -8413    -8275    -8118    -7946    -7761 
   -7561    -7354    -7153    -6968    -6817    -6709    -6662    -6685 
   -6772    -6917    -7094    -7279    -7470    -7658    -7830    -7987 
   -8133    -8263    -8378    -8476    -8552    -8607    -8641    -8649 
   -8642    -8623    -8584    -8522    -8444    -8345    -8230    -8117 
   -8010    -7909    -7828    -7767    -7724    -7700    -7690    -7695 
   -7709    -7727    -7732    -7720    -7682    -7627    -7572    -7527 
   -7503    -7507    -7535    -7589    -7666    -7762    -7879    -8020 
   -8174    -8338    -8507    -8677    -8851    -9023    -9181    -9325 
   -9459    -9598    -9740    -9859    -9967   -10062   -10134   -10208 
  -10291   -10366   -10432   -10490   -10527   -10534   -10515   -10465 
  -10392   -10303   -10195   -10071    -9936    -9794    -9648    -9504 
   -9362    -9229    -9109    -8988    -8865    -8746    -8638    -8560 
   -8526    -8540    -8607    -8735    -8914    -9112    -9312    -9495 
   -9644    -9745    -9786    -9765    -9676    -9521    -9328    -9124 
   -8939    -8806    -8735    -8741    -8819    -8935    -9059    -9167 
   -9234    -9239    -9192    -9093    -8953    -8787    -8619    -8467 
   -8332    -8222    -8145    -8085    -8040    -8016    -8004    -8008 
   -8025    -8046    -8079    -8128    -8185    -8252    -8328    -8405 
   -8480    -8546    -8598    -8635    -8660    -8671    -8684    -8715 
   -8760    -8838    -8958    -9105    -9266    -9424    -9563    -9679 
   -9767    -9811    -9801    -9736    -9609    -9428    -9207    -8953 
   -8688    -8436    -8214    -8055    -7978    -7983    -8068    -8218 
   -8402    -8590    -8760    -8899    -8993    -9040    -9043    -9003 
   -8924    -8831    -8738    -8626    -8492    -8347    -8178    -7994 
   -7813    -7630    -7450    -7288    -7149    -7042    -6987    -6983 
   -7033    -7134    -7260    -7399    -7537    -7651    -7746    -7831 
   -7897    -7956    -8031    -8110    -8191    -8280    -8361    -8430 
   -8495    -8546    -8588    -8617    -8619    -8613    -8610    -8604 
   -8610    -8638    -8681    -8745    -8835    -8942    -9057    -9165 
   -9246    -9297    -9316    -9286    -9219    -9116    -8976    -8830 
   -8698    -8581    -8499    -8448    -8421    -8430    -8461    -8506 
   -8561    -8599    -8621    -8633    -8622    -8607    -8598    -8590 
   -8594    -8626    -8694    -8803    -8945    -9111    -9296    -9478 
   -9649    -9803    -9917    -9981   -10008    -9987    -9927    -9863 
   -9786    -9707    -9633    -9556    -9487    -9433    -9389    -9359 
   -9331    -9292    -9242    -9178    -9111    -9031    -8941    -8857 
   -8779    -8704    -8642    -8587    -8529    -8465    -8388    -8294 
   -8172    -8013    -7817    -7601    -7377    -7152    -6955    -6786 
   -6637    -6531    -6463    -6424    -6427    -6473    -6540    -6632 
   -6740    -6848    -6960    -7064    -7150    -7233    -7311    -7381 
   -7450    -7516    -7581    -7642    -7690    -7735    -7782    -7830 
   -7871    -7916    -7962    -8002    -8054    -8127    -8205    -8290 
   -8386    -8490    -8594    -8689    -8766    -8819    -8846    -8853 
   -8850    -8845    -8837    -8826    -8822    -8823    -8829    -8847 
   -8880    -8920    -8966    -9018    -9059    -9082    -9078    -9050 
   -9013    -8981    -8958    -8961    -8999    -9069    -9178    -9315 
   -9464    -9616    -9740    -9823    -9869    -9863    -9795    -9672 
   -9491    -9254    -8976    -8676    -8379    -8106    -7873    -7686 
   -7547    -7464    -7441    -7476    -7551    -7669    -7819    -7986 
   -8166    -8338    -8475    -8559    -8587    -8563    -8500    -8415 
   -8328    -8252    -8186    -8133    -8105    -8091    -8095    -8125 
   -8182    -8270    -8379    -8506    -8645    -8780    -8896    -8980 
   -9026    -9027    -8968    -8858    -8708    -8521    -8309    -8098 
   -7898    -7731    -7624    -7581    -7587    -7642    -7739    -7858 
   -7994    -8144    -8305    -8475    -8646    -8814    -8980    -9132 
   -9269    -9387    -9481    -9549    -9606    -9651    -9683    -9709 
   -9732    -9755    -9782    -9819    -9864    -9906    -9937    -9948 
   -9930    -9868    -9752    -9591    -9396    -9169    -8931    -8699 
   -8490    -8318    -8199    -8140    -8140    -8201    -8310    -8461 
   -8638    -8816    -8993    -9155    -9267    -9332    -9339    -9281 
   -9169    -9012    -8831    -8637    -8440    -8263    -8120    -8020 
   -7966    -7955    -7989    -8051    -8124    -8205    -8287    -8370 
   -8451    -8523    -8576    -8596    -8584    -8541    -8464    -8359 
   -8228    -8075    -7904    -7726    -7557    -7408    -7294    -7222 
   -7190    -7198    -7242    -7308    -7383    -7458    -7530    -7597 
   -7677    -7777    -7889    -8009    -8141    -8284    -8422    -8549 
