Origin Time       2025/01/13 21:19:00
Lat.              31.8
Long.             131.6
Depth. (km)       30
Mag.              6.9
Station Code      FKO005
Station Lat.      33.6520
Station Long.     130.6965
Station Height(m) 28
Record Time       2025/01/13 21:20:08
Sampling Freq(Hz) 100Hz
Duration Time(s)  97
Dir.              E-W
Scale Factor      7845(gal)/8223790
Max. Acc. (gal)   2.914
Last Correction   2025/01/13 21:20:08
Memo.             
[...]
   -6858    -6812    -6782    -6752    -6740    -6759    -6801    -6871 
   -6955    -7034    -7134    -7280    -7445    -7576    -7639    -7628 
   -7530    -7346    -7101    -6829    -6563    -6322    -6099    -5895 
   -5715    -5556    -5414    -5321    -5300    -5346    -5445    -5603 
   -5836    -6127    -6446    -6775    -7109    -7423    -7678    -7854 
   -7974    -8070    -8145    -8202    -8263    -8348    -8448    -8537 
   -8588    -8571    -8446    -8189    -7811    -7357    -6874    -6405 
   -6002    -5697    -5512    -5445    -5503    -5686    -5946    -6230 
   -6509    -6785    -7047    -7277    -7453    -7557    -7604    -7636 
   -7674    -7723    -7788    -7850    -7882    -7875    -7836    -7770 
   -7682    -7580    -7489    -7452    -7480    -7535    -7565    -7545 
   -7469    -7364    -7263    -7195    -7168    -7155    -7146    -7150 
   -7145    -7094    -6990    -6860    -6741    -6671    -6677    -6778 
   -6963    -7175    -7341    -7457    -7572    -7696    -7793    -7839 
   -7854    -7854    -7851    -7844    -7800    -7704    -7588    -7485 
   -7419    -7381    -7342    -7302    -7288    -7329    -7414    -7508 
   -7582    -7634    -7669    -7690    -7700    -7708    -7709    -7713 
   -7747    -7824    -7938    -8090    -8290    -8514    -8712    -8846 
   -8900    -8876    -8792    -8649    -8434    -8160    -7851    -7533 
   -7223    -6930    -6644    -6367    -6131    -5945    -5807    -5745 
   -5788    -5926    -6134    -6378    -6608    -6802    -6967    -7114 
   -7261    -7406    -7512    -7566    -7591    -7605    -7623    -7650 
   -7688    -7719    -7726    -7703    -7659    -7599    -7501    -7371 
   -7236    -7129    -7065    -7045    -7038    -7025    -7009    -6982 
   -6914    -6797    -6655    -6511    -6347    -6137    -5890    -5678 
   -5572    -5601    -5755    -6019    -6362    -6717    -7021    -7241 
   -7380    -7474    -7568    -7680    -7819    -7994    -8193    -8395 
   -8573    -8676    -8669    -8550    -8338    -8060    -7739    -7385 
   -7011    -6646    -6305    -5999    -5757    -5624    -5611    -5705 
   -5871    -6070    -6280    -6478    -6640    -6762    -6858    -6949 
   -7064    -7213    -7377    -7546    -7704    -7835    -7951    -8063 
   -8148    -8183    -8178    -8133    -8041    -7897    -7720    -7546 
   -7404    -7290    -7179    -7047    -6879    -6679    -6485    -6342 
   -6266    -6257    -6315    -6439    -6616    -6817    -7007    -7152 
   -7244    -7307    -7366    -7447    -7569    -7682    -7730    -7716 
   -7678    -7647    -7636    -7636    -7636    -7638    -7643    -7642 
   -7615    -7550    -7452    -7356    -7280    -7217    -7176    -7172 
   -7186    -7198    -7177    -7114    -7038    -6982    -6953    -6972 
   -7045    -7152    -7276    -7422    -7593    -7777    -7933    -8029 
   -8056    -8016    -7919    -7780    -7614    -7422    -7176    -6880 
   -6578    -6308    -6080    -5906    -5779    -5678    -5587    -5506 
   -5452    -5445    -5487    -5571    -5699    -5879    -6104    -6374 
   -6691    -7034    -7361    -7661    -7971    -8334    -8746    -9162 
   -9536    -9845   -10077   -10220   -10269   -10230   -10125    -9983 
   -9813    -9599    -9313    -8930    -8451    -7933    -7441    -6997 
   -6623    -6330    -6130    -6021    -5979    -5984    -6010    -6035 
   -6079    -6149    -6261    -6415    -6547    -6601    -6601    -6583 
   -6565    -6579    -6666    -6849    -7144    -7501    -7874    -8233 
   -8536    -8770    -8976    -9158    -9297    -9379    -9391    -9320 
   -9175    -8970    -8694    -8338    -7924    -7493    -7105    -6794 
   -6558    -6380    -6254    -6188    -6189    -6264    -6404    -6592 
   -6826    -7111    -7411    -7692    -7932    -8122    -8264    -8345 
   -8332    -8202    -7979    -7708    -7431    -7172    -6952    -6794 
   -6706    -6704    -6794    -6963    -7182    -7425    -7668    -7878 
   -8047    -8175    -8262    -8303    -8301    -8237    -8091    -7861 
   -7562    -7215    -6851    -6494    -6168    -5896    -5698    -5572 
   -5516    -5524    -5580    -5683    -5844    -6058    -6307    -6562 
   -6793    -6990    -7161    -7308    -7427    -7511    -7578    -7654 
   -7751    -7871    -7994    -8095    -8176    -8237    -8290    -8353 
   -8415    -8438    -8394    -8272    -8097    -7897    -7677    -7437 
   -7179    -6912    -6652    -6415    -6218    -6092    -6062    -6123 
   -6237    -6374    -6550    -6754    -6939    -7071    -7150    -7192 
   -7223    -7261    -7312    -7372    -7437    -7507    -7581    -7649 
   -7712    -7793    -7892    -8002    -8114    -8213    -8284    -8330 
   -8359    -8367    -8347    -8303    -8248    -8193    -8136    -8060 
   -7948    -7805    -7642    -7468    -7280    -7102    -6967    -6894 
   -6890    -6944    -7033    -7153    -7291    -7437    -7588    -7719 
   -7797    -7821    -7794    -7731    -7663    -7622    -7614    -7635 
   -7665    -7688    -7719    -7759    -7785    -7774    -7709    -7584 
   -7406    -7196    -6984    -6793    -6643    -6532    -6447    -6412 
   -6451    -6554    -6682    -6791    -6863    -6905    -6932    -6955 
   -6975    -6990    -7020    -7106    -7269    -7495    -7750    -8005 
   -8240    -8449    -8617    -8707    -8687    -8533    -8249    -7875 
   -7460    -7033    -6613    -6218    -5887    -5661    -5551    -5543 
   -5624    -5771    -5948    -6131    -6309    -6470    -6597    -6714 
   -6868    -7067    -7302    -7560    -7807    -8006    -8148    -8249 
   -8348    -8457    -8553    -8626    -8679    -8710    -8723    -8729 
   -8735    -8752    -8788    -8835    -8873    -8877    -8824    -8692 
   -8465    -8140    -7743    -7323    -6949    -6658    -6443    -6288 
   -6189    -6145    -6139    -6170    -6247    -6359    -6486    -6632 
   -6816    -7034    -7267    -7499    -7723    -7911    -8031    -8089 
   -8101    -8071    -7992    -7862    -7681    -7457    -7202    -6929 
   -6656    -6397    -6161    -5953    -5771    -5597    -5440    -5320 
   -5247    -5212    -5208    -5248    -5344    -5497    -5694    -5942 
   -6249    -6588    -6924    -7253    -7592    -7950    -8309    -8637 
   -8903    -9097    -9223    -9281    -9281    -9212    -9058    -8833 
   -8564    -8263    -7932    -7570    -7183    -6791    -6423    -6100 
   -5833    -5617    -5481    -5448    -5487    -5564    -5643    -5664 
   -5630    -5571    -5510    -5494    -5551    -5682    -5886    -6173 
   -6539    -6943    -7326    -7651    -7913    -8109    -8237    -8309 
   -8336    -8360    -8402    -8451    -8505    -8553    -8557    -8480 
   -8314    -8059    -7728    -7357    -6988    -6660    -6419    -6277 
   -6228    -6273    -6378    -6489    -6573    -6609    -6605    -6578 
   -6531    -6477    -6444    -6457    -6527    -6662    -6876    -7169 
   -7492    -7798    -8081    -8329    -8537    -8676    -8719    -8683 
   -8603    -8488    -8361    -8248    -8128    -7977    -7778    -7549 
   -7310    -7078    -6868    -6696    -6569    -6511    -6513    -6554 
   -6613    -6667    -6679    -6654    -6613    -6573    -6543    -6521 
   -6516    -6558    -6652    -6783    -6936    -7080    -7191    -7279 
   -7345    -7369    -7353    -7308    -7245    -7177    -7123    -7082 
   -7044    -7001    -6939    -6866    -6832    -6880    -7026    -7246 
   -7510    -7785    -8048    -8290    -8473    -8545    -8473    -8268 
   -7971    -7620    -7237    -6839    -6463    -6160    -5957    -5873 
   -5900    -6016    -6197    -6428    -6701    -6991    -7272    -7539 
   -7789    -8010    -8202    -8365    -8496    -8573    -8568    -8471 
   -8298    -8078    -7844    -7608    -7373    -7172    -7037    -6990 
   -7020    -7094    -7180    -7265    -7331    -7384    -7420    -7437 
   -7441    -7431    -7403    -7353    -7276    -7176    -7084    -7032 
   -7026    -7065    -7132    -7209    -7284    -7345    -7373    -7354 
   -7291    -7194    -7074    -6945    -6824    -6704    -6596    -6528 
   -6521    -6596    -6760    -6986    -7234    -7484    -7719    -7921 
   -8078    -8194    -8276    -8306    -8260    -8145    -7982    -7790 
   -7599    -7423    -7273    -7160    -7094    -7078    -7090    -7110 
   -7144    -7183    -7206    -7204    -7180    -7149    -7150    -7210 
   -7327    -7488    -7676    -7846    -7947    -7955    -7859    -7680 
   -7481    -7334    -7263    -7267    -7349    -7512    -7738    -8010 
   -8313    -8610    -8862    -9038    -9096    -9032    -8865    -8614 
   -8309    -7987    -7655    -7321    -7010    -6716    -6424    -6137 
   -5852    -5574    -5325    -5131    -4999    -4926    -4909    -4951 
   -5059    -5242    -5494    -5794    -6111    -6394    -6608    -6735 
   -6758    -6686    -6585    -6509    -6508    -6623    -6863    -7191 
   -7560    -7919    -8217    -8424    -8527    -8517    -8399    -8208 
   -7998    -7805    -7647    -7531    -7447    -7392    -7339    -7267 
   -7187    -7105    -6997    -6870    -6763    -6714    -6748    -6880 
   -7099    -7361    -7626    -7861    -8036    -8152    -8224    -8264 
   -8307    -8372    -8459    -8577    -8733    -8904    -9058    -9175 
   -9244    -9254    -9186    -9019    -8754    -8429    -8082    -7728 
   -7385    -7082    -6847    -6700    -6647    -6655    -6671    -6663 
   -6627    -6573    -6508    -6435    -6362    -6303    -6265    -6245 
   -6238    -6250    -6299    -6389    -6523    -6689    -6889    -7125 
   -7375    -7612    -7817    -7981    -8101    -8179    -8225    -8267 
   -8320    -8351    -8321    -8212    -8009    -7715    -7358    -6959 
   -6536    -6110    -5694    -5327    -5053    -4880    -4819    -4877 
   -5040    -5277    -5551    -5836    -6097    -6301    -6442    -6532 
   -6593    -6660    -6756    -6886    -7061    -7292    -7573    -7886 
   -8198    -8478    -8708    -8870    -8958    -8961    -8870    -8706 
   -8511    -8326    -8175    -8071    -8010    -7959    -7879    -7727 
   -7480    -7172    -6859    -6592    -6415    -6330    -6322    -6369 
   -6428    -6470    -6490    -6486    -6454    -6408    -6370    -6370 
   -6427    -6554    -6747    -6994    -7272    -7557    -7831    -8094 
   -8348    -8581    -8777    -8915    -8995    -9030    -9032    -8997 
   -8920    -8803    -8638    -8413    -8117    -7766    -7384    -7001 
   -6647    -6358    -6176    -6118    -6143    -6230    -6394    -6624 
   -6882    -7137    -7365    -7561    -7753    -7940    -8105    -8235 
   -8328    -8388    -8429    -8448    -8428    -8363    -8264    -8133 
   -7997    -7882    -7789    -7711    -7650    -7620    -7618    -7615 
   -7581    -7491    -7333    -7114    -6851    -6556    -6250    -5971 
   -5772    -5676    -5686    -5799    -5994    -6241    -6509    -6775 
   -7018    -7207    -7322    -7356    -7318    -7223    -7099    -6979 
   -6887    -6837    -6835    -6890    -6998    -7134    -7250    -7300 
   -7271    -7173    -7028    -6866    -6700    -6536    -6385    -6250 
   -6127    -6021    -5940    -5899    -5891    -5904    -5954    -6041 
   -6153    -6296    -6485    -6732    -7041    -7408    -7804    -8195 
   -8572    -8930    -9247    -9490    -9629    -9663    -9624    -9545 
   -9440    -9310    -9177    -9049    -8916    -8765    -8592    -8398 
   -8186    -7954    -7695    -7400    -7061    -6694    -6324    -5985 
   -5719    -5560    -5510    -5553    -5674    -5859    -6083    -6313 
   -6535    -6748    -6967    -7198    -7447    -7726    -8031    -8344 
   -8654    -8965    -9262    -9532    -9771    -9952   -10031    -9996 
   -9837    -9533    -9112    -8621    -8090    -7577    -7132    -6771 
   -6505    -6336    -6241    -6180    -6123    -6045    -5927    -5790 
   -5659    -5540    -5445    -5395    -5404    -5475    -5609    -5802 
   -6066    -6411    -6801    -7191    -7553    -7862    -8109    -8309 
   -8484    -8653    -8806    -8920    -8986    -8995    -8932    -8787 
   -8557    -8251    -7885    -7477    -7056    -6659    -6312    -6039 
   -5846    -5733    -5719    -5805    -5960    -6156    -6359    -6539 
   -6682    -6775    -6817    -6828    -6833    -6868    -6974    -7152 
   -7384    -7678    -8028    -8399    -8757    -9054    -9246    -9309 
   -9217    -8957    -8549    -8035    -7462    -6878    -6328    -5850 
   -5454    -5146    -4930    -4784    -4689    -4642    -4644    -4703 
   -4842    -5055    -5333    -5678    -6075    -6502    -6924    -7280 
   -7534    -7688    -7744    -7711    -7609    -7481    -7365    -7290 
   -7273    -7329    -7453    -7635    -7858    -8089    -8284    -8415 
   -8467    -8429    -8310    -8112    -7831    -7500    -7156    -6831 
   -6565    -6380    -6276    -6253    -6299    -6400    -6529    -6666 
   -6817    -6990    -7176    -7372    -7565    -7728    -7862    -7962 
   -8021    -8033    -8000    -7935    -7857    -7763    -7651    -7524 
   -7400    -7303    -7252    -7242    -7268    -7312    -7354    -7391 
   -7415    -7415    -7385    -7325    -7237    -7153    -7105    -7107 
   -7169    -7284    -7433    -7615    -7824    -8036    -8229    -8397 
   -8529    -8619    -8667    -8671    -8619    -8510    -8349    -8154 
   -7943    -7738    -7541    -7366    -7238    -7161    -7133    -7152 
   -7218    -7329    -7470    -7605    -7705    -7759    -7753    -7678 
   -7561    -7431    -7312    -7215    -7132    -7063    -7022    -7020 
   -7067    -7168    -7307    -7452    -7557    -7603    -7581    -7497 
   -7357    -7157    -6898    -6606    -6288    -5938    -5567    -5177 
   -4803    -4504    -4313    -4224    -4233    -4324    -4482    -4702 
   -4966    -5247    -5526    -5802    -6075    -6340    -6598    -6840 
   -7051    -7241    -7423    -7591    -7740    -7866    -7952    -8010 
   -8062    -8118    -8185    -8257    -8334    -8421    -8515    -8595 
   -8629    -8611    -8546    -8432    -8260    -8035    -7757    -7433 
   -7086    -6751    -6471    -6286    -6199    -6199    -6285    -6443 
   -6650    -6895    -7164    -7430    -7689    -7935    -8143    -8293 
   -8376    -8390    -8347    -8268    -8174    -8074    -7992    -7955 
   -7974    -8041    -8133    -8220    -8290    -8341    -8379    -8406 
   -8405    -8367    -8302    -8216    -8098    -7947    -7754    -7520 
   -7257    -6993    -6751    -6550    -6403    -6327    -6330    -6419 
   -6596    -6852    -7161    -7483    -7777    -8005    -8121    -8121 
   -8040    -7927    -7812    -7696    -7576    -7476    -7422    -7426 
   -7485    -7588    -7720    -7862    -8008    -8154    -8266    -8309 
   -8268    -8151    -7967    -7738    -7484    -7206    -6909    -6612 
   -6334    -6083    -5886    -5761    -5714    -5757    -5894    -6103 
   -6361    -6640    -6907    -7141    -7334    -7492    -7614    -7689 
   -7708    -7678    -7619    -7549    -7470    -7381    -7276    -7153 
   -7013    -6874    -6750    -6631    -6516    -6432    -6389    -6386 
   -6419    -6446    -6438    -6404    -6358    -6303    -6253    -6239 
   -6273    -6354    -6486    -6655    -6843    -7049    -7269    -7497 
   -7736    -7978    -8179    -8298    -8321    -8239    -8078    -7881 
   -7665    -7437    -7215    -7007    -6821    -6662    -6517    -6380 
   -6269    -6201    -6188    -6235    -6339    -6473    -6608    -6736 
   -6862    -6987    -7118    -7260    -7414    -7589    -7776    -7958 
   -8143    -8325    -8500    -8680    -8862    -9039    -9202    -9323 
   -9373    -9337    -9219    -9027    -8768    -8451    -8098    -7735 
   -7385    -7061    -6767    -6502    -6277    -6108    -5998    -5940 
   -5919    -5917    -5929    -5957    -5992    -6050    -6161    -6331 
   -6554    -6813    -7088    -7366    -7624    -7836    -7990    -8087 
   -8128    -8127    -8108    -8091    -8087    -8098    -8112    -8105 
   -8070    -8000    -7885    -7722    -7519    -7296    -7080    -6897 
   -6752    -6643    -6566    -6512    -6470    -6420    -6351    -6278 
   -6230    -6211    -6230    -6295    -6394    -6519    -6656    -6791 
   -6926    -7063    -7198    -7334    -7479    -7630    -7782    -7924 
   -8058    -8190    -8321    -8452    -8576    -8673    -8730    -8735 
   -8676    -8548    -8361    -8135    -7885    -7639    -7435    -7294 
   -7192    -7110    -7034    -6957    -6886    -6816    -6751    -6698 
   -6660    -6636    -6631    -6642    -6669    -6712    -6774    -6853 
   -6951    -7061    -7184    -7304    -7396    -7462    -7523    -7592 
   -7662    -7717    -7747    -7755    -7738    -7685    -7601    -7499 
   -7385    -7271    -7144    -7001    -6839    -6660    -6490    -6353 
   -6268    -6242    -6273    -6350    -6454    -6558    -6659    -6764 
   -6864    -6960    -7061    -7165    -7263    -7344    -7410    -7460 
   -7484    -7489    -7485    -7477    -7472    -7466    -7449    -7419 
   -7387    -7358    -7352    -7362    -7380    -7393    -7400    -7398 
   -7365    -7284    -7150    -6967    -6745    -6512    -6284    -6077 
   -5919    -5832    -5815    -5867    -5975    -6127    -6313    -6517 
   -6723    -6905    -7047    -7150    -7215    -7256    -7299    -7358 
   -7431    -7520    -7624    -7726    -7817    -7900    -7978    -8056 
   -8145    -8235    -8301    -8329    -8307    -8228    -8100    -7935 
   -7735    -7516    -7298    -7084    -6894    -6744    -6635    -6570 
   -6558    -6597    -6681    -6789    -6894    -6979    -7049    -7101 
   -7122    -7125    -7142    -7196    -7300    -7445    -7614    -7794 
   -7978    -8160    -8345    -8540    -8727    -8888    -9009    -9092 
   -9136    -9146    -9112    -9028    -8900    -8734    -8552    -8368 
   -8185    -8002    -7832    -7686    -7573    -7485    -7408    -7331 
   -7254    -7172    -7082    -7001    -6940    -6901    -6889    -6913 
   -6972    -7060    -7172    -7302    -7443    -7589    -7730    -7851 
   -7936    -7987    -8004    -7993    -7969    -7940    -7909    -7875 
   -7832    -7777    -7703    -7603    -7470    -7310    -7145    -6980 
   -6817    -6652    -6489    -6330    -6177    -6031    -5903    -5806 
   -5755    -5752    -5788    -5859    -5968    -6114    -6281    -6450 
   -6619    -6786    -6943    -7072    -7153    -7179    -7169    -7152 
   -7141    -7136    -7141    -7146    -7148    -7153    -7155    -7145 
   -7128    -7098    -7061    -7021    -6978    -6932    -6880    -6817 
   -6741    -6658    -6571    -6489    -6420    -6363    -6327    -6315 
   -6319    -6332    -6355    -6392    -6458    -6566    -6705    -6862 
   -7028    -7199    -7369    -7531    -7682    -7820    -7944    -8047 
   -8109    -8116    -8058    -7939    -7782    -7615    -7465    -7356 
   -7296    -7291    -7321    -7357    -7376    -7362    -7326    -7292 
   -7268    -7245    -7222    -7187    -7132    -7057    -6964    -6853 
   -6741    -6662    -6648    -6713    -6853    -7055    -7288    -7537 
   -7785    -8020    -8228    -8403    -8560    -8706    -8829    -8924 
   -8997    -9050    -9099    -9161    -9234    -9297    -9321    -9271 
   -9128    -8892    -8590    -8255    -7920    -7614    -7354    -7145 
   -6972    -6820    -6667    -6504    -6339    -6191    -6075    -5984 
   -5917    -5873    -5853    -5856    -5896    -5981    -6107    -6274 
   -6486    -6735    -7003    -7271    -7506    -7697    -7850    -7977 
   -8085    -8166    -8209    -8208    -8167    -8095    -7994    -7874 
   -7747    -7624    -7516    -7427    -7345    -7257    -7164    -7072 
