Origin Time       2025/01/13 21:19:00
Lat.              31.8
Long.             131.6
Depth. (km)       30
Mag.              6.9
Station Code      FKO012
Station Lat.      33.3320
Station Long.     130.7940
Station Height(m) 48
Record Time       2025/01/13 21:20:17
Sampling Freq(Hz) 100Hz
Duration Time(s)  100
Dir.              N-S
Scale Factor      7845(gal)/8223790
Max. Acc. (gal)   4.262
Last Correction   2025/01/13 21:20:17
Memo.             
[...]
    6785     6799     6886     7051     7244     7383     7466     7555 
    7647     7695     7700     7690     7677     7636     7560     7484 
    7438     7398     7350     7300     7252     7198     7137     7095 
    7096     7101     7047     6951     6899     6941     7021     7061 
    7067     7064     7063     7103     7188     7226     7188     7165 
    7202     7268     7358     7454     7487     7457     7441     7458 
    7466     7481     7551     7659     7762     7861     7977     8109 
    8256     8388     8445     8409     8320     8212     8106     8021 
    7948     7879     7812     7750     7716     7705     7695     7686 
    7680     7657     7600     7534     7512     7535     7551     7574 
    7631     7659     7608     7520     7430     7304     7164     7074 
    7040     7013     6994     7048     7179     7317     7425     7524 
    7615     7643     7620     7618     7632     7615     7584     7547 
    7447     7311     7231     7203     7169     7148     7195     7288 
    7369     7427     7499     7599     7697     7755     7750     7704 
    7685     7701     7723     7747     7785     7792     7755     7747 
    7780     7790     7797     7866     7933     7893     7796     7766 
    7781     7722     7596     7485     7410     7369     7360     7337 
    7290     7281     7321     7341     7314     7269     7236     7210 
    7187     7180     7175     7149     7144     7195     7260     7303 
    7348     7426     7538     7615     7620     7618     7658     7697 
    7688     7655     7638     7624     7612     7624     7623     7546 
    7422     7318     7215     7068     6920     6880     6960     7069 
    7156     7245     7349     7468     7609     7743     7800     7770 
    7713     7649     7547     7425     7334     7264     7137     6975 
    6889     6910     6956     6990     7030     7063     7101     7192 
    7337     7492     7631     7727     7746     7703     7646     7608 
    7568     7496     7396     7277     7157     7060     6987     6913 
    6839     6797     6810     6872     6947     7002     7057     7134 
    7204     7250     7303     7346     7326     7276     7295     7385 
    7438     7396     7315     7260     7242     7246     7260     7279 
    7298     7306     7315     7329     7353     7407     7480     7530 
    7554     7562     7547     7519     7496     7460     7383     7287 
    7207     7134     7063     7048     7115     7219     7300     7334 
    7327     7338     7408     7508     7599     7669     7700     7712 
    7750     7803     7815     7789     7759     7738     7722     7701 
    7655     7574     7487     7399     7273     7110     6959     6832 
    6731     6666     6617     6574     6594     6686     6789     6880 
    7001     7145     7277     7400     7518     7615     7715     7846 
    7959     8005     7985     7923     7851     7796     7750     7693 
    7611     7495     7349     7237     7223     7257     7242     7184 
    7125     7055     7017     7067     7157     7233     7311     7371 
    7368     7398     7562     7754     7835     7840     7847     7874 
    7946     8074     8193     8237     8209     8141     8055     7960 
    7871     7811     7767     7688     7570     7460     7385     7375 
    7412     7452     7469     7460     7429     7411     7410     7399 
    7356     7261     7133     7037     6974     6901     6862     6874 
    6882     6891     6948     7030     7132     7294     7487     7632 
    7707     7743     7785     7847     7920     7979     8028     8108 
    8243     8397     8533     8629     8653     8598     8499     8395 
    8294     8179     8032     7871     7731     7623     7554     7537 
    7572     7618     7628     7628     7674     7781     7906     8002 
    8050     8066     8062     8024     7952     7865     7781     7715 
    7638     7495     7299     7136     7040     6964     6874     6785 
    6706     6654     6652     6667     6647     6627     6644     6673 
    6710     6781     6890     7034     7183     7296     7385     7489 
    7635     7784     7857     7831     7767     7712     7649     7561 
    7447     7303     7152     7018     6883     6740     6654     6656 
    6704     6774     6855     6907     6926     6945     6959     6947 
    6941     6982     7044     7076     7103     7160     7229     7318 
    7470     7669     7848     7979     8082     8174     8244     8271 
    8241     8145     8010     7863     7689     7483     7283     7102 
    6936     6816     6777     6824     6916     7017     7160     7344 
    7485     7565     7643     7708     7708     7695     7720     7719 
    7643     7560     7530     7526     7528     7534     7506     7443 
    7425     7447     7439     7449     7541     7639     7666     7662 
    7681     7726     7769     7780     7726     7615     7512     7469 
    7452     7406     7319     7204     7074     6959     6876     6809 
    6744     6691     6650     6612     6596     6628     6709     6826 
    6972     7125     7254     7354     7433     7477     7488     7476 
    7443     7400     7354     7284     7199     7172     7217     7265 
    7291     7312     7310     7281     7267     7268     7272     7283 
    7271     7225     7203     7242     7338     7476     7603     7686 
    7771     7896     8017     8091     8110     8077     8006     7908 
    7788     7661     7553     7499     7497     7489     7479     7515 
    7588     7673     7784     7898     7960     7969     7967     7960 
    7929     7881     7840     7803     7739     7642     7526     7399 
    7271     7167     7080     6983     6903     6872     6870     6895 
    6979     7109     7230     7319     7406     7497     7550     7568 
    7601     7650     7661     7636     7641     7693     7751     7784 
    7776     7712     7604     7466     7323     7192     7060     6933 
    6862     6863     6922     7010     7103     7217     7373     7558 
    7740     7905     8037     8117     8151     8156     8101     7974 
    7847     7761     7681     7595     7523     7476     7465     7499 
    7528     7499     7445     7442     7489     7530     7541     7512 
    7456     7412     7402     7376     7290     7157     7034     6945 
    6863     6791     6760     6751     6763     6825     6926     7068 
    7234     7341     7342     7264     7171     7130     7155     7186 
    7180     7153     7150     7218     7362     7527     7646     7711 
    7763     7796     7774     7743     7732     7697     7608     7488 
    7395     7356     7325     7267     7204     7142     7064     6978 
    6930     6947     6982     7037     7122     7152     7113     7106 
    7134     7140     7146     7180     7183     7117     7042     7028 
    7022     6972     6922     6887     6863     6909     7033     7129 
    7130     7096     7125     7184     7203     7209     7172     7055 
    6980     7015     7087     7196     7360     7520     7659     7785 
    7847     7830     7784     7727     7638     7520     7419     7337 
    7245     7204     7260     7326     7381     7473     7558     7600 
    7619     7608     7558     7499     7466     7439     7391     7368 
    7410     7481     7550     7619     7680     7717     7731     7708 
    7672     7650     7612     7539     7457     7360     7258     7177 
    7111     7059     7042     7076     7150     7238     7337     7449 
    7554     7635     7699     7744     7759     7739     7722     7713 
    7665     7587     7553     7589     7654     7723     7780     7817 
    7859     7919     7979     7989     7935     7869     7790     7677 
    7587     7530     7442     7339     7271     7213     7149     7130 
    7182     7273     7366     7433     7504     7614     7719     7776 
    7801     7807     7769     7713     7689     7666     7611     7572 
    7557     7538     7526     7545     7593     7654     7717     7776 
    7800     7790     7766     7709     7611     7487     7356     7214 
    7029     6839     6700     6619     6619     6690     6752     6772 
    6790     6852     6947     6999     6988     6918     6805     6721 
    6681     6642     6605     6581     6567     6561     6573     6628 
    6700     6768     6833     6886     6956     7091     7284     7484 
    7682     7890     8060     8149     8230     8368     8491     8536 
    8542     8536     8483     8417     8391     8376     8313     8195 
    8070     7971     7898     7823     7730     7641     7564     7518 
    7530     7573     7595     7627     7692     7723     7720     7739 
    7732     7665     7619     7607     7558     7510     7534     7573 
    7581     7603     7647     7676     7673     7662     7663     7651 
    7608     7580     7576     7554     7549     7572     7541     7460 
    7420     7407     7364     7325     7331     7341     7306     7288 
    7312     7314     7325     7395     7454     7492     7560     7647 
    7685     7666     7649     7623     7585     7600     7603     7526 
    7466     7449     7416     7372     7308     7226     7177     7159 
    7103     6971     6832     6762     6704     6640     6629     6669 
    6760     6903     7045     7150     7188     7222     7312     7362 
    7339     7342     7373     7398     7419     7416     7403     7407 
    7457     7565     7668     7770     7924     8056     8135     8210 
    8244     8256     8306     8336     8286     8176     8044     7920 
    7805     7695     7605     7537     7492     7477     7488     7526 
    7582     7659     7751     7834     7933     8060     8140     8152 
    8139     8082     7948     7807     7678     7492     7267     7057 
    6845     6635     6447     6300     6199     6133     6162     6288 
    6394     6492     6659     6844     7006     7195     7391     7535 
    7645     7743     7804     7811     7804     7777     7696     7605 
    7526     7442     7352     7275     7261     7257     7215     7213 
    7240     7245     7245     7225     7156     7063     7003     6986 
    6941     6862     6814     6799     6804     6890     7021     7126 
    7269     7468     7641     7793     7960     8081     8085     8048 
    8054     8029     7951     7877     7746     7496     7258     7155 
    7037     6790     6625     6571     6440     6351     6343     6273 
    6223     6222     6192     6166     6160     6185     6230     6230 
    6239     6292     6319     6367     6509     6644     6714     6793 
    6959     7150     7248     7326     7470     7584     7715     7885 
    7919     7911     8019     8101     8106     8104     8068     7997 
    7832     7643     7692     7692     7279     7210     7638     7420 
    6978     7281     7497     7290     7263     7318     7335     7368 
    7364     7369     7337     7314     7415     7503     7469     7427 
    7496     7589     7566     7607     7877     7932     7581     7591 
    7896     7506     6951     7049     7069     6736     6567     6582 
    6585     6546     6571     6689     6777     6845     6998     7226 
    7384     7492     7688     7770     7686     7763     7911     7898 
    7894     7996     8073     8112     8171     8145     8117     8198 
    8117     7951     7998     7982     7842     7808     7731     7553 
    7399     7283     7188     7017     6853     6864     6829     6704 
    6716     6835     7075     7311     7213     7190     7638     7889 
    7685     7690     7917     7928     7870     7920     7959     7924 
    7877     7966     8194     8425     8583     8630     8613     8718 
    8897     8850     8802     8901     8834     8839     8958     8808 
    8634     8703     8772     8648     8521     8567     8708     8800 
    8769     8769     8868     8941     8850     8762     8854     8822 
    8644     8500     8460     8498     8355     8367     8684     8675 
    8594     9072     9661     9606     9305     9711    10224     9933 
    9579     9697     9648     9305     9177     9155     8962     8854 
    8808     8641     8569     8546     8491     8475     8337     8208 
    8185     8019     7776     7578     7439     7358     7214     6980 
    6864     6922     6851     6712     6814     6864     6739     6750 
    6808     6747     6693     6733     6741     6671     6644     6631 
    6571     6558     6619     6704     6816     6953     7063     7163 
    7284     7357     7354     7339     7299     7204     7082     6864 
    6586     6350     6095     5830     5602     5429     5356     5277 
    5167     5148     5136     5050     4973     4905     4828     4739 
    4600     4463     4337     4199     4081     3946     3835     3825 
    3811     3761     3800     3883     3925     4006     4167     4341 
    4526     4746     4970     5182     5377     5506     5613     5787 
    5977     6120     6297     6494     6629     6767     6937     7057 
    7163     7291     7360     7393     7400     7333     7237     7099 
    6917     6737     6559     6396     6254     6131     6016     5880 
    5772     5687     5571     5471     5398     5350     5354     5364 
    5397     5493     5630     5749     5836     6004     6200     6322 
    6462     6571     6624     6698     6706     6714     6778     6802 
    6864     6980     7078     7186     7327     7480     7619     7804 
    8039     8247     8464     8702     8915     9127     9296     9459 
    9644     9748     9865    10061    10203    10338    10493    10635 
   10820    11013    11199    11383    11497    11616    11777    11878 
   11894    11859    11803    11686    11500    11319    11101    10835 
   10582    10307    10042     9823     9583     9347     9171     9032 
    8939     8934     8954     8912     8892     8934     8939     8939 
    8977     9045     9138     9178     9255     9420     9489     9598 
    9836     9940    10014    10125    10150    10204    10195    10073 
    9969     9780     9549     9343     9066     8737     8378     8052 
    7761     7433     7145     6918     6720     6588     6496     6392 
    6276     6187     6068     5875     5771     5668     5391     5205 
    5117     4919     4780     4679     4591     4653     4723     4846 
    5130     5397     5660     5952     6207     6451     6702     6949 
    7165     7322     7423     7465     7477     7461     7453     7474 
    7476     7493     7534     7515     7464     7420     7338     7252 
    7199     7148     7082     7001     6959     6937     6868     6817 
    6813     6814     6828     6855     6907     6952     6945     6976 
    7037     7065     7099     7140     7196     7256     7271     7312 
    7376     7376     7380     7441     7507     7534     7543     7578 
    7582     7512     7468     7441     7333     7199     7106     7026 
    6957     6895     6852     6837     6824     6824     6856     6897 
    6930     6948     6943     6921     6876     6783     6636     6442 
    6214     5962     5687     5427     5229     5094     5008     4978 
    5023     5121     5239     5391     5575     5759     5958     6165 
    6358     6567     6799     7051     7319     7568     7796     8012 
    8198     8374     8571     8773     8953     9104     9242     9339 
    9350     9306     9258     9188     9081     8928     8704     8459 
    8247     8055     7889     7747     7584     7446     7388     7362 
    7350     7372     7398     7398     7408     7460     7508     7522 
    7541     7570     7584     7588     7599     7616     7635     7647 
    7646     7636     7645     7668     7688     7712     7742     7754 
    7765     7792     7830     7862     7865     7850     7844     7840 
    7838     7835     7836     7831     7771     7669     7549     7392 
    7200     7002     6786     6579     6438     6362     6342     6355 
    6354     6359     6381     6370     6330     6280     6201     6083 
    5919     5748     5605     5475     5355     5263     5181     5128 
    5136     5189     5286     5437     5590     5721     5849     5994 
    6145     6262     6339     6415     6481     6534     6600     6687 
    6779     6860     6939     7034     7125     7207     7333     7499 
    7700     7956     8240     8511     8779     9043     9298     9529 
    9725     9900    10029    10096    10147    10183    10176    10147 
   10112    10052     9954     9837     9714     9597     9486     9370 
    9251     9150     9061     8958     8866     8827     8796     8739 
    8667     8575     8471     8357     8226     8097     7956     7776 
    7573     7364     7155     6957     6771     6613     6511     6447 
    6434     6469     6490     6496     6508     6512     6509     6493 
    6461     6434     6394     6343     6308     6278     6272     6293 
    6312     6359     6448     6570     6741     6936     7119     7294 
    7447     7584     7699     7754     7771     7769     7739     7728 
    7743     7763     7804     7832     7820     7794     7747     7700 
    7663     7595     7507     7433     7372     7337     7319     7333 
    7388     7446     7518     7634     7761     7909     8078     8244 
    8413     8576     8706     8800     8857     8896     8897     8835 
    8757     8676     8581     8505     8452     8415     8392     8371 
    8364     8371     8403     8486     8561     8594     8595     8538 
    8413     8239     8035     7834     7632     7438     7292     7196 
    7140     7118     7110     7125     7159     7164     7145     7107 
    7057     6999     6894     6741     6565     6372     6208     6083 
    5973     5886     5811     5753     5737     5736     5751     5805 
    5884     5988     6110     6239     6382     6521     6658     6816 
    6976     7123     7265     7383     7492     7608     7722     7825 
    7884     7890     7884     7850     7754     7595     7380     7130 
    6868     6616     6382     6166     5979     5836     5738     5703 
    5734     5821     5962     6158     6388     6655     6961     7280 
    7591     7867     8101     8293     8429     8511     8545     8525 
    8461     8384     8329     8310     8282     8252     8276     8338 
    8383     8419     8484     8571     8654     8761     8896     8995 
    9034     9057     9045     8964     8843     8722     8606     8500 
    8410     8320     8230     8160     8104     8040     7952     7842 
    7736     7651     7554     7431     7331     7265     7196     7113 
    7036     6986     6952     6939     6952     6955     6917     6855 
    6781     6691     6579     6428     6250     6097     5996     5918 
    5844     5791     5779     5788     5811     5869     5956     6035 
    6093     6151     6226     6312     6408     6524     6652     6783 
    6920     7064     7206     7341     7484     7638     7780     7896 
    7990     8075     8164     8251     8313     8343     8338     8299 
    8224     8132     8035     7923     7808     7711     7622     7527 
    7434     7339     7233     7126     7013     6876     6718     6552 
    6389     6226     6069     5940     5827     5701     5555     5406 
    5246     5055     4853     4695     4592     4521     4480     4482 
    4513     4552     4600     4660     4746     4880     5071     5300 
    5532     5757     5977     6208     6453     6687     6895     7086 
    7249     7380     7500     7616     7707     7778     7862     7963 
    8073     8187     8306     8399     8468     8532     8581     8611 
