Origin Time       2025/01/13 21:19:00
Lat.              31.8
Long.             131.6
Depth. (km)       30
Mag.              6.9
Station Code      FKO001
Station Lat.      33.8425
Station Long.     130.5087
Station Height(m) 6
Record Time       2025/01/13 21:20:16
Sampling Freq(Hz) 100Hz
Duration Time(s)  109
Dir.              U-D
Scale Factor      7845(gal)/8223790
Max. Acc. (gal)   1.451
Last Correction   2025/01/13 21:20:17
Memo.             
[...]
  -13493   -13467   -13450   -13460   -13497   -13525   -13539   -13563 
  -13610   -13679   -13765   -13863   -13964   -14072   -14197   -14346 
  -14493   -14605   -14681   -14746   -14796   -14804   -14767   -14719 
  -14682   -14638   -14548   -14430   -14310   -14189   -14056   -13914 
  -13782   -13670   -13576   -13501   -13454   -13437   -13455   -13506 
  -13595   -13721   -13864   -14006   -14153   -14312   -14461   -14577 
  -14678   -14787   -14891   -14963   -15003   -15016   -14987   -14924 
  -14856   -14804   -14762   -14710   -14652   -14600   -14547   -14476 
  -14395   -14341   -14308   -14256   -14175   -14104   -14057   -14011 
  -13956   -13909   -13890   -13879   -13852   -13822   -13814   -13824 
  -13825   -13842   -13917   -14033   -14142   -14235   -14331   -14445 
  -14561   -14659   -14759   -14870   -14967   -15022   -15040   -15033 
  -14998   -14929   -14840   -14751   -14659   -14553   -14434   -14318 
  -14196   -14064   -13936   -13828   -13730   -13625   -13520   -13439 
  -13381   -13325   -13269   -13228   -13219   -13234   -13278   -13362 
  -13481   -13605   -13722   -13841   -13971   -14094   -14199   -14297 
  -14395   -14481   -14528   -14527   -14512   -14484   -14411   -14304 
  -14203   -14127   -14073   -14034   -14019   -14037   -14084   -14150 
  -14220   -14283   -14327   -14346   -14342   -14319   -14276   -14215 
  -14149   -14073   -13986   -13896   -13813   -13744   -13702   -13679 
  -13663   -13648   -13620   -13575   -13532   -13505   -13506   -13525 
  -13544   -13571   -13621   -13680   -13736   -13792   -13856   -13927 
  -13996   -14054   -14112   -14175   -14227   -14262   -14307   -14364 
  -14409   -14438   -14457   -14466   -14455   -14423   -14382   -14342 
  -14296   -14241   -14168   -14089   -14026   -13981   -13968   -14002 
  -14060   -14108   -14154   -14215   -14280   -14323   -14350   -14388 
  -14440   -14485   -14501   -14511   -14531   -14542   -14528   -14494 
  -14451   -14400   -14332   -14265   -14223   -14202   -14175   -14157 
  -14169   -14193   -14196   -14176   -14168   -14181   -14179   -14149 
  -14129   -14130   -14127   -14118   -14112   -14112   -14103   -14079 
  -14060   -14046   -14019   -13980   -13949   -13938   -13926   -13895 
  -13857   -13830   -13807   -13775   -13749   -13757   -13779   -13794 
  -13817   -13857   -13900   -13927   -13950   -13983   -14017   -14030 
  -14021   -14010   -14019   -14040   -14060   -14098   -14161   -14239 
  -14315   -14389   -14465   -14534   -14581   -14609   -14623   -14598 
  -14517   -14392   -14249   -14107   -13968   -13837   -13736   -13668 
  -13624   -13603   -13610   -13641   -13695   -13761   -13838   -13926 
  -14017   -14092   -14153   -14207   -14257   -14289   -14303   -14303 
  -14289   -14261   -14230   -14215   -14226   -14257   -14297   -14332 
  -14368   -14399   -14419   -14434   -14461   -14501   -14539   -14562 
  -14578   -14589   -14590   -14580   -14567   -14562   -14550   -14535 
  -14539   -14561   -14580   -14588   -14600   -14629   -14661   -14679 
  -14689   -14694   -14689   -14665   -14636   -14624   -14627   -14629 
  -14628   -14632   -14647   -14651   -14632   -14607   -14578   -14540 
  -14489   -14434   -14388   -14334   -14253   -14166   -14099   -14029 
  -13936   -13841   -13760   -13679   -13602   -13554   -13551   -13581 
  -13626   -13683   -13753   -13817   -13845   -13856   -13872   -13879 
  -13853   -13803   -13757   -13725   -13694   -13663   -13651   -13668 
  -13706   -13753   -13825   -13925   -14025   -14110   -14199   -14303 
  -14399   -14472   -14530   -14580   -14598   -14551   -14455   -14351 
  -14245   -14125   -14000   -13896   -13818   -13749   -13686   -13647 
  -13640   -13653   -13674   -13707   -13756   -13810   -13865   -13915 
  -13963   -14007   -14041   -14062   -14080   -14085   -14080   -14076 
  -14075   -14069   -14054   -14035   -14025   -14023   -14030   -14042 
  -14077   -14148   -14245   -14357   -14476   -14597   -14713   -14817 
  -14901   -14966   -15002   -14997   -14943   -14862   -14766   -14648 
  -14501   -14334   -14158   -13988   -13821   -13660   -13532   -13452 
  -13412   -13420   -13473   -13556   -13659   -13771   -13882   -13986 
  -14064   -14121   -14172   -14222   -14264   -14295   -14328   -14369 
  -14399   -14412   -14426   -14457   -14494   -14517   -14535   -14553 
  -14563   -14563   -14563   -14577   -14602   -14617   -14619   -14621 
  -14612   -14567   -14496   -14426   -14346   -14241   -14125   -14018 
  -13926   -13830   -13730   -13649   -13598   -13558   -13514   -13482 
  -13474   -13471   -13455   -13446   -13468   -13506   -13535   -13572 
  -13633   -13695   -13730   -13756   -13803   -13863   -13903   -13917 
  -13934   -13963   -13988   -14010   -14044   -14094   -14150   -14214 
  -14295   -14393   -14480   -14548   -14619   -14701   -14767   -14793 
  -14785   -14759   -14706   -14619   -14504   -14380   -14246   -14096 
  -13940   -13799   -13686   -13589   -13514   -13477   -13471   -13481 
  -13498   -13527   -13574   -13643   -13721   -13824   -13959   -14089 
  -14188   -14272   -14353   -14424   -14481   -14524   -14559   -14588 
  -14608   -14611   -14600   -14582   -14570   -14566   -14575   -14590 
  -14597   -14594   -14596   -14597   -14594   -14567   -14512   -14442 
  -14359   -14249   -14111   -13961   -13818   -13684   -13571   -13482 
  -13410   -13355   -13319   -13308   -13325   -13371   -13436   -13518 
  -13618   -13725   -13818   -13896   -13981   -14077   -14173   -14268 
  -14368   -14472   -14569   -14652   -14720   -14771   -14804   -14808 
  -14787   -14756   -14710   -14635   -14548   -14461   -14373   -14278 
  -14183   -14098   -14029   -13968   -13918   -13894   -13894   -13894 
  -13888   -13883   -13883   -13883   -13884   -13911   -13981   -14075 
  -14164   -14261   -14381   -14503   -14602   -14679   -14737   -14766 
  -14756   -14731   -14717   -14709   -14686   -14658   -14646   -14648 
  -14639   -14620   -14605   -14592   -14555   -14499   -14443   -14397 
  -14337   -14260   -14199   -14157   -14107   -14046   -13999   -13981 
  -13979   -13969   -13957   -13967   -14000   -14040   -14085   -14150 
  -14222   -14281   -14331   -14378   -14409   -14413   -14404   -14391 
  -14364   -14314   -14242   -14170   -14108   -14034   -13948   -13869 
  -13799   -13722   -13639   -13575   -13544   -13520   -13487   -13473 
  -13495   -13536   -13575   -13614   -13660   -13716   -13764   -13802 
  -13838   -13871   -13888   -13891   -13884   -13857   -13815   -13783 
  -13765   -13755   -13755   -13760   -13776   -13813   -13848   -13865 
  -13879   -13903   -13940   -13975   -13999   -14008   -14007   -14002 
  -13991   -13976   -13969   -13959   -13921   -13867   -13824   -13799 
  -13794   -13813   -13861   -13923   -13972   -14004   -14023   -14042 
  -14068   -14092   -14107   -14110   -14083   -14019   -13941   -13867 
  -13780   -13676   -13574   -13490   -13414   -13339   -13282   -13273 
  -13301   -13347   -13412   -13505   -13614   -13718   -13821   -13933 
  -14041   -14119   -14172   -14231   -14300   -14359   -14396   -14428 
  -14484   -14548   -14592   -14621   -14667   -14731   -14787   -14833 
  -14886   -14935   -14955   -14960   -14971   -14985   -14976   -14944 
  -14904   -14862   -14800   -14712   -14621   -14535   -14430   -14300 
  -14165   -14048   -13945   -13841   -13751   -13687   -13630   -13564 
  -13510   -13494   -13505   -13533   -13595   -13694   -13809   -13917 
  -14018   -14134   -14249   -14339   -14405   -14467   -14528   -14565 
  -14573   -14588   -14634   -14696   -14763   -14839   -14921   -14997 
  -15059   -15115   -15164   -15202   -15222   -15225   -15218   -15195 
  -15137   -15060   -14975   -14863   -14721   -14571   -14431   -14289 
  -14127   -13949   -13778   -13625   -13498   -13401   -13336   -13294 
  -13271   -13265   -13286   -13339   -13420   -13522   -13641   -13764 
  -13879   -13965   -14018   -14053   -14075   -14075   -14065   -14057 
  -14050   -14035   -14021   -14019   -14027   -14025   -14004   -13987 
  -13986   -13983   -13956   -13922   -13902   -13884   -13864   -13849 
  -13846   -13863   -13884   -13899   -13923   -13973   -14041   -14106 
  -14170   -14247   -14322   -14370   -14396   -14405   -14395   -14368 
  -14331   -14297   -14269   -14229   -14181   -14142   -14104   -14060 
  -14018   -13983   -13950   -13899   -13826   -13751   -13684   -13617 
  -13552   -13505   -13493   -13512   -13544   -13597   -13684   -13798 
  -13910   -14019   -14139   -14264   -14373   -14466   -14555   -14642 
  -14705   -14735   -14747   -14751   -14728   -14674   -14609   -14544 
  -14466   -14366   -14262   -14181   -14107   -14021   -13945   -13898 
  -13864   -13817   -13756   -13702   -13653   -13590   -13517   -13456 
  -13414   -13373   -13325   -13301   -13301   -13306   -13317   -13351 
  -13410   -13482   -13554   -13641   -13756   -13872   -13975   -14092 
  -14238   -14385   -14520   -14646   -14758   -14839   -14887   -14928 
  -14970   -14989   -14963   -14906   -14839   -14756   -14647   -14520 
  -14399   -14289   -14172   -14037   -13905   -13786   -13676   -13582 
  -13512   -13477   -13470   -13486   -13529   -13595   -13667   -13738 
  -13810   -13891   -13969   -14029   -14080   -14129   -14164   -14185 
  -14211   -14250   -14299   -14346   -14403   -14480   -14567   -14651 
  -14725   -14797   -14868   -14926   -14958   -14971   -14989   -14999 
  -14998   -15001   -15013   -15033   -15047   -15044   -15034   -15018 
  -14975   -14912   -14837   -14770   -14721   -14667   -14594   -14532 
  -14480   -14427   -14384   -14358   -14342   -14323   -14295   -14270 
  -14256   -14234   -14193   -14152   -14125   -14099   -14056   -14011 
  -13984   -13956   -13914   -13867   -13826   -13787   -13734   -13666 
  -13597   -13547   -13512   -13490   -13497   -13528   -13564   -13602 
  -13655   -13726   -13797   -13856   -13917   -13990   -14061   -14115 
  -14154   -14192   -14227   -14238   -14229   -14220   -14212   -14189 
  -14165   -14164   -14177   -14189   -14202   -14224   -14258   -14276 
  -14270   -14258   -14249   -14233   -14196   -14146   -14102   -14045 
  -13963   -13882   -13822   -13767   -13709   -13659   -13632   -13618 
  -13602   -13595   -13616   -13651   -13680   -13721   -13799   -13903 
  -14002   -14092   -14191   -14283   -14345   -14373   -14388   -14408 
  -14419   -14395   -14353   -14314   -14274   -14231   -14200   -14188 
  -14191   -14199   -14223   -14268   -14319   -14357   -14392   -14435 
  -14469   -14477   -14463   -14443   -14416   -14358   -14265   -14173 
  -14099   -14027   -13948   -13888   -13861   -13849   -13840   -13842 
  -13861   -13886   -13905   -13915   -13926   -13940   -13942   -13938 
  -13942   -13948   -13937   -13914   -13890   -13873   -13871   -13887 
  -13940   -14030   -14137   -14251   -14385   -14532   -14678   -14798 
  -14897   -14980   -15034   -15052   -15037   -14998   -14941   -14870 
  -14786   -14701   -14620   -14534   -14438   -14341   -14246   -14154 
  -14064   -13987   -13938   -13915   -13899   -13886   -13886   -13894 
  -13898   -13909   -13936   -13967   -13988   -14010   -14035   -14058 
  -14068   -14060   -14044   -14031   -14006   -13953   -13896   -13855 
  -13821   -13786   -13757   -13745   -13737   -13718   -13702   -13706 
  -13717   -13732   -13753   -13783   -13828   -13865   -13883   -13900 
  -13927   -13948   -13952   -13952   -13961   -13972   -13973   -13988 
  -14027   -14069   -14098   -14121   -14150   -14181   -14191   -14180 
  -14172   -14166   -14146   -14119   -14111   -14122   -14122   -14111 
  -14110   -14125   -14137   -14137   -14139   -14153   -14166   -14165 
  -14164   -14176   -14188   -14187   -14189   -14199   -14202   -14191 
  -14180   -14177   -14170   -14154   -14143   -14149   -14162   -14165 
  -14152   -14145   -14146   -14135   -14108   -14083   -14069   -14065 
  -14049   -14019   -13992   -13967   -13926   -13875   -13822   -13767 
  -13698   -13626   -13568   -13518   -13470   -13432   -13410   -13405 
  -13409   -13427   -13456   -13501   -13555   -13616   -13684   -13756 
  -13815   -13864   -13903   -13945   -13995   -14052   -14116   -14200 
  -14296   -14382   -14463   -14542   -14611   -14662   -14697   -14719 
  -14739   -14748   -14739   -14736   -14746   -14746   -14744   -14750 
  -14758   -14759   -14748   -14733   -14719   -14694   -14654   -14601 
  -14538   -14459   -14357   -14226   -14095   -13975   -13859   -13743 
  -13643   -13566   -13495   -13424   -13365   -13333   -13316   -13296 
  -13284   -13288   -13293   -13296   -13305   -13333   -13375   -13420 
  -13470   -13540   -13620   -13694   -13763   -13841   -13934   -14023 
  -14094   -14152   -14207   -14247   -14268   -14289   -14328   -14361 
  -14374   -14393   -14430   -14462   -14478   -14490   -14507   -14517 
  -14513   -14501   -14496   -14492   -14467   -14423   -14384   -14355 
  -14319   -14269   -14215   -14158   -14094   -14021   -13952   -13890 
  -13824   -13744   -13664   -13599   -13536   -13466   -13410   -13392 
  -13398   -13408   -13425   -13468   -13539   -13621   -13714   -13833 
  -13977   -14127   -14276   -14423   -14570   -14700   -14800   -14879 
  -14949   -14997   -15009   -14995   -14972   -14928   -14858   -14764 
  -14661   -14551   -14432   -14312   -14206   -14107   -14006   -13911 
  -13836   -13784   -13749   -13725   -13728   -13768   -13830   -13909 
  -14018   -14153   -14295   -14436   -14589   -14751   -14914   -15067 
  -15210   -15348   -15472   -15565   -15623   -15657   -15661   -15622 
  -15533   -15410   -15259   -15066   -14829   -14574   -14310   -14038 
  -13767   -13518   -13316   -13151   -13008   -12900   -12841   -12820 
  -12820   -12850   -12918   -13011   -13113   -13220   -13338   -13462 
  -13587   -13705   -13815   -13919   -14007   -14069   -14119   -14169 
  -14211   -14235   -14251   -14264   -14270   -14265   -14247   -14229 
  -14214   -14183   -14135   -14092   -14054   -14010   -13954   -13907 
  -13871   -13826   -13782   -13761   -13760   -13760   -13763   -13780 
  -13824   -13887   -13952   -14021   -14106   -14195   -14261   -14307 
  -14351   -14393   -14412   -14404   -14389   -14374   -14346   -14301 
  -14260   -14230   -14199   -14153   -14103   -14068   -14031   -13976 
  -13917   -13869   -13824   -13772   -13734   -13718   -13716   -13716 
  -13725   -13757   -13809   -13861   -13923   -14006   -14098   -14175 
  -14231   -14289   -14347   -14381   -14395   -14401   -14397   -14378 
  -14347   -14314   -14292   -14276   -14245   -14206   -14179   -14154 
  -14122   -14095   -14085   -14091   -14094   -14089   -14091   -14108 
  -14118   -14106   -14098   -14103   -14095   -14071   -14052   -14044 
  -14037   -14019   -14010   -14027   -14057   -14077   -14098   -14127 
  -14156   -14166   -14160   -14156   -14154   -14150   -14145   -14145 
  -14149   -14153   -14154   -14153   -14158   -14152   -14116   -14065 
  -14015   -13952   -13867   -13776   -13697   -13617   -13527   -13448 
  -13397   -13360   -13329   -13320   -13347   -13416   -13513   -13641 
  -13814   -14022   -14241   -14470   -14712   -14943   -15141   -15302 
  -15433   -15538   -15608   -15638   -15627   -15593   -15542   -15460 
  -15363   -15276   -15195   -15101   -14997   -14895   -14806   -14719 
  -14621   -14521   -14440   -14373   -14304   -14250   -14216   -14192 
  -14169   -14158   -14172   -14206   -14237   -14258   -14287   -14316 
  -14328   -14332   -14337   -14337   -14328   -14311   -14296   -14295 
  -14285   -14260   -14253   -14276   -14300   -14324   -14364   -14412 
  -14449   -14467   -14488   -14520   -14543   -14544   -14521   -14484 
  -14435   -14370   -14296   -14237   -14193   -14141   -14081   -14045 
  -14030   -14007   -13967   -13927   -13899   -13876   -13841   -13795 
  -13761   -13730   -13689   -13651   -13628   -13610   -13589   -13574 
  -13583   -13606   -13628   -13655   -13698   -13757   -13813   -13859 
  -13911   -13969   -14017   -14054   -14099   -14154   -14207   -14247 
  -14287   -14332   -14368   -14385   -14393   -14391   -14368   -14328 
  -14276   -14214   -14142   -14060   -13961   -13861   -13765   -13660 
  -13549   -13460   -13404   -13371   -13354   -13350   -13375   -13425 
  -13479   -13544   -13628   -13718   -13803   -13894   -13994   -14087 
  -14160   -14216   -14269   -14311   -14331   -14341   -14349   -14362 
  -14380   -14404   -14440   -14497   -14547   -14585   -14620   -14655 
  -14688   -14717   -14731   -14733   -14735   -14728   -14708   -14690 
  -14679   -14652   -14607   -14567   -14546   -14521   -14488   -14462 
  -14445   -14411   -14362   -14324   -14300   -14276   -14250   -14241 
  -14256   -14280   -14299   -14318   -14346   -14372   -14382   -14384 
  -14392   -14399   -14382   -14346   -14308   -14273   -14230   -14185 
  -14160   -14150   -14149   -14149   -14156   -14185   -14230   -14273 
  -14322   -14391   -14467   -14531   -14590   -14665   -14744   -14808 
  -14852   -14890   -14921   -14933   -14924   -14901   -14867   -14816 
  -14747   -14675   -14602   -14512   -14403   -14300   -14212   -14123 
  -14027   -13934   -13855   -13780   -13698   -13612   -13536   -13474 
  -13414   -13358   -13319   -13305   -13309   -13325   -13367   -13433 
  -13506   -13586   -13678   -13782   -13891   -14002   -14119   -14251 
  -14392   -14515   -14621   -14727   -14813   -14862   -14881   -14877 
  -14847   -14783   -14692   -14585   -14470   -14353   -14230   -14118 
  -14025   -13944   -13872   -13821   -13790   -13765   -13747   -13743 
  -13757   -13776   -13788   -13802   -13817   -13814   -13794   -13764 
  -13728   -13680   -13616   -13536   -13466   -13406   -13338   -13273 
  -13234   -13217   -13211   -13215   -13243   -13294   -13355   -13417 
  -13481   -13559   -13645   -13714   -13778   -13851   -13923   -13976 
  -14006   -14021   -14026   -14010   -13972   -13936   -13905   -13872 
  -13838   -13814   -13807   -13803   -13787   -13767   -13755   -13747 
  -13736   -13726   -13738   -13764   -13792   -13834   -13896   -13977 
  -14077   -14193   -14332   -14489   -14642   -14787   -14939   -15087 
  -15219   -15330   -15430   -15522   -15585   -15611   -15607   -15570 
  -15500   -15398   -15268   -15133   -15002   -14858   -14702   -14563 
  -14445   -14326   -14208   -14108   -14026   -13948   -13865   -13794 
  -13738   -13687   -13637   -13603   -13598   -13608   -13616   -13628 
  -13659   -13702   -13729   -13747   -13780   -13819   -13848   -13879 
  -13927   -13987   -14041   -14088   -14149   -14223   -14285   -14332 
  -14381   -14435   -14480   -14500   -14511   -14531   -14539   -14523 
  -14500   -14478   -14443   -14392   -14337   -14285   -14234   -14176 
  -14119   -14079   -14050   -14013   -13968   -13949   -13952   -13959 
  -13963   -13979   -14003   -14019   -14025   -14037   -14056   -14061 
  -14056   -14050   -14049   -14045   -14029   -14006   -13995   -13996 
  -13995   -13990   -13999   -14021   -14041   -14061   -14089   -14137 
  -14193   -14247   -14305   -14382   -14462   -14532   -14598   -14671 
  -14743   -14798   -14832   -14856   -14862   -14847   -14814   -14770 
  -14719   -14656   -14577   -14493   -14418   -14342   -14269   -14203 
  -14146   -14094   -14038   -13992   -13960   -13921   -13865   -13813 
  -13767   -13718   -13674   -13636   -13614   -13608   -13595   -13575 
