Origin Time       2025/01/13 21:19:00
Lat.              31.8
Long.             131.6
Depth. (km)       30
Mag.              6.9
Station Code      FKO002
Station Lat.      33.8253
Station Long.     130.7058
Station Height(m) 3
Record Time       2025/01/13 21:20:19
Sampling Freq(Hz) 100Hz
Duration Time(s)  121
Dir.              U-D
Scale Factor      7845(gal)/8223790
Max. Acc. (gal)   3.103
Last Correction   2025/01/13 21:20:19
Memo.             
[...]
     411      394      371      355      348      348      352      349 
     348      355      356      338      315      286      234      160 
      59      -55     -170     -287     -383     -434     -450     -445 
    -426     -391     -329     -255     -171      -81        5       90 
     184      280      367      429      471      513      553      577 
     581      562      522      463      386      291      183       60 
     -91     -282     -500     -719     -928    -1127    -1289    -1405 
   -1490    -1539    -1536    -1480    -1379    -1228    -1042     -847 
    -654     -459     -270      -95       55      183      307      434 
     556      656      723      766      793      795      780      761 
     734      696      654      608      546      471      392      314 
     226      140       59      -25     -122     -230     -336     -433 
    -514     -573     -611     -621     -591     -525     -434     -348 
    -264     -167      -62       43      151      267      392      521 
     657      804      950     1084     1205     1305     1381     1432 
    1443     1395     1293     1152     1001      853      693      511 
     309       94     -114     -299     -452     -565     -641     -681 
    -683     -645     -579     -488     -375     -255     -132       -9 
     108      210      290      344      368      353      301      210 
      91      -40     -172     -306     -445     -571     -664     -730 
    -778     -822     -862     -869     -831     -766     -680     -568 
    -441     -314     -190      -62       68      197      314      415 
     518      633      765      903     1020     1113     1197     1259 
    1281     1266     1236     1197     1142     1063      963      850 
     743      643      548      469      415      386      378      386 
     398      409      405      373      326      271      198      112 
      22      -70     -167     -265     -363     -446     -514     -567 
    -602     -622     -626     -615     -594     -573     -554     -540 
    -530     -523     -526     -541     -560     -579     -608     -638 
    -662     -693     -727     -745     -746     -741     -738     -739 
    -730     -712     -714     -743     -776     -797     -824     -857 
    -884     -907     -927     -935     -919     -877     -823     -758 
    -685     -600     -496     -376     -252     -130      -20       70 
     135      163      162      141      105       60       18      -21 
     -58      -81      -90      -87      -76      -58      -32      -13 
      -4        1       16       33       37       29       33       62 
     101      137      157      160      166      171      160      135 
      97       59       36       21       12        9        8        6 
      -5      -32      -48      -51      -56      -71      -87     -109 
    -143     -183     -220     -252     -294     -348     -399     -440 
    -471     -504     -541     -572     -584     -576     -553     -525 
    -490     -446     -402     -337     -257     -187     -114      -40 
      16       60       98      132      168      195      214      245 
     282      315      346      372      400      440      491      544 
     580      594      589      571      541      507      476      454 
     445      446      464      495      527      567      625      689 
     750      808      850      866      874      861      807      739 
     664      569      469      355      228      117        5     -120 
    -234     -355     -487     -607     -722     -831     -920     -990 
   -1044    -1080    -1105    -1116    -1098    -1069    -1032     -985 
    -935     -886     -823     -758     -696     -623     -549     -488 
    -422     -348     -278     -211     -159     -129     -120     -132 
    -167     -207     -243     -278     -303     -311     -310     -297 
    -259     -194     -120      -33       71      182      290      396 
     502      612      731      849      955     1043     1111     1171 
    1233     1294     1335     1345     1336     1316     1279     1233 
    1192     1142     1069      986      911      853      816      785 
     746      714      695      681      672      669      662      629 
     558      464      360      245      116      -31     -189     -363 
    -550     -750     -959    -1156    -1324    -1467    -1588    -1680 
   -1728    -1730    -1686    -1599    -1466    -1287    -1074     -845 
    -611     -387     -179       13      183      317      415      476 
     499      499      473      413      326      217       79      -74 
    -230     -382     -530     -680     -819     -931    -1013    -1062 
   -1070    -1047    -1005     -951     -886     -807     -716     -631 
    -548     -468     -399     -338     -286     -248     -218     -186 
    -159     -129      -97      -67      -40      -20       -2        8 
       0      -21      -37      -48      -62      -75      -87      -85 
     -58      -14       31       81      139      203      270      326 
     363      375      349      282      189       83      -28     -136 
    -233     -318     -392     -461     -522     -575     -639     -711 
    -778     -842     -901     -949     -976     -992     -999     -996 
    -978     -953     -913     -851     -780     -716     -653     -591 
    -540     -491     -440     -384     -319     -251     -176     -102 
     -33       47      152      263      379      492      587      662 
     724      773      811      830      818      780      730      675 
     612      533      434      321      203       87      -32     -151 
    -271     -388     -484     -554     -606     -623     -599     -545 
    -472     -394     -317     -234     -145      -59       24      102 
     164      206      237      261      270      261      252      252 
     261      278      291      294      292      294      297      302 
     306      314      328      344      353      356      357      357 
     357      380      434      500      564      627      688      741 
     792      849      892      919      947      969      981      982 
     967      932      882      818      737      642      531      396 
     251       93      -85     -264     -434     -592     -715     -799 
    -861     -908     -940     -961     -973     -973     -961     -939 
    -912     -885     -858     -830     -795     -751     -696     -619 
    -521     -407     -278     -133       18      164      286      398 
     504      602      689      762      819      880      936      977 
    1015     1059     1109     1158     1182     1179     1162     1125 
    1077     1019      931      811      666      490      294       86 
    -141     -376     -602     -815    -1012    -1197    -1368    -1514 
   -1641    -1752    -1836    -1885    -1902    -1894    -1863    -1802 
   -1715    -1625    -1537    -1448    -1356    -1270    -1189    -1102 
   -1017     -939     -850     -749     -649     -550     -450     -352 
    -261     -179      -94      -12       55      116      178      234 
     283      314      324      322      313      287      248      199 
     145      101       67       35        4      -17      -27      -33 
     -35      -25       -5       32       76      112      143      187 
     237      294      355      417      483      560      638      711 
     781      839      891      945      988     1026     1061     1080 
    1086     1074     1031      972      911      832      739      633 
     517      405      288      153       16     -109     -226     -337 
    -437     -519     -585     -637     -689     -754     -820     -874 
    -911     -932     -958     -977     -974     -961     -943     -912 
    -874     -826     -757     -684     -608     -527     -444     -356 
    -263     -171      -76       28      126      210      297      394 
     488      576      653      711      739      734      702      646 
     565      457      336      202       48     -124     -303     -487 
    -669     -838     -988    -1120    -1235    -1332    -1413    -1468 
   -1491    -1483    -1445    -1383    -1294    -1174    -1027     -866 
    -714     -573     -441     -315     -206     -116      -41       10 
      35       39       33       18        8        1      -17      -55 
     -87     -103     -101      -81      -51       -9       45      117 
     210      330      464      610      774      938     1080     1201 
    1300     1364     1405     1425     1418     1405     1399     1389 
    1364     1327     1282     1246     1216     1182     1156     1138 
    1112     1084     1053     1011      951      872      777      672 
     564      445      318      202       94      -14     -120     -225 
    -325     -402     -464     -525     -580     -626     -658     -675 
    -672     -648     -608     -564     -517     -477     -453     -434 
    -419     -426     -463     -521     -588     -657     -730     -804 
    -888     -978    -1053    -1097    -1128    -1148    -1156    -1162 
   -1171    -1169    -1146    -1094    -1020     -942     -866     -780 
    -680     -571     -445     -315     -202     -103      -25       24 
      64      118      182      251      322      391      444      483 
     515      542      561      579      602      635      679      719 
     750      776      795      824      865      905      953     1007 
    1042     1059     1077     1082     1066     1050     1035      994 
     926      846      750      623      480      329      171       25 
    -106     -234     -355     -461     -562     -661     -756     -850 
    -943    -1027    -1105    -1179    -1233    -1266    -1283    -1282 
   -1252    -1202    -1136    -1059     -978     -896     -815     -747 
    -699     -661     -626     -604     -594     -579     -560     -535 
    -508     -488     -468     -438     -406     -363     -305     -234 
    -155      -63       36      144      256      365      469      556 
     629      693      750      796      819      814      791      754 
     702      637      568      498      436      387      349      325 
     321      330      349      388      436      479      525      567 
     591      600      592      560      511      452      379      288 
     186       76      -45     -183     -328     -471     -608     -737 
    -858     -978    -1086    -1174    -1250    -1318    -1387    -1451 
   -1498    -1528    -1534    -1521    -1487    -1429    -1348    -1248 
   -1125     -984     -839     -693     -540     -390     -238      -83 
      64      211      357      499      635      766      888      994 
    1082     1150     1192     1225     1262     1301     1347     1404 
    1455     1486     1497     1489     1467     1433     1382     1310 
    1236     1169     1101     1048     1026     1012     1007     1015 
    1021     1027     1036     1039     1020      972      899      808 
     702      575      440      295      144       -1     -143     -295 
    -452     -604     -753     -897    -1035    -1166    -1286    -1390 
   -1480    -1559    -1621    -1664    -1692    -1701    -1690    -1667 
   -1625    -1572    -1524    -1472    -1409    -1331    -1246    -1158 
   -1061     -949     -823     -689     -544     -394     -255     -121 
      20      163      299      417      511      587      650      697 
     724      733      734      726      710      689      654      602 
     548      491      432      376      319      265      221      176 
     139      121      113      105       99       87       60       22 
     -18      -59      -91     -113     -130     -143     -139     -114 
     -72      -14       63      151      234      313      394      475 
     562      652      726      783      820      831      815      783 
     743      710      685      675      683      708      738      756 
     765      766      757      745      724      685      645      607 
     561      522      506      488      464      444      419      386 
     340      274      191       86      -66     -267     -483     -706 
    -943    -1189    -1422    -1638    -1836    -2006    -2154    -2296 
   -2423    -2531    -2628    -2716    -2791    -2874    -2960    -3030 
   -3075    -3096    -3099    -3082    -3048    -2990    -2903    -2790 
   -2654    -2493    -2323    -2149    -1968    -1784    -1605    -1416 
   -1219    -1015     -803     -585     -364     -151       52      257 
     452      623      778      920     1050     1169     1266     1352 
    1429     1482     1513     1536     1551     1552     1549     1544 
    1537     1541     1551     1560     1570     1582     1583     1568 
    1541     1510     1460     1389     1316     1247     1173     1092 
    1009      938      873      814      766      726      681      645 
     623      614      611      610      602      591      583      567 
     540      504      469      438      413      402      400      407 
     421      434      449      475      506      523      529      526 
     518      510      503      481      450      418      376      322 
     272      224      172      120       66        9      -41      -81 
     -99      -95      -78      -52      -21       21       85      167 
     270      392      521      642      746      823      884      936 
     962      945      903      845      764      654      519      371 
     209       37     -124     -278     -436     -592     -745     -905 
   -1078    -1267    -1466    -1669    -1871    -2061    -2238    -2405 
   -2569    -2736    -2899    -3045    -3159    -3238    -3288    -3304 
   -3291    -3262    -3207    -3113    -2992    -2847    -2671    -2475 
   -2258    -2014    -1755    -1487    -1215     -939     -670     -415 
    -182       36      238      415      562      684      795      891 
     961     1013     1063     1111     1167     1246     1336     1441 
    1572     1721     1876     2034     2193     2340     2465     2569 
    2651     2717     2791     2862     2906     2944     2975     2992 
    3013     3028     3017     2982     2928     2859     2771     2655 
    2527     2388     2232     2064     1872     1653     1416     1162 
     896      616      332       51     -226     -503     -783    -1054 
   -1305    -1534    -1740    -1906    -2041    -2146    -2222    -2268 
   -2288    -2284    -2261    -2218    -2150    -2058    -1957    -1875 
   -1815    -1760    -1709    -1661    -1609    -1559    -1514    -1475 
   -1431    -1366    -1282    -1202    -1124    -1040     -963     -896 
    -830     -774     -724     -675     -630     -584     -538     -502 
    -481     -472     -461     -444     -432     -432     -446     -484 
    -540     -615     -710     -804     -884     -946     -976     -953 
    -884     -766     -588     -363     -110      164      452      730 
     993     1242     1466     1648     1788     1890     1953     1983 
    1984     1966     1935     1884     1809     1713     1588     1444 
    1281     1107      932      747      554      369      187       10 
    -144     -279     -398     -494     -568     -626     -669     -703 
    -731     -747     -751     -742     -733     -723     -708     -681 
    -622     -534     -433     -311     -164       -9      140      282 
     410      518      616      704      761      792      801      769 
     695      592      464      319      166      -16     -211     -403 
    -599     -803     -992    -1158    -1309    -1444    -1547    -1617 
   -1656    -1657    -1609    -1517    -1391    -1236    -1044     -818 
    -572     -313      -47      207      442      656      841     1001 
    1139     1250     1325     1362     1360     1332     1286     1224 
    1148     1073     1003      926      851      783      704      626 
     556      481      402      315      220      110        0     -101 
    -195     -297     -396     -481     -549     -606     -645     -654 
    -645     -618     -562     -491     -425     -364     -302     -243 
    -183     -122      -78      -33       28       82      128      179 
     225      264      297      305      299      278      228      156 
      79        9      -51      -95     -121     -121      -93      -41 
      28      110      183      252      332      409      464      492 
     487      454      400      324      236      140       28      -93 
    -220     -355     -504     -666     -826     -978    -1120    -1251 
   -1378    -1501    -1609    -1696    -1773    -1837    -1876    -1892 
   -1881    -1840    -1765    -1674    -1574    -1460    -1333    -1206 
   -1084     -959     -837     -711     -581     -457     -330     -190 
     -40      109      256      403      552      689      815      939 
    1054     1146     1224     1298     1363     1405     1426     1431 
    1418     1394     1358     1316     1274     1220     1140     1048 
     965      877      784      702      616      523      442      369 
     292      216      132       45      -32     -113     -203     -302 
    -414     -537     -666     -804     -935    -1057    -1170    -1285 
   -1409    -1534    -1648    -1745    -1822    -1873    -1899    -1896 
   -1868    -1819    -1741    -1632    -1494    -1325    -1134     -922 
    -684     -434     -193       44      278      502      714      909 
    1090     1256     1398     1516     1614     1684     1730     1763 
    1780     1782     1771     1740     1691     1624     1536     1429 
    1310     1190     1070      947      830      719      614      518 
     421      319      224      135       48      -37     -122     -205 
    -284     -360     -433     -502     -564     -633     -708     -783 
    -859     -935    -1005    -1067    -1112    -1148    -1183    -1206 
   -1202    -1177    -1136    -1078     -997     -899     -791     -669 
    -533     -376     -201      -27      141      307      467      606 
     723      815      865      872      851      810      743      656 
     549      432      310      176       37     -112     -274     -434 
    -598     -768     -940    -1116    -1285    -1444    -1590    -1714 
   -1819    -1904    -1964    -2006    -2037    -2049    -2029    -1969 
   -1884    -1787    -1674    -1547    -1409    -1255    -1081     -896 
    -706     -510     -311     -116       76      278      484      692 
     900     1104     1306     1505     1702     1887     2052     2199 
    2331     2448     2556     2641     2702     2751     2778     2778 
    2762     2732     2693     2646     2578     2486     2369     2241 
    2104     1942     1767     1595     1417     1221     1011      792 
     573      345      102     -144     -394     -643     -895    -1154 
   -1414    -1667    -1896    -2103    -2288    -2442    -2573    -2695 
   -2799    -2879    -2940    -2982    -2994    -2956    -2867    -2747 
   -2608    -2447    -2273    -2101    -1934    -1761    -1590    -1426 
   -1274    -1143    -1036     -935     -837     -753     -691     -639 
    -589     -545     -518     -496     -476     -467     -481     -510 
    -530     -544     -558     -564     -558     -537     -502     -471 
    -421     -341     -270     -194     -102      -22       63      172 
     282      382      488      595      687      768      846      909 
     957     1005     1055     1094     1120     1142     1152     1150 
    1147     1147     1143     1129     1111     1092     1066     1030 
