Origin Time       2025/01/13 21:19:00
Lat.              31.8
Long.             131.6
Depth. (km)       30
Mag.              6.9
Station Code      FKO010
Station Lat.      33.4236
Station Long.     130.6691
Station Height(m) 61
Record Time       2025/01/13 21:20:27
Sampling Freq(Hz) 100Hz
Duration Time(s)  70
Dir.              N-S
Scale Factor      7845(gal)/8223790
Max. Acc. (gal)   2.164
Last Correction   2025/01/13 21:20:28
Memo.             
[...]
   -4261    -4268    -4249    -4224    -4220    -4221    -4212    -4183 
   -4132    -4074    -4018    -3986    -3996    -4033    -4083    -4133 
   -4175    -4202    -4206    -4206    -4212    -4210    -4207    -4189 
   -4140    -4075    -4002    -3940    -3910    -3909    -3946    -4025 
   -4133    -4268    -4410    -4538    -4646    -4715    -4726    -4673 
   -4565    -4421    -4264    -4118    -4000    -3916    -3873    -3881 
   -3927    -3990    -4071    -4163    -4240    -4303    -4356    -4392 
   -4419    -4442    -4463    -4488    -4519    -4536    -4544    -4548 
   -4517    -4459    -4395    -4321    -4245    -4176    -4116    -4072 
   -4043    -4032    -4050    -4063    -4071    -4082    -4064    -4010 
   -3920    -3794    -3665    -3561    -3500    -3492    -3527    -3595 
   -3674    -3734    -3780    -3817    -3851    -3900    -3954    -4006 
   -4044    -4060    -4058    -4025    -3970    -3900    -3815    -3734 
   -3654    -3585    -3549    -3541    -3580    -3653    -3727    -3804 
   -3861    -3888    -3921    -3966    -4029    -4112    -4197    -4275 
   -4352    -4425    -4498    -4572    -4626    -4644    -4622    -4557 
   -4471    -4371    -4256    -4152    -4051    -3946    -3874    -3839 
   -3840    -3900    -3987    -4094    -4222    -4357    -4495    -4625 
   -4727    -4784    -4783    -4731    -4654    -4579    -4514    -4456 
   -4419    -4399    -4380    -4378    -4380    -4378    -4399    -4423 
   -4430    -4437    -4432    -4405    -4371    -4333    -4275    -4174 
   -4031    -3852    -3654    -3470    -3322    -3238    -3234    -3284 
   -3383    -3531    -3690    -3858    -4024    -4159    -4264    -4348 
   -4407    -4456    -4503    -4556    -4598    -4612    -4596    -4540 
   -4445    -4332    -4221    -4133    -4091    -4102    -4149    -4209 
   -4266    -4307    -4321    -4306    -4267    -4199    -4097    -3978 
   -3865    -3770    -3723    -3739    -3821    -3962    -4126    -4284 
   -4421    -4521    -4587    -4621    -4614    -4573    -4495    -4367 
   -4230    -4112    -4016    -3962    -3947    -3954    -3977    -4004 
   -4028    -4050    -4066    -4097    -4159    -4243    -4340    -4421 
   -4467    -4484    -4467    -4410    -4314    -4171    -3996    -3813 
   -3640    -3505    -3442    -3472    -3603    -3805    -4060    -4325 
   -4542    -4689    -4756    -4733    -4637    -4490    -4314    -4133 
   -3966    -3821    -3707    -3643    -3631    -3678    -3784    -3924 
   -4094    -4271    -4423    -4548    -4627    -4666    -4668    -4629 
   -4575    -4506    -4422    -4344    -4271    -4216    -4176    -4145 
   -4136    -4136    -4137    -4151    -4178    -4226    -4294    -4367 
   -4437    -4494    -4527    -4544    -4540    -4510    -4459    -4392 
   -4315    -4241    -4197    -4195    -4237    -4315    -4425    -4544 
   -4649    -4735    -4797    -4826    -4830    -4816    -4784    -4739 
   -4681    -4619    -4567    -4529    -4502    -4494    -4492    -4479 
   -4449    -4403    -4334    -4257    -4182    -4106    -4032    -3958 
   -3889    -3846    -3832    -3875    -3986    -4139    -4315    -4468 
   -4560    -4591    -4553    -4463    -4337    -4194    -4062    -3947 
   -3858    -3790    -3751    -3767    -3816    -3889    -3996    -4097 
   -4183    -4260    -4314    -4361    -4411    -4464    -4523    -4583 
   -4634    -4657    -4642    -4590    -4509    -4407    -4299    -4191 
   -4090    -4020    -3977    -3955    -3970    -4002    -4040    -4081 
   -4097    -4105    -4113    -4106    -4104    -4112    -4118    -4106 
   -4048    -3939    -3786    -3601    -3404    -3208    -3044    -2941 
   -2907    -2940    -3017    -3122    -3248    -3384    -3531    -3684 
   -3835    -3982    -4106    -4207    -4293    -4363    -4428    -4480 
   -4503    -4495    -4448    -4353    -4232    -4099    -3978    -3882 
   -3815    -3767    -3728    -3703    -3689    -3685    -3694    -3700 
   -3700    -3709    -3731    -3780    -3852    -3919    -3969    -3993 
   -3989    -3970    -3948    -3935    -3939    -3964    -4010    -4077 
   -4163    -4275    -4414    -4569    -4716    -4827    -4889    -4895 
   -4851    -4769    -4648    -4504    -4359    -4221    -4112    -4037 
   -3986    -3955    -3939    -3935    -3933    -3917    -3893    -3856 
   -3790    -3713    -3640    -3580    -3551    -3546    -3562    -3596 
   -3653    -3735    -3827    -3942    -4072    -4197    -4325    -4452 
   -4577    -4710    -4845    -4982    -5108    -5193    -5236    -5228 
   -5178    -5104    -5007    -4892    -4776    -4648    -4502    -4353 
   -4218    -4109    -4037    -4014    -4044    -4116    -4218    -4345 
   -4460    -4540    -4573    -4548    -4475    -4364    -4225    -4071 
   -3919    -3781    -3661    -3570    -3508    -3476    -3487    -3534 
   -3613    -3726    -3846    -3955    -4044    -4099    -4129    -4125 
   -4094    -4051    -4000    -3959    -3928    -3890    -3831    -3735 
   -3609    -3466    -3326    -3215    -3153    -3152    -3196    -3284 
   -3414    -3578    -3780    -4012    -4247    -4471    -4658    -4783 
   -4833    -4815    -4756    -4666    -4561    -4457    -4364    -4290 
   -4234    -4189    -4167    -4167    -4179    -4209    -4240    -4268 
   -4309    -4352    -4405    -4488    -4590    -4698    -4785    -4841 
   -4862    -4851    -4815    -4764    -4711    -4668    -4614    -4550 
   -4483    -4403    -4324    -4256    -4189    -4128    -4072    -4013 
   -3955    -3917    -3901    -3912    -3952    -4017    -4098    -4187 
   -4261    -4315    -4352    -4367    -4364    -4344    -4294    -4213 
   -4101    -3954    -3789    -3628    -3483    -3368    -3300    -3280 
   -3296    -3346    -3412    -3468    -3503    -3522    -3523    -3516 
   -3522    -3549    -3596    -3667    -3755    -3835    -3909    -3974 
   -4036    -4122    -4239    -4374    -4530    -4692    -4835    -4950 
   -5038    -5086    -5089    -5059    -5003    -4939    -4896    -4888 
   -4915    -4958    -5000    -5030    -5044    -5049    -5043    -5049 
   -5077    -5128    -5189    -5243    -5285    -5292    -5255    -5179 
   -5081    -4982    -4892    -4816    -4768    -4735    -4723    -4720 
   -4715    -4716    -4714    -4693    -4649    -4573    -4484    -4398 
   -4330    -4290    -4275    -4282    -4291    -4280    -4243    -4171 
   -4078    -3982    -3904    -3862    -3852    -3863    -3881    -3890 
   -3879    -3832    -3743    -3628    -3500    -3366    -3257    -3179 
   -3140    -3154    -3198    -3252    -3323    -3389    -3441    -3472 
   -3469    -3446    -3410    -3372    -3338    -3299    -3252    -3191 
   -3113    -3015    -2914    -2812    -2708    -2617    -2542    -2478 
   -2454    -2474    -2529    -2631    -2760    -2890    -3013    -3113 
   -3198    -3288    -3381    -3485    -3603    -3707    -3798    -3865 
   -3886    -3886    -3875    -3856    -3843    -3842    -3866    -3924 
   -4021    -4155    -4315    -4495    -4688    -4889    -5098    -5305 
   -5490    -5645    -5772    -5860    -5896    -5892    -5841    -5744 
   -5641    -5541    -5443    -5362    -5301    -5255    -5223    -5192 
   -5170    -5159    -5147    -5144    -5163    -5189    -5212    -5232 
   -5232    -5205    -5161    -5108    -5054    -5003    -4963    -4934 
   -4899    -4866    -4837    -4807    -4781    -4757    -4723    -4673 
   -4590    -4465    -4311    -4139    -3975    -3844    -3739    -3657 
   -3586    -3510    -3411    -3294    -3176    -3073    -2994    -2940 
   -2905    -2878    -2849    -2808    -2759    -2705    -2648    -2606 
   -2585    -2586    -2628    -2710    -2836    -2999    -3192    -3403 
   -3613    -3807    -3975    -4124    -4253    -4349    -4419    -4453 
   -4437    -4372    -4275    -4172    -4086    -4025    -4001    -4016 
   -4045    -4077    -4104    -4118    -4141    -4199    -4293    -4417 
   -4575    -4749    -4920    -5080    -5223    -5352    -5454    -5518 
   -5560    -5570    -5548    -5510    -5444    -5354    -5255    -5147 
   -5028    -4884    -4699    -4487    -4245    -3994    -3761    -3555 
   -3407    -3314    -3252    -3238    -3257    -3287    -3342    -3420 
   -3511    -3612    -3721    -3850    -3994    -4148    -4324    -4504 
   -4685    -4846    -4951    -5000    -4989    -4920    -4815    -4688 
   -4558    -4450    -4369    -4313    -4276    -4249    -4226    -4210 
   -4197    -4187    -4189    -4202    -4225    -4248    -4268    -4293 
   -4310    -4317    -4314    -4306    -4306    -4305    -4302    -4307 
   -4318    -4345    -4383    -4428    -4486    -4527    -4550    -4563 
   -4548    -4504    -4430    -4330    -4222    -4097    -3964    -3844 
   -3721    -3607    -3500    -3387    -3289    -3204    -3129    -3087 
   -3067    -3073    -3132    -3221    -3338    -3485    -3649    -3835 
   -4029    -4221    -4410    -4581    -4739    -4874    -4962    -5015 
   -5031    -5008    -4961    -4891    -4797    -4691    -4580    -4461 
   -4357    -4291    -4251    -4252    -4286    -4318    -4348    -4363 
   -4349    -4314    -4261    -4203    -4143    -4077    -4010    -3946 
   -3879    -3809    -3750    -3713    -3699    -3708    -3750    -3819 
   -3909    -4006    -4095    -4158    -4174    -4143    -4066    -3936 
   -3740    -3491    -3206    -2894    -2596    -2346    -2168    -2089 
   -2118    -2242    -2455    -2739    -3069    -3437    -3829    -4218 
   -4592    -4943    -5243    -5494    -5688    -5805    -5860    -5841 
   -5733    -5568    -5360    -5123    -4895    -4691    -4523    -4395 
   -4313    -4267    -4253    -4271    -4306    -4348    -4382    -4390 
   -4368    -4309    -4217    -4122    -4033    -3947    -3877    -3811 
   -3740    -3663    -3569    -3468    -3357    -3219    -3078    -2934 
   -2790    -2675    -2608    -2596    -2654    -2779    -2951    -3148 
   -3353    -3565    -3777    -3986    -4193    -4392    -4587    -4774 
   -4945    -5101    -5251    -5386    -5505    -5611    -5695    -5760 
   -5822    -5871    -5914    -5957    -5991    -6018    -6029    -6018 
   -5980    -5902    -5779    -5610    -5404    -5166    -4909    -4656 
   -4423    -4214    -4024    -3861    -3721    -3601    -3518    -3460 
   -3415    -3391    -3370    -3348    -3323    -3294    -3273    -3273 
   -3299    -3360    -3460    -3603    -3774    -3955    -4141    -4318 
   -4475    -4591    -4650    -4660    -4625    -4563    -4491    -4410 
   -4332    -4261    -4186    -4113    -4048    -3989    -3942    -3909 
   -3893    -3886    -3875    -3865    -3856    -3852    -3863    -3883 
   -3901    -3921    -3952    -3990    -4033    -4095    -4175    -4259 
   -4340    -4409    -4450    -4455    -4409    -4311    -4170    -3987 
   -3792    -3596    -3410    -3256    -3133    -3041    -2970    -2914 
   -2893    -2893    -2920    -2970    -3011    -3051    -3073    -3080 
   -3088    -3094    -3110    -3140    -3173    -3237    -3325    -3441 
   -3600    -3790    -4012    -4257    -4521    -4791    -5031    -5238 
   -5405    -5528    -5610    -5649    -5648    -5605    -5512    -5381 
   -5217    -5035    -4857    -4681    -4531    -4419    -4336    -4295 
   -4295    -4318    -4372    -4445    -4526    -4619    -4704    -4765 
   -4803    -4804    -4758    -4677    -4571    -4456    -4357    -4298 
   -4287    -4336    -4436    -4571    -4733    -4895    -5035    -5146 
   -5224    -5271    -5285    -5271    -5246    -5205    -5155    -5093 
   -4996    -4866    -4715    -4542    -4371    -4225    -4099    -4004 
   -3942    -3900    -3897    -3937    -4010    -4114    -4224    -4328 
   -4406    -4441    -4441    -4401    -4341    -4291    -4236    -4178 
   -4128    -4062    -3977    -3871    -3742    -3607    -3458    -3310 
   -3180    -3065    -2976    -2918    -2897    -2920    -2956    -2999 
   -3049    -3080    -3095    -3092    -3075    -3075    -3092    -3136 
   -3214    -3304    -3406    -3510    -3596    -3680    -3766    -3850 
   -3948    -4054    -4148    -4241    -4326    -4394    -4461    -4531 
   -4608    -4698    -4788    -4870    -4943    -4996    -5023    -5027 
   -4999    -4941    -4864    -4777    -4681    -4575    -4472    -4376 
   -4278    -4202    -4149    -4102    -4085    -4086    -4089    -4105 
   -4120    -4128    -4139    -4135    -4118    -4097    -4059    -4012 
   -3967    -3924    -3883    -3839    -3784    -3727    -3672    -3628 
   -3619    -3651    -3736    -3867    -4027    -4217    -4422    -4622 
   -4812    -4976    -5104    -5185    -5205    -5158    -5040    -4861 
   -4626    -4359    -4085    -3809    -3572    -3388    -3245    -3157 
   -3113    -3109    -3159    -3237    -3337    -3468    -3604    -3734 
   -3852    -3944    -4017    -4064    -4090    -4105    -4101    -4081 
   -4071    -4082    -4112    -4160    -4217    -4267    -4303    -4318 
   -4314    -4303    -4305    -4322    -4353    -4402    -4464    -4523 
   -4577    -4618    -4634    -4634    -4614    -4572    -4525    -4482 
   -4453    -4452    -4491    -4573    -4679    -4806    -4938    -5057 
   -5158    -5219    -5239    -5240    -5219    -5201    -5208    -5229 
   -5290    -5375    -5459    -5530    -5567    -5556    -5493    -5381 
   -5246    -5088    -4927    -4787    -4668    -4575    -4500    -4434 
   -4369    -4284    -4164    -3998    -3794    -3586    -3395    -3250 
   -3184    -3203    -3306    -3485    -3713    -3966    -4218    -4434 
   -4585    -4658    -4641    -4530    -4351    -4121    -3863    -3608 
   -3354    -3106    -2874    -2640    -2425    -2243    -2084    -1964 
   -1902    -1900    -1950    -2039    -2160    -2285    -2415    -2556 
   -2687    -2829    -2983    -3115    -3261    -3412    -3551    -3709 
   -3866    -4008    -4155    -4280    -4390    -4491    -4573    -4635 
   -4669    -4673    -4646    -4590    -4514    -4418    -4314    -4203 
   -4083    -3966    -3847    -3727    -3619    -3530    -3468    -3429 
   -3403    -3389    -3384    -3385    -3385    -3381    -3376    -3362 
   -3346    -3325    -3296    -3271    -3238    -3198    -3159    -3117 
   -3094    -3092    -3110    -3171    -3265    -3375    -3503    -3627 
   -3739    -3847    -3948    -4058    -4179    -4315    -4472    -4638 
   -4806    -4969    -5112    -5221    -5283    -5305    -5286    -5223 
   -5148    -5065    -4984    -4932    -4895    -4873    -4865    -4842 
   -4811    -4758    -4673    -4577    -4480    -4388    -4320    -4268 
   -4232    -4197    -4164    -4121    -4051    -3964    -3865    -3761 
   -3680    -3630    -3622    -3657    -3730    -3838    -3963    -4095 
   -4230    -4347    -4445    -4525    -4572    -4606    -4633    -4654 
   -4704    -4776    -4864    -4980    -5096    -5204    -5314    -5391 
   -5436    -5468    -5459    -5401    -5310    -5184    -5024    -4841 
   -4650    -4471    -4315    -4213    -4179    -4198    -4272    -4391 
   -4523    -4660    -4796    -4914    -5012    -5073    -5084    -5047 
   -4970    -4862    -4743    -4622    -4500    -4384    -4261    -4129 
   -4000    -3881    -3781    -3713    -3677    -3676    -3699    -3744 
   -3819    -3897    -3964    -4029    -4072    -4086    -4074    -4041 
   -3994    -3939    -3889    -3854    -3839    -3861    -3923    -4014 
   -4140    -4293    -4459    -4633    -4791    -4931    -5063    -5167 
   -5254    -5321    -5355    -5370    -5359    -5310    -5238    -5135 
   -5009    -4887    -4777    -4677    -4600    -4546    -4509    -4482 
   -4452    -4406    -4333    -4221    -4062    -3854    -3600    -3323 
   -3052    -2817    -2648    -2554    -2543    -2616    -2749    -2936 
   -3172    -3451    -3762    -4085    -4415    -4739    -5023    -5267 
   -5466    -5598    -5676    -5690    -5643    -5557    -5443    -5314 
   -5198    -5103    -5039    -5005    -5003    -5022    -5034    -5034 
   -5008    -4950    -4865    -4756    -4619    -4475    -4326    -4179 
   -4045    -3924    -3820    -3740    -3685    -3672    -3705    -3781 
   -3904    -4058    -4221    -4383    -4537    -4669    -4774    -4854 
   -4903    -4912    -4889    -4833    -4730    -4587    -4411    -4209 
   -4002    -3798    -3603    -3437    -3306    -3210    -3146    -3102 
   -3076    -3076    -3084    -3098    -3132    -3188    -3262    -3361 
   -3488    -3624    -3761    -3879    -3954    -3978    -3955    -3885 
   -3789    -3682    -3578    -3495    -3430    -3370    -3314    -3245 
   -3152    -3046    -2929    -2797    -2668    -2550    -2442    -2354 
   -2292    -2253    -2238    -2243    -2258    -2285    -2327    -2384 
   -2470    -2575    -2698    -2856    -3037    -3241    -3470    -3705 
   -3943    -4178    -4392    -4595    -4779    -4941    -5088    -5212 
   -5309    -5373    -5395    -5379    -5325    -5242    -5146    -5042 
   -4949    -4881    -4849    -4851    -4887    -4953    -5036    -5130 
   -5219    -5300    -5374    -5427    -5454    -5454    -5427    -5371 
   -5277    -5150    -5003    -4826    -4627    -4419    -4191    -3954 
   -3727    -3514    -3323    -3183    -3091    -3046    -3056    -3102 
   -3175    -3267    -3352    -3433    -3503    -3554    -3596    -3626 
   -3642    -3651    -3659    -3672    -3681    -3696    -3723    -3750 
   -3802    -3885    -3979    -4097    -4228    -4367    -4517    -4660 
   -4791    -4918    -5026    -5097    -5130    -5113    -5047    -4950 
   -4828    -4695    -4567    -4446    -4326    -4199    -4070    -3931 
   -3784    -3655    -3555    -3495    -3489    -3522    -3589    -3697 
   -3816    -3937    -4048    -4132    -4193    -4218    -4222    -4226 
   -4230    -4256    -4314    -4395    -4523    -4696    -4897    -5125 
   -5360    -5575    -5763    -5918    -6038    -6126    -6178    -6196 
   -6174    -6114    -6010    -5867    -5694    -5509    -5343    -5213 
   -5124    -5094    -5125    -5211    -5344    -5508    -5682    -5856 
   -5998    -6083    -6100    -6033    -5876    -5637    -5316    -4926 
   -4492    -4033    -3576    -3150    -2772    -2466    -2235    -2084 
   -2016    -2027    -2108    -2254    -2446    -2667    -2906    -3144 
   -3368    -3574    -3734    -3846    -3915    -3927    -3898    -3835 
   -3738    -3632    -3526    -3429    -3356    -3312    -3300    -3319 
   -3364    -3434    -3526    -3635    -3747    -3856    -3959    -4043 
   -4113    -4162    -4187    -4195    -4185    -4174    -4168    -4168 
   -4197    -4241    -4314    -4428    -4557    -4711    -4878    -5036 
   -5197    -5344    -5466    -5560    -5616    -5624    -5584    -5498 
   -5371    -5213    -5031    -4828    -4615    -4410    -4218    -4063 
   -3958    -3896    -3879    -3904    -3951    -4021    -4102    -4179 
   -4266    -4355    -4438    -4526    -4607    -4675    -4726    -4753 
   -4750    -4720    -4669    -4606    -4544    -4496    -4476    -4486 
   -4536    -4621    -4725    -4842    -4958    -5051    -5123    -5170 
   -5184    -5165    -5105    -5007    -4873    -4707    -4514    -4310 
   -4106    -3912    -3743    -3612    -3522    -3485    -3514    -3599 
   -3740    -3929    -4153    -4394    -4629    -4849    -5035    -5178 
   -5275    -5323    -5328    -5296    -5219    -5116    -4989    -4843 
   -4700    -4563    -4437    -4332    -4239    -4159    -4083    -3998 
   -3894    -3773    -3635    -3480    -3315    -3157    -3010    -2878 
   -2764    -2663    -2575    -2497    -2423    -2365    -2326    -2307 
   -2317    -2369    -2451    -2562    -2702    -2862    -3038    -3230 
