Origin Time       2025/01/13 21:19:00
Lat.              31.8
Long.             131.6
Depth. (km)       30
Mag.              6.9
Station Code      FKO001
Station Lat.      33.8425
Station Long.     130.5087
Station Height(m) 6
Record Time       2025/01/13 21:20:16
Sampling Freq(Hz) 100Hz
Duration Time(s)  109
Dir.              N-S
Scale Factor      7845(gal)/8223790
Max. Acc. (gal)   4.682
Last Correction   2025/01/13 21:20:17
Memo.             
[...]
   -7095    -7169    -7248    -7333    -7402    -7446    -7474    -7477 
   -7449    -7400    -7346    -7290    -7241    -7200    -7171    -7152 
   -7137    -7118    -7101    -7083    -7068    -7048    -7020    -6983 
   -6939    -6882    -6813    -6739    -6670    -6615    -6569    -6536 
   -6517    -6494    -6450    -6388    -6313    -6208    -6075    -5941 
   -5806    -5667    -5540    -5436    -5352    -5287    -5243    -5221 
   -5227    -5262    -5320    -5394    -5479    -5570    -5668    -5776 
   -5890    -6006    -6119    -6231    -6339    -6443    -6536    -6612 
   -6678    -6737    -6785    -6820    -6839    -6837    -6814    -6774 
   -6728    -6667    -6575    -6467    -6362    -6246    -6122    -6018 
   -5940    -5879    -5840    -5822    -5809    -5783    -5745    -5703 
   -5655    -5590    -5510    -5429    -5355    -5294    -5259    -5262 
   -5292    -5327    -5363    -5416    -5487    -5587    -5717    -5867 
   -6034    -6215    -6400    -6589    -6779    -6961    -7130    -7276 
   -7403    -7512    -7589    -7636    -7678    -7707    -7709    -7693 
   -7665    -7619    -7546    -7447    -7321    -7164    -6972    -6752 
   -6511    -6255    -5989    -5734    -5512    -5327    -5184    -5082 
   -5012    -4959    -4920    -4893    -4877    -4876    -4893    -4931 
   -4996    -5107    -5258    -5436    -5637    -5854    -6068    -6266 
   -6458    -6646    -6810    -6941    -7061    -7179    -7280    -7364 
   -7445    -7522    -7581    -7622    -7653    -7665    -7646    -7596 
   -7516    -7412    -7306    -7213    -7148    -7117    -7113    -7132 
   -7160    -7164    -7132    -7071    -6967    -6828    -6678    -6520 
   -6347    -6166    -5988    -5814    -5648    -5502    -5373    -5259 
   -5162    -5098    -5076    -5082    -5097    -5117    -5135    -5132 
   -5117    -5100    -5071    -5036    -5001    -4968    -4938    -4903 
   -4855    -4811    -4783    -4789    -4850    -4972    -5151    -5382 
   -5660    -5964    -6272    -6575    -6871    -7149    -7407    -7653 
   -7884    -8098    -8290    -8441    -8541    -8596    -8611    -8575 
   -8479    -8332    -8152    -7943    -7712    -7476    -7238    -6997 
   -6762    -6547    -6355    -6178    -6022    -5888    -5776    -5686 
   -5616    -5564    -5529    -5498    -5471    -5463    -5467    -5474 
   -5494    -5529    -5587    -5671    -5761    -5852    -5946    -6035 
   -6114    -6184    -6253    -6323    -6382    -6416    -6434    -6434 
   -6412    -6376    -6336    -6291    -6239    -6183    -6130    -6079 
   -6012    -5931    -5849    -5759    -5651    -5530    -5402    -5269 
   -5128    -4992    -4872    -4773    -4710    -4679    -4675    -4708 
   -4788    -4914    -5086    -5306    -5572    -5887    -6242    -6629 
   -7037    -7442    -7832    -8205    -8542    -8815    -9019    -9170 
   -9271    -9310    -9297    -9243    -9146    -9004    -8831    -8649 
   -8464    -8264    -8062    -7871    -7676    -7477    -7279    -7071 
   -6859    -6654    -6459    -6266    -6076    -5898    -5733    -5570 
   -5409    -5259    -5108    -4963    -4850    -4774    -4733    -4725 
   -4760    -4827    -4911    -5008    -5121    -5229    -5319    -5395 
   -5458    -5510    -5564    -5629    -5714    -5814    -5921    -6035 
   -6151    -6253    -6332    -6390    -6428    -6444    -6444    -6439 
   -6438    -6430    -6423    -6431    -6446    -6447    -6436    -6417 
   -6385    -6357    -6354    -6378    -6424    -6500    -6606    -6728 
   -6864    -7007    -7149    -7288    -7431    -7569    -7685    -7773 
   -7834    -7861    -7834    -7749    -7618    -7452    -7242    -6995 
   -6732    -6450    -6145    -5838    -5548    -5275    -5013    -4774 
   -4569    -4402    -4274    -4194    -4155    -4148    -4175    -4240 
   -4341    -4471    -4619    -4779    -4947    -5131    -5316    -5485 
   -5636    -5771    -5886    -5985    -6087    -6207    -6353    -6523 
   -6727    -6978    -7264    -7573    -7898    -8230    -8553    -8843 
   -9089    -9289    -9428    -9501    -9517    -9479    -9381    -9219 
   -8999    -8718    -8386    -8017    -7624    -7217    -6801    -6393 
   -6006    -5638    -5294    -4970    -4661    -4384    -4148    -3929 
   -3726    -3546    -3406    -3319    -3295    -3338    -3457    -3620 
   -3809    -4036    -4291    -4569    -4874    -5204    -5545    -5896 
   -6246    -6585    -6901    -7183    -7429    -7642    -7823    -7967 
   -8070    -8137    -8172    -8172    -8147    -8104    -8035    -7940 
   -7830    -7688    -7512    -7311    -7080    -6822    -6552    -6288 
   -6037    -5800    -5593    -5428    -5301    -5201    -5134    -5105 
   -5094    -5086    -5085    -5084    -5073    -5062    -5062    -5063 
   -5051    -5024    -4993    -4954    -4915    -4891    -4892    -4922 
   -4981    -5069    -5182    -5310    -5444    -5587    -5734    -5887 
   -6054    -6234    -6430    -6644    -6870    -7105    -7346    -7589 
   -7811    -7996    -8143    -8251    -8314    -8324    -8297    -8236 
   -8120    -7956    -7765    -7545    -7291    -6997    -6686    -6377 
   -6065    -5751    -5440    -5138    -4861    -4635    -4473    -4380 
   -4352    -4379    -4452    -4569    -4727    -4908    -5090    -5273 
   -5459    -5634    -5786    -5930    -6081    -6222    -6357    -6496 
   -6631    -6739    -6802    -6832    -6833    -6787    -6694    -6575 
   -6432    -6269    -6103    -5965    -5860    -5773    -5709    -5674 
   -5665    -5680    -5721    -5788    -5873    -5971    -6062    -6141 
   -6223    -6316    -6401    -6469    -6523    -6569    -6597    -6602 
   -6600    -6601    -6602    -6616    -6648    -6693    -6747    -6812 
   -6899    -7009    -7110    -7191    -7263    -7319    -7342    -7325 
   -7280    -7206    -7102    -6984    -6864    -6741    -6617    -6501 
   -6394    -6286    -6178    -6088    -6016    -5969    -5953    -5949 
   -5953    -5969    -6002    -6035    -6068    -6110    -6151    -6177 
   -6192    -6204    -6212    -6210    -6195    -6177    -6157    -6120 
   -6085    -6066    -6039    -5994    -5934    -5852    -5741    -5610 
   -5474    -5343    -5219    -5105    -5017    -4961    -4939    -4962 
   -5030    -5134    -5265    -5406    -5552    -5699    -5846    -6000 
   -6153    -6303    -6457    -6619    -6779    -6940    -7114    -7283 
   -7434    -7573    -7704    -7815    -7901    -7975    -8041    -8086 
   -8101    -8102    -8090    -8056    -8000    -7931    -7843    -7717 
   -7572    -7415    -7229    -7005    -6771    -6548    -6336    -6141 
   -5973    -5838    -5729    -5648    -5590    -5557    -5545    -5544 
   -5539    -5522    -5495    -5459    -5409    -5348    -5296    -5263 
   -5240    -5236    -5282    -5381    -5520    -5699    -5921    -6160 
   -6394    -6612    -6798    -6943    -7042    -7098    -7113    -7084 
   -7021    -6933    -6828    -6717    -6612    -6521    -6454    -6407 
   -6367    -6335    -6301    -6261    -6214    -6154    -6081    -6007 
   -5925    -5819    -5714    -5632    -5582    -5564    -5583    -5644 
   -5748    -5877    -6030    -6210    -6396    -6567    -6736    -6899 
   -7045    -7160    -7245    -7307    -7338    -7334    -7292    -7209 
   -7095    -6970    -6829    -6683    -6559    -6453    -6346    -6251 
   -6183    -6134    -6093    -6062    -6043    -6034    -6029    -6016 
   -5995    -5965    -5918    -5848    -5757    -5641    -5494    -5335 
   -5181    -5035    -4896    -4774    -4689    -4626    -4568    -4533 
   -4530    -4544    -4565    -4604    -4656    -4719    -4816    -4951 
   -5103    -5266    -5444    -5630    -5827    -6043    -6274    -6519 
   -6777    -7045    -7315    -7576    -7827    -8059    -8257    -8419 
   -8534    -8596    -8602    -8552    -8461    -8340    -8189    -8016 
   -7848    -7690    -7527    -7362    -7217    -7084    -6966    -6872 
   -6805    -6747    -6689    -6623    -6543    -6417    -6237    -6015 
   -5767    -5502    -5236    -4973    -4731    -4523    -4344    -4197 
   -4098    -4054    -4059    -4110    -4216    -4382    -4596    -4853 
   -5151    -5483    -5830    -6174    -6509    -6840    -7159    -7457 
   -7755    -8062    -8347    -8595    -8811    -8981    -9089    -9144 
   -9158    -9121    -9028    -8874    -8661    -8403    -8104    -7767 
   -7415    -7049    -6683    -6338    -6015    -5715    -5436    -5175 
   -4922    -4666    -4414    -4170    -3931    -3707    -3519    -3375 
   -3275    -3227    -3245    -3311    -3397    -3499    -3624    -3763 
   -3913    -4079    -4248    -4407    -4565    -4727    -4892    -5065 
   -5250    -5443    -5645    -5869    -6123    -6409    -6732    -7092 
   -7484    -7898    -8318    -8730    -9124    -9482    -9788   -10045 
  -10242   -10368   -10424   -10420   -10354   -10210    -9990    -9717 
   -9401    -9042    -8650    -8253    -7843    -7414    -6986    -6566 
   -6160    -5778    -5439    -5147    -4901    -4693    -4515    -4360 
   -4234    -4144    -4081    -4027    -3986    -3963    -3951    -3951 
   -3974    -4029    -4126    -4257    -4406    -4569    -4745    -4931 
   -5132    -5347    -5579    -5830    -6096    -6369    -6643    -6921 
   -7207    -7495    -7765    -8004    -8199    -8345    -8445    -8495 
   -8491    -8444    -8365    -8256    -8109    -7928    -7723    -7495 
   -7240    -6964    -6683    -6392    -6088    -5786    -5491    -5215 
   -4968    -4765    -4606    -4492    -4429    -4426    -4483    -4604 
   -4795    -5039    -5325    -5638    -5958    -6269    -6559    -6814 
   -7020    -7161    -7244    -7284    -7281    -7240    -7179    -7113 
   -7051    -6995    -6941    -6901    -6883    -6880    -6886    -6897 
   -6902    -6903    -6893    -6860    -6813    -6755    -6690    -6624 
   -6548    -6474    -6404    -6330    -6262    -6208    -6149    -6080 
   -6007    -5923    -5819    -5695    -5562    -5427    -5285    -5143 
   -5015    -4914    -4851    -4839    -4884    -4976    -5108    -5275 
   -5464    -5656    -5832    -5984    -6114    -6218    -6295    -6342 
   -6363    -6370    -6370    -6359    -6335    -6319    -6322    -6334 
   -6351    -6382    -6423    -6459    -6485    -6508    -6525    -6523 
   -6507    -6492    -6471    -6438    -6404    -6370    -6323    -6254 
   -6173    -6072    -5949    -5823    -5703    -5587    -5486    -5412 
   -5364    -5355    -5386    -5455    -5563    -5695    -5856    -6049 
   -6258    -6470    -6691    -6924    -7159    -7384    -7599    -7798 
   -7970    -8114    -8230    -8307    -8353    -8375    -8367    -8330 
   -8267    -8183    -8085    -7967    -7828    -7674    -7507    -7334 
   -7172    -7009    -6832    -6654    -6488    -6324    -6168    -6029 
   -5911    -5818    -5746    -5692    -5657    -5633    -5613    -5597 
   -5591    -5597    -5610    -5633    -5670    -5705    -5726    -5742 
   -5753    -5764    -5780    -5790    -5782    -5759    -5718    -5665 
   -5601    -5522    -5444    -5370    -5300    -5252    -5228    -5215 
   -5208    -5216    -5240    -5277    -5324    -5393    -5486    -5601 
   -5746    -5925    -6129    -6349    -6577    -6816    -7069    -7334 
   -7604    -7885    -8176    -8475    -8776    -9067    -9339    -9591 
   -9814    -9991   -10130   -10222   -10238   -10156    -9985    -9744 
   -9417    -9000    -8521    -7998    -7437    -6852    -6259    -5680 
   -5124    -4595    -4106    -3654    -3230    -2844    -2502    -2211 
   -1984    -1823    -1726    -1691    -1722    -1821    -1976    -2184 
   -2446    -2749    -3086    -3456    -3847    -4247    -4654    -5070 
   -5497    -5931    -6366    -6791    -7206    -7600    -7965    -8293 
   -8577    -8811    -8993    -9131    -9229    -9288    -9309    -9305 
   -9277    -9217    -9127    -9019    -8880    -8710    -8530    -8337 
   -8120    -7890    -7653    -7404    -7153    -6902    -6648    -6386 
   -6111    -5823    -5514    -5175    -4831    -4496    -4170    -3862 
   -3593    -3366    -3187    -3049    -2953    -2909    -2916    -2974 
   -3091    -3264    -3491    -3774    -4095    -4434    -4793    -5173 
   -5557    -5937    -6313    -6681    -7021    -7322    -7592    -7842 
   -8060    -8232    -8364    -8461    -8527    -8564    -8573    -8550 
   -8496    -8425    -8341    -8236    -8116    -7996    -7871    -7744 
   -7620    -7504    -7402    -7314    -7246    -7202    -7168    -7156 
   -7168    -7188    -7203    -7215    -7218    -7204    -7164    -7094 
   -6993    -6858    -6704    -6554    -6417    -6299    -6203    -6129 
   -6081    -6053    -6033    -6018    -6002    -5980    -5961    -5937 
   -5896    -5845    -5779    -5697    -5607    -5522    -5441    -5363 
   -5301    -5266    -5266    -5316    -5417    -5574    -5773    -5996 
   -6237    -6489    -6745    -6998    -7236    -7450    -7639    -7800 
   -7928    -8029    -8102    -8137    -8127    -8059    -7929    -7753 
   -7537    -7280    -6993    -6687    -6369    -6041    -5725    -5425 
   -5132    -4854    -4610    -4395    -4202    -4029    -3879    -3757 
   -3657    -3588    -3554    -3549    -3574    -3632    -3704    -3784 
   -3873    -3966    -4067    -4182    -4315    -4471    -4634    -4803 
   -5004    -5232    -5472    -5738    -6033    -6343    -6673    -7030 
   -7415    -7816    -8217    -8617    -9027    -9429    -9802   -10149 
  -10454   -10698   -10875   -10974   -10983   -10901   -10723   -10449 
  -10087    -9649    -9143    -8580    -7981    -7358    -6721    -6076 
   -5439    -4824    -4240    -3682    -3161    -2694    -2293    -1957 
   -1692    -1513    -1412    -1386    -1443    -1591    -1838    -2176 
   -2590    -3067    -3582    -4129    -4700    -5274    -5850    -6432 
   -6999    -7538    -8044    -8514    -8937    -9300    -9605    -9850 
  -10035   -10147   -10188   -10166   -10085    -9948    -9759    -9528 
   -9263    -8966    -8656    -8338    -8013    -7688    -7372    -7057 
   -6741    -6430    -6130    -5854    -5605    -5393    -5223    -5084 
   -4978    -4905    -4850    -4810    -4787    -4770    -4761    -4766 
   -4796    -4853    -4927    -5017    -5131    -5251    -5364    -5475 
   -5580    -5660    -5718    -5761    -5783    -5780    -5768    -5751 
   -5728    -5710    -5702    -5697    -5711    -5746    -5794    -5860 
   -5946    -6054    -6173    -6285    -6384    -6477    -6551    -6590 
   -6597    -6583    -6552    -6501    -6443    -6389    -6342    -6300 
   -6262    -6232    -6215    -6208    -6207    -6218    -6235    -6250 
   -6257    -6249    -6231    -6205    -6176    -6147    -6122    -6103 
   -6095    -6089    -6091    -6095    -6087    -6072    -6058    -6039 
   -6002    -5946    -5887    -5834    -5786    -5742    -5715    -5713 
   -5732    -5772    -5840    -5934    -6053    -6205    -6384    -6565 
   -6747    -6930    -7102    -7254    -7384    -7479    -7535    -7564 
   -7565    -7528    -7449    -7323    -7161    -6982    -6791    -6594 
   -6409    -6243    -6095    -5973    -5886    -5825    -5788    -5784 
   -5813    -5861    -5919    -5987    -6056    -6123    -6189    -6246 
   -6286    -6318    -6336    -6338    -6324    -6296    -6253    -6195 
   -6123    -6052    -5981    -5911    -5841    -5779    -5726    -5675 
   -5630    -5601    -5586    -5574    -5568    -5575    -5589    -5610 
   -5637    -5663    -5683    -5699    -5706    -5697    -5675    -5653 
   -5637    -5626    -5633    -5668    -5719    -5786    -5873    -5977 
   -6085    -6204    -6339    -6489    -6648    -6818    -7003    -7199 
   -7392    -7573    -7739    -7886    -8009    -8110    -8193    -8248 
   -8266    -8243    -8182    -8071    -7911    -7713    -7479    -7211 
   -6928    -6627    -6305    -5983    -5665    -5350    -5053    -4788 
   -4557    -4353    -4179    -4045    -3947    -3878    -3855    -3883 
   -3951    -4059    -4214    -4419    -4672    -4959    -5279    -5629 
   -5998    -6378    -6770    -7161    -7545    -7920    -8280    -8611 
   -8908    -9173    -9389    -9547    -9651    -9695    -9678    -9595 
   -9450    -9252    -9004    -8707    -8380    -8037    -7670    -7288 
   -6914    -6540    -6164    -5799    -5449    -5115    -4803    -4517 
   -4264    -4056    -3893    -3774    -3700    -3669    -3684    -3742 
   -3834    -3959    -4125    -4324    -4544    -4787    -5057    -5344 
   -5630    -5904    -6173    -6436    -6685    -6924    -7156    -7366 
   -7547    -7703    -7836    -7952    -8055    -8152    -8236    -8298 
   -8344    -8372    -8375    -8351    -8301    -8216    -8098    -7946 
   -7754    -7527    -7267    -6974    -6659    -6327    -5979    -5626 
   -5282    -4943    -4617    -4309    -4017    -3739    -3477    -3240 
   -3030    -2840    -2679    -2565    -2490    -2452    -2457    -2512 
   -2620    -2786    -3010    -3281    -3597    -3959    -4359    -4781 
   -5219    -5667    -6104    -6513    -6903    -7277    -7626    -7952 
   -8263    -8557    -8831    -9081    -9305    -9501    -9663    -9790 
   -9877    -9926    -9934    -9900    -9829    -9734    -9612    -9451 
   -9262    -9046    -8803    -8548    -8271    -7975    -7686    -7408 
   -7133    -6870    -6628    -6404    -6188    -5983    -5800    -5641 
   -5498    -5377    -5277    -5192    -5124    -5078    -5066    -5090 
   -5146    -5238    -5362    -5501    -5661    -5844    -6029    -6210 
   -6378    -6520    -6635    -6724    -6782    -6810    -6805    -6775 
   -6732    -6669    -6586    -6496    -6403    -6305    -6208    -6123 
   -6053    -5984    -5913    -5853    -5799    -5748    -5709    -5679 
   -5653    -5636    -5622    -5614    -5613    -5610    -5611    -5611 
   -5603    -5590    -5571    -5539    -5497    -5456    -5416    -5383 
   -5367    -5368    -5386    -5422    -5478    -5547    -5606    -5652 
   -5691    -5710    -5705    -5686    -5653    -5610    -5560    -5520 
   -5495    -5490    -5506    -5540    -5584    -5643    -5722    -5815 
   -5913    -6022    -6156    -6312    -6474    -6643    -6831    -7024 
   -7207    -7380    -7547    -7701    -7830    -7932    -8002    -8035 
   -8027    -7983    -7905    -7793    -7657    -7512    -7362    -7210 
   -7056    -6910    -6768    -6633    -6511    -6396    -6285    -6185 
   -6089    -5992    -5887    -5792    -5722    -5664    -5620    -5591 
   -5571    -5551    -5524    -5491    -5455    -5413    -5378    -5354 
   -5332    -5314    -5305    -5304    -5313    -5335    -5371    -5428 
   -5502    -5590    -5705    -5832    -5962    -6114    -6282    -6451 
   -6621    -6791    -6949    -7091    -7222    -7337    -7419    -7469 
   -7492    -7477    -7423    -7341    -7238    -7122    -7006    -6890 
   -6786    -6705    -6632    -6573    -6538    -6509    -6480    -6451 
   -6419    -6378    -6331    -6270    -6201    -6122    -6031    -5934 
   -5826    -5711    -5606    -5508    -5417    -5347    -5306    -5304 
   -5331    -5389    -5468    -5553    -5636    -5717    -5795    -5865 
   -5930    -5996    -6065    -6137    -6216    -6301    -6400    -6508 
   -6616    -6718    -6806    -6874    -6929    -6963    -6974    -6975 
   -6966    -6937    -6897    -6856    -6813    -6760    -6698    -6651 
   -6615    -6577    -6547    -6529    -6505    -6474    -6442    -6404 
   -6351    -6295    -6243    -6191    -6138    -6095    -6057    -6015 
   -5971    -5922    -5869    -5811    -5757    -5721    -5702    -5697 
   -5715    -5767    -5836    -5915    -6019    -6143    -6272    -6396 
