Origin Time       2025/01/13 21:19:00
Lat.              31.8
Long.             131.6
Depth. (km)       30
Mag.              6.9
Station Code      FKO010
Station Lat.      33.4236
Station Long.     130.6691
Station Height(m) 61
Record Time       2025/01/13 21:20:27
Sampling Freq(Hz) 100Hz
Duration Time(s)  70
Dir.              U-D
Scale Factor      7845(gal)/8223790
Max. Acc. (gal)   0.984
Last Correction   2025/01/13 21:20:28
Memo.             
[...]
    6532     6459     6361     6254     6154     6080     6027     5983 
    5957     5964     6003     6076     6162     6243     6308     6346 
    6359     6380     6417     6459     6496     6527     6558     6588 
    6601     6585     6542     6481     6415     6353     6295     6231 
    6169     6116     6095     6119     6174     6251     6347     6443 
    6525     6586     6624     6648     6667     6678     6659     6606 
    6531     6458     6417     6424     6457     6488     6500     6490 
    6478     6471     6457     6419     6363     6315     6293     6303 
    6330     6367     6413     6462     6524     6586     6627     6644 
    6648     6656     6678     6714     6772     6844     6898     6918 
    6902     6847     6750     6615     6458     6313     6205     6154 
    6169     6238     6349     6492     6656     6828     6979     7083 
    7119     7083     6987     6859     6714     6573     6458     6385 
    6361     6378     6420     6467     6509     6542     6573     6601 
    6609     6594     6565     6534     6513     6513     6540     6593 
    6644     6679     6696     6691     6669     6632     6589     6534 
    6458     6370     6274     6178     6111     6089     6100     6129 
    6169     6222     6282     6350     6409     6448     6470     6478 
    6467     6442     6411     6385     6376     6384     6409     6442 
    6461     6453     6428     6403     6380     6366     6362     6354 
    6338     6328     6334     6357     6390     6434     6493     6558 
    6613     6655     6682     6690     6690     6685     6662     6616 
    6555     6496     6443     6408     6411     6455     6521     6586 
    6632     6656     6659     6654     6656     6675     6710     6755 
    6795     6836     6883     6933     6979     7018     7049     7084 
    7136     7184     7211     7207     7176     7114     7026     6930 
    6839     6750     6670     6617     6585     6573     6586     6621 
    6660     6693     6718     6745     6783     6835     6889     6937 
    6979     7025     7076     7107     7099     7052     6990     6933 
    6886     6836     6779     6720     6658     6617     6616     6654 
    6721     6797     6858     6894     6902     6889     6860     6821 
    6789     6772     6764     6758     6750     6748     6762     6775 
    6770     6741     6696     6644     6598     6547     6474     6369 
    6246     6127     6041     6008     6025     6072     6147     6251 
    6373     6509     6651     6782     6886     6948     6951     6897 
    6812     6714     6616     6527     6453     6393     6366     6380 
    6423     6486     6558     6629     6698     6762     6813     6836 
    6820     6768     6681     6566     6447     6339     6245     6176 
    6130     6103     6100     6116     6137     6154     6169     6185 
    6203     6230     6276     6326     6369     6408     6438     6447 
    6440     6420     6390     6357     6316     6277     6255     6251 
    6264     6295     6343     6409     6486     6558     6613     6648 
    6658     6654     6633     6582     6513     6448     6381     6316 
    6266     6228     6204     6201     6223     6255     6293     6327 
    6343     6331     6301     6262     6223     6199     6197     6223 
    6277     6353     6439     6527     6615     6687     6727     6718 
    6654     6536     6396     6269     6174     6112     6083     6087 
    6116     6172     6255     6362     6474     6577     6643     6671 
    6671     6650     6615     6574     6544     6544     6565     6604 
    6660     6717     6755     6763     6741     6705     6675     6648 
    6620     6578     6519     6459     6416     6397     6396     6400 
    6405     6411     6428     6477     6552     6631     6691     6718 
    6717     6704     6687     6682     6694     6713     6732     6762 
    6808     6870     6934     6993     7042     7087     7117     7122 
    7099     7045     6968     6889     6825     6790     6786     6805 
    6831     6849     6864     6889     6930     6978     7014     7025 
    6999     6945     6870     6785     6700     6619     6552     6500 
    6467     6467     6500     6558     6635     6718     6793     6851 
    6909     6972     7034     7082     7103     7084     7024     6937 
    6835     6727     6635     6566     6508     6469     6443     6419 
    6393     6377     6378     6397     6436     6489     6548     6602 
    6635     6636     6619     6593     6567     6550     6544     6554 
    6581     6621     6670     6716     6758     6791     6814     6829 
    6845     6862     6867     6864     6858     6843     6824     6813 
    6821     6864     6943     7030     7117     7196     7249     7264 
    7238     7168     7075     6975     6876     6782     6689     6596 
    6516     6463     6443     6458     6505     6570     6632     6674 
    6687     6679     6667     6656     6646     6648     6667     6690 
    6713     6732     6729     6701     6664     6617     6561     6509 
    6466     6430     6397     6365     6332     6301     6266     6228 
    6191     6154     6124     6103     6081     6058     6025     5979 
    5929     5881     5848     5841     5853     5877     5911     5960 
    6023     6097     6178     6265     6349     6417     6459     6471 
    6451     6411     6358     6301     6255     6228     6216     6212 
    6207     6184     6143     6099     6070     6066     6077     6107 
    6154     6210     6262     6308     6339     6346     6335     6322 
    6304     6280     6249     6218     6197     6192     6192     6189 
    6184     6177     6172     6166     6166     6173     6183     6189 
    6188     6192     6210     6239     6278     6334     6400     6463 
    6507     6513     6482     6417     6342     6273     6224     6200 
    6196     6208     6226     6247     6278     6318     6357     6394 
    6420     6417     6389     6343     6299     6278     6292     6334 
    6393     6455     6508     6548     6579     6609     6639     6674 
    6720     6766     6798     6817     6820     6805     6774     6731 
    6678     6623     6574     6540     6532     6547     6583     6639 
    6701     6760     6816     6860     6893     6907     6913     6907 
    6876     6816     6728     6629     6544     6485     6458     6465 
    6494     6535     6585     6644     6706     6771     6833     6893 
    6957     7020     7067     7095     7106     7103     7090     7069 
    7042     7013     6976     6921     6847     6766     6686     6615 
    6556     6505     6454     6409     6374     6342     6303     6251 
    6192     6143     6110     6093     6097     6124     6169     6231 
    6315     6416     6523     6625     6706     6755     6763     6725 
    6660     6593     6527     6467     6428     6408     6404     6416 
    6446     6482     6517     6547     6562     6562     6544     6505 
    6446     6373     6299     6231     6172     6120     6073     6026 
    5988     5960     5937     5918     5911     5929     5971     6033 
    6116     6219     6330     6442     6542     6619     6667     6689 
    6690     6675     6652     6631     6615     6604     6598     6600 
    6619     6663     6716     6759     6785     6790     6770     6729 
    6681     6631     6592     6579     6596     6635     6685     6735 
    6789     6836     6871     6907     6940     6963     6975     6974 
    6957     6932     6907     6894     6880     6863     6849     6840 
    6839     6852     6882     6924     6979     7036     7091     7142 
    7175     7188     7184     7155     7096     7022     6945     6872 
    6804     6737     6674     6612     6561     6528     6521     6547 
    6594     6643     6682     6709     6721     6725     6721     6705 
    6674     6627     6575     6534     6500     6474     6463     6470 
    6490     6521     6565     6605     6639     6663     6675     6667 
    6643     6616     6586     6552     6517     6481     6444     6405 
    6358     6308     6262     6223     6207     6230     6293     6382 
    6475     6551     6605     6648     6673     6679     6679     6666 
    6635     6601     6571     6547     6528     6520     6516     6508 
    6492     6478     6470     6466     6466     6463     6459     6463 
    6477     6502     6529     6550     6567     6585     6597     6593 
    6563     6501     6420     6328     6219     6104     6006     5933 
    5890     5883     5902     5935     5976     6019     6057     6088 
    6114     6139     6160     6176     6188     6199     6211     6230 
    6247     6259     6269     6281     6296     6324     6369     6423 
    6480     6534     6579     6612     6628     6623     6590     6532 
    6462     6392     6330     6273     6214     6156     6112     6091 
    6096     6127     6170     6224     6297     6381     6461     6532 
    6590     6621     6629     6625     6612     6597     6582     6573 
    6578     6594     6617     6644     6679     6718     6750     6777 
    6805     6831     6855     6876     6890     6887     6863     6826 
    6791     6766     6759     6766     6767     6764     6763     6766 
    6779     6795     6812     6831     6845     6843     6824     6791 
    6751     6704     6650     6589     6525     6462     6403     6359 
    6345     6354     6378     6405     6432     6457     6478     6497 
    6508     6515     6523     6536     6551     6558     6563     6574 
    6585     6594     6600     6600     6597     6597     6600     6606 
    6623     6639     6651     6651     6635     6608     6582     6548 
    6498     6439     6377     6322     6289     6284     6313     6381 
    6474     6582     6691     6795     6879     6937     6972     6986 
    6976     6952     6922     6893     6874     6874     6897     6940 
    6987     7032     7074     7109     7134     7163     7187     7196 
    7191     7172     7144     7115     7098     7086     7067     7032 
    6974     6903     6835     6771     6716     6678     6667     6678 
    6700     6723     6737     6736     6721     6691     6644     6579 
    6512     6446     6382     6322     6265     6222     6199     6197 
    6215     6247     6282     6315     6334     6335     6327     6313 
    6303     6307     6343     6413     6507     6608     6712     6809 
    6893     6956     6991     6990     6959     6914     6863     6812 
    6772     6750     6739     6740     6750     6768     6795     6822 
    6837     6831     6799     6745     6677     6597     6517     6440 
    6366     6305     6270     6247     6234     6224     6205     6172 
    6123     6064     6003     5942     5883     5834     5799     5787 
    5805     5842     5900     5975     6058     6137     6204     6258 
    6297     6324     6342     6354     6361     6370     6381     6396 
    6420     6450     6481     6507     6524     6543     6569     6600 
    6642     6698     6762     6831     6906     6986     7061     7126 
    7169     7192     7206     7214     7214     7198     7152     7075 
    6978     6875     6777     6691     6627     6593     6586     6597 
    6624     6666     6712     6756     6786     6794     6774     6725 
    6662     6598     6535     6482     6444     6416     6392     6369 
    6349     6338     6331     6328     6334     6349     6363     6376 
    6388     6405     6432     6467     6513     6570     6627     6677 
    6717     6739     6739     6718     6691     6677     6685     6720 
    6778     6855     6948     7038     7107     7146     7168     7176 
    7173     7168     7157     7134     7109     7084     7064     7045 
    7020     6987     6953     6918     6885     6863     6855     6863 
    6887     6924     6964     6998     7024     7042     7053     7048 
    7025     6983     6926     6855     6766     6673     6585     6504 
    6442     6405     6377     6354     6336     6324     6322     6331 
    6343     6349     6340     6309     6257     6178     6080     5972 
    5864     5765     5682     5620     5584     5587     5622     5680 
    5757     5846     5942     6039     6133     6211     6265     6285 
    6280     6257     6228     6201     6187     6189     6197     6212 
    6241     6276     6323     6376     6416     6446     6470     6486 
    6504     6525     6548     6565     6579     6598     6620     6633 
    6629     6600     6550     6485     6408     6331     6266     6227 
    6215     6230     6273     6335     6401     6470     6539     6605 
    6660     6693     6708     6712     6717     6718     6713     6701 
    6691     6694     6716     6754     6806     6867     6932     6991 
    7040     7075     7101     7114     7119     7123     7130     7148 
    7177     7210     7237     7246     7236     7204     7165     7132 
    7109     7101     7099     7099     7103     7107     7109     7114 
    7125     7136     7152     7165     7171     7175     7180     7180 
    7180     7180     7175     7157     7130     7103     7086     7076 
    7075     7082     7087     7090     7094     7094     7080     7051 
    7002     6947     6891     6831     6771     6714     6658     6606 
    6563     6521     6481     6457     6453     6461     6471     6478 
    6477     6467     6459     6455     6450     6436     6405     6366 
    6324     6281     6245     6219     6201     6193     6191     6183 
    6165     6135     6100     6057     5995     5926     5857     5784 
    5719     5675     5645     5633     5633     5640     5645     5643 
    5634     5614     5589     5562     5540     5526     5524     5536 
    5562     5602     5657     5724     5791     5853     5907     5940 
    5946     5935     5911     5886     5871     5868     5875     5888 
    5917     5964     6022     6088     6160     6226     6273     6300 
    6308     6293     6261     6234     6219     6212     6215     6227 
    6251     6299     6372     6461     6556     6656     6756     6852 
    6936     7001     7053     7091     7105     7094     7061     7015 
    6966     6920     6887     6879     6902     6945     6994     7044 
    7080     7101     7111     7110     7095     7072     7037     6984 
    6918     6840     6760     6682     6600     6523     6467     6432 
    6417     6424     6444     6473     6507     6551     6610     6682 
    6759     6835     6898     6939     6959     6966     6966     6959 
    6945     6933     6928     6937     6966     7010     7071     7149 
    7236     7325     7418     7489     7524     7530     7500     7434 
    7345     7241     7128     7018     6922     6844     6786     6744 
    6720     6716     6728     6755     6794     6841     6887     6924 
    6947     6956     6953     6937     6912     6878     6840     6801 
    6756     6712     6670     6625     6579     6538     6502     6469 
    6438     6411     6390     6389     6407     6438     6474     6512 
    6542     6558     6562     6555     6547     6546     6561     6590 
    6623     6655     6678     6683     6679     6666     6633     6596 
    6558     6519     6481     6446     6415     6396     6386     6382 
    6384     6389     6397     6401     6399     6388     6363     6326 
    6280     6235     6193     6158     6129     6099     6075     6065 
    6076     6110     6166     6239     6322     6409     6496     6577 
    6642     6686     6718     6737     6744     6743     6733     6716 
    6698     6682     6660     6633     6606     6589     6585     6590 
    6598     6602     6608     6616     6624     6631     6639     6647 
    6660     6685     6714     6740     6754     6752     6740     6721 
    6696     6677     6660     6642     6627     6619     6616     6624 
    6643     6670     6706     6744     6771     6789     6790     6768 
    6723     6654     6571     6486     6405     6336     6291     6261 
    6238     6228     6230     6238     6249     6261     6277     6297 
    6319     6347     6385     6430     6477     6532     6589     6646 
    6698     6747     6777     6779     6758     6724     6687     6655 
    6621     6586     6561     6540     6521     6516     6524     6547 
    6586     6629     6664     6690     6705     6713     6718     6714 
    6697     6664     6620     6567     6508     6450     6403     6369 
    6345     6331     6319     6311     6308     6299     6288     6274 
    6249     6216     6178     6134     6088     6045     6000     5957 
    5918     5888     5872     5873     5896     5941     6011     6110 
    6231     6366     6505     6647     6786     6902     6990     7051 
    7075     7060     7024     6972     6909     6845     6781     6714 
    6662     6627     6606     6585     6558     6529     6501     6467 
    6436     6411     6392     6386     6394     6416     6447     6485 
    6525     6570     6624     6682     6735     6782     6828     6868 
    6901     6930     6947     6947     6933     6903     6871     6848 
    6826     6810     6795     6778     6759     6739     6723     6708 
    6686     6659     6633     6600     6556     6519     6493     6477 
    6481     6515     6574     6651     6739     6826     6901     6961 
    7009     7044     7067     7078     7088     7105     7126     7155 
    7188     7214     7233     7242     7242     7231     7214     7192 
    7175     7163     7144     7111     7072     7025     6960     6885 
    6813     6750     6689     6628     6563     6489     6401     6301 
    6193     6085     5981     5891     5826     5787     5775     5784 
    5807     5840     5869     5887     5899     5902     5895     5883 
    5859     5827     5794     5764     5745     5736     5732     5725 
    5717     5707     5702     5702     5710     5732     5769     5817 
    5871     5925     5968     5994     6004     5998     5973     5940 
    5902     5868     5846     5840     5845     5857     5873     5895 
    5925     5960     5994     6021     6042     6062     6087     6114 
    6145     6185     6224     6262     6299     6323     6332     6326 
    6301     6262     6216     6168     6122     6083     6052     6034 
    6033     6052     6092     6146     6211     6281     6339     6381 
    6412     6427     6421     6405     6382     6355     6335     6326 
    6324     6328     6347     6381     6423     6478     6552     6639 
    6729     6814     6883     6940     6976     6990     6983     6957 
    6917     6870     6817     6756     6683     6602     6520     6442 
    6378     6340     6323     6328     6346     6373     6408     6444 
    6471     6485     6475     6446     6404     6357     6309     6270 
    6243     6228     6235     6274     6340     6430     6538     6654 
    6767     6871     6959     7025     7069     7090     7091     7084 
    7067     7047     7036     7032     7029     7029     7030     7026 
    7015     7001     6983     6964     6956     6961     6980     7011 
    7047     7078     7096     7101     7091     7069     7036     6993 
    6941     6887     6836     6790     6744     6693     6646     6610 
    6583     6566     6558     6561     6575     6596     6617     6640 
    6656     6655     6636     6606     6563     6511     6459     6421 
    6399     6388     6390     6407     6430     6448     6469     6496 
    6523     6554     6590     6628     6663     6697     6725     6747 
    6760     6766     6758     6729     6686     6631     6569     6511 
