Origin Time       2025/01/13 21:19:00
Lat.              31.8
Long.             131.6
Depth. (km)       30
Mag.              6.9
Station Code      FKO008
Station Lat.      33.5712
Station Long.     130.8546
Station Height(m) 70
Record Time       2025/01/13 21:20:13
Sampling Freq(Hz) 100Hz
Duration Time(s)  99
Dir.              N-S
Scale Factor      7845(gal)/8223790
Max. Acc. (gal)   5.177
Last Correction   2025/01/13 21:20:13
Memo.             
[...]
   -2828    -3018    -3173    -3271    -3333    -3356    -3358    -3389 
   -3450    -3553    -3704    -3852    -3990    -4114    -4201    -4247 
   -4237    -4147    -3996    -3798    -3555    -3298    -3045    -2814 
   -2623    -2450    -2293    -2187    -2141    -2145    -2189    -2263 
   -2334    -2381    -2424    -2446    -2442    -2436    -2428    -2400 
   -2361    -2322    -2281    -2216    -2116    -1991    -1844    -1710 
   -1618    -1552    -1494    -1447    -1394    -1332    -1275    -1240 
   -1237    -1274    -1356    -1498    -1696    -1917    -2112    -2269 
   -2400    -2497    -2560    -2625    -2701    -2768    -2830    -2902 
   -2978    -3063    -3145    -3196    -3218    -3217    -3187    -3150 
   -3127    -3109    -3079    -3025    -2956    -2890    -2833    -2799 
   -2798    -2832    -2909    -3025    -3159    -3295    -3433    -3578 
   -3713    -3808    -3839    -3794    -3692    -3549    -3360    -3133 
   -2895    -2685    -2516    -2363    -2228    -2124    -2038    -1965 
   -1919    -1907    -1917    -1950    -2004    -2045    -2065    -2068 
   -2018    -1912    -1798    -1687    -1602    -1571    -1574    -1591 
   -1626    -1651    -1640    -1590    -1510    -1436    -1395    -1408 
   -1514    -1709    -1945    -2209    -2506    -2802    -3053    -3244 
   -3353    -3356    -3261    -3114    -2917    -2679    -2452    -2277 
   -2161    -2131    -2188    -2324    -2555    -2857    -3192    -3537 
   -3844    -4083    -4259    -4369    -4410    -4374    -4263    -4106 
   -3916    -3680    -3423    -3172    -2924    -2693    -2492    -2324 
   -2208    -2145    -2107    -2103    -2138    -2200    -2296    -2423 
   -2554    -2668    -2775    -2882    -2997    -3105    -3200    -3294 
   -3391    -3488    -3554    -3573    -3570    -3546    -3468    -3345 
   -3184    -2999    -2837    -2717    -2629    -2562    -2525    -2536 
   -2577    -2641    -2724    -2795    -2870    -2972    -3067    -3129 
   -3176    -3200    -3180    -3119    -3033    -2937    -2844    -2759 
   -2704    -2689    -2704    -2747    -2785    -2802    -2799    -2748 
   -2646    -2524    -2382    -2265    -2226    -2238    -2304    -2438 
   -2585    -2721    -2845    -2929    -2976    -2988    -2953    -2882 
   -2764    -2601    -2427    -2262    -2120    -2014    -1927    -1853 
   -1798    -1753    -1711    -1672    -1625    -1576    -1534    -1476 
   -1379    -1240    -1065     -855     -612     -353     -105      112 
     279      390      450      448      383      284      155        6 
    -129     -229     -291     -326     -353     -395     -464     -573 
    -741     -951    -1212    -1525    -1853    -2180    -2500    -2783 
   -3036    -3275    -3497    -3724    -3969    -4205    -4438    -4684 
   -4912    -5113    -5294    -5436    -5528    -5572    -5559    -5509 
   -5455    -5404    -5362    -5343    -5339    -5320    -5283    -5247 
   -5194    -5101    -4966    -4788    -4576    -4356    -4132    -3912 
   -3726    -3565    -3414    -3280    -3153    -3018    -2890    -2775 
   -2685    -2631    -2594    -2565    -2552    -2556    -2570    -2578 
   -2560    -2533    -2532    -2558    -2598    -2636    -2644    -2610 
   -2542    -2442    -2335    -2238    -2153    -2101    -2084    -2092 
   -2135    -2201    -2278    -2377    -2471    -2562    -2670    -2745 
   -2754    -2713    -2596    -2404    -2187    -1925    -1632    -1368 
   -1134     -936     -785     -642     -506     -373     -214      -44 
     122      301      453      567      661      708      689      625 
     494      278       -1     -336     -715    -1101    -1466    -1788 
   -2056    -2254    -2377    -2438    -2471    -2505    -2542    -2598 
   -2697    -2835    -2991    -3181    -3414    -3650    -3875    -4095 
   -4294    -4464    -4621    -4753    -4861    -4963    -5069    -5184 
   -5297    -5374    -5409    -5408    -5354    -5244    -5100    -4930 
   -4741    -4552    -4348    -4128    -3898    -3640    -3357    -3075 
   -2797    -2539    -2327    -2160    -2037    -1958    -1907    -1885 
   -1896    -1907    -1927    -1980    -2047    -2146    -2313    -2523 
   -2758    -3021    -3279    -3508    -3704    -3828    -3882    -3906 
   -3908    -3885    -3835    -3778    -3721    -3651    -3599    -3568 
   -3508    -3435    -3362    -3271    -3188    -3122    -3037    -2953 
   -2878    -2781    -2675    -2567    -2440    -2313    -2174    -2020 
   -1896    -1792    -1679    -1574    -1463    -1333    -1208    -1089 
    -973     -866     -765     -673     -602     -530     -459     -422 
    -409     -394     -394     -403     -419     -457     -506     -569 
    -680     -831     -996    -1174    -1363    -1544    -1711    -1865 
   -2006    -2128    -2242    -2355    -2466    -2565    -2656    -2736 
   -2783    -2802    -2812    -2808    -2798    -2801    -2820    -2852 
   -2894    -2936    -2974    -3014    -3063    -3117    -3181    -3268 
   -3376    -3504    -3658    -3821    -3969    -4083    -4147    -4159 
   -4110    -3989    -3825    -3645    -3458    -3284    -3132    -3009 
   -2913    -2830    -2752    -2677    -2606    -2551    -2516    -2523 
   -2569    -2633    -2710    -2791    -2852    -2889    -2882    -2809 
   -2675    -2489    -2249    -1960    -1655    -1362    -1092     -865 
    -706     -604     -561     -585     -657     -754     -869     -999 
   -1146    -1308    -1493    -1699    -1923    -2157    -2374    -2558 
   -2733    -2901    -3038    -3180    -3341    -3481    -3622    -3786 
   -3929    -4028    -4094    -4129    -4135    -4110    -4058    -3993 
   -3936    -3883    -3813    -3721    -3612    -3469    -3294    -3118 
   -2953    -2808    -2714    -2686    -2709    -2774    -2879    -2999 
   -3109    -3177    -3191    -3149    -3044    -2878    -2673    -2458 
   -2254    -2068    -1907    -1784    -1713    -1706    -1768    -1884 
   -2033    -2203    -2374    -2533    -2664    -2733    -2747    -2732 
   -2682    -2612    -2546    -2478    -2432    -2417    -2419    -2436 
   -2478    -2556    -2663    -2781    -2914    -3044    -3123    -3165 
   -3167    -3113    -3015    -2887    -2739    -2592    -2450    -2334 
   -2251    -2184    -2135    -2114    -2111    -2149    -2236    -2374 
   -2578    -2841    -3145    -3468    -3777    -4055    -4287    -4463 
   -4580    -4615    -4564    -4465    -4330    -4152    -3954    -3738 
   -3489    -3234    -2986    -2745    -2521    -2295    -2064    -1846 
   -1634    -1437    -1278    -1146    -1046    -1000     -993    -1013 
   -1074    -1154    -1237    -1337    -1449    -1564    -1699    -1834 
   -1949    -2061    -2162    -2255    -2358    -2466    -2581    -2694 
   -2785    -2849    -2886    -2875    -2820    -2739    -2650    -2562 
   -2496    -2467    -2474    -2500    -2538    -2583    -2625    -2658 
   -2679    -2675    -2652    -2656    -2712    -2817    -2988    -3222 
   -3485    -3758    -4021    -4240    -4399    -4490    -4506    -4459 
   -4361    -4236    -4101    -3954    -3805    -3661    -3512    -3375 
   -3240    -3083    -2909    -2727    -2527    -2322    -2135    -1969 
   -1837    -1752    -1692    -1653    -1649    -1676    -1714    -1748 
   -1763    -1745    -1680    -1555    -1377    -1182     -988     -801 
    -668     -604     -607     -679     -795     -931    -1057    -1144 
   -1200    -1224    -1231    -1239    -1260    -1317    -1413    -1537 
   -1690    -1861    -2020    -2138    -2203    -2230    -2227    -2197 
   -2149    -2100    -2060    -2033    -2029    -2054    -2103    -2168 
   -2257    -2343    -2415    -2481    -2525    -2542    -2548    -2551 
   -2563    -2586    -2612    -2658    -2729    -2791    -2836    -2880 
   -2928    -2984    -3069    -3171    -3268    -3360    -3461    -3562 
   -3645    -3711    -3750    -3769    -3785    -3790    -3782    -3775 
   -3774    -3781    -3788    -3782    -3775    -3769    -3735    -3667 
   -3572    -3430    -3242    -3029    -2793    -2555    -2332    -2119 
   -1930    -1784    -1686    -1651    -1684    -1773    -1900    -2037 
   -2160    -2250    -2300    -2315    -2285    -2212    -2124    -2029 
   -1917    -1814    -1742    -1694    -1663    -1661    -1691    -1746 
   -1814    -1881    -1933    -1954    -1949    -1911    -1837    -1745 
   -1636    -1516    -1406    -1305    -1205    -1127    -1086    -1078 
   -1101    -1169    -1260    -1366    -1505    -1665    -1826    -2008 
   -2219    -2428    -2643    -2855    -3038    -3207    -3373    -3518 
   -3642    -3757    -3871    -3997    -4124    -4237    -4347    -4433 
   -4479    -4503    -4514    -4498    -4471    -4430    -4352    -4241 
   -4116    -3981    -3856    -3757    -3662    -3591    -3558    -3530 
   -3483    -3406    -3267    -3069    -2843    -2574    -2288    -2056 
   -1895    -1798    -1780    -1841    -1968    -2139    -2319    -2498 
   -2682    -2866    -3049    -3234    -3418    -3596    -3744    -3842 
   -3909    -3959    -3974    -3970    -3979    -3987    -3974    -3954 
   -3933    -3889    -3808    -3673    -3458    -3180    -2863    -2504 
   -2145    -1836    -1574    -1389    -1282    -1210    -1174    -1148 
   -1086     -999     -881     -726     -568     -429     -313     -236 
    -201     -207     -261     -355     -491     -669     -873    -1098 
   -1333    -1570    -1803    -2019    -2197    -2336    -2438    -2511 
   -2573    -2627    -2686    -2781    -2887    -2980    -3064    -3127 
   -3156    -3168    -3153    -3107    -3056    -3005    -2965    -2968 
   -3014    -3098    -3221    -3353    -3461    -3543    -3592    -3604 
   -3595    -3558    -3496    -3450    -3424    -3403    -3404    -3414 
   -3396    -3364    -3312    -3223    -3119    -3003    -2849    -2658 
   -2440    -2204    -1961    -1717    -1472    -1252    -1086     -973 
    -907     -888     -903     -936     -965     -976     -957     -896 
    -811     -711     -592     -491     -413     -353     -348     -382 
    -436     -521     -618     -723     -851     -984    -1128    -1308 
   -1512    -1741    -1998    -2266    -2538    -2797    -3033    -3256 
   -3464    -3655    -3840    -4027    -4216    -4410    -4595    -4772 
   -4943    -5085    -5204    -5321    -5429    -5536    -5661    -5787 
   -5911    -6031    -6107    -6124    -6093    -5998    -5836    -5628 
   -5368    -5089    -4841    -4627    -4437    -4274    -4121    -3946 
   -3731    -3470    -3154    -2803    -2463    -2139    -1850    -1626 
   -1458    -1344    -1294    -1279    -1300    -1363    -1466    -1621 
   -1856    -2160    -2513    -2902    -3300    -3670    -3986    -4240 
   -4421    -4521    -4563    -4545    -4463    -4341    -4186    -3981 
   -3727    -3414    -3037    -2604    -2119    -1609    -1105     -631 
    -193      194      514      781     1000     1166     1309     1440 
    1540     1618     1672     1679     1636     1529     1364     1167 
     935      687      459      251       62     -103     -272     -449 
    -646     -884    -1167    -1490    -1849    -2235    -2624    -3001 
   -3364    -3705    -4016    -4295    -4526    -4719    -4872    -4958 
   -4978    -4941    -4842    -4698    -4510    -4290    -4066    -3846 
   -3628    -3430    -3261    -3115    -2995    -2907    -2848    -2810 
   -2791    -2775    -2756    -2735    -2701    -2658    -2617    -2585 
   -2562    -2569    -2617    -2700    -2813    -2948    -3083    -3204 
   -3295    -3352    -3380    -3379    -3357    -3335    -3321    -3314 
   -3314    -3316    -3326    -3329    -3304    -3272    -3248    -3204 
   -3118    -3005    -2872    -2712    -2517    -2299    -2070    -1842 
   -1632    -1468    -1375    -1362    -1451    -1637    -1896    -2211 
   -2548    -2891    -3230    -3538    -3816    -4081    -4313    -4515 
   -4691    -4812    -4877    -4887    -4827    -4723    -4577    -4379 
   -4162    -3951    -3726    -3483    -3241    -2990    -2709    -2404 
   -2081    -1750    -1433    -1152     -926     -774     -692     -675 
    -731     -834     -947    -1080    -1209    -1313    -1402    -1471 
   -1518    -1582    -1686    -1838    -2043    -2301    -2594    -2902 
   -3206    -3496    -3754    -3969    -4132    -4244    -4322    -4384 
   -4449    -4523    -4594    -4657    -4715    -4754    -4753    -4718 
   -4656    -4561    -4446    -4315    -4171    -4009    -3813    -3573 
   -3299    -2986    -2639    -2290    -1965    -1659    -1381    -1139 
    -934     -768     -639     -540     -467     -407     -356     -344 
    -369     -429     -540     -689     -837     -965    -1071    -1132 
   -1146    -1124    -1074    -1021     -989     -986    -1019    -1088 
   -1186    -1293    -1378    -1435    -1463    -1460    -1444    -1432 
   -1425    -1433    -1467    -1537    -1644    -1780    -1953    -2166 
   -2412    -2685    -2972    -3254    -3500    -3677    -3774    -3774 
   -3665    -3458    -3165    -2817    -2458    -2111    -1811    -1591 
   -1436    -1360    -1383    -1480    -1625    -1802    -1989    -2157 
   -2280    -2351    -2380    -2380    -2358    -2343    -2367    -2423 
   -2493    -2589    -2689    -2748    -2767    -2733    -2631    -2494 
   -2344    -2174    -2025    -1908    -1806    -1737    -1715    -1729 
   -1771    -1853    -1964    -2076    -2192    -2328    -2475    -2610 
   -2733    -2863    -2999    -3127    -3253    -3392    -3530    -3658 
   -3775    -3865    -3917    -3943    -3942    -3923    -3904    -3894 
   -3923    -4016    -4187    -4432    -4750    -5148    -5601    -6068 
   -6548    -6999    -7381    -7693    -7908    -8001    -7978    -7840 
   -7603    -7294    -6929    -6536    -6129    -5705    -5262    -4792 
   -4306    -3820    -3315    -2812    -2340    -1880    -1447    -1071 
    -722     -415     -163       78      297      463      591      673 
     691      652      554      380      140     -141     -469     -835 
   -1198    -1549    -1877    -2150    -2378    -2574    -2720    -2835 
   -2940    -3026    -3102    -3188    -3283    -3381    -3485    -3584 
   -3645    -3654    -3615    -3519    -3354    -3121    -2832    -2504 
   -2151    -1784    -1404    -1020     -657     -317       -8      238 
     418      537      594      598      580      538      464      372 
     270      143       -6     -162     -315     -457     -577     -673 
    -746     -787     -799     -805     -811     -837     -900    -1007 
   -1161    -1335    -1495    -1653    -1799    -1908    -1996    -2077 
   -2157    -2251    -2389    -2567    -2783    -3057    -3384    -3721 
   -4059    -4384    -4666    -4904    -5101    -5231    -5296    -5333 
   -5332    -5271    -5196    -5117    -5022    -4922    -4823    -4725 
   -4637    -4550    -4464    -4382    -4302    -4255    -4266    -4326 
   -4436    -4608    -4831    -5078    -5339    -5579    -5787    -5962 
   -6089    -6164    -6204    -6210    -6177    -6115    -6035    -5952 
   -5859    -5752    -5649    -5551    -5433    -5301    -5162    -5012 
   -4839    -4658    -4479    -4283    -4079    -3873    -3663    -3462 
   -3267    -3064    -2845    -2609    -2366    -2110    -1833    -1544 
   -1250     -955     -679     -418     -171       52      257      453 
     637      811      972     1124     1275     1428     1587     1748 
    1888     2004     2093     2133     2116     2050     1929     1764 
    1567     1340     1100      843      573      292      -17     -365 
    -731    -1102    -1476    -1848    -2193    -2509    -2810    -3071 
   -3285    -3488    -3662    -3785    -3878    -3931    -3936    -3905 
   -3820    -3678    -3500    -3280    -3028    -2766    -2508    -2272 
   -2064    -1875    -1709    -1571    -1441    -1327    -1248    -1202 
   -1188    -1217    -1300    -1425    -1591    -1803    -2039    -2293 
   -2579    -2870    -3148    -3430    -3704    -3948    -4179    -4403 
   -4590    -4739    -4869    -4961    -5013    -5038    -5031    -4997 
   -4946    -4870    -4776    -4683    -4595    -4514    -4446    -4390 
   -4328    -4259    -4171    -4051    -3900    -3711    -3493    -3261 
   -3022    -2814    -2654    -2520    -2424    -2373    -2347    -2349 
   -2361    -2370    -2397    -2427    -2431    -2435    -2444    -2439 
   -2440    -2447    -2455    -2486    -2521    -2542    -2562    -2566 
   -2524    -2455    -2378    -2295    -2203    -2119    -2052    -2014 
   -2003    -2026    -2073    -2123    -2185    -2270    -2336    -2386 
   -2450    -2505    -2539    -2575    -2619    -2656    -2690    -2710 
   -2712    -2697    -2660    -2604    -2533    -2451    -2374    -2307 
   -2253    -2223    -2214    -2212    -2224    -2247    -2265    -2266 
   -2253    -2226    -2180    -2119    -2054    -1985    -1921    -1856 
   -1799    -1753    -1715    -1690    -1674    -1667    -1674    -1683 
   -1683    -1676    -1663    -1634    -1590    -1528    -1466    -1418 
   -1387    -1391    -1447    -1544    -1668    -1799    -1937    -2073 
   -2199    -2313    -2413    -2500    -2587    -2679    -2791    -2937 
   -3110    -3307    -3545    -3804    -4043    -4264    -4460    -4594 
   -4669    -4691    -4634    -4506    -4336    -4122    -3882    -3645 
   -3415    -3213    -3060    -2952    -2895    -2890    -2898    -2916 
   -2938    -2940    -2917    -2887    -2841    -2794    -2758    -2728 
   -2717    -2721    -2727    -2751    -2794    -2832    -2864    -2901 
   -2947    -2990    -3014    -3036    -3059    -3068    -3069    -3067 
   -3056    -3033    -2999    -2964    -2926    -2871    -2802    -2733 
   -2637    -2513    -2388    -2250    -2083    -1907    -1726    -1520 
   -1327    -1170    -1027     -908     -839     -816     -838     -905 
   -1009    -1156    -1347    -1552    -1772    -2014    -2251    -2479 
   -2682    -2847    -2983    -3069    -3096    -3105    -3091    -3046 
   -3001    -2959    -2928    -2920    -2901    -2876    -2876    -2876 
   -2876    -2905    -2945    -2992    -3060    -3133    -3199    -3254 
   -3271    -3240    -3165    -3021    -2817    -2570    -2288    -1999 
   -1713    -1441    -1216    -1038     -909     -828     -777     -766 
    -789     -810     -823     -835     -826     -800     -780     -770 
    -795     -872    -1007    -1196    -1435    -1701    -1972    -2246 
   -2498    -2706    -2878    -3025    -3140    -3238    -3342    -3449 
   -3576    -3721    -3867    -4023    -4168    -4286    -4386    -4472 
   -4552    -4626    -4672    -4706    -4745    -4756    -4737    -4708 
   -4662    -4595    -4511    -4410    -4303    -4191    -4074    -3960 
   -3836    -3716    -3612    -3500    -3400    -3316    -3221    -3137 
   -3079    -3001    -2914    -2829    -2705    -2547    -2384    -2193 
   -1988    -1811    -1656    -1516    -1414    -1354    -1321    -1313 
   -1329    -1377    -1440    -1499    -1563    -1641    -1713    -1782 
   -1860    -1939    -2023    -2122    -2223    -2312    -2382    -2436 
   -2465    -2466    -2466    -2455    -2427    -2421    -2425    -2417 
   -2440    -2488    -2531    -2597    -2677    -2733    -2793    -2852 
   -2870    -2859    -2836    -2774    -2685    -2600    -2513    -2439 
   -2393    -2361    -2330    -2303    -2270    -2219    -2147    -2054 
   -1934    -1799    -1651    -1480    -1309    -1123     -927     -765 
    -627     -504     -433     -403     -403     -449     -542     -669 
    -819     -990    -1186    -1393    -1590    -1786    -1993    -2195 
