Origin Time       2025/01/13 21:19:00
Lat.              31.8
Long.             131.6
Depth. (km)       30
Mag.              6.9
Station Code      FKO007
Station Lat.      33.5614
Station Long.     130.2024
Station Height(m) 6
Record Time       2025/01/13 21:20:54
Sampling Freq(Hz) 100Hz
Duration Time(s)  60
Dir.              E-W
Scale Factor      7845(gal)/8223790
Max. Acc. (gal)   2.597
Last Correction   2025/01/13 21:20:54
Memo.             
   -3449    -3300    -3200    -3138    -3090    -3038    -3024    -3045 
   -3059    -3059    -3046    -3051    -3105    -3188    -3319    -3497 
   -3676    -3867    -4070    -4241    -4396    -4540    -4666    -4770 
   -4808    -4780    -4756    -4747    -4729    -4711    -4700    -4681 
   -4656    -4615    -4557    -4480    -4371    -4240    -4101    -3948 
   -3786    -3630    -3500    -3408    -3338    -3279    -3245    -3248 
   -3267    -3275    -3275    -3281    -3310    -3369    -3447    -3537 
   -3643    -3759    -3898    -4059    -4213    -4347    -4460    -4560 
   -4639    -4685    -4716    -4754    -4787    -4807    -4816    -4822 
   -4822    -4814    -4807    -4793    -4772    -4773    -4791    -4811 
   -4850    -4897    -4951    -5020    -5092    -5157    -5197    -5200 
   -5179    -5136    -5084    -5031    -4951    -4849    -4741    -4627 
   -4510    -4390    -4283    -4207    -4141    -4077    -4027    -3989 
   -3960    -3928    -3904    -3902    -3902    -3909    -3958    -4033 
   -4109    -4186    -4257    -4303    -4324    -4306    -4236    -4122 
   -3982    -3825    -3676    -3545    -3422    -3307    -3204    -3132 
   -3099    -3105    -3149    -3229    -3334    -3461    -3600    -3751 
   -3897    -4017    -4124    -4217    -4284    -4326    -4357    -4380 
   -4390    -4388    -4379    -4361    -4344    -4337    -4352    -4387 
   -4418    -4432    -4430    -4413    -4401    -4390    -4352    -4291 
   -4214    -4106    -3970    -3824    -3680    -3532    -3381    -3237 
   -3091    -2947    -2825    -2728    -2656    -2619    -2610    -2640 
   -2713    -2813    -2949    -3113    -3277    -3450    -3623    -3794 
   -3971    -4136    -4288    -4432    -4542    -4629    -4698    -4737 
   -4747    -4735    -4695    -4630    -4545    -4459    -4378    -4295 
   -4220    -4155    -4097    -4044    -3989    -3920    -3842    -3767 
   -3709    -3661    -3611    -3551    -3489    -3438    -3404    -3396 
   -3408    -3431    -3476    -3537    -3596    -3645    -3688    -3738 
   -3785    -3821    -3859    -3916    -3997    -4108    -4236    -4372 
   -4511    -4644    -4762    -4861    -4931    -4969    -4969    -4934 
   -4876    -4796    -4711    -4650    -4596    -4526    -4460    -4409 
   -4347    -4271    -4202    -4125    -4047    -3985    -3944    -3929 
   -3932    -3948    -3971    -3990    -4009    -4020    -3998    -3962 
   -3925    -3885    -3838    -3782    -3740    -3727    -3713    -3699 
   -3694    -3686    -3676    -3677    -3697    -3736    -3789    -3858 
   -3946    -4047    -4153    -4259    -4348    -4432    -4519    -4610 
   -4702    -4791    -4888    -4997    -5097    -5181    -5256    -5302 
   -5298    -5244    -5143    -5000    -4834    -4660    -4488    -4322 
   -4155    -4013    -3919    -3866    -3858    -3888    -3939    -4005 
   -4074    -4136    -4198    -4264    -4325    -4376    -4413    -4446 
   -4483    -4507    -4500    -4456    -4387    -4305    -4206    -4105 
   -4023    -3963    -3935    -3939    -3971    -4037    -4129    -4229 
   -4329    -4429    -4531    -4621    -4680    -4707    -4702    -4658 
   -4568    -4442    -4295    -4135    -3960    -3778    -3612    -3476 
   -3365    -3283    -3242    -3233    -3246    -3287    -3361    -3470 
   -3619    -3793    -3986    -4197    -4409    -4604    -4773    -4904 
   -4989    -5039    -5058    -5032    -4962    -4850    -4698    -4513 
   -4295    -4063    -3839    -3634    -3457    -3327    -3258    -3241 
   -3277    -3365    -3487    -3619    -3735    -3827    -3904    -3954 
   -3978    -3978    -3944    -3888    -3820    -3748    -3684    -3634 
   -3601    -3586    -3589    -3612    -3659    -3721    -3812    -3933 
   -4063    -4194    -4332    -4461    -4573    -4671    -4752    -4815 
   -4855    -4878    -4892    -4874    -4826    -4757    -4662    -4538 
   -4398    -4255    -4126    -4013    -3919    -3856    -3831    -3836 
   -3875    -3937    -4013    -4090    -4160    -4229    -4306    -4387 
   -4460    -4519    -4572    -4627    -4684    -4730    -4762    -4779 
   -4779    -4768    -4741    -4700    -4661    -4622    -4572    -4506 
   -4417    -4314    -4218    -4117    -4020    -3944    -3893    -3867 
   -3875    -3910    -3969    -4043    -4135    -4255    -4386    -4511 
   -4626    -4725    -4789    -4819    -4823    -4800    -4741    -4638 
   -4507    -4369    -4228    -4086    -3943    -3794    -3640    -3487 
   -3333    -3188    -3063    -2964    -2899    -2859    -2847    -2868 
   -2911    -2970    -3046    -3142    -3253    -3376    -3505    -3630 
   -3738    -3838    -3939    -4040    -4149    -4263    -4361    -4441 
   -4498    -4533    -4558    -4585    -4622    -4675    -4727    -4772 
   -4814    -4847    -4873    -4887    -4881    -4865    -4841    -4795 
   -4727    -4645    -4567    -4502    -4442    -4384    -4337    -4298 
   -4266    -4251    -4257    -4279    -4306    -4332    -4361    -4391 
   -4411    -4423    -4436    -4461    -4510    -4581    -4668    -4760 
   -4846    -4928    -5008    -5071    -5116    -5143    -5147    -5130 
   -5090    -5026    -4934    -4822    -4692    -4552    -4405    -4257 
   -4110    -3967    -3828    -3694    -3554    -3404    -3252    -3114 
   -3001    -2921    -2874    -2856    -2868    -2918    -3003    -3118 
   -3256    -3415    -3580    -3740    -3886    -3996    -4064    -4090 
   -4072    -4025    -3955    -3866    -3766    -3666    -3566    -3470 
   -3379    -3298    -3249    -3235    -3253    -3299    -3373    -3470 
   -3580    -3699    -3832    -3970    -4105    -4236    -4355    -4460 
   -4544    -4602    -4627    -4617    -4575    -4518    -4444    -4363 
   -4294    -4244    -4217    -4220    -4245    -4284    -4333    -4376 
   -4413    -4437    -4442    -4434    -4403    -4344    -4270    -4179 
   -4077    -3982    -3898    -3823    -3755    -3697    -3642    -3584 
   -3519    -3453    -3389    -3327    -3269    -3225    -3196    -3181 
   -3173    -3165    -3150    -3134    -3136    -3168    -3225    -3308 
   -3424    -3565    -3728    -3910    -4102    -4302    -4500    -4684 
   -4842    -4974    -5077    -5154    -5211    -5242    -5247    -5233 
   -5212    -5190    -5174    -5173    -5185    -5206    -5238    -5260 
   -5263    -5258    -5236    -5194    -5143    -5078    -4993    -4889 
   -4760    -4610    -4449    -4274    -4098    -3940    -3797    -3674 
   -3573    -3491    -3426    -3376    -3346    -3345    -3366    -3400 
   -3442    -3492    -3543    -3591    -3634    -3678    -3717    -3747 
   -3767    -3770    -3746    -3696    -3615    -3507    -3388    -3264 
   -3142    -3042    -2971    -2918    -2891    -2898    -2943    -3017 
   -3123    -3267    -3431    -3600    -3780    -3967    -4147    -4318 
   -4482    -4629    -4753    -4839    -4893    -4931    -4950    -4939 
   -4905    -4866    -4828    -4789    -4762    -4765    -4781    -4801 
   -4833    -4864    -4888    -4896    -4882    -4861    -4820    -4753 
   -4671    -4583    -4488    -4386    -4275    -4163    -4051    -3931 
   -3808    -3689    -3573    -3466    -3383    -3329    -3314    -3337 
   -3395    -3489    -3609    -3748    -3898    -4033    -4145    -4239 
   -4310    -4365    -4409    -4441    -4464    -4464    -4440    -4401 
   -4347    -4291    -4243    -4187    -4137    -4101    -4054    -3994 
   -3933    -3871    -3805    -3736    -3670    -3618    -3564    -3500 
   -3443    -3395    -3356    -3334    -3322    -3316    -3327    -3348 
   -3381    -3441    -3534    -3657    -3808    -3983    -4172    -4365 
   -4552    -4730    -4893    -5043    -5178    -5296    -5394    -5478 
   -5539    -5580    -5606    -5614    -5611    -5598    -5566    -5525 
   -5475    -5406    -5317    -5202    -5058    -4887    -4684    -4460 
   -4229    -3994    -3763    -3535    -3319    -3117    -2924    -2756 
   -2620    -2515    -2447    -2421    -2436    -2493    -2585    -2701 
   -2848    -3028    -3227    -3437    -3651    -3863    -4062    -4232 
   -4367    -4480    -4572    -4637    -4681    -4703    -4698    -4677 
   -4642    -4591    -4530    -4455    -4359    -4241    -4099    -3940 
   -3770    -3601    -3439    -3284    -3142    -3021    -2924    -2856 
   -2825    -2830    -2872    -2949    -3055    -3180    -3318    -3460 
   -3604    -3746    -3889    -4043    -4203    -4367    -4544    -4719 
   -4885    -5047    -5194    -5317    -5406    -5449    -5441    -5398 
   -5332    -5254    -5170    -5090    -5023    -4968    -4924    -4897 
   -4884    -4882    -4887    -4884    -4865    -4819    -4746    -4652 
   -4537    -4414    -4294    -4175    -4063    -3959    -3866    -3790 
   -3736    -3700    -3674    -3655    -3640    -3628    -3620    -3618 
   -3626    -3650    -3690    -3743    -3801    -3852    -3896    -3927 
   -3954    -3978    -3998    -4017    -4032    -4040    -4050    -4060 
   -4072    -4085    -4089    -4085    -4077    -4062    -4040    -4010 
   -3967    -3916    -3847    -3758    -3657    -3545    -3438    -3352 
   -3287    -3244    -3230    -3237    -3264    -3311    -3375    -3454 
   -3546    -3649    -3762    -3875    -3986    -4089    -4170    -4233 
   -4276    -4299    -4306    -4293    -4264    -4232    -4197    -4155 
   -4109    -4051    -3990    -3940    -3893    -3848    -3817    -3788 
   -3765    -3762    -3767    -3774    -3790    -3816    -3847    -3881 
   -3915    -3955    -3997    -4044    -4109    -4190    -4278    -4371 
   -4461    -4557    -4658    -4753    -4861    -4992    -5142    -5304 
   -5476    -5645    -5800    -5934    -6035    -6097    -6120    -6111 
   -6077    -6016    -5940    -5859    -5779    -5703    -5628    -5556 
   -5501    -5458    -5414    -5368    -5312    -5231    -5124    -4990 
   -4837    -4676    -4514    -4364    -4225    -4095    -3975    -3859 
   -3742    -3630    -3527    -3430    -3341    -3265    -3210    -3173 
   -3153    -3145    -3138    -3127    -3125    -3134    -3149    -3177 
   -3215    -3250    -3284    -3310    -3326    -3331    -3325    -3312 
   -3307    -3319    -3357    -3423    -3527    -3669    -3827    -3996 
   -4166    -4314    -4436    -4534    -4604    -4646    -4664    -4652 
   -4617    -4558    -4472    -4372    -4267    -4139    -3990    -3823 
   -3627    -3407    -3167    -2916    -2681    -2473    -2305    -2191 
   -2126    -2112    -2157    -2253    -2394    -2567    -2760    -2967 
   -3172    -3368    -3555    -3727    -3879    -4025    -4153    -4256 
   -4330    -4369    -4379    -4369    -4332    -4261    -4174    -4079 
   -3982    -3888    -3797    -3708    -3622    -3545    -3470    -3395 
   -3326    -3265    -3206    -3157    -3142    -3165    -3227    -3338 
   -3492    -3688    -3915    -4163    -4430    -4706    -4980    -5255 
   -5528    -5786    -6031    -6257    -6447    -6598    -6714    -6797 
   -6832    -6805    -6710    -6548    -6330    -6065    -5757    -5427 
   -5092    -4760    -4436    -4124    -3815    -3526    -3273    -3051 
   -2864    -2717    -2612    -2552    -2551    -2617    -2747    -2928 
   -3163    -3450    -3758    -4064    -4353    -4607    -4815    -4980 
   -5097    -5163    -5177    -5144    -5093    -5032    -4965    -4896 
   -4835    -4791    -4760    -4725    -4688    -4644    -4581    -4504 
   -4419    -4333    -4251    -4162    -4058    -3944    -3827    -3704 
   -3577    -3445    -3315    -3195    -3083    -2983    -2903    -2848 
   -2817    -2809    -2837    -2913    -3026    -3183    -3379    -3597 
   -3821    -4037    -4232    -4398    -4530    -4626    -4696    -4735 
   -4752    -4757    -4738    -4689    -4627    -4554    -4461    -4367 
   -4278    -4193    -4125    -4070    -4021    -3983    -3959    -3948 
   -3951    -3966    -3998    -4043    -4089    -4124    -4141    -4144 
   -4135    -4109    -4078    -4051    -4028    -4024    -4045    -4082 
   -4132    -4198    -4274    -4353    -4434    -4514    -4588    -4637 
   -4658    -4660    -4639    -4599    -4538    -4463    -4379    -4276 
   -4158    -4027    -3865    -3674    -3472    -3262    -3055    -2870 
   -2722    -2621    -2562    -2551    -2600    -2693    -2825    -3007 
   -3233    -3485    -3748    -4006    -4253    -4476    -4660    -4806 
   -4920    -5003    -5061    -5097    -5109    -5103    -5071    -5005 
   -4903    -4764    -4600    -4417    -4220    -4021    -3834    -3650 
   -3472    -3312    -3183    -3091    -3036    -3007    -3007    -3034 
   -3091    -3172    -3280    -3418    -3576    -3742    -3913    -4087 
   -4257    -4425    -4592    -4758    -4928    -5094    -5248    -5389 
   -5514    -5620    -5710    -5782    -5836    -5871    -5880    -5864 
   -5821    -5749    -5656    -5551    -5431    -5287    -5131    -4980 
   -4834    -4683    -4550    -4440    -4328    -4221    -4126    -4035 
   -3959    -3900    -3851    -3827    -3828    -3834    -3838    -3843 
   -3848    -3850    -3839    -3817    -3793    -3754    -3696    -3627 
   -3546    -3453    -3345    -3222    -3099    -2978    -2857    -2751 
   -2656    -2574    -2508    -2450    -2403    -2370    -2350    -2351 
   -2381    -2425    -2492    -2585    -2704    -2847    -3013    -3196 
   -3399    -3609    -3820    -4039    -4255    -4459    -4650    -4822 
   -4962    -5055    -5089    -5081    -5036    -4959    -4868    -4770 
   -4673    -4577    -4483    -4388    -4290    -4185    -4077    -3973 
   -3863    -3750    -3642    -3542    -3458    -3389    -3346    -3342 
   -3370    -3426    -3504    -3593    -3680    -3763    -3835    -3890 
   -3936    -3978    -4013    -4036    -4055    -4074    -4082    -4089 
   -4110    -4135    -4164    -4210    -4270    -4344    -4432    -4522 
   -4627    -4757    -4889    -5017    -5146    -5251    -5320    -5356 
   -5360    -5319    -5232    -5116    -4976    -4815    -4645    -4477 
   -4325    -4193    -4068    -3952    -3859    -3785    -3724    -3685 
   -3682    -3719    -3788    -3879    -3985    -4089    -4185    -4267 
   -4328    -4356    -4349    -4313    -4259    -4193    -4120    -4059 
   -4012    -3975    -3956    -3952    -3960    -3982    -4014    -4040 
   -4060    -4085    -4112    -4140    -4176    -4220    -4270    -4328 
   -4390    -4452    -4510    -4560    -4595    -4618    -4637    -4644 
   -4629    -4595    -4544    -4476    -4395    -4305    -4220    -4148 
   -4081    -4021    -3971    -3916    -3866    -3825    -3788    -3762 
   -3753    -3755    -3766    -3769    -3763    -3755    -3735    -3703 
   -3667    -3627    -3580    -3526    -3462    -3404    -3362    -3337 
   -3339    -3373    -3424    -3491    -3569    -3654    -3738    -3807 
   -3862    -3910    -3944    -3966    -3979    -3975    -3955    -3933 
   -3921    -3923    -3950    -4008    -4097    -4199    -4303    -4403 
   -4494    -4568    -4619    -4645    -4646    -4629    -4599    -4568 
   -4545    -4530    -4523    -4521    -4506    -4473    -4428    -4369 
   -4293    -4195    -4093    -3990    -3881    -3773    -3672    -3572 
   -3477    -3389    -3319    -3260    -3192    -3119    -3052    -2979 
   -2910    -2845    -2782    -2731    -2698    -2682    -2694    -2741 
   -2818    -2920    -3046    -3200    -3375    -3559    -3750    -3948 
   -4152    -4357    -4567    -4776    -4977    -5155    -5312    -5451 
   -5563    -5640    -5694    -5733    -5749    -5738    -5715    -5694 
   -5679    -5664    -5644    -5617    -5575    -5513    -5425    -5316 
   -5196    -5057    -4903    -4756    -4610    -4459    -4306    -4160 
   -4033    -3927    -3834    -3762    -3708    -3663    -3624    -3593 
   -3577    -3582    -3600    -3631    -3681    -3734    -3780    -3824 
   -3865    -3897    -3917    -3928    -3932    -3939    -3948    -3967 
   -3994    -4025    -4067    -4114    -4160    -4210    -4263    -4317 
   -4371    -4414    -4455    -4492    -4513    -4523    -4523    -4509 
   -4490    -4459    -4419    -4383    -4332    -4256    -4170    -4072 
   -3963    -3847    -3728    -3615    -3508    -3406    -3308    -3221 
   -3148    -3095    -3057    -3036    -3036    -3057    -3103    -3164 
   -3234    -3325    -3434    -3546    -3665    -3784    -3881    -3966 
   -4050    -4121    -4183    -4239    -4286    -4320    -4333    -4332 
   -4320    -4295    -4271    -4251    -4228    -4207    -4193    -4186 
   -4186    -4190    -4201    -4225    -4259    -4299    -4348    -4405 
   -4461    -4518    -4572    -4622    -4661    -4688    -4714    -4735 
   -4752    -4768    -4777    -4770    -4760    -4742    -4718    -4693 
   -4671    -4657    -4650    -4631    -4606    -4575    -4529    -4463 
   -4380    -4293    -4201    -4110    -4035    -3979    -3931    -3896 
   -3885    -3892    -3913    -3954    -4017    -4109    -4229    -4379 
   -4561    -4760    -4963    -5165    -5344    -5489    -5594    -5649 
   -5663    -5636    -5564    -5464    -5350    -5221    -5085    -4950 
   -4807    -4653    -4486    -4306    -4121    -3917    -3700    -3470 
   -3231    -2999    -2790    -2601    -2444    -2330    -2254    -2215 
   -2214    -2243    -2308    -2403    -2525    -2671    -2828    -2995 
   -3180    -3376    -3578    -3788    -3997    -4202    -4396    -4565 
   -4702    -4803    -4868    -4901    -4904    -4884    -4842    -4783 
   -4715    -4642    -4557    -4469    -4380    -4278    -4162    -4044 
   -3929    -3820    -3723    -3643    -3578    -3522    -3488    -3478 
   -3474    -3466    -3458    -3456    -3450    -3437    -3415    -3389 
   -3366    -3353    -3357    -3370    -3391    -3420    -3458    -3496 
   -3532    -3569    -3608    -3653    -3707    -3765    -3834    -3928 
   -4058    -4206    -4372    -4553    -4739    -4924    -5096    -5242 
   -5368    -5467    -5529    -5562    -5562    -5530    -5481    -5416 
   -5336    -5246    -5154    -5061    -4961    -4839    -4707    -4571 
   -4428    -4279    -4136    -4009    -3901    -3808    -3736    -3689 
   -3653    -3628    -3620    -3624    -3632    -3634    -3634    -3643 
   -3655    -3663    -3689    -3735    -3789    -3862    -3954    -4056 
   -4164    -4264    -4353    -4440    -4510    -4558    -4599    -4630 
   -4649    -4662    -4680    -4707    -4737    -4761    -4781    -4788 
   -4777    -4747    -4706    -4657    -4595    -4527    -4463    -4401 
   -4344    -4287    -4237    -4199    -4167    -4128    -4089    -4054 
   -4008    -3950    -3890    -3832    -3770    -3708    -3646    -3589 
   -3545    -3512    -3493    -3489    -3495    -3511    -3535    -3562 
   -3584    -3596    -3601    -3601    -3581    -3545    -3505    -3464 
   -3422    -3383    -3354    -3342    -3341    -3360    -3407    -3466 
   -3534    -3612    -3697    -3786    -3867    -3936    -4001    -4055 
   -4098    -4135    -4166    -4202    -4244    -4284    -4318    -4340 
   -4348    -4336    -4298    -4241    -4172    -4091    -4012    -3948 
   -3900    -3861    -3840    -3835    -3827    -3813    -3800    -3784 
   -3761    -3730    -3693    -3665    -3643    -3626    -3619    -3626 
   -3649    -3684    -3732    -3800    -3879    -3960    -4045    -4135 
   -4234    -4347    -4468    -4603    -4752    -4909    -5073    -5231 
   -5375    -5506    -5609    -5672    -5702    -5698    -5656    -5586 
   -5489    -5366    -5224    -5061    -4881    -4698    -4503    -4301 
   -4102    -3916    -3753    -3615    -3504    -3427    -3384    -3368 
   -3381    -3422    -3491    -3585    -3693    -3808    -3928    -4055 
