Origin Time       2025/01/13 21:19:00
Lat.              31.8
Long.             131.6
Depth. (km)       30
Mag.              6.9
Station Code      FKO013
Station Lat.      33.2254
Station Long.     130.5608
Station Height(m) 32
Record Time       2025/01/13 21:20:04
Sampling Freq(Hz) 100Hz
Duration Time(s)  111
Dir.              E-W
Scale Factor      7845(gal)/8223790
Max. Acc. (gal)   6.653
Last Correction   2025/01/13 21:20:04
Memo.             
[...]
   -2697    -2466    -2153    -1826    -1536    -1291    -1112    -1004 
    -957     -936     -886     -770     -577     -276      120      518 
     831     1001     1007      904      783      700      680      693 
     685      631      534      425      334      286      275      275 
     260      206       93      -64     -261     -502     -757    -1007 
   -1260    -1502    -1742    -2018    -2309    -2579    -2845    -3090 
   -3250    -3298    -3238    -3129    -3041    -2990    -2949    -2906 
   -2833    -2713    -2573    -2407    -2166    -1846    -1437     -919 
    -333      263      846     1363     1767     2054     2207     2207 
    2103     1949     1763     1570     1401     1279     1227     1204 
    1127      957      685      311      -94     -463     -793    -1089 
   -1331    -1502    -1578    -1528    -1356    -1098     -818     -579 
    -433     -421     -554     -830    -1244    -1765    -2323    -2828 
   -3222    -3483    -3588    -3554    -3431    -3277    -3157    -3098 
   -3076    -3055    -2986    -2830    -2596    -2288    -1910    -1517 
   -1170     -858     -552     -259       20      271      442      519 
     508      417      282      155       71       64      140      287 
     506      769     1004     1155     1212     1173     1027      762 
     396      -28     -476     -900    -1248    -1532    -1773    -1919 
   -1935    -1845    -1634    -1324     -981     -635     -344     -164 
     -87     -124     -263     -450     -650     -838     -985    -1109 
   -1242    -1391    -1516    -1578    -1611    -1652    -1690    -1687 
   -1601    -1406    -1092     -683     -237      189      561      843 
     989      981      814      480       16     -496     -977    -1351 
   -1597    -1726    -1736    -1618    -1385    -1057     -658     -240 
     139      468      716      838      851      773      621      481 
     438      456      450      352       89     -341     -874    -1451 
   -1989    -2401    -2636    -2681    -2555    -2328    -2068    -1814 
   -1584    -1399    -1256    -1132     -993     -777     -457      -52 
     413      864     1212     1432     1501     1391     1131      773 
     384       40     -207     -322     -286     -113      151      448 
     716      926     1057     1084     1003      828      576      237 
    -182     -662    -1200    -1786    -2397    -3019    -3615    -4129 
   -4534    -4826    -4993    -5030    -4970    -4808    -4519    -4158 
   -3793    -3445    -3144    -2909    -2712    -2524    -2335    -2165 
   -2011    -1837    -1661    -1532    -1441    -1385    -1363    -1340 
   -1286    -1208    -1097     -938     -747     -553     -379     -252 
    -197     -217     -329     -541     -785    -1001    -1161    -1192 
   -1038     -745     -376       39      419      643      652      464 
     126     -297     -749    -1174    -1536    -1827    -2029    -2112 
   -2100    -2038    -1964    -1914    -1930    -2011    -2100    -2174 
   -2235    -2239    -2151    -1961    -1656    -1242     -780     -359 
     -35      163      216      145       -5     -170     -256     -217 
     -37      291      751     1285     1795     2201     2493     2679 
    2767     2781     2743     2664     2546     2408     2254     2074 
    1877     1659     1437     1255     1111      977      866      784 
     719      665      631      608      592      587      614      685 
     780      866      938      966      920      784      548      222 
    -157     -565     -963    -1333    -1688    -2027    -2320    -2567 
   -2767    -2921    -3072    -3254    -3470    -3743    -4078    -4444 
   -4823    -5182    -5478    -5697    -5825    -5833    -5725    -5547 
   -5337    -5151    -5024    -4934    -4834    -4689    -4477    -4167 
   -3720    -3127    -2430    -1663     -865     -124      488      959 
    1279     1478     1607     1722     1837     1934     2015     2092 
    2155     2214     2269     2281     2231     2118     1937     1691 
    1395     1073      769      513      318      224      260      390 
     540      661      727      708      567      275     -155     -673 
   -1210    -1730    -2191    -2552    -2830    -3033    -3144    -3181 
   -3180    -3148    -3088    -2988    -2821    -2577    -2257    -1864 
   -1404     -897     -383      117      584      953     1170     1237 
    1155      934      626      259     -171     -627    -1043    -1372 
   -1593    -1684    -1668    -1584    -1432    -1221     -972     -693 
    -433     -211        0      195      363      494      562      557 
     491      383      238       44     -201     -479     -766    -1016 
   -1197    -1317    -1351    -1279    -1097     -793     -391       63 
     549     1007     1337     1466     1399     1167      793      356 
     -60     -438     -756     -990    -1185    -1374    -1568    -1782 
   -1993    -2180    -2309    -2334    -2241    -2054    -1814    -1578 
   -1390    -1255    -1189    -1198    -1256    -1344    -1455    -1564 
   -1669    -1761    -1804    -1796    -1748    -1671    -1611    -1607 
   -1664    -1764    -1879    -1964    -1944    -1809    -1622    -1447 
   -1355    -1405    -1580    -1845    -2187    -2554    -2890    -3186 
   -3422    -3558    -3581    -3466    -3206    -2824    -2342    -1799 
   -1256     -768     -388     -114       86      233      373      542 
     723      895     1020     1043      969      831      643      448 
     282      141       56       71      176      355      587      824 
    1026     1181     1277     1309     1279     1162      918      522 
     -45     -792    -1653    -2542    -3400    -4164    -4774    -5262 
   -5647    -5910    -6076    -6126    -5992    -5697    -5296    -4806 
   -4286    -3809    -3385    -3038    -2790    -2586    -2382    -2177 
   -1939    -1655    -1358    -1055     -737     -395        8      499 
    1055     1659     2290     2902     3458     3952     4359     4649 
    4823     4849     4666     4264     3669     2922     2106     1305 
     562      -99     -673    -1175    -1607    -1957    -2219    -2384 
   -2471    -2509    -2504    -2473    -2419    -2342    -2261    -2165 
   -2037    -1885    -1732    -1568    -1379    -1158     -878     -527 
    -132      280      696     1089     1439     1753     2011     2173 
    2254     2281     2234     2101     1899     1598     1209      819 
     468      193       44       27      116      284      487      677 
     808      838      772      633      453      291      174       74 
      -9      -74     -152     -236     -337     -507     -754    -1082 
   -1501    -1979    -2498    -3049    -3574    -4037    -4414    -4679 
   -4839    -4914    -4897    -4830    -4761    -4699    -4673    -4714 
   -4812    -4943    -5076    -5143    -5116    -5020    -4862    -4656 
   -4449    -4252    -4056    -3831    -3519    -3117    -2617    -1984 
   -1243     -453      363     1201     2045     2868     3631     4280 
    4770     5074     5177     5078     4807     4387     3850     3256 
    2659     2110     1645     1266      946      662      396      106 
    -221     -562     -911    -1274    -1661    -2085    -2529    -2951 
   -3314    -3604    -3824    -4014    -4213    -4421    -4603    -4716 
   -4702    -4538    -4236    -3801    -3256    -2650    -2031    -1440 
    -895     -403       35      449      853     1228     1561     1842 
    2030     2077     1950     1641     1175      614       40     -469 
    -845    -1059    -1131    -1088     -969     -818     -660     -525 
    -452     -444     -500     -603     -691     -742     -796     -882 
   -1003    -1138    -1287    -1475    -1695    -1925    -2147    -2347 
   -2497    -2571    -2554    -2438    -2242    -1996    -1706    -1399 
   -1120     -877     -675     -535     -463     -432     -436     -463 
    -481     -511     -556     -576     -599     -649     -676     -669 
    -630     -519     -330      -72      234      535      768      897 
     885      745      548      325       95     -108     -287     -472 
    -672     -895    -1147    -1413    -1672    -1918    -2141    -2313 
   -2438    -2529    -2593    -2633    -2655    -2655    -2635    -2598 
   -2548    -2513    -2513    -2516    -2509    -2477    -2381    -2238 
   -2093    -1931    -1755    -1599    -1448    -1277    -1094     -870 
    -576     -237      126      502      850     1156     1398     1530 
    1537     1429     1200      834      375     -143     -733    -1335 
   -1869    -2336    -2721    -2979    -3141    -3233    -3231    -3150 
   -2974    -2650    -2205    -1682    -1097     -511       16      434 
     681      733      612      368       54     -264     -529     -714 
    -811     -826     -777     -672     -523     -334     -118       71 
     203      253      190       17     -236     -542     -870    -1189 
   -1467    -1682    -1849    -1987    -2120    -2268    -2442    -2671 
   -2983    -3329    -3631    -3819    -3829    -3632    -3268    -2801 
   -2266    -1710    -1208     -784     -438     -166       74      324 
     602      922     1301     1717     2123     2509     2875     3177 
    3393     3520     3545     3468     3319     3098     2812     2517 
    2246     1983     1744     1540     1328     1100      865      626 
     409      237      121       71       51       -5     -133     -329 
    -589     -904    -1232    -1536    -1803    -2023    -2174    -2257 
   -2288    -2261    -2188    -2104    -2014    -1915    -1845    -1841 
   -1911    -2042    -2224    -2430    -2608    -2731    -2776    -2724 
   -2574    -2357    -2112    -1890    -1702    -1512    -1298    -1078 
    -839     -599     -421     -313     -234     -206     -226     -245 
    -257     -276     -311     -383     -504     -669     -862    -1057 
   -1221    -1351    -1444    -1520    -1618    -1760    -1962    -2234 
   -2517    -2768    -2965    -3060    -3046    -2961    -2826    -2678 
   -2569    -2517    -2542    -2670    -2872    -3095    -3299    -3416 
   -3408    -3260    -2948    -2489    -1915    -1302     -747     -298 
      25      216      340      448      567      774     1113     1540 
    2012     2484     2870     3113     3214     3175     3013     2779 
    2524     2288     2096     1969     1933     1996     2146     2346 
    2554     2767     2965     3127     3261     3358     3392     3387 
    3365     3323     3277     3217     3067     2787     2366     1769 
    1005      137     -774    -1667    -2457    -3095    -3586    -3939 
   -4183    -4363    -4503    -4626    -4720    -4764    -4762    -4696 
   -4544    -4307    -3971    -3574    -3219    -2949    -2789    -2755 
   -2802    -2875    -2960    -3036    -3078    -3064    -3003    -2902 
   -2772    -2660    -2596    -2575    -2614    -2737    -2953    -3240 
   -3555    -3854    -4083    -4225    -4287    -4271    -4171    -3987 
   -3730    -3419    -3078    -2736    -2405    -2064    -1675    -1209 
    -662      -44      625     1305     1950     2524     2988     3322 
    3551     3707     3788     3816     3817     3774     3661     3465 
    3188     2847     2459     2035     1591     1162      754      372 
      41     -236     -481     -692     -869    -1036    -1229    -1440 
   -1653    -1880    -2120    -2340    -2523    -2660    -2755    -2814 
   -2864    -2911    -2945    -2959    -2945    -2878    -2744    -2536 
   -2266    -1988    -1722    -1462    -1235    -1044     -849     -654 
    -472     -290     -113       71      301      564      805     1005 
    1148     1210     1201     1148     1038      865      657      426 
     153     -171     -518     -870    -1256    -1648    -2027    -2428 
   -2860    -3303    -3757    -4198    -4588    -4907    -5155    -5343 
   -5471    -5539    -5528    -5433    -5263    -5007    -4673    -4280 
   -3829    -3333    -2828    -2300    -1734    -1162     -591      -24 
     504      997     1475     1917     2281     2573     2805     2979 
    3110     3229     3341     3442     3549     3647     3709     3747 
    3757     3716     3638     3523     3329     3040     2664     2195 
    1645     1057      461     -156     -800    -1432    -2025    -2567 
   -3021    -3339    -3516    -3562    -3491    -3310    -3032    -2700 
   -2370    -2088    -1877    -1752    -1730    -1799    -1900    -2015 
   -2141    -2239    -2300    -2338    -2347    -2338    -2334    -2324 
   -2281    -2191    -2025    -1737    -1316     -781     -164      464 
    1039     1539     1923     2154     2250     2242     2111     1860 
    1513     1088      622      153     -299     -724    -1120    -1486 
   -1826    -2149    -2443    -2690    -2887    -3018    -3065    -3045 
   -2955    -2766    -2497    -2178    -1818    -1467    -1182     -962 
    -811     -747     -760     -843    -1008    -1229    -1474    -1713 
   -1929    -2128    -2303    -2430    -2474    -2397    -2191    -1876 
   -1471    -1021     -567     -121      280      627      935     1189 
    1371     1517     1636     1707     1745     1775     1787     1780 
    1759     1695     1552     1318     1011      639      216     -236 
    -726    -1262    -1817    -2389    -2986    -3573    -4104    -4556 
   -4935    -5217    -5377    -5443    -5417    -5277    -5043    -4722 
   -4326    -3906    -3495    -3105    -2749    -2404    -2027    -1615 
   -1162     -665     -155      361      884     1374     1819     2245 
    2652     3053     3480     3927     4378     4843     5302     5701 
    5999     6146     6114     5927     5616     5196     4710     4182 
    3611     2986     2296     1536      706     -209    -1196    -2196 
   -3160    -4054    -4831    -5448    -5895    -6169    -6269    -6235 
   -6131    -5958    -5702    -5389    -5032    -4645    -4263    -3902 
   -3557    -3244    -2948    -2636    -2295    -1914    -1480    -1020 
    -569     -160      198      519      812     1085     1333     1557 
    1756     1917     2020     2050     2006     1903     1749     1568 
    1387     1237     1158     1150     1204     1321     1455     1583 
    1737     1914     2112     2338     2529     2610     2558     2347 
    1972     1486      947      369     -217     -762    -1247    -1660 
   -1968    -2164    -2299    -2417    -2538    -2694    -2894    -3105 
   -3316    -3519    -3685    -3817    -3929    -4029    -4136    -4275 
   -4455    -4631    -4757    -4830    -4837    -4761    -4650    -4538 
   -4421    -4330    -4274    -4228    -4206    -4210    -4199    -4159 
   -4097    -4014    -3927    -3840    -3750    -3642    -3505    -3362 
   -3227    -3091    -2949    -2812    -2673    -2540    -2424    -2319 
   -2226    -2143    -2057    -1953    -1814    -1611    -1316     -938 
    -518      -98      301      673      994     1248     1435     1553 
    1634     1702     1772     1875     2033     2242     2498     2758 
    2968     3111     3157     3087     2929     2718     2471     2200 
    1911     1601     1258      889      511      144     -214     -549 
    -847    -1121    -1358    -1525    -1632    -1665    -1622    -1533 
   -1395    -1204     -992     -776     -575     -414     -292     -206 
    -152     -120      -86      -32       51      167      303      427 
     515      567      584      572      557      556      569      604 
     642      652      625      557      449      297       93     -164 
    -465     -760    -1013    -1255    -1494    -1714    -1954    -2246 
   -2569    -2934    -3346    -3730    -4040    -4274    -4394    -4387 
   -4294    -4118    -3855    -3550    -3217    -2840    -2452    -2077 
   -1702    -1350    -1020     -666     -299       52      411      765 
    1074     1344     1583     1780     1915     1989     2022     2034 
    2037     2038     2039     2047     2065     2089     2120     2135 
    2101     2008     1861     1675     1463     1213      920      598 
     237     -167     -594    -1017    -1418    -1769    -2079    -2362 
   -2609    -2816    -2992    -3122    -3211    -3294    -3368    -3423 
   -3462    -3484    -3473    -3446    -3408    -3337    -3237    -3129 
   -2997    -2841    -2686    -2511    -2322    -2162    -2031    -1911 
   -1788    -1641    -1472    -1313    -1183    -1097    -1077    -1132 
   -1260    -1441    -1649    -1860    -2031    -2123    -2110    -1991 
   -1792    -1555    -1313    -1107     -974     -920     -907     -893 
    -855     -769     -630     -481     -369     -313     -313     -380 
    -494     -622     -761     -873     -919     -900     -815     -661 
    -469     -261      -59       93      164      166      124       49 
     -48     -156     -271     -399     -556     -743     -954    -1177 
   -1394    -1584    -1733    -1827    -1864    -1814    -1684    -1506 
   -1273    -1013     -760     -517     -328     -222     -202     -280 
    -449     -679     -938    -1183    -1389    -1545    -1632    -1645 
   -1607    -1510    -1321    -1035     -660     -217      271      803 
    1363     1912     2448     2938     3314     3577     3735     3774 
    3728     3651     3569     3492     3429     3369     3296     3194 
    3044     2852     2632     2397     2153     1902     1657     1431 
    1205      965      687      344      -90     -631    -1273    -2003 
   -2791    -3569    -4303    -4982    -5560    -6011    -6336    -6531 
   -6594    -6546    -6400    -6184    -5934    -5672    -5425    -5238 
   -5109    -5032    -5034    -5101    -5162    -5198    -5200    -5117 
   -4955    -4746    -4480    -4171    -3829    -3423    -2928    -2339 
   -1641     -861      -62      734     1495     2177     2766     3264 
    3651     3910     4064     4139     4121     4013     3829     3582 
    3291     2992     2718     2482     2288     2142     2035     1941 
    1846     1752     1633     1480     1297     1078      824      560 
     301       60     -156     -359     -572     -820    -1136    -1533 
   -1989    -2486    -3011    -3519    -3950    -4309    -4599    -4803 
   -4935    -5019    -5051    -5032    -4954    -4814    -4630    -4432 
   -4236    -4050    -3879    -3730    -3588    -3431    -3252    -3040 
   -2785    -2490    -2161    -1819    -1486    -1151     -838     -573 
    -349     -178      -48       63      149      225      301      356 
     394      403      365      294      230      194      180      198 
     259      338      414      494      569      630      670      697 
     712      734      792      891     1016     1173     1348     1517 
    1672     1811     1939     2047     2119     2157     2157     2107 
    2006     1858     1668     1449     1227     1009      803      607 
     409      198       -4     -184     -364     -538     -689     -843 
   -1012    -1182    -1358    -1555    -1763    -1961    -2173    -2409 
   -2636    -2849    -3055    -3226    -3349    -3422    -3429    -3358 
   -3218    -3010    -2735    -2413    -2074    -1730    -1391    -1069 
    -774     -534     -361     -256     -195     -153     -129     -117 
    -106     -118     -176     -290     -442     -610     -787     -980 
   -1174    -1358    -1548    -1750    -1952    -2153    -2358    -2554 
   -2720    -2839    -2898    -2884    -2795    -2637    -2427    -2195 
   -1964    -1740    -1530    -1345    -1152     -911     -648     -390 
    -129      110      314      504      677      816      924     1000 
