Origin Time       2025/01/13 21:19:00
Lat.              31.8
Long.             131.6
Depth. (km)       30
Mag.              6.9
Station Code      FKO016
Station Lat.      33.0159
Station Long.     130.4472
Station Height(m) 22
Record Time       2025/01/13 21:20:07
Sampling Freq(Hz) 100Hz
Duration Time(s)  88
Dir.              E-W
Scale Factor      7845(gal)/8223790
Max. Acc. (gal)   5.168
Last Correction   2025/01/13 21:20:09
Memo.             
[...]
  -11925   -12121   -12303   -12429   -12565   -12738   -12931   -13157 
  -13421   -13667   -13828   -13922   -13965   -13930   -13932   -14104 
  -14323   -14407   -14293   -13944   -13481   -13193   -13178   -13393 
  -13842   -14374   -14716   -14778   -14623   -14338   -14088   -14040 
  -14153   -14234   -14180   -13983   -13660   -13313   -13077   -13020 
  -13080   -13104   -13019   -12858   -12672   -12550   -12576   -12746 
  -13007   -13230   -13338   -13370   -13263   -13042   -12901   -12841 
  -12827   -12906   -12968   -12933   -12839   -12702   -12549   -12397 
  -12278   -12325   -12575   -12901   -13211   -13464   -13558   -13424 
  -13161   -12857   -12530   -12226   -11998   -11878   -11862   -11946 
  -12145   -12413   -12668   -12866   -12968   -12954   -12866   -12777 
  -12731   -12758   -12872   -13030   -13136   -13126   -13038   -12950 
  -12914   -12928   -12926   -12920   -12965   -12957   -12830   -12668 
  -12518   -12460   -12592   -12873   -13196   -13460   -13605   -13652 
  -13624   -13517   -13408   -13386   -13443   -13473   -13390   -13197 
  -12984   -12865   -12860   -12922   -13009   -13076   -13099   -13027 
  -12823   -12567   -12348   -12190   -12101   -12083   -12091   -12089 
  -12063   -11966   -11789   -11581   -11365   -11226   -11253   -11396 
  -11583   -11817   -12051   -12206   -12253   -12137   -11885   -11643 
  -11470   -11350   -11377   -11595   -11889   -12185   -12414   -12495 
  -12478   -12495   -12617   -12854   -13238   -13737   -14243   -14594 
  -14663   -14507   -14268   -13945   -13533   -13180   -12903   -12623 
  -12453   -12463   -12541   -12607   -12660   -12741   -12812   -12822 
  -12835   -12857   -12868   -12919   -12935   -12831   -12676   -12532 
  -12409   -12337   -12320   -12278   -12117   -11900   -11753   -11693 
  -11703   -11776   -11874   -11951   -11967   -11912   -11842   -11820 
  -11820   -11859   -12028   -12226   -12336   -12376   -12334   -12225 
  -12139   -12089   -12106   -12241   -12390   -12429   -12307   -12046 
  -11804   -11681   -11651   -11735   -11923   -12162   -12360   -12407 
  -12341   -12332   -12479   -12780   -13162   -13474   -13578   -13456 
  -13184   -12901   -12750   -12779   -12966   -13240   -13444   -13464 
  -13371   -13266   -13166   -13124   -13209   -13331   -13374   -13371 
  -13358   -13363   -13450   -13595   -13759   -13902   -13957   -13942 
  -13871   -13687   -13401   -13041   -12645   -12341   -12239   -12320 
  -12552   -12873   -13111   -13157   -13042   -12841   -12660   -12603 
  -12634   -12645   -12638   -12646   -12658   -12723   -12893   -13151 
  -13437   -13608   -13552   -13262   -12862   -12544   -12383   -12367 
  -12495   -12704   -12915   -13054   -13115   -13165   -13217   -13239 
  -13244   -13230   -13147   -12958   -12704   -12488   -12383   -12397 
  -12503   -12719   -13035   -13317   -13464   -13454   -13240   -12865 
  -12503   -12299   -12329   -12575   -12914   -13239   -13482   -13532 
  -13392   -13188   -12962   -12753   -12664   -12735   -12964   -13327 
  -13705   -14042   -14404   -14775   -15061   -15253   -15334   -15252 
  -15006   -14585   -14010   -13420   -12895   -12519   -12384   -12374 
  -12386   -12420   -12393   -12287   -12213   -12268   -12514   -12911 
  -13304   -13537   -13513   -13228   -12752   -12152   -11535   -11059 
  -10768   -10616   -10598   -10701   -10810   -10860   -10893   -10878 
  -10790   -10714   -10739   -10876   -11102   -11404   -11746   -12096 
  -12490   -12895   -13193   -13385   -13485   -13406   -13200   -13050 
  -13047   -13223   -13547   -13891   -14169   -14345   -14353   -14231 
  -14125   -14085   -14137   -14310   -14501   -14597   -14571   -14415 
  -14187   -13988   -13833   -13734   -13736   -13853   -14053   -14220 
  -14293   -14299   -14301   -14357   -14408   -14422   -14459   -14469 
  -14409   -14382   -14374   -14326   -14304   -14301   -14241   -14111 
  -13856   -13470   -13042   -12567   -12060   -11624   -11307   -11122 
  -11099   -11172   -11217   -11192   -11121   -11043   -10933   -10751 
  -10574   -10439   -10295   -10134    -9941    -9763    -9707    -9837 
  -10087   -10307   -10439   -10500   -10498   -10477   -10461   -10473 
  -10521   -10597   -10663   -10663   -10655   -10740   -10874   -11018 
  -11184   -11263   -11202   -11133   -11137   -11202   -11354   -11634 
  -11982   -12283   -12467   -12538   -12490   -12359   -12267   -12271 
  -12363   -12503   -12650   -12815   -12954   -13000   -12984   -12962 
  -12938   -12820   -12572   -12283   -12010   -11820   -11820   -12021 
  -12363   -12745   -12965   -12873   -12532   -12056   -11597   -11323 
  -11271   -11438   -11759   -12100   -12399   -12630   -12799   -12968 
  -13135   -13262   -13317   -13288   -13197   -13111   -13063   -13054 
  -13096   -13190   -13288   -13333   -13336   -13393   -13522   -13644 
  -13818   -14134   -14516   -14944   -15427   -15815   -16025   -16162 
  -16195   -16040   -15842   -15661   -15414   -15176   -14994   -14804 
  -14632   -14519   -14450   -14392   -14362   -14355   -14264   -14081 
  -13954   -13964   -14077   -14287   -14590   -14887   -15075   -15117 
  -14962   -14647   -14283   -13894   -13525   -13246   -13053   -12928 
  -12833   -12718   -12614   -12569   -12567   -12588   -12596   -12536 
  -12395   -12163   -11912   -11776   -11726   -11697   -11701   -11666 
  -11495   -11236   -10943   -10658   -10552   -10686   -10876   -11007 
  -11059   -10975   -10782   -10663   -10783   -11144   -11669   -12283 
  -12911   -13474   -13911   -14168   -14238   -14204   -14054   -13774 
  -13505   -13251   -12949   -12712   -12623   -12652   -12739   -12853 
  -12958   -12926   -12731   -12444   -12033   -11635   -11414   -11341 
  -11461   -11832   -12351   -12869   -13321   -13716   -13990   -14084 
  -14072   -13983   -13757   -13436   -13182   -13057   -12965   -12928 
  -13046   -13232   -13354   -13359   -13211   -12853   -12337   -11843 
  -11452   -11155   -11002   -10957   -10933   -10893   -10786   -10709 
  -10828   -11101   -11468   -11917   -12271   -12372   -12266   -12008 
  -11680   -11449   -11395   -11506   -11757   -12060   -12334   -12557 
  -12722   -12831   -12892   -12885   -12835   -12781   -12795   -12923 
  -13084   -13194   -13274   -13269   -13081   -12772   -12422   -12037 
  -11686   -11453   -11371   -11487   -11846   -12437   -13196   -14008 
  -14700   -15098   -15159   -14905   -14358   -13699   -13186   -12904 
  -12876   -13068   -13344   -13659   -13986   -14220   -14327   -14318 
  -14185   -13981   -13811   -13635   -13378   -13154   -13011   -12941 
  -13050   -13304   -13556   -13794   -14035   -14264   -14428   -14482 
  -14415   -14222   -13930   -13559   -13123   -12700   -12390   -12286 
  -12376   -12492   -12472   -12282   -11907   -11353   -10760   -10254 
   -9829    -9529    -9424    -9443    -9514    -9649    -9837   -10068 
  -10309   -10463   -10516   -10516   -10469   -10449   -10508   -10601 
  -10723   -10872   -11043   -11236   -11439   -11672   -11946   -12209 
  -12386   -12413   -12340   -12302   -12344   -12449   -12592   -12704 
  -12685   -12494   -12228   -12070   -12114   -12382   -12842   -13348 
  -13755   -14006   -14096   -14103   -14154   -14377   -14790   -15288 
  -15731   -15998   -16056   -15994   -15819   -15489   -15156   -14931 
  -14793   -14764   -14816   -14879   -14945   -15006   -15072   -15078 
  -14948   -14797   -14674   -14521   -14358   -14184   -14017   -13910 
  -13826   -13732   -13653   -13522   -13265   -12957   -12691   -12441 
  -12214   -12116   -12139   -12202   -12297   -12366   -12359   -12280 
  -12164   -12078   -12006   -11919   -11875   -11900   -11961   -12063 
  -12222   -12436   -12648   -12792   -12887   -12908   -12804   -12613 
  -12345   -12009   -11697   -11487   -11364   -11329   -11434   -11616 
  -11738   -11773   -11720   -11580   -11387   -11253   -11272   -11394 
  -11577   -11816   -12028   -12172   -12253   -12239   -12129   -11959 
  -11774   -11614   -11533   -11612   -11875   -12286   -12768   -13178 
  -13444   -13586   -13597   -13510   -13400   -13344   -13396   -13524 
  -13687   -13887   -14112   -14326   -14463   -14480   -14351   -14065 
  -13694   -13387   -13230   -13263   -13490   -13809   -14126   -14386 
  -14532   -14585   -14643   -14716   -14731   -14715   -14682   -14532 
  -14303   -14157   -14127   -14184   -14347   -14594   -14773   -14752 
  -14544   -14204   -13787   -13338   -12877   -12475   -12194   -12033 
  -11994   -12029   -12077   -12133   -12185   -12197   -12121   -11947 
  -11763   -11592   -11360   -11083   -10885   -10802   -10813   -10930 
  -11086   -11190   -11260   -11345   -11403   -11354   -11281   -11284 
  -11302   -11315   -11369   -11410   -11402   -11383   -11323   -11250 
  -11287   -11376   -11412   -11448   -11430   -11211   -10879   -10628 
  -10508   -10540   -10759   -11110   -11500   -11877   -12251   -12657 
  -13063   -13413   -13716   -13919   -13944   -13819   -13614   -13423 
  -13359   -13400   -13452   -13537   -13676   -13772   -13764   -13690 
  -13548   -13336   -13105   -12865   -12602   -12441   -12499   -12604 
  -12626   -12671   -12731   -12756   -12806   -12858   -12869   -12904 
  -12953   -12951   -12906   -12853   -12865   -13020   -13261   -13487 
  -13682   -13824   -13848   -13760   -13609   -13446   -13378   -13392 
  -13385   -13342   -13216   -12996   -12762   -12537   -12343   -12286 
  -12413   -12577   -12650   -12658   -12577   -12376   -12160   -11985 
  -11874   -11923   -12143   -12467   -12829   -13169   -13467   -13709 
  -13837   -13878   -13905   -13918   -13900   -13876   -13856   -13776 
  -13626   -13501   -13466   -13524   -13653   -13830   -14003   -14129 
  -14196   -14169   -14054   -13934   -13833   -13687   -13437   -13103 
  -12727   -12368   -12109   -11985   -11990   -12083   -12232   -12391 
  -12442   -12367   -12268   -12174   -12089   -12025   -11970   -11988 
  -12148   -12391   -12652   -12896   -13076   -13166   -13134   -12938 
  -12648   -12391   -12244   -12248   -12432   -12695   -12958   -13259 
  -13491   -13508   -13363   -13134   -12873   -12613   -12322   -12058 
  -11882   -11757   -11681   -11692   -11836   -12148   -12545   -12907 
  -13155   -13251   -13209   -13080   -12926   -12860   -13012   -13360 
  -13734   -14088   -14397   -14485   -14335   -14079   -13751   -13396 
  -13047   -12703   -12459   -12357   -12336   -12393   -12509   -12625 
  -12714   -12730   -12644   -12425   -12081   -11735   -11456   -11223 
  -11105   -11173   -11419   -11808   -12271   -12712   -13031   -13171 
  -13174   -13117   -13055   -13024   -12989   -12947   -12964   -12962 
  -12825   -12613   -12402   -12237   -12190   -12221   -12275   -12388 
  -12517   -12640   -12775   -12861   -12918   -12976   -12999   -13018 
  -13020   -12951   -12888   -12883   -12884   -12895   -12955   -13068 
  -13196   -13279   -13305   -13298   -13289   -13324   -13394   -13473 
  -13563   -13601   -13567   -13525   -13450   -13317   -13176   -13031 
  -12837   -12576   -12291   -12002   -11738   -11584   -11557   -11581 
  -11611   -11666   -11774   -11882   -11958   -12087   -12309   -12553 
  -12776   -12988   -13184   -13290   -13254   -13069   -12727   -12313 
  -11916   -11574   -11375   -11319   -11338   -11385   -11411   -11414 
  -11381   -11329   -11346   -11415   -11483   -11583   -11708   -11824 
  -12031   -12434   -13016   -13705   -14401   -15013   -15438   -15631 
  -15650   -15520   -15296   -15126   -15047   -15034   -15109   -15217 
  -15327   -15449   -15550   -15615   -15681   -15792   -15919   -16013 
  -16081   -16082   -16013   -15880   -15669   -15466   -15276   -15040 
  -14821   -14643   -14461   -14269   -14118   -14029   -13946   -13814 
  -13572   -13224   -12838   -12388   -11890   -11442   -11086   -10841 
  -10708   -10671   -10709   -10747   -10774   -10831   -10839   -10793 
  -10810   -10894   -11003   -11183   -11437   -11726   -12006   -12236 
  -12403   -12540   -12637   -12621   -12510   -12442   -12397   -12301 
  -12264   -12309   -12359   -12465   -12633   -12776   -12845   -12772 
  -12533   -12143   -11577   -10918   -10343    -9963    -9801    -9786 
   -9784    -9724    -9533    -9157    -8702    -8343    -8104    -8013 
   -8078    -8212    -8419    -8630    -8727    -8827    -9030    -9306 
   -9694   -10206   -10821   -11553   -12366   -13165   -13869   -14454 
  -14917   -15269   -15522   -15634   -15607   -15515   -15384   -15156 
  -14810   -14388   -13941   -13554   -13282   -13132   -13142   -13275 
  -13423   -13525   -13522   -13386   -13182   -12962   -12779   -12696 
  -12664   -12613   -12555   -12457   -12309   -12195   -12177   -12233 
  -12383   -12618   -12771   -12785   -12719   -12503   -12170   -11832 
  -11522   -11300   -11209   -11191   -11248   -11402   -11583   -11745 
  -11912   -12064   -12239   -12467   -12687   -12927   -13211   -13513 
  -13856   -14181   -14434   -14675   -14925   -15099   -15145   -15147 
  -15055   -14769   -14385   -13944   -13451   -13007   -12586   -12201 
  -11923   -11700   -11539   -11457   -11414   -11423   -11488   -11589 
  -11695   -11765   -11785   -11739   -11666   -11581   -11466   -11377 
  -11337   -11290   -11192   -11029   -10787   -10430   -10011    -9622 
   -9282    -9040    -8974    -9101    -9445   -10003   -10639   -11219 
  -11738   -12186   -12519   -12812   -13211   -13716   -14305   -14979 
  -15622   -16181   -16663   -17043   -17370   -17659   -17884   -18065 
  -18176   -18139   -17919   -17617   -17335   -17054   -16831   -16703 
  -16607   -16564   -16591   -16622   -16644   -16634   -16548   -16417 
  -16290   -16155   -16048   -16027   -16050   -16051   -15973   -15750 
  -15368   -14862   -14291   -13695   -13127   -12708   -12495   -12405 
  -12371   -12375   -12357   -12224   -11944   -11601   -11272   -11009 
  -10867   -10814   -10779   -10754   -10683   -10527   -10351   -10172 
  -10015    -9979   -10000    -9963    -9917    -9855    -9729    -9625 
   -9593    -9644    -9819   -10039   -10228   -10419   -10565   -10648 
  -10771   -10971   -11295   -11799   -12393   -12999   -13613   -14165 
  -14520   -14600   -14413   -13995   -13381   -12630   -11803   -11028 
  -10397    -9915    -9632    -9522    -9498    -9522    -9543    -9526 
   -9471    -9327    -9107    -8908    -8789    -8699    -8657    -8775 
   -9038    -9393    -9825   -10270   -10752   -11313   -11844   -12320 
  -12789   -13200   -13552   -13899   -14179   -14378   -14531   -14612 
  -14634   -14590   -14430   -14207   -13992   -13772   -13558   -13387 
  -13259   -13157   -13043   -12822   -12495   -12131   -11703   -11306 
  -11117   -11133   -11317   -11674   -12136   -12621   -13080   -13441 
  -13663   -13832   -13995   -14072   -14073   -14065   -14056   -14077 
  -14139   -14237   -14408   -14648   -14909   -15183   -15435   -15579 
  -15588   -15480   -15238   -14866   -14374   -13821   -13331   -12965 
  -12641   -12333   -12123   -11965   -11774   -11612   -11556   -11589 
  -11705   -11946   -12289   -12679   -13090   -13506   -14004   -14642 
  -15283   -15807   -16218   -16468   -16492   -16317   -16051   -15826 
  -15653   -15491   -15349   -15202   -14999   -14759   -14521   -14368 
  -14378   -14492   -14650   -14874   -15060   -15124   -15118   -15032 
  -14805   -14462   -14046   -13572   -13096   -12683   -12364   -12187 
  -12160   -12224   -12351   -12513   -12640   -12650   -12490   -12224 
  -11919   -11520   -11102   -10831   -10693   -10611   -10616   -10717 
  -10828   -10903   -10970   -11011   -11045   -11130   -11249   -11369 
  -11527   -11654   -11674   -11659   -11611   -11485   -11365   -11308 
  -11313   -11377   -11489   -11645   -11824   -11962   -12031   -12116 
  -12253   -12330   -12325   -12295   -12218   -12093   -11929   -11701 
  -11479   -11334   -11240   -11187   -11209   -11291   -11408   -11534 
  -11655   -11800   -11974   -12164   -12406   -12766   -13243   -13743 
  -14220   -14666   -15022   -15242   -15326   -15314   -15245   -15175 
  -15178   -15242   -15256   -15151   -14972   -14712   -14273   -13699 
  -13127   -12615   -12158   -11754   -11406   -11083   -10821   -10670 
  -10638   -10729   -10955   -11299   -11680   -11998   -12251   -12448 
  -12573   -12658   -12715   -12739   -12783   -12827   -12773   -12658 
  -12610   -12596   -12607   -12729   -12933   -13182   -13483   -13798 
  -14091   -14291   -14415   -14528   -14573   -14520   -14378   -14176 
  -13988   -13751   -13423   -13108   -12799   -12467   -12175   -11967 
  -11840   -11772   -11782   -11880   -11983   -12074   -12175   -12279 
  -12405   -12484   -12492   -12486   -12447   -12417   -12428   -12469 
  -12584   -12741   -12918   -13100   -13177   -13101   -12926   -12685 
  -12436   -12208   -12077   -12129   -12289   -12491   -12745   -12955 
  -13105   -13238   -13304   -13312   -13323   -13284   -13147   -12993 
  -12872   -12764   -12719   -12749   -12802   -12927   -13146   -13369 
  -13598   -13859   -14037   -14056   -13942   -13678   -13305   -12918 
  -12530   -12220   -12059   -11981   -11961   -11979   -12016   -12090 
  -12143   -12160   -12179   -12147   -12035   -11826   -11511   -11180 
  -10905   -10706   -10611   -10638   -10737   -10852   -10986   -11125 
  -11254   -11385   -11511   -11631   -11755   -11884   -12008   -12154 
  -12379   -12676   -12993   -13267   -13436   -13440   -13267   -13027 
  -12772   -12509   -12399   -12514   -12714   -12941   -13193   -13371 
  -13424   -13423   -13369   -13243   -13149   -13099   -13015   -12985 
  -13066   -13155   -13212   -13257   -13248   -13126   -12935   -12753 
  -12550   -12379   -12332   -12371   -12495   -12696   -12891   -13084 
  -13312   -13528   -13663   -13741   -13791   -13787   -13759   -13695 
  -13547   -13356   -13124   -12864   -12634   -12415   -12249   -12147 
  -12048   -11952   -11842   -11719   -11631   -11568   -11524   -11504 
  -11500   -11489   -11414   -11314   -11267   -11273   -11304   -11334 
  -11403   -11510   -11599   -11708   -11863   -12032   -12187   -12306 
  -12390   -12375   -12253   -12150   -12079   -12051   -12098   -12201 
  -12397   -12679   -12947   -13196   -13455   -13705   -13918   -14057 
  -14098   -14088   -14083   -14042   -13953   -13871   -13838   -13826 
  -13784   -13743   -13710   -13676   -13699   -13810   -13977   -14181 
  -14435   -14679   -14835   -14912   -14928   -14913   -14948   -15086 
  -15311   -15566   -15789   -15962   -16038   -15958   -15772   -15533 
  -15253   -15001   -14831   -14709   -14582   -14501   -14536   -14593 
  -14571   -14550   -14532   -14391   -14103   -13726   -13266   -12711 
  -12110   -11554   -11063   -10665   -10435   -10307   -10174   -10099 
  -10096   -10033    -9883    -9756    -9682    -9636    -9598    -9537 
   -9495    -9520    -9551    -9552    -9567    -9594    -9643    -9776 
   -9972   -10185   -10470   -10836   -11242   -11668   -12108   -12556 
  -12996   -13425   -13844   -14177   -14395   -14531   -14578   -14536 
  -14428   -14249   -14030   -13857   -13730   -13629   -13603   -13648 
  -13709   -13780   -13860   -13921   -13944   -13926   -13876   -13759 
  -13560   -13308   -13036   -12803   -12631   -12474   -12348   -12268 
  -12152   -11998   -11862   -11732   -11627   -11612   -11739   -12000 
  -12380   -12868   -13373   -13803   -14119   -14262   -14246   -14135 
