Origin Time       2025/01/13 21:19:00
Lat.              31.8
Long.             131.6
Depth. (km)       30
Mag.              6.9
Station Code      FKO012
Station Lat.      33.3320
Station Long.     130.7940
Station Height(m) 48
Record Time       2025/01/13 21:20:17
Sampling Freq(Hz) 100Hz
Duration Time(s)  100
Dir.              E-W
Scale Factor      7845(gal)/8223790
Max. Acc. (gal)   5.047
Last Correction   2025/01/13 21:20:17
Memo.             
[...]
   11607    11711    11654    11801    11921    11919    12008    12113 
   12154    12166    12334    12582    12532    12683    13089    13130 
   13286    13524    13347    13360    13563    13392    13127    13059 
   12968    12708    12430    12240    12151    12140    11979    11668 
   11558    11588    11348    10970    10794    10608    10315    10045 
    9715     9501     9378     9107     8880     8668     8525     8584 
    8482     8363     8448     8510     8564     8563     8536     8596 
    8646     8675     8634     8580     8598     8580     8529     8507 
    8540     8604     8694     8777     8826     8970     9167     9325 
    9533     9811    10065    10266    10488    10708    10906    11038 
   11051    11087    11076    10944    10851    10785    10670    10497 
   10285    10077     9894     9715     9576     9552     9513     9460 
    9494     9490     9463     9375     9290     9400     9409     9258 
    9239     9283     9247     9159     9174     9262     9285     9289 
    9266     9235     9198     9158     9189     9135     9099     9274 
    9423     9598     9869    10154    10559    10924    11194    11483 
   11755    12090    12410    12603    12746    12927    13143    13281 
   13387    13570    13767    13927    14056    14197    14339    14434 
   14619    14868    14912    14875    15028    15172    15106    15006 
   15010    15006    14924    14823    14704    14548    14388    14261 
   14112    13875    13639    13439    13225    12954    12611    12341 
   12104    11750    11433    11225    11029    10845    10706    10594 
   10496    10427    10415    10435    10390    10315    10287    10219 
   10147    10168    10203    10197    10215    10285    10327    10320 
   10332    10389    10446    10396    10307    10303    10277    10139 
    9911     9664     9494     9360     9205     9058     8959     8903 
    8861     8846     8833     8799     8819     8869     8858     8847 
    8823     8640     8430     8370     8295     8139     8039     8012 
    8023     8040     8054     8097     8174     8325     8456     8394 
    8326     8417     8451     8402     8398     8376     8390     8483 
    8514     8549     8638     8661     8656     8653     8665     8665 
    8538     8365     8220     8046     7836     7627     7460     7275 
    7037     6847     6708     6640     6644     6643     6693     6774 
    6866     7076     7299     7547     7890     8171     8536     8995 
    9289     9620    10052    10405    10797    11227    11664    12148 
   12583    12981    13355    13636    13845    14013    14133    14219 
   14272    14256    14202    14169    14115    14015    13926    13900 
   13875    13780    13722    13738    13736    13710    13682    13680 
   13720    13721    13730    13817    13848    13783    13713    13632 
   13543    13446    13316    13204    13126    13022    12927    12830 
   12653    12465    12305    12078    11809    11558    11294    10960 
   10581    10233     9880     9486     9159     8942     8750     8610 
    8584     8658     8851     9131     9448     9821    10228    10636 
   11026    11360    11624    11807    11870    11830    11735    11581 
   11331    11029    10768    10592    10446    10292    10204    10228 
   10305    10440    10663    10910    11169    11465    11755    12025 
   12270    12464    12631    12757    12823    12864    12864    12815 
   12775    12742    12681    12560    12356    12101    11793    11396 
   10952    10516    10052     9541     9015     8523     8108     7735 
    7396     7182     7110     7103     7165     7330     7538     7732 
    7928     8133     8317     8444     8519     8576     8586     8537 
    8521     8557     8587     8613     8665     8752     8877     9030 
    9220     9458     9691     9906    10142    10380    10578    10756 
   10930    11086    11205    11306    11431    11583    11713    11809 
   11902    12016    12133    12233    12307    12351    12352    12298 
   12187    12002    11743    11433    11098    10775    10497    10231 
    9985     9811     9706     9657     9688     9768     9852     9949 
   10062    10152    10191    10192    10166    10118    10050     9976 
    9910     9868     9848     9833     9833     9852     9876     9913 
    9938     9921     9880     9817     9694     9522     9342     9150 
    8939     8733     8569     8461     8376     8302     8253     8236 
    8245     8262     8275     8316     8399     8514     8654     8811 
    8947     9054     9162     9296     9443     9605     9787     9977 
   10137    10255    10388    10565    10729    10840    10924    10989 
   10995    10966    10947    10926    10876    10812    10758    10712 
   10673    10655    10660    10658    10636    10619    10604    10570 
   10530    10516    10511    10493    10465    10427    10389    10361 
   10322    10268    10207    10116     9981     9819     9630     9405 
    9170     8957     8758     8565     8397     8270     8193     8172 
    8218     8329     8509     8748     9024     9321     9637     9957 
   10245    10484    10669    10786    10849    10879    10875    10836 
   10789    10754    10724    10698    10692    10713    10754    10797 
   10847    10941    11086    11268    11492    11738    11977    12210 
   12449    12696    12938    13158    13377    13585    13743    13860 
   13969    14068    14127    14139    14114    14046    13940    13819 
   13702    13598    13518    13467    13474    13545    13649    13759 
   13891    14064    14249    14411    14558    14690    14769    14783 
   14740    14617    14401    14102    13730    13309    12849    12374 
   11923    11491    11068    10678    10330    10021     9760     9578 
    9487     9459     9463     9501     9571     9656     9734     9803 
    9865     9911     9930     9937     9929     9907     9887     9855 
    9790     9702     9605     9520     9459     9404     9354     9302 
    9209     9043     8837     8623     8376     8075     7761     7460 
    7159     6885     6694     6597     6562     6578     6655     6795 
    6976     7173     7402     7685     7993     8287     8588     8892 
    9166     9416     9660     9873    10034    10152    10242    10284 
   10253    10180    10092     9984     9863     9714     9533     9332 
    9116     8891     8646     8391     8154     7963     7834     7755 
    7713     7700     7724     7809     7955     8114     8259     8410 
    8586     8749     8878     8984     9067     9135     9170     9155 
    9101     9022     8920     8810     8710     8646     8637     8680 
    8773     8924     9148     9448     9807    10224    10706    11215 
   11709    12185    12646    13081    13478    13828    14130    14386 
   14600    14770    14893    14983    15051    15067    15002    14856 
   14650    14411    14142    13851    13572    13308    13028    12753 
   12511    12306    12128    11965    11807    11665    11556    11492 
   11453    11414    11381    11384    11418    11452    11461    11454 
   11445    11407    11313    11161    10974    10763    10539    10326 
   10137     9965     9819     9741     9733     9759     9795     9846 
    9910     9990    10076    10147    10195    10219    10238    10255 
   10247    10206    10168    10139    10079     9983     9882     9761 
    9605     9439     9313     9236     9169     9104     9084     9128 
    9202     9281     9386     9543     9741     9960    10189    10412 
   10624    10844    11082    11299    11456    11558    11622    11635 
   11581    11470    11322    11128    10881    10611    10332    10045 
    9757     9498     9288     9134     9036     8997     9013     9066 
    9134     9212     9302     9400     9491     9589     9703     9830 
    9965    10131    10338    10563    10795    11043    11287    11500 
   11688    11859    11979    12006    11946    11817    11630    11384 
   11090    10775    10465    10172     9934     9772     9666     9585 
    9520     9489     9495     9522     9571     9636     9684     9695 
    9675     9645     9614     9591     9593     9632     9694     9760 
    9841     9949    10081    10241    10412    10567    10705    10828 
   10937    11040    11149    11277    11427    11588    11747    11904 
   12055    12189    12306    12448    12630    12818    12985    13154 
   13340    13525    13687    13833    13961    14046    14075    14075 
   14056    13990    13864    13698    13508    13289    13049    12798 
   12553    12313    12066    11815    11581    11389    11242    11117 
   10997    10876    10773    10701    10639    10573    10521    10516 
   10551    10611    10682    10763    10840    10895    10933    10972 
   11026    11097    11168    11221    11257    11294    11342    11398 
   11435    11453    11466    11487    11497    11481    11434    11348 
   11206    11013    10781    10519    10233     9944     9684     9456 
    9231     9008     8814     8648     8487     8334     8222     8179 
    8195     8251     8328     8401     8465     8554     8685     8851 
    9054     9285     9529     9765     9969    10139    10285    10396 
   10459    10471    10447    10397    10300    10162    10010     9841 
    9645     9448     9274     9109     8939     8776     8645     8542 
    8455     8391     8351     8321     8309     8307     8305     8306 
    8311     8338     8388     8451     8525     8608     8675     8725 
    8760     8768     8745     8694     8634     8604     8613     8635 
    8677     8762     8889     9040     9219     9429     9645     9834 
   10000    10154    10266    10324    10347    10347    10336    10338 
   10347    10351    10358    10397    10476    10565    10632    10658 
   10655    10654    10665    10671    10663    10654    10665    10690 
   10720    10758    10812    10879    10960    11036    11086    11107 
   11101    11052    10971    10881    10786    10696    10621    10569 
   10532    10511    10524    10597    10727    10895    11099    11338 
   11601    11869    12136    12414    12683    12891    13036    13161 
   13265    13311    13293    13243    13182    13115    13068    13055 
   13061    13076    13108    13149    13178    13186    13188    13207 
   13238    13269    13304    13351    13406    13468    13539    13622 
   13713    13803    13913    14046    14161    14241    14288    14311 
   14314    14280    14185    14010    13740    13396    12997    12540 
   12029    11507    11007    10523    10044     9610     9256     8977 
    8750     8576     8461     8376     8298     8229     8162     8081 
    7993     7908     7819     7719     7630     7562     7512     7497 
    7530     7600     7700     7831     8005     8217     8464     8714 
    8932     9142     9343     9510     9647     9749     9821     9888 
    9945     9968     9957     9927     9896     9872     9841     9794 
    9751     9714     9663     9585     9481     9350     9213     9107 
    9058     9081     9155     9263     9406     9585     9782     9996 
   10226    10459    10674    10858    10986    11029    10990    10902 
   10783    10633    10470    10332    10228    10134    10033     9927 
    9836     9760     9697     9644     9595     9544     9494     9450 
    9408     9377     9390     9464     9591     9761     9977    10233 
   10521    10827    11134    11427    11693    11943    12195    12455 
   12700    12919    13109    13247    13316    13324    13292    13224 
   13119    12974    12772    12511    12225    11932    11638    11362 
   11102    10883    10760    10732    10750    10814    10955    11133 
   11284    11416    11551    11650    11680    11658    11600    11475 
   11284    11083    10871    10602    10284     9953     9598     9177 
    8716     8284     7901     7554     7237     6967     6762     6619 
    6517     6469     6502     6606     6741     6906     7102     7295 
    7511     7771     8006     8183     8355     8546     8722     8873 
    9045     9248     9445     9625     9799     9958    10091    10191 
   10270    10335    10363    10355    10346    10338    10311    10268 
   10235    10224    10226    10249    10319    10431    10565    10719 
   10881    11032    11156    11254    11350    11442    11518    11585 
   11669    11784    11917    12062    12193    12275    12320    12347 
   12347    12309    12235    12124    11981    11815    11653    11514 
   11384    11260    11165    11114    11097    11086    11075    11067 
   11051    11026    11003    10967    10894    10785    10663    10538 
   10393    10222    10048     9891     9736     9586     9460     9351 
    9238     9130     9063     9046     9073     9139     9242     9374 
    9516     9652     9802     9965    10120    10282    10469    10651 
   10809    10944    11061    11146    11190    11209    11230    11250 
   11264    11286    11315    11346    11371    11392    11425    11464 
   11499    11538    11577    11610    11641    11677    11718    11745 
   11751    11772    11820    11886    11974    12081    12187    12302 
   12437    12572    12677    12727    12723    12688    12611    12457 
   12233    11978    11711    11427    11157    10936    10758    10621 
   10557    10590    10710    10874    11052    11245    11429    11562 
   11624    11626    11566    11446    11284    11092    10870    10642 
   10424    10195     9953     9705     9451     9177     8868     8529 
    8172     7792     7392     7003     6640     6311     6019     5769 
    5560     5394     5283     5244     5260     5312     5402     5545 
    5732     5952     6211     6504     6804     7083     7349     7601 
    7840     8105     8425     8776     9142     9518     9914    10339 
   10778    11215    11653    12082    12494    12884    13243    13554 
   13805    14025    14243    14449    14635    14835    15056    15260 
   15423    15562    15688    15773    15789    15732    15603    15375 
   15051    14663    14227    13744    13224    12696    12172    11651 
   11140    10660    10214     9802     9441     9136     8870     8637 
    8445     8301     8191     8114     8089     8131     8240     8417 
    8660     8961     9289     9636    10010    10405    10802    11191 
   11578    11958    12302    12602    12873    13130    13378    13624 
   13865    14084    14266    14426    14584    14725    14809    14841 
   14860    14868    14843    14793    14736    14663    14563    14435 
   14283    14099    13871    13620    13360    13072    12748    12409 
   12060    11704    11349    11005    10674    10345    10029     9753 
    9518     9304     9113     8949     8803     8673     8567     8473 
    8367     8239     8094     7936     7759     7553     7315     7064 
    6825     6625     6473     6354     6269     6241     6273     6346 
    6466     6646     6856     7072     7295     7514     7703     7851 
    7951     8023     8086     8133     8163     8190     8220     8248 
    8290     8365     8465     8568     8675     8793     8907     9004 
    9107     9227     9331     9398     9448     9493     9531     9563 
    9598     9630     9663     9698     9733     9782     9834     9863 
    9867     9869     9875     9868     9861     9879     9910     9948 
   10008    10068    10115    10188    10303    10440    10590    10768 
   10976    11195    11407    11622    11846    12051    12224    12379 
   12511    12603    12664    12695    12681    12627    12557    12492 
   12426    12343    12255    12177    12098    12016    11934    11840 
   11728    11599    11469    11358    11263    11179    11129    11124 
   11140    11179    11271    11404    11527    11637    11762    11892 
   12001    12104    12206    12293    12360    12409    12428    12417 
   12376    12321    12278    12237    12181    12118    12064    12010 
   11954    11904    11873    11855    11844    11847    11871    11897 
   11913    11946    11996    12040    12075    12109    12135    12127 
   12082    12013    11913    11777    11626    11475    11326    11179 
   11025    10863    10686    10498    10318    10147     9991     9864 
    9768     9684     9610     9564     9545     9533     9529     9533 
    9545     9556     9545     9516     9479     9424     9363     9305 
    9243     9177     9113     9045     8970     8895     8814     8715 
    8590     8436     8290     8170     8050     7919     7808     7730 
    7669     7627     7618     7632     7670     7739     7831     7932 
    8036     8135     8224     8303     8355     8386     8432     8499 
    8576     8661     8776     8920     9072     9240     9429     9621 
    9806     9979    10134    10265    10353    10409    10439    10417 
   10347    10249    10125     9967     9794     9626     9463     9293 
    9105     8900     8687     8469     8262     8081     7925     7793 
    7719     7715     7765     7866     8025     8232     8479     8765 
    9104     9501     9925    10368    10844    11331    11807    12268 
   12710    13113    13467    13772    14025    14208    14323    14382 
   14382    14318    14207    14080    13945    13791    13626    13458 
   13284    13109    12950    12812    12681    12538    12384    12217 
   12020    11794    11558    11321    11083    10863    10692    10574 
   10504    10511    10601    10740    10924    11148    11398    11647 
   11871    12089    12306    12483    12613    12718    12795    12834 
   12847    12856    12860    12838    12818    12823    12831    12829 
   12818    12803    12785    12753    12700    12625    12521    12410 
   12314    12231    12141    12044    11954    11865    11766    11668 
   11576    11500    11431    11371    11323    11283    11240    11195 
   11137    11061    10967    10859    10752    10642    10512    10363 
   10206    10045     9899     9784     9680     9567     9456     9347 
    9215     9054     8876     8694     8509     8330     8171     8033 
    7917     7840     7812     7811     7836     7915     8050     8216 
    8390     8559     8721     8865     8981     9059     9093     9076 
    9008     8914     8816     8711     8590     8480     8402     8349 
    8310     8291     8303     8338     8388     8461     8538     8592 
    8630     8679     8723     8743     8757     8779     8792     8785 
    8761     8725     8679     8630     8591     8565     8560     8587 
    8657     8776     8939     9146     9400     9683     9979    10296 
   10640    10984    11317    11638    11938    12191    12384    12521 
   12611    12660    12679    12680    12661    12618    12567    12518 
   12452    12366    12276    12191    12105    12010    11919    11848 
   11803    11792    11827    11898    11983    12078    12186    12303 
   12422    12536    12638    12734    12814    12864    12892    12908 
   12906    12874    12823    12742    12622    12483    12340    12186 
   12017    11840    11657    11468    11284    11125    10976    10829 
   10698    10597    10531    10485    10451    10427    10415    10412 
   10409    10392    10353    10300    10237    10158    10066     9961 
    9840     9715     9585     9444     9306     9171     9034     8908 
    8814     8739     8676     8645     8662     8700     8753     8831 
    8927     9023     9126     9265     9431     9590     9745     9898 
   10033    10147    10243    10323    10389    10440    10492    10550 
