Origin Time       2025/01/13 21:19:00
Lat.              31.8
Long.             131.6
Depth. (km)       30
Mag.              6.9
Station Code      FKO003
Station Lat.      33.8324
Station Long.     130.9013
Station Height(m) 14
Record Time       2025/01/13 21:20:23
Sampling Freq(Hz) 100Hz
Duration Time(s)  90
Dir.              N-S
Scale Factor      7845(gal)/8223790
Max. Acc. (gal)   2.174
Last Correction   2025/01/13 21:20:23
Memo.             
[...]
    2516     2616     2739     2808     2821     2808     2786     2785 
    2794     2779     2739     2724     2772     2857     2961     3079 
    3194     3304     3399     3431     3352     3149     2836     2457 
    2095     1804     1599     1472     1401     1378     1383     1371 
    1327     1275     1256     1301     1372     1413     1429     1471 
    1571     1746     1983     2239     2479     2678     2836     2932 
    2930     2860     2771     2690     2656     2694     2752     2771 
    2754     2745     2736     2683     2627     2624     2674     2736 
    2801     2887     2952     2936     2855     2743     2629     2554 
    2521     2524     2536     2544     2560     2569     2550     2512 
    2475     2435     2363     2274     2189     2107     2002     1850 
    1676     1526     1441     1432     1456     1494     1559     1660 
    1775     1865     1935     1999     2045     2068     2058     2033 
    2033     2064     2101     2118     2110     2095     2103     2143 
    2187     2220     2270     2332     2378     2431     2525     2631 
    2727     2825     2907     2970     3017     3046     3057     3029 
    2961     2884     2789     2681     2613     2592     2569     2533 
    2515     2500     2461     2390     2317     2274     2242     2207 
    2178     2137     2084     2029     1966     1900     1831     1752 
    1664     1575     1513     1509     1563     1655     1772     1898 
    2057     2269     2497     2697     2824     2863     2843     2799 
    2751     2709     2675     2656     2633     2609     2598     2578 
    2551     2501     2397     2270     2188     2160     2133     2065 
    1953     1821     1696     1595     1510     1420     1329     1283 
    1290     1321     1391     1540     1746     1958     2177     2404 
    2608     2762     2875     2947     2979     3005     3037     3048 
    3028     2980     2916     2860     2812     2755     2710     2698 
    2718     2755     2771     2740     2644     2484     2261     2022 
    1814     1644     1495     1366     1264     1200     1178     1196 
    1224     1248     1270     1308     1368     1428     1468     1479 
    1486     1541     1659     1809     1958     2096     2218     2311 
    2380     2425     2442     2446     2471     2533     2632     2755 
    2856     2902     2897     2845     2762     2683     2606     2519 
    2435     2358     2295     2259     2259     2286     2317     2349 
    2392     2450     2506     2524     2488     2427     2358     2269 
    2162     2050     1960     1925     1934     1952     1989     2053 
    2134     2218     2278     2295     2250     2158     2033     1875 
    1728     1621     1544     1493     1472     1498     1541     1578 
    1655     1804     2003     2228     2450     2639     2801     2967 
    3130     3237     3269     3249     3206     3150     3065     2965 
    2851     2700     2523     2357     2227     2172     2201     2269 
    2327     2373     2430     2494     2543     2554     2525     2473 
    2420     2349     2250     2149     2041     1933     1848     1787 
    1764     1787     1854     1971     2115     2249     2353     2424 
    2463     2492     2538     2589     2594     2542     2458     2384 
    2347     2334     2299     2268     2286     2353     2450     2548 
    2608     2628     2617     2594     2586     2586     2582     2590 
    2608     2608     2579     2525     2444     2366     2332     2327 
    2311     2281     2289     2363     2467     2556     2601     2578 
    2496     2390     2280     2141     1972     1813     1691     1614 
    1588     1622     1691     1765     1868     2006     2137     2235 
    2309     2373     2436     2478     2466     2407     2346     2327 
    2350     2392     2432     2484     2566     2662     2733     2771 
    2781     2747     2678     2601     2551     2548     2547     2517 
    2477     2448     2465     2509     2550     2581     2587     2565 
    2524     2466     2401     2343     2281     2201     2115     2043 
    1984     1926     1861     1792     1757     1768     1795     1834 
    1883     1941     2002     2054     2085     2081     2053     2016 
    1964     1907     1868     1845     1823     1769     1659     1522 
    1410     1336     1296     1314     1405     1524     1657     1842 
    2101     2381     2604     2768     2883     2934     2951     2951 
    2910     2845     2775     2694     2593     2461     2312     2185 
    2103     2039     1930     1775     1632     1529     1471     1455 
    1468     1506     1587     1736     1923     2093     2227     2322 
    2377     2411     2419     2373     2277     2181     2126     2092 
    2069     2084     2169     2317     2484     2631     2758     2890 
    3032     3165     3287     3380     3423     3427     3419     3408 
    3387     3346     3289     3226     3133     2992     2825     2628 
    2407     2191     2002     1861     1779     1744     1779     1883 
    1998     2097     2178     2224     2239     2234     2218     2187 
    2137     2097     2108     2166     2257     2354     2425     2478 
    2528     2560     2574     2579     2569     2520     2430     2308 
    2176     2060     2006     2031     2100     2166     2220     2284 
    2374     2477     2573     2659     2733     2771     2754     2701 
    2640     2577     2511     2415     2261     2061     1858     1696 
    1595     1521     1440     1348     1262     1216     1244     1352 
    1501     1652     1786     1879     1933     1972     2010     2020 
    1958     1821     1659     1507     1372     1282     1255     1275 
    1320     1387     1487     1603     1730     1903     2099     2285 
    2489     2693     2844     2937     2983     2995     2992     2983 
    2987     3011     3040     3060     3072     3098     3129     3136 
    3113     3065     3030     3013     2979     2929     2855     2729 
    2575     2415     2234     2030     1845     1715     1624     1541 
    1479     1449     1466     1547     1688     1856     2027     2180 
    2285     2334     2336     2297     2235     2185     2166     2193 
    2231     2215     2149     2081     2026     1985     1962     1945 
    1939     1976     2066     2204     2361     2502     2629     2754 
    2863     2932     2933     2848     2724     2613     2517     2427 
    2343     2266     2199     2143     2112     2088     2038     1972 
    1900     1846     1848     1876     1884     1875     1853     1795 
    1694     1594     1526     1502     1510     1544     1624     1723 
    1806     1872     1930     1993     2073     2155     2245     2336 
    2405     2461     2509     2547     2570     2585     2597     2596 
    2555     2465     2343     2207     2074     1989     1949     1949 
    1998     2080     2199     2340     2488     2624     2718     2755 
    2754     2754     2767     2774     2779     2783     2758     2702 
    2656     2632     2608     2566     2505     2439     2376     2312 
    2235     2143     2056     1981     1912     1854     1811     1788 
    1779     1764     1733     1680     1630     1609     1603     1614 
    1657     1738     1856     1993     2139     2307     2509     2739 
    2948     3117     3230     3261     3215     3118     2990     2853 
    2728     2623     2536     2462     2417     2409     2408     2392 
    2371     2371     2409     2444     2454     2470     2502     2542 
    2567     2562     2548     2544     2546     2558     2570     2562 
    2543     2524     2492     2434     2367     2332     2319     2305 
    2317     2378     2458     2502     2493     2458     2407     2351 
    2311     2277     2241     2227     2236     2230     2181     2111 
    2065     2050     2047     2053     2057     2054     2065     2095 
    2131     2138     2104     2045     1987     1966     1988     2019 
    2056     2115     2203     2311     2412     2486     2542     2558 
    2528     2477     2416     2350     2268     2154     2052     1993 
    1930     1837     1719     1595     1517     1494     1486     1455 
    1386     1306     1244     1192     1135     1088     1089     1140 
    1197     1233     1267     1324     1413     1530     1682     1856 
    2046     2246     2427     2577     2704     2808     2882     2924 
    2959     3019     3109     3221     3322     3377     3372     3306 
    3199     3086     2970     2862     2789     2747     2704     2625 
    2493     2326     2147     1961     1784     1607     1412     1216 
    1057      957      923      949     1031     1158     1320     1495 
    1652     1776     1880     1985     2108     2263     2458     2664 
    2855     3024     3177     3302     3369     3387     3365     3322 
    3280     3246     3204     3141     3075     3022     2979     2951 
    2937     2924     2897     2839     2736     2601     2455     2324 
    2195     2050     1888     1713     1548     1404     1260     1119 
    1001      919      878      888      942     1017     1098     1170 
    1223     1259     1290     1333     1391     1472     1576     1687 
    1823     1995     2174     2319     2400     2440     2500     2606 
    2772     2990     3203     3384     3550     3709     3843     3925 
    3948     3928     3865     3765     3645     3497     3302     3082 
    2887     2717     2540     2344     2141     1931     1719     1521 
    1341     1181     1070     1047     1097     1183     1275     1351 
    1418     1483     1551     1640     1773     1948     2142     2344 
    2546     2710     2824     2906     2980     3046     3118     3202 
    3279     3341     3399     3443     3453     3420     3349     3238 
    3110     2987     2860     2735     2616     2500     2403     2326 
    2255     2188     2120     2058     2010     1954     1899     1858 
    1830     1819     1829     1848     1863     1879     1898     1912 
    1910     1891     1873     1854     1844     1848     1831     1800 
    1796     1833     1899     1962     1999     2012     2010     2016 
    2061     2149     2266     2407     2565     2733     2895     3030 
    3119     3157     3150     3105     3022     2937     2874     2832 
    2798     2756     2677     2515     2288     2057     1849     1671 
    1522     1404     1320     1270     1246     1251     1305     1397 
    1513     1634     1744     1856     1985     2145     2312     2466 
    2598     2698     2766     2836     2916     2979     3018     3019 
    2975     2890     2782     2678     2617     2614     2652     2687 
    2705     2682     2590     2451     2288     2133     2007     1908 
    1837     1796     1777     1776     1790     1800     1784     1755 
    1726     1695     1665     1638     1622     1629     1672     1775 
    1937     2126     2338     2571     2801     3010     3192     3346 
    3483     3609     3727     3829     3902     3951     4001     4028 
    4012     3951     3838     3684     3510     3335     3190     3065 
    2947     2832     2720     2612     2513     2438     2380     2330 
    2285     2211     2083     1910     1715     1528     1363     1215 
    1077      958      876      842      839      865      939     1070 
    1248     1464     1722     2006     2284     2535     2759     2956 
    3122     3264     3381     3474     3550     3603     3631     3627 
    3562     3443     3291     3102     2894     2686     2471     2238 
    1989     1732     1471     1210      982      812      699      635 
     610      618      658      707      764      820      888     1004 
    1166     1356     1574     1776     1918     1988     2008     2016 
    2050     2128     2261     2446     2652     2863     3088     3330 
    3582     3821     4021     4160     4240     4271     4252     4167 
    4014     3812     3585     3339     3079     2813     2542     2269 
    1993     1721     1482     1291     1154     1086     1070     1075 
    1094     1111     1116     1124     1134     1129     1108     1089 
    1090     1119     1175     1263     1372     1503     1659     1834 
    2015     2211     2435     2682     2943     3199     3422     3596 
    3727     3821     3879     3892     3842     3711     3528     3343 
    3159     2959     2751     2543     2346     2188     2087     2016 
    1939     1840     1726     1606     1474     1347     1246     1178 
    1138     1119     1127     1161     1215     1302     1431     1584 
    1734     1854     1919     1931     1921     1925     1954     2008 
    2088     2193     2309     2421     2517     2585     2623     2635 
    2637     2651     2656     2651     2659     2689     2714     2704 
    2648     2559     2448     2334     2246     2188     2153     2142 
    2133     2112     2106     2118     2150     2192     2214     2214 
    2201     2184     2176     2187     2204     2200     2162     2116 
    2065     2002     1923     1821     1695     1561     1432     1339 
    1290     1283     1297     1294     1273     1239     1198     1194 
    1251     1372     1566     1803     2038     2243     2412     2535 
    2605     2624     2560     2396     2149     1861     1593     1370 
    1173     1001      854      723      616      531      480      492 
     565      695      878     1105     1351     1591     1827     2077 
    2322     2524     2690     2830     2934     3033     3150     3272 
    3392     3516     3651     3793     3943     4101     4259     4396 
    4494     4538     4531     4484     4414     4309     4149     3942 
    3685     3379     3042     2700     2355     2015     1684     1367 
    1084      854      691      603      587      625      706      827 
     970     1120     1273     1425     1598     1803     2015     2211 
    2382     2531     2675     2822     2964     3096     3200     3264 
    3299     3304     3284     3253     3218     3173     3114     3036 
    2944     2847     2751     2646     2515     2359     2204     2068 
    1969     1914     1868     1822     1791     1773     1765     1769 
    1772     1764     1786     1860     1956     2053     2151     2259 
    2382     2501     2606     2677     2702     2706     2710     2704 
    2675     2610     2515     2405     2274     2120     1972     1844 
    1752     1695     1651     1632     1659     1729     1854     2037 
    2249     2455     2633     2768     2845     2867     2851     2808 
    2749     2689     2623     2563     2500     2420     2320     2201 
    2079     1968     1877     1804     1744     1701     1669     1652 
    1657     1672     1687     1714     1763     1822     1887     1934 
    1944     1942     1954     1991     2066     2177     2300     2428 
    2566     2718     2878     3030     3161     3258     3319     3364 
    3410     3465     3524     3599     3684     3766     3846     3920 
    3991     4063     4112     4109     4054     3956     3809     3619 
    3395     3126     2821     2496     2154     1817     1493     1194 
     950      766      646      587      575      602      657      746 
     881     1059     1267     1478     1674     1838     1969     2084 
    2192     2308     2430     2558     2710     2875     3044     3203 
    3337     3447     3518     3532     3507     3461     3404     3345 
    3280     3217     3127     2983     2795     2569     2309     2042 
    1782     1530     1304     1125     1011      950      930      955 
     997     1005      984      950      924      932      970     1042 
    1143     1254     1374     1518     1688     1867     2042     2193 
    2293     2347     2393     2452     2532     2639     2752     2843 
    2902     2934     2945     2947     2955     2960     2955     2933 
    2894     2856     2820     2751     2640     2508     2354     2178 
    2002     1825     1638     1459     1286     1139     1042      990 
     973      981     1005     1034     1050     1062     1080     1116 
    1188     1274     1348     1418     1498     1588     1674     1746 
    1807     1854     1898     1952     2038     2147     2272     2423 
    2578     2727     2872     3007     3129     3208     3234     3241 
    3234     3213     3173     3132     3110     3087     3060     3042 
    3032     3032     3018     2956     2847     2697     2515     2313 
    2110     1917     1734     1564     1417     1297     1193     1101 
    1031      994     1007     1059     1135     1227     1336     1456 
    1572     1669     1740     1806     1888     1973     2062     2147 
    2214     2269     2320     2377     2440     2496     2550     2620 
    2695     2766     2825     2887     2948     2994     3028     3048 
    3056     3063     3061     3037     2971     2866     2744     2613 
    2477     2332     2204     2122     2084     2069     2072     2085 
    2120     2191     2282     2374     2451     2502     2521     2508 
    2467     2423     2385     2369     2363     2358     2381     2421 
    2467     2524     2566     2577     2574     2577     2600     2637 
    2674     2698     2698     2663     2602     2529     2443     2357 
    2282     2223     2195     2192     2205     2234     2254     2255 
    2241     2195     2124     2052     1973     1885     1798     1722 
    1682     1672     1672     1683     1692     1686     1683     1690 
    1701     1742     1827     1949     2091     2236     2381     2509 
    2613     2682     2708     2713     2716     2708     2677     2629 
    2581     2515     2428     2340     2246     2143     2039     1938 
    1844     1773     1737     1725     1713     1686     1665     1661 
    1668     1706     1791     1908     2046     2191     2328     2455 
    2570     2664     2741     2791     2806     2801     2778     2727 
    2660     2601     2563     2548     2539     2521     2490     2435 
    2362     2272     2158     2035     1907     1768     1644     1541 
    1445     1356     1283     1236     1212     1204     1210     1235 
    1302     1420     1561     1710     1849     1966     2077     2188 
    2297     2409     2521     2633     2751     2859     2948     3007 
    3022     3005     2974     2928     2863     2786     2705     2629 
    2556     2486     2416     2327     2214     2076     1922     1775 
    1642     1532     1447     1386     1352     1345     1358     1390 
    1436     1493     1566     1655     1746     1817     1880     1960 
    2035     2107     2181     2257     2338     2404     2444     2485 
    2524     2562     2596     2628     2674     2722     2760     2787 
    2791     2775     2743     2687     2601     2489     2369     2263 
    2178     2096     2014     1942     1873     1803     1745     1714 
    1707     1721     1756     1809     1871     1956     2056     2160 
    2272     2390     2505     2601     2660     2702     2760     2813 
    2847     2879     2913     2945     2967     2976     2975     2964 
    2963     2974     2971     2955     2933     2898     2853     2798 
    2740     2675     2571     2443     2315     2176     2034     1895 
    1765     1668     1601     1552     1506     1445     1386     1347 
    1332     1339     1367     1405     1439     1487     1580     1703 
    1838     1973     2100     2228     2365     2504     2623     2708 
    2752     2766     2774     2776     2774     2766     2741     2714 
