Origin Time       2025/01/13 21:19:00
Lat.              31.8
Long.             131.6
Depth. (km)       30
Mag.              6.9
Station Code      FKO016
Station Lat.      33.0159
Station Long.     130.4472
Station Height(m) 22
Record Time       2025/01/13 21:20:07
Sampling Freq(Hz) 100Hz
Duration Time(s)  88
Dir.              U-D
Scale Factor      7845(gal)/8223790
Max. Acc. (gal)   1.735
Last Correction   2025/01/13 21:20:09
Memo.             
[...]
   -9317    -9323    -9309    -9293    -9288    -9302    -9315    -9320 
   -9319    -9282    -9252    -9277    -9310    -9321    -9315    -9305 
   -9324    -9351    -9342    -9317    -9317    -9329    -9336    -9348 
   -9356    -9354    -9364    -9363    -9329    -9308    -9321    -9340 
   -9337    -9319    -9310    -9310    -9294    -9266    -9254    -9252 
   -9263    -9283    -9293    -9300    -9319    -9319    -9286    -9261 
   -9266    -9274    -9285    -9300    -9301    -9273    -9235    -9232 
   -9259    -9266    -9254    -9256    -9283    -9316    -9323    -9305 
   -9293    -9309    -9328    -9315    -9301    -9313    -9312    -9298 
   -9296    -9281    -9263    -9252    -9213    -9174    -9175    -9174 
   -9178    -9213    -9225    -9235    -9302    -9369    -9373    -9320 
   -9263    -9275    -9324    -9321    -9293    -9282    -9246    -9170 
   -9107    -9108    -9174    -9259    -9363    -9491    -9576    -9574 
   -9495    -9355    -9223    -9177    -9198    -9242    -9310    -9382 
   -9412    -9421    -9444    -9494    -9571    -9630    -9614    -9517 
   -9413    -9346    -9297    -9285    -9344    -9444    -9532    -9578 
   -9574    -9549    -9535    -9544    -9578    -9586    -9531    -9463 
   -9406    -9323    -9228    -9180    -9193    -9250    -9324    -9390 
   -9432    -9441    -9440    -9463    -9504    -9533    -9560    -9553 
   -9448    -9294    -9194    -9184    -9240    -9304    -9332    -9300 
   -9205    -9105    -9032    -9004    -9074    -9202    -9239    -9165 
   -9063    -8996    -9015    -9096    -9140    -9148    -9154    -9139 
   -9126    -9174    -9254    -9294    -9310    -9331    -9339    -9327 
   -9275    -9162    -9038    -8993    -9043    -9138    -9246    -9355 
   -9421    -9412    -9359    -9324    -9332    -9373    -9431    -9481 
   -9518    -9525    -9463    -9369    -9298    -9269    -9293    -9337 
   -9343    -9298    -9239    -9181    -9155    -9209    -9329    -9394 
   -9350    -9269    -9207    -9201    -9277    -9354    -9385    -9408 
   -9441    -9481    -9535    -9585    -9583    -9502    -9364    -9220 
   -9126    -9092    -9082    -9080    -9074    -9043    -8982    -8916 
   -8895    -8930    -8986    -9081    -9242    -9400    -9468    -9467 
   -9448    -9391    -9305    -9269    -9294    -9319    -9328    -9370 
   -9420    -9431    -9448    -9540    -9634    -9633    -9559    -9485 
   -9406    -9329    -9294    -9294    -9308    -9369    -9459    -9525 
   -9572    -9564    -9436    -9228    -9013    -8841    -8788    -8889 
   -9078    -9309    -9531    -9652    -9651    -9562    -9437    -9333 
   -9269    -9224    -9165    -9059    -8945    -8874    -8892    -9051 
   -9306    -9483    -9487    -9362    -9194    -9063    -8973    -8912 
   -8908    -8957    -9061    -9243    -9447    -9582    -9621    -9580 
   -9506    -9459    -9459    -9455    -9378    -9243    -9142    -9112 
   -9135    -9196    -9243    -9231    -9217    -9235    -9251    -9232 
   -9135    -8962    -8818    -8770    -8799    -8915    -9109    -9278 
   -9378    -9451    -9568    -9776   -10012   -10157   -10137    -9938 
   -9668    -9513    -9520    -9575    -9601    -9598    -9564    -9448 
   -9248    -9073    -8974    -8919    -8931    -9001    -9049    -9063 
   -9066    -9032    -8978    -8962    -9001    -9065    -9117    -9221 
   -9425    -9624    -9734    -9783    -9725    -9585    -9481    -9394 
   -9319    -9316    -9324    -9288    -9248    -9224    -9194    -9113 
   -8999    -8970    -9094    -9328    -9548    -9618    -9510    -9305 
   -9109    -9011    -9012    -9058    -9115    -9171    -9220    -9285 
   -9400    -9532    -9616    -9634    -9634    -9671    -9751    -9834 
   -9882    -9860    -9749    -9587    -9433    -9327    -9301    -9333 
   -9344    -9331    -9323    -9294    -9278    -9337    -9477    -9651 
   -9741    -9671    -9486    -9216    -8907    -8661    -8541    -8580 
   -8770    -9028    -9271    -9454    -9529    -9505    -9447    -9358 
   -9212    -9057    -8974    -8980    -9039    -9148    -9252    -9271 
   -9235    -9194    -9192    -9296    -9491    -9653    -9688    -9633 
   -9576    -9539    -9494    -9429    -9359    -9266    -9121    -8996 
   -8991    -9135    -9402    -9657    -9792    -9807    -9695    -9485 
   -9289    -9184    -9192    -9306    -9455    -9540    -9543    -9508 
   -9460    -9429    -9444    -9470    -9474    -9464    -9435    -9409 
   -9428    -9468    -9505    -9551    -9624    -9706    -9730    -9680 
   -9594    -9475    -9327    -9171    -9034    -8928    -8864    -8888 
   -9049    -9309    -9551    -9682    -9639    -9406    -9101    -8884 
   -8823    -8912    -9059    -9155    -9213    -9234    -9158    -9045 
   -8982    -8978    -9047    -9161    -9204    -9165    -9139    -9140 
   -9138    -9135    -9132    -9124    -9108    -9139    -9290    -9524 
   -9742    -9845    -9747    -9536    -9389    -9363    -9432    -9516 
   -9526    -9432    -9256    -9089    -9004    -8981    -8974    -8947 
   -8860    -8721    -8665    -8757    -8892    -9020    -9155    -9271 
   -9386    -9509    -9599    -9648    -9637    -9571    -9493    -9445 
   -9444    -9439    -9377    -9285    -9229    -9261    -9374    -9489 
   -9518    -9471    -9382    -9279    -9244    -9288    -9267    -9119 
   -8934    -8819    -8833    -9008    -9255    -9371    -9274    -9051 
   -8804    -8631    -8640    -8829    -9019    -9077    -9013    -8841 
   -8646    -8631    -8851    -9220    -9616    -9871    -9907    -9799 
   -9647    -9593    -9733    -9944   -10007    -9855    -9601    -9377 
   -9246    -9258    -9404    -9598    -9769    -9863    -9868    -9836 
   -9786    -9709    -9621    -9551    -9545    -9634    -9705    -9587 
   -9273    -8911    -8646    -8498    -8415    -8410    -8478    -8545 
   -8604    -8725    -8915    -9112    -9243    -9236    -9143    -9124 
   -9277    -9601    -9984   -10246   -10274   -10085    -9794    -9545 
   -9423    -9396    -9364    -9263    -9123    -9023    -8970    -8916 
   -8873    -8857    -8864    -8939    -9120    -9364    -9587    -9703 
   -9678    -9590    -9521    -9474    -9454    -9456    -9448    -9414 
   -9317    -9151    -8973    -8858    -8885    -9040    -9219    -9336 
   -9342    -9232    -9117    -9113    -9275    -9578    -9888   -10088 
  -10157   -10098    -9921    -9695    -9464    -9263    -9157    -9147 
   -9204    -9259    -9213    -9082    -8935    -8818    -8788    -8820 
   -8854    -8910    -9008    -9097    -9135    -9146    -9115    -9039 
   -8993    -9018    -9105    -9209    -9236    -9173    -9077    -9047 
   -9175    -9417    -9641    -9764    -9753    -9634    -9516    -9456 
   -9417    -9427    -9493    -9506    -9451    -9455    -9589    -9790 
   -9936    -9936    -9801    -9556    -9189    -8780    -8507    -8511 
   -8816    -9278    -9641    -9741    -9624    -9410    -9170    -9038 
   -9119    -9310    -9479    -9593    -9645    -9652    -9614    -9532 
   -9459    -9489    -9633    -9776    -9811    -9728    -9571    -9418 
   -9277    -9134    -9073    -9111    -9144    -9104    -9016    -8939 
   -8920    -8986    -9103    -9215    -9297    -9315    -9225    -9062 
   -8977    -9051    -9174    -9223    -9167    -9045    -8955    -8961 
   -9035    -9121    -9154    -9062    -8864    -8688    -8672    -8862 
   -9177    -9486    -9702    -9802    -9765    -9629    -9529    -9585 
   -9775    -9994   -10137   -10110    -9891    -9622    -9486    -9536 
   -9703    -9832    -9753    -9455    -9090    -8816    -8679    -8695 
   -8835    -8989    -9097    -9148    -9099    -8996    -8935    -8884 
   -8849    -8919    -9049    -9116    -9107    -9070    -9078    -9202 
   -9424    -9618    -9701    -9701    -9656    -9590    -9558    -9594 
   -9652    -9674    -9624    -9482    -9296    -9202    -9242    -9316 
   -9373    -9431    -9494    -9567    -9621    -9625    -9636    -9694 
   -9711    -9643    -9590    -9616    -9606    -9475    -9274    -9036 
   -8770    -8554    -8449    -8448    -8563    -8780    -9008    -9219 
   -9405    -9459    -9374    -9321    -9397    -9553    -9710    -9779 
   -9688    -9475    -9238    -9028    -8907    -8977    -9220    -9409 
   -9346    -9034    -8572    -8154    -7982    -8035    -8182    -8397 
   -8602    -8673    -8665    -8723    -8877    -9094    -9358    -9618 
   -9786    -9807    -9686    -9495    -9421    -9609    -9988   -10331 
  -10457   -10326   -10018    -9721    -9634    -9796   -10076   -10223 
  -10053    -9659    -9254    -8978    -8895    -8946    -9042    -9146 
   -9238    -9329    -9456    -9564    -9576    -9506    -9371    -9184 
   -9059    -9112    -9302    -9528    -9725    -9846    -9821    -9618 
   -9293    -8969    -8803    -8857    -9040    -9228    -9298    -9140 
   -8839    -8630    -8660    -8931    -9386    -9856   -10052    -9896 
   -9602    -9363    -9267    -9312    -9369    -9319    -9154    -8907 
   -8668    -8626    -8893    -9306    -9637    -9850    -9945    -9882 
   -9720    -9566    -9410    -9207    -8989    -8818    -8743    -8796 
   -8943    -9123    -9216    -9169    -9062    -8930    -8793    -8735 
   -8772    -8838    -8878    -8908    -9005    -9205    -9455    -9693 
   -9892   -10026   -10061   -10030   -10017   -10092   -10206   -10230 
  -10133    -9992    -9869    -9768    -9684    -9582    -9401    -9170 
   -8973    -8881    -8989    -9288    -9609    -9809    -9818    -9624 
   -9294    -8949    -8715    -8673    -8808    -9000    -9127    -9163 
   -9107    -8959    -8814    -8791    -8897    -9066    -9232    -9324 
   -9324    -9263    -9119    -8891    -8687    -8618    -8689    -8791 
   -8820    -8788    -8773    -8835    -8997    -9236    -9474    -9610 
   -9601    -9466    -9290    -9188    -9177    -9190    -9207    -9242 
   -9288    -9323    -9367    -9416    -9389    -9248    -9074    -8918 
   -8806    -8777    -8785    -8754    -8707    -8691    -8752    -8997 
   -9475   -10069   -10577   -10801   -10687   -10376   -10018    -9693 
   -9525    -9601    -9802    -9949    -9914    -9620    -9147    -8679 
   -8372    -8338    -8571    -8891    -9096    -9138    -9062    -8935 
   -8905    -9088    -9390    -9616    -9683    -9644    -9508    -9240 
   -8926    -8757    -8819    -9019    -9212    -9320    -9363    -9378 
   -9390    -9432    -9495    -9525    -9489    -9370    -9213    -9140 
   -9228    -9383    -9471    -9485    -9490    -9514    -9548    -9620 
   -9744    -9819    -9769    -9644    -9536    -9521    -9625    -9787 
   -9883    -9850    -9733    -9587    -9440    -9315    -9204    -9086 
   -8957    -8853    -8838    -8889    -8950    -9008    -9034    -9003 
   -8984    -9065    -9242    -9456    -9633    -9687    -9586    -9381 
   -9184    -9119    -9288    -9629    -9906    -9958    -9817    -9585 
   -9373    -9251    -9274    -9440    -9603    -9625    -9493    -9263 
   -9031    -8872    -8792    -8810    -8957    -9166    -9282    -9242 
   -9105    -8946    -8802    -8719    -8738    -8823    -8897    -8934 
   -8927    -8896    -8935    -9124    -9375    -9575    -9714    -9748 
   -9636    -9477    -9423    -9556    -9830   -10115   -10292   -10312 
  -10238   -10158   -10073    -9927    -9691    -9417    -9208    -9155 
   -9301    -9564    -9818    -9987   -10057   -10035    -9977    -9945 
   -9910    -9834    -9734    -9582    -9371    -9178    -9027    -8935 
   -8953    -9039    -9066    -8969    -8830    -8764    -8783    -8837 
   -8868    -8777    -8503    -8097    -7708    -7501    -7591    -7950 
   -8349    -8610    -8799    -9047    -9351    -9639    -9845    -9867 
   -9618    -9200    -8812    -8592    -8550    -8573    -8575    -8599 
   -8677    -8772    -8891    -9026    -9088    -9063    -8997    -8870 
   -8719    -8683    -8833    -9112    -9443    -9711    -9803    -9756 
   -9714    -9772    -9979   -10307   -10633   -10820   -10760   -10504 
  -10230   -10030    -9882    -9769    -9645    -9443    -9186    -8964 
   -8856    -8878    -8945    -8959    -8893    -8761    -8614    -8556 
   -8667    -8953    -9375    -9830   -10185   -10326   -10180    -9784 
   -9321    -8977    -8807    -8788    -8911    -9084    -9126    -8958 
   -8714    -8618    -8765    -9042    -9281    -9367    -9274    -9097 
   -8958    -8919    -9019    -9213    -9325    -9236    -9027    -8834 
   -8768    -8857    -9019    -9184    -9346    -9402    -9243    -8920 
   -8594    -8433    -8534    -8889    -9371    -9784   -10044   -10193 
  -10239   -10158    -9972    -9702    -9424    -9324    -9535   -10000 
  -10542   -10952   -11101   -10987   -10667   -10230    -9815    -9479 
   -9193    -8965    -8799    -8631    -8405    -8141    -7871    -7649 
   -7572    -7688    -7973    -8386    -8824    -9134    -9231    -9200 
   -9169    -9139    -9066    -8980    -8899    -8807    -8699    -8626 
   -8640    -8706    -8773    -8876    -9008    -9089    -9135    -9254 
   -9529    -9961   -10449   -10849   -11053   -11022   -10847   -10667 
  -10581   -10593   -10559   -10355   -10061    -9806    -9624    -9478 
   -9332    -9184    -9039    -8915    -8858    -8862    -8837    -8761 
   -8721    -8792    -9045    -9447    -9792    -9952    -9937    -9747 
   -9429    -9093    -8820    -8654    -8631    -8754    -8965    -9193 
   -9373    -9437    -9377    -9198    -8943    -8729    -8658    -8764 
   -8991    -9198    -9281    -9239    -9139    -9113    -9302    -9695 
  -10099   -10373   -10525   -10613   -10656   -10675   -10689   -10631 
  -10432   -10127    -9768    -9348    -8831    -8233    -7711    -7487 
   -7649    -8077    -8526    -8787    -8811    -8680    -8565    -8658 
   -8966    -9321    -9566    -9595    -9451    -9327    -9344    -9464 
   -9612    -9714    -9740    -9718    -9641    -9501    -9347    -9169 
   -8939    -8726    -8621    -8683    -8888    -9126    -9351    -9580 
   -9736    -9737    -9626    -9477    -9350    -9327    -9433    -9589 
   -9691    -9710    -9695    -9671    -9597    -9436    -9155    -8772 
   -8440    -8345    -8568    -9053    -9597    -9971   -10088    -9987 
   -9740    -9435    -9166    -9043    -9084    -9159    -9190    -9228 
   -9270    -9277    -9312    -9425    -9524    -9460    -9180    -8861 
   -8800    -9093    -9583   -10002   -10135    -9996    -9663    -9216 
   -8903    -8896    -9120    -9489    -9909   -10255   -10490   -10567 
  -10422   -10116    -9737    -9323    -8941    -8662    -8519    -8521 
   -8618    -8695    -8737    -8826    -9003    -9248    -9487    -9659 
   -9761    -9759    -9636    -9487    -9387    -9309    -9251    -9259 
   -9310    -9321    -9289    -9248    -9202    -9146    -9093    -9045 
   -8949    -8739    -8406    -8029    -7761    -7728    -7979    -8518 
   -9278   -10033   -10521   -10673   -10602   -10430   -10191    -9933 
   -9783    -9828    -9961   -10015    -9952    -9861    -9791    -9657 
   -9444    -9286    -9239    -9209    -9080    -8799    -8469    -8229 
   -8144    -8206    -8394    -8665    -8878    -8920    -8874    -8808 
   -8708    -8657    -8769    -9050    -9429    -9775    -9919    -9796 
   -9499    -9169    -8962    -9028    -9360    -9782   -10050   -10057 
   -9873    -9586    -9271    -8997    -8745    -8494    -8260    -8051 
   -7890    -7839    -7933    -8154    -8444    -8710    -8901    -9113 
   -9391    -9675    -9948   -10156   -10204   -10083    -9830    -9522 
   -9271    -9135    -9088    -9074    -9109    -9244    -9466    -9749 
  -10068   -10297   -10305   -10143   -10011   -10023   -10161   -10351 
  -10559   -10774   -10914   -10906   -10764   -10550   -10323   -10083 
   -9801    -9524    -9273    -9004    -8699    -8430    -8289    -8293 
   -8432    -8667    -8897    -9001    -8892    -8600    -8259    -8021 
   -7992    -8143    -8383    -8611    -8719    -8695    -8672    -8827 
   -9197    -9667   -10103   -10349   -10251    -9849    -9370    -9028 
   -8910    -8981    -9148    -9288    -9293    -9194    -9131    -9213 
   -9462    -9783    -9965    -9927    -9792    -9636    -9486    -9413 
   -9378    -9309    -9244    -9244    -9360    -9579    -9778    -9873 
   -9848    -9747    -9688    -9694    -9668    -9531    -9224    -8743 
   -8245    -7942    -7933    -8189    -8580    -9013    -9481    -9977 
  -10426   -10682   -10692   -10524   -10268    -9992    -9769    -9655 
   -9672    -9722    -9682    -9593    -9552    -9552    -9522    -9418 
   -9304    -9247    -9224    -9221    -9238    -9208    -9018    -8611 
   -8121    -7805    -7815    -8120    -8571    -8926    -9059    -9069 
   -9069    -9158    -9417    -9720    -9865    -9833    -9720    -9637 
   -9679    -9807    -9869    -9761    -9505    -9220    -9032    -8969 
   -8938    -8833    -8641    -8490    -8488    -8599    -8754    -8922 
   -9019    -8993    -8883    -8745    -8642    -8671    -8878    -9239 
   -9672   -10064   -10289   -10288   -10096    -9821    -9567    -9377 
   -9225    -9031    -8754    -8476    -8310    -8313    -8496    -8773 
   -9032    -9243    -9441    -9683    -9984   -10250   -10361   -10301 
  -10135    -9918    -9679    -9516    -9580    -9853   -10169   -10395 
  -10440   -10264    -9917    -9505    -9142    -8939    -8919    -8945 
   -8862    -8667    -8453    -8364    -8500    -8838    -9294    -9747 
  -10042   -10080    -9855    -9481    -9150    -8989    -8985    -9049 
   -9159    -9324    -9479    -9545    -9518    -9455    -9394    -9352 
   -9355    -9441    -9675   -10021   -10301   -10411   -10365   -10156 
   -9811    -9468    -9247    -9208    -9348    -9571    -9742    -9772 
   -9687    -9598    -9548    -9481    -9333    -9109    -8888    -8714 
   -8559    -8438    -8394    -8391    -8415    -8554    -8833    -9163 
   -9464    -9663    -9744    -9787    -9837    -9911   -10041   -10162 
  -10204   -10191   -10146   -10066    -9948    -9786    -9579    -9308 
   -8973    -8637    -8351    -8158    -8106    -8198    -8379    -8606 
   -8845    -9035    -9124    -9140    -9177    -9279    -9381    -9408 
   -9354    -9258    -9167    -9101    -9065    -9078    -9153    -9250 
   -9292    -9296    -9362    -9467    -9514    -9493    -9439    -9432 
   -9587    -9860   -10030    -9994    -9836    -9632    -9412    -9242 
   -9161    -9103    -8991    -8826    -8665    -8619    -8795    -9150 
   -9522    -9757    -9786    -9645    -9401    -9167    -9058    -9074 
   -9204    -9421    -9574    -9570    -9487    -9409    -9355    -9350 
   -9401    -9462    -9501    -9532    -9553    -9594    -9752   -10015 
  -10239   -10332   -10257   -10029    -9748    -9501    -9273    -9047 
   -8829    -8626    -8491    -8451    -8473    -8519    -8544    -8510 
   -8442    -8415    -8490    -8634    -8770    -8881    -8945    -8976 
   -9066    -9198    -9262    -9255    -9278    -9364    -9486    -9633 
   -9834   -10058   -10188   -10176   -10100   -10012    -9927    -9896 
   -9930   -10008   -10116   -10184   -10152   -10048    -9914    -9775 
   -9629    -9479    -9362    -9289    -9258    -9267    -9315    -9408 
   -9531    -9655    -9782    -9918   -10044   -10104   -10054    -9925 
   -9741    -9543    -9425    -9417    -9447    -9455    -9435    -9418 
   -9393    -9333    -9296    -9312    -9348    -9360    -9313    -9216 
   -9085    -8926    -8776    -8715    -8783    -8932    -9100    -9258 
   -9385    -9455    -9454    -9373    -9259    -9189    -9167    -9146 
