Origin Time       2025/01/13 21:19:00
Lat.              31.8
Long.             131.6
Depth. (km)       30
Mag.              6.9
Station Code      FKO014
Station Lat.      33.1496
Station Long.     130.8183
Station Height(m) 325
Record Time       2025/01/13 21:20:12
Sampling Freq(Hz) 100Hz
Duration Time(s)  93
Dir.              U-D
Scale Factor      7845(gal)/8223790
Max. Acc. (gal)   2.936
Last Correction   2025/01/13 21:20:12
Memo.             
[...]
  -13196   -13165   -13192   -13267   -13365   -13456   -13513   -13522 
  -13510   -13473   -13374   -13220   -13061   -12919   -12783   -12657 
  -12549   -12437   -12309   -12179   -12023   -11811   -11568   -11342 
  -11137   -10962   -10883   -10929   -11018   -11082   -11138   -11229 
  -11326   -11376   -11388   -11410   -11456   -11500   -11524   -11524 
  -11516   -11520   -11543   -11584   -11658   -11773   -11925   -12086 
  -12218   -12320   -12422   -12544   -12683   -12830   -12951   -13018 
  -13036   -13036   -13036   -13035   -13022   -12995   -12969   -12942 
  -12880   -12777   -12699   -12692   -12700   -12665   -12600   -12513 
  -12380   -12222   -12075   -11927   -11777   -11655   -11573   -11545 
  -11585   -11665   -11726   -11745   -11763   -11811   -11871   -11929 
  -11981   -12009   -12009   -12004   -12017   -12024   -11978   -11894 
  -11824   -11790   -11790   -11812   -11819   -11789   -11754   -11704 
  -11607   -11516   -11504   -11561   -11645   -11750   -11873   -11975 
  -12050   -12131   -12233   -12325   -12371   -12383   -12393   -12403 
  -12395   -12356   -12313   -12302   -12336   -12388   -12418   -12395 
  -12351   -12334   -12340   -12324   -12274   -12208   -12144   -12104 
  -12102   -12137   -12160   -12141   -12105   -12089   -12116   -12204 
  -12325   -12434   -12528   -12598   -12625   -12634   -12664   -12719 
  -12807   -12914   -12995   -13036   -13068   -13076   -13043   -12982 
  -12899   -12784   -12669   -12596   -12533   -12415   -12249   -12070 
  -11889   -11730   -11589   -11438   -11295   -11203   -11164   -11165 
  -11199   -11264   -11353   -11446   -11514   -11535   -11499   -11421 
  -11337   -11276   -11246   -11253   -11298   -11369   -11461   -11572 
  -11674   -11738   -11803   -11919   -12043   -12093   -12059   -11970 
  -11840   -11696   -11562   -11446   -11362   -11357   -11419   -11476 
  -11502   -11515   -11506   -11477   -11457   -11452   -11458   -11491 
  -11545   -11593   -11620   -11641   -11670   -11704   -11727   -11727 
  -11701   -11672   -11653   -11645   -11627   -11577   -11515   -11469 
  -11425   -11354   -11245   -11099   -10975   -10925   -10948   -10998 
  -11043   -11082   -11140   -11240   -11356   -11435   -11479   -11524 
  -11589   -11662   -11759   -11896   -12039   -12159   -12241   -12278 
  -12280   -12279   -12290   -12305   -12306   -12299   -12299   -12297 
  -12258   -12152   -11977   -11816   -11746   -11735   -11770   -11855 
  -11947   -11998   -12012   -11985   -11917   -11861   -11854   -11886 
  -11932   -11971   -11977   -11936   -11881   -11873   -11920   -11977 
  -12024   -12051   -12027   -11955   -11855   -11745   -11646   -11580 
  -11550   -11554   -11581   -11616   -11655   -11696   -11723   -11743 
  -11785   -11859   -11959   -12070   -12156   -12187   -12172   -12136 
  -12089   -12040   -11998   -11967   -11956   -11974   -11994   -11977 
  -11925   -11847   -11750   -11676   -11651   -11670   -11723   -11809 
  -11935   -12098   -12262   -12372   -12429   -12475   -12525   -12544 
  -12506   -12459   -12438   -12425   -12432   -12469   -12495   -12491 
  -12475   -12440   -12376   -12321   -12325   -12402   -12552   -12746 
  -12915   -13019   -13096   -13186   -13271   -13309   -13267   -13135 
  -12939   -12749   -12614   -12526   -12471   -12453   -12451   -12429 
  -12383   -12322   -12248   -12170   -12131   -12150   -12198   -12247 
  -12282   -12317   -12372   -12440   -12496   -12526   -12519   -12501 
  -12482   -12455   -12421   -12386   -12366   -12349   -12310   -12263 
  -12233   -12224   -12226   -12228   -12231   -12251   -12287   -12325 
  -12337   -12290   -12206   -12123   -12046   -12002   -12024   -12109 
  -12239   -12390   -12534   -12630   -12644   -12595   -12509   -12380 
  -12244   -12131   -12008   -11861   -11730   -11631   -11584   -11635 
  -11761   -11866   -11917   -11961   -12009   -12027   -12000   -11932 
  -11820   -11693   -11581   -11499   -11452   -11426   -11398   -11371 
  -11348   -11296   -11192   -11065   -10955   -10887   -10864   -10881 
  -10910   -10940   -10982   -11029   -11033   -10997   -10974   -10978 
  -10982   -10966   -10936   -10902   -10864   -10831   -10809   -10802 
  -10806   -10813   -10822   -10854   -10895   -10910   -10885   -10841 
  -10802   -10782   -10781   -10787   -10801   -10812   -10794   -10758 
  -10717   -10671   -10629   -10609   -10609   -10651   -10748   -10867 
  -10979   -11091   -11188   -11244   -11280   -11334   -11414   -11504 
  -11592   -11658   -11685   -11674   -11637   -11558   -11431   -11314 
  -11242   -11188   -11132   -11074   -11014   -10966   -10951   -10986 
  -11098   -11288   -11507   -11691   -11824   -11919   -11974   -12002 
  -12043   -12109   -12183   -12271   -12375   -12452   -12491   -12529 
  -12559   -12575   -12610   -12668   -12723   -12781   -12845   -12914 
  -12984   -13061   -13134   -13181   -13207   -13208   -13157   -13085 
  -13047   -13039   -13050   -13093   -13157   -13223   -13324   -13485 
  -13680   -13882   -14064   -14203   -14284   -14304   -14284   -14260 
  -14270   -14332   -14422   -14490   -14504   -14453   -14338   -14187 
  -14033   -13891   -13755   -13612   -13443   -13242   -13018   -12799 
  -12610   -12461   -12330   -12185   -11998   -11780   -11551   -11333 
  -11146   -10994   -10852   -10725   -10632   -10565   -10500   -10420 
  -10341   -10284   -10254   -10235   -10235   -10250   -10254   -10253 
  -10276   -10316   -10342   -10328   -10282   -10235   -10219   -10242 
  -10282   -10320   -10377   -10477   -10632   -10849   -11087   -11310 
  -11533   -11761   -11965   -12123   -12231   -12297   -12334   -12355 
  -12360   -12360   -12359   -12334   -12263   -12164   -12075   -12017 
  -11998   -12008   -12017   -12004   -11955   -11871   -11772   -11680 
  -11576   -11452   -11352   -11295   -11272   -11276   -11319   -11411 
  -11524   -11619   -11695   -11762   -11815   -11853   -11881   -11882 
  -11840   -11770   -11699   -11655   -11628   -11578   -11500   -11391 
  -11250   -11111   -11006   -10944   -10930   -10948   -10956   -10944 
  -10935   -10929   -10921   -10902   -10895   -10930   -11009   -11102 
  -11180   -11241   -11300   -11365   -11445   -11547   -11651   -11732 
  -11790   -11820   -11807   -11751   -11680   -11612   -11580   -11618 
  -11709   -11819   -11935   -12064   -12212   -12378   -12577   -12802 
  -13007   -13155   -13252   -13331   -13414   -13500   -13576   -13647 
  -13709   -13761   -13802   -13825   -13845   -13884   -13946   -14013 
  -14060   -14073   -14052   -14000   -13940   -13890   -13865   -13864 
  -13852   -13815   -13782   -13759   -13728   -13690   -13660   -13622 
  -13559   -13487   -13416   -13338   -13263   -13207   -13163   -13132 
  -13122   -13128   -13151   -13198   -13242   -13238   -13182   -13090 
  -12968   -12823   -12677   -12537   -12417   -12347   -12325   -12318 
  -12307   -12305   -12313   -12310   -12289   -12249   -12185   -12083 
  -11951   -11803   -11647   -11481   -11303   -11129   -10980   -10855 
  -10739   -10631   -10523   -10422   -10343   -10305   -10322   -10405 
  -10570   -10795   -11009   -11165   -11287   -11406   -11519   -11611 
  -11676   -11723   -11777   -11859   -11951   -12023   -12063   -12066 
  -12029   -11965   -11878   -11770   -11639   -11480   -11300   -11129 
  -10990   -10886   -10824   -10790   -10762   -10729   -10689   -10660 
  -10671   -10709   -10758   -10828   -10912   -10987   -11071   -11167 
  -11252   -11319   -11360   -11384   -11407   -11421   -11423   -11442 
  -11497   -11595   -11719   -11863   -12039   -12218   -12359   -12448 
  -12487   -12498   -12534   -12614   -12704   -12762   -12777   -12771 
  -12737   -12671   -12619   -12631   -12691   -12754   -12804   -12834 
  -12835   -12812   -12758   -12665   -12542   -12399   -12240   -12081 
  -11946   -11859   -11828   -11831   -11830   -11809   -11777   -11753 
  -11759   -11807   -11874   -11948   -12025   -12100   -12195   -12341 
  -12532   -12749   -12978   -13205   -13410   -13564   -13656   -13674 
  -13624   -13541   -13447   -13346   -13242   -13130   -13016   -12891 
  -12738   -12565   -12386   -12216   -12051   -11890   -11761   -11668 
  -11600   -11561   -11542   -11530   -11546   -11596   -11649   -11711 
  -11823   -11977   -12136   -12291   -12453   -12609   -12730   -12807 
  -12846   -12849   -12818   -12752   -12642   -12519   -12409   -12310 
  -12212   -12096   -11963   -11838   -11712   -11588   -11483   -11396 
  -11334   -11318   -11334   -11371   -11437   -11519   -11589   -11645 
  -11695   -11769   -11871   -11979   -12083   -12181   -12275   -12371 
  -12456   -12530   -12598   -12669   -12735   -12761   -12723   -12644 
  -12548   -12475   -12429   -12374   -12297   -12221   -12145   -12082 
  -12058   -12070   -12108   -12152   -12186   -12205   -12204   -12174 
  -12135   -12090   -12032   -11961   -11889   -11834   -11799   -11786 
  -11790   -11789   -11789   -11786   -11757   -11708   -11641   -11556 
  -11487   -11439   -11399   -11364   -11337   -11310   -11281   -11264 
  -11254   -11240   -11223   -11219   -11232   -11248   -11272   -11322 
  -11392   -11461   -11530   -11601   -11657   -11680   -11670   -11642 
  -11611   -11574   -11534   -11522   -11550   -11593   -11647   -11722 
  -11809   -11874   -11890   -11874   -11854   -11831   -11809   -11809 
  -11840   -11902   -11982   -12043   -12058   -12047   -12021   -11970 
  -11924   -11919   -11938   -11970   -12024   -12091   -12185   -12293 
  -12393   -12491   -12594   -12691   -12761   -12792   -12796   -12779 
  -12734   -12698   -12690   -12707   -12771   -12879   -12962   -12976 
  -12927   -12838   -12734   -12634   -12544   -12457   -12382   -12334 
  -12312   -12285   -12253   -12233   -12224   -12212   -12190   -12147 
  -12079   -12012   -11951   -11863   -11740   -11620   -11502   -11373 
  -11240   -11097   -10943   -10800   -10666   -10530   -10384   -10215 
  -10021    -9829    -9666    -9529    -9432    -9375    -9344    -9329 
   -9316    -9297    -9294    -9331    -9402    -9512    -9649    -9775 
   -9875    -9958   -10027   -10091   -10152   -10200   -10265   -10369 
  -10481   -10581   -10683   -10789   -10894   -11011   -11133   -11245 
  -11349   -11462   -11580   -11692   -11804   -11921   -12035   -12137 
  -12231   -12320   -12403   -12487   -12586   -12702   -12839   -12993 
  -13158   -13315   -13437   -13541   -13647   -13748   -13844   -13934 
  -14007   -14061   -14114   -14177   -14247   -14316   -14377   -14424 
  -14436   -14399   -14316   -14200   -14076   -13972   -13895   -13851 
  -13859   -13898   -13930   -13944   -13941   -13918   -13872   -13797 
  -13678   -13522   -13354   -13176   -12985   -12789   -12594   -12388 
  -12178   -11981   -11807   -11651   -11512   -11380   -11236   -11082 
  -10937   -10795   -10650   -10513   -10395   -10296   -10226   -10193 
  -10199   -10242   -10326   -10443   -10570   -10681   -10774   -10874 
  -10991   -11128   -11280   -11419   -11529   -11643   -11770   -11901 
  -12032   -12158   -12287   -12426   -12557   -12676   -12808   -12958 
  -13111   -13258   -13404   -13537   -13648   -13745   -13836   -13917 
  -14000   -14084   -14160   -14233   -14305   -14382   -14449   -14494 
  -14535   -14585   -14620   -14607   -14546   -14474   -14411   -14345 
  -14269   -14191   -14133   -14110   -14111   -14119   -14106   -14031 
  -13899   -13721   -13489   -13223   -12972   -12731   -12479   -12221 
  -11973   -11728   -11484   -11259   -11051   -10849   -10670   -10516 
  -10382   -10273   -10197   -10162   -10165   -10189   -10215   -10218 
  -10210   -10219   -10255   -10301   -10358   -10436   -10531   -10647 
  -10775   -10893   -10990   -11082   -11184   -11304   -11429   -11529 
  -11593   -11632   -11631   -11569   -11468   -11353   -11240   -11163 
  -11125   -11107   -11126   -11178   -11215   -11236   -11240   -11213 
  -11159   -11095   -11037   -11017   -11044   -11088   -11126   -11155 
  -11159   -11132   -11086   -11041   -11009   -11001   -11033   -11102 
  -11195   -11288   -11357   -11400   -11448   -11515   -11591   -11662 
  -11730   -11799   -11873   -11951   -12029   -12104   -12174   -12258 
  -12349   -12422   -12476   -12521   -12559   -12609   -12645   -12626 
  -12596   -12569   -12511   -12444   -12384   -12341   -12336   -12349 
  -12367   -12407   -12463   -12510   -12548   -12580   -12609   -12642 
  -12690   -12739   -12769   -12798   -12857   -12943   -13039   -13157 
  -13271   -13351   -13410   -13458   -13491   -13537   -13582   -13602 
  -13614   -13621   -13606   -13583   -13582   -13594   -13598   -13590 
  -13572   -13537   -13485   -13423   -13352   -13266   -13163   -13042 
  -12884   -12696   -12498   -12303   -12102   -11888   -11665   -11445 
  -11230   -11025   -10822   -10627   -10447   -10269   -10087    -9914 
   -9742    -9571    -9418    -9294    -9211    -9178    -9202    -9267 
   -9350    -9451    -9579    -9726    -9879   -10014   -10116   -10210 
  -10300   -10368   -10417   -10457   -10494   -10546   -10605   -10666 
  -10723   -10760   -10773   -10768   -10752   -10723   -10675   -10624 
  -10579   -10531   -10480   -10434   -10407   -10413   -10455   -10532 
  -10640   -10771   -10922   -11086   -11265   -11465   -11677   -11900 
  -12136   -12378   -12610   -12827   -13038   -13248   -13450   -13635 
  -13801   -13946   -14068   -14181   -14301   -14424   -14543   -14652 
  -14748   -14824   -14890   -14941   -14970   -14989   -15021   -15057 
  -15080   -15084   -15064   -15018   -14962   -14895   -14808   -14681 
  -14513   -14310   -14088   -13864   -13640   -13419   -13200   -12991 
  -12803   -12631   -12460   -12299   -12160   -12032   -11907   -11797 
  -11705   -11611   -11523   -11468   -11439   -11421   -11400   -11365 
  -11321   -11273   -11233   -11211   -11202   -11183   -11151   -11118 
  -11092   -11072   -11064   -11072   -11099   -11145   -11202   -11253 
  -11294   -11340   -11398   -11454   -11495   -11514   -11519   -11522 
  -11518   -11497   -11480   -11481   -11491   -11510   -11538   -11558 
  -11574   -11615   -11684   -11777   -11886   -12006   -12124   -12228 
  -12318   -12406   -12492   -12555   -12583   -12582   -12555   -12505 
  -12438   -12368   -12299   -12235   -12167   -12097   -12031   -11966 
  -11874   -11765   -11670   -11599   -11549   -11520   -11492   -11457 
  -11434   -11422   -11410   -11396   -11387   -11375   -11352   -11326 
  -11311   -11313   -11327   -11349   -11368   -11381   -11389   -11395 
  -11392   -11389   -11418   -11483   -11566   -11666   -11786   -11905 
  -12005   -12075   -12104   -12085   -12040   -11997   -11944   -11878 
  -11815   -11753   -11688   -11642   -11605   -11551   -11489   -11431 
  -11377   -11323   -11269   -11215   -11161   -11117   -11099   -11119 
  -11172   -11249   -11329   -11395   -11461   -11547   -11645   -11742 
  -11832   -11909   -11973   -12028   -12069   -12086   -12090   -12093 
  -12094   -12087   -12091   -12117   -12140   -12164   -12198   -12222 
  -12251   -12291   -12310   -12306   -12293   -12290   -12309   -12339 
  -12370   -12409   -12437   -12456   -12478   -12499   -12523   -12556 
  -12590   -12618   -12649   -12691   -12741   -12807   -12888   -12974 
  -13062   -13151   -13230   -13294   -13355   -13428   -13498   -13552 
  -13593   -13624   -13647   -13670   -13680   -13664   -13645   -13625 
  -13574   -13497   -13425   -13362   -13301   -13235   -13165   -13092 
  -13019   -12946   -12874   -12806   -12741   -12677   -12621   -12575 
  -12523   -12453   -12375   -12293   -12197   -12086   -11963   -11838 
  -11724   -11630   -11561   -11503   -11445   -11406   -11383   -11362 
  -11350   -11337   -11303   -11260   -11210   -11146   -11067   -10989 
  -10922   -10864   -10808   -10748   -10687   -10633   -10588   -10554 
  -10528   -10504   -10492   -10489   -10489   -10492   -10507   -10535 
  -10577   -10623   -10673   -10740   -10822   -10906   -10989   -11078 
  -11163   -11237   -11306   -11362   -11403   -11422   -11416   -11403 
  -11399   -11407   -11433   -11470   -11495   -11488   -11484   -11502 
  -11529   -11564   -11619   -11691   -11765   -11846   -11932   -12025 
  -12125   -12225   -12314   -12399   -12503   -12621   -12725   -12819 
  -12911   -12981   -13022   -13049   -13074   -13105   -13138   -13171 
  -13207   -13246   -13285   -13315   -13336   -13352   -13351   -13327 
  -13286   -13234   -13170   -13088   -12977   -12842   -12685   -12521 
  -12376   -12270   -12189   -12125   -12075   -12027   -11978   -11938 
  -11908   -11900   -11913   -11932   -11946   -11950   -11943   -11927 
  -11901   -11878   -11862   -11846   -11838   -11827   -11794   -11745 
  -11696   -11654   -11619   -11600   -11601   -11610   -11619   -11628 
  -11622   -11595   -11551   -11497   -11448   -11414   -11399   -11392 
  -11394   -11398   -11396   -11384   -11369   -11357   -11362   -11395 
  -11443   -11502   -11570   -11649   -11730   -11809   -11882   -11948 
  -12019   -12093   -12156   -12206   -12239   -12259   -12276   -12278 
  -12259   -12244   -12237   -12224   -12195   -12150   -12075   -11993 
  -11931   -11880   -11827   -11780   -11740   -11708   -11678   -11643 
  -11620   -11622   -11651   -11697   -11746   -11799   -11850   -11888 
  -11913   -11936   -11950   -11962   -11978   -11992   -11993   -11985 
  -11967   -11946   -11928   -11915   -11894   -11874   -11866   -11865 
  -11865   -11854   -11821   -11776   -11720   -11653   -11584   -11529 
  -11496   -11493   -11512   -11541   -11580   -11627   -11672   -11720 
  -11770   -11809   -11847   -11893   -11940   -11982   -12013   -12035 
  -12047   -12050   -12047   -12046   -12042   -12024   -11996   -11965 
  -11931   -11897   -11870   -11850   -11853   -11877   -11896   -11916 
  -11952   -11997   -12040   -12067   -12075   -12079   -12083   -12077 
  -12054   -12012   -11962   -11915   -11867   -11831   -11813   -11815 
  -11824   -11835   -11847   -11862   -11869   -11873   -11886   -11898 
  -11907   -11923   -11934   -11928   -11921   -11920   -11916   -11911 
  -11911   -11905   -11889   -11878   -11871   -11859   -11851   -11853 
  -11858   -11875   -11921   -11988   -12052   -12116   -12194   -12280 
  -12363   -12453   -12548   -12627   -12699   -12764   -12803   -12827 
  -12853   -12865   -12865   -12872   -12879   -12870   -12861   -12853 
  -12837   -12808   -12776   -12738   -12694   -12649   -12609   -12571 
  -12534   -12495   -12461   -12451   -12478   -12526   -12569   -12594 
  -12600   -12595   -12572   -12528   -12469   -12387   -12271   -12139 
  -12009   -11878   -11761   -11674   -11611   -11550   -11497   -11461 
  -11431   -11403   -11372   -11341   -11310   -11275   -11232   -11196 
  -11172   -11146   -11126   -11121   -11114   -11095   -11065   -11040 
  -11034   -11043   -11053   -11080   -11121   -11167   -11211   -11252 
  -11291   -11325   -11350   -11380   -11421   -11460   -11502   -11550 
  -11604   -11658   -11711   -11785   -11888   -12008   -12133   -12259 
  -12380   -12487   -12572   -12640   -12700   -12753   -12788   -12804 
  -12818   -12822   -12808   -12796   -12784   -12768   -12760   -12749 
  -12721   -12695   -12673   -12642   -12599   -12534   -12460   -12395 
  -12340   -12297   -12259   -12224   -12208   -12217   -12247   -12297 
  -12357   -12418   -12478   -12518   -12537   -12540   -12528   -12510 
