Origin Time       2025/01/13 21:19:00
Lat.              31.8
Long.             131.6
Depth. (km)       30
Mag.              6.9
Station Code      FKO004
Station Lat.      33.7366
Station Long.     131.0121
Station Height(m) 3
Record Time       2025/01/13 21:20:21
Sampling Freq(Hz) 100Hz
Duration Time(s)  93
Dir.              E-W
Scale Factor      7845(gal)/8223790
Max. Acc. (gal)   5.235
Last Correction   2025/01/13 21:20:21
Memo.             
[...]
   -5917    -5952    -5860    -5663    -5410    -5116    -4854    -4730 
   -4714    -4727    -4777    -4839    -4842    -4791    -4752    -4768 
   -4793    -4689    -4395    -4001    -3620    -3299    -3028    -2787 
   -2590    -2497    -2555    -2718    -2928    -3167    -3404    -3599 
   -3754    -3855    -3873    -3815    -3707    -3615    -3616    -3680 
   -3730    -3763    -3775    -3736    -3674    -3628    -3586    -3537 
   -3503    -3507    -3568    -3696    -3879    -4089    -4324    -4580 
   -4822    -5019    -5143    -5181    -5177    -5154    -5100    -5042 
   -4984    -4911    -4865    -4868    -4872    -4837    -4756    -4637 
   -4526    -4449    -4382    -4320    -4272    -4230    -4190    -4213 
   -4357    -4549    -4693    -4796    -4873    -4922    -4928    -4843 
   -4665    -4487    -4355    -4252    -4172    -4075    -3912    -3717 
   -3561    -3453    -3365    -3285    -3217    -3171    -3196    -3327 
   -3523    -3726    -3888    -3983    -4035    -4037    -3975    -3881 
   -3771    -3645    -3530    -3442    -3356    -3299    -3315    -3388 
   -3505    -3650    -3757    -3813    -3879    -3982    -4113    -4243 
   -4309    -4279    -4230    -4245    -4298    -4344    -4402    -4500 
   -4661    -4874    -5092    -5283    -5449    -5570    -5624    -5624 
   -5591    -5521    -5394    -5196    -4909    -4558    -4172    -3781 
   -3439    -3190    -3030    -2959    -2948    -2945    -2949    -2997 
   -3076    -3165    -3275    -3389    -3461    -3543    -3724    -3954 
   -4118    -4172    -4141    -4078    -4031    -4051    -4139    -4221 
   -4259    -4294    -4376    -4492    -4653    -4897    -5152    -5281 
   -5233    -5050    -4799    -4560    -4386    -4290    -4267    -4310 
   -4445    -4679    -4938    -5166    -5358    -5471    -5464    -5358 
   -5184    -4962    -4715    -4463    -4190    -3897    -3640    -3461 
   -3329    -3215    -3109    -3003    -2911    -2851    -2814    -2771 
   -2708    -2671    -2720    -2860    -3045    -3202    -3306    -3400 
   -3511    -3624    -3723    -3789    -3827    -3840    -3817    -3812 
   -3901    -4079    -4302    -4518    -4652    -4711    -4779    -4851 
   -4878    -4882    -4884    -4828    -4706    -4600    -4576    -4631 
   -4742    -4861    -4955    -5043    -5134    -5223    -5339    -5485 
   -5597    -5624    -5555    -5416    -5266    -5120    -4935    -4739 
   -4588    -4456    -4306    -4171    -4074    -4008    -3974    -3955 
   -3915    -3835    -3712    -3578    -3507    -3501    -3499    -3465 
   -3404    -3321    -3262    -3276    -3343    -3430    -3534    -3612 
   -3609    -3549    -3484    -3451    -3478    -3542    -3599    -3649 
   -3686    -3676    -3649    -3657    -3692    -3744    -3805    -3856 
   -3923    -4028    -4137    -4214    -4264    -4282    -4260    -4226 
   -4202    -4152    -4062    -3994    -3994    -4066    -4203    -4394 
   -4580    -4719    -4808    -4860    -4907    -4972    -5063    -5162 
   -5198    -5148    -5082    -5035    -4993    -4941    -4915    -4966 
   -5057    -5071    -4977    -4853    -4746    -4596    -4336    -3981 
   -3597    -3269    -3099    -3140    -3335    -3601    -3836    -3955 
   -4002    -4048    -4066    -4024    -3954    -3886    -3852    -3883 
   -3958    -4012    -4043    -4091    -4163    -4224    -4209    -4110 
   -4005    -3932    -3861    -3796    -3748    -3716    -3721    -3785 
   -3889    -4043    -4260    -4492    -4630    -4612    -4463    -4280 
   -4162    -4125    -4155    -4268    -4463    -4681    -4880    -5031 
   -5120    -5163    -5173    -5113    -4980    -4846    -4750    -4649 
   -4518    -4349    -4108    -3811    -3528    -3337    -3289    -3345 
   -3437    -3589    -3820    -4085    -4349    -4584    -4718    -4714 
   -4583    -4332    -4001    -3694    -3468    -3325    -3289    -3356 
   -3453    -3532    -3618    -3727    -3854    -3991    -4112    -4185 
   -4230    -4264    -4267    -4241    -4206    -4140    -4021    -3890 
   -3771    -3642    -3508    -3385    -3319    -3380    -3542    -3730 
   -3936    -4159    -4376    -4600    -4814    -4973    -5022    -4897 
   -4625    -4326    -4048    -3750    -3437    -3159    -2959    -2882 
   -2948    -3129    -3415    -3819    -4298    -4766    -5152    -5394 
   -5458    -5385    -5239    -5054    -4861    -4700    -4591    -4526 
   -4502    -4514    -4538    -4549    -4560    -4633    -4783    -4938 
   -5043    -5098    -5054    -4885    -4693    -4565    -4460    -4332 
   -4212    -4122    -4060    -4000    -3889    -3721    -3580    -3516 
   -3495    -3464    -3423    -3406    -3434    -3469    -3470    -3464 
   -3477    -3478    -3422    -3288    -3096    -2922    -2832    -2812 
   -2871    -3053    -3307    -3566    -3842    -4137    -4407    -4650 
   -4882    -5094    -5289    -5517    -5780    -6021    -6177    -6205 
   -6108    -5953    -5805    -5663    -5512    -5358    -5231    -5162 
   -5136    -5134    -5198    -5333    -5464    -5552    -5574    -5498 
   -5341    -5109    -4789    -4436    -4147    -3931    -3736    -3539 
   -3345    -3192    -3111    -3076    -3036    -3002    -3019    -3091 
   -3222    -3414    -3588    -3658    -3599    -3410    -3146    -2889 
   -2664    -2470    -2326    -2261    -2296    -2446    -2704    -3041 
   -3458    -3902    -4264    -4531    -4761    -4923    -4982    -4965 
   -4835    -4537    -4156    -3831    -3596    -3462    -3439    -3493 
   -3586    -3705    -3863    -4079    -4317    -4483    -4495    -4337 
   -4052    -3727    -3453    -3250    -3103    -3028    -3009    -3018 
   -3084    -3223    -3397    -3591    -3770    -3893    -3987    -4078 
   -4124    -4089    -3955    -3719    -3424    -3125    -2853    -2637 
   -2497    -2430    -2419    -2475    -2620    -2825    -3071    -3353 
   -3630    -3873    -4099    -4293    -4453    -4600    -4698    -4719 
   -4698    -4653    -4600    -4585    -4639    -4752    -4924    -5127 
   -5281    -5383    -5495    -5595    -5649    -5672    -5652    -5598 
   -5549    -5487    -5401    -5331    -5282    -5239    -5202    -5154 
   -5103    -5103    -5142    -5170    -5163    -5098    -4992    -4900 
   -4834    -4776    -4719    -4649    -4546    -4437    -4379    -4387 
   -4422    -4463    -4513    -4549    -4525    -4437    -4330    -4245 
   -4171    -4070    -3947    -3855    -3812    -3827    -3931    -4121 
   -4355    -4607    -4864    -5077    -5240    -5386    -5516    -5611 
   -5653    -5616    -5499    -5348    -5205    -5090    -4985    -4876 
   -4792    -4757    -4762    -4781    -4806    -4819    -4800    -4742 
   -4637    -4464    -4259    -4072    -3861    -3599    -3356    -3138 
   -2914    -2716    -2581    -2497    -2436    -2377    -2304    -2220 
   -2168    -2192    -2300    -2444    -2565    -2674    -2789    -2839 
   -2797    -2741    -2704    -2702    -2790    -2963    -3190    -3469 
   -3774    -4066    -4317    -4492    -4572    -4588    -4596    -4618 
   -4650    -4692    -4725    -4710    -4625    -4484    -4330    -4189 
   -4008    -3770    -3543    -3379    -3281    -3257    -3271    -3268 
   -3279    -3375    -3555    -3763    -3969    -4178    -4388    -4603 
   -4830    -5055    -5235    -5317    -5294    -5220    -5132    -4996 
   -4801    -4590    -4402    -4303    -4325    -4422    -4541    -4661 
   -4791    -4954    -5136    -5285    -5370    -5401    -5375    -5275 
   -5092    -4839    -4583    -4380    -4217    -4089    -4047    -4094 
   -4166    -4222    -4272    -4310    -4329    -4344    -4332    -4287 
   -4257    -4261    -4261    -4205    -4048    -3808    -3516    -3187 
   -2839    -2517    -2273    -2134    -2154    -2351    -2633    -2924 
   -3245    -3565    -3796    -3951    -4066    -4090    -4035    -3986 
   -3975    -4001    -4033    -4037    -4047    -4101    -4175    -4251 
   -4344    -4449    -4546    -4627    -4681    -4703    -4742    -4807 
   -4838    -4842    -4862    -4888    -4904    -4905    -4855    -4753 
   -4623    -4473    -4326    -4209    -4102    -4014    -3998    -4041 
   -4086    -4125    -4174    -4207    -4214    -4199    -4133    -3991 
   -3808    -3601    -3377    -3165    -3013    -2968    -3056    -3222 
   -3391    -3572    -3777    -3983    -4205    -4445    -4649    -4820 
   -5003    -5177    -5297    -5366    -5416    -5441    -5409    -5313 
   -5196    -5086    -4996    -4938    -4959    -5071    -5223    -5370 
   -5501    -5597    -5628    -5576    -5440    -5221    -4946    -4664 
   -4410    -4193    -4012    -3866    -3761    -3692    -3623    -3530 
   -3422    -3296    -3171    -3073    -2967    -2808    -2636    -2494 
   -2374    -2268    -2181    -2128    -2133    -2184    -2231    -2253 
   -2272    -2309    -2392    -2540    -2768    -3086    -3460    -3820 
   -4140    -4403    -4571    -4658    -4738    -4822    -4862    -4849 
   -4768    -4611    -4415    -4241    -4109    -4013    -3915    -3780 
   -3627    -3474    -3299    -3129    -3028    -2976    -2944    -2924 
   -2891    -2836    -2787    -2748    -2705    -2693    -2745    -2859 
   -3011    -3186    -3352    -3470    -3522    -3510    -3458    -3430 
   -3470    -3601    -3812    -4017    -4167    -4329    -4542    -4750 
   -4938    -5136    -5358    -5611    -5891    -6151    -6359    -6527 
   -6669    -6781    -6853    -6880    -6871    -6864    -6895    -6941 
   -6961    -6941    -6870    -6737    -6569    -6369    -6127    -5845 
   -5522    -5174    -4843    -4533    -4187    -3802    -3431    -3109 
   -2841    -2641    -2504    -2413    -2351    -2304    -2277    -2262 
   -2209    -2096    -1965    -1823    -1626    -1391    -1183    -1066 
   -1078    -1190    -1340    -1528    -1763    -2014    -2281    -2586 
   -2934    -3315    -3716    -4118    -4525    -4936    -5310    -5607 
   -5790    -5833    -5788    -5757    -5769    -5814    -5903    -6037 
   -6180    -6335    -6516    -6686    -6822    -6952    -7079    -7146 
   -7119    -7002    -6797    -6520    -6216    -5930    -5687    -5464 
   -5256    -5100    -4995    -4908    -4833    -4779    -4712    -4588 
   -4407    -4178    -3871    -3497    -3091    -2682    -2320    -2031 
   -1822    -1733    -1748    -1815    -1958    -2193    -2465    -2748 
   -3060    -3388    -3716    -4045    -4388    -4760    -5139    -5468 
   -5734    -5987    -6243    -6494    -6747    -6987    -7172    -7284 
   -7319    -7261    -7117    -6920    -6691    -6448    -6210    -5942 
   -5622    -5297    -5000    -4723    -4482    -4282    -4097    -3931 
   -3790    -3655    -3530    -3443    -3376    -3271    -3102    -2891 
   -2682    -2500    -2324    -2126    -1929    -1749    -1609    -1541 
   -1516    -1494    -1499    -1506    -1462    -1414    -1437    -1518 
   -1636    -1814    -2029    -2230    -2412    -2566    -2671    -2770 
   -2907    -3096    -3342    -3634    -3948    -4270    -4565    -4784 
   -4912    -4977    -5004    -5015    -5036    -5043    -4986    -4891 
   -4788    -4661    -4536    -4455    -4445    -4527    -4687    -4869 
   -5034    -5151    -5208    -5215    -5197    -5163    -5128    -5127 
   -5134    -5107    -5092    -5142    -5227    -5324    -5417    -5494 
   -5597    -5751    -5894    -5976    -6006    -5980    -5895    -5783 
   -5692    -5638    -5605    -5578    -5552    -5521    -5459    -5354 
   -5219    -5090    -4995    -4936    -4912    -4887    -4815    -4683 
   -4476    -4222    -3993    -3796    -3609    -3446    -3318    -3208 
   -3107    -3034    -3007    -3011    -3037    -3071    -3100    -3137 
   -3138    -3092    -3079    -3138    -3265    -3493    -3815    -4158 
   -4483    -4761    -4965    -5139    -5317    -5463    -5553    -5587 
   -5578    -5543    -5468    -5351    -5229    -5121    -5012    -4893 
   -4780    -4677    -4580    -4473    -4329    -4140    -3943    -3793 
   -3707    -3688    -3743    -3840    -3939    -4025    -4087    -4124 
   -4140    -4114    -4006    -3831    -3628    -3429    -3280    -3199 
   -3169    -3213    -3304    -3366    -3399    -3434    -3450    -3453 
   -3474    -3530    -3634    -3816    -4074    -4391    -4761    -5148 
   -5475    -5697    -5813    -5834    -5790    -5724    -5667    -5628 
   -5626    -5645    -5668    -5701    -5710    -5672    -5610    -5485 
   -5225    -4862    -4486    -4151    -3897    -3731    -3599    -3451 
   -3302    -3172    -3092    -3072    -3083    -3110    -3176    -3276 
   -3381    -3473    -3505    -3443    -3327    -3208    -3078    -2902 
   -2671    -2403    -2139    -1929    -1784    -1682    -1641    -1682 
   -1773    -1910    -2104    -2334    -2571    -2787    -2970    -3152 
   -3353    -3538    -3705    -3890    -4094    -4295    -4492    -4685 
   -4869    -5055    -5265    -5486    -5691    -5880    -6019    -6084 
   -6120    -6169    -6210    -6200    -6116    -5998    -5906    -5844 
   -5784    -5730    -5690    -5656    -5618    -5540    -5381    -5147 
   -4855    -4495    -4071    -3636    -3237    -2909    -2668    -2489 
   -2355    -2269    -2176    -2031    -1841    -1606    -1328    -1004 
    -606     -147      287      635      891     1034     1032      908 
     710      454      189      -27     -198     -352     -499     -665 
    -864    -1100    -1394    -1752    -2165    -2632    -3113    -3528 
   -3877    -4183    -4433    -4639    -4843    -5069    -5329    -5667 
   -6093    -6579    -7133    -7747    -8336    -8819    -9146    -9281 
   -9255    -9143    -9009    -8905    -8876    -8941    -9096    -9302 
   -9490    -9607    -9655    -9633    -9531    -9354    -9113    -8788 
   -8376    -7916    -7418    -6879    -6335    -5813    -5314    -4841 
   -4351    -3829    -3326    -2855    -2376    -1899    -1455    -1026 
    -637     -336     -120       33      147      253      344      390 
     398      365      256       79     -110     -309     -554     -870 
   -1255    -1690    -2122    -2515    -2860    -3140    -3357    -3534 
   -3684    -3852    -4085    -4375    -4700    -5051    -5391    -5694 
   -5971    -6232    -6488    -6755    -7044    -7334    -7601    -7828 
   -8004    -8133    -8228    -8280    -8270    -8166    -7951    -7636 
   -7271    -6894    -6498    -6085    -5675    -5239    -4749    -4240 
   -3730    -3206    -2687    -2176    -1696    -1310    -1035     -846 
    -726     -650     -577     -495     -430     -407     -460     -599 
    -773     -953    -1158    -1372    -1572    -1780    -2011    -2288 
   -2625    -2970    -3269    -3542    -3811    -4099    -4441    -4838 
   -5256    -5665    -6046    -6377    -6673    -6930    -7099    -7145 
   -7087    -6963    -6822    -6724    -6675    -6666    -6721    -6855 
   -7047    -7288    -7539    -7717    -7780    -7732    -7565    -7263 
   -6858    -6392    -5887    -5386    -4932    -4548    -4240    -3997 
   -3797    -3634    -3500    -3410    -3383    -3400    -3426    -3453 
   -3484    -3487    -3420    -3283    -3082    -2824    -2573    -2416 
   -2365    -2409    -2540    -2716    -2899    -3065    -3211    -3377 
   -3557    -3694    -3798    -3905    -3969    -3946    -3885    -3817 
   -3739    -3681    -3650    -3609    -3576    -3597    -3693    -3866 
   -4108    -4384    -4671    -4932    -5128    -5256    -5314    -5252 
   -5078    -4861    -4621    -4380    -4225    -4191    -4241    -4347 
   -4484    -4595    -4645    -4623    -4536    -4398    -4213    -3975 
   -3720    -3492    -3326    -3210    -3130    -3084    -3053    -3022 
   -3001    -2994    -3015    -3067    -3122    -3173    -3237    -3321 
   -3419    -3532    -3653    -3763    -3848    -3894    -3888    -3825 
   -3728    -3620    -3522    -3453    -3410    -3384    -3404    -3481 
   -3613    -3820    -4083    -4344    -4585    -4796    -4951    -5089 
   -5239    -5379    -5510    -5613    -5647    -5648    -5655    -5648 
   -5629    -5626    -5616    -5584    -5525    -5406    -5244    -5093 
   -4922    -4700    -4468    -4240    -4001    -3769    -3543    -3300 
   -3055    -2820    -2586    -2374    -2209    -2107    -2079    -2104 
   -2139    -2166    -2181    -2174    -2151    -2137    -2123    -2093 
   -2064    -2025    -1953    -1876    -1827    -1834    -1935    -2145 
   -2420    -2714    -2994    -3250    -3483    -3680    -3834    -3956 
   -4071    -4198    -4353    -4558    -4822    -5115    -5405    -5686 
   -5961    -6222    -6428    -6559    -6635    -6681    -6697    -6691 
   -6693    -6721    -6745    -6736    -6689    -6597    -6457    -6285 
   -6103    -5933    -5811    -5760    -5759    -5765    -5711    -5560 
   -5325    -5001    -4583    -4129    -3682    -3234    -2813    -2442 
   -2088    -1733    -1394    -1067     -757     -491     -270      -87 
      18       37      -10     -124     -290     -492     -738    -1017 
   -1317    -1638    -1935    -2165    -2373    -2628    -2948    -3334 
   -3798    -4329    -4888    -5449    -5980    -6424    -6754    -6987 
   -7142    -7237    -7311    -7400    -7526    -7692    -7848    -7956 
   -8021    -8050    -8055    -8062    -8074    -8063    -8006    -7890 
   -7704    -7473    -7244    -7002    -6721    -6417    -6073    -5683 
   -5294    -4935    -4600    -4288    -3979    -3635    -3226    -2725 
   -2166    -1620    -1135     -724     -403     -172        1      136 
     218      255      261      209       99      -62     -313     -662 
   -1089    -1572    -2087    -2604    -3126    -3669    -4230    -4811 
   -5404    -5976    -6520    -7022    -7460    -7838    -8158    -8413 
   -8627    -8819    -8968    -9045    -9036    -8973    -8888    -8788 
   -8658    -8492    -8299    -8106    -7913    -7699    -7438    -7101 
   -6685    -6230    -5749    -5236    -4699    -4159    -3636    -3160 
   -2749    -2413    -2133    -1890    -1661    -1410    -1144     -896 
    -691     -567     -544     -611     -772    -1007    -1289    -1613 
   -1935    -2226    -2516    -2839    -3183    -3557    -3985    -4452 
   -4926    -5378    -5776    -6085    -6324    -6523    -6697    -6872 
   -7034    -7161    -7261    -7312    -7280    -7190    -7078    -6941 
   -6774    -6552    -6253    -5922    -5590    -5223    -4812    -4399 
   -3987    -3580    -3219    -2910    -2624    -2355    -2087    -1790 
   -1464    -1128     -774     -406      -47      278      531      696 
     792      816      758      645      488      243     -125     -606 
   -1183    -1840    -2519    -3160    -3765    -4352    -4895    -5378 
   -5819    -6212    -6540    -6812    -7026    -7204    -7379    -7542 
   -7701    -7857    -7963    -8004    -7989    -7902    -7728    -7477 
   -7142    -6718    -6249    -5779    -5325    -4931    -4600    -4293 
   -3998    -3732    -3469    -3195    -2940    -2728    -2558    -2413 
   -2257    -2074    -1876    -1661    -1444    -1271    -1156    -1090 
   -1089    -1182    -1371    -1645    -1975    -2301    -2592    -2836 
   -3036    -3221    -3433    -3667    -3910    -4171    -4471    -4826 
   -5243    -5690    -6135    -6585    -7037    -7470    -7861    -8171 
   -8344    -8361    -8253    -8033    -7707    -7310    -6885    -6444 
   -5994    -5553    -5146    -4768    -4414    -4091    -3828    -3645 
   -3512    -3411    -3338    -3279    -3213    -3133    -3002    -2793 
   -2528    -2227    -1904    -1593    -1301    -1021     -784     -633 
    -572     -595     -708     -899    -1146    -1425    -1705    -1971 
