Origin Time       2025/01/13 21:19:00
Lat.              31.8
Long.             131.6
Depth. (km)       30
Mag.              6.9
Station Code      FKO003
Station Lat.      33.8324
Station Long.     130.9013
Station Height(m) 14
Record Time       2025/01/13 21:20:23
Sampling Freq(Hz) 100Hz
Duration Time(s)  90
Dir.              U-D
Scale Factor      7845(gal)/8223790
Max. Acc. (gal)   0.864
Last Correction   2025/01/13 21:20:23
Memo.             
[...]
  -10374   -10261   -10185   -10180   -10245   -10358   -10466   -10505 
  -10486   -10466   -10465   -10461   -10453   -10459   -10482   -10489 
  -10439   -10332   -10207   -10103   -10058   -10068   -10091   -10108 
  -10150   -10219   -10266   -10287   -10328   -10395   -10439   -10446 
  -10449   -10480   -10517   -10519   -10494   -10482   -10486   -10478 
  -10457   -10443   -10424   -10382   -10334   -10309   -10316   -10304 
  -10237   -10184   -10206   -10250   -10258   -10272   -10345   -10454 
  -10535   -10582   -10638   -10686   -10677   -10620   -10585   -10608 
  -10650   -10638   -10567   -10498   -10465   -10439   -10366   -10249 
  -10157   -10129   -10115   -10071   -10033   -10054   -10115   -10152 
  -10158   -10166   -10165   -10152   -10168   -10239   -10323   -10369 
  -10385   -10415   -10470   -10531   -10581   -10608   -10602   -10581 
  -10585   -10639   -10710   -10748   -10752   -10759   -10770   -10751 
  -10697   -10631   -10561   -10508   -10485   -10462   -10405   -10318 
  -10266   -10309   -10403   -10438   -10388   -10316   -10268   -10228 
  -10174   -10139   -10160   -10212   -10265   -10324   -10396   -10442 
  -10412   -10332   -10297   -10330   -10376   -10393   -10390   -10401 
  -10435   -10471   -10498   -10505   -10482   -10454   -10486   -10593 
  -10696   -10712   -10654   -10611   -10623   -10655   -10656   -10615 
  -10557   -10507   -10489   -10498   -10481   -10396   -10301   -10278 
  -10335   -10427   -10501   -10543   -10574   -10601   -10602   -10574 
  -10551   -10534   -10485   -10405   -10341   -10314   -10281   -10203 
  -10115   -10053   -10006    -9937    -9857    -9817    -9856    -9944 
  -10025   -10089   -10165   -10258   -10354   -10438   -10501   -10548 
  -10582   -10604   -10628   -10658   -10667   -10646   -10608   -10562 
  -10523   -10508   -10496   -10454   -10426   -10463   -10542   -10596 
  -10600   -10579   -10562   -10543   -10521   -10500   -10498   -10539 
  -10589   -10604   -10592   -10588   -10606   -10652   -10716   -10759 
  -10735   -10643   -10555   -10516   -10489   -10444   -10412   -10405 
  -10380   -10315   -10258   -10251   -10273   -10268   -10241   -10242 
  -10295   -10361   -10400   -10420   -10443   -10465   -10478   -10488 
  -10488   -10461   -10420   -10396   -10390   -10404   -10451   -10508 
  -10532   -10519   -10503   -10528   -10592   -10643   -10650   -10643 
  -10644   -10674   -10736   -10794   -10812   -10786   -10740   -10696 
  -10647   -10582   -10519   -10494   -10507   -10535   -10585   -10660 
  -10739   -10786   -10782   -10744   -10693   -10619   -10525   -10453 
  -10438   -10476   -10530   -10582   -10646   -10710   -10743   -10727 
  -10689   -10662   -10647   -10644   -10638   -10569   -10435   -10318 
  -10264   -10234   -10169   -10092   -10079   -10112   -10102   -10017 
   -9934    -9950   -10071   -10220   -10327   -10396   -10485   -10590 
  -10663   -10705   -10735   -10720   -10654   -10586   -10540   -10512 
  -10509   -10512   -10473   -10381   -10285   -10216   -10145   -10053 
  -10004   -10052   -10131   -10145   -10102   -10095   -10152   -10235 
  -10319   -10392   -10451   -10486   -10480   -10453   -10434   -10405 
  -10368   -10353   -10390   -10471   -10558   -10601   -10575   -10501 
  -10419   -10341   -10280   -10246   -10224   -10223   -10251   -10281 
  -10280   -10237   -10158   -10073   -10030   -10052   -10119   -10195 
  -10245   -10274   -10331   -10409   -10461   -10477   -10481   -10488 
  -10485   -10449   -10376   -10300   -10262   -10297   -10389   -10473 
  -10516   -10566   -10655   -10740   -10763   -10717   -10643   -10578 
  -10524   -10476   -10434   -10372   -10282   -10208   -10184   -10191 
  -10191   -10166   -10133   -10135   -10204   -10315   -10397   -10416 
  -10412   -10405   -10377   -10345   -10355   -10386   -10359   -10274 
  -10208   -10203   -10211   -10192   -10165   -10147   -10133   -10134 
  -10166   -10216   -10273   -10332   -10372   -10365   -10335   -10330 
  -10347   -10359   -10365   -10416   -10552   -10737   -10894   -10984 
  -11009   -10986   -10920   -10817   -10714   -10655   -10643   -10648 
  -10655   -10652   -10635   -10636   -10673   -10683   -10615   -10489 
  -10358   -10243   -10143   -10054    -9980    -9929    -9891    -9864 
   -9865    -9906    -9977   -10058   -10134   -10201   -10251   -10261 
  -10245   -10243   -10273   -10304   -10312   -10304   -10292   -10300 
  -10331   -10357   -10377   -10405   -10428   -10432   -10431   -10451 
  -10492   -10521   -10528   -10548   -10605   -10670   -10719   -10755 
  -10763   -10731   -10667   -10582   -10494   -10435   -10408   -10396 
  -10369   -10307   -10238   -10208   -10216   -10228   -10215   -10168 
  -10115   -10095   -10118   -10165   -10204   -10218   -10228   -10268 
  -10338   -10408   -10467   -10527   -10567   -10559   -10543   -10585 
  -10670   -10705   -10654   -10585   -10563   -10565   -10547   -10525 
  -10521   -10525   -10504   -10442   -10361   -10301   -10291   -10319 
  -10345   -10354   -10359   -10357   -10319   -10243   -10152   -10081 
  -10045   -10011    -9960    -9906    -9888    -9930   -10008   -10069 
  -10093   -10123   -10204   -10331   -10490   -10656   -10790   -10887 
  -10980   -11055   -11084   -11064   -10997   -10897   -10779   -10651 
  -10520   -10401   -10295   -10195   -10122   -10104   -10146   -10218 
  -10277   -10305   -10332   -10385   -10462   -10550   -10600   -10581 
  -10539   -10532   -10558   -10566   -10520   -10428   -10323   -10223 
  -10130   -10057   -10015   -10011   -10041   -10089   -10145   -10220 
  -10323   -10427   -10517   -10612   -10696   -10754   -10809   -10867 
  -10901   -10898   -10866   -10829   -10812   -10781   -10712   -10644 
  -10602   -10565   -10505   -10420   -10343   -10315   -10330   -10346 
  -10347   -10362   -10422   -10521   -10623   -10697   -10762   -10839 
  -10899   -10901   -10824   -10682   -10515   -10370   -10272   -10214 
  -10173   -10123   -10065   -10044   -10092   -10153   -10168   -10164 
  -10184   -10238   -10316   -10393   -10443   -10450   -10420   -10374 
  -10316   -10254   -10218   -10220   -10227   -10207   -10192   -10212 
  -10265   -10332   -10386   -10422   -10467   -10530   -10573   -10581 
  -10570   -10569   -10593   -10613   -10593   -10528   -10444   -10351 
  -10246   -10137   -10042    -9971    -9930    -9906    -9896    -9922 
   -9972   -10034   -10110   -10193   -10291   -10408   -10513   -10555 
  -10546   -10540   -10575   -10636   -10674   -10674   -10666   -10667 
  -10659   -10633   -10588   -10519   -10451   -10420   -10436   -10470 
  -10474   -10439   -10405   -10389   -10363   -10322   -10308   -10350 
  -10430   -10498   -10516   -10463   -10374   -10315   -10312   -10323 
  -10309   -10289   -10293   -10320   -10351   -10358   -10328   -10270 
  -10197   -10134   -10088   -10054   -10039   -10066   -10122   -10183 
  -10231   -10247   -10235   -10237   -10266   -10304   -10322   -10324 
  -10353   -10413   -10457   -10442   -10365   -10257   -10170   -10127 
  -10115   -10111   -10104   -10096   -10076   -10038   -10002    -9988 
   -9983    -9953    -9909    -9899    -9973   -10120   -10264   -10361 
  -10413   -10440   -10443   -10403   -10324   -10254   -10220   -10216 
  -10235   -10287   -10368   -10449   -10501   -10519   -10538   -10570 
  -10592   -10611   -10660   -10743   -10831   -10906   -10962   -10990 
  -10991   -10962   -10905   -10848   -10812   -10800   -10791   -10748 
  -10655   -10540   -10443   -10373   -10318   -10266   -10235   -10250 
  -10292   -10331   -10389   -10480   -10540   -10519   -10474   -10469 
  -10480   -10465   -10431   -10393   -10358   -10311   -10242   -10173 
  -10133   -10126   -10168   -10253   -10335   -10370   -10365   -10373 
  -10443   -10552   -10627   -10648   -10642   -10623   -10604   -10582 
  -10538   -10469   -10397   -10338   -10272   -10173   -10064   -10008 
  -10027   -10080   -10120   -10135   -10146   -10180   -10218   -10220 
  -10185   -10156   -10168   -10228   -10312   -10395   -10463   -10494 
  -10478   -10436   -10404   -10385   -10372   -10359   -10346   -10307 
  -10234   -10169   -10161   -10214   -10303   -10397   -10486   -10571 
  -10655   -10746   -10837   -10908   -10930   -10910   -10854   -10767 
  -10663   -10538   -10407   -10297   -10219   -10176   -10153   -10116 
  -10069   -10039   -10019    -9991    -9952    -9918    -9923    -9977 
  -10054   -10133   -10195   -10226   -10231   -10218   -10208   -10197 
  -10161   -10125   -10123   -10147   -10160   -10157   -10173   -10226 
  -10272   -10285   -10300   -10359   -10467   -10590   -10686   -10746 
  -10785   -10814   -10843   -10866   -10847   -10758   -10617   -10486 
  -10404   -10389   -10427   -10457   -10455   -10442   -10422   -10397 
  -10397   -10431   -10478   -10516   -10546   -10598   -10678   -10733 
  -10732   -10702   -10659   -10602   -10542   -10490   -10451   -10434 
  -10443   -10494   -10579   -10675   -10748   -10778   -10775   -10763 
  -10750   -10727   -10685   -10638   -10602   -10567   -10523   -10489 
  -10489   -10504   -10497   -10467   -10451   -10458   -10471   -10477 
  -10478   -10494   -10508   -10488   -10453   -10428   -10415   -10416 
  -10434   -10450   -10440   -10400   -10363   -10354   -10355   -10351 
  -10353   -10376   -10420   -10465   -10488   -10492   -10473   -10435 
  -10399   -10376   -10361   -10328   -10266   -10222   -10228   -10239 
  -10219   -10204   -10226   -10274   -10336   -10404   -10466   -10501 
  -10505   -10511   -10558   -10619   -10639   -10613   -10588   -10598 
  -10633   -10635   -10584   -10525   -10490   -10466   -10454   -10467 
  -10497   -10513   -10500   -10477   -10477   -10489   -10488   -10484 
  -10511   -10567   -10613   -10608   -10569   -10548   -10547   -10517 
  -10461   -10423   -10407   -10361   -10296   -10280   -10311   -10331 
  -10324   -10323   -10342   -10368   -10382   -10397   -10424   -10455 
  -10485   -10507   -10509   -10486   -10444   -10407   -10378   -10334 
  -10258   -10173   -10093   -10027    -9995   -10006   -10050   -10112 
  -10176   -10223   -10242   -10253   -10308   -10408   -10505   -10574 
  -10625   -10656   -10675   -10700   -10728   -10751   -10740   -10689 
  -10621   -10554   -10485   -10422   -10384   -10384   -10408   -10434 
  -10453   -10478   -10534   -10613   -10682   -10725   -10758   -10778 
  -10775   -10752   -10720   -10679   -10631   -10565   -10467   -10354 
  -10257   -10196   -10166   -10142   -10108   -10091   -10108   -10153 
  -10234   -10343   -10459   -10544   -10567   -10530   -10470   -10407 
  -10349   -10285   -10207   -10146   -10138   -10158   -10169   -10164 
  -10165   -10196   -10230   -10228   -10203   -10195   -10215   -10227 
  -10214   -10193   -10174   -10152   -10127   -10099   -10064   -10044 
  -10058   -10104   -10154   -10193   -10238   -10285   -10314   -10342 
  -10405   -10494   -10552   -10555   -10535   -10520   -10509   -10492 
  -10462   -10436   -10450   -10517   -10604   -10663   -10683   -10682 
  -10690   -10737   -10813   -10875   -10886   -10843   -10785   -10759 
  -10770   -10778   -10755   -10701   -10647   -10612   -10585   -10546 
  -10513   -10525   -10571   -10608   -10632   -10666   -10701   -10701 
  -10662   -10651   -10696   -10719   -10666   -10574   -10497   -10446 
  -10399   -10322   -10234   -10188   -10201   -10251   -10299   -10311 
  -10303   -10316   -10359   -10405   -10447   -10515   -10612   -10685 
  -10710   -10704   -10670   -10604   -10524   -10471   -10466   -10494 
  -10517   -10509   -10469   -10416   -10372   -10339   -10311   -10280 
  -10249   -10227   -10203   -10176   -10158   -10146   -10127   -10126 
  -10154   -10197   -10235   -10266   -10308   -10381   -10473   -10544 
  -10567   -10546   -10498   -10444   -10389   -10328   -10265   -10200 
  -10135   -10079   -10038   -10008    -9998   -10019   -10062   -10114 
  -10187   -10273   -10342   -10376   -10397   -10439   -10485   -10493 
  -10469   -10442   -10417   -10378   -10326   -10281   -10268   -10282 
  -10299   -10315   -10345   -10388   -10439   -10496   -10531   -10534 
  -10527   -10528   -10543   -10563   -10565   -10547   -10525   -10503 
  -10481   -10466   -10453   -10438   -10416   -10403   -10407   -10416 
  -10411   -10385   -10354   -10335   -10330   -10330   -10332   -10334 
  -10320   -10281   -10239   -10231   -10281   -10369   -10450   -10494 
  -10515   -10550   -10609   -10654   -10670   -10667   -10656   -10660 
  -10685   -10704   -10704   -10685   -10665   -10656   -10650   -10631 
  -10596   -10547   -10512   -10531   -10588   -10627   -10650   -10702 
  -10782   -10841   -10866   -10866   -10852   -10839   -10844   -10859 
  -10852   -10817   -10775   -10739   -10692   -10623   -10561   -10524 
  -10504   -10490   -10480   -10480   -10489   -10492   -10480   -10467 
  -10470   -10476   -10471   -10461   -10450   -10434   -10419   -10403 
  -10378   -10361   -10358   -10366   -10384   -10408   -10431   -10457 
  -10496   -10554   -10628   -10693   -10733   -10767   -10791   -10786 
  -10747   -10694   -10654   -10636   -10638   -10642   -10633   -10615 
  -10589   -10555   -10496   -10393   -10266   -10160   -10088   -10037 
   -9998    -9980    -9996   -10048   -10114   -10165   -10180   -10157 
  -10123   -10100   -10093   -10108   -10127   -10131   -10122   -10106 
  -10077   -10031    -9968    -9903    -9863    -9850    -9845    -9829 
   -9805    -9782    -9769    -9757    -9730    -9697    -9655    -9606 
   -9572    -9563    -9552    -9521    -9498    -9512    -9548    -9583 
   -9616    -9652    -9687    -9722    -9755    -9782    -9825    -9900 
   -9984   -10046   -10080   -10095   -10099   -10102   -10122   -10157 
  -10183   -10189   -10183   -10184   -10206   -10231   -10251   -10292 
  -10347   -10388   -10403   -10405   -10405   -10411   -10431   -10481 
  -10571   -10675   -10740   -10759   -10762   -10764   -10764   -10762 
  -10773   -10789   -10795   -10806   -10832   -10862   -10887   -10895 
  -10894   -10899   -10887   -10840   -10767   -10678   -10586   -10494 
  -10409   -10332   -10265   -10218   -10192   -10176   -10169   -10172 
  -10173   -10165   -10141   -10089   -10030    -9976    -9937    -9930 
   -9958   -10004   -10046   -10065   -10068   -10068   -10064   -10048 
  -10018    -9981    -9946    -9922    -9898    -9860    -9813    -9775 
   -9765    -9771    -9767    -9756    -9771    -9825    -9886    -9933 
   -9979   -10048   -10142   -10235   -10309   -10393   -10489   -10569 
  -10617   -10644   -10660   -10677   -10696   -10720   -10746   -10768 
  -10798   -10849   -10913   -10959   -10982   -11002   -11037   -11068 
  -11076   -11064   -11033   -10978   -10901   -10818   -10739   -10677 
  -10640   -10609   -10573   -10543   -10534   -10550   -10581   -10608 
  -10633   -10678   -10739   -10802   -10849   -10872   -10875   -10856 
  -10821   -10794   -10787   -10790   -10786   -10764   -10744   -10717 
  -10662   -10605   -10582   -10579   -10569   -10539   -10496   -10451 
  -10396   -10311   -10196   -10077    -9985    -9930    -9895    -9871 
   -9859    -9859    -9855    -9841    -9830    -9826    -9826    -9817 
   -9807    -9799    -9784    -9771    -9772    -9784    -9801    -9815 
   -9814    -9794    -9767    -9733    -9688    -9632    -9576    -9548 
   -9552    -9567    -9580    -9598    -9641    -9717    -9813    -9921 
  -10035   -10141   -10238   -10336   -10432   -10530   -10613   -10654 
  -10652   -10640   -10633   -10615   -10571   -10515   -10466   -10449 
  -10462   -10484   -10484   -10450   -10392   -10338   -10308   -10307 
  -10335   -10401   -10489   -10555   -10589   -10612   -10635   -10659 
  -10683   -10712   -10748   -10789   -10837   -10899   -10971   -11038 
  -11095   -11136   -11163   -11168   -11138   -11086   -11043   -11017 
  -10999   -10990   -10983   -10976   -10975   -10963   -10920   -10864 
  -10829   -10820   -10827   -10843   -10864   -10871   -10848   -10805 
  -10773   -10763   -10751   -10712   -10646   -10582   -10543   -10521 
  -10494   -10459   -10435   -10426   -10415   -10409   -10431   -10477 
  -10523   -10569   -10639   -10736   -10829   -10899   -10949   -10976 
  -10979   -10952   -10898   -10839   -10779   -10702   -10601   -10489 
  -10381   -10264   -10126    -9977    -9849    -9755    -9682    -9624 
   -9587    -9590    -9641    -9749    -9906   -10079   -10253   -10423 
  -10590   -10746   -10867   -10930   -10952   -10964   -10974   -10957 
  -10921   -10882   -10849   -10818   -10773   -10723   -10686   -10660 
  -10636   -10611   -10594   -10581   -10544   -10471   -10380   -10282 
  -10184   -10084    -9980    -9877    -9794    -9732    -9687    -9656 
   -9647    -9657    -9675    -9694    -9724    -9764    -9817    -9883 
   -9954   -10025   -10107   -10191   -10246   -10265   -10264   -10258 
  -10257   -10254   -10251   -10262   -10293   -10322   -10332   -10323 
  -10288   -10231   -10165   -10088   -10008    -9954    -9941    -9960 
  -10000   -10041   -10062   -10072   -10088   -10119   -10154   -10180 
  -10200   -10223   -10262   -10324   -10388   -10434   -10466   -10496 
  -10517   -10525   -10528   -10540   -10571   -10615   -10642   -10644 
  -10628   -10598   -10562   -10519   -10461   -10381   -10296   -10234 
  -10200   -10191   -10195   -10199   -10211   -10241   -10270   -10297 
  -10338   -10405   -10494   -10588   -10670   -10732   -10767   -10779 
  -10781   -10759   -10701   -10623   -10558   -10531   -10544   -10569 
  -10601   -10658   -10737   -10825   -10898   -10941   -10964   -10979 
  -10978   -10960   -10944   -10930   -10920   -10913   -10920   -10935 
  -10941   -10929   -10898   -10851   -10783   -10704   -10628   -10563 
  -10503   -10450   -10413   -10400   -10404   -10404   -10403   -10419 
  -10458   -10519   -10588   -10656   -10721   -10778   -10833   -10885 
  -10903   -10881   -10829   -10764   -10705   -10655   -10617   -10593 
  -10582   -10571   -10562   -10567   -10578   -10581   -10574   -10552 
  -10517   -10485   -10462   -10447   -10438   -10427   -10413   -10411 
  -10417   -10430   -10446   -10465   -10482   -10494   -10498   -10504 
  -10523   -10543   -10554   -10551   -10525   -10473   -10401   -10322 
  -10239   -10153   -10073   -10021   -10000   -10002   -10015   -10026 
  -10026   -10022   -10025   -10030   -10027   -10011    -9994    -9991 
   -9998   -10003   -10012   -10019   -10011    -9994    -9981    -9968 
   -9944    -9913    -9888    -9882    -9898    -9937    -9995   -10065 
  -10145   -10218   -10281   -10338   -10399   -10459   -10500   -10528 
  -10557   -10577   -10574   -10534   -10463   -10381   -10289   -10196 
  -10114   -10046    -9999    -9980    -9972    -9956    -9949    -9963 
   -9987   -10029   -10096   -10179   -10251   -10303   -10346   -10392 
  -10430   -10443   -10440   -10435   -10434   -10447   -10480   -10519 
  -10547   -10567   -10577   -10585   -10597   -10606   -10613   -10615 
  -10598   -10551   -10484   -10413   -10354   -10311   -10288   -10280 
  -10293   -10322   -10349   -10373   -10389   -10389   -10388   -10386 
  -10370   -10346   -10314   -10276   -10246   -10224   -10197   -10164 
  -10120   -10091   -10099   -10127   -10142   -10129   -10107   -10106 
  -10126   -10139   -10139   -10131   -10125   -10122   -10115   -10106 
  -10099   -10091   -10084   -10087   -10095   -10095   -10085   -10056 
