Origin Time       2025/01/13 21:19:00
Lat.              31.8
Long.             131.6
Depth. (km)       30
Mag.              6.9
Station Code      HRS003
Station Lat.      34.8138
Station Long.     132.8427
Station Height(m) 156
Record Time       2025/01/13 21:21:15
Sampling Freq(Hz) 100Hz
Duration Time(s)  60
Dir.              U-D
Scale Factor      7845(gal)/8223790
Max. Acc. (gal)   1.115
Last Correction   2025/01/13 21:21:16
Memo.             
[...]
   13174    13147    13117    13113    13149    13201    13234    13223 
   13173    13119    13095    13103    13100    13073    13051    13058 
   13096    13142    13173    13180    13177    13169    13140    13089 
   13026    12987    12987    12982    12950    12895    12850    12843 
   12860    12869    12884    12927    12969    12985    12981    12957 
   12938    12946    12982    13026    13061    13086    13097    13082 
   13045    12999    12957    12904    12839    12787    12784    12829 
   12874    12911    12953    12991    13022    13022    12962    12861 
   12791    12789    12814    12820    12816    12827    12843    12870 
   12897    12891    12854    12811    12773    12764    12781    12796 
   12784    12756    12741    12730    12706    12675    12663    12675 
   12694    12691    12642    12575    12545    12568    12621    12650 
   12633    12599    12606    12671    12752    12803    12818    12816 
   12818    12829    12842    12843    12843    12850    12860    12873 
   12885    12893    12887    12852    12808    12799    12831    12860 
   12843    12799    12757    12748    12776    12818    12849    12868 
   12895    12924    12938    12951    12984    13026    13053    13073 
   13078    13038    12962    12888    12843    12830    12819    12788 
   12749    12737    12753    12765    12754    12723    12694    12675 
   12656    12627    12610    12637    12707    12783    12800    12765 
   12749    12773    12808    12830    12835    12835    12853    12881 
   12887    12856    12814    12777    12757    12746    12726    12673 
   12625    12640    12690    12714    12699    12672    12665    12673 
   12665    12633    12594    12572    12595    12665    12734    12765 
   12777    12799    12838    12877    12904    12918    12911    12887 
   12858    12826    12776    12725    12698    12680    12661    12654 
   12661    12671    12669    12656    12648    12652    12664    12669 
   12669    12665    12676    12722    12773    12807    12822    12815 
   12796    12773    12739    12699    12679    12685    12712    12779 
   12872    12947    12989    13009    13031    13076    13123    13117 
   13062    13019    13014    13015    12985    12922    12847    12787 
   12754    12734    12714    12706    12721    12766    12814    12834 
   12842    12874    12943    13023    13072    13053    12988    12946 
   12961    12996    12997    12972    12973    13031    13113    13157 
   13155    13169    13212    13270    13338    13416    13494    13544 
   13548    13508    13474    13474    13475    13464    13462    13477 
   13475    13443    13392    13350    13346    13344    13289    13203 
   13158    13161    13153    13103    13019    12946    12922    12914 
   12887    12860    12852    12841    12819    12816    12834    12854 
   12876    12884    12869    12847    12837    12850    12879    12895 
   12880    12852    12833    12822    12822    12830    12849    12880 
   12918    12966    13015    13030    13005    12982    12997    13028 
   13046    13054    13066    13090    13123    13155    13162    13146 
   13134    13126    13116    13109    13120    13146    13163    13161 
   13132    13081    13023    12989    13007    13057    13108    13147 
   13178    13209    13240    13267    13279    13279    13286    13308 
   13342    13363    13360    13342    13327    13324    13305    13263 
   13231    13217    13208    13197    13204    13208    13196    13188 
   13203    13238    13265    13263    13234    13198    13185    13193 
   13217    13238    13236    13225    13225    13257    13313    13365 
   13382    13365    13347    13331    13302    13255    13192    13140 
   13109    13072    13034    13014    13001    12984    12961    12934 
   12892    12845    12823    12847    12888    12897    12866    12826 
   12822    12862    12889    12853    12785    12757    12773    12798 
   12799    12781    12779    12802    12823    12834    12838    12830 
   12804    12791    12811    12831    12830    12829    12847    12869 
   12876    12866    12819    12750    12703    12683    12660    12622 
   12587    12571    12582    12609    12636    12661    12673    12667 
   12648    12621    12596    12590    12607    12622    12613    12611 
   12619    12629    12641    12653    12669    12704    12758    12806 
   12835    12856    12854    12835    12819    12816    12810    12783 
   12734    12676    12634    12631    12652    12656    12641    12656 
   12715    12785    12826    12822    12802    12803    12823    12830 
   12820    12829    12846    12846    12827    12802    12783    12777 
   12796    12815    12810    12783    12749    12729    12719    12704 
   12696    12696    12702    12699    12669    12600    12514    12456 
   12420    12383    12353    12345    12361    12387    12417    12451 
   12484    12526    12573    12630    12694    12758    12818    12877 
   12947    13008    13046    13070    13085    13095    13103    13103 
   13095    13105    13147    13181    13188    13186    13180    13154 
   13096    13031    12981    12945    12895    12835    12804    12816 
   12849    12879    12893    12912    12941    12957    12953    12947 
   12955    12980    13003    12996    12962    12941    12934    12938 
   12951    12965    12982    13001    13001    12977    12938    12906 
   12907    12950    13004    13047    13074    13081    13084    13093 
   13107    13113    13099    13068    13036    13032    13047    13041 
   13012    12989    12981    12976    12966    12946    12906    12884 
   12899    12911    12904    12906    12931    12962    12978    12985 
   12991    13004    13023    13043    13070    13116    13178    13246 
   13302    13319    13294    13263    13248    13250    13255    13262 
   13274    13286    13294    13275    13225    13169    13120    13073 
   13024    12993    12982    12968    12935    12888    12845    12818 
   12791    12762    12758    12773    12779    12773    12776    12788 
   12808    12825    12838    12857    12874    12885    12903    12931 
   12972    13031    13100    13154    13203    13258    13300    13324 
   13335    13329    13316    13305    13308    13312    13297    13254 
   13189    13109    13028    12966    12910    12846    12791    12746 
   12694    12622    12561    12540    12545    12555    12560    12573 
   12610    12649    12658    12637    12611    12592    12580    12584 
   12599    12634    12681    12695    12665    12627    12619    12631 
   12644    12653    12672    12700    12735    12766    12768    12752 
   12739    12708    12669    12653    12652    12654    12650    12634 
   12623    12641    12695    12758    12808    12838    12866    12896 
   12908    12904    12896    12903    12920    12922    12900    12877 
   12868    12862    12842    12793    12719    12657    12629    12606 
   12569    12536    12529    12549    12596    12658    12717    12769 
   12814    12850    12883    12911    12939    12974    13024    13085 
   13139    13181    13203    13215    13227    13227    13215    13200 
   13181    13151    13123    13108    13092    13074    13061    13049 
   13031    12993    12934    12885    12881    12908    12927    12934 
   12931    12908    12861    12798    12718    12637    12573    12515 
   12457    12410    12379    12374    12394    12432    12471    12509 
   12560    12619    12668    12699    12731    12781    12830    12860 
   12860    12839    12815    12785    12756    12745    12754    12776 
   12799    12831    12881    12949    13024    13090    13146    13190 
   13220    13227    13204    13192    13212    13238    13246    13254 
   13273    13284    13281    13279    13294    13323    13356    13378 
   13375    13370    13379    13393    13389    13354    13306    13263 
   13216    13178    13159    13138    13107    13092    13096    13095 
   13080    13047    12989    12919    12860    12834    12823    12804 
   12783    12760    12739    12721    12695    12672    12661    12667 
   12691    12741    12807    12873    12941    13000    13046    13097 
   13155    13203    13239    13278    13317    13348    13383    13428 
   13479    13533    13594    13629    13613    13583    13564    13547 
   13514    13466    13412    13359    13312    13266    13209    13149 
   13099    13059    13015    12955    12895    12850    12837    12825 
   12791    12760    12762    12810    12870    12904    12914    12919 
   12926    12931    12930    12904    12845    12769    12708    12667 
   12633    12602    12569    12529    12483    12433    12394    12387 
   12401    12395    12364    12341    12345    12351    12356    12370 
   12388    12425    12482    12548    12611    12677    12733    12765 
   12789    12829    12891    12953    12997    13018    13018    13018 
   13035    13063    13077    13058    13020    12982    12966    12972 
   12973    12955    12914    12879    12874    12885    12903    12919 
   12930    12943    12980    13016    13018    12992    12957    12927 
   12900    12868    12827    12777    12715    12658    12627    12618 
   12604    12595    12598    12599    12598    12598    12603    12613 
   12619    12615    12602    12588    12577    12572    12577    12591 
   12613    12636    12658    12676    12695    12753    12853    12954 
   13026    13088    13165    13247    13325    13389    13431    13466 
   13508    13548    13567    13571    13570    13551    13524    13500 
   13470    13450    13448    13454    13448    13440    13443    13452 
   13459    13458    13451    13441    13432    13408    13360    13309 
   13277    13269    13275    13274    13259    13248    13243    13225 
   13178    13122    13072    13039    13018    12980    12930    12888 
   12860    12833    12789    12734    12676    12629    12594    12564 
   12540    12529    12532    12540    12548    12569    12599    12621 
   12622    12622    12644    12672    12698    12729    12789    12869 
   12923    12943    12949    12968    12999    13018    13001    12949 
   12895    12854    12812    12756    12673    12579    12505    12452 
   12394    12318    12248    12201    12182    12177    12154    12114 
   12075    12040    12012    11988    11965    11939    11929    11940 
   11947    11950    11970    12010    12055    12104    12160    12213 
   12268    12334    12411    12483    12534    12572    12609    12646 
   12688    12734    12777    12803    12822    12852    12885    12910 
   12918    12927    12951    12982    13015    13035    13039    13047 
   13077    13123    13166    13186    13189    13189    13192    13181 
   13146    13086    13011    12938    12879    12820    12750    12688 
   12642    12602    12575    12567    12567    12571    12591    12641 
   12706    12765    12814    12856    12901    12961    13022    13065 
   13108    13167    13230    13304    13387    13458    13504    13552 
   13616    13660    13679    13679    13666    13662    13686    13716 
   13721    13722    13748    13780    13806    13819    13819    13815 
   13803    13782    13767    13774    13791    13801    13801    13783 
   13748    13709    13674    13644    13612    13572    13518    13459 
   13404    13348    13297    13250    13203    13162    13131    13111 
   13099    13089    13078    13074    13078    13090    13108    13112 
   13100    13096    13097    13084    13068    13053    13031    13004 
   12977    12943    12895    12842    12796    12758    12718    12677 
   12654    12648    12661    12677    12690    12708    12739    12779 
   12815    12847    12873    12893    12927    12958    12960    12943 
   12942    12951    12951    12938    12907    12873    12847    12816 
   12789    12777    12775    12762    12731    12690    12648    12623 
   12611    12588    12557    12545    12559    12579    12595    12595 
   12582    12573    12587    12610    12614    12590    12569    12567 
   12572    12577    12576    12573    12586    12615    12642    12658 
   12667    12665    12660    12661    12671    12692    12711    12718 
   12722    12737    12757    12773    12780    12769    12757    12769 
   12795    12814    12808    12791    12780    12780    12776    12756 
   12730    12710    12706    12721    12725    12722    12748    12811 
   12891    12965    13031    13089    13159    13248    13329    13381 
   13406    13432    13466    13502    13533    13564    13610    13659 
   13709    13761    13801    13822    13834    13832    13810    13782 
   13763    13745    13717    13684    13647    13597    13547    13504 
   13437    13343    13246    13151    13069    12992    12895    12784 
   12683    12595    12511    12441    12397    12366    12337    12312 
   12285    12255    12229    12216    12193    12158    12120    12081 
   12055    12050    12058    12060    12059    12062    12070    12093 
   12135    12183    12221    12239    12256    12291    12328    12341 
   12340    12337    12334    12343    12364    12382    12405    12444 
   12487    12525    12555    12576    12595    12629    12668    12683 
   12668    12650    12645    12641    12630    12613    12584    12552 
   12517    12483    12459    12451    12455    12461    12478    12501 
   12521    12549    12591    12645    12700    12765    12841    12901 
   12966    13047    13134    13220    13312    13406    13497    13586 
   13676    13755    13817    13871    13927    13980    14019    14049 
   14065    14077    14087    14077    14061    14049    14042    14025 
   13979    13902    13814    13741    13667    13571    13479    13414 
   13381    13355    13331    13306    13277    13255    13246    13230 
   13198    13166    13138    13103    13069    13042    13015    12997 
   12989    12970    12933    12892    12861    12838    12822    12818 
   12822    12830    12839    12857    12868    12864    12853    12847 
   12856    12874    12895    12910    12911    12901    12900    12897 
   12872    12842    12822    12796    12765    12733    12695    12661 
   12637    12621    12598    12568    12533    12488    12448    12415 
   12386    12359    12348    12361    12380    12382    12376    12380 
   12391    12387    12361    12322    12302    12306    12298    12282 
   12276    12282    12291    12297    12287    12267    12260    12264 
   12266    12262    12252    12245    12243    12249    12272    12307 
   12353    12410    12474    12532    12582    12645    12718    12788 
   12865    12943    13015    13082    13166    13262    13355    13433 
   13486    13525    13566    13608    13645    13679    13716    13748 
   13783    13825    13859    13871    13867    13857    13846    13838 
   13837    13833    13813    13779    13738    13703    13671    13641 
   13608    13564    13521    13475    13425    13381    13347    13325 
   13312    13302    13286    13255    13221    13201    13188    13159 
   13105    13041    12981    12945    12916    12873    12808    12750 
   12719    12704    12696    12691    12694    12703    12702    12696 
   12692    12684    12675    12658    12634    12604    12577    12567 
   12564    12572    12586    12598    12615    12646    12683    12700 
   12692    12679    12685    12708    12719    12704    12677    12650 
   12627    12599    12564    12518    12469    12432    12410    12413 
   12422    12421    12413    12413    12430    12452    12469    12483 
   12505    12544    12590    12625    12645    12664    12698    12739 
   12776    12800    12812    12829    12850    12872    12887    12904 
   12926    12949    12976    12996    13007    13022    13045    13078 
   13113    13149    13178    13204    13235    13267    13301    13338 
   13363    13378    13383    13379    13381    13394    13410    13419 
   13429    13443    13451    13443    13424    13413    13400    13382 
   13377    13373    13363    13358    13350    13309    13247    13197 
   13157    13112    13061    12997    12926    12860    12810    12766 
   12737    12723    12710    12703    12704    12708    12714    12717 
   12718    12698    12653    12611    12579    12553    12537    12532 
   12532    12537    12541    12541    12542    12545    12550    12555 
   12557    12567    12575    12583    12592    12598    12598    12596 
   12607    12637    12673    12704    12718    12727    12753    12793 
   12833    12866    12901    12934    12974    13028    13090    13155 
   13211    13255    13300    13342    13374    13393    13413    13429 
   13428    13421    13416    13413    13419    13428    13437    13433 
   13421    13405    13390    13379    13365    13354    13355    13350 
   13324    13296    13278    13251    13217    13186    13153    13116 
   13084    13059    13036    13008    12978    12951    12939    12934 
   12924    12924    12927    12922    12916    12919    12919    12915 
   12922    12928    12931    12947    12972    12993    13015    13045 
   13074    13089    13092    13093    13103    13108    13104    13095 
   13085    13068    13039    13004    12957    12899    12853    12818 
   12791    12756    12704    12654    12619    12584    12540    12494 
   12460    12437    12424    12418    12415    12409    12405    12410 
   12413    12418    12432    12452    12484    12522    12565    12615 
   12658    12691    12719    12748    12769    12793    12826    12852 
   12868    12881    12906    12945    12982    13015    13046    13070 
   13095    13120    13149    13169    13184    13192    13196    13197 
   13185    13157    13120    13084    13042    12991    12939    12884 
   12830    12788    12745    12694    12633    12575    12525    12478 
   12441    12417    12402    12395    12398    12401    12399    12402 
   12409    12421    12447    12482    12525    12564    12592    12625 
   12660    12702    12745    12779    12804    12841    12887    12923 
   12942    12943    12946    12957    12966    12965    12958    12958 
   12972    12988    13001    13007    13014    13038    13053    13042 
   13020    13005    13001    13008    13018    13012    13003    12997 
   12995    12993    12991    12993    13001    13005    13007    13011 
   13016    13014    13007    13012    13026    13041    13066    13100 
   13119    13120    13127    13143    13161    13184    13201    13216 
   13228    13235    13234    13227    13224    13228    13236    13242 
   13230    13215    13211    13207    13189    13155    13126    13105 
   13078    13043    13003    12949    12881    12819    12766    12718 
   12667    12603    12541    12480    12429    12397    12374    12345 
   12310    12282    12268    12258    12244    12233    12240    12259 
   12285    12322    12368    12424    12486    12545    12595    12642 
   12687    12733    12785    12837    12884    12930    12962    12985 
   13014    13045    13068    13076    13090    13104    13107    13111 
   13109    13107    13113    13123    13126    13116    13103    13081 
   13058    13051    13047    13027    12995    12970    12946    12924 
   12918    12912    12907    12910    12918    12927    12942    12955 
   12969    12984    12995    13008    13030    13042    13047    13059 
   13077    13090    13092    13088    13084    13078    13078    13078 
   13072    13058    13042    13027    13011    12999    12991    12985 
