Origin Time       2025/01/13 21:19:00
Lat.              31.8
Long.             131.6
Depth. (km)       30
Mag.              6.9
Station Code      HRS014
Station Lat.      34.2864
Station Long.     132.2765
Station Height(m) 3
Record Time       2025/01/13 21:20:31
Sampling Freq(Hz) 100Hz
Duration Time(s)  106
Dir.              U-D
Scale Factor      7845(gal)/8223790
Max. Acc. (gal)   2.763
Last Correction   2025/01/13 21:20:30
Memo.             
[...]
   27699    27638    27623    27594    27510    27415    27378    27398 
   27409    27371    27291    27189    27132    27197    27301    27325 
   27309    27280    27182    27032    26943    26939    26970    27079 
   27302    27504    27600    27727    27931    28020    27970    27959 
   27988    27959    27926    27977    28067    28128    28142    28067 
   27918    27819    27772    27637    27465    27425    27471    27484 
   27476    27494    27521    27523    27522    27549    27591    27626 
   27658    27683    27697    27730    27805    27873    27859    27773 
   27673    27611    27577    27479    27306    27202    27234    27318 
   27356    27328    27286    27306    27459    27676    27807    27820 
   27792    27722    27573    27437    27421    27449    27417    27376 
   27407    27454    27417    27313    27252    27274    27341    27380 
   27290    27082    26887    26725    26570    26504    26518    26485 
   26393    26349    26381    26418    26454    26565    26738    26850 
   26870    26924    27095    27332    27557    27750    27919    28040 
   28124    28206    28260    28240    28155    27996    27765    27522 
   27313    27153    27106    27214    27405    27568    27666    27716 
   27710    27623    27545    27572    27630    27615    27550    27525 
   27569    27626    27649    27689    27757    27753    27638    27508 
   27437    27380    27332    27338    27353    27356    27465    27673 
   27812    27849    27893    27972    28024    28039    28061    28092 
   28081    27993    27847    27683    27550    27488    27472    27463 
   27472    27518    27602    27696    27706    27567    27364    27189 
   27064    27033    27122    27261    27371    27459    27562    27687 
   27849    28044    28182    28216    28220    28185    28036    27841 
   27699    27572    27448    27418    27475    27534    27587    27602 
   27503    27328    27152    26989    26897    26932    27005    27056 
   27125    27214    27303    27392    27433    27405    27405    27471 
   27518    27498    27456    27450    27444    27382    27342    27383 
   27386    27286    27205    27190    27151    27081    27037    26995 
   26941    26947    27012    27094    27263    27579    27873    27978 
   28001    28098    28212    28254    28246    28223    28156    28015 
   27831    27668    27554    27452    27330    27233    27207    27237 
   27306    27410    27534    27637    27691    27716    27749    27773 
   27746    27715    27680    27561    27411    27306    27201    27071 
   26975    26963    27071    27303    27552    27685    27730    27788 
   27847    27816    27741    27716    27645    27400    27112    26971 
   26943    26939    26993    27097    27187    27264    27333    27383 
   27459    27595    27738    27822    27800    27683    27553    27449 
   27387    27423    27518    27554    27541    27529    27475    27378 
   27301    27271    27282    27311    27333    27325    27314    27346 
   27355    27324    27398    27525    27483    27338    27310    27348 
   27282    27180    27155    27098    26982    27000    27183    27355 
   27471    27618    27760    27843    27949    28128    28282    28263 
   28135    28051    27951    27766    27573    27453    27437    27448 
   27376    27283    27294    27394    27472    27492    27498    27514 
   27556    27638    27695    27680    27681    27704    27627    27484 
   27426    27438    27383    27216    27081    27067    27006    26811 
   26690    26784    26973    27112    27176    27280    27479    27650 
   27751    27888    28023    28030    27962    27951    27984    27953 
   27858    27828    27895    27878    27685    27522    27541    27562 
   27427    27263    27160    27044    26956    26991    27052    26998 
   26917    27013    27253    27452    27573    27670    27729    27750 
   27751    27753    27778    27803    27793    27827    27962    28124 
   28210    28194    28105    28009    27972    27990    27999    27905 
   27688    27450    27305    27247    27206    27207    27318    27440 
   27500    27615    27758    27761    27697    27730    27801    27814 
   27792    27751    27622    27410    27292    27367    27498    27573 
   27598    27618    27664    27688    27662    27670    27718    27700 
   27623    27608    27706    27854    27953    27965    27895    27715 
   27444    27159    26964    26914    26898    26817    26763    26804 
   26816    26750    26750    26889    27041    27139    27251    27405 
   27588    27814    28031    28186    28328    28422    28339    28125 
   27942    27818    27710    27634    27643    27700    27706    27658 
   27646    27720    27842    27877    27749    27592    27550    27540 
   27430    27271    27166    27097    27017    26971    26981    27009 
   27047    27076    27118    27238    27360    27363    27322    27378 
   27494    27560    27542    27444    27272    27097    27029    27076 
   27137    27148    27152    27233    27421    27611    27724    27843 
   28015    28108    28023    27851    27706    27587    27476    27376 
   27286    27257    27341    27459    27502    27472    27403    27363 
   27421    27498    27496    27488    27549    27641    27760    27934 
   28061    28043    27955    27927    27938    27884    27777    27693 
   27622    27529    27403    27288    27298    27434    27583    27766 
   28042    28294    28397    28364    28251    28098    27909    27676 
   27450    27288    27167    27059    26958    26858    26731    26590 
   26531    26585    26644    26651    26685    26805    26979    27097 
   27116    27144    27220    27270    27290    27276    27183    27062 
   26997    27006    27072    27197    27364    27502    27580    27660 
   27776    27897    28031    28193    28298    28270    28178    28154 
   28258    28378    28394    28354    28291    28227    28246    28320 
   28345    28344    28378    28439    28440    28321    28127    27957 
   27877    27838    27693    27461    27259    27002    26669    26488 
   26518    26590    26640    26659    26620    26566    26568    26635 
   26765    26910    26958    26896    26842    26873    26994    27152 
   27228    27141    26943    26692    26472    26469    26697    26932 
   27083    27260    27523    27770    27845    27783    27751    27743 
   27638    27390    27062    26805    26674    26597    26623    26767 
   26869    26908    27012    27153    27170    27036    26951    26962 
   26900    26836    26893    26924    26919    27002    27093    27093 
   27116    27265    27433    27469    27441    27480    27556    27612 
   27654    27692    27697    27642    27635    27811    28082    28219 
   28055    27708    27445    27299    27182    27147    27184    27187 
   27194    27294    27506    27781    27940    27911    27803    27675 
   27558    27502    27473    27461    27441    27340    27197    27164 
   27319    27542    27668    27726    27807    27874    27942    27993 
   27954    27959    28092    28216    28321    28447    28514    28474 
   28377    28355    28429    28401    28236    28107    27988    27773 
   27553    27427    27305    27068    26761    26430    26071    25795 
   25744    25898    26194    26503    26680    26805    27009    27214 
   27367    27492    27607    27723    27838    28026    28320    28490 
   28487    28512    28505    28387    28275    28152    27953    27749 
   27614    27583    27621    27638    27615    27553    27461    27345 
   27178    27033    27013    27071    27155    27255    27405    27616 
   27774    27841    27895    27922    27896    27889    27934    27940 
   27800    27596    27514    27495    27446    27457    27464    27340 
   27211    27153    27064    26979    27060    27268    27384    27398 
   27484    27635    27718    27756    27803    27791    27714    27673 
   27673    27610    27518    27468    27421    27415    27562    27787 
   27864    27777    27745    27808    27746    27502    27259    27049 
   26802    26589    26477    26454    26473    26465    26509    26692 
   26851    26879    26898    26991    27147    27287    27303    27248 
   27238    27251    27193    27051    26901    26784    26697    26693 
   26775    26902    27064    27214    27321    27440    27594    27734 
   27827    27919    28026    28021    27830    27616    27498    27394 
   27311    27338    27399    27405    27465    27676    27842    27770 
   27602    27519    27471    27436    27468    27519    27549    27564 
   27553    27540    27531    27498    27465    27479    27498    27438 
   27348    27407    27562    27610    27585    27603    27573    27432 
   27313    27352    27488    27612    27743    27920    28085    28221 
   28379    28528    28578    28566    28593    28637    28653    28736 
   28876    28945    28965    28995    29018    29076    29147    29120 
   28989    28815    28640    28491    28347    28178    28019    27928 
   27930    27918    27750    27504    27334    27222    27114    26987 
   26823    26678    26593    26514    26455    26458    26509    26608 
   26771    26979    27143    27171    27097    27047    27063    27091 
   27086    27113    27225    27278    27195    27153    27203    27221 
   27182    27191    27357    27565    27584    27445    27333    27253 
   27179    27176    27232    27260    27240    27276    27427    27552 
   27572    27584    27635    27729    27864    27967    28034    28131 
   28183    28094    27931    27797    27676    27521    27450    27580 
   27751    27827    27893    27951    27913    27805    27703    27643 
   27627    27627    27652    27703    27746    27791    27854    27909 
   27951    28020    28143    28274    28294    28173    28003    27824 
   27639    27499    27444    27464    27479    27406    27313    27279 
   27283    27299    27311    27283    27240    27233    27276    27373 
   27491    27581    27648    27689    27708    27723    27719    27692 
   27665    27625    27531    27379    27224    27153    27171    27209 
   27263    27394    27548    27541    27353    27195    27144    27081 
   26987    26889    26717    26561    26568    26666    26747    26784 
   26778    26748    26690    26700    26855    26995    26973    26869 
   26802    26816    26846    26781    26635    26461    26239    26018 
   25886    25891    26017    26082    25984    25870    25829    25883 
   26068    26310    26527    26778    27133    27513    27753    27884 
   28116    28425    28633    28764    28865    28852    28767    28732 
   28690    28509    28244    28116    28189    28270    28264    28286 
   28360    28333    28162    28028    28084    28206    28229    28202 
   28270    28393    28424    28372    28372    28437    28518    28636 
   28752    28755    28652    28584    28595    28563    28456    28402 
   28432    28421    28325    28254    28291    28308    28112    27795 
   27557    27365    27106    26847    26736    26761    26800    26901 
   27128    27318    27348    27315    27336    27402    27487    27580 
   27611    27585    27603    27621    27568    27541    27567    27558 
   27538    27599    27735    27877    27980    28027    27982    27810 
   27573    27368    27222    27170    27224    27272    27228    27176 
   27233    27386    27573    27773    27957    28113    28251    28333 
   28320    28255    28163    27996    27766    27530    27302    27097 
   26952    26908    26962    27002    26968    26937    26947    26960 
   26981    27039    27164    27348    27504    27534    27471    27445 
   27469    27449    27387    27309    27139    26919    26811    26823 
   26832    26802    26781    26784    26809    26878    26986    27079 
   27153    27198    27152    27063    27090    27205    27237    27190 
   27170    27186    27178    27124    27032    26905    26794    26779 
   26855    26923    26956    26998    26990    26882    26778    26778 
   26832    26833    26821    26935    27139    27278    27364    27507 
   27648    27734    27880    28098    28217    28212    28224    28247 
   28171    28023    27897    27789    27672    27580    27537    27548 
   27594    27625    27625    27598    27581    27623    27718    27822 
   27901    27938    27984    28082    28146    28129    28140    28246 
   28424    28598    28641    28555    28459    28387    28297    28182 
   28040    27873    27757    27756    27792    27730    27562    27399 
   27287    27217    27221    27275    27279    27226    27203    27206 
   27167    27132    27182    27302    27499    27753    27946    28047 
   28090    28066    28020    28026    28031    27963    27846    27739 
   27675    27645    27616    27557    27436    27284    27162    27047 
   26893    26708    26526    26339    26129    25921    25740    25566 
   25463    25544    25737    25880    25963    26038    26092    26138 
   26211    26256    26202    26098    26048    26086    26180    26319 
   26458    26500    26437    26356    26333    26362    26393    26412 
   26401    26300    26148    26060    26032    25992    25975    26061 
   26256    26516    26808    27054    27197    27318    27483    27598 
   27641    27730    27881    28019    28189    28478    28787    28953 
   29008    29072    29100    29012    28900    28887    28933    28899 
   28740    28570    28480    28399    28258    28117    28069    28115 
   28190    28250    28323    28449    28557    28557    28509    28580 
   28811    29043    29227    29486    29816    30068    30238    30379 
   30389    30229    30033    29871    29674    29403    29088    28800 
   28609    28463    28271    28098    28073    28116    28078    28019 
   28042    28089    28127    28258    28452    28545    28539    28549 
   28572    28579    28587    28521    28306    28063    27909    27765 
   27591    27494    27494    27445    27279    27099    26955    26778 
   26590    26484    26461    26443    26406    26364    26300    26187 
   26055    25928    25768    25589    25444    25316    25219    25231 
   25300    25317    25304    25324    25371    25434    25516    25612 
   25702    25741    25745    25863    26138    26393    26504    26565 
   26673    26771    26827    26923    27086    27236    27309    27307 
   27286    27248    27117    26887    26685    26584    26523    26434 
   26384    26441    26528    26586    26642    26640    26546    26504 
   26634    26825    26935    26985    27072    27205    27314    27375 
   27415    27483    27612    27761    27889    28048    28235    28350 
   28394    28467    28590    28728    28887    29087    29280    29384 
   29384    29353    29324    29246    29111    28964    28790    28597 
   28475    28441    28399    28260    28077    27949    27857    27735 
   27614    27507    27369    27216    27136    27117    27071    26987 
   26914    26889    26973    27164    27333    27406    27446    27529 
   27637    27730    27791    27783    27712    27645    27616    27606 
   27581    27506    27364    27184    27028    26955    26978    27036 
   27047    27000    26952    26917    26883    26898    26962    26998 
   27018    27090    27218    27406    27653    27909    28128    28271 
   28332    28328    28271    28188    28101    28001    27909    27851 
   27814    27789    27784    27745    27635    27498    27375    27257 
   27141    27029    26913    26802    26748    26747    26716    26681 
   26754    26875    26943    27022    27183    27349    27425    27402 
   27422    27588    27778    27858    27868    27881    27884    27826 
   27747    27735    27762    27723    27643    27612    27600    27610 
   27734    27940    28144    28355    28595    28833    29027    29207 
   29384    29513    29612    29722    29771    29671    29452    29182 
   28891    28571    28259    28020    27874    27799    27804    27896 
   28044    28213    28371    28502    28598    28663    28671    28579 
   28451    28387    28345    28233    28070    27881    27607    27259 
   26966    26758    26554    26384    26337    26356    26307    26157 
   25995    25926    25944    25969    25990    26023    26019    25926 
   25806    25755    25762    25752    25689    25623    25614    25635 
   25647    25658    25677    25714    25778    25888    26080    26331 
   26589    26843    27086    27322    27604    27919    28154    28274 
   28347    28433    28526    28567    28537    28485    28441    28375 
   28254    28121    28020    27874    27664    27481    27359    27222 
   27059    26924    26819    26700    26582    26538    26581    26662 
   26775    26941    27130    27325    27561    27796    27931    27992 
   28077    28163    28175    28134    28111    28075    28001    27974 
   27989    27908    27760    27708    27745    27742    27692    27677 
   27697    27707    27720    27746    27757    27766    27808    27862 
   27878    27846    27785    27685    27553    27480    27500    27535 
   27587    27722    27896    28004    28030    28046    28065    28046 
   28039    28097    28162    28217    28283    28274    28124    27930 
   27819    27791    27757    27695    27660    27675    27697    27697 
   27733    27857    28001    28070    28115    28221    28336    28389 
   28437    28506    28506    28444    28422    28445    28421    28335 
   28264    28210    28109    27989    27900    27795    27645    27506 
   27417    27348    27307    27341    27403    27417    27399    27371 
   27325    27282    27244    27157    27025    26925    26867    26813 
   26763    26748    26778    26816    26823    26790    26728    26667 
   26655    26665    26651    26649    26692    26755    26808    26879 
   27045    27267    27440    27585    27734    27835    27881    27920 
   27939    27907    27859    27803    27716    27668    27697    27739 
   27773    27838    27893    27892    27877    27861    27780    27626 
   27461    27303    27157    27032    26921    26850    26829    26838 
   26886    26989    27087    27109    27049    26975    26939    26947 
   27008    27097    27135    27108    27070    27045    27022    26975 
   26908    26859    26832    26824    26843    26869    26920    27037 
   27194    27310    27375    27444    27538    27602    27629    27681 
   27726    27719    27710    27679    27549    27365    27259    27244 
   27248    27253    27302    27387    27477    27603    27783    27959 
   28097    28216    28313    28362    28355    28329    28285    28228 
   28213    28229    28221    28210    28215    28216    28189    28102 
   27969    27811    27612    27403    27243    27122    26993    26858 
   26751    26680    26619    26549    26466    26372    26295    26273 
   26306    26389    26512    26667    26854    27056    27256    27452 
   27623    27741    27849    28004    28159    28259    28312    28329 
   28333    28332    28340    28366    28348    28264    28167    28071 
   27958    27832    27719    27619    27476    27291    27149    27058 
   26946    26813    26723    26689    26667    26623    26576    26558 
   26580    26658    26794    26943    27099    27272    27421    27503 
   27545    27572    27564    27504    27444    27423    27378    27275 
   27216    27216    27205    27187    27189    27202    27251    27375 
   27573    27774    27961    28186    28393    28518    28647    28772 
   28753    28614    28499    28393    28196    27977    27804    27621 
