Origin Time       2025/01/13 21:19:00
Lat.              31.8
Long.             131.6
Depth. (km)       30
Mag.              6.9
Station Code      HRS015
Station Lat.      34.4852
Station Long.     133.3619
Station Height(m) 2
Record Time       2025/01/13 21:21:13
Sampling Freq(Hz) 100Hz
Duration Time(s)  60
Dir.              U-D
Scale Factor      7845(gal)/8223790
Max. Acc. (gal)   0.920
Last Correction   2025/01/13 21:21:14
Memo.             
[...]
     637      648      596      529      468      425      436      468 
     463      507      645      681      565      515      585      662 
     734      776      734      672      693      777      822      800 
     760      727      711      688      637      615      679      777 
     820      769      688      631      596      595      610      592 
     545      531      606      716      754      696      635      649 
     660      552      433      463      567      623      639      634 
     612      583      560      591      668      724      722      670 
     639      662      680      652      600      542      475      422 
     376      279      214      305      434      467      477      513 
     545      588      642      689      727      739      741      772 
     824      862      877      907      942      869      700      592 
     571      540      471      405      380      399      429      441 
     441      456      480      483      479      477      427      342 
     306      340      405      454      459      429      430      481 
     529      548      572      608      602      560      580      652 
     687      704      731      714      657      616      614      662 
     703      641      523      499      568      581      517      510 
     596      661      652      592      521      492      498      510 
     556      606      600      544      508      562      645      652 
     598      549      573      699      783      687      556      568 
     643      653      619      577      556      622      716      703 
     629      627      700      799      904      954      896      805 
     743      629      442      336      357      417      514      646 
     741      791      870      967      959      830      708      666 
     681      692      637      583      641      747      812      862 
     903      865      753      645      580      526      446      379 
     376      396      345      237      201      306      475      568 
     552      521      503      488      530      587      552      476 
     450      454      479      533      531      437      379      415 
     440      417      411      438      508      607      642      567 
     506      584      681      608      445      383      429      507 
     525      454      414      432      421      400      395      368 
     355      414      540      656      704      696      666      680 
     741      715      542      384      384      460      481      490 
     545      585      579      560      529      515      531      499 
     441      469      545      573      583      650      729      734 
     722      753      770      747      712      648      527      411 
     386      407      391      341      309      363      492      540 
     494      535      656      685      634      600      558      479 
     442      518      668      805      858      837      837      861 
     822      724      639      576      506      433      391      403 
     498      629      666      638      692      822      903      913 
     905      865      768      697      692      658      549      467 
     511      621      685      723      753      731      700      722 
     762      766      734      689      645      549      398      309 
     341      411      444      440      441      483      537      561 
     519      415      326      292      321      390      388      303 
     305      440      562      565      491      452      469      496 
     496      432      315      268      340      417      415      387 
     387      438      506      518      502      500      490      504 
     576      603      546      513      589      734      818      776 
     699      692      750      816      835      762      622      541 
     591      666      660      627      669      772      819      723 
     560      457      427      450      525      615      670      696 
     735      737      621      496      491      541      526      442 
     413      499      585      604      618      614      546      454 
     355      270      224      209      248      341      410      433 
     446      459      452      453      502      562      591      600 
     616      630      569      463      457      526      537      518 
     548      629      724      773      760      719      654      588 
     571      611      673      687      643      642      697      718 
     700      708      749      780      768      735      742      750 
     637      490      540      669      619      500      473      491 
     531      561      518      486      568      685      666      506 
     365      318      307      275      255      292      355      402 
     436      427      390      392      450      513      490      395 
     382      469      499      430      379      429      530      569 
     541      537      599      710      823      919      972      928 
     804      710      697      711      718      726      712      687 
     704      726      715      720      757      751      662      530 
     427      360      351      418      469      465      464      472 
     496      533      530      503      531      661      805      827 
     811      853      799      650      619      652      621      645 
     757      850      909      911      859      888     1003     1016 
     869      758      796      854      850      884      989     1039 
    1020     1009      969      886      854      842      784      749 
     758      704      606      567      519      394      333      423 
     529      527      453      407      409      391      356      357 
     356      297      232      302      507      627      595      592 
     677      743      784      768      652      564      576      611 
     615      580      576      707      926     1048      994      878 
     827      845      868      830      737      639      622      723 
     789      703      615      622      622      587      561      530 
     465      402      359      325      324      349      346      341 
     388      446      468      507      599      676      679      664 
     680      642      556      529      498      392      326      363 
     481      627      669      631      702      820      799      724 
     730      716      662      643      571      423      351      368 
     413      504      598      599      580      669      812      823 
     683      552      518      502      422      363      422      522 
     571      585      600      626      621      594      652      749 
     710      598      567      596      642      666      612      529 
     526      581      589      556      550      573      625      683 
     652      540      468      468      483      499      504      477 
     491      579      638      607      544      518      556      599 
     599      579      544      484      440      400      348      352 
     469      648      792      832      783      749      783      819 
     807      787      774      729      675      684      727      739 
     726      700      656      616      588      541      515      587 
     707      719      598      494      494      565      660      714 
     691      673      720      762      760      737      688      630 
     616      608      576      580      625      619      544      469 
     454      481      527      561      553      544      544      504 
     475      491      457      340      260      294      342      282 
     178      171      237      286      290      265      244      241 
     241      236      233      226      174      112      143      229 
     251      233      263      342      403      387      328      318 
     364      383      337      295      334      414      468      510 
     567      623      645      638      658      691      661      583 
     540      587      662      635      540      506      573      693 
     773      774      774      822      869      857      757      616 
     515      496      540      584      599      579      529      517 
     583      639      616      575      603      668      670      646 
     660      685      727      777      761      720      772      874 
     915      915      935      949      931      915      905      885 
     866      877      904      895      816      722      697      754 
     822      820      762      731      741      726      660      548 
     426      352      329      309      267      217      190      232 
     346      452      484      515      594      650      660      676 
     715      727      703      726      830      897      832      727 
     729      818      868      837      773      749      787      820 
     784      733      727      754      762      710      619      534 
     453      402      407      417      400      394      405      409 
     399      386      346      275      217      198      183      152 
     132      171      236      265      299      382      483      568 
     612      600      573      581      625      654      631      612 
     645      680      675      645      618      612      626      638 
     634      622      619      611      583      557      535      503 
     468      468      523      579      573      507      410      346 
     357      360      324      322      371      438      511      562 
     588      629      696      753      758      747      778      807 
     788      733      646      577      594      680      773      826 
     815      747      693      692      668      583      518      510 
     499      464      417      352      291      307      417      531 
     581      576      558      541      498      409      315      290 
     328      367      392      461      577      679      742      766 
     746      715      695      680      685      706      676      588 
     523      525      535      500      446      411      425      488 
     513      449      371      352      380      387      342      282 
     238      237      249      197       99       58       82      135 
     182      160       83       49       94      117       51        4 
      87      232      336      376      383      398      432      467 
     503      561      638      702      774      872      900      857 
     857      913      955      969      951      889      837      858 
     905      908      913      959     1003     1050     1123     1165 
    1166     1193     1247     1270     1235     1163     1090     1067 
    1102     1085      965      872      873      889      886      874 
     849      815      799      805      810      795      758      680 
     621      658      691      607      519      577      720      797 
     773      733      777      916     1027     1020      997     1017 
     992      931      905      884      847      855      926      939 
     839      739      715      733      760      739      639      545 
     527      538      511      468      442      396      330      265 
     179      114      105       86       49       54       78       71 
      39       60      140      164       93        1      -39       -5 
      49       44        9       41      133      194      202      211 
     214      201      218      249      263      292      310      284 
     290      353      364      278      230      298      351      305 
     245      241      275      299      280      236      238      301 
     344      334      334      363      388      436      502      526 
     529      545      581      646      697      677      638      672 
     764      818      826      859      911      970     1066     1135 
    1108     1048     1044     1092     1134     1147     1150     1170 
    1243     1325     1317     1243     1209     1217     1224     1210 
    1170     1090      986      904      850      792      716      623 
     556      571      610      564      472      437      465      491 
     476      432      395      414      438      372      274      280 
     378      480      568      614      587      564      630      750 
     843      897      901      850      830      868      864      805 
     774      791      828      862      861      831      812      818 
     797      719      653      648      676      723      746      676 
     568      554      618      642      623      630      639      621 
     630      665      662      637      616      595      577      554 
     488      406      380      373      310      222      151       81 
      55      110      140       62      -33      -37       12       20 
     -33      -83      -74       -9       54       66       51       44 
      41       43       67       83       59       43       97      172 
     180      114       32        6       59      103       78       41 
      36       49       75       93       68       -5      -68      -41 
      22       10      -29      -20        4       22       51       87 
     137      207      295      396      475      514      561      653 
     754      807      827      886     1003     1113     1178     1216 
    1244     1269     1317     1379     1387     1351     1339     1379 
    1435     1429     1375     1377     1420     1418     1382     1359 
    1366     1382     1398     1421     1432     1444     1482     1518 
    1533     1544     1532     1491     1464     1471     1470     1436 
    1379     1314     1248     1197     1144     1046      922      838 
     784      734      693      627      511      423      434      463 
     430      409      454      518      534      492      442      406 
     387      387      379      342      307      286      307      382 
     429      422      418      432      453      460      425      382 
     364      386      433      450      434      441      502      583 
     588      491      395      365      384      421      438      427 
     429      469      517      531      517      523      575      634 
     638      575      515      507      527      537      522      495 
     473      463      472      491      476      436      394      351 
     348      365      336      294      297      338      384      383 
     326      267      249      268      259      191      124      102 
      89       54       28       13      -16      -27       -9      -14 
     -44      -56      -35        5       21       -6      -35      -32 
     -20      -29      -58      -71      -63      -20       81      186 
     241      295      395      515      616      685      724      758 
     849      989     1051     1003      973     1020     1093     1158 
    1177     1152     1158     1217     1262     1223     1140     1090 
    1061     1030      990      905      822      823      882      922 
     932      932      922      923      980     1038     1015      969 
     978      989      967      938      897      841      822      847 
     827      745      662      596      546      503      427      349 
     305      256      226      265      337      379      396      472 
     615      706      706      708      756      822      869      877 
     870      891      945      967      936      911      901      885 
     913      955      918      858      870      895      862      784 
     707      683      673      595      476      410      387      341 
     306      342      378      310      189      149      180      162 
      76        6       21      117      157       97       86      166 
     214      205      190      176      155      167      232      267 
     247      225      194      163      178      175      116       70 
      87      124      126      114       93       52       41       86 
     126      168      247      346      429      490      521      487 
     423      444      519      544      545      557      567      642 
     756      768      714      720      772      795      789      792 
     828      938     1107     1233     1291     1370     1475     1526 
    1513     1483     1422     1341     1339     1368     1313     1242 
    1231     1213     1177     1174     1144     1035      940      932 
     932      888      850      808      735      688      660      592 
     529      515      519      531      538      464      329      278 
     299      245      144      110      102       90      128      199 
     243      268      315      365      368      348      328      319 
     399      523      535      490      533      622      666      683 
     680      638      621      692      764      760      754      781 
     799      807      796      741      688      702      745      749 
     757      791      789      772      769      722      623      534 
     465      414      407      426      390      294      271      353 
     407      363      284      238      241      255      233      206 
     244      334      386      400      446      486      514      596 
     676      687      691      742      826      904      920      877 
     834      832      824      733      592      498      446      409 
     375      317      234      166      105       27      -55      -97 
    -116     -132      -97       10      120      175      203      245 
     315      392      436      461      529      648      772      877 
     963     1016     1067     1146     1188     1154     1120     1147 
    1202     1232     1236     1219     1185     1186     1215     1194 
    1136     1112     1132     1158     1161     1132     1058      972 
     951      949      858      734      661      625      606      587 
     540      502      507      500      444      391      356      290 
     221      203      182      136      141      214      301      356 
     357      313      278      318      421      500      526      521 
     507      522      546      514      464      487      564      602 
     585      588      622      646      672      675      635      607 
     612      616      621      635      668      718      780      832 
     847      845      861      881      908      967     1003      961 
     908      932     1007     1027      955      839      774      801 
     824      773      700      634      581      565      527      409 
     270      191      170      112       -1      -62      -28       21 
      36       14      -17      -31      -18       37      109      149 
     195      291      398      463      496      545      616      680 
     742      811      872      903      908      940     1007     1031 
     992      936      900      895      886      849      807      783 
     784      815      822      756      679      661      693      733 
     741      729      746      801      839      838      827      838 
     880      916      920      900      859      819      804      783 
     729      677      648      642      641      602      526      459 
     429      419      382      305      232      186      183      206 
     190      144      139      172      195      190      172      157 
     129       98       85       79       78       79       87      140 
     218      248      220      195      224      275      290      247 
