Origin Time       2025/01/13 21:19:00
Lat.              31.8
Long.             131.6
Depth. (km)       30
Mag.              6.9
Station Code      HRS004
Station Lat.      34.7263
Station Long.     132.2773
Station Height(m) 583
Record Time       2025/01/13 21:21:12
Sampling Freq(Hz) 100Hz
Duration Time(s)  60
Dir.              U-D
Scale Factor      7845(gal)/8223790
Max. Acc. (gal)   1.202
Last Correction   2025/01/13 21:21:11
Memo.             
[...]
    4907     4822     4785     4800     4799     4747     4671     4600 
    4583     4619     4644     4633     4618     4614     4626     4656 
    4681     4677     4662     4669     4691     4706     4692     4646 
    4596     4572     4569     4548     4491     4442     4440     4459 
    4461     4471     4506     4502     4436     4376     4384     4433 
    4464     4473     4491     4536     4596     4622     4604     4607 
    4661     4715     4711     4662     4615     4569     4514     4483 
    4503     4541     4564     4584     4606     4612     4581     4540 
    4523     4533     4569     4627     4698     4754     4758     4745 
    4761     4769     4731     4706     4733     4753     4742     4754 
    4804     4857     4881     4874     4870     4885     4892     4881 
    4874     4869     4820     4743     4704     4730     4807     4900 
    4955     4953     4918     4881     4834     4812     4862     4950 
    5015     5038     5027     4993     4942     4862     4745     4646 
    4625     4631     4600     4556     4530     4504     4464     4438 
    4407     4344     4287     4263     4256     4270     4303     4337 
    4345     4356     4419     4509     4542     4515     4500     4550 
    4626     4653     4629     4617     4657     4722     4756     4746 
    4719     4691     4658     4622     4606     4638     4685     4703 
    4714     4733     4727     4677     4604     4568     4575     4581 
    4576     4571     4575     4595     4641     4684     4699     4704 
    4706     4693     4657     4596     4531     4496     4496     4498 
    4486     4477     4479     4480     4490     4526     4584     4625 
    4631     4656     4716     4770     4803     4807     4768     4711 
    4696     4715     4708     4665     4619     4592     4598     4618 
    4608     4571     4542     4548     4583     4594     4567     4563 
    4595     4598     4550     4518     4541     4561     4537     4511 
    4522     4550     4558     4534     4490     4456     4456     4455 
    4436     4442     4465     4463     4449     4479     4560     4629 
    4660     4661     4633     4621     4656     4685     4677     4664 
    4685     4714     4712     4708     4741     4776     4766     4733 
    4718     4737     4776     4814     4837     4857     4896     4957 
    4996     4989     4954     4919     4912     4946     4992     4993 
    4927     4857     4846     4873     4882     4864     4835     4803 
    4793     4839     4911     4946     4947     4951     4947     4920 
    4899     4891     4895     4926     4965     4973     4923     4842 
    4800     4812     4846     4862     4831     4772     4743     4754 
    4766     4764     4746     4726     4718     4727     4752     4773 
    4768     4734     4700     4696     4719     4737     4745     4758 
    4757     4739     4716     4693     4683     4684     4689     4687 
    4685     4708     4752     4769     4754     4745     4764     4781 
    4776     4752     4738     4769     4838     4889     4881     4845 
    4823     4800     4762     4722     4691     4695     4726     4749 
    4746     4722     4683     4638     4619     4658     4714     4716 
    4645     4573     4558     4560     4534     4510     4511     4498 
    4453     4432     4461     4492     4479     4423     4384     4395 
    4428     4434     4419     4422     4433     4428     4440     4476 
    4507     4531     4556     4569     4573     4557     4513     4473 
    4471     4502     4545     4565     4548     4522     4514     4533 
    4569     4611     4650     4638     4575     4530     4541     4583 
    4635     4688     4722     4723     4706     4702     4722     4722 
    4687     4676     4702     4702     4644     4579     4571     4607 
    4626     4596     4549     4523     4503     4487     4494     4510 
    4510     4503     4518     4542     4560     4588     4623     4634 
    4617     4618     4668     4730     4747     4720     4692     4704 
    4762     4824     4850     4869     4926     4988     5019     5039 
    5076     5121     5147     5161     5175     5185     5193     5190 
    5157     5109     5071     5054     5061     5057     5009     4938 
    4889     4880     4884     4874     4847     4811     4773     4753 
    4750     4750     4752     4757     4762     4760     4730     4688 
    4672     4683     4698     4708     4739     4792     4811     4792 
    4795     4839     4900     4930     4918     4916     4946     4954 
    4920     4900     4934     4989     5009     4989     4978     4996 
    5020     5035     5035     5039     5069     5108     5132     5147 
    5152     5157     5186     5247     5283     5277     5263     5247 
    5206     5163     5132     5096     5057     5026     5011     5017 
    5046     5080     5103     5116     5116     5088     5067     5090 
    5125     5139     5140     5165     5217     5252     5277     5312 
    5317     5263     5206     5201     5236     5273     5283     5246 
    5190     5174     5174     5147     5103     5074     5058     5028 
    4976     4931     4923     4919     4884     4847     4823     4779 
    4698     4615     4577     4563     4513     4432     4368     4351 
    4353     4336     4310     4336     4409     4459     4473     4479 
    4484     4488     4492     4522     4569     4572     4531     4496 
    4492     4506     4499     4469     4441     4432     4453     4473 
    4456     4421     4417     4464     4526     4565     4577     4581 
    4596     4614     4603     4581     4587     4599     4580     4561 
    4567     4560     4492     4395     4355     4364     4360     4325 
    4253     4162     4091     4059     4064     4082     4067     4017 
    3978     3997     4062     4104     4098     4079     4090     4141 
    4202     4214     4176     4152     4170     4198     4195     4189 
    4237     4324     4383     4396     4411     4460     4522     4571 
    4621     4685     4742     4770     4777     4796     4843     4889 
    4911     4924     4943     4969     5005     5027     5019     5009 
    5024     5055     5067     5062     5061     5042     5007     4985 
    4978     4980     4978     4963     4935     4920     4941     4959 
    4920     4861     4864     4916     4970     5005     5020     5032 
    5044     5027     5000     4980     4950     4920     4905     4884 
    4858     4843     4822     4752     4654     4600     4598     4592 
    4534     4440     4390     4409     4417     4365     4311     4313 
    4347     4359     4340     4332     4328     4313     4317     4344 
    4378     4394     4406     4448     4482     4472     4463     4476 
    4490     4492     4484     4479     4494     4527     4573     4618 
    4644     4633     4590     4577     4630     4693     4700     4654 
    4599     4569     4565     4557     4531     4488     4441     4402 
    4371     4344     4302     4252     4241     4272     4301     4306 
    4302     4299     4301     4313     4333     4364     4421     4468 
    4472     4452     4456     4469     4455     4445     4473     4506 
    4536     4572     4604     4618     4623     4625     4621     4645 
    4704     4747     4754     4768     4812     4847     4839     4812 
    4799     4799     4781     4750     4741     4743     4718     4677 
    4661     4662     4645     4626     4642     4676     4691     4680 
    4672     4698     4734     4729     4700     4699     4726     4750 
    4761     4753     4733     4718     4725     4734     4731     4727 
    4715     4688     4671     4648     4626     4637     4653     4648 
    4652     4683     4714     4727     4750     4793     4846     4912 
    4963     4963     4943     4931     4914     4889     4873     4853 
    4824     4793     4756     4718     4688     4664     4635     4590 
    4552     4545     4567     4602     4627     4637     4642     4649 
    4656     4656     4669     4712     4766     4785     4772     4776 
    4811     4845     4858     4849     4837     4850     4862     4858 
    4866     4882     4880     4873     4889     4928     4970     5001 
    5036     5093     5150     5182     5208     5227     5232     5228 
    5220     5211     5202     5186     5147     5080     5000     4932 
    4882     4846     4830     4828     4816     4791     4757     4726 
    4702     4648     4583     4572     4587     4567     4494     4421 
    4395     4401     4405     4411     4429     4457     4490     4511 
    4522     4531     4530     4511     4495     4498     4504     4487 
    4467     4471     4482     4480     4486     4496     4506     4498 
    4463     4396     4328     4302     4321     4345     4365     4360 
    4328     4310     4318     4336     4352     4355     4355     4360 
    4349     4341     4372     4423     4465     4504     4556     4621 
    4675     4725     4793     4865     4922     4965     4990     5005 
    5013     5016     5007     4989     4981     4969     4945     4922 
    4885     4831     4795     4787     4774     4752     4739     4749 
    4779     4803     4807     4820     4850     4878     4895     4904 
    4922     4924     4891     4853     4835     4826     4807     4777 
    4750     4719     4683     4650     4621     4583     4546     4531 
    4542     4569     4588     4595     4610     4630     4653     4680 
    4716     4766     4815     4855     4904     4955     4989     4988 
    4973     4984     5008     5007     4980     4955     4942     4938 
    4923     4903     4897     4909     4931     4942     4928     4897 
    4862     4833     4833     4861     4899     4931     4957     4982 
    5011     5049     5105     5146     5158     5173     5201     5232 
    5251     5248     5248     5265     5285     5286     5263     5246 
    5243     5221     5185     5154     5111     5069     5042     5000 
    4957     4936     4918     4892     4866     4843     4827     4810 
    4787     4747     4710     4712     4737     4730     4698     4681 
    4688     4684     4661     4627     4591     4552     4507     4464 
    4437     4419     4383     4342     4328     4320     4311     4330 
    4369     4405     4425     4429     4442     4486     4542     4572 
    4567     4561     4556     4530     4509     4515     4533     4531 
    4517     4519     4563     4619     4637     4634     4660     4706 
    4737     4739     4738     4770     4810     4808     4780     4770 
    4770     4749     4725     4718     4707     4665     4604     4567 
    4563     4557     4540     4529     4531     4542     4550     4557 
    4585     4629     4634     4606     4591     4588     4596     4614 
    4621     4615     4600     4572     4536     4522     4531     4534 
    4525     4515     4503     4480     4463     4471     4491     4492 
    4476     4471     4484     4494     4487     4486     4496     4517 
    4525     4509     4495     4500     4503     4475     4442     4450 
    4471     4456     4419     4398     4390     4372     4351     4337 
    4336     4332     4307     4261     4213     4179     4156     4132 
    4108     4097     4105     4117     4110     4094     4086     4083 
    4095     4125     4151     4163     4164     4160     4148     4148 
    4176     4212     4239     4263     4287     4314     4348     4386 
    4428     4475     4519     4553     4580     4607     4648     4708 
    4762     4788     4795     4808     4841     4862     4854     4837 
    4830     4831     4838     4855     4865     4860     4862     4884 
    4923     4970     5003     5032     5078     5138     5182     5202 
    5215     5223     5240     5278     5320     5343     5348     5339 
    5333     5344     5352     5347     5336     5324     5316     5325 
    5352     5393     5431     5463     5486     5491     5497     5525 
    5574     5620     5645     5649     5637     5626     5640     5652 
    5629     5574     5501     5440     5400     5375     5360     5340 
    5309     5282     5278     5285     5269     5236     5219     5227 
    5238     5227     5200     5170     5154     5135     5086     5028 
    4982     4946     4893     4815     4742     4695     4654     4619 
    4587     4554     4523     4491     4449     4411     4383     4348 
    4303     4267     4244     4248     4275     4291     4290     4298 
    4338     4391     4417     4406     4384     4394     4430     4448 
    4459     4503     4558     4573     4550     4542     4579     4622 
    4634     4639     4664     4699     4726     4727     4707     4685 
    4677     4677     4656     4627     4627     4634     4626     4603 
    4571     4542     4529     4523     4514     4503     4511     4530 
    4537     4537     4533     4523     4517     4531     4554     4558 
    4567     4591     4603     4594     4580     4591     4612     4621 
    4617     4619     4635     4646     4642     4634     4626     4615 
    4603     4591     4579     4560     4538     4517     4483     4446 
    4414     4374     4324     4271     4218     4172     4139     4098 
    4043     3989     3946     3912     3871     3835     3824     3820 
    3804     3784     3770     3771     3785     3805     3835     3875 
    3923     3962     3977     3985     4004     4036     4085     4141 
    4201     4261     4317     4372     4425     4461     4499     4557 
    4629     4715     4810     4891     4961     5043     5136     5240 
    5348     5443     5522     5611     5705     5768     5805     5848 
    5899     5934     5953     5962     5958     5949     5934     5899 
    5850     5799     5746     5691     5629     5562     5494     5429 
    5358     5277     5206     5140     5061     4992     4934     4869 
    4801     4746     4702     4660     4622     4596     4583     4563 
    4541     4529     4519     4513     4511     4509     4509     4500 
    4492     4495     4490     4492     4515     4525     4510     4492 
    4496     4533     4569     4587     4598     4603     4611     4631 
    4654     4666     4662     4644     4633     4652     4691     4714 
    4710     4707     4727     4750     4756     4749     4729     4704 
    4671     4642     4639     4629     4585     4525     4475     4440 
    4401     4344     4275     4205     4148     4098     4040     3985 
    3947     3919     3889     3863     3858     3873     3897     3916 
    3931     3948     3982     4029     4071     4117     4172     4230 
    4283     4322     4369     4434     4490     4542     4612     4698 
    4784     4861     4927     4995     5070     5151     5240     5331 
    5397     5443     5486     5539     5587     5620     5641     5655 
    5659     5661     5660     5651     5643     5633     5617     5597 
    5578     5559     5530     5505     5481     5445     5410     5390 
    5367     5319     5262     5227     5196     5158     5125     5096 
    5063     5024     4985     4950     4927     4908     4884     4858 
    4816     4764     4716     4673     4638     4618     4596     4546 
    4475     4406     4352     4306     4260     4217     4183     4163 
    4149     4137     4113     4091     4089     4094     4094     4094 
    4120     4174     4220     4249     4259     4257     4270     4293 
    4321     4360     4395     4422     4445     4469     4507     4564 
    4622     4668     4711     4760     4803     4847     4901     4943 
    4957     4968     4995     5023     5036     5038     5039     5053 
    5063     5067     5065     5058     5051     5047     5040     5036 
    5049     5067     5070     5061     5054     5043     5022     5001 
    4986     4958     4911     4861     4803     4735     4671     4618 
    4573     4522     4465     4413     4364     4317     4274     4230 
    4178     4133     4110     4094     4067     4037     4032     4058 
    4082     4090     4082     4077     4104     4139     4152     4152 
    4156     4180     4213     4239     4264     4284     4291     4290 
    4297     4315     4330     4344     4368     4394     4406     4409 
    4423     4445     4450     4446     4449     4465     4486     4509 
    4542     4590     4654     4706     4726     4737     4770     4833 
    4892     4922     4939     4959     4976     4990     5016     5046 
    5070     5097     5130     5165     5190     5196     5196     5213 
    5233     5232     5211     5204     5212     5217     5209     5186 
    5178     5190     5190     5166     5131     5112     5119     5130 
    5130     5127     5113     5081     5050     5027     4999     4969 
    4951     4942     4923     4896     4870     4850     4845     4846 
    4841     4838     4843     4842     4838     4841     4857     4885 
    4911     4927     4942     4961     4976     4982     4982     4982 
    4973     4955     4934     4897     4833     4761     4696     4626 
    4556     4483     4401     4313     4230     4166     4108     4055 
    4023     3993     3951     3923     3927     3951     3971     3982 
    3989     3998     4031     4083     4131     4160     4179     4187 
    4199     4247     4314     4363     4386     4403     4442     4495 
    4533     4568     4614     4660     4691     4704     4722     4745 
    4777     4822     4870     4923     4970     5007     5044     5084 
    5125     5163     5189     5205     5225     5248     5273     5290 
    5296     5301     5306     5300     5300     5309     5316     5336 
    5350     5328     5298     5290     5298     5289     5255     5219 
    5179     5124     5066     5022     4982     4930     4866     4796 
    4727     4666     4608     4534     4455     4402     4371     4329 
    4275     4233     4209     4178     4129     4083     4043     4000 
    3960     3936     3924     3915     3900     3878     3863     3863 
    3863     3861     3861     3863     3869     3882     3909     3946 
    3978     4008     4037     4079     4128     4159     4185     4228 
    4278     4314     4332     4342     4364     4391     4428     4472 
    4521     4575     4618     4644     4669     4698     4729     4761 
    4774     4774     4785     4804     4818     4818     4799     4787 
    4795     4800     4788     4762     4747     4752     4741     4715 
    4699     4679     4648     4619     4598     4577     4552     4526 
    4513     4510     4504     4495     4476     4461     4473     4509 
    4546     4576     4599     4631     4675     4723     4779     4839 
    4896     4943     4981     5015     5046     5082     5116     5139 
    5166     5206     5243     5267     5285     5306     5336     5364 
    5371     5356     5359     5382     5386     5356     5319     5296 
    5273     5232     5179     5140     5119     5081     5013     4947 
    4889     4828     4772     4722     4666     4607     4554     4510 
    4465     4423     4396     4379     4361     4349     4344     4336 
    4315     4290     4274     4267     4255     4251     4255     4248 
    4243     4249     4260     4271     4278     4279     4291     4329 
    4375     4413     4453     4507     4558     4591     4614     4658 
    4718     4761     4773     4777     4801     4828     4843     4846 
    4850     4864     4884     4907     4915     4897     4882     4873 
    4847     4814     4788     4780     4792     4801     4799     4792 
    4793     4799     4806     4819     4839     4846     4826     4812 
