Origin Time       2025/01/13 21:19:00
Lat.              31.8
Long.             131.6
Depth. (km)       30
Mag.              6.9
Station Code      HRS010
Station Lat.      34.5834
Station Long.     133.0515
Station Height(m) 338
Record Time       2025/01/13 21:21:18
Sampling Freq(Hz) 100Hz
Duration Time(s)  60
Dir.              U-D
Scale Factor      7845(gal)/8223790
Max. Acc. (gal)   1.223
Last Correction   2025/01/13 21:21:18
Memo.             
[...]
    6519     6536     6524     6488     6459     6447     6465     6534 
    6624     6664     6631     6602     6648     6691     6664     6640 
    6670     6720     6781     6851     6895     6897     6889     6924 
    6998     7001     6903     6856     6912     6957     6967     6971 
    6970     6939     6872     6845     6901     6967     7005     7026 
    7013     6959     6928     6921     6883     6856     6880     6910 
    6903     6874     6859     6878     6907     6924     6901     6829 
    6760     6748     6770     6759     6740     6745     6740     6724 
    6740     6775     6779     6740     6683     6651     6671     6718 
    6735     6700     6642     6608     6628     6642     6592     6535 
    6501     6473     6484     6536     6574     6577     6570     6581 
    6586     6558     6544     6555     6529     6508     6532     6558 
    6583     6616     6639     6659     6639     6594     6617     6685 
    6724     6740     6755     6752     6704     6674     6702     6702 
    6700     6739     6713     6631     6600     6601     6621     6636 
    6575     6493     6467     6440     6390     6361     6351     6365 
    6396     6413     6431     6471     6496     6516     6550     6524 
    6454     6440     6436     6421     6451     6478     6473     6486 
    6525     6592     6652     6658     6644     6612     6556     6515 
    6463     6427     6469     6531     6547     6529     6502     6481 
    6478     6520     6579     6605     6620     6643     6670     6727 
    6793     6826     6836     6833     6829     6835     6832     6809 
    6754     6689     6696     6764     6791     6787     6794     6794 
    6814     6864     6872     6805     6737     6762     6835     6829 
    6758     6701     6656     6624     6621     6621     6608     6616 
    6654     6659     6621     6579     6520     6480     6488     6519 
    6575     6615     6585     6540     6507     6489     6502     6480 
    6432     6455     6509     6531     6559     6569     6532     6511 
    6492     6420     6365     6362     6339     6350     6428     6436 
    6390     6427     6500     6536     6573     6608     6605     6597 
    6596     6586     6619     6702     6763     6787     6810     6810 
    6794     6809     6833     6841     6889     6971     7036     7094 
    7140     7157     7177     7202     7214     7215     7248     7318 
    7337     7314     7331     7341     7325     7341     7373     7402 
    7391     7319     7263     7238     7206     7186     7167     7119 
    7080     7082     7087     7067     7051     7049     7009     6949 
    6916     6875     6853     6889     6916     6895     6825     6739 
    6736     6782     6762     6714     6690     6675     6690     6696 
    6642     6604     6615     6629     6658     6685     6679     6659 
    6621     6597     6608     6589     6550     6527     6492     6486 
    6524     6536     6527     6515     6470     6427     6439     6462 
    6473     6501     6521     6521     6535     6538     6535     6570 
    6593     6555     6515     6507     6542     6629     6704     6728 
    6752     6764     6767     6826     6893     6883     6851     6839 
    6824     6808     6813     6844     6864     6853     6840     6814 
    6750     6690     6694     6750     6772     6733     6689     6652 
    6598     6566     6586     6620     6621     6585     6547     6555 
    6575     6567     6567     6582     6567     6561     6589     6600 
    6621     6708     6794     6833     6844     6825     6820     6885 
    6983     7034     7034     7038     7053     7045     7022     6983 
    6899     6824     6804     6789     6737     6669     6623     6617 
    6650     6689     6687     6658     6679     6731     6729     6673 
    6586     6521     6536     6582     6609     6636     6639     6621 
    6643     6694     6728     6750     6762     6750     6720     6704 
    6698     6700     6725     6729     6669     6609     6612     6629 
    6612     6573     6538     6527     6529     6512     6466     6412 
    6358     6347     6401     6457     6450     6399     6353     6324 
    6331     6389     6426     6396     6365     6351     6320     6280 
    6243     6222     6226     6250     6273     6272     6254     6262 
    6299     6327     6332     6320     6313     6335     6345     6322 
    6322     6380     6454     6493     6496     6488     6477     6459 
    6481     6550     6571     6562     6628     6693     6678     6667 
    6694     6706     6729     6810     6886     6866     6798     6772 
    6793     6844     6893     6894     6889     6895     6883     6898 
    6936     6922     6916     6983     7021     7011     7021     6994 
    6910     6853     6853     6870     6848     6777     6705     6669 
    6673     6708     6748     6756     6721     6709     6750     6786 
    6786     6768     6744     6710     6663     6598     6550     6531 
    6490     6408     6334     6258     6162     6096     6072     6039 
    6003     5996     6006     5983     5945     5944     5957     5975 
    6030     6083     6075     6053     6057     6065     6068     6093 
    6158     6243     6331     6394     6403     6405     6444     6489 
    6534     6575     6585     6573     6583     6625     6686     6756 
    6820     6859     6866     6872     6876     6849     6843     6871 
    6882     6871     6820     6755     6771     6824     6852     6909 
    6948     6943     6960     6980     6959     6957     7009     7069 
    7082     7059     7051     7065     7099     7159     7246     7339 
    7404     7430     7404     7345     7314     7327     7335     7360 
    7433     7474     7460     7452     7441     7419     7414     7414 
    7406     7391     7361     7333     7314     7296     7306     7345 
    7341     7283     7245     7206     7150     7134     7129     7102 
    7071     7009     6924     6876     6863     6860     6866     6852 
    6835     6848     6849     6814     6785     6762     6732     6723 
    6731     6725     6696     6656     6629     6596     6552     6542 
    6548     6532     6496     6446     6394     6366     6358     6355 
    6343     6316     6282     6258     6245     6234     6234     6265 
    6307     6313     6278     6216     6147     6120     6137     6147 
    6162     6172     6178     6208     6197     6146     6156     6197 
    6215     6255     6309     6318     6322     6363     6423     6490 
    6538     6559     6613     6682     6717     6748     6759     6751 
    6762     6760     6744     6728     6706     6700     6700     6701 
    6743     6786     6775     6759     6752     6736     6735     6760 
    6781     6767     6724     6681     6658     6647     6637     6621 
    6606     6600     6581     6571     6613     6648     6639     6619 
    6583     6547     6534     6531     6524     6515     6520     6548 
    6585     6627     6640     6590     6542     6529     6498     6477 
    6505     6520     6509     6520     6534     6528     6542     6562 
    6563     6570     6597     6633     6658     6636     6604     6612 
    6650     6694     6700     6644     6598     6582     6574     6579 
    6571     6525     6492     6501     6519     6524     6525     6521 
    6532     6577     6608     6613     6637     6655     6669     6717 
    6754     6758     6783     6829     6856     6868     6872     6872 
    6887     6921     6951     6941     6897     6851     6852     6886 
    6906     6912     6895     6855     6837     6837     6836     6855 
    6872     6876     6868     6814     6737     6693     6670     6648 
    6629     6623     6631     6629     6620     6621     6636     6662 
    6696     6729     6766     6801     6824     6843     6887     6966 
    7005     6998     7013     7037     7052     7084     7126     7159 
    7186     7204     7227     7264     7300     7357     7414     7418 
    7395     7392     7402     7431     7437     7360     7275     7234 
    7207     7186     7153     7087     7034     7011     6983     6944 
    6909     6862     6801     6733     6656     6583     6542     6513 
    6469     6424     6381     6326     6273     6231     6200     6191 
    6199     6211     6203     6168     6126     6089     6079     6089 
    6076     6038     6006     5972     5952     5976     6008     5999 
    5962     5927     5908     5900     5913     5948     5979     5984 
    5984     6010     6026     6007     6021     6069     6093     6120 
    6172     6228     6303     6385     6458     6515     6535     6527 
    6532     6555     6559     6558     6594     6635     6639     6652 
    6690     6702     6694     6677     6650     6651     6663     6624 
    6561     6535     6536     6552     6570     6556     6511     6458 
    6420     6401     6399     6423     6469     6516     6552     6569 
    6574     6581     6586     6598     6604     6596     6600     6605 
    6608     6635     6674     6724     6791     6822     6802     6789 
    6798     6797     6790     6816     6867     6920     6972     7026 
    7076     7121     7153     7160     7152     7163     7183     7198 
    7230     7268     7307     7350     7377     7398     7404     7389 
    7400     7426     7418     7400     7398     7402     7446     7515 
    7534     7524     7531     7504     7439     7395     7362     7338 
    7349     7376     7369     7337     7315     7310     7315     7314 
    7285     7242     7195     7140     7102     7075     7024     6978 
    6966     6949     6902     6822     6713     6582     6438     6322 
    6270     6235     6178     6134     6096     6033     5953     5894 
    5852     5810     5787     5779     5755     5740     5765     5787 
    5806     5857     5913     5958     5991     5984     5952     5954 
    5985     6010     6035     6076     6096     6083     6066     6070 
    6100     6160     6224     6276     6338     6412     6477     6556 
    6636     6682     6717     6752     6760     6751     6764     6809 
    6855     6880     6906     6926     6918     6910     6925     6930 
    6940     6984     7018     7033     7068     7099     7119     7155 
    7184     7207     7231     7231     7236     7254     7231     7187 
    7161     7128     7091     7069     7042     7007     6971     6943 
    6936     6916     6856     6781     6710     6629     6535     6450 
    6374     6300     6253     6219     6169     6112     6079     6073 
    6077     6070     6046     6018     6021     6057     6085     6100 
    6135     6176     6189     6203     6228     6237     6247     6291 
    6336     6373     6409     6438     6462     6504     6567     6628 
    6670     6712     6740     6732     6727     6740     6755     6779 
    6791     6764     6744     6758     6783     6808     6821     6841 
    6872     6895     6955     7045     7087     7099     7132     7145 
    7164     7221     7267     7277     7290     7315     7335     7344 
    7349     7342     7330     7315     7275     7217     7165     7107 
    7042     6991     6936     6880     6874     6883     6867     6859 
    6853     6826     6794     6767     6744     6725     6714     6713 
    6689     6642     6621     6612     6583     6569     6565     6558 
    6565     6571     6561     6539     6519     6538     6578     6585 
    6583     6586     6561     6535     6538     6529     6517     6536 
    6563     6581     6606     6624     6615     6620     6656     6700 
    6733     6747     6758     6791     6835     6891     6947     6944 
    6897     6852     6810     6791     6795     6764     6702     6675 
    6658     6619     6597     6585     6555     6536     6536     6516 
    6473     6438     6421     6408     6376     6326     6276     6242 
    6243     6259     6264     6255     6241     6242     6265     6286 
    6323     6384     6438     6475     6513     6555     6606     6667 
    6724     6785     6860     6934     6990     7026     7037     7045 
    7091     7153     7195     7222     7233     7238     7273     7321 
    7339     7350     7368     7357     7312     7258     7200     7153 
    7140     7152     7155     7130     7088     7036     6971     6897 
    6825     6760     6704     6655     6619     6589     6550     6486 
    6412     6361     6328     6272     6181     6102     6049     5995 
    5948     5917     5863     5780     5736     5725     5703     5683 
    5674     5671     5671     5661     5670     5703     5719     5730 
    5761     5795     5841     5898     5945     6000     6066     6147 
    6262     6374     6448     6513     6570     6620     6689     6754 
    6801     6853     6899     6921     6939     6972     7029     7088 
    7128     7161     7188     7200     7218     7240     7246     7244 
    7238     7215     7177     7145     7122     7111     7111     7095 
    7061     7029     6976     6912     6868     6824     6774     6760 
    6771     6758     6739     6740     6723     6682     6651     6627 
    6608     6604     6597     6586     6574     6550     6538     6540 
    6521     6497     6502     6509     6497     6505     6525     6529 
    6550     6597     6621     6615     6594     6555     6535     6548 
    6561     6565     6565     6573     6602     6609     6593     6594 
    6590     6586     6633     6710     6789     6858     6907     6968 
    7060     7169     7267     7337     7400     7473     7538     7600 
    7659     7717     7774     7827     7870     7892     7890     7890 
    7915     7954     7963     7932     7893     7840     7755     7653 
    7543     7423     7307     7218     7132     7032     6939     6862 
    6801     6751     6681     6574     6448     6327     6228     6157 
    6093     6027     5964     5915     5877     5840     5818     5819 
    5834     5859     5872     5881     5910     5940     5968     6030 
    6096     6133     6161     6185     6207     6238     6265     6285 
    6328     6384     6417     6432     6443     6477     6523     6554 
    6593     6636     6652     6677     6718     6752     6794     6849 
    6889     6916     6936     6948     6971     6997     7011     7024 
    7033     7037     7047     7069     7105     7126     7122     7115 
    7118     7110     7086     7063     7052     7051     7042     7028 
    7015     7001     6995     7005     6994     6975     6980     7002 
    7015     7007     6984     6961     6934     6907     6891     6876 
    6851     6812     6775     6752     6714     6652     6605     6590 
    6583     6566     6550     6544     6532     6527     6543     6543 
    6540     6561     6562     6540     6544     6582     6620     6639 
    6655     6670     6677     6696     6733     6764     6778     6778 
    6785     6799     6795     6766     6733     6694     6647     6597 
    6539     6470     6409     6363     6334     6305     6253     6188 
    6138     6095     6062     6057     6058     6043     6015     5998 
    5999     6018     6045     6070     6080     6084     6089     6084 
    6089     6130     6185     6253     6336     6390     6428     6485 
    6540     6582     6609     6612     6597     6590     6602     6627 
    6647     6655     6643     6632     6644     6650     6646     6662 
    6670     6656     6654     6659     6651     6652     6670     6671 
    6647     6617     6588     6550     6515     6492     6469     6438 
    6404     6362     6322     6292     6261     6232     6223     6216 
    6195     6168     6145     6130     6131     6150     6161     6158 
    6169     6196     6215     6235     6281     6320     6328     6332 
    6340     6345     6369     6408     6447     6486     6509     6540 
    6605     6660     6701     6758     6810     6852     6903     6959 
    7005     7051     7111     7173     7217     7260     7312     7365 
    7429     7484     7512     7545     7569     7562     7557     7569 
    7572     7565     7558     7543     7524     7497     7461     7433 
    7398     7335     7273     7215     7144     7079     7024     6956 
    6867     6770     6678     6594     6531     6480     6407     6343 
    6313     6265     6203     6174     6157     6143     6164     6193 
    6208     6226     6247     6273     6304     6319     6323     6342 
    6370     6396     6428     6469     6497     6523     6567     6615 
    6663     6721     6755     6774     6812     6863     6912     6959 
    6993     7003     7010     7020     7033     7049     7056     7041 
    7034     7044     7040     7033     7047     7061     7060     7040 
    6987     6920     6875     6867     6870     6856     6836     6821 
    6791     6763     6743     6696     6642     6601     6565     6543 
    6523     6488     6451     6420     6388     6343     6301     6286 
    6272     6250     6237     6188     6115     6089     6087     6066 
    6076     6108     6106     6081     6073     6073     6077     6092 
    6110     6135     6166     6193     6227     6281     6327     6359 
    6401     6431     6436     6458     6486     6489     6504     6539 
    6554     6548     6544     6548     6571     6601     6620     6636 
    6662     6691     6720     6745     6771     6806     6841     6859 
    6867     6872     6893     6925     6949     6963     6976     7003 
    7052     7095     7133     7177     7217     7244     7260     7276 
    7303     7327     7337     7341     7335     7322     7323     7330 
    7319     7311     7304     7279     7254     7225     7184     7157 
    7132     7092     7048     6987     6925     6874     6818     6759 
    6706     6667     6640     6613     6582     6556     6539     6528 
    6511     6494     6496     6502     6507     6525     6536     6536 
    6551     6570     6575     6594     6648     6713     6756     6794 
    6839     6879     6926     6982     7015     7015     7015     7029 
    7041     7041     7040     7037     7009     6956     6917     6901 
    6879     6839     6793     6752     6710     6647     6567     6500 
    6447     6397     6366     6351     6318     6264     6222     6204 
    6195     6180     6174     6169     6156     6158     6174     6180 
    6183     6174     6157     6150     6150     6172     6215     6239 
    6245     6268     6297     6319     6350     6394     6423     6451 
    6486     6496     6493     6519     6556     6586     6612     6624 
    6625     6652     6714     6771     6812     6848     6875     6893 
    6916     6941     6972     7005     7022     7044     7076     7099 
    7113     7122     7132     7150     7160     7146     7113     7064 
    7011     6982     6974     6964     6955     6956     6952     6934 
    6929     6922     6882     6844     6832     6805     6755     6716 
    6690     6673     6664     6654     6627     6588     6543     6498 
    6459     6427     6390     6357     6336     6338     6338     6311 
    6291     6289     6289     6315     6355     6370     6367     6372 
    6392     6435     6485     6521     6552     6575     6588     6600 
    6619     6643     6667     6693     6714     6727     6745     6768 
    6775     6779     6790     6802     6795     6772     6755     6737 
    6721     6716     6701     6667     6639     6619     6593     6566 
    6552     6548     6540     6525     6507     6493     6501     6527 
    6548     6563     6582     6610     6646     6674     6685     6696 
