Origin Time       2025/01/13 21:19:00
Lat.              31.8
Long.             131.6
Depth. (km)       30
Mag.              6.9
Station Code      HRS013
Station Lat.      34.3768
Station Long.     132.4502
Station Height(m) 3
Record Time       2025/01/13 21:20:40
Sampling Freq(Hz) 100Hz
Duration Time(s)  118
Dir.              N-S
Scale Factor      7845(gal)/8223790
Max. Acc. (gal)   7.850
Last Correction   2025/01/13 21:20:39
Memo.             
[...]
   -1830    -2011    -1988    -1810    -1579    -1360    -1205    -1117 
   -1107    -1202    -1331    -1399    -1453    -1545    -1628    -1655 
   -1667    -1702    -1667    -1451    -1109     -743     -426     -251 
    -233     -306     -463     -695     -911    -1139    -1476    -1844 
   -2045    -2006    -1783    -1502    -1269    -1108     -972     -823 
    -699     -631     -625     -697     -837     -976    -1066    -1156 
   -1341    -1609    -1803    -1800    -1633    -1436    -1348    -1383 
   -1475    -1611    -1794    -1989    -2155    -2222    -2187    -2178 
   -2231    -2253    -2223    -2196    -2235    -2331    -2363    -2328 
   -2401    -2659    -2978    -3203    -3312    -3349    -3323    -3245 
   -3146    -3061    -3052    -3132    -3165    -3056    -2902    -2814 
   -2783    -2739    -2616    -2459    -2386    -2371    -2245    -1992 
   -1837    -1902    -2050    -2135    -2154    -2154    -2173    -2258 
   -2411    -2539    -2583    -2570    -2529    -2434    -2226    -1927 
   -1626    -1389    -1270    -1301    -1435    -1552    -1548    -1441 
   -1325    -1216    -1066     -838     -556     -291      -85       94 
     199       66     -337     -816    -1183    -1336    -1243     -978 
    -653     -329      -55       82       -4     -294     -676    -1021 
   -1239    -1255    -1032     -618     -157      195      357      315 
      99     -228     -560     -784     -850     -795     -685     -567 
    -534     -589     -569     -449     -342     -379     -643     -974 
   -1140    -1123    -1020     -934     -930     -974     -978     -947 
    -961    -1053    -1182    -1304    -1447    -1644    -1831    -1934 
   -1926    -1880    -1953    -2164    -2417    -2710    -3017    -3191 
   -3129    -2871    -2532    -2235    -2058    -2002    -2039    -2170 
   -2367    -2604    -2833    -2964    -2895    -2650    -2371    -2142 
   -1957    -1841    -1794    -1772    -1726    -1614    -1495    -1471 
   -1551    -1715    -1939    -2153    -2265    -2193    -1918    -1513 
   -1070     -680     -465     -491     -693     -955    -1171    -1282 
   -1308    -1262    -1169    -1116    -1115    -1093    -1070    -1147 
   -1367    -1661    -1957    -2273    -2536    -2596    -2451    -2226 
   -2010    -1881    -1903    -2041    -2120    -1993    -1728    -1520 
   -1472    -1530    -1572    -1530    -1397    -1181     -930     -770 
    -804    -1011    -1312    -1591    -1711    -1671    -1575    -1501 
   -1475    -1460    -1431    -1420    -1408    -1302    -1092     -913 
    -904    -1017    -1112    -1151    -1161    -1101     -928     -692 
    -490     -387     -384     -391     -303      -54      352      753 
     977     1054     1090     1054      861      545      203      -94 
    -255     -153      228      727     1117     1248     1084      672 
      82     -572    -1128    -1470    -1570    -1494    -1391    -1363 
   -1435    -1630    -1935    -2274    -2574    -2787    -2878    -2836 
   -2712    -2579    -2440    -2278    -2187    -2312    -2658    -3105 
   -3547    -3937    -4279    -4554    -4729    -4860    -5059    -5391 
   -5817    -6203    -6467    -6598    -6589    -6446    -6214    -5958 
   -5690    -5344    -4847    -4190    -3564    -3231    -3248    -3453 
   -3643    -3693    -3612    -3422    -3082    -2592    -2012    -1444 
    -967     -627     -437     -324     -176       79      436      766 
     934      876      630      371      255      337      591      928 
    1281     1576     1773     1922     2043     2106     2123     2124 
    2111     2087     2110     2197     2263     2220     2030     1745 
    1510     1385     1293     1109      753      261     -292     -818 
   -1205    -1440    -1578    -1667    -1728    -1757    -1783    -1869 
   -2014    -2153    -2268    -2384    -2513    -2667    -2849    -3055 
   -3298    -3605    -3920    -4135    -4213    -4221    -4199    -4136 
   -4098    -4163    -4325    -4594    -4936    -5231    -5416    -5479 
   -5366    -5073    -4680    -4274    -3925    -3658    -3462    -3345 
   -3303    -3327    -3389    -3426    -3411    -3365    -3287    -3160 
   -2961    -2654    -2234    -1790    -1429    -1173     -969     -774 
    -541     -230      166      673     1314     2025     2654     3060 
    3192     3149     3032     2814     2509     2205     1927     1706 
    1582     1491     1333     1059      711      384      147       45 
      82      147      147      102       17     -145     -360     -572 
    -765     -942    -1136    -1377    -1647    -1903    -2139    -2374 
   -2559    -2659    -2739    -2832    -2902    -2934    -2952    -2984 
   -3029    -3042    -3037    -3042    -3045    -3026    -2991    -2978 
   -3028    -3111    -3169    -3200    -3206    -3160    -3053    -2937 
   -2898    -2980    -3165    -3406    -3732    -4160    -4534    -4707 
   -4692    -4549    -4355    -4193    -4099    -4072    -4090    -4121 
   -4126    -4093    -4036    -3952    -3797    -3514    -3099    -2623 
   -2142    -1675    -1243     -846     -446      -64      230      440 
     649      905     1150     1313     1414     1518     1665     1836 
    1980     2096     2205     2259     2169     1946     1715     1510 
    1246      911      579      328      216      244      344      399 
     321      139      -35     -145     -225     -306     -355     -349 
    -372     -527     -812    -1138    -1413    -1636    -1860    -2106 
   -2346    -2539    -2674    -2802    -3003    -3273    -3514    -3680 
   -3821    -3940    -3971    -3937    -3960    -4089    -4239    -4299 
   -4252    -4185    -4163    -4168    -4186    -4243    -4334    -4398 
   -4402    -4365    -4286    -4118    -3847    -3524    -3235    -3076 
   -3088    -3142    -3041    -2745    -2328    -1818    -1242     -662 
    -153      228      459      552      504      315       56     -144 
    -206     -141      -16       93       66     -190     -643    -1163 
   -1593    -1818    -1830    -1698    -1478    -1196     -858     -438 
      44      487      827     1042     1084      951      738      569 
     498      525      649      818      957     1042     1050      977 
     853      650      302     -186     -738    -1302    -1837    -2257 
   -2552    -2809    -3076    -3396    -3743    -4029    -4216    -4301 
   -4270    -4124    -3910    -3736    -3682    -3754    -3916    -4120 
   -4301    -4376    -4317    -4194    -4086    -4024    -3977    -3863 
   -3649    -3357    -3053    -2826    -2687    -2606    -2581    -2546 
   -2382    -2072    -1698    -1345    -1048     -789     -558     -391 
    -326     -321     -290     -207      -98       51      302      676 
    1124     1545     1799     1826     1711     1560     1432     1343 
    1287     1264     1296     1375     1424     1390     1310     1231 
    1128      966      784      687      720      843      967     1058 
    1154     1250     1271     1146      842      398      -87     -569 
   -1039    -1432    -1661    -1733    -1706    -1625    -1580    -1687 
   -1945    -2280    -2670    -3095    -3497    -3838    -4109    -4311 
   -4465    -4595    -4712    -4850    -5039    -5260    -5472    -5637 
   -5724    -5686    -5479    -5143    -4783    -4509    -4402    -4460 
   -4618    -4830    -5036    -5166    -5227    -5275    -5308    -5281 
   -5174    -5009    -4820    -4627    -4418    -4143    -3743    -3213 
   -2602    -1958    -1289     -584      130      761     1208     1476 
    1652     1773     1830     1823     1767     1672     1559     1429 
    1277     1132     1046     1015      985      916      830      828 
     999     1312     1722     2227     2768     3227     3522     3646 
    3672     3658     3589     3400     3038     2500     1811      996 
     108     -707    -1328    -1782    -2187    -2654    -3184    -3665 
   -3989    -4155    -4256    -4383    -4534    -4693    -4895    -5111 
   -5223    -5182    -5053    -4930    -4853    -4803    -4756    -4749 
   -4860    -5084    -5332    -5578    -5869    -6187    -6403    -6439 
   -6353    -6215    -6048    -5880    -5757    -5695    -5682    -5691 
   -5678    -5589    -5395    -5073    -4617    -4079    -3505    -2901 
   -2311    -1795    -1398    -1136     -940     -695     -346       74 
     517      961     1394     1782     2088     2284     2373     2413 
    2458     2504     2567     2706     2906     3065     3149     3214 
    3341     3545     3743     3878     3974     4064     4117     4075 
    3933     3708     3434     3188     2972     2741     2540     2390 
    2228     2042     1825     1530     1186      868      571      276 
      10     -261     -621    -1069    -1516    -1876    -2157    -2413 
   -2668    -2957    -3349    -3846    -4353    -4749    -5026    -5312 
   -5624    -5837    -5902    -5865    -5826    -5883    -6043    -6276 
   -6544    -6781    -6953    -7133    -7354    -7547    -7693    -7786 
   -7782    -7695    -7588    -7452    -7199    -6771    -6239    -5771 
   -5428    -5127    -4841    -4577    -4236    -3765    -3252    -2739 
   -2204    -1657    -1108     -552      -22      461      892     1209 
    1391     1524     1665     1796     1917     2080     2284     2452 
    2535     2448     2141     1796     1655     1721     1900     2101 
    2218     2241     2250     2303     2405     2469     2394     2193 
    1923     1663     1507     1476     1505     1501     1343      957 
     394     -226     -784    -1169    -1393    -1597    -1846    -2064 
   -2131    -2066    -2068    -2276    -2604    -2909    -3145    -3385 
   -3690    -4021    -4321    -4575    -4780    -4936    -5027    -5039 
   -5015    -5009    -4981    -4860    -4629    -4322    -4075    -4024 
   -4097    -4125    -4027    -3784    -3473    -3219    -3051    -2917 
   -2743    -2486    -2160    -1779    -1375    -1044     -858     -795 
    -796     -823     -853     -882     -912     -897     -797     -635 
    -461     -336     -297     -325     -386     -475     -569     -576 
    -437     -140      326      873     1335     1599     1626     1487 
    1318     1143      874      508      198       52       22        2 
     -63     -125     -136     -152     -261     -490     -781    -1044 
   -1247    -1431    -1617    -1737    -1730    -1652    -1580    -1509 
   -1422    -1402    -1566    -1884    -2195    -2430    -2664    -2934 
   -3195    -3380    -3465    -3508    -3609    -3815    -4078    -4298 
   -4456    -4607    -4752    -4838    -4855    -4854    -4893    -4976 
   -5028    -5000    -4884    -4683    -4413    -4121    -3869    -3682 
   -3538    -3380    -3199    -3041    -2940    -2906    -2917    -2891 
   -2754    -2488    -2089    -1606    -1123     -664     -209      180 
     423      537      583      577      546      538      549      579 
     670      847     1069     1216     1165      935      660      449 
     342      341      457      670      899     1054     1119     1117 
    1077     1024      926      762      619      545      546      608 
     616      463      197      -67     -318     -642    -1075    -1563 
   -2015    -2338    -2535    -2700    -2906    -3207    -3628    -4097 
   -4492    -4765    -4958    -5152    -5363    -5485    -5404    -5184 
   -4984    -4819    -4553    -4110    -3632    -3357    -3323    -3337 
   -3241    -3046    -2821    -2637    -2529    -2443    -2289    -2045 
   -1790    -1597    -1458    -1350    -1255    -1147    -1008     -859 
    -746     -650     -546     -471     -414     -303     -114      117 
     329      484      595      672      768      981     1223     1217 
     913      603      530      607      604      413      102     -128 
    -199     -274     -481     -757    -1003    -1243    -1525    -1773 
   -1879    -1831    -1717    -1675    -1788    -1984    -2162    -2350 
   -2540    -2597    -2602    -2791    -3090    -3273    -3341    -3402 
   -3532    -3697    -3761    -3712    -3709    -3794    -3831    -3720 
   -3526    -3388    -3365    -3361    -3319    -3338    -3453    -3484 
   -3253    -2870    -2520    -2141    -1638    -1147     -797     -552 
    -287       32      255      287      238      221      240      220 
     124       27      -16       -9       51       93       14     -144 
    -207      -56      218      364      206      -47      -32      226 
     400      376      345      502      785     1031     1201     1258 
    1163      985      839      760      621      338       24     -251 
    -556     -899    -1177    -1356    -1563    -1898    -2293    -2583 
   -2745    -2929    -3214    -3538    -3788    -3967    -4284    -4749 
   -5144    -5479    -5795    -5967    -6057    -6281    -6654    -6941 
   -6933    -6733    -6605    -6627    -6667    -6556    -6311    -6133 
   -6045    -5979    -5989    -5971    -5778    -5517    -5283    -4935 
   -4295    -3785    -3979    -4079    -3091    -1918    -1749    -2297 
   -2548    -1752     -314      480      290      -76       64      857 
    1873     2439     2340     2119     2489     3277     3670     3480 
    3240     3369     3619     3626     3689     4162     4542     4113 
    3441     3693     4333     4072     3339     3018     3071     3304 
    3165     2403     1761     1449     1458     1988     2087     1216 
     351       16      383     1124      560    -1291    -1877     -807 
    -488    -1474    -2278    -2928    -3908    -4310    -3854    -3489 
   -4021    -5061    -5414    -5427    -6196    -6920    -6656    -6350 
   -6775    -7515    -7911    -7392    -7052    -8449    -9779    -8644 
   -6539    -6192    -7369    -7728    -6637    -6023    -6504    -6292 
   -5163    -4356    -3954    -3726    -3419    -2825    -2332    -1975 
   -1655    -1516    -1186     -287      496       89     -861     -692 
     492     1452     1620     1208     1237     1962     1948     1316 
    1530     2093     2363     2490     2205     1837     2022     2664 
    2988     2767     2835     3272     3456     3241     2863     2629 
    2687     2879     2440     1417     1039     1297     1296      815 
     265     -155     -616     -517       -9     -278    -1150    -1945 
   -2272    -2241    -2652    -2943    -2343    -2257    -3358    -4113 
   -4050    -3936    -3863    -4051    -4571    -4866    -4795    -4533 
   -4334    -4194    -4166    -4576    -4754    -4253    -3843    -3850 
   -3991    -4032    -4152    -4482    -4280    -3569    -3480    -3843 
   -3943    -4091    -4186    -3746    -3271    -3308    -3466    -3412 
   -3407    -3296    -2786    -2261    -1992    -2004    -2116    -1885 
   -1571    -1300     -707     -303     -363     -336     -143      160 
     615      872      793      688      584      395      511      997 
    1085      627      345      438      653      745      711      913 
    1073      823      745     1040     1197     1085     1011     1031 
     865      645      545      247     -162     -522    -1151    -1759 
   -1945    -2096    -2447    -2840    -3145    -3393    -3721    -4028 
   -4201    -4298    -4347    -4448    -4557    -4558    -4541    -4463 
   -4382    -4509    -4687    -4792    -4811    -4664    -4610    -4673 
   -4540    -4388    -4418    -4361    -4108    -3835    -3655    -3504 
   -3356    -3233    -3024    -2732    -2478    -2182    -1844    -1576 
   -1310     -988     -718     -490     -211       32      216      491 
     814     1039     1186     1316     1409     1386     1297     1254 
    1208     1121     1108     1269     1576     1883     2016     1975 
    1900     1815     1710     1618     1472     1305     1237     1167 
    1028      913      764      537      384      291       89     -171 
    -410     -729    -1093    -1399    -1687    -1988    -2293    -2593 
   -2860    -3079    -3223    -3288    -3388    -3554    -3677    -3816 
   -3996    -4102    -4168    -4194    -4149    -4098    -4054    -4054 
   -4101    -4117    -4121    -4144    -4118    -4016    -3962    -3960 
   -3866    -3781    -3801    -3781    -3767    -3817    -3757    -3618 
   -3535    -3446    -3299    -3098    -2841    -2644    -2548    -2432 
   -2263    -2073    -1849    -1636    -1453    -1188     -814     -484 
    -267     -137      -63      110      317      298      209      319 
     472      464      438      581      831      997      993      861 
     626      390      317      326      243       52     -199     -411 
    -498     -556     -652     -693     -750     -981    -1266    -1406 
   -1483    -1634    -1814    -2031    -2305    -2490    -2566    -2566 
   -2443    -2346    -2380    -2403    -2407    -2428    -2407    -2366 
   -2332    -2273    -2178    -2123    -2176    -2285    -2398    -2467 
   -2411    -2288    -2180    -2081    -2037    -2015    -1903    -1759 
   -1647    -1532    -1463    -1485    -1525    -1514    -1435    -1347 
   -1323    -1296    -1224    -1204    -1186    -1077    -1034    -1112 
   -1121    -1078    -1124    -1151    -1015     -761     -550     -510 
    -568     -619     -650     -622     -591     -616     -679     -800 
    -904     -907     -896     -965    -1132    -1264    -1246    -1256 
   -1363    -1395    -1332    -1247    -1163    -1046     -895     -905 
   -1128    -1381    -1588    -1637    -1416    -1102     -999    -1216 
   -1516    -1621    -1555    -1443    -1358    -1386    -1556    -1756 
   -1854    -1864    -1848    -1888    -2104    -2401    -2500    -2354 
   -2197    -2141    -2176    -2367    -2610    -2655    -2459    -2151 
   -1914    -1884    -2046    -2188    -2084    -1795    -1574    -1563 
   -1745    -1961    -2004    -1810    -1544    -1428    -1445    -1458 
   -1455    -1385    -1138     -872     -801     -868     -942     -989 
   -1021    -1077    -1171    -1297    -1439    -1557    -1632    -1699 
   -1817    -2003    -2155    -2119    -1950    -1872    -1912    -1923 
   -1856    -1753    -1645    -1621    -1733    -1907    -2057    -2197 
   -2392    -2559    -2547    -2400    -2280    -2255    -2268    -2157 
   -1907    -1795    -1917    -1964    -1784    -1560    -1391    -1237 
   -1109    -1030     -980     -913     -834     -788     -795     -934 
   -1274    -1624    -1736    -1655    -1625    -1760    -1884    -1786 
   -1607    -1633    -1818    -1957    -2018    -2047    -2058    -2000 
   -1879    -1823    -1837    -1786    -1645    -1466    -1289    -1186 
   -1227    -1291    -1197    -1044    -1011    -1067    -1132    -1182 
   -1227    -1293    -1397    -1494    -1543    -1601    -1679    -1726 
   -1799    -1935    -2068    -2153    -2187    -2188    -2228    -2284 
   -2246    -2119    -2000    -1941    -1938    -1984    -1998    -1884 
   -1671    -1467    -1356    -1339    -1339    -1355    -1443    -1552 
   -1578    -1509    -1447    -1458    -1475    -1482    -1545    -1684 
   -1852    -1971    -1999    -1983    -1992    -2033    -2072    -2073 
   -1988    -1787    -1514    -1260    -1109    -1069    -1094    -1078 
    -935     -742     -577     -456     -450     -546     -588     -477 
    -294     -202     -278     -463     -679     -882    -1015    -1032 
   -1012    -1035    -1042    -1013    -1004    -1039    -1129    -1236 
   -1312    -1363    -1405    -1486    -1574    -1555    -1476    -1436 
   -1375    -1291    -1282    -1320    -1325    -1316    -1324    -1309 
   -1259    -1260    -1359    -1460    -1494    -1540    -1722    -2047 
