Origin Time       2025/01/13 21:19:00
Lat.              31.8
Long.             131.6
Depth. (km)       30
Mag.              6.9
Station Code      HRS010
Station Lat.      34.5834
Station Long.     133.0515
Station Height(m) 338
Record Time       2025/01/13 21:21:18
Sampling Freq(Hz) 100Hz
Duration Time(s)  60
Dir.              E-W
Scale Factor      7845(gal)/8223790
Max. Acc. (gal)   1.332
Last Correction   2025/01/13 21:21:18
Memo.             
[...]
   -3443    -3307    -3233    -3230    -3237    -3149    -3032    -3017 
   -3190    -3541    -3921    -4190    -4270    -4099    -3780    -3518 
   -3370    -3262    -3173    -3092    -3013    -3032    -3214    -3442 
   -3589    -3618    -3505    -3250    -2949    -2783    -2853    -3075 
   -3345    -3613    -3777    -3769    -3693    -3677    -3721    -3775 
   -3801    -3736    -3501    -3153    -2894    -2845    -3018    -3334 
   -3616    -3742    -3682    -3487    -3331    -3349    -3495    -3667 
   -3746    -3659    -3477    -3342    -3341    -3468    -3640    -3743 
   -3672    -3430    -3194    -3145    -3288    -3510    -3662    -3596 
   -3354    -3106    -2943    -2899    -2988    -3156    -3333    -3487 
   -3591    -3636    -3650    -3661    -3672    -3628    -3464    -3214 
   -2963    -2771    -2690    -2756    -2941    -3163    -3356    -3487 
   -3530    -3489    -3410    -3370    -3458    -3620    -3703    -3654 
   -3457    -3123    -2818    -2709    -2797    -2994    -3172    -3211 
   -3130    -3055    -3091    -3238    -3385    -3441    -3415    -3369 
   -3376    -3430    -3456    -3458    -3476    -3470    -3450    -3484 
   -3537    -3545    -3523    -3507    -3508    -3516    -3520    -3503 
   -3422    -3331    -3319    -3358    -3419    -3528    -3672    -3807 
   -3862    -3824    -3778    -3732    -3685    -3727    -3846    -3933 
   -3921    -3782    -3564    -3369    -3253    -3175    -3072    -2965 
   -2918    -2943    -3059    -3322    -3686    -4006    -4221    -4334 
   -4303    -4147    -3967    -3827    -3739    -3689    -3658    -3601 
   -3487    -3364    -3308    -3362    -3530    -3750    -3896    -3861 
   -3663    -3450    -3361    -3447    -3624    -3771    -3842    -3834 
   -3748    -3632    -3627    -3815    -4056    -4155    -4039    -3746 
   -3400    -3161    -3082    -3083    -3083    -3051    -3002    -3014 
   -3154    -3456    -3846    -4099    -4058    -3815    -3576    -3450 
   -3381    -3292    -3188    -3087    -2976    -2864    -2770    -2706 
   -2731    -2875    -3048    -3149    -3202    -3265    -3365    -3520 
   -3690    -3774    -3746    -3666    -3576    -3481    -3365    -3192 
   -2999    -2917    -2990    -3142    -3295    -3384    -3364    -3260 
   -3190    -3245    -3368    -3422    -3358    -3237    -3148    -3142 
   -3202    -3291    -3368    -3368    -3272    -3149    -3094    -3123 
   -3175    -3191    -3111    -2891    -2614    -2473    -2554    -2759 
   -2974    -3173    -3304    -3325    -3354    -3516    -3758    -3937 
   -3937    -3732    -3410    -3117    -2982    -2994    -3032    -3075 
   -3154    -3238    -3284    -3325    -3422    -3523    -3524    -3483 
   -3468    -3406    -3271    -3146    -3073    -3045    -3049    -3094 
   -3181    -3230    -3142    -2964    -2812    -2725    -2700    -2701 
   -2701    -2724    -2805    -2951    -3190    -3493    -3750    -3881 
   -3858    -3703    -3505    -3343    -3217    -3117    -3049    -3024 
   -3030    -3038    -3057    -3095    -3099    -3046    -2964    -2897 
   -2918    -3059    -3245    -3395    -3465    -3464    -3418    -3358 
   -3303    -3231    -3122    -3001    -2859    -2701    -2648    -2794 
   -3063    -3296    -3400    -3423    -3442    -3410    -3242    -2971 
   -2751    -2740    -2936    -3191    -3393    -3487    -3447    -3327 
   -3176    -3006    -2843    -2731    -2668    -2592    -2479    -2412 
   -2424    -2457    -2475    -2490    -2504    -2500    -2465    -2411 
   -2358    -2344    -2389    -2425    -2381    -2276    -2192    -2211 
   -2373    -2625    -2830    -2903    -2909    -2910    -2843    -2728 
   -2721    -2855    -2995    -3021    -2916    -2776    -2768    -2948 
   -3215    -3445    -3549    -3485    -3352    -3284    -3334    -3504 
   -3740    -3909    -3927    -3843    -3767    -3775    -3873    -3946 
   -3861    -3659    -3511    -3491    -3580    -3751    -3959    -4114 
   -4174    -4176    -4178    -4179    -4126    -3943    -3596    -3146 
   -2733    -2462    -2394    -2558    -2856    -3123    -3248    -3196 
   -3064    -3011    -3096    -3244    -3343    -3335    -3245    -3146 
   -3100    -3115    -3161    -3200    -3207    -3145    -3017    -2930 
   -3001    -3144    -3183    -3146    -3172    -3260    -3361    -3460 
   -3527    -3557    -3561    -3528    -3449    -3333    -3210    -3123 
   -3076    -3042    -2998    -2925    -2860    -2857    -2889    -2940 
   -3075    -3265    -3404    -3456    -3466    -3524    -3653    -3744 
   -3730    -3665    -3609    -3553    -3446    -3269    -3053    -2860 
   -2747    -2740    -2833    -3002    -3221    -3429    -3526    -3496 
   -3474    -3599    -3847    -4048    -4048    -3855    -3601    -3431 
   -3416    -3539    -3707    -3816    -3789    -3609    -3389    -3276 
   -3294    -3379    -3450    -3430    -3341    -3296    -3352    -3485 
   -3663    -3802    -3797    -3650    -3495    -3474    -3613    -3819 
   -3979    -4029    -3956    -3854    -3856    -3996    -4160    -4249 
   -4237    -4145    -4039    -3986    -4014    -4118    -4271    -4391 
   -4367    -4167    -3893    -3708    -3728    -3912    -4066    -4064 
   -3978    -3909    -3886    -3890    -3883    -3828    -3707    -3554 
   -3446    -3399    -3393    -3422    -3493    -3613    -3727    -3757 
   -3742    -3793    -3939    -4098    -4156    -4078    -3928    -3784 
   -3690    -3654    -3631    -3593    -3541    -3476    -3437    -3485 
   -3628    -3790    -3896    -3933    -3910    -3828    -3755    -3748 
   -3746    -3700    -3684    -3724    -3744    -3726    -3721    -3781 
   -3905    -4002    -3935    -3709    -3472    -3331    -3299    -3334 
   -3385    -3415    -3400    -3370    -3407    -3559    -3800    -4021 
   -4124    -4098    -3985    -3829    -3697    -3607    -3484    -3326 
   -3221    -3153    -3057    -2972    -2957    -3028    -3163    -3292 
   -3350    -3321    -3231    -3111    -2979    -2866    -2818    -2839 
   -2853    -2782    -2643    -2520    -2450    -2421    -2457    -2574 
   -2714    -2787    -2759    -2664    -2587    -2589    -2637    -2713 
   -2839    -2982    -3083    -3100    -2995    -2824    -2751    -2840 
   -2998    -3114    -3157    -3129    -3064    -3071    -3202    -3381 
   -3545    -3690    -3781    -3767    -3704    -3716    -3843    -3990 
   -4048    -3970    -3765    -3495    -3291    -3268    -3411    -3562 
   -3573    -3466    -3365    -3334    -3396    -3547    -3709    -3792 
   -3766    -3639    -3477    -3400    -3445    -3512    -3491    -3350 
   -3145    -2938    -2756    -2612    -2543    -2563    -2623    -2681 
   -2764    -2860    -2902    -2890    -2907    -3005    -3149    -3256 
   -3246    -3105    -2878    -2666    -2562    -2586    -2716    -2899 
   -3049    -3117    -3169    -3298    -3511    -3732    -3852    -3797 
   -3577    -3307    -3099    -3015    -3087    -3246    -3337    -3269 
   -3099    -2926    -2821    -2814    -2889    -2974    -2982    -2889 
   -2767    -2724    -2799    -2956    -3145    -3303    -3329    -3192 
   -2976    -2794    -2759    -2916    -3153    -3323    -3372    -3323 
   -3258    -3271    -3387    -3608    -3890    -4121    -4197    -4118 
   -3960    -3813    -3720    -3658    -3580    -3462    -3298    -3127 
   -3034    -3071    -3215    -3426    -3643    -3770    -3755    -3649 
   -3542    -3520    -3609    -3757    -3882    -3921    -3828    -3639 
   -3461    -3362    -3326    -3307    -3261    -3171    -3064    -2979 
   -2967    -3065    -3217    -3342    -3433    -3523    -3628    -3740 
   -3843    -3897    -3858    -3716    -3531    -3368    -3230    -3109 
   -3046    -3079    -3204    -3375    -3532    -3692    -3871    -4037 
   -4168    -4266    -4333    -4353    -4298    -4176    -4047    -3929 
   -3800    -3639    -3438    -3215    -3060    -3040    -3113    -3171 
   -3140    -2999    -2793    -2614    -2551    -2633    -2830    -3056 
   -3196    -3222    -3188    -3150    -3140    -3153    -3146    -3080 
   -2968    -2901    -2947    -3080    -3254    -3460    -3655    -3788 
   -3844    -3823    -3719    -3601    -3584    -3696    -3848    -3924 
   -3916    -3859    -3757    -3676    -3686    -3716    -3677    -3601 
   -3524    -3449    -3420    -3477    -3584    -3663    -3659    -3551 
   -3393    -3292    -3292    -3375    -3489    -3549    -3503    -3404 
   -3338    -3329    -3346    -3339    -3261    -3138    -3052    -3052 
   -3113    -3175    -3214    -3252    -3312    -3423    -3564    -3653 
   -3608    -3449    -3279    -3157    -3069    -3009    -2943    -2816 
   -2641    -2490    -2411    -2425    -2509    -2586    -2621    -2631 
   -2602    -2532    -2474    -2462    -2515    -2650    -2836    -3019 
   -3186    -3337    -3495    -3692    -3925    -4158    -4338    -4450 
   -4514    -4540    -4538    -4519    -4482    -4429    -4409    -4455 
   -4525    -4550    -4500    -4374    -4176    -3959    -3789    -3697 
   -3669    -3646    -3580    -3492    -3451    -3514    -3674    -3851 
   -3952    -3952    -3886    -3801    -3735    -3711    -3712    -3701 
   -3635    -3491    -3298    -3136    -3086    -3141    -3210    -3225 
   -3188    -3123    -3053    -3001    -2957    -2911    -2856    -2762 
   -2612    -2451    -2349    -2323    -2353    -2446    -2577    -2658 
   -2683    -2721    -2810    -2959    -3146    -3299    -3366    -3348 
   -3241    -3059    -2895    -2816    -2794    -2798    -2824    -2864 
   -2960    -3126    -3303    -3439    -3527    -3568    -3565    -3558 
   -3577    -3605    -3592    -3523    -3438    -3362    -3294    -3240 
   -3190    -3148    -3130    -3133    -3175    -3283    -3406    -3457 
   -3441    -3426    -3435    -3465    -3524    -3616    -3701    -3742 
   -3740    -3705    -3642    -3566    -3495    -3411    -3275    -3110 
   -2982    -2903    -2868    -2924    -3086    -3252    -3322    -3342 
   -3391    -3464    -3526    -3543    -3480    -3361    -3265    -3234 
   -3294    -3441    -3582    -3627    -3600    -3574    -3580    -3620 
   -3700    -3778    -3786    -3734    -3699    -3711    -3721    -3700 
   -3665    -3605    -3508    -3408    -3331    -3302    -3357    -3473 
   -3568    -3607    -3618    -3638    -3682    -3746    -3794    -3811 
   -3797    -3769    -3754    -3743    -3680    -3554    -3427    -3343 
   -3303    -3300    -3288    -3226    -3134    -3036    -2968    -2991 
   -3094    -3213    -3339    -3477    -3572    -3562    -3446    -3264 
   -3044    -2839    -2694    -2593    -2479    -2339    -2242    -2253 
   -2336    -2458    -2612    -2762    -2878    -2978    -3052    -3106 
   -3204    -3379    -3546    -3613    -3585    -3516    -3423    -3314 
   -3221    -3177    -3183    -3210    -3260    -3370    -3558    -3780 
   -3991    -4160    -4229    -4168    -4036    -3893    -3781    -3715 
   -3672    -3634    -3578    -3489    -3393    -3299    -3191    -3080 
   -2951    -2778    -2616    -2532    -2521    -2583    -2689    -2740 
   -2702    -2641    -2596    -2581    -2605    -2651    -2718    -2826 
   -2986    -3172    -3345    -3491    -3630    -3781    -3951    -4136 
   -4276    -4282    -4139    -3956    -3819    -3736    -3686    -3642 
   -3592    -3539    -3484    -3450    -3468    -3518    -3574    -3628 
   -3658    -3659    -3658    -3649    -3626    -3624    -3665    -3711 
   -3703    -3616    -3469    -3272    -3059    -2909    -2851    -2825 
   -2799    -2801    -2820    -2837    -2911    -3075    -3283    -3476 
   -3619    -3693    -3700    -3666    -3612    -3518    -3372    -3219 
   -3099    -3028    -3025    -3103    -3237    -3411    -3619    -3809 
   -3943    -4014    -4028    -4010    -3990    -3967    -3935    -3877 
   -3775    -3653    -3551    -3489    -3462    -3434    -3370    -3294 
   -3248    -3235    -3249    -3260    -3229    -3156    -3072    -2990 
   -2897    -2763    -2610    -2528    -2571    -2717    -2926    -3148 
   -3316    -3395    -3402    -3377    -3352    -3346    -3364    -3376 
   -3369    -3365    -3375    -3410    -3480    -3559    -3599    -3557 
   -3442    -3333    -3304    -3329    -3365    -3435    -3542    -3624 
   -3628    -3566    -3487    -3420    -3393    -3399    -3393    -3350 
   -3276    -3200    -3173    -3215    -3275    -3296    -3250    -3126 
   -2947    -2783    -2716    -2731    -2758    -2774    -2759    -2687 
   -2608    -2589    -2619    -2651    -2641    -2567    -2471    -2431 
   -2473    -2590    -2740    -2859    -2918    -2951    -3018    -3140 
   -3308    -3534    -3784    -3997    -4193    -4396    -4572    -4680 
   -4698    -4607    -4437    -4228    -3978    -3703    -3451    -3256 
   -3137    -3113    -3148    -3192    -3226    -3246    -3234    -3199 
   -3176    -3161    -3165    -3231    -3333    -3419    -3507    -3597 
   -3651    -3657    -3643    -3632    -3609    -3557    -3470    -3349 
   -3213    -3107    -3049    -3018    -3013    -3021    -3026    -3034 
   -3059    -3095    -3144    -3230    -3368    -3507    -3574    -3543 
   -3402    -3187    -3028    -2997    -3015    -2975    -2853    -2689 
   -2567    -2583    -2732    -2909    -3009    -2986    -2901    -2870 
   -2965    -3168    -3364    -3437    -3411    -3397    -3451    -3565 
   -3712    -3854    -3974    -4072    -4117    -4093    -4072    -4113 
   -4185    -4220    -4172    -4037    -3869    -3726    -3622    -3545 
   -3478    -3388    -3249    -3072    -2917    -2866    -2955    -3144 
   -3364    -3574    -3781    -4004    -4230    -4432    -4596    -4715 
   -4741    -4629    -4392    -4094    -3819    -3632    -3550    -3530 
   -3512    -3469    -3418    -3387    -3392    -3449    -3569    -3723 
   -3819    -3780    -3605    -3361    -3140    -3014    -2971    -2940 
   -2886    -2805    -2713    -2635    -2596    -2602    -2623    -2625 
   -2633    -2654    -2664    -2673    -2702    -2762    -2847    -2945 
   -3022    -3048    -3046    -3076    -3148    -3219    -3246    -3203 
   -3103    -2990    -2890    -2802    -2732    -2682    -2628    -2582 
   -2605    -2704    -2821    -2913    -2982    -3065    -3177    -3279 
   -3330    -3311    -3264    -3268    -3338    -3451    -3591    -3704 
   -3757    -3781    -3804    -3824    -3838    -3843    -3838    -3804 
   -3709    -3586    -3501    -3485    -3546    -3651    -3712    -3705 
   -3659    -3581    -3516    -3547    -3693    -3877    -3991    -3993 
   -3883    -3716    -3577    -3508    -3483    -3481    -3507    -3550 
   -3601    -3688    -3851    -4063    -4260    -4394    -4438    -4399 
   -4306    -4175    -4014    -3863    -3744    -3646    -3558    -3489 
   -3435    -3399    -3368    -3322    -3267    -3223    -3191    -3169 
   -3156    -3126    -3065    -2987    -2922    -2898    -2917    -2940 
   -2909    -2794    -2648    -2555    -2523    -2496    -2454    -2419 
   -2417    -2457    -2516    -2560    -2560    -2543    -2554    -2624 
   -2766    -2959    -3160    -3326    -3439    -3543    -3674    -3797 
   -3866    -3852    -3758    -3597    -3403    -3223    -3106    -3069 
   -3109    -3204    -3330    -3477    -3653    -3855    -4062    -4237 
   -4340    -4352    -4290    -4191    -4070    -3928    -3788    -3655 
   -3522    -3379    -3223    -3075    -2960    -2898    -2884    -2875 
   -2835    -2789    -2785    -2806    -2813    -2806    -2795    -2783 
   -2768    -2740    -2720    -2747    -2803    -2840    -2857    -2864 
   -2825    -2713    -2563    -2447    -2435    -2546    -2712    -2857 
   -2938    -2960    -2980    -3026    -3064    -3059    -3024    -2968 
   -2907    -2883    -2909    -2953    -2988    -3032    -3091    -3141 
   -3196    -3280    -3369    -3445    -3534    -3639    -3739    -3824 
   -3896    -3950    -3981    -3970    -3933    -3932    -4000    -4087 
   -4152    -4190    -4212    -4226    -4222    -4191    -4160    -4164 
   -4205    -4268    -4329    -4345    -4299    -4229    -4178    -4133 
   -4056    -3920    -3740    -3586    -3499    -3468    -3487    -3523 
   -3534    -3522    -3526    -3562    -3618    -3670    -3707    -3707 
   -3667    -3642    -3673    -3743    -3831    -3913    -3954    -3929 
   -3855    -3771    -3716    -3703    -3735    -3782    -3807    -3808 
   -3809    -3834    -3894    -3964    -4000    -3978    -3894    -3796 
   -3742    -3738    -3740    -3709    -3634    -3515    -3377    -3256 
   -3171    -3119    -3075    -2998    -2884    -2772    -2718    -2767 
   -2901    -3041    -3137    -3184    -3175    -3110    -3019    -2924 
   -2822    -2705    -2577    -2463    -2377    -2324    -2331    -2407 
   -2517    -2606    -2641    -2639    -2619    -2604    -2624    -2701 
   -2814    -2911    -2964    -2968    -2943    -2911    -2891    -2886 
   -2898    -2934    -3034    -3208    -3419    -3631    -3817    -3959 
   -4037    -4054    -4048    -4051    -4054    -4047    -4027    -4014 
   -4027    -4062    -4117    -4178    -4214    -4207    -4155    -4075 
   -3991    -3936    -3913    -3902    -3906    -3896    -3813    -3659 
   -3484    -3319    -3171    -3042    -2928    -2810    -2708    -2673 
   -2698    -2745    -2810    -2891    -2965    -3022    -3068    -3114 
   -3165    -3218    -3265    -3289    -3287    -3269    -3249    -3233 
   -3235    -3283    -3368    -3457    -3518    -3557    -3611    -3686 
   -3769    -3835    -3865    -3858    -3839    -3846    -3896    -3947 
   -3933    -3842    -3711    -3574    -3461    -3375    -3284    -3165 
   -3040    -2944    -2880    -2845    -2864    -2925    -2990    -3044 
   -3096    -3173    -3289    -3385    -3412    -3380    -3298    -3163 
   -3010    -2884    -2797    -2744    -2702    -2663    -2652    -2681 
   -2740    -2826    -2907    -2947    -2953    -2949    -2941    -2937 
   -2953    -2979    -3007    -3048    -3095    -3142    -3210    -3287 
   -3314    -3284    -3248    -3226    -3241    -3298    -3366    -3414 
   -3430    -3431    -3441    -3464    -3484    -3484    -3457    -3411 
   -3366    -3356    -3403    -3483    -3553    -3581    -3553    -3483 
   -3423    -3406    -3414    -3412    -3388    -3349    -3315    -3306 
   -3326    -3345    -3331    -3291    -3238    -3169    -3099    -3091 
   -3167    -3267    -3338    -3393    -3461    -3538    -3600    -3630 
   -3635    -3624    -3618    -3639    -3684    -3736    -3769    -3754 
   -3696    -3612    -3514    -3426    -3372    -3356    -3348    -3306 
   -3226    -3137    -3090    -3121    -3194    -3257    -3289    -3271 
   -3222    -3221    -3287    -3380    -3478    -3553    -3562    -3526 
   -3492    -3472    -3458    -3439    -3422    -3407    -3399    -3420 
   -3474    -3510    -3495    -3464    -3447    -3437    -3447    -3493 
   -3546    -3572    -3576    -3539    -3457    -3376    -3330    -3295 
   -3238    -3156    -3071    -3019    -3001    -3001    -3022    -3068 
   -3115    -3142    -3142    -3125    -3115    -3113    -3090    -3040 
   -2990    -2967    -2957    -2947    -2940    -2934    -2920    -2898 
   -2879    -2884    -2924    -2991    -3078    -3164    -3245    -3331 
   -3410    -3461    -3489    -3497    -3480    -3457    -3460    -3500 
   -3551    -3566    -3566    -3568    -3547    -3510    -3478    -3462 
   -3469    -3484    -3483    -3465    -3450    -3447    -3460    -3485 
   -3518    -3542    -3557    -3580    -3622    -3677    -3724    -3739 
   -3724    -3692    -3649    -3593    -3523    -3446    -3397    -3387 
