Origin Time       2025/01/13 21:19:00
Lat.              31.8
Long.             131.6
Depth. (km)       30
Mag.              6.9
Station Code      HRS009
Station Lat.      34.4927
Station Long.     132.2802
Station Height(m) 218
Record Time       2025/01/13 21:20:34
Sampling Freq(Hz) 100Hz
Duration Time(s)  95
Dir.              N-S
Scale Factor      7845(gal)/8223790
Max. Acc. (gal)   2.448
Last Correction   2025/01/13 21:20:33
Memo.             
[...]
   -4456    -4438    -4379    -4342    -4421    -4623    -4846    -4981 
   -5044    -5086    -5066    -4968    -4876    -4919    -5155    -5471 
   -5638    -5549    -5297    -5035    -4833    -4700    -4672    -4770 
   -4989    -5297    -5617    -5838    -5922    -5960    -6007    -5975 
   -5767    -5449    -5116    -4774    -4433    -4163    -4023    -3991 
   -4023    -4136    -4388    -4704    -4992    -5285    -5575    -5746 
   -5718    -5526    -5273    -5028    -4830    -4639    -4380    -4059 
   -3775    -3659    -3835    -4324    -5011    -5746    -6404    -6849 
   -6975    -6802    -6493    -6224    -6021    -5751    -5350    -4947 
   -4679    -4536    -4479    -4507    -4634    -4911    -5362    -5872 
   -6274    -6458    -6377    -6043    -5566    -5092    -4695    -4379 
   -4126    -3939    -3893    -4062    -4426    -4909    -5412    -5841 
   -6116    -6172    -6057    -5934    -5900    -5934    -5972    -5956 
   -5891    -5852    -5854    -5769    -5452    -4920    -4365    -3937 
   -3640    -3456    -3424    -3542    -3753    -4029    -4360    -4730 
   -5130    -5489    -5707    -5764    -5707    -5621    -5574    -5528 
   -5418    -5256    -5051    -4833    -4725    -4799    -4977    -5169 
   -5316    -5363    -5251    -4949    -4554    -4272    -4203    -4326 
   -4585    -4908    -5239    -5613    -6034    -6396    -6593    -6573 
   -6318    -5898    -5390    -4838    -4340    -3994    -3773    -3553 
   -3253    -2903    -2613    -2525    -2733    -3237    -3978    -4812 
   -5530    -6022    -6295    -6408    -6475    -6574    -6621    -6480 
   -6122    -5645    -5186    -4870    -4741    -4743    -4780    -4784 
   -4725    -4600    -4519    -4657    -5049    -5571    -6099    -6481 
   -6542    -6246    -5706    -5035    -4378    -3919    -3716    -3700 
   -3827    -4094    -4472    -4885    -5269    -5634    -6035    -6408 
   -6617    -6621    -6481    -6241    -5857    -5297    -4654    -4131 
   -3913    -4040    -4368    -4706    -4962    -5142    -5247    -5270 
   -5213    -5121    -5016    -4878    -4718    -4521    -4275    -4099 
   -4063    -4074    -4078    -4085    -4116    -4280    -4668    -5213 
   -5799    -6307    -6578    -6469    -5957    -5173    -4338    -3667 
   -3325    -3375    -3726    -4170    -4577    -5012    -5563    -6142 
   -6606    -6858    -6835    -6566    -6131    -5591    -5063    -4700 
   -4565    -4625    -4791    -4966    -5128    -5329    -5533    -5651 
   -5690    -5690    -5649    -5574    -5486    -5409    -5344    -5279 
   -5238    -5285    -5408    -5439    -5250    -4900    -4534    -4259 
   -4106    -4028    -3985    -4020    -4186    -4519    -5001    -5509 
   -5921    -6214    -6377    -6378    -6216    -5910    -5529    -5177 
   -4851    -4503    -4218    -4102    -4113    -4185    -4355    -4683 
   -5085    -5382    -5490    -5435    -5229    -4912    -4587    -4371 
   -4310    -4369    -4486    -4607    -4712    -4807    -4893    -4997 
   -5154    -5302    -5310    -5179    -5015    -4846    -4639    -4444 
   -4352    -4340    -4311    -4224    -4125    -4136    -4372    -4826 
   -5408    -6018    -6498    -6709    -6694    -6542    -6253    -5881 
   -5537    -5244    -4972    -4704    -4492    -4430    -4541    -4769 
   -5034    -5252    -5394    -5490    -5580    -5679    -5796    -5921 
   -6014    -6010    -5886    -5683    -5470    -5306    -5221    -5166 
   -5053    -4877    -4746    -4741    -4834    -4963    -5053    -5032 
   -4938    -4854    -4784    -4743    -4816    -4985    -5088    -5031 
   -4870    -4687    -4537    -4482    -4568    -4708    -4723    -4557 
   -4318    -4185    -4272    -4534    -4850    -5155    -5427    -5679 
   -5942    -6220    -6457    -6573    -6505    -6220    -5740    -5182 
   -4776    -4685    -4907    -5331    -5799    -6170    -6390    -6450 
   -6358    -6157    -5892    -5601    -5277    -4881    -4428    -4033 
   -3862    -3971    -4225    -4456    -4630    -4710    -4629    -4464 
   -4353    -4324    -4344    -4438    -4618    -4803    -4885    -4882 
   -4842    -4716    -4473    -4191    -3924    -3632    -3349    -3184 
   -3180    -3335    -3658    -4128    -4673    -5204    -5582    -5683 
   -5574    -5458    -5459    -5579    -5753    -5853    -5821    -5698 
   -5486    -5202    -4977    -4869    -4793    -4671    -4503    -4333 
   -4182    -4017    -3816    -3659    -3693    -3929    -4236    -4542 
   -4870    -5231    -5595    -5903    -6112    -6251    -6376    -6527 
   -6667    -6659    -6426    -6042    -5660    -5348    -5088    -4892 
   -4833    -4909    -5055    -5232    -5428    -5643    -5908    -6220 
   -6529    -6804    -6968    -6956    -6814    -6616    -6343    -5965 
   -5517    -5073    -4676    -4359    -4207    -4294    -4538    -4803 
   -5057    -5347    -5649    -5865    -5930    -5805    -5448    -4932 
   -4428    -4047    -3843    -3858    -4055    -4326    -4580    -4741 
   -4770    -4743    -4733    -4725    -4691    -4617    -4506    -4387 
   -4270    -4167    -4106    -4094    -4116    -4160    -4248    -4380 
   -4525    -4677    -4858    -5023    -5085    -5012    -4838    -4600 
   -4352    -4202    -4216    -4360    -4604    -4936    -5301    -5601 
   -5761    -5772    -5675    -5560    -5518    -5576    -5683    -5764 
   -5790    -5787    -5776    -5730    -5651    -5606    -5611    -5609 
   -5564    -5518    -5518    -5586    -5714    -5845    -5887    -5826 
   -5721    -5620    -5548    -5532    -5559    -5568    -5478    -5274 
   -5058    -4959    -5049    -5260    -5435    -5497    -5494    -5474 
   -5502    -5632    -5806    -5890    -5759    -5370    -4812    -4239 
   -3788    -3532    -3426    -3408    -3505    -3690    -3856    -3964 
   -4059    -4172    -4286    -4372    -4467    -4631    -4895    -5270 
   -5757    -6234    -6555    -6685    -6613    -6320    -5906    -5570 
   -5414    -5352    -5235    -5012    -4753    -4519    -4344    -4253 
   -4253    -4321    -4399    -4437    -4437    -4425    -4430    -4476 
   -4577    -4739    -4920    -5070    -5197    -5332    -5466    -5526 
   -5460    -5296    -5076    -4796    -4476    -4221    -4133    -4212 
   -4368    -4495    -4569    -4658    -4807    -5011    -5220    -5350 
   -5344    -5248    -5177    -5229    -5401    -5617    -5842    -6041 
   -6118    -6030    -5869    -5751    -5728    -5778    -5848    -5958 
   -6147    -6342    -6461    -6517    -6540    -6524    -6477    -6388 
   -6220    -5995    -5763    -5529    -5302    -5108    -4942    -4814 
   -4749    -4723    -4695    -4661    -4626    -4564    -4426    -4199 
   -3967    -3817    -3785    -3861    -3967    -4006    -3974    -3921 
   -3862    -3828    -3874    -3991    -4144    -4333    -4550    -4760 
   -4919    -4997    -5011    -4981    -4920    -4860    -4816    -4819 
   -4896    -5009    -5094    -5130    -5117    -5057    -4918    -4681 
   -4411    -4221    -4160    -4209    -4309    -4401    -4504    -4662 
   -4822    -4918    -4977    -5058    -5190    -5356    -5512    -5628 
   -5675    -5636    -5557    -5498    -5432    -5325    -5219    -5150 
   -5089    -5039    -5080    -5231    -5412    -5566    -5714    -5856 
   -5953    -6002    -6008    -5953    -5841    -5705    -5593    -5537 
   -5524    -5513    -5466    -5374    -5269    -5189    -5123    -5035 
   -4918    -4776    -4638    -4558    -4560    -4653    -4882    -5216 
   -5520    -5686    -5645    -5413    -5078    -4677    -4247    -3905 
   -3762    -3877    -4249    -4769    -5294    -5779    -6201    -6447 
   -6416    -6119    -5660    -5175    -4737    -4353    -4033    -3769 
   -3558    -3441    -3419    -3442    -3520    -3712    -4028    -4409 
   -4807    -5201    -5568    -5859    -6037    -6111    -6100    -6008 
   -5822    -5512    -5111    -4712    -4367    -4083    -3921    -3933 
   -4089    -4325    -4629    -4981    -5358    -5752    -6141    -6474 
   -6704    -6787    -6681    -6400    -6034    -5664    -5316    -5012 
   -4783    -4627    -4527    -4483    -4477    -4484    -4521    -4649 
   -4881    -5173    -5478    -5734    -5922    -6083    -6226    -6315 
   -6346    -6303    -6142    -5854    -5489    -5135    -4869    -4685 
   -4544    -4448    -4436    -4518    -4666    -4864    -5105    -5354 
   -5548    -5665    -5722    -5729    -5688    -5598    -5427    -5167 
   -4908    -4725    -4614    -4599    -4715    -4916    -5116    -5236 
   -5223    -5108    -4996    -4941    -4915    -4897    -4895    -4882 
   -4804    -4653    -4519    -4492    -4572    -4730    -4916    -5023 
   -4953    -4702    -4365    -4064    -3870    -3789    -3750    -3665 
   -3538    -3450    -3481    -3682    -4054    -4518    -4965    -5304 
   -5493    -5543    -5528    -5529    -5578    -5672    -5779    -5834 
   -5818    -5741    -5611    -5472    -5366    -5306    -5305    -5335 
   -5348    -5333    -5324    -5390    -5544    -5706    -5805    -5825 
   -5763    -5618    -5410    -5171    -4939    -4752    -4631    -4576 
   -4579    -4664    -4823    -4996    -5142    -5298    -5497    -5695 
   -5826    -5880    -5910    -5945    -5998    -6072    -6130    -6142 
   -6115    -6062    -6012    -5958    -5844    -5675    -5508    -5312 
   -5038    -4712    -4391    -4109    -3881    -3711    -3640    -3707 
   -3863    -4058    -4286    -4518    -4714    -4870    -4978    -5017 
   -4981    -4853    -4661    -4473    -4307    -4197    -4228    -4398 
   -4621    -4876    -5192    -5547    -5842    -5996    -6008    -5900 
   -5661    -5282    -4826    -4386    -3991    -3655    -3445    -3422 
   -3570    -3840    -4175    -4500    -4762    -4938    -5038    -5093 
   -5097    -5024    -4878    -4687    -4473    -4272    -4133    -4093 
   -4164    -4348    -4608    -4878    -5085    -5170    -5139    -5065 
   -5038    -5113    -5269    -5433    -5517    -5447    -5244    -5015 
   -4820    -4657    -4531    -4482    -4529    -4654    -4846    -5117 
   -5440    -5717    -5865    -5894    -5852    -5761    -5657    -5610 
   -5665    -5822    -6042    -6250    -6390    -6462    -6454    -6358 
   -6210    -6029    -5784    -5452    -5053    -4607    -4137    -3701 
   -3353    -3122    -3044    -3172    -3512    -4017    -4626    -5251 
   -5819    -6277    -6579    -6712    -6670    -6492    -6266    -6054 
   -5863    -5718    -5643    -5603    -5533    -5393    -5223    -5108 
   -5040    -4958    -4838    -4676    -4492    -4338    -4240    -4186 
   -4166    -4180    -4243    -4351    -4442    -4473    -4500    -4594 
   -4733    -4860    -4942    -4986    -5028    -5112    -5232    -5340 
   -5437    -5536    -5611    -5647    -5638    -5594    -5544    -5498 
   -5443    -5378    -5308    -5219    -5134    -5107    -5167    -5309 
   -5498    -5674    -5792    -5871    -5926    -5941    -5923    -5913 
   -5908    -5876    -5827    -5788    -5778    -5822    -5890    -5875 
   -5726    -5472    -5166    -4866    -4627    -4452    -4306    -4198 
   -4171    -4216    -4291    -4394    -4554    -4780    -5030    -5247 
   -5360    -5344    -5279    -5252    -5270    -5319    -5398    -5489 
   -5560    -5610    -5637    -5621    -5583    -5582    -5595    -5556 
   -5452    -5320    -5219    -5212    -5270    -5319    -5314    -5231 
   -5042    -4769    -4463    -4164    -3888    -3628    -3434    -3369 
   -3422    -3537    -3723    -4008    -4338    -4637    -4882    -5100 
   -5269    -5320    -5220    -4980    -4631    -4229    -3829    -3478 
   -3222    -3088    -3075    -3173    -3387    -3697    -4102    -4638 
   -5289    -5934    -6458    -6836    -7071    -7141    -7051    -6840 
   -6554    -6242    -5950    -5714    -5544    -5431    -5359    -5337 
   -5379    -5476    -5610    -5755    -5877    -5964    -6062    -6203 
   -6346    -6444    -6478    -6421    -6285    -6111    -5946    -5805 
   -5690    -5593    -5485    -5332    -5136    -4930    -4718    -4484 
   -4234    -3993    -3782    -3636    -3570    -3566    -3630    -3797 
   -4074    -4468    -4969    -5491    -5926    -6223    -6388    -6421 
   -6339    -6212    -6111    -6030    -5915    -5719    -5460    -5189 
   -4923    -4696    -4573    -4575    -4666    -4818    -5022    -5263 
   -5520    -5768    -5960    -6049    -6046    -5998    -5908    -5787 
   -5674    -5597    -5548    -5497    -5409    -5274    -5108    -4935 
   -4792    -4699    -4633    -4594    -4606    -4622    -4583    -4527 
   -4496    -4473    -4461    -4472    -4502    -4530    -4507    -4422 
   -4290    -4102    -3875    -3650    -3430    -3231    -3102    -3060 
   -3098    -3211    -3391    -3611    -3842    -4055    -4253    -4410 
   -4469    -4432    -4345    -4233    -4120    -4063    -4116    -4298 
   -4587    -4934    -5298    -5670    -6029    -6343    -6577    -6705 
   -6721    -6631    -6448    -6222    -5999    -5807    -5641    -5506 
   -5412    -5350    -5325    -5377    -5509    -5682    -5848    -5980 
   -6081    -6173    -6253    -6335    -6443    -6571    -6700    -6805 
   -6835    -6732    -6492    -6176    -5844    -5528    -5239    -4973 
   -4726    -4514    -4330    -4153    -4017    -3959    -3969    -4050 
   -4233    -4500    -4795    -5080    -5339    -5568    -5748    -5853 
   -5876    -5830    -5733    -5597    -5435    -5286    -5201    -5193 
   -5224    -5243    -5244    -5242    -5232    -5192    -5131    -5082 
   -5062    -5085    -5154    -5246    -5362    -5521    -5683    -5779 
   -5748    -5557    -5227    -4800    -4305    -3777    -3294    -2920 
   -2663    -2516    -2506    -2651    -2909    -3186    -3404    -3559 
   -3684    -3804    -3969    -4203    -4487    -4826    -5233    -5670 
   -6066    -6381    -6609    -6758    -6799    -6701    -6467    -6111 
   -5659    -5174    -4733    -4376    -4124    -3974    -3939    -4047 
   -4267    -4530    -4810    -5084    -5329    -5526    -5634    -5633 
   -5553    -5458    -5383    -5340    -5310    -5271    -5246    -5263 
   -5316    -5375    -5433    -5502    -5576    -5643    -5710    -5813 
   -5942    -6056    -6130    -6147    -6116    -6083    -6038    -5946 
   -5818    -5686    -5548    -5394    -5221    -5046    -4888    -4781 
   -4737    -4735    -4743    -4735    -4730    -4760    -4806    -4833 
   -4853    -4885    -4893    -4849    -4768    -4687    -4630    -4595 
   -4549    -4484    -4425    -4382    -4341    -4311    -4337    -4423 
   -4519    -4579    -4630    -4738    -4908    -5094    -5277    -5451 
   -5601    -5707    -5760    -5741    -5663    -5562    -5482    -5455 
   -5471    -5476    -5421    -5285    -5094    -4918    -4807    -4781 
   -4843    -4955    -5078    -5224    -5390    -5537    -5648    -5724 
   -5756    -5733    -5651    -5529    -5401    -5287    -5192    -5108 
   -5035    -4978    -4943    -4928    -4919    -4919    -4928    -4947 
   -5000    -5116    -5279    -5475    -5694    -5899    -6056    -6169 
   -6258    -6340    -6419    -6484    -6494    -6408    -6216    -5956 
   -5682    -5460    -5314    -5200    -5076    -4958    -4855    -4757 
   -4683    -4671    -4712    -4749    -4731    -4645    -4486    -4266 
   -4035    -3823    -3639    -3491    -3385    -3331    -3345    -3433 
   -3599    -3861    -4203    -4564    -4885    -5150    -5358    -5499 
   -5560    -5540    -5482    -5437    -5429    -5458    -5518    -5607 
   -5714    -5811    -5863    -5844    -5741    -5552    -5310    -5069 
   -4872    -4722    -4618    -4557    -4533    -4538    -4575    -4641 
   -4722    -4803    -4878    -4932    -4955    -4959    -4934    -4853 
   -4723    -4568    -4383    -4168    -3977    -3871    -3886    -4010 
   -4206    -4432    -4631    -4752    -4816    -4891    -4978    -5031 
   -5024    -4961    -4845    -4716    -4633    -4611    -4627    -4652 
   -4677    -4711    -4760    -4841    -4986    -5184    -5382    -5551 
   -5683    -5763    -5802    -5827    -5821    -5776    -5728    -5682 
   -5640    -5611    -5579    -5536    -5510    -5508    -5514    -5509 
   -5475    -5424    -5355    -5235    -5046    -4800    -4537    -4313 
   -4166    -4101    -4105    -4158    -4260    -4409    -4557    -4662 
   -4735    -4803    -4872    -4936    -4995    -5063    -5155    -5243 
   -5306    -5368    -5448    -5509    -5518    -5497    -5468    -5464 
   -5512    -5582    -5628    -5626    -5582    -5505    -5414    -5321 
   -5248    -5215    -5216    -5229    -5246    -5278    -5319    -5337 
   -5320    -5258    -5132    -4951    -4761    -4615    -4537    -4536 
   -4607    -4725    -4874    -5042    -5182    -5274    -5336    -5364 
   -5323    -5217    -5089    -4970    -4874    -4789    -4700    -4599 
   -4488    -4403    -4372    -4405    -4490    -4598    -4706    -4793 
   -4841    -4888    -5001    -5184    -5381    -5551    -5690    -5784 
   -5778    -5648    -5441    -5246    -5115    -5051    -5030    -5043 
   -5094    -5165    -5232    -5304    -5401    -5502    -5556    -5557 
   -5555    -5568    -5590    -5640    -5718    -5759    -5726    -5643 
   -5529    -5395    -5252    -5117    -5032    -5012    -5032    -5067 
   -5101    -5135    -5184    -5267    -5394    -5544    -5692    -5849 
   -6000    -6085    -6066    -5954    -5788    -5598    -5382    -5135 
   -4865    -4583    -4315    -4099    -3939    -3832    -3778    -3784 
   -3854    -3966    -4074    -4158    -4199    -4187    -4132    -4059 
   -3996    -3964    -3985    -4068    -4197    -4353    -4549    -4785 
   -5024    -5216    -5343    -5412    -5435    -5408    -5352    -5306 
   -5273    -5229    -5173    -5109    -5051    -5016    -5019    -5080 
   -5223    -5418    -5624    -5845    -6093    -6327    -6486    -6543 
   -6507    -6392    -6203    -5961    -5724    -5525    -5367    -5256 
   -5217    -5252    -5323    -5389    -5427    -5417    -5337    -5186 
   -4999    -4810    -4625    -4457    -4345    -4314    -4357    -4438 
   -4526    -4629    -4764    -4920    -5084    -5250    -5417    -5576 
   -5713    -5807    -5845    -5832    -5772    -5665    -5536    -5414 
   -5296    -5154    -4986    -4834    -4731    -4669    -4633    -4641 
   -4693    -4757    -4816    -4866    -4895    -4872    -4799    -4703 
   -4612    -4519    -4417    -4325    -4283    -4322    -4442    -4615 
   -4791    -4909    -4949    -4951    -4974    -5047    -5163    -5279 
   -5347    -5360    -5347    -5331    -5317    -5283    -5205    -5094 
   -4985    -4897    -4824    -4779    -4774    -4797    -4824    -4845 
   -4861    -4887    -4926    -4997    -5111    -5250    -5373    -5440 
   -5437    -5395    -5359    -5347    -5363    -5387    -5391    -5360 
   -5290    -5188    -5069    -4950    -4865    -4841    -4866    -4911 
   -4980    -5098    -5250    -5404    -5548    -5668    -5744    -5773 
   -5752    -5671    -5552    -5424    -5293    -5167    -5046    -4923 
   -4814    -4743    -4703    -4653    -4580    -4523    -4496    -4469 
   -4455    -4504    -4617    -4764    -4946    -5136    -5292    -5393 
   -5441    -5445    -5410    -5341    -5246    -5143    -5058    -4996 
   -4927    -4826    -4718    -4638    -4583    -4546    -4519    -4486 
   -4465    -4498    -4595    -4730    -4874    -5012    -5119    -5179 
   -5202    -5189    -5147    -5098    -5050    -4993    -4966    -4993 
   -5047    -5098    -5142    -5178    -5212    -5229    -5236    -5266 
   -5309    -5339    -5373    -5437    -5520    -5606    -5703    -5813 
