Origin Time       2025/01/13 21:19:00
Lat.              31.8
Long.             131.6
Depth. (km)       30
Mag.              6.9
Station Code      HRS012
Station Lat.      34.4274
Station Long.     132.7422
Station Height(m) 214
Record Time       2025/01/13 21:20:52
Sampling Freq(Hz) 100Hz
Duration Time(s)  74
Dir.              N-S
Scale Factor      7845(gal)/8223790
Max. Acc. (gal)   2.673
Last Correction   2025/01/13 21:20:51
Memo.             
[...]
   11865    11830    11786    11716    11589    11443    11368    11385 
   11443    11488    11479    11452    11475    11526    11560    11611 
   11684    11750    11835    11928    11990    12031    12044    11982 
   11870    11794    11793    11834    11862    11869    11902    11993 
   12078    12096    12078    12104    12175    12221    12249    12297 
   12314    12253    12116    11921    11730    11610    11545    11470 
   11415    11475    11614    11686    11649    11584    11565    11572 
   11547    11506    11519    11593    11672    11728    11790    11874 
   11938    11944    11925    11912    11896    11831    11712    11593 
   11529    11485    11389    11288    11315    11469    11669    11884 
   12094    12293    12455    12495    12406    12291    12204    12097 
   11955    11831    11785    11804    11820    11804    11772    11753 
   11759    11796    11923    12136    12286    12349    12433    12523 
   12538    12433    12229    11990    11796    11685    11611    11533 
   11479    11458    11458    11510    11626    11785    11967    12141 
   12289    12405    12484    12529    12513    12418    12291    12163 
   12069    12016    11942    11853    11857    11943    11978    11969 
   12025    12131    12162    12110    12071    12012    11820    11592 
   11475    11384    11225    11099    11117    11237    11352    11445 
   11546    11641    11719    11815    11969    12171    12326    12424 
   12537    12613    12555    12417    12299    12212    12106    11990 
   11917    11904    11928    11967    11998    12017    12025    11994 
   11900    11772    11669    11622    11589    11526    11469    11476 
   11507    11533    11599    11731    11867    11955    12023    12101 
   12170    12199    12159    12056    11965    11963    12047    12131 
   12162    12156    12143    12151    12182    12158    12058    11943 
   11805    11654    11576    11576    11568    11514    11433    11364 
   11318    11291    11298    11342    11414    11516    11651    11838 
   12094    12326    12442    12482    12521    12532    12451    12322 
   12228    12159    12067    11932    11785    11662    11546    11430 
   11362    11367    11433    11546    11674    11746    11743    11724 
   11704    11672    11657    11668    11723    11835    11924    11947 
   11935    11921    11907    11835    11711    11681    11803    11940 
   12031    12121    12178    12171    12140    12055    11905    11753 
   11615    11495    11443    11431    11367    11238    11107    11021 
   10975    10994    11153    11468    11819    12118    12403    12650 
   12773    12788    12756    12672    12571    12490    12444    12424 
   12387    12324    12270    12195    12050    11844    11669    11616 
   11658    11705    11751    11792    11784    11765    11767    11757 
   11777    11902    12078    12199    12240    12220    12182    12158 
   12137    12112    12133    12239    12318    12274    12154    12035 
   11919    11797    11691    11647    11700    11820    11917    11948 
   11994    12094    12141    12082    11990    11886    11803    11809 
   11832    11800    11743    11670    11592    11561    11568    11628 
   11788    12008    12210    12390    12529    12575    12474    12201 
   11848    11530    11264    11113    11151    11310    11480    11577 
   11620    11697    11780    11804    11853    12015    12272    12506 
   12565    12463    12274    11975    11655    11457    11360    11361 
   11522    11746    11867    11908    11978    12055    12042    11927 
   11772    11691    11747    11821    11788    11715    11728    11790 
   11723    11518    11377    11410    11562    11739    11854    11931 
   11983    11915    11753    11630    11520    11357    11206    11161 
   11196    11273    11477    11792    12042    12178    12287    12372 
   12361    12274    12175    12062    11915    11759    11611    11452 
   11304    11250    11381    11662    11935    12133    12347    12584 
   12727    12696    12515    12221    11867    11511    11203    11020 
   11020    11160    11361    11588    11847    12086    12133    11950 
   11777    11763    11780    11724    11673    11708    11821    11967 
   12086    12128    12128    12213    12445    12745    12928    12880 
   12648    12325    11923    11470    11086    10863    10835    11040 
   11427    11882    12290    12486    12402    12233    12202    12299 
   12384    12401    12324    12197    12140    12112    11971    11758 
   11643    11720    11913    12081    12218    12405    12555    12472 
   12177    11873    11612    11323    11060    10971    11097    11340 
   11550    11632    11666    11799    11919    11863    11794    11915 
   12159    12286    12141    11847    11607    11407    11227    11200 
   11430    11848    12312    12712    12982    13015    12847    12669 
   12511    12283    12021    11808    11657    11489    11214    10910 
   10805    10966    11188    11295    11392    11645    11993    12293 
   12505    12664    12785    12802    12617    12280    11975    11778 
   11676    11641    11573    11425    11327    11433    11680    11866 
   11946    12033    12168    12293    12318    12190    11929    11581 
   11236    11017    10930    10937    11129    11496    11811    11951 
   12021    12139    12301    12401    12368    12255    12158    12121 
   12096    12042    12021    12055    12046    11902    11650    11453 
   11419    11461    11469    11450    11479    11545    11587    11666 
   11853    12021    12006    11840    11765    11951    12251    12375 
   12239    12077    12147    12286    12177    11938    11871    11965 
   12004    11873    11688    11643    11731    11808    11817    11753 
   11674    11738    11913    11981    11898    11819    11875    12086 
   12290    12275    12096    12024    12035    11848    11523    11394 
   11488    11578    11630    11800    12105    12388    12606    12858 
   13092    13101    12900    12667    12432    12131    11800    11515 
   11381    11421    11515    11618    11761    11894    11977    12008 
   11970    11916    11902    11861    11763    11697    11691    11681 
   11726    11952    12297    12582    12699    12600    12360    12156 
   12060    11974    11834    11703    11634    11580    11500    11437 
   11425    11422    11340    11213    11295    11670    11993    11994 
   11823    11712    11736    11842    11938    11992    12043    12137 
   12289    12467    12587    12544    12352    12168    12046    11892 
   11631    11244    10864    10746    10895    11034    11056    11124 
   11310    11550    11826    12090    12293    12510    12757    12888 
   12807    12591    12390    12225    11967    11583    11264    11155 
   11148    11109    11051    11038    11137    11326    11481    11560 
   11618    11700    11857    12077    12191    12101    11994    12063 
   12182    12141    11956    11777    11685    11664    11692    11769 
   11850    11842    11745    11696    11788    11944    12020    12013 
   12054    12198    12366    12449    12440    12361    12182    11882 
   11518    11188    11020    11016    11080    11180    11306    11507 
   11889    12348    12636    12664    12511    12320    12174    12012 
   11799    11581    11368    11183    11136    11268    11450    11549 
   11596    11697    11846    11927    11950    12050    12177    12205 
   12212    12225    12147    12023    11982    11982    11894    11799 
   11844    11919    11882    11842    11908    12005    12039    12035 
   12048    12082    12075    11970    11786    11615    11543    11618 
   11804    12025    12239    12388    12406    12341    12310    12349 
   12364    12212    11894    11558    11326    11179    10962    10678 
   10621    10932    11406    11844    12259    12653    12903    12949 
   12853    12708    12618    12549    12364    12144    12020    11857 
   11533    11153    10840    10666    10681    10933    11450    12046 
   12448    12594    12537    12383    12236    12108    11967    11797 
   11620    11507    11468    11446    11384    11290    11264    11338 
   11470    11623    11722    11784    11916    12094    12249    12301 
   12194    12062    12025    12010    11900    11761    11745    11800 
   11774    11740    11788    11797    11738    11800    12063    12310 
   12322    12140    11885    11587    11254    10953    10794    10806 
   10932    11176    11541    11916    12209    12436    12614    12690 
   12606    12397    12144    11932    11867    11921    11896    11715 
   11511    11464    11650    11997    12360    12619    12665    12468 
   12097    11735    11583    11581    11473    11218    11068    11173 
   11341    11406    11539    11805    12009    12128    12280    12548 
   12919    13155    13057    12765    12472    12151    11743    11291 
   10871    10597    10605    10833    11017    11032    11071    11325 
   11682    11963    12174    12356    12467    12468    12405    12309 
   12160    12032    12015    12059    12086    12071    12070    12182 
   12344    12405    12325    12143    11940    11792    11707    11684 
   11708    11718    11691    11681    11659    11588    11608    11774 
   11948    12098    12262    12449    12710    12922    12857    12592 
   12345    12141    11909    11572    11138    10758    10592    10721 
   11041    11326    11551    11817    12048    12186    12253    12094 
   11700    11431    11400    11321    11134    11088    11236    11392 
   11502    11685    12006    12428    12816    12974    12810    12405 
   11911    11497    11198    10890    10604    10557    10754    11005 
   11277    11622    11923    12075    12168    12321    12472    12528 
   12592    12712    12684    12468    12294    12216    12109    12064 
   12272    12687    13074    13262    13290    13271    13088    12606 
   12052    11649    11314    10983    10762    10760    10953    11187 
   11435    11786    12143    12353    12445    12451    12322    12145 
   12106    12297    12691    13117    13311    13149    12704    12209 
   11985    12013    11902    11529    11179    11026    11029    11180 
   11361    11452    11592    11815    11855    11632    11319    11064 
   10881    10736    10702    10845    11003    11041    11083    11318 
   11788    12394    12987    13474    13825    13965    13790    13282 
   12544    11703    10905    10281     9896     9755     9828    10037 
   10336    10735    11090    11276    11430    11601    11709    11869 
   12109    12241    12285    12403    12463    12210    11821    11677 
   11801    12037    12386    12754    12915    12783    12442    12006 
   11518    11025    10706    10747    11022    11232    11395    11740 
   12152    12352    12333    12218    12116    12054    11961    11867 
   11897    12062    12274    12406    12305    11946    11495    11119 
   10916    10966    11242    11703    12297    12748    12826    12680 
   12457    12102    11655    11183    10736    10542    10795    11329 
   11851    12339    12833    13144    13143    13005    12935    12961 
   13012    13031    12955    12668    12133    11508    10930    10338 
    9749     9566    10044    10802    11448    12141    12985    13590 
   13639    13269    12781    12414    12285    12307    12390    12563 
   12712    12590    12239    11951    11871    11946    12028    12027 
   12025    12104    12172    12217    12305    12303    12090    11799 
   11495    11221    11173    11308    11422    11479    11421    11253 
   11110    10991    11034    11589    12557    13394    13819    13995 
   14088    14010    13545    12684    11773    11163    10860    10700 
   10611    10677    10920    11148    11268    11396    11566    11676 
   11707    11801    12019    12206    12183    11913    11607    11495 
   11473    11334    11159    11163    11423    11844    12239    12507 
   12722    12889    12883    12683    12401    12093    11782    11476 
   11229    11178    11298    11383    11391    11342    11265    11354 
   11592    11732    11809    11927    12019    12010    11896    11847 
   11923    11936    11916    11988    12093    12174    12155    12015 
   11898    11870    11838    11722    11499    11276    11209    11263 
   11256    11151    11083    11053    10916    10758    10909    11375 
   11720    11763    11809    11982    12094    12105    12042    11871 
   11715    11732    11859    11874    11689    11506    11573    11892 
   12197    12262    12178    12172    12232    12171    12017    11969 
   12033    12106    12144    12136    12177    12303    12316    12054 
   11630    11298    11254    11416    11541    11661    12060    12681 
   13123    13259    13271    13319    13468    13535    13220    12667 
   12274    12085    11904    11692    11574    11680    11900    12035 
   12216    12625    13089    13439    13684    13829    13878    13798 
   13568    13320    13113    12789    12334    11983    11848    11871 
   11978    12066    12101    12148    12198    12220    12272    12411 
   12617    12803    12777    12513    12295    12224    12094    11916 
   11792    11674    11589    11581    11643    11861    12177    12351 
   12333    12199    11928    11541    11157    10859    10669    10650 
   10760    10809    10791    10841    10908    10913    10918    10930 
   10890    10760    10547    10326    10208    10183    10181    10282 
   10594    11098    11624    11955    12019    11900    11715    11529 
   11314    11030    10677    10208     9622     9165     9072     9190 
    9332     9609    10092    10670    11221    11641    11921    12071 
   12086    12046    11946    11793    11745    11792    11759    11638 
   11597    11750    11979    12104    12151    12263    12429    12505 
   12447    12316    12101    11800    11506    11286    11182    11194 
   11337    11740    12345    12808    13049    13339    13703    13836 
   13689    13572    13636    13686    13563    13392    13269    12980 
   12460    12070    12009    12025    11969    11969    12109    12305 
   12386    12294    12155    12064    11951    11747    11576    11574 
   11627    11569    11514    11646    11854    11889    11786    11758 
   11805    11774    11651    11507    11394    11342    11292    11209 
   11196    11311    11431    11429    11288    11148    11129    11076 
   10902    10878    11086    11283    11395    11395    11145    10785 
   10567    10449    10363    10395    10569    10810    10925    10856 
   10860    10991    10989    10829    10744    10860    11115    11365 
   11543    11716    11940    12133    12189    12106    11956    11866 
   11920    12036    12140    12286    12421    12403    12249    12100 
   12002    11840    11554    11367    11448    11580    11570    11585 
   11735    11835    11776    11738    11881    12091    12202    12247 
   12316    12397    12434    12375    12224    12096    12112    12289 
   12492    12564    12511    12429    12328    12204    12112    12105 
   12168    12275    12483    12718    12729    12528    12295    12004 
   11692    11515    11421    11376    11495    11730    12008    12384 
   12807    13162    13400    13470    13431    13390    13331    13270 
   13340    13533    13679    13747    13832    13833    13610    13296 
   12988    12580    12114    11780    11618    11526    11491    11551 
   11616    11600    11587    11651    11749    11851    12001    12155 
   12239    12266    12237    12125    11965    11865    11875    11909 
   11881    11784    11727    11869    12073    12067    11962    11935 
   11855    11693    11664    11823    12012    12097    12048    11927 
   11770    11580    11398    11211    10963    10662    10354    10149 
   10201    10450    10689    10948    11342    11788    12185    12575 
   12961    13236    13327    13313    13286    13170    12845    12351 
   11924    11646    11299    10870    10563    10373    10228    10138 
   10176    10512    11109    11647    11948    12123    12407    12829 
   13036    12884    12669    12509    12236    11846    11402    10994 
   10847    10980    11149    11306    11654    12133    12375    12262 
   11997    11731    11507    11294    11072    11011    11182    11356 
   11402    11427    11554    11840    12110    12106    12042    12337 
   12891    13235    13153    12839    12586    12318    11836    11350 
   11182    11256    11337    11346    11330    11348    11381    11402 
   11435    11578    11854    12121    12340    12582    12688    12568 
   12418    12339    12268    12220    12164    12027    11916    12033 
   12310    12467    12444    12388    12293    12062    11804    11684 
   11665    11565    11277    10974    10944    11163    11357    11439 
   11518    11638    11838    12166    12499    12631    12530    12333 
   12166    12021    11885    11842    11902    11963    12044    12209 
   12348    12344    12244    12089    11857    11615    11538    11585 
   11533    11416    11472    11673    11778    11661    11476    11456 
   11502    11402    11306    11511    11979    12401    12630    12788 
   12965    13155    13312    13297    13117    12954    12841    12696 
   12507    12280    12042    11840    11701    11631    11643    11757 
   11907    11962    11924    11896    11880    11850    11858    11940 
   12035    12091    12172    12320    12394    12258    12093    12160 
   12340    12432    12548    12764    12930    12989    13047    13093 
   13024    12922    12911    12912    12887    12885    12847    12731 
   12525    12212    11905    11682    11507    11395    11303    11153 
   11030    11048    11097    11033    10975    11079    11245    11292 
   11269    11367    11560    11670    11635    11520    11476    11533 
   11476    11250    11059    11006    10993    10859    10612    10446 
   10430    10440    10420    10409    10385    10326    10365    10588 
   10898    11234    11587    11900    12182    12495    12826    13130 
   13319    13236    12931    12712    12661    12573    12353    12000 
   11530    11142    10964    10821    10620    10517    10633    10917 
   11268    11654    12042    12360    12544    12640    12811    13063 
   13181    13000    12631    12391    12386    12330    12062    11800 
   11651    11499    11327    11234    11257    11345    11368    11283 
   11217    11196    11153    11124    11171    11380    11780    12241 
   12729    13234    13616    13814    13836    13640    13261    12795 
   12307    11809    11273    10719    10220     9790     9427     9221 
    9273     9595    10111    10665    11190    11755    12298    12611 
   12653    12530    12349    12183    11990    11786    11743    11894 
   12086    12276    12525    12758    12884    13008    13181    13261 
   13230    13095    12781    12329    11812    11256    10758    10401 
   10191    10129    10226    10424    10720    11178    11681    12015 
   12158    12279    12445    12505    12379    12267    12324    12382 
   12291    12183    12159    12140    12077    12024    12040    12096 
   12075    12006    12042    12137    12155    12100    11975    11781 
   11626    11618    11769    11966    12109    12303    12613    12926 
   13209    13490    13718    13798    13697    13481    13171    12737 
   12205    11658    11175    10791    10521    10411    10512    10833 
