Origin Time       2025/01/13 21:19:00
Lat.              31.8
Long.             131.6
Depth. (km)       30
Mag.              6.9
Station Code      HRS018
Station Lat.      34.3413
Station Long.     132.9069
Station Height(m) 3
Record Time       2025/01/13 21:20:37
Sampling Freq(Hz) 100Hz
Duration Time(s)  130
Dir.              U-D
Scale Factor      7845(gal)/8223790
Max. Acc. (gal)   2.411
Last Correction   2025/01/13 21:20:36
Memo.             
[...]
   -6768    -6768    -6794    -6874    -7051    -7288    -7404    -7330 
   -7254    -7312    -7420    -7492    -7518    -7499    -7477    -7523 
   -7623    -7704    -7765    -7850    -7915    -7892    -7831    -7812 
   -7834    -7842    -7776    -7584    -7327    -7150    -7096    -7086 
   -7064    -7055    -7107    -7236    -7376    -7438    -7414    -7372 
   -7384    -7476    -7632    -7793    -7906    -7994    -8100    -8224 
   -8326    -8340    -8262    -8170    -8083    -7955    -7789    -7650 
   -7570    -7533    -7518    -7480    -7410    -7391    -7472    -7576 
   -7607    -7572    -7523    -7477    -7429    -7384    -7344    -7287 
   -7223    -7173    -7128    -7092    -7092    -7121    -7128    -7110 
   -7099    -7115    -7169    -7223    -7229    -7238    -7314    -7416 
   -7481    -7508    -7511    -7483    -7426    -7381    -7416    -7531 
   -7642    -7688    -7692    -7704    -7728    -7766    -7816    -7830 
   -7784    -7740    -7743    -7767    -7788    -7808    -7832    -7867 
   -7919    -7989    -8054    -8095    -8116    -8122    -8110    -8089 
   -8086    -8082    -8032    -7970    -7958    -7967    -7900    -7730 
   -7572    -7530    -7565    -7612    -7646    -7632    -7591    -7546 
   -7454    -7323    -7241    -7226    -7227    -7241    -7295    -7360 
   -7407    -7452    -7491    -7499    -7476    -7464    -7477    -7447 
   -7344    -7261    -7269    -7342    -7430    -7479    -7447    -7354 
   -7244    -7172    -7175    -7200    -7149    -7021    -6947    -7013 
   -7145    -7237    -7298    -7371    -7420    -7427    -7439    -7473 
   -7479    -7446    -7427    -7420    -7373    -7321    -7341    -7429 
   -7534    -7630    -7704    -7742    -7759    -7803    -7890    -7975 
   -8004    -7997    -8012    -8047    -8048    -7994    -7909    -7805 
   -7654    -7456    -7273    -7186    -7172    -7148    -7128    -7192 
   -7312    -7388    -7425    -7492    -7618    -7821    -8101    -8341 
   -8432    -8401    -8321    -8182    -7959    -7699    -7484    -7372 
   -7348    -7331    -7280    -7236    -7234    -7254    -7283    -7326 
   -7369    -7388    -7408    -7461    -7519    -7582    -7681    -7788 
   -7858    -7902    -7898    -7811    -7703    -7645    -7627    -7618 
   -7619    -7630    -7593    -7476    -7337    -7236    -7214    -7299 
   -7447    -7569    -7607    -7570    -7535    -7557    -7618    -7685 
   -7754    -7803    -7811    -7813    -7862    -7944    -8029    -8113 
   -8151    -8089    -7951    -7832    -7825    -7884    -7881    -7824 
   -7796    -7781    -7754    -7711    -7632    -7535    -7473    -7447 
   -7441    -7443    -7446    -7437    -7422    -7423    -7479    -7592 
   -7717    -7800    -7838    -7882    -7939    -7947    -7911    -7897 
   -7908    -7892    -7838    -7762    -7674    -7573    -7456    -7333 
   -7230    -7138    -7044    -6959    -6891    -6835    -6793    -6767 
   -6729    -6674    -6663    -6739    -6863    -6976    -7052    -7092 
   -7121    -7164    -7252    -7389    -7518    -7576    -7588    -7607 
   -7638    -7669    -7705    -7751    -7782    -7796    -7809    -7805 
   -7736    -7608    -7465    -7321    -7183    -7101    -7086    -7102 
   -7138    -7218    -7349    -7495    -7608    -7681    -7763    -7882 
   -7990    -8035    -8023    -7987    -7931    -7851    -7784    -7792 
   -7871    -7923    -7878    -7767    -7662    -7591    -7503    -7371 
   -7225    -7094    -6979    -6898    -6894    -6967    -7067    -7171 
   -7308    -7489    -7668    -7812    -7912    -7947    -7915    -7839 
   -7769    -7766    -7840    -7936    -8006    -8077    -8181    -8283 
   -8343    -8386    -8434    -8451    -8397    -8299    -8182    -8063 
   -7992    -7989    -7985    -7921    -7836    -7780    -7712    -7578 
   -7458    -7449    -7481    -7461    -7431    -7457    -7531    -7650 
   -7785    -7867    -7878    -7843    -7774    -7693    -7607    -7480 
   -7325    -7206    -7134    -7079    -7018    -6939    -6840    -6775 
   -6771    -6767    -6702    -6601    -6544    -6561    -6620    -6701 
   -6810    -6947    -7101    -7219    -7265    -7280    -7295    -7279 
   -7256    -7275    -7312    -7344    -7391    -7480    -7616    -7792 
   -7971    -8127    -8248    -8297    -8239    -8131    -8046    -7966 
   -7878    -7798    -7708    -7601    -7507    -7396    -7250    -7145 
   -7117    -7113    -7103    -7126    -7207    -7314    -7375    -7375 
   -7349    -7299    -7210    -7128    -7119    -7186    -7260    -7288 
   -7288    -7299    -7295    -7219    -7079    -6937    -6824    -6729 
   -6642    -6569    -6546    -6578    -6652    -6763    -6852    -6863 
   -6836    -6853    -6907    -6945    -6955    -6949    -6963    -7029 
   -7123    -7191    -7240    -7299    -7361    -7407    -7429    -7393 
   -7311    -7258    -7272    -7329    -7377    -7346    -7210    -7072 
   -7048    -7125    -7195    -7207    -7200    -7223    -7272    -7326 
   -7379    -7422    -7470    -7551    -7651    -7753    -7866    -7977 
   -8040    -8028    -7950    -7863    -7840    -7892    -7947    -7960 
   -7974    -8020    -8058    -8021    -7927    -7842    -7785    -7726 
   -7661    -7589    -7497    -7430    -7460    -7561    -7605    -7564 
   -7527    -7519    -7510    -7516    -7537    -7535    -7534    -7581 
   -7705    -7900    -8094    -8193    -8187    -8164    -8191    -8232 
   -8191    -8063    -7952    -7885    -7782    -7628    -7466    -7292 
   -7138    -7076    -7110    -7171    -7227    -7296    -7365    -7393 
   -7395    -7403    -7418    -7429    -7437    -7476    -7569    -7707 
   -7854    -7960    -8039    -8176    -8386    -8569    -8677    -8741 
   -8781    -8814    -8833    -8810    -8738    -8658    -8602    -8552 
   -8502    -8478    -8453    -8375    -8280    -8245    -8253    -8251 
   -8213    -8145    -8106    -8110    -8091    -8050    -8050    -8071 
   -8047    -7997    -7959    -7921    -7905    -7909    -7884    -7839 
   -7824    -7817    -7803    -7797    -7819    -7869    -7919    -7942 
   -7969    -8040    -8124    -8154    -8128    -8105    -8110    -8109 
   -8068    -8031    -8028    -8004    -7940    -7906    -7921    -7939 
   -7951    -7954    -7920    -7842    -7742    -7649    -7580    -7520 
   -7437    -7349    -7299    -7273    -7226    -7186    -7218    -7291 
   -7344    -7415    -7491    -7511    -7489    -7434    -7323    -7200 
   -7109    -7053    -7026    -7017    -6999    -6952    -6886    -6839 
   -6817    -6824    -6851    -6894    -6951    -6990    -6991    -7009 
   -7091    -7196    -7261    -7299    -7350    -7415    -7499    -7597 
   -7658    -7659    -7650    -7661    -7701    -7763    -7800    -7770 
   -7703    -7668    -7697    -7769    -7861    -7954    -7997    -7979 
   -7952    -7919    -7828    -7708    -7615    -7524    -7406    -7276 
   -7171    -7113    -7091    -7071    -7060    -7071    -7082    -7061 
   -6999    -6906    -6820    -6782    -6785    -6759    -6678    -6592 
   -6570    -6629    -6704    -6740    -6751    -6745    -6727    -6706 
   -6669    -6617    -6620    -6687    -6724    -6694    -6655    -6628 
   -6643    -6736    -6847    -6879    -6878    -6933    -7056    -7200 
   -7277    -7246    -7165    -7098    -7079    -7109    -7133    -7110 
   -7060    -7047    -7094    -7152    -7159    -7129    -7145    -7209 
   -7257    -7288    -7330    -7371    -7392    -7402    -7408    -7431 
   -7473    -7501    -7483    -7422    -7372    -7371    -7380    -7383 
   -7431    -7542    -7673    -7786    -7869    -7893    -7865    -7839 
   -7843    -7857    -7859    -7830    -7776    -7762    -7794    -7798 
   -7753    -7681    -7597    -7527    -7477    -7430    -7404    -7433 
   -7506    -7580    -7626    -7654    -7680    -7708    -7742    -7750 
   -7684    -7577    -7533    -7570    -7630    -7657    -7653    -7643 
   -7653    -7700    -7781    -7842    -7863    -7897    -7962    -8036 
   -8114    -8221    -8347    -8444    -8502    -8521    -8509    -8519 
   -8571    -8602    -8587    -8550    -8514    -8486    -8444    -8365 
   -8260    -8164    -8106    -8056    -7975    -7900    -7877    -7896 
   -7920    -7942    -7974    -8021    -8102    -8199    -8260    -8291 
   -8333    -8380    -8409    -8397    -8316    -8187    -8082    -8028 
   -7985    -7908    -7830    -7809    -7816    -7773    -7653    -7500 
   -7360    -7245    -7160    -7109    -7074    -7067    -7141    -7285 
   -7415    -7487    -7512    -7500    -7433    -7317    -7209    -7172 
   -7199    -7236    -7265    -7279    -7290    -7342    -7443    -7557 
   -7632    -7627    -7580    -7592    -7674    -7749    -7762    -7717 
   -7662    -7641    -7639    -7604    -7506    -7368    -7245    -7155 
   -7082    -7024    -6983    -6933    -6841    -6694    -6540    -6448 
   -6415    -6392    -6349    -6293    -6230    -6161    -6133    -6169 
   -6224    -6273    -6336    -6413    -6486    -6558    -6654    -6778 
   -6885    -6968    -7092    -7283    -7496    -7686    -7830    -7929 
   -7994    -8027    -8017    -7983    -7962    -7969    -7990    -8013 
   -8028    -8031    -8024    -8021    -8032    -8054    -8090    -8141 
   -8195    -8240    -8282    -8345    -8448    -8577    -8706    -8810 
   -8872    -8881    -8846    -8764    -8635    -8490    -8357    -8240 
   -8137    -8059    -7990    -7925    -7892    -7867    -7807    -7728 
   -7705    -7727    -7727    -7705    -7711    -7755    -7820    -7881 
   -7921    -7932    -7906    -7843    -7739    -7607    -7470    -7365 
   -7291    -7210    -7113    -7024    -6986    -7013    -7044    -7015 
   -6926    -6817    -6733    -6669    -6588    -6500    -6459    -6494 
   -6586    -6712    -6859    -6999    -7105    -7157    -7182    -7231 
   -7318    -7402    -7462    -7526    -7605    -7672    -7700    -7709 
   -7730    -7746    -7730    -7704    -7728    -7801    -7830    -7766 
   -7700    -7684    -7670    -7623    -7551    -7485    -7460    -7460 
   -7446    -7430    -7460    -7542    -7630    -7684    -7709    -7735 
   -7777    -7801    -7776    -7746    -7750    -7749    -7731    -7749 
   -7832    -7958    -8073    -8158    -8224    -8289    -8364    -8422 
   -8418    -8363    -8278    -8145    -7975    -7835    -7754    -7666 
   -7534    -7393    -7254    -7074    -6843    -6608    -6411    -6254 
   -6138    -6075    -6049    -6021    -5981    -5957    -5948    -5957 
   -5996    -6049    -6112    -6220    -6382    -6582    -6804    -7015 
   -7173    -7279    -7366    -7441    -7484    -7495    -7491    -7487 
   -7504    -7562    -7632    -7663    -7674    -7715    -7781    -7848 
   -7927    -7993    -8014    -8014    -8037    -8085    -8145    -8212 
   -8289    -8372    -8438    -8468    -8464    -8444    -8418    -8368 
   -8253    -8073    -7865    -7659    -7466    -7307    -7198    -7113 
   -7018    -6921    -6848    -6806    -6805    -6870    -7002    -7169 
   -7331    -7487    -7642    -7789    -7923    -8041    -8152    -8267 
   -8378    -8457    -8514    -8561    -8561    -8496    -8413    -8332 
   -8229    -8083    -7927    -7804    -7708    -7615    -7542    -7538 
   -7589    -7634    -7650    -7666    -7705    -7773    -7866    -7969 
   -8077    -8198    -8332    -8471    -8608    -8742    -8877    -9031 
   -9189    -9296    -9337    -9337    -9273    -9119    -8919    -8743 
   -8591    -8402    -8156    -7904    -7688    -7487    -7257    -7030 
   -6851    -6706    -6583    -6477    -6386    -6315    -6272    -6274 
   -6346    -6482    -6640    -6767    -6866    -6970    -7092    -7204 
   -7290    -7346    -7360    -7315    -7254    -7240    -7253    -7263 
   -7264    -7238    -7187    -7157    -7153    -7152    -7182    -7257 
   -7326    -7353    -7389    -7479    -7576    -7639    -7703    -7804 
   -7917    -8006    -8064    -8098    -8132    -8178    -8206    -8193 
   -8143    -8081    -8014    -7932    -7811    -7627    -7396    -7172 
   -6976    -6774    -6538    -6323    -6197    -6168    -6189    -6210 
   -6214    -6239    -6327    -6490    -6690    -6860    -7005    -7177 
   -7388    -7587    -7728    -7840    -7979    -8144    -8297    -8429 
   -8527    -8587    -8608    -8591    -8529    -8399    -8214    -8029 
   -7863    -7682    -7462    -7250    -7117    -7042    -6964    -6891 
   -6841    -6804    -6814    -6899    -7007    -7079    -7113    -7142 
   -7186    -7230    -7275    -7345    -7449    -7562    -7669    -7762 
   -7825    -7851    -7830    -7753    -7650    -7558    -7481    -7398 
   -7268    -7103    -6951    -6836    -6755    -6682    -6606    -6565 
   -6581    -6651    -6744    -6839    -6922    -6987    -7048    -7117 
   -7157    -7164    -7192    -7252    -7290    -7296    -7288    -7279 
   -7271    -7248    -7214    -7198    -7209    -7227    -7234    -7223 
   -7200    -7169    -7133    -7113    -7125    -7169    -7252    -7356 
   -7458    -7572    -7709    -7852    -7989    -8114    -8226    -8329 
   -8413    -8478    -8544    -8583    -8542    -8444    -8349    -8260 
   -8152    -8031    -7900    -7757    -7614    -7466    -7307    -7142 
   -7002    -6918    -6922    -7017    -7150    -7268    -7365    -7470 
   -7596    -7699    -7750    -7777    -7796    -7790    -7744    -7665 
   -7582    -7512    -7447    -7383    -7294    -7156    -6972    -6778 
   -6582    -6393    -6231    -6112    -6023    -5969    -5976    -6042 
   -6138    -6247    -6382    -6544    -6717    -6898    -7106    -7346 
   -7596    -7861    -8151    -8444    -8722    -9012    -9306    -9558 
   -9738    -9850    -9934   -10018   -10077   -10068    -9985    -9867 
   -9717    -9509    -9231    -8928    -8657    -8429    -8224    -8063 
   -7977    -7931    -7881    -7831    -7824    -7857    -7877    -7873 
   -7869    -7859    -7839    -7844    -7892    -7946    -7986    -8019 
   -8027    -8001    -7960    -7898    -7781    -7608    -7411    -7215 
   -7037    -6855    -6637    -6417    -6239    -6083    -5933    -5821 
   -5753    -5699    -5645    -5609    -5599    -5616    -5648    -5707 
   -5802    -5926    -6079    -6245    -6416    -6592    -6760    -6910 
   -7063    -7252    -7462    -7657    -7827    -7986    -8133    -8276 
   -8430    -8588    -8730    -8834    -8908    -8980    -9049    -9089 
   -9108    -9128    -9162    -9175    -9138    -9047    -8901    -8703 
   -8484    -8253    -8027    -7825    -7645    -7473    -7312    -7176 
   -7078    -6994    -6890    -6755    -6613    -6498    -6424    -6381 
   -6345    -6330    -6367    -6436    -6517    -6637    -6804    -6974 
   -7119    -7244    -7352    -7441    -7514    -7580    -7635    -7662 
   -7661    -7650    -7628    -7578    -7496    -7403    -7302    -7176 
   -7041    -6925    -6814    -6685    -6555    -6465    -6426    -6420 
   -6444    -6485    -6523    -6592    -6721    -6868    -7001    -7142 
   -7307    -7485    -7642    -7767    -7889    -8004    -8104    -8206 
   -8307    -8414    -8580    -8800    -8985    -9101    -9189    -9259 
   -9277    -9227    -9123    -8970    -8776    -8576    -8387    -8206 
   -8037    -7904    -7816    -7770    -7744    -7728    -7738    -7780 
   -7815    -7812    -7781    -7750    -7736    -7722    -7680    -7616 
   -7547    -7485    -7442    -7404    -7344    -7264    -7180    -7096 
   -7009    -6909    -6797    -6693    -6621    -6583    -6575    -6579 
   -6596    -6633    -6679    -6709    -6717    -6725    -6768    -6848 
   -6941    -7044    -7180    -7341    -7485    -7609    -7722    -7811 
   -7890    -7983    -8085    -8185    -8284    -8380    -8464    -8510 
   -8511    -8494    -8482    -8461    -8417    -8348    -8257    -8143 
   -7992    -7827    -7692    -7608    -7564    -7546    -7554    -7574 
   -7584    -7587    -7605    -7645    -7711    -7808    -7917    -7990 
   -8014    -8006    -7986    -7969    -7948    -7923    -7884    -7831 
   -7788    -7769    -7747    -7720    -7716    -7740    -7771    -7788 
   -7771    -7734    -7708    -7722    -7766    -7813    -7857    -7931 
   -8035    -8140    -8243    -8334    -8413    -8483    -8538    -8565 
   -8576    -8577    -8550    -8491    -8392    -8251    -8100    -7960 
   -7813    -7653    -7484    -7292    -7094    -6936    -6824    -6732 
   -6667    -6642    -6647    -6674    -6693    -6687    -6678    -6673 
   -6642    -6590    -6552    -6505    -6413    -6292    -6184    -6119 
   -6077    -6007    -5914    -5834    -5791    -5795    -5840    -5902 
   -5971    -6049    -6135    -6230    -6338    -6467    -6609    -6760 
   -6937    -7152    -7377    -7592    -7803    -8000    -8156    -8286 
   -8425    -8584    -8752    -8908    -9032    -9120    -9167    -9159 
   -9119    -9081    -9047    -8989    -8884    -8739    -8575    -8399 
   -8230    -8075    -7931    -7797    -7677    -7577    -7499    -7423 
   -7353    -7295    -7260    -7260    -7264    -7237    -7202    -7164 
   -7111    -7061    -7020    -6966    -6890    -6824    -6814    -6849 
   -6878    -6893    -6903    -6916    -6944    -6997    -7064    -7140 
   -7244    -7366    -7449    -7504    -7577    -7649    -7699    -7749 
   -7804    -7842    -7836    -7794    -7771    -7793    -7828    -7858 
   -7875    -7866    -7838    -7831    -7865    -7900    -7884    -7846 
   -7846    -7923    -8039    -8139    -8237    -8380    -8557    -8729 
   -8869    -8989    -9109    -9220    -9315    -9386    -9414    -9393 
   -9342    -9279    -9192    -9057    -8883    -8691    -8505    -8313 
   -8074    -7801    -7541    -7302    -7069    -6844    -6644    -6478 
   -6330    -6197    -6085    -5988    -5914    -5861    -5807    -5768 
   -5776    -5817    -5864    -5930    -6045    -6211    -6385    -6536 
   -6681    -6829    -6967    -7083    -7171    -7242    -7315    -7372 
   -7402    -7422    -7437    -7439    -7466    -7537    -7589    -7603 
   -7612    -7641    -7736    -7888    -8006    -8059    -8085    -8117 
   -8174    -8226    -8251    -8257    -8245    -8226    -8225    -8235 
   -8247    -8256    -8243    -8197    -8163    -8155    -8139    -8110 
   -8086    -8066    -8048    -8021    -7979    -7933    -7869    -7774 
   -7657    -7520    -7403    -7317    -7233    -7145    -7061    -6991 
   -6949    -6934    -6937    -6956    -6999    -7047    -7092    -7175 
   -7283    -7377    -7462    -7560    -7670    -7761    -7827    -7898 
   -7960    -7979    -7955    -7931    -7938    -7936    -7894    -7827 
   -7755    -7690    -7628    -7550    -7479    -7445    -7441    -7460 
   -7506    -7549    -7555    -7564    -7614    -7646    -7631    -7607 
   -7569    -7546    -7554    -7546    -7527    -7526    -7542    -7570 
   -7605    -7636    -7672    -7716    -7763    -7788    -7777    -7744 
   -7707    -7666    -7615    -7566    -7547    -7569    -7604    -7599 
   -7560    -7528    -7499    -7470    -7466    -7472    -7480    -7508 
   -7542    -7554    -7543    -7527    -7512    -7483    -7441    -7395 
   -7325    -7218    -7109    -7040    -7011    -6984    -6936    -6876 
   -6821    -6774    -6721    -6662    -6608    -6563    -6529    -6509 
   -6505    -6512    -6527    -6569    -6671    -6813    -6945    -7080 
   -7227    -7361    -7479    -7595    -7716    -7839    -7962    -8077 
   -8172    -8253    -8333    -8407    -8449    -8414    -8322    -8259 
   -8229    -8181    -8104    -8021    -7955    -7908    -7850    -7771 
   -7693    -7630    -7601    -7596    -7582    -7578    -7603    -7642 
