Origin Time       2025/01/13 21:19:00
Lat.              31.8
Long.             131.6
Depth. (km)       30
Mag.              6.9
Station Code      HRS018
Station Lat.      34.3413
Station Long.     132.9069
Station Height(m) 3
Record Time       2025/01/13 21:20:37
Sampling Freq(Hz) 100Hz
Duration Time(s)  130
Dir.              N-S
Scale Factor      7845(gal)/8223790
Max. Acc. (gal)   14.607
Last Correction   2025/01/13 21:20:36
Memo.             
[...]
   -1042    -1239    -1317    -1263    -1151    -1051     -992    -1011 
   -1105    -1240    -1414    -1601    -1761    -1883    -1958    -1993 
   -2022    -2099    -2270    -2485    -2647    -2705    -2660    -2560 
   -2475    -2432    -2385    -2305    -2234    -2181    -2061    -1860 
   -1656    -1491    -1333    -1135     -893     -639     -353       29 
     477      845     1085     1281     1474     1663     1848     2027 
    2216     2416     2593     2724     2825     2907     2952     2938 
    2890     2876     2952     3086     3199     3256     3284     3350 
    3484     3626     3705     3692     3608     3508     3400     3256 
    3067     2814     2551     2358     2199     2038     1907     1779 
    1617     1429     1223     1017      811      552      234      -89 
    -384     -703    -1061    -1377    -1628    -1884    -2185    -2508 
   -2826    -3138    -3433    -3653    -3727    -3678    -3603    -3518 
   -3354    -3134    -2971    -2907    -2894    -2914    -2983    -3044 
   -3021    -2938    -2856    -2790    -2698    -2539    -2332    -2123 
   -1930    -1740    -1510    -1210     -842     -418       36      496 
     967     1472     1977     2417     2771     3048     3299     3585 
    3867     4025     4044     4036     4071     4149     4244     4321 
    4383     4465     4538     4554     4518     4468     4444     4411 
    4294     4113     3921     3674     3360     3025     2654     2242 
    1811     1343      855      391      -63     -525     -951    -1301 
   -1549    -1698    -1760    -1711    -1578    -1487    -1534    -1710 
   -1969    -2274    -2635    -3032    -3353    -3553    -3661    -3682 
   -3628    -3554    -3554    -3612    -3600    -3495    -3366    -3221 
   -3038    -2847    -2623    -2324    -2012    -1803    -1694    -1587 
   -1449    -1302    -1156     -993     -814     -653     -481     -256 
      27      349      708     1129     1567     1954     2312     2617 
    2836     3019     3196     3350     3449     3493     3569     3712 
    3859     3983     4105     4244     4384     4496     4598     4739 
    4892     4935     4850     4777     4741     4633     4452     4264 
    4059     3839     3628     3377     3057     2716     2365     1949 
    1468      992      565      193     -153     -483     -772    -1004 
   -1188    -1347    -1541    -1795    -2089    -2405    -2695    -2920 
   -3103    -3262    -3403    -3565    -3813    -4124    -4394    -4607 
   -4803    -4949    -5023    -5066    -5111    -5161    -5175    -5108 
   -4969    -4792    -4568    -4302    -4024    -3696    -3304    -2911 
   -2523    -2142    -1825    -1572    -1323    -1017     -657     -286 
      78      441      804     1177     1576     2007     2439     2847 
    3268     3740     4244     4766     5282     5742     6141     6463 
    6698     6862     6940     6941     6901     6806     6677     6550 
    6384     6162     5942     5748     5539     5258     4907     4560 
    4267     4016     3759     3442     3029     2554     2084     1645 
    1237      865      484       20     -552    -1166    -1732    -2235 
   -2718    -3164    -3545    -3886    -4189    -4430    -4623    -4791 
   -4943    -5080    -5163    -5159    -5093    -5011    -4949    -4949 
   -5019    -5128    -5254    -5371    -5467    -5589    -5722    -5795 
   -5776    -5655    -5412    -5044    -4617    -4220    -3874    -3515 
   -3117    -2724    -2376    -2057    -1760    -1466    -1127     -729 
    -313       94      498      928     1402     1896     2385     2825 
    3179     3464     3717     3963     4259     4641     5034     5346 
    5555     5702     5822     5913     5934     5879     5783     5684 
    5594     5503     5435     5416     5435     5462     5505     5579 
    5633     5624     5556     5416     5190     4892     4548     4191 
    3836     3487     3129     2735     2284     1752     1132      469 
    -198     -850    -1471    -2087    -2720    -3330    -3856    -4309 
   -4692    -4972    -5177    -5350    -5471    -5525    -5562    -5632 
   -5713    -5755    -5768    -5778    -5763    -5705    -5607    -5495 
   -5371    -5193    -4941    -4611    -4216    -3770    -3296    -2832 
   -2359    -1849    -1336     -864     -427       10      490      989 
    1460     1857     2150     2371     2555     2708     2857     3014 
    3144     3240     3331     3458     3638     3881     4145     4369 
    4509     4541     4503     4440     4355     4256     4171     4091 
    4005     3946     3913     3869     3767     3589     3350     3078 
    2820     2606     2409     2181     1903     1567     1188      807 
     449       83     -342     -845    -1397    -1953    -2496    -3019 
   -3515    -3971    -4349    -4611    -4760    -4823    -4819    -4731 
   -4556    -4333    -4117    -3928    -3754    -3588    -3420    -3203 
   -2894    -2523    -2142    -1795    -1507    -1269    -1067     -895 
    -729     -568     -415     -232       25      336      642      900 
    1093     1237     1383     1588     1849     2124     2392     2652 
    2895     3082     3199     3275     3326     3372     3434     3500 
    3574     3701     3894     4126     4365     4608     4834     5012 
    5146     5224     5205     5078     4868     4599     4256     3820 
    3329     2840     2396     2003     1634     1246      801      319 
    -182     -712    -1216    -1641    -2007    -2315    -2577    -2825 
   -3042    -3229    -3423    -3634    -3850    -4032    -4166    -4297 
   -4391    -4395    -4324    -4220    -4128    -4045    -3942    -3831 
   -3715    -3570    -3361    -3079    -2759    -2394    -1989    -1606 
   -1260     -950     -704     -503     -319     -172      -79      -16 
      76      218      365      525      708      869      982     1070 
    1154     1246     1339     1424     1514     1590     1620     1615 
    1626     1719     1934     2234     2548     2841     3107     3339 
    3538     3721     3890     4013     4112     4210     4290     4337 
    4333     4263     4152     4004     3777     3457     3098     2766 
    2492     2297     2178     2084     1973     1834     1679     1534 
    1377     1154      884      584      234     -174     -621    -1084 
   -1566    -2080    -2593    -3068    -3507    -3896    -4222    -4479 
   -4634    -4680    -4679    -4679    -4672    -4642    -4626    -4654 
   -4652    -4558    -4419    -4264    -4072    -3828    -3551    -3256 
   -2933    -2604    -2297    -1992    -1663    -1321     -973     -588 
    -153      301      729     1121     1525     1960     2393     2801 
    3161     3462     3701     3871     3963     3993     4013     4056 
    4121     4209     4321     4461     4639     4816     4950     5020 
    5007     4922     4772     4557     4305     4043     3794     3538 
    3235     2921     2617     2284     1890     1433      913      351 
    -198     -684    -1097    -1468    -1826    -2169    -2519    -2887 
   -3267    -3669    -4082    -4486    -4880    -5252    -5559    -5761 
   -5876    -5917    -5875    -5752    -5557    -5324    -5084    -4823 
   -4553    -4295    -4043    -3792    -3538    -3252    -2926    -2579 
   -2205    -1804    -1410    -1051     -742     -464     -183      112 
     413      724     1081     1487     1881     2251     2635     3048 
    3511     4028     4561     5086     5590     6062     6509     6916 
    7263     7518     7657     7708     7722     7712     7658     7542 
    7376     7156     6858     6474     6016     5524     5011     4457 
    3906     3388     2851     2263     1632      999      454       35 
    -290     -565     -837    -1117    -1390    -1611    -1764    -1894 
   -2023    -2153    -2305    -2467    -2624    -2797    -2986    -3150 
   -3256    -3315    -3375    -3433    -3489    -3596    -3755    -3939 
   -4155    -4406    -4673    -4941    -5190    -5404    -5540    -5605 
   -5630    -5609    -5549    -5459    -5332    -5161    -4896    -4540 
   -4151    -3744    -3339    -2941    -2515    -2069    -1629    -1170 
    -661      -98      473     1040     1642     2270     2901     3514 
    4066     4576     5104     5625     6084     6462     6755     6967 
    7109     7179     7168     7049     6832     6567     6291     6026 
    5786     5547     5296     5071     4919     4851     4830     4783 
    4653     4457     4224     3947     3673     3423     3164     2941 
    2797     2656     2459     2187     1827     1402      899      318 
    -284     -888    -1494    -2083    -2616    -3079    -3499    -3919 
   -4334    -4742    -5143    -5528    -5894    -6257    -6613    -6934 
   -7218    -7480    -7707    -7878    -7992    -8046    -8063    -8063 
   -8023    -7935    -7796    -7589    -7311    -6947    -6496    -6002 
   -5486    -4950    -4391    -3816    -3235    -2662    -2103    -1560 
   -1012     -433      182      826     1490     2158     2824     3472 
    4078     4638     5175     5707     6277     6891     7477     8002 
    8480     8908     9258     9505     9666     9767     9845     9938 
   10023    10066    10061     9983     9834     9616     9290     8892 
    8433     7881     7281     6671     6048     5437     4818     4135 
    3383     2562     1669      730     -209    -1154    -2131    -3113 
   -4062    -4970    -5838    -6663    -7431    -8127    -8721    -9212 
   -9628    -9964   -10214   -10407   -10570   -10689   -10735   -10710 
  -10629   -10501   -10346   -10141    -9840    -9462    -9031    -8549 
   -8004    -7375    -6696    -5973    -5177    -4329    -3442    -2525 
   -1629     -739      136      950     1726     2443     3084     3707 
    4309     4908     5552     6226     6907     7550     8122     8662 
    9169     9648    10125    10554    10921    11211    11400    11530 
   11634    11682    11638    11485    11242    10897    10432     9876 
    9223     8496     7731     6901     6022     5142     4245     3362 
    2520     1680      847       13     -835    -1652    -2436    -3233 
   -4044    -4855    -5634    -6345    -6970    -7523    -8033    -8515 
   -8980    -9408    -9747    -9976   -10103   -10123   -10056    -9922 
   -9713    -9444    -9147    -8845    -8571    -8307    -7997    -7616 
   -7164    -6659    -6139    -5620    -5096    -4579    -4025    -3397 
   -2739    -2110    -1507     -884     -213      486     1181     1860 
    2544     3257     3983     4703     5390     6004     6554     7067 
    7558     8012     8414     8795     9175     9525     9814    10025 
   10158    10233    10258    10228    10115     9926     9684     9389 
    9036     8614     8101     7515     6889     6243     5582     4891 
    4148     3361     2542     1702      892      136     -608    -1366 
   -2114    -2844    -3564    -4283    -4976    -5613    -6204    -6762 
   -7300    -7825    -8302    -8733    -9136    -9471    -9738    -9946 
  -10050   -10025    -9921    -9798    -9640    -9410    -9105    -8738 
   -8318    -7859    -7384    -6920    -6463    -6025    -5589    -5128 
   -4630    -4068    -3457    -2848    -2220    -1526     -783      -36 
     707     1449     2177     2899     3640     4372     5067     5722 
    6343     6939     7501     8025     8522     8989     9396     9711 
    9937    10092    10183    10195    10146    10064     9950     9788 
    9570     9283     8905     8414     7840     7236     6631     6034 
    5429     4801     4155     3473     2770     2066     1371      720 
     122     -432     -947    -1449    -1954    -2474    -3007    -3499 
   -3920    -4264    -4529    -4735    -4885    -4972    -5042    -5127 
   -5225    -5331    -5428    -5512    -5576    -5614    -5657    -5729 
   -5807    -5887    -5983    -6102    -6203    -6274    -6336    -6374 
   -6376    -6331    -6204    -5987    -5702    -5340    -4888    -4355 
   -3766    -3156    -2583    -2080    -1591    -1069     -510       89 
     688     1247     1771     2290     2837     3392     3947     4538 
    5150     5734     6276     6760     7213     7634     7990     8295 
    8564     8773     8904     8937     8895     8823     8711     8537 
    8316     8078     7854     7638     7407     7168     6921     6644 
    6323     5931     5494     5061     4629     4189     3720     3169 
    2532     1798      967       86     -823    -1733    -2641    -3568 
   -4475    -5381    -6299    -7172    -7997    -8762    -9460   -10120 
  -10692   -11132   -11458   -11682   -11851   -11971   -12010   -11982 
  -11880   -11713   -11499   -11207   -10840   -10419    -9919    -9293 
   -8565    -7809    -6999    -6097    -5143    -4141    -3091    -2038 
    -994       27     1043     2077     3086     4023     4880     5671 
    6431     7163     7875     8580     9251     9875    10434    10894 
   11263    11551    11761    11917    12054    12181    12293    12383 
   12447    12444    12356    12194    11958    11649    11253    10763 
   10196     9531     8752     7881     6924     5900     4853     3770 
    2646     1506      352     -824    -2010    -3199    -4399    -5597 
   -6774    -7905    -8976    -9984   -10910   -11734   -12482   -13165 
  -13753   -14224   -14567   -14756   -14817   -14821   -14751   -14551 
  -14243   -13884   -13502   -13049   -12449   -11695   -10832    -9906 
   -8942    -7990    -7029    -6000    -4939    -3866    -2752    -1615 
    -461      683     1777     2853     3910     4930     5960     6983 
    7969     8931     9825    10635    11410    12135    12780    13351 
   13868    14342    14756    15097    15342    15491    15557    15539 
   15472    15369    15184    14916    14557    14027    13340    12537 
   11628    10671     9657     8536     7331     6062     4747     3414 
    2065      729     -571    -1834    -3049    -4226    -5377    -6494 
   -7577    -8594    -9532   -10385   -11130   -11774   -12341   -12839 
  -13271   -13644   -14002   -14328   -14543   -14616   -14554   -14364 
  -14058   -13649   -13154   -12584   -11927   -11188   -10385    -9529 
   -8638    -7713    -6781    -5859    -4939    -4018    -3098    -2197 
   -1318     -453      392     1246     2108     2978     3862     4730 
    5579     6400     7149     7865     8542     9140     9676    10135 
   10521    10862    11136    11345    11491    11581    11635    11607 
   11492    11326    11070    10719    10307     9845     9377     8914 
    8425     7878     7238     6529     5783     5008     4209     3346 
    2427     1507      594     -299    -1171    -2027    -2820    -3589 
   -4405    -5212    -5957    -6609    -7159    -7662    -8133    -8548 
   -8891    -9142    -9327    -9460    -9533    -9552    -9520    -9428 
   -9269    -9008    -8650    -8225    -7781    -7333    -6837    -6274 
   -5676    -5047    -4409    -3805    -3223    -2625    -2023    -1422 
    -830     -243      341      889     1391     1857     2289     2724 
    3160     3537     3869     4218     4599     5013     5414     5753 
    6060     6345     6604     6878     7161     7420     7641     7803 
    7893     7916     7882     7816     7723     7572     7337     7048 
    6752     6450     6129     5764     5371     4980     4550     4094 
    3649     3160     2608     2022     1431      870      317     -261 
    -841    -1443    -2085    -2725    -3337    -3912    -4461    -4972 
   -5410    -5805    -6164    -6457    -6731    -7002    -7241    -7435 
   -7581    -7703    -7790    -7834    -7857    -7846    -7815    -7801 
   -7762    -7669    -7547    -7396    -7200    -6970    -6694    -6343 
   -5903    -5393    -4828    -4213    -3551    -2864    -2164    -1456 
    -756      -49      658     1318     1937     2592     3304     4004 
    4635     5193     5701     6189     6647     7074     7501     7896 
    8233     8550     8868     9181     9463     9678     9810     9865 
    9837     9748     9640     9529     9418     9271     9046     8754 
    8406     7998     7546     7038     6459     5827     5151     4418 
    3651     2890     2141     1389      615     -182     -980    -1787 
   -2621    -3443    -4233    -5004    -5759    -6486    -7163    -7761 
   -8282    -8770    -9242    -9632    -9899   -10060   -10110   -10088 
  -10052    -9968    -9828    -9693    -9594    -9487    -9305    -9036 
   -8696    -8330    -7974    -7603    -7172    -6671    -6126    -5563 
   -4949    -4260    -3545    -2822    -2070    -1308     -519      332 
    1232     2160     3079     3982     4873     5718     6507     7254 
    7981     8696     9381    10039    10652    11179    11632    12000 
   12253    12437    12571    12653    12687    12642    12509    12303 
   12033    11701    11318    10862    10315     9670     8931     8155 
    7381     6598     5796     4972     4106     3210     2301     1371 
     429     -514    -1475    -2420    -3339    -4248    -5128    -5998 
   -6845    -7646    -8432    -9211    -9967   -10678   -11341   -11952 
  -12479   -12899   -13223   -13464   -13644   -13756   -13790   -13759 
  -13636   -13397   -13045   -12560   -11967   -11327   -10648    -9922 
   -9150    -8320    -7456    -6582    -5676    -4733    -3757    -2729 
   -1637     -504      623     1721     2806     3908     5022     6130 
    7215     8270     9252    10143    10972    11719    12357    12896 
   13329    13676    13952    14152    14283    14324    14283    14183 
   14006    13767    13486    13153    12769    12314    11774    11165 
   10513     9855     9163     8406     7608     6771     5902     4995 
    4021     3029     2045     1035        2    -1039    -2093    -3149 
   -4185    -5204    -6211    -7199    -8172    -9112    -9987   -10779 
  -11507   -12202   -12868   -13470   -13995   -14427   -14739   -14943 
  -15045   -15055   -14972   -14796   -14550   -14203   -13711   -13138 
  -12514   -11809   -11033   -10172    -9232    -8278    -7285    -6231 
   -5161    -4081    -2979    -1858     -715      426     1560     2671 
    3720     4712     5664     6601     7537     8434     9283    10106 
   10891    11605    12226    12769    13236    13625    13952    14207 
   14376    14431    14362    14208    13986    13679    13302    12850 
   12325    11742    11091    10420     9767     9078     8329     7506 
    6613     5701     4762     3798     2833     1850      864     -130 
   -1138    -2095    -2987    -3828    -4602    -5319    -5979    -6588 
   -7153    -7681    -8176    -8614    -8977    -9289    -9545    -9755 
   -9915    -9995   -10018   -10010    -9948    -9859    -9761    -9606 
   -9379    -9132    -8914    -8694    -8418    -8074    -7668    -7222 
   -6731    -6185    -5587    -4938    -4256    -3562    -2847    -2114 
   -1345     -584      110      783     1460     2123     2766     3361 
    3908     4428     4922     5405     5859     6261     6629     6975 
    7302     7597     7842     8033     8167     8255     8295     8278 
    8216     8101     7929     7712     7439     7142     6840     6524 
    6183     5780     5327     4865     4378     3874     3372     2849 
    2317     1776     1216      679      189     -276     -714    -1134 
   -1539    -1904    -2241    -2574    -2914    -3238    -3534    -3805 
   -4050    -4274    -4483    -4650    -4788    -4916    -5008    -5059 
   -5074    -5058    -5026    -4961    -4861    -4769    -4681    -4580 
   -4469    -4340    -4172    -3947    -3689    -3437    -3145    -2798 
