Origin Time       2025/01/13 21:19:00
Lat.              31.8
Long.             131.6
Depth. (km)       30
Mag.              6.9
Station Code      HRS003
Station Lat.      34.8138
Station Long.     132.8427
Station Height(m) 156
Record Time       2025/01/13 21:21:15
Sampling Freq(Hz) 100Hz
Duration Time(s)  60
Dir.              E-W
Scale Factor      7845(gal)/8223790
Max. Acc. (gal)   1.806
Last Correction   2025/01/13 21:21:16
Memo.             
[...]
    2619     2674     2778     2922     3088     3225     3272     3211 
    3075     2895     2678     2463     2311     2258     2300     2413 
    2578     2767     2956     3086     3098     2986     2759     2481 
    2246     2081     1976     1956     2072     2313     2621     2930 
    3180     3337     3360     3226     2971     2671     2421     2293 
    2347     2556     2843     3167     3476     3696     3804     3827 
    3793     3701     3559     3369     3152     2929     2717     2563 
    2500     2533     2652     2835     3064     3292     3449     3470 
    3343     3127     2901     2747     2690     2720     2806     2864 
    2833     2740     2662     2666     2770     2953     3137     3221 
    3150     2937     2655     2376     2185     2162     2301     2513 
    2685     2763     2747     2662     2547     2443     2405     2465 
    2614     2826     3037     3208     3322     3376     3366     3277 
    3138     3013     2937     2903     2886     2866     2812     2712 
    2596     2511     2454     2390     2335     2319     2371     2486 
    2616     2739     2853     2963     3037     3013     2874     2659 
    2455     2328     2284     2335     2496     2740     2988     3163 
    3230     3195     3084     2913     2695     2479     2316     2236 
    2232     2255     2292     2361     2475     2609     2724     2797 
    2826     2844     2841     2771     2627     2479     2397     2393 
    2484     2662     2889     3129     3312     3379     3323     3180 
    2992     2818     2697     2604     2533     2528     2600     2712 
    2836     2972     3134     3322     3505     3619     3623     3526 
    3361     3165     2965     2789     2651     2589     2623     2701 
    2782     2832     2821     2767     2721     2698     2687     2728 
    2852     3018     3161     3231     3198     3049     2836     2624 
    2448     2340     2323     2403     2559     2743     2903     2998 
    3021     2978     2871     2775     2752     2793     2848     2880 
    2874     2832     2795     2786     2795     2817     2857     2925 
    2988     3003     2970     2926     2901     2884     2882     2909 
    2937     2944     2937     2957     3011     3082     3168     3234 
    3238     3179     3091     3001     2917     2870     2870     2883 
    2889     2899     2902     2860     2791     2736     2717     2731 
    2749     2752     2758     2805     2905     2999     3022     2936 
    2748     2524     2339     2268     2355     2596     2918     3219 
    3412     3439     3300     3048     2758     2527     2427     2488 
    2652     2808     2880     2841     2735     2666     2695     2790 
    2863     2867     2776     2610     2482     2500     2671     2951 
    3268     3488     3496     3292     2959     2620     2392     2320 
    2373     2475     2559     2604     2602     2571     2544     2569 
    2643     2748     2863     2933     2937     2898     2848     2803 
    2758     2740     2775     2839     2874     2856     2795     2721 
    2666     2624     2570     2527     2528     2577     2662     2776 
    2936     3123     3280     3331     3260     3117     2963     2856 
    2818     2837     2875     2889     2855     2774     2675     2592 
    2542     2548     2613     2702     2755     2737     2668     2581 
    2496     2415     2351     2331     2349     2389     2438     2502 
    2601     2721     2839     2934     2992     3002     2974     2956 
    2957     2936     2863     2787     2754     2748     2758     2771 
    2762     2743     2741     2768     2833     2944     3060     3117 
    3099     3036     2967     2910     2862     2844     2845     2824 
    2762     2681     2602     2539     2516     2538     2577     2612 
    2619     2585     2533     2513     2554     2593     2582     2542 
    2538     2619     2790     3013     3195     3271     3213     3034 
    2793     2554     2394     2376     2485     2664     2847     2976 
    2982     2841     2629     2446     2347     2342     2434     2606 
    2802     2970     3065     3090     3064     2991     2887     2798 
    2766     2768     2779     2803     2841     2871     2886     2889 
    2876     2841     2802     2752     2670     2567     2489     2471 
    2508     2589     2700     2821     2944     3051     3115     3121 
    3071     2990     2878     2736     2582     2479     2484     2570 
    2698     2849     3017     3157     3181     3078     2911     2754 
    2628     2528     2454     2407     2409     2467     2538     2574 
    2555     2500     2436     2376     2336     2353     2438     2552 
    2643     2685     2671     2625     2565     2496     2458     2516 
    2687     2878     2978     2949     2824     2651     2490     2404 
    2398     2413     2392     2316     2231     2180     2178     2235 
    2351     2535     2749     2949     3082     3106     3046     2947 
    2843     2790     2829     2949     3094     3214     3291     3289 
    3168     2938     2683     2473     2344     2324     2373     2413 
    2388     2316     2258     2243     2284     2365     2459     2569 
    2701     2820     2853     2798     2712     2662     2683     2745 
    2798     2816     2787     2732     2670     2619     2590     2608 
    2685     2783     2825     2772     2648     2466     2246     2057 
    1975     2050     2257     2516     2771     2984     3109     3117 
    3033     2909     2764     2624     2535     2543     2650     2779 
    2863     2880     2856     2830     2844     2917     3041     3187 
    3287     3264     3127     2936     2764     2697     2775     2961 
    3177     3356     3445     3433     3364     3316     3376     3543 
    3715     3801     3788     3696     3541     3354     3181     3061 
    3014     3007     3009     3033     3117     3265     3427     3553 
    3623     3632     3574     3457     3337     3234     3122     3005 
    2921     2893     2891     2906     2929     2926     2895     2852 
    2806     2783     2816     2894     2990     3082     3157     3211 
    3257     3327     3462     3634     3750     3742     3601     3362 
    3084     2868     2793     2851     3009     3233     3464     3605 
    3612     3523     3400     3296     3231     3218     3265     3335 
    3391     3419     3415     3362     3269     3192     3141     3114 
    3132     3196     3276     3327     3361     3407     3451     3480 
    3501     3528     3551     3559     3558     3547     3538     3557 
    3628     3713     3731     3674     3586     3503     3454     3451 
    3476     3489     3480     3445     3383     3308     3223     3133 
    3048     2974     2903     2848     2848     2913     3017     3130 
    3202     3188     3082     2921     2764     2652     2623     2671 
    2755     2813     2822     2822     2826     2817     2781     2731 
    2677     2620     2581     2567     2581     2637     2744     2905 
    3056     3117     3086     3003     2901     2801     2722     2678 
    2671     2705     2754     2778     2752     2679     2587     2501 
    2474     2532     2628     2702     2721     2693     2639     2586 
    2554     2555     2592     2635     2663     2682     2677     2636 
    2593     2586     2600     2592     2562     2516     2466     2452 
    2493     2562     2577     2490     2335     2176     2064     2022 
    2058     2137     2209     2246     2205     2081     1900     1744 
    1676     1701     1821     2023     2224     2317     2290     2215 
    2141     2089     2088     2162     2286     2370     2377     2327 
    2254     2193     2157     2143     2133     2123     2118     2135 
    2195     2269     2347     2436     2508     2524     2478     2403 
    2335     2304     2330     2411     2539     2674     2755     2767 
    2737     2708     2698     2695     2679     2659     2664     2689 
    2718     2785     2909     3069     3221     3321     3342     3302 
    3233     3161     3123     3129     3169     3260     3373     3446 
    3443     3412     3406     3404     3380     3337     3292     3253 
    3218     3183     3123     3030     2910     2785     2673     2558 
    2450     2365     2290     2211     2150     2141     2161     2187 
    2215     2230     2208     2147     2083     2045     2034     2038 
    2053     2077     2088     2089     2127     2222     2350     2493 
    2646     2797     2902     2945     2943     2930     2937     2960 
    3015     3118     3246     3356     3422     3454     3458     3430 
    3365     3292     3257     3268     3299     3329     3346     3357 
    3361     3376     3403     3439     3497     3549     3555     3497 
    3391     3273     3165     3075     3011     2960     2887     2766 
    2609     2446     2316     2247     2257     2340     2450     2547 
    2628     2667     2632     2544     2477     2457     2452     2439 
    2448     2533     2678     2825     2928     2959     2949     2932 
    2906     2867     2817     2749     2632     2482     2361     2311 
    2339     2409     2474     2515     2552     2596     2633     2677 
    2733     2829     2965     3076     3115     3096     3052     3002 
    2964     2959     2999     3090     3194     3261     3265     3199 
    3094     2972     2849     2762     2714     2694     2691     2666 
    2593     2505     2470     2504     2600     2736     2866     2949 
    2953     2855     2679     2479     2331     2282     2343     2454 
    2543     2571     2535     2447     2338     2249     2193     2160 
    2158     2208     2311     2434     2552     2659     2722     2747 
    2775     2828     2872     2851     2760     2647     2551     2494 
    2489     2528     2581     2617     2605     2515     2381     2255 
    2168     2150     2205     2295     2381     2455     2504     2519 
    2523     2539     2598     2710     2856     3015     3153     3253 
    3295     3260     3161     3034     2925     2855     2810     2786 
    2783     2808     2851     2907     2960     3002     3051     3105 
    3161     3226     3283     3311     3302     3269     3256     3285 
    3353     3415     3435     3387     3272     3132     3025     2997 
    3045     3144     3245     3299     3279     3181     3041     2911 
    2824     2766     2710     2658     2613     2578     2569     2579 
    2601     2654     2749     2841     2876     2859     2813     2756 
    2717     2727     2806     2937     3080     3207     3296     3342 
    3346     3330     3289     3214     3123     3019     2879     2695 
    2504     2350     2249     2214     2232     2286     2350     2407 
    2448     2452     2417     2388     2405     2501     2660     2855 
    3055     3221     3312     3312     3248     3152     3046     2976 
    2968     2997     3042     3114     3199     3253     3271     3269 
    3265     3273     3289     3327     3402     3488     3550     3607 
    3684     3747     3762     3723     3643     3550     3456     3366 
    3284     3203     3134     3080     3030     2971     2917     2887 
    2864     2837     2794     2744     2709     2701     2732     2790 
    2843     2857     2830     2772     2686     2593     2512     2440 
    2380     2343     2335     2330     2307     2250     2138     1995 
    1880     1850     1931     2095     2278     2415     2465     2419 
    2308     2185     2077     2015     2008     2030     2058     2091 
    2111     2106     2089     2085     2111     2162     2209     2245 
    2280     2313     2365     2451     2570     2694     2797     2849 
    2840     2798     2747     2694     2666     2687     2774     2905 
    3051     3183     3253     3230     3122     2970     2818     2705 
    2671     2725     2847     2997     3130     3213     3226     3190 
    3134     3086     3067     3099     3196     3319     3435     3546 
    3638     3663     3595     3453     3280     3102     2936     2785 
    2663     2570     2490     2434     2393     2355     2328     2340 
    2388     2439     2490     2527     2540     2546     2542     2542 
    2565     2609     2670     2740     2828     2911     2959     2972 
    2949     2874     2758     2666     2631     2651     2740     2878 
    3003     3063     3049     2975     2855     2727     2617     2531 
    2474     2455     2490     2590     2741     2913     3073     3206 
    3279     3298     3289     3261     3225     3200     3196     3204 
    3221     3235     3231     3223     3203     3141     3018     2848 
    2683     2555     2459     2370     2254     2101     1933     1780 
    1664     1586     1548     1544     1570     1611     1656     1696 
    1725     1767     1841     1935     2027     2106     2188     2274 
    2347     2403     2438     2455     2446     2404     2369     2373 
    2420     2485     2538     2559     2556     2546     2542     2577 
    2662     2789     2949     3110     3234     3306     3346     3381 
    3400     3391     3348     3272     3168     3053     2980     2960 
    2965     2978     2991     2995     2982     2953     2917     2872 
    2812     2717     2605     2485     2353     2216     2100     2015 
    1952     1896     1844     1784     1719     1656     1630     1682 
    1799     1953     2103     2227     2320     2392     2467     2560 
    2675     2802     2943     3091     3211     3288     3339     3389 
    3456     3549     3677     3809     3924     4023     4095     4155 
    4230     4325     4432     4540     4631     4687     4702     4669 
    4598     4546     4541     4571     4614     4638     4615     4540 
    4422     4293     4194     4144     4132     4156     4180     4167 
    4104     3993     3842     3647     3435     3233     3052     2883 
    2701     2508     2311     2101     1883     1668     1490     1366 
    1287     1252     1256     1291     1335     1359     1359     1362 
    1410     1501     1628     1809     2031     2243     2396     2467 
    2462     2416     2388     2404     2466     2543     2610     2667 
    2709     2733     2749     2775     2825     2890     2964     3040 
    3105     3164     3222     3277     3315     3330     3321     3285 
    3227     3134     3010     2875     2733     2579     2415     2263 
    2146     2070     2043     2056     2091     2120     2135     2142 
    2138     2134     2124     2100     2056     1972     1840     1679 
    1510     1352     1243     1213     1260     1379     1555     1752 
    1933     2091     2246     2398     2556     2747     2983     3253 
    3522     3755     3927     4027     4081     4105     4098     4060 
    3998     3921     3821     3693     3553     3423     3325     3268 
    3264     3289     3318     3343     3360     3375     3384     3393 
    3418     3451     3504     3584     3682     3777     3862     3925 
    3939     3921     3878     3790     3672     3542     3406     3273 
    3152     3041     2936     2851     2783     2728     2694     2678 
    2671     2666     2674     2710     2775     2859     2945     3014 
    3032     2999     2941     2863     2790     2754     2759     2801 
    2863     2930     2961     2932     2848     2727     2596     2467 
    2351     2259     2196     2162     2142     2135     2141     2147 
    2169     2218     2304     2425     2565     2717     2878     3029 
    3154     3244     3291     3291     3249     3177     3115     3075 
    3052     3057     3063     3041     2988     2903     2798     2689 
    2608     2574     2583     2650     2770     2920     3073     3210 
    3312     3385     3449     3510     3568     3619     3663     3693 
    3676     3605     3491     3330     3138     2930     2717     2512 
    2328     2170     2025     1887     1769     1680     1625     1594 
    1583     1579     1587     1609     1636     1675     1726     1779 
    1826     1858     1872     1880     1907     1952     1993     2029 
    2065     2107     2151     2207     2282     2367     2477     2625 
    2787     2918     3014     3107     3200     3288     3384     3492 
    3607     3703     3762     3785     3788     3781     3769     3765 
    3763     3747     3732     3719     3690     3636     3565     3501 
    3469     3465     3461     3449     3435     3407     3360     3302 
    3240     3176     3130     3125     3149     3183     3204     3206 
    3177     3105     3007     2928     2890     2872     2848     2805 
    2722     2604     2481     2376     2288     2223     2204     2215 
    2216     2197     2138     2030     1895     1783     1710     1668 
    1660     1678     1690     1667     1609     1559     1541     1545 
    1576     1633     1688     1729     1769     1807     1840     1888 
    1966     2079     2226     2390     2539     2650     2721     2744 
    2728     2710     2709     2727     2762     2822     2902     2987 
    3075     3150     3196     3219     3240     3276     3316     3352 
    3380     3393     3383     3345     3303     3276     3265     3260 
    3237     3187     3114     3037     2979     2936     2906     2893 
    2886     2866     2828     2793     2762     2735     2710     2674 
    2624     2574     2532     2505     2509     2542     2570     2600 
    2628     2639     2648     2678     2732     2794     2856     2922 
    2988     3044     3087     3133     3177     3219     3275     3333 
    3377     3404     3420     3442     3461     3477     3499     3530 
    3555     3539     3466     3345     3200     3067     2978     2947 
    2963     3011     3073     3144     3230     3314     3383     3434 
    3460     3468     3466     3460     3438     3393     3343     3289 
    3213     3111     3007     2909     2818     2741     2673     2593 
    2505     2428     2358     2280     2216     2187     2181     2200 
    2234     2285     2354     2431     2505     2555     2583     2592 
    2587     2578     2551     2528     2523     2529     2536     2540 
    2556     2573     2565     2532     2485     2434     2381     2327 
    2266     2185     2097     2023     1969     1930     1907     1907 
    1930     1964     1973     1935     1871     1803     1753     1726 
    1730     1777     1846     1925     2004     2085     2177     2293 
    2427     2566     2701     2812     2890     2930     2924     2884 
    2830     2789     2787     2824     2893     2957     2988     2997 
    2994     3001     3030     3082     3133     3196     3291     3395 
    3483     3542     3562     3554     3535     3518     3503     3496 
    3485     3453     3412     3383     3369     3380     3422     3492 
    3562     3636     3696     3707     3672     3615     3565     3537 
    3550     3612     3684     3734     3758     3750     3717     3673 
    3634     3600     3569     3542     3493     3420     3341     3272 
    3208     3157     3141     3152     3181     3214     3215     3175 
    3096     3009     2924     2849     2806     2798     2805     2801 
    2775     2725     2654     2569     2470     2382     2324     2270 
    2207     2122     2018     1917     1834     1786     1779     1810 
    1856     1907     1966     2034     2114     2214     2340     2481 
    2605     2710     2798     2863     2905     2925     2949     3013 
    3113     3218     3308     3381     3434     3472     3497     3519 
