Origin Time       2025/01/13 21:19:00
Lat.              31.8
Long.             131.6
Depth. (km)       30
Mag.              6.9
Station Code      HRS013
Station Lat.      34.3768
Station Long.     132.4502
Station Height(m) 3
Record Time       2025/01/13 21:20:40
Sampling Freq(Hz) 100Hz
Duration Time(s)  118
Dir.              E-W
Scale Factor      7845(gal)/8223790
Max. Acc. (gal)   4.572
Last Correction   2025/01/13 21:20:39
Memo.             
[...]
   -5471    -5359    -5212    -5042    -4870    -4699    -4573    -4533 
   -4540    -4541    -4529    -4519    -4527    -4544    -4541    -4504 
   -4456    -4419    -4395    -4380    -4355    -4298    -4236    -4210 
   -4236    -4286    -4320    -4318    -4301    -4264    -4207    -4156 
   -4113    -4071    -4075    -4171    -4344    -4538    -4706    -4833 
   -4899    -4860    -4708    -4526    -4390    -4333    -4364    -4421 
   -4425    -4399    -4417    -4504    -4642    -4781    -4914    -5067 
   -5240    -5408    -5545    -5648    -5724    -5787    -5818    -5792 
   -5738    -5702    -5717    -5817    -6004    -6220    -6396    -6465 
   -6343    -6007    -5522    -5013    -4623    -4403    -4333    -4417 
   -4656    -5022    -5445    -5838    -6096    -6137    -5952    -5601 
   -5184    -4820    -4591    -4529    -4623    -4828    -5108    -5425 
   -5713    -5917    -6014    -5984    -5821    -5533    -5154    -4727 
   -4329    -4056    -3973    -4077    -4318    -4635    -4955    -5146 
   -5092    -4828    -4510    -4291    -4232    -4283    -4355    -4413 
   -4480    -4561    -4665    -4792    -4873    -4835    -4704    -4546 
   -4418    -4357    -4387    -4500    -4626    -4684    -4631    -4469 
   -4279    -4168    -4206    -4402    -4699    -4986    -5167    -5227 
   -5232    -5269    -5387    -5548    -5647    -5653    -5624    -5572 
   -5478    -5359    -5243    -5140    -5057    -5013    -5051    -5167 
   -5316    -5466    -5598    -5672    -5683    -5651    -5580    -5497 
   -5427    -5359    -5313    -5308    -5306    -5290    -5235    -5097 
   -4885    -4646    -4434    -4297    -4240    -4259    -4364    -4513 
   -4621    -4668    -4696    -4745    -4815    -4862    -4847    -4797 
   -4762    -4758    -4754    -4704    -4595    -4469    -4376    -4330 
   -4341    -4371    -4360    -4318    -4310    -4396    -4591    -4824 
   -5005    -5090    -5121    -5143    -5125    -5027    -4842    -4595 
   -4352    -4217    -4280    -4525    -4815    -5017    -5069    -5007 
   -4961    -5000    -5082    -5163    -5231    -5270    -5298    -5325 
   -5320    -5292    -5306    -5386    -5498    -5580    -5566    -5476 
   -5410    -5416    -5505    -5647    -5744    -5728    -5591    -5354 
   -5032    -4666    -4338    -4149    -4193    -4476    -4920    -5405 
   -5767    -5892    -5775    -5425    -4918    -4430    -4079    -3917 
   -3991    -4287    -4704    -5121    -5431    -5597    -5674    -5688 
   -5624    -5502    -5397    -5343    -5289    -5127    -4800    -4403 
   -4104    -3977    -3991    -4060    -4105    -4140    -4244    -4448 
   -4687    -4815    -4747    -4533    -4297    -4152    -4129    -4168 
   -4209    -4282    -4430    -4662    -4963    -5279    -5487    -5494 
   -5323    -5104    -4962    -4904    -4846    -4772    -4795    -5015 
   -5393    -5773    -6008    -6104    -6174    -6270    -6340    -6312 
   -6153    -5914    -5675    -5474    -5347    -5293    -5265    -5262 
   -5319    -5414    -5483    -5458    -5340    -5209    -5125    -5071 
   -5004    -4892    -4727    -4572    -4530    -4614    -4746    -4865 
   -4895    -4787    -4577    -4307    -4002    -3754    -3678    -3793 
   -4016    -4203    -4266    -4257    -4283    -4363    -4433    -4401 
   -4233    -4001    -3798    -3709    -3793    -4028    -4348    -4700 
   -5007    -5174    -5139    -4862    -4402    -3963    -3758    -3842 
   -4140    -4510    -4816    -5042    -5212    -5282    -5238    -5169 
   -5159    -5192    -5212    -5216    -5229    -5242    -5216    -5152 
   -5092    -5059    -5076    -5179    -5389    -5665    -5915    -6068 
   -6141    -6173    -6173    -6130    -6016    -5836    -5660    -5537 
   -5432    -5346    -5304    -5273    -5238    -5223    -5209    -5177 
   -5124    -5042    -4966    -4930    -4900    -4854    -4855    -4974 
   -5211    -5499    -5736    -5829    -5790    -5678    -5528    -5343 
   -5124    -4919    -4737    -4544    -4351    -4199    -4131    -4152 
   -4199    -4167    -4006    -3797    -3676    -3688    -3827    -4031 
   -4207    -4322    -4378    -4395    -4392    -4357    -4317    -4375 
   -4588    -4866    -5067    -5136    -5113    -5042    -4955    -4924 
   -4980    -5039    -5028    -4976    -4931    -4923    -4962    -4988 
   -4941    -4895    -4954    -5120    -5309    -5394    -5308    -5132 
   -4985    -4887    -4834    -4846    -4919    -5059    -5301    -5599 
   -5833    -5884    -5707    -5382    -5040    -4773    -4627    -4615 
   -4714    -4892    -5088    -5274    -5466    -5606    -5578    -5323 
   -4877    -4384    -4045    -3974    -4129    -4411    -4704    -4903 
   -4981    -4995    -5005    -5073    -5219    -5379    -5464    -5471 
   -5482    -5562    -5675    -5738    -5726    -5697    -5680    -5651 
   -5578    -5454    -5292    -5127    -4981    -4884    -4865    -4901 
   -4936    -4887    -4658    -4259    -3817    -3485    -3350    -3454 
   -3802    -4337    -4924    -5395    -5655    -5697    -5502    -5104 
   -4627    -4187    -3865    -3735    -3824    -4098    -4467    -4819 
   -5058    -5112    -4950    -4596    -4149    -3773    -3596    -3607 
   -3700    -3813    -3936    -4070    -4201    -4313    -4396    -4472 
   -4590    -4738    -4837    -4822    -4722    -4639    -4660    -4710 
   -4638    -4456    -4353    -4475    -4791    -5169    -5486    -5660 
   -5694    -5692    -5773    -5917    -5971    -5836    -5562    -5304 
   -5209    -5282    -5421    -5602    -5859    -6196    -6531    -6685 
   -6555    -6231    -5917    -5751    -5725    -5746    -5738    -5714 
   -5749    -5876    -6049    -6172    -6150    -5956    -5644    -5312 
   -5061    -4972    -5049    -5205    -5350    -5414    -5370    -5275 
   -5209    -5220    -5316    -5432    -5498    -5517    -5525    -5582 
   -5707    -5803    -5794    -5664    -5393    -5042    -4753    -4563 
   -4422    -4270    -4058    -3834    -3721    -3788    -3936    -4023 
   -3983    -3843    -3672    -3528    -3392    -3188    -2924    -2743 
   -2786    -3040    -3375    -3647    -3769    -3763    -3726    -3681 
   -3574    -3387    -3196    -3140    -3307    -3632    -3921    -4044 
   -4017    -3925    -3832    -3726    -3582    -3485    -3570    -3898 
   -4387    -4853    -5162    -5364    -5574    -5784    -5915    -5929 
   -5830    -5672    -5552    -5543    -5644    -5764    -5815    -5840 
   -5922    -6079    -6223    -6232    -6108    -6007    -6041    -6196 
   -6388    -6536    -6627    -6702    -6786    -6836    -6775    -6583 
   -6347    -6203    -6227    -6404    -6671    -6968    -7281    -7591 
   -7766    -7678    -7325    -6760    -6077    -5431    -4973    -4806 
   -4946    -5266    -5543    -5649    -5570    -5343    -5076    -4864 
   -4729    -4680    -4698    -4716    -4722    -4745    -4765    -4776 
   -4791    -4722    -4494    -4197    -3956    -3874    -3983    -4190 
   -4357    -4421    -4388    -4301    -4199    -4089    -3948    -3777 
   -3612    -3542    -3667    -4002    -4461    -4909    -5239    -5464 
   -5676    -5865    -5879    -5593    -5055    -4463    -4001    -3775 
   -3770    -3932    -4221    -4594    -5031    -5483    -5826    -5987 
   -6004    -5917    -5725    -5413    -4978    -4511    -4170    -4045 
   -4098    -4230    -4421    -4644    -4816    -4843    -4671    -4352 
   -4033    -3813    -3685    -3570    -3407    -3221    -3073    -3025 
   -3111    -3331    -3651    -4029    -4419    -4803    -5171    -5478 
   -5678    -5759    -5749    -5667    -5470    -5166    -4903    -4858 
   -5098    -5539    -5998    -6311    -6412    -6324    -6134    -5996 
   -6041    -6255    -6536    -6758    -6806    -6693    -6509    -6303 
   -6168    -6266    -6621    -7110    -7570    -7857    -7967    -7985 
   -7932    -7797    -7605    -7452    -7427    -7489    -7480    -7312 
   -7060    -6820    -6609    -6362    -5992    -5509    -5009    -4618 
   -4428    -4440    -4579    -4742    -4793    -4617    -4220    -3761 
   -3380    -3113    -2959    -2898    -2887    -2871    -2774    -2600 
   -2492    -2569    -2793    -2998    -3021    -2840    -2527    -2106 
   -1634    -1243    -1016     -997    -1213    -1557    -1864    -2087 
   -2258    -2436    -2662    -2847    -2882    -2803    -2744    -2798 
   -2991    -3288    -3631    -3948    -4120    -4101    -4004    -3981 
   -4148    -4552    -5089    -5576    -5919    -6123    -6223    -6258 
   -6292    -6405    -6601    -6755    -6752    -6608    -6478    -6559 
   -6905    -7362    -7700    -7789    -7677    -7500    -7339    -7153 
   -6880    -6597    -6458    -6570    -6929    -7391    -7770    -7989 
   -8047    -7963    -7803    -7624    -7412    -7118    -6729    -6301 
   -5952    -5799    -5842    -5934    -5938    -5798    -5498    -5076 
   -4618    -4253    -4095    -4137    -4264    -4372    -4411    -4419 
   -4479    -4556    -4540    -4378    -4075    -3728    -3445    -3254 
   -3164    -3159    -3208    -3271    -3337    -3399    -3373    -3194 
   -2913    -2606    -2358    -2216    -2168    -2203    -2327    -2550 
   -2841    -3087    -3165    -3067    -2914    -2868    -3030    -3403 
   -3847    -4174    -4302    -4295    -4267    -4264    -4286    -4334 
   -4399    -4437    -4428    -4399    -4441    -4614    -4877    -5140 
   -5335    -5428    -5401    -5283    -5177    -5152    -5204    -5317 
   -5447    -5526    -5563    -5575    -5539    -5449    -5319    -5211 
   -5225    -5363    -5497    -5532    -5467    -5412    -5464    -5607 
   -5760    -5822    -5724    -5522    -5321    -5169    -5058    -4972 
   -4907    -4892    -4930    -4970    -4985    -4995    -4997    -4976 
   -4899    -4762    -4644    -4618    -4689    -4791    -4889    -4989 
   -5058    -5050    -4947    -4783    -4594    -4367    -4108    -3889 
   -3765    -3713    -3663    -3527    -3323    -3200    -3215    -3261 
   -3237    -3141    -3072    -3161    -3426    -3775    -4162    -4537 
   -4772    -4765    -4519    -4078    -3562    -3163    -2953    -2887 
   -2907    -3015    -3258    -3630    -4047    -4413    -4644    -4726 
   -4710    -4618    -4452    -4230    -4013    -3893    -3935    -4072 
   -4194    -4298    -4456    -4747    -5161    -5514    -5634    -5578 
   -5499    -5462    -5443    -5390    -5252    -5069    -4974    -5100 
   -5443    -5822    -6046    -6079    -6058    -6168    -6446    -6733 
   -6847    -6759    -6585    -6481    -6551    -6770    -7024    -7264 
   -7476    -7616    -7711    -7815    -7938    -8066    -8172    -8187 
   -8023    -7665    -7250    -6953    -6824    -6793    -6766    -6718 
   -6666    -6617    -6538    -6359    -6103    -5880    -5749    -5663 
   -5483    -5107    -4592    -4124    -3869    -3898    -4126    -4347 
   -4442    -4455    -4429    -4348    -4167    -3854    -3449    -3083 
   -2855    -2782    -2878    -3109    -3400    -3699    -3917    -4023 
   -4070    -4108    -4139    -4093    -3882    -3530    -3111    -2729 
   -2517    -2511    -2641    -2833    -3071    -3368    -3730    -4158 
   -4588    -4899    -5040    -5042    -4968    -4942    -5032    -5204 
   -5447    -5776    -6177    -6615    -7017    -7322    -7526    -7650 
   -7716    -7724    -7676    -7572    -7387    -7150    -6934    -6801 
   -6778    -6862    -7022    -7202    -7322    -7348    -7308    -7256 
   -7241    -7261    -7265    -7258    -7294    -7373    -7522    -7730 
   -7879    -7870    -7669    -7294    -6893    -6613    -6454    -6362 
   -6270    -6122    -5935    -5744    -5518    -5192    -4753    -4261 
   -3797    -3422    -3100    -2778    -2494    -2332    -2304    -2324 
   -2253    -2027    -1714    -1439    -1314    -1383    -1578    -1792 
   -1984    -2182    -2404    -2644    -2874    -2998    -2968    -2848 
   -2706    -2604    -2582    -2636    -2754    -2920    -3152    -3510 
   -4006    -4531    -4912    -5066    -5040    -4916    -4788    -4737 
   -4779    -4911    -5162    -5557    -6050    -6534    -6914    -7155 
   -7279    -7312    -7246    -7111    -6991    -6917    -6866    -6864 
   -6956    -7099    -7180    -7128    -6980    -6836    -6751    -6704 
   -6632    -6484    -6284    -6149    -6181    -6381    -6677    -6951 
   -7107    -7121    -6998    -6781    -6556    -6421    -6400    -6415 
   -6363    -6177    -5884    -5601    -5397    -5231    -5011    -4671 
   -4266    -3909    -3677    -3616    -3697    -3780    -3732    -3545 
   -3295    -3072    -2932    -2883    -2943    -3149    -3484    -3836 
   -4089    -4175    -4105    -3921    -3651    -3326    -2994    -2718 
   -2554    -2547    -2708    -2963    -3225    -3396    -3408    -3272 
   -3021    -2709    -2393    -2088    -1860    -1829    -2043    -2478 
   -3040    -3582    -3986    -4241    -4430    -4634    -4880    -5104 
   -5227    -5316    -5499    -5807    -6196    -6602    -6997    -7384 
   -7717    -7954    -8070    -8029    -7867    -7685    -7554    -7501 
   -7523    -7545    -7499    -7408    -7335    -7319    -7366    -7446 
   -7510    -7526    -7516    -7514    -7531    -7551    -7519    -7399 
   -7204    -6987    -6837    -6862    -7078    -7375    -7608    -7712 
   -7666    -7452    -7098    -6686    -6276    -5864    -5436    -4986 
   -4533    -4148    -3901    -3811    -3869    -4041    -4226    -4310 
   -4270    -4152    -3994    -3811    -3608    -3410    -3276    -3249 
   -3306    -3372    -3385    -3318    -3177    -2961    -2674    -2354 
   -2041    -1745    -1476    -1224     -969     -704     -441     -232 
    -162     -297     -642    -1117    -1579    -1939    -2196    -2378 
   -2548    -2781    -3069    -3352    -3581    -3767    -3947    -4185 
   -4502    -4826    -5078    -5239    -5332    -5408    -5497    -5606 
   -5744    -5894    -6021    -6110    -6134    -6095    -6073    -6129 
   -6261    -6469    -6739    -7025    -7273    -7449    -7561    -7653 
   -7749    -7874    -8041    -8252    -8463    -8588    -8591    -8488 
   -8280    -7947    -7555    -7249    -7069    -6949    -6824    -6681 
   -6519    -6284    -5923    -5498    -5082    -4677    -4275    -3916 
   -3635    -3431    -3316    -3294    -3321    -3373    -3445    -3485 
   -3468    -3420    -3343    -3226    -3059    -2836    -2643    -2594 
   -2701    -2916    -3171    -3377    -3468    -3450    -3376    -3272 
   -3167    -3045    -2860    -2628    -2350    -2022    -1722    -1524 
   -1470    -1595    -1845    -2115    -2366    -2616    -2897    -3226 
   -3599    -4023    -4475    -4861    -5094    -5177    -5182    -5219 
   -5367    -5636    -5976    -6322    -6616    -6821    -6918    -6903 
   -6779    -6579    -6332    -6112    -6041    -6164    -6426    -6745 
   -7053    -7290    -7449    -7546    -7584    -7572    -7530    -7472 
   -7395    -7275    -7095    -6849    -6544    -6207    -5894    -5648 
   -5470    -5321    -5148    -4936    -4756    -4681    -4729    -4854 
   -5005    -5124    -5185    -5205    -5193    -5130    -4992    -4761 
   -4433    -4016    -3541    -3087    -2763    -2598    -2501    -2361 
   -2139    -1881    -1653    -1486    -1401    -1426    -1528    -1690 
   -1952    -2278    -2581    -2810    -2953    -3044    -3161    -3348 
   -3564    -3781    -3979    -4153    -4334    -4548    -4784    -5005 
   -5154    -5198    -5166    -5085    -4961    -4857    -4854    -4978 
   -5186    -5444    -5748    -6056    -6300    -6458    -6593    -6755 
   -6933    -7163    -7427    -7635    -7796    -7923    -7989    -8023 
   -8047    -8073    -8094    -8071    -7985    -7871    -7771    -7686 
   -7600    -7464    -7258    -7076    -7005    -7080    -7280    -7510 
   -7665    -7704    -7641    -7497    -7291    -7048    -6802    -6589 
   -6403    -6220    -6050    -5880    -5668    -5428    -5200    -5012 
   -4877    -4758    -4600    -4394    -4140    -3850    -3554    -3277 
   -3073    -3024    -3184    -3531    -3935    -4252    -4457    -4615 
   -4762    -4872    -4915    -4878    -4807    -4773    -4787    -4792 
   -4774    -4746    -4692    -4590    -4406    -4109    -3735    -3365 
   -3051    -2853    -2835    -2965    -3141    -3275    -3372    -3508 
   -3747    -4063    -4365    -4583    -4716    -4830    -4958    -5096 
   -5208    -5256    -5262    -5281    -5308    -5285    -5189    -5036 
   -4845    -4648    -4480    -4368    -4318    -4298    -4255    -4160 
   -4041    -3920    -3766    -3550    -3311    -3096    -2951    -2924 
   -3014    -3175    -3364    -3577    -3816    -4079    -4340    -4557 
   -4700    -4793    -4882    -4976    -5111    -5314    -5544    -5740 
   -5876    -5956    -5987    -5962    -5883    -5788    -5726    -5691 
   -5645    -5601    -5595    -5678    -5900    -6226    -6544    -6791 
   -6953    -7049    -7113    -7145    -7155    -7157    -7145    -7130 
   -7130    -7134    -7106    -6994    -6778    -6517    -6295    -6108 
   -5896    -5630    -5333    -5036    -4769    -4523    -4255    -3931 
   -3599    -3329    -3138    -2995    -2852    -2695    -2548    -2421 
   -2335    -2297    -2262    -2177    -2023    -1819    -1628    -1495 
   -1452    -1544    -1764    -2057    -2378    -2693    -2987    -3283 
   -3578    -3825    -3985    -4037    -3981    -3910    -3967    -4190 
   -4533    -4918    -5255    -5543    -5834    -6130    -6399    -6615 
   -6772    -6913    -7084    -7348    -7724    -8141    -8488    -8707 
   -8812    -8851    -8860    -8850    -8818    -8738    -8614    -8486 
   -8390    -8318    -8226    -8087    -7892    -7634    -7338    -7034 
   -6729    -6453    -6272    -6201    -6187    -6149    -6042    -5867 
   -5659    -5478    -5364    -5278    -5125    -4868    -4571    -4340 
   -4216    -4149    -4025    -3767    -3400    -3030    -2737    -2466 
   -2155    -1873    -1686    -1583    -1560    -1617    -1709    -1760 
   -1755    -1741    -1746    -1782    -1838    -1873    -1891    -1929 
   -1980    -2097    -2342    -2635    -2882    -3138    -3460    -3788 
   -4020    -4160    -4356    -4687    -5053    -5305    -5377    -5316 
   -5258    -5297    -5487    -5792    -6023    -6053    -5975    -5954 
   -5995    -5975    -5864    -5691    -5460    -5246    -5170    -5278 
   -5536    -5834    -6073    -6251    -6377    -6403    -6345    -6268 
   -6215    -6231    -6313    -6394    -6439    -6471    -6558    -6728 
   -6916    -7037    -7063    -6984    -6771    -6421    -6091    -5968 
   -6003    -5988    -5809    -5533    -5306    -5143    -4947    -4770 
   -4714    -4698    -4583    -4398    -4360    -4625    -5053    -5354 
   -5379    -5228    -5120    -5148    -5278    -5409    -5387    -5177 
   -4954    -4903    -5031    -5193    -5221    -5044    -4733    -4396 
   -4113    -3925    -3821    -3726    -3618    -3551    -3578    -3730 
   -3997    -4268    -4441    -4513    -4495    -4429    -4382    -4379 
   -4401    -4386    -4298    -4214    -4207    -4253    -4324    -4391 
   -4433    -4452    -4469    -4496    -4499    -4440    -4357    -4318 
   -4359    -4448    -4513    -4561    -4650    -4766    -4846    -4831 
   -4756    -4758    -4922    -5186    -5417    -5501    -5402    -5194 
   -4988    -4820    -4696    -4648    -4675    -4758    -4842    -4860 
   -4828    -4827    -4877    -4909    -4864    -4776    -4731    -4741 
   -4731    -4687    -4661    -4718    -4891    -5138    -5370    -5557 
   -5730    -5873    -5938    -5930    -5921    -5941    -5941    -5884 
