Origin Time       2025/01/13 21:19:00
Lat.              31.8
Long.             131.6
Depth. (km)       30
Mag.              6.9
Station Code      HRS019
Station Lat.      34.2530
Station Long.     132.5617
Station Height(m) 4
Record Time       2025/01/13 21:20:22
Sampling Freq(Hz) 100Hz
Duration Time(s)  111
Dir.              U-D
Scale Factor      7845(gal)/8223790
Max. Acc. (gal)   2.230
Last Correction   2025/01/13 21:20:22
Memo.             
[...]
  -11388   -11669   -11769   -11792   -11870   -11901   -11835   -11799 
  -11886   -12037   -12136   -12210   -12293   -12209   -11935   -11792 
  -11853   -11850   -11758   -11736   -11743   -11763   -11929   -12232 
  -12486   -12596   -12588   -12496   -12384   -12259   -12109   -12048 
  -12137   -12197   -12090   -11981   -12023   -12071   -12012   -11962 
  -11947   -11880   -11839   -11911   -11948   -11861   -11811   -11912 
  -11994   -11892   -11703   -11551   -11465   -11484   -11549   -11508 
  -11406   -11391   -11500   -11739   -12048   -12237   -12297   -12420 
  -12607   -12648   -12457   -12164   -11896   -11632   -11387   -11272 
  -11248   -11254   -11383   -11600   -11780   -11924   -12002   -11977 
  -11935   -11897   -11790   -11720   -11799   -11916   -11989   -12054 
  -12070   -12051   -12086   -12112   -12097   -12143   -12233   -12271 
  -12266   -12280   -12370   -12476   -12442   -12229   -11966   -11794 
  -11813   -11939   -11907   -11658   -11450   -11433   -11510   -11639 
  -11905   -12278   -12563   -12679   -12707   -12690   -12602   -12418 
  -12113   -11745   -11457   -11302   -11230   -11199   -11184   -11183 
  -11233   -11385   -11673   -12086   -12514   -12823   -12977   -12945 
  -12727   -12475   -12267   -12040   -11826   -11718   -11701   -11728 
  -11799   -11850   -11804   -11716   -11700   -11765   -11851   -11947 
  -12035   -12033   -11950   -11886   -11850   -11836   -11894   -11950 
  -11961   -12060   -12236   -12306   -12231   -12128   -12110   -12190 
  -12266   -12278   -12256   -12259   -12301   -12263   -12059   -11792 
  -11553   -11383   -11352   -11443   -11524   -11539   -11593   -11709 
  -11749   -11670   -11592   -11574   -11560   -11495   -11470   -11630 
  -11888   -12020   -12019   -11988   -11908   -11778   -11653   -11560 
  -11545   -11614   -11731   -11916   -12109   -12244   -12420   -12653 
  -12796   -12808   -12734   -12546   -12276   -12016   -11819   -11784 
  -11931   -12087   -12191   -12236   -12112   -11882   -11731   -11604 
  -11373   -11153   -11140   -11291   -11426   -11527   -11755   -12177 
  -12615   -12845   -12808   -12667   -12615   -12592   -12449   -12320 
  -12345   -12420   -12475   -12532   -12564   -12509   -12337   -12164 
  -12074   -11970   -11793   -11583   -11412   -11381   -11496   -11678 
  -11831   -11866   -11861   -11935   -11975   -11824   -11630   -11624 
  -11770   -11900   -12035   -12233   -12383   -12337   -12127   -11873 
  -11600   -11299   -11068   -10997   -11044   -11156   -11346   -11626 
  -11874   -12010   -12163   -12370   -12475   -12455   -12414   -12378 
  -12333   -12322   -12337   -12253   -12009   -11753   -11659   -11701 
  -11674   -11535   -11458   -11488   -11500   -11508   -11611   -11754 
  -11844   -11898   -11878   -11728   -11534   -11387   -11334   -11433 
  -11605   -11703   -11730   -11823   -12102   -12492   -12703   -12571 
  -12225   -11890   -11674   -11565   -11572   -11734   -11928   -11989 
  -12006   -12172   -12432   -12546   -12496   -12465   -12420   -12245 
  -12094   -12086   -12093   -11993   -11867   -11828   -11830   -11908 
  -12194   -12479   -12498   -12420   -12422   -12364   -12213   -12046 
  -11819   -11542   -11311   -11179   -11191   -11346   -11537   -11630 
  -11649   -11719   -11827   -11843   -11745   -11612   -11510   -11472 
  -11499   -11600   -11769   -11896   -11894   -11873   -11973   -12144 
  -12283   -12437   -12648   -12779   -12748   -12633   -12402   -12006 
  -11573   -11244   -11034   -10940   -11032   -11341   -11732   -12069 
  -12337   -12492   -12420   -12148   -11894   -11803   -11774   -11719 
  -11740   -11877   -11967   -11885   -11658   -11365   -11088   -10932 
  -10917   -10991   -11152   -11421   -11753   -12104   -12428   -12606 
  -12553   -12367   -12191   -11967   -11605   -11307   -11313   -11484 
  -11566   -11529   -11492   -11583   -11727   -11777   -11830   -12001 
  -12249   -12526   -12730   -12742   -12626   -12552   -12486   -12248 
  -11871   -11566   -11375   -11233   -11182   -11250   -11327   -11360 
  -11477   -11736   -12024   -12266   -12479   -12640   -12663   -12563 
  -12406   -12152   -11882   -11772   -11765   -11686   -11507   -11326 
  -11286   -11402   -11527   -11611   -11774   -12008   -12175   -12285 
  -12353   -12262   -11990   -11695   -11507   -11448   -11492   -11553 
  -11546   -11503   -11477   -11465   -11466   -11587   -11902   -12258 
  -12438   -12401   -12283   -12235   -12205   -12036   -11745   -11503 
  -11369   -11230   -11065   -11034   -11207   -11479   -11789   -12150 
  -12488   -12684   -12703   -12619   -12511   -12375   -12214   -12127 
  -12128   -12085   -11928   -11743   -11685   -11801   -11948   -12008 
  -12085   -12282   -12515   -12679   -12746   -12749   -12739   -12671 
  -12441   -12132   -11907   -11815   -11863   -12010   -12131   -12178 
  -12185   -12243   -12471   -12818   -13059   -13068   -12934   -12808 
  -12704   -12588   -12445   -12182   -11863   -11681   -11580   -11491 
  -11535   -11659   -11790   -12071   -12515   -12926   -13219   -13350 
  -13220   -12881   -12494   -12124   -11778   -11495   -11330   -11276 
  -11292   -11345   -11376   -11434   -11632   -11955   -12347   -12737 
  -12928   -12845   -12668   -12536   -12445   -12336   -12082   -11727 
  -11460   -11242   -11006   -10908   -11007   -11241   -11612   -12101 
  -12514   -12673   -12634   -12565   -12526   -12484   -12411   -12318 
  -12201   -12043   -11885   -11765   -11707   -11699   -11703   -11767 
  -11932   -12073   -12135   -12279   -12541   -12711   -12665   -12471 
  -12267   -12128   -11983   -11786   -11685   -11754   -11862   -11983 
  -12210   -12432   -12479   -12305   -11970   -11685   -11529   -11360 
  -11223   -11210   -11182   -11128   -11171   -11272   -11364   -11479 
  -11605   -11650   -11507   -11348   -11431   -11557   -11503   -11551 
  -11911   -12339   -12568   -12609   -12599   -12560   -12397   -12102 
  -11763   -11426   -11090   -10833   -10701   -10638   -10727   -11076 
  -11448   -11547   -11491   -11520   -11607   -11650   -11724   -11927 
  -12159   -12262   -12197   -12005   -11790   -11685   -11718   -11846 
  -11983   -12025   -12032   -12139   -12309   -12344   -12174   -12033 
  -12104   -12160   -11947   -11605   -11406   -11325   -11249   -11261 
  -11395   -11516   -11595   -11693   -11784   -11828   -11931   -12174 
  -12432   -12519   -12468   -12426   -12449   -12476   -12430   -12334 
  -12253   -12167   -12055   -12002   -12104   -12297   -12447   -12522 
  -12517   -12417   -12318   -12329   -12414   -12571   -12852   -13112 
  -13181   -13097   -12946   -12784   -12661   -12510   -12241   -11902 
  -11674   -11693   -11830   -11917   -11996   -12042   -11948   -11772 
  -11603   -11437   -11241   -11026   -10902   -10935   -11060   -11182 
  -11253   -11314   -11414   -11538   -11674   -11796   -11869   -11974 
  -12170   -12382   -12564   -12665   -12641   -12546   -12367   -12062 
  -11772   -11647   -11650   -11654   -11599   -11534   -11543   -11628 
  -11767   -11931   -12050   -12097   -12093   -12074   -12071   -12054 
  -11981   -11857   -11772   -11821   -11888   -11850   -11838   -11880 
  -11882   -11932   -12031   -12054   -11996   -11900   -11817   -11867 
  -12055   -12224   -12282   -12276   -12293   -12415   -12618   -12745 
  -12715   -12559   -12355   -12216   -12152   -12100   -12052   -12012 
  -11965   -11950   -11958   -11907   -11786   -11615   -11367   -11121 
  -11007   -10997   -10997   -11056   -11268   -11568   -11782   -11823 
  -11785   -11844   -12002   -12074   -12019   -12006   -12140   -12344 
  -12492   -12530   -12501   -12441   -12360   -12280   -12214   -12162 
  -12106   -12000   -11808   -11610   -11553   -11676   -11871   -12050 
  -12143   -12127   -12064   -11969   -11792   -11612   -11569   -11646 
  -11704   -11665   -11541   -11415   -11372   -11346   -11200   -10955 
  -10818   -10945   -11229   -11456   -11585   -11664   -11642   -11561 
  -11573   -11674   -11776   -11817   -11688   -11407   -11178   -11106 
  -11184   -11349   -11529   -11689   -11780   -11767   -11695   -11674 
  -11758   -11866   -11927   -11913   -11777   -11589   -11465   -11331 
  -11117   -10945   -11011   -11298   -11450   -11340   -11310   -11546 
  -11840   -11969   -11865   -11637   -11487   -11503   -11618   -11697 
  -11676   -11634   -11711   -11878   -11973   -11977   -12050   -12248 
  -12463   -12582   -12582   -12537   -12521   -12514   -12513   -12496 
  -12405   -12272   -12156   -12050   -11971   -11923   -11862   -11781 
  -11774   -11885   -11970   -11989   -12046   -12069   -11966   -11846 
  -11794   -11758   -11715   -11730   -11804   -11831   -11805   -11848 
  -11967   -12027   -11979   -11939   -12024   -12151   -12190   -12222 
  -12321   -12418   -12507   -12613   -12622   -12501   -12407   -12430 
  -12449   -12356   -12239   -12237   -12330   -12426   -12550   -12717 
  -12884   -13069   -13259   -13355   -13305   -13153   -12976   -12826 
  -12719   -12631   -12486   -12237   -11974   -11820   -11730   -11538 
  -11252   -11018   -10912   -10914   -11040   -11314   -11632   -11862 
  -12033   -12209   -12371   -12475   -12465   -12340   -12199   -12135 
  -12113   -12048   -11946   -11859   -11792   -11712   -11603   -11534 
  -11588   -11681   -11762   -11952   -12263   -12502   -12559   -12553 
  -12631   -12731   -12687   -12479   -12271   -12145   -12047   -12010 
  -12056   -12033   -11882   -11696   -11489   -11263   -11074   -10972 
  -10994   -11024   -10871   -10624   -10485   -10434   -10396   -10346 
  -10247   -10200   -10331   -10562   -10764   -10940   -11167   -11477 
  -11799   -12035   -12166   -12205   -12166   -12150   -12294   -12591 
  -12887   -13046   -13076   -13009   -12853   -12715   -12664   -12560 
  -12366   -12229   -12182   -12097   -11970   -11882   -11828   -11821 
  -11859   -11826   -11722   -11685   -11701   -11631   -11461   -11313 
  -11240   -11180   -11164   -11322   -11591   -11803   -12006   -12290 
  -12591   -12853   -13049   -13162   -13231   -13266   -13203   -13020 
  -12818   -12672   -12568   -12537   -12538   -12374   -12077   -11900 
  -11846   -11790   -11750   -11739   -11716   -11685   -11678   -11670 
  -11568   -11395   -11281   -11196   -11053   -10943   -11011   -11272 
  -11618   -11902   -12116   -12341   -12529   -12590   -12564   -12469 
  -12307   -12155   -12017   -11804   -11499   -11225   -11137   -11207 
  -11203   -10993   -10729   -10617   -10632   -10702   -10867   -11114 
  -11394   -11692   -11908   -11963   -12006   -12178   -12395   -12557 
  -12641   -12692   -12841   -13030   -13055   -13000   -12987   -12904 
  -12775   -12721   -12684   -12590   -12471   -12334   -12168   -12058 
  -12037   -12029   -12055   -12179   -12307   -12318   -12278   -12314 
  -12349   -12266   -12194   -12271   -12414   -12515   -12592   -12685 
  -12757   -12773   -12789   -12876   -13018   -13111   -13059   -12889 
  -12636   -12266   -11840   -11511   -11268   -11017   -10864   -10980 
  -11226   -11346   -11358   -11395   -11438   -11385   -11331   -11461 
  -11666   -11780   -11854   -11904   -11848   -11685   -11488   -11360 
  -11344   -11415   -11569   -11784   -11955   -12033   -12090   -12155 
  -12167   -12094   -11985   -11902   -11819   -11692   -11596   -11545 
  -11484   -11470   -11564   -11693   -11799   -11897   -12002   -12050 
  -12021   -12013   -12031   -12031   -12062   -12113   -12124   -12159 
  -12276   -12401   -12444   -12345   -12158   -12035   -12010   -12032 
  -12097   -12137   -12042   -11854   -11739   -11731   -11716   -11651 
  -11588   -11568   -11615   -11716   -11869   -12069   -12198   -12222 
  -12274   -12360   -12425   -12514   -12594   -12552   -12390   -12212 
  -12081   -11979   -11921   -11948   -11969   -11885   -11782   -11718 
  -11610   -11434   -11227   -11005   -10851   -10813   -10766   -10671 
  -10700   -10885   -11106   -11369   -11681   -11977   -12290   -12640 
  -12928   -13066   -13027   -12900   -12837   -12841   -12792   -12644 
  -12402   -12101   -11793   -11502   -11263   -11106   -10978   -10864 
  -10845   -10908   -10967   -11029   -11114   -11184   -11236   -11290 
  -11342   -11387   -11441   -11558   -11732   -11857   -11913   -11986 
  -12059   -12036   -11920   -11836   -11873   -11967   -12004   -11966 
  -11971   -12043   -12091   -12139   -12217   -12247   -12159   -12005 
  -11911   -11911   -11921   -11916   -11920   -11884   -11790   -11723 
  -11724   -11789   -11924   -12094   -12274   -12482   -12660   -12744 
  -12815   -12910   -12939   -12889   -12789   -12623   -12411   -12244 
  -12166   -12097   -11977   -11882   -11862   -11875   -11880   -11844 
  -11781   -11703   -11576   -11415   -11295   -11249   -11260   -11300 
  -11321   -11333   -11411   -11468   -11404   -11342   -11358   -11383 
  -11372   -11298   -11202   -11219   -11362   -11557   -11803   -12051 
  -12232   -12397   -12561   -12671   -12760   -12826   -12829   -12812 
  -12780   -12675   -12545   -12469   -12430   -12370   -12262   -12128 
  -12019   -11950   -11884   -11835   -11850   -11848   -11769   -11718 
  -11772   -11896   -12091   -12340   -12542   -12657   -12730   -12765 
  -12777   -12818   -12862   -12901   -13005   -13123   -13173   -13208 
  -13242   -13225   -13150   -13062   -12969   -12792   -12528   -12267 
  -12042   -11873   -11769   -11630   -11408   -11217   -11076   -10871 
  -10602   -10426   -10403   -10362   -10145    -9865    -9697    -9621 
   -9601    -9679    -9850   -10057   -10246   -10409   -10606   -10878 
  -11186   -11516   -11882   -12266   -12690   -13109   -13378   -13470 
  -13483   -13482   -13479   -13431   -13327   -13250   -13230   -13238 
  -13239   -13154   -12964   -12775   -12646   -12517   -12310   -12087 
  -11969   -11924   -11867   -11803   -11743   -11740   -11834   -11932 
  -11998   -12112   -12224   -12235   -12206   -12224   -12247   -12241 
  -12266   -12353   -12420   -12398   -12401   -12521   -12636   -12627 
  -12517   -12380   -12275   -12167   -11973   -11704   -11437   -11182 
  -10952   -10797   -10723   -10683   -10620   -10574   -10660   -10797 
  -10840   -10887   -11021   -11172   -11329   -11461   -11515   -11524 
  -11527   -11554   -11689   -11885   -12010   -12062   -12127   -12251 
  -12356   -12371   -12401   -12529   -12634   -12618   -12560   -12534 
  -12515   -12528   -12594   -12622   -12550   -12424   -12312   -12248 
  -12220   -12220   -12213   -12151   -12077   -12010   -11908   -11820 
  -11815   -11897   -12077   -12286   -12445   -12595   -12792   -13022 
  -13228   -13377   -13441   -13383   -13221   -13024   -12761   -12418 
  -12105   -11866   -11659   -11484   -11369   -11402   -11566   -11668 
  -11678   -11685   -11669   -11688   -11757   -11731   -11550   -11303 
  -11144   -11113   -11119   -11119   -11060   -10883   -10673   -10543 
  -10527   -10573   -10635   -10779   -11007   -11206   -11337   -11415 
  -11458   -11515   -11624   -11736   -11782   -11800   -11815   -11757 
  -11632   -11506   -11365   -11173   -10980   -10922   -11013   -11121 
  -11210   -11329   -11495   -11736   -12042   -12316   -12464   -12467 
  -12402   -12359   -12378   -12445   -12510   -12546   -12555   -12494 
  -12340   -12143   -11952   -11794   -11672   -11580   -11507   -11402 
  -11261   -11175   -11172   -11183   -11153   -11130   -11203   -11335 
  -11427   -11502   -11631   -11786   -11889   -11969   -12090   -12205 
  -12268   -12351   -12472   -12577   -12631   -12613   -12572   -12573 
  -12557   -12459   -12336   -12213   -12054   -11877   -11703   -11526 
  -11399   -11306   -11172   -11049   -10990   -10979   -11047   -11184 
  -11327   -11506   -11732   -11912   -12025   -12120   -12190   -12256 
  -12382   -12557   -12742   -12901   -13028   -13157   -13250   -13221 
  -13050   -12784   -12492   -12267   -12097   -11866   -11591   -11387 
  -11229   -11094   -11048   -11099   -11175   -11256   -11392   -11585 
  -11766   -11931   -12116   -12290   -12395   -12420   -12380   -12270 
  -12083   -11836   -11576   -11387   -11283   -11221   -11191   -11165 
  -11125   -11149   -11272   -11392   -11421   -11376   -11296   -11188 
  -11084   -11022   -10975   -10920   -10883   -10883   -10918   -10982 
  -11084   -11242   -11425   -11603   -11761   -11875   -11940   -11988 
  -12051   -12132   -12237   -12391   -12540   -12622   -12694   -12812 
  -12954   -13095   -13225   -13331   -13385   -13344   -13224   -13097 
  -12993   -12924   -12893   -12889   -12957   -13077   -13146   -13207 
  -13331   -13396   -13331   -13246   -13159   -13023   -12897   -12852 
  -12810   -12690   -12544   -12413   -12264   -12113   -11989   -11880 
  -11832   -11855   -11844   -11804   -11819   -11826   -11754   -11680 
  -11661   -11635   -11576   -11535   -11516   -11502   -11550   -11674 
  -11793   -11927   -12096   -12251   -12384   -12434   -12368   -12325 
  -12339   -12316   -12271   -12202   -12040   -11813   -11628   -11510 
  -11402   -11331   -11319   -11272   -11169   -11106   -11142   -11182 
  -11113   -11020   -10974   -10898   -10833   -10868   -10918   -10879 
  -10839   -10922   -11049   -11088   -11083   -11103   -11138   -11205 
  -11315   -11384   -11350   -11296   -11277   -11267   -11283   -11338 
  -11415   -11539   -11704   -11875   -12067   -12301   -12540   -12719 
  -12860   -13031   -13207   -13285   -13228   -13099   -12964   -12810 
  -12636   -12519   -12448   -12324   -12167   -12071   -12000   -11894 
  -11807   -11788   -11826   -11889   -11954   -12032   -12144   -12280 
  -12398   -12461   -12475   -12448   -12371   -12268   -12170   -12052 
  -11920   -11813   -11726   -11619   -11492   -11396   -11352   -11349 
  -11421   -11585   -11799   -12002   -12158   -12262   -12337   -12382 
  -12399   -12417   -12417   -12370   -12289   -12181   -12048   -11902 
  -11751   -11641   -11601   -11585   -11531   -11456   -11404   -11404 
  -11414   -11375   -11307   -11254   -11225   -11209   -11190   -11178 
  -11180   -11159   -11107   -11078   -11086   -11110   -11137   -11132 
  -11084   -11098   -11261   -11523   -11776   -11947   -12046   -12137 
  -12235   -12328   -12444   -12590   -12723   -12808   -12834   -12823 
  -12812   -12847   -12945   -13031   -13047   -13011   -12950   -12870 
  -12784   -12715   -12679   -12665   -12641   -12586   -12518   -12476 
  -12488   -12529   -12548   -12557   -12591   -12623   -12637   -12649 
  -12627   -12514   -12363   -12237   -12120   -12035   -11988   -11938 
  -11921   -11942   -11905   -11820   -11789   -11842   -11943   -12031 
  -12062   -12078   -12116   -12156   -12208   -12262   -12255   -12177 
  -12085   -12042   -12036   -11975   -11826   -11651   -11506   -11395 
  -11294   -11165   -10989   -10820   -10733   -10714   -10708   -10712 
  -10714   -10704   -10705   -10723   -10774   -10878   -11001   -11119 
  -11253   -11430   -11657   -11911   -12158   -12360   -12484   -12548 
  -12588   -12607   -12602   -12596   -12611   -12658   -12710   -12731 
  -12757   -12819   -12857   -12825   -12775   -12772   -12776   -12717 
  -12604   -12464   -12330   -12222   -12096   -11913   -11735   -11622 
  -11562   -11506   -11449   -11453   -11519   -11599   -11692   -11821 
  -11966   -12083   -12152   -12178   -12155   -12075   -11990   -11961 
  -11936   -11843   -11730   -11676   -11681   -11734   -11842   -11970 
