Origin Time       2025/01/13 21:19:00
Lat.              31.8
Long.             131.6
Depth. (km)       30
Mag.              6.9
Station Code      HRS004
Station Lat.      34.7263
Station Long.     132.2773
Station Height(m) 583
Record Time       2025/01/13 21:21:12
Sampling Freq(Hz) 100Hz
Duration Time(s)  60
Dir.              E-W
Scale Factor      7845(gal)/8223790
Max. Acc. (gal)   1.324
Last Correction   2025/01/13 21:21:11
Memo.             
[...]
    3105     3253     3402     3504     3527     3457     3312     3153 
    3056     3071     3167     3277     3342     3319     3210     3102 
    3079     3140     3235     3299     3302     3292     3295     3294 
    3283     3252     3199     3146     3119     3145     3229     3345 
    3445     3503     3519     3503     3470     3429     3404     3420 
    3443     3445     3456     3515     3612     3690     3693     3620 
    3501     3341     3167     3052     3026     3086     3218     3350 
    3397     3373     3329     3267     3164     3049     2967     2957 
    3048     3191     3322     3438     3524     3537     3457     3303 
    3144     3072     3098     3180     3291     3392     3461     3503 
    3488     3406     3316     3269     3264     3272     3283     3319 
    3384     3446     3460     3406     3316     3237     3192     3169 
    3172     3227     3310     3346     3295     3169     3009     2890 
    2872     2944     3080     3262     3414     3496     3523     3481 
    3366     3253     3202     3199     3226     3326     3505     3674 
    3747     3717     3604     3462     3381     3383     3422     3470 
    3516     3584     3678     3753     3750     3631     3438     3271 
    3188     3215     3349     3514     3626     3634     3507     3279 
    3059     2921     2898     3014     3210     3391     3549     3661 
    3662     3559     3399     3211     3057     3006     3068     3218 
    3388     3530     3620     3618     3519     3379     3257     3202 
    3200     3208     3204     3172     3148     3191     3289     3407 
    3511     3580     3613     3600     3537     3500     3564     3672 
    3736     3742     3689     3558     3352     3132     2980     2934 
    2988     3122     3289     3392     3372     3284     3198     3148 
    3156     3183     3200     3253     3331     3357     3331     3329 
    3361     3412     3470     3484     3438     3372     3304     3264 
    3294     3383     3454     3462     3412     3307     3165     3042 
    3022     3156     3384     3589     3723     3777     3709     3504 
    3229     3009     2959     3080     3271     3438     3538     3542 
    3450     3291     3172     3196     3354     3562     3738     3848 
    3856     3696     3411     3127     2918     2809     2829     2982 
    3190     3348     3411     3396     3331     3242     3154     3105 
    3118     3200     3353     3538     3694     3774     3748     3624 
    3451     3285     3169     3140     3196     3323     3510     3696 
    3796     3754     3578     3339     3110     2949     2938     3102 
    3338     3511     3570     3515     3377     3226     3113     3059 
    3080     3157     3268     3403     3527     3581     3538     3423 
    3271     3126     3028     2974     2984     3078     3208     3303 
    3342     3339     3279     3153     3019     2957     2987     3079 
    3214     3358     3460     3497     3433     3277     3142     3098 
    3130     3245     3447     3688     3846     3825     3632     3354 
    3113     3017     3078     3196     3291     3334     3302     3172 
    2994     2868     2860     2949     3086     3231     3353     3404 
    3362     3256     3132     3030     2987     3007     3090     3234 
    3387     3464     3420     3316     3235     3179     3134     3121 
    3159     3245     3357     3442     3439     3335     3207     3129 
    3098     3106     3177     3315     3468     3577     3601     3543 
    3451     3383     3346     3308     3291     3329     3350     3287 
    3167     3073     3072     3118     3140     3161     3233     3341 
    3456     3553     3609     3627     3593     3469     3287     3132 
    3042     3034     3129     3299     3481     3624     3693     3688 
    3623     3511     3400     3358     3393     3477     3577     3649 
    3643     3532     3373     3246     3168     3123     3109     3117 
    3157     3253     3403     3561     3645     3589     3420     3215 
    3041     2960     3003     3134     3319     3492     3559     3555 
    3601     3701     3746     3693     3595     3481     3345     3188 
    3041     2941     2916     2970     3092     3275     3495     3708 
    3883     3986     3970     3802     3542     3342     3308     3430 
    3640     3847     3991     4045     3948     3674     3314     3005 
    2848     2884     3084     3388     3732     4005     4078     3925 
    3632     3285     2982     2870     2994     3260     3564     3802 
    3879     3765     3492     3148     2836     2644     2644     2824 
    3092     3354     3532     3578     3474     3230     2913     2674 
    2639     2822     3169     3577     3917     4094     4047     3780 
    3404     3068     2855     2799     2901     3126     3407     3627 
    3666     3524     3316     3125     2972     2895     2922     3042 
    3183     3275     3314     3322     3304     3246     3138     3025 
    2988     3040     3106     3160     3171     3117     3064     3080 
    3136     3190     3237     3253     3207     3118     3017     2906 
    2817     2826     2943     3076     3172     3218     3200     3088 
    2862     2616     2516     2620     2903     3289     3618     3762 
    3720     3543     3296     3072     2963     2986     3095     3230 
    3342     3423     3480     3507     3514     3492     3415     3322 
    3285     3292     3295     3311     3358     3419     3491     3581 
    3692     3785     3796     3693     3518     3353     3289     3376 
    3573     3743     3773     3665     3485     3289     3125     3073 
    3191     3435     3681     3827     3839     3707     3461     3203 
    3024     2951     3003     3207     3515     3797     3948     3935 
    3786     3577     3362     3203     3192     3329     3488     3597 
    3659     3654     3568     3443     3337     3299     3376     3558 
    3774     3877     3794     3608     3383     3123     2909     2845 
    2961     3200     3476     3672     3694     3549     3319     3080 
    2866     2732     2762     2947     3157     3260     3229     3121 
    2978     2826     2749     2802     2944     3086     3148     3091 
    2947     2771     2594     2452     2434     2610     2926     3214 
    3388     3480     3497     3400     3208     3021     2943     3018 
    3210     3429     3628     3746     3684     3441     3103     2760 
    2521     2486     2643     2920     3217     3427     3501     3447 
    3281     3069     2890     2775     2744     2799     2956     3218 
    3523     3778     3858     3689     3369     3051     2801     2681 
    2767     3019     3281     3424     3433     3362     3246     3098 
    2964     2897     2913     3029     3233     3456     3604     3613 
    3450     3146     2851     2705     2712     2809     2986     3237 
    3481     3607     3574     3450     3314     3175     3025     2882 
    2812     2894     3095     3296     3460     3584     3582     3422 
    3211     3055     2986     3033     3159     3275     3316     3253 
    3173     3180     3233     3248     3226     3222     3280     3372 
    3430     3435     3395     3319     3246     3215     3257     3381 
    3512     3577     3600     3603     3566     3504     3458     3449 
    3477     3555     3678     3794     3843     3824     3778     3713 
    3662     3717     3881     4033     4091     4047     3917     3785 
    3757     3835     3958     4085     4185     4239     4225     4099 
    3882     3678     3557     3512     3535     3623     3757     3879 
    3897     3767     3588     3439     3323     3264     3283     3342 
    3418     3485     3507     3495     3461     3381     3292     3250 
    3242     3269     3356     3491     3643     3773     3821     3754 
    3613     3464     3323     3225     3245     3420     3703     3943 
    4005     3883     3655     3406     3218     3145     3184     3330 
    3543     3703     3740     3680     3576     3532     3634     3808 
    3936     4005     4028     3964     3825     3688     3585     3531 
    3549     3640     3771     3871     3867     3774     3684     3622 
    3547     3483     3468     3497     3541     3566     3577     3582 
    3574     3531     3443     3323     3177     3040     2990     3032 
    3094     3136     3165     3188     3159     3042     2906     2826 
    2824     2880     2947     2974     2971     2965     2984     3044 
    3126     3214     3283     3280     3207     3125     3079     3072 
    3087     3132     3207     3276     3298     3257     3179     3091 
    2997     2948     3010     3144     3250     3302     3321     3295 
    3218     3132     3118     3208     3312     3343     3319     3267 
    3200     3146     3122     3133     3183     3299     3484     3662 
    3744     3735     3682     3595     3510     3435     3314     3207 
    3242     3387     3507     3576     3638     3655     3573     3414 
    3214     3024     2929     2971     3114     3316     3518     3612 
    3551     3365     3136     2965     2903     2936     3040     3187 
    3357     3514     3577     3504     3314     3037     2740     2502 
    2411     2521     2776     3068     3304     3383     3264     3034 
    2779     2570     2502     2592     2795     3052     3288     3449 
    3501     3478     3441     3375     3303     3361     3584     3867 
    4098     4233     4299     4307     4207     3986     3762     3676 
    3716     3773     3827     3928     4062     4163     4182     4091 
    3904     3649     3385     3242     3310     3523     3751     3917 
    4005     3991     3844     3615     3419     3314     3284     3331 
    3420     3474     3468     3435     3376     3281     3227     3241 
    3271     3303     3348     3400     3439     3388     3254     3145 
    3084     3049     3048     3068     3087     3109     3127     3134 
    3149     3168     3141     3072     2995     2924     2884     2894 
    2934     3005     3096     3123     3006     2789     2577     2452 
    2430     2469     2579     2759     2918     2979     2921     2791 
    2678     2610     2574     2598     2710     2832     2895     2911 
    2880     2794     2675     2573     2551     2646     2830     3021 
    3134     3157     3127     3100     3102     3123     3175     3261 
    3350     3357     3240     3096     3030     3019     3007     2992 
    3028     3129     3213     3223     3237     3296     3338     3308 
    3229     3148     3080     3032     3006     3014     3080     3169 
    3225     3268     3303     3273     3229     3268     3380     3489 
    3569     3626     3611     3473     3262     3052     2916     2964 
    3217     3535     3775     3888     3886     3788     3593     3362 
    3249     3331     3541     3778     3981     4124     4197     4162 
    4029     3892     3840     3867     3902     3923     3940     3936 
    3924     3919     3892     3850     3827     3765     3628     3485 
    3384     3319     3292     3302     3348     3408     3423     3375 
    3322     3291     3248     3191     3105     2987     2920     2899 
    2845     2805     2864     2980     3052     3030     2943     2860 
    2809     2763     2737     2733     2704     2648     2582     2494 
    2401     2351     2361     2371     2328     2249     2228     2351 
    2554     2689     2732     2762     2775     2737     2716     2786 
    2899     2961     2948     2898     2845     2776     2702     2686 
    2763     2883     2995     3078     3099     3048     2932     2760 
    2601     2544     2633     2826     3036     3226     3376     3420 
    3354     3241     3132     3107     3214     3404     3591     3723 
    3773     3735     3663     3607     3581     3593     3616     3607 
    3561     3492     3408     3354     3358     3397     3450     3500 
    3508     3461     3370     3256     3149     3102     3156     3252 
    3289     3262     3200     3103     3006     2978     3036     3146 
    3281     3397     3441     3391     3262     3100     2978     2974 
    3115     3331     3532     3665     3716     3711     3662     3578 
    3522     3551     3607     3636     3686     3778     3844     3846 
    3807     3769     3707     3591     3468     3406     3438     3553 
    3689     3800     3871     3885     3851     3792     3708     3624 
    3564     3505     3441     3395     3391     3438     3508     3546 
    3524     3470     3415     3369     3341     3339     3353     3366 
    3389     3431     3478     3503     3501     3478     3427     3345 
    3244     3160     3152     3235     3369     3499     3577     3576 
    3503     3384     3246     3141     3103     3125     3208     3357 
    3520     3654     3734     3731     3642     3535     3487     3546 
    3739     4029     4318     4514     4571     4514     4409     4314 
    4261     4260     4306     4374     4450     4519     4561     4558 
    4519     4459     4374     4279     4247     4297     4364     4415 
    4455     4460     4407     4306     4195     4106     4050     4014 
    3986     3964     3962     3975     3971     3915     3813     3690 
    3561     3435     3314     3229     3206     3191     3172     3196 
    3245     3249     3221     3199     3196     3213     3227     3252 
    3329     3458     3582     3653     3678     3672     3608     3527 
    3465     3384     3292     3256     3285     3345     3373     3294 
    3083     2806     2529     2308     2220     2290     2450     2612 
    2700     2635     2438     2218     2038     1929     1929     2014 
    2135     2265     2367     2420     2420     2380     2335     2317 
    2322     2355     2439     2523     2555     2547     2523     2501 
    2494     2479     2438     2403     2412     2444     2469     2486 
    2505     2516     2497     2447     2392     2339     2299     2296 
    2336     2380     2380     2350     2332     2315     2290     2311 
    2386     2473     2540     2574     2586     2612     2628     2623 
    2631     2637     2640     2652     2637     2578     2490     2390 
    2328     2339     2393     2466     2569     2714     2867     2953 
    2953     2909     2852     2793     2729     2673     2667     2739 
    2841     2916     2949     2956     2945     2918     2889     2874 
    2893     2963     3067     3184     3302     3395     3450     3472 
    3464     3453     3465     3504     3574     3672     3759     3808 
    3815     3801     3793     3770     3736     3727     3732     3747 
    3800     3898     4010     4089     4128     4168     4226     4286 
    4332     4340     4313     4279     4234     4175     4139     4122 
    4064     3971     3904     3881     3897     3943     3977     3977 
    3964     3944     3894     3842     3812     3777     3743     3780 
    3893     4008     4104     4203     4287     4332     4347     4357 
    4380     4419     4476     4540     4591     4614     4583     4503 
    4425     4371     4313     4261     4261     4311     4376     4429 
    4423     4341     4216     4063     3882     3716     3632     3619 
    3619     3613     3601     3570     3535     3523     3549     3580 
    3564     3516     3493     3492     3468     3412     3352     3314 
    3284     3218     3150     3163     3250     3339     3369     3346 
    3306     3267     3226     3203     3226     3272     3295     3314 
    3345     3345     3289     3219     3171     3133     3072     2994 
    2921     2844     2741     2609     2466     2355     2293     2234 
    2154     2080     2034     2004     1979     1975     1993     1993 
    1999     2079     2189     2263     2334     2424     2517     2594 
    2646     2689     2755     2828     2872     2890     2925     3013 
    3111     3145     3117     3100     3125     3148     3173     3260 
    3391     3493     3543     3561     3568     3568     3576     3618 
    3684     3747     3774     3730     3623     3508     3426     3376 
    3362     3380     3385     3345     3264     3161     3048     2951 
    2907     2926     2995     3100     3202     3244     3206     3126 
    3076     3114     3244     3427     3620     3780     3861     3844 
    3762     3667     3607     3595     3626     3677     3723     3759 
    3778     3780     3767     3750     3717     3651     3558     3468 
    3406     3375     3362     3380     3431     3469     3453     3384 
    3285     3200     3168     3192     3256     3348     3457     3541 
    3565     3527     3445     3350     3284     3273     3287     3298 
    3315     3338     3365     3418     3515     3661     3831     3997 
    4116     4129     4045     3928     3825     3782     3811     3866 
    3906     3917     3869     3753     3585     3407     3271     3169 
    3064     2964     2902     2882     2878     2868     2857     2844 
    2840     2851     2857     2857     2852     2841     2843     2894 
    2999     3140     3279     3391     3480     3551     3582     3577 
    3557     3530     3501     3465     3415     3366     3331     3312 
    3311     3341     3380     3372     3292     3168     3049     2974 
    2940     2936     2960     2995     3006     2994     2980     2983 
    3015     3068     3095     3064     2998     2945     2905     2849 
    2772     2714     2716     2762     2821     2890     2948     2963 
    2938     2887     2836     2826     2867     2930     2974     2967 
    2933     2893     2852     2847     2890     2960     3042     3098 
    3086     3028     2968     2917     2889     2913     2997     3110 
    3218     3312     3360     3343     3307     3295     3308     3354 
    3449     3580     3707     3788     3809     3808     3804     3805 
    3823     3871     3964     4089     4207     4291     4315     4260 
    4120     3937     3758     3608     3514     3474     3481     3545 
    3611     3611     3558     3481     3399     3356     3368     3407 
    3472     3572     3672     3720     3721     3721     3742     3767 
    3813     3873     3904     3900     3873     3817     3763     3748 
    3759     3761     3742     3716     3686     3643     3586     3538 
    3516     3514     3504     3478     3464     3473     3480     3476 
    3480     3501     3537     3568     3578     3549     3477     3388 
    3296     3199     3106     3041     2994     2910     2774     2610 
    2424     2234     2093     2035     2060     2153     2259     2313 
    2304     2266     2243     2255     2303     2390     2539     2741 
    2952     3126     3246     3298     3271     3203     3134     3096 
    3122     3214     3352     3487     3577     3620     3622     3588 
    3550     3523     3522     3572     3696     3873     4055     4195 
    4271     4278     4221     4131     4048     4002     4020     4091 
    4190     4283     4324     4305     4241     4128     3975     3812 
    3693     3676     3732     3790     3815     3792     3711     3591 
    3438     3288     3218     3240     3306     3383     3426     3407 
    3337     3248     3152     3045     2960     2907     2886     2911 
    2955     2967     2955     2938     2926     2920     2911     2913 
    2937     2971     2983     2987     3014     3057     3073     3037 
    2961     2878     2801     2740     2720     2733     2739     2721 
    2683     2621     2556     2504     2455     2424     2440     2509 
