Origin Time       2025/01/13 21:19:00
Lat.              31.8
Long.             131.6
Depth. (km)       30
Mag.              6.9
Station Code      HRS020
Station Lat.      34.2936
Station Long.     133.1776
Station Height(m) 17
Record Time       2025/01/13 21:21:01
Sampling Freq(Hz) 100Hz
Duration Time(s)  63
Dir.              E-W
Scale Factor      7845(gal)/8223790
Max. Acc. (gal)   2.287
Last Correction   2025/01/13 21:21:01
Memo.             
[...]
     459      450      419      376      436      565      630      629 
     629      600      526      479      486      518      562      649 
     781      831      745      729      895     1048     1081     1116 
    1193     1201     1089      888      658      503      477      498 
     449      295      137      159      334      456      540      700 
     762      599      422      375      413      510      622      677 
     726      868     1048     1134     1131     1155     1197     1182 
    1144     1120     1073     1019     1031     1082     1094     1062 
     967      729      349       -1     -201     -271     -241     -145 
     -74      -43        2       83      210      352      454      527 
     614      695      722      704      693      685      699      796 
     884      772      475      159     -101     -267     -274     -153 
      36      332      704     1050     1341     1615     1872     2010 
    1950     1829     1772     1660     1416     1177     1044     1035 
    1144     1213     1105      962      919      888      791      652 
     492      352      261      184       97       39        9      -44 
    -137     -236     -252     -136       76      373      745     1084 
    1302     1420     1494     1559     1607     1640     1636     1532 
    1352     1167      955      680      407      218       93        5 
      81      364      638      772      869      926      857      734 
     623      461      305      297      360      346      271      156 
     -20     -182     -225     -116      114      361      506      553 
     589      691      853      963      945      868      857      919 
     940      847      688      565      554      650      745      777 
     846      989     1073     1074     1132     1254     1323     1298 
    1213     1102     1013      988      986      901      714      490 
     247        9     -126     -130      -83      -40       32      151 
     291      452      638      816      993     1178     1274     1232 
    1150     1057      882      638      463      468      568      603 
     607      684      858     1090     1233     1125      834      526 
     245       -6     -195     -309     -318     -237     -149      -43 
     136      336      553      842     1156     1406     1532     1468 
    1266     1101     1067     1119     1175     1178     1166     1169 
    1109      997      896      761      604      545      589      665 
     734      776      760      664      518      372      236      105 
      74      233      506      734      824      778      642      445 
     206       -2     -109      -95       17      232      525      778 
     905      961     1030     1127     1231     1313     1354     1360 
    1336     1281     1188     1063      942      866      822      778 
     696      491      198      -44     -216     -315     -261     -129 
    -105     -199     -292     -318     -257     -124       45      251 
     515      804     1032     1192     1321     1405     1444     1468 
    1393     1156      915      807      743      724      859      982 
     866      625      427      244       64      -32        6      167 
     321      349      286      174       16      -79      -48      -25 
     -79      -86       16      163      314      495      693      865 
     973     1050     1165     1321     1468     1579     1624     1591 
    1517     1382     1144      897      787      749      619      410 
     257      194      182      249      417      599      729      830 
     877      799      643      526      460      392      333      351 
     414      418      433      571      735      796      799      820 
     826      781      710      625      533      468      430      363 
     298      340      456      498      475      467      444      440 
     573      812     1012     1128     1152     1065      963      970 
    1026     1058     1100     1047      820      658      645      564 
     427      333      194       27      -81     -164     -257     -302 
    -201       20      171      183      197      314      513      764 
     982     1038      996     1040     1156     1242     1325     1448 
    1591     1692     1729     1772     1798     1696     1547     1433 
    1296     1166     1109     1036      893      758      664      607 
     653      773      861      950     1117     1282     1325     1263 
    1156     1062     1031     1085     1216     1356     1422     1436 
    1428     1372     1321     1345     1420     1464     1413     1327 
    1325     1354     1246     1034      870      766      707      758 
     823      708      507      437      490      585      708      810 
     826      783      750      733      706      731      878     1124 
    1354     1435     1328     1120      935      816      772      810 
     881      926      949      950      935      939      915      788 
     626      538      499      413      251       13     -280     -507 
    -554     -510     -526     -558     -444     -156      174      467 
     734      977     1190     1408     1595     1647     1560     1460 
    1402     1314     1189     1119     1112     1096     1105     1166 
    1181     1134     1057      881      668      580      568      508 
     419      346      283      237      182       31     -238     -488 
    -540     -372     -148       13      178      400      581      648 
     693      761      797      805      823      839      841      843 
     869      885      870      870      915      985     1038     1053 
    1054     1020      932      850      788      712      641      596 
     564      542      583      723      878      951      970      984 
     954      865      807      831      876      909      935      885 
     783      792      907      989     1074     1228     1386     1539 
    1669     1682     1644     1669     1663     1579     1532     1524 
    1456     1309     1121      963      908      950     1031     1094 
    1050      924      858      812      683      569      545      517 
     454      425      504      707      923     1102     1317     1482 
    1451     1298     1127      994      945      924      893      862 
     758      587      469      394      278      152       22     -191 
    -473     -710     -826     -843     -800     -691     -542     -379 
    -182       27      190      319      483      689      876      992 
    1028      954      738      426      116     -101     -175     -156 
    -128     -136     -218     -342     -430     -472     -459     -368 
    -267     -276     -423     -580     -638     -642     -650     -646 
    -619     -579     -548     -568     -608     -638     -676     -664 
    -553     -415     -291     -162      -17      172      387      554 
     639      625      548      488      465      457      446      419 
     403      386      282      121       28       14       59      162 
     194       62     -110     -214     -263     -280     -274     -282 
    -321     -355     -325     -234     -143      -81      -27       64 
     244      473      622      679      795     1001     1161     1223 
    1278     1360     1375     1287     1189     1152     1138     1061 
     891      669      475      346      249      191      182      193 
     270      440      626      781      924     1038     1074      996 
     838      679      591      615      746      928     1069     1113 
    1075      999      923      911     1003     1147     1264     1321 
    1298     1196     1061      888      614      286       75       35 
      45       43       81      184      294      380      475      589 
     719      873     1039     1175     1291     1429     1559     1630 
    1699     1823     1946     2007     2038     2053     2020     1954 
    1883     1842     1865     1931     2012     2101     2137     2080 
    1980     1830     1593     1336     1119      927      770      654 
     580      533      432      228        4     -130     -136      -16 
     184      394      603      832     1015     1058     1023     1020 
    1113     1323     1578     1773     1904     1985     2006     1999 
    1996     2000     2027     2043     1989     1876     1733     1548 
    1313     1013      635      268       39      -82     -198     -306 
    -369     -373     -301     -189      -93       39      286      591 
     851     1053     1182     1177     1016      792      622      573 
     627      680      657      565      453      368      301      247 
     255      310      360      410      433      402      337      238 
     128       79      105      110       35      -90     -210     -265 
    -218     -113        2      141      279      367      403      402 
     414      513      662      720      658      606      611      604 
     621      757     1000     1263     1468     1532     1466     1377 
    1336     1339     1325     1267     1223     1188     1065      865 
     673      517      402      329      268      220      202      216 
     278      411      588      770      984     1251     1522     1752 
    1933     2045     2054     1965     1780     1514     1233     1007 
     835      669      468      230      -35     -305     -523     -660 
    -757     -839     -866     -834     -773     -639     -425     -245 
    -140      -58      -35      -87      -91       36      261      558 
     900     1213     1475     1694     1849     1957     2034     2083 
    2143     2185     2081     1845     1584     1286      924      580 
     313      105      -59     -201     -338     -445     -517     -610 
    -699     -706     -634     -522     -365     -162       52      233 
     380      529      697      893     1107     1318     1483     1584 
    1676     1779     1860     1960     2122     2238     2209     2118 
    2042     1925     1742     1567     1462     1433     1404     1320 
    1224     1101      877      619      446      314      151       14 
     -60     -113     -121      -44       71      117       71       28 
      54       93       93       74       49      -17     -122     -255 
    -418     -548     -596     -648     -773     -922    -1005    -1043 
   -1116    -1202    -1240    -1232    -1197    -1143    -1089    -1046 
   -1007    -1005    -1053    -1102    -1104    -1031     -908     -772 
    -623     -471     -346     -259     -186     -113      -28       56 
     117      156      126      -43     -314     -585     -795     -911 
    -934     -882     -749     -513     -203       97      326      503 
     665      826     1001     1215     1443     1628     1760     1854 
    1915     1993     2147     2332     2470     2562     2651     2710 
    2693     2628     2577     2560     2559     2563     2596     2617 
    2558     2458     2380     2304     2201     2073     1921     1776 
    1676     1624     1611     1617     1593     1536     1467     1389 
    1332     1294     1242     1213     1248     1321     1399     1464 
    1485     1464     1443     1429     1377     1256     1125     1027 
     920      778      643      540      456      427      483      585 
     675      702      607      418      252      147       56      -44 
    -147     -238     -302     -344     -353     -302     -225     -213 
    -276     -353     -387     -337     -237     -139      -12      151 
     290      409      526      638      751      868      967     1003 
     951      880      847      830      819      838      866      831 
     677      422      139      -83     -171     -133      -45       14 
      32       28        5      -45      -85      -74      -10       87 
     180      271      417      623      828      999     1105     1159 
    1204     1181     1024      791      548      313      139       74 
      79      106      171      260      337      442      614      807 
     977     1097     1174     1231     1286     1362     1482     1617 
    1721     1792     1871     1948     1985     1971     1899     1783 
    1672     1611     1607     1652     1686     1667     1597     1462 
    1264     1061      862      649      465      337      184       -6 
    -172     -334     -517     -656     -731     -741     -666     -535 
    -364     -136      116      367      648      934     1154     1325 
    1470     1530     1543     1617     1713     1706     1621     1524 
    1409     1278     1152     1011      835      656      492      325 
     153        2     -109     -164     -167     -152     -140      -99 
     -28       56      159      305      471      629      761      855 
     923      967     1012     1108     1233     1306     1309     1275 
    1225     1174     1128     1112     1117     1089     1030      982 
     920      832      793      819      837      815      784      766 
     778      797      774      729      716      715      697      688 
     722      816      961     1081     1132     1142     1115     1054 
    1001      946      872      855      899      908      862      811 
     756      683      583      480      445      496      562      612 
     675      737      764      766      768      781      819      893 
     974     1005      976      908      837      793      769      777 
     842      912      961     1062     1237     1413     1552     1694 
    1813     1837     1803     1798     1811     1813     1798     1732 
    1595     1394     1108      762      472      263       48     -213 
    -508     -845    -1183    -1444    -1617    -1729    -1733    -1610 
   -1433    -1274    -1134     -978     -803     -608     -353      -37 
     257      490      668      807      918     1007     1054     1031 
     911      708      502      369      329      372      471      581 
     689      749      722      643      561      491      432      361 
     280      221      206      253      372      542      735      972 
    1252     1506     1699     1883     2045     2101     2035     1918 
    1806     1707     1636     1563     1426     1252     1105      958 
     801      679      565      461      414      378      292      189 
      95       -4      -99     -148     -129      -36      120      309 
     504      679      804      857      803      656      467      256 
      24     -187     -322     -406     -484     -519     -476     -399 
    -319     -233     -182     -184     -175     -155     -195     -259 
    -256     -201     -120      -13       93      191      310      442 
     571      696      812      922     1040     1152     1206     1204 
    1159     1078      989      919      835      715      614      552 
     459      334      245      190      162      172      174      145 
     136      171      221      271      341      434      527      619 
     704      770      850      976     1113     1220     1305     1381 
    1448     1499     1507     1466     1421     1401     1382     1332 
    1225     1086      967      877      797      770      820      896 
     977     1035     1012      926      834      746      676      630 
     575      517      527      611      708      805      916     1012 
    1080     1142     1182     1175     1155     1146     1111     1004 
     837      649      477      334      228      156      117      125 
     189      256      271      267      294      315      294      253 
     211      166      140      140      139      180      319      492 
     610      654      630      562      496      465      499      583 
     654      688      738      839      950     1028     1085     1128 
    1170     1260     1416     1566     1665     1744     1802     1772 
    1610     1363     1120      911      722      577      475      357 
     248      191      130       29      -45      -76      -98     -121 
    -126      -72       55      220      399      579      727      835 
     928     1035     1166     1318     1483     1632     1733     1768 
    1748     1696     1630     1559     1485     1395     1283     1173 
    1089     1034      970      866      780      765      768      735 
     681      622      579      564      549      552      612      689 
     720      723      737      756      764      780      830      907 
     996     1063     1063     1011      957      907      832      737 
     626      498      375      286      245      263      301      302 
     259      195      116       40       -6      -18        5       56 
     103       97       24      -60     -122     -198     -310     -430 
    -511     -533     -513     -475     -415     -346     -271     -171 
     -43       86      211      356      525      679      784      838 
     827      753      652      538      422      338      310      314 
     318      338      419      554      710      893     1119     1359 
    1566     1702     1786     1834     1819     1736     1605     1429 
    1225     1038      874      741      670      661      652      623 
     606      604      614      621      607      581      561      527 
     483      453      441      432      392      318      253      228 
     228      247      265      268      280      311      341      365 
     384      390      367      324      302      317      349      406 
     484      531      537      542      558      584      637      695 
     743      823      951     1080     1171     1220     1224     1219 
    1233     1247     1243     1215     1139     1030      927      814 
     665      526      436      386      380      409      440      475 
     535      611      689      765      822      858      891      924 
     936      903      849      812      807      837      911      994 
    1044     1059     1040      980      886      754      573      367 
     151      -63     -245     -411     -614     -839    -1036    -1185 
   -1270    -1270    -1170     -954     -673     -403     -152       75 
     256      425      623      796      903      976     1046     1124 
    1193     1232     1273     1310     1305     1269     1233     1181 
    1121     1096     1105     1120     1131     1116     1058      977 
     907      851      797      750      735      738      726      707 
     724      795      907     1053     1197     1294     1350     1406 
    1479     1545     1571     1541     1495     1468     1462     1463 
    1466     1451     1405     1341     1279     1212     1155     1134 
    1139     1156     1183     1200     1173     1105     1031      962 
     885      795      702      622      542      450      378      338 
     333      382      472      557      621      704      812      905 
     958      993     1034     1074     1104     1113     1090     1027 
     930      818      708      614      538      476      426      414 
     444      492      540      581      608      615      619      631 
     637      619      585      531      437      307      153      -20 
    -163     -234     -267     -292     -306     -318     -337     -342 
    -319     -282     -243     -203     -151      -81      -10       54 
     108      151      189      240      309      388      491      608 
     708      808      923     1008     1078     1163     1219     1229 
    1250     1270     1237     1155     1055      934      773      580 
     386      211       71        5       32      105      197      317 
