Origin Time       2025/01/13 21:19:00
Lat.              31.8
Long.             131.6
Depth. (km)       30
Mag.              6.9
Station Code      HRS008
Station Lat.      34.6029
Station Long.     132.7201
Station Height(m) 207
Record Time       2025/01/13 21:20:39
Sampling Freq(Hz) 100Hz
Duration Time(s)  101
Dir.              E-W
Scale Factor      7845(gal)/8223790
Max. Acc. (gal)   3.401
Last Correction   2025/01/13 21:20:39
Memo.             
[...]
   -2458    -2469    -2477    -2451    -2366    -2270    -2218    -2220 
   -2316    -2482    -2600    -2647    -2716    -2789    -2789    -2786 
   -2886    -3028    -3083    -2998    -2759    -2447    -2297    -2378 
   -2444    -2342    -2192    -2126    -2124    -2130    -2195    -2328 
   -2358    -2145    -1715    -1236     -982    -1090    -1367    -1571 
   -1638    -1628    -1638    -1761    -2011    -2301    -2490    -2511 
   -2443    -2400    -2419    -2448    -2420    -2331    -2257    -2245 
   -2332    -2563    -2845    -2980    -2926    -2802    -2725    -2735 
   -2718    -2563    -2336    -2153    -2033    -1980    -1985    -2026 
   -2122    -2196    -2103    -1863    -1620    -1529    -1661    -1902 
   -2107    -2295    -2479    -2538    -2384    -2057    -1679    -1453 
   -1526    -1860    -2324    -2760    -3037    -3176    -3215    -3132 
   -2944    -2631    -2173    -1719    -1453    -1431    -1605    -1856 
   -2087    -2289    -2446    -2502    -2479    -2428    -2346    -2230 
   -2127    -2050    -2039    -2154    -2284    -2293    -2274    -2363 
   -2548    -2799    -3171    -3616    -3964    -4140    -4105    -3774 
   -3171    -2398    -1609    -1042     -820     -791     -814     -966 
   -1277    -1582    -1750    -1767    -1709    -1718    -1867    -2073 
   -2234    -2280    -2216    -2182    -2293    -2461    -2616    -2814 
   -3046    -3192    -3146    -2956    -2826    -2907    -3099    -3199 
   -3132    -2898    -2559    -2286    -2184    -2170    -2162    -2138 
   -2062    -1976    -2011    -2193    -2365    -2308    -1915    -1320 
    -778     -476     -522     -849    -1179    -1413    -1707    -2120 
   -2604    -3119    -3546    -3724    -3616    -3307    -2984    -2752 
   -2551    -2411    -2424    -2501    -2506    -2428    -2342    -2336 
   -2367    -2313    -2268    -2332    -2403    -2432    -2458    -2451 
   -2447    -2451    -2330    -2085    -1861    -1710    -1625    -1516 
   -1328    -1260    -1482    -1881    -2328    -2662    -2683    -2524 
   -2500    -2666    -2899    -3071    -3067    -2857    -2486    -2107 
   -1934    -1992    -2111    -2173    -2165    -2176    -2355    -2636 
   -2733    -2570    -2330    -2189    -2247    -2500    -2809    -2982 
   -2821    -2270    -1566    -1023     -814     -908    -1078    -1116 
   -1036    -1017    -1240    -1729    -2355    -2918    -3194    -3073 
   -2685    -2347    -2371    -2721    -3049    -3113    -2879    -2446 
   -2064    -1954    -2181    -2720    -3376    -3800    -3804    -3500 
   -3095    -2776    -2610    -2457    -2228    -2008    -1811    -1614 
   -1539    -1699    -2023    -2261    -2212    -1926    -1544    -1197 
   -1075    -1170    -1285    -1435    -1682    -1896    -2034    -2110 
   -2073    -2065    -2281    -2650    -3029    -3357    -3504    -3370 
   -3044    -2679    -2384    -2282    -2440    -2708    -2870    -2871 
   -2801    -2766    -2755    -2654    -2397    -1995    -1493    -1048 
    -830     -858    -1073    -1410    -1787    -2201    -2697    -3130 
   -3257    -3056    -2725    -2470    -2332    -2192    -1991    -1867 
   -1895    -1895    -1703    -1502    -1622    -2118    -2770    -3348 
   -3690    -3767    -3666    -3454    -3192    -2943    -2667    -2357 
   -2139    -2070    -2058    -2076    -2151    -2266    -2444    -2687 
   -2851    -2863    -2809    -2735    -2616    -2404    -2073    -1713 
   -1441    -1294    -1289    -1448    -1702    -1968    -2231    -2488 
   -2756    -3024    -3102    -2895    -2581    -2342    -2218    -2147 
   -2052    -1945    -1917    -2107    -2556    -2998    -3115    -2901 
   -2501    -2025    -1599    -1372    -1406    -1652    -2004    -2403 
   -2824    -3184    -3310    -3169    -2943    -2687    -2328    -1934 
   -1647    -1521    -1522    -1583    -1686    -1864    -2066    -2154 
   -2111    -2083    -2155    -2265    -2358    -2436    -2479    -2494 
   -2488    -2397    -2197    -1995    -1977    -2242    -2681    -3075 
   -3315    -3393    -3261    -2959    -2686    -2560    -2477    -2319 
   -2201    -2338    -2702    -3083    -3372    -3566    -3634    -3516 
   -3252    -2924    -2536    -2046    -1507    -1061     -819     -843 
   -1125    -1563    -1989    -2238    -2261    -2216    -2359    -2749 
   -3119    -3256    -3268    -3241    -3115    -2951    -2855    -2864 
   -2961    -2990    -2851    -2718    -2745    -2889    -3098    -3357 
   -3631    -3827    -3792    -3500    -3121    -2852    -2755    -2743 
   -2736    -2782    -2848    -2826    -2774    -2840    -3025    -3199 
   -3204    -3042    -2876    -2840    -2965    -3171    -3254    -3092 
   -2767    -2454    -2257    -2114    -1972    -1895    -1876    -1817 
   -1723    -1678    -1726    -1904    -2181    -2440    -2566    -2524 
   -2398    -2336    -2377    -2408    -2355    -2284    -2303    -2485 
   -2776    -2967    -2936    -2775    -2606    -2477    -2412    -2444 
   -2552    -2547    -2263    -1846    -1525    -1323    -1219    -1262 
   -1452    -1678    -1765    -1610    -1279     -939     -757     -769 
    -816     -749     -638     -650     -839    -1123    -1440    -1800 
   -2128    -2342    -2478    -2563    -2612    -2673    -2697    -2637 
   -2592    -2651    -2798    -2968    -3073    -3009    -2732    -2344 
   -2034    -1895    -1848    -1760    -1634    -1601    -1637    -1575 
   -1410    -1259    -1175    -1269    -1556    -1809    -1903    -1894 
   -1802    -1668    -1537    -1390    -1320    -1463    -1755    -2027 
   -2181    -2226    -2254    -2286    -2251    -2216    -2313    -2532 
   -2744    -2774    -2563    -2278    -2060    -1919    -1846    -1795 
   -1675    -1418    -1082     -834     -738     -724     -780     -913 
   -1051    -1109    -1138    -1252    -1436    -1561    -1574    -1474 
   -1286    -1112    -1043    -1070    -1143    -1306    -1698    -2228 
   -2554    -2519    -2231    -1798    -1345    -1050    -1004    -1127 
   -1273    -1350    -1350    -1269    -1147    -1059     -985     -865 
    -766     -770     -847     -934    -1009    -1096    -1170    -1175 
   -1155    -1192    -1217    -1171    -1139    -1193    -1290    -1375 
   -1459    -1679    -2162    -2758    -3117    -3049    -2678    -2228 
   -1817    -1551    -1486    -1444    -1283    -1115    -1073    -1240 
   -1637    -2122    -2482    -2619    -2567    -2407    -2208    -2016 
   -1867    -1772    -1684    -1553    -1483    -1671    -2131    -2668 
   -3136    -3465    -3605    -3585    -3430    -3171    -2929    -2756 
   -2587    -2444    -2459    -2668    -2929    -3068    -3061    -2986 
   -2876    -2744    -2654    -2647    -2670    -2644    -2565    -2511 
   -2525    -2560    -2577    -2587    -2578    -2543    -2544    -2620 
   -2714    -2740    -2654    -2490    -2301    -2139    -1992    -1798 
   -1594    -1498    -1590    -1848    -2151    -2416    -2691    -2991 
   -3226    -3346    -3403    -3426    -3383    -3257    -3086    -2960 
   -2990    -3186    -3393    -3496    -3505    -3404    -3199    -3005 
   -2916    -2968    -3126    -3249    -3268    -3248    -3311    -3577 
   -3975    -4263    -4375    -4434    -4486    -4491    -4421    -4267 
   -4086    -3920    -3750    -3550    -3306    -3018    -2774    -2725 
   -2957    -3383    -3829    -4113    -4112    -3921    -3747    -3674 
   -3697    -3774    -3850    -3885    -3825    -3635    -3354    -3055 
   -2810    -2724    -2832    -3069    -3364    -3616    -3707    -3619 
   -3400    -3109    -2840    -2602    -2322    -2039    -1860    -1777 
   -1757    -1827    -2000    -2220    -2407    -2508    -2582    -2744 
   -3007    -3246    -3331    -3265    -3126    -2947    -2721    -2477 
   -2232    -1973    -1687    -1379    -1084     -865     -730     -615 
    -504     -395     -233      -27      116      155      130       41 
    -144     -402     -670     -886    -1015    -1143    -1364    -1621 
   -1858    -2023    -2038    -1973    -1977    -2061    -2145    -2224 
   -2386    -2685    -3017    -3202    -3179    -3063    -2957    -2839 
   -2683    -2551    -2489    -2513    -2631    -2748    -2704    -2482 
   -2185    -1857    -1572    -1463    -1534    -1665    -1771    -1803 
   -1745    -1637    -1524    -1383    -1175     -977     -891     -877 
    -911    -1063    -1358    -1744    -2142    -2470    -2762    -3080 
   -3339    -3469    -3531    -3532    -3434    -3246    -2932    -2484 
   -2015    -1642    -1455    -1474    -1610    -1786    -1942    -2000 
   -1949    -1775    -1468    -1150     -945     -855     -837     -837 
    -878    -1044    -1318    -1633    -1926    -2072    -2058    -2064 
   -2216    -2520    -2933    -3368    -3740    -3971    -3954    -3643 
   -3163    -2760    -2585    -2548    -2524    -2504    -2493    -2444 
   -2316    -2141    -2038    -2018    -1935    -1782    -1683    -1687 
   -1736    -1768    -1806    -1894    -2015    -2130    -2209    -2238 
   -2216    -2197    -2285    -2519    -2768    -2916    -2979    -2991 
   -2964    -2911    -2828    -2731    -2683    -2673    -2658    -2671 
   -2731    -2758    -2691    -2579    -2521    -2566    -2693    -2803 
   -2776    -2633    -2517    -2482    -2531    -2700    -2949    -3149 
   -3202    -3129    -3038    -3007    -3011    -2986    -2903    -2797 
   -2659    -2447    -2168    -1865    -1607    -1479    -1462    -1475 
   -1474    -1471    -1534    -1686    -1809    -1861    -1957    -2115 
   -2257    -2381    -2481    -2484    -2415    -2374    -2396    -2459 
   -2528    -2559    -2544    -2498    -2446    -2412    -2346    -2236 
   -2227    -2343    -2425    -2431    -2461    -2539    -2585    -2508 
   -2377    -2344    -2420    -2536    -2678    -2829    -3019    -3271 
   -3501    -3677    -3859    -4063    -4278    -4513    -4664    -4649 
   -4576    -4494    -4315    -4083    -3897    -3755    -3626    -3480 
   -3311    -3195    -3163    -3156    -3134    -3048    -2793    -2378 
   -1944    -1537    -1140     -811     -606     -535     -584     -675 
    -706     -653     -611     -696     -905    -1173    -1521    -1948 
   -2339    -2619    -2794    -2859    -2837    -2808    -2816    -2862 
   -2936    -3025    -3057    -2936    -2729    -2612    -2569    -2505 
   -2461    -2474    -2469    -2405    -2332    -2200    -1950    -1744 
   -1687    -1614    -1425    -1206    -1042     -976     -976     -959 
    -928     -893     -804     -710     -710     -811    -1009    -1298 
   -1634    -1954    -2177    -2261    -2234    -2127    -1971    -1826 
   -1707    -1603    -1568    -1622    -1659    -1625    -1590    -1541 
   -1406    -1266    -1262    -1409    -1629    -1854    -2025    -2107 
   -2127    -2118    -2058    -1934    -1787    -1701    -1749    -1942 
   -2232    -2585    -2965    -3322    -3632    -3890    -4021    -3983 
   -3817    -3523    -3115    -2702    -2365    -2093    -1885    -1759 
   -1695    -1647    -1622    -1651    -1663    -1597    -1514    -1447 
   -1316    -1059     -708     -371     -176     -189     -328     -504 
    -685     -811     -885    -1035    -1290    -1549    -1738    -1861 
   -1980    -2110    -2227    -2340    -2461    -2569    -2685    -2839 
   -3042    -3308    -3597    -3801    -3813    -3589    -3225    -2918 
   -2789    -2803    -2844    -2851    -2886    -2997    -3136    -3214 
   -3177    -3042    -2847    -2625    -2440    -2358    -2425    -2629 
   -2871    -3090    -3312    -3507    -3574    -3518    -3437    -3373 
   -3326    -3302    -3275    -3230    -3213    -3250    -3276    -3184 
   -3015    -2886    -2799    -2735    -2716    -2712    -2695    -2706 
   -2733    -2721    -2633    -2448    -2208    -1988    -1826    -1779 
   -1885    -2080    -2284    -2408    -2392    -2334    -2363    -2461 
   -2551    -2613    -2633    -2565    -2380    -2137    -1915    -1714 
   -1526    -1420    -1435    -1507    -1555    -1574    -1572    -1512 
   -1389    -1266    -1192    -1174    -1169    -1129    -1036     -868 
    -637     -448     -395     -457     -538     -600     -700     -922 
   -1273    -1702    -2131    -2488    -2782    -3067    -3294    -3400 
   -3441    -3466    -3449    -3383    -3331    -3352    -3391    -3346 
   -3171    -2891    -2575    -2270    -2012    -1861    -1849    -1923 
   -2011    -2058    -2031    -1903    -1688    -1455    -1267    -1158 
   -1154    -1285    -1494    -1675    -1821    -1917    -1938    -1984 
   -2112    -2228    -2290    -2313    -2280    -2227    -2282    -2493 
   -2764    -2995    -3156    -3237    -3252    -3268    -3389    -3653 
   -4005    -4348    -4645    -4928    -5167    -5296    -5293    -5162 
   -4957    -4783    -4680    -4611    -4518    -4328    -4012    -3646 
   -3288    -2901    -2485    -2104    -1764    -1420    -1090     -864 
    -781     -812     -957    -1197    -1416    -1568    -1719    -1880 
   -2029    -2228    -2548    -2916    -3210    -3393    -3470    -3469 
   -3426    -3352    -3303    -3333    -3400    -3468    -3551    -3659 
   -3800    -3954    -4060    -4079    -3985    -3781    -3511    -3198 
   -2874    -2612    -2409    -2211    -2027    -1880    -1721    -1509 
   -1271    -1047     -885     -839     -911    -1036    -1190    -1394 
   -1661    -1988    -2336    -2597    -2702    -2729    -2781    -2938 
   -3207    -3466    -3607    -3603    -3473    -3230    -2914    -2614 
   -2339    -2006    -1636    -1283     -916     -557     -299     -147 
      -9      172      407      681      945     1116     1201     1260 
    1278     1189      970      626      221     -132     -403     -673 
   -1011    -1413    -1834    -2199    -2454    -2602    -2670    -2675 
   -2652    -2628    -2602    -2536    -2415    -2297    -2241    -2220 
   -2181    -2106    -2018    -1958    -1954    -1981    -2023    -2120 
   -2265    -2361    -2381    -2377    -2371    -2373    -2371    -2327 
   -2276    -2296    -2388    -2496    -2598    -2701    -2786    -2835 
   -2844    -2785    -2643    -2494    -2392    -2319    -2295    -2324 
   -2365    -2380    -2339    -2226    -2038    -1763    -1466    -1252 
   -1094     -953     -920    -1050    -1252    -1391    -1404    -1360 
   -1356    -1405    -1494    -1587    -1637    -1661    -1695    -1714 
   -1740    -1834    -1966    -2035    -2011    -1956    -1902    -1871 
   -1930    -2114    -2378    -2627    -2741    -2677    -2481    -2224 
   -1995    -1884    -1934    -2100    -2316    -2559    -2810    -3019 
   -3133    -3156    -3138    -3142    -3191    -3249    -3314    -3429 
   -3584    -3720    -3798    -3825    -3825    -3766    -3588    -3311 
   -3033    -2830    -2712    -2620    -2511    -2400    -2340    -2355 
   -2428    -2540    -2690    -2864    -3028    -3149    -3249    -3362 
   -3465    -3537    -3600    -3686    -3815    -3966    -4102    -4189 
   -4186    -4079    -3904    -3709    -3523    -3333    -3122    -2920 
   -2768    -2647    -2486    -2242    -1926    -1622    -1444    -1432 
   -1489    -1503    -1470    -1436    -1421    -1435    -1513    -1657 
   -1829    -1988    -2104    -2207    -2398    -2702    -2999    -3210 
   -3346    -3426    -3480    -3510    -3480    -3381    -3179    -2872 
   -2544    -2238    -1983    -1849    -1833    -1872    -1937    -1988 
   -2000    -1968    -1868    -1701    -1506    -1296    -1050     -820 
    -693     -711     -834     -973    -1066    -1128    -1215    -1387 
   -1663    -1991    -2335    -2681    -2960    -3095    -3102    -3065 
   -3034    -3002    -2926    -2783    -2616    -2462    -2330    -2232 
   -2155    -2087    -2046    -2007    -1900    -1715    -1528    -1433 
   -1445    -1536    -1687    -1875    -2026    -2083    -2049    -1975 
   -1918    -1903    -1910    -1884    -1826    -1804    -1836    -1877 
   -1910    -1923    -1945    -2014    -2116    -2230    -2370    -2560 
   -2772    -2913    -2924    -2829    -2697    -2596    -2581    -2650 
   -2767    -2899    -3015    -3073    -3065    -3038    -3045    -3069 
   -3048    -2971    -2874    -2718    -2470    -2155    -1780    -1370 
   -1021     -804     -711     -688     -706     -789     -942    -1112 
   -1254    -1410    -1649    -1926    -2114    -2180    -2201    -2253 
   -2334    -2404    -2452    -2528    -2663    -2829    -2933    -2926 
   -2886    -2894    -2916    -2891    -2829    -2755    -2679    -2608 
   -2508    -2355    -2208    -2122    -2081    -2077    -2124    -2226 
   -2382    -2548    -2666    -2735    -2781    -2852    -2983    -3152 
   -3316    -3430    -3453    -3404    -3326    -3230    -3103    -2960 
   -2818    -2635    -2390    -2164    -2027    -1960    -1919    -1871 
   -1784    -1661    -1556    -1524    -1602    -1786    -2004    -2176 
   -2299    -2416    -2525    -2589    -2593    -2563    -2521    -2485 
   -2474    -2490    -2538    -2623    -2743    -2874    -3005    -3148 
   -3318    -3461    -3501    -3407    -3181    -2879    -2598    -2400 
   -2288    -2232    -2195    -2157    -2128    -2120    -2158    -2242 
   -2332    -2380    -2367    -2331    -2334    -2412    -2505    -2535 
   -2509    -2474    -2448    -2435    -2435    -2458    -2506    -2533 
   -2498    -2452    -2481    -2587    -2713    -2774    -2708    -2536 
   -2315    -2053    -1763    -1497    -1275    -1115    -1059    -1113 
   -1228    -1339    -1374    -1333    -1274    -1229    -1194    -1152 
   -1112    -1078    -1027     -949     -859     -792     -776     -793 
    -810     -831     -896     -993    -1075    -1128    -1178    -1248 
   -1339    -1456    -1601    -1786    -2010    -2226    -2384    -2478 
   -2502    -2444    -2340    -2241    -2178    -2177    -2255    -2420 
   -2640    -2853    -3046    -3230    -3365    -3427    -3433    -3395 
   -3339    -3276    -3208    -3165    -3144    -3103    -3052    -2997 
   -2890    -2737    -2577    -2403    -2235    -2135    -2119    -2150 
   -2189    -2192    -2139    -2015    -1823    -1607    -1428    -1320 
   -1277    -1297    -1406    -1603    -1849    -2119    -2384    -2586 
   -2706    -2781    -2857    -2937    -2997    -3056    -3141    -3234 
   -3302    -3318    -3240    -3109    -3021    -2997    -2992    -2997 
   -2994    -2943    -2802    -2569    -2296    -2076    -1975    -1972 
   -2004    -2033    -2037    -2030    -2041    -2052    -2049    -2076 
   -2157    -2273    -2412    -2571    -2751    -2943    -3144    -3383 
   -3636    -3840    -3960    -3979    -3898    -3757    -3591    -3408 
   -3195    -2961    -2752    -2575    -2394    -2204    -2022    -1834 
   -1649    -1503    -1413    -1372    -1404    -1518    -1665    -1796 
   -1921    -2033    -2099    -2106    -2061    -1991    -1937    -1922 
   -1958    -2039    -2120    -2173    -2214    -2251    -2296    -2347 
   -2386    -2424    -2489    -2546    -2566    -2555    -2505    -2427 
   -2346    -2272    -2241    -2289    -2377    -2415    -2361    -2259 
   -2195    -2187    -2153    -2022    -1842    -1702    -1638    -1640 
   -1651    -1661    -1729    -1852    -1984    -2095    -2157    -2182 
   -2253    -2378    -2490    -2562    -2589    -2567    -2516    -2427 
   -2300    -2174    -2057    -1923    -1783    -1642    -1521    -1459 
   -1428    -1372    -1306    -1281    -1329    -1441    -1545    -1584 
   -1560    -1502    -1441    -1394    -1385    -1428    -1512    -1632 
   -1792    -1954    -2095    -2220    -2308    -2340    -2327    -2282 
