Origin Time       2025/01/13 21:19:00
Lat.              31.8
Long.             131.6
Depth. (km)       30
Mag.              6.9
Station Code      HRS005
Station Lat.      34.7774
Station Long.     133.2803
Station Height(m) 485
Record Time       2025/01/13 21:21:07
Sampling Freq(Hz) 100Hz
Duration Time(s)  67
Dir.              U-D
Scale Factor      7845(gal)/8223790
Max. Acc. (gal)   0.644
Last Correction   2025/01/13 21:21:06
Memo.             
[...]
   15084    14881    14721    14652    14692    14829    14987    15101 
   15194    15267    15277    15241    15183    15117    15070    15047 
   15060    15107    15145    15138    15105    15084    15129    15230 
   15313    15349    15338    15267    15176    15107    15051    15012 
   14987    14972    15005    15084    15165    15219    15229    15187 
   15122    15060    14998    14959    14983    15033    15072    15115 
   15144    15140    15141    15168    15228    15307    15363    15364 
   15294    15174    15079    15043    15041    15071    15097    15115 
   15167    15210    15205    15172    15134    15110    15109    15110 
   15087    15049    15056    15148    15267    15283    15182    15048 
   14935    14905    15001    15125    15137    15041    14929    14862 
   14867    14936    15003    15033    15091    15202    15311    15377 
   15358    15236    15070    14920    14845    14875    14953    15025 
   15097    15182    15275    15325    15280    15198    15133    15055 
   14952    14872    14831    14832    14901    15024    15147    15250 
   15319    15314    15219    15093    15002    14967    15006    15125 
   15265    15336    15306    15236    15226    15310    15383    15330 
   15222    15180    15183    15171    15115    15010    14937    14967 
   15072    15221    15381    15458    15406    15275    15107    14948 
   14863    14843    14856    14928    15040    15142    15214    15211 
   15147    15083    15029    14951    14862    14800    14808    14887 
   14989    15033    14997    14947    14935    14926    14914    14931 
   14962    14994    15037    15057    15030    14966    14894    14864 
   14887    14918    14940    14955    14983    15029    15039    15007 
   14991    14979    14945    14910    14887    14899    14959    15021 
   15055    15056    15055    15079    15102    15087    15047    15014 
   15012    15009    15012    15067    15164    15250    15292    15309 
   15321    15294    15201    15070    14956    14937    15052    15228 
   15361    15406    15371    15329    15299    15228    15118    15021 
   14958    14928    14960    15061    15191    15311    15384    15368 
   15273    15161    15105    15109    15097    15039    14991    14983 
   14979    14978    15021    15121    15240    15317    15315    15249 
   15155    15060    14982    14931    14926    14962    14999    14997 
   14962    14995    15144    15291    15338    15299    15211    15118 
   15102    15198    15331    15415    15408    15304    15175    15120 
   15134    15165    15187    15186    15165    15190    15292    15398 
   15435    15399    15302    15178    15088    15063    15095    15156 
   15206    15237    15260    15271    15273    15291    15318    15315 
   15261    15172    15084    15022    14997    15009    15047    15088 
   15105    15084    15033    14964    14909    14883    14866    14852 
   14860    14897    14949    14986    14972    14924    14893    14894 
   14899    14906    14905    14877    14864    14894    14940    14978 
   14972    14906    14854    14875    14932    14956    14910    14827 
   14774    14763    14775    14800    14821    14856    14914    14980 
   15059    15126    15130    15082    15024    14948    14860    14800 
   14779    14800    14885    15020    15164    15283    15353    15380 
   15364    15292    15180    15049    14916    14805    14774    14847 
   14975    15101    15202    15248    15238    15215    15195    15183 
   15187    15180    15163    15178    15219    15242    15246    15252 
   15272    15311    15330    15304    15268    15230    15190    15187 
   15221    15250    15244    15195    15145    15133    15144    15130 
   15084    15051    15084    15201    15367    15492    15502    15410 
   15273    15120    14983    14912    14918    14979    15049    15121 
   15217    15325    15400    15406    15315    15132    14901    14740 
   14759    14905    15036    15110    15156    15184    15183    15149 
   15095    15021    14931    14854    14828    14858    14904    14943 
   14994    15052    15110    15165    15198    15190    15134    15047 
   14975    14943    14925    14910    14904    14905    14931    15014 
   15114    15138    15098    15052    14999    14928    14859    14809 
   14787    14790    14785    14764    14746    14727    14721    14751 
   14796    14818    14813    14805    14825    14845    14852    14902 
   14982    15022    15048    15087    15107    15124    15149    15156 
   15148    15137    15113    15075    15053    15071    15083    15061 
   15032    15003    14990    15009    15009    14958    14891    14844 
   14832    14862    14918    14974    15013    15029    15034    15060 
   15097    15107    15093    15063    15044    15067    15125    15172 
   15190    15199    15230    15275    15317    15345    15330    15279 
   15233    15234    15333    15507    15672    15759    15745    15643 
   15530    15471    15458    15462    15461    15438    15425    15457 
   15525    15606    15674    15684    15645    15579    15477    15372 
   15288    15217    15190    15233    15314    15387    15422    15417 
   15377    15314    15211    15067    14945    14893    14920    15030 
   15192    15345    15414    15375    15283    15195    15130    15088 
   15071    15080    15132    15213    15269    15291    15299    15268 
   15172    15039    14924    14875    14901    14966    15026    15068 
   15099    15128    15148    15133    15091    15052    14979    14867 
   14771    14719    14712    14739    14787    14854    14894    14862 
   14796    14739    14716    14754    14816    14856    14910    14997 
   15072    15111    15109    15082    15086    15114    15103    15082 
   15098    15124    15140    15157    15176    15221    15287    15315 
   15292    15241    15187    15141    15095    15063    15080    15136 
   15179    15187    15172    15156    15144    15105    15010    14901 
   14841    14847    14886    14947    15043    15156    15230    15242 
   15203    15140    15075    15032    15036    15099    15183    15255 
   15299    15310    15327    15349    15338    15315    15307    15322 
   15341    15325    15268    15196    15121    15066    15053    15059 
   15064    15078    15090    15115    15148    15124    15033    14922 
   14839    14823    14859    14906    14948    14968    14953    14926 
   14924    14925    14889    14828    14796    14818    14879    14955 
   15018    15025    14995    14966    14939    14922    14905    14856 
   14801    14783    14808    14871    14955    15026    15067    15078 
   15060    15041    15034    15020    14999    14982    14972    14994 
   15049    15118    15187    15246    15302    15330    15310    15242 
   15130    15039    15032    15080    15130    15178    15196    15184 
   15186    15196    15194    15187    15175    15172    15195    15244 
   15304    15331    15304    15287    15292    15245    15157    15094 
   15059    15048    15076    15111    15125    15122    15130    15149 
   15161    15187    15225    15223    15184    15142    15105    15090 
   15103    15101    15047    15003    15036    15117    15183    15199 
   15187    15179    15164    15147    15148    15151    15134    15115 
   15122    15152    15157    15118    15072    15056    15056    15057 
   15051    15025    14990    14983    15006    15021    15028    15039 
   15043    15026    15002    14986    14978    14990    15020    15029 
   15009    14997    15003    15006    14976    14925    14883    14881 
   14941    15040    15111    15136    15134    15124    15128    15175 
   15240    15273    15263    15221    15157    15090    15052    15053 
   15084    15140    15192    15219    15250    15302    15322    15276 
   15188    15107    15086    15126    15165    15191    15229    15246 
   15221    15190    15155    15115    15082    15029    14956    14894 
   14847    14804    14778    14782    14798    14813    14821    14787 
   14698    14617    14586    14580    14596    14631    14659    14683 
   14705    14701    14673    14648    14642    14661    14698    14736 
   14775    14821    14867    14910    14956    15010    15057    15090 
   15099    15076    15052    15048    15053    15067    15086    15120 
   15194    15282    15346    15390    15392    15336    15242    15152 
   15090    15053    15043    15061    15091    15120    15136    15140 
   15148    15144    15107    15071    15070    15105    15169    15244 
   15300    15318    15304    15299    15323    15345    15341    15317 
   15272    15221    15202    15225    15283    15369    15444    15476 
   15484    15472    15427    15349    15269    15226    15229    15272 
   15357    15453    15519    15537    15506    15434    15346    15268 
   15209    15172    15151    15134    15128    15136    15140    15137 
   15144    15155    15142    15107    15059    15002    14949    14916 
   14924    14993    15106    15222    15303    15341    15348    15307 
   15186    15026    14899    14837    14852    14908    14945    14971 
   15003    14998    14929    14816    14704    14625    14585    14584 
   14629    14719    14824    14904    14947    14966    14949    14906 
   14886    14910    14948    14975    15003    15043    15093    15160 
   15237    15276    15282    15307    15346    15369    15392    15418 
   15431    15439    15437    15411    15396    15425    15484    15537 
   15565    15562    15512    15427    15334    15252    15187    15163 
   15196    15241    15277    15307    15292    15233    15174    15124 
   15076    15028    14995    15012    15067    15128    15171    15178 
   15137    15055    14970    14914    14881    14877    14910    14971 
   15043    15111    15147    15113    15020    14916    14837    14794 
   14798    14847    14894    14929    14962    14990    15001    14986 
   14944    14894    14854    14816    14767    14715    14670    14654 
   14696    14790    14916    15040    15109    15101    15049    14993 
   14931    14870    14820    14766    14735    14779    14885    14994 
   15066    15080    15066    15067    15078    15061    15029    15005 
   14990    14982    15014    15094    15174    15223    15246    15234 
   15194    15142    15084    15053    15068    15113    15178    15257 
   15336    15417    15475    15469    15402    15309    15221    15172 
   15155    15142    15155    15218    15310    15381    15410    15400 
   15350    15245    15128    15049    15017    15018    15051    15102 
   15160    15201    15226    15237    15217    15184    15153    15098 
   15036    14999    14986    14993    15021    15048    15051    15032 
   15005    14966    14905    14832    14764    14708    14678    14683 
   14698    14682    14639    14592    14550    14524    14542    14596 
   14654    14727    14829    14928    14989    15003    14975    14953 
   14978    15021    15071    15147    15229    15288    15333    15369 
   15388    15379    15344    15303    15292    15314    15345    15376 
   15404    15439    15495    15547    15557    15534    15508    15472 
   15427    15421    15454    15499    15538    15550    15525    15485 
   15458    15450    15450    15427    15377    15334    15329    15338 
   15327    15288    15233    15174    15125    15097    15080    15057 
   15012    14947    14891    14854    14841    14841    14837    14855 
   14901    14947    14968    14960    14928    14893    14867    14860 
   14881    14916    14964    15020    15061    15090    15110    15094 
   15029    14970    14970    15020    15061    15082    15114    15151 
   15164    15159    15136    15094    15068    15072    15083    15087 
   15095    15118    15159    15199    15209    15179    15133    15084 
   15049    15025    14999    14971    14943    14904    14866    14844 
   14833    14835    14860    14899    14925    14941    14956    14941 
   14895    14851    14810    14760    14735    14758    14816    14891 
   14955    14985    14995    14997    14986    14959    14908    14856 
   14818    14797    14825    14912    15009    15063    15064    15045 
   15041    15051    15048    15028    15001    14983    14972    14963 
   14964    14989    15043    15130    15218    15283    15334    15357 
   15338    15300    15263    15244    15257    15284    15327    15404 
   15500    15593    15651    15643    15592    15537    15487    15460 
   15465    15479    15493    15502    15481    15431    15375    15319 
   15273    15252    15263    15294    15311    15291    15222    15126 
   15037    14979    14962    14979    15041    15141    15253    15361 
   15438    15444    15368    15275    15214    15184    15180    15206 
   15233    15252    15286    15322    15337    15331    15306    15255 
   15196    15145    15098    15051    15014    14990    14980    14987 
   14998    14997    14978    14933    14870    14804    14747    14696 
   14659    14643    14636    14639    14661    14696    14735    14764 
   14755    14692    14609    14542    14492    14472    14490    14531 
   14582    14642    14688    14697    14686    14682    14674    14665 
   14667    14675    14689    14705    14696    14681    14696    14729 
   14774    14814    14828    14824    14828    14847    14882    14920 
   14941    14968    15017    15061    15079    15074    15061    15067 
   15094    15134    15176    15211    15244    15279    15323    15398 
   15502    15593    15639    15647    15638    15627    15615    15595 
   15585    15618    15684    15746    15768    15747    15704    15657 
   15624    15620    15643    15669    15680    15666    15637    15610 
   15584    15560    15529    15488    15465    15487    15534    15577 
   15593    15587    15554    15495    15433    15394    15368    15348 
   15341    15331    15314    15299    15275    15253    15259    15273 
   15276    15279    15273    15257    15246    15237    15222    15201 
   15174    15149    15148    15176    15215    15244    15267    15284 
   15292    15282    15245    15194    15152    15115    15086    15078 
   15076    15071    15067    15057    15055    15095    15171    15236 
   15275    15295    15294    15284    15267    15206    15132    15101 
   15107    15125    15145    15165    15194    15229    15250    15230 
   15169    15118    15093    15074    15071    15097    15113    15098 
   15061    15003    14929    14860    14816    14801    14808    14816 
   14824    14847    14878    14893    14877    14841    14814    14789 
   14747    14698    14646    14600    14590    14616    14661    14719 
   14766    14789    14782    14744    14698    14658    14619    14594 
   14593    14620    14690    14781    14845    14874    14866    14824 
   14781    14762    14763    14783    14821    14875    14951    15049 
   15159    15244    15280    15265    15221    15180    15155    15137 
   15152    15203    15256    15315    15384    15431    15448    15441 
   15411    15360    15292    15219    15171    15163    15178    15190 
   15192    15191    15196    15206    15206    15186    15149    15132 
   15132    15120    15113    15134    15159    15163    15148    15110 
   15060    15016    14987    14966    14941    14921    14904    14891 
   14887    14890    14893    14897    14898    14902    14889    14854 
   14820    14790    14746    14701    14694    14732    14789    14835 
   14840    14808    14777    14777    14796    14818    14836    14845 
   14860    14877    14882    14875    14864    14867    14886    14908 
   14929    14963    14995    15010    15006    14985    14937    14885 
   14840    14802    14793    14809    14837    14877    14910    14924 
   14926    14904    14839    14777    14756    14773    14802    14833 
   14871    14922    14993    15074    15134    15156    15157    15151 
   15152    15175    15207    15229    15238    15245    15263    15296 
   15331    15365    15376    15352    15330    15333    15341    15330 
   15292    15238    15195    15186    15206    15232    15232    15203 
   15171    15156    15153    15155    15148    15130    15128    15136 
   15124    15086    15051    15021    14986    14955    14940    14941 
   14960    14998    15039    15066    15074    15068    15047    15016 
   15001    15013    15051    15102    15148    15187    15230    15272 
   15292    15287    15280    15276    15267    15276    15313    15356 
   15396    15433    15457    15473    15479    15464    15439    15415 
   15380    15338    15311    15302    15300    15300    15296    15286 
   15272    15269    15275    15273    15261    15242    15230    15248 
   15298    15336    15336    15306    15268    15237    15219    15210 
   15199    15188    15191    15211    15249    15300    15334    15341 
   15348    15356    15360    15365    15377    15380    15365    15353 
   15350    15352    15344    15318    15287    15264    15249    15248 
   15264    15284    15296    15287    15264    15241    15209    15171 
   15153    15145    15137    15148    15174    15206    15246    15275 
   15271    15246    15225    15201    15168    15126    15072    15026 
   15020    15049    15088    15120    15124    15117    15113    15105 
   15086    15057    15033    15033    15063    15101    15124    15132 
   15133    15130    15122    15099    15053    15002    14962    14937 
   14939    14970    15010    15039    15043    15013    14949    14879 
   14827    14787    14750    14728    14729    14735    14736    14746 
   14755    14750    14742    14732    14710    14681    14656    14639 
   14628    14629    14658    14696    14724    14743    14747    14732 
   14717    14713    14710    14704    14698    14700    14721    14754 
   14778    14802    14833    14867    14893    14909    14908    14897 
   14883    14867    14863    14887    14937    14999    15060    15094 
   15106    15106    15090    15072    15074    15094    15124    15157 
   15194    15237    15282    15318    15346    15361    15345    15300 
   15248    15206    15195    15211    15242    15279    15310    15336 
   15344    15322    15275    15219    15168    15129    15109    15117 
   15147    15194    15237    15246    15234    15233    15241    15245 
   15240    15214    15186    15168    15163    15169    15188    15205 
   15209    15206    15198    15180    15152    15114    15083    15068 
   15070    15079    15087    15088    15095    15103    15086    15056 
   15049    15078    15121    15156    15167    15164    15160    15164 
   15169    15165    15155    15155    15169    15202    15255    15291 
   15284    15248    15209    15180    15160    15142    15128    15120 
   15129    15151    15164    15153    15118    15080    15064    15064 
   15060    15053    15048    15047    15063    15079    15061    15003 
   14933    14886    14868    14867    14868    14860    14845    14841 
   14843    14832    14806    14770    14724    14696    14701    14720 
   14744    14778    14802    14808    14804    14794    14787    14789 
   14796    14813    14835    14851    14877    14910    14933    14966 
   15020    15059    15072    15078    15067    15044    15029    15012 
   14999    15007    15025    15047    15071    15084    15075    15048 
   15022    15003    14989    14989    15001    15010    15003    14983 
   14962    14939    14920    14910    14902    14891    14897    14926 
