Origin Time       2025/01/13 21:19:00
Lat.              31.8
Long.             131.6
Depth. (km)       30
Mag.              6.9
Station Code      HRS005
Station Lat.      34.7774
Station Long.     133.2803
Station Height(m) 485
Record Time       2025/01/13 21:21:07
Sampling Freq(Hz) 100Hz
Duration Time(s)  67
Dir.              N-S
Scale Factor      7845(gal)/8223790
Max. Acc. (gal)   1.172
Last Correction   2025/01/13 21:21:06
Memo.             
   -6185    -6193    -6219    -6270    -6316    -6339    -6350    -6342 
   -6313    -6305    -6355    -6412    -6399    -6334    -6281    -6253 
   -6208    -6142    -6110    -6115    -6120    -6110    -6072    -6043 
   -6066    -6103    -6127    -6170    -6227    -6245    -6235    -6254 
   -6304    -6346    -6345    -6301    -6247    -6174    -6069    -5976 
   -5948    -5971    -6025    -6119    -6242    -6345    -6385    -6392 
   -6403    -6401    -6367    -6312    -6235    -6127    -6045    -6065 
   -6150    -6218    -6266    -6297    -6299    -6315    -6349    -6338 
   -6286    -6231    -6177    -6134    -6120    -6141    -6160    -6151 
   -6166    -6243    -6322    -6320    -6258    -6226    -6251    -6277 
   -6272    -6266    -6281    -6280    -6245    -6223    -6254    -6305 
   -6365    -6457    -6544    -6565    -6516    -6439    -6370    -6308 
   -6235    -6160    -6106    -6053    -5968    -5903    -5914    -5962 
   -6014    -6077    -6170    -6284    -6361    -6394    -6446    -6498 
   -6509    -6501    -6500    -6484    -6421    -6343    -6296    -6264 
   -6208    -6154    -6150    -6172    -6169    -6131    -6095    -6106 
   -6183    -6292    -6376    -6409    -6405    -6362    -6281    -6220 
   -6197    -6151    -6093    -6110    -6165    -6201    -6235    -6241 
   -6204    -6193    -6223    -6245    -6250    -6250    -6251    -6249 
   -6211    -6133    -6046    -5958    -5861    -5795    -5803    -5869 
   -5958    -6069    -6181    -6268    -6358    -6501    -6663    -6771 
   -6790    -6723    -6604    -6497    -6399    -6255    -6118    -6065 
   -6072    -6061    -6042    -6064    -6124    -6201    -6281    -6351 
   -6419    -6482    -6517    -6517    -6508    -6505    -6470    -6378 
   -6282    -6201    -6095    -5988    -5960    -6027    -6100    -6130 
   -6170    -6222    -6243    -6253    -6257    -6227    -6192    -6207 
   -6282    -6392    -6493    -6546    -6546    -6525    -6497    -6444 
   -6374    -6296    -6204    -6139    -6146    -6164    -6124    -6104 
   -6173    -6277    -6335    -6328    -6296    -6265    -6219    -6178 
   -6178    -6196    -6195    -6191    -6218    -6289    -6381    -6438 
   -6465    -6482    -6471    -6453    -6458    -6416    -6316    -6253 
   -6215    -6111    -5985    -5940    -5946    -5946    -5964    -6038 
   -6173    -6326    -6440    -6509    -6571    -6623    -6604    -6511 
   -6367    -6180    -6008    -5917    -5879    -5898    -5985    -6069 
   -6123    -6201    -6258    -6215    -6120    -6056    -6021    -5989 
   -5960    -5941    -5935    -5953    -6023    -6139    -6265    -6346 
   -6342    -6292    -6264    -6250    -6223    -6201    -6201    -6192 
   -6164    -6151    -6188    -6257    -6295    -6285    -6293    -6340 
   -6361    -6334    -6316    -6330    -6347    -6373    -6415    -6434 
   -6393    -6335    -6323    -6366    -6384    -6320    -6227    -6176 
   -6184    -6250    -6347    -6397    -6381    -6365    -6366    -6394 
   -6450    -6442    -6323    -6216    -6200    -6214    -6201    -6187 
   -6178    -6162    -6157    -6200    -6286    -6328    -6272    -6215 
   -6245    -6300    -6313    -6295    -6247    -6192    -6200    -6282 
   -6365    -6393    -6363    -6299    -6250    -6232    -6187    -6083 
   -5994    -5985    -6050    -6141    -6220    -6303    -6393    -6465 
   -6504    -6511    -6482    -6419    -6332    -6261    -6205    -6147 
   -6104    -6080    -6057    -6060    -6115    -6200    -6258    -6246 
   -6177    -6145    -6200    -6250    -6228    -6197    -6197    -6204 
   -6201    -6205    -6243    -6300    -6318    -6304    -6316    -6318 
   -6277    -6249    -6239    -6218    -6191    -6164    -6139    -6145 
   -6199    -6272    -6365    -6492    -6588    -6588    -6528    -6474 
   -6439    -6405    -6326    -6187    -6037    -5938    -5904    -5904 
   -5925    -5984    -6084    -6201    -6322    -6420    -6466    -6466 
   -6450    -6446    -6459    -6471    -6457    -6403    -6336    -6273 
   -6178    -6077    -6065    -6114    -6106    -6077    -6118    -6164 
   -6142    -6080    -5999    -5913    -5880    -5930    -6023    -6127 
   -6245    -6366    -6446    -6467    -6446    -6354    -6191    -6030 
   -5931    -5877    -5842    -5850    -5946    -6141    -6353    -6484 
   -6532    -6559    -6569    -6538    -6490    -6471    -6442    -6347 
   -6241    -6183    -6147    -6103    -6072    -6099    -6165    -6200 
   -6210    -6262    -6359    -6428    -6424    -6403    -6417    -6419 
   -6361    -6280    -6224    -6218    -6241    -6277    -6347    -6408 
   -6365    -6253    -6214    -6254    -6247    -6189    -6193    -6286 
   -6390    -6463    -6548    -6660    -6735    -6731    -6682    -6619 
   -6543    -6419    -6262    -6149    -6092    -6030    -5957    -5918 
   -5896    -5832    -5751    -5759    -5864    -5965    -6018    -6084 
   -6195    -6258    -6246    -6247    -6296    -6330    -6335    -6363 
   -6399    -6381    -6355    -6377    -6384    -6319    -6200    -6064 
   -5972    -5949    -5958    -5985    -6030    -6073    -6135    -6247 
   -6380    -6461    -6494    -6528    -6566    -6575    -6512    -6376 
   -6222    -6076    -5971    -5961    -6007    -6027    -6039    -6080 
   -6151    -6257    -6370    -6444    -6447    -6380    -6301    -6286 
   -6315    -6293    -6224    -6195    -6207    -6191    -6166    -6199 
   -6245    -6232    -6189    -6183    -6180    -6154    -6160    -6192 
   -6211    -6251    -6331    -6374    -6320    -6231    -6188    -6173 
   -6165    -6183    -6188    -6130    -6022    -5930    -5913    -5968 
   -6068    -6212    -6365    -6465    -6512    -6535    -6528    -6502 
   -6470    -6420    -6345    -6247    -6162    -6122    -6127    -6160 
   -6207    -6266    -6301    -6299    -6278    -6251    -6220    -6205 
   -6231    -6264    -6250    -6227    -6270    -6362    -6413    -6409 
   -6432    -6498    -6528    -6505    -6477    -6432    -6355    -6289 
   -6254    -6212    -6158    -6116    -6079    -6069    -6119    -6177 
   -6200    -6232    -6284    -6297    -6295    -6328    -6332    -6245 
   -6146    -6127    -6154    -6147    -6097    -6070    -6085    -6085 
   -6022    -5961    -5988    -6054    -6072    -6081    -6139    -6192 
   -6185    -6147    -6103    -6050    -6027    -6077    -6181    -6278 
   -6343    -6363    -6336    -6327    -6366    -6378    -6327    -6281 
   -6286    -6305    -6307    -6311    -6326    -6330    -6322    -6350 
   -6416    -6454    -6424    -6378    -6399    -6455    -6440    -6336 
   -6222    -6131    -6058    -6008    -6007    -6057    -6112    -6147 
   -6173    -6181    -6166    -6153    -6123    -6087    -6100    -6161 
   -6208    -6232    -6232    -6212    -6212    -6259    -6322    -6367 
   -6413    -6434    -6401    -6376    -6376    -6316    -6187    -6070 
   -6015    -6027    -6072    -6122    -6210    -6331    -6419    -6455 
   -6470    -6469    -6446    -6416    -6400    -6385    -6336    -6254 
   -6191    -6176    -6170    -6149    -6134    -6147    -6205    -6285 
   -6322    -6331    -6392    -6466    -6439    -6316    -6231    -6191 
   -6088    -5957    -5929    -5984    -6046    -6127    -6230    -6304 
   -6342    -6346    -6286    -6180    -6100    -6072    -6075    -6095 
   -6107    -6106    -6118    -6156    -6228    -6313    -6362    -6369 
   -6359    -6366    -6384    -6388    -6363    -6311    -6255    -6242 
   -6276    -6301    -6269    -6216    -6219    -6254    -6250    -6218 
   -6223    -6259    -6277    -6246    -6168    -6096    -6088    -6115 
   -6145    -6187    -6237    -6257    -6212    -6139    -6106    -6106 
   -6115    -6138    -6134    -6106    -6131    -6203    -6268    -6350 
   -6444    -6475    -6454    -6434    -6392    -6316    -6249    -6216 
   -6203    -6199    -6212    -6195    -6111    -6060    -6104    -6161 
   -6156    -6145    -6177    -6215    -6245    -6285    -6289    -6204 
   -6068    -5945    -5881    -5900    -5976    -6077    -6215    -6336 
   -6377    -6403    -6497    -6570    -6538    -6465    -6400    -6281 
   -6104    -5994    -6004    -6035    -6033    -6070    -6162    -6243 
   -6288    -6332    -6417    -6527    -6598    -6574    -6451    -6291 
   -6165    -6103    -6091    -6108    -6120    -6115    -6146    -6255 
   -6396    -6516    -6617    -6704    -6745    -6718    -6635    -6534 
   -6416    -6274    -6156    -6092    -6037    -5945    -5877    -5935 
   -6129    -6373    -6601    -6770    -6822    -6741    -6583    -6417 
   -6276    -6149    -6049    -5995    -5961    -5929    -5934    -5968 
   -5989    -6025    -6115    -6227    -6330    -6415    -6480    -6509 
   -6494    -6492    -6521    -6504    -6426    -6369    -6324    -6227 
   -6120    -6068    -6046    -6058    -6146    -6251    -6284    -6255 
   -6270    -6358    -6447    -6513    -6588    -6624    -6556    -6428 
   -6338    -6288    -6204    -6056    -5896    -5854    -5967    -6103 
   -6195    -6309    -6473    -6610    -6650    -6624    -6594    -6520 
   -6366    -6214    -6149    -6151    -6110    -5996    -5903    -5898 
   -5949    -6018    -6116    -6266    -6424    -6482    -6448    -6435 
   -6424    -6349    -6261    -6207    -6185    -6207    -6215    -6164 
   -6108    -6056    -5950    -5857    -5876    -5954    -6022    -6096 
   -6181    -6258    -6365    -6523    -6619    -6558    -6411    -6257 
   -6131    -6091    -6131    -6191    -6203    -6156    -6100    -6066 
   -6029    -5933    -5769    -5656    -5705    -5908    -6191    -6443 
   -6593    -6674    -6725    -6693    -6547    -6361    -6204    -6081 
   -5994    -5953    -5937    -5931    -5988    -6099    -6196    -6313 
   -6516    -6716    -6798    -6764    -6663    -6544    -6462    -6426 
   -6390    -6303    -6154    -6000    -5910    -5902    -5960    -6043 
   -6107    -6153    -6242    -6392    -6554    -6687    -6794    -6868 
   -6866    -6752    -6544    -6286    -6016    -5760    -5560    -5485 
   -5547    -5705    -5914    -6124    -6309    -6448    -6512    -6519 
   -6473    -6392    -6385    -6477    -6525    -6478    -6394    -6308 
   -6280    -6340    -6358    -6277    -6196    -6130    -6003    -5837 
   -5749    -5814    -5968    -6126    -6280    -6413    -6471    -6493 
   -6577    -6739    -6889    -6913    -6763    -6496    -6203    -5904 
   -5584    -5333    -5263    -5359    -5559    -5817    -6060    -6259 
   -6450    -6609    -6710    -6791    -6839    -6810    -6728    -6624 
   -6462    -6222    -5983    -5815    -5701    -5679    -5778    -5879 
   -5975    -6181    -6447    -6669    -6832    -6906    -6859    -6741 
   -6600    -6463    -6351    -6227    -6112    -6050    -5998    -5946 
   -5953    -5981    -6026    -6145    -6281    -6318    -6292    -6309 
   -6384    -6409    -6326    -6212    -6130    -6066    -6048    -6073 
   -6087    -6093    -6162    -6313    -6475    -6558    -6535    -6485 
   -6494    -6523    -6426    -6188    -5977    -5933    -6031    -6172 
   -6347    -6583    -6770    -6824    -6806    -6682    -6366    -5965 
   -5675    -5575    -5609    -5665    -5767    -6004    -6276    -6428 
   -6511    -6605    -6686    -6708    -6648    -6574    -6524    -6362 
   -6079    -5883    -5818    -5792    -5836    -5956    -6080    -6177 
   -6216    -6183    -6169    -6278    -6436    -6494    -6438    -6347 
   -6253    -6111    -5935    -5826    -5837    -5929    -6052    -6178 
   -6295    -6396    -6498    -6606    -6701    -6735    -6683    -6594 
   -6493    -6390    -6312    -6185    -5975    -5837    -5881    -5999 
   -6085    -6161    -6224    -6268    -6345    -6480    -6598    -6596 
   -6427    -6193    -6018    -5903    -5825    -5827    -5926    -6087 
   -6249    -6336    -6332    -6300    -6309    -6396    -6486    -6459 
   -6340    -6249    -6208    -6210    -6251    -6322    -6405    -6482 
   -6524    -6543    -6534    -6471    -6346    -6184    -6052    -5967 
   -5844    -5672    -5595    -5719    -5987    -6242    -6373    -6381 
   -6370    -6438    -6589    -6770    -6910    -6933    -6837    -6705 
   -6590    -6428    -6145    -5805    -5497    -5229    -5044    -5017 
   -5173    -5483    -5921    -6469    -6982    -7233    -7177    -7014 
   -6939    -6899    -6733    -6458    -6201    -6007    -5871    -5810 
   -5794    -5791    -5836    -5938    -6049    -6143    -6257    -6390 
   -6463    -6461    -6448    -6388    -6245    -6126    -6077    -6037 
   -5999    -6023    -6141    -6291    -6351    -6311    -6278    -6288 
   -6254    -6174    -6130    -6145    -6138    -6108    -6120    -6169 
   -6214    -6253    -6327    -6462    -6592    -6636    -6627    -6640 
   -6624    -6471    -6208    -5958    -5794    -5699    -5670    -5711 
   -5763    -5776    -5844    -6019    -6212    -6401    -6633    -6855 
   -6976    -6951    -6809    -6594    -6291    -5948    -5714    -5655 
   -5683    -5721    -5803    -6039    -6432    -6770    -6920    -6976 
   -6918    -6696    -6469    -6313    -6115    -5896    -5800    -5849 
   -5934    -5934    -5868    -5902    -6073    -6281    -6484    -6663 
   -6725    -6556    -6242    -6031    -5996    -6027    -6114    -6311 
   -6543    -6664    -6617    -6467    -6353    -6346    -6370    -6319 
   -6224    -6177    -6211    -6313    -6400    -6355    -6177    -5983 
   -5883    -5886    -5962    -6107    -6281    -6454    -6588    -6624 
   -6597    -6589    -6585    -6521    -6419    -6336    -6261    -6154 
   -6010    -5883    -5846    -5900    -6002    -6095    -6149    -6173 
   -6197    -6285    -6443    -6571    -6582    -6501    -6415    -6332 
   -6211    -6097    -6037    -5980    -5954    -6021    -6087    -6062 
   -6048    -6141    -6292    -6355    -6301    -6292    -6386    -6397 
   -6232    -6085    -6091    -6116    -6072    -6068    -6153    -6239 
   -6326    -6485    -6632    -6608    -6467    -6380    -6349    -6292 
   -6216    -6162    -6107    -6014    -5940    -5895    -5794    -5674 
   -5651    -5757    -5968    -6203    -6413    -6648    -6863    -6912 
   -6763    -6542    -6392    -6346    -6318    -6243    -6192    -6208 
   -6228    -6253    -6342    -6474    -6525    -6427    -6247    -6143 
   -6218    -6309    -6183    -5942    -5813    -5853    -6079    -6457 
   -6871    -7126    -7049    -6716    -6370    -6131    -5972    -5863 
   -5802    -5815    -5925    -6089    -6246    -6369    -6439    -6463 
   -6475    -6484    -6444    -6322    -6212    -6214    -6276    -6342 
   -6411    -6426    -6300    -6035    -5749    -5621    -5767    -6084 
   -6350    -6501    -6620    -6704    -6682    -6531    -6276    -5992 
   -5815    -5814    -5899    -5949    -5964    -6026    -6169    -6332 
   -6454    -6486    -6377    -6178    -6048    -6033    -6072    -6160 
   -6330    -6552    -6716    -6717    -6563    -6373    -6228    -6100 
   -5946    -5825    -5806    -5864    -5956    -6077    -6226    -6377 
   -6502    -6571    -6563    -6469    -6334    -6226    -6170    -6196 
   -6332    -6507    -6609    -6620    -6575    -6481    -6334    -6199 
   -6162    -6212    -6258    -6193    -6014    -5899    -5964    -6068 
   -6130    -6251    -6427    -6500    -6423    -6334    -6326    -6331 
   -6251    -6091    -5923    -5822    -5844    -5985    -6120    -6138 
   -6077    -6049    -6114    -6257    -6435    -6586    -6674    -6760 
   -6889    -6956    -6824    -6542    -6304    -6195    -6116    -6018 
   -5927    -5854    -5829    -5876    -5969    -6093    -6254    -6434 
   -6647    -6895    -7002    -6794    -6394    -6043    -5794    -5553 
   -5386    -5455    -5683    -5868    -6022    -6268    -6536    -6633 
   -6556    -6440    -6378    -6361    -6304    -6185    -6046    -5891 
   -5768    -5752    -5811    -5880    -5980    -6153    -6393    -6659 
   -6870    -6974    -7032    -7082    -7011    -6763    -6478    -6270 
   -6139    -6049    -5927    -5752    -5601    -5582    -5725    -5988 
   -6311    -6592    -6735    -6748    -6689    -6563    -6376    -6215 
   -6192    -6266    -6319    -6288    -6205    -6203    -6366    -6606 
   -6806    -6910    -6871    -6663    -6331    -5956    -5632    -5428 
   -5339    -5379    -5583    -5880    -6154    -6347    -6474    -6561 
   -6609    -6691    -6841    -6960    -6957    -6844    -6659    -6423 
   -6218    -6088    -5954    -5841    -5852    -5958    -6064    -6130 
   -6204    -6338    -6500    -6619    -6643    -6543    -6390    -6326 
   -6285    -6104    -5860    -5713    -5644    -5593    -5610    -5713 
   -5823    -5991    -6285    -6620    -6895    -7063    -7072    -6895 
   -6538    -6111    -5786    -5586    -5474    -5514    -5695    -5906 
   -6138    -6411    -6660    -6768    -6658    -6434    -6276    -6195 
   -6137    -6145    -6181    -6170    -6177    -6253    -6351    -6438 
   -6488    -6523    -6594    -6679    -6733    -6718    -6574    -6264 
   -5861    -5543    -5429    -5481    -5628    -5867    -6191    -6539 
   -6862    -7130    -7298    -7298    -7114    -6804    -6446    -6100 
   -5759    -5409    -5170    -5196    -5444    -5744    -6035    -6334 
   -6588    -6735    -6771    -6708    -6561    -6404    -6318    -6315 
   -6351    -6363    -6299    -6157    -5977    -5805    -5717    -5768 
   -5906    -6058    -6203    -6328    -6432    -6570    -6743    -6768 
   -6550    -6274    -6145    -6176    -6272    -6227    -5907    -5520 
   -5420    -5655    -5967    -6145    -6193    -6223    -6285    -6349 
   -6380    -6365    -6305    -6303    -6462    -6624    -6578    -6428 
   -6343    -6264    -6106    -5950    -5890    -5911    -5980    -6100 
   -6289    -6457    -6461    -6322    -6191    -6143    -6126    -6120 
   -6160    -6227    -6335    -6473    -6546    -6535    -6480    -6369 
   -6258    -6203    -6088    -5907    -5879    -6057    -6268    -6328 
   -6227    -6126    -6145    -6285    -6461    -6531    -6447    -6291 
   -6181    -6134    -6092    -6052    -6037    -6103    -6261    -6385 
   -6421    -6396    -6288    -6112    -5944    -5840    -5809    -5813 
   -5842    -5931    -6077    -6241    -6400    -6529    -6546    -6457 
   -6413    -6471    -6523    -6450    -6258    -6048    -5875    -5755 
   -5726    -5775    -5833    -5913    -6103    -6367    -6567    -6643 
   -6583    -6428    -6330    -6354    -6366    -6243    -6077    -6049 
   -6142    -6185    -6176    -6180    -6103    -5927    -5822    -5896 
   -6061    -6181    -6293    -6501    -6724    -6833    -6810    -6732 
   -6658    -6508    -6232    -6012    -5949    -5892    -5783    -5763 
   -5929    -6161    -6311    -6404    -6438    -6365    -6262    -6231 
   -6250    -6258    -6218    -6150    -6169    -6261    -6228    -6077 
   -6019    -6081    -6173    -6286    -6336    -6223    -6037    -5992 
   -6143    -6299    -6301    -6242    -6234    -6270    -6288    -6247 
   -6139    -5988    -5910    -6018    -6203    -6253    -6199    -6223 
   -6336    -6466    -6546    -6496    -6340    -6158    -6015    -5946 
   -5923    -5958    -6103    -6303    -6443    -6511    -6554    -6578 
   -6561    -6496    -6399    -6292    -6176    -6106    -6112    -6118 
   -6084    -6015    -5926    -5873    -5896    -6004    -6188    -6384 
   -6523    -6609    -6664    -6679    -6616    -6458    -6293    -6222 
   -6168    -6057    -5980    -5977    -6008    -6138    -6438    -6794 
   -7006    -7034    -6959    -6793    -6535    -6228    -5902    -5614 
