Origin Time       2025/01/13 21:19:00
Lat.              31.8
Long.             131.6
Depth. (km)       30
Mag.              6.9
Station Code      HRS008
Station Lat.      34.6029
Station Long.     132.7201
Station Height(m) 207
Record Time       2025/01/13 21:20:39
Sampling Freq(Hz) 100Hz
Duration Time(s)  101
Dir.              N-S
Scale Factor      7845(gal)/8223790
Max. Acc. (gal)   2.331
Last Correction   2025/01/13 21:20:39
Memo.             
[...]
     604      525      757     1063     1225     1273     1293     1264 
    1159     1023      930      985     1205     1402     1482     1579 
    1733     1788     1617     1356     1294     1443     1548     1479 
    1347     1344     1476     1545     1506     1489     1420     1127 
     707      357      137       37       47      126      213      228 
     130      -70     -324     -545     -714     -841     -843     -692 
    -523     -382     -148      122      221      113      -21      -47 
      28      164      427      901     1437     1763     1871     1892 
    1790     1567     1391     1343     1290     1102      823      573 
     368      166      -33     -178     -197      -78      125      344 
     504      571      567      535      523      525      440      248 
      59      -16       89      361      681      993     1304     1528 
    1603     1572     1460     1336     1293     1279     1217     1152 
    1086      949      768      619      467      228      -36     -233 
    -391     -467     -376     -245     -193     -116      105      483 
     904     1144     1156     1158     1254     1345     1383     1377 
    1325     1264     1269     1339     1425     1553     1755     1925 
    1952     1817     1557     1293     1129     1057     1000      832 
     479      108     -114     -268     -426     -469     -295      -10 
     170      183      149      193      290      340      376      492 
     630      700      764      872      895      734      468      221 
      44      -21      -59     -228     -427     -457     -361     -284 
    -249     -174       17      280      449      411      232       81 
      29        6       27      220      552      792      835      788 
     774      816      865      857      729      495      317      240 
     141       87      243      531      772      882      846      735 
     681      672      599      454      311      228      298      619 
    1098     1532     1822     1968     1930     1653     1224      873 
     765      862     1032     1183     1286     1345     1391     1448 
    1476     1421     1293     1132      980      900      932     1007 
    1005      901      788      743      756      789      799      714 
     502      226      -47     -318     -588     -808     -889     -792 
    -604     -476     -477     -513     -423     -189       99      395 
     702      977     1139     1148     1080     1050     1097     1202 
    1386     1717     2142     2396     2292     1965     1692     1593 
    1563     1455     1244     1023      864      751      646      507 
     349      279      369      498      508      452      434      430 
     437      541      708      816      831      769      687      684 
     758      781      703      654      816     1181     1568     1906 
    2253     2610     2878     2897     2581     2126     1899     1989 
    2106     2018     1802     1548     1237      895      630      518 
     521      552      540      473      359      159      -90     -238 
    -198       16      329      591      702      703      683      718 
     801      855      873      893      899      959     1210     1537 
    1705     1690     1567     1379     1235     1179     1150     1101 
    1001      808      567      313       35     -210     -338     -324 
    -206      -98      -52      -24      -16      -75     -143     -116 
     -81     -225     -522     -741     -720     -473     -143      170 
     468      720      882      967     1003     1039     1159     1367 
    1582     1714     1768     1821     1911     2008     2116     2277 
    2435     2489     2425     2288     2131     1952     1655     1266 
     918      599      253      -49     -216     -233     -170     -174 
    -317     -487     -595     -657     -660     -576     -410     -149 
     176      511      815     1026     1082     1020      892      683 
     421      232      203      342      607      865      973      942 
     858      761      700      710      710      606      409      217 
     143      232      450      697      824      766      598      346 
      56     -144     -256     -349     -396     -423     -460     -403 
    -234      -68       93      283      467      594      642      669 
     765      909     1047     1194     1377     1572     1749     1896 
    2000     2045     2065     2104     2169     2235     2218     2012 
    1620     1139      657      230     -112     -355     -471     -460 
    -356     -190       14      243      491      757     1016     1177 
    1183     1162     1281     1506     1653     1590     1385     1213 
    1134     1028      815      560      340      132      -68     -201 
    -189      -12      217      355      364      270      118      -35 
    -157     -189      -64      182      421      540      553      538 
     523      498      452      387      364      477      695      866 
     931      915      874      918     1089     1331     1598     1819 
    1911     1904     1892     1876     1804     1679     1595     1642 
    1817     2008     2085     1998     1825     1667     1539     1377 
    1173     1027      990      965      861      696      494      259 
      41      -68      -21      139      337      502      587      588 
     491      303      133      101      209      405      672     1013 
    1301     1378     1259     1117     1102     1221     1381     1553 
    1802     2151     2570     2940     3071     2914     2617     2315 
    2004     1653     1314     1077      920      684      292      -90 
    -310     -418     -488     -526     -540     -522     -477     -441 
    -429     -406     -305     -106      128      387      702     1032 
    1318     1566     1722     1660     1440     1250     1167     1159 
    1152     1084      959      820      630      352       45     -191 
    -341     -422     -375     -137      175      434      680      907 
    1038     1094     1078      951      781      672      646      672 
     681      592      392      184       20     -108     -116       47 
     268      409      437      414      410      405      349      243 
     171      238      430      673      903     1065     1100      970 
     722      452      213       32      -10      129      360      494 
     367       27     -310     -545     -668     -615     -406     -143 
     121      351      514      639      756      811      758      642 
     548      515      542      637      800      945      982      939 
     869      796      780      876     1082     1348     1605     1767 
    1749     1530     1202      939      868      986     1194     1391 
    1537     1637     1734     1821     1784     1566     1248      931 
     654      460      360      321      306      278      225      168 
     126       79       10      -67     -149     -241     -337     -365 
    -221       56      301      432      480      507      560      610 
     657      810     1088     1356     1522     1599     1634     1705 
    1848     1993     2035     1934     1740     1526     1263      891 
     518      305      274      353      471      573      646      703 
     727      680      564      438      356      334      383      579 
     935     1290     1540     1746     1884     1885     1784     1587 
    1301     1054      923      822      664      437      151     -144 
    -387     -549     -615     -560     -402     -216      -43      116 
     241      341      480      681      915     1185     1495     1772 
    1934     1989     1975     1926     1846     1686     1432     1159 
     946      814      750      735      761      800      820      810 
     712      483      162     -182     -449     -548     -514     -453 
    -437     -480     -531     -575     -642     -738     -841     -901 
    -865     -734     -552     -334      -71      226      521      742 
     876      994     1134     1236     1262     1243     1273     1432 
    1665     1844     1904     1885     1815     1683     1518     1358 
    1183      959      729      564      437      280      109        2 
     -12      -33     -151     -301     -407     -484     -506     -414 
    -218       12      210      359      477      575      618      591 
     592      716      919     1093     1205     1286     1381     1489 
    1551     1530     1436     1263     1027      770      538      432 
     571      922     1314     1615     1755     1695     1466     1171 
     912      757      760      893     1096     1350     1614     1809 
    1926     1976     1908     1769     1705     1722     1715     1647 
    1541     1435     1355     1266     1104      900      742      649 
     575      521      526      607      747      878      930      940 
     974     1003      962      873      796      750      793      980 
    1251     1498     1634     1615     1486     1364     1341     1404 
    1467     1455     1336     1158      976      715      357       59 
    -114     -292     -549     -812     -990    -1032     -932     -785 
    -708     -702     -700     -681     -650     -591     -498     -363 
    -170       89      371      615      753      762      753      845 
    1024     1223     1394     1512     1580     1606     1599     1563 
    1482     1378     1310     1287     1260     1196     1121     1071 
    1020      895      700      560      537      558      575      588 
     577      510      400      253       74      -55      -41      132 
     438      785     1078     1301     1426     1381     1208     1046 
     930      843      828      881      955     1013      997      901 
     865     1020     1323     1582     1687     1690     1628     1458 
    1201      943      707      469      284      210      206      221 
     257      299      290      184       -6     -252     -513     -697 
    -719     -622     -542     -514     -461     -373     -279     -130 
     126      441      711      889     1003     1096     1152     1143 
    1101     1067     1063     1108     1212     1378     1591     1791 
    1883     1846     1732     1587     1443     1339     1300     1294 
    1281     1270     1255     1167      965      662      322       56 
     -72      -85       10      195      378      471      481      476 
     503      499      371      153      -12      -40       21       85 
     139      248      422      564      612      630      684      791 
     945     1094     1183     1223     1221     1181     1182     1289 
    1440     1517     1440     1208      916      649      426      274 
     184      106       44        1      -63     -133     -186     -244 
    -288     -279     -264     -265     -226      -95      133      411 
     658      854     1043     1236     1386     1493     1618     1804 
    2023     2184     2216     2155     2114     2157     2258     2358 
    2439     2543     2647     2689     2664     2582     2443     2282 
    2115     1929     1737     1534     1264      880      429       28 
    -257     -453     -622     -805     -978    -1073    -1059     -994 
    -918     -788     -611     -464     -378     -299     -170       12 
     222      479      820     1175     1375     1381     1343     1408 
    1578     1749     1845     1872     1872     1898     1952     1952 
    1853     1725     1582     1324      934      517      167      -91 
    -268     -400     -492     -517     -510     -553     -619     -615 
    -531     -442     -383     -319     -211      -51      144      351 
     533      676      764      774      734      680      633      607 
     612      638      645      612      577      556      500      421 
     402      444      465      445      423      415      414      378 
     280      157       55      -24     -112     -225     -310     -287 
    -149       68      315      526      715      915     1100     1269 
    1452     1633     1794     1964     2114     2195     2238     2249 
    2176     2035     1858     1664     1502     1404     1341     1285 
    1209     1131     1097     1100     1101     1086     1028      905 
     734      564      456      422      417      417      436      444 
     373      236       98        8       -4       94      286      500 
     645      693      700      741      822      895      939      969 
    1001     1074     1181     1267     1343     1447     1524     1529 
    1532     1563     1549     1468     1379     1309     1233     1102 
     897      681      515      388      280      225      252      315 
     352      336      275      210      191      209      270      400 
     553      653      719      815      950     1102     1255     1382 
    1462     1505     1563     1651     1682     1578     1387     1174 
     943      718      537      422      390      395      333      162 
     -74     -297     -450     -548     -626     -643     -572     -494 
    -508     -584     -614     -562     -487     -422     -359     -278 
    -170      -39       98      241      417      652      928     1204 
    1444     1621     1749     1879     2011     2103     2127     2100 
    2025     1883     1672     1431     1212     1035      877      710 
     542      392      272      174       86        8      -40      -21 
      32       32      -35     -120     -214     -315     -406     -476 
    -507     -469     -365     -207      -14      170      310      405 
     464      541      704      963     1277     1629     1992     2324 
    2605     2799     2914     3019     3113     3164     3160     3013 
    2678     2293     1961     1659     1379     1143      924      662 
     310     -132     -604    -1015    -1294    -1426    -1418    -1258 
    -972     -668     -423     -202       18      201      346      477 
     608      756      912     1054     1151     1192     1205     1232 
    1255     1224     1139     1016      858      685      511      338 
     209      139       64      -62     -226     -395     -519     -588 
    -657     -706     -685     -638     -619     -614     -602     -571 
    -499     -388     -260     -113       71      298      522      693 
     803      841      843      927     1152     1432     1690     1952 
    2209     2408     2527     2567     2513     2349     2099     1837 
    1615     1397     1159      953      826      801      845      842 
     724      521      298      155      151      198      224      283 
     399      523      638      757      916     1147     1405     1651 
    1871     2006     2007     1930     1857     1811     1796     1779 
    1688     1482     1219      992      805      576      279      -20 
    -270     -452     -572     -666     -745     -778     -785     -801 
    -826     -822     -731     -521     -221      108      421      700 
     954     1169     1333     1478     1622     1726     1741     1665 
    1548     1470     1468     1506     1524     1491     1431     1368 
    1302     1210     1089      972      884      819      781      769 
     774      808      865      908      922      932      953      967 
     992     1043     1070     1026      939      877      862      870 
     899      962     1001      963      889      805      692      556 
     438      373      368      410      481      545      568      550 
     480      328      172      135      183      210      214      237 
     259      263      260      256      292      394      515      622 
     715      770      766      722      661      575      433      234 
      32     -108     -179     -180      -95       41      167      261 
     363      481      567      579      552      552      608      708 
     827      951     1085     1240     1391     1505     1552     1512 
    1399     1281     1208     1188     1174     1131     1109     1147 
    1166     1108      976      776      565      423      328      203 
      68      -31      -97     -156     -218     -264     -261     -210 
    -133      -35      113      333      554      680      734      791 
     855      893      882      865      907     1009     1105     1139 
    1090      988      880      770      633      491      407      406 
     436      445      421      376      325      280      245      216 
     193      206      284      423      599      785      939     1027 
    1057     1080     1158     1294     1432     1536     1603     1659 
    1713     1740     1728     1733     1788     1831     1787     1661 
    1510     1352     1163      930      662      413      216       60 
     -60     -164     -264     -351     -394     -379     -346     -367 
    -441     -515     -583     -639     -669     -654     -561     -365 
    -112      140      361      530      673      870     1132     1404 
    1667     1898     2046     2106     2088     1992     1849     1721 
    1628     1552     1483     1439     1408     1344     1221     1058 
     905      804      754      742      741      720      668      569 
     434      302      190      121      143      234      336      425 
     519      614      691      731      745      781      853      926 
     999     1085     1158     1200     1215     1208     1192     1166 
    1111     1030      950      870      776      653      502      359 
     268      222      180      159      205      295      353      342 
     294      263      268      282      284      307      391      542 
     727      896     1040     1178     1321     1459     1575     1671 
    1722     1691     1588     1431     1229     1020      838      692 
     592      517      454      425      413      383      355      361 
     391      437      508      576      633      714      803      839 
     826      814      846      922     1001     1057     1104     1177 
    1294     1425     1502     1507     1475     1445     1456     1537 
    1668     1811     1915     1900     1737     1491     1244     1035 
     861      676      490      368      302      230      156      103 
      81       98      140      166      157      116       62       32 
      48       97      157      226      313      419      513      540 
     513      499      522      560      594      635      703      756 
     758      712      611      453      275       97      -54     -135 
    -116       -9      141      290      422      549      668      741 
     741      681      635      669      745      784      769      727 
     683      642      583      486      383      326      330      383 
     475      573      642      672      691      722      766      831 
     931     1039     1115     1170     1206     1209     1202     1194 
    1198     1244     1329     1420     1486     1495     1452     1397 
    1354     1335     1343     1337     1281     1197     1104     1001 
     911      842      756      627      494      386      291      171 
      16     -152     -299     -391     -409     -346     -220      -58 
     105      237      337      437      526      594      676      797 
     939     1067     1142     1154     1150     1144     1108     1046 
     996      982      985      969      936      903      842      734 
     607      498      421      382      361      345      340      342 
     360      391      419      448      491      544      600      664 
     734      823      932     1035     1086     1059      997      984 
