Origin Time       2025/01/13 21:19:00
Lat.              31.8
Long.             131.6
Depth. (km)       30
Mag.              6.9
Station Code      HRS003
Station Lat.      34.8138
Station Long.     132.8427
Station Height(m) 156
Record Time       2025/01/13 21:21:15
Sampling Freq(Hz) 100Hz
Duration Time(s)  60
Dir.              N-S
Scale Factor      7845(gal)/8223790
Max. Acc. (gal)   1.688
Last Correction   2025/01/13 21:21:16
Memo.             
[...]
   -3792    -3821    -3784    -3719    -3672    -3661    -3692    -3755 
   -3821    -3875    -3928    -3986    -4040    -4085    -4095    -4044 
   -3928    -3771    -3605    -3443    -3312    -3245    -3257    -3321 
   -3402    -3495    -3569    -3596    -3565    -3500    -3457    -3468 
   -3531    -3612    -3658    -3666    -3640    -3597    -3543    -3489 
   -3468    -3476    -3520    -3615    -3734    -3850    -3936    -3979 
   -3973    -3913    -3816    -3693    -3573    -3495    -3483    -3527 
   -3584    -3639    -3713    -3801    -3886    -3947    -3942    -3866 
   -3780    -3703    -3626    -3572    -3543    -3541    -3564    -3582 
   -3578    -3555    -3503    -3391    -3252    -3144    -3098    -3138 
   -3242    -3373    -3516    -3669    -3824    -3946    -4005    -3998 
   -3950    -3897    -3875    -3916    -4023    -4159    -4253    -4256 
   -4190    -4094    -3985    -3879    -3763    -3609    -3419    -3233 
   -3086    -3026    -3091    -3253    -3443    -3599    -3689    -3716 
   -3677    -3611    -3595    -3657    -3754    -3819    -3805    -3696 
   -3538    -3391    -3310    -3339    -3468    -3646    -3811    -3908 
   -3921    -3851    -3720    -3576    -3451    -3366    -3325    -3333 
   -3408    -3541    -3676    -3740    -3726    -3678    -3630    -3580 
   -3547    -3591    -3728    -3904    -4028    -4050    -3977    -3831 
   -3653    -3500    -3418    -3434    -3545    -3700    -3832    -3917 
   -3960    -3962    -3902    -3775    -3638    -3565    -3580    -3659 
   -3755    -3827    -3851    -3821    -3777    -3736    -3701    -3670 
   -3643    -3615    -3592    -3603    -3659    -3746    -3839    -3896 
   -3881    -3788    -3645    -3489    -3323    -3157    -3021    -2936 
   -2905    -2943    -3063    -3248    -3457    -3651    -3785    -3828 
   -3744    -3541    -3299    -3114    -3051    -3103    -3223    -3353 
   -3462    -3530    -3549    -3569    -3624    -3712    -3812    -3881 
   -3890    -3816    -3647    -3446    -3294    -3234    -3258    -3341 
   -3439    -3526    -3601    -3659    -3694    -3699    -3658    -3601 
   -3577    -3631    -3754    -3916    -4109    -4291    -4392    -4360 
   -4195    -3942    -3650    -3383    -3181    -3068    -3057    -3125 
   -3229    -3339    -3445    -3538    -3615    -3655    -3634    -3558 
   -3456    -3377    -3366    -3402    -3454    -3531    -3638    -3746 
   -3834    -3904    -3940    -3943    -3912    -3838    -3748    -3694 
   -3699    -3735    -3790    -3875    -3978    -4052    -4062    -4027 
   -3970    -3847    -3626    -3338    -3051    -2829    -2710    -2725 
   -2884    -3146    -3434    -3666    -3788    -3784    -3693    -3574 
   -3495    -3512    -3635    -3842    -4054    -4189    -4234    -4193 
   -4052    -3851    -3651    -3483    -3366    -3322    -3308    -3277 
   -3221    -3167    -3164    -3234    -3364    -3523    -3680    -3800 
   -3843    -3817    -3767    -3732    -3746    -3817    -3933    -4055 
   -4128    -4122    -4043    -3919    -3793    -3707    -3674    -3673 
   -3663    -3613    -3538    -3470    -3424    -3423    -3470    -3531 
   -3561    -3561    -3555    -3545    -3546    -3569    -3585    -3551 
   -3474    -3420    -3434    -3499    -3572    -3632    -3692    -3766 
   -3858    -3947    -4028    -4117    -4197    -4229    -4203    -4131 
   -4014    -3859    -3704    -3604    -3586    -3618    -3631    -3608 
   -3542    -3449    -3384    -3383    -3441    -3516    -3588    -3658 
   -3693    -3658    -3551    -3414    -3303    -3258    -3299    -3427 
   -3632    -3847    -3987    -4016    -3931    -3755    -3542    -3375 
   -3316    -3379    -3526    -3677    -3753    -3736    -3667    -3619 
   -3616    -3623    -3586    -3489    -3353    -3218    -3142    -3146 
   -3217    -3349    -3508    -3638    -3708    -3731    -3727    -3689 
   -3638    -3609    -3619    -3653    -3677    -3669    -3611    -3526 
   -3460    -3415    -3366    -3318    -3311    -3356    -3426    -3492 
   -3527    -3527    -3495    -3460    -3495    -3646    -3885    -4139 
   -4322    -4380    -4298    -4093    -3778    -3420    -3118    -2948 
   -2941    -3057    -3218    -3348    -3403    -3392    -3346    -3322 
   -3354    -3454    -3616    -3809    -3996    -4126    -4166    -4125 
   -4045    -3966    -3901    -3843    -3792    -3751    -3728    -3719 
   -3711    -3686    -3657    -3651    -3676    -3719    -3758    -3739 
   -3632    -3453    -3267    -3140    -3098    -3113    -3144    -3149 
   -3099    -3013    -2938    -2891    -2878    -2897    -2964    -3094 
   -3245    -3373    -3456    -3488    -3501    -3531    -3581    -3615 
   -3642    -3686    -3723    -3717    -3667    -3586    -3485    -3384 
   -3321    -3310    -3341    -3397    -3481    -3565    -3601    -3607 
   -3631    -3715    -3854    -4006    -4126    -4160    -4062    -3825 
   -3519    -3254    -3100    -3073    -3152    -3294    -3447    -3537 
   -3532    -3476    -3412    -3343    -3280    -3267    -3337    -3474 
   -3631    -3754    -3820    -3832    -3815    -3792    -3771    -3750 
   -3724    -3696    -3653    -3599    -3555    -3547    -3593    -3686 
   -3801    -3901    -3927    -3859    -3720    -3558    -3433    -3403 
   -3481    -3611    -3754    -3888    -3971    -3982    -3921    -3821 
   -3734    -3700    -3726    -3789    -3871    -3950    -4002    -4027 
   -4037    -4048    -4041    -4005    -3947    -3900    -3888    -3910 
   -3964    -4029    -4067    -4063    -4017    -3942    -3850    -3742 
   -3609    -3473    -3406    -3427    -3493    -3543    -3546    -3510 
   -3453    -3410    -3384    -3373    -3419    -3546    -3711    -3846 
   -3910    -3896    -3820    -3723    -3631    -3572    -3601    -3740 
   -3959    -4201    -4413    -4558    -4631    -4629    -4548    -4414 
   -4266    -4144    -4086    -4078    -4083    -4070    -4002    -3866 
   -3674    -3480    -3342    -3285    -3299    -3342    -3380    -3397 
   -3414    -3439    -3454    -3470    -3492    -3499    -3487    -3477 
   -3492    -3541    -3638    -3763    -3870    -3936    -3962    -3966 
   -3958    -3931    -3919    -3960    -4068    -4212    -4338    -4403 
   -4401    -4357    -4286    -4191    -4097    -4020    -3966    -3932 
   -3924    -3920    -3882    -3798    -3667    -3526    -3408    -3327 
   -3304    -3353    -3464    -3595    -3697    -3754    -3782    -3796 
   -3780    -3723    -3646    -3561    -3474    -3393    -3329    -3289 
   -3288    -3330    -3396    -3466    -3527    -3574    -3611    -3636 
   -3659    -3684    -3707    -3715    -3696    -3658    -3615    -3572 
   -3528    -3492    -3485    -3515    -3570    -3636    -3705    -3770 
   -3798    -3766    -3682    -3576    -3492    -3462    -3496    -3570 
   -3659    -3747    -3794    -3777    -3689    -3545    -3364    -3167 
   -2986    -2856    -2787    -2755    -2743    -2762    -2810    -2862 
   -2907    -2947    -2980    -3015    -3064    -3113    -3141    -3138 
   -3099    -3040    -2987    -2970    -3021    -3123    -3231    -3322 
   -3375    -3365    -3310    -3258    -3231    -3231    -3273    -3360 
   -3472    -3545    -3541    -3484    -3411    -3343    -3299    -3303 
   -3361    -3445    -3518    -3549    -3539    -3497    -3445    -3410 
   -3396    -3399    -3411    -3433    -3461    -3495    -3539    -3574 
   -3592    -3616    -3661    -3697    -3665    -3547    -3370    -3173 
   -2980    -2830    -2798    -2906    -3115    -3365    -3572    -3678 
   -3676    -3591    -3477    -3406    -3400    -3434    -3500    -3588 
   -3663    -3709    -3717    -3705    -3684    -3655    -3624    -3596 
   -3566    -3524    -3478    -3420    -3358    -3334    -3357    -3430 
   -3557    -3707    -3847    -3952    -4020    -4056    -4075    -4091 
   -4104    -4106    -4110    -4129    -4147    -4140    -4139    -4171 
   -4233    -4321    -4410    -4475    -4504    -4518    -4517    -4488 
   -4438    -4382    -4330    -4274    -4186    -4072    -3948    -3842 
   -3786    -3781    -3782    -3748    -3677    -3580    -3484    -3408 
   -3353    -3322    -3298    -3262    -3219    -3180    -3164    -3186 
   -3257    -3380    -3538    -3709    -3865    -3983    -4056    -4089 
   -4087    -4050    -3979    -3889    -3793    -3705    -3631    -3589 
   -3569    -3550    -3534    -3522    -3531    -3565    -3597    -3607 
   -3585    -3527    -3416    -3249    -3060    -2918    -2863    -2878 
   -2952    -3078    -3213    -3310    -3333    -3292    -3229    -3191 
   -3195    -3235    -3318    -3424    -3524    -3622    -3731    -3856 
   -3977    -4074    -4141    -4170    -4155    -4106    -4064    -4060 
   -4085    -4135    -4201    -4264    -4298    -4268    -4152    -3979 
   -3802    -3638    -3492    -3383    -3318    -3311    -3354    -3414 
   -3454    -3457    -3418    -3341    -3283    -3299    -3379    -3485 
   -3580    -3643    -3665    -3642    -3603    -3574    -3578    -3632 
   -3715    -3763    -3748    -3711    -3674    -3636    -3618    -3650 
   -3744    -3881    -4033    -4158    -4232    -4278    -4297    -4286 
   -4260    -4222    -4158    -4075    -4000    -3931    -3861    -3805 
   -3771    -3755    -3750    -3754    -3743    -3697    -3636    -3577 
   -3520    -3469    -3431    -3438    -3495    -3574    -3666    -3765 
   -3819    -3781    -3685    -3591    -3546    -3584    -3700    -3885 
   -4090    -4244    -4328    -4352    -4321    -4257    -4175    -4062 
   -3929    -3808    -3678    -3541    -3395    -3234    -3092    -2999 
   -2960    -2967    -2991    -3014    -3028    -3018    -2983    -2945 
   -2907    -2851    -2768    -2666    -2579    -2543    -2543    -2560 
   -2581    -2609    -2654    -2700    -2760    -2837    -2911    -2979 
   -3036    -3065    -3067    -3067    -3073    -3103    -3152    -3177 
   -3175    -3165    -3161    -3181    -3229    -3308    -3426    -3553 
   -3661    -3739    -3797    -3850    -3901    -3936    -3943    -3923 
   -3896    -3883    -3890    -3920    -3973    -4035    -4104    -4144 
   -4125    -4081    -4037    -4008    -4002    -4044    -4152    -4305 
   -4455    -4552    -4580    -4556    -4496    -4426    -4361    -4301 
   -4251    -4217    -4178    -4101    -4002    -3904    -3807    -3707 
   -3613    -3565    -3569    -3604    -3657    -3713    -3775    -3838 
   -3885    -3915    -3940    -3989    -4048    -4090    -4094    -4071 
   -4044    -4001    -3931    -3842    -3736    -3623    -3508    -3385 
   -3261    -3146    -3040    -2948    -2894    -2870    -2867    -2874 
   -2878    -2875    -2856    -2843    -2860    -2903    -2953    -2997 
   -3038    -3073    -3096    -3115    -3123    -3113    -3091    -3090 
   -3146    -3260    -3411    -3543    -3612    -3615    -3570    -3491 
   -3397    -3345    -3360    -3422    -3503    -3585    -3653    -3681 
   -3673    -3661    -3646    -3622    -3584    -3542    -3503    -3461 
   -3429    -3423    -3450    -3505    -3577    -3670    -3777    -3888 
   -4005    -4121    -4226    -4317    -4418    -4536    -4644    -4730 
   -4796    -4838    -4831    -4779    -4699    -4590    -4461    -4317 
   -4156    -4005    -3874    -3766    -3655    -3535    -3426    -3329 
   -3230    -3138    -3083    -3057    -3033    -3015    -3013    -3033 
   -3078    -3161    -3292    -3441    -3585    -3708    -3778    -3774 
   -3713    -3650    -3607    -3588    -3613    -3690    -3798    -3908 
   -3996    -4050    -4075    -4093    -4104    -4129    -4197    -4303 
   -4423    -4529    -4602    -4641    -4623    -4545    -4419    -4263 
   -4099    -3964    -3879    -3839    -3823    -3802    -3765    -3708 
   -3639    -3565    -3477    -3384    -3310    -3275    -3283    -3319 
   -3365    -3389    -3366    -3300    -3206    -3103    -3011    -2934 
   -2853    -2758    -2682    -2644    -2628    -2617    -2613    -2621 
   -2632    -2658    -2713    -2787    -2878    -2988    -3121    -3248 
   -3327    -3343    -3300    -3213    -3107    -3017    -2967    -2963 
   -3010    -3098    -3214    -3337    -3450    -3535    -3586    -3632 
   -3692    -3769    -3866    -3974    -4093    -4221    -4340    -4418 
   -4426    -4363    -4248    -4112    -3977    -3866    -3800    -3785 
   -3819    -3879    -3933    -3969    -3970    -3943    -3888    -3801 
   -3693    -3568    -3429    -3287    -3157    -3064    -3003    -2963 
   -2932    -2905    -2880    -2855    -2847    -2855    -2870    -2879 
   -2866    -2829    -2781    -2741    -2731    -2751    -2795    -2860 
   -2932    -2978    -2982    -2972    -2970    -2998    -3068    -3177 
   -3308    -3429    -3524    -3605    -3685    -3777    -3882    -4004 
   -4131    -4244    -4337    -4413    -4487    -4571    -4675    -4776 
   -4843    -4873    -4857    -4806    -4742    -4669    -4585    -4519 
   -4496    -4514    -4544    -4561    -4554    -4542    -4529    -4515 
   -4506    -4499    -4503    -4517    -4517    -4483    -4417    -4322 
   -4195    -4041    -3867    -3673    -3483    -3304    -3121    -2922 
   -2732    -2577    -2463    -2390    -2351    -2361    -2425    -2516 
   -2619    -2724    -2820    -2911    -2998    -3087    -3188    -3316 
   -3456    -3581    -3669    -3701    -3707    -3719    -3753    -3828 
   -3947    -4101    -4266    -4411    -4530    -4630    -4727    -4818 
   -4896    -4961    -5013    -5050    -5044    -4986    -4889    -4765 
   -4638    -4525    -4418    -4301    -4159    -3986    -3770    -3511 
   -3223    -2940    -2695    -2492    -2323    -2185    -2076    -1998 
   -1949    -1918    -1881    -1852    -1852    -1881    -1941    -2022 
   -2108    -2181    -2232    -2290    -2370    -2479    -2624    -2794 
   -2979    -3150    -3291    -3400    -3474    -3518    -3562    -3638 
   -3736    -3848    -3970    -4082    -4176    -4266    -4360    -4461 
   -4567    -4676    -4779    -4857    -4903    -4918    -4908    -4872 
   -4816    -4754    -4683    -4599    -4492    -4355    -4175    -3963 
   -3740    -3524    -3342    -3225    -3181    -3208    -3292    -3404 
   -3512    -3605    -3669    -3704    -3740    -3786    -3843    -3917 
   -4002    -4066    -4087    -4054    -3948    -3788    -3612    -3449 
   -3330    -3258    -3217    -3204    -3225    -3271    -3319    -3364 
   -3416    -3478    -3541    -3592    -3640    -3692    -3743    -3801 
   -3871    -3958    -4045    -4114    -4159    -4171    -4152    -4098 
   -4005    -3896    -3786    -3688    -3605    -3547    -3505    -3462 
   -3412    -3334    -3222    -3088    -2963    -2889    -2863    -2882 
   -2943    -3026    -3121    -3218    -3311    -3387    -3468    -3572 
   -3681    -3781    -3867    -3931    -3946    -3909    -3847    -3773 
   -3694    -3620    -3545    -3472    -3395    -3326    -3277    -3235 
   -3202    -3188    -3202    -3242    -3302    -3361    -3399    -3430 
   -3443    -3431    -3418    -3422    -3435    -3434    -3403    -3333 
   -3214    -3060    -2907    -2789    -2728    -2743    -2824    -2940 
   -3079    -3230    -3379    -3514    -3636    -3753    -3851    -3924 
   -3981    -4017    -4027    -3998    -3932    -3843    -3742    -3613 
   -3449    -3280    -3141    -3038    -2964    -2924    -2937    -3014 
   -3148    -3314    -3483    -3661    -3839    -4002    -4156    -4293 
   -4413    -4527    -4648    -4754    -4823    -4861    -4887    -4909 
   -4912    -4889    -4851    -4801    -4758    -4718    -4657    -4580 
   -4494    -4396    -4288    -4170    -4050    -3940    -3847    -3767 
   -3711    -3677    -3651    -3630    -3611    -3591    -3565    -3534 
   -3503    -3465    -3422    -3385    -3362    -3361    -3368    -3369 
   -3356    -3335    -3327    -3341    -3381    -3450    -3539    -3634 
   -3719    -3780    -3802    -3798    -3786    -3793    -3854    -3956 
   -4089    -4256    -4421    -4545    -4611    -4622    -4581    -4492 
   -4365    -4212    -4043    -3870    -3704    -3542    -3384    -3226 
   -3060    -2893    -2729    -2586    -2484    -2411    -2367    -2357 
   -2363    -2365    -2362    -2384    -2432    -2494    -2566    -2644 
   -2733    -2828    -2930    -3033    -3127    -3226    -3331    -3437 
   -3534    -3618    -3707    -3800    -3859    -3878    -3873    -3844 
   -3794    -3743    -3696    -3647    -3600    -3549    -3492    -3422 
   -3335    -3253    -3199    -3202    -3268    -3393    -3569    -3750 
   -3906    -4029    -4120    -4170    -4176    -4156    -4121    -4074 
   -4008    -3935    -3871    -3801    -3724    -3645    -3561    -3473 
   -3370    -3267    -3181    -3132    -3119    -3132    -3169    -3233 
   -3303    -3368    -3443    -3537    -3635    -3739    -3828    -3890 
   -3943    -3991    -4050    -4120    -4197    -4299    -4414    -4519 
   -4602    -4653    -4668    -4661    -4639    -4590    -4522    -4446 
   -4365    -4282    -4178    -4063    -3962    -3867    -3769    -3667 
   -3570    -3477    -3380    -3285    -3176    -3053    -2933    -2841 
   -2791    -2772    -2776    -2793    -2821    -2847    -2863    -2884 
   -2903    -2909    -2911    -2917    -2929    -2963    -3005    -3041 
   -3088    -3141    -3181    -3241    -3318    -3387    -3443    -3499 
   -3568    -3643    -3705    -3766    -3823    -3854    -3831    -3761 
   -3672    -3580    -3493    -3431    -3396    -3380    -3384    -3395 
   -3384    -3366    -3350    -3343    -3368    -3423    -3519    -3646 
   -3777    -3913    -4044    -4149    -4217    -4263    -4297    -4318 
   -4332    -4341    -4345    -4353    -4368    -4380    -4382    -4374 
   -4337    -4264    -4152    -4000    -3829    -3655    -3474    -3306 
   -3154    -3015    -2893    -2808    -2770    -2770    -2791    -2830 
   -2897    -2987    -3105    -3254    -3414    -3570    -3727    -3878 
   -4013    -4116    -4190    -4237    -4249    -4228    -4178    -4102 
   -4017    -3948    -3904    -3896    -3931    -3986    -4054    -4118 
   -4152    -4155    -4133    -4101    -4074    -4039    -3997    -3950 
   -3900    -3842    -3790    -3762    -3746    -3731    -3709    -3688 
   -3662    -3627    -3593    -3572    -3578    -3622    -3704    -3820 
   -3936    -4043    -4133    -4183    -4186    -4148    -4087    -4013 
   -3939    -3874    -3815    -3758    -3696    -3645    -3611    -3565 
   -3510    -3460    -3426    -3395    -3352    -3296    -3221    -3122 
   -3006    -2883    -2778    -2710    -2693    -2720    -2768    -2822 
   -2880    -2943    -3009    -3091    -3194    -3314    -3454    -3588 
   -3692    -3766    -3805    -3820    -3831    -3854    -3893    -3939 
   -3978    -4001    -4010    -4000    -3964    -3917    -3866    -3828 
   -3813    -3824    -3858    -3894    -3939    -3985    -4002    -3997 
   -3989    -3985    -3979    -3978    -3978    -3966    -3939    -3901 
   -3867    -3825    -3774    -3726    -3686    -3670    -3665    -3657 
   -3653    -3650    -3649    -3653    -3654    -3658    -3669    -3693 
   -3732    -3773    -3790    -3792    -3782    -3748    -3705    -3657 
   -3578    -3477    -3376    -3279    -3181    -3090    -3029    -3001 
   -2995    -3005    -3036    -3086    -3145    -3227    -3349    -3511 
   -3707    -3927    -4158    -4356    -4503    -4606    -4654    -4657 
   -4626    -4575    -4518    -4460    -4405    -4352    -4298    -4221 
   -4120    -4012    -3888    -3744    -3584    -3412    -3227    -3037 
   -2882    -2772    -2709    -2686    -2690    -2736    -2806    -2849 
