Origin Time       2025/01/13 21:19:00
Lat.              31.8
Long.             131.6
Depth. (km)       30
Mag.              6.9
Station Code      HRS019
Station Lat.      34.2530
Station Long.     132.5617
Station Height(m) 4
Record Time       2025/01/13 21:20:22
Sampling Freq(Hz) 100Hz
Duration Time(s)  111
Dir.              E-W
Scale Factor      7845(gal)/8223790
Max. Acc. (gal)   5.891
Last Correction   2025/01/13 21:20:22
Memo.             
[...]
    -225     -238     -120      135      265      139     -137     -400 
    -622     -861    -1081    -1217    -1325    -1482    -1684    -1931 
   -2164    -2242    -2104    -1867    -1706    -1705    -1757    -1706 
   -1598    -1603    -1707    -1725    -1561    -1279     -988     -751 
    -544     -325     -126       16      117      162       18     -461 
   -1209    -1910    -2384    -2764    -3098    -3153    -2839    -2434 
   -2195    -2047    -1880    -1728    -1588    -1399    -1173     -976 
    -846     -805     -904    -1173    -1561    -2012    -2432    -2664 
   -2605    -2286    -1867    -1536    -1301    -1028     -710     -465 
    -325     -175       40      251      392      399      207     -171 
    -681    -1178    -1439    -1391    -1237    -1263    -1599    -2142 
   -2636    -2918    -3038    -3076    -2999    -2786    -2515    -2223 
   -1834    -1356    -1016    -1028    -1273    -1452    -1447    -1297 
   -1066     -845     -683     -567     -502     -473     -454     -469 
    -530     -683    -1032    -1579    -2070    -2224    -2047    -1807 
   -1656    -1468    -1134     -774     -562     -523     -587     -695 
    -805     -885     -935     -992    -1078    -1186    -1278    -1279 
   -1228    -1235    -1274    -1242    -1159    -1093    -1066    -1067 
   -1086    -1151    -1239    -1219    -1058     -899     -849     -895 
   -1017    -1223    -1476    -1705    -1871    -2011    -2149    -2208 
   -2150    -2019    -1790    -1414     -981     -660     -591     -793 
   -1127    -1435    -1680    -1888    -2019    -2015    -1918    -1826 
   -1825    -1919    -1971    -1833    -1514    -1158     -924     -895 
   -1019    -1196    -1312    -1314    -1320    -1390    -1364    -1178 
    -988     -869     -731     -525     -317     -189     -139     -135 
    -178     -245     -340     -571     -996    -1510    -1954    -2236 
   -2407    -2540    -2602    -2565    -2415    -2049    -1472     -919 
    -603     -591     -780     -889     -742     -475     -332     -391 
    -530     -606     -626     -716     -972    -1383    -1890    -2350 
   -2555    -2482    -2365    -2355    -2380    -2319    -2187    -2077 
   -1993    -1861    -1614    -1279     -999     -846     -733     -560 
    -351     -245     -391     -723     -992    -1077    -1036     -897 
    -730     -712     -870    -1042    -1132    -1177    -1205    -1182 
   -1062     -851     -599     -430     -465     -639     -869    -1243 
   -1792    -2330    -2627    -2614    -2430    -2245    -2050    -1757 
   -1422    -1159    -1040    -1154    -1405    -1483    -1328    -1167 
   -1044     -878     -777     -838    -1015    -1279    -1549    -1644 
   -1512    -1300    -1175    -1202    -1258    -1221    -1194    -1333 
   -1567    -1696    -1668    -1598    -1553    -1521    -1483    -1428 
   -1382    -1381    -1333    -1196    -1170    -1360    -1610    -1865 
   -2180    -2488    -2722    -2852    -2817    -2613    -2303    -1904 
   -1359     -662      -24      290      260      178      274      405 
     418      549      996     1449     1425      915      359       78 
     -28     -283     -849    -1526    -2038    -2355    -2632    -2938 
   -3179    -3249    -3199    -3146    -3092    -2930    -2681    -2496 
   -2367    -2165    -1850    -1435     -909     -363       28      190 
     222      178      -10     -357     -776    -1183    -1536    -1798 
   -1939    -1962    -1929    -1884    -1746    -1453    -1129     -851 
    -567     -371     -406     -535     -508     -282      -54      -41 
    -240     -498     -715     -866    -1001    -1254    -1634    -1988 
   -2249    -2504    -2778    -2937    -2928    -2967    -3238    -3576 
   -3674    -3460    -3063    -2533    -1836    -1069     -506     -318 
    -368     -368     -143      265      716     1142     1490     1651 
    1525     1123      556      -79     -665    -1089    -1356    -1514 
   -1564    -1483    -1281    -1158    -1381    -1911    -2466    -2809 
   -2782    -2424    -2010    -1709    -1490    -1317    -1162    -1028 
    -953     -973    -1119    -1331    -1487    -1530    -1560    -1683 
   -1842    -1964    -2085    -2200    -2226    -2124    -1898    -1593 
   -1344    -1258    -1293    -1420    -1764    -2349    -2852    -2938 
   -2631    -2231    -1969    -1829    -1649    -1271     -664      -37 
     390      660      847      878      693      306     -193     -592 
    -718     -688     -834    -1239    -1601    -1732    -1863    -2142 
   -2335    -2258    -2099    -2087    -2165    -2251    -2486    -2964 
   -3469    -3681    -3481    -2983    -2363    -1768    -1283     -847 
    -378       -8       91      -41     -276     -526     -745     -853 
    -750     -471     -191      -79     -275     -754    -1277    -1648 
   -1772    -1534    -1035     -633     -567     -730     -859     -865 
    -837     -758     -584     -454     -463     -553     -774    -1247 
   -1907    -2567    -3118    -3511    -3677    -3568    -3249    -2848 
   -2423    -1992    -1603    -1290    -1004     -688     -410     -360 
    -631    -1004    -1228    -1339    -1448    -1402     -982     -403 
    -106     -145     -344     -658     -978    -1115    -1081    -1039 
   -1112    -1363    -1806    -2393    -2955    -3223    -3052    -2527 
   -1881    -1341     -994     -847    -1026    -1547    -2074    -2377 
   -2610    -2929    -3252    -3462    -3608    -3761    -3739    -3322 
   -2658    -2015    -1432     -922     -598     -511     -654     -901 
   -1067    -1092    -1009     -927    -1044    -1426    -1935    -2340 
   -2443    -2317    -2131    -1821    -1363     -928     -776    -1044 
   -1533    -1904    -2039    -1923    -1541    -1093     -772     -525 
    -394     -515     -788    -1012    -1017     -711     -283     -117 
    -403    -1031    -1719    -2201    -2401    -2349    -2074    -1728 
   -1513    -1501    -1629    -1800    -1896    -1822    -1602    -1364 
   -1204    -1162    -1271    -1336    -1080     -622     -297     -118 
      63      170      -10     -421     -723     -675     -373     -202 
    -454    -1005    -1428    -1487    -1406    -1514    -1879    -2334 
   -2579    -2397    -1985    -1729    -1636    -1464    -1143     -780 
    -538     -579     -880    -1254    -1580    -1876    -2192    -2481 
   -2583    -2427    -2106    -1790    -1679    -1804    -1945    -1876 
   -1588    -1290    -1221    -1347    -1321     -957     -515     -387 
    -665    -1053    -1215    -1150    -1115    -1329    -1788    -2263 
   -2616    -2920    -3117    -3018    -2602    -1992    -1389    -1013 
    -841     -761     -859    -1116    -1304    -1324    -1219    -1097 
   -1015     -772     -287       97       63     -382    -1000    -1436 
   -1541    -1406    -1107     -729     -384     -125       -8      -54 
    -220     -523     -951    -1340    -1617    -1802    -1833    -1674 
   -1386    -1086     -893     -851     -957    -1169    -1310    -1161 
    -739     -306      -49       21       25      120      317      388 
     155     -172     -263     -145       12      237      459      448 
     201     -156     -608    -1138    -1714    -2327    -2895    -3277 
   -3375    -3240    -3076    -3006    -2947    -2845    -2741    -2581 
   -2335    -2030    -1588    -1003     -517     -253      -22      211 
     199      -58     -147      224      824     1254     1386     1236 
     797      175     -487    -1101    -1502    -1568    -1449    -1390 
   -1502    -1752    -1956    -1952    -1844    -1880    -2161    -2569 
   -2794    -2523    -1863    -1344    -1331    -1701    -2104    -2292 
   -2218    -1966    -1645    -1304     -954     -630     -346     -121 
     -10        4       66      319      675      791      558      278 
     189      255      326      249       52      -90     -141     -274 
    -669    -1278    -1869    -2359    -2779    -3049    -3103    -3022 
   -2874    -2662    -2420    -2172    -1964    -1960    -2218    -2524 
   -2691    -2776    -2938    -3260    -3607    -3704    -3461    -3029 
   -2508    -1863    -1101     -426      -75       82      367      733 
     943      969      895      796      679      430       98        1 
     226      432      383      190      -13     -252     -626    -1082 
   -1428    -1684    -2046    -2502    -2878    -3095    -3175    -3159 
   -3045    -2755    -2309    -1908    -1634    -1355    -1038     -830 
    -765     -666     -463     -224      108      488      619      425 
     153       18      128      425      665      695      612      591 
     603      438       72     -345     -795    -1258    -1586    -1763 
   -1880    -1881    -1783    -1842    -2172    -2546    -2697    -2640 
   -2604    -2604    -2405    -2025    -1796    -1900    -2261    -2714 
   -2965    -2733    -2030    -1104     -199      552     1111     1509 
    1795     1976     1956     1584      881      140     -317     -450 
    -526     -819    -1356    -2006    -2570    -2882    -2934    -2860 
   -2871    -3067    -3308    -3523    -3809    -4083    -4164    -4098 
   -3987    -3740    -3349    -3038    -2964    -3076    -3249    -3392 
   -3472    -3443    -3222    -2887    -2635    -2486    -2265    -1892 
   -1494    -1116     -638      -97      294      456      415      186 
    -147     -422     -540     -529     -492     -403     -210      -87 
    -167     -333     -490     -575     -515     -460     -616     -924 
   -1192    -1397    -1664    -2069    -2604    -3229    -3862    -4382 
   -4706    -4903    -5078    -5201    -5175    -4957    -4558    -4083 
   -3646    -3289    -3026    -2731    -2239    -1584     -927     -441 
    -295     -422     -491     -315      -52       89       67      -82 
    -313     -571     -784     -868     -816     -722     -676     -657 
    -550     -369     -315     -438     -602     -718     -772     -770 
    -683     -476     -317     -423     -828    -1458    -2203    -2976 
   -3797    -4607    -5220    -5625    -6050    -6592    -7059    -7253 
   -7192    -6980    -6578    -5903    -5086    -4390    -3878    -3416 
   -2763    -1714     -402      757     1591     2300     3053     3681 
    3919     3829     3763     3920     4140     4158     3892     3407 
    2814     2176     1417      484     -425    -1054    -1455    -1850 
   -2242    -2552    -2889    -3325    -3770    -4190    -4618    -4996 
   -5215    -5228    -5073    -4841    -4561    -4191    -3767    -3358 
   -2910    -2385    -1841    -1328     -869     -449      -14      406 
     673      676      492      341      284      183       28      -56 
    -137     -378     -751    -1113    -1397    -1675    -1998    -2284 
   -2493    -2625    -2589    -2334    -1948    -1499    -1066     -823 
    -753     -599     -307      -97      -79     -182     -306     -442 
    -603     -714     -780    -1009    -1470    -1958    -2305    -2455 
   -2404    -2253    -2133    -2106    -2222    -2446    -2686    -2893 
   -3017    -3032    -2914    -2575    -2026    -1491    -1100     -726 
    -290       99      338      519      834     1275     1690     2069 
    2432     2620     2471     1966     1223      468     -103     -460 
    -754    -1146    -1567    -1896    -2150    -2355    -2497    -2589 
   -2621    -2590    -2513    -2378    -2227    -2143    -2106    -2069 
   -2061    -1983    -1733    -1436    -1204    -1030    -1013    -1193 
   -1394    -1476    -1417    -1215     -973     -747     -441     -170 
    -187     -403     -576     -648     -652     -622     -573     -526 
    -473     -388     -395     -621     -812     -695     -487     -454 
    -463     -433     -511     -654     -710     -711     -795    -1050 
   -1399    -1675    -1915    -2231    -2606    -3040    -3510    -3871 
   -3985    -3824    -3518    -3192    -2816    -2357    -1956    -1737 
   -1663    -1590    -1433    -1209     -962     -776     -766     -880 
    -882     -720     -568     -535     -621     -805    -1073    -1391 
   -1680    -1845    -1881    -1833    -1694    -1534    -1466    -1381 
   -1173     -950     -747     -548     -390     -187      103      364 
     514      538      492      396       59     -612    -1409    -2195 
   -2970    -3643    -4104    -4344    -4423    -4387    -4261    -4071 
   -3838    -3646    -3554    -3485    -3288    -2821    -2103    -1325 
    -626      -54      399      828     1323     1907     2511     2949 
    3121     3123     3105     2951     2421     1597      741     -117 
   -1030    -1849    -2454    -2963    -3478    -3933    -4264    -4433 
   -4375    -4082    -3667    -3238    -2808    -2401    -2073    -1771 
   -1389     -970     -584     -190      229      596      778      699 
     459      114     -436    -1138    -1769    -2232    -2582    -2924 
   -3254    -3465    -3470    -3184    -2556    -1740     -908      -40 
     857     1706     2516     3225     3672     3879     4044     4276 
    4487     4483     4199     3758     3254     2673     1944     1046 
     143     -540    -1012    -1440    -1903    -2405    -2916    -3356 
   -3646    -3738    -3645    -3423    -3117    -2790    -2559    -2470 
   -2404    -2214    -1899    -1568    -1321    -1201    -1189    -1233 
   -1263    -1274    -1382    -1674    -2049    -2340    -2524    -2713 
   -2995    -3298    -3464    -3493    -3511    -3466    -3204    -2772 
   -2290    -1799    -1335     -896     -515     -326     -349     -382 
    -279     -218     -460     -955    -1505    -2056    -2656    -3365 
   -4206    -5076    -5860    -6544    -7084    -7400    -7487    -7360 
   -6994    -6340    -5409    -4372    -3456    -2712    -2035    -1341 
    -664     -101      364      907     1579     2169     2511     2587 
    2413     2095     1749     1287      626     -110     -797    -1432 
   -2030    -2556    -2874    -2856    -2609    -2346    -2137    -1979 
   -1948    -2110    -2392    -2662    -2866    -3041    -3235    -3473 
   -3739    -3937    -3962    -3848    -3727    -3667    -3636    -3523 
   -3260    -2920    -2571    -2203    -1831    -1445     -959     -326 
     406     1116     1672     1998     2074     2003     1911     1794 
    1656     1644     1809     1945     1837     1502     1097      770 
     517      214     -139     -444     -716     -994    -1231    -1401 
   -1526    -1651    -1837    -2072    -2246    -2265    -2110    -1872 
   -1709    -1696    -1791    -1842    -1744    -1549    -1333    -1155 
   -1111    -1229    -1466    -1767    -2058    -2258    -2320    -2236 
   -2066    -1841    -1498    -1150    -1026    -1019     -859     -540 
    -218      -47      -33      -27       -6      -82     -287     -541 
    -683     -688     -679     -692     -719     -783     -901    -1094 
   -1358    -1671    -1962    -2128    -2170    -2205    -2300    -2381 
   -2369    -2218    -1872    -1424    -1075     -862     -706     -633 
    -700     -882    -1194    -1638    -2110    -2504    -2787    -2906 
   -2847    -2639    -2284    -1833    -1385     -943     -522     -191 
      13      101       63     -103     -329     -549     -776     -982 
   -1121    -1255    -1410    -1437    -1300    -1146    -1039     -934 
    -793     -604     -438     -409     -568     -884    -1215    -1432 
   -1610    -1857    -2119    -2335    -2594    -2952    -3285    -3461 
   -3484    -3443    -3407    -3322    -3055    -2570    -1984    -1421 
    -946     -552     -201      108      359      479      383      159 
      -9     -105     -260     -525     -807    -1007    -1163    -1383 
   -1633    -1761    -1742    -1749    -1898    -2065    -2081    -1980 
   -1934    -1993    -2107    -2281    -2508    -2724    -2890    -2986 
   -3087    -3280    -3449    -3426    -3275    -3190    -3222    -3283 
   -3346    -3408    -3406    -3330    -3202    -2987    -2681    -2282 
   -1767    -1162     -556       12      643     1399     2126     2616 
    2798     2776     2760     2836     2874     2744     2463     2062 
    1471      577     -589    -1822    -2909    -3796    -4522    -5074 
   -5401    -5458    -5263    -4954    -4633    -4264    -3805    -3303 
   -2844    -2377    -1737     -924     -120      577     1192     1771 
    2323     2766     3007     3057     2980     2839     2708     2613 
    2461     2169     1783     1372      935      415     -167     -726 
   -1256    -1823    -2401    -2901    -3253    -3458    -3597    -3720 
   -3740    -3601    -3358    -3053    -2705    -2363    -2057    -1773 
   -1536    -1397    -1328    -1215     -997     -754     -635     -710 
    -951    -1306    -1699    -2072    -2371    -2566    -2758    -3064 
   -3323    -3339    -3226    -3134    -2986    -2698    -2342    -1975 
   -1555    -1057     -585     -292     -157        4      232      355 
     253       -4     -270     -464     -643     -866    -1061    -1167 
   -1262    -1409    -1532    -1529    -1448    -1406    -1370    -1225 
    -978     -700     -402      -62      279      557      724      797 
     822      805      729      565      333       95     -159     -507 
    -930    -1304    -1513    -1545    -1493    -1448    -1466    -1607 
   -1865    -2126    -2344    -2606    -3017    -3539    -4023    -4423 
   -4811    -5198    -5520    -5682    -5672    -5544    -5279    -4823 
   -4164    -3352    -2528    -1792    -1081     -314      475     1193 
    1803     2330     2814     3248     3539     3639     3578     3365 
    3022     2600     2068     1371      518     -429    -1341    -2104 
   -2797    -3559    -4353    -5001    -5406    -5632    -5815    -6016 
   -6143    -6089    -5907    -5725    -5601    -5537    -5431    -5074 
   -4428    -3739    -3196    -2740    -2251    -1686    -1051     -417 
     114      479      699      869     1026     1115     1124     1098 
    1026      904      828      873     1000     1165     1304     1298 
    1075      718      341      -12     -334     -604     -850    -1092 
   -1302    -1520    -1794    -2100    -2394    -2655    -2883    -3011 
   -2957    -2768    -2533    -2255    -1939    -1647    -1431    -1285 
   -1148     -986     -804     -619     -476     -411     -405     -421 
    -450     -508     -592     -650     -606     -452     -280     -159 
    -132     -233     -384     -498     -664    -1026    -1534    -1972 
   -2249    -2484    -2760    -3044    -3327    -3650    -3985    -4225 
   -4321    -4321    -4298    -4229    -4023    -3665    -3257    -2876 
   -2517    -2101    -1545     -899     -309      156      523      842 
    1084     1166     1100      997      946      977     1042     1026 
     849      535      172     -178     -461     -618     -677     -765 
    -926    -1061    -1073     -938     -673     -346      -66       91 
     129      114       98      109      153      194      140      -36 
    -284     -565     -876    -1197    -1566    -2074    -2732    -3388 
   -3847    -4070    -4167    -4216    -4224    -4198    -4158    -4124 
   -4052    -3836    -3458    -3045    -2697    -2434    -2228    -2054 
   -1919    -1823    -1688    -1447    -1124     -810     -525     -237 
      40      237      283      184        8     -168     -283     -361 
    -507     -749    -1051    -1391    -1732    -2092    -2550    -3065 
   -3510    -3829    -4050    -4189    -4199    -3987    -3568    -3068 
   -2521    -1910    -1301     -776     -363      -39      263      565 
