Origin Time       2025/01/13 21:19:00
Lat.              31.8
Long.             131.6
Depth. (km)       30
Mag.              6.9
Station Code      HRS016
Station Lat.      34.4201
Station Long.     133.1979
Station Height(m) 39
Record Time       2025/01/13 21:21:12
Sampling Freq(Hz) 100Hz
Duration Time(s)  60
Dir.              N-S
Scale Factor      7845(gal)/8223790
Max. Acc. (gal)   1.257
Last Correction   2025/01/13 21:21:11
Memo.             
    1516     1431     1428     1472     1521     1607     1696     1715 
    1691     1675     1676     1696     1709     1653     1545     1471 
    1431     1377     1371     1471     1567     1564     1533     1547 
    1584     1628     1687     1730     1719     1660     1587     1539 
    1532     1539     1540     1559     1610     1651     1648     1652 
    1698     1722     1687     1630     1576     1537     1544     1576 
    1575     1532     1486     1475     1490     1499     1507     1534 
    1575     1605     1602     1574     1555     1552     1576     1649 
    1725     1757     1742     1668     1543     1451     1429     1426 
    1422     1455     1516     1544     1517     1485     1493     1513 
    1479     1391     1302     1269     1302     1364     1432     1501 
    1543     1539     1540     1593     1660     1671     1611     1556 
    1552     1557     1524     1468     1453     1489     1501     1439 
    1341     1309     1375     1452     1459     1413     1368     1374 
    1436     1517     1574     1598     1620     1633     1599     1548 
    1536     1517     1439     1371     1358     1318     1248     1259 
    1347     1386     1377     1429     1537     1602     1611     1613 
    1618     1613     1583     1555     1574     1615     1605     1534 
    1479     1485     1552     1668     1818     1931     1925     1830 
    1782     1794     1750     1661     1660     1738     1765     1725 
    1683     1648     1628     1625     1609     1544     1449     1383 
    1350     1297     1231     1221     1296     1405     1474     1453 
    1360     1247     1188     1243     1364     1444     1472     1532 
    1636     1730     1749     1676     1602     1624     1690     1684 
    1622     1594     1576     1489     1389     1374     1398     1368 
    1289     1220     1194     1229     1306     1360     1356     1329 
    1331     1364     1401     1413     1389     1374     1435     1529 
    1572     1568     1540     1487     1425     1363     1339     1379 
    1395     1331     1296     1378     1491     1522     1497     1489 
    1499     1510     1543     1605     1674     1734     1767     1756 
    1722     1715     1740     1740     1705     1687     1717     1763 
    1773     1709     1615     1582     1588     1567     1555     1591 
    1597     1551     1528     1537     1526     1501     1494     1507 
    1517     1486     1436     1449     1512     1526     1478     1428 
    1429     1474     1517     1553     1593     1621     1614     1597 
    1633     1726     1799     1810     1732     1584     1463     1420 
    1412     1425     1482     1530     1514     1467     1452     1445 
    1406     1374     1402     1464     1487     1455     1401     1383 
    1444     1524     1528     1502     1544     1606     1595     1563 
    1576     1601     1624     1669     1702     1706     1732     1742 
    1667     1576     1575     1601     1567     1528     1518     1491 
    1493     1620     1803     1880     1814     1703     1640     1649 
    1683     1672     1588     1486     1460     1544     1656     1698 
    1660     1613     1595     1603     1644     1701     1717     1703 
    1721     1725     1657     1605     1614     1605     1528     1445 
    1432     1525     1679     1744     1678     1603     1576     1530 
    1485     1501     1533     1487     1340     1193     1198     1347 
    1476     1526     1571     1630     1671     1717     1776     1773 
    1694     1613     1557     1534     1548     1551     1524     1501 
    1479     1417     1327     1302     1386     1490     1556     1578 
    1495     1301     1132     1121     1246     1377     1441     1453 
    1447     1424     1382     1348     1348     1389     1475     1574 
    1598     1520     1417     1362     1368     1437     1525     1559 
    1566     1609     1629     1560     1497     1543     1678     1795 
    1817     1737     1621     1537     1498     1476     1471     1483 
    1509     1544     1559     1505     1410     1348     1343     1360 
    1347     1290     1227     1190     1178     1148     1062      958 
     918      996     1174     1329     1378     1397     1456     1514 
    1556     1628     1698     1710     1688     1667     1614     1513 
    1426     1390     1367     1359     1406     1478     1490     1425 
    1389     1447     1525     1528     1456     1354     1282     1308 
    1414     1507     1561     1590     1549     1482     1507     1559 
    1482     1382     1437     1572     1617     1540     1420     1371 
    1455     1571     1575     1491     1437     1420     1386     1366 
    1394     1413     1385     1344     1304     1277     1294     1356 
    1431     1507     1590     1667     1729     1756     1723     1659 
    1638     1678     1694     1648     1590     1576     1606     1633 
    1618     1610     1667     1755     1823     1848     1792     1688 
    1620     1594     1567     1541     1547     1548     1491     1383 
    1262     1177     1201     1312     1385     1379     1382     1401 
    1385     1390     1475     1555     1553     1536     1564     1595 
    1620     1667     1696     1696     1722     1748     1710     1638 
    1568     1509     1532     1647     1694     1580     1463     1489 
    1559     1525     1449     1486     1586     1601     1552     1517 
    1449     1360     1371     1460     1497     1476     1486     1534 
    1588     1628     1615     1570     1591     1698     1782     1792 
    1740     1644     1593     1629     1660     1652     1705     1815 
    1876     1880     1892     1894     1857     1854     1922     1965 
    1899     1810     1807     1848     1853     1826     1786     1730 
    1651     1561     1521     1532     1494     1364     1220     1163 
    1212     1282     1312     1289     1216     1158     1185     1273 
    1325     1289     1217     1221     1313     1397     1432     1478 
    1570     1667     1737     1771     1763     1718     1645     1602 
    1664     1811     1907     1871     1779     1723     1682     1642 
    1636     1607     1507     1421     1432     1493     1537     1551 
    1522     1462     1433     1464     1534     1630     1709     1707 
    1647     1601     1575     1521     1468     1470     1485     1451 
    1391     1368     1398     1482     1609     1710     1722     1675 
    1632     1615     1622     1671     1769     1872     1914     1875 
    1803     1771     1773     1771     1791     1844     1850     1798 
    1760     1761     1787     1800     1760     1728     1798     1884 
    1877     1834     1823     1806     1745     1695     1709     1757 
    1768     1706     1607     1545     1555     1586     1594     1603 
    1641     1667     1622     1539     1518     1556     1560     1540 
    1534     1497     1410     1366     1399     1456     1512     1566 
    1579     1543     1493     1440     1393     1390     1408     1397 
    1386     1399     1424     1452     1480     1505     1513     1499 
    1486     1490     1471     1420     1397     1418     1436     1405 
    1332     1258     1189     1152     1210     1325     1385     1362 
    1306     1242     1167     1074     1003     1008     1050     1050 
     980      862      797      864      954      942      901      930 
     982      986      961      946      947      951      940      912 
     878      842      797      780      838      943     1043     1146 
    1240     1304     1364     1433     1486     1548     1636     1696 
    1688     1647     1610     1583     1578     1602     1642     1661 
    1626     1551     1497     1483     1485     1482     1436     1335 
    1258     1242     1213     1152     1105     1071     1050     1104 
    1246     1371     1390     1333     1304     1344     1406     1416 
    1385     1397     1472     1529     1518     1480     1470     1495 
    1548     1624     1705     1749     1744     1723     1721     1750 
    1798     1834     1868     1911     1915     1869     1842     1858 
    1869     1861     1867     1877     1858     1831     1830     1837 
    1815     1767     1740     1787     1876     1918     1919     1957 
    1995     1987     1971     1930     1819     1732     1746     1794 
    1813     1783     1696     1634     1642     1620     1516     1445 
    1468     1497     1490     1472     1413     1302     1205     1175 
    1194     1209     1204     1173     1111     1036      984      936 
     868      800      757      720      695      683      673      664 
     687      766      837      843      842      884      940      984 
     986      942      916      927      877      772      754      859 
     967     1011     1035     1054     1047     1032     1042     1067 
    1094     1119     1146     1165     1121     1034     1048     1196 
    1313     1331     1337     1354     1344     1332     1335     1321 
    1298     1312     1382     1463     1468     1378     1313     1351 
    1408     1432     1478     1553     1613     1675     1764     1827 
    1856     1912     1989     2041     2089     2149     2173     2165 
    2203     2319     2479     2639     2737     2748     2744     2790 
    2832     2816     2778     2747     2683     2593     2544     2558 
    2574     2528     2444     2398     2382     2338     2290     2274 
    2273     2261     2269     2324     2400     2432     2401     2358 
    2346     2350     2351     2344     2335     2359     2431     2485 
    2448     2359     2296     2281     2309     2334     2277     2169 
    2101     2069     2007     1917     1861     1833     1782     1723 
    1695     1678     1629     1555     1501     1506     1572     1634 
    1644     1648     1696     1733     1702     1642     1580     1521 
    1498     1497     1451     1366     1287     1227     1197     1213 
    1223     1166     1085     1046     1038     1019      993      951 
     874      807      815      876      920      936      969     1043 
    1139     1210     1259     1329     1436     1520     1522     1459 
    1390     1389     1453     1479     1401     1302     1258     1212 
    1121     1080     1142     1223     1237     1217     1220     1247 
    1273     1304     1340     1350     1337     1343     1360     1377 
    1377     1351     1324     1336     1390     1451     1493     1512 
    1514     1510     1529     1602     1707     1771     1767     1752 
    1744     1701     1633     1580     1525     1448     1385     1327 
    1244     1163     1107     1043      938      801      703      684 
     689      666      643      635      618      622      670      723 
     747      750      762      808      878      939      974     1021 
    1112     1182     1194     1209     1281     1383     1466     1526 
    1575     1605     1637     1710     1800     1863     1888     1895 
    1937     2066     2242     2354     2386     2413     2452     2463 
    2451     2474     2551     2624     2644     2646     2646     2608 
    2556     2538     2517     2448     2365     2332     2339     2323 
    2254     2138     2026     1976     1973     1945     1852     1728 
    1615     1547     1514     1486     1451     1399     1313     1206 
    1120     1058      997      943      951     1005      989      882 
     814      842      891      899      909      963     1030     1067 
    1100     1175     1256     1275     1260     1269     1271     1246 
    1215     1155     1053      992     1015     1030      982      924 
     876      784      681      654      668      638      588      569 
     569      556      502      436      449      565      704      823 
     939     1046     1112     1154     1209     1277     1336     1391 
    1445     1503     1548     1580     1651     1755     1825     1867 
    1930     1964     1917     1887     1957     2050     2097     2137 
    2200     2257     2286     2289     2280     2303     2374     2434 
    2459     2500     2565     2610     2637     2702     2793     2830 
    2799     2789     2829     2843     2795     2748     2714     2648 
    2551     2462     2404     2369     2330     2293     2265     2209 
    2112     2016     1964     1930     1880     1834     1825     1827 
    1809     1753     1683     1624     1555     1453     1352     1300 
    1254     1143     1001      895      823      765      726      693 
     675      687      672      587      519      527      562      599 
     658      750      835      868      880      939     1030     1124 
    1224     1282     1275     1274     1309     1323     1285     1240 
    1232     1247     1243     1205     1143     1081     1040     1008 
     950      873      828      831      849      874      926      989 
    1032     1066     1128     1209     1286     1363     1426     1452 
    1478     1540     1595     1628     1669     1692     1675     1688 
    1753     1795     1791     1783     1769     1729     1695     1684 
    1660     1615     1564     1498     1418     1363     1344     1345 
    1341     1343     1385     1452     1486     1493     1533     1607 
    1675     1764     1895     2000     2020     2000     2015     2074 
    2139     2178     2180     2162     2157     2169     2187     2197 
    2192     2162     2118     2093     2100     2118     2133     2143 
    2135     2139     2178     2205     2176     2112     2058     2039 
    2014     1946     1892     1892     1894     1860     1815     1768 
    1736     1734     1733     1695     1638     1590     1541     1468 
    1377     1300     1275     1286     1278     1250     1236     1240 
    1254     1275     1286     1287     1310     1340     1331     1278 
    1224     1193     1177     1148     1081      972      853      766 
     724      704      683      653      607      538      479      440 
     383      338      346      367      390      467      575      656 
     743      861      967     1065     1190     1317     1378     1404 
    1479     1571     1609     1648     1732     1814     1863     1900 
    1939     1989     2047     2085     2083     2054     2039     2056 
    2081     2092     2089     2088     2079     2061     2066     2099 
    2124     2141     2169     2192     2197     2243     2335     2393 
    2398     2423     2484     2552     2620     2659     2667     2697 
    2732     2714     2668     2641     2616     2578     2543     2528 
    2538     2540     2497     2421     2362     2317     2249     2160 
    2085     2015     1926     1819     1709     1598     1499     1417 
    1345     1298     1264     1210     1159     1144     1135     1107 
    1085     1089     1097     1101     1097     1081     1063     1048 
    1009      939      872      837      830      832      818      784 
     746      681      579      503      477      444      383      337 
     317      314      337      386      441      484      519      577 
     665      745      788      812      845      903      977     1042 
    1089     1135     1190     1244     1279     1314     1394     1497 
    1563     1588     1605     1613     1614     1609     1597     1607 
    1638     1657     1669     1695     1713     1706     1691     1703 
    1763     1848     1927     1999     2084     2162     2204     2224 
    2249     2273     2266     2227     2178     2133     2101     2097 
    2072     1992     1922     1919     1944     1933     1879     1798 
    1688     1574     1502     1475     1453     1428     1402     1362 
    1312     1283     1271     1260     1256     1259     1271     1304 
    1337     1354     1355     1351     1374     1424     1443     1416 
    1375     1335     1291     1255     1229     1219     1209     1186 
    1166     1173     1205     1228     1229     1227     1250     1298 
    1343     1379     1433     1498     1534     1540     1570     1638 
    1718     1794     1858     1907     1968     2060     2142     2176 
    2178     2178     2178     2192     2204     2168     2107     2085 
    2085     2046     1987     1937     1858     1755     1680     1641 
    1597     1560     1541     1518     1482     1412     1321     1267 
    1251     1224     1178     1147     1166     1205     1205     1182 
    1181     1198     1215     1200     1140     1084     1055     1024 
     977      934      926      957      981      953      899      870 
     885      908      911      918      940      962      994     1042 
    1069     1065     1062     1097     1178     1270     1340     1409 
    1493     1570     1630     1688     1746     1792     1818     1827 
    1841     1869     1879     1840     1798     1811     1848     1854 
    1854     1873     1883     1867     1853     1872     1906     1896 
    1858     1856     1869     1846     1804     1782     1794     1836 
    1864     1865     1881     1914     1907     1863     1852     1879 
    1880     1844     1811     1800     1811     1838     1871     1902 
    1927     1948     1958     1948     1902     1838     1777     1728 
    1687     1642     1583     1529     1495     1478     1476     1470 
    1441     1425     1451     1493     1532     1570     1593     1603 
    1609     1607     1625     1682     1749     1783     1790     1802 
    1809     1779     1726     1696     1703     1730     1761     1787 
    1800     1788     1763     1761     1794     1819     1815     1802 
    1780     1728     1644     1568     1522     1471     1385     1291 
    1231     1212     1217     1229     1250     1277     1300     1358 
    1449     1510     1530     1552     1584     1605     1645     1733 
    1813     1825     1798     1776     1756     1726     1686     1638 
    1605     1590     1583     1587     1590     1579     1583     1618 
    1641     1621     1575     1521     1458     1389     1329     1263 
    1161     1028      903      801      723      687      689      696 
     681      649      621      621      649      670      666      666 
     673      653      610      599      626      643      653      689 
     747      789      804      812      827      838      843      854 
     878      905      934      972     1021     1073     1127     1173 
    1213     1282     1370     1435     1499     1587     1671     1741 
    1809     1864     1922     1999     2076     2141     2223     2323 
    2415     2498     2566     2601     2636     2698     2762     2801 
    2809     2774     2708     2662     2647     2628     2604     2590 
    2570     2533     2479     2409     2355     2331     2288     2215 
    2131     2034     1931     1842     1741     1609     1485     1391 
    1317     1260     1221     1209     1229     1246     1217     1148 
    1067     1000      935      861      800      764      733      672 
     573      479      425      384      328      278      263      272 
     288      314      365      437      498      545      600      669 
     746      837      938     1038     1116     1167     1210     1270 
    1337     1406     1495     1599     1680     1741     1806     1872 
    1908     1906     1898     1914     1925     1898     1857     1834 
    1831     1830     1810     1775     1756     1772     1802     1826 
    1842     1853     1867     1877     1880     1883     1907     1962 
    2022     2072     2127     2172     2199     2245     2317     2389 
