Origin Time       2025/01/13 21:19:00
Lat.              31.8
Long.             131.6
Depth. (km)       30
Mag.              6.9
Station Code      HRS009
Station Lat.      34.4927
Station Long.     132.2802
Station Height(m) 218
Record Time       2025/01/13 21:20:34
Sampling Freq(Hz) 100Hz
Duration Time(s)  95
Dir.              E-W
Scale Factor      7845(gal)/8223790
Max. Acc. (gal)   2.419
Last Correction   2025/01/13 21:20:33
Memo.             
[...]
  -10428   -10361   -10417   -10543   -10597   -10593   -10611   -10636 
  -10666   -10755   -10874   -10948   -10971   -10936   -10822   -10694 
  -10600   -10530   -10504   -10534   -10548   -10462   -10300   -10147 
  -10041   -10064   -10303   -10652   -10940   -11118   -11199   -11213 
  -11236   -11287   -11300   -11236   -11070   -10785   -10459   -10272 
  -10299   -10457   -10631   -10771   -10886   -10993   -11083   -11130 
  -11137   -11125   -11065   -10924   -10773   -10681   -10592   -10435 
  -10222   -10010    -9913   -10034   -10358   -10768   -11198   -11587 
  -11757   -11561   -11079   -10482    -9877    -9350    -8978    -8818 
   -8926    -9290    -9779   -10272   -10739   -11161   -11522   -11850 
  -12174   -12455   -12603   -12555   -12337   -12027   -11676   -11308 
  -10935   -10542   -10112    -9682    -9300    -9005    -8835    -8833 
   -9015    -9371    -9886   -10492   -11038   -11426   -11685   -11834 
  -11848   -11754   -11589   -11387   -11213   -11068   -10824   -10466 
  -10120    -9830    -9617    -9580    -9761   -10092   -10458   -10719 
  -10809   -10806   -10821   -10910   -11045   -11183   -11306   -11406 
  -11468   -11492   -11464   -11346   -11114   -10774   -10393   -10077 
   -9884    -9826    -9948   -10270   -10678   -11041   -11337   -11529 
  -11565   -11526   -11507   -11481   -11425   -11377   -11325   -11211 
  -11072   -10980   -10898   -10723   -10404    -9996    -9607    -9355 
   -9300    -9398    -9593    -9846   -10061   -10197   -10332   -10484 
  -10621   -10758   -10906   -11115   -11416   -11718   -11931   -12044 
  -12012   -11777   -11356   -10860   -10436   -10116    -9837    -9537 
   -9275    -9231    -9478    -9869   -10296   -10785   -11299   -11716 
  -11952   -11974   -11808   -11550   -11248   -10872   -10478   -10192 
  -10029    -9942    -9985   -10203   -10520   -10833   -11072   -11173 
  -11113   -10963   -10798   -10598   -10359   -10160   -10089   -10192 
  -10480   -10902   -11291   -11400   -11145   -10723   -10380   -10212 
  -10215   -10354   -10536   -10650   -10646   -10513   -10295   -10064 
   -9896    -9841    -9898   -10018   -10210   -10512   -10879   -11195 
  -11434   -11661   -11846   -11858   -11665   -11410   -11186   -10956 
  -10723   -10525   -10368   -10274   -10276   -10378   -10633   -11036 
  -11422   -11658   -11778   -11808   -11688   -11426   -11106   -10752 
  -10370   -10025    -9787    -9695    -9771   -10003   -10362   -10806 
  -11254   -11642   -11951   -12100   -11967   -11583   -11114   -10681 
  -10292    -9967    -9778    -9761    -9834    -9891    -9909    -9941 
  -10045   -10219   -10432   -10677   -10939   -11171   -11330   -11425 
  -11484   -11497   -11466   -11442   -11442   -11453   -11484   -11537 
  -11622   -11712   -11715   -11577   -11337   -11028   -10678   -10332 
  -10025    -9752    -9528    -9441    -9606    -9996   -10443   -10862 
  -11234   -11450   -11438   -11287   -11082   -10858   -10687   -10624 
  -10656   -10748   -10820   -10804   -10725   -10643   -10584   -10557 
  -10551   -10527   -10454   -10393   -10423   -10538   -10710   -10905 
  -11033   -11028   -10960   -10956   -11021   -11063   -11053   -10998 
  -10870   -10698   -10534   -10381   -10249   -10146    -9998    -9760 
   -9548    -9520    -9718   -10069   -10451   -10755   -10968   -11148 
  -11299   -11384   -11400   -11377   -11319   -11236   -11132   -11022 
  -10941   -10885   -10793   -10632   -10434   -10216    -9990    -9815 
   -9760    -9819    -9961   -10158   -10368   -10589   -10851   -11115 
  -11269   -11254   -11125   -10960   -10794   -10654   -10552   -10496 
  -10521   -10629   -10762   -10917   -11111   -11273   -11315   -11213 
  -11005   -10713   -10351   -10053    -9972   -10096   -10330   -10597 
  -10824   -10980   -11115   -11261   -11375   -11411   -11391   -11319 
  -11190   -10991   -10685   -10262    -9811    -9450    -9277    -9308 
   -9448    -9605    -9761    -9969   -10305   -10747   -11152   -11423 
  -11573   -11630   -11623   -11624   -11676   -11746   -11755   -11615 
  -11271   -10804   -10412   -10222   -10207   -10262   -10307   -10362 
  -10501   -10741   -11026   -11296   -11502   -11601   -11585   -11464 
  -11250   -10982   -10705   -10457   -10277   -10219   -10339   -10633 
  -10984   -11275   -11446   -11434   -11242   -10979   -10741   -10566 
  -10486   -10512   -10639   -10918   -11391   -11925   -12294   -12376 
  -12182   -11780   -11269   -10768   -10382   -10180   -10161   -10269 
  -10423   -10551   -10629   -10686   -10725   -10693   -10633   -10640 
  -10679   -10709   -10739   -10770   -10883   -11121   -11317   -11323 
  -11171   -10939   -10693   -10476   -10335   -10341   -10482   -10656 
  -10806   -10987   -11241   -11487   -11538   -11317   -10959   -10648 
  -10449   -10384   -10428   -10471   -10440   -10343   -10281   -10420 
  -10777   -11161   -11406   -11448   -11338   -11213   -11095   -10885 
  -10592   -10372   -10269   -10191   -10111   -10110   -10214   -10408 
  -10720   -11121   -11499   -11723   -11712   -11499   -11223   -10994 
  -10790   -10577   -10397   -10247   -10060    -9853    -9733    -9784 
   -9994   -10261   -10489   -10652   -10858   -11210   -11561   -11713 
  -11743   -11769   -11711   -11493   -11200   -10974   -10876   -10858 
  -10812   -10643   -10347   -10042    -9826    -9663    -9508    -9418 
   -9463    -9706   -10166   -10720   -11206   -11557   -11781   -11909 
  -11961   -11979   -11990   -11934   -11754   -11507   -11286   -11126 
  -11009   -10898   -10754   -10602   -10563   -10697   -10949   -11273 
  -11650   -12006   -12262   -12414   -12487   -12459   -12275   -11939 
  -11539   -11172   -10845   -10548   -10316   -10184   -10168   -10261 
  -10419   -10609   -10848   -11142   -11414   -11545   -11483   -11263 
  -10944   -10563   -10139    -9682    -9234    -8873    -8642    -8548 
   -8650    -9028    -9591   -10138   -10575   -10917   -11171   -11352 
  -11481   -11580   -11659   -11697   -11654   -11519   -11294   -10966 
  -10548   -10118    -9742    -9377    -8955    -8565    -8336    -8295 
   -8486    -8949    -9586   -10173   -10554   -10743   -10860   -10989 
  -11124   -11236   -11303   -11252   -11034   -10729   -10482   -10376 
  -10428   -10600   -10770   -10793   -10592   -10197    -9795    -9620 
   -9705    -9913   -10137   -10326   -10453   -10565   -10704   -10781 
  -10670   -10399   -10143   -10030   -10077   -10257   -10528   -10858 
  -11192   -11429   -11541   -11568   -11477   -11233   -10895   -10530 
  -10150    -9775    -9455    -9262    -9246    -9400    -9633    -9850 
  -10048   -10307   -10706   -11236   -11794   -12270   -12565   -12618 
  -12461   -12181   -11820   -11429   -11129   -10999   -10957   -10867 
  -10666   -10366   -10008    -9639    -9316    -9103    -9015    -9034 
   -9154    -9378    -9737   -10253   -10813   -11267   -11588   -11801 
  -11901   -11938   -11965   -11952   -11875   -11750   -11522   -11063 
  -10430    -9844    -9383    -9061    -9008    -9229    -9540    -9841 
  -10104   -10262   -10318   -10322   -10224    -9965    -9637    -9360 
   -9173    -9144    -9377    -9813   -10247   -10539   -10692   -10750 
  -10767   -10836   -10979   -11115   -11169   -11128   -11021   -10841 
  -10579   -10300   -10031    -9779    -9620    -9555    -9502    -9493 
   -9626    -9918   -10280   -10608   -10852   -10998   -11049   -11040 
  -11037   -11110   -11277   -11465   -11545   -11434   -11173   -10875 
  -10606   -10380   -10233   -10223   -10349   -10573   -10945   -11477 
  -11961   -12179   -12127   -11855   -11421   -10936   -10436    -9923 
   -9543    -9418    -9481    -9643    -9945   -10428   -11056   -11758 
  -12394   -12788   -12896   -12775   -12436   -11919   -11364   -10878 
  -10470   -10201   -10176   -10362   -10670   -11052   -11439   -11723 
  -11826   -11755   -11599   -11469   -11426   -11396   -11263   -11005 
  -10666   -10309   -10045    -9961   -10079   -10354   -10658   -10881 
  -11003   -11033   -10948   -10750   -10493   -10228    -9914    -9526 
   -9177    -8982    -8968    -9134    -9501   -10072   -10717   -11232 
  -11538   -11689   -11739   -11736   -11715   -11673   -11595   -11476 
  -11313   -11126   -11022   -11111   -11345   -11570   -11713   -11803 
  -11905   -12028   -12104   -12066   -11866   -11427   -10747    -9984 
   -9319    -8854    -8619    -8571    -8650    -8860    -9194    -9618 
  -10111   -10648   -11151   -11522   -11735   -11811   -11767   -11620 
  -11377   -11083   -10855   -10789   -10918   -11217   -11589   -11921 
  -12074   -11970   -11755   -11603   -11506   -11399   -11265   -11074 
  -10814   -10534   -10303   -10156   -10069    -9995    -9913    -9871 
   -9944   -10111   -10304   -10528   -10775   -10933   -10917   -10767 
  -10569   -10374   -10188   -10037   -10010   -10150   -10428   -10785 
  -11137   -11394   -11542   -11623   -11653   -11666   -11720   -11804 
  -11854   -11893   -11973   -12047   -12000   -11715   -11186   -10569 
  -10061    -9765    -9656    -9671    -9788    -9977   -10146   -10249 
  -10358   -10590   -10968   -11398   -11749   -12000   -12226   -12426 
  -12511   -12499   -12452   -12297   -11921   -11372   -10779   -10245 
   -9832    -9566    -9416    -9343    -9348    -9471    -9733   -10114 
  -10561   -10966   -11172   -11134   -10971   -10748   -10484   -10339 
  -10442   -10673   -10881   -11071   -11276   -11480   -11665   -11763 
  -11669   -11394   -11059   -10697   -10296    -9937    -9749    -9760 
   -9886   -10050   -10264   -10574   -10982   -11398   -11677   -11754 
  -11718   -11658   -11603   -11585   -11635   -11728   -11776   -11712 
  -11568   -11392   -11160   -10848   -10532   -10318   -10233   -10241 
  -10308   -10401   -10490   -10555   -10589   -10584   -10517   -10388 
  -10234   -10112   -10064   -10088   -10118   -10088   -10006    -9936 
   -9887    -9833    -9802    -9815    -9810    -9751    -9734    -9883 
  -10223   -10709   -11206   -11522   -11581   -11514   -11458   -11398 
  -11307   -11249   -11230   -11225   -11313   -11553   -11842   -12060 
  -12145   -12048   -11832   -11623   -11433   -11207   -10963   -10740 
  -10551   -10420   -10374   -10372   -10365   -10369   -10438   -10628 
  -10939   -11300   -11604   -11793   -11908   -12060   -12314   -12623 
  -12857   -12899   -12729   -12425   -12123   -11889   -11670   -11404 
  -11095   -10755   -10405   -10120    -9937    -9790    -9667    -9671 
   -9860   -10207   -10646   -11061   -11356   -11551   -11732   -11921 
  -12110   -12306   -12428   -12334   -12035   -11674   -11360   -11136 
  -11013   -10936   -10820   -10671   -10578   -10573   -10621   -10709 
  -10812   -10918   -11071   -11304   -11593   -11869   -12059   -12089 
  -11909   -11589   -11232   -10866   -10517   -10277   -10180   -10125 
  -10037    -9969    -9973   -10014   -10049   -10080   -10111   -10150 
  -10211   -10265   -10251   -10149    -9976    -9756    -9536    -9360 
   -9204    -9058    -8981    -8999    -9096    -9279    -9533    -9817 
  -10152   -10551   -10924   -11187   -11354   -11466   -11515   -11496 
  -11435   -11360   -11246   -11011   -10601   -10129    -9784    -9653 
   -9644    -9636    -9597    -9543    -9483    -9428    -9439    -9583 
   -9821    -9995   -10029   -10019   -10100   -10299   -10557   -10844 
  -11118   -11273   -11238   -11064   -10874   -10787   -10822   -10848 
  -10763   -10581   -10339   -10052    -9756    -9502    -9281    -9049 
   -8814    -8653    -8669    -8937    -9424    -9975   -10431   -10744 
  -10929   -11028   -11099   -11148   -11149   -11156   -11229   -11333 
  -11399   -11385   -11264   -11052   -10813   -10582   -10381   -10291 
  -10365   -10519   -10621   -10624   -10579   -10550   -10516   -10427 
  -10324   -10301   -10381   -10508   -10666   -10828   -10905   -10837 
  -10724   -10717   -10836   -10999   -11176   -11352   -11476   -11507 
  -11439   -11294   -11107   -10903   -10689   -10505   -10416   -10431 
  -10524   -10687   -10908   -11095   -11151   -11086   -11010   -11029 
  -11167   -11362   -11541   -11701   -11873   -11983   -11969   -11871 
  -11685   -11317   -10800   -10293    -9899    -9632    -9512    -9556 
   -9737    -9961   -10115   -10146   -10108   -10084   -10120   -10214 
  -10345   -10539   -10806   -11063   -11234   -11313   -11292   -11190 
  -11097   -11087   -11145   -11192   -11129   -10908   -10593   -10299 
  -10126   -10104   -10196   -10331   -10454   -10540   -10633   -10794 
  -10978   -11105   -11167   -11210   -11268   -11341   -11385   -11325 
  -11121   -10816   -10466   -10122    -9863    -9740    -9710    -9760 
   -9963   -10324   -10781   -11268   -11691   -11929   -11974   -11888 
  -11713   -11458   -11113   -10708   -10324   -10025    -9865    -9868 
   -9940    -9948    -9891    -9899   -10049   -10282   -10512   -10710 
  -10851   -10917   -10971   -11076   -11219   -11403   -11631   -11840 
  -11962   -12004   -12017   -12012   -11920   -11718   -11483   -11286 
  -11145   -11114   -11226   -11396   -11533   -11623   -11635   -11504 
  -11280   -11052   -10833   -10624   -10449   -10270   -10035    -9772 
   -9529    -9300    -9092    -8999    -9053    -9190    -9432    -9826 
  -10281   -10674   -10980   -11192   -11286   -11286   -11246   -11209 
  -11205   -11281   -11465   -11723   -11956   -12086   -12105   -12012 
  -11812   -11560   -11319   -11084   -10795   -10442   -10087    -9798 
   -9613    -9528    -9467    -9362    -9274    -9342    -9609   -10019 
  -10498   -10971   -11406   -11830   -12279   -12734   -13104   -13279 
  -13196   -12907   -12586   -12339   -12117   -11832   -11477   -11102 
  -10775   -10550   -10440   -10407   -10377   -10304   -10214   -10196 
  -10334   -10615   -10924   -11159   -11317   -11429   -11480   -11435 
  -11294   -11098   -10878   -10646   -10430   -10251   -10126   -10058 
  -10007    -9911    -9757    -9603    -9531    -9566    -9649    -9725 
   -9783    -9841    -9915   -10017   -10110   -10162   -10181   -10166 
  -10130   -10120   -10123   -10075    -9991    -9972   -10066   -10235 
  -10396   -10463   -10411   -10285   -10126    -9941    -9806    -9814 
   -9956   -10162   -10378   -10570   -10708   -10774   -10802   -10864 
  -10963   -11043   -11090   -11130   -11183   -11300   -11522   -11794 
  -12044   -12217   -12272   -12206   -12043   -11836   -11668   -11583 
  -11531   -11446   -11330   -11203   -11033   -10786   -10494   -10226 
  -10012    -9845    -9726    -9695    -9765    -9910   -10108   -10334 
  -10512   -10600   -10619   -10602   -10594   -10640   -10732   -10874 
  -11113   -11431   -11732   -11961   -12113   -12160   -12064   -11821 
  -11437   -10944   -10397    -9833    -9286    -8810    -8480    -8345 
   -8401    -8588    -8819    -9023    -9193    -9371    -9606    -9942 
  -10359   -10785   -11151   -11365   -11348   -11128   -10808   -10500 
  -10297   -10264   -10366   -10516   -10674   -10840   -11020   -11244 
  -11515   -11742   -11842   -11786   -11570   -11253   -10953   -10733 
  -10548   -10381   -10280   -10257   -10274   -10347   -10515   -10747 
  -10963   -11125   -11234   -11298   -11344   -11380   -11371   -11310 
  -11248   -11209   -11168   -11128   -11094   -11072   -11105   -11206 
  -11323   -11418   -11519   -11638   -11732   -11759   -11705   -11533 
  -11219   -10810   -10396   -10048    -9794    -9645    -9637    -9798 
  -10076   -10380   -10675   -10963   -11246   -11537   -11813   -11998 
  -12033   -11935   -11743   -11479   -11145   -10746   -10322    -9964 
   -9722    -9594    -9555    -9571    -9617    -9680    -9747    -9830 
   -9961   -10126   -10285   -10461   -10679   -10903   -11107   -11290 
  -11402   -11402   -11334   -11254   -11188   -11156   -11164   -11232 
  -11389   -11619   -11858   -12077   -12267   -12398   -12459   -12488 
  -12510   -12507   -12455   -12305   -12032   -11705   -11443   -11257 
  -11071   -10845   -10584   -10309   -10092    -9983    -9956    -9957 
   -9971    -9994   -10050   -10203   -10498   -10903   -11330   -11693 
  -11936   -12029   -11970   -11817   -11686   -11649   -11703   -11785 
  -11823   -11788   -11674   -11492   -11283   -11070   -10839   -10586 
  -10320   -10052    -9844    -9772    -9837    -9985   -10165   -10319 
  -10403   -10409   -10374   -10345   -10316   -10238   -10111   -10012 
   -9994   -10053   -10173   -10336   -10516   -10642   -10612   -10373 
  -10015    -9676    -9418    -9240    -9142    -9116    -9153    -9242 
   -9405    -9664    -9971   -10254   -10485   -10666   -10827   -10986 
  -11133   -11257   -11352   -11400   -11383   -11281   -11126   -10990 
  -10922   -10928   -10959   -10956   -10914   -10878   -10856   -10845 
  -10881   -10983   -11121   -11283   -11475   -11678   -11862   -11988 
  -12040   -12001   -11847   -11588   -11260   -10902   -10552   -10228 
   -9922    -9671    -9543    -9524    -9541    -9560    -9580    -9617 
   -9688    -9822   -10008   -10201   -10355   -10467   -10569   -10713 
  -10940   -11226   -11522   -11792   -11978   -12024   -11931   -11745 
  -11502   -11199   -10849   -10476   -10096    -9749    -9481    -9279 
   -9099    -8927    -8804    -8788    -8915    -9166    -9467    -9745 
   -9973   -10114   -10158   -10177   -10227   -10303   -10389   -10500 
  -10654   -10847   -11032   -11180   -11292   -11361   -11392   -11435 
  -11511   -11570   -11558   -11464   -11311   -11118   -10891   -10623 
  -10330   -10085    -9949    -9929   -10018   -10196   -10443   -10712 
  -10939   -11097   -11184   -11218   -11195   -11101   -10932   -10709 
  -10465   -10235   -10050    -9936    -9937   -10062   -10272   -10531 
  -10813   -11067   -11249   -11354   -11406   -11423   -11400   -11307 
  -11141   -10926   -10682   -10422   -10187   -10017    -9941    -9967 
  -10061   -10176   -10295   -10400   -10455   -10457   -10454   -10486 
  -10538   -10616   -10750   -10940   -11161   -11406   -11659   -11884 
  -12046   -12140   -12175   -12198   -12251   -12332   -12429   -12545 
  -12629   -12580   -12359   -12016   -11637   -11273   -10955   -10739 
  -10687   -10782   -10947   -11155   -11387   -11596   -11740   -11788 
  -11696   -11488   -11241   -10997   -10755   -10508   -10274   -10092 
   -9950    -9786    -9610    -9498    -9459    -9455    -9491    -9568 
   -9644    -9699    -9752    -9792    -9794    -9788    -9826    -9904 
  -10006   -10158   -10347   -10492   -10561   -10609   -10687   -10797 
  -10893   -10952   -11017   -11129   -11269   -11402   -11535   -11708 
  -11908   -12079   -12162   -12128   -11997   -11807   -11573   -11315 
  -11041   -10756   -10489   -10269   -10095    -9940    -9775    -9614 
   -9491    -9414    -9381    -9423    -9572    -9799   -10034   -10237 
  -10427   -10628   -10847   -11083   -11306   -11473   -11570   -11611 
  -11596   -11519   -11398   -11261   -11129   -11002   -10872   -10724 
  -10585   -10508   -10497   -10507   -10532   -10613   -10751   -10902 
  -11067   -11291   -11568   -11812   -11961   -12002   -11943   -11797 
  -11600   -11372   -11137   -10940   -10768   -10612   -10507   -10457 
  -10419   -10390   -10378   -10345   -10268   -10189   -10152   -10157 
  -10208   -10297   -10374   -10411   -10469   -10592   -10756   -10916 
  -11026   -11044   -10959   -10790   -10550   -10278   -10058    -9930 
   -9846    -9780    -9757    -9778    -9803    -9801    -9775    -9776 
