Origin Time       2025/01/13 21:19:00
Lat.              31.8
Long.             131.6
Depth. (km)       30
Mag.              6.9
Station Code      HRS013
Station Lat.      34.3768
Station Long.     132.4502
Station Height(m) 3
Record Time       2025/01/13 21:20:40
Sampling Freq(Hz) 100Hz
Duration Time(s)  118
Dir.              U-D
Scale Factor      7845(gal)/8223790
Max. Acc. (gal)   2.084
Last Correction   2025/01/13 21:20:39
Memo.             
[...]
  -13679   -13803   -13929   -13977   -13946   -13868   -13743   -13593 
  -13508   -13570   -13772   -14019   -14203   -14281   -14278   -14247 
  -14233   -14283   -14405   -14503   -14494   -14426   -14386   -14424 
  -14508   -14562   -14559   -14517   -14412   -14243   -14116   -14110 
  -14168   -14187   -14115   -13969   -13828   -13764   -13770   -13779 
  -13743   -13653   -13586   -13609   -13690   -13718   -13628   -13495 
  -13474   -13608   -13759   -13810   -13810   -13849   -13937   -14029 
  -14060   -14023   -13984   -13976   -13973   -13949   -13871   -13759 
  -13693   -13691   -13718   -13764   -13778   -13693   -13541   -13416 
  -13390   -13440   -13466   -13441   -13444   -13494   -13517   -13459 
  -13344   -13257   -13269   -13350   -13373   -13297   -13221   -13225 
  -13271   -13286   -13273   -13267   -13259   -13231   -13219   -13242 
  -13296   -13356   -13427   -13586   -13833   -13983   -13914   -13710 
  -13516   -13439   -13478   -13514   -13483   -13483   -13572   -13663 
  -13656   -13570   -13521   -13608   -13791   -13933   -13949   -13919 
  -13948   -14030   -14073   -13977   -13743   -13501   -13379   -13405 
  -13473   -13455   -13359   -13284   -13285   -13306   -13252   -13126 
  -13041   -13077   -13207   -13367   -13517   -13608   -13610   -13581 
  -13597   -13680   -13755   -13751   -13734   -13779   -13815   -13761 
  -13656   -13593   -13603   -13645   -13644   -13560   -13447   -13424 
  -13516   -13586   -13567   -13539   -13566   -13651   -13783   -13909 
  -13917   -13807   -13734   -13814   -13995   -14149   -14191   -14148 
  -14118   -14130   -14121   -14056   -13988   -13961   -13907   -13759 
  -13594   -13547   -13674   -13892   -14069   -14165   -14253   -14399 
  -14551   -14617   -14598   -14566   -14555   -14544   -14474   -14355 
  -14258   -14196   -14166   -14211   -14316   -14422   -14490   -14509 
  -14474   -14368   -14148   -13837   -13575   -13509   -13636   -13774 
  -13752   -13575   -13387   -13305   -13328   -13387   -13420   -13381 
  -13248   -13043   -12869   -12845   -12910   -12912   -12825   -12707 
  -12606   -12571   -12617   -12707   -12852   -13080   -13352   -13582 
  -13705   -13716   -13694   -13737   -13872   -14065   -14223   -14222 
  -14048   -13849   -13780   -13867   -13998   -14065   -14089   -14141 
  -14211   -14258   -14266   -14245   -14207   -14154   -14075   -13983 
  -13914   -13929   -14081   -14308   -14486   -14562   -14571   -14566 
  -14548   -14492   -14408   -14354   -14334   -14314   -14296   -14311 
  -14362   -14438   -14532   -14650   -14770   -14779   -14578   -14250 
  -13965   -13790   -13664   -13512   -13323   -13163   -13104   -13142 
  -13220   -13296   -13323   -13315   -13377   -13559   -13783   -13944 
  -13984   -13936   -13894   -13914   -13972   -13988   -13938   -13905 
  -13968   -14073   -14116   -14069   -13995   -13936   -13887   -13821 
  -13732   -13628   -13510   -13401   -13336   -13347   -13446   -13574 
  -13612   -13516   -13369   -13275   -13273   -13356   -13493   -13641 
  -13797   -13944   -14046   -14100   -14150   -14223   -14280   -14284 
  -14292   -14395   -14604   -14816   -14890   -14796   -14602   -14400 
  -14233   -14088   -13995   -14003   -14062   -14084   -14030   -13896 
  -13733   -13624   -13586   -13579   -13572   -13531   -13467   -13421 
  -13390   -13362   -13323   -13252   -13181   -13143   -13147   -13221 
  -13348   -13437   -13424   -13343   -13297   -13336   -13410   -13432 
  -13381   -13327   -13304   -13290   -13244   -13128   -13005   -12993 
  -13092   -13227   -13347   -13416   -13427   -13369   -13240   -13113 
  -13095   -13205   -13344   -13396   -13377   -13389   -13477   -13583 
  -13637   -13648   -13651   -13657   -13679   -13726   -13813   -13960 
  -14135   -14251   -14260   -14181   -14096   -14115   -14251   -14381 
  -14426   -14435   -14486   -14593   -14725   -14844   -14925   -14929 
  -14859   -14774   -14709   -14658   -14616   -14586   -14596   -14639 
  -14650   -14619   -14619   -14673   -14723   -14702   -14613   -14542 
  -14588   -14704   -14754   -14694   -14574   -14413   -14241   -14148 
  -14210   -14370   -14477   -14449   -14343   -14249   -14166   -14046 
  -13905   -13826   -13853   -13965   -14095   -14166   -14161   -14099 
  -13990   -13892   -13888   -13984   -14114   -14188   -14145   -13975 
  -13730   -13501   -13377   -13393   -13512   -13682   -13868   -14017 
  -14064   -14008   -13926   -13878   -13852   -13841   -13898   -14038 
  -14192   -14278   -14246   -14112   -13991   -13968   -14026   -14145 
  -14258   -14239   -14057   -13798   -13549   -13375   -13285   -13257 
  -13296   -13367   -13401   -13389   -13387   -13428   -13506   -13593 
  -13659   -13733   -13845   -13938   -13953   -13891   -13801   -13728 
  -13662   -13625   -13655   -13678   -13645   -13621   -13652   -13702 
  -13716   -13689   -13667   -13691   -13763   -13840   -13917   -14010 
  -14085   -14135   -14207   -14278   -14312   -14323   -14311   -14256 
  -14139   -13918   -13582   -13230   -12976   -12853   -12843   -12895 
  -12943   -12926   -12820   -12673   -12560   -12534   -12590   -12654 
  -12677   -12688   -12758   -12915   -13120   -13306   -13428   -13514 
  -13613   -13718   -13805   -13857   -13876   -13860   -13794   -13689 
  -13618   -13622   -13637   -13613   -13564   -13508   -13479   -13518 
  -13591   -13633   -13648   -13693   -13801   -13918   -13961   -13926 
  -13892   -13917   -13990   -14054   -14061   -14033   -14026   -14030 
  -14023   -14023   -14027   -14041   -14081   -14118   -14138   -14158 
  -14187   -14250   -14365   -14462   -14476   -14436   -14428   -14486 
  -14553   -14566   -14538   -14497   -14440   -14331   -14150   -13942 
  -13788   -13709   -13672   -13666   -13686   -13701   -13682   -13645 
  -13630   -13652   -13726   -13848   -13983   -14118   -14235   -14285 
  -14256   -14185   -14127   -14104   -14122   -14176   -14245   -14285 
  -14281   -14239   -14179   -14126   -14076   -14000   -13895   -13811 
  -13806   -13865   -13934   -13991   -14068   -14173   -14269   -14307 
  -14304   -14311   -14322   -14274   -14127   -13941   -13828   -13778 
  -13690   -13541   -13385   -13285   -13278   -13278   -13216   -13115 
  -13003   -12938   -12938   -12923   -12866   -12830   -12846   -12868 
  -12874   -12907   -12974   -13084   -13216   -13296   -13331   -13378 
  -13436   -13500   -13585   -13680   -13755   -13828   -13950   -14121 
  -14296   -14426   -14524   -14651   -14790   -14864   -14867   -14828 
  -14754   -14673   -14643   -14683   -14729   -14708   -14624   -14540 
  -14488   -14443   -14346   -14192   -14045   -13914   -13730   -13470 
  -13225   -13099   -13093   -13142   -13170   -13165   -13162   -13181 
  -13232   -13340   -13477   -13579   -13656   -13775   -13964   -14189 
  -14368   -14416   -14338   -14206   -14084   -14002   -13954   -13919 
  -13863   -13775   -13667   -13560   -13459   -13385   -13382   -13439 
  -13501   -13545   -13571   -13605   -13686   -13771   -13792   -13764 
  -13720   -13674   -13671   -13744   -13830   -13868   -13848   -13760 
  -13617   -13487   -13394   -13327   -13312   -13366   -13454   -13537 
  -13591   -13608   -13591   -13568   -13575   -13601   -13647   -13757 
  -13932   -14094   -14196   -14242   -14260   -14292   -14335   -14311 
  -14169   -13981   -13834   -13734   -13656   -13554   -13419   -13333 
  -13360   -13455   -13520   -13498   -13406   -13336   -13350   -13416 
  -13493   -13595   -13748   -13945   -14125   -14203   -14211   -14242 
  -14326   -14442   -14530   -14526   -14453   -14376   -14323   -14292 
  -14257   -14192   -14118   -14075   -14061   -14049   -14008   -13942 
  -13907   -13926   -13922   -13853   -13798   -13833   -13923   -13975 
  -13936   -13857   -13824   -13852   -13930   -14019   -14056   -14031 
  -13999   -13999   -14027   -14037   -13973   -13867   -13809   -13848 
  -13949   -14013   -13992   -13954   -13942   -13945   -13942   -13903 
  -13811   -13693   -13547   -13344   -13115   -12933   -12823   -12762 
  -12726   -12714   -12746   -12843   -12980   -13113   -13236   -13344 
  -13446   -13594   -13842   -14160   -14424   -14565   -14621   -14640 
  -14636   -14602   -14544   -14513   -14526   -14531   -14504   -14485 
  -14504   -14517   -14465   -14346   -14220   -14145   -14092   -13994 
  -13871   -13790   -13744   -13701   -13668   -13641   -13616   -13603 
  -13570   -13486   -13425   -13439   -13444   -13377   -13273   -13196 
  -13159   -13128   -13105   -13128   -13169   -13174   -13153   -13131 
  -13153   -13263   -13410   -13482   -13455   -13404   -13366   -13311 
  -13231   -13178   -13204   -13289   -13343   -13319   -13290   -13309 
  -13346   -13401   -13510   -13653   -13752   -13780   -13840   -14018 
  -14216   -14285   -14216   -14094   -14038   -14106   -14175   -14130 
  -14015   -13878   -13763   -13801   -14010   -14227   -14328   -14347 
  -14339   -14293   -14235   -14250   -14300   -14241   -14089   -13967 
  -13853   -13720   -13618   -13554   -13518   -13517   -13470   -13331 
  -13147   -12989   -12926   -12947   -12993   -13049   -13080   -13045 
  -12988   -12992   -13123   -13424   -13809   -14010   -13888   -13662 
  -13576   -13680   -13930   -14160   -14179   -14054   -13953   -13910 
  -13946   -14058   -14131   -14088   -14014   -14045   -14185   -14312 
  -14319   -14204   -14061   -14008   -14069   -14166   -14197   -14122 
  -14017   -14038   -14195   -14318   -14343   -14324   -14239   -14064 
  -13888   -13826   -13921   -14052   -14025   -13856   -13751   -13852 
  -14146   -14443   -14538   -14461   -14404   -14431   -14494   -14555 
  -14567   -14531   -14503   -14488   -14469   -14472   -14461   -14376 
  -14211   -13990   -13771   -13667   -13675   -13643   -13491   -13311 
  -13221   -13219   -13178   -13043   -12935   -12984   -13176   -13392 
  -13527   -13578   -13628   -13749   -13959   -14203   -14365   -14395 
  -14355   -14276   -14129   -13954   -13832   -13794   -13826   -13868 
  -13845   -13760   -13648   -13525   -13406   -13338   -13366   -13460 
  -13525   -13535   -13564   -13662   -13776   -13821   -13788   -13753 
  -13797   -13921   -14031   -14058   -14040   -14034   -14019   -13929 
  -13759   -13625   -13639   -13729   -13757   -13695   -13617   -13622 
  -13747   -13887   -13929   -13905   -13932   -14062   -14234   -14316 
  -14283   -14222   -14214   -14237   -14229   -14168   -14099   -14057 
  -14004   -13884   -13713   -13540   -13412   -13365   -13351   -13285 
  -13190   -13147   -13219   -13392   -13547   -13586   -13570   -13614 
  -13753   -13906   -13941   -13817   -13656   -13640   -13838   -14106 
  -14211   -14085   -13888   -13829   -13944   -14071   -14042   -13872 
  -13716   -13655   -13668   -13745   -13842   -13848   -13724   -13568 
  -13493   -13506   -13525   -13479   -13374   -13270   -13207   -13189 
  -13221   -13267   -13261   -13192   -13136   -13171   -13290   -13412 
  -13463   -13390   -13217   -13135   -13336   -13740   -14042   -14046 
  -13838   -13691   -13811   -14119   -14354   -14365   -14235   -14165 
  -14246   -14381   -14412   -14270   -14033   -13869   -13896   -14060 
  -14187   -14161   -14042   -14017   -14200   -14431   -14434   -14218 
  -14107   -14297   -14607   -14724   -14573   -14342   -14215   -14212 
  -14299   -14384   -14303   -14083   -13902   -13798   -13726   -13686 
  -13640   -13570   -13535   -13498   -13342   -13128   -13054   -13182 
  -13369   -13393   -13228   -13105   -13209   -13498   -13795   -13910 
  -13790   -13593   -13532   -13714   -14017   -14092   -13806   -13518 
  -13564   -13794   -13915   -13882   -13813   -13836   -13915   -13890 
  -13783   -13825   -14061   -14270   -14303   -14266   -14315   -14434 
  -14567   -14661   -14611   -14416   -14239   -14142   -14098   -14172 
  -14238   -14019   -13664   -13560   -13709   -13806   -13664   -13400 
  -13247   -13270   -13375   -13470   -13521   -13567   -13628   -13695 
  -13801   -14000   -14288   -14516   -14555   -14504   -14555   -14648 
  -14640   -14635   -14743   -14766   -14527   -14206   -14076   -14123 
  -14080   -13833   -13579   -13491   -13518   -13555   -13522   -13413 
  -13338   -13404   -13571   -13662   -13581   -13435   -13401   -13547 
  -13760   -13838   -13713   -13603   -13791   -14150   -14262   -14058 
  -13852   -13833   -13968   -14139   -14262   -14284   -14181   -14083 
  -14162   -14343   -14399   -14289   -14180   -14154   -14088   -13922 
  -13844   -13911   -13863   -13522   -13151   -13107   -13296   -13363 
  -13258   -13157   -13174   -13323   -13402   -13325   -13365   -13471 
  -13365   -13267   -13433   -13585   -13447   -13232   -13340   -13691 
  -13814   -13640   -13514   -13643   -13933   -14150   -14242   -14273 
  -14127   -13945   -14069   -14335   -14494   -14569   -14540   -14488 
  -14392   -14156   -14299   -15033   -15217   -14289   -13506   -13764 
  -14659   -15234   -14542   -13261   -12919   -13520   -14273   -14413 
  -13612   -12766   -12788   -13479   -13927   -13585   -13143   -13261 
  -13471   -13429   -13258   -13216   -13512   -13556   -13070   -12910 
  -13224   -13456   -13431   -12999   -12976   -13975   -14233   -13428 
  -13468   -13824   -13686   -14215   -14546   -13513   -13194   -14296 
  -14766   -14412   -13968   -13240   -13205   -14542   -15471   -14515 
  -12791   -12517   -13981   -14951   -14362   -13721   -13533   -13084 
  -13265   -14351   -14503   -13846   -13834   -13613   -12943   -13390 
  -14509   -15016   -14740   -13348   -12047   -13035   -15367   -16013 
  -14207   -12451   -12981   -14497   -14696   -14096   -14202   -14512 
  -14146   -13655   -13914   -14833   -15234   -14432   -13417   -13194 
  -13801   -14790   -15041   -13788   -12287   -12465   -13938   -14760 
  -14256   -13170   -12653   -13259   -13988   -13772   -13412   -13609 
  -13617   -13354   -13504   -13949   -14017   -13683   -13536   -13566 
  -13763   -14496   -15024   -14376   -13239   -13154   -14154   -14800 
  -14679   -14099   -13373   -13473   -14208   -14359   -14199   -14265 
  -13803   -13081   -13489   -14388   -14422   -14021   -13753   -13579 
  -13419   -13207   -13645   -14717   -14561   -13170   -12831   -13691 
  -14359   -14524   -14089   -13497   -13659   -14137   -14266   -14377 
  -14524   -14295   -13844   -13807   -14251   -14589   -14523   -14428 
  -14535   -14280   -13693   -13894   -14638   -14509   -14017   -14246 
  -14442   -14224   -14234   -14112   -13667   -13887   -14555   -14407 
  -13705   -13500   -13944   -14265   -13845   -13539   -13826   -13900 
  -13895   -13952   -13653   -13521   -13682   -13637   -13574   -13716 
  -13794   -13471   -13095   -13080   -13066   -13149   -13551   -13616 
  -13157   -12737   -12746   -13011   -12981   -12865   -12982   -12865 
  -12756   -13016   -13073   -12897   -12850   -12892   -13032   -13257 
  -13509   -13706   -13690   -13579   -13613   -13740   -13814   -13923 
  -14145   -14218   -14088   -14017   -14008   -14062   -14273   -14391 
  -14297   -14266   -14320   -14283   -14196   -14115   -14038   -14069 
  -14094   -13976   -13981   -14048   -13925   -13941   -14142   -14156 
  -14135   -14214   -14175   -14112   -14168   -14283   -14384   -14301 
  -14091   -14046   -14180   -14315   -14426   -14465   -14327   -14192 
  -14264   -14365   -14451   -14597   -14553   -14320   -14206   -14173 
  -14118   -14114   -14100   -13936   -13714   -13617   -13578   -13505 
  -13467   -13452   -13424   -13420   -13454   -13513   -13594   -13720 
  -13884   -14008   -14076   -14123   -14193   -14357   -14505   -14486 
  -14369   -14235   -14112   -14054   -14050   -14052   -14057   -14013 
  -13876   -13717   -13568   -13512   -13624   -13698   -13633   -13551 
  -13433   -13428   -13648   -13855   -13975   -14049   -13983   -13900 
  -13953   -14052   -14189   -14362   -14432   -14354   -14197   -14099 
  -14122   -14161   -14177   -14189   -14139   -13960   -13717   -13595 
  -13562   -13522   -13567   -13628   -13613   -13587   -13491   -13320 
  -13200   -13138   -13139   -13211   -13242   -13216   -13234   -13294 
  -13383   -13443   -13389   -13325   -13335   -13417   -13554   -13599 
  -13512   -13444   -13545   -13774   -13945   -14057   -14160   -14134 
  -13992   -13983   -14226   -14494   -14531   -14368   -14165   -14058 
  -14179   -14422   -14508   -14401   -14237   -14096   -14065   -14166 
  -14241   -14162   -14058   -14084   -14181   -14278   -14384   -14385 
  -14261   -14251   -14428   -14551   -14528   -14462   -14386   -14400 
  -14607   -14797   -14759   -14547   -14304   -14206   -14303   -14443 
  -14472   -14331   -14033   -13691   -13478   -13425   -13467   -13541 
  -13524   -13347   -13119   -12920   -12780   -12795   -12993   -13239 
  -13365   -13301   -13138   -13053   -13174   -13467   -13745   -13819 
  -13701   -13575   -13567   -13684   -13932   -14207   -14301   -14164 
  -13983   -13957   -14131   -14372   -14438   -14264   -14025   -13907 
  -13930   -13969   -13932   -13855   -13821   -13811   -13755   -13636 
  -13502   -13440   -13493   -13593   -13647   -13590   -13421   -13234 
  -13135   -13186   -13342   -13435   -13355   -13204   -13059   -12955 
  -12978   -13085   -13117   -13073   -12991   -12842   -12677   -12582 
  -12565   -12642   -12772   -12776   -12609   -12447   -12464   -12695 
  -12966   -13120   -13159   -13076   -13004   -13213   -13641   -14018 
  -14197   -14181   -14096   -14091   -14219   -14493   -14828   -14979 
  -14854   -14634   -14526   -14602   -14740   -14773   -14647   -14409 
  -14234   -14249   -14355   -14399   -14334   -14191   -14041   -13983 
  -14010   -14013   -13960   -13876   -13748   -13614   -13571   -13603 
  -13606   -13554   -13485   -13401   -13298   -13258   -13396   -13643 
  -13745   -13628   -13504   -13555   -13745   -13923   -13972   -13940 
  -13963   -14067   -14164   -14220   -14265   -14314   -14349   -14331 
  -14288   -14314   -14449   -14600   -14617   -14482   -14381   -14440 
  -14473   -14291   -14054   -14011   -14141   -14211   -14123   -13987 
  -13896   -13868   -13895   -13936   -13990   -14079   -14111   -14058 
  -14019   -14022   -14072   -14192   -14262   -14179   -14049   -13998 
  -13975   -13895   -13829   -13842   -13841   -13805   -13825   -13872 
  -13884   -13871   -13817   -13779   -13853   -13948   -13948   -13906 
  -13896   -13932   -13965   -13922   -13833   -13787   -13780   -13787 
  -13775   -13711   -13629   -13581   -13583   -13616   -13636   -13632 
  -13582   -13475   -13371   -13350   -13398   -13420   -13346   -13236 
  -13205   -13271   -13344   -13352   -13342   -13365   -13366   -13281 
  -13184   -13185   -13289   -13439   -13540   -13533   -13482   -13452 
  -13455   -13567   -13832   -14094   -14150   -13964   -13682   -13540 
  -13645   -13867   -14007   -13987   -13825   -13595   -13416   -13428 
  -13699   -14057   -14207   -14089   -13900   -13784   -13737   -13790 
  -13990   -14243   -14355   -14235   -13967   -13736   -13737   -14013 
  -14358   -14513   -14408   -14173   -13967   -13915   -14099   -14395 
  -14559   -14493   -14260   -13979   -13818   -13911   -14224   -14523 
  -14573   -14364   -14068   -13860   -13841   -14037   -14337   -14465 
  -14246   -13857   -13586   -13549   -13686   -13814   -13792   -13690 
  -13609   -13560   -13556   -13581   -13585   -13568   -13549   -13593 
