Origin Time       2025/01/13 21:19:00
Lat.              31.8
Long.             131.6
Depth. (km)       30
Mag.              6.9
Station Code      HRS006
Station Lat.      34.6666
Station Long.     132.4080
Station Height(m) 367
Record Time       2025/01/13 21:21:13
Sampling Freq(Hz) 100Hz
Duration Time(s)  60
Dir.              U-D
Scale Factor      7845(gal)/8223790
Max. Acc. (gal)   1.244
Last Correction   2025/01/13 21:21:12
Memo.             
[...]
   24456    24501    24476    24383    24290    24232    24224    24271 
   24324    24339    24352    24386    24385    24333    24290    24277 
   24275    24291    24301    24273    24214    24174    24212    24318 
   24387    24359    24300    24279    24298    24332    24343    24304 
   24270    24293    24325    24316    24271    24209    24162    24150 
   24138    24098    24067    24062    24042    24005    24001    24021 
   24023    24046    24111    24143    24128    24127    24159    24205 
   24259    24320    24367    24383    24391    24412    24432    24443 
   24449    24441    24395    24308    24216    24183    24217    24277 
   24327    24335    24289    24224    24165    24112    24086    24112 
   24173    24219    24227    24216    24201    24202    24256    24351 
   24422    24428    24368    24282    24225    24224    24263    24316 
   24370    24417    24462    24480    24436    24347    24279    24252 
   24254    24274    24290    24285    24256    24220    24193    24171 
   24148    24156    24213    24270    24291    24298    24316    24347 
   24381    24389    24352    24298    24260    24235    24213    24205 
   24197    24186    24194    24233    24283    24331    24354    24349 
   24343    24355    24372    24372    24347    24308    24304    24348 
   24397    24421    24445    24447    24375    24295    24286    24314 
   24347    24397    24429    24412    24390    24398    24398    24376 
   24372    24387    24374    24351    24385    24459    24482    24436 
   24375    24321    24281    24271    24266    24223    24162    24138 
   24158    24182    24183    24154    24109    24086    24085    24086 
   24089    24097    24109    24123    24138    24139    24133    24162 
   24213    24243    24256    24286    24320    24352    24376    24372 
   24370    24390    24390    24358    24321    24279    24260    24324 
   24437    24513    24536    24514    24443    24367    24371    24448 
   24529    24541    24467    24368    24335    24378    24420    24395 
   24310    24225    24196    24198    24171    24112    24054    24023 
   24070    24220    24376    24433    24406    24363    24348    24382 
   24416    24390    24354    24364    24375    24358    24363    24413 
   24466    24497    24501    24478    24460    24466    24474    24474 
   24472    24455    24402    24328    24256    24197    24148    24096 
   24050    24044    24048    24027    24023    24061    24079    24057 
   24043    24042    24023    24013    24040    24066    24088    24131 
   24155    24135    24125    24171    24228    24275    24325    24343 
   24306    24255    24205    24151    24138    24173    24196    24204 
   24219    24219    24214    24254    24322    24379    24395    24354 
   24263    24190    24201    24277    24320    24306    24283    24281 
   24279    24251    24224    24244    24290    24294    24247    24221 
   24244    24252    24240    24267    24295    24254    24175    24120 
   24077    24035    24017    24031    24062    24106    24169    24243 
   24289    24282    24256    24241    24246    24289    24381    24460 
   24456    24378    24290    24227    24204    24228    24256    24250 
   24213    24185    24204    24256    24275    24250    24247    24285 
   24325    24320    24262    24206    24193    24194    24190    24204 
   24219    24177    24097    24055    24062    24086    24140    24228 
   24274    24231    24155    24092    24048    24069    24148    24182 
   24123    24057    24061    24081    24059    24038    24043    24036 
   24012    23990    23986    24004    24019    23997    23963    23954 
   23959    23961    23962    23965    23971    23984    23996    23997 
   23990    23965    23904    23827    23797    23849    23924    23943 
   23899    23827    23777    23789    23836    23870    23885    23896 
   23915    23940    23969    23982    23977    23966    23970    23997 
   24038    24070    24073    24066    24098    24150    24178    24208 
   24264    24318    24356    24402    24460    24514    24564    24607 
   24626    24646    24692    24718    24688    24653    24653    24673 
   24703    24742    24748    24695    24651    24656    24655    24625 
   24610    24599    24553    24524    24557    24580    24538    24493 
   24474    24451    24426    24394    24317    24240    24204    24154 
   24094    24101    24127    24092    24050    24062    24093    24116 
   24143    24159    24159    24175    24223    24274    24298    24273 
   24224    24214    24260    24312    24308    24243    24186    24198 
   24251    24273    24248    24216    24202    24205    24212    24202 
   24182    24198    24263    24339    24374    24355    24306    24260 
   24236    24240    24260    24289    24298    24255    24185    24162 
   24190    24228    24243    24220    24173    24140    24123    24078 
   24035    24066    24138    24175    24163    24140    24135    24173 
   24252    24317    24325    24325    24368    24417    24406    24363 
   24349    24371    24386    24366    24349    24367    24362    24312 
   24287    24314    24335    24355    24398    24425    24417    24389 
   24356    24345    24375    24420    24437    24443    24456    24453 
   24413    24371    24364    24389    24413    24391    24329    24300 
   24340    24391    24397    24364    24328    24324    24379    24474 
   24548    24570    24556    24533    24524    24533    24540    24528 
   24502    24468    24425    24379    24366    24391    24413    24409 
   24402    24399    24391    24385    24399    24444    24502    24553 
   24564    24516    24452    24417    24402    24391    24382    24341 
   24246    24144    24096    24084    24054    24003    23967    23965 
   23961    23942    23942    23974    24016    24040    24063    24127 
   24217    24279    24279    24228    24175    24183    24243    24302 
   24351    24399    24435    24445    24433    24386    24295    24198 
   24154    24166    24186    24205    24221    24209    24182    24175 
   24186    24196    24205    24206    24193    24178    24181    24209 
   24241    24231    24186    24162    24162    24152    24140    24142 
   24147    24170    24216    24236    24224    24219    24221    24224 
   24232    24224    24171    24086    24020    24021    24082    24152 
   24175    24143    24116    24159    24254    24337    24367    24362 
   24382    24432    24448    24426    24414    24399    24364    24343 
   24360    24389    24405    24416    24432    24444    24441    24437 
   24444    24453    24459    24491    24575    24664    24692    24694 
   24736    24788    24802    24800    24811    24817    24813    24817 
   24817    24803    24794    24772    24698    24603    24551    24556 
   24599    24636    24618    24549    24499    24513    24537    24521 
   24506    24522    24545    24553    24540    24503    24474    24483 
   24510    24525    24506    24440    24354    24304    24305    24320 
   24310    24295    24286    24263    24231    24212    24217    24240 
   24244    24217    24186    24154    24116    24123    24198    24267 
   24278    24252    24223    24205    24227    24275    24289    24267 
   24268    24310    24368    24422    24459    24468    24453    24424 
   24376    24316    24264    24244    24250    24235    24170    24106 
   24093    24106    24117    24131    24133    24112    24085    24079 
   24097    24127    24160    24186    24190    24182    24177    24177 
   24187    24209    24217    24210    24192    24165    24158    24179 
   24204    24227    24277    24345    24408    24467    24537    24595 
   24615    24602    24583    24567    24544    24514    24482    24453 
   24462    24495    24516    24525    24525    24498    24472    24491 
   24553    24615    24629    24605    24588    24579    24576    24601 
   24632    24642    24653    24695    24741    24733    24679    24656 
   24678    24696    24702    24702    24678    24636    24598    24555 
   24506    24463    24426    24393    24370    24355    24318    24258 
   24219    24197    24151    24094    24059    24025    23985    23969 
   23988    23997    23962    23922    23915    23912    23911    23957 
   24019    24015    23947    23904    23917    23957    24001    24031 
   24004    23939    23923    23953    23970    23985    24021    24047 
   24046    24030    23998    23966    23988    24048    24067    24027 
   23994    23985    23966    23942    23932    23913    23881    23853 
   23805    23712    23612    23569    23591    23637    23657    23622 
   23560    23512    23506    23566    23668    23738    23773    23816 
   23838    23812    23831    23957    24093    24127    24062    23977 
   23942    23965    23996    23982    23939    23895    23850    23809 
   23761    23688    23620    23589    23588    23593    23589    23553 
   23492    23448    23445    23464    23473    23481    23495    23511 
   23560    23650    23734    23773    23776    23770    23789    23868 
   23977    24054    24097    24132    24152    24171    24216    24247 
   24228    24194    24187    24216    24271    24331    24379    24422 
   24463    24480    24472    24470    24493    24520    24511    24482 
   24474    24489    24518    24570    24603    24591    24567    24561 
   24574    24588    24578    24526    24476    24443    24410    24374 
   24331    24274    24235    24235    24248    24247    24235    24227 
   24219    24205    24200    24205    24202    24182    24150    24116 
   24105    24121    24143    24158    24185    24208    24202    24205 
   24236    24258    24259    24277    24322    24379    24443    24511 
   24547    24551    24571    24603    24619    24626    24640    24673 
   24729    24796    24842    24838    24810    24787    24769    24763 
   24784    24818    24826    24814    24817    24833    24840    24838 
   24845    24869    24918    24985    25039    25051    25035    25033 
   25049    25053    25039    25022    24992    24938    24860    24775 
   24710    24669    24638    24618    24610    24584    24532    24494 
   24474    24422    24341    24289    24290    24316    24316    24277 
   24212    24129    24062    24034    24015    23969    23904    23846 
   23796    23757    23734    23722    23710    23685    23653    23643 
   23646    23627    23595    23583    23602    23629    23657    23703 
   23753    23791    23826    23859    23893    23953    24032    24093 
   24131    24163    24192    24205    24202    24190    24179    24170 
   24162    24156    24142    24097    24036    23996    23988    24004 
   24040    24088    24119    24117    24109    24124    24146    24175 
   24229    24293    24333    24336    24306    24270    24278    24344 
   24389    24368    24335    24335    24349    24359    24381    24421 
   24462    24486    24474    24439    24418    24425    24447    24483 
   24501    24479    24468    24494    24522    24543    24551    24528 
   24486    24455    24437    24432    24437    24426    24399    24394 
   24424    24439    24408    24366    24333    24291    24248    24220 
   24185    24136    24102    24101    24102    24073    24020    23970 
   23930    23907    23916    23959    24011    24046    24065    24086 
   24117    24144    24166    24194    24209    24178    24136    24132 
   24144    24139    24111    24070    24044    24034    24013    24007 
   24027    24046    24059    24077    24102    24129    24155    24183 
   24209    24241    24285    24324    24340    24329    24304    24294 
   24314    24351    24383    24399    24399    24398    24409    24430 
   24440    24409    24355    24332    24345    24362    24366    24364 
   24376    24412    24449    24482    24507    24541    24584    24626 
   24673    24734    24786    24835    24903    24964    24993    25012 
   25051    25092    25112    25123    25131    25123    25107    25097 
   25087    25083    25088    25088    25070    25030    24979    24930 
   24888    24842    24791    24741    24694    24637    24549    24433 
   24336    24286    24252    24213    24170    24113    24040    23971 
   23926    23900    23880    23859    23843    23831    23826    23826 
   23836    23847    23858    23892    23946    23992    24038    24089 
   24112    24097    24085    24088    24093    24101    24108    24084 
   24030    23986    23974    23978    23974    23936    23863    23805 
   23789    23792    23788    23776    23750    23704    23665    23670 
   23703    23718    23719    23737    23770    23781    23768    23760 
   23772    23801    23853    23912    23950    23980    24035    24113 
   24206    24306    24372    24416    24483    24571    24655    24723 
   24767    24777    24776    24775    24773    24769    24759    24733 
   24694    24665    24661    24667    24668    24659    24644    24636 
   24630    24606    24547    24452    24349    24275    24248    24246 
   24229    24181    24111    24044    24011    24005    24001    23989 
   23973    23962    23967    23978    23970    23940    23911    23881 
   23838    23781    23718    23657    23611    23588    23585    23584 
   23571    23557    23546    23529    23512    23517    23542    23583 
   23627    23652    23661    23685    23737    23789    23824    23845 
   23870    23909    23958    24015    24078    24143    24187    24235 
   24322    24433    24528    24594    24636    24665    24726    24822 
   24912    24988    25072    25153    25204    25247    25307    25358 
   25385    25424    25490    25550    25570    25552    25513    25471 
   25439    25420    25397    25350    25292    25236    25186    25143 
   25114    25076    25004    24903    24790    24667    24556    24474 
   24395    24306    24221    24140    24052    23958    23872    23809 
   23766    23720    23662    23593    23517    23450    23404    23364 
   23319    23287    23283    23288    23278    23267    23268    23275 
   23298    23342    23375    23392    23433    23490    23530    23561 
   23618    23712    23832    23954    24048    24108    24166    24240 
   24314    24379    24418    24440    24472    24501    24502    24497 
   24502    24514    24543    24599    24646    24656    24659    24668 
   24671    24667    24651    24625    24607    24599    24586    24570 
   24552    24525    24499    24491    24502    24516    24529    24538 
   24538    24528    24524    24530    24543    24553    24555    24541 
   24524    24510    24494    24476    24470    24479    24487    24478 
   24443    24397    24356    24327    24312    24302    24281    24252 
   24231    24213    24198    24186    24170    24156    24156    24160 
   24158    24158    24173    24204    24240    24273    24287    24293 
   24304    24321    24336    24348    24368    24399    24424    24420 
   24391    24360    24344    24347    24375    24417    24437    24421 
   24395    24399    24418    24403    24359    24321    24291    24262 
   24228    24178    24117    24061    24028    24024    24027    24017 
   24003    23985    23977    23994    24042    24108    24173    24235 
   24313    24401    24466    24505    24540    24578    24607    24630 
   24652    24667    24678    24684    24687    24686    24675    24652 
   24638    24649    24669    24678    24665    24648    24641    24636 
   24624    24609    24584    24545    24503    24452    24366    24267 
   24193    24135    24067    23982    23896    23831    23776    23714 
   23649    23583    23519    23485    23481    23477    23467    23475 
   23518    23571    23602    23616    23650    23703    23753    23795 
   23841    23890    23944    24004    24054    24079    24085    24097 
   24139    24201    24256    24305    24354    24395    24421    24426 
   24418    24410    24410    24417    24405    24374    24347    24312 
   24243    24162    24100    24059    24031    24019    24011    23980 
   23924    23874    23861    23886    23905    23889    23870    23869 
   23859    23847    23857    23888    23932    23973    23976    23954 
   23947    23951    23939    23920    23917    23915    23893    23874 
   23880    23897    23931    23993    24062    24117    24159    24198 
   24259    24349    24443    24510    24559    24607    24675    24741 
   24787    24819    24841    24862    24908    24968    24999    25003 
   25016    25043    25058    25050    25022    24983    24957    24954 
   24953    24943    24929    24910    24899    24911    24921    24904 
   24884    24884    24883    24861    24844    24846    24861    24872 
   24864    24850    24845    24841    24826    24798    24773    24765 
   24744    24691    24637    24603    24586    24572    24551    24517 
   24472    24412    24359    24333    24309    24264    24210    24147 
   24065    23982    23915    23854    23807    23770    23712    23630 
   23569    23560    23576    23598    23614    23623    23633    23653 
   23668    23687    23724    23761    23774    23780    23788    23787 
   23789    23808    23835    23859    23882    23903    23905    23889 
   23886    23909    23949    24007    24062    24086    24085    24084 
   24093    24120    24166    24204    24224    24255    24308    24355 
   24381    24382    24371    24379    24405    24413    24393    24355 
   24320    24325    24359    24372    24362    24358    24375    24417 
   24471    24513    24528    24528    24534    24553    24578    24598 
   24605    24601    24599    24605    24601    24579    24559    24547 
   24541    24541    24538    24513    24472    24432    24387    24343 
   24301    24254    24209    24177    24146    24108    24071    24038 
   23993    23958    23949    23953    23947    23935    23924    23911 
   23899    23900    23920    23962    24007    24030    24038    24055 
   24088    24133    24185    24227    24243    24250    24279    24328 
   24366    24374    24368    24372    24386    24394    24395    24390 
   24371    24341    24314    24295    24283    24271    24251    24233 
   24217    24190    24160    24144    24131    24109    24094    24097 
   24106    24109    24101    24089    24088    24101    24129    24165 
   24185    24183    24181    24196    24225    24254    24267    24275 
   24281    24295    24329    24367    24391    24409    24412    24391 
   24363    24341    24335    24336    24327    24310    24312    24320 
   24322    24325    24322    24320    24328    24339    24333    24305 
   24263    24219    24182    24160    24155    24156    24146    24119 
   24093    24084    24088    24097    24115    24143    24169    24187 
   24213    24247    24271    24283    24294    24309    24328    24337 
   24332    24322    24306    24282    24274    24290    24308    24312 
   24308    24298    24285    24286    24305    24322    24321    24305 
   24285    24267    24250    24232    24228    24243    24259    24264 
   24270    24285    24295    24308    24345    24410    24466    24480 
   24471    24467    24482    24511    24540    24570    24609    24644 
   24660    24660    24656    24653    24648    24644    24638    24622 
   24590    24548    24510    24479    24459    24449    24439    24418 
   24394    24368    24345    24328    24312    24298    24287    24267 
   24232    24183    24127    24086    24073    24071    24067    24050 
   24017    23985    23969    23976    24004    24036    24050    24050 
