Origin Time       2025/01/13 21:19:00
Lat.              31.8
Long.             131.6
Depth. (km)       30
Mag.              6.9
Station Code      HRS005
Station Lat.      34.7774
Station Long.     133.2803
Station Height(m) 485
Record Time       2025/01/13 21:21:07
Sampling Freq(Hz) 100Hz
Duration Time(s)  67
Dir.              E-W
Scale Factor      7845(gal)/8223790
Max. Acc. (gal)   1.478
Last Correction   2025/01/13 21:21:06
Memo.             
[...]
   -1100    -1092    -1026     -951     -886     -855     -895     -962 
    -984     -954     -911     -873     -878     -957    -1061    -1121 
   -1143    -1138    -1105    -1067    -1053    -1070    -1074    -1030 
   -1003    -1059    -1127    -1100    -1012     -966     -963     -951 
    -915     -899     -936     -977     -978     -994    -1059    -1112 
   -1090    -1028     -997     -993     -985     -999    -1024    -1021 
    -989     -947     -943     -994    -1055    -1102    -1139    -1140 
   -1132    -1155    -1188    -1215    -1240    -1242    -1190    -1117 
   -1098    -1104    -1059    -1008     -996     -985     -974     -989 
   -1000     -980     -963     -977    -1013    -1028    -1021    -1048 
   -1105    -1135    -1131    -1128    -1163    -1243    -1318    -1331 
   -1235    -1057     -912     -892     -953     -981     -966     -992 
   -1084    -1189    -1259    -1251    -1169    -1080    -1044    -1057 
   -1066    -1021     -946     -892     -873     -885     -935     -990 
   -1034    -1094    -1147    -1136    -1080    -1031     -994     -938 
    -857     -804     -814     -861     -918     -973    -1039    -1143 
   -1239    -1252    -1228    -1217    -1177    -1107    -1084    -1101 
   -1084    -1005     -923     -908     -940     -957     -947     -947 
    -988    -1055    -1092    -1084    -1075    -1082    -1066    -1034 
   -1032    -1058    -1089    -1135    -1200    -1244    -1260    -1286 
   -1302    -1260    -1148    -1001     -876     -799     -754     -719 
    -706     -772     -931    -1107    -1254    -1364    -1379    -1289 
   -1170    -1065     -957     -869     -858     -907     -980    -1100 
   -1242    -1329    -1356    -1332    -1252    -1135     -994     -854 
    -749     -703     -714     -758     -814     -888    -1004    -1159 
   -1283    -1310    -1279    -1236    -1178    -1131    -1123    -1135 
   -1132    -1070     -974     -930     -924     -892     -862     -888 
    -972    -1081    -1178    -1259    -1328    -1329    -1236    -1131 
   -1089    -1082    -1023     -923     -889     -950    -1050    -1136 
   -1177    -1179    -1170    -1155    -1135    -1102    -1039     -946 
    -853     -811     -838     -891     -943     -996    -1047    -1085 
   -1094    -1092    -1092    -1059     -994     -958     -992    -1082 
   -1162    -1189    -1213    -1247    -1244    -1209    -1167    -1116 
   -1043     -947     -869     -846     -839     -785     -731     -774 
    -897     -986    -1004    -1008    -1036    -1077    -1121    -1165 
   -1174    -1134    -1098    -1123    -1169    -1165    -1097    -1001 
    -900     -797     -719     -702     -751     -831     -936    -1081 
   -1247    -1391    -1459    -1401    -1267    -1170    -1132    -1101 
   -1023     -893     -799     -818     -911     -990    -1039    -1077 
   -1109    -1140    -1152    -1094     -981     -918     -942     -953 
    -908     -897     -955    -1005    -1031    -1112    -1251    -1337 
   -1320    -1264    -1221    -1150    -1027     -919     -881     -858 
    -849     -928    -1063    -1151    -1178    -1185    -1186    -1197 
   -1201    -1154    -1075    -1017     -980     -981    -1051    -1144 
   -1198    -1220    -1246    -1297    -1339    -1287    -1150    -1016 
    -908     -789     -702     -697     -751     -831     -927    -1019 
   -1093    -1135    -1144    -1155    -1163    -1128    -1073    -1040 
   -1024     -976     -888     -830     -861     -969    -1117    -1258 
   -1339    -1363    -1371    -1358    -1285    -1142     -976     -837 
    -726     -631     -573     -585     -676     -832    -1031    -1219 
   -1333    -1385    -1433    -1487    -1487    -1395    -1223    -1027 
    -851     -729     -699     -733     -733     -702     -720     -820 
    -955    -1061    -1101    -1117    -1165    -1210    -1197    -1132 
   -1075    -1043    -1008     -972     -949     -945     -940     -940 
    -985    -1039    -1039    -1021    -1020    -1012    -1026    -1084 
   -1170    -1266    -1343    -1371    -1337    -1266    -1197    -1107 
    -973     -854     -819     -866     -922     -926     -916     -949 
   -1001    -1032    -1042    -1053    -1067    -1077    -1101    -1162 
   -1213    -1205    -1177    -1163    -1132    -1053     -973     -967 
   -1019    -1065    -1096    -1125    -1152    -1174    -1192    -1221 
   -1273    -1305    -1285    -1246    -1200    -1104     -973     -928 
   -1015    -1098    -1089    -1055    -1058    -1038     -936     -827 
    -822     -876     -869     -823     -839     -889     -904     -913 
    -984    -1089    -1135    -1115    -1129    -1216    -1270    -1200 
   -1063     -963     -911     -888     -911     -963    -1012    -1057 
   -1090    -1120    -1167    -1198    -1174    -1105    -1035     -969 
    -896     -834     -777     -691     -629     -684     -858    -1059 
   -1171    -1206    -1240    -1254    -1208    -1143    -1089    -1017 
    -897     -778     -760     -839     -928     -973    -1005    -1092 
   -1200    -1242    -1247    -1260    -1223    -1125    -1047    -1000 
    -955     -934     -934     -912     -889     -923     -951     -903 
    -853     -864     -899     -946    -1032    -1156    -1263    -1301 
   -1287    -1251    -1216    -1217    -1224    -1173    -1084    -1028 
   -1001     -951     -900     -889     -897     -928     -994    -1040 
   -1044    -1067    -1156    -1281    -1372    -1389    -1312    -1174 
   -1073    -1031     -990     -953     -940     -945     -942     -935 
    -965    -1053    -1155    -1231    -1291    -1379    -1470    -1489 
   -1433    -1371    -1318    -1217    -1043     -893     -828     -803 
    -800     -846     -928    -1008    -1059    -1104    -1151    -1162 
   -1169    -1251    -1360    -1393    -1354    -1320    -1310    -1271 
   -1147     -974     -847     -816     -850     -878     -858     -820 
    -828     -905    -1016    -1117    -1174    -1173    -1156    -1173 
   -1192    -1155    -1061     -977     -949     -949     -947     -972 
   -1032    -1071    -1040     -989    -1015    -1101    -1154    -1154 
   -1131    -1096    -1054     -997     -930     -866     -822     -810 
    -846     -935    -1035    -1088    -1097    -1116    -1142    -1107 
   -1005     -931     -945    -1000    -1023    -1003     -996    -1026 
   -1066    -1085    -1088    -1111    -1127    -1073     -990     -982 
   -1047    -1111    -1121    -1105    -1124    -1170    -1166    -1127 
   -1119    -1129    -1112    -1084    -1097    -1140    -1146    -1082 
   -1023    -1035    -1069    -1061    -1020     -981     -951     -918 
    -866     -845     -884     -915     -908     -926     -973    -1008 
   -1016    -1007    -1005    -1008     -992    -1000    -1066    -1116 
   -1092    -1042    -1024    -1023    -1004     -974     -962     -986 
   -1069    -1175    -1202    -1124    -1063    -1062    -1012     -893 
    -834     -864     -888     -878     -870     -866     -896     -999 
   -1132    -1216    -1233    -1247    -1294    -1321    -1294    -1271 
   -1277    -1248    -1193    -1162    -1117    -1042     -996     -993 
    -990     -963     -911     -859     -857     -930    -1021    -1030 
    -985    -1001    -1086    -1147    -1120    -1061    -1062    -1102 
   -1102    -1061    -1012     -976     -959     -958     -942     -922 
    -938    -1000    -1050    -1034     -984     -970     -986     -978 
    -950     -946     -997    -1085    -1152    -1177    -1165    -1125 
   -1101    -1138    -1205    -1216    -1144    -1047     -962     -884 
    -838     -847     -854     -826     -826     -889     -970    -1036 
   -1070    -1058    -1012     -958     -939     -985    -1067    -1125 
   -1150    -1178    -1206    -1175    -1071     -949     -886     -928 
   -1001    -1030    -1067    -1165    -1212    -1142    -1078    -1147 
   -1266    -1258    -1144    -1082    -1078    -1036     -957     -882 
    -831     -831     -889     -980    -1092    -1210    -1293    -1296 
   -1204    -1078     -999     -962     -935     -947    -1020    -1105 
   -1165    -1205    -1246    -1281    -1300    -1314    -1297    -1186 
   -1005     -870     -816     -777     -729     -738     -842    -1000 
   -1167    -1328    -1429    -1405    -1306    -1228    -1174    -1105 
   -1023     -949     -891     -872     -918     -976     -988     -988 
   -1012    -1038    -1034    -1017    -1030    -1028     -936     -837 
    -846     -927    -1021    -1121    -1205    -1250    -1260    -1240 
   -1216    -1197    -1138    -1031     -927     -827     -716     -648 
    -696     -882    -1151    -1409    -1575    -1633    -1632    -1609 
   -1503    -1281    -1012     -765     -584     -511     -537     -637 
    -778     -899     -986    -1098    -1258    -1404    -1448    -1364 
   -1200    -1020     -865     -754     -720     -777     -872     -950 
   -1027    -1119    -1183    -1173    -1129    -1115    -1101    -1071 
   -1075    -1120    -1142    -1088     -958     -815     -768     -822 
    -865     -862     -846     -828     -854     -927     -957     -915 
    -880     -900     -945     -962     -989    -1082    -1216    -1331 
   -1387    -1364    -1269    -1096     -857     -649     -553     -564 
    -637     -764     -955    -1185    -1387    -1514    -1548    -1497 
   -1397    -1242    -1032     -837     -693     -584     -541     -630 
    -853    -1120    -1321    -1420    -1402    -1251    -1053     -935 
    -923     -993    -1146    -1323    -1424    -1408    -1312    -1192 
   -1039     -834     -629     -521     -565     -702     -843     -997 
   -1192    -1386    -1513    -1536    -1498    -1447    -1343    -1151 
    -951     -808     -714     -675     -745     -928    -1127    -1242 
   -1313    -1363    -1286    -1071     -881     -792     -738     -729 
    -845    -1026    -1135    -1178    -1221    -1278    -1337    -1339 
   -1221    -1055     -969    -1003    -1108    -1240    -1372    -1455 
   -1467    -1439    -1364    -1196     -912     -587     -360     -324 
    -440     -604     -807    -1065    -1316    -1487    -1549    -1498 
   -1360    -1186    -1048     -961     -865     -781     -764     -762 
    -768     -869    -1042    -1162    -1228    -1290    -1297    -1224 
   -1089     -892     -720     -639     -594     -604     -731     -959 
   -1255    -1510    -1622    -1644    -1606    -1417    -1108     -838 
    -683     -614     -615     -664     -722     -784     -862     -967 
   -1120    -1293    -1432    -1503    -1544    -1587    -1534    -1324 
   -1066     -830     -599     -450     -476     -623     -762     -880 
   -1078    -1359    -1574    -1625    -1567    -1479    -1356    -1196 
   -1032     -854     -703     -723     -940    -1248    -1541    -1710 
   -1705    -1621    -1534    -1356    -1039     -718     -531     -480 
    -511     -656     -936    -1181    -1255    -1256    -1250    -1193 
   -1075     -886     -684     -633     -710     -772     -837     -946 
   -1065    -1175    -1244    -1237    -1193    -1162    -1113    -1001 
    -877     -849     -939    -1073    -1159    -1167    -1115    -1016 
    -903     -815     -741     -649     -615     -746     -969    -1132 
   -1282    -1526    -1787    -1873    -1714    -1406    -1088     -873 
    -822     -881     -962    -1004     -985     -942     -892     -843 
    -850     -928    -1032    -1161    -1314    -1435    -1439    -1332 
   -1209    -1085     -891     -688     -616     -691     -803     -846 
    -824     -841     -928     -997    -1004     -970     -935     -969 
   -1125    -1352    -1517    -1543    -1498    -1490    -1489    -1398 
   -1232    -1004     -687     -392     -299     -400     -544     -587 
    -529     -529     -703     -953    -1132    -1215    -1248    -1321 
   -1489    -1637    -1636    -1551    -1476    -1428    -1418    -1370 
   -1147     -803     -514     -417     -562     -857    -1125    -1271 
   -1293    -1269    -1231    -1073     -799     -625     -621     -639 
    -687     -904    -1216    -1421    -1502    -1536    -1472    -1255 
    -976     -762     -665     -677     -764     -862     -939    -1032 
   -1148    -1213    -1212    -1170    -1081     -967     -881     -803 
    -688     -589     -621     -803    -1032    -1178    -1221    -1267 
   -1348    -1375    -1325    -1285    -1258    -1181    -1108    -1116 
   -1147    -1082     -911     -762     -714     -719     -704     -641 
    -623     -780    -1038    -1220    -1279    -1252    -1196    -1139 
   -1048     -958     -970    -1082    -1188    -1181    -1050     -912 
    -895    -1004    -1144    -1202    -1069     -788     -549     -463 
    -506     -646     -927    -1337    -1682    -1761    -1607    -1362 
   -1104     -899     -791     -783     -907    -1129    -1281    -1212 
    -931     -629     -517     -630     -893    -1159    -1227    -1094 
    -969     -920     -849     -711     -616     -706     -946    -1198 
   -1383    -1482    -1514    -1470    -1345    -1193    -1071    -1021 
   -1032    -1055    -1048    -1004     -934     -832     -718     -687 
    -811    -1057    -1289    -1368    -1309    -1228    -1147    -1036 
    -911     -804     -762     -800     -903    -1044    -1161    -1235 
   -1309    -1368    -1383    -1405    -1453    -1455    -1348    -1182 
   -1055    -1003     -988     -985     -992     -965     -842     -638 
    -464     -440     -541     -641     -677     -707     -847    -1116 
   -1381    -1541    -1628    -1676    -1683    -1652    -1586    -1448 
   -1156     -688     -184      183      400      502      391      -20 
    -633    -1232    -1679    -1975    -2199    -2332    -2263    -1962 
   -1549    -1173     -878     -668     -567     -572     -637     -757 
    -912    -1027    -1081    -1128    -1124     -981     -787     -703 
    -739     -792     -820     -900    -1098    -1340    -1512    -1618 
   -1688    -1663    -1464    -1102     -751     -527     -394     -364 
    -483     -719     -988    -1205    -1382    -1518    -1563    -1586 
   -1617    -1537    -1310     -992     -673     -491     -491     -575 
    -670     -800    -1001    -1256    -1480    -1525    -1371    -1212 
   -1179    -1169    -1085     -981     -924     -935    -1012    -1113 
   -1152    -1082     -950     -831     -754     -702     -685     -757 
    -905    -1070    -1170    -1154    -1044     -896     -760     -715 
    -828    -1102    -1470    -1803    -2006    -2057    -1939    -1591 
   -1046     -456       20      306      365      133     -369     -924 
   -1317    -1525    -1638    -1746    -1876    -1934    -1856    -1701 
   -1494    -1232     -980     -760     -546     -380     -340     -463 
    -687     -876     -961     -992    -1019    -1062    -1154    -1297 
   -1416    -1441    -1336    -1123     -919     -796     -719     -724 
    -903    -1162    -1274    -1206    -1119    -1093    -1084    -1043 
    -978     -922     -900     -961    -1152    -1412    -1610    -1694 
   -1648    -1491    -1313    -1183    -1085     -978     -893     -878 
    -909     -972    -1101    -1304    -1499    -1618    -1707    -1809 
   -1841    -1699    -1386    -1013     -658     -342     -117      -10 
      -4     -121     -384     -695     -916    -1047    -1212    -1501 
   -1852    -2064    -1976    -1657    -1294     -986     -761     -585 
    -417     -299     -264     -290     -427     -727    -1098    -1444 
   -1763    -2006    -2080    -1984    -1779    -1528    -1229     -845 
    -464     -230     -151     -221     -517     -966    -1395    -1729 
   -1925    -1922    -1713    -1347     -904     -453      -67      155 
      95     -268     -764    -1213    -1657    -2096    -2350    -2300 
   -1985    -1539    -1024     -460        9      216      151      -94 
    -422     -734     -997    -1201    -1335    -1470    -1601    -1613 
   -1521    -1371    -1192    -1046     -909     -816     -892    -1088 
   -1270    -1381    -1363    -1200     -949     -666     -392     -230 
    -261     -445     -712    -1026    -1313    -1522    -1645    -1628 
   -1458    -1237    -1005     -758     -614     -704     -974    -1205 
   -1320    -1421    -1486    -1401    -1194     -932     -645     -444 
    -440     -565     -718     -874     -988    -1061    -1173    -1250 
   -1156    -1038    -1102    -1297    -1449    -1435    -1250    -1026 
    -865     -801     -838     -922    -1009    -1084    -1085    -1039 
   -1005     -915     -804     -780     -750     -623     -560     -706 
   -1004    -1323    -1588    -1755    -1790    -1715    -1551    -1240 
    -815     -503     -500     -780    -1104    -1205    -1062     -876 
    -814     -907    -1094    -1254    -1262    -1159    -1142    -1294 
   -1486    -1583    -1593    -1556    -1490    -1425    -1318    -1069 
    -726     -450     -302     -274     -409     -729    -1075    -1196 
   -1090    -1089    -1325    -1532    -1502    -1259     -900     -645 
    -714    -1054    -1414    -1590    -1563    -1459    -1405    -1448 
   -1524    -1458    -1216     -984     -846     -653     -345      -67 
      87      125      -54     -540    -1148    -1594    -1840    -1987 
   -1985    -1761    -1414    -1078     -761     -504     -395     -388 
    -396     -473     -688    -1001    -1341    -1607    -1710    -1701 
   -1651    -1516    -1270    -1009     -814     -689     -693     -837 
    -972    -1036    -1138    -1293    -1405    -1398    -1309    -1221 
   -1115     -949     -800     -702     -639     -707     -931    -1113 
   -1109    -1066    -1129    -1237    -1352    -1474    -1494    -1372 
   -1205    -1078    -1017    -1023    -1069    -1084    -1027     -966 
    -893     -718     -479     -305     -264     -349     -537     -835 
   -1223    -1593    -1841    -2003    -2165    -2257    -2158    -1863 
   -1463    -1101     -881     -773     -700     -625     -552     -488 
    -415     -392     -449     -503     -588     -839    -1236    -1605 
   -1842    -2020    -2170    -2150    -1879    -1514    -1258    -1088 
    -846     -603     -518     -527     -533     -553     -634     -843 
   -1156    -1418    -1544    -1576    -1563    -1466    -1266    -1046 
    -901     -868     -899     -891     -810     -691     -548     -486 
    -664    -1070    -1471    -1688    -1767    -1710    -1452    -1140 
    -970     -869     -697     -525     -511     -724    -1080    -1316 
   -1266    -1086    -1013    -1100    -1259    -1367    -1356    -1256 
   -1109    -1000    -1000    -1020     -940     -854     -897    -1004 
   -1019     -946     -928    -1008    -1104    -1198    -1289    -1332 
   -1350    -1393    -1420    -1333    -1127     -942     -850     -735 
    -544     -375     -306     -357     -575     -913    -1185    -1281 
   -1270    -1185    -1050    -1023    -1186    -1394    -1513    -1549 
   -1495    -1387    -1351    -1367    -1269    -1019     -729     -476 
    -243     -110     -257     -606     -918    -1175    -1425    -1582 
   -1653    -1728    -1709    -1472    -1111     -770     -502     -274 
     -43      124      108     -135     -548     -938    -1170    -1281 
   -1262    -1075     -882     -865     -996    -1100    -1066     -966 
    -954    -1054    -1169    -1213    -1142     -957     -691     -432 
    -330     -425     -641     -947    -1273    -1512    -1620    -1549 
   -1335    -1129     -985     -850     -754     -741     -753     -750 
