Origin Time       2025/01/13 21:19:00
Lat.              31.8
Long.             131.6
Depth. (km)       30
Mag.              6.9
Station Code      HRS006
Station Lat.      34.6666
Station Long.     132.4080
Station Height(m) 367
Record Time       2025/01/13 21:21:13
Sampling Freq(Hz) 100Hz
Duration Time(s)  60
Dir.              N-S
Scale Factor      7845(gal)/8223790
Max. Acc. (gal)   1.189
Last Correction   2025/01/13 21:21:12
Memo.             
[...]
    1420     1532     1665     1790     1875     1826     1653     1512 
    1472     1459     1410     1332     1289     1325     1405     1458 
    1426     1348     1359     1483     1575     1556     1487     1444 
    1482     1602     1723     1776     1748     1630     1445     1310 
    1317     1490     1787     2058     2147     2076     1977     1914 
    1865     1838     1825     1783     1759     1788     1788     1701 
    1575     1456     1335     1212     1165     1302     1602     1867 
    1926     1834     1728     1620     1487     1375     1296     1244 
    1298     1460     1601     1687     1769     1822     1831     1826 
    1740     1524     1308     1233     1293     1418     1607     1857 
    2093     2238     2245     2093     1834     1578     1426     1448 
    1605     1753     1845     1927     1999     2025     1973     1821 
    1606     1422     1306     1258     1298     1410     1501     1502 
    1466     1495     1578     1611     1598     1617     1659     1653 
    1598     1540     1478     1386     1270     1177     1102     1024 
     993     1066     1165     1242     1389     1614     1775     1783 
    1668     1509     1408     1424     1505     1590     1657     1694 
    1695     1676     1633     1547     1409     1274     1252     1350 
    1489     1634     1788     1937     2046     2053     1915     1684 
    1485     1397     1408     1478     1598     1692     1661     1549 
    1451     1387     1355     1367     1410     1463     1556     1722 
    1892     1954     1876     1707     1574     1576     1660     1742 
    1829     1912     1995     2088     2106     1961     1718     1497 
    1368     1350     1383     1382     1362     1410     1563     1767 
    1942     2047     2079     2047     1944     1784     1630     1505 
    1387     1321     1385     1543     1688     1821     1979     2077 
    2026     1853     1634     1443     1336     1321     1375     1426 
    1368     1197     1082     1158     1366     1566     1679     1680 
    1601     1518     1490     1557     1718     1902     2068     2200 
    2222     2076     1838     1641     1493     1350     1298     1424 
    1657     1903     2107     2185     2061     1806     1564     1385 
    1251     1170     1150     1205     1399     1726     2025     2120 
    2010     1814     1598     1372     1200     1140     1154     1185 
    1294     1530     1800     2007     2134     2165     2061     1837 
    1566     1344     1285     1418     1633     1780     1786     1710 
    1647     1559     1391     1208     1057      962     1003     1200 
    1478     1790     2081     2231     2146     1850     1468     1107 
     787      572      630     1055     1714     2347     2752     2799 
    2469     1948     1458     1034      710      642      877     1306 
    1809     2261     2516     2489     2207     1740     1162      676 
     511      662      931     1210     1506     1772     1944     2029 
    2069     2038     1864     1593     1401     1378     1459     1578 
    1711     1771     1718     1698     1783     1831     1755     1607 
    1440     1314     1318     1486     1742     1946     2010     1977 
    1930     1888     1849     1819     1829     1892     1950     1907 
    1738     1501     1320     1318     1456     1599     1687     1719 
    1695     1622     1501     1306     1070      934      999     1213 
    1513     1856     2116     2192     2126     1973     1763     1566 
    1448     1421     1459     1543     1672     1829     1965     2035 
    1984     1783     1549     1449     1487     1525     1489     1399 
    1323     1351     1514     1665     1671     1566     1424     1285 
    1239     1339     1501     1633     1755     1922     2176     2477 
    2674     2644     2362     1872     1331      965      865      985 
    1300     1733     2084     2236     2209     2068     1904     1783 
    1679     1595     1633     1852     2131     2296     2311     2242 
    2110     1908     1663     1421     1328     1482     1764     2018 
    2199     2247     2153     2042     1948     1764     1494     1298 
    1294     1483     1776     2072     2297     2358     2185     1837 
    1433     1027      712      683      982     1355     1570     1621 
    1551     1343     1109     1069     1240     1464     1653     1800 
    1865     1813     1684     1529     1297      985      707      612 
     772     1096     1443     1752     1938     1888     1614     1294 
    1098     1067     1156     1298     1422     1489     1472     1370 
    1220     1054      920      947     1206     1559     1827     1957 
    1993     2002     1952     1787     1617     1547     1532     1588 
    1807     2089     2239     2241     2137     1917     1669     1541 
    1560     1671     1841     2023     2139     2174     2165     2073 
    1841     1570     1435     1452     1539     1690     1892     2029 
    2039     2007     1975     1915     1846     1804     1767     1696 
    1603     1548     1553     1551     1483     1387     1343     1406 
    1560     1696     1755     1755     1703     1618     1507     1336 
    1178     1154     1173     1090      977      982     1169     1479 
    1755     1863     1788     1576     1332     1194     1163     1142 
    1134     1208     1377     1567     1642     1514     1236      926 
     729      780     1065     1429     1714     1853     1846     1742 
    1613     1497     1418     1408     1516     1768     2057     2211 
    2160     1933     1606     1329     1229     1251     1259     1302 
    1498     1787     2056     2258     2323     2220     2093     2095 
    2135     2042     1848     1649     1455     1356     1495     1775 
    1961     2000     1988     2004     2062     2145     2215     2239 
    2191     2058     1876     1694     1503     1301     1163     1147 
    1208     1329     1510     1672     1742     1740     1695     1582 
    1414     1310     1345     1494     1671     1772     1740     1641 
    1575     1517     1382     1183     1020      946      954     1043 
    1179     1269     1302     1372     1435     1372     1251     1235 
    1308     1345     1325     1310     1327     1351     1358     1298 
    1152     1028     1040     1155     1310     1506     1713     1865 
    1939     1923     1798     1591     1433     1413     1462     1503 
    1603     1817     2016     2085     2074     2016     1861     1640 
    1459     1382     1424     1567     1765     1948     2053     2120 
    2197     2199     2066     1890     1740     1640     1642     1710 
    1709     1641     1601     1567     1495     1452     1470     1467 
    1408     1344     1328     1325     1283     1271     1354     1432 
    1436     1426     1424     1378     1287     1224     1220     1229 
    1216     1206     1197     1117      976      878      882      954 
    1058     1173     1290     1406     1480     1514     1568     1622 
    1637     1655     1671     1638     1591     1590     1678     1858 
    2035     2112     2112     2079     2012     1939     1933     2019 
    2123     2162     2170     2211     2250     2204     2076     1962 
    1903     1888     1965     2154     2362     2451     2363     2160 
    1926     1733     1649     1668     1722     1787     1881     2027 
    2207     2316     2232     2004     1826     1749     1714     1728 
    1813     1930     2068     2219     2290     2197     2015     1863 
    1768     1719     1749     1844     1918     1942     1991     2085 
    2122     2041     1908     1769     1615     1534     1586     1683 
    1800     1979     2147     2243     2270     2187     1980     1768 
    1671     1723     1864     1999     2085     2068     1896     1675 
    1522     1421     1348     1345     1474     1763     2074     2204 
    2096     1827     1497     1219     1081     1129     1358     1660 
    1945     2193     2331     2241     1946     1614     1333     1113 
    1032     1155     1390     1607     1765     1837     1776     1594 
    1354     1120     1007     1078     1262     1467     1641     1723 
    1701     1625     1543     1485     1499     1578     1625     1613 
    1613     1638     1644     1617     1556     1495     1517     1615 
    1692     1696     1676     1710     1765     1753     1664     1533 
    1385     1239     1135     1104     1117     1181     1362     1603 
    1740     1709     1618     1561     1509     1429     1394     1422 
    1404     1323     1316     1425     1532     1561     1543     1497 
    1408     1310     1247     1221     1220     1254     1374     1590 
    1798     1919     2002     2043     1960     1791     1692     1686 
    1665     1601     1547     1539     1597     1692     1714     1578 
    1344     1159     1135     1266     1440     1540     1526     1449 
    1363     1293     1267     1306     1377     1424     1447     1466 
    1471     1458     1445     1404     1263     1078      988     1012 
    1094     1231     1395     1518     1576     1579     1553     1545 
    1556     1548     1479     1363     1285     1247     1192     1165 
    1219     1309     1417     1552     1675     1738     1733     1688 
    1667     1710     1784     1850     1898     1894     1836     1787 
    1822     1919     1977     1962     1919     1841     1690     1494 
    1358     1350     1468     1686     1914     2043     2079     2107 
    2142     2120     2043     2006     2074     2182     2239     2222 
    2110     1904     1696     1532     1356     1185     1115     1161 
    1237     1324     1433     1539     1591     1576     1528     1487 
    1494     1568     1659     1686     1652     1622     1601     1561 
    1532     1539     1536     1525     1617     1831     2012     2084 
    2115     2089     1904     1622     1436     1401     1431     1501 
    1636     1786     1869     1864     1759     1541     1289     1132 
    1135     1269     1432     1553     1659     1748     1763     1703 
    1597     1417     1251     1248     1379     1509     1617     1687 
    1668     1567     1428     1306     1317     1502     1733     1891 
    1961     1976     1984     1972     1853     1615     1374     1256 
    1343     1621     1950     2160     2220     2205     2166     2111 
    2015     1861     1665     1493     1416     1432     1476     1503 
    1489     1422     1350     1285     1171      992      845      837 
    1011     1317     1611     1755     1732     1618     1466     1333 
    1291     1291     1254     1236     1324     1479     1644     1775 
    1821     1761     1634     1532     1524     1586     1675     1776 
    1837     1804     1710     1647     1634     1614     1560     1495 
    1482     1560     1687     1791     1840     1813     1757     1745 
    1748     1719     1684     1698     1787     1906     1979     1966 
    1895     1827     1772     1695     1614     1572     1567     1595 
    1683     1807     1902     1895     1757     1559     1436     1444 
    1547     1721     1915     2020     1981     1857     1703     1520 
    1351     1273     1286     1343     1448     1602     1706     1683 
    1583     1464     1317     1186     1165     1244     1308     1337 
    1429     1567     1614     1552     1463     1382     1313     1281 
    1294     1317     1304     1308     1443     1678     1873     1973 
    2002     1952     1849     1773     1765     1804     1834     1833 
    1854     1907     1925     1915     1910     1854     1742     1676 
    1706     1771     1804     1819     1849     1894     1938     1969 
    1930     1806     1669     1575     1509     1458     1425     1426 
    1497     1618     1713     1710     1609     1483     1386     1323 
    1308     1378     1533     1702     1829     1902     1898     1813 
    1733     1721     1718     1676     1621     1548     1472     1440 
    1412     1352     1314     1340     1414     1544     1749     1961 
    2081     2097     2072     2069     2123     2227     2353     2444 
    2450     2392     2307     2196     2065     1946     1867     1845 
    1825     1706     1524     1393     1300     1208     1181     1233 
    1283     1318     1355     1354     1333     1345     1387     1458 
    1578     1719     1821     1853     1849     1853     1876     1915 
    1952     1971     1972     1976     2012     2058     2042     1975 
    1937     1945     1973     2027     2099     2142     2133     2066 
    1945     1796     1672     1582     1547     1574     1599     1613 
    1702     1831     1875     1852     1848     1840     1775     1698 
    1668     1674     1679     1694     1715     1672     1537     1402 
    1331     1289     1255     1255     1285     1327     1379     1417 
    1418     1381     1316     1259     1225     1205     1233     1336 
    1459     1552     1620     1632     1547     1398     1273     1215 
    1201     1205     1225     1251     1263     1258     1232     1181 
    1117     1073     1096     1183     1259     1286     1323     1398 
    1483     1539     1533     1433     1275     1179     1175     1165 
    1092      986      880      761      642      573      553      573 
     664      783      839      857      903      946      972     1061 
    1235     1428     1610     1779     1895     1929     1915     1919 
    1927     1906     1926     2046     2203     2308     2330     2324 
    2358     2432     2494     2513     2523     2556     2604     2667 
    2754     2828     2862     2867     2853     2820     2771     2716 
    2664     2629     2614     2592     2523     2440     2392     2355 
    2257     2110     2018     1973     1865     1702     1582     1541 
    1588     1728     1880     1945     1929     1896     1861     1804 
    1761     1771     1773     1726     1686     1663     1602     1528 
    1472     1417     1359     1312     1290     1282     1237     1146 
    1069     1034     1008      986      993     1021     1043     1051 
    1066     1094     1107     1108     1154     1210     1173     1051 
     918      780      634      514      430      386      405      499 
     627      712      700      594      456      375      392      484 
     630      837     1077     1294     1449     1532     1529     1433 
    1309     1262     1293     1350     1440     1590     1756     1906 
    2046     2134     2103     1964     1813     1732     1718     1737 
    1803     1919     2019     2060     2054     2006     1904     1813 
    1815     1884     1939     2000     2104     2224     2322     2361 
    2342     2316     2309     2326     2370     2415     2457     2517 
    2558     2524     2423     2312     2246     2226     2209     2172 
    2142     2155     2219     2309     2382     2378     2286     2191 
    2118     1996     1830     1710     1645     1578     1509     1475 
    1458     1414     1362     1321     1273     1212     1147     1092 
    1070     1088     1121     1165     1201     1217     1216     1201 
    1192     1201     1193     1183     1233     1348     1478     1580 
    1629     1614     1547     1456     1390     1378     1409     1448 
    1476     1486     1467     1408     1333     1296     1304     1332 
    1375     1436     1494     1512     1468     1391     1339     1333 
    1389     1509     1679     1864     2030     2164     2247     2262 
    2222     2160     2115     2104     2119     2153     2177     2180 
    2181     2169     2115     2038     1983     1976     2011     2052 
    2118     2235     2339     2363     2326     2246     2120     1989 
    1887     1798     1706     1621     1578     1590     1575     1472 
    1336     1220     1111     1017      966      931      881      859 
     903      985     1092     1201     1262     1269     1248     1215 
    1192     1194     1202     1201     1197     1205     1227     1232 
    1208     1165     1115     1081     1073     1063     1032      989 
     962      957      942      899      853      820      811      816 
     810      804      842      918     1000     1054     1066     1073 
    1127     1255     1443     1628     1763     1849     1906     1929 
    1917     1912     1948     1984     2007     2058     2139     2219 
    2280     2268     2133     1930     1753     1648     1615     1641 
    1701     1768     1854     1964     2050     2060     2007     1939 
    1896     1904     1964     2049     2145     2231     2281     2277 
    2224     2128     2006     1895     1829     1803     1822     1884 
    1945     1973     1981     1954     1869     1753     1648     1588 
    1580     1591     1599     1618     1656     1696     1717     1703 
    1649     1564     1495     1510     1618     1742     1817     1849 
    1876     1873     1814     1759     1755     1769     1809     1895 
    1966     1971     1923     1848     1728     1571     1441     1375 
    1364     1413     1497     1557     1580     1599     1610     1563 
    1445     1321     1237     1188     1196     1291     1402     1444 
    1448     1432     1368     1318     1366     1474     1561     1603 
    1615     1610     1618     1649     1674     1653     1591     1534 
    1532     1580     1647     1709     1769     1836     1908     1979 
    2027     2038     1992     1895     1790     1726     1730     1794 
    1876     1935     1944     1902     1856     1826     1760     1642 
    1561     1570     1629     1729     1879     2002     2011     1954 
    1921     1910     1906     1930     1979     2018     2039     2038 
    2003     1946     1890     1831     1759     1686     1645     1671 
    1753     1848     1930     1991     2000     1942     1844     1748 
    1680     1648     1659     1710     1760     1780     1800     1837 
    1830     1755     1669     1605     1536     1458     1394     1358 
    1343     1358     1391     1381     1270     1092      932      818 
     729      670      661      699      753      781      769      727 
     653      568      525      561      662      795      919     1003 
    1059     1101     1112     1084     1055     1080     1162     1293 
    1447     1567     1622     1641     1652     1659     1653     1645 
    1663     1707     1745     1773     1784     1772     1777     1815 
    1845     1868     1925     1998     2030     2018     1991     1938 
    1850     1773     1744     1765     1836     1918     1981     2022 
    2041     2020     1965     1906     1853     1799     1775     1823 
    1898     1930     1929     1931     1918     1856     1777     1714 
    1663     1645     1671     1707     1737     1757     1767     1771 
    1742     1647     1503     1358     1254     1237     1294     1366 
    1440     1516     1549     1526     1470     1390     1285     1183 
    1125     1100     1098     1138     1183     1196     1193     1189 
    1166     1134     1111     1081     1063     1101     1179     1269 
    1366     1449     1512     1598     1734     1877     1983     2066 
    2161     2246     2277     2245     2180     2122     2101     2142 
    2215     2238     2154     2023     1919     1822     1717     1634 
    1591     1567     1553     1564     1574     1553     1521     1487 
    1445     1421     1433     1455     1455     1436     1409     1395 
    1443     1553     1668     1729     1745     1752     1745     1706 
