Origin Time       2025/01/13 21:19:00
Lat.              31.8
Long.             131.6
Depth. (km)       30
Mag.              6.9
Station Code      HRS015
Station Lat.      34.4852
Station Long.     133.3619
Station Height(m) 2
Record Time       2025/01/13 21:21:13
Sampling Freq(Hz) 100Hz
Duration Time(s)  60
Dir.              E-W
Scale Factor      7845(gal)/8223790
Max. Acc. (gal)   2.535
Last Correction   2025/01/13 21:21:14
Memo.             
[...]
    1070     1015     1104     1186     1198     1215     1254     1263 
    1263     1358     1424     1395     1471     1572     1514     1418 
    1333     1217     1194     1267     1206      969      792      754 
     696      633      681      749      803      957     1077     1054 
    1108     1263     1283     1194     1221     1293     1237     1206 
    1215     1067      947      989     1000     1011     1102     1105 
     922      727      684      676      676      828      990     1038 
    1115     1178     1138     1123     1170     1174     1175     1297 
    1431     1440     1503     1659     1678     1642     1678     1609 
    1456     1397     1402     1409     1460     1563     1574     1460 
    1424     1433     1337     1277     1255     1131     1019     1028 
    1065     1051     1065     1127     1071      997     1098     1125 
     989      959      989      958     1015     1151     1204     1183 
    1206     1225     1162     1196     1341     1364     1355     1395 
    1314     1189     1186     1250     1243     1148     1067      972 
     874      922      990      940      923      903      766      707 
     886     1104     1165     1246     1402     1444     1487     1548 
    1393     1198     1186     1183     1070     1012     1069     1012 
     959     1186     1314     1198     1246     1333     1258     1228 
    1277     1344     1451     1570     1640     1630     1690     1834 
    1829     1750     1756     1699     1534     1402     1329     1243 
    1139     1088      996      845      832      828      653      594 
     720      758      750      854      976     1016     1062     1127 
    1055      904      845      791      745      820      831      683 
     598      679      788      865      999     1102     1085     1144 
    1290     1336     1390     1517     1551     1509     1486     1402 
    1302     1336     1499     1655     1745     1803     1769     1655 
    1667     1784     1814     1800     1831     1794     1672     1687 
    1752     1571     1345     1296     1235     1177     1196     1125 
     974      963     1139     1298     1325     1320     1247     1100 
    1043     1005      854      726      691      630      583      697 
     857      880      942     1138     1248     1310     1466     1560 
    1547     1609     1702     1605     1418     1344     1313     1328 
    1397     1301     1113     1090     1121     1084     1048      999 
     919      869      923     1075     1152     1092     1011      889 
     689      579      553      469      422      500      627      734 
     789      828      926     1104     1321     1432     1401     1371 
    1327     1287     1387     1489     1474     1462     1490     1510 
    1530     1595     1713     1803     1830     1842     1871     1957 
    2038     2008     1896     1776     1694     1598     1445     1358 
    1348     1310     1275     1201     1061     1003      993      918 
     891      949      969      924      873      810      718      673 
     683      631      541      523      535      553      618      638 
     558      467      409      392      449      556      577      454 
     359      376      426      514      635      737      834      963 
    1088     1129     1134     1194     1252     1329     1533     1714 
    1791     1876     1937     1937     1942     1965     1949     1864 
    1821     1836     1783     1768     1838     1850     1838     1837 
    1803     1769     1750     1750     1759     1745     1763     1780 
    1748     1750     1768     1769     1800     1753     1605     1497 
    1480     1537     1602     1630     1638     1583     1498     1433 
    1309     1167     1107     1082     1055     1023      939      774 
     614      537      491      472      522      514      375      276 
     265      218      160      129       35     -110     -183     -143 
     -48       72      209      303      391      567      742      888 
    1109     1337     1485     1568     1593     1591     1611     1717 
    1900     2027     2153     2322     2354     2285     2231     2157 
    2097     2050     1949     1787     1611     1532     1480     1366 
    1310     1290     1233     1248     1336     1416     1510     1630 
    1695     1648     1640     1765     1796     1660     1521     1420 
    1368     1351     1296     1212     1096      981      935      938 
     965      950      869      895      993      977      947     1019 
    1108     1181     1258     1318     1340     1389     1490     1468 
    1329     1250     1147      976      882      804      615      429 
     411      510      579      661      751      754      797      931 
     997     1034     1101     1101     1054     1063     1100     1063 
    1023     1127     1224     1150     1059     1013      942      940 
    1011     1024     1009     1063     1136     1139     1216     1420 
    1468     1360     1359     1375     1310     1275     1213     1101 
    1065     1070      993      868      828      804      672      588 
     603      562      553      715      899      967     1007     1084 
    1112     1086     1093     1047      955      973      989      918 
     934      982      908      796      716      592      436      414 
     513      534      564      704      772      796      938     1034 
     999     1007     1059     1020      947      970      965      832 
     753      724      627      618      715      729      734      849 
     966      996     1039     1156     1198     1182     1275     1283 
    1117     1070     1105     1055     1024     1044     1066     1104 
    1159     1158     1053     1046     1193     1242     1248     1351 
    1347     1228     1197     1228     1192     1136     1185     1179 
    1027      992     1028      970     1007     1107     1054      969 
    1003     1044      949      857      909      899      820      892 
     961      976     1134     1310     1394     1551     1804     1991 
    2108     2358     2677     2832     2928     3029     3007     2974 
    2984     2880     2690     2560     2454     2292     2164     2097 
    1861     1455     1161      924      643      484      391      209 
      82       95       97       -9      -94      -85     -130     -143 
      40      186      229      344      430      429      490      612 
     676      661      666      648      537      531      619      581 
     565      653      622      487      423      423      391      361 
     405      399      348      413      459      442      599      827 
     940     1059     1235     1354     1408     1539     1728     1809 
    1911     2133     2245     2272     2347     2317     2192     2127 
    2068     1925     1796     1796     1810     1773     1829     1879 
    1771     1717     1794     1800     1777     1821     1794     1669 
    1626     1718     1767     1709     1663     1572     1424     1383 
    1381     1309     1301     1368     1374     1306     1269     1248 
    1156     1090     1089      988      849      783      665      511 
     436      368      271      218      238      257      292      450 
     568      514      542      676      700      695      776      892 
    1020     1183     1335     1416     1530     1729     1830     1858 
    1993     2099     2088     2099     2106     2015     1888     1809 
    1730     1579     1452     1385     1285     1243     1281     1244 
    1196     1255     1332     1359     1416     1506     1503     1417 
    1371     1301     1151     1021      854      603      441      406 
     390      378      390      361      216       94      126      135 
     108      197      267      267      329      433      515      573 
     622      653      662      754      877      872      874      930 
     908      880      915      972     1021     1057     1102     1113 
    1113     1189     1182     1071     1069     1120     1112     1077 
    1032     1027     1051     1048     1021      955      891      827 
     669      522      491      442      402      487      623      739 
     837      927     1011     1070     1179     1336     1448     1551 
    1636     1660     1713     1803     1894     2006     2104     2181 
    2269     2381     2544     2710     2862     3007     3025     2907 
    2755     2538     2299     2112     1900     1633     1375     1192 
    1102     1021      903      770      630      610      738      828 
     891     1004     1040      984      982     1078     1201     1296 
    1364     1386     1362     1377     1394     1390     1495     1680 
    1803     1887     1961     1988     1965     1946     1981     2004 
    1968     1903     1764     1613     1580     1510     1298     1096 
     936      756      594      541      585      577      508      481 
     433      407      508      642      773      945     1138     1350 
    1528     1622     1657     1640     1644     1669     1610     1548 
    1493     1332     1163     1038      911      838      789      741 
     738      750      737      680      612      589      535      446 
     429      394      268      163       83      -22      -94     -114 
    -144     -172     -114        8       67      149      345      490 
     556      668      780      838      892      958      985      966 
     974      962      857      789      762      629      484      403 
     309      261      328      449      558      648      735      772 
     799      907      967      938      992     1098     1154     1216 
    1301     1362     1406     1490     1597     1636     1698     1819 
    1814     1786     1907     2003     1988     1964     1939     1876 
    1809     1829     1856     1813     1861     1939     1890     1912 
    2083     2211     2249     2214     2119     1987     1853     1760 
    1615     1429     1297     1078      797      631      448      180 
     -22     -153     -259     -328     -303     -207     -145      -72 
      13       20       59      149      117       52      101      152 
     130      164      342      542      699      903     1071     1170 
    1360     1574     1671     1776     1948     2076     2133     2203 
    2290     2282     2218     2191     2054     1806     1657     1576 
    1512     1553     1609     1548     1451     1418     1412     1399 
    1460     1532     1510     1560     1718     1776     1798     1914 
    2004     2004     2030     2097     2046     1884     1796     1706 
    1532     1425     1277      974      749      652      502      336 
     326      434      472      549      788      976     1119     1343 
    1452     1448     1541     1636     1615     1625     1752     1804 
    1682     1580     1522     1383     1277     1215     1067      953 
     915      787      639      646      716      670      583      622 
     652      594      653      764      784      864      994     1046 
    1097     1240     1387     1452     1579     1798     1867     1865 
    1962     1996     2011     2149     2232     2188     2161     2170 
    2110     2047     2158     2253     2160     2131     2139     1984 
    1819     1688     1491     1289     1123      943      719      588 
     583      476      324      328      333      283      314      363 
     345      330      361      349      280      322      399      290 
     214      348      425      418      495      576      673      892 
    1131     1259     1352     1490     1499     1345     1320     1366 
    1278     1279     1448     1530     1502     1518     1597     1620 
    1651     1804     1899     1921     2033     2054     1944     1912 
    1872     1734     1583     1464     1377     1296     1300     1359 
    1325     1332     1389     1291     1208     1243     1220     1173 
    1219     1335     1414     1448     1564     1618     1497     1468 
    1510     1462     1452     1460     1410     1391     1417     1439 
    1417     1414     1452     1363     1240     1202     1035      807 
     733      652      499      403      342      205        0     -137 
    -226     -318     -261     -103      -40       21      147      228 
     314      476      630      711      805      954     1048     1162 
    1432     1683     1856     2145     2438     2543     2585     2679 
    2776     2832     2884     2902     2776     2604     2463     2212 
    1914     1682     1393     1082      886      738      556      382 
     272      162       21       -9       -4      -79      -43      106 
     144      101      113      163      159      143      176      163 
     133      211      299      356      468      561      637      792 
     936      938      880      892      877      733      621      626 
     607      556      533      468      359      282      253      241 
     265      367      440      476      606      714      722      780 
     842      842      888      977     1039     1055     1063     1123 
    1170     1197     1239     1177     1093     1119     1098     1036 
    1058     1102     1119     1142     1231     1339     1383     1460 
    1547     1563     1684     1895     2018     2161     2378     2560 
    2685     2793     2932     3032     3029     3055     3095     3096 
    3161     3227     3218     3199     3130     3001     2874     2731 
    2547     2347     2211     2131     1972     1792     1647     1393 
    1125      945      697      395      122     -166     -490     -776 
    -942    -1082    -1286    -1435    -1498    -1495    -1379    -1220 
   -1040     -772     -423      -52      265      567      904     1167 
    1352     1545     1663     1730     1873     2045     2185     2303 
    2407     2513     2598     2659     2700     2695     2728     2783 
    2779     2826     2916     2938     2955     2944     2845     2714 
    2582     2452     2288     2096     1972     1826     1630     1512 
    1368     1140      926      697      460      267      103      -68 
    -259     -355     -360     -453     -526     -453     -414     -427 
    -372     -271     -176     -103      -21       68      155      287 
     387      432      538      611      577      585      660      734 
     803      865      889      832      816      951     1062     1111 
    1221     1301     1336     1452     1584     1648     1691     1759 
    1755     1634     1576     1576     1458     1341     1316     1262 
    1215     1198     1125     1012      930      907      870      831 
     923     1047     1096     1171     1251     1296     1374     1451 
    1506     1587     1676     1729     1748     1806     1868     1799 
    1695     1675     1617     1501     1393     1247     1062      882 
     712      557      438      394      322      171      113      102 
       0      -29       82      197      337      553      750      872 
    1009     1205     1309     1359     1482     1499     1366     1285 
    1225     1107     1031     1035     1040     1050     1171     1341 
    1398     1487     1676     1753     1810     1981     2097     2135 
    2188     2207     2165     2150     2223     2228     2122     2118 
    2131     2019     1981     2007     1923     1844     1864     1858 
    1725     1587     1520     1368     1213     1209     1146      984 
     942      961      897      789      729      691      618      579 
     561      477      453      475      372      314      415      479 
     514      664      864      999     1135     1354     1509     1574 
    1725     1856     1888     2014     2150     2110     2022     1981 
    1896     1726     1555     1391     1139      903      778      584 
     349      237      109      -98     -251     -376     -557     -707 
    -743     -800     -936     -959     -886     -869     -815     -695 
    -618     -546     -440     -386     -409     -363     -226     -195 
    -203      -75       45      108      233      348      437      607 
     797      880      922     1098     1308     1348     1404     1591 
    1669     1688     1825     1941     2015     2181     2370     2462 
    2539     2686     2756     2739     2851     2974     2901     2813 
    2767     2617     2455     2403     2355     2211     2101     2074 
    1960     1837     1864     1871     1834     1938     2104     2191 
    2230     2276     2305     2270     2232     2170     2003     1896 
    1844     1636     1431     1333     1177     1013      990     1036 
    1015      978     1044     1080     1067     1188     1289     1254 
    1264     1278     1185     1111     1058      897      664      533 
     471      313      201      241      234      194      222      218 
     229      330      392      383      448      656      812      804 
     857      981      989      970      993      965      922      920 
     889      796      766      795      727      711      865      922 
     864      913     1026     1102     1178     1302     1404     1424 
    1478     1537     1509     1522     1540     1439     1333     1283 
    1181     1003      866      789      630      484      476      422 
     317      328      372      356      369      437      467      480 
     581      683      706      791      953     1086     1259     1491 
    1675     1837     2049     2209     2228     2263     2408     2477 
    2459     2536     2579     2502     2457     2400     2272     2174 
    2100     1961     1782     1667     1560     1323     1105     1028 
     926      793      726      683      670      711      749      757 
     783      888      976      977     1030     1112     1125     1182 
    1256     1270     1283     1294     1298     1331     1390     1428 
    1356     1291     1337     1320     1254     1271     1287     1294 
    1352     1401     1417     1440     1498     1516     1435     1401 
    1421     1343     1274     1281     1228     1129     1067     1038 
    1013      997     1008      955      870      913      966      930 
     940      955      912      885      869      838      799      780 
     777      715      664      684      653      635      738      837 
     904      997     1096     1190     1296     1426     1524     1549 
    1630     1729     1745     1817     1945     1988     1975     1946 
    1864     1723     1603     1524     1404     1263     1167     1027 
     877      849      843      768      716      747      828      904 
     963     1030     1104     1215     1325     1360     1398     1451 
    1432     1408     1391     1340     1291     1239     1181     1123 
    1059     1001      896      765      712      646      488      368 
     306      249      234      233      205      178      171      176 
     167      202      311      400      499      677      862     1050 
    1244     1397     1530     1705     1912     2073     2165     2295 
    2417     2458     2535     2625     2627     2623     2632     2604 
    2542     2461     2409     2369     2334     2330     2224     2046 
    1950     1823     1614     1429     1254     1062      903      814 
     754      648      581      583      508      436      446      457 
     486      541      580      604      614      646      665      665 
     753      820      818      907     1004     1050     1166     1312 
    1424     1516     1621     1752     1819     1887     2004     1993 
