Origin Time       2025/01/13 21:19:00
Lat.              31.8
Long.             131.6
Depth. (km)       30
Mag.              6.9
Station Code      HRS019
Station Lat.      34.2530
Station Long.     132.5617
Station Height(m) 4
Record Time       2025/01/13 21:20:22
Sampling Freq(Hz) 100Hz
Duration Time(s)  111
Dir.              N-S
Scale Factor      7845(gal)/8223790
Max. Acc. (gal)   8.338
Last Correction   2025/01/13 21:20:22
Memo.             
[...]
   12854    12681    12218    11765    11526    11500    11611    11834 
   12217    12733    13204    13436    13510    13811    14543    15499 
   16341    16740    16542    16031    15641    15492    15380    15056 
   14513    14019    13768    13682    13635    13555    13339    13004 
   12799    12856    13059    13302    13531    13678    13616    13209 
   12611    12268    12452    13027    13672    14130    14339    14388 
   14397    14459    14611    14762    14755    14565    14320    14100 
   13838    13441    12961    12584    12442    12525    12741    12973 
   13171    13386    13597    13662    13581    13598    13895    14377 
   14802    14975    14877    14656    14476    14351    14258    14260 
   14415    14601    14667    14670    14729    14831    14924    15017 
   15082    15053    14914    14696    14386    13968    13572    13331 
   13109    12746    12344    12070    11908    11689    11338    11067 
   11164    11628    12190    12627    12973    13362    13772    14083 
   14343    14692    15052    15218    15121    14852    14581    14543 
   14899    15472    15843    15832    15615    15323    14894    14355 
   13819    13327    12908    12641    12565    12634    12708    12667 
   12511    12314    12150    12074    12073    12091    12183    12440 
   12826    13223    13512    13699    13925    14253    14609    14909 
   15124    15294    15507    15805    16146    16463    16603    16379 
   15853    15261    14694    14211    13919    13682    13254    12715 
   12429    12560    12835    12860    12553    12144    11823    11600 
   11445    11403    11646    12229    12847    13221    13535    14079 
   14824    15549    16016    16020    15596    15080    14712    14497 
   14484    14728    15052    15152    14908    14553    14389    14358 
   14179    13676    12831    11870    11199    11005    11109    11288 
   11443    11487    11425    11526    12051    12877    13652    14158 
   14384    14439    14565    15039    15817    16472    16632    16329 
   15886    15612    15570    15519    15174    14521    13869    13535 
   13521    13536    13296    12791    12278    12035    12208    12779 
   13494    13949    13919    13532    13103    12847    12780    12869 
   13161    13610    13999    14207    14422    14848    15391    15731 
   15661    15294    15002    15030    15209    15174    14858    14581 
   14592    14758    14836    14731    14401    13814    13100    12536 
   12295    12287    12275    12079    11680    11238    10937    10820 
   10951    11383    12002    12676    13317    13852    14237    14422 
   14458    14594    14899    15060    14902    14681    14675    14833 
   14921    14889    15002    15462    16063    16399    16278    15859 
   15410    15044    14758    14516    14193    13740    13358    13169 
   12976    12626    12210    11824    11565    11583    11919    12469 
   13054    13504    13753    13806    13670    13495    13560    13965 
   14569    15136    15433    15353    14968    14531    14320    14285 
   14148    13879    13703    13767    13992    14183    14231    14177 
   14049    13846    13624    13419    13185    12918    12702    12653 
   12816    13105    13390    13593    13689    13678    13599    13606 
   13903    14497    15156    15722    16174    16411    16271    15735 
   15041    14604    14654    14953    14967    14369    13437    12771 
   12555    12456    12166    11666    11173    10979    11265    11963 
   12673    12914    12615    12194    12144    12614    13350    13949 
   14202    14180    14042    13917    14003    14470    15217    15878 
   16128    15975    15619    15175    14797    14747    14999    15228 
   15234    15040    14692    14157    13401    12549    11823    11330 
   11065    11021    11173    11410    11550    11568    11619    11821 
   12154    12526    12884    13266    13716    14216    14692    14979 
   14978    14808    14696    14742    14937    15213    15394    15364 
   15279    15417    15847    16295    16330    15753    14794    13902 
   13302    12845    12356    11907    11588    11388    11330    11473 
   11718    11808    11662    11537    11735    12316    13147    14061 
   14835    15233    15174    14831    14557    14625    14982    15434 
   15951    16452    16676    16475    15974    15476    15229    15213 
   15178    14914    14442    13991    13756    13725    13806    13971 
   14183    14300    14146    13702    13138    12687    12509    12577 
   12764    12939    13001    12927    12811    12779    12891    13126 
   13406    13678    13969    14287    14574    14755    14702    14423 
   14224    14335    14631    14963    15375    15863    16231    16266 
   15988    15526    14863    14004    13248    12869    12758    12725 
   12776    12960    13131    13047    12569    11832    11250    11179 
   11531    11896    11940    11724    11550    11553    11696    12064 
   12706    13358    13662    13506    13138    13039    13502    14299 
   14989    15417    15688    15813    15739    15496    15141    14764 
   14497    14332    14145    13875    13551    13294    13271    13471 
   13703    13722    13440    13223    13535    14272    14908    15099 
   14886    14526    14175    13819    13583    13655    13910    14150 
   14427    14781    15010    14816    14172    13459    13036    12900 
   12924    13063    13213    13239    13078    12752    12447    12457 
   12843    13412    13995    14499    14744    14517    13894    13321 
   13113    13157    13234    13254    13262    13315    13369    13389 
   13423    13473    13539    13763    14199    14647    14914    14952 
   14825    14735    14806    14862    14662    14245    13829    13531 
   13381    13429    13690    14064    14349    14357    14062    13618 
   13297    13242    13342    13471    13687    14130    14724    15118 
   15117    14851    14426    13829    13123    12534    12345    12656 
   13194    13539    13552    13444    13389    13417    13576    13944 
   14477    14868    14785    14337    13991    14073    14531    15067 
   15388    15449    15477    15642    15795    15655    15176    14550 
   13937    13458    13266    13319    13387    13392    13371    13385 
   13555    13930    14372    14713    14897    14883    14635    14318 
   14196    14229    14169    13971    13747    13603    13563    13502 
   13296    12999    12739    12607    12660    12868    13205    13707 
   14295    14710    14829    14787    14697    14532    14280    14013 
   13760    13424    12916    12245    11533    11020    10851    10910 
   11145    11653    12383    13170    13911    14403    14459    14214 
   13900    13601    13335    13119    13011    13100    13369    13725 
   14079    14273    14187    13983    13965    14141    14274    14219 
   13984    13747    13718    13872    14107    14443    14801    14975 
   14943    14851    14805    14804    14760    14661    14706    14958 
   15133    15022    14701    14311    13952    13695    13514    13338 
   13203    13176    13143    12880    12384    12010    12004    12232 
   12587    13161    13902    14524    14821    14837    14777    14808 
   14928    15022    14962    14658    14157    13540    12788    12059 
   11786    12124    12717    13238    13721    14185    14341    13952 
   13208    12532    12177    12168    12414    12738    12964    12970 
   12671    12172    11848    12012    12532    12995    13131    12829 
   12220    11757    11747    12112    12618    13194    13971    14827 
   15384    15569    15576    15498    15307    14971    14513    14115 
   14057    14338    14597    14573    14288    13886    13593    13570 
   13737    13905    13878    13598    13296    13130    12965    12698 
   12303    11839    11616    11862    12410    12928    13190    13212 
   13207    13329    13626    14065    14453    14509    14165    13648 
   13271    13236    13462    13645    13678    13792    14239    15037 
   15863    16279    16214    15923    15577    15210    14885    14659 
   14535    14532    14656    14816    14983    15201    15429    15562 
   15557    15472    15288    14866    14249    13648    13186    12866 
   12654    12513    12459    12629    13169    13980    14728    15151 
   15192    14922    14508    14146    13969    14015    14193    14314 
   14278    14139    13923    13678    13578    13682    13775    13672 
   13450    13394    13702    14176    14384    14183    13932    14112 
   14783    15491    15759    15568    15290    15255    15483    15747 
   15832    15736    15547    15277    14905    14378    13755    13270 
   13061    13058    13147    13266    13378    13432    13350    13100 
   12721    12270    11861    11647    11751    12175    12731    13140 
   13301    13333    13324    13274    13227    13227    13257    13302 
   13397    13513    13554    13487    13447    13651    14193    14901 
   15506    15907    16125    16197    16197    16168    16113    16017 
   15836    15573    15228    14643    13802    13026    12509    12039 
   11429    10863    10656    10844    11176    11441    11641    11877 
   12237    12761    13367    13873    14264    14715    15295    15844 
   16144    16089    15801    15468    15140    14839    14581    14311 
   14006    13667    13356    13292    13644    14270    14817    14995 
   14824    14527    14110    13397    12471    11655    11164    11007 
   11057    11122    11161    11356    11817    12402    12870    13189 
   13517    13954    14492    15110    15753    16347    16893    17352 
   17587    17478    16997    16291    15673    15388    15415    15614 
   15817    15846    15709    15546    15391    15155    14696    14004 
   13288    12681    12186    11848    11699    11649    11573    11391 
   11153    11032    11129    11406    11789    12205    12615    13116 
   13786    14481    14953    15063    14870    14557    14291    14170 
   14187    14183    13977    13575    13099    12582    12017    11524 
   11252    11250    11546    12128    12784    13293    13672    13968 
   14114    14007    13641    13278    13198    13396    13689    13824 
   13697    13429    13068    12649    12399    12445    12683    12910 
   12926    12758    12652    12754    12993    13239    13447    13745 
   14285    14979    15604    16085    16474    16841    17139    17174 
   16868    16355    15796    15290    14833    14358    13841    13382 
   13174    13275    13400    13223    12762    12249    11811    11489 
   11384    11549    11880    12302    12869    13549    14168    14555 
   14612    14311    13841    13466    13188    12892    12626    12483 
   12448    12468    12503    12542    12658    12930    13308    13676 
   14026    14436    14940    15496    16005    16329    16463    16596 
   16880    17227    17456    17539    17508    17340    17093    16887 
   16735    16623    16573    16463    16083    15466    14917    14604 
   14374    14034    13529    12896    12202    11499    10785     9981 
    9062     8185     7487     6959     6675     6766     7155     7604 
    7965     8320     8958    10096    11603    13147    14513    15606 
   16420    17136    17899    18652    19315    19797    20025    20074 
   20121    20343    20719    20973    20891    20494    19869    19094 
   18268    17404    16416    15249    13969    12699    11541    10494 
    9470     8467     7562     6747     6010     5440     5131     5178 
    5616     6328     7210     8243     9412    10744    12260    13788 
   15079    16104    17054    18019    18868    19431    19704    19876 
   20017    19970    19658    19188    18631    17959    17177    16401 
   15742    15160    14542    13849    13153    12552    12020    11439 
   10840    10395    10153    10019    10037    10400    11106    11862 
   12432    12843    13201    13562    13940    14285    14536    14723 
   14971    15380    15866    16164    16069    15615    14937    14102 
   13155    12253    11612    11331    11304    11365    11465    11632 
   11935    12490    13261    13960    14358    14517    14697    15066 
   15539    15966    16225    16156    15716    15147    14725    14420 
   14006    13392    12669    11989    11493    11218    11094    11014 
   10912    10746    10467    10129     9886     9898    10266    10875 
   11418    11758    12090    12668    13549    14613    15677    16623 
   17428    18060    18469    18670    18706    18596    18353    18011 
   17664    17385    17158    16915    16538    15966    15306    14628 
   13857    13011    12263    11680    11214    10893    10770    10833 
   11068    11423    11842    12333    12857    13270    13495    13595 
   13713    14017    14558    15209    15820    16272    16430    16390 
   16384    16402    16356    16321    16309    16175    15780    15125 
   14349    13541    12785    12235    11897    11595    11279    11032 
   10810    10535    10234     9967     9759     9551     9281     9028 
    8919     8982     9181     9477     9864    10412    11237    12356 
   13625    14931    16328    17844    19268    20355    21055    21460 
   21718    21961    22156    22158    21894    21346    20499    19399 
   18172    16911    15635    14287    12739    11033     9452     8220 
    7352     6758     6311     5937     5698     5682     5871     6214 
    6712     7354     8059     8789     9598    10486    11466    12644 
   13995    15388    16784    18065    19067    19884    20723    21577 
   22252    22559    22411    21922    21301    20568    19658    18632 
   17568    16524    15554    14631    13655    12564    11380    10214 
    9140     8135     7202     6455     5968     5742     5767     6037 
    6548     7241     8052     9030    10245    11661    13144    14548 
   15846    17086    18261    19321    20205    20822    21111    21131 
   20997    20736    20347    19874    19291    18517    17535    16375 
   15071    13703    12444    11472    10793    10243     9736     9313 
    9046     9022     9312     9857    10507    11183    11827    12340 
   12695    12999    13436    14042    14634    15115    15610    16182 
   16783    17343    17721    17805    17618    17227    16731    16158 
   15402    14490    13513    12503    11689    11334    11371    11543 
   11657    11673    11673    11734    11878    12101    12440    12876 
   13327    13834    14366    14754    14990    15159    15310    15518 
   15741    15793    15600    15238    14783    14274    13749    13205 
   12591    11909    11222    10646    10327    10314    10530    10875 
   11310    11830    12429    13057    13599    13969    14196    14343 
   14439    14513    14588    14690    14875    15195    15641    16123 
   16530    16802    16938    17011    17109    17200    17134    16799 
   16179    15342    14443    13635    12911    12187    11507    11041 
   10835    10758    10712    10690    10702    10689    10617    10573 
   10651    10822    11002    11207    11561    12098    12738    13406 
   14116    14845    15479    15952    16306    16578    16772    16860 
   16769    16514    16206    15975    15940    16025    15961    15596 
   14998    14299    13606    12974    12418    11942    11522    11149 
   10893    10844    11076    11608    12332    13072    13718    14269 
   14743    15133    15422    15561    15516    15336    15086    14800 
   14513    14253    13991    13655    13225    12829    12579    12449 
   12379    12325    12256    12237    12367    12641    12988    13304 
   13506    13620    13725    13867    14033    14187    14291    14288 
   14169    14033    14025    14250    14712    15248    15699    16027 
   16193    16200    16209    16362    16575    16659    16519    16191 
   15795    15461    15219    15040    14912    14743    14374    13787 
   13170    12748    12533    12313    11939    11464    11053    10874 
   10994    11358    11827    12282    12677    13001    13294    13679 
   14183    14662    14979    15094    15037    14871    14621    14289 
   13869    13377    12861    12397    12086    12006    12071    12123 
   12063    11894    11754    11773    11977    12294    12588    12757 
   12787    12738    12721    12772    12834    12953    13193    13421 
   13482    13413    13329    13288    13323    13398    13346    13116 
   12907    12914    13209    13757    14472    15275    16021    16617 
   17145    17601    17882    18031    18148    18203    18138    18013 
   17932    17886    17809    17639    17305    16804    16202    15573 
   14908    14135    13354    12712    12150    11585    11024    10463 
    9958     9549     9259     9143     9235     9541    10019    10563 
   11151    11848    12661    13489    14234    14828    15205    15342 
   15314    15186    14971    14717    14416    13986    13455    13004 
   12779    12742    12725    12649    12552    12463    12421    12434 
   12447    12430    12422    12479    12631    12862    13153    13463 
   13733    13964    14192    14496    14918    15309    15507    15592 
   15778    16194    16769    17352    17833    18107    18134    17965 
   17668    17335    17041    16744    16340    15762    15021    14200 
   13392    12645    11986    11402    10864    10374    10000     9826 
    9836     9930    10050    10214    10422    10615    10743    10839 
   10968    11160    11415    11753    12155    12540    12881    13227 
   13589    13949    14315    14683    15012    15256    15439    15601 
   15701    15668    15491    15245    15052    14960    14891    14769 
   14616    14473    14341    14276    14343    14473    14480    14257 
   13882    13513    13263    13200    13312    13464    13506    13410 
   13255    13170    13297    13671    14180    14648    14968    15199 
   15477    15834    16190    16438    16480    16316    16051    15780 
   15527    15237    14770    14053    13225    12538    12081    11731 
   11384    11079    10855    10670    10501    10409    10461    10659 
   10932    11198    11488    11893    12402    12933    13416    13799 
   14065    14310    14659    15118    15610    16075    16480    16821 
   17116    17355    17483    17456    17253    16862    16278    15552 
   14797    14084    13406    12769    12221    11828    11616    11527 
   11458    11335    11191    11122    11164    11340    11684    12148 
   12646    13127    13512    13729    13844    14007    14237    14413 
   14492    14558    14733    15052    15403    15649    15724    15620 
   15338    14878    14328    13878    13570    13227    12683    11988 
   11373    10998    10841    10805    10771    10701    10667    10728 
   10924    11290    11750    12156    12442    12695    13097    13744 
   14548    15364    16063    16606    17089    17637    18242    18770 
   19113    19282    19299    19164    18894    18501    18000    17451 
   16915    16390    15865    15383    14990    14642    14218    13647 
   12955    12225    11523    10866    10262     9769     9441     9320 
    9432     9733    10114    10501    10902    11333    11770    12201 
   12604    12962    13289    13616    13946    14257    14547    14848 
   15148    15391    15561    15699    15792    15786    15695    15556 
   15373    15132    14883    14688    14505    14288    14054    13813 
   13529    13189    12804    12413    12090    11885    11790    11800 
