Origin Time       2025/01/13 21:19:00
Lat.              31.8
Long.             131.6
Depth. (km)       30
Mag.              6.9
Station Code      HRS010
Station Lat.      34.5834
Station Long.     133.0515
Station Height(m) 338
Record Time       2025/01/13 21:21:18
Sampling Freq(Hz) 100Hz
Duration Time(s)  60
Dir.              N-S
Scale Factor      7845(gal)/8223790
Max. Acc. (gal)   1.231
Last Correction   2025/01/13 21:21:18
Memo.             
[...]
   -1015    -1016    -1035    -1054    -1070    -1088    -1080    -1057 
   -1035     -993     -939     -911     -913     -922     -920     -900 
    -854     -820     -822     -826     -837     -880     -918     -888 
    -823     -832     -990    -1242    -1398    -1331    -1123     -908 
    -722     -634     -743    -1003    -1250    -1339    -1215     -943 
    -672     -499     -409     -373     -413     -454     -364     -191 
    -108     -207     -464     -761     -992    -1120    -1125     -989 
    -741     -503     -406     -456     -591     -774     -969    -1075 
   -1015     -884     -868     -976    -1092    -1140    -1134    -1123 
   -1102    -1017     -886     -789     -783     -877    -1028    -1173 
   -1271    -1314    -1301    -1224    -1102     -993     -938     -896 
    -804     -666     -545     -477     -476     -530     -629     -791 
    -973    -1067    -1038     -926     -764     -573     -441     -456 
    -589     -735     -822     -815     -716     -587     -508     -523 
    -661     -931    -1201    -1277    -1139     -940     -843     -881 
    -962    -1027    -1112    -1250    -1382    -1386    -1204     -963 
    -820     -766     -734     -727     -772     -850     -884     -800 
    -665     -568     -530     -557     -627     -679     -693     -658 
    -540     -387     -321     -399     -569     -770     -951    -1020 
    -915     -719     -564     -496     -530     -666     -805     -839 
    -838     -876     -839     -683     -557     -521     -496     -483 
    -483     -427     -342     -324     -376     -464     -567     -661 
    -747     -818     -834     -754     -635     -622     -719     -815 
    -908    -1051    -1197    -1224    -1059     -804     -645     -641 
    -710     -754     -768     -808     -880     -923     -886     -797 
    -746     -776     -827     -853     -865     -861     -814     -742 
    -710     -738     -768     -751     -722     -727     -769     -803 
    -749     -608     -521     -581     -743     -915    -1051    -1140 
   -1161    -1090     -943     -770     -664     -683     -751     -749 
    -665     -569     -541     -606     -693     -720     -691     -652 
    -666     -764     -870     -882     -789     -661     -553     -494 
    -522     -638     -756     -778     -730     -693     -697     -685 
    -600     -467     -378     -414     -573     -773     -913     -984 
   -1048    -1127    -1177    -1169    -1124    -1082    -1040     -981 
    -916     -838     -742     -680     -712     -815     -923     -989 
   -1019    -1057    -1088    -1077    -1071    -1071    -1004     -904 
    -884     -939    -1000    -1017     -976     -869     -734     -666 
    -723     -870    -1024    -1102    -1081     -970     -805     -668 
    -611     -639     -746     -870     -924     -911     -885     -891 
    -951    -1046    -1140    -1178    -1093     -911     -720     -575 
    -495     -487     -540     -629     -691     -710     -750     -842 
    -965    -1078    -1108    -1000     -797     -616     -530     -557 
    -654     -706     -637     -495     -345     -297     -469     -801 
   -1107    -1240    -1152     -913     -656     -492     -510     -697 
    -904     -974     -885     -756     -743     -892    -1108    -1290 
   -1399    -1432    -1416    -1386    -1354    -1325    -1331    -1354 
   -1324    -1228    -1144    -1125    -1120    -1092    -1081    -1084 
   -1050     -967     -862     -791     -819     -924     -986     -959 
    -947    -1036    -1182    -1277    -1248    -1129    -1035    -1042 
   -1090    -1088    -1050    -1027    -1027    -1046    -1038     -936 
    -815     -816     -946    -1067    -1062     -930     -764     -676 
    -714     -843    -1000    -1162    -1306    -1348    -1236    -1085 
   -1031    -1075    -1197    -1398    -1578    -1590    -1416    -1162 
    -969     -926     -967     -969     -915     -870     -892    -1012 
   -1177    -1293    -1352    -1355    -1246    -1047     -842     -680 
    -621     -676     -731     -681     -553     -468     -525     -684 
    -841     -942     -959     -891     -795     -735     -733     -822 
   -1016    -1197    -1189     -989     -770     -656     -670     -811 
   -1015    -1181    -1255    -1225    -1097     -916     -753     -606 
    -479     -440     -504     -587     -621     -606     -607     -700 
    -878    -1077    -1243    -1337    -1308    -1121     -824     -525 
    -303     -202     -221     -267     -278     -278     -278     -245 
    -190     -160     -210     -341     -491     -594     -627     -612 
    -573     -510     -426     -406     -523     -723     -873     -892 
    -812     -737     -696     -677     -691     -730     -787     -881 
    -989    -1077    -1150    -1196    -1186    -1135    -1090    -1085 
   -1105    -1127    -1148    -1183    -1232    -1255    -1192    -1055 
    -935     -878     -892     -967    -1073    -1163    -1204    -1175 
   -1117    -1086    -1063    -1058    -1092    -1097    -1005     -861 
    -753     -764     -911    -1075    -1162    -1202    -1264    -1351 
   -1404    -1397    -1367    -1324    -1237    -1096     -913     -773 
    -758     -807     -812     -785     -784     -796     -770     -670 
    -525     -419     -368     -303     -221     -182     -178     -145 
     -72      -24      -78     -245     -437     -545     -537     -477 
    -442     -440     -434     -414     -395     -379     -334     -252 
    -147      -36       31      -22     -202     -390     -449     -380 
    -330     -415     -606     -827    -1004    -1085    -1092    -1050 
    -951     -804     -697     -743     -949    -1154    -1192    -1026 
    -785     -653     -646     -638     -581     -506     -445     -403 
    -346     -283     -290     -409     -567     -641     -623     -629 
    -702     -799     -861     -838     -745     -641     -562     -529 
    -544     -608     -738     -927    -1107    -1170    -1094     -980 
    -932     -947     -988    -1038    -1105    -1216    -1316    -1291 
   -1144     -981     -904     -958    -1092    -1198    -1263    -1287 
   -1248    -1159    -1048     -904     -738     -608     -573     -626 
    -699     -714     -672     -657     -704     -760     -761     -739 
    -774     -843     -839     -737     -633     -631     -756     -922 
   -1028    -1063    -1065    -1061    -1088    -1131    -1111    -1023 
    -931     -850     -781     -769     -854    -1015    -1190    -1329 
   -1448    -1540    -1536    -1408    -1221    -1077    -1065    -1161 
   -1223    -1170    -1021     -832     -695     -653     -650     -652 
    -652     -649     -665     -704     -715     -670     -568     -413 
    -248     -135      -89      -79     -106     -187     -271     -313 
    -349     -437     -587     -753     -873     -938    -1004    -1115 
   -1217    -1254    -1271    -1348    -1479    -1572    -1532    -1370 
   -1217    -1138    -1063     -932     -787     -704     -710     -746 
    -746     -731     -745     -783     -838     -886     -886     -818 
    -710     -610     -530     -461     -436     -491     -623     -808 
    -990    -1097    -1132    -1138    -1107    -1001     -842     -710 
    -664     -669     -665     -633     -585     -557     -572     -621 
    -699     -818     -934     -974     -934     -851     -773     -746 
    -801     -930    -1084    -1208    -1283    -1313    -1297    -1229 
   -1128    -1040    -1004    -1001     -966     -839     -652     -506 
    -438     -426     -469     -569     -681     -749     -738     -673 
    -633     -662     -737     -830     -912     -935     -893     -823 
    -758     -731     -741     -753     -758     -746     -712     -685 
    -662     -625     -606     -631     -646     -604     -540     -533 
    -635     -823    -1036    -1213    -1281    -1198    -1024     -872 
    -831     -913    -1017    -1034     -951     -828     -738     -720 
    -753     -839    -1001    -1169    -1225    -1154    -1042    -1003 
   -1081    -1201    -1267    -1266    -1206    -1092     -963     -874 
    -859     -915     -976     -949     -807     -614     -486     -484 
    -558     -618     -618     -548     -438     -360     -359     -419 
    -506     -602     -693     -753     -753     -696     -611     -545 
    -507     -461     -396     -379     -453     -575     -665     -669 
    -592     -498     -445     -423     -417     -491     -714    -1016 
   -1254    -1374    -1425    -1448    -1441    -1397    -1306    -1186 
   -1071     -985     -916     -831     -729     -656     -627     -630 
    -660     -708     -754     -803     -850     -831     -735     -643 
    -614     -649     -747     -864     -927     -932     -911     -868 
    -835     -857     -909     -920     -881     -845     -850     -873 
    -858     -762     -625     -556     -615     -747     -881     -986 
   -1042    -1036    -1015    -1019    -1040    -1048    -1042    -1028 
   -1031    -1051    -1053     -996     -880     -760     -729     -835 
   -1013    -1163    -1251    -1296    -1341    -1426    -1516    -1536 
   -1491    -1440    -1412    -1366    -1227     -996     -758     -587 
    -495     -442     -384     -334     -292     -224     -163     -168 
    -224     -286     -341     -379     -386     -369     -386     -498 
    -685     -843     -896     -891     -900     -946    -1009    -1067 
   -1112    -1146    -1161    -1105     -940     -707     -514     -450 
    -549     -750     -961    -1127    -1242    -1306    -1332    -1331 
   -1313    -1285    -1232    -1144    -1035     -923     -839     -815 
    -824     -815     -754     -645     -530     -491     -558     -669 
    -743     -765     -778     -814     -858     -924    -1039    -1177 
   -1287    -1321    -1247    -1131    -1084    -1116    -1162    -1167 
   -1116    -1047    -1008     -989     -982    -1024    -1113    -1196 
   -1220    -1159    -1031     -920     -893     -926     -955     -934 
    -857     -753     -673     -637     -607     -561     -518     -483 
    -463     -490     -569     -645     -642     -545     -415     -318 
    -297     -342     -432     -544     -645     -703     -723     -750 
    -826     -939    -1030    -1073    -1085    -1071    -1027     -946 
    -864     -820     -811     -804     -773     -730     -730     -781 
    -837     -857     -830     -765     -699     -673     -697     -734 
    -726     -645     -510     -372     -268     -203     -180     -225 
    -361     -535     -642     -656     -635     -638     -680     -733 
    -742     -708     -676     -687     -766     -907    -1051    -1143 
   -1177    -1156    -1101    -1051    -1036    -1089    -1221    -1336 
   -1306    -1115     -843     -599     -461     -444     -496     -560 
    -606     -612     -583     -558     -573     -616     -649     -645 
    -621     -599     -594     -610     -652     -719     -808     -901 
    -985    -1043    -1066    -1062    -1048    -1008     -888     -677 
    -453     -326     -344     -461     -596     -687     -716     -712 
    -711     -750     -857    -1004    -1119    -1144    -1105    -1069 
   -1053    -1026     -973     -912     -865     -834     -788     -727 
    -716     -805     -961    -1111    -1208    -1256    -1309    -1398 
   -1489    -1540    -1551    -1549    -1551    -1544    -1517    -1468 
   -1410    -1358    -1294    -1194    -1030     -792     -515     -259 
     -56       91      206      294      326      275      156       48 
      22       45       27      -64     -205     -352     -500     -673 
    -849     -955     -962     -923     -896     -891     -872     -835 
    -804     -783     -769     -770     -785     -830     -908     -973 
   -1001    -1013    -1046    -1131    -1228    -1291    -1343    -1389 
   -1391    -1341    -1263    -1202    -1192    -1197    -1150    -1040 
    -949     -942     -994    -1044    -1092    -1167    -1255    -1297 
   -1254    -1161    -1081    -1057    -1080    -1101    -1092    -1053 
    -970     -845     -722     -627     -556     -499     -450     -394 
    -336     -305     -292     -292     -321     -355     -361     -334 
    -298     -278     -259     -194      -89      -10       -6      -66 
    -132     -186     -286     -465     -693     -907    -1036    -1089 
   -1123    -1161    -1177    -1166    -1158    -1170    -1204    -1251 
   -1274    -1243    -1186    -1154    -1185    -1267    -1344    -1377 
   -1378    -1390    -1435    -1479    -1472    -1422    -1354    -1259 
   -1132     -994     -884     -868     -959    -1089    -1163    -1147 
   -1077    -1020    -1007    -1024    -1070    -1138    -1198    -1240 
   -1256    -1242    -1217    -1205    -1200    -1177    -1105     -966 
    -816     -735     -738     -776     -793     -784     -781     -800 
    -814     -785     -711     -643     -614     -591     -545     -483 
    -441     -463     -534     -587     -598     -595     -589     -558 
    -519     -511     -533     -569     -589     -556     -488     -415 
    -345     -303     -295     -313     -365     -444     -511     -558 
    -629     -747     -884     -992    -1069    -1135    -1198    -1232 
   -1209    -1154    -1127    -1148    -1188    -1219    -1235    -1232 
   -1221    -1229    -1267    -1310    -1351    -1385    -1387    -1345 
   -1277    -1201    -1138    -1092    -1055    -1005     -916     -777 
    -626     -504     -440     -421     -394     -318     -230     -194 
    -232     -318     -400     -425     -367     -236      -83       39 
     135      244      364      446      456      399      334      306 
     280      189       20     -176     -344     -477     -607     -734 
    -846     -967    -1139    -1352    -1557    -1709    -1786    -1823 
   -1864    -1898    -1904    -1902    -1903    -1910    -1881    -1759 
   -1553    -1348    -1216    -1156    -1101    -1013     -915     -850 
    -830     -811     -753     -675     -600     -527     -475     -491 
    -575     -665     -710     -689     -610     -500     -414     -359 
    -292     -193      -87      -27      -56     -180     -367     -552 
    -692     -799     -904    -1000    -1058    -1075    -1081    -1115 
   -1186    -1260    -1294    -1274    -1213    -1144    -1111    -1125 
   -1161    -1181    -1183    -1188    -1175    -1129    -1084    -1059 
   -1057    -1090    -1167    -1277    -1409    -1533    -1624    -1679 
   -1718    -1771    -1853    -1927    -1948    -1896    -1768    -1582 
   -1367    -1158    -1003     -938     -934     -949     -976    -1020 
   -1071    -1109    -1113    -1085    -1046    -1020    -1005     -981 
    -909     -795     -677     -577     -498     -467     -490     -549 
    -618     -665     -665     -618     -541     -467     -422     -411 
    -437     -490     -529     -526     -472     -390     -325     -297 
    -278     -248     -209     -152      -79       -9       18       -5 
     -55      -90     -112     -151     -218     -318     -461     -619 
    -742     -826     -873     -866     -811     -758     -746     -761 
    -787     -823     -861     -893     -945    -1021    -1101    -1155 
   -1165    -1116    -1055    -1043    -1065    -1067    -1023     -947 
    -876     -812     -751     -708     -683     -670     -688     -745 
    -824     -891     -915     -889     -849     -828     -815     -770 
    -689     -616     -584     -572     -544     -498     -459     -450 
    -464     -472     -492     -572     -726     -901    -1035    -1104 
   -1147    -1190    -1206    -1175    -1112    -1013     -869     -697 
    -561     -521     -588     -726     -893    -1073    -1240    -1350 
   -1398    -1445    -1540    -1659    -1755    -1796    -1804    -1821 
   -1846    -1830    -1760    -1695    -1678    -1684    -1676    -1636 
   -1579    -1543    -1530    -1510    -1470    -1412    -1337    -1247 
   -1152    -1059     -978     -926     -923     -961    -1000    -1021 
   -1021    -1005     -980     -918     -777     -585     -419     -332 
    -306     -294     -276     -271     -291     -321     -342     -372 
    -432     -508     -560     -560     -527     -502     -500     -503 
    -502     -527     -588     -653     -706     -749     -781     -816 
    -843     -832     -777     -688     -583     -488     -442     -456 
    -484     -487     -480     -492     -523     -546     -540     -504 
    -479     -496     -548     -587     -594     -584     -587     -600 
    -607     -615     -634     -657     -669     -672     -692     -757 
    -859     -962    -1039    -1101    -1155    -1194    -1206    -1174 
   -1086     -976     -889     -828     -783     -751     -749     -780 
    -842     -911     -954     -972     -999    -1055    -1120    -1170 
   -1200    -1209    -1188    -1139    -1074    -1003     -947     -916 
    -882     -814     -719     -627     -564     -531     -522     -538 
    -579     -627     -687     -772     -884    -1023    -1161    -1251 
   -1286    -1286    -1263    -1219    -1159    -1116    -1115    -1152 
   -1221    -1293    -1318    -1300    -1279    -1278    -1283    -1277 
   -1266    -1258    -1242    -1200    -1111     -988     -889     -835 
    -811     -803     -788     -754     -722     -708     -719     -756 
    -815     -878     -919     -931     -911     -861     -803     -758 
    -724     -688     -642     -587     -527     -487     -460     -442 
    -445     -468     -473     -456     -456     -496     -560     -615 
    -639     -625     -592     -581     -619     -696     -791     -886 
    -973    -1030    -1044    -1035    -1039    -1078    -1136    -1181 
   -1190    -1161    -1104    -1062    -1061    -1084    -1108    -1123 
   -1112    -1066    -1003     -949     -927     -935     -947     -931 
    -876     -811     -780     -781     -777     -753     -718     -677 
    -641     -611     -585     -562     -540     -506     -450     -380 
    -315     -257     -195     -137      -98      -86     -110     -167 
    -243     -325     -387     -402     -375     -329     -307     -349 
    -423     -477     -484     -445     -394     -372     -382     -413 
    -463     -525     -585     -654     -737     -804     -851     -913 
   -1003    -1097    -1182    -1254    -1309    -1359    -1417    -1458 
   -1480    -1522    -1588    -1655    -1702    -1728    -1755    -1788 
   -1809    -1799    -1768    -1722    -1661    -1599    -1545    -1482 
   -1386    -1267    -1156    -1074    -1024    -1000     -986     -953 
    -877     -754     -603     -465     -364     -303     -286     -299 
    -305     -265     -182     -114     -108     -156     -221     -268 
    -306     -346     -379     -400     -419     -432     -436     -441 
    -469     -546     -648     -731     -784     -811     -811     -784 
    -734     -696     -716     -780     -830     -828     -783     -711 
    -622     -535     -467     -405     -342     -276     -197     -129 
    -118     -164     -233     -295     -352     -432     -554     -699 
    -819     -900     -959    -1003    -1012     -977     -930     -932 
    -974     -993     -967     -927     -919     -962    -1032    -1094 
   -1156    -1247    -1362    -1460    -1518    -1544    -1551    -1551 
   -1522    -1452    -1363    -1298    -1270    -1266    -1267    -1275 
   -1293    -1304    -1290    -1248    -1209    -1202    -1215    -1205 
   -1179    -1173    -1194    -1224    -1233    -1200    -1143    -1101 
