Origin Time       2025/01/13 21:19:00
Lat.              31.8
Long.             131.6
Depth. (km)       30
Mag.              6.9
Station Code      HRS016
Station Lat.      34.4201
Station Long.     133.1979
Station Height(m) 39
Record Time       2025/01/13 21:21:12
Sampling Freq(Hz) 100Hz
Duration Time(s)  60
Dir.              U-D
Scale Factor      7845(gal)/8223790
Max. Acc. (gal)   1.574
Last Correction   2025/01/13 21:21:11
Memo.             
[...]
      27        1      -55      -68      -45      -54      -70      -90 
    -125     -117      -81      -82      -91      -91     -108     -126 
    -139     -159     -155     -116      -89     -105     -139     -166 
    -175     -163     -136     -112      -95      -89      -99     -135 
    -183     -203     -178     -124      -89      -75      -62      -52 
     -25       32       59       54       68       85       68       54 
      49       39       31       44       67       63       33       20 
      22       16        2        0       -5      -24      -25        2 
      12       -5       -5        8       14       13       12        8 
     -16      -62     -101     -121     -113      -83      -59      -40 
     -21      -20       -5       41       74       71       44       -5 
     -47      -54      -37      -12       10       13        1       -1 
      21       45       56       67       66       52       59       66 
      40       21       18       -1      -21      -12        2       -5 
     -14       -8      -18      -55      -60      -45      -54      -49 
     -37      -59      -93     -126     -155     -143     -118     -113 
    -102      -78      -40       -6       -6      -33      -60      -63 
     -21       48       78       40        1      -14      -27      -43 
     -67      -86      -86      -91     -108     -108      -94      -97 
    -109      -99      -76      -67      -52      -25       -8      -12 
     -33      -41      -21       -8       -5       13       45       54 
      35       21       20       33       41       27        6      -17 
     -52      -60      -52      -56      -63      -49      -22       -2 
      -4      -12      -21      -43      -71      -87      -86      -85 
     -85      -71      -49      -27       -5       -5      -21      -21 
      -9        6       39       62       40       -6      -58      -86 
     -60       -6       40       58       27      -18      -22       -4 
      17       55       95      132      149      124       99      121 
     153      191      240      229      159      124      141      167 
     225      292      283      224      179      140      122      143 
     159      132       67       21        9       -5      -24      -33 
     -56     -103     -144     -166     -179     -182     -160     -120 
     -95     -110     -122     -114      -98      -67      -40      -41 
     -35      -16      -21      -31      -16        0       18       51 
      64       40        2      -22      -10       36       75      101 
     116      108      102      103       75       55       59       45 
      29       29       21       18       29       31       17        0 
     -25      -51      -51      -35      -40      -60      -82     -108 
    -122     -102      -67      -52      -48      -39      -49      -90 
    -125     -136     -124     -101      -99     -135     -156     -137 
    -137     -147     -118      -93      -87      -51      -20      -29 
     -28       -8       22       85      139      140      125      105 
      72       49       44       31        5       -5       -6      -25 
     -45      -56      -70      -52        1       25        5        0 
       2      -14      -29      -29      -36      -40      -35      -25 
      -8        2      -10      -33      -55      -74      -91     -108 
    -132     -167     -195     -201     -179     -151     -133     -125 
    -121     -112     -108     -118     -132     -126     -109      -95 
     -75      -48      -32      -25      -18       -8        0        5 
       2        2       27       51       48       32       18       -6 
     -49      -97     -124     -120      -91      -67      -78      -90 
     -74      -59      -47      -28      -12        8       22       18 
       0      -29      -51      -58      -70      -75      -45        6 
      59       81       48        5        8       40       56       68 
      91       89       68       62       56       49       49       51 
      37      -12      -55      -47      -29      -18        2       22 
      21        1      -20      -25      -20      -20      -25      -27 
     -16       -2       14       22       -2      -56     -108     -132 
    -157     -199     -230     -222     -194     -168     -157     -160 
    -153     -135     -122     -117     -109      -91      -70      -60 
     -70      -90     -114     -126     -120     -108     -113     -132 
    -148     -156     -157     -147     -118      -78      -52      -56 
     -83      -99      -76      -63      -99     -136     -144     -140 
    -132     -121     -128     -172     -203     -175     -136     -120 
    -114     -135     -160     -156     -130     -101      -76      -76 
     -93      -94      -86      -86      -94      -86      -62      -59 
     -76      -91     -109     -121     -106      -78      -70     -101 
    -140     -157     -155     -124      -81      -45      -32      -45 
     -51      -47      -64      -71      -54      -36       -8       17 
       1      -40      -74     -108     -139     -140     -124     -118 
    -105      -74      -54      -41      -31      -37      -35      -18 
     -28      -55      -79     -103     -118     -118     -106      -94 
     -89      -85      -86      -89      -93     -109      -90      -27 
      14       41       89      114      112      113      112      117 
     139      132      102       87       81       93      135      170 
     175      159      145      159      182      178      184      211 
     210      182      157      135      121      108       62        4 
     -41      -60      -39       16       74      106      103       93 
      87       82       68       37        8       12       29       49 
      98      141      144      137      117       64       21       13 
      -2      -32      -41      -52      -68      -56      -33      -27 
     -36      -60      -90      -93      -59      -14       16       27 
      36       60       81       93      103      114      144      182 
     187      186      194      186      183      214      257      302 
     340      352      348      333      307      301      306      290 
     264      247      245      240      182      109      110      168 
     218      225      176      106       68       51       33       28 
      16      -14      -45      -68      -90     -109     -125     -152 
    -179     -168     -141     -137     -144     -145     -145     -124 
     -81      -58      -62      -74      -99     -132     -160     -183 
    -205     -222     -229     -226     -217     -197     -194     -202 
    -186     -155     -148     -160     -167     -157     -133      -95 
     -56      -27       -4        9        2       -8       -1       22 
      36       25        0      -27      -36      -21       -1       16 
      18       16       28       32       20       25       44       63 
     101      141      160      183      213      211      186      157 
     139      133      132      126      132      166      217      234 
     218      203      183      151      133      108       62       37 
      37       40       45       40        5      -40      -75     -110 
    -160     -201     -222     -244     -261     -264     -272     -283 
    -271     -232     -189     -166     -151     -114      -86      -78 
     -62      -43      -37      -45      -62      -79      -91      -91 
     -83      -79      -81      -86      -98     -116     -140     -174 
    -201     -201     -202     -224     -244     -257     -267     -259 
    -240     -209     -164     -129     -128     -144     -153     -145 
    -124      -86      -48      -25      -16      -27      -39      -33 
     -21        0       12       -4      -27      -33      -32      -20 
       0       -1      -24      -48      -62      -74      -91      -94 
     -81      -85      -91     -101     -132     -159     -175     -213 
    -256     -279     -294     -301     -291     -280     -276     -280 
    -295     -322     -349     -344     -298     -256     -243     -217 
    -191     -190     -160      -93      -52      -41      -18       -1 
       6       36       60       59       64       68       75       95 
      94       86      102      106       98      110      121      137 
     159      148      117      116      128      144      166      168 
     145      129      143      156      152      164      197      220 
     247      268      270      274      276      263      263      271 
     272      307      359      376      379      386      372      373 
     413      429      430      468      511      534      567      595 
     598      598      592      565      534      508      494      495 
     490      473      465      449      400      328      253      193 
     151      106       55       10      -16      -13       -1      -18 
     -64     -102     -117     -121     -120     -110     -106     -117 
    -118     -105      -95      -87      -82      -81      -83      -99 
    -133     -179     -217     -236     -255     -292     -336     -376 
    -411     -437     -442     -436     -448     -468     -472     -479 
    -495     -504     -506     -508     -500     -486     -473     -472 
    -484     -504     -525     -546     -571     -598     -618     -610 
    -588     -568     -533     -494     -464     -423     -379     -357 
    -344     -305     -260     -224     -164     -106      -76      -31 
      31       58       64       83       93       98      117      128 
     133      162      198      207      209      213      190      162 
     166      172      155      141      143      152      171      203 
     221      197      149      122      120      121      120      105 
      75       59       59       62       78      106      135      151 
     149      141      132      118      118      125      126      130 
     135      128      125      122      108       82       66       76 
      94       79       39       -9      -60     -109     -141     -176 
    -225     -274     -321     -369     -411     -436     -441     -438 
    -445     -460     -473     -488     -517     -545     -562     -577 
    -583     -580     -594     -612     -618     -618     -625     -646 
    -672     -680     -668     -634     -583     -548     -541     -542 
    -531     -495     -459     -450     -448     -442     -448     -442 
    -423     -417     -414     -423     -440     -433     -413     -395 
    -373     -355     -325     -275     -225     -168     -106      -58 
      -2       63      106      135      174      216      267      319 
     334      321      332      375      427      484      521      527 
     522      514      507      525      549      548      527      514 
     507      496      480      464      456      456      463      483 
     504      513      521      525      515      522      542      545 
     538      522      491      465      445      403      360      329 
     275      199      129       59      -10      -71     -132     -206 
    -290     -356     -405     -441     -460     -464     -460     -453 
    -448     -450     -463     -464     -453     -437     -395     -314 
    -234     -175     -125      -93      -76      -37       25       87 
     149      199      218      229      249      260      256      247 
     232      213      210      220      221      222      228      221 
     205      195      191      194      194      187      180      178 
     187      205      224      249      265      259      255      261 
     247      210      190      193      191      190      206      214 
     195      179      168      151      141      144      140      137 
     141      128      108       98       75       45       48       49 
      32       20       14        4       -6      -20      -36      -52 
     -76     -124     -182     -228     -253     -260     -263     -264 
    -255     -232     -198     -149      -86      -28        8       48 
     113      190      267      349      418      463      510      565 
     615      668      693      681      676      688      687      654 
     603      552      518      476      418      371      318      248 
     183      113       27      -49     -103     -149     -203     -253 
    -283     -302     -314     -321     -321     -311     -298     -288 
    -287     -299     -306     -301     -294     -292     -291     -290 
    -295     -309     -314     -319     -340     -364     -380     -399 
    -425     -457     -492     -514     -527     -546     -561     -572 
    -585     -589     -595     -611     -626     -646     -661     -654 
    -642     -635     -626     -610     -588     -561     -537     -503 
    -459     -425     -410     -388     -359     -334     -313     -291 
    -278     -276     -275     -280     -295     -306     -317     -338 
    -363     -398     -436     -448     -441     -436     -434     -433 
    -421     -409     -410     -413     -427     -460     -487     -510 
    -525     -525     -531     -544     -548     -561     -581     -584 
    -580     -587     -589     -589     -600     -600     -581     -575 
    -580     -568     -540     -498     -437     -369     -313     -274 
    -236     -193     -151     -110      -68      -36      -18      -10 
       8       55      118      174      228      282      326      375 
     438      496      552      619      685      747      810      866 
     934     1011     1080     1152     1232     1297     1358     1428 
    1485     1536     1588     1615     1621     1628     1622     1599 
    1570     1547     1529     1497     1459     1431     1386     1332 
    1301     1266     1215     1155     1080     1003      940      888 
     823      750      688      631      581      549      506      448 
     402      357      299      238      175       98       18      -43 
     -95     -160     -233     -294     -352     -407     -452     -508 
    -580     -637     -680     -722     -749     -776     -824     -880 
    -931     -974    -1001    -1030    -1066    -1096    -1129    -1166 
   -1169    -1143    -1121    -1102    -1069    -1024     -974     -907 
    -838     -784     -724     -664     -618     -569     -513     -464 
    -422     -387     -360     -345     -349     -364     -383     -402 
    -413     -418     -444     -487     -521     -542     -554     -548 
    -527     -511     -496     -483     -463     -429     -395     -361 
    -305     -256     -225     -171     -116      -86      -55      -18 
      12       44       79      120      172      226      268      306 
     345      386      427      463      484      504      523      533 
     553      581      591      599      615      618      614      612 
     626      646      649      642      639      639      649      653 
     638      622      612      598      576      541      488      422 
     360      295      222      151       76       -8      -97     -193 
    -295     -390     -475     -562     -654     -738     -818     -908 
    -989    -1047    -1097    -1139    -1175    -1209    -1233    -1254 
   -1290    -1332    -1370    -1404    -1426    -1448    -1471    -1485 
   -1487    -1479    -1462    -1449    -1428    -1381    -1325    -1275 
   -1220    -1162    -1102    -1031     -947     -866     -781     -688 
    -592     -481     -361     -243     -132      -33       60      167 
     275      383      495      592      668      751      845      934 
    1015     1084     1151     1221     1282     1329     1378     1435 
    1482     1503     1517     1536     1552     1557     1561     1547 
    1510     1478     1440     1395     1364     1340     1310     1283 
    1255     1213     1173     1136     1093     1047     1004      954 
     889      812      730      653      579      510      459      409 
     338      251      152       48      -43     -126     -213     -297 
    -373     -444     -504     -562     -623     -685     -738     -764 
    -777     -801     -831     -869     -905     -940     -981    -1028 
   -1080    -1129    -1165    -1167    -1154    -1142    -1123    -1089 
   -1043     -996     -966     -938     -899     -862     -816     -756 
    -700     -646     -591     -550     -519     -483     -433     -369 
    -317     -270     -217     -174     -133      -82      -35        8 
      48       93      159      232      287      345      415      491 
     572      657      726      781      824      843      854      876 
     886      886      888      884      872      858      832      797 
     764      731      702      666      618      572      542      510 
     468      442      432      411      390      373      356      344 
     348      349      326      298      283      268      256      255 
     251      236      220      205      187      171      159      149 
     139      120       97       82       64       31       -2      -22 
     -47      -78     -108     -149     -199     -247     -290     -313 
    -325     -348     -371     -392     -418     -441     -453     -460 
    -454     -446     -449     -456     -453     -444     -429     -415 
    -405     -391     -380     -360     -322     -295     -283     -256 
    -218     -186     -157     -129     -109      -95      -95     -110 
    -124     -126     -133     -141     -145     -152     -155     -148 
    -151     -174     -209     -245     -288     -351     -413     -464 
    -515     -564     -603     -641     -670     -687     -696     -693 
    -689     -692     -687     -670     -652     -626     -575     -504 
    -436     -373     -328     -294     -236     -157      -83       -6 
      70      135      201      275      336      372      406      442 
     464      473      483      475      452      429      396      364 
     345      324      298      282      276      280      294      306 
     324      346      372      403      432      453      473      490 
     490      477      464      446      419      394      368      341 
     319      298      271      253      236      216      206      199 
     183      170      163      163      156      141      122       98 
      85       86       76       54       45       45       37       32 
      22      -10      -54      -90     -130     -170     -203     -245 
    -286     -324     -363     -390     -403     -409     -402     -403 
    -414     -415     -407     -399     -394     -396     -395     -390 
    -371     -337     -313     -294     -267     -238     -213     -179 
    -148     -126      -97      -52       -8       29       66       95 
     113      122      130      147      164      168      157      136 
     103       67       24      -36      -98     -145     -183     -217 
    -255     -291     -322     -348     -357     -345     -333     -319 
    -291     -267     -251     -225     -190     -152     -118      -86 
     -56      -33      -13       14       47       70       83       93 
      93       95      118      144      170      203      232      253 
     275      294      301      298      290      294      302      305 
     309      305      280      251      226      202      168      126 
      85       44        8      -20      -36      -45      -56      -66 
     -75      -85      -89      -86      -74      -49      -27       -2 
      22       44       63       79       93       98       99       95 
