Origin Time       2025/01/13 21:19:00
Lat.              31.8
Long.             131.6
Depth. (km)       30
Mag.              6.9
Station Code      HRS004
Station Lat.      34.7263
Station Long.     132.2773
Station Height(m) 583
Record Time       2025/01/13 21:21:12
Sampling Freq(Hz) 100Hz
Duration Time(s)  60
Dir.              N-S
Scale Factor      7845(gal)/8223790
Max. Acc. (gal)   1.110
Last Correction   2025/01/13 21:21:11
Memo.             
[...]
    3134     3015     2916     2930     3061     3231     3375     3451 
    3447     3380     3321     3334     3441     3627     3823     3923 
    3881     3708     3450     3181     2987     2936     3044     3262 
    3508     3672     3643     3407     3048     2679     2455     2494 
    2763     3111     3387     3518     3515     3381     3133     2863 
    2689     2670     2802     3061     3346     3510     3515     3430 
    3345     3348     3437     3543     3626     3676     3643     3500 
    3318     3206     3225     3373     3601     3816     3908     3846 
    3670     3433     3227     3137     3207     3434     3753     4064 
    4264     4290     4159     3923     3657     3462     3387     3422 
    3565     3755     3851     3771     3565     3337     3180     3129 
    3167     3277     3442     3597     3663     3655     3618     3572 
    3550     3580     3650     3739     3812     3820     3739     3632 
    3593     3626     3661     3667     3674     3693     3688     3626 
    3526     3446     3406     3387     3423     3523     3631     3703 
    3666     3481     3253     3132     3157     3292     3491     3645 
    3657     3535     3334     3121     2978     2944     3024     3183 
    3373     3561     3685     3657     3489     3303     3179     3125 
    3161     3283     3418     3449     3356     3217     3083     2955 
    2863     2870     2988     3186     3407     3581     3685     3731 
    3696     3588     3501     3493     3516     3530     3574     3684 
    3782     3755     3593     3427     3387     3473     3611     3692 
    3665     3566     3430     3319     3381     3642     3894     3963 
    3909     3838     3755     3649     3542     3491     3507     3524 
    3510     3522     3596     3681     3739     3751     3688     3565 
    3458     3414     3416     3473     3619     3773     3800     3726 
    3635     3573     3573     3611     3607     3538     3458     3407 
    3389     3434     3532     3612     3599     3477     3319     3208 
    3176     3211     3281     3348     3368     3333     3269     3219 
    3219     3275     3356     3383     3300     3200     3194     3291 
    3460     3615     3662     3599     3493     3402     3352     3358 
    3353     3273     3167     3086     3056     3109     3222     3312 
    3350     3343     3257     3121     3005     2945     2986     3137 
    3330     3497     3573     3527     3404     3279     3202     3187 
    3237     3337     3443     3505     3526     3543     3562     3542 
    3491     3443     3384     3289     3211     3219     3315     3460 
    3581     3580     3434     3227     3083     3065     3153     3287 
    3403     3474     3516     3550     3573     3551     3501     3470 
    3478     3546     3666     3773     3824     3844     3846     3809 
    3769     3765     3775     3786     3775     3734     3704     3674 
    3600     3504     3445     3464     3545     3623     3672     3708 
    3726     3734     3778     3862     3940     3956     3923     3897 
    3866     3796     3699     3603     3568     3619     3721     3835 
    3894     3854     3716     3549     3461     3510     3654     3797 
    3863     3825     3693     3514     3349     3267     3275     3302 
    3273     3202     3160     3173     3192     3218     3261     3281 
    3252     3192     3175     3242     3346     3449     3549     3601 
    3547     3385     3213     3154     3214     3276     3291     3307 
    3352     3384     3356     3268     3168     3096     3099     3202 
    3368     3559     3746     3908     4024     4055     4025     3997 
    3985     3985     3987     3996     4048     4128     4156     4121 
    4055     3959     3832     3680     3514     3403     3408     3519 
    3694     3855     3924     3879     3743     3551     3360     3244 
    3225     3277     3375     3465     3505     3503     3476     3433 
    3388     3379     3419     3491     3596     3735     3874     3973 
    3996     3917     3781     3657     3550     3470     3488     3601 
    3761     3916     4008     4000     3900     3766     3678     3661 
    3690     3731     3777     3856     3917     3896     3831     3793 
    3780     3755     3720     3709     3712     3677     3605     3549 
    3531     3564     3599     3553     3429     3262     3115     3064 
    3119     3249     3420     3592     3716     3757     3727     3653 
    3550     3456     3375     3315     3307     3350     3404     3419 
    3364     3249     3129     3040     2959     2852     2722     2616 
    2605     2708     2866     2982     2975     2879     2787     2755 
    2803     2940     3122     3267     3337     3335     3254     3152 
    3111     3138     3181     3204     3173     3075     2955     2898 
    2961     3118     3273     3373     3407     3379     3341     3329 
    3365     3446     3522     3596     3700     3788     3827     3847 
    3836     3747     3622     3578     3630     3707     3765     3775 
    3738     3686     3630     3572     3564     3618     3689     3748 
    3798     3862     3913     3894     3852     3834     3801     3761 
    3744     3751     3770     3801     3838     3863     3844     3784 
    3730     3730     3757     3785     3813     3832     3827     3816 
    3816     3811     3780     3720     3631     3538     3460     3370 
    3283     3262     3302     3303     3235     3141     3018     2857 
    2695     2592     2602     2722     2887     3046     3160     3163 
    3036     2849     2674     2529     2457     2482     2562     2646 
    2748     2879     2988     3065     3118     3111     3051     2979 
    2940     2953     2992     3036     3082     3132     3176     3186 
    3157     3102     3042     3025     3056     3125     3213     3260 
    3223     3141     3053     2992     2983     3044     3180     3357 
    3474     3504     3522     3514     3423     3283     3160     3109 
    3172     3338     3519     3631     3655     3585     3443     3362 
    3418     3531     3636     3734     3798     3828     3871     3929 
    3975     3978     3917     3852     3794     3716     3661     3701 
    3844     4008     4122     4185     4197     4199     4251     4315 
    4325     4278     4230     4213     4205     4214     4243     4233 
    4164     4089     4029     3970     3935     3921     3896     3862 
    3836     3816     3773     3699     3631     3566     3493     3438 
    3429     3430     3380     3288     3203     3164     3172     3222 
    3318     3414     3445     3433     3393     3329     3276     3242 
    3200     3159     3137     3111     3067     3030     3018     3022 
    3024     3033     3067     3073     3003     2906     2821     2737 
    2681     2713     2824     2943     3025     3059     3033     2959 
    2883     2860     2901     2976     3064     3126     3138     3119 
    3141     3249     3385     3492     3566     3591     3588     3632 
    3748     3883     4016     4158     4284     4371     4411     4382 
    4286     4193     4149     4136     4167     4261     4363     4421 
    4452     4464     4433     4337     4216     4126     4075     4074 
    4128     4199     4230     4202     4141     4083     4054     4043 
    4029     4035     4066     4071     4032     3986     3947     3908 
    3883     3875     3869     3862     3848     3824     3808     3813 
    3808     3740     3638     3549     3466     3411     3418     3458 
    3503     3547     3569     3522     3384     3188     3003     2883 
    2821     2808     2837     2867     2864     2808     2724     2686 
    2697     2722     2736     2706     2646     2589     2556     2563 
    2623     2708     2766     2781     2778     2764     2718     2670 
    2658     2651     2659     2727     2817     2902     2997     3076 
    3118     3125     3109     3102     3122     3179     3292     3473 
    3662     3771     3782     3738     3670     3616     3638     3761 
    3933     4074     4114     4035     3889     3750     3692     3761 
    3936     4135     4275     4359     4392     4336     4220     4097 
    4014     4005     4025     4036     4064     4108     4114     4048 
    3909     3728     3555     3412     3321     3323     3404     3499 
    3553     3549     3515     3474     3416     3339     3280     3283 
    3326     3353     3335     3283     3258     3292     3349     3411 
    3456     3438     3330     3179     3049     2970     2965     3033 
    3123     3204     3276     3321     3318     3292     3277     3273 
    3303     3380     3470     3539     3600     3674     3730     3754 
    3773     3778     3761     3743     3739     3742     3742     3738 
    3734     3690     3612     3549     3522     3537     3589     3653 
    3724     3817     3894     3920     3931     3963     4014     4055 
    4062     4055     4047     4045     4052     4040     4010     3975 
    3909     3804     3709     3674     3680     3670     3638     3592 
    3539     3496     3442     3370     3342     3403     3484     3519 
    3524     3532     3554     3588     3640     3703     3732     3726 
    3689     3618     3541     3468     3373     3279     3238     3279 
    3373     3454     3487     3453     3350     3214     3106     3044 
    3013     3002     3018     3063     3095     3109     3156     3219 
    3235     3208     3179     3176     3199     3234     3276     3329 
    3387     3399     3342     3280     3264     3296     3354     3403 
    3430     3462     3495     3496     3491     3516     3564     3631 
    3720     3807     3850     3848     3823     3762     3667     3578 
    3511     3484     3501     3537     3573     3600     3624     3665 
    3682     3645     3593     3551     3480     3383     3296     3215 
    3138     3099     3105     3134     3153     3145     3110     3040 
    2947     2859     2791     2743     2735     2770     2782     2755 
    2744     2760     2790     2818     2828     2836     2874     2968 
    3100     3208     3260     3272     3261     3211     3148     3141 
    3192     3250     3296     3338     3362     3353     3339     3338 
    3343     3339     3319     3316     3342     3370     3385     3362 
    3280     3172     3100     3091     3142     3242     3321     3321 
    3279     3246     3249     3304     3422     3562     3634     3622 
    3578     3519     3453     3418     3431     3474     3515     3534 
    3527     3500     3474     3476     3478     3447     3415     3423 
    3451     3478     3522     3611     3713     3767     3778     3788 
    3827     3885     3939     3987     4025     4051     4075     4099 
    4145     4224     4313     4398     4473     4513     4480     4392 
    4284     4185     4110     4072     4091     4170     4229     4202 
    4122     4025     3919     3846     3847     3882     3913     3923 
    3883     3808     3748     3750     3808     3867     3910     3935 
    3912     3840     3747     3667     3600     3539     3489     3439 
    3391     3366     3376     3393     3396     3395     3397     3396 
    3403     3438     3507     3589     3658     3713     3734     3700 
    3645     3582     3507     3437     3404     3402     3393     3395 
    3438     3497     3519     3491     3439     3406     3430     3488 
    3526     3526     3483     3408     3321     3217     3130     3079 
    3037     2990     2964     2987     3040     3109     3188     3225 
    3181     3117     3083     3073     3090     3134     3172     3221 
    3299     3365     3383     3346     3280     3219     3163     3105 
    3061     3046     3065     3118     3200     3276     3298     3265 
    3190     3096     3021     2995     3026     3082     3121     3132 
    3127     3127     3176     3299     3446     3546     3593     3592 
    3555     3510     3474     3453     3438     3451     3504     3581 
    3681     3782     3855     3873     3819     3704     3574     3504 
    3520     3599     3712     3832     3946     4027     4028     3951 
    3848     3773     3730     3696     3677     3676     3673     3642 
    3561     3447     3353     3319     3334     3343     3338     3318 
    3271     3214     3161     3127     3133     3184     3256     3323 
    3362     3334     3241     3122     3013     2943     2921     2943 
    2990     3029     3064     3075     3037     2979     2917     2860 
    2855     2916     3026     3159     3268     3327     3319     3241 
    3132     3046     3013     3033     3087     3133     3164     3172 
    3137     3073     3029     3041     3102     3199     3321     3410 
    3441     3439     3431     3456     3514     3589     3688     3794 
    3881     3931     3944     3966     4004     4036     4086     4156 
    4202     4205     4186     4170     4193     4252     4317     4379 
    4442     4509     4560     4588     4603     4592     4556     4526 
    4522     4556     4594     4588     4544     4472     4374     4255 
    4140     4058     4016     4006     4004     3978     3906     3780 
    3613     3451     3358     3365     3439     3542     3636     3689 
    3680     3592     3456     3333     3264     3261     3306     3389 
    3489     3549     3547     3493     3395     3265     3145     3065 
    3033     3052     3111     3169     3203     3195     3145     3072 
    2999     2943     2903     2886     2880     2871     2855     2832 
    2813     2806     2793     2758     2701     2639     2589     2554 
    2546     2554     2536     2486     2420     2358     2320     2316 
    2334     2355     2392     2462     2575     2683     2729     2737 
    2759     2818     2934     3084     3225     3349     3445     3510 
    3559     3608     3647     3670     3696     3735     3801     3893 
    3990     4070     4140     4214     4280     4347     4417     4461 
    4491     4521     4526     4526     4552     4590     4598     4573 
    4550     4506     4415     4314     4240     4182     4114     4054 
    4023     4004     3986     3952     3888     3809     3738     3689 
    3673     3682     3701     3712     3676     3569     3411     3227 
    3044     2909     2849     2848     2866     2868     2852     2805 
    2712     2616     2565     2563     2601     2663     2740     2833 
    2937     3034     3103     3156     3227     3321     3402     3474 
    3550     3596     3613     3615     3601     3584     3565     3564 
    3591     3596     3551     3493     3437     3364     3302     3289 
    3300     3322     3380     3451     3493     3503     3496     3469 
    3437     3447     3508     3591     3673     3754     3807     3802 
    3781     3782     3789     3786     3784     3797     3815     3820 
    3821     3807     3775     3766     3773     3777     3781     3782 
    3754     3678     3592     3547     3543     3543     3538     3531 
    3466     3325     3186     3098     3056     3056     3106     3161 
    3184     3198     3214     3218     3215     3215     3225     3235 
    3249     3276     3315     3364     3402     3406     3383     3360 
    3343     3315     3289     3289     3302     3322     3342     3338 
    3334     3349     3354     3358     3403     3478     3526     3539 
    3547     3535     3496     3483     3534     3612     3676     3716 
    3719     3678     3620     3551     3478     3437     3442     3461 
    3466     3481     3511     3541     3564     3545     3477     3397 
    3325     3260     3215     3223     3256     3260     3230     3191 
    3154     3118     3091     3080     3087     3118     3160     3200 
    3234     3246     3230     3202     3196     3227     3257     3284 
    3318     3333     3325     3311     3296     3292     3304     3323 
    3323     3310     3322     3366     3414     3457     3488     3473 
    3407     3327     3257     3245     3310     3400     3481     3549 
    3585     3576     3551     3538     3520     3522     3559     3599 
    3628     3649     3630     3586     3549     3518     3484     3465 
    3466     3474     3485     3488     3477     3470     3472     3458 
    3423     3389     3373     3368     3389     3445     3505     3553 
    3569     3538     3476     3427     3411     3426     3480     3538 
    3558     3559     3557     3545     3527     3507     3481     3468 
    3469     3456     3422     3403     3403     3424     3470     3524 
    3564     3566     3542     3504     3465     3461     3487     3519 
    3566     3618     3640     3642     3635     3601     3527     3457 
    3438     3454     3461     3460     3442     3377     3304     3264 
    3250     3277     3329     3366     3384     3387     3399     3420 
    3438     3465     3507     3545     3572     3601     3636     3646 
    3624     3593     3569     3558     3584     3657     3751     3831 
    3873     3851     3778     3700     3669     3689     3734     3805 
    3897     3975     4018     4014     3991     3963     3916     3870 
    3850     3847     3858     3881     3883     3832     3743     3640 
    3542     3461     3400     3370     3369     3373     3362     3349 
    3346     3341     3321     3291     3252     3222     3214     3221 
    3254     3319     3411     3488     3515     3531     3570     3593 
    3585     3577     3578     3573     3553     3523     3510     3518 
    3510     3478     3451     3437     3434     3422     3387     3353 
    3334     3321     3298     3279     3275     3276     3289     3315 
    3319     3284     3231     3186     3150     3118     3096     3087 
    3065     3026     3011     3028     3048     3083     3141     3194 
    3218     3215     3215     3214     3211     3242     3295     3341 
    3373     3404     3443     3492     3546     3592     3612     3623 
    3635     3635     3612     3591     3591     3593     3572     3554 
    3573     3588     3576     3591     3627     3646     3658     3647 
    3601     3555     3535     3553     3604     3672     3735     3773 
    3786     3782     3763     3744     3724     3700     3678     3659 
    3627     3580     3537     3501     3487     3487     3472     3431 
    3392     3364     3323     3258     3211     3204     3215     3219 
    3213     3215     3230     3253     3291     3308     3292     3285 
    3296     3289     3264     3254     3258     3245     3231     3256 
    3300     3333     3362     3396     3406     3395     3373     3335 
    3295     3284     3302     3316     3307     3289     3276     3267 
    3264     3276     3285     3264     3234     3225     3229     3245 
    3284     3339     3381     3400     3419     3437     3443     3445 
    3439     3422     3395     3389     3423     3465     3508     3562 
    3593     3578     3547     3531     3518     3504     3516     3541 
    3547     3537     3522     3496     3462     3445     3450     3473 
    3515     3558     3574     3557     3526     3499     3474     3468 
    3483     3516     3551     3550     3528     3532     3550     3554 
    3566     3596     3618     3630     3670     3732     3788     3840 
    3902     3967     4016     4058     4087     4094     4093     4086 
    4070     4063     4077     4104     4129     4153     4176     4176 
    4145     4094     4047     4005     3950     3889     3838     3793 
    3755     3715     3654     3570     3478     3385     3296     3225 
