Origin Time       2025/01/13 21:19:00
Lat.              31.8
Long.             131.6
Depth. (km)       30
Mag.              6.9
Station Code      HRS014
Station Lat.      34.2864
Station Long.     132.2765
Station Height(m) 3
Record Time       2025/01/13 21:20:31
Sampling Freq(Hz) 100Hz
Duration Time(s)  106
Dir.              N-S
Scale Factor      7845(gal)/8223790
Max. Acc. (gal)   5.766
Last Correction   2025/01/13 21:20:30
Memo.             
[...]
    1883     1553     1248      903      491       54     -387     -870 
   -1422    -2052    -2670    -3121    -3362    -3460    -3530    -3681 
   -3827    -3869    -3877    -3886    -3866    -3811    -3655    -3364 
   -2971    -2474    -1935    -1455     -999     -575     -319     -243 
    -202     -124      -43       25      102      102      -28     -194 
    -346     -480     -557     -657     -861    -1078    -1215    -1285 
   -1332    -1358    -1351    -1355    -1387    -1397    -1389    -1449 
   -1593    -1769    -1964    -2130    -2188    -2107    -1896    -1624 
   -1379    -1210    -1132    -1113    -1100    -1047     -907     -689 
    -471     -279     -174     -205     -313     -476     -676     -858 
   -1028    -1181    -1289    -1340    -1274    -1089     -903     -751 
    -614     -526     -396     -121      170      288      198      -27 
    -263     -432     -572     -692     -727     -657     -523     -441 
    -498     -648     -795     -776     -519     -238      -58       63 
      89      -29     -290     -623     -900    -1169    -1587    -2083 
   -2455    -2583    -2432    -2093    -1678    -1209     -706     -216 
     108      141       56        4      -56     -110     -128     -126 
    -139     -243     -383     -402     -275      -67      157      283 
     164     -224     -824    -1607    -2519    -3433    -4183    -4704 
   -5084    -5321    -5287    -5007    -4693    -4460    -4255    -4031 
   -3784    -3515    -3240    -2986    -2801    -2673    -2536    -2373 
   -2187    -1902    -1456     -950     -546     -305     -198     -206 
    -326     -534     -733     -774     -648     -437     -164      133 
     305      270      152       94      103      162      286      394 
     346      187      102      124      135      101       91      118 
      89      -81     -298     -399     -405     -398     -363     -278 
    -222     -292     -383     -368     -338     -383     -467     -580 
    -743     -899     -959     -915     -819     -722     -639     -564 
    -471     -326     -140       86      326      499      592      680 
     816      985     1101     1112     1054      946      822      735 
     658      548      427      306      199      128       72       24 
     -21     -105     -264     -527     -912    -1412    -2022    -2698 
   -3337    -3877    -4311    -4623    -4822    -4984    -5184    -5390 
   -5505    -5478    -5323    -5057    -4681    -4207    -3645    -3051 
   -2528    -2143    -1903    -1768    -1684    -1593    -1422    -1155 
    -784     -286      272      781     1223     1584     1765     1676 
    1348      895      406     -103     -631    -1142    -1578    -1837 
   -1879    -1779    -1606    -1443    -1405    -1505    -1637    -1701 
   -1687    -1649    -1633    -1676    -1788    -1927    -2046    -2131 
   -2153    -2084    -1944    -1787    -1692    -1675    -1647    -1540 
   -1331     -988     -548     -148      120      402      846     1371 
    1873     2362     2795     3088     3204     3123     2826     2340 
    1753     1215      841      635      529      437      307      130 
     -98     -340     -589     -951    -1440    -1949    -2463    -3073 
   -3792    -4542    -5228    -5746    -6012    -6011    -5759    -5273 
   -4611    -3842    -3009    -2160    -1381     -745     -224      251 
     685     1069     1382     1582     1652     1641     1601     1545 
    1451     1278     1055      843      675      552      438      321 
     222      145      114      106       36     -116     -294     -452 
    -538     -500     -382     -247      -86       89      241      407 
     602      760      823      743      526      284      108       -5 
     -71      -93      -87      -90     -159     -378     -734    -1140 
   -1534    -1858    -2122    -2386    -2635    -2813    -2909    -2934 
   -2933    -2959    -3018    -3107    -3235    -3410    -3619    -3789 
   -3821    -3723    -3570    -3411    -3314    -3325    -3375    -3370 
   -3296    -3146    -2949    -2803    -2767    -2759    -2666    -2462 
   -2157    -1769    -1375    -1053     -800     -580     -406     -265 
    -112        2       35       45       71       85       72       67 
      41     -118     -484     -997    -1510    -1927    -2290    -2636 
   -2956    -3292    -3682    -4094    -4483    -4822    -5096    -5278 
   -5331    -5260    -5094    -4873    -4644    -4361    -3929    -3383 
   -2836    -2292    -1671    -1011     -436       49      564     1140 
    1676     2110     2477     2779     2979     3090     3148     3167 
    3115     3014     2975     3030     3069     2997     2829     2597 
    2285     1915     1524     1109      668      220     -183     -513 
    -776    -1021    -1318    -1659    -1937    -2079    -2103    -2026 
   -1838    -1564    -1273    -1050     -932     -900     -911     -900 
    -831     -692     -475     -174      241      789     1395     1976 
    2457     2791     2995     3024     2863     2664     2498     2282 
    1976     1595     1169      718      199     -384     -932    -1418 
   -1868    -2230    -2465    -2609    -2700    -2722    -2624    -2403 
   -2158    -1964    -1790    -1606    -1471    -1490    -1680    -1946 
   -2246    -2592    -2936    -3227    -3474    -3701    -3875    -3875 
   -3703    -3487    -3306    -3200    -3202    -3253    -3235    -3090 
   -2866    -2678    -2601    -2628    -2736    -2952    -3268    -3595 
   -3850    -4031    -4176    -4293    -4376    -4461    -4550    -4598 
   -4568    -4425    -4167    -3778    -3206    -2505    -1791    -1100 
    -411      268      909     1476     1956     2319     2528     2614 
    2629     2582     2490     2404     2343     2246     2060     1800 
    1482     1112      756      454      194       -4      -98      -86 
      36      256      518      768      969     1143     1358     1624 
    1883     2095     2232     2241     2128     1946     1679     1320 
     903      461       94     -126     -226     -263     -301     -348 
    -357     -349     -375     -436     -459     -365     -205      -64 
      49       86       36        4        5      -27     -141     -391 
    -739    -1105    -1470    -1794    -2025    -2160    -2218    -2258 
   -2358    -2540    -2826    -3183    -3512    -3773    -3944    -4002 
   -3994    -3943    -3793    -3542    -3249    -2982    -2799    -2722 
   -2772    -2943    -3146    -3283    -3303    -3262    -3253    -3268 
   -3269    -3291    -3326    -3280    -3105    -2844    -2569    -2303 
   -2052    -1880    -1825    -1842    -1945    -2178    -2525    -2913 
   -3238    -3422    -3451    -3323    -3063    -2760    -2459    -2115 
   -1757    -1440    -1124     -773     -432     -130      159      487 
     865     1251     1579     1819     1971     1989     1881     1733 
    1582     1405     1198     1012      891      800      712      646 
     560      372      101     -168     -356     -409     -314      -89 
     217      521      788     1012     1178     1274     1313     1359 
    1439     1475     1418     1313     1217     1127     1005      857 
     711      560      368      118     -180     -518     -903    -1324 
   -1733    -2106    -2440    -2735    -2998    -3288    -3639    -4006 
   -4334    -4614    -4830    -4942    -4930    -4795    -4557    -4233 
   -3804    -3254    -2632    -1992    -1367     -789     -291      130 
     487      753      913      994     1021     1016     1000     1005 
    1090     1277     1482     1633     1736     1773     1750     1688 
    1557     1313      982      648      328        0     -306     -575 
    -835    -1112    -1390    -1645    -1879    -2076    -2204    -2289 
   -2409    -2598    -2821    -3040    -3272    -3545    -3838    -4120 
   -4409    -4720    -4986    -5111    -5065    -4880    -4579    -4179 
   -3717    -3262    -2884    -2628    -2498    -2448    -2421    -2357 
   -2215    -1979    -1651    -1250     -819     -422      -94      182 
     409      567      675      704      595      380      128     -116 
    -326     -562     -878    -1251    -1657    -2134    -2705    -3285 
   -3790    -4203    -4471    -4568    -4552    -4450    -4245    -3909 
   -3442    -2895    -2316    -1687    -1015     -369      217      773 
    1287     1729     2116     2469     2790     3091     3366     3593 
    3742     3805     3839     3888     3952     4013     4001     3870 
    3642     3329     2955     2582     2231     1883     1522     1115 
     631       71     -513    -1084    -1651    -2181    -2628    -2970 
   -3187    -3296    -3334    -3335    -3330    -3321    -3279    -3181 
   -3034    -2859    -2683    -2552    -2498    -2532    -2652    -2837 
   -3013    -3098    -3083    -2980    -2778    -2509    -2215    -1902 
   -1582    -1275     -980     -729     -562     -479     -457     -444 
    -353     -143      152      495      873     1254     1595     1881 
    2124     2299     2374     2362     2281     2104     1815     1405 
     884      278     -407    -1128    -1794    -2390    -2956    -3484 
   -3964    -4406    -4768    -5019    -5178    -5259    -5275    -5271 
   -5283    -5289    -5240    -5130    -4949    -4696    -4440    -4187 
   -3897    -3572    -3210    -2801    -2335    -1782    -1154     -540 
       4      442      706      810      870      930      982     1066 
    1175     1228     1188     1094      989      901      874      904 
     947      984      993      974      978     1023     1075     1139 
    1219     1312     1420     1509     1557     1561     1455     1228 
     931      556      129     -280     -662    -1051    -1443    -1811 
   -2166    -2494    -2749    -2901    -2932    -2862    -2735    -2594 
   -2455    -2295    -2120    -1941    -1729    -1485    -1235     -997 
    -810     -708     -688     -706     -692     -638     -583     -552 
    -581     -676     -823    -1053    -1344    -1632    -1918    -2230 
   -2571    -2901    -3145    -3304    -3430    -3500    -3495    -3457 
   -3387    -3262    -3113    -2953    -2771    -2548    -2289    -1983 
   -1630    -1316    -1108     -973     -874     -859     -922     -982 
   -1028    -1069    -1089    -1096    -1086    -1016     -845     -584 
    -292        8      319      591      800      963     1066     1113 
    1177     1294     1449     1599     1738     1856     1914     1908 
    1845     1692     1441     1119      746      353      -24     -351 
    -623     -859    -1074    -1285    -1506    -1738    -1973    -2200 
   -2398    -2562    -2687    -2763    -2776    -2752    -2710    -2637 
   -2531    -2365    -2101    -1773    -1422    -1048     -670     -298 
      72      395      654      889     1104     1278     1375     1366 
    1270     1086      796      440       63     -351     -796    -1201 
   -1521    -1821    -2187    -2594    -2986    -3380    -3796    -4206 
   -4579    -4923    -5252    -5547    -5759    -5887    -5929    -5857 
   -5690    -5439    -5111    -4722    -4243    -3680    -3088    -2451 
   -1773    -1131     -538       41      633     1220     1761     2269 
    2770     3218     3576     3866     4055     4060     3874     3542 
    3130     2690     2232     1767     1296      803      280     -249 
    -761    -1262    -1790    -2309    -2733    -3033    -3206    -3258 
   -3238    -3179    -3117    -3118    -3206    -3350    -3508    -3622 
   -3682    -3716    -3726    -3730    -3742    -3731    -3693    -3649 
   -3611    -3578    -3520    -3443    -3364    -3249    -3059    -2789 
   -2443    -2014    -1489     -913     -369      130      638     1177 
    1703     2139     2466     2731     2957     3150     3333     3515 
    3681     3820     3928     4027     4116     4131     4048     3902 
    3670     3322     2855     2277     1622      913      128     -696 
   -1463    -2143    -2781    -3375    -3912    -4421    -4916    -5360 
   -5744    -6095    -6415    -6669    -6833    -6912    -6902    -6777 
   -6519    -6158    -5724    -5228    -4698    -4118    -3469    -2743 
   -1944    -1104     -290      461     1148     1782     2382     2940 
    3412     3802     4139     4368     4429     4344     4159     3900 
    3620     3361     3113     2845     2525     2170     1803     1424 
    1035      643      248     -172     -626    -1086    -1559    -2060 
   -2540    -2955    -3292    -3537    -3700    -3792    -3790    -3734 
   -3713    -3780    -3908    -4045    -4180    -4309    -4384    -4390 
   -4341    -4236    -4071    -3855    -3592    -3310    -3010    -2673 
   -2317    -1977    -1687    -1431    -1173     -913     -629     -311 
      -9      292      600      842      990     1059     1038      926 
     754      568      390      197       -6     -171     -291     -396 
    -499     -608     -719     -827     -926     -972     -926     -816 
    -703     -621     -595     -629     -688     -716     -683     -607 
    -534     -481     -437     -378     -311     -240     -139      -47 
      -5       25       60       70       62       41        1      -52 
    -108     -156     -171     -113       28      217      411      583 
     693      714      648      500      272      -27     -342     -641 
    -953    -1271    -1588    -1923    -2261    -2582    -2909    -3258 
   -3609    -3951    -4313    -4695    -5057    -5351    -5549    -5665 
   -5702    -5629    -5468    -5263    -4988    -4626    -4209    -3744 
   -3229    -2675    -2092    -1489     -882     -272      348      992 
    1663     2330     2965     3581     4145     4596     4904     5053 
    5028     4877     4633     4290     3869     3381     2806     2161 
    1482      803      125     -542    -1177    -1773    -2327    -2828 
   -3294    -3724    -4113    -4445    -4692    -4834    -4887    -4887 
   -4857    -4793    -4702    -4580    -4390    -4135    -3843    -3489 
   -3065    -2616    -2157    -1688    -1231     -812     -445     -136 
     118      341      548      753      963     1159     1317     1382 
    1312     1112      796      400       -9     -440     -915    -1431 
   -1968    -2461    -2855    -3157    -3383    -3551    -3678    -3758 
   -3802    -3834    -3819    -3711    -3518    -3257    -2936    -2571 
   -2181    -1809    -1475    -1148     -789     -406      -12      390 
     784     1135     1422     1652     1841     1965     2026     2083 
    2139     2154     2169     2257     2385     2486     2542     2543 
    2504     2432     2293     2080     1813     1480     1107      762 
     452      153     -117     -361     -596     -832    -1063    -1263 
   -1413    -1502    -1560    -1611    -1660    -1694    -1709    -1705 
   -1691    -1676    -1684    -1759    -1911    -2128    -2373    -2608 
   -2805    -2937    -3041    -3188    -3358    -3507    -3632    -3713 
   -3720    -3677    -3615    -3553    -3508    -3468    -3431    -3393 
   -3303    -3148    -2945    -2673    -2331    -1960    -1594    -1236 
    -916     -673     -490     -344     -263     -255     -287     -357 
    -459     -554     -649     -773     -936    -1096    -1171    -1179 
   -1167    -1143    -1152    -1212    -1246    -1240    -1240    -1228 
   -1183    -1113     -999     -827     -643     -480     -310     -139 
     -18       48       99      141      210      341      508      679 
     812      870      843      731      560      364      149      -52 
    -222     -357     -467     -549     -588     -572     -545     -572 
    -661     -783     -928    -1089    -1221    -1283    -1283    -1282 
   -1328    -1401    -1471    -1561    -1647    -1665    -1657    -1676 
   -1736    -1856    -2030    -2234    -2448    -2632    -2774    -2903 
   -3033    -3146    -3214    -3237    -3210    -3109    -2928    -2708 
   -2512    -2367    -2239    -2106    -1979    -1849    -1714    -1553 
   -1317     -985     -585     -126      361      808     1212     1606 
    1969     2278     2529     2697     2756     2712     2596     2459 
    2297     2087     1852     1566     1186      753      303     -139 
    -558     -950    -1301    -1590    -1819    -2010    -2157    -2254 
   -2320    -2362    -2390    -2408    -2405    -2397    -2397    -2380 
   -2320    -2235    -2149    -2047    -1914    -1768    -1634    -1521 
   -1421    -1316    -1223    -1144    -1047     -957     -904     -845 
    -776     -750     -778     -832     -876     -907     -955    -1009 
   -1044    -1063    -1050     -976     -857     -730     -583     -415 
    -256      -67      167      426      703      973     1224     1478 
    1710     1891     2023     2089     2061     1939     1746     1507 
    1217      870      494       71     -417     -918    -1382    -1802 
   -2178    -2512    -2825    -3115    -3319    -3435    -3534    -3616 
   -3658    -3720    -3825    -3908    -3955    -3970    -3939    -3888 
   -3804    -3662    -3485    -3277    -3036    -2776    -2516    -2280 
   -2097    -1971    -1895    -1867    -1888    -1944    -1991    -2018 
   -2043    -2050    -2030    -2012    -2027    -2079    -2141    -2158 
   -2096    -1989    -1861    -1694    -1512    -1355    -1215    -1081 
    -940     -745     -499     -247       29      328      637      943 
    1225     1487     1718     1896     2060     2212     2299     2330 
    2355     2323     2184     1958     1664     1302      916      548 
     238        6     -183     -369     -572     -788     -984    -1150 
   -1282    -1370    -1420    -1416    -1344    -1202     -984     -715 
    -437     -163       95      302      432      496      527      515 
     440      334      218       85      -25     -116     -248     -442 
    -685     -973    -1294    -1614    -1907    -2197    -2488    -2755 
   -3011    -3275    -3532    -3770    -3971    -4141    -4267    -4307 
   -4249    -4124    -3960    -3765    -3535    -3288    -3033    -2768 
   -2502    -2251    -2023    -1811    -1595    -1368    -1135     -908 
    -699     -514     -383     -307     -252     -202     -157     -133 
    -145     -153     -147     -164     -202     -249     -336     -463 
    -610     -758     -892    -1000    -1085    -1127    -1121    -1111 
   -1108    -1098    -1097    -1124    -1155    -1181    -1209    -1221 
   -1190    -1115    -1001     -857     -680     -490     -303     -137 
     -21       55      109      136      153      183      197      164 
      94        0      -98     -178     -241     -291     -324     -348 
    -383     -400     -392     -411     -463     -500     -537     -599 
    -652     -660     -639     -621     -608     -596     -581     -557 
    -529     -518     -540     -594     -673     -764     -864     -984 
   -1119    -1231    -1283    -1297    -1290    -1252    -1202    -1188 
   -1220    -1285    -1371    -1453    -1548    -1692    -1873    -2049 
   -2219    -2381    -2500    -2582    -2647    -2694    -2748    -2808 
   -2830    -2825    -2818    -2783    -2690    -2556    -2405    -2241 
   -2080    -1927    -1791    -1679    -1549    -1366    -1151     -939 
    -712     -464     -224       17      290      583      853     1082 
    1283     1478     1647     1775     1899     2014     2077     2099 
    2114     2118     2093     2029     1931     1788     1564     1264 
     923      557      174     -214     -596     -966    -1318    -1645 
   -1954    -2247    -2516    -2772    -3011    -3206    -3345    -3445 
