Origin Time       2025/01/13 21:19:00
Lat.              31.8
Long.             131.6
Depth. (km)       30
Mag.              6.9
Station Code      HRS020
Station Lat.      34.2936
Station Long.     133.1776
Station Height(m) 17
Record Time       2025/01/13 21:21:01
Sampling Freq(Hz) 100Hz
Duration Time(s)  63
Dir.              N-S
Scale Factor      7845(gal)/8223790
Max. Acc. (gal)   1.919
Last Correction   2025/01/13 21:21:01
Memo.             
[...]
    4900     4843     4716     4625     4603     4575     4518     4448 
    4394     4380     4396     4432     4448     4442     4525     4725 
    4904     4973     4990     4997     4984     4978     4985     4959 
    4943     4985     4985     4850     4689     4641     4671     4671 
    4629     4552     4421     4305     4295     4309     4212     4013 
    3792     3632     3626     3780     4037     4345     4598     4654 
    4510     4363     4361     4425     4482     4553     4576     4477 
    4334     4253     4255     4314     4438     4585     4641     4579 
    4484     4415     4410     4452     4446     4367     4256     4149 
    4118     4170     4195     4179     4241     4445     4699     4866 
    4919     4958     5061     5197     5250     5169     5039     4907 
    4745     4573     4409     4251     4147     4110     4089     4082 
    4140     4248     4325     4334     4313     4293     4279     4284 
    4314     4328     4268     4163     4091     4063     4097     4239 
    4411     4476     4440     4428     4484     4546     4552     4498 
    4394     4268     4237     4384     4615     4803     4881     4815 
    4662     4565     4617     4746     4781     4699     4611     4580 
    4612     4646     4581     4455     4365     4332     4364     4425 
    4388     4266     4185     4185     4261     4434     4633     4683 
    4561     4445     4441     4487     4504     4473     4422     4398 
    4402     4452     4546     4656     4788     4919     4986     5030 
    5084     5105     5097     5073     5016     4907     4735     4546 
    4372     4189     4067     4087     4158     4155     4091     4017 
    3969     3944     3904     3870     3824     3686     3527     3514 
    3657     3848     4047     4311     4653     4928     5047     5116 
    5223     5328     5395     5383     5252     5039     4824     4683 
    4641     4680     4750     4779     4739     4666     4612     4622 
    4708     4853     4997     5084     5150     5254     5379     5530 
    5687     5776     5802     5779     5665     5486     5309     5140 
    4981     4901     4957     5078     5159     5144     5050     4976 
    4999     5076     5103     5070     5034     4996     4934     4878 
    4868     4892     4938     4988     5074     5225     5366     5439 
    5513     5624     5714     5767     5807     5836     5852     5826 
    5660     5339     5011     4793     4633     4463     4315     4218 
    4125     4044     4040     4086     4108     4128     4175     4218 
    4230     4213     4174     4125     4091     4070     3978     3790 
    3623     3545     3504     3483     3526     3645     3798     3935 
    4067     4249     4494     4776     5016     5135     5177     5201 
    5178     5139     5140     5139     5116     5127     5162     5174 
    5152     5107     5057     4977     4818     4658     4615     4610 
    4521     4357     4202     4120     4102     4085     4051     4018 
    4012     4089     4251     4361     4334     4278     4310     4437 
    4619     4812     4947     4988     4972     4961     4953     4953 
    5012     5112     5163     5209     5335     5454     5451     5371 
    5287     5178     5011     4811     4649     4576     4580     4610 
    4617     4590     4573     4587     4612     4641     4656     4611 
    4469     4236     3952     3699     3545     3485     3473     3503 
    3585     3711     3856     3971     4018     4067     4164     4239 
    4279     4347     4399     4379     4326     4274     4221     4202 
    4224     4225     4203     4217     4229     4180     4121     4082 
    4013     3923     3909     4016     4212     4469     4708     4830 
    4892     4996     5081     5125     5215     5298     5297     5269 
    5204     5019     4789     4641     4572     4537     4504     4444 
    4329     4180     4037     3927     3840     3782     3784     3831 
    3877     3881     3809     3681     3600     3632     3777     4006 
    4260     4433     4450     4353     4286     4326     4430     4533 
    4617     4691     4799     4943     5061     5131     5178     5192 
    5194     5239     5305     5331     5321     5269     5169     5094 
    5092     5125     5177     5263     5370     5424     5368     5223 
    5011     4762     4600     4602     4653     4635     4583     4548 
    4527     4540     4579     4615     4706     4873     5017     5098 
    5150     5165     5100     4926     4715     4603     4639     4742 
    4803     4776     4673     4509     4314     4136     4002     3912 
    3820     3742     3708     3688     3662     3651     3646     3688 
    3844     4045     4171     4203     4195     4191     4214     4209 
    4137     4068     4068     4113     4167     4251     4387     4561 
    4756     4954     5116     5201     5205     5174     5163     5193 
    5224     5224     5196     5148     5053     4904     4766     4681 
    4644     4680     4756     4804     4841     4880     4901     4918 
    4924     4893     4837     4776     4699     4595     4459     4267 
    4051     3893     3812     3794     3867     4054     4299     4522 
    4712     4908     5098     5238     5316     5351     5366     5395 
    5432     5412     5312     5193     5074     4943     4800     4615 
    4391     4199     4077     3987     3927     3940     4047     4203 
    4357     4494     4623     4757     4905     5051     5128     5121 
    5100     5097     5088     5067     5055     5049     5016     4972 
    4947     4927     4911     4941     4993     5001     4974     4976 
    5043     5175     5336     5440     5448     5435     5420     5327 
    5144     4930     4699     4469     4276     4136     4059     4029 
    4004     3963     3925     3921     3942     3936     3909     3902 
    3915     3929     3920     3851     3758     3693     3627     3558 
    3546     3591     3642     3674     3678     3680     3719     3801 
    3937     4131     4338     4542     4742     4900     4996     5055 
    5080     5066     5038     5008     4989     4992     4976     4904 
    4803     4683     4540     4392     4271     4183     4128     4112 
    4108     4079     4079     4166     4302     4442     4611     4837 
    5081     5270     5387     5487     5591     5657     5702     5740 
    5711     5605     5449     5220     4941     4689     4477     4266 
    4025     3771     3527     3280     3055     2907     2820     2736 
    2689     2700     2737     2825     2998     3238     3538     3879 
    4202     4477     4737     5003     5240     5391     5464     5501 
    5499     5462     5409     5337     5206     4990     4714     4473 
    4357     4347     4349     4325     4326     4388     4471     4553 
    4637     4692     4734     4791     4854     4931     5023     5104 
    5134     5107     5051     4973     4872     4762     4607     4386 
    4199     4163     4245     4324     4357     4421     4554     4708 
    4866     5059     5273     5467     5622     5738     5817     5868 
    5904     5903     5849     5760     5647     5512     5368     5236 
    5147     5080     4980     4850     4710     4549     4391     4280 
    4214     4131     4006     3894     3811     3721     3655     3659 
    3697     3724     3759     3861     4028     4205     4371     4549 
    4737     4927     5120     5323     5547     5784     5988     6135 
    6247     6291     6215     6053     5840     5572     5279     4996 
    4738     4523     4363     4239     4126     4052     4039     4014 
    3904     3754     3635     3565     3564     3623     3686     3731 
    3794     3892     4021     4180     4328     4409     4444     4541 
    4735     4926     5035     5100     5167     5262     5421     5640 
    5848     6010     6157     6282     6326     6276     6188     6112 
    6029     5890     5676     5428     5189     4974     4756     4499 
    4234     4031     3912     3844     3786     3707     3640     3650 
    3739     3855     3962     4059     4172     4282     4329     4320 
    4322     4372     4442     4500     4502     4429     4315     4193 
    4059     3900     3739     3636     3607     3588     3555     3554 
    3592     3624     3627     3642     3707     3827     3985     4149 
    4302     4444     4568     4669     4749     4819     4896     4976 
    5044     5098     5109     5054     4949     4804     4615     4422 
    4271     4151     4036     3906     3767     3657     3574     3483 
    3403     3366     3375     3453     3622     3842     4068     4275 
    4449     4577     4675     4816     5036     5255     5398     5455 
    5472     5498     5505     5435     5316     5204     5086     4941 
    4793     4646     4495     4384     4356     4383     4419     4468 
    4556     4700     4897     5127     5358     5548     5660     5687 
    5640     5545     5437     5306     5116     4887     4662     4469 
    4344     4291     4252     4189     4149     4152     4128     4054 
    3978     3920     3879     3874     3920     3994     4052     4079 
    4089     4099     4152     4263     4382     4453     4467     4436 
    4379     4342     4334     4311     4229     4097     3950     3797 
    3658     3558     3487     3420     3381     3384     3408     3447 
    3519     3645     3819     4008     4198     4418     4672     4909 
    5082     5193     5282     5366     5433     5463     5447     5391 
    5278     5116     4938     4722     4477     4249     4025     3824 
    3712     3709     3815     4013     4257     4523     4803     5094 
    5402     5679     5867     6004     6127     6168     6096     5976 
    5869     5771     5649     5482     5274     5073     4915     4765 
    4596     4448     4333     4218     4097     3996     3944     3943 
    3962     3979     3997     4033     4101     4176     4243     4307 
    4405     4538     4665     4727     4733     4729     4710     4671 
    4656     4689     4737     4772     4799     4814     4806     4801 
    4837     4885     4907     4915     4926     4916     4870     4792 
    4681     4554     4464     4442     4472     4513     4536     4540 
    4533     4529     4540     4565     4606     4652     4683     4693 
    4702     4727     4776     4801     4754     4679     4646     4661 
    4704     4733     4696     4633     4591     4550     4515     4503 
    4486     4483     4511     4548     4577     4591     4583     4587 
    4606     4600     4583     4596     4646     4710     4783     4880 
    4996     5093     5143     5147     5136     5138     5143     5143 
    5151     5169     5217     5304     5363     5366     5351     5305 
    5209     5109     5022     4911     4797     4730     4703     4685 
    4658     4598     4492     4410     4399     4413     4414     4428 
    4444     4449     4464     4483     4494     4482     4422     4324 
    4251     4222     4186     4129     4081     4044     4021     4021 
    4039     4044     4031     4040     4105     4199     4274     4313 
    4352     4409     4472     4546     4604     4598     4526     4425 
    4301     4163     4044     3970     3936     3900     3817     3736 
    3715     3746     3802     3885     3987     4074     4128     4189 
    4278     4387     4514     4644     4773     4907     5043     5161 
    5229     5262     5274     5258     5221     5152     4993     4765 
    4563     4394     4226     4060     3890     3743     3634     3516 
    3407     3381     3426     3488     3568     3667     3794     3956 
    4131     4291     4438     4568     4695     4826     4942     5019 
    5066     5098     5123     5135     5140     5142     5146     5155 
    5143     5090     5026     4968     4893     4793     4703     4638 
    4598     4591     4621     4685     4784     4880     4935     4955 
    4965     4965     4943     4896     4853     4827     4788     4726 
    4668     4594     4486     4382     4310     4280     4295     4324 
    4342     4367     4380     4374     4363     4333     4272     4195 
    4117     4045     3989     3970     4000     4055     4125     4232 
    4369     4511     4646     4776     4907     5053     5179     5217 
    5165     5082     4992     4897     4837     4808     4784     4766 
    4776     4810     4857     4920     4993     5042     5054     5054 
    5063     5067     5034     4972     4923     4888     4845     4812 
    4820     4868     4932     5001     5080     5146     5144     5066 
    4943     4777     4581     4380     4167     3932     3713     3566 
    3489     3454     3470     3520     3574     3676     3856     4086 
    4344     4596     4777     4889     4989     5109     5246     5359 
    5431     5475     5508     5535     5540     5510     5464     5421 
    5381     5347     5300     5212     5115     5031     4923     4776 
    4598     4383     4175     4021     3919     3859     3836     3828 
    3823     3820     3817     3835     3898     3987     4077     4168 
    4270     4334     4351     4384     4469     4568     4646     4685 
    4680     4673     4695     4727     4757     4796     4851     4923 
    4992     5053     5127     5206     5262     5297     5310     5286 
    5231     5178     5155     5152     5143     5101     5028     4974 
    4950     4892     4779     4664     4567     4490     4434     4367 
    4276     4189     4113     4059     4044     4040     3997     3905 
    3775     3620     3453     3269     3065     2864     2698     2593 
    2565     2624     2754     2917     3087     3262     3451     3661 
    3871     4043     4162     4256     4342     4422     4523     4648 
    4747     4788     4788     4792     4835     4919     4985     5003 
    5003     5016     5026     5004     4958     4914     4864     4800 
    4750     4723     4693     4662     4646     4635     4614     4606 
    4635     4677     4704     4730     4745     4723     4687     4656 
    4619     4581     4554     4540     4537     4548     4557     4541 
    4498     4459     4452     4491     4552     4588     4573     4531 
    4511     4522     4553     4585     4600     4612     4644     4673 
    4699     4735     4756     4749     4757     4801     4839     4830 
    4776     4698     4625     4590     4568     4511     4434     4388 
    4380     4384     4365     4324     4280     4247     4225     4225 
    4240     4263     4307     4380     4468     4579     4734     4912 
    5076     5228     5367     5464     5522     5559     5572     5567 
    5537     5483     5427     5385     5350     5309     5248     5150 
    5011     4861     4743     4668     4599     4510     4418     4357 
    4322     4293     4278     4291     4322     4365     4426     4480 
    4509     4517     4517     4541     4606     4672     4696     4685 
    4666     4680     4745     4816     4822     4764     4693     4627 
    4588     4617     4685     4754     4833     4918     4989     5050 
    5077     5051     5026     5022     5004     4958     4877     4749 
    4596     4468     4398     4367     4338     4298     4252     4209 
    4179     4153     4141     4183     4252     4279     4278     4294 
    4326     4371     4421     4460     4472     4463     4437     4396 
    4349     4307     4280     4260     4226     4178     4121     4048 
    3956     3878     3851     3866     3901     3946     3990     4041 
    4122     4224     4325     4432     4538     4630     4737     4864 
    4972     5040     5090     5147     5220     5274     5292     5289 
    5271     5246     5204     5128     5043     4993     4977     4978 
    5001     5051     5097     5100     5062     5009     4973     4969 
    4989     5019     5032     5011     4973     4946     4943     4962 
    5000     5043     5073     5084     5073     5031     4961     4889 
    4833     4776     4689     4563     4419     4291     4185     4101 
    4027     3932     3808     3696     3631     3620     3658     3720 
    3770     3808     3848     3889     3940     4016     4093     4139 
    4141     4116     4071     4009     3955     3929     3942     3990 
    4045     4067     4068     4086     4122     4176     4241     4283 
    4268     4206     4132     4083     4068     4072     4098     4171 
    4283     4394     4484     4552     4614     4695     4785     4870 
    4934     4949     4909     4846     4803     4793     4772     4706 
    4622     4537     4448     4363     4282     4210     4175     4195 
    4243     4287     4340     4417     4495     4540     4564     4623 
    4720     4815     4900     4985     5049     5085     5108     5113 
    5108     5101     5080     5051     5026     5008     5007     5004 
    4970     4915     4850     4789     4764     4769     4781     4814 
    4854     4861     4835     4820     4827     4842     4845     4830 
    4812     4799     4797     4801     4781     4739     4702     4662 
    4604     4541     4487     4430     4345     4261     4234     4252 
    4267     4261     4247     4228     4213     4203     4178     4141 
    4145     4203     4264     4305     4356     4418     4453     4460 
    4473     4527     4626     4727     4800     4823     4792     4742 
    4712     4687     4648     4611     4581     4544     4495     4440 
    4391     4371     4371     4360     4330     4322     4364     4426 
    4467     4483     4490     4491     4487     4464     4411     4361 
    4351     4360     4364     4359     4344     4329     4344     4398 
    4492     4604     4684     4720     4731     4723     4695     4654 
    4623     4595     4556     4537     4561     4603     4635     4656 
    4671     4698     4752     4804     4816     4801     4792     4788 
    4765     4725     4693     4680     4677     4685     4691     4673 
    4654     4653     4653     4641     4614     4564     4494     4423 
    4372     4310     4210     4104     4028     3979     3971     4004 
    4031     4044     4071     4122     4199     4306     4419     4523 
    4633     4745     4839     4896     4930     4980     5062     5144 
    5201     5217     5193     5169     5152     5109     5040     4961 
    4878     4793     4698     4599     4521     4459     4414     4380 
    4345     4314     4298     4280     4244     4194     4131     4047 
    3960     3886     3817     3763     3743     3761     3816     3908 
    4017     4135     4266     4418     4599     4799     4988     5143 
    5267     5359     5421     5464     5487     5489     5468     5417 
    5347     5283     5239     5200     5166     5139     5105     5047 
    4978     4908     4835     4750     4658     4579     4514     4467 
    4452     4464     4486     4514     4569     4648     4734     4820 
    4878     4885     4882     4907     4934     4934     4928     4935 
    4924     4873     4799     4735     4712     4716     4699     4665 
    4652     4665     4684     4689     4673     4644     4606     4569 
    4554     4556     4541     4488     4411     4334     4284     4274 
    4275     4263     4230     4199     4205     4239     4261     4252 
    4212     4164     4155     4199     4272     4332     4355     4355 
    4363     4378     4382     4380     4390     4398     4374     4315 
    4234     4140     4079     4060     4032     3987     3948     3905 
    3863     3840     3836     3850     3881     3906     3929     3974 
