Origin Time       2025/01/13 21:19:00
Lat.              31.8
Long.             131.6
Depth. (km)       30
Mag.              6.9
Station Code      HRS007
Station Lat.      34.7029
Station Long.     133.0886
Station Height(m) 387
Record Time       2025/01/13 21:21:23
Sampling Freq(Hz) 100Hz
Duration Time(s)  60
Dir.              U-D
Scale Factor      7845(gal)/8223790
Max. Acc. (gal)   0.819
Last Correction   2025/01/13 21:21:23
Memo.             
   11395    11414    11435    11469    11507    11549    11591    11614 
   11616    11618    11615    11592    11554    11524    11520    11523 
   11514    11502    11506    11524    11546    11578    11627    11668 
   11697    11727    11738    11719    11696    11696    11704    11701 
   11697    11712    11740    11755    11749    11746    11746    11728 
   11713    11713    11712    11707    11701    11691    11669    11643 
   11620    11599    11573    11560    11570    11595    11619    11641 
   11658    11676    11699    11716    11722    11715    11701    11677 
   11650    11626    11592    11554    11526    11502    11476    11469 
   11488    11515    11533    11543    11556    11550    11520    11488 
   11462    11445    11448    11469    11507    11556    11605    11651 
   11685    11713    11739    11761    11790    11832    11862    11870 
   11873    11869    11844    11805    11776    11770    11777    11770 
   11761    11769    11782    11782    11774    11776    11772    11753 
   11736    11726    11704    11668    11643    11646    11653    11645 
   11645    11651    11645    11626    11615    11620    11639    11653 
   11647    11635    11626    11604    11564    11516    11483    11468 
   11461    11454    11448    11434    11419    11421    11429    11433 
   11438    11446    11443    11437    11442    11456    11464    11454 
   11439    11433    11427    11421    11423    11437    11460    11493 
   11519    11535    11549    11556    11554    11553    11542    11541 
   11557    11561    11546    11524    11512    11510    11492    11466 
   11468    11499    11533    11561    11592    11611    11604    11595 
   11601    11607    11608    11615    11628    11639    11638    11635 
   11641    11639    11627    11626    11634    11628    11611    11604 
   11604    11601    11610    11632    11649    11666    11692    11712 
   11719    11719    11713    11695    11661    11622    11597    11589 
   11573    11545    11531    11534    11537    11538    11535    11530 
   11526    11524    11523    11533    11557    11578    11577    11561 
   11547    11533    11506    11460    11410    11373    11345    11317 
   11298    11290    11291    11294    11295    11306    11330    11358 
   11381    11399    11404    11399    11383    11377    11384    11385 
   11391    11412    11438    11465    11492    11506    11502    11488 
   11468    11433    11398    11380    11379    11379    11379    11400 
   11443    11484    11515    11553    11592    11611    11604    11599 
   11588    11557    11530    11519    11512    11504    11493    11477 
   11476    11491    11507    11516    11518    11518    11523    11527 
   11530    11547    11578    11600    11610    11619    11631    11634 
   11623    11595    11570    11568    11574    11573    11584    11626 
   11676    11707    11720    11723    11724    11723    11719    11713 
   11699    11677    11664    11653    11635    11618    11597    11587 
   11587    11581    11572    11561    11568    11603    11638    11659 
   11669    11662    11647    11641    11637    11634    11628    11619 
   11610    11604    11595    11580    11562    11558    11574    11601 
   11632    11655    11674    11705    11740    11758    11757    11759 
   11766    11755    11727    11699    11677    11657    11637    11627 
   11632    11632    11624    11630    11649    11654    11647    11653 
   11672    11673    11654    11646    11658    11666    11665    11666 
   11672    11664    11638    11615    11593    11572    11566    11581 
   11603    11632    11673    11718    11757    11785    11812    11842 
   11863    11873    11873    11873    11875    11874    11871    11874 
   11880    11871    11854    11844    11839    11830    11827    11828 
   11834    11830    11801    11770    11753    11736    11720    11709 
   11695    11673    11658    11643    11620    11604    11599    11595 
   11588    11588    11591    11595    11599    11597    11585    11569 
   11547    11527    11531    11554    11570    11578    11589    11604 
   11614    11620    11628    11638    11645    11654    11658    11650 
   11639    11631    11615    11589    11570    11565    11570    11578 
   11587    11600    11620    11632    11634    11635    11645    11655 
   11661    11661    11647    11628    11622    11623    11620    11612 
   11610    11611    11607    11601    11588    11564    11543    11533 
   11535    11542    11546    11562    11595    11627    11654    11673 
   11686    11697    11699    11688    11681    11680    11672    11669 
   11677    11680    11681    11685    11682    11661    11637    11620 
   11610    11587    11560    11539    11510    11461    11407    11362 
   11335    11313    11288    11265    11241    11223    11225    11234 
   11238    11236    11223    11205    11186    11169    11159    11155 
   11165    11188    11209    11225    11240    11257    11284    11314 
   11344    11379    11411    11433    11445    11457    11468    11476 
   11479    11484    11493    11499    11495    11479    11465    11454 
   11438    11427    11430    11443    11456    11466    11479    11499 
   11524    11551    11581    11607    11630    11664    11709    11743 
   11769    11801    11844    11886    11916    11938    11951    11951 
   11934    11915    11904    11882    11853    11830    11807    11773 
   11742    11718    11686    11642    11596    11553    11511    11475 
   11446    11430    11427    11427    11425    11439    11472    11504 
   11530    11554    11573    11583    11577    11564    11560    11558 
   11547    11537    11539    11539    11524    11511    11510    11504 
   11484    11461    11448    11437    11412    11379    11349    11322 
   11287    11252    11221    11192    11175    11160    11142    11136 
   11140    11149    11156    11157    11168    11188    11207    11219 
   11226    11238    11250    11248    11237    11237    11245    11254 
   11272    11292    11322    11362    11400    11437    11477    11512 
   11538    11560    11591    11620    11638    11659    11688    11713 
   11734    11753    11769    11761    11732    11704    11670    11624 
   11577    11537    11508    11491    11472    11454    11453    11470 
   11496    11522    11551    11585    11605    11607    11610    11620 
   11630    11639    11654    11672    11689    11699    11697    11695 
   11697    11696    11696    11701    11709    11723    11751    11780 
   11794    11797    11803    11817    11830    11834    11843    11861 
   11877    11886    11893    11902    11915    11927    11928    11917 
   11915    11924    11924    11920    11931    11947    11954    11961 
   11974    11986    11994    12008    12033    12064    12096    12120 
   12129    12133    12148    12170    12182    12189    12197    12195 
   12179    12156    12137    12114    12085    12055    12017    11975 
   11939    11912    11889    11869    11847    11823    11793    11758 
   11727    11700    11676    11653    11631    11607    11583    11560 
   11537    11511    11489    11469    11445    11425    11410    11389 
   11358    11327    11311    11314    11323    11333    11340    11334 
   11329    11327    11317    11302    11299    11292    11280    11273 
   11265    11253    11248    11259    11276    11291    11298    11306 
   11323    11338    11338    11329    11321    11315    11306    11290 
   11275    11277    11277    11263    11250    11253    11253    11238 
   11230    11236    11241    11245    11259    11269    11269    11265 
   11261    11261    11265    11271    11269    11268    11259    11244 
   11227    11205    11180    11160    11138    11122    11115    11117 
   11124    11132    11146    11172    11198    11225    11259    11296 
   11323    11342    11369    11400    11429    11446    11462    11488 
   11506    11516    11541    11572    11599    11626    11658    11691 
   11726    11761    11790    11817    11839    11853    11866    11885 
   11896    11898    11897    11901    11911    11920    11927    11928 
   11925    11932    11951    11973    11983    11982    11988    12000 
   12009    12020    12024    12009    11985    11958    11920    11880 
   11840    11800    11766    11742    11720    11697    11666    11634 
   11611    11587    11562    11542    11520    11495    11479    11470 
   11456    11437    11421    11402    11380    11368    11365    11368 
   11371    11376    11387    11398    11411    11431    11452    11462 
   11466    11476    11492    11515    11553    11611    11672    11718 
   11758    11800    11842    11875    11905    11935    11958    11965 
   11965    11962    11947    11923    11907    11893    11867    11830 
   11808    11801    11785    11763    11751    11749    11746    11739 
   11724    11705    11688    11682    11673    11655    11650    11655 
   11653    11650    11662    11678    11691    11705    11731    11759 
   11781    11807    11836    11869    11900    11923    11938    11944 
   11936    11915    11889    11865    11842    11820    11796    11767 
   11732    11693    11657    11615    11568    11531    11512    11503 
   11493    11485    11483    11483    11476    11468    11457    11438 
   11423    11422    11429    11430    11419    11408    11410    11406 
   11389    11373    11364    11367    11377    11388    11385    11376 
   11372    11362    11345    11330    11313    11294    11279    11268 
   11249    11223    11200    11183    11164    11142    11126    11117 
   11110    11098    11082    11064    11047    11032    11025    11030 
   11044    11064    11082    11095    11113    11126    11136    11151 
   11167    11183    11206    11233    11257    11291    11335    11383 
   11418    11449    11487    11527    11556    11577    11599    11618 
   11638    11645    11632    11619    11603    11574    11542    11507 
   11461    11408    11364    11330    11299    11264    11241    11240 
   11250    11265    11288    11323    11353    11372    11394    11411 
   11418    11427    11441    11452    11456    11450    11439    11425 
   11402    11373    11352    11338    11329    11337    11360    11388 
   11423    11479    11535    11584    11639    11703    11759    11813 
   11869    11917    11959    12002    12051    12100    12136    12163 
   12187    12209    12228    12245    12260    12274    12290    12307 
   12328    12353    12375    12394    12418    12437    12438    12425 
   12402    12375    12340    12294    12248    12208    12170    12133 
   12094    12059    12036    12016    11989    11965    11944    11921 
   11892    11861    11831    11800    11765    11718    11666    11628 
   11601    11572    11535    11504    11488    11470    11448    11429 
   11418    11406    11392    11383    11371    11348    11317    11287 
   11271    11271    11269    11252    11240    11237    11227    11214 
   11202    11191    11187    11191    11199    11209    11221    11236 
   11254    11269    11277    11286    11295    11307    11319    11327 
   11338    11360    11385    11406    11412    11411    11416    11421 
   11418    11419    11421    11412    11396    11377    11360    11338 
   11308    11276    11242    11209    11187    11176    11173    11180 
   11195    11217    11248    11286    11327    11369    11407    11445 
   11485    11520    11549    11573    11599    11627    11650    11657 
   11654    11649    11638    11628    11620    11607    11587    11566 
   11554    11547    11533    11518    11519    11522    11519    11514 
   11515    11516    11510    11503    11497    11496    11507    11526 
   11538    11554    11580    11611    11637    11658    11682    11719 
   11754    11776    11794    11816    11838    11857    11873    11882 
   11889    11902    11919    11927    11925    11934    11955    11977 
   11996    12010    12024    12039    12040    12029    12019    12001 
   11967    11931    11900    11865    11824    11785    11747    11709 
   11678    11653    11628    11619    11624    11630    11631    11632 
   11631    11628    11630    11634    11645    11662    11684    11709 
   11732    11747    11758    11772    11790    11812    11840    11867 
   11886    11902    11921    11943    11970    11998    12023    12040 
   12051    12059    12063    12051    12025    11994    11965    11928 
   11875    11816    11763    11716    11670    11630    11603    11587 
   11569    11546    11523    11504    11487    11468    11449    11431 
   11415    11396    11375    11349    11317    11279    11238    11195 
   11146    11103    11067    11030    11002    10993    10991    10991 
   11003    11024    11045    11064    11076    11083    11091    11095 
   11098    11103    11113    11117    11118    11121    11125    11130 
   11141    11148    11157    11171    11183    11195    11214    11229 
   11237    11248    11257    11261    11265    11267    11261    11261 
   11269    11276    11284    11311    11357    11408    11465    11527 
   11585    11634    11674    11703    11713    11716    11716    11723 
   11731    11728    11719    11711    11701    11685    11674    11666 
   11650    11628    11610    11593    11573    11547    11523    11507 
   11493    11475    11454    11431    11406    11388    11379    11373 
   11372    11380    11399    11426    11458    11488    11512    11539 
   11570    11605    11639    11673    11708    11745    11778    11813 
   11844    11870    11893    11921    11958    11990    12008    12019 
   12039    12066    12089    12105    12118    12133    12135    12124 
   12112    12097    12074    12048    12025    12009    11988    11961 
   11940    11929    11919    11901    11881    11855    11828    11800 
   11774    11754    11738    11716    11695    11680    11666    11657 
   11650    11637    11627    11618    11601    11581    11566    11550 
   11529    11506    11492    11477    11450    11422    11392    11357 
   11317    11277    11236    11192    11156    11121    11084    11056 
   11030    11006    10991    10987    10994    11014    11041    11075 
   11114    11146    11178    11213    11249    11281    11314    11348 
   11383    11419    11454    11489    11523    11560    11597    11635 
   11674    11708    11726    11731    11731    11726    11707    11684 
   11668    11657    11651    11655    11668    11680    11695    11713 
   11740    11773    11811    11854    11898    11943    11989    12027 
   12058    12089    12123    12154    12174    12183    12187    12191 
   12187    12168    12139    12100    12048    11989    11931    11875 
   11811    11738    11664    11593    11531    11472    11408    11344 
   11281    11219    11157    11092    11026    10967    10920    10871 
   10831    10804    10790    10797    10818    10845    10881    10925 
   10984    11049    11119    11194    11269    11348    11433    11514 
   11591    11672    11754    11823    11884    11939    11982    12013 
   12037    12052    12054    12048    12036    12020    12006    11992 
   11971    11955    11944    11931    11920    11908    11893    11889 
   11889    11889    11897    11909    11915    11921    11927    11924 
   11925    11934    11944    11965    11990    12017    12047    12067 
   12073    12074    12069    12054    12029    12002    11966    11925 
   11888    11853    11820    11789    11759    11724    11688    11651 
   11607    11557    11514    11477    11435    11388    11348    11313 
   11279    11248    11223    11206    11196    11196    11200    11205 
   11215    11234    11253    11271    11292    11322    11354    11385 
   11415    11439    11458    11473    11489    11504    11518    11531 
   11549    11573    11604    11643    11682    11724    11770    11820 
   11866    11897    11924    11955    11981    11990    11992    11997 
   11990    11958    11920    11885    11847    11809    11770    11726 
   11693    11677    11670    11655    11638    11631    11631    11624 
   11612    11608    11615    11618    11618    11630    11635    11627 
   11614    11593    11562    11526    11483    11431    11375    11310 
   11242    11183    11130    11078    11036    11006    10976    10941 
   10921    10918    10924    10939    10967    11006    11053    11111 
   11178    11242    11295    11348    11404    11452    11488    11523 
   11558    11583    11591    11587    11573    11556    11535    11512 
   11495    11481    11472    11468    11466    11458    11448    11442 
   11442    11449    11462    11475    11488    11508    11530    11551 
   11572    11593    11618    11637    11646    11653    11658    11659 
   11662    11672    11680    11676    11665    11658    11649    11638 
   11627    11611    11591    11572    11556    11539    11531    11531 
   11538    11550    11565    11583    11600    11614    11627    11639 
   11645    11642    11641    11645    11645    11641    11642    11650 
   11654    11654    11658    11658    11649    11638    11628    11622 
   11608    11588    11569    11556    11543    11534    11531    11530 
   11526    11526    11534    11542    11547    11551    11553    11543 
   11526    11510    11493    11473    11448    11421    11391    11362 
   11334    11294    11250    11213    11178    11144    11122    11106 
   11094    11090    11094    11109    11128    11146    11165    11191 
   11221    11252    11281    11313    11349    11389    11422    11446 
   11473    11504    11537    11566    11595    11622    11655    11692 
   11724    11753    11778    11799    11819    11836    11846    11850 
   11854    11851    11843    11835    11828    11823    11817    11815 
   11816    11821    11828    11835    11844    11853    11851    11843 
   11836    11831    11824    11815    11805    11800    11799    11801 
   11797    11792    11789    11781    11770    11759    11746    11732 
   11722    11712    11709    11713    11723    11730    11728    11720 
   11705    11685    11662    11635    11608    11591    11577    11565 
   11557    11549    11545    11549    11550    11541    11533    11526 
   11520    11510    11497    11485    11480    11473    11466    11460 
   11454    11454    11452    11442    11430    11414    11392    11377 
   11379    11387    11395    11407    11422    11433    11442    11445 
   11448    11452    11457    11468    11485    11502    11512    11522 
   11537    11556    11572    11578    11581    11584    11587    11589 
   11584    11580    11585    11588    11583    11576    11573    11570 
   11569    11569    11568    11564    11561    11561    11557    11553 
   11553    11553    11554    11556    11560    11566    11570    11570 
   11570    11572    11572    11565    11561    11566    11568    11561 
   11561    11566    11560    11545    11530    11516    11507    11504 
   11510    11514    11512    11514    11522    11533    11538    11542 
   11550    11564    11574    11580    11584    11585    11588    11585 
   11577    11569    11565    11561    11560    11562    11565    11573 
   11587    11603    11624    11651    11681    11709    11736    11758 
   11776    11797    11820    11838    11853    11865    11869    11869 
   11873    11875    11870    11863    11863    11862    11857    11850 
   11843    11826    11805    11790    11774    11753    11730    11707 
   11678    11643    11614    11588    11562    11535    11511    11489 
