Origin Time       2025/01/13 21:19:00
Lat.              31.8
Long.             131.6
Depth. (km)       30
Mag.              6.9
Station Code      HRS014
Station Lat.      34.2864
Station Long.     132.2765
Station Height(m) 3
Record Time       2025/01/13 21:20:31
Sampling Freq(Hz) 100Hz
Duration Time(s)  106
Dir.              E-W
Scale Factor      7845(gal)/8223790
Max. Acc. (gal)   7.054
Last Correction   2025/01/13 21:20:30
Memo.             
[...]
     274      145      -36     -278     -510     -693     -873    -1038 
   -1093    -1034     -970     -970    -1011    -1026     -926     -641 
    -167      413      967     1397     1676     1825     1876     1841 
    1719     1540     1287      932      538      198      -52     -186 
    -201     -205     -298     -477     -697     -934    -1131    -1251 
   -1317    -1301    -1170    -1000     -842     -697     -604     -561 
    -473     -292      -68      148      360      537      648      695 
     673      596      499      392      302      271      288      332 
     379      452      557      621      629      602      503      388 
     356      338      268      199      114      -60     -305     -523 
    -675     -783     -830     -766     -645     -552     -467     -338 
    -153       95      392      699     1021     1313     1498     1584 
    1553     1354     1055      768      494      206      -72     -321 
    -494     -533     -423     -201       76      322      467      531 
     568      549      437      256       54     -148     -310     -403 
    -453     -508     -611     -772     -912     -969     -985     -972 
    -869     -712     -558     -346      -91       78      156      253 
     390      453      373      184      -51     -298     -511     -637 
    -681     -703     -692     -633     -531     -365     -159       54 
     288      521      708      899     1134     1350     1466     1458 
    1318     1094      866      657      477      378      346      315 
     241      144       93       72       -4     -218     -549     -877 
   -1150    -1333    -1348    -1206     -988     -764     -594     -484 
    -361     -120      260      684     1040     1274     1398     1491 
    1595     1664     1642     1534     1405     1329     1309     1297 
    1275     1186      949      553       75     -369     -687     -861 
    -930     -938     -918     -924     -984    -1050    -1116    -1216 
   -1350    -1522    -1678    -1753    -1753    -1644    -1382    -1055 
    -756     -459     -186      -32       66      255      550      884 
    1220     1555     1852     2054     2110     2002     1780     1503 
    1198      928      724      553      444      432      437      407 
     387      376      318      175      -63     -402     -814    -1224 
   -1555    -1761    -1834    -1833    -1852    -1871    -1840    -1794 
   -1707    -1512    -1194     -742     -184      346      739      990 
    1165     1287     1312     1243     1183     1217     1323     1429 
    1478     1466     1385     1169      850      552      290        9 
    -240     -398     -514     -610     -641     -603     -535     -422 
    -232        1      228      464      745     1048     1296     1412 
    1399     1296     1094      810      503      221      -29     -251 
    -432     -557     -641     -742     -904    -1089    -1263    -1432 
   -1572    -1657    -1703    -1706    -1622    -1482    -1389    -1404 
   -1466    -1464    -1404    -1340    -1206     -982     -780     -637 
    -511     -409     -310     -167        6      168      282      319 
     353      463      607      753      950     1212     1441     1578 
    1671     1776     1900     2065     2296     2569     2851     3100 
    3235     3199     2975     2539     1908     1158      337     -508 
   -1275    -1846    -2173    -2308    -2347    -2330    -2250    -2146 
   -2066    -1992    -1906    -1836    -1756    -1620    -1440    -1242 
    -996     -729     -530     -421     -349     -295     -248     -159 
      74      507     1063     1653     2222     2667     2895     2899 
    2724     2457     2164     1834     1460     1044      572      103 
    -249     -454     -552     -546     -403     -209     -103      -93 
    -114     -140     -156     -191     -282     -419     -560     -625 
    -540     -378     -306     -342     -400     -481     -589     -626 
    -514     -287      -27      237      459      622      807     1030 
    1205     1283     1243     1098      909      710      487      252 
      18     -201     -360     -386     -283     -141      -22       59 
      48     -116     -394     -688     -961    -1194    -1375    -1544 
   -1738    -1966    -2189    -2326    -2308    -2138    -1850    -1435 
    -907     -387       79      527      918     1237     1545     1787 
    1861     1807     1649     1385     1148      996      832      684 
     594      514      531      733      973     1084     1059      967 
     849      723      626      594      525      271     -136     -542 
    -880    -1217    -1599    -1923    -2150    -2330    -2350    -2026 
   -1391     -700     -179      144      279      184      -31     -230 
    -465     -769    -1066    -1381    -1726    -1912    -1734    -1248 
    -693     -183      279      662      904      990     1053     1192 
    1260     1085      715      353      124      -13     -136     -245 
    -299     -234       21      460      938     1278     1491     1642 
    1686     1633     1557     1429     1165      714      112     -523 
   -1077    -1443    -1561    -1532    -1468    -1390    -1323    -1271 
   -1224    -1216    -1242    -1233    -1215    -1240    -1206    -1026 
    -812     -657     -591     -643     -738     -772     -706     -575 
    -513     -531     -537     -552     -531     -369      -95      197 
     399      545      737      847      780      564      126     -480 
   -1077    -1547    -1707    -1448     -820       55      903     1439 
    1653     1648     1487     1233      943      696      545      446 
     396      371      240      -27     -359     -666     -850     -957 
   -1057    -1101    -1129    -1193    -1243    -1305    -1366    -1345 
   -1275    -1177    -1078    -1071    -1136    -1173    -1081     -787 
    -365      145      824     1561     2180     2578     2683     2539 
    2224     1783     1317      916      608      440      386      349 
     318      365      533      789     1078     1390     1664     1783 
    1782     1755     1719     1703     1710     1682     1663     1736 
    1895     2101     2242     2226     2070     1771     1364      877 
     286     -241     -615     -976    -1269    -1426    -1561    -1672 
   -1717    -1679    -1526    -1320    -1077     -765     -492     -328 
    -220     -102       27       66       32       63      199      444 
     751      985     1107     1135     1061      922      735      538 
     392      236       62      -28      -31       78      324      533 
     591      518      237     -253     -739    -1097    -1418    -1783 
   -2112    -2336    -2473    -2443    -2188    -1876    -1661    -1544 
   -1505    -1552    -1675    -1772    -1725    -1574    -1393    -1175 
    -918     -604     -252      112      535     1038     1644     2363 
    3063     3600     3959     4170     4253     4197     4037     3859 
    3670     3495     3403     3352     3219     2957     2627     2350 
    2173     2068     2010     1908     1636     1148      504     -206 
    -932    -1644    -2292    -2824    -3154    -3245    -3192    -3079 
   -2940    -2812    -2694    -2597    -2509    -2403    -2296    -2174 
   -1945    -1586    -1132     -623     -126      268      518      626 
     675      754      831      864      909     1039     1240     1456 
    1679     1904     2066     2165     2274     2346     2319     2215 
    2042     1794     1489     1185      976      851      724      575 
     454      402      390      342      265      168        2     -180 
    -360     -633     -938    -1165    -1328    -1431    -1489    -1483 
   -1351    -1189    -1120    -1113    -1155    -1266    -1374    -1429 
   -1437    -1410    -1374    -1297    -1247    -1364    -1557    -1671 
   -1715    -1723    -1711    -1652    -1444    -1075     -629     -184 
     156      336      387      383      448      708     1219     1907 
    2540     2879     2920     2751     2450     2114     1788     1471 
    1182      958      868      947     1142     1345     1444     1350 
    1111      855      662      523      371      137     -162     -487 
    -837    -1197    -1514    -1726    -1844    -1975    -2172    -2361 
   -2438    -2336    -2100    -1806    -1466    -1111     -799     -522 
    -279      -70      120      216      164       44      -67     -148 
    -175     -157     -155     -263     -508     -776     -932     -955 
    -881     -719     -419       28      514      973     1379     1634 
    1705     1714     1783     1883     1944     1992     2046     2022 
    1871     1628     1318      982      645      278      -93     -411 
    -657     -795     -804     -780     -812     -889    -1023    -1242 
   -1453    -1483    -1283    -1020     -868     -832     -851     -849 
    -785     -737     -777     -864     -951     -999     -907     -641 
    -328      -32      325      703     1030     1372     1686     1692 
    1317      912      692      454       85     -251     -402     -378 
    -299     -253     -229     -261     -375     -396     -225      -74 
    -116     -245     -383     -595     -784     -731     -461     -160 
     140      585     1209     1842     2296     2519     2606     2644 
    2620     2573     2594     2606     2451     2114     1664     1170 
     681      168     -433    -1073    -1595    -1914    -2079    -2157 
   -2177    -2158    -2104    -2003    -1872    -1767    -1730    -1730 
   -1696    -1595    -1487    -1468    -1566    -1740    -1904    -1948 
   -1822    -1579    -1270     -928     -622     -396     -232     -126 
    -103     -110      -93      -95     -166     -361     -756    -1275 
   -1763    -2104    -2212    -2089    -1865    -1615    -1308     -946 
    -542      -93      310      592      766      841      851      812 
     680      492      291       66     -129     -251     -302     -247 
     -98        1      -45     -203     -418     -642     -795     -837 
    -835     -897    -1050    -1282    -1587    -1881    -2042    -1995 
   -1723    -1308     -874     -483     -110      259      606      859 
     924      804      596      410      329      359      411      427 
     411      336      130     -213     -616     -943    -1086    -1038 
    -841     -575     -330     -152      -37       12      -32     -172 
    -369     -581     -765     -892     -965     -959     -882     -781 
    -604     -317       -4      324      707     1084     1368     1501 
    1478     1389     1305     1277     1352     1505     1721     2022 
    2365     2670     2871     2907     2789     2597     2408     2263 
    2141     1962     1645     1201      756      410      216      233 
     398      571      718      851      943      967      895      733 
     503      199     -149     -446     -658     -828     -959    -1007 
    -958     -858     -742     -616     -542     -567     -633     -718 
    -845     -996    -1151    -1240    -1185     -993     -688     -332 
     -16      255      529      781      962     1075     1152     1188 
    1150     1046      931      805      637      448      236      -10 
    -260     -583    -1063    -1576    -1973    -2185    -2122    -1807 
   -1378     -903     -432      -47      166      156       -6     -222 
    -438     -584     -653     -738     -851     -924     -943     -903 
    -807     -692     -529     -313     -106       94      349      666 
    1005     1317     1587     1818     1991     2107     2168     2119 
    1944     1645     1236      838      517      220       -2      -68 
      -9      144      395      718     1075     1435     1746     1917 
    1875     1728     1647     1702     1930     2304     2702     3029 
    3245     3312     3240     3057     2786     2430     1953     1389 
     797      164     -465     -942    -1177    -1177    -1063    -1024 
   -1159    -1452    -1803    -2081    -2223    -2199    -1976    -1609 
   -1273    -1125    -1156    -1216    -1167     -946     -569     -137 
     267      648     1062     1514     1912     2147     2195     2101 
    1884     1552     1189      846      494      145     -168     -494 
    -849    -1194    -1545    -1979    -2457    -2855    -3180    -3460 
   -3582    -3483    -3260    -2999    -2754    -2579    -2458    -2299 
   -2046    -1702    -1323     -949     -550     -139      190      329 
     232      -63     -475     -878    -1193    -1466    -1730    -1966 
   -2218    -2479    -2679    -2845    -3045    -3237    -3370    -3416 
   -3346    -3168    -2907    -2570    -2172    -1732    -1246     -746 
    -280      136      546     1027     1588     2192     2799     3358 
    3820     4191     4479     4673     4741     4675     4514     4251 
    3863     3418     2943     2396     1803     1197      579      -16 
    -541     -954    -1204    -1296    -1306    -1289    -1290    -1336 
   -1356    -1243     -947     -511       -1      546     1077     1539 
    1965     2396     2786     3119     3393     3568     3673     3754 
    3789     3762     3650     3407     3060     2709     2417     2170 
    1929     1699     1512     1347     1182     1007      788      521 
     226      -63     -355     -675    -1008    -1294    -1505    -1634 
   -1642    -1482    -1158     -696     -140      440      992     1530 
    2085     2651     3208     3731     4156     4394     4386     4168 
    3834     3423     2947     2458     2020     1636     1263      850 
     351     -283    -1096    -2034    -2983    -3897    -4781    -5587 
   -6241    -6735    -7087    -7302    -7372    -7291    -7099    -6883 
   -6675    -6446    -6183    -5881    -5524    -5076    -4545    -3963 
   -3322    -2629    -1964    -1345     -724      -93      522     1120 
    1686     2172     2560     2866     3063     3119     3052     2884 
    2656     2408     2133     1825     1514     1185      783      298 
    -238     -765    -1231    -1621    -1948    -2235    -2473    -2631 
   -2729    -2822    -2956    -3141    -3325    -3447    -3488    -3449 
   -3334    -3148    -2905    -2601    -2232    -1798    -1313     -799 
    -256      302      857     1379     1813     2176     2524     2841 
    3161     3549     3951     4321     4669     4931     5059     5116 
    5150     5159     5144     5123     5130     5151     5155     5132 
    5059     4893     4638     4333     4009     3680     3345     3071 
    2943     2940     2990     3038     3033     2918     2662     2261 
    1732     1082      336     -461    -1275    -2066    -2783    -3387 
   -3827    -4091    -4217    -4193    -4004    -3703    -3321    -2840 
   -2276    -1683    -1092     -531      -94      147      229      171 
     -16     -232     -425     -612     -766     -918    -1120    -1359 
   -1645    -1996    -2342    -2629    -2884    -3160    -3468    -3785 
   -4079    -4314    -4450    -4487    -4433    -4302    -4120    -3900 
   -3645    -3372    -3083    -2729    -2304    -1884    -1520    -1165 
    -746     -294      132      541      942     1339     1771     2223 
    2621     2934     3172     3337     3411     3364     3173     2835 
    2381     1872     1371      957      700      622      697      876 
    1085     1287     1470     1572     1560     1468     1293      984 
     560       90     -365     -797    -1219    -1602    -1925    -2200 
   -2420    -2585    -2682    -2689    -2666    -2687    -2763    -2902 
   -3038    -3028    -2852    -2579    -2197    -1690    -1127     -579 
    -105      214      361      391      344      257      210      279 
     475      770     1146     1548     1894     2131     2243     2228 
    2135     2014     1858     1655     1406     1171     1032     1020 
    1112     1274     1480     1703     1894     2042     2170     2254 
    2265     2215     2108     1934     1709     1462     1212      958 
     734      585      510      475      484      531      600      670 
     712      712      658      527      341      147      -35     -195 
    -314     -414     -568     -800    -1100    -1444    -1760    -1999 
   -2166    -2250    -2259    -2238    -2197    -2128    -2035    -1956 
   -1914    -1926    -2046    -2272    -2515    -2721    -2872    -2903 
   -2775    -2533    -2243    -1891    -1431     -865     -216      504 
    1250     1962     2623     3244     3825     4348     4787     5116 
    5325     5429     5443     5377     5242     5013     4691     4305 
    3867     3360     2767     2083     1317      541     -160     -761 
   -1237    -1541    -1725    -1899    -2108    -2384    -2778    -3246 
   -3670    -4006    -4259    -4414    -4491    -4519    -4477    -4351 
   -4185    -3982    -3713    -3373    -2960    -2506    -2058    -1602 
   -1097     -537       33      584     1123     1653     2127     2512 
    2805     2991     3098     3195     3322     3503     3731     3952 
    4102     4149     4086     3935     3730     3466     3129     2749 
    2394     2092     1844     1660     1528     1395     1240     1063 
     862      660      496      376      265      135      -36     -234 
    -411     -527     -587     -615     -626     -672     -801     -959 
   -1077    -1185    -1296    -1416    -1598    -1831    -2062    -2296 
   -2513    -2686    -2845    -2980    -3064    -3094    -3064    -2988 
   -2878    -2744    -2608    -2489    -2442    -2494    -2575    -2637 
   -2635    -2484    -2219    -1923    -1594    -1273     -990     -700 
    -400     -110      166      388      533      594      561      486 
     425      372      360      417      518      666      866     1077 
    1258     1356     1314     1136      864      572      359      272 
     346      558      820     1092     1306     1364     1286     1139 
     934      669      390      168       25      -48       -1      155 
     367      629      901     1125     1312     1489     1669     1857 
    1966     1950     1887     1779     1556     1263      970      672 
     403      202       59      -22      -44      -35       12      102 
     206      272      278      232      118      -74     -311     -585 
    -908    -1233    -1530    -1804    -2057    -2307    -2567    -2820 
   -3009    -3064    -2956    -2686    -2311    -1931    -1555    -1188 
    -919     -761     -646     -554     -449     -229      136      583 
    1066     1548     2003     2425     2793     3121     3453     3792 
    4101     4342     4487     4546     4511     4364     4143     3847 
    3441     2913     2266     1522      737      -44     -773    -1420 
   -1983    -2475    -2898    -3240    -3489    -3661    -3782    -3900 
   -4075    -4307    -4538    -4720    -4797    -4716    -4510    -4260 
   -4008    -3762    -3515    -3225    -2852    -2377    -1780    -1059 
    -263      514     1221     1879     2494     3080     3653     4155 
    4518     4745     4835     4774     4587     4315     4002     3670 
    3360     3109     2889     2716     2662     2700     2736     2721 
    2614     2393     2070     1645     1135      598       60     -481 
   -1003    -1474    -1894    -2285    -2656    -2979    -3230    -3379 
   -3393    -3312    -3171    -2968    -2700    -2313    -1795    -1247 
    -768     -396     -144       36      182      310      426      504 
     557      634      734      824      893      936      931      859 
     733      588      456      342      249      167       79      -47 
