Origin Time       2025/01/13 21:19:00
Lat.              31.8
Long.             131.6
Depth. (km)       30
Mag.              6.9
Station Code      HRS016
Station Lat.      34.4201
Station Long.     133.1979
Station Height(m) 39
Record Time       2025/01/13 21:21:12
Sampling Freq(Hz) 100Hz
Duration Time(s)  60
Dir.              E-W
Scale Factor      7845(gal)/8223790
Max. Acc. (gal)   1.371
Last Correction   2025/01/13 21:21:11
Memo.             
[...]
   -2309    -2316    -2227    -2137    -2069    -2014    -1995    -2062 
   -2214    -2353    -2377    -2292    -2197    -2166    -2153    -2108 
   -2093    -2169    -2272    -2284    -2207    -2154    -2172    -2207 
   -2192    -2127    -2080    -2054    -1987    -1930    -1991    -2118 
   -2137    -2049    -2037    -2092    -2049    -1968    -1995    -2039 
   -1987    -1922    -1944    -2022    -2112    -2165    -2128    -2069 
   -2072    -2050    -1938    -1896    -2019    -2143    -2133    -2081 
   -2114    -2184    -2205    -2180    -2127    -2054    -2012    -2030 
   -2056    -2039    -1984    -1950    -1965    -2014    -2083    -2123 
   -2079    -2035    -2087    -2150    -2151    -2139    -2196    -2332 
   -2447    -2473    -2474    -2502    -2513    -2439    -2320    -2288 
   -2350    -2393    -2389    -2389    -2415    -2432    -2393    -2305 
   -2250    -2266    -2281    -2214    -2122    -2084    -2069    -2029 
   -1993    -2004    -2045    -2053    -2029    -2058    -2182    -2324 
   -2388    -2340    -2245    -2193    -2193    -2180    -2164    -2220 
   -2317    -2342    -2296    -2257    -2224    -2185    -2184    -2274 
   -2386    -2367    -2207    -2047    -1972    -1929    -1861    -1822 
   -1895    -2060    -2200    -2228    -2170    -2141    -2187    -2239 
   -2266    -2313    -2370    -2365    -2316    -2324    -2377    -2371 
   -2299    -2261    -2311    -2376    -2388    -2393    -2404    -2338 
   -2216    -2232    -2430    -2562    -2448    -2258    -2201    -2259 
   -2324    -2361    -2373    -2358    -2323    -2309    -2362    -2428 
   -2431    -2390    -2343    -2299    -2300    -2339    -2336    -2319 
   -2349    -2369    -2349    -2315    -2261    -2184    -2091    -1987 
   -1915    -1896    -1880    -1825    -1752    -1714    -1740    -1786 
   -1821    -1914    -2070    -2168    -2142    -2072    -2046    -2096 
   -2195    -2257    -2224    -2128    -2042    -1988    -1971    -2012 
   -2085    -2130    -2177    -2285    -2400    -2417    -2344    -2281 
   -2242    -2173    -2091    -2046    -2000    -1921    -1868    -1879 
   -1933    -2012    -2085    -2108    -2107    -2160    -2245    -2266 
   -2234    -2234    -2232    -2143    -2025    -2020    -2151    -2265 
   -2228    -2123    -2112    -2149    -2099    -2042    -2141    -2290 
   -2263    -2133    -2151    -2276    -2254    -2115    -2096    -2187 
   -2160    -2002    -1942    -2039    -2135    -2164    -2164    -2150 
   -2095    -1989    -1953    -2065    -2193    -2178    -2008    -1795 
   -1707    -1773    -1860    -1925    -2006    -2039    -1965    -1860 
   -1830    -1884    -1946    -1964    -1981    -2064    -2180    -2246 
   -2234    -2203    -2188    -2173    -2173    -2203    -2219    -2174 
   -2068    -1996    -2054    -2174    -2220    -2178    -2118    -2083 
   -2066    -2065    -2080    -2057    -1979    -1927    -1925    -1910 
   -1861    -1806    -1780    -1788    -1799    -1803    -1845    -1890 
   -1837    -1776    -1852    -1964    -1944    -1829    -1768    -1795 
   -1756    -1622    -1605    -1753    -1850    -1783    -1702    -1741 
   -1794    -1722    -1601    -1533    -1526    -1564    -1634    -1722 
   -1802    -1814    -1759    -1721    -1749    -1817    -1884    -1914 
   -1861    -1757    -1674    -1640    -1648    -1688    -1745    -1787 
   -1800    -1822    -1863    -1892    -1929    -1999    -2077    -2122 
   -2107    -2068    -2089    -2188    -2290    -2347    -2336    -2261 
   -2207    -2241    -2262    -2177    -2073    -2043    -2031    -1981 
   -1938    -1939    -1954    -1960    -1975    -1999    -2027    -2088 
   -2169    -2193    -2168    -2188    -2274    -2334    -2307    -2250 
   -2214    -2197    -2211    -2263    -2311    -2300    -2241    -2174 
   -2120    -2107    -2168    -2270    -2307    -2236    -2157    -2127 
   -2091    -2038    -2023    -2049    -2057    -2047    -2058    -2053 
   -1981    -1881    -1810    -1806    -1896    -2023    -2079    -2046 
   -2008    -2041    -2124    -2199    -2235    -2224    -2168    -2093 
   -2041    -2041    -2052    -2025    -2016    -2074    -2141    -2158 
   -2145    -2131    -2147    -2200    -2224    -2177    -2122    -2133 
   -2211    -2322    -2419    -2451    -2411    -2343    -2328    -2435 
   -2602    -2695    -2677    -2593    -2466    -2312    -2226    -2251 
   -2245    -2131    -2066    -2106    -2110    -2033    -1971    -1918 
   -1827    -1779    -1842    -1942    -1975    -1952    -1961    -2015 
   -2041    -2026    -2030    -2050    -2016    -1938    -1902    -1946 
   -1989    -1954    -1902    -1898    -1873    -1790    -1726    -1737 
   -1746    -1692    -1622    -1598    -1625    -1676    -1695    -1642 
   -1575    -1594    -1701    -1799    -1815    -1791    -1829    -1931 
   -1998    -1998    -1976    -1979    -2027    -2069    -2049    -2047 
   -2097    -2062    -1946    -1912    -1938    -1896    -1815    -1796 
   -1854    -1948    -2031    -2080    -2093    -2061    -1987    -1908 
   -1892    -1958    -2037    -2061    -2104    -2238    -2354    -2358 
   -2323    -2346    -2411    -2463    -2488    -2501    -2523    -2550 
   -2556    -2569    -2614    -2652    -2651    -2635    -2613    -2577 
   -2524    -2484    -2498    -2559    -2610    -2631    -2644    -2683 
   -2744    -2809    -2890    -2980    -3018    -3010    -3052    -3172 
   -3294    -3365    -3404    -3419    -3410    -3399    -3384    -3364 
   -3369    -3391    -3357    -3264    -3208    -3215    -3192    -3122 
   -3087    -3106    -3106    -3060    -3034    -3051    -3067    -3044 
   -2982    -2920    -2891    -2875    -2848    -2835    -2851    -2871 
   -2880    -2909    -2944    -2955    -2965    -2955    -2875    -2774 
   -2701    -2643    -2594    -2538    -2427    -2251    -2081    -1996 
   -1995    -2038    -2072    -2053    -2022    -2022    -2014    -1976 
   -1923    -1844    -1764    -1715    -1633    -1493    -1367    -1289 
   -1252    -1286    -1371    -1408    -1362    -1317    -1356    -1445 
   -1506    -1540    -1578    -1587    -1556    -1539    -1548    -1521 
   -1460    -1443    -1470    -1498    -1533    -1549    -1498    -1428 
   -1428    -1509    -1597    -1632    -1630    -1642    -1679    -1718 
   -1765    -1844    -1941    -2037    -2104    -2145    -2207    -2286 
   -2338    -2371    -2405    -2419    -2430    -2467    -2490    -2463 
   -2452    -2502    -2547    -2565    -2632    -2752    -2825    -2789 
   -2701    -2667    -2664    -2602    -2505    -2439    -2397    -2339 
   -2265    -2181    -2084    -1976    -1868    -1779    -1734    -1717 
   -1680    -1621    -1548    -1468    -1433    -1463    -1502    -1501 
   -1468    -1494    -1617    -1750    -1822    -1854    -1869    -1881 
   -1921    -1977    -2000    -1957    -1883    -1846    -1846    -1840 
   -1853    -1899    -1925    -1903    -1890    -1946    -2041    -2095 
   -2126    -2177    -2208    -2187    -2160    -2157    -2157    -2155 
   -2184    -2239    -2286    -2327    -2346    -2320    -2297    -2336 
   -2420    -2501    -2558    -2555    -2469    -2359    -2335    -2396 
   -2440    -2411    -2365    -2347    -2324    -2285    -2250    -2215 
   -2161    -2066    -1957    -1911    -1922    -1910    -1872    -1854 
   -1848    -1846    -1906    -2023    -2083    -2043    -2011    -2060 
   -2131    -2162    -2174    -2195    -2157    -2027    -1904    -1861 
   -1852    -1814    -1768    -1737    -1694    -1625    -1543    -1449 
   -1378    -1387    -1441    -1433    -1377    -1375    -1421    -1426 
   -1413    -1444    -1493    -1506    -1507    -1559    -1641    -1671 
   -1644    -1636    -1684    -1749    -1792    -1829    -1869    -1918 
   -1969    -2018    -2079    -2119    -2077    -2002    -1976    -1988 
   -1976    -1937    -1899    -1854    -1798    -1771    -1795    -1860 
   -1956    -2042    -2100    -2162    -2218    -2242    -2266    -2317 
   -2411    -2548    -2667    -2712    -2743    -2808    -2853    -2891 
   -2971    -3052    -3105    -3154    -3180    -3167    -3141    -3121 
   -3121    -3152    -3190    -3210    -3198    -3145    -3076    -3052 
   -3072    -3095    -3092    -3073    -3045    -3010    -2987    -2992 
   -3015    -3018    -2975    -2938    -2960    -2987    -2953    -2880 
   -2809    -2744    -2687    -2643    -2593    -2533    -2489    -2447 
   -2377    -2319    -2289    -2243    -2182    -2135    -2107    -2103 
   -2095    -2014    -1883    -1788    -1755    -1748    -1730    -1698 
   -1657    -1614    -1570    -1522    -1490    -1482    -1478    -1483 
   -1482    -1440    -1385    -1358    -1347    -1328    -1314    -1329 
   -1347    -1341    -1360    -1420    -1471    -1499    -1533    -1593 
   -1665    -1701    -1691    -1699    -1767    -1879    -1979    -2019 
   -2042    -2116    -2212    -2276    -2320    -2365    -2393    -2373 
   -2305    -2266    -2293    -2324    -2343    -2359    -2354    -2346 
   -2366    -2404    -2461    -2533    -2596    -2640    -2668    -2678 
   -2670    -2667    -2679    -2698    -2706    -2686    -2655    -2644 
   -2641    -2625    -2590    -2509    -2392    -2311    -2285    -2261 
   -2223    -2205    -2197    -2165    -2110    -2062    -2035    -2008 
   -1954    -1891    -1883    -1923    -1941    -1922    -1903    -1896 
   -1875    -1836    -1817    -1798    -1734    -1674    -1667    -1682 
   -1665    -1590    -1499    -1463    -1468    -1474    -1468    -1452 
   -1448    -1475    -1507    -1528    -1552    -1603    -1668    -1737 
   -1833    -1950    -2074    -2223    -2378    -2517    -2658    -2797 
   -2926    -3045    -3140    -3207    -3245    -3248    -3242    -3254 
   -3268    -3248    -3194    -3134    -3084    -3051    -3037    -3025 
   -2978    -2907    -2867    -2839    -2772    -2691    -2636    -2581 
   -2490    -2381    -2289    -2228    -2192    -2172    -2162    -2161 
   -2164    -2165    -2157    -2143    -2123    -2084    -2060    -2083 
   -2085    -2019    -1937    -1887    -1840    -1763    -1701    -1691 
   -1692    -1676    -1641    -1580    -1528    -1516    -1516    -1526 
   -1561    -1607    -1642    -1684    -1756    -1846    -1926    -1966 
   -1985    -2025    -2097    -2162    -2180    -2177    -2209    -2272 
   -2336    -2431    -2550    -2627    -2667    -2737    -2863    -3007 
   -3118    -3167    -3186    -3204    -3233    -3277    -3330    -3358 
   -3339    -3287    -3240    -3213    -3177    -3090    -2983    -2926 
   -2868    -2752    -2646    -2581    -2505    -2389    -2263    -2162 
   -2079    -2016    -2002    -1992    -1938    -1865    -1806    -1755 
   -1694    -1636    -1597    -1568    -1533    -1487    -1444    -1412 
   -1370    -1313    -1267    -1236    -1212    -1186    -1155    -1129 
   -1096    -1043    -1004     -994     -974     -920     -864     -835 
    -837     -850     -843     -803     -774     -795     -831     -851 
    -886     -951    -1015    -1061    -1108    -1181    -1260    -1323 
   -1379    -1435    -1470    -1506    -1572    -1621    -1626    -1641 
   -1680    -1691    -1683    -1719    -1813    -1907    -1971    -2035 
   -2124    -2218    -2319    -2408    -2469    -2562    -2698    -2812 
   -2883    -2941    -2994    -3034    -3065    -3100    -3157    -3230 
   -3279    -3285    -3279    -3281    -3288    -3285    -3261    -3221 
   -3198    -3161    -3075    -2978    -2903    -2853    -2843    -2863 
   -2879    -2870    -2833    -2793    -2756    -2716    -2690    -2670 
   -2614    -2550    -2523    -2494    -2434    -2369    -2311    -2234 
   -2146    -2084    -2057    -2011    -1902    -1780    -1722    -1695 
   -1629    -1536    -1487    -1487    -1464    -1404    -1374    -1390 
   -1398    -1385    -1387    -1397    -1382    -1363    -1366    -1393 
   -1453    -1543    -1622    -1671    -1714    -1790    -1888    -1958 
   -1991    -2034    -2122    -2201    -2212    -2195    -2214    -2241 
   -2220    -2154    -2070    -1976    -1871    -1757    -1668    -1632 
   -1637    -1656    -1664    -1628    -1582    -1597    -1652    -1692 
   -1707    -1709    -1698    -1665    -1629    -1610    -1567    -1493 
   -1474    -1544    -1632    -1674    -1688    -1744    -1844    -1948 
   -2039    -2119    -2181    -2220    -2223    -2223    -2241    -2216 
   -2137    -2066    -2047    -2072    -2122    -2189    -2272    -2343 
   -2388    -2447    -2528    -2578    -2577    -2551    -2542    -2539 
   -2521    -2528    -2586    -2641    -2651    -2627    -2589    -2551 
   -2528    -2528    -2531    -2521    -2496    -2447    -2367    -2265 
   -2165    -2100    -2081    -2101    -2146    -2177    -2176    -2165 
   -2149    -2124    -2085    -2057    -2058    -2046    -1988    -1906 
   -1831    -1773    -1726    -1719    -1783    -1854    -1876    -1867 
   -1871    -1899    -1929    -1953    -2011    -2104    -2184    -2220 
   -2230    -2257    -2336    -2444    -2538    -2623    -2728    -2830 
   -2909    -2983    -3052    -3102    -3149    -3204    -3235    -3226 
   -3198    -3153    -3115    -3107    -3092    -3022    -2936    -2899 
   -2902    -2894    -2882    -2879    -2862    -2820    -2762    -2705 
   -2690    -2725    -2772    -2808    -2829    -2851    -2884    -2911 
   -2921    -2943    -2988    -3041    -3091    -3082    -2991    -2898 
   -2825    -2729    -2613    -2512    -2413    -2278    -2114    -1969 
   -1854    -1733    -1584    -1444    -1360    -1309    -1232    -1138 
   -1085    -1059    -1005     -924     -859     -830     -804     -750 
    -702     -708     -770     -830     -845     -858     -911     -984 
   -1057    -1131    -1215    -1294    -1328    -1310    -1302    -1336 
   -1382    -1421    -1487    -1593    -1707    -1821    -1946    -2068 
   -2189    -2340    -2523    -2694    -2816    -2884    -2917    -2930 
   -2961    -3021    -3076    -3107    -3117    -3106    -3076    -3034 
   -2999    -2980    -2964    -2922    -2843    -2725    -2628    -2587 
   -2554    -2475    -2377    -2324    -2320    -2300    -2250    -2207 
   -2180    -2172    -2177    -2184    -2187    -2182    -2166    -2150 
   -2150    -2149    -2107    -2027    -1949    -1884    -1817    -1729 
   -1622    -1528    -1470    -1417    -1328    -1227    -1170    -1166 
   -1181    -1209    -1248    -1281    -1317    -1375    -1452    -1526 
   -1588    -1652    -1721    -1803    -1917    -2035    -2120    -2173 
   -2232    -2323    -2416    -2481    -2532    -2590    -2640    -2654 
   -2644    -2640    -2637    -2625    -2610    -2579    -2540    -2544 
   -2592    -2632    -2667    -2709    -2735    -2737    -2729    -2698 
   -2640    -2577    -2543    -2523    -2462    -2350    -2223    -2101 
   -1984    -1883    -1819    -1788    -1746    -1686    -1638    -1606 
   -1578    -1547    -1509    -1487    -1510    -1564    -1634    -1714 
   -1795    -1863    -1908    -1957    -2027    -2116    -2212    -2295 
   -2374    -2485    -2594    -2658    -2687    -2704    -2717    -2739 
   -2776    -2810    -2791    -2731    -2687    -2651    -2574    -2489 
   -2463    -2461    -2415    -2355    -2331    -2299    -2228    -2172 
   -2166    -2168    -2145    -2130    -2150    -2174    -2177    -2178 
   -2201    -2242    -2292    -2328    -2340    -2359    -2415    -2474 
   -2501    -2515    -2538    -2554    -2540    -2502    -2467    -2444 
   -2425    -2411    -2392    -2340    -2254    -2161    -2074    -1996 
   -1938    -1917    -1904    -1867    -1822    -1800    -1798    -1806 
   -1818    -1833    -1860    -1887    -1892    -1894    -1912    -1934 
   -1938    -1954    -1992    -2008    -1984    -1956    -1949    -1941 
   -1927    -1925    -1917    -1908    -1929    -1968    -2007    -2039 
   -2068    -2115    -2157    -2173    -2203    -2255    -2303    -2347 
   -2390    -2428    -2462    -2490    -2524    -2559    -2570    -2570 
   -2578    -2586    -2573    -2528    -2470    -2430    -2405    -2365 
   -2297    -2232    -2174    -2097    -2019    -2002    -2066    -2146 
   -2170    -2165    -2170    -2172    -2169    -2181    -2204    -2212 
   -2211    -2227    -2247    -2245    -2239    -2242    -2236    -2238 
   -2250    -2257    -2247    -2231    -2214    -2197    -2169    -2108 
   -2030    -1960    -1910    -1869    -1821    -1760    -1696    -1638 
   -1609    -1594    -1552    -1512    -1506    -1499    -1464    -1425 
   -1405    -1385    -1358    -1355    -1391    -1431    -1471    -1539 
   -1606    -1663    -1736    -1809    -1861    -1903    -1960    -2027 
   -2064    -2065    -2101    -2188    -2261    -2295    -2326    -2373 
   -2431    -2497    -2569    -2648    -2735    -2797    -2830    -2867 
   -2898    -2909    -2925    -2963    -3002    -3017    -3010    -3002 
   -3001    -2979    -2933    -2895    -2859    -2791    -2700    -2606 
   -2533    -2497    -2474    -2435    -2384    -2331    -2281    -2239 
   -2212    -2200    -2199    -2189    -2147    -2079    -2011    -1958 
   -1929    -1912    -1904    -1907    -1899    -1854    -1800    -1780 
   -1810    -1857    -1863    -1825    -1786    -1755    -1722    -1695 
   -1671    -1647    -1622    -1601    -1584    -1584    -1609    -1645 
   -1676    -1706    -1752    -1792    -1807    -1830    -1890    -1962 
   -2000    -1998    -2003    -2037    -2083    -2131    -2185    -2238 
   -2278    -2308    -2330    -2354    -2394    -2446    -2493    -2556 
   -2639    -2697    -2716    -2732    -2767    -2817    -2882    -2938 
   -2960    -2979    -3015    -3048    -3069    -3082    -3086    -3083 
   -3059    -3017    -2971    -2906    -2825    -2754    -2708    -2691 
   -2666    -2585    -2473    -2358    -2234    -2127    -2072    -2035 
   -1962    -1849    -1736    -1647    -1578    -1497    -1414    -1378 
   -1378    -1362    -1344    -1363    -1398    -1414    -1421    -1435 
   -1451    -1464    -1472    -1476    -1482    -1497    -1493    -1453 
   -1425    -1439    -1441    -1414    -1405    -1422    -1435    -1443 
   -1480    -1544    -1586    -1598    -1615    -1653    -1698    -1733 
   -1775    -1845    -1917    -1971    -2023    -2074    -2128    -2201 
   -2272    -2331    -2409    -2493    -2543    -2565    -2601    -2656 
   -2705    -2740    -2786    -2855    -2922    -2960    -2967    -2961 
   -2952    -2938    -2907    -2871    -2851    -2826    -2775    -2725 
   -2691    -2646    -2575    -2502    -2438    -2371    -2312    -2268 
   -2212    -2130    -2053    -1985    -1906    -1825    -1768    -1717 
   -1656    -1599    -1563    -1543    -1513    -1471    -1444    -1436 
   -1431    -1429    -1435    -1453    -1478    -1497    -1512    -1536 
   -1566    -1591    -1602    -1611    -1641    -1682    -1714    -1725 
   -1705    -1691    -1709    -1740    -1755    -1745    -1730    -1733 
   -1749    -1800    -1876    -1930    -1969    -2033    -2114    -2185 
   -2250    -2326    -2389    -2425    -2463    -2527    -2608    -2683 
   -2725    -2743    -2776    -2817    -2844    -2870    -2890    -2879 
   -2847    -2826    -2817    -2783    -2735    -2687    -2631    -2574 
   -2533    -2498    -2462    -2416    -2361    -2323    -2317    -2323 
   -2315    -2280    -2261    -2297    -2342    -2344    -2347    -2377 
   -2390    -2381    -2400    -2447    -2467    -2444    -2411    -2401 
   -2405    -2382    -2347    -2336    -2343    -2343    -2340    -2350 
   -2377    -2396    -2367    -2326    -2317    -2319    -2296    -2266 
