Origin Time       2025/01/13 21:19:00
Lat.              31.8
Long.             131.6
Depth. (km)       30
Mag.              6.9
Station Code      HRS012
Station Lat.      34.4274
Station Long.     132.7422
Station Height(m) 214
Record Time       2025/01/13 21:20:52
Sampling Freq(Hz) 100Hz
Duration Time(s)  74
Dir.              U-D
Scale Factor      7845(gal)/8223790
Max. Acc. (gal)   1.649
Last Correction   2025/01/13 21:20:51
Memo.             
[...]
  -10825   -10840   -10764   -10594   -10446   -10428   -10438   -10381 
  -10322   -10308   -10361   -10507   -10666   -10720   -10705   -10683 
  -10647   -10588   -10507   -10451   -10457   -10492   -10525   -10563 
  -10617   -10712   -10831   -10909   -10889   -10774   -10665   -10702 
  -10836   -10881   -10827   -10783   -10744   -10652   -10559   -10570 
  -10682   -10821   -10966   -11090   -11134   -11107   -11044   -10913 
  -10710   -10535   -10444   -10428   -10473   -10531   -10565   -10577 
  -10606   -10642   -10623   -10573   -10534   -10488   -10415   -10316 
  -10254   -10330   -10488   -10592   -10639   -10648   -10540   -10341 
  -10201   -10185   -10243   -10308   -10334   -10339   -10395   -10512 
  -10611   -10600   -10474   -10334   -10287   -10341   -10389   -10369 
  -10400   -10574   -10766   -10809   -10702   -10562   -10476   -10446 
  -10435   -10444   -10492   -10557   -10650   -10777   -10868   -10871 
  -10821   -10783   -10758   -10696   -10617   -10569   -10531   -10521 
  -10592   -10697   -10743   -10700   -10613   -10551   -10509   -10488 
  -10517   -10569   -10605   -10662   -10758   -10812   -10754   -10683 
  -10697   -10709   -10655   -10581   -10544   -10571   -10646   -10740 
  -10827   -10827   -10690   -10539   -10496   -10581   -10733   -10797 
  -10756   -10771   -10831   -10828   -10782   -10735   -10700   -10678 
  -10666   -10683   -10731   -10759   -10752   -10751   -10795   -10868 
  -10871   -10756   -10593   -10473   -10436   -10466   -10498   -10501 
  -10520   -10588   -10644   -10617   -10507   -10404   -10417   -10548 
  -10712   -10806   -10808   -10781   -10731   -10625   -10550   -10566 
  -10631   -10701   -10751   -10775   -10794   -10797   -10791   -10795 
  -10790   -10787   -10820   -10827   -10746   -10670   -10709   -10789 
  -10781   -10704   -10620   -10505   -10416   -10474   -10606   -10660 
  -10620   -10570   -10589   -10629   -10596   -10538   -10559   -10643 
  -10712   -10733   -10716   -10659   -10582   -10588   -10685   -10731 
  -10732   -10775   -10770   -10682   -10650   -10704   -10789   -10862 
  -10835   -10706   -10573   -10447   -10330   -10311   -10432   -10602 
  -10719   -10755   -10758   -10760   -10748   -10731   -10721   -10697 
  -10656   -10633   -10654   -10710   -10770   -10824   -10889   -10933 
  -10895   -10773   -10628   -10540   -10515   -10523   -10590   -10704 
  -10723   -10613   -10521   -10519   -10498   -10449   -10473   -10534 
  -10551   -10573   -10635   -10705   -10744   -10755   -10764   -10752 
  -10669   -10534   -10404   -10288   -10193   -10162   -10214   -10318 
  -10432   -10524   -10573   -10597   -10638   -10720   -10790   -10751 
  -10616   -10513   -10511   -10543   -10520   -10457   -10403   -10368 
  -10386   -10469   -10547   -10601   -10670   -10733   -10759   -10801 
  -10887   -10917   -10785   -10584   -10481   -10477   -10516   -10616 
  -10729   -10741   -10644   -10597   -10667   -10678   -10566   -10474 
  -10482   -10592   -10754   -10795   -10651   -10476   -10393   -10417 
  -10540   -10710   -10852   -10933   -10933   -10898   -10897   -10883 
  -10798   -10698   -10663   -10689   -10702   -10663   -10612   -10646 
  -10783   -10859   -10802   -10771   -10820   -10783   -10563   -10350 
  -10334   -10424   -10517   -10651   -10786   -10821   -10793   -10818 
  -10912   -10922   -10758   -10555   -10416   -10281   -10183   -10211 
  -10322   -10443   -10567   -10696   -10800   -10779   -10600   -10393 
  -10273   -10261   -10378   -10577   -10732   -10791   -10756   -10673 
  -10639   -10659   -10669   -10633   -10532   -10412   -10395   -10524 
  -10696   -10755   -10690   -10619   -10621   -10647   -10648   -10689 
  -10764   -10777   -10701   -10602   -10535   -10536   -10639   -10768 
  -10831   -10831   -10790   -10763   -10771   -10727   -10633   -10596 
  -10596   -10588   -10612   -10655   -10685   -10716   -10729   -10713 
  -10682   -10597   -10422   -10262   -10261   -10382   -10489   -10512 
  -10497   -10550   -10651   -10665   -10623   -10674   -10763   -10759 
  -10694   -10671   -10713   -10755   -10775   -10836   -10890   -10849 
  -10783   -10751   -10748   -10806   -10852   -10748   -10598   -10567 
  -10592   -10569   -10534   -10513   -10503   -10534   -10627   -10729 
  -10740   -10619   -10471   -10473   -10627   -10716   -10652   -10609 
  -10697   -10868   -11006   -11029   -10995   -10952   -10852   -10717 
  -10573   -10336   -10084   -10029   -10152   -10297   -10407   -10521 
  -10669   -10782   -10801   -10706   -10536   -10434   -10504   -10659 
  -10760   -10781   -10768   -10752   -10712   -10655   -10627   -10633 
  -10617   -10575   -10579   -10659   -10725   -10727   -10727   -10720 
  -10640   -10531   -10465   -10451   -10486   -10584   -10719   -10766 
  -10643   -10434   -10296   -10336   -10480   -10540   -10494   -10473 
  -10482   -10428   -10346   -10366   -10515   -10669   -10720   -10677 
  -10570   -10417   -10311   -10354   -10478   -10517   -10440   -10388 
  -10471   -10625   -10694   -10632   -10565   -10642   -10874   -11090 
  -11090   -10872   -10627   -10507   -10507   -10579   -10693   -10809 
  -10941   -11097   -11188   -11151   -11087   -11088   -11014   -10766 
  -10540   -10509   -10550   -10540   -10585   -10728   -10876   -10994 
  -11068   -11079   -11022   -10890   -10747   -10727   -10822   -10898 
  -10876   -10794   -10731   -10705   -10652   -10573   -10538   -10567 
  -10651   -10741   -10771   -10777   -10775   -10685   -10494   -10287 
  -10150   -10116   -10145   -10210   -10314   -10416   -10482   -10538 
  -10569   -10503   -10373   -10307   -10355   -10508   -10683   -10735 
  -10620   -10471   -10399   -10399   -10415   -10404   -10368   -10336 
  -10335   -10365   -10404   -10401   -10343   -10251   -10160   -10152 
  -10254   -10400   -10534   -10571   -10477   -10373   -10346   -10331 
  -10314   -10355   -10399   -10365   -10309   -10305   -10372   -10516 
  -10687   -10802   -10801   -10632   -10338   -10073    -9919    -9926 
  -10162   -10511   -10764   -10824   -10704   -10509   -10385   -10368 
  -10355   -10288   -10273   -10388   -10550   -10667   -10713   -10674 
  -10604   -10559   -10458   -10288   -10227   -10338   -10486   -10605 
  -10732   -10837   -10817   -10629   -10354   -10181   -10196   -10281 
  -10400   -10594   -10748   -10746   -10619   -10453   -10347   -10359 
  -10443   -10542   -10604   -10600   -10578   -10663   -10903   -11129 
  -11151   -11037   -10932   -10818   -10642   -10490   -10471   -10571 
  -10724   -10889   -11020   -11052   -10995   -10929   -10920   -10989 
  -11074   -11088   -11082   -11156   -11223   -11134   -10970   -10893 
  -10933   -11013   -11056   -11074   -11063   -10997   -10912   -10881 
  -10935   -10978   -10899   -10775   -10717   -10692   -10677   -10729 
  -10802   -10795   -10747   -10736   -10785   -10883   -10993   -11071 
  -11111   -11074   -10964   -10903   -10949   -11021   -10986   -10855 
  -10805   -10854   -10847   -10755   -10594   -10422   -10380   -10447 
  -10513   -10613   -10739   -10731   -10565   -10415   -10377   -10403 
  -10430   -10430   -10417   -10432   -10511   -10597   -10550   -10400 
  -10319   -10326   -10341   -10361   -10374   -10322   -10273   -10343 
  -10459   -10501   -10450   -10349   -10287   -10281   -10281   -10308 
  -10359   -10370   -10399   -10512   -10570   -10442   -10270   -10274 
  -10392   -10431   -10405   -10408   -10416   -10435   -10493   -10508 
  -10477   -10513   -10557   -10523   -10474   -10401   -10292   -10247 
  -10300   -10376   -10435   -10504   -10609   -10706   -10708   -10604 
  -10497   -10480   -10528   -10562   -10520   -10427   -10374   -10420 
  -10516   -10605   -10709   -10812   -10835   -10802   -10797   -10813 
  -10767   -10648   -10594   -10678   -10759   -10754   -10737   -10746 
  -10767   -10843   -10947   -10980   -10939   -10840   -10690   -10616 
  -10698   -10822   -10902   -10976   -11056   -11122   -11129   -11028 
  -10937   -10986   -11109   -11173   -11157   -11164   -11188   -11099 
  -10949   -10889   -10937   -11017   -11059   -11061   -11014   -10918 
  -10863   -10887   -10979   -11148   -11335   -11435   -11431   -11407 
  -11388   -11365   -11358   -11327   -11227   -11103   -11005   -10955 
  -10975   -11072   -11226   -11403   -11526   -11487   -11330   -11203 
  -11126   -11045   -10957   -10901   -10906   -10926   -10922   -10928 
  -10914   -10882   -10935   -11032   -11045   -11020   -11047   -11057 
  -10980   -10844   -10696   -10628   -10719   -10831   -10781   -10639 
  -10540   -10490   -10478   -10521   -10597   -10708   -10837   -10867 
  -10714   -10477   -10292   -10216   -10215   -10183   -10129   -10199 
  -10370   -10438   -10363   -10282   -10212   -10122   -10084   -10125 
  -10226   -10369   -10449   -10377   -10203   -10037    -9984   -10050 
  -10111   -10085   -10054   -10129   -10228   -10214   -10133   -10114 
  -10177   -10237   -10220   -10183   -10191   -10211   -10223   -10274 
  -10401   -10508   -10470   -10385   -10381   -10399   -10365   -10287 
  -10215   -10222   -10291   -10293   -10215   -10211   -10281   -10239 
  -10126   -10108   -10170   -10269   -10401   -10535   -10623   -10606 
  -10489   -10385   -10384   -10413   -10400   -10458   -10616   -10721 
  -10713   -10633   -10504   -10412   -10405   -10438   -10534   -10654 
  -10655   -10598   -10598   -10602   -10547   -10458   -10405   -10434 
  -10497   -10498   -10474   -10520   -10575   -10601   -10701   -10859 
  -10957   -10929   -10775   -10605   -10507   -10471   -10511   -10598 
  -10575   -10466   -10469   -10559   -10586   -10504   -10358   -10280 
  -10301   -10346   -10459   -10636   -10710   -10696   -10741   -10781 
  -10692   -10561   -10473   -10380   -10300   -10330   -10434   -10488 
  -10442   -10377   -10372   -10396   -10386   -10320   -10234   -10204 
  -10268   -10357   -10373   -10335   -10311   -10285   -10206   -10060 
   -9922    -9887    -9898    -9884    -9906    -9946    -9950    -9944 
   -9937    -9967   -10085   -10187   -10170   -10106   -10044    -9944 
   -9822    -9752    -9809    -9976   -10127   -10216   -10312   -10420 
  -10477   -10508   -10608   -10709   -10697   -10643   -10667   -10779 
  -10883   -10941   -11010   -11091   -11178   -11288   -11379   -11358 
  -11227   -11090   -10974   -10868   -10848   -10922   -11041   -11196 
  -11294   -11223   -11048   -10881   -10768   -10748   -10812   -10878 
  -10918   -10960   -10983   -10971   -10982   -11029   -11068   -11097 
  -11151   -11202   -11186   -11106   -11036   -10984   -10897   -10786 
  -10708   -10639   -10550   -10478   -10453   -10436   -10419   -10447 
  -10538   -10635   -10677   -10642   -10565   -10489   -10430   -10365 
  -10311   -10327   -10393   -10428   -10431   -10432   -10428   -10438 
  -10427   -10369   -10328   -10316   -10350   -10486   -10625   -10696 
  -10773   -10804   -10724   -10652   -10636   -10612   -10623   -10698 
  -10759   -10786   -10768   -10682   -10620   -10683   -10790   -10762 
  -10624   -10532   -10494   -10513   -10601   -10667   -10700   -10708 
  -10625   -10524   -10563   -10721   -10849   -10883   -10886   -10899 
  -10882   -10832   -10805   -10779   -10732   -10739   -10778   -10810 
  -10895   -10982   -10955   -10844   -10764   -10831   -11040   -11203 
  -11207   -11151   -11134   -11183   -11240   -11232   -11205   -11198 
  -11183   -11194   -11241   -11256   -11222   -11165   -11118   -11106 
  -11068   -10962   -10878   -10879   -10924   -10995   -11083   -11151 
  -11152   -11038   -10856   -10760   -10817   -10935   -10995   -10971 
  -10917   -10882   -10868   -10867   -10883   -10933   -10964   -10917 
  -10847   -10791   -10701   -10609   -10612   -10659   -10678   -10719 
  -10820   -10905   -10864   -10729   -10636   -10666   -10756   -10809 
  -10810   -10785   -10740   -10670   -10559   -10451   -10384   -10370 
  -10450   -10569   -10581   -10486   -10411   -10366   -10291   -10238 
  -10315   -10478   -10593   -10639   -10701   -10778   -10786   -10693 
  -10558   -10458   -10438   -10493   -10571   -10620   -10665   -10708 
  -10681   -10593   -10511   -10463   -10477   -10543   -10596   -10584 
  -10497   -10359   -10247   -10247   -10363   -10490   -10536   -10520 
  -10438   -10287   -10156   -10110   -10184   -10323   -10376   -10327 
  -10316   -10380   -10431   -10435   -10428   -10459   -10521   -10528 
  -10503   -10531   -10584   -10624   -10646   -10644   -10638   -10597 
  -10571   -10609   -10619   -10585   -10606   -10665   -10692   -10705 
  -10705   -10652   -10569   -10504   -10447   -10388   -10339   -10311 
  -10307   -10331   -10349   -10341   -10322   -10278   -10212   -10162 
  -10139   -10096    -9995    -9875    -9832    -9882    -9915    -9860 
   -9771    -9724    -9695    -9634    -9576    -9609    -9714    -9769 
   -9767    -9779    -9772    -9717    -9713    -9807    -9868    -9807 
   -9741    -9767    -9803    -9836    -9925   -10058   -10187   -10266 
  -10307   -10372   -10459   -10508   -10528   -10523   -10447   -10358 
  -10357   -10417   -10461   -10473   -10474   -10466   -10416   -10315 
  -10233   -10219   -10253   -10308   -10363   -10400   -10416   -10392 
  -10347   -10378   -10515   -10681   -10852   -11013   -11130   -11260 
  -11423   -11541   -11587   -11603   -11591   -11550   -11534   -11554 
  -11531   -11460   -11406   -11364   -11337   -11364   -11414   -11472 
  -11546   -11607   -11654   -11728   -11793   -11781   -11766   -11820 
  -11893   -11975   -12066   -12136   -12224   -12318   -12356   -12334 
  -12283   -12212   -12135   -12074   -12032   -11992   -11961   -11931 
  -11850   -11735   -11645   -11504   -11294   -11153   -11114   -11129 
  -11225   -11350   -11402   -11400   -11418   -11427   -11376   -11273 
  -11160   -11090   -11071   -11063   -11044   -10972   -10786   -10571 
  -10473   -10459   -10416   -10342   -10262   -10164   -10065   -10019 
  -10018    -9996    -9933    -9872    -9867    -9903    -9931    -9919 
   -9888    -9890    -9945   -10038   -10106   -10104   -10044    -9992 
   -9996   -10037   -10069   -10065   -10006    -9910    -9825    -9772 
   -9722    -9666    -9613    -9595    -9634    -9690    -9755    -9860 
   -9973   -10018    -9988    -9930    -9877    -9859    -9914    -9998 
  -10010    -9967    -9964   -10000   -10019   -10057   -10154   -10220 
  -10233   -10280   -10335   -10332   -10331   -10372   -10416   -10467 
  -10538   -10586   -10585   -10551   -10507   -10471   -10458   -10458 
  -10462   -10450   -10388   -10314   -10316   -10380   -10432   -10454 
  -10474   -10515   -10476   -10278   -10044    -9880    -9771    -9726 
   -9760    -9828    -9865    -9848    -9823    -9863    -9960   -10071 
  -10187   -10297   -10366   -10412   -10480   -10569   -10623   -10624 
  -10616   -10596   -10548   -10536   -10592   -10660   -10685   -10642 
  -10577   -10551   -10516   -10443   -10439   -10535   -10616   -10636 
  -10658   -10725   -10800   -10843   -10889   -10978   -11090   -11163 
  -11200   -11284   -11379   -11410   -11442   -11497   -11506   -11489 
  -11488   -11457   -11369   -11268   -11217   -11238   -11307   -11354 
  -11341   -11304   -11296   -11331   -11384   -11394   -11365   -11373 
  -11414   -11426   -11404   -11368   -11318   -11259   -11219   -11222 
  -11233   -11234   -11265   -11287   -11241   -11172   -11126   -11105 
  -11099   -11084   -11045   -10998   -10930   -10848   -10832   -10883 
  -10885   -10847   -10854   -10860   -10805   -10740   -10690   -10640 
  -10623   -10642   -10655   -10648   -10627   -10598   -10565   -10512 
  -10439   -10373   -10346   -10358   -10385   -10420   -10444   -10466 
  -10505   -10536   -10548   -10574   -10605   -10623   -10656   -10710 
  -10756   -10764   -10716   -10620   -10530   -10519   -10571   -10625 
  -10697   -10793   -10860   -10882   -10910   -10960   -10983   -10966 
  -10928   -10883   -10837   -10822   -10881   -10968   -10998   -10987 
  -10982   -10944   -10843   -10723   -10669   -10710   -10786   -10824 
  -10802   -10744   -10665   -10559   -10480   -10438   -10385   -10323 
  -10282   -10266   -10247   -10203   -10164   -10177   -10234   -10272 
  -10297   -10350   -10413   -10480   -10554   -10596   -10586   -10555 
  -10484   -10376   -10292   -10231   -10185   -10188   -10231   -10295 
  -10363   -10393   -10403   -10417   -10385   -10309   -10276   -10296 
  -10319   -10316   -10318   -10378   -10474   -10523   -10517   -10481 
  -10377   -10254   -10207   -10207   -10172   -10093   -10010    -9938 
   -9861    -9796    -9796    -9814    -9779    -9745    -9780    -9842 
   -9903    -9961    -9995   -10023   -10066   -10131   -10231   -10304 
  -10324   -10338   -10320   -10293   -10343   -10424   -10449   -10434 
  -10439   -10477   -10513   -10532   -10569   -10660   -10773   -10859 
  -10935   -11007   -11044   -11040   -11030   -11082   -11179   -11232 
  -11257   -11313   -11354   -11342   -11280   -11203   -11165   -11178 
  -11211   -11253   -11292   -11331   -11385   -11422   -11375   -11249 
  -11144   -11125   -11153   -11182   -11215   -11253   -11260   -11236 
  -11202   -11140   -11049   -10994   -11009   -11049   -11048   -10999 
  -10940   -10894   -10878   -10875   -10836   -10754   -10656   -10559 
  -10463   -10382   -10299   -10218   -10176   -10166   -10165   -10165 
  -10147   -10134   -10120   -10050    -9936    -9836    -9768    -9734 
   -9740    -9736    -9705    -9690    -9707    -9725    -9714    -9683 
   -9657    -9637    -9628    -9644    -9674    -9694    -9693    -9697 
   -9722    -9751    -9765    -9775    -9787    -9818    -9852    -9877 
   -9925   -10000   -10068   -10102   -10116   -10130   -10130   -10129 
  -10170   -10257   -10363   -10440   -10451   -10463   -10531   -10604 
  -10658   -10713   -10775   -10858   -10943   -10972   -10953   -10944 
  -10968   -10997   -11018   -11055   -11109   -11192   -11333   -11465 
  -11535   -11587   -11635   -11622   -11527   -11400   -11313   -11313 
  -11350   -11322   -11188   -11006   -10872   -10833   -10854   -10860 
  -10804   -10714   -10660   -10658   -10686   -10733   -10806   -10914 
  -11001   -11043   -11086   -11138   -11169   -11175   -11178   -11241 
  -11373   -11469   -11465   -11419   -11383   -11364   -11395   -11484 
  -11566   -11574   -11530   -11506   -11510   -11496   -11473   -11460 
  -11422   -11368   -11333   -11307   -11250   -11137   -10986   -10844 
  -10724   -10615   -10534   -10469   -10354   -10181   -10031    -9956 
   -9915    -9863    -9815    -9751    -9660    -9633    -9675    -9726 
   -9787    -9848    -9907    -9983   -10044   -10088   -10137   -10172 
  -10206   -10273   -10334   -10359   -10378   -10408   -10430   -10390 
  -10285   -10214   -10226   -10258   -10280   -10312   -10336   -10311 
  -10258   -10255   -10295   -10288   -10260   -10285   -10341   -10369 
  -10359   -10346   -10373   -10415   -10420   -10411   -10419   -10439 
  -10453   -10454   -10470   -10500   -10513   -10515   -10508   -10443 
  -10336   -10261   -10241   -10257   -10274   -10277   -10301   -10359 
  -10403   -10405   -10409   -10435   -10457   -10462   -10449   -10415 
  -10376   -10345   -10359   -10447   -10571   -10698   -10859   -11018 
  -11056   -10994   -10955   -10933   -10878   -10847   -10894   -10980 
  -11043   -11053   -11009   -10916   -10806   -10713   -10651   -10609 
