Origin Time       2025/01/13 21:19:00
Lat.              31.8
Long.             131.6
Depth. (km)       30
Mag.              6.9
Station Code      HRS006
Station Lat.      34.6666
Station Long.     132.4080
Station Height(m) 367
Record Time       2025/01/13 21:21:13
Sampling Freq(Hz) 100Hz
Duration Time(s)  60
Dir.              E-W
Scale Factor      7845(gal)/8223790
Max. Acc. (gal)   1.410
Last Correction   2025/01/13 21:21:12
Memo.             
    2407     2443     2408     2331     2243     2116     1991     1975 
    2073     2226     2396     2542     2590     2524     2371     2185 
    2041     1996     2080     2280     2538     2786     2913     2751 
    2323     1906     1699     1679     1819     2124     2481     2695 
    2673     2517     2378     2261     2120     1984     1891     1888 
    2003     2176     2366     2548     2613     2525     2378     2278 
    2266     2301     2355     2465     2590     2614     2542     2475 
    2419     2313     2173     2083     2127     2268     2380     2401 
    2327     2196     2088     2031     2020     2058     2155     2319 
    2488     2582     2589     2508     2309     2034     1825     1786 
    1873     2004     2147     2312     2469     2527     2447     2323 
    2230     2120     2031     2089     2250     2358     2380     2389 
    2390     2324     2172     2016     1965     2050     2174     2235 
    2235     2204     2146     2137     2228     2312     2289     2215 
    2161     2118     2073     2025     1995     2064     2226     2358 
    2377     2301     2208     2127     2018     1949     2053     2289 
    2471     2512     2473     2450     2452     2419     2330     2272 
    2324     2474     2625     2685     2606     2427     2250     2162 
    2153     2160     2201     2293     2340     2313     2309     2332 
    2284     2187     2123     2072     1996     1950     2002     2150 
    2297     2343     2320     2286     2224     2139     2072     2074 
    2211     2435     2612     2698     2712     2646     2496     2268 
    2019     1876     1887     1987     2138     2336     2523     2579 
    2457     2266     2131     2034     1948     1946     2042     2118 
    2108     2110     2215     2370     2448     2349     2104     1887 
    1779     1734     1759     1890     2054     2184     2293     2362 
    2315     2166     2049     2052     2149     2305     2506     2694 
    2764     2681     2517     2335     2150     2003     1917     1837 
    1759     1730     1726     1764     1927     2165     2357     2492 
    2567     2527     2373     2172     1985     1849     1768     1740 
    1809     1984     2139     2164     2134     2192     2342     2436 
    2381     2239     2126     2099     2157     2249     2296     2215 
    2023     1846     1802     1927     2142     2297     2319     2235 
    2122     2057     2092     2231     2396     2458     2344     2133 
    1960     1912     1993     2137     2286     2463     2641     2693 
    2555     2349     2191     2060     1993     2097     2307     2405 
    2282     2020     1818     1848     2120     2498     2801     2901 
    2812     2614     2327     1956     1636     1549     1771     2214 
    2663     2906     2907     2727     2423     2107     1857     1687 
    1660     1814     2079     2407     2731     2879     2763     2438 
    2023     1659     1437     1386     1509     1784     2139     2463 
    2643     2620     2431     2201     2045     1953     1910     1966 
    2097     2207     2276     2328     2408     2531     2583     2439 
    2092     1710     1518     1545     1694     1969     2350     2704 
    2938     3048     3001     2752     2376     2043     1884     1941 
    2178     2469     2647     2647     2555     2481     2451     2467 
    2519     2521     2400     2236     2188     2277     2413     2540 
    2632     2671     2679     2690     2685     2609     2442     2266 
    2172     2133     2145     2242     2339     2362     2347     2327 
    2313     2322     2361     2442     2543     2556     2423     2243 
    2108     2052     2137     2324     2450     2428     2284     2045 
    1790     1647     1637     1723     1903     2141     2344     2430 
    2382     2289     2239     2195     2101     2014     1995     2026 
    2062     2062     2016     1948     1869     1809     1826     1950 
    2107     2227     2351     2482     2493     2320     2039     1755 
    1598     1688     1977     2299     2490     2467     2288     2099 
    1958     1804     1620     1522     1576     1777     2111     2446 
    2633     2633     2413     2047     1786     1753     1869     2047 
    2305     2635     2851     2803     2546     2150     1752     1597 
    1753     2093     2502     2855     3010     2905     2569     2095 
    1628     1359     1402     1665     1964     2196     2304     2235 
    2034     1806     1609     1471     1480     1740     2239     2771 
    3038     2879     2430     1985     1742     1769     2027     2349 
    2578     2647     2577     2461     2317     2077     1764     1516 
    1466     1659     2035     2450     2683     2597     2297     2008 
    1883     1914     1981     1985     1944     1906     1841     1721 
    1598     1571     1664     1759     1779     1825     1983     2181 
    2313     2371     2427     2482     2443     2289     2135     2046 
    1966     1921     2012     2162     2196     2119     2030     2007 
    2084     2192     2272     2388     2567     2695     2678     2546 
    2385     2236     2107     2000     1872     1705     1597     1615 
    1719     1871     2097     2350     2454     2343     2123     1896 
    1733     1719     1858     2056     2289     2569     2745     2636 
    2274     1891     1663     1576     1564     1638     1763     1846 
    1918     2030     2143     2215     2214     2147     2115     2146 
    2161     2143     2131     2088     1939     1714     1559     1617 
    1841     2047     2169     2280     2362     2339     2215     2054 
    1915     1811     1791     1973     2316     2596     2683     2569 
    2330     2131     2046     2027     2070     2141     2149     2100 
    2089     2157     2234     2236     2177     2133     2172     2313 
    2482     2558     2482     2317     2224     2311     2498     2609 
    2538     2297     2019     1902     2025     2259     2430     2531 
    2647     2705     2585     2365     2201     2158     2224     2361 
    2478     2479     2377     2250     2111     1957     1846     1807 
    1853     1973     2079     2119     2173     2274     2369     2466 
    2604     2714     2724     2664     2578     2486     2448     2462 
    2459     2430     2405     2412     2454     2521     2632     2764 
    2829     2813     2808     2864     2933     2968     2961     2920 
    2859     2809     2797     2859     2978     3068     3103     3110 
    3037     2818     2513     2250     2158     2304     2620     2944 
    3119     3072     2875     2666     2536     2466     2384     2274 
    2192     2187     2255     2377     2493     2527     2500     2505 
    2548     2543     2390     2147     2020     2126     2403     2721 
    2976     3099     3028     2745     2416     2231     2216     2332 
    2569     2812     2884     2774     2604     2444     2327     2308 
    2363     2423     2473     2494     2471     2435     2393     2335 
    2288     2299     2413     2609     2767     2799     2728     2637 
    2606     2656     2756     2833     2848     2820     2790     2743 
    2629     2474     2349     2289     2311     2366     2405     2467 
    2590     2681     2650     2540     2434     2403     2504     2698 
    2910     3067     3102     3011     2825     2592     2407     2340 
    2404     2560     2702     2743     2716     2687     2636     2493 
    2312     2249     2344     2488     2554     2473     2242     1961 
    1764     1728     1850     2073     2340     2566     2616     2461 
    2192     1929     1772     1725     1719     1768     1900     2060 
    2150     2122     1989     1857     1817     1871     1977     2056 
    1984     1745     1505     1420     1480     1591     1688     1759 
    1826     1929     2062     2200     2288     2281     2218     2204 
    2299     2462     2610     2678     2625     2447     2189     1896 
    1628     1501     1560     1736     1977     2242     2440     2484 
    2331     2041     1722     1431     1235     1197     1296     1513 
    1786     1965     2015     1988     1854     1656     1516     1480 
    1541     1649     1759     1926     2122     2131     1912     1648 
    1447     1318     1302     1429     1633     1795     1911     2052 
    2215     2327     2290     2084     1849     1695     1602     1606 
    1759     1985     2160     2216     2176     2074     1912     1730 
    1586     1518     1603     1869     2205     2482     2613     2523 
    2265     2010     1860     1811     1845     1953     2107     2223 
    2254     2182     2029     1956     2041     2137     2130     2070 
    2026     1987     1931     1912     1938     1919     1830     1740 
    1713     1756     1777     1703     1638     1719     1883     1992 
    1995     1900     1744     1595     1563     1728     2026     2270 
    2366     2374     2361     2327     2313     2335     2280     2104 
    1945     1900     1987     2222     2484     2542     2412     2308 
    2243     2093     1864     1669     1637     1803     2041     2195 
    2168     1999     1837     1752     1709     1687     1661     1630 
    1653     1717     1790     1894     1995     2061     2131     2222 
    2317     2401     2452     2462     2439     2428     2458     2490 
    2490     2489     2536     2635     2733     2758     2721     2712 
    2766     2879     3017     3092     3055     2952     2876     2871 
    2913     2956     3013     3100     3144     3076     2949     2816 
    2695     2620     2631     2739     2845     2829     2754     2729 
    2701     2633     2612     2685     2818     2943     2992     2914 
    2706     2465     2292     2214     2170     2056     1892     1814 
    1842     1918     1995     2023     1983     1902     1811     1767 
    1800     1846     1891     1981     2073     2056     1907     1701 
    1503     1343     1262     1324     1517     1729     1871     1926 
    1873     1692     1441     1206     1015      897      954     1221 
    1545     1804     1999     2054     1881     1588     1367     1320 
    1448     1687     1950     2139     2143     1957     1703     1478 
    1327     1267     1278     1371     1541     1684     1745     1752 
    1709     1603     1462     1337     1297     1377     1536     1723 
    1895     2008     2076     2138     2147     2065     1971     1956 
    2018     2122     2224     2276     2276     2228     2137     2042 
    1964     1891     1864     1919     2029     2141     2215     2262 
    2328     2393     2377     2253     2080     1933     1890     1969 
    2123     2323     2490     2501     2369     2212     2027     1784 
    1575     1497     1564     1730     1880     1931     1899     1823 
    1761     1749     1798     1885     1935     1954     2070     2307 
    2531     2655     2663     2605     2552     2513     2488     2519 
    2606     2737     2925     3134     3260     3262     3177     3059 
    2936     2822     2786     2902     3100     3234     3260     3206 
    3103     3015     2972     2918     2812     2706     2695     2797 
    2940     3042     3075     3041     2938     2789     2675     2640 
    2641     2654     2724     2826     2835     2701     2493     2277 
    2087     1996     2068     2282     2562     2767     2795     2704 
    2578     2389     2130     1938     1922     2046     2274     2573 
    2821     2928     2867     2644     2340     2096     1993     2007 
    2083     2211     2373     2490     2536     2586     2641     2600 
    2452     2300     2199     2157     2181     2250     2323     2384 
    2411     2393     2351     2305     2278     2268     2268     2343 
    2484     2567     2585     2606     2637     2681     2741     2785 
    2821     2853     2859     2867     2897     2913     2914     2934 
    2997     3087     3141     3109     3013     2916     2876     2907 
    2930     2901     2894     2961     3013     2963     2848     2731 
    2620     2511     2446     2444     2434     2407     2474     2625 
    2697     2639     2542     2484     2474     2500     2560     2668 
    2810     2944     2997     2932     2795     2639     2477     2363 
    2359     2447     2528     2528     2481     2423     2357     2312 
    2305     2292     2214     2084     1987     1960     1948     1872 
    1722     1572     1509     1521     1536     1491     1347     1136 
     989      962      989     1015     1020     1009     1028     1066 
    1017      895      841      880      923      935      932      899 
     823      756      738      742      754      783      818      851 
     847      795      778      850      959     1071     1192     1301 
    1379     1447     1505     1528     1536     1583     1671     1772 
    1841     1834     1775     1713     1648     1580     1530     1490 
    1433     1404     1472     1614     1740     1823     1900     1969 
    1980     1896     1779     1686     1590     1503     1525     1698 
    1976     2223     2304     2219     2018     1757     1574     1560 
    1663     1817     2012     2230     2403     2450     2347     2164 
    1984     1850     1829     1964     2165     2313     2430     2554 
    2627     2613     2565     2498     2427     2421     2504     2627 
    2768     2897     2938     2878     2747     2571     2404     2336 
    2421     2566     2646     2643     2571     2430     2262     2160 
    2157     2223     2328     2431     2466     2454     2454     2431 
    2344     2255     2230     2278     2394     2508     2543     2533 
    2532     2505     2424     2355     2344     2343     2349     2428 
    2569     2674     2714     2709     2675     2627     2578     2539 
    2517     2517     2546     2581     2593     2601     2633     2664 
    2662     2639     2616     2589     2528     2405     2255     2196 
    2270     2390     2473     2475     2411     2324     2232     2133 
    2083     2118     2199     2296     2378     2396     2328     2201 
    2064     2006     2081     2239     2396     2519     2633     2724 
    2704     2606     2548     2539     2550     2589     2650     2717 
    2759     2744     2702     2679     2660     2625     2592     2582 
    2569     2500     2407     2370     2373     2342     2323     2400 
    2502     2512     2444     2384     2361     2361     2384     2423 
    2454     2467     2467     2485     2546     2589     2570     2554 
    2577     2594     2587     2559     2502     2440     2411     2393 
    2355     2296     2222     2160     2139     2178     2309     2511 
    2685     2787     2853     2887     2870     2821     2790     2798 
    2844     2918     2999     3049     3057     3056     3052     3011 
    2917     2810     2752     2743     2718     2674     2647     2646 
    2643     2597     2494     2357     2192     2015     1880     1798 
    1726     1671     1659     1651     1580     1429     1255     1147 
    1125     1138     1151     1217     1404     1653     1829     1867 
    1810     1749     1737     1755     1796     1858     1869     1803 
    1745     1777     1861     1908     1902     1861     1798     1737 
    1706     1682     1641     1582     1533     1552     1636     1703 
    1682     1584     1494     1460     1459     1487     1561     1634 
    1664     1669     1660     1622     1576     1548     1548     1572 
    1632     1749     1903     2027     2080     2062     2006     1972 
    1973     1991     2042     2146     2285     2417     2502     2528 
    2506     2461     2428     2423     2439     2492     2573     2651 
    2708     2714     2641     2505     2378     2361     2469     2606 
    2714     2813     2914     2970     2930     2809     2628     2409 
    2230     2162     2218     2339     2444     2481     2450     2346 
    2180     2033     1971     1976     2012     2079     2146     2161 
    2083     1912     1730     1610     1555     1559     1648     1798 
    1917     1961     1950     1906     1857     1844     1875     1930 
    1975     1927     1798     1713     1726     1761     1771     1775 
    1790     1831     1900     1964     1984     1972     1962     1956 
    1953     1977     2015     2037     2058     2099     2138     2164 
    2203     2290     2411     2506     2547     2531     2493     2469 
    2440     2401     2389     2424     2497     2582     2635     2627 
    2566     2461     2320     2164     2038     1984     1993     2057 
    2191     2339     2409     2384     2297     2185     2070     1999 
    2011     2108     2223     2299     2339     2366     2362     2320 
    2280     2273     2281     2297     2339     2378     2392     2416 
    2463     2519     2586     2625     2583     2494     2438     2430 
    2440     2461     2490     2531     2593     2652     2667     2632 
    2544     2415     2307     2289     2370     2505     2643     2786 
    2936     3028     2998     2878     2754     2693     2716     2803 
    2936     3064     3115     3065     2956     2837     2752     2712 
    2709     2743     2787     2787     2740     2693     2648     2582 
    2496     2408     2339     2304     2295     2277     2234     2180 
    2120     2062     2035     2050     2061     2007     1907     1837 
    1814     1791     1765     1773     1809     1826     1806     1794 
    1827     1861     1842     1815     1845     1911     1952     1941 
    1898     1838     1773     1741     1768     1823     1856     1842 
    1810     1807     1833     1853     1850     1836     1831     1856 
    1906     1991     2100     2200     2272     2320     2381     2447 
    2465     2432     2404     2386     2343     2299     2308     2328 
    2255     2115     1995     1899     1810     1748     1729     1799 
    1953     2089     2138     2114     2043     1949     1867     1826 
    1814     1826     1879     1957     2019     2038     2006     1945 
    1900     1914     1984     2091     2219     2344     2424     2439 
    2416     2393     2359     2285     2192     2118     2072     2089 
    2168     2224     2211     2184     2220     2273     2242     2133 
    2016     1930     1885     1885     1941     2052     2155     2178 
    2145     2103     2031     1910     1780     1706     1723     1814 
    1935     2077     2220     2300     2284     2219     2162     2120 
    2092     2091     2142     2231     2299     2334     2350     2334 
    2292     2220     2107     2012     1979     1977     2004     2066 
    2126     2155     2169     2188     2216     2224     2180     2124 
    2127     2178     2208     2197     2188     2215     2301     2439 
    2563     2617     2586     2481     2339     2216     2137     2096 
    2118     2205     2285     2311     2311     2315     2312     2297 
    2270     2228     2182     2162     2188     2236     2259     2250 
    2243     2261     2286     2266     2189     2126     2146     2251 
    2401     2562     2693     2752     2733     2659     2559     2471 
    2434     2458     2529     2604     2655     2686     2678     2616 
    2536     2470     2431     2447     2521     2619     2705     2756 
    2778     2789     2781     2732     2660     2606     2594     2605 
    2608     2597     2570     2500     2393     2289     2192     2099 
    2045     2056     2103     2123     2085     2039     2033     2038 
