Origin Time       2025/01/13 21:19:00
Lat.              31.8
Long.             131.6
Depth. (km)       30
Mag.              6.9
Station Code      HRS008
Station Lat.      34.6029
Station Long.     132.7201
Station Height(m) 207
Record Time       2025/01/13 21:20:39
Sampling Freq(Hz) 100Hz
Duration Time(s)  101
Dir.              U-D
Scale Factor      7845(gal)/8223790
Max. Acc. (gal)   0.900
Last Correction   2025/01/13 21:20:39
Memo.             
[...]
    8275     8209     8116     8110     8158     8129     8055     8000 
    7948     7954     8021     8032     8031     8101     8120     8032 
    7987     8024     7989     7875     7857     7962     8070     8113 
    8051     7939     7920     7947     7869     7767     7815     7931 
    7973     8036     8181     8259     8217     8203     8256     8255 
    8253     8356     8410     8309     8216     8185     8071     7885 
    7766     7736     7728     7712     7723     7735     7705     7719 
    7788     7838     7896     7956     7973     8040     8190     8233 
    8129     8060     8074     8118     8174     8237     8311     8325 
    8249     8175     8102     8014     8014     8083     8089     8044 
    8048     8085     8059     8023     8093     8203     8218     8199 
    8262     8322     8278     8213     8201     8206     8203     8212 
    8225     8249     8310     8348     8316     8278     8276     8267 
    8216     8135     8039     7969     7994     8067     8085     8095 
    8159     8160     8047     7947     7886     7834     7894     8070 
    8194     8212     8171     8131     8113     8127     8199     8272 
    8305     8328     8297     8235     8236     8267     8276     8286 
    8271     8187     8064     7954     7851     7766     7769     7877 
    7993     8039     8105     8248     8326     8295     8290     8321 
    8316     8293     8262     8225     8194     8140     8056     7998 
    8016     8082     8105     8052     8014     8059     8095     8025 
    7970     8067     8185     8205     8237     8274     8228     8181 
    8149     8054     7943     7900     7923     7870     7719     7711 
    7844     7909     7946     8008     8122     8260     8174     7928 
    7870     7943     7944     7951     8058     8218     8309     8201 
    8005     7963     8062     8120     8070     8006     8029     8085 
    8131     8229     8359     8414     8353     8208     8059     8019 
    8067     8048     7915     7809     7823     7858     7921     8113 
    8301     8386     8479     8533     8428     8311     8318     8341 
    8382     8533     8629     8554     8498     8473     8279     8004 
    7889     7889     7827     7744     7805     7967     8090     8149 
    8158     8202     8307     8372     8465     8579     8506     8314 
    8190     8114     8071     8089     8110     8070     7973     7878 
    7854     7920     8041     8249     8519     8626     8522     8411 
    8345     8278     8225     8174     8149     8181     8189     8168 
    8137     7979     7723     7533     7454     7507     7684     7896 
    8043     8074     8046     8047     8079     8113     8086     7959 
    7843     7842     7878     7920     8047     8162     8185     8235 
    8264     8195     8127     8002     7840     7835     7950     8047 
    8110     8141     8181     8255     8263     8199     8183     8163 
    8086     8041     8017     7966     7973     8085     8185     8178 
    8145     8151     8129     8044     7935     7900     7971     8082 
    8195     8274     8287     8264     8178     8070     8064     8116 
    8100     8021     7987     8047     8101     8073     8008     8005 
    8122     8249     8251     8220     8318     8486     8502     8349 
    8228     8190     8063     7823     7673     7695     7815     7946 
    7985     7966     8001     8055     8095     8171     8264     8301 
    8263     8198     8120     8047     8054     8128     8172     8120 
    7971     7830     7793     7820     7852     7917     7987     8000 
    7970     7923     7877     7919     8100     8279     8333     8326 
    8336     8334     8297     8264     8271     8239     8073     7854 
    7732     7665     7557     7511     7614     7728     7786     7974 
    8274     8415     8382     8293     8212     8232     8324     8409 
    8448     8379     8311     8320     8266     8175     8154     8158 
    8129     8097     8120     8104     7942     7825     7892     7983 
    7987     7979     8010     8040     8060     8075     8136     8306 
    8448     8432     8351     8330     8392     8442     8402     8352 
    8318     8156     7881     7792     7939     7986     7888     7915 
    8010     7989     8013     8174     8268     8251     8203     8108 
    8031     8031     8014     7956     7852     7716     7668     7742 
    7850     7978     8141     8230     8194     8199     8293     8282 
    8213     8263     8332     8317     8256     8176     8148     8167 
    8136     8021     7847     7708     7700     7811     7960     8075 
    8106     8040     7979     8056     8187     8172     8023     7946 
    7954     7943     8037     8237     8345     8360     8325     8205 
    8047     7929     7859     7774     7720     7813     7971     8112 
    8286     8410     8378     8267     8189     8108     8039     8122 
    8278     8257     8129     8116     8191     8230     8225     8182 
    8028     7817     7731     7742     7774     7905     8078     8174 
    8287     8526     8764     8847     8803     8658     8418     8170 
    7986     7920     7977     8052     8078     8093     8141     8221 
    8206     8017     7817     7709     7670     7759     7920     8009 
    8055     8168     8360     8486     8482     8540     8694     8719 
    8568     8392     8229     7990     7763     7668     7599     7553 
    7632     7709     7643     7581     7676     7854     8025     8212 
    8394     8511     8548     8509     8383     8186     7973     7865 
    7861     7815     7785     7906     8082     8228     8334     8384 
    8429     8486     8522     8484     8363     8247     8151     8020 
    7901     7877     7981     8152     8241     8195     8104     8044 
    8035     7969     7830     7851     8060     8154     8023     7893 
    7935     8006     7970     7916     7851     7790     7890     8014 
    7982     7974     8086     8168     8117     8004     7929     7850 
    7758     7717     7676     7645     7774     8029     8255     8467 
    8695     8820     8739     8550     8487     8492     8343     8101 
    7893     7742     7666     7636     7659     7804     7985     8037 
    8028     8108     8237     8333     8351     8301     8286     8343 
    8422     8478     8421     8297     8244     8202     8108     8055 
    8067     8135     8243     8257     8149     8032     7967     8006 
    8125     8129     7971     7852     7816     7769     7778     7901 
    8125     8380     8437     8282     8199     8201     8048     7790 
    7663     7705     7821     7921     8019     8186     8318     8340 
    8367     8318     8110     8006     8068     8097     8112     8145 
    8170     8262     8402     8490     8519     8507     8428     8299 
    8172     8025     7886     7879     7942     7962     7990     8014 
    8009     7992     7956     8010     8179     8259     8158     8020 
    7973     8017     8145     8282     8262     8140     8055     7947 
    7842     7848     7886     7836     7747     7739     7805     7832 
    7804     7785     7848     7977     8051     8023     7958     7901 
    7840     7797     7850     8014     8160     8145     8073     8122 
    8185     8095     7927     7817     7848     8067     8370     8502 
    8390     8248     8244     8343     8438     8449     8401     8376 
    8332     8206     8079     7983     7875     7835     7870     7896 
    7947     7955     7809     7647     7589     7587     7676     7840 
    7947     7983     8002     8013     8094     8256     8337     8290 
    8253     8302     8348     8298     8239     8244     8235     8243 
    8341     8364     8278     8309     8332     8120     7888     7825 
    7884     7998     8071     8097     8112     8054     8050     8217 
    8303     8282     8401     8464     8251     8041     7994     8001 
    8129     8348     8438     8399     8355     8328     8283     8206 
    8171     8213     8203     8121     8129     8216     8232     8253 
    8390     8475     8422     8446     8565     8499     8330     8407 
    8598     8576     8469     8440     8338     8145     7982     7893 
    7869     7847     7854     7924     7971     7986     7974     7948 
    8021     8117     8097     8062     8124     8291     8468     8503 
    8472     8527     8557     8370     8071     7897     7846     7863 
    7938     8017     8179     8401     8467     8434     8444     8414 
    8260     8041     7924     7924     7854     7743     7724     7719 
    7730     7843     7969     8085     8286     8451     8469     8517 
    8627     8641     8602     8606     8548     8340     8079     7867 
    7761     7824     7940     7909     7839     7900     7965     7890 
    7763     7761     7892     7969     7931     7954     8086     8201 
    8228     8158     8087     8168     8283     8186     7974     7911 
    7969     7989     8002     8055     8044     7919     7767     7665 
    7654     7778     7902     7838     7695     7665     7728     7763 
    7722     7755     7962     8155     8243     8328     8394     8382 
    8392     8442     8345     8089     7967     8010     7925     7720 
    7601     7572     7550     7558     7692     7927     8114     8175 
    8182     8210     8170     8051     7996     8033     8186     8424 
    8557     8532     8406     8255     8189     8193     8267     8430 
    8554     8614     8602     8437     8243     8094     7908     7755 
    7751     7889     8091     8267     8390     8494     8600     8618 
    8509     8480     8538     8441     8313     8370     8445     8380 
    8274     8222     8228     8245     8268     8392     8610     8708 
    8599     8451     8444     8499     8459     8382     8336     8289 
    8267     8228     8176     8275     8467     8529     8463     8357 
    8218     8141     8222     8307     8278     8267     8334     8326 
    8172     8005     7950     7892     7728     7578     7538     7615 
    7750     7805     7843     7935     7946     7865     7765     7697 
    7742     7873     7966     7931     7831     7777     7735     7717 
    7771     7793     7780     7777     7720     7676     7699     7720 
    7774     7838     7825     7774     7681     7564     7545     7615 
    7668     7711     7785     7865     7915     7913     7905     7920 
    7870     7781     7790     7843     7800     7634     7423     7322 
    7364     7453     7578     7730     7817     7811     7716     7601 
    7651     7898     8083     8040     7958     7942     7888     7890 
    8083     8267     8239     8152     8151     8104     7973     7962 
    8132     8290     8280     8151     8021     7967     7958     7889 
    7759     7642     7554     7520     7595     7731     7797     7771 
    7794     7981     8217     8337     8363     8364     8371     8353 
    8284     8295     8403     8355     8112     7931     7896     7909 
    7920     7917     7932     8006     8139     8241     8172     8047 
    8117     8303     8409     8480     8596     8691     8611     8351 
    8145     8135     8147     8071     8013     7979     7916     7881 
    7857     7831     7938     8154     8284     8282     8287     8310 
    8233     8127     8074     8073     8112     8016     7744     7604 
    7609     7485     7292     7200     7214     7308     7426     7531 
    7642     7742     7908     8183     8415     8527     8563     8500 
    8386     8290     8156     8020     8013     8064     7962     7736 
    7674     7784     7805     7758     7786     7846     7878     7920 
    8037     8186     8249     8283     8368     8392     8333     8334 
    8413     8441     8351     8176     8027     8004     8108     8267 
    8399     8467     8468     8464     8514     8587     8642     8673 
    8640     8544     8448     8388     8390     8434     8445     8433 
    8468     8511     8537     8584     8637     8669     8706     8741 
    8726     8671     8615     8548     8505     8554     8603     8553 
    8488     8471     8429     8330     8255     8224     8159     8101 
    8106     8100     8044     7994     8013     8133     8256     8284 
    8287     8293     8222     8121     8112     8187     8245     8222 
    8147     8105     8172     8284     8293     8213     8198     8249 
    8264     8266     8326     8391     8399     8413     8509     8642 
    8704     8661     8606     8604     8591     8513     8433     8413 
    8438     8455     8445     8455     8506     8557     8536     8441 
    8376     8360     8307     8245     8237     8217     8131     8013 
    7890     7762     7688     7711     7790     7879     7928     7908 
    7936     8041     8090     8054     8017     8033     8091     8163 
    8190     8141     8127     8216     8263     8162     8013     7928 
    7861     7794     7800     7835     7832     7820     7840     7885 
    7943     8016     8021     7896     7813     7940     8087     8074 
    8046     8028     7898     7831     7924     7997     7959     7823 
    7669     7623     7670     7726     7758     7788     7873     7998 
    8098     8081     7944     7848     7867     7942     8050     8148 
    8224     8260     8224     8220     8305     8332     8240     8141 
    8082     8010     7954     7924     7867     7817     7816     7847 
    7959     8170     8411     8648     8849     8969     9009     8969 
    8888     8808     8692     8560     8456     8360     8271     8209 
    8158     8136     8198     8317     8424     8534     8695     8841 
    8916     8984     9043     8974     8770     8613     8588     8564 
    8459     8383     8380     8360     8318     8301     8279     8209 
    8108     8016     7987     8056     8109     8044     8006     8044 
    7986     7847     7789     7838     7902     7906     7882     7882 
    7875     7894     8000     8097     8070     7965     7904     7923 
    7967     7966     7857     7665     7496     7404     7371     7381 
    7476     7616     7636     7515     7395     7334     7323     7339 
    7357     7389     7453     7562     7681     7754     7811     7867 
    7901     7904     7867     7824     7836     7871     7816     7744 
    7827     7960     7970     7909     7884     7911     7938     7921 
    7969     8100     8155     8124     8082     8019     7948     7879 
    7823     7838     7888     7935     8032     8176     8302     8361 
    8337     8236     8098     7973     7916     7906     7842     7736 
    7657     7593     7576     7657     7781     7863     7912     7992 
    8089     8154     8201     8229     8181     8025     7821     7700 
    7747     7844     7874     7878     7897     7896     7834     7780 
    7846     7993     8125     8239     8370     8498     8509     8440 
    8461     8523     8518     8494     8459     8370     8251     8140 
    8094     8152     8241     8260     8217     8220     8293     8311 
    8262     8280     8349     8332     8263     8206     8140     8151 
    8214     8186     8163     8221     8206     8082     7989     7955 
    7915     7908     7989     8079     8124     8209     8364     8532 
    8688     8797     8802     8727     8614     8472     8329     8210 
    8139     8062     7955     7924     7946     7890     7820     7865 
    8023     8225     8387     8449     8448     8442     8409     8334 
    8278     8251     8233     8206     8143     8077     8039     7958 
    7865     7882     7931     7944     8032     8185     8317     8429 
    8522     8599     8610     8540     8483     8410     8274     8206 
    8214     8141     8021     8005     8064     8102     8152     8176 
    8125     8098     8112     8104     8077     8071     8176     8338 
    8372     8268     8148     8050     7970     7923     7886     7804 
    7711     7659     7587     7510     7553     7678     7734     7723 
    7743     7774     7719     7624     7634     7705     7719     7769 
    7936     8100     8156     8187     8310     8460     8530     8572 
    8587     8526     8503     8559     8552     8486     8473     8484 
    8444     8414     8425     8347     8156     8035     8012     7978 
    7916     7819     7684     7541     7415     7358     7385     7418 
    7398     7379     7425     7510     7580     7645     7757     7858 
    7854     7839     7902     7943     7956     8031     8116     8158 
    8194     8205     8147     8074     8035     7985     7940     7935 
    7915     7854     7774     7732     7766     7808     7823     7863 
    7931     8021     8135     8170     8094     8048     8094     8151 
    8159     8156     8202     8235     8189     8156     8172     8174 
    8194     8256     8278     8271     8336     8451     8499     8455 
    8437     8480     8464     8406     8398     8411     8434     8463 
    8453     8409     8371     8351     8289     8181     8064     7921 
    7765     7658     7611     7615     7641     7658     7711     7842 
    7987     8091     8181     8236     8267     8330     8372     8355 
    8310     8248     8214     8216     8205     8202     8279     8440 
    8607     8711     8737     8692     8617     8599     8687     8784 
    8806     8773     8695     8580     8476     8376     8293     8260 
    8202     8095     8032     8035     8073     8101     8112     8147 
    8170     8166     8193     8193     8127     8105     8144     8118 
    8044     8050     8081     8041     7985     7929     7830     7742 
    7744     7813     7885     7936     8019     8137     8199     8232 
    8333     8426     8482     8577     8673     8710     8716     8714 
    8680     8556     8365     8241     8187     8089     7959     7888 
    7890     7931     7997     8102     8213     8259     8262     8278 
    8321     8387     8455     8530     8583     8511     8320     8127 
    7990     7854     7713     7665     7727     7782     7789     7832 
    7924     8001     8089     8191     8232     8255     8294     8243 
    8121     8078     8132     8149     8082     8032     8047     8031 
    7935     7819     7732     7669     7665     7761     7850     7832 
    7747     7672     7614     7557     7523     7527     7543     7551 
    7508     7449     7487     7560     7592     7657     7730     7763 
    7782     7758     7692     7658     7678     7713     7755     7828 
    7923     7993     8024     8037     8010     7929     7873     7842 
    7777     7709     7635     7541     7499     7520     7573     7645 
    7684     7713     7817     7921     7925     7938     8037     8122 
    8140     8131     8083     7965     7819     7701     7589     7512 
    7530     7572     7576     7600     7668     7719     7744     7824 
    7944     8032     8106     8190     8243     8263     8256     8237 
    8270     8328     8303     8218     8168     8178     8222     8289 
    8367     8444     8526     8621     8688     8734     8773     8766 
    8672     8529     8441     8391     8320     8309     8336     8253 
    8075     7900     7769     7699     7697     7747     7797     7832 
    7881     7920     7960     8050     8164     8267     8322     8305 
    8252     8198     8133     8079     8098     8175     8193     8147 
    8154     8218     8268     8313     8397     8506     8587     8618 
    8623     8621     8591     8515     8417     8372     8368     8291 
    8163     8078     7996     7869     7749     7670     7636     7655 
