Origin Time       2025/01/13 21:19:00
Lat.              31.8
Long.             131.6
Depth. (km)       30
Mag.              6.9
Station Code      HRS020
Station Lat.      34.2936
Station Long.     133.1776
Station Height(m) 17
Record Time       2025/01/13 21:21:01
Sampling Freq(Hz) 100Hz
Duration Time(s)  63
Dir.              U-D
Scale Factor      7845(gal)/8223790
Max. Acc. (gal)   0.914
Last Correction   2025/01/13 21:21:01
Memo.             
[...]
   12307    12384    12440    12448    12393    12337    12313    12280 
   12213    12113    12002    11905    11812    11758    11805    11898 
   11954    11992    12025    12040    12048    12044    12001    11974 
   12000    12023    12028    12043    12050    12002    11882    11751 
   11719    11800    11870    11840    11749    11647    11569    11543 
   11553    11537    11481    11442    11415    11361    11308    11295 
   11307    11308    11268    11195    11152    11190    11291    11375 
   11380    11346    11317    11271    11242    11287    11334    11318 
   11304    11321    11307    11259    11225    11209    11199    11223 
   11268    11296    11322    11368    11408    11435    11470    11526 
   11585    11623    11630    11592    11502    11446    11489    11545 
   11537    11527    11554    11587    11595    11574    11554    11577 
   11641    11727    11811    11858    11858    11812    11755    11758 
   11797    11817    11835    11828    11781    11750    11739    11708 
   11686    11677    11631    11549    11449    11361    11319    11307 
   11319    11322    11259    11172    11122    11105    11110    11111 
   11106    11122    11129    11105    11105    11179    11302    11416 
   11508    11596    11657    11668    11674    11692    11682    11670 
   11707    11772    11808    11812    11811    11821    11851    11870 
   11865    11886    11934    11970    12015    12069    12089    12079 
   12073    12069    12063    12087    12140    12151    12100    12055 
   12074    12143    12216    12224    12129    12012    11932    11877 
   11851    11836    11804    11794    11834    11912    11979    11954 
   11892    11919    11993    12039    12074    12091    12064    12001 
   11919    11890    11909    11854    11739    11688    11699    11724 
   11735    11682    11565    11480    11483    11506    11510    11534 
   11562    11569    11584    11603    11626    11682    11720    11712 
   11705    11707    11700    11686    11704    11793    11901    11951 
   11948    11908    11857    11842    11843    11809    11758    11731 
   11723    11688    11637    11638    11691    11751    11809    11861 
   11889    11911    11961    12028    12087    12136    12186    12239 
   12235    12160    12096    12085    12109    12131    12085    11963 
   11842    11766    11704    11630    11570    11568    11583    11542 
   11464    11427    11426    11375    11265    11194    11182    11152 
   11090    11029    10987    10976    10997    11032    11067    11091 
   11101    11098    11087    11091    11119    11142    11140    11130 
   11142    11196    11269    11322    11361    11399    11415    11396 
   11338    11257    11200    11188    11198    11183    11125    11086 
   11097    11099    11083    11071    11045    10999    10937    10882 
   10878    10908    10905    10871    10859    10901    10999    11115 
   11198    11256    11318    11373    11445    11564    11703    11842 
   11943    11959    11938    11956    11986    11986    11985    11994 
   11992    11967    11897    11800    11749    11746    11743    11735 
   11712    11692    11689    11680    11677    11707    11731    11735 
   11758    11824    11928    12019    12035    11983    11892    11792 
   11739    11750    11780    11797    11830    11881    11893    11858 
   11838    11828    11796    11749    11681    11600    11535    11495 
   11468    11458    11454    11442    11437    11446    11448    11422 
   11380    11362    11414    11503    11557    11553    11539    11592 
   11686    11724    11697    11639    11581    11587    11647    11703 
   11751    11820    11884    11917    11936    11924    11859    11776 
   11712    11668    11657    11662    11634    11574    11550    11566 
   11568    11534    11487    11423    11346    11322    11399    11533 
   11635    11686    11728    11773    11827    11894    11961    12046 
   12148    12228    12289    12330    12353    12411    12480    12487 
   12453    12405    12343    12302    12278    12236    12174    12078 
   11963    11878    11826    11750    11639    11522    11427    11371 
   11346    11342    11333    11321    11346    11408    11448    11445 
   11415    11369    11310    11250    11222    11244    11294    11323 
   11315    11302    11298    11310    11333    11356    11388    11442 
   11504    11561    11600    11622    11645    11661    11642    11600 
   11583    11600    11614    11601    11560    11493    11449    11475 
   11566    11676    11747    11772    11784    11815    11878    11982 
   12098    12182    12226    12240    12252    12266    12262    12271 
   12325    12378    12375    12312    12212    12105    12016    11948 
   11896    11850    11786    11700    11628    11597    11589    11577 
   11533    11434    11303    11192    11126    11082    11056    11079 
   11138    11195    11268    11395    11541    11646    11716    11780 
   11794    11740    11678    11643    11645    11674    11688    11672 
   11650    11596    11506    11435    11399    11373    11369    11377 
   11361    11342    11348    11394    11485    11600    11693    11753 
   11797    11828    11838    11858    11923    12032    12145    12243 
   12321    12366    12364    12348    12344    12332    12317    12337 
   12357    12324    12259    12166    12036    11902    11800    11720 
   11637    11565    11510    11443    11345    11219    11115    11082 
   11119    11207    11296    11333    11349    11392    11452    11516 
   11592    11658    11699    11719    11734    11742    11754    11784 
   11794    11753    11701    11689    11666    11592    11512    11449 
   11381    11348    11376    11437    11476    11480    11465    11476 
   11522    11573    11616    11634    11611    11572    11535    11518 
   11529    11524    11484    11457    11476    11529    11583    11620 
   11637    11626    11595    11576    11577    11592    11614    11619 
   11608    11616    11638    11645    11677    11735    11747    11695 
   11650    11637    11605    11562    11557    11572    11557    11529 
   11549    11632    11735    11804    11812    11778    11750    11761 
   11786    11785    11774    11803    11888    12023    12144    12208 
   12237    12236    12190    12129    12089    12060    12017    11948 
   11888    11844    11786    11712    11623    11522    11437    11404 
   11408    11408    11408    11398    11353    11308    11288    11279 
   11308    11380    11452    11518    11583    11622    11624    11595 
   11551    11516    11491    11468    11453    11450    11427    11377 
   11333    11315    11311    11311    11308    11304    11302    11298 
   11296    11306    11329    11361    11388    11376    11330    11287 
   11260    11241    11256    11302    11354    11406    11422    11408 
   11416    11435    11450    11484    11534    11600    11678    11736 
   11790    11857    11912    11951    11982    11994    11988    11956 
   11878    11769    11673    11614    11577    11546    11507    11464 
   11412    11362    11326    11311    11315    11334    11365    11412 
   11453    11469    11491    11546    11615    11670    11705    11747 
   11799    11851    11921    11986    12023    12055    12069    12037 
   12004    11975    11909    11790    11647    11533    11468    11399 
   11276    11124    10994    10933    10956    11022    11086    11124 
   11107    11055    11071    11161    11230    11284    11381    11502 
   11610    11704    11788    11851    11908    11979    12040    12039 
   11971    11866    11762    11674    11605    11580    11607    11639 
   11650    11659    11684    11739    11846    11973    12070    12133 
   12191    12243    12279    12324    12391    12453    12483    12479 
   12469    12465    12447    12402    12333    12240    12129    12006 
   11885    11827    11843    11851    11809    11762    11739    11754 
   11789    11790    11759    11735    11716    11692    11681    11689 
   11691    11674    11642    11607    11580    11568    11564    11560 
   11558    11574    11599    11631    11696    11781    11840    11853 
   11836    11830    11853    11869    11847    11820    11816    11830 
   11859    11881    11871    11832    11786    11743    11701    11672 
   11645    11618    11614    11607    11558    11485    11434    11418 
   11411    11381    11340    11322    11346    11398    11438    11454 
   11457    11448    11435    11450    11495    11553    11616    11668 
   11696    11709    11726    11749    11766    11765    11740    11707 
   11681    11681    11703    11709    11692    11681    11684    11678 
   11662    11645    11618    11569    11514    11466    11422    11385 
   11375    11367    11338    11317    11333    11364    11381    11396 
   11421    11443    11464    11470    11469    11477    11475    11443 
   11407    11396    11418    11448    11461    11464    11472    11484 
   11483    11465    11442    11427    11421    11411    11414    11441 
   11485    11541    11585    11608    11631    11685    11776    11870 
   11928    11961    12005    12054    12067    12083    12147    12216 
   12270    12351    12440    12482    12480    12456    12422    12393 
   12355    12305    12258    12204    12121    12012    11881    11740 
   11587    11438    11342    11287    11248    11233    11226    11194 
   11145    11129    11160    11209    11275    11377    11504    11623 
   11740    11866    11973    12059    12140    12209    12243    12226 
   12179    12127    12066    12017    11996    11990    12015    12050 
   12055    12055    12048    12021    12006    11997    11963    11929 
   11909    11900    11909    11936    11979    12035    12102    12186 
   12259    12285    12253    12185    12124    12078    12025    11977 
   11946    11921    11878    11772    11624    11507    11439    11418 
   11404    11373    11346    11323    11302    11294    11284    11261 
   11234    11219    11215    11219    11240    11273    11307    11329 
   11322    11302    11294    11287    11261    11234    11206    11140 
   11049    10982    10959    10990    11053    11097    11101    11117 
   11178    11253    11304    11344    11394    11458    11537    11627 
   11712    11792    11857    11896    11934    11973    11988    11989 
   11985    11967    11963    11970    11948    11901    11848    11792 
   11742    11708    11668    11601    11529    11477    11439    11394 
   11348    11330    11346    11369    11389    11406    11410    11399 
   11377    11348    11326    11329    11340    11360    11410    11475 
   11512    11518    11515    11512    11514    11533    11561    11572 
   11568    11549    11529    11550    11608    11639    11637    11619 
   11588    11561    11541    11524    11524    11531    11538    11551 
   11546    11520    11497    11453    11398    11375    11377    11375 
   11372    11387    11415    11433    11441    11458    11491    11535 
   11578    11595    11608    11658    11734    11817    11890    11912 
   11905    11907    11888    11848    11819    11785    11730    11685 
   11657    11631    11614    11605    11601    11619    11662    11693 
   11689    11680    11700    11745    11801    11854    11893    11915 
   11912    11907    11931    11963    11982    12005    12047    12097 
   12141    12168    12162    12129    12093    12064    12056    12075 
   12118    12172    12240    12298    12306    12264    12213    12175 
   12150    12112    12046    11959    11880    11821    11778    11757 
   11759    11763    11757    11728    11681    11650    11646    11637 
   11605    11584    11593    11622    11645    11661    11669    11661 
   11647    11655    11680    11697    11711    11718    11696    11647 
   11599    11566    11546    11526    11504    11499    11518    11534 
   11534    11519    11499    11502    11518    11518    11508    11506 
   11504    11500    11487    11477    11497    11551    11607    11637 
   11654    11678    11703    11722    11754    11797    11832    11861 
   11897    11948    11986    11977    11925    11862    11816    11792 
   11777    11761    11735    11700    11664    11624    11581    11549 
   11515    11456    11373    11298    11264    11267    11271    11273 
   11276    11261    11248    11261    11279    11271    11257    11272 
   11315    11360    11387    11395    11404    11422    11439    11466 
   11512    11564    11614    11669    11709    11728    11750    11763 
   11763    11770    11781    11773    11746    11713    11689    11674 
   11676    11697    11732    11776    11840    11915    11973    12012 
   12046    12089    12124    12121    12100    12085    12064    12024 
   11978    11959    11977    11992    11970    11931    11908    11886 
   11846    11807    11780    11763    11762    11747    11707    11676 
   11657    11619    11568    11503    11422    11354    11315    11295 
   11288    11292    11294    11277    11269    11284    11287    11260 
   11230    11202    11161    11115    11083    11068    11059    11022 
   10957    10905    10883    10871    10868    10883    10901    10910 
   10925    10948    10976    11017    11064    11109    11159    11221 
   11281    11342    11406    11454    11462    11425    11372    11341 
   11337    11357    11404    11462    11496    11518    11564    11643 
   11739    11824    11897    11959    12013    12083    12160    12212 
   12253    12318    12403    12469    12486    12471    12475    12514 
   12571    12607    12614    12596    12567    12530    12486    12424 
   12337    12237    12127    12015    11917    11836    11770    11738 
   11727    11707    11680    11653    11624    11620    11643    11669 
   11697    11731    11766    11793    11794    11773    11743    11711 
   11672    11626    11576    11512    11449    11403    11361    11331 
   11313    11284    11268    11298    11341    11367    11388    11408 
   11415    11402    11369    11344    11354    11380    11384    11376 
   11375    11372    11373    11395    11421    11452    11480    11473 
   11454    11454    11462    11483    11511    11523    11526    11537 
   11557    11573    11584    11583    11570    11569    11583    11591 
   11585    11581    11578    11550    11495    11458    11453    11448 
   11445    11466    11493    11492    11481    11487    11510    11533 
   11553    11572    11596    11614    11612    11607    11618    11632 
   11655    11704    11757    11785    11794    11796    11789    11767 
   11732    11684    11634    11599    11580    11573    11589    11623 
   11642    11645    11651    11659    11654    11631    11605    11588 
   11573    11557    11530    11484    11438    11407    11383    11361 
   11337    11306    11271    11232    11200    11186    11179    11188 
   11211    11230    11254    11291    11337    11387    11439    11496 
   11554    11610    11684    11778    11858    11917    11977    12046 
   12118    12186    12243    12294    12337    12355    12357    12371 
   12380    12359    12312    12266    12224    12178    12128    12086 
   12055    12021    11977    11938    11913    11892    11885    11904 
   11927    11944    11962    11973    11973    11970    11975    11985 
   11977    11943    11896    11854    11826    11807    11793    11777 
   11738    11691    11657    11608    11537    11475    11421    11365 
   11321    11286    11252    11211    11160    11115    11097    11091 
   11082    11060    11025    10982    10968    11003    11043    11060 
   11086    11130    11171    11206    11256    11329    11407    11472 
   11519    11550    11576    11593    11588    11585    11616    11661 
   11699    11722    11720    11716    11728    11742    11754    11759 
   11753    11749    11753    11755    11762    11767    11762    11749 
   11732    11734    11763    11799    11819    11828    11838    11848 
   11861    11875    11893    11913    11924    11920    11929    11954 
   11963    11948    11913    11880    11862    11843    11811    11778 
   11751    11724    11695    11649    11589    11535    11493    11465 
   11448    11423    11404    11418    11443    11452    11450    11460 
   11491    11542    11595    11631    11668    11709    11754    11793 
   11809    11809    11826    11862    11898    11929    11959    11965 
   11940    11915    11897    11885    11881    11866    11824    11784 
   11762    11738    11716    11711    11703    11674    11645    11626 
   11615    11614    11623    11628    11622    11612    11620    11649 
   11689    11743    11800    11835    11834    11816    11804    11803 
   11821    11855    11882    11897    11908    11911    11908    11897 
   11874    11839    11796    11754    11720    11693    11661    11627 
   11611    11610    11600    11573    11533    11493    11465    11433 
   11399    11376    11368    11381    11416    11446    11454    11450 
   11454    11470    11493    11522    11558    11589    11601    11618 
   11668    11728    11777    11819    11854    11894    11947    11986 
   12006    12016    12016    12020    12028    12025    12005    11985 
   11971    11956    11939    11923    11902    11873    11840    11804 
   11745    11676    11630    11600    11570    11549    11543    11533 
   11507    11481    11464    11462    11477    11495    11502    11508 
   11524    11538    11529    11522    11535    11549    11543    11519 
   11493    11480    11475    11469    11462    11456    11454    11460 
   11468    11473    11485    11500    11495    11473    11469    11475 
   11465    11449    11450    11461    11462    11468    11495    11518 
   11524    11534    11558    11595    11631    11645    11634    11616 
   11591    11558    11538    11527    11516    11506    11476    11430 
   11395    11379    11373    11361    11335    11321    11323    11319 
   11306    11291    11277    11275    11283    11280    11275    11281 
   11291    11303    11317    11331    11346    11344    11337    11346 
   11354    11358    11384    11419    11439    11453    11472    11499 
   11533    11558    11576    11592    11601    11611    11622    11637 
   11666    11711    11747    11769    11792    11815    11823    11820 
   11819    11824    11839    11865    11890    11905    11921    11943 
   11956    11951    11932    11917    11912    11905    11886    11865 
   11850    11843    11843    11836    11827    11827    11830    11826 
   11824    11819    11812    11812    11809    11804    11800    11786 
   11776    11789    11815    11835    11853    11875    11908    11939 
   11971    12005    12020    12013    11990    11959    11943    11956 
   11974    11971    11946    11920    11908    11905    11904    11897 
   11894    11907    11921    11927    11932    11934    11925    11919 
   11921    11921    11908    11889    11867    11835    11811    11813 
   11816    11784    11726    11672    11638    11608    11566    11520 
   11484    11443    11402    11372    11341    11290    11226    11175 
   11156    11178    11219    11250    11267    11284    11307    11341 
   11385    11430    11480    11530    11558    11569    11574    11573 
   11570    11585    11610    11612    11596    11588    11592    11601 
   11623    11647    11654    11641    11626    11628    11653    11684 
   11697    11692    11693    11712    11730    11731    11720    11703 
