Origin Time       2025/01/13 21:19:00
Lat.              31.8
Long.             131.6
Depth. (km)       30
Mag.              6.9
Station Code      HRS012
Station Lat.      34.4274
Station Long.     132.7422
Station Height(m) 214
Record Time       2025/01/13 21:20:52
Sampling Freq(Hz) 100Hz
Duration Time(s)  74
Dir.              E-W
Scale Factor      7845(gal)/8223790
Max. Acc. (gal)   2.433
Last Correction   2025/01/13 21:20:51
Memo.             
[...]
    3667     3451     3345     3358     3553     3955     4455     4823 
    4904     4747     4413     3927     3456     3177     3069     3032 
    3034     3075     3133     3261     3535     3875     4110     4156 
    4000     3715     3407     3163     3105     3358     3912     4536 
    4900     4889     4648     4332     3998     3727     3673     3839 
    4018     4082     4037     3885     3582     3153     2772     2647 
    2867     3316     3736     4045     4376     4731     4955     4954 
    4765     4472     4091     3635     3295     3306     3618     3998 
    4290     4382     4239     4002     3774     3476     3080     2752 
    2608     2656     2976     3535     4048     4367     4595     4747 
    4738     4629     4561     4575     4611     4569     4336     3951 
    3584     3291     3042     2871     2806     2843     2955     3030 
    3019     3121     3488     3877     4020     4006     4064     4244 
    4392     4357     4189     4047     3994     4006     4000     3886 
    3774     3856     4052     4137     4067     3919     3769     3639 
    3474     3296     3249     3361     3481     3507     3497     3570 
    3763     3975     4125     4303     4585     4764     4600     4221 
    3951     3929     4050     4095     3979     3840     3819     3878 
    3932     3920     3782     3569     3393     3230     3001     2782 
    2720     2899     3302     3765     4101     4311     4504     4704 
    4872     4959     4936     4900     4943     4912     4630     4268 
    4058     3878     3480     2944     2606     2592     2681     2720 
    2906     3377     3819     3888     3719     3657     3786     4052 
    4414     4754     4980     5053     4954     4756     4576     4456 
    4391     4348     4234     3986     3669     3393     3173     2999 
    2938     3053     3267     3442     3524     3538     3600     3870 
    4275     4536     4538     4396     4214     4045     3971     4058 
    4270     4472     4585     4595     4409     4001     3612     3457 
    3422     3377     3442     3620     3626     3397     3218     3164 
    3106     3156     3495     3963     4233     4261     4278     4349 
    4321     4085     3731     3446     3264     3118     3075     3172 
    3299     3384     3461     3608     3840     4087     4286     4417 
    4545     4734     4828     4654     4374     4232     4206     4163 
    4028     3793     3592     3592     3738     3844     3867     3913 
    4004     3962     3630     3186     3019     3207     3460     3674 
    4002     4414     4699     4793     4792     4749     4641     4459 
    4251     4087     3888     3495     2991     2641     2536     2625 
    2874     3133     3272     3389     3588     3839     4120     4383 
    4561     4699     4823     4769     4461     4198     4166     4059 
    3608     3032     2741     2825     3022     3214     3559     4086 
    4550     4729     4642     4440     4195     3955     3832     3861 
    3925     3943     3908     3802     3672     3622     3688     3915 
    4287     4554     4498     4218     3962     3889     3967     4023 
    3950     3748     3447     3152     2961     2863     2871     3075 
    3456     3863     4197     4378     4310     4091     3943     3893 
    3873     3875     3927     4112     4388     4500     4332     4144 
    4179     4303     4279     4168     4155     4230     4163     3792 
    3376     3331     3562     3585     3299     3114     3283     3499 
    3429     3242     3306     3670     4041     4186     4174     4167 
    4149     4079     4094     4245     4338     4253     4039     3774 
    3565     3447     3399     3507     3786     3969     3836     3584 
    3572     3850     4099     4109     3981     3871     3794     3731 
    3717     3751     3761     3697     3632     3650     3672     3635 
    3666     3852     4112     4320     4390     4374     4372     4328 
    4153     3948     3897     4000     4077     4095     4187     4299 
    4252     4089     4001     3974     3793     3404     3056     2987 
    3090     3067     2947     3109     3635     4091     4286     4541 
    5017     5463     5575     5285     4788     4303     3866     3477 
    3136     2795     2562     2531     2555     2594     2839     3289 
    3730     4025     4136     4074     3943     3847     3850     4051 
    4399     4635     4604     4402     4212     4098     3979     3790 
    3665     3829     4199     4413     4374     4213     3944     3574 
    3194     2866     2614     2498     2691     3219     3780     4180 
    4471     4626     4662     4689     4653     4476     4241     4089 
    4063     4050     3936     3877     4072     4383     4499     4344 
    4120     4004     3927     3798     3685     3601     3495     3419 
    3526     3815     3981     3859     3777     4008     4419     4779 
    4943     4909     4837     4828     4729     4321     3727     3333 
    3334     3585     3786     3808     3825     3931     3894     3569 
    3118     2841     2910     3195     3468     3680     3867     4010 
    4077     4024     3817     3526     3395     3559     3839     4110 
    4363     4414     4185     3847     3547     3329     3223     3283 
    3535     3807     3890     3886     3977     4081     4118     4252 
    4476     4417     3878     3279     3145     3365     3443     3376 
    3514     3775     3851     3748     3635     3596     3635     3727 
    3871     4081     4286     4274     3937     3659     3859     4325 
    4625     4731     4901     5213     5418     5305     4908     4345 
    3820     3466     3123     2714     2502     2678     3080     3423 
    3645     3933     4342     4552     4387     4259     4519     4846 
    4874     4702     4504     4294     4071     3898     3875     3982 
    4012     3827     3658     3846     4247     4372     4174     4005 
    3863     3514     3065     2768     2721     2903     3171     3473 
    3854     4135     4175     4110     4017     3983     4187     4584 
    4961     5123     4968     4590     4098     3584     3234     3106 
    3060     3159     3519     3839     3808     3612     3523     3542 
    3600     3626     3601     3554     3441     3360     3538     3893 
    4182     4383     4534     4594     4477     4118     3676     3449 
    3488     3646     3878     4170     4438     4560     4449     4162 
    3842     3666     3748     3888     3796     3595     3518     3416 
    3117     2845     2841     2961     3017     3172     3631     4207 
    4604     4842     5066     5190     5077     4679     4033     3518 
    3532     3812     3800     3562     3596     3873     3879     3516 
    3146     2970     2921     2845     2713     2766     3065     3275 
    3312     3476     3817     4135     4383     4652     4958     5258 
    5518     5722     5836     5715     5173     4329     3501     2775 
    2216     2030     2189     2477     2754     2913     3018     3281 
    3639     3839     3870     3910     3998     3977     3804     3647 
    3580     3543     3592     3705     3634     3402     3392     3758 
    4264     4584     4591     4452     4301     4023     3580     3175 
    2975     2945     2897     2698     2540     2752     3325     3989 
    4550     4903     4962     4703     4197     3701     3489     3524 
    3543     3424     3333     3531     3962     4156     3905     3623 
    3657     3809     3821     3735     3655     3626     3665     3682 
    3597     3481     3385     3280     3221     3277     3416     3591 
    3705     3681     3666     3805     3987     4012     3792     3496 
    3383     3457     3603     3813     4079     4318     4506     4677 
    4746     4618     4337     3894     3337     2909     2698     2560 
    2358     2150     2238     2671     3019     3069     3171     3628 
    4221     4567     4653     4610     4506     4429     4232     3842 
    3578     3503     3338     3114     3010     2928     2778     2709 
    2776     2820     2864     3100     3427     3601     3657     3719 
    3840     4070     4368     4572     4511     4149     3689     3408 
    3315     3203     3038     3032     3254     3515     3697     3794 
    3747     3636     3723     4091     4514     4702     4612     4468 
    4367     4135     3728     3383     3261     3248     3126     2943 
    2937     3084     3203     3373     3744     4252     4691     4787 
    4548     4341     4240     3994     3632     3370     3276     3273 
    3330     3586     4059     4382     4315     4140     4099     4089 
    4013     3929     3977     4255     4607     4734     4560     4295 
    4078     3786     3449     3380     3670     4037     4218     4248 
    4275     4286     4274     4436     4803     5065     5022     4781 
    4477     4152     3950     4047     4274     4303     4191     4101 
    3971     3824     3854     4064     4207     4236     4355     4558 
    4726     4868     4984     5066     5170     5279     5252     5001 
    4652     4426     4315     4085     3704     3488     3623     3919 
    4132     4266     4473     4766     4936     4861     4664     4569 
    4625     4618     4402     4152     4041     3987     3873     3699 
    3619     3815     4194     4473     4510     4383     4247     4167 
    4047     3813     3595     3512     3431     3199     2944     2929 
    3194     3505     3651     3670     3720     3848     3956     4017 
    4093     4229     4452     4702     4922     5178     5381     5290 
    5063     5057     5132     4935     4564     4409     4596     4820 
    4747     4510     4442     4509     4544     4627     4839     5074 
    5252     5421     5564     5509     5275     5117     5097     5034 
    4807     4450     4109     3982     4176     4598     5047     5408 
    5634     5706     5672     5556     5300     4887     4423     4091 
    4047     4194     4276     4255     4256     4330     4521     4849 
    5194     5412     5509     5532     5410     5135     4823     4468 
    4013     3584     3339     3271     3226     3154     3221     3493 
    3815     4086     4297     4415     4384     4202     4027     3937 
    3832     3734     3684     3605     3469     3300     3119     2971 
    2860     2764     2786     3106     3620     3902     3765     3476 
    3349     3360     3275     3069     2999     3198     3433     3423 
    3262     3204     3229     3172     3064     3014     2978     2857 
    2628     2369     2245     2241     2181     2095     2143     2286 
    2326     2262     2404     2851     3265     3460     3607     3777 
    3748     3380     2905     2639     2565     2497     2431     2500 
    2655     2648     2442     2235     2168     2230     2282     2269 
    2416     2851     3289     3449     3366     3273     3414     3782 
    4117     4325     4486     4590     4625     4580     4379     4139 
    4082     4102     3985     3802     3603     3273     2934     2835 
    2975     3191     3318     3341     3429     3646     3883     4140 
    4527     5003     5389     5641     5822     5871     5676     5252 
    4749     4382     4186     4006     3811     3658     3483     3204 
    2863     2531     2236     2070     2180     2492     2795     3090 
    3419     3661     3708     3678     3715     3767     3805     3990 
    4332     4573     4598     4526     4463     4379     4202     3969 
    3797     3667     3457     3172     2922     2821     2895     2994 
    3007     2929     2663     2284     2058     2099     2413     2909 
    3303     3578     3983     4432     4608     4483     4295     4243 
    4298     4278     4132     4005     3975     3898     3657     3366 
    3172     3049     2905     2695     2548     2728     3141     3331 
    3203     3069     3075     3154     3292     3531     3871     4233 
    4482     4510     4410     4401     4483     4529     4623     4887 
    5184     5231     4951     4541     4120     3607     3084     2794 
    2727     2666     2517     2388     2436     2666     2929     3161 
    3460     3893     4317     4579     4843     5269     5698     6018 
    6235     6176     5745     5166     4679     4264     3801     3412 
    3300     3360     3299     3034     2741     2594     2589     2633 
    2737     3021     3573     4256     4741     4911     4951     4954 
    4828     4515     4145     4040     4244     4344     4120     3832 
    3655     3497     3331     3253     3283     3424     3730     4152 
    4521     4781     5012     5205     5266     5184     5073     5044 
    5030     4834     4490     4222     4072     3925     3781     3653 
    3416     3009     2552     2245     2124     2023     1896     1953 
    2295     2708     2928     2982     3072     3307     3628     3879 
    4093     4465     4828     4830     4588     4406     4236     3925 
    3520     3161     2938     2794     2650     2592     2686     2817 
    2845     2766     2712     2797     2964     3098     3203     3369 
    3576     3704     3766     3913     4168     4411     4546     4542 
    4433     4264     4025     3739     3493     3338     3199     3007 
    2829     2691     2558     2498     2609     2926     3360     3731 
    4075     4552     4999     5175     5161     5105     4939     4606 
    4251     4036     3928     3769     3566     3551     3740     3821 
    3716     3699     3838     3908     3809     3653     3524     3384 
    3187     2978     2814     2749     2839     3048     3315     3680 
    4176     4704     5161     5626     6120     6411     6384     6191 
    5929     5572     5181     4930     4872     4899     4968     5066 
    5150     5220     5329     5449     5444     5320     5221     5161 
    5086     5042     5076     5131     5086     4951     4885     4908 
    4884     4787     4742     4853     5049     5143     5005     4653 
    4236     3846     3434     3038     2708     2423     2255     2274 
    2413     2579     2721     2841     3015     3281     3580     3852 
    4155     4515     4773     4814     4687     4506     4359     4174 
    3933     3813     3789     3673     3524     3424     3226     2910 
    2654     2490     2346     2245     2266     2435     2678     2886 
    3055     3253     3514     3815     4155     4523     4818     4997 
    5209     5524     5764     5764     5553     5258     4996     4722 
    4322     3924     3692     3572     3516     3537     3568     3511 
    3273     2920     2686     2620     2575     2577     2725     2999 
    3311     3554     3705     3851     3997     4067     4089     4113 
    4062     3897     3730     3623     3518     3397     3338     3389 
    3507     3578     3545     3391     3137     2945     2991     3167 
    3242     3227     3245     3252     3113     2899     2901     3211 
    3597     3898     4112     4210     4207     4144     3971     3736 
    3569     3414     3146     2849     2683     2635     2629     2744 
    3046     3437     3804     4166     4587     5013     5296     5462 
    5664     5829     5778     5556     5335     5167     5004     4847 
    4769     4770     4769     4710     4618     4549     4479     4282 
    3929     3599     3396     3229     3063     2970     2991     3115 
    3311     3551     3792     3983     4101     4118     4014     3886 
    3866     3856     3632     3171     2743     2597     2629     2644 
    2655     2708     2805     2951     3095     3215     3333     3408 
    3415     3426     3528     3699     3790     3793     3933     4311 
    4726     4968     5032     5016     4942     4815     4742     4799 
    4878     4874     4847     4907     4965     4833     4588     4460 
    4449     4450     4471     4498     4494     4526     4622     4662 
    4558     4361     4182     4050     3821     3397     2986     2794 
    2717     2608     2532     2571     2633     2625     2632     2752 
    2922     3073     3230     3415     3689     4041     4293     4360 
    4390     4445     4382     4121     3838     3713     3738     3796 
    3736     3457     3099     2872     2774     2716     2643     2601 
    2708     2928     3118     3273     3402     3454     3433     3327 
    3087     2802     2656     2658     2727     2907     3191     3429 
    3558     3618     3618     3589     3609     3713     3859     3990 
    4095     4156     4062     3817     3651     3688     3804     3917 
    4132     4529     4957     5225     5363     5506     5683     5805 
    5760     5567     5321     5043     4769     4585     4446     4298 
    4216     4137     3927     3697     3593     3592     3651     3715 
    3708     3688     3726     3761     3696     3503     3230     2990 
    2857     2805     2802     2899     3080     3196     3217     3262 
    3288     3146     2936     2876     2968     3040     3038     3103 
    3311     3515     3615     3723     3924     4152     4328     4415 
    4419     4411     4467     4553     4625     4693     4770     4808 
    4760     4649     4521     4356     4172     4087     4068     3985 
    3844     3697     3585     3562     3639     3815     4048     4282 
    4598     5001     5252     5235     5078     4895     4691     4491 
    4401     4411     4368     4275     4267     4333     4364     4256 
    4054     3978     4056     4045     3869     3699     3662     3712 
    3743     3800     3998     4197     4198     4128     4137     4147 
    4074     3952     3840     3707     3510     3279     3056     2890 
    2810     2801     2871     3033     3235     3460     3723     3946 
    3986     3829     3604     3403     3206     2980     2741     2531 
    2424     2481     2728     3067     3330     3538     3800     4023 
    4131     4249     4438     4608     4726     4808     4822     4787 
    4818     4915     4986     5031     5049     4968     4779     4579 
    4425     4233     3962     3696     3446     3163     2898     2756 
    2779     2949     3190     3450     3727     3944     4058     4156 
    4302     4480     4646     4730     4734     4699     4575     4303 
    3956     3662     3468     3353     3281     3240     3222     3204 
    3199     3307     3520     3705     3866     4079     4341     4591 
    4716     4699     4689     4727     4672     4484     4230     3960 
    3704     3456     3215     2984     2813     2810     3001     3318 
    3654     3951     4213     4398     4472     4519     4596     4687 
    4807     4916     4880     4693     4499     4380     4299     4187 
    4066     4033     4104     4180     4155     4021     3906     3893 
    3912     3881     3784     3636     3488     3304     3002     2689 
    2544     2505     2454     2447     2485     2470     2432     2478 
    2594     2744     2943     3179     3400     3588     3730     3792 
    3782     3735     3680     3692     3811     3964     4113     4248 
    4321     4326     4280     4153     3985     3855     3720     3469 
    3126     2874     2797     2779     2791     2922     3125     3269 
    3343     3427     3576     3778     3985     4170     4342     4502 
    4634     4696     4622     4430     4220     4048     3851     3564 
    3292     3168     3175     3261     3404     3573     3767     3939 
    4056     4191     4360     4561     4842     5202     5603     5980 
    6216     6291     6307     6303     6234     6054     5784     5505 
