Origin Time       2025/01/13 21:19:00
Lat.              31.8
Long.             131.6
Depth. (km)       30
Mag.              6.9
Station Code      HRS009
Station Lat.      34.4927
Station Long.     132.2802
Station Height(m) 218
Record Time       2025/01/13 21:20:34
Sampling Freq(Hz) 100Hz
Duration Time(s)  95
Dir.              U-D
Scale Factor      7845(gal)/8223790
Max. Acc. (gal)   1.308
Last Correction   2025/01/13 21:20:33
Memo.             
[...]
  -28701   -28653   -28522   -28409   -28420   -28540   -28661   -28696 
  -28625   -28529   -28514   -28579   -28642   -28653   -28653   -28698 
  -28760   -28788   -28771   -28718   -28655   -28614   -28597   -28595 
  -28624   -28694   -28782   -28857   -28900   -28925   -28952   -28980 
  -28965   -28884   -28760   -28629   -28530   -28483   -28475   -28541 
  -28682   -28804   -28830   -28771   -28698   -28695   -28760   -28817 
  -28841   -28863   -28888   -28877   -28792   -28656   -28521   -28431 
  -28387   -28378   -28390   -28418   -28449   -28470   -28470   -28447 
  -28418   -28404   -28402   -28404   -28394   -28383   -28391   -28414 
  -28455   -28521   -28615   -28736   -28857   -28946   -29006   -29060 
  -29107   -29131   -29114   -29052   -28993   -28975   -28939   -28848 
  -28737   -28640   -28580   -28584   -28613   -28641   -28644   -28583 
  -28489   -28416   -28413   -28487   -28556   -28567   -28568   -28603 
  -28663   -28696   -28647   -28526   -28459   -28513   -28606   -28642 
  -28629   -28605   -28618   -28688   -28765   -28804   -28815   -28804 
  -28760   -28683   -28611   -28579   -28564   -28533   -28509   -28528 
  -28595   -28665   -28688   -28655   -28583   -28516   -28509   -28541 
  -28570   -28599   -28618   -28634   -28672   -28695   -28679   -28665 
  -28688   -28737   -28772   -28757   -28721   -28719   -28745   -28745 
  -28710   -28660   -28620   -28609   -28618   -28647   -28702   -28757 
  -28802   -28849   -28876   -28867   -28844   -28817   -28779   -28734 
  -28698   -28672   -28629   -28534   -28418   -28362   -28402   -28490 
  -28517   -28480   -28485   -28564   -28644   -28642   -28539   -28405 
  -28350   -28363   -28382   -28355   -28278   -28236   -28306   -28449 
  -28578   -28633   -28618   -28597   -28602   -28626   -28669   -28744 
  -28819   -28837   -28803   -28771   -28765   -28815   -28888   -28881 
  -28790   -28696   -28620   -28563   -28555   -28561   -28539   -28521 
  -28548   -28636   -28745   -28760   -28637   -28526   -28570   -28734 
  -28894   -28934   -28871   -28806   -28773   -28733   -28665   -28572 
  -28516   -28534   -28593   -28634   -28587   -28432   -28278   -28219 
  -28269   -28383   -28475   -28489   -28445   -28395   -28389   -28436 
  -28512   -28560   -28549   -28486   -28386   -28314   -28348   -28460 
  -28575   -28661   -28701   -28722   -28745   -28740   -28707   -28667 
  -28613   -28568   -28579   -28644   -28741   -28826   -28860   -28875 
  -28885   -28849   -28800   -28768   -28696   -28599   -28537   -28522 
  -28595   -28730   -28822   -28823   -28761   -28678   -28613   -28571 
  -28526   -28462   -28401   -28393   -28432   -28498   -28539   -28472 
  -28362   -28335   -28408   -28529   -28606   -28590   -28575   -28629 
  -28728   -28815   -28833   -28795   -28780   -28776   -28719   -28625 
  -28520   -28432   -28414   -28441   -28474   -28545   -28640   -28722 
  -28790   -28795   -28742   -28701   -28703   -28738   -28734   -28621 
  -28464   -28377   -28416   -28568   -28732   -28819   -28830   -28798 
  -28761   -28737   -28676   -28574   -28495   -28460   -28491   -28620 
  -28777   -28873   -28890   -28854   -28813   -28815   -28863   -28884 
  -28826   -28717   -28633   -28633   -28688   -28706   -28645   -28551 
  -28489   -28487   -28520   -28551   -28568   -28583   -28587   -28561 
  -28540   -28563   -28606   -28640   -28690   -28753   -28803   -28821 
  -28784   -28726   -28703   -28714   -28703   -28638   -28545   -28489 
  -28506   -28568   -28595   -28543   -28439   -28352   -28332   -28368 
  -28398   -28398   -28394   -28406   -28495   -28651   -28718   -28624 
  -28453   -28256   -28098   -28074   -28131   -28209   -28335   -28479 
  -28626   -28779   -28856   -28811   -28667   -28468   -28308   -28250 
  -28297   -28431   -28576   -28676   -28760   -28826   -28850   -28860 
  -28871   -28887   -28934   -28987   -29010   -29006   -28975   -28904 
  -28798   -28690   -28613   -28545   -28448   -28352   -28313   -28370 
  -28540   -28742   -28868   -28964   -29069   -29104   -29033   -28881 
  -28721   -28664   -28728   -28809   -28846   -28846   -28850   -28900 
  -28962   -28960   -28884   -28783   -28709   -28706   -28744   -28790 
  -28856   -28911   -28911   -28860   -28787   -28732   -28705   -28676 
  -28645   -28648   -28698   -28784   -28858   -28845   -28760   -28664 
  -28556   -28431   -28320   -28263   -28302   -28418   -28522   -28553 
  -28510   -28435   -28381   -28359   -28366   -28435   -28567   -28702 
  -28795   -28845   -28846   -28814   -28783   -28726   -28651   -28597 
  -28544   -28510   -28560   -28641   -28680   -28668   -28593   -28493 
  -28455   -28486   -28571   -28710   -28841   -28907   -28923   -28898 
  -28838   -28784   -28755   -28728   -28698   -28656   -28607   -28598 
  -28617   -28605   -28607   -28679   -28775   -28844   -28842   -28729 
  -28567   -28464   -28422   -28393   -28356   -28327   -28323   -28351 
  -28386   -28377   -28350   -28420   -28606   -28802   -28942   -29052 
  -29137   -29174   -29118   -28946   -28772   -28702   -28705   -28771 
  -28875   -28918   -28922   -28933   -28914   -28894   -28864   -28741 
  -28583   -28487   -28487   -28588   -28682   -28672   -28626   -28609 
  -28669   -28799   -28848   -28786   -28723   -28675   -28641   -28647 
  -28651   -28640   -28620   -28555   -28436   -28305   -28201   -28156 
  -28206   -28333   -28456   -28525   -28547   -28556   -28605   -28663 
  -28698   -28745   -28807   -28821   -28726   -28520   -28278   -28101 
  -28046   -28109   -28242   -28399   -28561   -28699   -28782   -28814 
  -28815   -28800   -28788   -28759   -28679   -28591   -28547   -28522 
  -28459   -28350   -28267   -28291   -28406   -28551   -28687   -28787 
  -28846   -28860   -28815   -28746   -28707   -28695   -28702   -28738 
  -28784   -28799   -28786   -28760   -28676   -28520   -28387   -28356 
  -28413   -28502   -28549   -28534   -28487   -28435   -28402   -28433 
  -28545   -28674   -28737   -28719   -28638   -28526   -28435   -28387 
  -28370   -28367   -28381   -28432   -28561   -28734   -28849   -28863 
  -28821   -28807   -28844   -28881   -28881   -28818   -28728   -28683 
  -28695   -28728   -28729   -28668   -28618   -28629   -28645   -28624 
  -28549   -28472   -28501   -28605   -28668   -28637   -28505   -28356 
  -28327   -28413   -28525   -28606   -28634   -28629   -28603   -28557 
  -28514   -28510   -28570   -28694   -28842   -28960   -29049   -29116 
  -29145   -29126   -29054   -28912   -28757   -28672   -28651   -28641 
  -28611   -28556   -28520   -28525   -28536   -28532   -28529   -28539 
  -28588   -28672   -28736   -28773   -28825   -28887   -28944   -28966 
  -28934   -28881   -28872   -28881   -28846   -28794   -28757   -28692 
  -28607   -28536   -28456   -28393   -28374   -28323   -28188   -28054 
  -27993   -28020   -28134   -28271   -28372   -28456   -28522   -28547 
  -28532   -28485   -28387   -28254   -28158   -28154   -28250   -28428 
  -28615   -28746   -28823   -28877   -28914   -28904   -28829   -28732 
  -28668   -28644   -28656   -28698   -28772   -28865   -28926   -28902 
  -28780   -28637   -28579   -28611   -28688   -28786   -28861   -28906 
  -28931   -28911   -28837   -28733   -28614   -28532   -28520   -28557 
  -28605   -28610   -28566   -28505   -28483   -28547   -28645   -28678 
  -28632   -28575   -28566   -28571   -28549   -28547   -28601   -28698 
  -28831   -28950   -28965   -28858   -28672   -28517   -28489   -28520 
  -28498   -28449   -28425   -28468   -28575   -28652   -28656   -28632 
  -28618   -28636   -28669   -28669   -28652   -28668   -28694   -28663 
  -28593   -28594   -28715   -28877   -28960   -28926   -28872   -28907 
  -28993   -29002   -28884   -28691   -28510   -28433   -28456   -28520 
  -28602   -28690   -28761   -28803   -28782   -28678   -28524   -28382 
  -28329   -28370   -28443   -28520   -28613   -28722   -28807   -28802 
  -28703   -28605   -28601   -28686   -28783   -28846   -28904   -28989 
  -29056   -29025   -28868   -28669   -28580   -28651   -28788   -28869 
  -28829   -28691   -28583   -28553   -28537   -28537   -28556   -28513 
  -28483   -28578   -28725   -28850   -28868   -28705   -28533   -28540 
  -28661   -28769   -28780   -28687   -28611   -28636   -28690   -28705 
  -28706   -28688   -28626   -28576   -28582   -28630   -28706   -28721 
  -28632   -28507   -28387   -28300   -28274   -28264   -28270   -28337 
  -28464   -28603   -28675   -28634   -28556   -28533   -28602   -28718 
  -28787   -28752   -28629   -28503   -28448   -28435   -28452   -28547 
  -28694   -28823   -28873   -28838   -28764   -28692   -28621   -28520 
  -28426   -28435   -28543   -28653   -28694   -28663   -28640   -28660 
  -28663   -28649   -28647   -28668   -28748   -28821   -28786   -28690 
  -28599   -28522   -28485   -28480   -28510   -28605   -28737   -28822 
  -28821   -28745   -28660   -28622   -28593   -28534   -28517   -28576 
  -28661   -28728   -28757   -28763   -28782   -28809   -28811   -28791 
  -28773   -28786   -28826   -28856   -28853   -28852   -28857   -28848 
  -28842   -28849   -28844   -28833   -28818   -28795   -28782   -28760 
  -28711   -28675   -28690   -28736   -28786   -28807   -28796   -28802 
  -28845   -28896   -28919   -28900   -28845   -28761   -28659   -28548 
  -28426   -28341   -28362   -28479   -28621   -28732   -28787   -28779 
  -28715   -28651   -28617   -28591   -28610   -28715   -28842   -28926 
  -28919   -28788   -28594   -28432   -28339   -28337   -28429   -28556 
  -28676   -28757   -28761   -28701   -28614   -28537   -28524   -28590 
  -28659   -28703   -28745   -28756   -28699   -28580   -28437   -28343 
  -28344   -28410   -28502   -28601   -28674   -28725   -28811   -28910 
  -28950   -28919   -28825   -28707   -28620   -28528   -28422   -28398 
  -28502   -28680   -28860   -28971   -28983   -28934   -28887   -28854 
  -28809   -28733   -28641   -28556   -28495   -28463   -28439   -28441 
  -28517   -28660   -28830   -28998   -29130   -29214   -29277   -29320 
  -29327   -29295   -29193   -29042   -28942   -28937   -28975   -28993 
  -28956   -28883   -28830   -28827   -28856   -28842   -28738   -28564 
  -28371   -28227   -28183   -28239   -28344   -28420   -28436   -28436 
  -28440   -28448   -28467   -28502   -28539   -28540   -28498   -28482 
  -28545   -28640   -28679   -28641   -28548   -28386   -28167   -27962 
  -27830   -27803   -27888   -27996   -28073   -28183   -28337   -28482 
  -28575   -28591   -28607   -28703   -28840   -28937   -28929   -28804 
  -28672   -28602   -28560   -28529   -28524   -28568   -28690   -28819 
  -28857   -28819   -28803   -28837   -28850   -28769   -28601   -28467 
  -28472   -28576   -28686   -28756   -28787   -28854   -28961   -28998 
  -28922   -28779   -28656   -28667   -28810   -29011   -29209   -29353 
  -29424   -29425   -29359   -29268   -29150   -28995   -28849   -28760 
  -28776   -28926   -29100   -29154   -29042   -28787   -28495   -28321 
  -28302   -28377   -28482   -28578   -28664   -28725   -28692   -28545 
  -28354   -28185   -28080   -28042   -28057   -28148   -28327   -28489 
  -28544   -28510   -28426   -28359   -28360   -28370   -28345   -28325 
  -28314   -28293   -28237   -28123   -27967   -27818   -27699   -27639 
  -27634   -27689   -27845   -28094   -28355   -28533   -28566   -28447 
  -28286   -28188   -28165   -28205   -28277   -28371   -28509   -28663 
  -28786   -28858   -28853   -28804   -28804   -28888   -29053   -29238 
  -29304   -29222   -29070   -28910   -28765   -28622   -28470   -28374 
  -28417   -28597   -28792   -28875   -28817   -28686   -28587   -28601 
  -28645   -28614   -28553   -28539   -28584   -28663   -28682   -28593 
  -28444   -28316   -28287   -28382   -28522   -28617   -28645   -28632 
  -28614   -28614   -28618   -28599   -28563   -28509   -28428   -28348 
  -28293   -28274   -28332   -28463   -28580   -28630   -28630   -28614 
  -28620   -28663   -28705   -28703   -28667   -28615   -28579   -28601 
  -28668   -28715   -28709   -28660   -28601   -28560   -28544   -28534 
  -28512   -28453   -28385   -28394   -28470   -28501   -28460   -28391 
  -28362   -28439   -28572   -28679   -28744   -28748   -28709   -28672 
  -28610   -28517   -28417   -28310   -28270   -28345   -28459   -28556 
  -28597   -28526   -28371   -28179   -28004   -27927   -27947   -27967 
  -27945   -27911   -27919   -27959   -27969   -27920   -27888   -27966 
  -28169   -28413   -28578   -28602   -28540   -28497   -28494   -28460 
  -28381   -28312   -28294   -28358   -28480   -28613   -28733   -28831 
  -28895   -28950   -28998   -29010   -28973   -28902   -28863   -28899 
  -28958   -29010   -29035   -29020   -28972   -28898   -28852   -28900 
  -29035   -29195   -29303   -29301   -29236   -29160   -29046   -28917 
  -28854   -28896   -28998   -29073   -29081   -29062   -29016   -28919 
  -28818   -28745   -28707   -28715   -28734   -28763   -28827   -28867 
  -28829   -28750   -28676   -28625   -28593   -28575   -28580   -28566 
  -28486   -28386   -28296   -28206   -28142   -28105   -28073   -28040 
  -28027   -28038   -28047   -28032   -28004   -27993   -28003   -28016 
  -28024   -28036   -28047   -28023   -27965   -27908   -27881   -27928 
  -28043   -28156   -28235   -28256   -28215   -28174   -28197   -28282 
  -28417   -28553   -28642   -28672   -28641   -28583   -28579   -28667 
  -28794   -28880   -28879   -28830   -28796   -28795   -28810   -28838 
  -28915   -29084   -29308   -29508   -29651   -29754   -29837   -29907 
  -29951   -29980   -30010   -30007   -29952   -29843   -29668   -29488 
  -29409   -29415   -29430   -29470   -29519   -29527   -29506   -29438 
  -29313   -29199   -29119   -29057   -28993   -28922   -28869   -28842 
  -28815   -28787   -28769   -28772   -28788   -28792   -28760   -28688 
  -28601   -28522   -28429   -28302   -28200   -28175   -28204   -28229 
  -28243   -28255   -28255   -28239   -28248   -28304   -28383   -28480 
  -28556   -28557   -28516   -28451   -28329   -28179   -28040   -27896 
  -27787   -27801   -27945   -28119   -28229   -28251   -28202   -28123 
  -28047   -27997   -27990   -28051   -28193   -28405   -28624   -28752 
  -28729   -28610   -28510   -28487   -28552   -28682   -28844   -29023 
  -29180   -29276   -29335   -29376   -29365   -29286   -29161   -29019 
  -28912   -28868   -28844   -28803   -28742   -28647   -28522   -28408 
  -28350   -28356   -28432   -28563   -28690   -28760   -28796   -28860 
  -28992   -29173   -29322   -29400   -29431   -29436   -29430   -29404 
  -29327   -29203   -29072   -28981   -28946   -28934   -28903   -28834 
  -28757   -28742   -28806   -28904   -28962   -28929   -28867   -28871 
  -28931   -28975   -28939   -28830   -28715   -28660   -28682   -28723 
  -28694   -28568   -28417   -28343   -28374   -28447   -28505   -28525 
  -28507   -28494   -28520   -28545   -28514   -28404   -28246   -28135 
  -28136   -28229   -28362   -28463   -28525   -28598   -28653   -28632 
  -28548   -28456   -28428   -28502   -28633   -28760   -28880   -29011 
  -29135   -29234   -29299   -29311   -29255   -29134   -28999   -28908 
  -28860   -28803   -28690   -28512   -28366   -28325   -28352   -28389 
  -28413   -28433   -28458   -28447   -28381   -28323   -28314   -28344 
  -28374   -28362   -28317   -28293   -28325   -28439   -28590   -28701 
  -28749   -28771   -28796   -28844   -28891   -28917   -28908   -28864 
  -28815   -28796   -28814   -28854   -28869   -28838   -28806   -28814 
  -28868   -28933   -28941   -28914   -28934   -29008   -29095   -29128 
  -29088   -29016   -28948   -28907   -28921   -28954   -28954   -28935 
  -28922   -28900   -28865   -28807   -28718   -28652   -28653   -28675 
  -28663   -28614   -28552   -28536   -28605   -28714   -28796   -28846 
  -28861   -28844   -28836   -28827   -28777   -28718   -28660   -28576 
  -28483   -28393   -28308   -28281   -28328   -28375   -28386   -28371 
  -28328   -28297   -28300   -28296   -28262   -28220   -28192   -28204 
  -28252   -28279   -28254   -28206   -28161   -28161   -28228   -28286 
  -28275   -28220   -28127   -28000   -27886   -27815   -27776   -27746 
  -27729   -27726   -27720   -27715   -27722   -27729   -27737   -27773 
  -27846   -27955   -28088   -28190   -28233   -28264   -28310   -28393 
  -28525   -28656   -28768   -28906   -29034   -29099   -29112   -29093 
  -29069   -29080   -29118   -29151   -29176   -29155   -29058   -28915 
  -28787   -28714   -28736   -28857   -29033   -29193   -29292   -29304 
  -29238   -29124   -29025   -28972   -28958   -28980   -29016   -29034 
  -29033   -29008   -28945   -28880   -28879   -28922   -28958   -28996 
  -29052   -29093   -29091   -29008   -28849   -28665   -28516   -28449 
  -28456   -28440   -28377   -28304   -28224   -28151   -28086   -28013 
  -27959   -27949   -27973   -28035   -28100   -28134   -28169   -28213 
  -28240   -28259   -28281   -28306   -28345   -28395   -28433   -28448 
  -28436   -28391   -28355   -28352   -28345   -28329   -28333   -28358 
  -28387   -28421   -28463   -28507   -28530   -28479   -28359   -28236 
  -28132   -28034   -27958   -27943   -28019   -28156   -28290   -28385 
  -28462   -28557   -28692   -28813   -28867   -28863   -28844   -28852 
  -28904   -28992   -29100   -29207   -29301   -29382   -29434   -29450 
  -29446   -29440   -29444   -29470   -29498   -29512   -29511   -29492 
  -29466   -29443   -29411   -29371   -29357   -29370   -29403   -29424 
  -29386   -29282   -29157   -29041   -28954   -28914   -28921   -28976 
  -29037   -29064   -29079   -29101   -29110   -29084   -29006   -28892 
  -28794   -28717   -28626   -28497   -28345   -28210   -28112   -28051 
  -28026   -28043   -28134   -28282   -28444   -28575   -28656   -28691 
  -28701   -28682   -28642   -28605   -28563   -28516   -28475   -28437 
  -28422   -28449   -28478   -28453   -28382   -28287   -28185   -28098 
  -28013   -27922   -27874   -27904   -27990   -28071   -28098   -28098 
  -28113   -28148   -28196   -28233   -28250   -28256   -28269   -28262 
  -28194   -28075   -27984   -27992   -28115   -28301   -28462   -28555 
  -28595   -28622   -28655   -28675   -28672   -28632   -28543   -28425 
  -28316   -28233   -28192   -28159   -28113   -28094   -28128   -28194 
  -28283   -28370   -28437   -28524   -28628   -28701   -28757   -28826 
  -28915   -29030   -29153   -29257   -29320   -29309   -29239   -29145 
  -29041   -28950   -28879   -28826   -28809   -28829   -28883   -28942 
  -28968   -28948   -28887   -28813   -28760   -28721   -28683   -28667 
  -28663   -28633   -28582   -28518   -28471   -28478   -28533   -28598 
  -28648   -28667   -28676   -28707   -28750   -28799   -28865   -28926 
  -28960   -28983   -29000   -29025   -29069   -29087   -29043   -28988 
  -28952   -28917   -28891   -28865   -28811   -28728   -28620   -28513 
  -28451   -28433   -28445   -28514   -28642   -28792   -28925   -29007 
  -29050   -29085   -29119   -29157   -29196   -29226   -29236   -29218 
  -29169   -29087   -28964   -28829   -28711   -28605   -28517   -28472 
  -28479   -28518   -28539   -28498   -28432   -28397   -28395   -28409 
  -28440   -28487   -28525   -28543   -28539   -28502   -28448   -28426 
  -28460   -28524   -28591   -28645   -28690   -28732   -28752   -28711 
  -28615   -28513   -28428   -28356   -28301   -28269   -28254   -28252 
  -28242   -28193   -28115   -28027   -27946   -27888   -27864   -27864 
