Origin Time       2025/01/13 21:19:00
Lat.              31.8
Long.             131.6
Depth. (km)       30
Mag.              6.9
Station Code      HRS018
Station Lat.      34.3413
Station Long.     132.9069
Station Height(m) 3
Record Time       2025/01/13 21:20:37
Sampling Freq(Hz) 100Hz
Duration Time(s)  130
Dir.              E-W
Scale Factor      7845(gal)/8223790
Max. Acc. (gal)   13.400
Last Correction   2025/01/13 21:20:36
Memo.             
[...]
    5189     5436     5679     5907     6102     6285     6481     6675 
    6870     7087     7341     7614     7865     8097     8351     8610 
    8819     8977     9121     9232     9215     9038     8773     8503 
    8247     7989     7692     7323     6899     6492     6143     5836 
    5537     5235     4891     4456     3940     3397     2859     2350 
    1877     1444     1061      722      425      182      -32     -253 
    -477     -716     -978    -1212    -1358    -1436    -1486    -1501 
   -1493    -1482    -1443    -1366    -1277    -1178    -1067     -930 
    -750     -561     -384     -194       44      367      795     1312 
    1880     2428     2925     3429     3958     4448     4884     5325 
    5796     6254     6674     7086     7508     7921     8276     8545 
    8769     8959     9093     9186     9229     9171     9003     8769 
    8495     8178     7855     7596     7430     7300     7114     6870 
    6610     6303     5911     5458     4985     4525     4078     3628 
    3198     2818     2511     2274     2097     1941     1771     1601 
    1436     1289     1189     1131     1082      997      838      646 
     484      342      201       67      -58     -164     -229     -265 
    -324     -390     -426     -461     -514     -535     -477     -337 
    -144       74      340      670     1059     1491     1948     2421 
    2901     3362     3792     4174     4521     4893     5343     5819 
    6231     6570     6870     7125     7319     7503     7699     7851 
    7943     8031     8118     8185     8236     8256     8224     8154 
    8071     7955     7803     7676     7591     7510     7425     7319 
    7157     6951     6736     6516     6288     6068     5841     5595 
    5377     5217     5077     4880     4615     4317     3986     3624 
    3249     2863     2469     2089     1723     1360     1023      707 
     368       -6     -391     -757    -1066    -1302    -1453    -1522 
   -1566    -1615    -1659    -1690    -1706    -1711    -1683    -1598 
   -1463    -1277    -1058     -837     -604     -363     -106      180 
     517      893     1278     1703     2220     2818     3458     4085 
    4661     5204     5711     6147     6486     6740     6941     7095 
    7225     7362     7493     7601     7708     7823     7923     7967 
    7960     7947     7943     7931     7902     7857     7815     7780 
    7692     7535     7361     7152     6860     6523     6197     5865 
    5505     5136     4776     4444     4141     3825     3480     3119 
    2763     2421     2096     1771     1428     1082      760      440 
      91     -278     -634     -955    -1224    -1422    -1551    -1655 
   -1780    -1922    -2031    -2072    -2022    -1873    -1649    -1381 
   -1096     -801     -480     -102      342      873     1463     2023 
    2497     2914     3316     3682     3990     4278     4576     4891 
    5228     5571     5867     6116     6358     6602     6845     7117 
    7431     7736     7963     8116     8229     8298     8314     8290 
    8221     8100     7950     7817     7723     7647     7553     7410 
    7219     6991     6747     6527     6342     6162     5961     5719 
    5441     5154     4870     4592     4311     4018     3707     3399 
    3110     2817     2508     2214     1944     1663     1312      895 
     446       -6     -446     -839    -1143    -1354    -1534    -1710 
   -1848    -1937    -2012    -2110    -2220    -2324    -2407    -2434 
   -2403    -2350    -2285    -2189    -2060    -1896    -1675    -1371 
    -997     -573     -108      369      819     1273     1794     2393 
    3045     3735     4436     5090     5655     6118     6478     6743 
    6960     7179     7399     7582     7699     7762     7803     7842 
    7912     8014     8091     8112     8066     7952     7798     7608 
    7385     7159     6922     6650     6347     6022     5672     5317 
    4955     4579     4232     3948     3727     3551     3404     3294 
    3208     3102     2968     2826     2687     2559     2450     2351 
    2242     2123     1999     1827     1588     1297      961      580 
     194     -117     -337     -495     -576     -575     -514     -406 
    -270     -120       66      288      521      764     1050     1393 
    1780     2207     2659     3125     3603     4099     4630     5193 
    5737     6220     6651     7041     7389     7705     7997     8240 
    8407     8499     8507     8440     8338     8229     8102     7939 
    7735     7501     7261     7038     6821     6561     6249     5937 
    5661     5409     5182     4984     4811     4700     4680     4702 
    4710     4691     4625     4502     4348     4201     4055     3889 
    3696     3500     3303     3072     2782     2465     2192     1985 
    1821     1675     1510     1291     1058      873      731      561 
     333       67     -226     -499     -731     -954    -1146    -1306 
   -1470    -1613    -1711    -1777    -1802    -1759    -1633    -1435 
   -1183     -893     -556     -157      274      684     1070     1451 
    1803     2119     2423     2728     3017     3288     3551     3820 
    4104     4375     4592     4766     4908     5015     5113     5224 
    5351     5508     5710     5941     6157     6345     6523     6694 
    6840     6936     6978     7002     7033     7090     7204     7334 
    7430     7531     7659     7786     7901     8001     8085     8135 
    8136     8077     7952     7773     7555     7304     7001     6640 
    6241     5814     5363     4908     4465     4045     3649     3260 
    2891     2562     2269     2003     1768     1583     1471     1439 
    1448     1463     1470     1455     1431     1399     1366     1341 
    1323     1300     1263     1215     1188     1175     1144     1109 
    1073     1007      912      814      735      692      699      753 
     838      924     1005     1109     1264     1462     1695     1958 
    2223     2493     2816     3211     3684     4222     4791     5390 
    6038     6716     7389     8032     8615     9115     9517     9817 
   10011    10083    10046     9965     9857     9670     9375     8984 
    8513     8000     7488     6975     6435     5873     5300     4719 
    4139     3565     3018     2515     2030     1543     1066      603 
     144     -302     -722    -1108    -1467    -1792    -2066    -2278 
   -2447    -2567    -2606    -2581    -2515    -2411    -2273    -2092 
   -1872    -1659    -1474    -1304    -1128     -943     -758     -575 
    -392     -187       74      359      591      772      939     1097 
    1273     1509     1804     2143     2535     3002     3549     4148 
    4764     5360     5915     6427     6902     7345     7743     8086 
    8383     8638     8829     8934     8986     9038     9082     9100 
    9085     9032     8965     8920     8887     8849     8811     8719 
    8518     8232     7889     7491     7060     6589     6042     5435 
    4799     4135     3442     2737     2076     1510     1015      544 
      79     -364     -739    -1004    -1173    -1279    -1335    -1329 
   -1256    -1148    -1027     -880     -714     -548     -341      -66 
     247      553      847     1166     1521     1879     2235     2629 
    3052     3480     3939     4455     4999     5530     6025     6448 
    6783     7021     7176     7292     7389     7454     7466     7441 
    7411     7389     7372     7350     7311     7253     7196     7128 
    7013     6859     6673     6457     6226     5992     5746     5478 
    5190     4877     4519     4133     3743     3350     2956     2547 
    2103     1624     1136      702      387      174        8     -109 
    -195     -278     -332     -336     -321     -337     -423     -577 
    -768     -973    -1169    -1318    -1422    -1518    -1602    -1652 
   -1686    -1706    -1682    -1590    -1432    -1215     -930     -571 
    -168      243      668     1089     1464     1806     2151     2501 
    2840     3167     3485     3773     4009     4226     4461     4725 
    5005     5270     5491     5678     5860     6085     6349     6600 
    6832     7049     7250     7430     7560     7666     7800     7931 
    8013     8046     8028     7970     7881     7776     7674     7576 
    7464     7368     7304     7236     7123     6983     6833     6677 
    6520     6363     6196     6007     5802     5598     5383     5125 
    4819     4479     4098     3711     3383     3098     2816     2521 
    2197     1854     1528     1236      963      699      441      206 
      22     -140     -318     -510     -702     -851     -920     -927 
    -903     -880     -854     -783     -650     -483     -284      -47 
     226      511      789     1080     1374     1664     1979     2320 
    2646     2949     3240     3508     3763     4045     4367     4688 
    4966     5212     5455     5707     5952     6180     6390     6573 
    6727     6860     6984     7105     7211     7284     7312     7307 
    7276     7217     7144     7092     7079     7061     7003     6902 
    6772     6636     6508     6372     6214     6033     5841     5649 
    5452     5246     5047     4887     4743     4580     4398     4193 
    3940     3628     3284     2924     2565     2241     1948     1664 
    1393     1134      861      565      249      -78     -400     -695 
    -945    -1175    -1405    -1602    -1725    -1764    -1748    -1695 
   -1588    -1445    -1289    -1105     -903     -693     -452     -168 
     148      495      857     1239     1665     2112     2544     2974 
    3419     3901     4434     4988     5533     6065     6555     7001 
    7414     7793     8152     8494     8803     9076     9306     9504 
    9678     9813     9882     9898     9872     9787     9644     9460 
    9261     9062     8849     8611     8347     8041     7697     7314 
    6894     6454     5987     5501     5013     4521     4024     3530 
    3046     2594     2165     1728     1267      792      319     -113 
    -486     -799    -1070    -1314    -1529    -1705    -1881    -2087 
   -2292    -2500    -2697    -2844    -2964    -3073    -3167    -3252 
   -3333    -3427    -3516    -3564    -3572    -3541    -3456    -3300 
   -3092    -2862    -2583    -2205    -1756    -1293     -824     -356 
     118      664     1285     1945     2635     3341     4027     4683 
    5346     6030     6694     7306     7870     8402     8931     9459 
    9949    10393    10813    11188    11491    11713    11867    11942 
   11927    11859    11770    11630    11427    11196    10949    10690 
   10442    10189     9902     9589     9261     8908     8513     8077 
    7607     7113     6594     6037     5435     4800     4151     3510 
    2871     2215     1545      885      270     -310     -861    -1382 
   -1919    -2474    -3009    -3514    -3973    -4392    -4779    -5082 
   -5287    -5427    -5528    -5583    -5559    -5467    -5343    -5201 
   -5026    -4806    -4548    -4252    -3894    -3477    -3013    -2496 
   -1915    -1278     -621       52      745     1448     2176     2936 
    3713     4492     5244     5979     6739     7528     8316     9080 
    9817    10530    11210    11859    12460    13005    13525    14017 
   14420    14706    14874    14921    14887    14821    14716    14550 
   14310    13986    13586    13126    12609    12036    11407    10735 
   10035     9316     8549     7711     6843     5998     5178     4375 
    3595     2818     2056     1333      638      -29     -670    -1282 
   -1833    -2312    -2736    -3117    -3474    -3840    -4214    -4556 
   -4831    -5071    -5313    -5528    -5660    -5713    -5741    -5794 
   -5852    -5856    -5784    -5647    -5441    -5200    -4946    -4662 
   -4338    -3952    -3505    -3032    -2529    -1991    -1417     -792 
    -109      607     1331     2066     2841     3647     4456     5258 
    6039     6798     7546     8276     8953     9579    10191    10778 
   11307    11785    12194    12517    12775    12957    13081    13180 
   13207    13123    12969    12764    12526    12276    11973    11597 
   11168    10689    10180     9653     9082     8452     7770     7042 
    6293     5543     4777     4004     3245     2505     1787     1065 
     344     -333     -980    -1606    -2216    -2818    -3368    -3844 
   -4287    -4725    -5121    -5422    -5625    -5794    -5975    -6143 
   -6255    -6307    -6319    -6299    -6270    -6258    -6222    -6080 
   -5813    -5466    -5066    -4612    -4097    -3514    -2893    -2230 
   -1489     -676      205     1119     2019     2914     3800     4691 
    5617     6561     7483     8349     9178     9999    10785    11530 
   12236    12892    13527    14141    14721    15256    15714    16090 
   16359    16513    16609    16646    16599    16494    16328    16052 
   15639    15115    14531    13910    13238    12476    11631    10740 
    9819     8876     7916     6909     5852     4795     3746     2713 
    1706      702     -299    -1277    -2216    -3114    -3969    -4761 
   -5501    -6211    -6870    -7456    -7977    -8449    -8834    -9090 
   -9273    -9425    -9514    -9509    -9424    -9277    -9062    -8783 
   -8461    -8089    -7645    -7123    -6555    -5976    -5391    -4776 
   -4097    -3338    -2515    -1652     -746      232     1269     2327 
    3407     4537     5709     6878     8000     9061    10069    11026 
   11956    12887    13786    14612    15334    15938    16452    16875 
   17200    17439    17562    17544    17420    17246    17027    16746 
   16394    15974    15500    14966    14368    13721    13022    12272 
   11477    10629     9756     8866     7947     7005     6066     5150 
    4270     3431     2610     1795      990      190     -591    -1344 
   -2073    -2770    -3450    -4135    -4791    -5404    -5973    -6497 
   -7005    -7469    -7830    -8105    -8316    -8452    -8523    -8522 
   -8428    -8244    -7985    -7665    -7257    -6756    -6170    -5508 
   -4803    -4068    -3279    -2430    -1556     -693      175     1038 
    1869     2705     3542     4374     5215     6050     6868     7674 
    8461     9221     9963    10696    11423    12110    12718    13269 
   13784    14231    14578    14816    14955    15026    15039    14982 
   14847    14634    14353    14030    13671    13239    12748    12222 
   11661    11052    10382     9659     8881     8001     7029     6049 
    5078     4086     3099     2166     1273      388     -486    -1348 
   -2182    -2955    -3645    -4256    -4815    -5348    -5845    -6270 
   -6608    -6851    -6995    -7063    -7105    -7118    -7011    -6790 
   -6548    -6293    -5999    -5660    -5255    -4804    -4341    -3856 
   -3341    -2795    -2200    -1566     -916     -244      436     1123 
    1833     2548     3257     3950     4634     5321     6000     6667 
    7304     7898     8472     9045     9633    10223    10764    11268 
   11769    12241    12669    13054    13370    13601    13757    13821 
   13795    13722    13583    13354    13077    12784    12463    12102 
   11686    11214    10702    10125     9493     8858     8216     7542 
    6840     6110     5371     4652     3964     3296     2621     1957 
    1324      704       97     -492    -1074    -1633    -2139    -2581 
   -2960    -3296    -3593    -3839    -4037    -4212    -4356    -4468 
   -4558    -4626    -4676    -4734    -4810    -4870    -4887    -4850 
   -4787    -4704    -4587    -4437    -4249    -3986    -3649    -3279 
   -2867    -2394    -1868    -1293     -673      -17      677     1391 
    2089     2758     3404     4036     4658     5274     5869     6442 
    7005     7564     8131     8683     9178     9620    10012    10368 
   10690    10970    11219    11446    11618    11728    11778    11762 
   11693    11572    11396    11187    10940    10654    10362    10065 
    9738     9370     8973     8563     8132     7690     7249     6801 
    6343     5869     5375     4857     4317     3761     3195     2647 
    2103     1543      977      400     -164     -700    -1233    -1752 
   -2242    -2700    -3111    -3493    -3836    -4121    -4361    -4537 
   -4652    -4760    -4803    -4731    -4603    -4438    -4245    -4013 
   -3707    -3334    -2905    -2416    -1872    -1285     -670      -40 
     600     1263     1937     2598     3250     3882     4479     5061 
    5632     6185     6740     7290     7789     8229     8630     8999 
    9336     9649     9945    10215    10446    10643    10795    10890 
   10922    10893    10814    10698    10536    10342    10100     9787 
    9412     8996     8554     8089     7581     7052     6521     5961 
    5371     4769     4162     3564     2984     2425     1890     1375 
     889      425      -27     -449     -830    -1158    -1443    -1690 
   -1898    -2081    -2228    -2343    -2423    -2432    -2389    -2296 
   -2128    -1912    -1691    -1471    -1197     -841     -457      -66 
     328      707     1085     1474     1846     2185     2515     2856 
    3221     3601     3962     4297     4615     4928     5258     5580 
    5864     6141     6419     6670     6890     7057     7157     7226 
    7275     7319     7389     7442     7443     7418     7393     7371 
    7306     7176     7002     6816     6624     6428     6237     6035 
    5815     5601     5391     5177     4966     4757     4540     4310 
    4099     3920     3730     3526     3315     3088     2867     2668 
    2459     2246     2061     1876     1686     1502     1324     1179 
    1078     1007      953      901      870      877      918      985 
    1062     1144     1251     1394     1578     1765     1904     2003 
    2104     2222     2349     2475     2587     2675     2736     2795 
    2853     2916     2984     3059     3169     3312     3458     3604 
    3740     3890     4082     4268     4429     4595     4756     4888 
    4995     5086     5173     5246     5293     5321     5340     5340 
    5306     5246     5181     5124     5077     5038     4984     4899 
    4789     4645     4469     4290     4112     3932     3770     3622 
    3466     3306     3138     2974     2835     2713     2587     2451 
    2309     2176     2062     1981     1918     1857     1810     1763 
    1701     1644     1601     1572     1556     1549     1552     1568 
    1588     1595     1598     1610     1634     1676     1726     1783 
    1858     1962     2089     2220     2371     2577     2828     3095 
    3362     3627     3883     4137     4390     4641     4870     5070 
    5242     5398     5562     5713     5823     5907     5984     6060 
    6120     6172     6222     6250     6242     6207     6162     6120 
    6054     5957     5844     5713     5574     5418     5236     5044 
    4824     4584     4352     4114     3870     3619     3342     3052 
    2764     2471     2187     1921     1660     1409     1175      955 
     766      614      480      355      248      157       86       47 
      33       27       28       71      160      267      398      569 
     785     1040     1298     1543     1795     2052     2296     2538 
    2774     2992     3206     3420     3635     3854     4064     4251 
    4413     4554     4673     4768     4850     4945     5054     5196 
    5368     5533     5676     5806     5925     6042     6154     6241 
