Origin Time       2025/01/13 21:19:00
Lat.              31.8
Long.             131.6
Depth. (km)       30
Mag.              6.9
Station Code      HRS015
Station Lat.      34.4852
Station Long.     133.3619
Station Height(m) 2
Record Time       2025/01/13 21:21:13
Sampling Freq(Hz) 100Hz
Duration Time(s)  60
Dir.              N-S
Scale Factor      7845(gal)/8223790
Max. Acc. (gal)   3.446
Last Correction   2025/01/13 21:21:14
Memo.             
[...]
   -3073    -3060    -3141    -3214    -3215    -3154    -3034    -2943 
   -2891    -2852    -2852    -2883    -2983    -3163    -3343    -3532 
   -3735    -3932    -4104    -4185    -4203    -4171    -4012    -3843 
   -3793    -3834    -3944    -4083    -4222    -4399    -4546    -4587 
   -4515    -4371    -4260    -4189    -4098    -4001    -3924    -3973 
   -4133    -4170    -4094    -4079    -4097    -4160    -4293    -4401 
   -4440    -4405    -4347    -4288    -4137    -3925    -3720    -3553 
   -3539    -3643    -3700    -3658    -3554    -3499    -3477    -3422 
   -3447    -3495    -3446    -3472    -3538    -3491    -3447    -3431 
   -3389    -3381    -3406    -3403    -3312    -3192    -3179    -3186 
   -3130    -3079    -3002    -2928    -2960    -3051    -3094    -3068 
   -3056    -3095    -3140    -3245    -3389    -3445    -3538    -3696 
   -3700    -3589    -3535    -3535    -3503    -3391    -3276    -3169 
   -3051    -3049    -3071    -2983    -2944    -2930    -2856    -2878 
   -3025    -3203    -3369    -3527    -3717    -3871    -3978    -4118 
   -4236    -4353    -4517    -4548    -4403    -4239    -4108    -3996 
   -3881    -3775    -3605    -3314    -3121    -3084    -2983    -2836 
   -2735    -2658    -2679    -2787    -2822    -2728    -2608    -2578 
   -2577    -2538    -2515    -2463    -2380    -2403    -2496    -2533 
   -2517    -2481    -2484    -2542    -2613    -2655    -2606    -2570 
   -2702    -2863    -2976    -3127    -3246    -3321    -3404    -3465 
   -3483    -3451    -3439    -3478    -3483    -3512    -3635    -3782 
   -3982    -4203    -4303    -4291    -4237    -4230    -4317    -4398 
   -4449    -4452    -4391    -4384    -4376    -4278    -4209    -4143 
   -4028    -3962    -3915    -3805    -3650    -3519    -3468    -3426 
   -3370    -3342    -3306    -3338    -3474    -3585    -3678    -3754 
   -3751    -3769    -3815    -3780    -3655    -3492    -3362    -3254 
   -3129    -3064    -3036    -3014    -3102    -3213    -3208    -3136 
   -3034    -2957    -2978    -3096    -3273    -3397    -3504    -3723 
   -3905    -3937    -3936    -3935    -3910    -3834    -3666    -3441 
   -3195    -3017    -2921    -2768    -2623    -2577    -2470    -2327 
   -2335    -2446    -2555    -2689    -2913    -3141    -3299    -3478 
   -3601    -3615    -3734    -3873    -3811    -3697    -3665    -3663 
   -3642    -3585    -3526    -3420    -3310    -3310    -3304    -3253 
   -3265    -3258    -3258    -3410    -3609    -3704    -3738    -3892 
   -4155    -4318    -4414    -4492    -4419    -4299    -4282    -4271 
   -4214    -4148    -4070    -4005    -3981    -3990    -3969    -3896 
   -3906    -3958    -3898    -3869    -3919    -3910    -3913    -3974 
   -3944    -3825    -3838    -4045    -4229    -4338    -4513    -4627 
   -4619    -4662    -4718    -4703    -4685    -4671    -4642    -4585 
   -4494    -4357    -4176    -4112    -4168    -4085    -3873    -3709 
   -3586    -3504    -3474    -3464    -3447    -3414    -3406    -3393 
   -3315    -3272    -3254    -3187    -3165    -3180    -3118    -3005 
   -2905    -2828    -2745    -2689    -2679    -2608    -2521    -2525 
   -2498    -2469    -2556    -2643    -2720    -2864    -2984    -3036 
   -3073    -3168    -3334    -3476    -3595    -3689    -3692    -3712 
   -3784    -3800    -3753    -3634    -3503    -3431    -3318    -3122 
   -2893    -2667    -2521    -2373    -2149    -1950    -1748    -1530 
   -1428    -1424    -1426    -1405    -1414    -1553    -1740    -1898 
   -2056    -2178    -2369    -2705    -2988    -3136    -3264    -3446 
   -3673    -3878    -4087    -4287    -4410    -4587    -4816    -4935 
   -5030    -5136    -5197    -5335    -5559    -5713    -5729    -5714 
   -5813    -5946    -6016    -6056    -5975    -5821    -5780    -5717 
   -5502    -5275    -5080    -4882    -4698    -4557    -4411    -4163 
   -3919    -3753    -3547    -3353    -3241    -3123    -3007    -2887 
   -2714    -2543    -2394    -2293    -2239    -2161    -2095    -2037 
   -1898    -1795    -1790    -1748    -1651    -1572    -1555    -1579 
   -1636    -1752    -1844    -1884    -1964    -2008    -1960    -1948 
   -2027    -2176    -2362    -2565    -2821    -3096    -3389    -3727 
   -4002    -4214    -4414    -4511    -4580    -4710    -4808    -4842 
   -4814    -4756    -4719    -4642    -4522    -4392    -4248    -4193 
   -4179    -4044    -3883    -3804    -3784    -3838    -3921    -3996 
   -4054    -4064    -4118    -4259    -4338    -4307    -4222    -4114 
   -4018    -3923    -3790    -3613    -3429    -3298    -3157    -3011 
   -2964    -2913    -2791    -2754    -2782    -2763    -2729    -2716 
   -2736    -2798    -2870    -2911    -2887    -2860    -2902    -2925 
   -2891    -2840    -2710    -2562    -2550    -2597    -2559    -2457 
   -2367    -2312    -2257    -2228    -2273    -2377    -2582    -2889 
   -3183    -3420    -3628    -3835    -4075    -4318    -4526    -4675 
   -4760    -4874    -5000    -5013    -4997    -5009    -4984    -4982 
   -5017    -5008    -4946    -4831    -4730    -4722    -4769    -4833 
   -4846    -4814    -4847    -4847    -4730    -4622    -4533    -4430 
   -4325    -4179    -4025    -3816    -3504    -3218    -2937    -2587 
   -2272    -2012    -1836    -1771    -1679    -1518    -1331    -1113 
    -938     -830     -784     -828     -912    -1055    -1290    -1512 
   -1684    -1795    -1849    -1948    -2080    -2196    -2285    -2308 
   -2350    -2469    -2602    -2731    -2770    -2731    -2799    -2983 
   -3164    -3326    -3487    -3689    -3927    -4139    -4302    -4391 
   -4494    -4698    -4868    -4972    -5085    -5148    -5232    -5418 
   -5559    -5589    -5557    -5520    -5494    -5435    -5351    -5250 
   -5116    -5076    -5120    -5096    -5019    -4932    -4835    -4753 
   -4673    -4611    -4521    -4360    -4233    -4104    -3912    -3770 
   -3640    -3470    -3365    -3292    -3153    -2945    -2745    -2619 
   -2493    -2380    -2350    -2282    -2196    -2212    -2218    -2158 
   -2123    -2138    -2197    -2277    -2405    -2552    -2577    -2573 
   -2648    -2677    -2674    -2695    -2655    -2614    -2670    -2813 
   -2988    -3146    -3329    -3512    -3661    -3892    -4159    -4365 
   -4649    -4990    -5223    -5355    -5460    -5578    -5699    -5806 
   -5871    -5811    -5733    -5764    -5717    -5545    -5406    -5209 
   -4957    -4795    -4669    -4503    -4326    -4210    -4140    -4014 
   -3912    -3879    -3763    -3636    -3615    -3574    -3473    -3354 
   -3227    -3114    -3010    -2899    -2710    -2463    -2322    -2200 
   -1968    -1768    -1625    -1433    -1233    -1070     -930     -781 
    -680     -729     -788     -789     -873     -996    -1112    -1302 
   -1510    -1676    -1831    -1996    -2187    -2385    -2639    -2928 
   -3163    -3453    -3815    -4044    -4171    -4288    -4340    -4321 
   -4287    -4274    -4243    -4194    -4249    -4371    -4446    -4521 
   -4540    -4483    -4510    -4598    -4629    -4611    -4602    -4662 
   -4753    -4803    -4791    -4681    -4623    -4712    -4754    -4703 
   -4673    -4626    -4556    -4476    -4365    -4232    -4066    -3943 
   -3915    -3928    -4017    -4143    -4271    -4521    -4795    -4903 
   -4915    -4893    -4845    -4770    -4598    -4340    -4048    -3782 
   -3626    -3460    -3225    -3025    -2797    -2546    -2403    -2335 
   -2288    -2257    -2313    -2502    -2646    -2708    -2813    -2895 
   -2979    -3132    -3276    -3426    -3576    -3707    -3851    -3985 
   -4114    -4133    -3978    -3947    -4071    -4043    -3912    -3834 
   -3807    -3838    -3878    -3883    -3836    -3789    -3823    -3805 
   -3715    -3708    -3646    -3472    -3381    -3310    -3121    -2903 
   -2731    -2613    -2548    -2536    -2502    -2378    -2349    -2462 
   -2432    -2269    -2146    -2000    -1842    -1755    -1719    -1683 
   -1664    -1780    -1956    -2038    -2161    -2320    -2366    -2488 
   -2770    -3021    -3223    -3481    -3816    -4162    -4464    -4760 
   -4978    -5134    -5363    -5508    -5459    -5382    -5266    -5062 
   -4855    -4676    -4527    -4371    -4270    -4307    -4329    -4303 
   -4320    -4276    -4225    -4310    -4430    -4475    -4464    -4492 
   -4557    -4563    -4534    -4403    -4128    -3950    -3858    -3619 
   -3325    -3103    -2918    -2748    -2602    -2492    -2342    -2176 
   -2122    -2100    -2062    -2091    -2114    -2123    -2228    -2401 
   -2559    -2674    -2783    -2911    -2999    -3076    -3141    -3099 
   -3065    -3122    -3113    -2975    -2782    -2627    -2535    -2448 
   -2385    -2336    -2290    -2365    -2505    -2590    -2724    -2890 
   -3003    -3176    -3433    -3676    -3854    -4023    -4276    -4538 
   -4699    -4783    -4765    -4708    -4684    -4580    -4396    -4214 
   -4068    -4018    -3974    -3879    -3809    -3705    -3591    -3531 
   -3454    -3389    -3373    -3376    -3472    -3632    -3757    -3812 
   -3793    -3782    -3798    -3775    -3728    -3622    -3493    -3453 
   -3416    -3312    -3181    -3015    -2863    -2751    -2640    -2540 
   -2455    -2443    -2532    -2573    -2575    -2643    -2725    -2864 
   -3091    -3310    -3497    -3643    -3748    -3873    -3982    -4055 
   -4066    -3996    -3967    -4027    -4066    -4067    -4023    -3950 
   -3912    -3861    -3723    -3491    -3234    -3072    -2978    -2903 
   -2909    -2956    -3037    -3223    -3453    -3645    -3763    -3847 
   -4002    -4160    -4256    -4380    -4504    -4614    -4760    -4866 
   -4920    -4945    -4918    -4869    -4760    -4580    -4378    -4135 
   -3952    -3892    -3807    -3692    -3634    -3623    -3653    -3736 
   -3874    -3962    -3946    -4021    -4190    -4253    -4263    -4293 
   -4293    -4302    -4294    -4207    -4062    -3889    -3735    -3572 
   -3377    -3192    -2979    -2785    -2708    -2654    -2555    -2446 
   -2349    -2335    -2405    -2492    -2546    -2555    -2646    -2859 
   -3034    -3145    -3249    -3312    -3349    -3357    -3321    -3277 
   -3226    -3183    -3157    -3138    -3180    -3167    -3025    -2979 
   -3076    -3125    -3088    -3024    -2992    -3011    -3056    -3138 
   -3195    -3230    -3333    -3403    -3392    -3399    -3424    -3500 
   -3651    -3777    -3794    -3728    -3717    -3805    -3843    -3820 
   -3823    -3825    -3828    -3811    -3743    -3677    -3626    -3628 
   -3701    -3767    -3855    -3940    -3958    -4041    -4199    -4284 
   -4302    -4268    -4214    -4186    -4144    -4055    -3854    -3591 
   -3431    -3280    -3013    -2760    -2573    -2442    -2390    -2373 
   -2331    -2241    -2181    -2241    -2355    -2527    -2743    -2897 
   -3100    -3415    -3661    -3820    -3963    -4083    -4207    -4348 
   -4511    -4675    -4806    -4965    -5125    -5179    -5174    -5124 
   -5007    -4936    -4942    -4942    -4909    -4868    -4862    -4862 
   -4864    -4864    -4784    -4702    -4712    -4680    -4561    -4471 
   -4406    -4330    -4243    -4140    -4008    -3825    -3684    -3605 
   -3485    -3346    -3186    -2953    -2785    -2735    -2674    -2560 
   -2454    -2443    -2501    -2515    -2492    -2415    -2313    -2328 
   -2340    -2245    -2185    -2160    -2099    -2054    -2060    -2089 
   -2050    -1989    -2014    -2019    -1973    -1944    -1868    -1821 
   -1880    -1902    -1846    -1834    -1929    -2110    -2309    -2529 
   -2756    -2937    -3156    -3410    -3599    -3788    -3973    -4099 
   -4256    -4448    -4600    -4656    -4669    -4808    -5008    -5117 
   -5201    -5238    -5192    -5204    -5225    -5108    -4878    -4634 
   -4417    -4194    -3987    -3832    -3658    -3526    -3516    -3472 
   -3322    -3169    -3038    -2898    -2786    -2748    -2695    -2552 
   -2488    -2542    -2556    -2560    -2577    -2573    -2667    -2886 
   -3088    -3230    -3416    -3715    -3987    -4185    -4414    -4622 
   -4785    -4982    -5105    -5104    -5081    -5049    -4993    -4955 
   -4973    -4962    -4793    -4595    -4506    -4396    -4239    -4070 
   -3831    -3622    -3526    -3423    -3230    -3018    -2916    -2897 
   -2817    -2739    -2708    -2668    -2677    -2710    -2701    -2712 
   -2756    -2799    -2856    -2979    -3175    -3299    -3365    -3554 
   -3778    -3916    -4032    -4099    -4120    -4164    -4185    -4125 
   -3991    -3867    -3777    -3600    -3375    -3161    -2870    -2609 
   -2489    -2361    -2170    -1983    -1844    -1792    -1786    -1788 
   -1752    -1691    -1740    -1854    -1945    -2077    -2199    -2280 
   -2400    -2536    -2650    -2705    -2756    -2906    -3044    -3111 
   -3192    -3240    -3302    -3457    -3570    -3607    -3649    -3724 
   -3820    -3879    -3955    -4054    -4077    -4135    -4286    -4383 
   -4442    -4503    -4534    -4610    -4757    -4884    -4899    -4901 
   -5028    -5132    -5121    -5121    -5111    -5098    -5178    -5225 
   -5162    -5094    -5104    -5142    -5132    -5128    -5131    -5071 
   -5047    -5069    -5017    -4920    -4827    -4730    -4610    -4467 
   -4328    -4153    -3964    -3883    -3843    -3762    -3693    -3639 
   -3615    -3663    -3735    -3743    -3676    -3646    -3670    -3620 
   -3566    -3562    -3474    -3370    -3337    -3234    -3019    -2797 
   -2643    -2479    -2228    -1980    -1723    -1399    -1148     -942 
    -689     -494     -338     -171      -48       17       47      101 
      91     -109     -321     -444     -584     -688     -788     -982 
   -1200    -1379    -1540    -1745    -2000    -2218    -2450    -2710 
   -2894    -3132    -3504    -3839    -4087    -4314    -4546    -4785 
   -5001    -5198    -5325    -5367    -5474    -5607    -5648    -5703 
   -5759    -5707    -5628    -5572    -5491    -5323    -5107    -4966 
   -4861    -4746    -4630    -4430    -4209    -4093    -3985    -3825 
   -3682    -3592    -3559    -3511    -3434    -3375    -3330    -3373 
   -3495    -3554    -3600    -3670    -3708    -3744    -3777    -3798 
   -3800    -3735    -3693    -3732    -3784    -3823    -3813    -3798 
   -3889    -4004    -4045    -4045    -4043    -4085    -4122    -4102 
   -4114    -4129    -4129    -4194    -4268    -4294    -4294    -4261 
   -4255    -4283    -4282    -4233    -4121    -4018    -4001    -3978 
   -3927    -3877    -3812    -3793    -3800    -3735    -3623    -3487 
   -3372    -3315    -3265    -3241    -3246    -3240    -3275    -3339 
   -3397    -3446    -3437    -3430    -3485    -3537    -3557    -3518 
   -3443    -3434    -3433    -3349    -3234    -3122    -3055    -3055 
   -3044    -2988    -2911    -2848    -2820    -2763    -2678    -2619 
   -2551    -2506    -2504    -2474    -2432    -2394    -2347    -2326 
   -2299    -2247    -2204    -2188    -2263    -2413    -2547    -2700 
   -2830    -2924    -3084    -3276    -3437    -3576    -3703    -3894 
   -4144    -4352    -4504    -4602    -4696    -4851    -4957    -4954 
   -4916    -4869    -4818    -4752    -4666    -4568    -4410    -4286 
   -4272    -4234    -4135    -3993    -3817    -3739    -3744    -3708 
   -3647    -3628    -3700    -3796    -3828    -3856    -3859    -3798 
   -3794    -3808    -3736    -3659    -3615    -3576    -3553    -3565 
   -3604    -3584    -3569    -3694    -3821    -3874    -3958    -4050 
   -4152    -4305    -4469    -4610    -4702    -4816    -4942    -4934 
   -4899    -4907    -4833    -4780    -4815    -4789    -4703    -4594 
   -4475    -4367    -4275    -4209    -4054    -3811    -3704    -3653 
   -3493    -3348    -3246    -3142    -3053    -2957    -2856    -2705 
   -2532    -2459    -2377    -2245    -2173    -2062    -1923    -1896 
   -1898    -1833    -1717    -1625    -1609    -1614    -1642    -1688 
   -1694    -1782    -1968    -2072    -2131    -2259    -2415    -2548 
   -2651    -2770    -2887    -2934    -3001    -3087    -3111    -3167 
   -3265    -3341    -3446    -3600    -3724    -3777    -3842    -4008 
   -4172    -4298    -4464    -4577    -4644    -4787    -4893    -4889 
   -4878    -4878    -4855    -4837    -4843    -4812    -4687    -4569 
   -4514    -4429    -4325    -4222    -4093    -4009    -3983    -3929 
   -3831    -3721    -3645    -3580    -3489    -3412    -3335    -3260 
   -3265    -3292    -3279    -3279    -3276    -3253    -3260    -3310 
   -3365    -3360    -3318    -3341    -3369    -3338    -3284    -3211 
   -3177    -3211    -3221    -3186    -3149    -3159    -3217    -3253 
   -3287    -3303    -3246    -3273    -3395    -3410    -3333    -3272 
   -3211    -3130    -3032    -2933    -2826    -2748    -2767    -2768 
   -2727    -2779    -2826    -2836    -2934    -3045    -3113    -3191 
   -3285    -3399    -3484    -3545    -3588    -3510    -3419    -3456 
   -3461    -3384    -3308    -3231    -3161    -3096    -3026    -2930 
   -2802    -2747    -2735    -2648    -2590    -2559    -2477    -2482 
   -2581    -2613    -2566    -2535    -2573    -2608    -2627    -2700 
   -2705    -2643    -2710    -2836    -2907    -2980    -3046    -3107 
   -3206    -3330    -3423    -3470    -3620    -3871    -4023    -4132 
   -4299    -4396    -4464    -4617    -4762    -4788    -4760    -4811 
   -4876    -4877    -4904    -4912    -4860    -4877    -4918    -4872 
   -4812    -4806    -4835    -4866    -4922    -5012    -5009    -4981 
   -5093    -5201    -5236    -5324    -5391    -5408    -5474    -5543 
   -5514    -5404    -5320    -5285    -5193    -5069    -4959    -4788 
   -4621    -4531    -4396    -4162    -3897    -3673    -3491    -3337 
   -3219    -3033    -2751    -2544    -2413    -2238    -2083    -1984 
   -1931    -1965    -2050    -2123    -2147    -2178    -2293    -2403 
   -2489    -2613    -2662    -2644    -2701    -2755    -2732    -2682 
   -2619    -2558    -2524    -2525    -2501    -2411    -2378    -2425 
   -2407    -2370    -2400    -2430    -2463    -2556    -2685    -2779 
   -2820    -2893    -3001    -3071    -3106    -3072    -3003    -3072 
   -3223    -3312    -3385    -3470    -3557    -3667    -3765    -3801 
   -3788    -3805    -3885    -3939    -3970    -4031    -4060    -4090 
   -4171    -4256    -4314    -4333    -4345    -4380    -4402    -4406 
   -4337    -4191    -4099    -4024    -3883    -3751    -3627    -3515 
   -3457    -3395    -3319    -3222    -3099    -3061    -3067    -3018 
   -2972    -2925    -2887    -2910    -2921    -2868    -2782    -2729 
   -2755    -2748    -2710    -2705    -2632    -2563    -2620    -2679 
   -2702    -2739    -2785    -2874    -3005    -3154    -3240    -3226 
   -3315    -3504    -3607    -3708    -3854    -3956    -4082    -4249 
   -4363    -4401    -4429    -4503    -4561    -4573    -4596    -4558 
   -4482    -4515    -4548    -4457    -4340    -4270    -4243    -4206 
   -4148    -4070    -3929    -3848    -3879    -3823    -3712    -3690 
   -3677    -3646    -3646    -3676    -3716    -3712    -3709    -3740 
   -3747    -3762    -3751    -3670    -3661    -3734    -3740    -3659 
   -3586    -3591    -3585    -3497    -3403    -3295    -3171    -3149 
   -3167    -3130    -3099    -3049    -2988    -2978    -2984    -2955 
   -2864    -2798    -2832    -2855    -2830    -2821    -2795    -2776 
