Origin Time       2025/01/13 21:19:00
Lat.              31.8
Long.             131.6
Depth. (km)       30
Mag.              6.9
Station Code      HRS007
Station Lat.      34.7029
Station Long.     133.0886
Station Height(m) 387
Record Time       2025/01/13 21:21:23
Sampling Freq(Hz) 100Hz
Duration Time(s)  60
Dir.              N-S
Scale Factor      7845(gal)/8223790
Max. Acc. (gal)   1.092
Last Correction   2025/01/13 21:21:23
Memo.             
[...]
    3296     3323     3396     3478     3515     3491     3442     3430 
    3464     3491     3464     3422     3446     3530     3593     3577 
    3495     3408     3353     3316     3287     3273     3273     3269 
    3257     3267     3316     3376     3395     3352     3280     3237 
    3258     3327     3385     3388     3348     3306     3276     3253 
    3249     3292     3381     3464     3481     3439     3387     3368 
    3403     3466     3516     3539     3558     3596     3646     3667 
    3636     3566     3503     3477     3473     3458     3439     3446 
    3480     3514     3534     3562     3607     3627     3599     3562 
    3559     3584     3599     3584     3559     3561     3586     3608 
    3591     3531     3466     3427     3433     3470     3520     3568 
    3616     3674     3721     3716     3655     3573     3508     3468 
    3457     3476     3504     3516     3510     3499     3491     3477 
    3445     3407     3389     3396     3420     3456     3477     3442 
    3357     3289     3283     3295     3268     3196     3129     3105 
    3123     3152     3148     3119     3127     3177     3204     3172 
    3121     3111     3153     3211     3264     3314     3348     3352 
    3322     3271     3234     3233     3237     3227     3225     3241 
    3253     3257     3288     3376     3483     3545     3524     3451 
    3385     3353     3330     3294     3271     3289     3337     3364 
    3354     3323     3287     3253     3217     3171     3142     3167 
    3233     3280     3279     3268     3284     3319     3337     3315 
    3292     3326     3404     3451     3431     3384     3366     3388 
    3414     3400     3361     3341     3354     3373     3369     3346 
    3343     3380     3427     3437     3395     3338     3326     3376 
    3431     3427     3376     3342     3361     3380     3331     3234 
    3184     3241     3348     3392     3350     3295     3288     3322 
    3343     3327     3295     3285     3311     3343     3353     3329 
    3281     3253     3273     3319     3345     3343     3341     3364 
    3418     3478     3527     3550     3553     3558     3580     3604 
    3605     3580     3566     3597     3646     3661     3651     3661 
    3693     3709     3685     3638     3603     3585     3565     3543 
    3550     3597     3642     3643     3613     3573     3530     3495 
    3472     3454     3446     3437     3407     3364     3326     3321 
    3349     3373     3360     3316     3288     3296     3327     3353 
    3349     3319     3303     3315     3343     3365     3377     3396 
    3434     3476     3489     3473     3456     3443     3423     3412 
    3433     3480     3532     3572     3588     3578     3554     3538 
    3538     3543     3537     3511     3469     3423     3402     3427 
    3485     3520     3500     3449     3411     3402     3408     3424 
    3456     3495     3522     3534     3531     3508     3461     3406 
    3364     3350     3364     3383     3391     3391     3384     3383 
    3415     3465     3487     3476     3464     3472     3492     3500 
    3500     3505     3520     3553     3599     3653     3711     3757 
    3793     3842     3896     3932     3939     3935     3948     4008 
    4109     4209     4245     4205     4135     4089     4083     4106 
    4129     4132     4133     4152     4171     4170     4140     4090 
    4045     4021     4004     3977     3935     3889     3848     3798 
    3715     3618     3558     3565     3603     3624     3609     3577 
    3550     3531     3507     3473     3437     3407     3393     3404 
    3420     3414     3384     3366     3381     3404     3393     3349 
    3307     3295     3289     3277     3265     3275     3314     3360 
    3369     3334     3308     3338     3395     3407     3358     3300 
    3279     3284     3294     3314     3343     3356     3341     3321 
    3312     3314     3322     3338     3356     3364     3366     3376 
    3388     3385     3368     3358     3381     3435     3485     3489 
    3442     3385     3362     3369     3366     3322     3254     3223 
    3245     3276     3275     3250     3234     3234     3240     3245 
    3253     3254     3223     3169     3138     3156     3206     3261 
    3299     3316     3327     3330     3323     3310     3303     3310 
    3325     3338     3343     3353     3379     3416     3451     3473 
    3488     3516     3559     3596     3600     3580     3566     3561 
    3538     3505     3496     3522     3562     3580     3564     3531 
    3505     3493     3491     3489     3481     3478     3505     3562 
    3626     3667     3676     3681     3712     3771     3840     3905 
    3959     3991     3987     3954     3916     3893     3886     3878 
    3852     3812     3775     3739     3690     3632     3585     3555 
    3537     3532     3532     3505     3445     3384     3361     3373 
    3395     3408     3407     3384     3341     3276     3208     3171 
    3164     3173     3181     3180     3164     3140     3106     3061 
    3021     3005     3019     3057     3098     3113     3099     3096 
    3137     3208     3271     3303     3316     3322     3319     3308 
    3295     3295     3315     3327     3318     3319     3356     3391 
    3387     3345     3295     3272     3287     3311     3319     3318 
    3329     3345     3343     3323     3308     3316     3329     3326 
    3312     3312     3345     3392     3423     3431     3446     3480 
    3516     3537     3524     3481     3441     3426     3423     3408 
    3375     3339     3321     3325     3348     3384     3418     3423 
    3395     3364     3352     3353     3352     3350     3362     3380 
    3388     3369     3315     3254     3218     3214     3237     3268 
    3281     3277     3277     3285     3295     3306     3321     3348 
    3393     3438     3456     3446     3445     3480     3535     3580 
    3599     3607     3623     3631     3597     3538     3519     3573 
    3655     3707     3707     3682     3684     3713     3723     3681 
    3608     3553     3532     3524     3496     3449     3411     3415 
    3457     3503     3518     3503     3505     3550     3603     3638 
    3677     3738     3802     3852     3892     3925     3951     3960 
    3966     3979     3994     3998     4000     4001     3986     3939 
    3883     3856     3859     3856     3836     3812     3790     3754 
    3700     3649     3612     3592     3581     3568     3550     3530 
    3500     3453     3406     3375     3366     3368     3354     3326 
    3298     3269     3231     3186     3142     3115     3096     3071 
    3046     3040     3059     3099     3150     3206     3257     3304 
    3345     3370     3395     3437     3487     3522     3534     3534 
    3535     3535     3527     3515     3507     3505     3514     3539 
    3578     3619     3643     3640     3630     3643     3673     3692 
    3694     3686     3680     3693     3716     3724     3715     3693 
    3673     3666     3672     3677     3678     3672     3646     3612 
    3584     3550     3501     3447     3395     3343     3287     3226 
    3180     3156     3148     3144     3140     3138     3136     3122 
    3113     3132     3179     3238     3289     3325     3348     3368 
    3387     3418     3462     3487     3470     3442     3449     3501 
    3569     3605     3593     3565     3554     3562     3580     3603 
    3609     3574     3515     3478     3474     3461     3408     3339 
    3310     3323     3335     3319     3277     3235     3222     3237 
    3262     3283     3289     3281     3276     3300     3353     3400 
    3426     3450     3493     3555     3624     3678     3700     3696 
    3680     3662     3663     3688     3709     3707     3670     3628 
    3597     3576     3551     3518     3487     3466     3449     3438 
    3439     3443     3433     3399     3366     3364     3395     3431 
    3445     3445     3450     3460     3456     3438     3418     3410 
    3426     3447     3447     3423     3406     3410     3418     3404 
    3369     3346     3349     3364     3373     3370     3360     3356 
    3346     3311     3261     3223     3215     3235     3253     3256 
    3273     3333     3415     3485     3539     3588     3635     3678 
    3712     3738     3765     3805     3866     3937     4004     4043 
    4039     4013     4000     4001     4005     4008     4013     4025 
    4041     4058     4072     4079     4081     4079     4064     4050 
    4050     4047     4027     3974     3889     3797     3719     3655 
    3604     3545     3474     3418     3403     3422     3434     3415 
    3384     3364     3354     3339     3308     3267     3231     3211 
    3192     3150     3087     3034     3013     3017     3030     3037 
    3024     2994     2960     2926     2905     2906     2925     2955 
    2994     3021     3028     3032     3038     3037     3036     3052 
    3090     3129     3157     3177     3198     3225     3253     3279 
    3296     3310     3338     3377     3404     3418     3430     3438 
    3429     3397     3362     3341     3327     3307     3275     3245 
    3238     3258     3294     3333     3372     3414     3454     3473 
    3461     3435     3407     3376     3348     3330     3306     3271 
    3233     3199     3169     3138     3105     3075     3049     3025 
    3005     2997     3007     3033     3049     3044     3046     3076 
    3129     3194     3249     3292     3341     3395     3456     3527 
    3595     3645     3680     3707     3742     3782     3813     3829 
    3838     3848     3871     3898     3923     3946     3963     3977 
    3990     4013     4055     4099     4124     4121     4113     4122 
    4151     4170     4182     4207     4245     4278     4286     4259 
    4202     4133     4072     4040     4043     4064     4075     4051 
    4002     3969     3959     3955     3931     3881     3829     3798 
    3769     3721     3658     3595     3550     3526     3504     3461 
    3392     3319     3253     3191     3125     3061     3021     3010 
    3014     3017     3014     2999     2976     2957     2949     2961 
    2994     3041     3094     3146     3191     3225     3261     3304 
    3343     3361     3358     3350     3356     3379     3402     3404 
    3407     3433     3470     3488     3461     3404     3360     3356 
    3379     3389     3372     3346     3337     3345     3365     3384 
    3393     3404     3422     3443     3456     3450     3431     3412 
    3395     3369     3331     3287     3242     3208     3191     3181 
    3173     3173     3190     3218     3252     3279     3292     3288 
    3260     3211     3163     3125     3095     3073     3056     3037 
    3024     3011     2990     2960     2928     2902     2893     2886 
    2879     2879     2893     2924     2956     2990     3037     3105 
    3181     3244     3275     3294     3331     3381     3418     3434 
    3442     3453     3465     3477     3485     3495     3511     3541 
    3582     3620     3645     3653     3655     3654     3657     3669 
    3685     3692     3694     3689     3670     3636     3600     3565 
    3532     3519     3530     3543     3541     3524     3514     3518 
    3532     3542     3551     3574     3604     3613     3601     3604 
    3640     3693     3739     3758     3748     3723     3703     3711 
    3751     3798     3832     3848     3848     3839     3817     3782 
    3751     3751     3781     3813     3827     3824     3815     3804 
    3794     3792     3786     3780     3777     3774     3754     3723 
    3707     3703     3694     3681     3669     3662     3659     3650 
    3624     3591     3565     3551     3538     3504     3442     3365 
    3292     3221     3134     3028     2916     2810     2717     2644 
    2596     2566     2536     2505     2475     2462     2467     2485 
    2504     2516     2546     2605     2683     2768     2852     2929 
    3005     3075     3130     3172     3217     3272     3330     3372 
    3388     3397     3411     3422     3427     3430     3447     3496 
    3565     3630     3672     3711     3774     3856     3919     3937 
    3920     3900     3894     3900     3897     3869     3823     3786 
    3778     3784     3777     3761     3761     3771     3771     3767 
    3775     3792     3805     3820     3839     3859     3881     3896 
    3906     3910     3900     3885     3874     3856     3831     3805 
    3789     3788     3786     3765     3727     3694     3684     3696 
    3708     3701     3685     3663     3638     3613     3581     3528 
    3464     3407     3373     3352     3334     3312     3284     3248 
    3213     3195     3198     3211     3229     3257     3302     3350 
    3391     3423     3453     3481     3516     3569     3638     3704 
    3746     3757     3754     3751     3751     3750     3736     3719 
    3715     3726     3727     3703     3669     3645     3642     3657 
    3666     3654     3639     3640     3665     3693     3716     3732 
    3754     3786     3809     3812     3809     3821     3848     3867 
    3866     3840     3801     3769     3748     3730     3699     3649 
    3589     3542     3511     3472     3406     3323     3242     3163 
    3083     2997     2910     2839     2787     2745     2702     2650 
    2593     2538     2479     2424     2381     2354     2335     2320 
    2316     2322     2327     2342     2371     2413     2463     2521 
    2592     2673     2752     2817     2874     2944     3036     3136 
    3225     3304     3383     3462     3545     3626     3703     3777 
    3847     3904     3943     3974     4006     4029     4031     4013 
    3993     3994     4013     4037     4051     4047     4040     4054 
    4085     4110     4112     4093     4082     4091     4102     4104 
    4091     4067     4037     4017     4005     3991     3963     3924 
    3883     3846     3805     3766     3738     3707     3659     3604 
    3557     3523     3493     3449     3387     3339     3325     3323 
    3303     3257     3200     3146     3095     3056     3032     3018 
    3015     3029     3052     3078     3087     3075     3052     3034 
    3037     3059     3096     3138     3157     3145     3127     3123 
    3141     3163     3179     3192     3207     3226     3252     3277 
    3299     3319     3335     3353     3381     3410     3418     3412 
    3404     3397     3400     3416     3435     3446     3465     3504 
    3538     3549     3545     3543     3555     3581     3604     3618 
    3635     3662     3693     3727     3759     3782     3802     3835 
    3870     3885     3875     3842     3805     3775     3742     3692 
    3623     3551     3492     3441     3383     3331     3299     3277 
    3256     3227     3194     3179     3202     3245     3279     3295 
    3306     3319     3337     3352     3364     3392     3431     3461 
    3468     3460     3457     3465     3476     3473     3445     3404 
    3362     3315     3260     3213     3177     3150     3122     3086 
    3051     3029     3030     3063     3105     3136     3154     3169 
    3195     3234     3281     3330     3381     3433     3484     3538 
    3599     3657     3700     3726     3751     3788     3834     3886 
    3935     3969     3990     4006     4021     4025     4012     3983 
    3960     3952     3939     3902     3855     3816     3793     3767 
    3727     3681     3650     3628     3604     3578     3547     3507 
    3460     3402     3338     3277     3217     3159     3110     3069 
    3041     3021     2995     2960     2926     2906     2901     2899 
    2902     2910     2928     2951     2978     3003     3021     3029 
    3034     3041     3048     3053     3052     3045     3044     3049 
    3053     3042     3018     3006     3017     3033     3033     3024 
    3022     3044     3087     3129     3153     3165     3177     3194 
    3214     3238     3256     3260     3254     3246     3245     3260 
    3287     3329     3387     3454     3507     3535     3561     3613 
    3696     3789     3856     3896     3937     4001     4068     4120 
    4151     4182     4229     4282     4321     4326     4297     4259 
    4244     4249     4253     4243     4212     4186     4185     4185 
    4160     4113     4062     4028     4009     3985     3942     3889 
    3847     3827     3825     3831     3821     3781     3720     3665 
    3626     3600     3572     3534     3500     3474     3450     3418 
    3377     3330     3295     3280     3276     3272     3267     3262 
    3260     3257     3268     3299     3329     3343     3338     3329 
    3329     3335     3346     3358     3373     3388     3392     3375 
    3345     3329     3337     3356     3365     3361     3358     3366 
    3387     3411     3430     3446     3464     3484     3511     3535 
    3551     3559     3568     3578     3593     3603     3599     3591 
    3589     3588     3582     3573     3568     3566     3564     3554 
    3534     3516     3512     3527     3555     3580     3584     3572 
    3562     3574     3593     3600     3588     3569     3551     3528 
    3493     3460     3441     3433     3414     3370     3314     3261 
    3222     3195     3175     3150     3117     3090     3076     3069 
    3060     3049     3046     3060     3083     3103     3118     3138 
    3169     3204     3245     3284     3316     3339     3352     3361 
    3377     3400     3430     3462     3487     3503     3519     3538 
    3545     3543     3539     3530     3519     3514     3507     3496 
    3485     3468     3449     3434     3433     3437     3437     3433 
    3434     3443     3453     3460     3461     3457     3451     3453 
    3462     3469     3462     3441     3414     3392     3376     3358 
    3342     3330     3319     3315     3315     3306     3279     3249 
    3226     3219     3221     3222     3221     3217     3223     3246 
    3285     3329     3364     3397     3433     3465     3492     3507 
    3518     3538     3562     3577     3578     3568     3553     3537 
    3520     3510     3499     3478     3453     3429     3407     3389 
    3379     3376     3376     3365     3341     3321     3315     3319 
    3322     3315     3294     3261     3230     3204     3179     3148 
    3118     3103     3102     3099     3087     3069     3051     3042 
    3049     3056     3053     3049     3045     3042     3044     3048 
    3056     3060     3053     3040     3036     3049     3071     3088 
    3105     3130     3163     3196     3234     3289     3362     3442 
    3505     3550     3593     3649     3711     3763     3793     3815 
    3840     3866     3886     3893     3889     3875     3865     3856 
    3843     3820     3793     3769     3740     3705     3666     3626 
    3592     3566     3543     3524     3514     3516     3519     3520 
    3520     3518     3520     3530     3538     3545     3555     3577 
    3609     3636     3650     3662     3677     3692     3694     3685 
    3680     3684     3694     3699     3684     3649     3607     3570 
    3531     3485     3438     3393     3357     3322     3276     3227 
    3183     3144     3109     3072     3037     3009     2992     2976 
