Origin Time       2025/01/13 21:19:00
Lat.              31.8
Long.             131.6
Depth. (km)       30
Mag.              6.9
Station Code      HRS007
Station Lat.      34.7029
Station Long.     133.0886
Station Height(m) 387
Record Time       2025/01/13 21:21:23
Sampling Freq(Hz) 100Hz
Duration Time(s)  60
Dir.              E-W
Scale Factor      7845(gal)/8223790
Max. Acc. (gal)   1.085
Last Correction   2025/01/13 21:21:23
Memo.             
[...]
    4090     4025     3948     3909     3915     3937     3954     3970 
    3985     3971     3927     3883     3866     3848     3790     3704 
    3628     3573     3535     3516     3518     3531     3553     3576 
    3593     3618     3645     3657     3651     3647     3661     3677 
    3680     3689     3735     3804     3870     3925     3970     3990 
    3975     3947     3947     3981     4002     3959     3844     3724 
    3684     3732     3802     3828     3804     3769     3750     3743 
    3738     3747     3775     3794     3775     3731     3705     3727 
    3778     3815     3816     3790     3782     3828     3890     3908 
    3877     3838     3836     3877     3925     3960     3989     4018 
    4050     4068     4051     4005     3964     3964     4005     4056 
    4079     4071     4058     4043     4000     3936     3896     3897 
    3901     3888     3898     3958     4024     4054     4047     4041 
    4075     4126     4132     4070     3997     3985     4029     4068 
    4066     4051     4064     4091     4089     4040     3963     3917 
    3952     4039     4085     4040     3956     3919     3947     3971 
    3936     3889     3909     4012     4120     4158     4116     4031 
    3942     3879     3874     3927     3991     4005     3952     3894 
    3901     3975     4044     4040     3970     3916     3928     3971 
    3993     3989     3998     4039     4081     4106     4129     4144 
    4116     4052     4018     4058     4136     4164     4091     3962 
    3875     3863     3861     3807     3728     3704     3767     3879 
    3981     4052     4121     4207     4302     4364     4363     4311 
    4284     4337     4430     4482     4456     4388     4338     4320 
    4294     4233     4159     4131     4172     4229     4233     4191 
    4159     4166     4175     4149     4124     4163     4271     4374 
    4403     4344     4243     4159     4129     4152     4194     4213 
    4187     4141     4122     4136     4139     4102     4064     4089 
    4175     4244     4228     4163     4126     4143     4176     4193 
    4186     4176     4175     4179     4198     4222     4221     4186 
    4168     4214     4267     4253     4185     4145     4198     4303 
    4364     4342     4295     4291     4326     4333     4274     4206 
    4210     4287     4367     4402     4415     4449     4483     4475 
    4440     4410     4401     4405     4419     4441     4450     4425 
    4380     4363     4402     4476     4517     4491     4441     4421 
    4429     4409     4324     4222     4197     4267     4361     4399 
    4380     4365     4374     4371     4330     4279     4270     4309 
    4351     4347     4293     4228     4191     4171     4125     4060 
    4037     4087     4160     4172     4105     4024     3985     3997 
    4027     4037     4027     4017     4033     4083     4140     4145 
    4078     3989     3958     3997     4055     4094     4126     4178 
    4236     4251     4210     4168     4172     4209     4240     4241 
    4218     4197     4180     4171     4172     4178     4168     4148 
    4125     4098     4067     4035     4021     4040     4081     4120 
    4132     4104     4043     3979     3924     3883     3861     3855 
    3852     3823     3759     3696     3685     3744     3828     3865 
    3848     3832     3855     3892     3906     3886     3855     3842 
    3843     3842     3839     3850     3878     3925     3975     3993 
    3958     3882     3807     3766     3762     3774     3790     3817 
    3846     3847     3825     3816     3829     3847     3866     3901 
    3952     4002     4036     4047     4039     4020     4004     4000 
    4000     3993     3977     3963     3963     3969     3958     3936 
    3933     3948     3954     3951     3947     3937     3923     3916 
    3935     3978     4012     4002     3952     3900     3883     3900 
    3917     3919     3937     4008     4086     4116     4106     4112 
    4149     4193     4209     4214     4240     4253     4194     4085 
    4025     4048     4081     4044     3966     3923     3937     3963 
    3958     3921     3879     3848     3831     3816     3784     3728 
    3682     3684     3743     3812     3827     3777     3723     3705 
    3704     3680     3634     3603     3613     3643     3659     3658 
    3654     3636     3597     3566     3577     3630     3693     3731 
    3748     3765     3781     3793     3802     3804     3800     3805 
    3828     3852     3859     3858     3879     3919     3929     3905 
    3894     3921     3956     3958     3912     3850     3802     3766 
    3734     3719     3719     3705     3669     3627     3585     3534 
    3473     3416     3381     3381     3399     3399     3364     3312 
    3277     3283     3327     3387     3433     3456     3477     3523 
    3589     3632     3638     3634     3650     3674     3665     3608 
    3550     3551     3611     3677     3707     3694     3667     3654 
    3662     3694     3739     3782     3815     3848     3908     3985 
    4045     4059     4052     4066     4112     4172     4248     4329 
    4394     4415     4401     4402     4450     4521     4553     4522 
    4473     4469     4515     4560     4560     4534     4550     4625 
    4689     4691     4660     4658     4683     4692     4681     4679 
    4685     4677     4637     4587     4556     4544     4527     4496 
    4472     4475     4506     4542     4561     4560     4545     4510 
    4432     4306     4168     4079     4052     4032     3971     3896 
    3843     3824     3804     3739     3643     3550     3477     3430 
    3396     3365     3343     3333     3334     3350     3365     3365 
    3373     3422     3511     3597     3646     3666     3677     3686 
    3682     3649     3605     3601     3650     3715     3759     3792 
    3834     3893     3963     4029     4077     4105     4124     4156 
    4203     4237     4240     4216     4183     4171     4190     4218 
    4225     4201     4167     4147     4151     4166     4172     4152 
    4109     4063     4047     4064     4087     4083     4056     4029 
    4023     4035     4052     4058     4052     4052     4062     4086 
    4121     4151     4153     4141     4126     4093     4050     4018 
    4004     3987     3964     3955     3974     3997     3993     3960 
    3931     3928     3929     3897     3844     3813     3831     3875 
    3905     3909     3921     3962     4002     4010     4012     4050 
    4131     4222     4291     4342     4403     4471     4499     4475 
    4423     4380     4359     4337     4317     4333     4388     4445 
    4486     4518     4563     4603     4615     4602     4581     4554 
    4488     4383     4299     4288     4338     4368     4324     4237 
    4185     4207     4252     4249     4191     4112     4041     3997 
    3973     3955     3923     3877     3838     3827     3838     3839 
    3798     3720     3651     3620     3608     3584     3549     3527 
    3538     3572     3613     3647     3670     3676     3654     3624 
    3630     3690     3759     3763     3697     3628     3619     3643 
    3638     3599     3588     3645     3739     3805     3815     3802 
    3813     3854     3898     3921     3936     3969     4033     4117 
    4190     4224     4226     4217     4207     4193     4153     4090 
    4033     3996     3951     3878     3790     3732     3707     3677 
    3643     3640     3682     3747     3792     3800     3804     3831 
    3869     3894     3925     4001     4118     4222     4264     4257 
    4260     4293     4315     4298     4267     4275     4322     4361 
    4352     4307     4290     4330     4374     4365     4332     4321 
    4348     4361     4313     4221     4152     4135     4139     4124 
    4087     4056     4039     4027     4009     3990     3975     3951 
    3909     3861     3829     3823     3815     3773     3705     3662 
    3673     3713     3739     3746     3761     3790     3819     3829 
    3817     3796     3778     3767     3763     3771     3778     3767 
    3734     3690     3657     3630     3592     3541     3503     3505 
    3550     3611     3651     3650     3623     3624     3688     3788 
    3873     3910     3912     3924     3977     4058     4137     4206 
    4256     4283     4299     4315     4326     4321     4291     4245 
    4198     4149     4093     4035     3979     3924     3879     3842 
    3797     3757     3738     3748     3780     3809     3831     3847 
    3865     3894     3931     3952     3956     3971     4016     4068 
    4093     4095     4113     4156     4203     4243     4276     4302 
    4314     4302     4267     4237     4216     4170     4081     3967 
    3866     3793     3735     3677     3620     3576     3546     3535 
    3538     3535     3527     3528     3547     3576     3600     3620 
    3632     3639     3659     3711     3775     3821     3840     3847 
    3862     3885     3909     3952     4016     4063     4074     4078 
    4112     4163     4198     4202     4210     4267     4360     4432 
    4456     4467     4500     4538     4531     4471     4406     4391 
    4409     4413     4380     4332     4307     4317     4317     4287 
    4256     4257     4267     4234     4145     4036     3950     3882 
    3817     3757     3715     3688     3647     3589     3545     3542 
    3551     3531     3488     3442     3410     3393     3379     3358 
    3345     3338     3326     3311     3298     3287     3273     3264 
    3279     3329     3392     3429     3420     3404     3419     3454 
    3476     3483     3493     3526     3580     3642     3701     3774 
    3877     4013     4170     4325     4446     4519     4557     4577 
    4594     4607     4603     4577     4552     4558     4604     4660 
    4695     4711     4729     4752     4764     4762     4772     4804 
    4843     4854     4831     4808     4815     4828     4823     4812 
    4808     4804     4784     4734     4666     4594     4515     4429 
    4345     4286     4243     4194     4133     4072     4032     4013 
    4000     3977     3940     3906     3901     3924     3948     3963 
    3979     4012     4037     4032     4014     4021     4066     4110 
    4124     4124     4147     4212     4284     4329     4342     4352 
    4371     4384     4390     4398     4414     4438     4476     4533 
    4588     4621     4619     4608     4621     4660     4689     4671 
    4604     4521     4448     4387     4334     4284     4241     4197 
    4149     4120     4112     4091     4045     3990     3950     3928 
    3908     3874     3834     3798     3774     3763     3757     3753 
    3743     3715     3681     3666     3659     3635     3576     3501 
    3445     3423     3426     3430     3414     3391     3372     3353 
    3343     3349     3362     3379     3395     3420     3460     3503 
    3537     3564     3596     3634     3661     3666     3661     3662 
    3677     3700     3727     3755     3782     3807     3828     3844 
    3846     3821     3781     3738     3703     3673     3643     3615 
    3580     3537     3497     3470     3458     3466     3489     3512 
    3531     3557     3588     3607     3605     3588     3580     3595 
    3622     3647     3673     3689     3693     3705     3738     3782 
    3823     3859     3908     3977     4056     4133     4195     4240 
    4268     4297     4330     4353     4364     4365     4356     4342 
    4332     4324     4313     4310     4325     4363     4418     4469 
    4500     4507     4504     4511     4525     4527     4515     4499 
    4492     4496     4502     4498     4479     4457     4449     4450 
    4441     4405     4357     4340     4351     4341     4283     4195 
    4114     4071     4050     4009     3943     3881     3856     3875 
    3908     3919     3904     3890     3894     3919     3967     4032 
    4097     4156     4220     4287     4355     4413     4461     4500 
    4531     4571     4614     4641     4639     4599     4529     4456 
    4398     4353     4313     4270     4221     4172     4121     4072 
    4039     4006     3958     3902     3856     3829     3819     3809 
    3801     3812     3844     3871     3869     3842     3802     3769 
    3751     3727     3680     3638     3623     3630     3636     3615 
    3576     3542     3523     3512     3493     3449     3391     3335 
    3288     3248     3203     3150     3095     3068     3090     3129 
    3137     3109     3096     3144     3227     3287     3310     3338 
    3392     3449     3474     3478     3504     3566     3628     3659 
    3680     3730     3812     3889     3944     3993     4060     4141 
    4203     4239     4278     4336     4396     4434     4446     4463 
    4506     4556     4581     4576     4581     4618     4657     4662 
    4650     4662     4714     4781     4830     4853     4880     4914 
    4934     4924     4915     4945     4999     5017     4985     4947 
    4954     4988     4999     4976     4954     4966     4977     4926 
    4812     4700     4631     4594     4542     4456     4357     4297 
    4287     4297     4279     4228     4178     4160     4170     4166 
    4131     4090     4078     4082     4068     4017     3944     3875 
    3809     3723     3600     3460     3334     3246     3196     3160 
    3107     3040     2987     2975     2992     3007     2999     2974 
    2955     2948     2933     2899     2872     2876     2903     2929 
    2936     2938     2970     3028     3075     3098     3119     3163 
    3223     3275     3307     3342     3410     3501     3591     3659 
    3727     3812     3906     4002     4101     4201     4294     4378 
    4449     4499     4533     4561     4600     4665     4741     4792 
    4804     4800     4806     4828     4855     4874     4880     4868 
    4830     4772     4706     4646     4600     4554     4488     4398 
    4303     4224     4144     4048     3943     3846     3777     3734 
    3701     3678     3682     3709     3739     3754     3763     3786 
    3825     3856     3859     3854     3873     3925     3991     4036 
    4040     4025     4029     4071     4139     4191     4201     4187 
    4179     4195     4222     4236     4232     4222     4222     4230 
    4245     4270     4294     4311     4340     4382     4426     4459 
    4473     4483     4494     4496     4484     4463     4429     4378 
    4313     4240     4166     4094     4031     3978     3933     3893 
    3861     3840     3831     3819     3804     3801     3802     3785 
    3728     3635     3549     3497     3476     3456     3414     3369 
    3346     3333     3296     3230     3154     3094     3057     3038 
    3024     3014     3022     3046     3084     3141     3207     3273 
    3325     3370     3443     3555     3676     3780     3875     3979 
    4098     4214     4307     4387     4464     4530     4584     4644 
    4725     4815     4884     4924     4958     5003     5047     5070 
    5067     5062     5080     5108     5108     5063     5015     4995 
    4989     4961     4896     4827     4780     4746     4696     4621 
    4533     4457     4395     4334     4268     4195     4125     4067 
    4016     3974     3944     3928     3929     3936     3931     3905 
    3854     3793     3747     3712     3666     3615     3576     3546 
    3515     3493     3503     3539     3581     3607     3612     3627 
    3673     3723     3740     3727     3709     3709     3719     3726 
    3727     3717     3704     3697     3701     3717     3730     3715 
    3690     3692     3717     3747     3777     3807     3835     3852 
    3850     3832     3816     3796     3766     3738     3717     3700 
    3666     3624     3600     3600     3605     3600     3584     3562 
    3553     3564     3586     3601     3593     3564     3539     3546 
    3584     3634     3670     3694     3723     3765     3812     3854 
    3874     3888     3913     3947     3962     3943     3916     3909 
    3913     3902     3878     3859     3852     3843     3817     3788 
    3788     3816     3839     3828     3807     3802     3817     3829 
    3836     3847     3874     3913     3944     3955     3950     3937 
    3935     3940     3936     3917     3908     3932     3985     4036 
    4063     4064     4070     4099     4143     4164     4158     4164 
    4205     4264     4315     4344     4355     4376     4419     4455 
    4448     4399     4337     4288     4252     4202     4136     4068 
    4023     4002     3978     3932     3879     3843     3835     3843 
    3848     3847     3844     3840     3836     3844     3874     3913 
    3946     3975     4004     4023     4028     4023     4021     4025 
    4016     3994     3982     3993     4010     4016     4013     4024 
    4055     4085     4104     4122     4153     4186     4202     4206 
    4222     4263     4306     4328     4337     4363     4418     4477 
    4511     4519     4522     4526     4533     4538     4542     4546 
    4544     4519     4475     4429     4395     4367     4337     4314 
    4301     4284     4260     4226     4201     4193     4194     4190 
    4179     4167     4162     4159     4147     4125     4095     4070 
    4050     4012     3958     3905     3859     3815     3769     3726 
    3693     3673     3659     3639     3615     3595     3586     3593 
    3601     3601     3607     3626     3662     3717     3780     3831 
    3865     3889     3917     3955     3993     4014     4009     4000 
    4014     4048     4077     4078     4056     4043     4055     4079 
    4089     4071     4047     4043     4050     4055     4064     4089 
    4131     4167     4182     4174     4170     4189     4207     4195 
    4151     4104     4086     4086     4062     4009     3962     3954 
    3977     3983     3954     3917     3905     3912     3910     3878 
    3834     3802     3792     3785     3770     3747     3724     3705 
    3686     3667     3643     3611     3572     3528     3495     3474 
    3458     3447     3453     3472     3495     3515     3537     3559 
    3574     3593     3634     3689     3743     3786     3823     3858 
    3893     3927     3962     4005     4059     4116     4158     4190 
    4222     4261     4293     4305     4317     4352     4405     4453 
    4487     4499     4492     4484     4487     4494     4503     4522 
    4540     4538     4513     4473     4434     4407     4386     4361 
    4332     4310     4297     4278     4247     4216     4207     4218 
    4218     4206     4197     4201     4216     4217     4193     4179 
    4195     4214     4210     4179     4152     4158     4186     4214 
    4229     4234     4247     4267     4274     4263     4239     4222 
    4218     4214     4205     4199     4205     4221     4230     4218 
    4193     4170     4158     4158     4163     4163     4158     4151 
    4144     4136     4120     4095     4074     4072     4093     4117 
    4131     4131     4117     4106     4108     4114     4113     4098 
    4066     4035     4012     3994     3978     3962     3944     3921 
    3898     3885     3878     3877     3871     3847     3809     3775 
    3761     3759     3750     3723     3699     3681     3661     3642 
