Origin Time       2025/01/13 21:19:00
Lat.              31.8
Long.             131.6
Depth. (km)       30
Mag.              6.9
Station Code      HYG016
Station Lat.      34.7553
Station Long.     134.3900
Station Height(m) 2
Record Time       2025/01/13 21:21:36
Sampling Freq(Hz) 100Hz
Duration Time(s)  89
Dir.              E-W
Scale Factor      7845(gal)/8223790
Max. Acc. (gal)   2.191
Last Correction   2025/01/13 21:21:37
Memo.             
[...]
    9494     9439     9408     9401     9393     9382     9381     9375 
    9360     9337     9313     9292     9263     9223     9207     9231 
    9259     9288     9328     9350     9346     9347     9350     9342 
    9343     9366     9391     9417     9441     9451     9448     9439 
    9413     9385     9362     9340     9315     9274     9227     9194 
    9185     9180     9171     9148     9115     9085     9055     9034 
    9026     9018     9009     8999     8988     8988     9000     8997 
    8986     8984     8982     8989     9018     9047     9069     9086 
    9093     9080     9058     9035     9019     9005     8981     8945 
    8934     8950     8968     8991     9022     9051     9089     9131 
    9166     9193     9204     9204     9212     9228     9250     9282 
    9309     9306     9292     9277     9239     9192     9174     9190 
    9220     9256     9300     9316     9300     9304     9316     9319 
    9331     9331     9306     9247     9155     9089     9049     9007 
    8981     8973     8959     8931     8930     8966     8978     8991 
    9049     9109     9147     9169     9171     9161     9146     9126 
    9104     9093     9101     9107     9108     9135     9184     9224 
    9256     9298     9321     9325     9336     9339     9328     9333 
    9352     9366     9394     9441     9467     9467     9487     9512 
    9522     9553     9598     9609     9613     9666     9715     9715 
    9734     9794     9818     9788     9755     9729     9686     9640 
    9610     9586     9559     9514     9459     9413     9377     9356 
    9367     9377     9342     9277     9232     9215     9192     9171 
    9166     9192     9225     9202     9146     9131     9134     9112 
    9096     9112     9126     9124     9109     9070     9036     9023 
    9003     8989     8993     8978     8945     8918     8885     8850 
    8833     8826     8808     8791     8788     8792     8795     8800 
    8802     8800     8804     8815     8818     8807     8819     8884 
    8955     9009     9069     9124     9148     9159     9181     9204 
    9223     9239     9242     9239     9240     9239     9234     9228 
    9216     9200     9182     9162     9138     9120     9116     9127 
    9150     9171     9180     9192     9212     9215     9202     9194 
    9196     9219     9255     9275     9279     9283     9289     9290 
    9281     9263     9255     9242     9197     9155     9132     9096 
    9055     9022     8992     8974     8968     8950     8927     8922 
    8931     8934     8924     8924     8943     8976     9003     9007 
    8999     8982     8966     8974     9000     9016     9026     9034 
    9038     9042     9058     9096     9139     9174     9202     9223 
    9250     9282     9309     9321     9320     9320     9325     9327 
    9323     9310     9278     9240     9219     9213     9213     9223 
    9252     9297     9317     9315     9324     9352     9389     9424 
    9448     9459     9451     9424     9391     9362     9344     9327 
    9297     9267     9239     9205     9185     9186     9189     9174 
    9157     9154     9159     9165     9180     9201     9223     9252 
    9301     9352     9393     9445     9528     9614     9691     9772 
    9857     9931     9983    10026    10069    10100    10123    10156 
   10176    10176    10174    10172    10154    10129    10102    10081 
   10069    10045    10000     9952     9907     9859     9796     9733 
    9693     9671     9643     9602     9572     9555     9529     9498 
    9464     9416     9369     9317     9247     9171     9107     9057 
    9020     8972     8905     8843     8785     8726     8667     8613 
    8567     8530     8495     8461     8448     8448     8453     8457 
    8463     8471     8483     8506     8553     8621     8687     8764 
    8851     8934     9012     9092     9165     9224     9267     9290 
    9304     9316     9329     9351     9366     9371     9374     9362 
    9335     9308     9281     9255     9232     9204     9171     9148 
    9140     9143     9146     9151     9161     9182     9202     9211 
    9213     9220     9236     9266     9309     9354     9386     9400 
    9393     9364     9333     9302     9258     9209     9166     9121 
    9085     9066     9039     9007     8981     8946     8905     8876 
    8837     8787     8746     8716     8692     8681     8680     8673 
    8652     8618     8576     8526     8479     8448     8436     8444 
    8471     8519     8583     8645     8706     8769     8835     8893 
    8945     9001     9059     9117     9186     9266     9352     9443 
    9524     9591     9653     9701     9736     9767     9790     9798 
    9796     9786     9757     9714     9670     9617     9552     9483 
    9416     9351     9292     9240     9192     9155     9146     9146 
    9146     9165     9201     9231     9246     9252     9258     9258 
    9244     9236     9234     9221     9194     9158     9121     9093 
    9050     8993     8938     8889     8850     8816     8780     8760 
    8756     8749     8738     8733     8726     8714     8696     8661 
    8619     8607     8617     8626     8645     8673     8712     8788 
    8878     8958     9035     9117     9198     9265     9308     9335 
    9354     9378     9398     9406     9417     9425     9425     9424 
    9429     9448     9474     9497     9508     9506     9510     9540 
    9578     9602     9621     9645     9680     9711     9736     9760 
    9782     9796     9806     9802     9779     9741     9697     9644 
    9578     9508     9440     9379     9325     9267     9208     9147 
    9067     8986     8924     8868     8816     8777     8738     8698 
    8685     8694     8704     8721     8739     8764     8796     8823 
    8853     8891     8916     8930     8946     8951     8945     8938 
    8918     8881     8853     8811     8753     8711     8677     8640 
    8625     8621     8604     8596     8613     8633     8660     8708 
    8768     8822     8885     8962     9050     9136     9201     9258 
    9324     9370     9401     9436     9444     9435     9448     9470 
    9470     9467     9470     9466     9460     9452     9420     9396 
    9414     9432     9424     9412     9391     9379     9371     9328 
    9286     9265     9227     9177     9126     9074     9022     8965 
    8899     8818     8754     8725     8679     8606     8540     8488 
    8446     8406     8374     8370     8390     8417     8467     8548 
    8644     8743     8858     8991     9131     9271     9408     9532 
    9657     9798     9926    10025    10106    10164    10193    10206 
   10195    10164    10129    10088    10045    10011     9988     9965 
    9931     9886     9830     9763     9690     9617     9539     9459 
    9386     9335     9310     9305     9312     9324     9342     9364 
    9389     9414     9444     9464     9468     9467     9468     9464 
    9450     9414     9354     9277     9194     9116     9047     8982 
    8923     8881     8862     8869     8892     8928     8986     9054 
    9126     9207     9292     9371     9447     9521     9591     9663 
    9728     9784     9833     9864     9880     9887     9886     9871 
    9846     9809     9748     9653     9529     9381     9219     9063 
    8916     8765     8600     8445     8314     8195     8097     8021 
    7959     7921     7898     7888     7905     7942     7993     8067 
    8160     8262     8365     8482     8610     8725     8830     8931 
    9008     9066     9115     9150     9169     9177     9189     9202 
    9213     9224     9236     9252     9261     9255     9244     9235 
    9221     9208     9207     9220     9239     9271     9312     9348 
    9398     9466     9533     9595     9652     9697     9730     9749 
    9756     9763     9764     9765     9769     9763     9744     9718 
    9679     9632     9580     9526     9483     9462     9454     9458 
    9468     9474     9482     9490     9495     9531     9582     9614 
    9641     9671     9686     9701     9717     9726     9730     9730 
    9722     9705     9676     9647     9607     9555     9505     9471 
    9444     9418     9389     9347     9302     9258     9213     9169 
    9121     9069     9012     8958     8903     8845     8806     8775 
    8741     8726     8730     8731     8729     8731     8743     8756 
    8762     8756     8731     8698     8664     8625     8591     8556 
    8517     8487     8467     8460     8469     8490     8532     8595 
    8680     8776     8868     8955     9036     9107     9177     9243 
    9298     9355     9417     9474     9521     9571     9628     9690 
    9759     9838     9918     9995    10061    10103    10138    10170 
   10179    10156    10120    10077    10022     9960     9895     9834 
    9775     9703     9649     9621     9567     9499     9466     9437 
    9383     9324     9292     9262     9201     9151     9117     9058 
    9001     8976     8950     8892     8824     8773     8718     8646 
    8576     8513     8451     8394     8347     8317     8290     8266 
    8259     8257     8262     8280     8301     8313     8326     8351 
    8379     8405     8455     8545     8640     8722     8808     8892 
    8958     9015     9057     9092     9121     9143     9169     9201 
    9223     9236     9248     9251     9248     9250     9251     9247 
    9244     9248     9263     9269     9270     9296     9342     9391 
    9450     9522     9605     9682     9759     9845     9933    10018 
   10092    10131    10158    10206    10250    10262    10249    10224 
   10201    10179    10146    10112    10087    10057    10019     9973 
    9923     9880     9830     9765     9709     9676     9664     9657 
    9634     9606     9585     9547     9489     9423     9346     9269 
    9194     9105     9011     8922     8833     8749     8679     8606 
    8527     8460     8401     8332     8263     8205     8155     8116 
    8091     8079     8081     8089     8109     8136     8162     8190 
    8233     8284     8334     8390     8468     8576     8703     8835 
    8980     9131     9279     9424     9555     9663     9751     9818 
    9860     9890     9917     9931     9933     9927     9909     9876 
    9838     9790     9734     9682     9624     9566     9520     9478 
    9437     9406     9385     9364     9352     9340     9316     9286 
    9265     9258     9266     9274     9274     9273     9266     9255 
    9244     9221     9182     9138     9085     9019     8947     8868 
    8779     8692     8615     8545     8484     8436     8397     8368 
    8356     8359     8382     8425     8476     8530     8594     8665 
    8739     8803     8860     8923     8993     9065     9132     9189 
    9229     9256     9271     9271     9252     9227     9209     9202 
    9201     9204     9204     9200     9194     9193     9196     9196 
    9202     9220     9240     9265     9301     9355     9431     9517 
    9606     9703     9807     9896     9961    10019    10081    10126 
   10139    10129    10120    10123    10115    10096    10072    10037 
    9985     9922     9841     9751     9667     9594     9514     9429 
    9354     9296     9250     9204     9167     9144     9127     9112 
    9094     9081     9080     9074     9058     9038     9013     8985 
    8962     8934     8892     8854     8822     8775     8710     8631 
    8545     8471     8406     8341     8293     8274     8270     8276 
    8316     8387     8475     8583     8706     8837     8976     9127 
    9286     9445     9609     9790     9973    10143    10304    10461 
   10612    10759    10889    10994    11071    11107    11117    11124 
   11134    11134    11117    11074    10997    10898    10793    10677 
   10546    10400    10250    10103     9958     9822     9694     9566 
    9433     9290     9142     9000     8866     8733     8600     8472 
    8355     8240     8132     8035     7935     7835     7750     7674 
    7600     7533     7474     7429     7393     7365     7349     7352 
    7371     7393     7425     7479     7550     7632     7727     7832 
    7948     8083     8236     8392     8546     8703     8862     9018 
    9171     9335     9502     9670     9830     9988    10146    10295 
   10427    10547    10665    10781    10886    10968    11032    11090 
   11140    11176    11187    11160    11103    11025    10928    10812 
   10685    10562    10443    10330    10224    10122    10018     9904 
    9783     9667     9552     9423     9288     9162     9040     8931 
    8845     8769     8703     8649     8603     8553     8496     8433 
    8364     8294     8225     8160     8105     8058     8008     7952 
    7902     7865     7835     7801     7765     7736     7713     7697 
    7695     7705     7727     7759     7805     7863     7939     8027 
    8113     8202     8299     8409     8526     8652     8787     8934 
    9093     9254     9405     9543     9671     9795     9907    10002 
   10084    10161    10230    10287    10330    10366    10404    10442 
   10471    10494    10525    10561    10594    10621    10639    10650 
   10660    10663    10658    10643    10616    10579    10534    10473 
   10407    10332    10254    10169    10080     9990     9888     9768 
    9632     9489     9343     9182     9001     8806     8607     8406 
    8203     8008     7823     7653     7496     7350     7229     7132 
    7048     6980     6937     6913     6917     6945     6988     7045 
    7114     7188     7267     7356     7460     7568     7681     7805 
    7933     8071     8212     8343     8460     8572     8683     8788 
    8892     9000     9099     9184     9273     9374     9481     9591 
    9705     9823     9948    10076    10214    10355    10492    10628 
   10763    10889    11007    11110    11182    11229    11256    11257 
   11234    11192    11126    11033    10913    10773    10623    10473 
   10318    10153     9983     9811     9641     9474     9313     9159 
    9013     8873     8733     8596     8469     8348     8229     8117 
    8013     7923     7851     7789     7738     7703     7677     7657 
    7643     7646     7668     7696     7731     7766     7805     7851 
    7896     7939     7997     8067     8148     8241     8334     8428 
    8525     8622     8725     8827     8923     9020     9120     9211 
    9293     9371     9444     9514     9580     9647     9714     9782 
    9845     9900     9961    10030    10095    10154    10206    10249 
   10292    10331    10363    10382    10389    10389    10380    10355 
   10318    10273    10222    10164    10106    10045     9979     9913 
    9852     9794     9741     9698     9655     9607     9555     9501 
    9448     9394     9333     9267     9212     9178     9163     9166 
    9184     9216     9261     9313     9371     9441     9518     9589 
    9648     9697     9736     9765     9787     9795     9788     9772 
    9747     9718     9676     9610     9526     9428     9329     9251 
    9189     9130     9076     9020     8972     8947     8930     8908 
    8887     8864     8833     8800     8764     8723     8683     8648 
    8623     8598     8567     8538     8521     8506     8483     8453 
    8418     8376     8347     8334     8334     8337     8332     8317 
    8306     8311     8324     8344     8379     8432     8509     8613 
    8729     8850     8982     9131     9292     9467     9657     9846 
   10018    10168    10297    10408    10496    10557    10592    10600 
   10578    10536    10480    10417    10354    10287    10214    10134 
   10042     9948     9857     9763     9670     9580     9485     9386 
    9298     9221     9154     9093     9028     8968     8919     8880 
    8845     8803     8753     8702     8653     8603     8559     8513 
    8461     8407     8337     8255     8163     8054     7933     7808 
    7696     7604     7526     7469     7435     7420     7434     7477 
    7551     7655     7777     7909     8056     8220     8394     8572 
    8741     8899     9053     9200     9347     9487     9614     9733 
    9844     9940    10018    10088    10154    10222    10292    10365 
   10438    10509    10579    10646    10705    10758    10809    10860 
   10906    10953    10997    11024    11043    11053    11056    11057 
   11053    11038    11014    10979    10932    10871    10793    10692 
   10571    10432    10276    10112     9941     9756     9567     9379 
    9201     9034     8877     8738     8614     8505     8410     8329 
    8267     8230     8212     8197     8191     8190     8187     8187 
    8191     8194     8190     8179     8164     8145     8135     8133 
    8133     8136     8148     8166     8195     8239     8286     8338 
    8401     8475     8564     8667     8780     8897     9018     9135 
    9247     9356     9468     9575     9676     9769     9857     9942 
   10021    10089    10139    10161    10150    10119    10076    10022 
    9957     9888     9813     9737     9663     9583     9497     9413 
    9332     9256     9193     9136     9085     9043     9013     8995 
    8988     8993     9007     9019     9031     9049     9067     9090 
    9121     9162     9205     9252     9300     9340     9375     9404 
    9414     9413     9404     9377     9339     9297     9251     9205 
    9167     9130     9090     9047     9004     8965     8923     8881 
    8856     8843     8841     8851     8862     8868     8877     8888 
    8887     8866     8834     8795     8752     8707     8665     8622 
    8583     8553     8532     8519     8518     8523     8538     8564 
    8598     8642     8704     8772     8843     8919     9001     9100 
    9207     9313     9421     9533     9645     9757     9873     9988 
   10098    10196    10281    10358    10436    10515    10588    10650 
   10692    10709    10706    10687    10651    10604    10554    10497 
   10432    10363    10289    10206    10116    10025     9938     9859 
    9787     9718     9649     9579     9501     9418     9332     9240 
    9147     9054     8954     8845     8733     8622     8523     8434 
    8347     8268     8197     8129     8068     8016     7970     7929 
    7909     7904     7905     7920     7943     7970     8006     8050 
    8106     8175     8253     8347     8442     8534     8627     8719 
    8807     8905     9007     9094     9171     9238     9292     9340 
    9378     9402     9421     9432     9424     9405     9390     9379 
    9371     9375     9378     9374     9374     9373     9362     9346 
    9327     9312     9300     9289     9279     9273     9262     9247 
    9229     9207     9178     9148     9117     9090     9059     9023 
    8996     8976     8957     8953     8965     8992     9028     9070 
    9120     9170     9216     9271     9342     9417     9493     9571 
    9644     9706     9765     9821     9869     9919     9961     9984 
    9996    10002     9996     9992     9992     9990     9988     9990 
    9992     9992     9992     9987     9973     9950     9922     9888 
    9856     9829     9796     9753     9703     9648     9586     9518 
    9443     9369     9290     9207     9123     9039     8958     8893 
    8834     8780     8737     8699     8664     8635     8613     8591 
