Origin Time       2025/01/13 21:19:00
Lat.              31.8
Long.             131.6
Depth. (km)       30
Mag.              6.9
Station Code      HYG016
Station Lat.      34.7553
Station Long.     134.3900
Station Height(m) 2
Record Time       2025/01/13 21:21:36
Sampling Freq(Hz) 100Hz
Duration Time(s)  89
Dir.              U-D
Scale Factor      7845(gal)/8223790
Max. Acc. (gal)   0.928
Last Correction   2025/01/13 21:21:37
Memo.             
[...]
   17895    17883    17879    17883    17875    17856    17841    17825 
   17814    17815    17813    17805    17817    17837    17844    17837 
   17825    17822    17836    17844    17848    17851    17845    17841 
   17845    17855    17865    17868    17867    17868    17876    17899 
   17918    17923    17933    17940    17934    17932    17933    17925 
   17925    17936    17950    17977    17983    17957    17949    17969 
   17983    17979    17983    17986    17969    17965    17983    17991 
   18009    18050    18080    18104    18121    18107    18087    18075 
   18050    18015    17986    17944    17883    17845    17829    17797 
   17775    17772    17755    17728    17722    17726    17732    17728 
   17703    17693    17714    17730    17728    17733    17763    17797 
   17801    17797    17807    17817    17825    17833    17840    17861 
   17902    17928    17945    17979    18031    18081    18106    18111 
   18115    18129    18146    18138    18099    18068    18050    18015 
   17972    17953    17953    17948    17940    17936    17934    17942 
   17957    17980    18009    18011    17980    17971    17995    18003 
   18003    18029    18048    18021    17986    17986    18011    18026 
   18007    17972    17961    17956    17917    17880    17891    17901 
   17875    17857    17859    17852    17838    17828    17810    17786 
   17759    17734    17725    17743    17757    17757    17767    17788 
   17801    17806    17820    17832    17814    17780    17764    17755 
   17752    17763    17768    17779    17802    17814    17815    17832 
   17867    17899    17909    17907    17910    17915    17923    17925 
   17915    17903    17898    17907    17909    17891    17874    17860 
   17848    17840    17824    17802    17791    17790    17790    17807 
   17833    17842    17855    17882    17882    17863    17856    17860 
   17867    17864    17865    17895    17926    17919    17903    17921 
   17952    17963    17956    17948    17941    17942    17960    17983 
   17995    17995    17988    17982    17983    17969    17933    17910 
   17906    17887    17842    17793    17771    17779    17788    17787 
   17793    17801    17798    17793    17805    17830    17859    17880 
   17886    17887    17909    17938    17961    17979    17990    17984 
   17965    17944    17928    17928    17937    17938    17933    17917 
   17905    17909    17902    17878    17867    17871    17871    17860 
   17849    17853    17875    17888    17869    17836    17821    17829 
   17845    17852    17838    17815    17809    17832    17876    17911 
   17925    17933    17948    17964    17973    17984    17994    17991 
   17980    17975    17977    17983    17983    17980    17976    17971 
   17969    17963    17945    17923    17906    17899    17894    17890 
   17883    17863    17834    17815    17813    17824    17836    17849 
   17876    17905    17921    17940    17961    17983    18009    18029 
   18044    18064    18080    18075    18058    18038    18021    18006 
   17992    17984    17977    17971    17965    17965    17979    18000 
   18009    18002    17984    17971    17969    17972    17969    17956 
   17946    17957    17969    17963    17942    17917    17901    17896 
   17902    17905    17901    17890    17892    17913    17930    17936 
   17944    17952    17948    17938    17933    17929    17922    17910 
   17901    17901    17907    17909    17905    17888    17872    17874 
   17878    17882    17903    17930    17959    17996    18031    18063 
   18098    18130    18160    18189    18210    18229    18256    18273 
   18280    18277    18269    18262    18254    18241    18227    18216 
   18198    18166    18129    18095    18064    18034    18014    18003 
   18002    17998    17990    17987    17986    17984    17992    17998 
   18000    17999    17991    17984    17980    17973    17967    17959 
   17945    17936    17928    17909    17874    17828    17788    17752 
   17706    17649    17597    17556    17520    17486    17471    17474 
   17482    17500    17527    17555    17591    17628    17652    17671 
   17686    17693    17707    17739    17768    17790    17803    17817 
   17841    17864    17874    17871    17860    17853    17852    17845 
   17825    17795    17767    17745    17724    17705    17701    17701 
   17689    17671    17653    17640    17635    17645    17674    17703 
   17730    17756    17784    17815    17836    17844    17856    17874 
   17892    17919    17948    17959    17941    17917    17909    17905 
   17882    17842    17787    17743    17752    17782    17766    17741 
   17759    17787    17818    17856    17871    17871    17869    17849 
   17844    17869    17887    17872    17853    17864    17919    17992 
   18015    17982    17968    17999    18031    18025    17975    17921 
   17898    17902    17910    17896    17848    17803    17790    17790 
   17793    17798    17807    17820    17824    17822    17837    17863 
   17869    17875    17911    17960    18006    18046    18071    18096 
   18146    18188    18207    18215    18203    18183    18171    18157 
   18131    18103    18068    18040    18029    18007    17971    17941 
   17910    17876    17851    17821    17783    17752    17717    17675 
   17641    17620    17608    17608    17620    17640    17667    17693 
   17721    17752    17788    17826    17857    17884    17917    17948 
   17957    17961    17980    17987    17971    17980    18014    18045 
   18091    18111    18067    18041    18069    18072    18037    18018 
   18014    18015    18026    18004    17955    17923    17896    17856 
   17836    17829    17821    17824    17799    17751    17759    17802 
   17780    17726    17701    17695    17730    17807    17834    17782 
   17756    17832    17907    17894    17844    17830    17882    17956 
   17982    17968    17955    17952    17957    17950    17945    17959 
   17968    17940    17884    17880    17952    17994    17941    17872 
   17871    17917    17937    17922    17896    17874    17872    17886 
   17880    17860    17838    17817    17797    17778    17760    17739 
   17703    17666    17637    17618    17599    17585    17583    17589 
   17594    17601    17608    17624    17655    17686    17707    17721 
   17739    17770    17809    17852    17899    17944    17995    18063 
   18127    18180    18227    18273    18320    18357    18380    18401 
   18420    18428    18435    18432    18414    18382    18342    18301 
   18258    18210    18150    18081    18006    17923    17832    17752 
   17685    17620    17587    17587    17590    17604    17629    17662 
   17714    17783    17856    17934    18004    18063    18123    18184 
   18243    18315    18392    18455    18500    18531    18551    18555 
   18546    18526    18500    18462    18408    18342    18273    18208 
   18149    18091    18031    17973    17926    17884    17841    17794 
   17745    17706    17680    17659    17640    17628    17624    17629 
   17641    17653    17660    17670    17680    17679    17670    17663 
   17644    17609    17566    17524    17497    17481    17458    17431 
   17423    17432    17439    17448    17489    17548    17594    17624 
   17667    17737    17828    17921    18003    18073    18127    18166 
   18214    18272    18319    18354    18388    18412    18428    18450 
   18474    18493    18501    18499    18474    18431    18389    18351 
   18311    18264    18206    18135    18069    18011    17964    17933 
   17907    17861    17805    17775    17772    17761    17747    17757 
   17771    17757    17734    17733    17743    17739    17725    17709 
   17686    17668    17663    17658    17633    17590    17554    17527 
   17497    17475    17474    17475    17469    17464    17475    17501 
   17520    17535    17571    17622    17652    17643    17624    17620 
   17626    17639    17626    17579    17543    17531    17517    17517 
   17545    17559    17551    17559    17591    17624    17641    17653 
   17666    17685    17721    17774    17826    17864    17891    17932 
   17982    18025    18061    18092    18117    18135    18158    18183 
   18195    18195    18189    18183    18179    18166    18157    18156 
   18146    18139    18138    18118    18103    18117    18121    18103 
   18096    18084    18046    18017    18004    17984    17959    17946 
   17944    17934    17926    17940    17941    17910    17879    17856 
   17826    17793    17771    17756    17724    17685    17663    17643 
   17620    17621    17637    17649    17659    17668    17671    17675 
   17702    17737    17751    17764    17805    17856    17883    17891 
   17921    17968    17992    18002    18017    18026    18033    18049 
   18060    18068    18094    18131    18173    18204    18212    18196 
   18169    18145    18118    18088    18063    18018    17957    17925 
   17926    17926    17921    17918    17921    17953    18017    18063 
   18076    18091    18129    18169    18191    18202    18222    18247 
   18265    18265    18261    18273    18291    18274    18225    18187 
   18175    18162    18144    18121    18092    18064    18025    17990 
   17990    18009    18009    17973    17940    17948    17982    17994 
   17971    17948    17959    17977    17968    17941    17934    17946 
   17946    17925    17911    17917    17925    17922    17926    17941 
   17945    17933    17922    17921    17915    17903    17887    17867 
   17845    17826    17814    17810    17809    17801    17788    17780 
   17771    17764    17764    17755    17722    17680    17648    17632 
   17610    17578    17558    17556    17560    17558    17555    17571 
   17602    17635    17666    17697    17737    17788    17837    17860 
   17860    17856    17863    17879    17898    17905    17895    17883 
   17886    17894    17890    17874    17865    17878    17887    17880 
   17867    17851    17834    17830    17822    17797    17771    17747 
   17705    17645    17595    17560    17521    17462    17402    17365 
   17347    17339    17325    17292    17257    17247    17265    17296 
   17312    17312    17317    17351    17408    17459    17486    17502 
   17529    17560    17591    17621    17637    17645    17670    17714 
   17767    17809    17837    17867    17907    17949    17987    18027 
   18065    18084    18099    18134    18177    18211    18239    18274 
   18316    18354    18374    18380    18385    18403    18426    18442 
   18457    18463    18458    18447    18435    18420    18400    18366 
   18316    18274    18239    18206    18179    18133    18064    18027 
   18026    18007    17953    17890    17840    17802    17761    17724 
   17701    17689    17670    17640    17616    17605    17604    17604 
   17581    17555    17568    17591    17589    17581    17597    17625 
   17652    17679    17705    17726    17753    17783    17786    17771 
   17775    17786    17782    17776    17788    17807    17813    17798 
   17780    17782    17803    17814    17817    17818    17825    17851 
   17876    17879    17887    17909    17930    17952    17976    17998 
   18018    18026    18011    17998    18002    18000    17968    17913 
   17871    17857    17857    17852    17844    17836    17829    17824 
   17817    17809    17806    17803    17795    17782    17780    17803 
   17832    17833    17826    17840    17869    17907    17938    17948 
   17952    17965    17977    17990    18021    18065    18085    18071 
   18061    18083    18104    18099    18076    18057    18046    18027 
   18003    17988    17963    17915    17865    17829    17806    17794 
   17793    17783    17767    17767    17782    17793    17798    17801 
   17811    17828    17838    17852    17887    17932    17976    18023 
   18080    18148    18226    18304    18381    18458    18534    18601 
   18658    18709    18754    18781    18793    18804    18821    18831 
   18825    18814    18796    18770    18747    18721    18688    18655 
   18624    18585    18538    18499    18473    18431    18370    18312 
   18256    18203    18172    18149    18123    18107    18095    18085 
   18083    18083    18087    18087    18073    18060    18049    18026 
   17992    17961    17930    17894    17838    17770    17713    17662 
   17598    17528    17464    17398    17329    17262    17196    17134 
   17076    17028    17001    16987    16976    16976    16984    17003 
   17050    17115    17170    17208    17248    17309    17381    17442 
   17490    17529    17570    17610    17653    17699    17734    17756 
   17778    17810    17848    17878    17902    17923    17945    17959 
   17971    17988    18003    18003    17990    17987    18003    18030 
   18057    18081    18100    18106    18111    18137    18172    18183 
   18165    18149    18158    18172    18171    18150    18112    18069 
   18030    17984    17928    17868    17806    17737    17652    17566 
   17504    17456    17408    17359    17312    17263    17230    17208 
   17188    17167    17153    17147    17154    17165    17180    17207 
   17248    17297    17344    17396    17452    17508    17559    17612 
   17659    17693    17718    17752    17790    17822    17848    17865 
   17872    17874    17880    17888    17884    17875    17869    17876 
   17896    17923    17952    17983    18026    18079    18139    18203 
   18260    18308    18360    18408    18458    18515    18576    18635 
   18686    18720    18748    18785    18825    18859    18871    18854 
   18827    18801    18766    18716    18652    18566    18470    18389 
   18308    18215    18126    18049    17982    17925    17874    17829 
   17790    17751    17720    17702    17695    17693    17695    17709 
   17730    17744    17745    17749    17760    17771    17780    17790 
   17793    17798    17817    17844    17865    17879    17888    17898 
   17902    17892    17876    17867    17853    17826    17795    17772 
   17748    17718    17701    17703    17710    17712    17724    17752 
   17787    17822    17848    17876    17911    17938    17956    17965 
   17968    17980    18004    18019    18026    18036    18044    18049 
   18054    18053    18040    18019    18000    17977    17948    17913 
   17876    17841    17806    17775    17751    17725    17701    17685 
   17674    17663    17659    17666    17685    17703    17720    17748 
   17786    17828    17876    17918    17952    17987    18018    18048 
   18077    18095    18104    18106    18094    18071    18045    18015 
   17992    17968    17922    17857    17784    17710    17653    17617 
   17582    17545    17502    17452    17417    17419    17440    17443 
   17428    17431    17459    17508    17568    17612    17633    17666 
   17709    17740    17755    17764    17766    17756    17733    17706 
   17682    17653    17624    17597    17566    17528    17493    17464 
   17460    17474    17489    17502    17518    17535    17566    17624 
   17702    17770    17820    17868    17926    18003    18094    18176 
   18241    18295    18339    18377    18407    18426    18432    18431 
   18419    18385    18339    18288    18233    18183    18134    18075 
   18014    17957    17906    17875    17853    17829    17810    17803 
   17802    17814    17841    17875    17910    17963    18034    18095 
   18134    18161    18189    18216    18237    18245    18237    18216 
   18181    18139    18102    18056    17994    17922    17842    17757 
   17686    17620    17548    17486    17452    17428    17412    17412 
   17427    17454    17483    17513    17568    17637    17702    17774 
   17845    17909    17976    18040    18092    18153    18223    18280 
   18314    18333    18349    18354    18346    18334    18318    18291 
   18253    18207    18166    18131    18092    18046    17995    17944 
   17895    17857    17833    17813    17790    17779    17782    17783 
   17786    17797    17805    17807    17815    17828    17832    17826 
   17820    17815    17811    17807    17795    17778    17763    17748 
   17732    17717    17710    17699    17686    17674    17670    17674 
   17680    17680    17678    17678    17676    17664    17647    17637 
   17632    17628    17628    17625    17622    17626    17633    17641 
   17652    17672    17699    17730    17764    17802    17838    17868 
   17896    17930    17965    17990    18011    18023    18026    18022 
   18013    18004    18004    18002    17996    17988    17987    17987 
   17988    17990    17990    17995    18002    18007    18019    18042 
   18081    18129    18175    18226    18281    18334    18387    18435 
   18481    18524    18561    18585    18603    18619    18628    18628 
   18616    18594    18565    18517    18457    18397    18337    18272 
   18211    18152    18087    18022    17965    17909    17856    17813 
   17779    17760    17757    17763    17770    17775    17783    17793 
   17797    17801    17803    17799    17791    17779    17768    17760 
   17749    17739    17732    17724    17714    17699    17685    17671 
   17660    17649    17637    17626    17620    17612    17599    17590 
   17586    17579    17568    17566    17564    17554    17552    17563 
   17574    17589    17610    17635    17663    17694    17721    17744 
   17767    17786    17801    17810    17814    17810    17806    17805 
   17805    17799    17786    17770    17752    17734    17726    17722 
   17724    17737    17753    17767    17790    17826    17867    17902 
   17941    17980    18017    18057    18100    18141    18175    18203 
   18226    18237    18241    18237    18223    18203    18173    18138 
   18102    18060    18015    17975    17937    17899    17860    17818 
   17775    17732    17697    17672    17651    17631    17616    17610 
   17610    17612    17610    17612    17614    17612    17613    17610 
   17595    17585    17582    17577    17578    17585    17589    17597 
   17613    17636    17666    17701    17733    17756    17779    17803 
   17825    17840    17848    17852    17860    17868    17876    17888 
   17899    17911    17933    17959    17979    17994    18010    18030 
   18044    18054    18080    18108    18125    18135    18146    18153 
   18152    18137    18117    18096    18069    18041    18021    18006 
   17986    17965    17948    17936    17928    17919    17906    17887 
   17865    17847    17836    17830    17832    17837    17837    17837 
   17848    17857    17861    17868    17882    17898    17919    17940 
   17948    17953    17961    17968    17973    17977    17976    17965 
   17957    17952    17949    17948    17946    17941    17937    17940 
   17945    17948    17945    17946    17952    17960    17973    17983 
   17984    17992    18013    18031    18049    18071    18081    18081 
   18081    18079    18079    18080    18071    18057    18046    18038 
   18030    18022    18007    17992    17976    17956    17932    17910 
   17888    17867    17847    17829    17825    17832    17837    17837 
   17836    17837    17842    17855    17865    17863    17855    17851 
   17851    17853    17852    17859    17886    17915    17938    17968 
   17996    18009    18007    18000    17998    18009    18026    18041 
   18049    18054    18065    18080    18092    18092    18081    18065 
