Origin Time       2025/01/13 21:19:00
Lat.              31.8
Long.             131.6
Depth. (km)       30
Mag.              6.9
Station Code      HYG016
Station Lat.      34.7553
Station Long.     134.3900
Station Height(m) 2
Record Time       2025/01/13 21:21:36
Sampling Freq(Hz) 100Hz
Duration Time(s)  89
Dir.              N-S
Scale Factor      7845(gal)/8223790
Max. Acc. (gal)   3.303
Last Correction   2025/01/13 21:21:37
Memo.             
[...]
  -10895   -10978   -11044   -11082   -11117   -11215   -11341   -11373 
  -11399   -11523   -11596   -11542   -11483   -11446   -11418   -11431 
  -11441   -11446   -11492   -11530   -11568   -11645   -11680   -11646 
  -11646   -11689   -11686   -11634   -11585   -11556   -11561   -11595 
  -11614   -11616   -11600   -11583   -11611   -11607   -11508   -11437 
  -11449   -11423   -11330   -11246   -11213   -11205   -11163   -11084 
  -11009   -10951   -10909   -10871   -10820   -10756   -10694   -10682 
  -10709   -10673   -10586   -10575   -10639   -10706   -10733   -10702 
  -10678   -10721   -10793   -10836   -10875   -10947   -11020   -11072 
  -11138   -11188   -11190   -11211   -11302   -11400   -11449   -11458 
  -11479   -11534   -11564   -11543   -11546   -11578   -11573   -11560 
  -11610   -11684   -11715   -11728   -11724   -11696   -11693   -11693 
  -11649   -11611   -11601   -11569   -11514   -11470   -11454   -11454 
  -11449   -11433   -11407   -11372   -11311   -11221   -11160   -11152 
  -11119   -11049   -11006   -10983   -10928   -10867   -10844   -10844 
  -10806   -10674   -10566   -10584   -10573   -10498   -10500   -10552 
  -10569   -10540   -10508   -10525   -10569   -10593   -10612   -10633 
  -10633   -10636   -10673   -10731   -10790   -10849   -10917   -10975 
  -11002   -11040   -11101   -11146   -11194   -11256   -11341   -11460 
  -11562   -11615   -11647   -11674   -11712   -11769   -11832   -11888 
  -11905   -11911   -11946   -11966   -11985   -12039   -12005   -11871 
  -11813   -11800   -11711   -11638   -11616   -11568   -11506   -11443 
  -11364   -11294   -11241   -11186   -11134   -11088   -11011   -10920 
  -10858   -10820   -10822   -10868   -10872   -10814   -10789   -10805 
  -10793   -10759   -10733   -10700   -10689   -10704   -10679   -10655 
  -10679   -10694   -10710   -10767   -10812   -10856   -10941   -11021 
  -11087   -11164   -11221   -11276   -11367   -11452   -11508   -11550 
  -11578   -11628   -11697   -11739   -11776   -11811   -11811   -11828 
  -11866   -11870   -11892   -11959   -12000   -12002   -12013   -12023 
  -12019   -12009   -11969   -11907   -11863   -11823   -11782   -11750 
  -11692   -11623   -11588   -11574   -11546   -11500   -11446   -11389 
  -11329   -11275   -11227   -11178   -11121   -11060   -10994   -10906 
  -10812   -10758   -10724   -10677   -10620   -10569   -10534   -10512 
  -10471   -10411   -10363   -10349   -10351   -10357   -10353   -10334 
  -10332   -10350   -10373   -10416   -10470   -10517   -10562   -10596 
  -10623   -10660   -10700   -10755   -10839   -10901   -10920   -10930 
  -10953   -10979   -11006   -11059   -11128   -11169   -11207   -11253 
  -11279   -11318   -11398   -11454   -11489   -11570   -11646   -11661 
  -11684   -11719   -11720   -11723   -11743   -11750   -11743   -11734 
  -11713   -11665   -11622   -11587   -11527   -11491   -11458   -11387 
  -11331   -11290   -11219   -11159   -11118   -11071   -11017   -10971 
  -10914   -10825   -10735   -10678   -10633   -10586   -10551   -10528 
  -10519   -10524   -10542   -10577   -10624   -10679   -10747   -10825 
  -10882   -10905   -10940   -10999   -11055   -11124   -11223   -11318 
  -11389   -11464   -11523   -11549   -11597   -11691   -11776   -11826 
  -11885   -11959   -12023   -12071   -12108   -12155   -12218   -12248 
  -12236   -12239   -12253   -12243   -12222   -12222   -12229   -12221 
  -12218   -12222   -12193   -12133   -12098   -12066   -11993   -11900 
  -11805   -11707   -11614   -11512   -11411   -11331   -11244   -11121 
  -10990   -10874   -10773   -10678   -10594   -10525   -10458   -10390 
  -10338   -10292   -10245   -10211   -10196   -10196   -10206   -10223 
  -10239   -10261   -10287   -10292   -10288   -10315   -10361   -10396 
  -10434   -10496   -10573   -10647   -10720   -10789   -10840   -10879 
  -10920   -10953   -10998   -11068   -11146   -11218   -11284   -11341 
  -11387   -11419   -11445   -11466   -11477   -11485   -11499   -11520 
  -11556   -11580   -11587   -11608   -11639   -11674   -11724   -11757 
  -11754   -11738   -11720   -11703   -11686   -11654   -11612   -11574 
  -11541   -11515   -11491   -11460   -11423   -11367   -11280   -11184 
  -11088   -10993   -10902   -10818   -10740   -10677   -10613   -10534 
  -10450   -10376   -10326   -10297   -10273   -10262   -10278   -10305 
  -10331   -10355   -10393   -10453   -10527   -10598   -10665   -10739 
  -10813   -10876   -10941   -11017   -11110   -11202   -11264   -11314 
  -11365   -11410   -11461   -11520   -11574   -11616   -11638   -11632 
  -11619   -11605   -11596   -11595   -11577   -11533   -11483   -11441 
  -11406   -11375   -11341   -11304   -11279   -11267   -11245   -11203 
  -11167   -11141   -11114   -11094   -11092   -11101   -11098   -11078 
  -11036   -10986   -10939   -10913   -10908   -10895   -10870   -10859 
  -10867   -10872   -10874   -10893   -10921   -10953   -11001   -11056 
  -11121   -11194   -11249   -11287   -11325   -11381   -11452   -11504 
  -11519   -11526   -11554   -11581   -11580   -11576   -11597   -11632 
  -11666   -11685   -11680   -11686   -11709   -11718   -11726   -11746 
  -11766   -11796   -11844   -11904   -11961   -12005   -12051   -12100 
  -12133   -12150   -12156   -12166   -12186   -12198   -12190   -12163 
  -12127   -12093   -12050   -11993   -11942   -11896   -11848   -11811 
  -11766   -11703   -11650   -11615   -11572   -11507   -11443   -11381 
  -11313   -11254   -11200   -11153   -11124   -11102   -11087   -11075 
  -11055   -11028   -11001   -10970   -10943   -10913   -10874   -10843 
  -10818   -10795   -10775   -10758   -10735   -10692   -10639   -10594 
  -10559   -10534   -10508   -10476   -10438   -10389   -10343   -10315 
  -10289   -10273   -10270   -10258   -10247   -10258   -10281   -10311 
  -10358   -10420   -10490   -10557   -10616   -10681   -10739   -10779 
  -10833   -10912   -10991   -11070   -11148   -11218   -11287   -11358 
  -11433   -11497   -11541   -11581   -11627   -11668   -11693   -11711 
  -11726   -11735   -11750   -11780   -11801   -11819   -11836   -11842 
  -11836   -11838   -11836   -11830   -11824   -11811   -11784   -11745 
  -11707   -11681   -11659   -11632   -11607   -11580   -11550   -11523 
  -11493   -11458   -11423   -11392   -11358   -11318   -11271   -11218 
  -11164   -11101   -11013   -10928   -10863   -10800   -10735   -10683 
  -10648   -10640   -10655   -10671   -10689   -10708   -10716   -10724 
  -10736   -10740   -10747   -10770   -10816   -10878   -10936   -10979 
  -11010   -11036   -11065   -11107   -11163   -11229   -11300   -11387 
  -11487   -11581   -11657   -11719   -11782   -11850   -11898   -11905 
  -11901   -11915   -11917   -11885   -11843   -11800   -11749   -11689 
  -11630   -11580   -11524   -11448   -11379   -11356   -11349   -11310 
  -11240   -11165   -11078   -10994   -10940   -10827   -10656   -10569 
  -10532   -10428   -10299   -10208   -10141   -10089   -10042    -9994 
   -9973    -9972    -9952    -9941    -9979   -10035   -10100   -10160 
  -10139   -10107   -10179   -10268   -10284   -10293   -10339   -10423 
  -10550   -10662   -10729   -10785   -10848   -10916   -10986   -11047 
  -11094   -11140   -11190   -11237   -11295   -11367   -11431   -11448 
  -11443   -11493   -11589   -11665   -11695   -11696   -11696   -11708 
  -11726   -11742   -11750   -11743   -11736   -11750   -11770   -11776 
  -11772   -11773   -11766   -11746   -11740   -11745   -11716   -11672 
  -11643   -11615   -11580   -11543   -11484   -11410   -11344   -11281 
  -11236   -11200   -11145   -11080   -11033   -10995   -10970   -10959 
  -10951   -10949   -10956   -10962   -10984   -11028   -11068   -11097 
  -11111   -11145   -11187   -11171   -11165   -11215   -11205   -11156 
  -11161   -11125   -11064   -11119   -11175   -11124   -11103   -11156 
  -11196   -11230   -11250   -11240   -11260   -11295   -11296   -11326 
  -11368   -11375   -11396   -11406   -11344   -11325   -11388   -11384 
  -11298   -11241   -11221   -11196   -11176   -11117   -10962   -10817 
  -10812   -10833   -10719   -10547   -10444   -10412   -10403   -10346 
  -10243   -10179   -10146   -10114   -10092   -10085   -10102   -10123 
  -10088   -10008   -10017   -10130   -10204   -10188   -10181   -10281 
  -10488   -10675   -10773   -10845   -10929   -11032   -11172   -11313 
  -11421   -11519   -11616   -11708   -11813   -11923   -12008   -12087 
  -12174   -12233   -12278   -12328   -12367   -12401   -12420   -12428 
  -12472   -12542   -12583   -12613   -12637   -12631   -12614   -12586 
  -12546   -12509   -12465   -12388   -12290   -12189   -12089   -11974 
  -11828   -11657   -11480   -11311   -11141   -10970   -10809   -10663 
  -10520   -10388   -10266   -10153   -10052    -9954    -9864    -9801 
   -9755    -9720    -9713    -9733    -9771    -9842    -9938   -10049 
  -10184   -10341   -10505   -10682   -10864   -11047   -11248   -11456 
  -11642   -11809   -11962   -12090   -12194   -12289   -12378   -12453 
  -12506   -12545   -12583   -12607   -12606   -12592   -12569   -12538 
  -12511   -12479   -12432   -12376   -12309   -12235   -12170   -12108 
  -12040   -11961   -11855   -11736   -11616   -11465   -11292   -11132 
  -10974   -10816   -10669   -10523   -10366   -10201   -10025    -9863 
   -9718    -9568    -9405    -9227    -9043    -8887    -8776    -8700 
   -8653    -8645    -8661    -8683    -8708    -8760    -8872    -9018 
   -9151    -9312    -9528    -9741    -9921   -10116   -10355   -10585 
  -10777   -10953   -11153   -11379   -11593   -11789   -11963   -12102 
  -12229   -12359   -12475   -12576   -12661   -12733   -12806   -12865 
  -12910   -12965   -13011   -13038   -13077   -13104   -13100   -13101 
  -13117   -13124   -13130   -13139   -13149   -13147   -13108   -13036 
  -12981   -12941   -12856   -12710   -12555   -12445   -12320   -12117 
  -11932   -11807   -11650   -11476   -11352   -11238   -11117   -11006 
  -10894   -10797   -10704   -10611   -10573   -10559   -10503   -10449 
  -10439   -10434   -10424   -10416   -10415   -10427   -10431   -10427 
  -10455   -10478   -10465   -10477   -10520   -10548   -10597   -10654 
  -10679   -10743   -10856   -10943   -10994   -11048   -11119   -11195 
  -11267   -11346   -11426   -11488   -11562   -11665   -11759   -11831 
  -11904   -11974   -12027   -12074   -12121   -12156   -12178   -12178 
  -12166   -12159   -12118   -12031   -11944   -11854   -11722   -11568 
  -11410   -11240   -11064   -10887   -10709   -10542   -10373   -10196 
  -10031    -9876    -9729    -9612    -9504    -9378    -9294    -9262 
   -9240    -9240    -9258    -9267    -9302    -9374    -9432    -9490 
   -9593    -9702    -9791    -9898   -10011   -10114   -10239   -10382 
  -10513   -10631   -10763   -10894   -10995   -11122   -11277   -11394 
  -11500   -11639   -11794   -11946   -12071   -12195   -12334   -12438 
  -12528   -12658   -12785   -12861   -12919   -12989   -13043   -13049 
  -13020   -12977   -12918   -12850   -12776   -12681   -12584   -12502 
  -12405   -12267   -12114   -11963   -11765   -11534   -11335   -11148 
  -10936   -10743   -10577   -10415   -10274   -10168   -10050    -9907 
   -9787    -9701    -9618    -9539    -9467    -9394    -9342    -9329 
   -9327    -9301    -9278    -9304    -9363    -9404    -9435    -9505 
   -9618    -9755    -9896   -10045   -10226   -10436   -10642   -10847 
  -11056   -11234   -11427   -11696   -11983   -12222   -12436   -12664 
  -12901   -13134   -13367   -13599   -13787   -13905   -14003   -14138 
  -14278   -14351   -14365   -14382   -14409   -14381   -14292   -14180 
  -14048   -13878   -13690   -13493   -13281   -13070   -12861   -12637 
  -12399   -12164   -11932   -11685   -11425   -11163   -10908   -10675 
  -10462   -10268   -10088    -9909    -9751    -9625    -9499    -9385 
   -9294    -9188    -9054    -8927    -8827    -8745    -8681    -8652 
   -8675    -8729    -8795    -8884    -9012    -9165    -9319    -9478 
   -9659    -9869   -10099   -10323   -10524   -10733   -10972   -11227 
  -11468   -11678   -11878   -12087   -12283   -12455   -12611   -12738 
  -12839   -12949   -13043   -13086   -13095   -13080   -13057   -13028 
  -12955   -12843   -12710   -12545   -12371   -12197   -11996   -11782 
  -11569   -11337   -11086   -10839   -10620   -10423   -10210    -9981 
   -9772    -9613    -9497    -9383    -9266    -9162    -9077    -9038 
   -9054    -9065    -9058    -9073    -9119    -9207    -9323    -9428 
   -9536    -9675    -9832    -9988   -10152   -10316   -10484   -10667 
  -10868   -11086   -11313   -11523   -11722   -11919   -12116   -12313 
  -12503   -12687   -12856   -12997   -13136   -13270   -13356   -13404 
  -13436   -13450   -13429   -13366   -13275   -13173   -13047   -12899 
  -12729   -12528   -12306   -12066   -11803   -11535   -11265   -10968 
  -10654   -10357   -10085    -9833    -9603    -9417    -9271    -9121 
   -8984    -8904    -8866    -8837    -8818    -8823    -8870    -8968 
   -9081    -9200    -9336    -9497    -9702    -9946   -10187   -10430 
  -10692   -10945   -11173   -11422   -11695   -11961   -12225   -12494 
  -12741   -12964   -13170   -13351   -13500   -13622   -13745   -13856 
  -13915   -13960   -14003   -14000   -13956   -13900   -13837   -13767 
  -13691   -13601   -13497   -13370   -13217   -13050   -12847   -12611 
  -12363   -12086   -11792   -11497   -11182   -10845   -10531   -10224 
   -9892    -9578    -9300    -9024    -8754    -8529    -8348    -8186 
   -8024    -7889    -7811    -7765    -7743    -7744    -7774    -7848 
   -7958    -8087    -8255    -8455    -8679    -8928    -9178    -9428 
   -9707   -10008   -10301   -10579   -10839   -11084   -11357   -11643 
  -11890   -12113   -12352   -12573   -12764   -12970   -13189   -13382 
  -13529   -13644   -13772   -13913   -14030   -14111   -14169   -14222 
  -14260   -14273   -14287   -14293   -14269   -14227   -14165   -14081 
  -14003   -13927   -13810   -13652   -13489   -13317   -13128   -12919 
  -12688   -12451   -12217   -11966   -11688   -11422   -11187   -10951 
  -10700   -10450   -10224   -10018    -9815    -9625    -9455    -9308 
   -9173    -9043    -8915    -8788    -8669    -8552    -8448    -8384 
   -8338    -8280    -8235    -8216    -8235    -8303    -8407    -8541 
   -8712    -8905    -9094    -9265    -9436    -9630    -9838   -10048 
  -10270   -10504   -10724   -10959   -11211   -11441   -11654   -11874 
  -12081   -12271   -12475   -12685   -12883   -13061   -13224   -13389 
  -13556   -13703   -13826   -13933   -14015   -14058   -14061   -14037 
  -14003   -13950   -13864   -13760   -13636   -13485   -13329   -13181 
  -13016   -12833   -12650   -12475   -12295   -12100   -11886   -11668 
  -11450   -11244   -11061   -10898   -10731   -10565   -10426   -10314 
  -10218   -10118   -10002    -9892    -9791    -9683    -9583    -9487 
   -9366    -9239    -9148    -9088    -9038    -8999    -8982    -8991 
   -9016    -9051    -9107    -9198    -9315    -9428    -9543    -9672 
   -9814    -9960   -10114   -10272   -10416   -10551   -10717   -10932 
  -11149   -11325   -11472   -11631   -11803   -11956   -12081   -12182 
  -12272   -12344   -12375   -12370   -12355   -12340   -12317   -12267 
  -12183   -12086   -12002   -11917   -11817   -11708   -11589   -11473 
  -11376   -11276   -11161   -11056   -10953   -10843   -10744   -10659 
  -10585   -10519   -10462   -10411   -10358   -10307   -10269   -10241 
  -10219   -10206   -10195   -10187   -10203   -10246   -10312   -10417 
  -10546   -10658   -10771   -10918   -11087   -11253   -11398   -11531 
  -11682   -11848   -12009   -12163   -12309   -12451   -12576   -12684 
  -12780   -12852   -12896   -12930   -12939   -12915   -12872   -12823 
  -12764   -12691   -12586   -12440   -12262   -12063   -11858   -11650 
  -11421   -11165   -10930   -10727   -10528   -10332   -10139    -9945 
   -9775    -9636    -9498    -9354    -9231    -9136    -9047    -8962 
   -8907    -8876    -8862    -8877    -8905    -8943    -8993    -9053 
   -9131    -9234    -9348    -9474    -9613    -9768    -9942   -10133 
  -10342   -10559   -10770   -10984   -11225   -11485   -11743   -11989 
  -12229   -12468   -12688   -12896   -13112   -13321   -13505   -13679 
  -13845   -13990   -14115   -14216   -14305   -14370   -14380   -14350 
  -14311   -14251   -14150   -14008   -13846   -13679   -13501   -13300 
  -13065   -12807   -12552   -12291   -12010   -11722   -11433   -11141 
  -10856   -10585   -10319   -10044    -9782    -9545    -9321    -9109 
   -8927    -8785    -8672    -8580    -8522    -8500    -8514    -8556 
   -8617    -8696    -8803    -8932    -9081    -9247    -9418    -9589 
   -9757    -9931   -10112   -10300   -10482   -10655   -10818   -10979 
  -11136   -11291   -11454   -11616   -11770   -11925   -12074   -12214 
  -12353   -12495   -12650   -12822   -12972   -13078   -13162   -13251 
  -13358   -13446   -13502   -13548   -13548   -13501   -13470   -13451 
  -13378   -13247   -13101   -12951   -12804   -12667   -12515   -12330 
  -12150   -11993   -11830   -11650   -11483   -11329   -11182   -11043 
  -10912   -10787   -10673   -10565   -10476   -10412   -10350   -10278 
  -10207   -10153   -10125   -10093   -10054   -10019    -9976    -9923 
   -9900    -9917    -9926    -9926    -9931    -9926    -9919    -9938 
   -9960    -9971    -9992   -10026   -10058   -10106   -10168   -10227 
  -10299   -10393   -10492   -10589   -10686   -10774   -10866   -10967 
  -11067   -11160   -11263   -11369   -11468   -11562   -11647   -11711 
  -11767   -11816   -11839   -11854   -11874   -11870   -11846   -11836 
  -11823   -11788   -11736   -11681   -11635   -11593   -11538   -11473 
  -11407   -11331   -11248   -11179   -11142   -11113   -11097   -11106 
  -11115   -11119   -11141   -11161   -11178   -11214   -11257   -11287 
  -11298   -11308   -11330   -11334   -11313   -11290   -11253   -11196 
  -11119   -11028   -10933   -10840   -10744   -10650   -10563   -10508 
  -10481   -10449   -10408   -10388   -10395   -10408   -10428   -10467 
  -10517   -10575   -10646   -10713   -10778   -10851   -10920   -10978 
  -11025   -11051   -11068   -11103   -11141   -11169   -11209   -11261 
  -11311   -11356   -11404   -11452   -11496   -11547   -11604   -11657 
  -11705   -11754   -11799   -11839   -11878   -11921   -11974   -12037 
  -12097   -12140   -12178   -12218   -12253   -12268   -12264   -12260 
  -12256   -12236   -12199   -12147   -12082   -12028   -11974   -11909 
  -11846   -11784   -11711   -11635   -11569   -11495   -11423   -11383 
  -11357   -11335   -11329   -11340   -11362   -11380   -11392   -11412 
  -11435   -11453   -11466   -11466   -11450   -11430   -11418   -11404 
  -11383   -11354   -11325   -11294   -11256   -11214   -11165   -11105 
  -11043   -10990   -10935   -10881   -10840   -10816   -10794   -10771 
  -10752   -10759   -10791   -10825   -10854   -10886   -10918   -10947 
  -10980   -11020   -11061   -11102   -11130   -11146   -11157   -11155 
  -11137   -11107   -11065   -11022   -10978   -10926   -10883   -10851 
  -10816   -10786   -10763   -10746   -10748   -10768   -10801   -10847 
  -10901   -10953   -11007   -11065   -11130   -11203   -11276   -11346 
  -11416   -11487   -11549   -11599   -11631   -11647   -11649   -11628 
  -11593   -11551   -11493   -11426   -11353   -11265   -11172   -11086 
