Origin Time       2025/01/13 21:19:00
Lat.              31.8
Long.             131.6
Depth. (km)       30
Mag.              6.9
Station Code      KGS003
Station Lat.      32.0559
Station Long.     130.5874
Station Height(m) 176
Record Time       2025/01/13 21:19:52
Sampling Freq(Hz) 100Hz
Duration Time(s)  137
Dir.              U-D
Scale Factor      3920(gal)/6182761
Max. Acc. (gal)   5.009
Last Correction   2025/01/13 21:19:52
Memo.             
[...]
   24815    24815    24920    24856    24749    24842    24936    24854 
   24773    24831    24879    24831    24849    24901    24811    24752 
   24890    24962    24823    24753    24851    24880    24817    24855 
   24921    24813    24714    24867    24984    24838    24767    24887 
   24848    24731    24864    24953    24794    24783    24934    24883 
   24726    24795    24933    24818    24755    24944    24934    24720 
   24765    24927    24868    24786    24878    24904    24754    24753 
   24921    24896    24778    24823    24871    24818    24793    24861 
   24886    24775    24779    24934    24897    24762    24815    24893 
   24828    24795    24903    24898    24758    24796    24907    24850 
   24784    24868    24936    24822    24782    24941    24901    24719 
   24824    24940    24791    24744    24890    24886    24735    24762 
   24899    24829    24733    24850    24889    24738    24740    24881 
   24803    24653    24753    24843    24698    24655    24800    24769 
   24642    24723    24809    24714    24680    24795    24811    24714 
   24761    24859    24766    24672    24761    24805    24685    24602 
   24652    24643    24532    24568    24701    24682    24614    24674 
   24718    24641    24652    24822    24876    24780    24821    24950 
   24879    24777    24862    24835    24635    24644    24773    24700 
   24610    24723    24817    24738    24724    24846    24798    24653 
   24787    24989    24924    24873    25016    25014    24840    24851 
   24929    24774    24646    24757    24819    24731    24767    24895 
   24863    24783    24828    24871    24814    24800    24937    25039 
   24984    25001    25119    25035    24881    24939    24926    24727 
   24689    24797    24823    24776    24749    24790    24779    24760 
   24953    25106    24990    24960    25122    25136    25018    25041 
   25058    24828    24641    24686    24661    24504    24483    24538 
   24448    24431    24626    24726    24696    24843    25154    25267 
   25193    25317    25469    25302    25138    25155    25046    24892 
   24945    24959    24743    24656    24886    25005    24804    24646 
   24655    24677    24781    24976    25043    24903    24830    24992 
   25127    25084    25045    25107    25147    25132    25254    25364 
   25161    25000    25054    24940    24736    24668    24578    24378 
   24289    24498    24718    24719    24781    24902    24755    24635 
   25003    25401    25303    25151    25275    25434    25585    25608 
   25247    24770    24643    24927    25175    25041    24928    25102 
   25256    25394    25466    25107    24543    24326    24462    24604 
   24666    24723    24658    24546    24774    25238    25455    25417 
   25425    25502    25497    25410    25186    24629    23901    23516 
   23682    24022    24175    24298    24456    24353    24199    24375 
   24533    24493    24612    24860    25006    25078    25150    25138 
   24924    24747    24877    25045    24994    24941    24921    24714 
   24558    24707    24791    24633    24647    24947    25107    25017 
   24852    24481    24017    24003    24457    24868    25140    25460 
   25619    25471    25212    24909    24568    24331    24344    24552 
   24689    24704    24750    24622    24183    23920    24214    24794 
   25270    25558    25627    25498    25403    25395    25110    24330 
   23672    23818    24308    24547    24658    24626    24407    24366 
   24662    24913    24760    24370    24096    23944    23965    24340 
   24624    24488    24524    24998    25454    25739    25981    26058 
   25927    25824    25659    25018    24146    23778    23884    23970 
   24047    24159    24043    23709    23587    23890    24294    24566 
   24834    25090    25275    25695    26405    26804    26738    26699 
   26758    26763    26840    26990    27030    26907    26710    26533 
   26373    26205    26057    25756    25160    24674    24624    24625 
   24275    23879    23875    24055    24099    24119    24108    24060 
   24326    24860    25184    25241    25383    25672    25633    25162 
   24790    24464    23934    23576    23394    23186    23367    23962 
   24251    24050    23907    24062    24270    24397    24466    24334 
   23935    23604    23623    23781    23838    23956    24175    24277 
   24440    24870    25177    25121    25076    25326    25605    25533 
   25159    24604    23815    23162    23086    23305    23468    23771 
   24395    25099    25706    26283    26560    26264    25965    26285 
   26821    26957    26769    26428    25906    25455    25205    24857 
   24537    24815    25639    26315    26517    26542    26553    26391 
   26172    25967    25367    24463    23909    23700    23498    23464 
   23709    23921    23986    24171    24400    24365    24303    24519 
   24686    24449    24091    24034    24313    24789    25156    25084 
   24798    24853    25372    25862    25830    25583    25701    26094 
   26490    26721    26545    26163    26023    26074    25847    25095 
   24332    24223    24585    24954    25254    25381    25341    25584 
   26191    26431    25944    25265    24710    24166    23836    23795 
   23623    23307    23282    23483    23509    23461    23672    23935 
   23996    24149    24439    24463    24253    24097    23899    23576 
   23564    24199    25077    25785    26409    26949    27197    27124 
   26786    26060    25065    24383    24232    24217    24067    23893 
   23784    23671    23640    23762    23807    23830    24166    24683 
   25028    25162    25200    25156    25033    25056    25311    25334 
   24835    24306    24183    24202    24230    24509    24729    24551 
   24463    24559    24213    23528    23167    23112    23038    23110 
   23490    23914    24279    24845    25498    25780    25798    25867 
   25703    25148    24674    24476    24309    24227    24358    24492 
   24562    24711    24864    24796    24553    24471    24704    25076 
   25516    26160    26837    27165    27224    27132    26614    25880 
   25611    25839    26130    26442    26789    26704    25873    24790 
   24028    23494    23061    22912    22945    22920    23025    23304 
   23215    22709    22477    22666    22854    22975    23173    23350 
   23504    23851    24238    24285    24122    24202    24533    24752 
   24808    24809    24661    24514    24742    25248    25612    25820 
   26083    26400    26837    27431    27775    27452    26640    25916 
   25458    24946    24564    24655    24843    24974    25273    25624 
   25923    26267    26685    26929    26844    26829    27018    26828 
   26078    25377    25043    24744    24220    23532    22799    22269 
   22288    22668    22798    22640    22603    22633    22409    22204 
   22290    22278    22239    22579    23010    23234    23443    23746 
   23945    24125    24725    25523    25910    25937    25828    25473 
   24896    24399    24136    23958    23996    24540    25226    25570 
   25673    25643    25494    25587    26188    26888    27157    27104 
   27191    27547    27877    27935    27613    26824    25995    25845 
   26268    26354    25661    24645    23789    23367    23528    23892 
   23915    23754    24079    24883    25501    25817    26060    26143 
   26089    26097    25955    25383    24833    24788    24916    24932 
   25109    25519    25939    26316    26628    26650    26293    26002 
   26092    26134    25874    25665    25650    25637    25580    25430 
   24967    24388    24243    24541    24772    24737    24670    24622 
   24545    24637    24869    24952    24991    25326    25891    26337 
   26425    26087    25484    24898    24586    24616    24688    24629 
   24717    24942    24856    24496    24284    24209    24173    24410 
   24852    24992    24775    24561    24219    23564    23075    23080 
   23231    23384    23880    24639    25166    25423    25530    25227 
   24581    24208    24234    24348    24635    25195    25693    25914 
   26114    26470    26783    26953    26980    26589    25705    24939 
   24676    24355    23573    22734    22248    22066    21989    22100 
   22500    22989    23633    24620    25529    26008    26311    26485 
   26396    26381    26660    26841    26624    26249    25989    25760 
   25453    25175    24914    24561    24394    24542    24438    23849 
   23307    23075    22900    22820    23198    23866    24291    24514 
   24730    24618    24122    23653    23175    22485    21924    21705 
   21527    21460    21918    22659    23145    23385    23594    23766 
   24058    24775    25672    26259    26650    27041    27163    26775 
   26038    25359    24950    24729    24662    24658    24509    24334 
   24437    24640    24625    24659    25031    25504    25904    26211 
   26164    25637    24936    24342    23746    23089    22799    23014 
   23280    23552    23991    24230    24100    23957    23973    23951 
   23788    23698    23666    23509    23617    24178    24558    24536 
   24557    24714    24786    24792    24790    24647    24410    24428 
   24767    25107    25325    25599    25897    25935    25870    26017 
   26038    25759    25556    25483    25435    25472    25508    25427 
   25275    25266    25521    25700    25483    25087    24741    24376 
   24011    23823    23746    23620    23718    24175    24506    24621 
   25038    25687    26076    26302    26431    26066    25357    24922 
   24660    24085    23449    23242    23358    23561    23912    24262 
   24281    24256    24625    25079    25306    25536    25918    26189 
   26155    26071    26024    25821    25690    25739    25539    25070 
   24841    25027    25279    25420    25722    26212    26630    27064 
   27610    27921    27798    27517    27198    26708    26222    25995 
   25850    25587    25522    25827    26025    25907    25682    25248 
   24634    24231    24113    23973    23650    23475    23758    24180 
   24431    24667    24868    24788    24602    24497    24046    23198 
   22593    22262    21904    21839    22268    22773    23016    23168 
   23392    23485    23469    23480    23245    22834    22769    22909 
   22725    22316    22193    22504    23078    23859    24661    25074 
   25116    25227    25525    25757    25978    26458    26985    27218 
   27225    27061    26534    25694    24980    24581    24272    24036 
   24009    23986    23906    24219    24979    25681    26278    27070 
   27871    28324    28569    28766    28584    27964    27409    27142 
   27075    27343    27918    28307    28206    27874    27619    27403 
   27216    27145    26989    26614    26313    26250    26110    25654 
   25081    24525    23995    23814    24059    24231    24247    24525 
   24994    25203    25016    24640    24302    24098    24142    24370 
   24313    23809    23287    22985    22691    22331    22165    22229 
   22379    22911    23904    24722    25104    25348    25452    25347 
   25321    25534    25741    25873    26180    26483    26195    25327 
   24469    23747    23054    22722    22761    22711    22639    22850 
   23124    23165    23206    23536    23816    23663    23332    23032 
   22592    22160    22071    22234    22571    23391    24597    25486 
   25757    25676    25318    24675    24084    23807    23792    23988 
   24433    25006    25404    25682    26113    26505    26613    26639 
   26759    26895    26946    26926    26762    26270    25679    25337 
   24988    24431    24057    24062    24066    23794    23403    22985 
   22505    22254    22389    22466    22395    22804    23718    24468 
   24990    25472    25589    25350    25127    24924    24749    24827 
   25246    25762    26038    26237    26497    26339    25647    24952 
   24440    23923    23547    23533    23705    23981    24519    25212 
   25795    26245    26663    26913    26765    26466    26479    26716 
   26796    26658    26445    26110    25562    25028    24530    23857 
   23363    23267    23141    23013    23251    23676    23977    24275 
   24809    25421    25828    26153    26439    26389    26102    25871 
   25564    25144    24917    24969    25060    25222    25803    26560 
   26837    26665    26368    25896    25321    24926    24763    24700 
   24776    25129    25503    25628    25769    25951    25727    25150 
   24757    24670    24630    24617    24732    24916    25157    25458 
   25660    25589    25337    25204    25109    24680    24174    24059 
   24111    24111    24319    24767    25195    25544    25916    26182 
   26140    26036    26097    25996    25644    25437    25412    25372 
   25512    25986    26446    26690    26950    27179    27065    26728 
   26396    25817    24856    23948    23352    22828    22290    21862 
   21413    20978    21010    21425    21552    21285    21059    20963 
   20790    20572    20383    20081    19764    19844    20391    21115 
   22009    23232    24557    25581    26269    26760    26938    26746 
   26364    25795    24938    24043    23515    23260    22966    22845 
   23159    23844    24907    26278    27538    28373    28959    29426 
   29266    28239    27017    26017    25052    24171    23477    22813 
   22437    23033    24445    25605    26152    26667    27255    27568 
   27781    28050    28053    27858    27891    28013    27726    27206 
   26918    26537    25802    25233    24961    24558    23954    23366 
   22700    21820    20979    20174    19071    17884    17126    16942 
   17257    18032    19200    20462    21545    22567    23561    24180 
   24311    24317    24484    24565    24122    23087    21726    20540 
   20113    20331    20416    20262    20666    21971    23640    25242 
   26651    27649    28369    29218    29970    30025    29463    28861 
   28275    27495    26917    26708    26367    25968    25896    25812 
   25292    24494    23767    23189    22808    22908    23425    23998 
   24720    25556    25875    25393    24633    24226    24300    24826 
   25799    26816    27599    28436    29312    29746    29583    29104 
   28508    27837    27288    27050    26982    26849    26795    27275 
   28228    29162    30084    30888    30997    30555    29937    28842 
   27326    25993    24955    23829    22498    21394    20804    20561 
   20569    20482    19727    18831    18943    19902    20711    21104 
   21386    21695    22066    22626    23312    23878    24484    25370 
   26189    26714    27375    28229    28497    27875    27128    26780 
   26588    26314    25714    24618    23536    23020    22702    22060 
   21484    21637    22412    23404    24637    26169    27692    28758 
   29340    29727    29782    29451    29064    28408    27353    26615 
   26397    26022    25349    24846    24482    23814    22836    21933 
   21371    21094    20944    20896    20919    21245    22290    23707 
   24918    26052    27034    27373    27152    26730    25982    24695 
   23245    22120    21127    20029    19168    18630    18213    18314 
   19230    20434    21429    22296    23302    24431    25475    26356 
   26925    27000    26806    26732    26838    27105    27661    28388 
   28967    29294    29378    29177    28725    28289    28106    27913 
   27504    27203    27064    26863    26745    26872    27013    27018 
   27186    27568    27614    27203    26944    26951    26693    26079 
   25314    24285    23126    22318    21771    21010    20334    20396 
   20955    21478    21995    22600    23154    23593    24003    24308 
   24379    24442    24618    24569    24314    24328    24613    24821 
   24862    24743    24502    24274    24148    24009    23738    23586 
   23882    24455    24780    24706    24634    24724    24710    24490 
   23946    22994    22199    22221    23009    24211    25661    27101 
   27955    27982    27581    26932    25871    24568    23385    22396 
   21551    21083    21021    20896    20849    21521    22770    24050 
   25286    26497    27411    27889    27959    27417    26241    25095 
   24578    24597    24913    25374    25608    25366    24900    24407 
   23561    22223    21041    20723    21153    21771    22382    22981 
   23501    24129    24918    25444    25612    25840    26197    26228 
   25597    24487    23300    22228    21436    21039    20873    21027 
   21789    22714    23006    22730    22608    22824    23077    23488 
   24184    24817    25370    26127    26869    27306    27661    28155 
   28586    28792    28982    29088    28659    27815    27112    26684 
   26373    26133    25801    25037    24046    23402    23093    22854 
   22817    23145    23642    24010    24305    24754    25302    25815 
   26223    26212    25635    24877    24262    23718    23231    23026 
   23161    23416    23814    24626    25534    25870    25682    25342 
   24877    24367    24023    23901    23978    24360    25162    26118 
   26862    27443    27772    27338    26207    25045    24085    23340 
   22967    22720    22289    22000    22282    22941    23432    23748 
   24303    24846    24979    24912    24582    23834    23199    23021 
   23130    23611    24691    26090    27123    27430    27214    26740 
   26181    25857    25829    25774    25800    26213    26695    26835 
   26784    26904    27300    27829    28340    28761    29090    29445 
   29954    30455    30761    31038    31264    30925    29785    28411 
   27512    27147    27002    26794    26223    25420    25006    24925 
   24320    23156    22342    22203    22458    23150    24341    25813 
   27544    29418    30622    30423    29210    27882    26658    25430 
   24553    24292    24327    24341    24357    24317    24021    23597 
   23220    22712    22242    22399    23092    23611    23699    23712 
   23968    24420    24919    25464    25954    26228    26387    26318 
   25656    24559    23412    22335    21516    21281    21603    21963 
   22102    22204    22125    21669    21297    21587    22513    23670 
   24722    25265    25054    24616    24499    24371    23959    23881 
   24672    25893    26829    27271    27217    26809    26685    27093 
   27275    26914    26599    26435    26037    25323    24319    23170 
   22370    22346    22811    22941    22419    21679    21039    20497 
   20094    19716    19195    18903    19416    20554    21460    21795 
   22006    22263    22437    22729    23069    22963    22495    22243 
   22353    22571    22839    23370    24132    24844    25660    26749 
   27640    28128    28527    28658    28239    27733    27587    27631 
   27850    28555    29532    30255    30718    31064    31178    31144 
   31179    31020    30235    29093    28179    27493    26824    26282 
   25807    25193    24715    24703    24802    24525    24110    23967 
   23932    23731    23398    22964    22455    22216    22523    23027 
   23353    23589    23724    23537    23114    22828    22910    23308 
   23879    24512    25051    25373    25524    25321    24447    23272 
   22450    22080    22041    22324    22758    22948    22778    22636 
   22721    22848    23044    23283    23242    23114    23529    24430 
   25109    25324    25325    24958    24121    23317    22788    22294 
   21928    22151    22926    23661    24081    24234    24067    23759 
