Origin Time       2025/01/13 21:19:00
Lat.              31.8
Long.             131.6
Depth. (km)       30
Mag.              6.9
Station Code      KGS016
Station Lat.      31.4162
Station Long.     130.3225
Station Height(m) 11
Record Time       2025/01/13 21:19:54
Sampling Freq(Hz) 100Hz
Duration Time(s)  109
Dir.              E-W
Scale Factor      7845(gal)/8223790
Max. Acc. (gal)   7.614
Last Correction   2025/01/13 21:19:54
Memo.             
[...]
    1912     1891     1109      180     -453     -966    -1298    -1485 
   -2056    -2879    -3042    -2311    -1328     -625     -345     -467 
    -749     -815     -670     -808    -1510    -2458    -3134    -3063 
   -2131     -986     -263      245      927     1814     2951     4202 
    4957     5013     4963     5092     5170     5179     5127     4868 
    4827     5719     7234     8402     8847     8441     7094     5481 
    4432     3784     2837     1557      576      318      788     1640 
    2076     1746     1335     1368     1587     1705     1597     1150 
     668      588      517     -133    -1019    -1701    -2299    -2713 
   -2813    -3092    -3812    -4342    -4193    -3624    -2830    -1846 
   -1209    -1286    -1563    -1514    -1108     -314      639     1024 
     708      579     1210     2432     3827     4610     4159     3026 
    2309     2332     2795     3331     3299     2334     1216      841 
    1081     1557     1983     1714      465    -1115    -2313    -2970 
   -2932    -2029     -797       55      680     1501     2546     3873 
    5444     6605     6866     6578     6052     5233     4515     4299 
    4108     3478     2803     2523     2706     3338     4012     4001 
    3265     2563     2192     1844     1568     1350      661     -560 
   -1772    -2714    -3342    -3392    -2864    -2215    -1776    -1624 
   -1838    -2330    -2764    -3049    -3302    -3356    -3130    -2902 
   -2667    -2224    -1849    -1811    -1740    -1456    -1170     -629 
     369     1264     1736     2226     2832     3060     2860     2555 
    2127     1713     1865     2570     3206     3677     4394     5370 
    6357     7233     7769     7780     7468     6871     5663     4122 
    3173     3219     4001     5088     5890     6031     5891     5902 
    5782     5208     4311     3190     1934      849       93     -368 
    -475     -348     -465     -889    -1044     -704     -261     -109 
    -544    -1742    -3294    -4490    -5250    -5803    -5859    -5201 
   -4148    -2868    -1397     -160      463      648      494     -247 
   -1347    -2286    -3067    -3678    -3624    -2774    -1637     -364 
    1223     2802     4067     5186     5857     5400     4000     2494 
    1358      665      271     -116     -251      673     2716     4955 
    6706     7777     8029     7584     6768     5557     3836     1976 
     444     -729    -1440    -1256     -255      985     2242     3365 
    4043     4523     5186     5503     4822     3406     1799      288 
    -733    -1031     -954     -803     -376      338      974     1512 
    1993     2004     1362      406     -687    -1840    -2673    -3024 
   -3267    -3424    -3067    -2235    -1174      245     1952     3372 
    4001     3649     2316      430    -1131    -1923    -2236    -2282 
   -1939    -1212     -270      762     1669     2114     2087     1853 
    1435      835      253     -318     -884    -1171    -1121     -785 
     175     1863     3678     5128     6180     6686     6462     5746 
    4734     3269     1749      996      907      880     1078     1683 
    2251     2693     3260     3643     3470     2968     2172      730 
   -1011    -2161    -2458    -2141    -1306     -191      778     1618 
    2506     3110     3109     2659     1981     1420     1418     1867 
    2382     3024     3878     4642     5161     5518     5493     4936 
    4290     3766     2986     2006     1333      918      565      723 
    1394     1611     1077      391     -438    -1664    -2891    -3912 
   -5022    -6038    -6296    -5621    -4423    -3154    -2180    -1607 
   -1070     -319      407      928     1150      865      163     -567 
   -1097    -1200     -514      805     2060     3123     4477     6050 
    7381     8449     9147     8878     7553     5846     4137     2420 
    1097      529      303      163      635     1837     3180     4411 
    5424     5744     5282     4465     3427     2191     1198      742 
     610      631      749      750      607      535      380     -199 
    -989    -1667    -2439    -3265    -3619    -3491    -3142    -2417 
   -1517    -1065     -994     -841     -808    -1201    -1611    -1742 
   -1733    -1420     -714      -63      421     1163     2118     2768 
    3133     3424     3334     2901     2778     3005     3087     2987 
    2875     2716     2793     3597     4881     5913     6490     6714 
    6525     6015     5239     3982     2400     1093      303      -72 
      28      473      764      897     1291     1759     1876     1726 
    1340      573     -144     -346     -504    -1058    -1522    -1483 
   -1159     -662      148     1152     2149     3214     4270     4953 
    5146     4851     3963     2647     1302       59    -1189    -2374 
   -3341    -4070    -4411    -4367    -4390    -4540    -4364    -3797 
   -3063    -2124    -1032     -174      510     1395     2176     2450 
    2578     2830     2903     2790     2848     2967     2859     2790 
    2988     3149     3114     2922     2247      959     -294     -919 
    -927     -419      452     1270     1935     2808     3869     4789 
    5726     6806     7504     7458     6748     5393     3739     2594 
    2115     1675     1200     1062     1115     1209     1444     1489 
     970       51    -1039    -2317    -3539    -4155    -4028    -3414 
   -2396    -1120       31      946     1730     2135     1865     1186 
     402     -610    -1683    -2297    -2232    -1480      -87     1611 
    3261     4699     5556     5470     4757     4002     3289     2565 
    2022     1559      897      417      681     1501     2362     3149 
    3744     3897     3777     3611     3241     2608     1792      737 
    -448    -1323    -1690    -1782    -1609    -1046     -495     -301 
     -70      422      793     1019     1374     1644     1640     1551 
    1236      508     -187     -452     -440     -191      392      936 
    1119     1223     1309     1100      781      700      731      630 
     530      541      449      260      170      140      280      880 
    1632     1938     1931     2018     1985     1595     1027      334 
    -414     -892    -1036    -1082     -985     -548       82      680 
    1224     1614     1849     2301     2983     3268     3010     2759 
    2697     2646     2732     2926     2812     2486     2496     2799 
    3100     3661     4530     5062     5038     4862     4565     3996 
    3566     3514     3265     2521     1723     1075      419     -221 
    -897    -1763    -2585    -3094    -3354    -3304    -2809    -2154 
   -1656    -1250     -915     -760     -527       12      525      765 
     880      761      226     -378     -693     -861     -904     -595 
     -55      537     1435     2636     3561     3956     4066     3878 
    3339     2853     2651     2425     2119     1954     1842     1854 
    2403     3307     3964     4197     3974     3310     2617     2170 
    1709     1036      380      -31     -209       59     1007     2022 
    2396     2434     2612     2759     2849     3114     3168     2604 
    1865     1344      966      869     1046     1000      533      -35 
    -552    -1131    -1722    -2170    -2382    -2216    -1775    -1498 
   -1386     -913       -6     1003     2149     3321     3952     4024 
    4005     3878     3488     3109     2808     2177     1291      795 
     703      477       94     -332    -1066    -1957    -2431    -2421 
   -2220    -1838    -1305     -830     -294      526     1325     1709 
    1725     1682     1948     2716     3655     4199     4321     4421 
    4488     4375     4228     3827     2781     1574      932      706 
     545      584      738      670      642     1044     1467     1440 
    1125      676      274      480     1345     2165     2504     2388 
    1861     1186      855      892      922     1046     1491     1813 
    1732     1602     1453     1067      699      460      -85     -949 
   -1599    -1968    -2235    -2196    -1979    -2133    -2578    -2886 
   -3060    -3041    -2677    -2326    -2241    -1992    -1455    -1140 
   -1096     -795     -126      695     1744     2937     3809     4399 
    5232     6218     6851     7122     7130     6678     5938     5370 
    4889     4239     3615     3191     2987     3234     3874     4220 
    3851     3072     2232     1464      973      729      433      166 
     243      619     1201     2069     2882     3127     3053     3073 
    2874     2263     1626      938      -93    -1069    -1583    -2029 
   -2633    -3021    -3163    -3326    -3354    -3153    -3059    -3117 
   -2987    -2643    -2254    -1732    -1082     -568     -149      481 
    1317     2274     3433     4518     5142     5435     5597     5533 
    5379     5354     5170     4718     4526     4773     5093     5428 
    5788     5742     5116     4472     4097     3640     3003     2328 
    1547      799      450      414      367      396      567      576 
     459      495      459      103     -237     -313     -367     -611 
   -1071    -1887    -2902    -3458    -3356    -3013    -2632    -2285 
   -2182    -2139    -1713    -1131     -962    -1053     -994     -792 
    -324      569     1377     1605     1622     1803     1993     2212 
    2532     2551     2164     1949     2064     2101     2058     2081 
    1954     1794     2025     2419     2567     2840     3662     4723 
    5628     6286     6531     6319     5921     5324     4392     3472 
    2903     2497     2096     1945     2049     2115     2103     1968 
    1491      818      229     -450    -1336    -1971    -1995    -1628 
   -1174     -811     -750     -803     -437      209      567      618 
     538      187     -279     -414     -372     -517     -649     -751 
   -1161    -1530    -1271     -747     -639     -862    -1086    -1244 
   -1158     -706     -229      -18       59      -22     -413     -653 
    -274      459     1344     2548     3781     4521     4866     5115 
    5128     4864     4529     3990     3195     2571     2292     2207 
    2504     3249     3892     4209     4693     5290     5331     4734 
    3807     2624     1540     1058      945      715      607      955 
    1491     2019     2562     2732     2251     1503      749     -136 
   -1009    -1603    -2008    -2235    -2029    -1489     -985     -631 
    -575    -1040    -1756    -2259    -2667    -3206    -3585    -3697 
   -3847    -3808    -3153    -2169    -1197     -175      541      506 
     253      481      930     1129     1138     1053     1046     1688 
    3198     4936     6235     6912     6997     6709     6471     6415 
    6238     5813     5252     4565     3985     3924     4293     4731 
    5175     5520     5540     5437     5522     5584     5302     4799 
    4207     3364     2381     1660     1188      869      943     1248 
    1204      795      352     -126     -572     -754     -972    -1680 
   -2601    -3281    -3893    -4494    -4695    -4488    -4117    -3434 
   -2385    -1410     -824     -623     -870    -1452    -2022    -2593 
   -3277    -3673    -3411    -2687    -1715     -521      472      764 
     712      892     1131     1246     1302      965      213     -124 
     318     1044     1815     2664     3310     3665     4043     4360 
    4263     3933     3603     2972     2092     1617     1706     2072 
    2767     3670     4266     4553     4885     5059     4773     4324 
    3920     3292     2506     1939     1530     1237     1399     1869 
    2095     2135     2301     2392     2185     1771     1185      475 
    -122     -495     -739     -762     -380      157      546      916 
    1314     1560     1780     2038     1976     1594     1410     1520 
    1529     1358     1151      859      591      603      716      679 
     714      922      928      627      282     -157     -697     -847 
    -461        8      411      815     1030     1179     1701     2359 
    2520     2142     1451      459     -522    -1046    -1243    -1437 
   -1440     -996     -287      518     1394     1998     2068     1899 
    1729     1532     1502     1674     1598     1216     1046     1190 
    1374     1659     2019     2058     1768     1529     1298      783 
     105     -576    -1306    -1764    -1649    -1270     -872     -345 
     282      974     1863     2766     3230     3268     3234     3145 
    2897     2654     2457     2160     2034     2462     3238     4081 
    5047     5773     5638     4820     3897     2898     1854     1096 
     427     -481    -1102     -913     -291      415     1202     1676 
    1495      957      352     -369    -1059    -1420    -1505    -1429 
   -1038     -448      -24      384     1046     1678     2056     2282 
    2214     1799     1503     1406     1034      491      333      587 
    1094     1991     3073     3802     4155     4392     4278     3611 
    2754     1869      891      290      486     1085     1702     2438 
    3188     3708     4148     4531     4423     3732     2895     2170 
    1653     1524     1576     1421     1282     1510     1818     1917 
    1904     1668      986      108     -700    -1509    -2177    -2362 
   -2269    -2351    -2521    -2566    -2574    -2448    -2030    -1748 
   -2035    -2612    -3138    -3624    -3796    -3303    -2494    -1904 
   -1428     -815     -122      602     1281     1633     1590     1377 
    1117      916     1036     1476     1988     2625     3489     4348 
    5152     6146     7183     7897     8452     9008     9200     9004 
    8839     8586     7944     7263     6764     6080     5252     4734 
    4313     3589     2818     2203     1506      768      237     -292 
   -1070    -1800    -2247    -2466    -2227    -1368     -330      475 
    1000     1078      672      245       64     -135     -378     -518 
    -845    -1503    -1995    -2069    -2096    -2172    -2151    -2290 
   -2654    -2843    -2887    -3145    -3500    -3728    -3989    -4198 
   -3867    -2978    -1931     -800      346     1175     1707     2231 
    2674     2879     3088     3369     3354     3110     3003     2932 
    2956     3508     4392     5009     5404     5822     6087     6207 
    6334     6126     5344     4406     3721     3240     2867     2606 
    2309     1957     1871     2176     2668     3242     3762     3851 
    3487     3118     2836     2397     1942     1611     1167      696 
     592      761      918     1166     1354     1026      384     -110 
    -697    -1517    -2069    -2313    -2701    -3044    -2953    -2701 
   -2462    -1944    -1291    -1059    -1209    -1223     -868     -136 
     997     2118     2531     2197     1595     1050      788      888 
    1031     1031     1178     1590     2065     2658     3366     3742 
    3659     3431     3022     2380     1853     1490      990      484 
     326      475      801     1401     2110     2509     2536     2301 
    1698      873      365      220      -35     -356     -409     -368 
    -224      311      857      951      830      607       35     -743 
   -1437    -2146    -2774    -2759    -2023    -1048       20     1205 
    2088     2411     2496     2430     1885     1016      232     -477 
   -1009     -985     -537      -45      598     1489     2361     3157 
    3969     4514     4592     4557     4641     4637     4502     4371 
    4139     3843     3893     4357     4842     5159     5240     4854 
    4133     3488     2875     2150     1579     1301     1161     1181 
    1375     1463     1421     1557     1744     1613     1308     1047 
     606      -43     -526     -870    -1344    -1740    -1837    -1852 
   -1718    -1100     -236      564     1553     2683     3397     3636 
    3723     3508     2853     2149     1509      754      237      255 
     394      371      450      739     1116     1630     2110     2052 
    1408      612     -126     -702     -849     -706     -750     -938 
    -932     -772     -517      -63      336      328      155      218 
     441      764     1308     1860     2130     2203     2029     1289 
     170     -822    -1593    -2039    -1873    -1375    -1082     -919 
    -684     -595     -658     -598     -526     -587     -491     -201 
      -2      282      936     1640     2139     2737     3418     3773 
    3937     4202     4368     4473     4900     5449     5525     5167 
    4781     4309     3761     3510     3357     2803     2056     1409 
     669      -37     -260     -156      -47      340     1159     2033 
    2764     3430     3898     4126     4369     4553     4291     3584 
    2562     1138     -290    -1055    -1291    -1364    -1082     -491 
       8      498     1123     1497     1379     1011      480     -230 
    -733     -773     -751     -873     -820     -665     -758     -928 
    -977    -1233    -1699    -1776    -1358     -788      -74      652 
     966      938      943      901      685      595      666      606 
     618      974     1343     1629     2204     2965     3503     3785 
    3883     3790     3807     4252     4847     5139     5177     5166 
    5098     5059     5131     5119     4984     4993     5105     5093 
    5117     5223     4969     4268     3510     2686     1690      942 
     629      410      257      364      561      662      777      804 
     371     -467    -1393    -2412    -3389    -3890    -3932    -3770 
   -3231    -2261    -1264     -390      472      993      843      388 
     -43     -619    -1216    -1503    -1641    -1698    -1298     -452 
     403     1232     2116     2646     2620     2405     2060     1416 
     768      265     -437    -1366    -2197    -2944    -3661    -4021 
   -3859    -3353    -2428     -970      577     1809     2841     3643 
    3947     3942     3937     3774     3449     3357     3408     3141 
    2562     1950     1395     1003      892      834      535       20 
    -689    -1595    -2232    -2178    -1821    -1533    -1032     -346 
     216      903     1844     2677     3429     4378     5262     5737 
    5942     6025     5807     5289     4664     3855     2918     2313 
    2077     1842     1717     1898     2052     2065     2266     2490 
    2354     2145     2096     1806     1263      886      525      -13 
    -237      178      945     1931     3100     3928     4029     3674 
    3021     1980      959      457      240      -63     -357     -618 
    -872     -846     -534     -329     -238      -41       71      -27 
     -94     -126     -330     -496     -267      230      778     1494 
    2164     2355     2389     2763     3160     3136     2713     1911 
     832      -82     -734    -1398    -1919    -2016    -1903    -1683 
   -1142     -508     -175       14      264      341      230      229 
     201     -141     -571     -818     -967    -1013     -764     -260 
     346     1093     1787     2037     2003     2058     1968     1497 
     976      473     -162     -399      226     1202     2064     2899 
    3532     3750     3898     4224     4299     3808     3065     2232 
    1219      409      187      356      818     1792     3086     4230 
    5132     5825     6261     6569     6727     6389     5648     5093 
    4827     4460     3979     3578     3140     2706     2479     2239 
    1804     1409     1023      414     -147     -210      217     1016 
