Origin Time       2025/01/13 21:19:00
Lat.              31.8
Long.             131.6
Depth. (km)       30
Mag.              6.9
Station Code      KGS021
Station Lat.      31.2535
Station Long.     130.6324
Station Height(m) 8
Record Time       2025/01/13 21:19:53
Sampling Freq(Hz) 100Hz
Duration Time(s)  147
Dir.              N-S
Scale Factor      3920(gal)/6182761
Max. Acc. (gal)   16.434
Last Correction   2025/01/13 21:19:54
Memo.             
[...]
  -19230   -19039   -18070   -17128   -16607   -15943   -14674   -13392 
  -13014   -13593   -14510   -15345   -15835   -15461   -14059   -12305 
  -10888   -10256   -10778   -12152   -13712   -15184   -16448   -17430 
  -18055   -18147   -17568   -16123   -14066   -12294   -11216   -10511 
   -9978    -9759    -9974   -10602   -11658   -13246   -15492   -18309 
  -21134   -23317   -24643   -25329   -25840   -26483   -27286   -28122 
  -28586   -28447   -27986   -27422   -26697   -25850   -24923   -23897 
  -22742   -21218   -19231   -17206   -15462   -13789   -12005   -10339 
   -9290    -9235   -10096   -11473   -13079   -14824   -16470   -17898 
  -19231   -20157   -20464   -20542   -20473   -20047   -19355   -18222 
  -16163   -13277   -10184    -7294    -4725    -2684    -1538    -1369 
   -1881    -2998    -4756    -6835    -9027   -11510   -14472   -17652 
  -20395   -22331   -23421   -23630   -22930   -21238   -18489   -15208 
  -12525   -11000   -10239    -9763    -9333    -8866    -8558    -8793 
  -10001   -12453   -15933   -19806   -23416   -26330   -28463   -30231 
  -32097   -33986   -35629   -36721   -36799   -35735   -33889   -31647 
  -29353   -27489   -26371   -25700   -24907   -23727   -22250   -20771 
  -19461   -18250   -16913   -15222   -13125   -10674    -7997    -5449 
   -3452    -2263    -1903    -2028    -2160    -2172    -2363    -3140 
   -4670    -6784    -9152   -11609   -13894   -15555   -16590   -17476 
  -18486   -19345   -19828   -20156   -20364   -20236   -19823   -19170 
  -18019   -16418   -14977   -14191   -14014   -13930   -13375   -12420 
  -11717   -11657   -11984   -12168   -12001   -11761   -11931   -12748 
  -13984   -15452   -17345   -19730   -22366   -25044   -27585   -29831 
  -31703   -32944   -33309   -32983   -32242   -31233   -30011   -28545 
  -26899   -25032   -22942   -21131   -20284   -20867   -22651   -24504 
  -25468   -25424   -24683   -23886   -23475   -23055   -21984   -20019 
  -17432   -14822   -12509   -10483    -8960    -8172    -7868    -7540 
   -6836    -5972    -5535    -5916    -7394    -9890   -12640   -14804 
  -16139   -17053   -18058   -19107   -19738   -19717   -19104   -18148 
  -17245   -16813   -16982   -17252   -17073   -16488   -15849   -15275 
  -14694   -14200   -13884   -13496   -12727   -11726   -11014   -10695 
  -10183    -9100    -7898    -7288    -7497    -8248    -9263   -10428 
  -11626   -12845   -14234   -15783   -17271   -18633   -19946   -21134 
  -22199   -23362   -24670   -25902   -26828   -27329   -27405   -27134 
  -26517   -25508   -24314   -23189   -21980   -20549   -19016   -17304 
  -15359   -13508   -12110   -11366   -11450   -12347   -13714   -15125 
  -16261   -17097   -17760   -18312   -18859   -19521   -20404   -21496 
  -22436   -22767   -22382   -21537   -20719   -20284   -20007   -19610 
  -19126   -18693   -18729   -19474   -20687   -22110   -23205   -23293 
  -22340   -20615   -18507   -16715   -15473   -14372   -13095   -11654 
  -10263    -9019    -7966    -7407    -7426    -7573    -7589    -7675 
   -8131    -9260   -11059   -13165   -15068   -16126   -16339   -16588 
  -17604   -19446   -21537   -23174   -24088   -24368   -24393   -24614 
  -25184   -25997   -26896   -27731   -28287   -28505   -28631   -28713 
  -28551   -27927   -26491   -24116   -21195   -18198   -15365   -12762 
  -10274    -7927    -6074    -5270    -5932    -7639    -9512   -11131 
  -12445   -13565   -14786   -16241   -17611   -18522   -18862   -18726 
  -18295   -17530   -16221   -14639   -13607   -13411   -13398   -12849 
  -11787   -10902   -11004   -12552   -15008   -17124   -18295   -18781 
  -18949   -18922   -18659   -18251   -17925   -17618   -17046   -16215 
  -15448   -14873   -14172   -13224   -12341   -11744   -11405   -11070 
  -10438    -9554    -8560    -7338    -6044    -5227    -5093    -5365 
   -5659    -5861    -6245    -7096    -8556   -10805   -13904   -17509 
  -20998   -23760   -25535   -26669   -27793   -29127   -30324   -31093 
  -31506   -31613   -31336   -30741   -29908   -28686   -27093   -25589 
  -24553   -23761   -22736   -21528   -20767   -20950   -21859   -22911 
  -23853   -24733   -25630   -26677   -27894   -28966   -29581   -29691 
  -29411   -28960   -28355   -27430   -26144   -24515   -22582   -20479 
  -18453   -16646   -14827   -12647   -10097    -7406    -4918    -3180 
   -2594    -3113    -4385    -5977    -7464    -8587    -9508   -10630 
  -12015   -13225   -13640   -12955   -11573   -10115    -8816    -7552 
   -5932    -3687    -1026     1579     3499     4094     3211     1474 
    -436    -2498    -4965    -8079   -11891   -16007   -20029   -23736 
  -26764   -28809   -30088   -31142   -32249   -33272   -33942   -34149 
  -33977   -33650   -33481   -33523   -33499   -33328   -33130   -32897 
  -32643   -32342   -31848   -31221   -30560   -29692   -28693   -27912 
  -27159   -25986   -24231   -21884   -19226   -16859   -15038   -13453 
  -11812   -10128    -8586    -7374    -6581    -6303    -6513    -7020 
   -7834    -9078   -10584   -11946   -12775   -13065   -13326   -13945 
  -14763   -15441   -15776   -15635   -15063   -14508   -14432   -14774 
  -15147   -15402   -15735   -16282   -16751   -16632   -15859   -14728 
  -13336   -11822   -10606   -10049   -10200   -10765   -11333   -11731 
  -11834   -11573   -11350   -11502   -11711   -11492   -10764    -9683 
   -8353    -6984    -5872    -5156    -4867    -5007    -5531    -6308 
   -7301    -8764   -11003   -14010   -17493   -21066   -24317   -26938 
  -28734   -29544   -29353   -28266   -26374   -24027   -21778   -19666 
  -17384   -15042   -12978   -11331   -10243    -9895   -10386   -11713 
  -13573   -15594   -17816   -20353   -23034   -25656   -28051   -30104 
  -31788   -33025   -33803   -34235   -34223   -33489   -31935   -29548 
  -26217   -22124   -17985   -14617   -12391   -11150   -10624   -10507 
  -10619   -11284   -12575   -13960   -15104   -16058   -16945   -17666 
  -18020   -18080   -18022   -17977   -18026   -18180   -18578   -19291 
  -20019   -20504   -20801   -21007   -21259   -21602   -21887   -22093 
  -22344   -22897   -23921   -24946   -25398   -25268   -24792   -24157 
  -23322   -22035   -20128   -17670   -15070   -12839   -11162    -9933 
   -8869    -7604    -6194    -5167    -4800    -4956    -5489    -6247 
   -7037    -7831    -8469    -8717    -8819    -9001    -9130    -9365 
  -10035   -10996   -11887   -12577   -13340   -14650   -16626   -19146 
  -22200   -25524   -28469   -30514   -31466   -31530   -31264   -30732 
  -29714   -28448   -27109   -25742   -24524   -23475   -22523   -21703 
  -20974   -19979   -18374   -16265   -13855   -11272    -8804    -6835 
   -5615    -4892    -4411    -4446    -5225    -6639    -8441   -10368 
  -12107   -13524   -14750   -15706   -16374   -16903   -17262   -17706 
  -18447   -19033   -19078   -18592   -17753   -16918   -16352   -16005 
  -15731   -15478   -15048   -14348   -13881   -13911   -14137   -14565 
  -15232   -15953   -16796   -17886   -19197   -20425   -21067   -20977 
  -20305   -19234   -18124   -17489   -17550   -18162   -18971   -19520 
  -19800   -20143   -20655   -21378   -22324   -23390   -24463   -25267 
  -25509   -25255   -24888   -24682   -24618   -24706   -24863   -24655 
  -23793   -22372   -20469   -18159   -15695   -13475   -11983   -11244 
  -10760   -10483   -10673   -10998   -11159   -11513   -12340   -13600 
  -15100   -16314   -16924   -17219   -17527   -17848   -18022   -17884 
  -17380   -16538   -15228   -13469   -11706   -10315    -9221    -8127 
   -7082    -6579    -6937    -7763    -8503    -9273   -10250   -11201 
  -12221   -13545   -15017   -16543   -18113   -19627   -21023   -22060 
  -22423   -22205   -21526   -20083   -17891   -15605   -13805   -12585 
  -11644   -10833   -10459   -10758   -11601   -12860   -14613   -16905 
  -19729   -23051   -26503   -29505   -31583   -32399   -31912   -30410 
  -28326   -25994   -23479   -20820   -18336   -16436   -15278   -14842 
  -15164   -16206   -17780   -19628   -21294   -22366   -22852   -22925 
  -22715   -22420   -22193   -22052   -22080   -22173   -22012   -21883 
  -22503   -23783   -24943   -25602   -26020   -26526   -26890   -26659 
  -25915   -25014   -24080   -22893   -21090   -18729   -16502   -14988 
  -13894   -12582   -11014    -9634    -8662    -7953    -7095    -5847 
   -4499    -3279    -2148    -1245     -664     -155      366      626 
     431     -250    -1324    -2671    -4286    -6178    -8452   -11256 
  -14402   -17552   -20602   -23431   -25879   -27866   -29221   -29977 
  -30499   -30845   -30665   -29815   -28617   -27535   -26743   -25977 
  -24945   -23673   -22210   -20500   -18649   -17005   -15996   -15684 
  -15764   -16013   -16227   -16141   -15756   -15393   -15186   -14899 
  -14598   -14751   -15416   -16136   -16375   -15929   -15220   -14821 
  -14786   -14797   -14615   -14221   -13722   -13176   -12542   -11893 
  -11385   -11049   -10986   -11235   -11514   -11690   -11881   -12082 
  -12316   -12682   -13171   -13775   -14464   -15080   -15678   -16604 
  -17937   -19339   -20363   -20670   -20266   -19464   -18580   -17786 
  -17065   -16270   -15443   -14885   -14723   -14710   -14621   -14551 
  -14830   -15848   -17507   -19104   -20154   -20748   -21151   -21515 
  -21926   -22509   -23348   -24109   -24272   -23996   -23902   -24224 
  -24736   -25105   -25182   -24997   -24459   -23441   -22027   -20290 
  -18407   -16836   -15761   -14883   -14038   -13417   -13282   -13782 
  -14744   -15741   -16518   -17053   -17301   -17212   -16923   -16735 
  -16988   -17801   -18966   -20245   -21380   -22082   -22290   -22310 
  -22561   -23051   -23458   -23558   -23349   -23173   -23446   -24234 
  -25306   -26205   -26503   -26311   -26104   -25928   -25294   -23833 
  -21595   -18853   -15899   -12940   -10102    -7423    -4914    -2736 
   -1167     -450     -760    -1965    -3612    -5458    -7510    -9726 
  -12060   -14299   -16064   -17223   -17803   -17717   -17083   -16384 
  -16016   -16049   -16397   -16955   -17526   -17944   -18328   -18951 
  -19993   -21448   -23099   -24622   -25749   -26452   -26921   -27224 
  -27288   -27076   -26570   -25960   -25479   -24910   -23890   -22374 
  -20544   -18691   -17077   -15729   -14442   -12998   -11321    -9531 
   -7958    -6866    -6106    -5411    -4945    -5050    -5767    -6867 
   -8039    -9168   -10384   -11716   -12982   -14002   -14743   -15352 
  -16023   -16782   -17569   -18434   -19310   -19905   -19931   -19292 
  -18277   -17326   -16615   -16174   -15962   -15773   -15507   -15244 
  -14948   -14544   -14113   -13765   -13519   -13392   -13412   -13608 
  -13982   -14408   -14660   -14611   -14381   -14249   -14329   -14423 
  -14335   -14151   -14133   -14369   -14651   -14871   -15283   -16051 
  -16915   -17537   -17842   -17985   -18207   -18648   -19163   -19386 
  -19049   -18114   -16883   -15952   -15679   -15973   -16506   -16710 
  -16080   -14740   -13325   -12406   -12239   -12684   -13342   -14021 
  -14750   -15436   -15998   -16606   -17431   -18364   -19247   -20166 
  -21281   -22627   -24005   -25166   -26175   -27220   -28295   -29317 
  -30178   -30806   -31149   -30940   -30015   -28751   -27435   -25708 
  -23226   -20278   -17421   -14974   -12961   -11267    -9888    -9042 
   -9076   -10162   -11982   -14114   -16431   -18782   -20939   -22957 
  -24930   -26618   -27794   -28539   -28998   -29305   -29624   -29865 
  -29704   -29079   -28211   -27312   -26560   -26009   -25737   -26049 
  -27025   -28195   -28869   -28602   -27514   -26042   -24337   -22238 
  -19565   -16318   -12873    -9787    -7425    -5882    -5064    -4680 
   -4327    -3819    -3327    -3175    -3645    -4691    -5868    -6751 
   -7280    -7570    -7601    -7391    -7173    -7230    -7667    -8458 
   -9748   -11574   -13626   -15727   -17840   -19859   -21794   -23620 
  -25201   -26637   -28029   -29156   -29786   -29764   -28994   -27525 
  -25404   -22791   -20109   -17668   -15405   -13083   -10598    -8071 
   -5663    -3550    -1842     -404      853     1726     2039     1863 
    1472     1159     1051     1164     1313     1166      687      -44 
   -1242    -3094    -5641    -8728   -11917   -15102   -18492   -21977 
  -25182   -27659   -29269   -30246   -30608   -30300   -29440   -28172 
  -26730   -25292   -23888   -22562   -21360   -20465   -20171   -20460 
  -20969   -21425   -21864   -22430   -23036   -23412   -23435   -23158 
  -22802   -22571   -22303   -21784   -21141   -20594   -20241   -19946 
  -19415   -18577   -17466   -15946   -13988   -11867    -9988    -8654 
   -8029    -8145    -8690    -9231    -9699   -10246   -11056   -12175 
  -13299   -14311   -15509   -16862   -18161   -19497   -21041   -22984 
  -25134   -26719   -27090   -26123   -24303   -22641   -21990   -22300 
  -22792   -22807   -22195   -21355   -20971   -21378   -22296   -23129 
  -23473   -23414   -23349   -23710   -24763   -26440   -28405   -30216 
  -31500   -32261   -32928   -33836   -34799   -35348   -35186   -34257 
  -32626   -30562   -28462   -26522   -24801   -23279   -21764   -20179 
  -18662   -17405   -16585   -16203   -16005   -15637   -14935   -14071 
  -13416   -13182   -13071   -12576   -11585   -10257    -8714    -7078 
   -5403    -3666    -2063     -946     -426     -352     -681    -1621 
   -3333    -5722    -8541   -11498   -14296   -16642   -18313   -19481 
  -20534   -21492   -22085   -21903   -20538   -18156   -15334   -12368 
   -9108    -5463    -1783     1539     4325     6471     7949     8719 
    8583     7358     5176     2387     -746    -4013    -7227   -10427 
  -13678   -16784   -19597   -22220   -24763   -27144   -29220   -31023 
  -32618   -33821   -34404   -34330   -33726   -32891   -32018   -30926 
  -29378   -27431   -25226   -22920   -20946   -19645   -18836   -18171 
  -17574   -17179   -17020   -17010   -17232   -17907   -19053   -20445 
  -21640   -22069   -21437   -19863   -17755   -15593   -13713   -12282 
  -11135    -9846    -8370    -7121    -6453    -6456    -6979    -7746 
   -8560    -9291    -9851   -10153   -10222   -10388   -10827   -11476 
  -12507   -13832   -15109   -16245   -17104   -17683   -18182   -18548 
  -18534   -17900   -16570   -14628   -12323   -10137    -8518    -7651 
   -7475    -7917    -8976   -10511   -12314   -14358   -16766   -19583 
  -22664   -25669   -28084   -29608   -30595   -31582   -32564   -33274 
  -33656   -33803   -33821   -33752   -33641   -33486   -33155   -32621 
  -31869   -30708   -29062   -26985   -24517   -21966   -19828   -18330 
  -17396   -16835   -16574   -16643   -16949   -17473   -18273   -19181 
  -19965   -20364   -20080   -19242   -18256   -17276   -16283   -15247 
  -14349   -13918   -13846   -13716   -13310   -12495   -11284   -10046 
   -9087    -8601    -8929   -10075   -11625   -13317   -15093   -17000 
  -19044   -21008   -22612   -23448   -23188   -22065   -20415   -18400 
  -16278   -14170   -12098   -10224    -8589    -7124    -5892    -5032 
   -4666    -4825    -5408    -6210    -7099    -8223    -9875   -12140 
  -14856   -17661   -20045   -21718   -22778   -23301   -23312   -22972 
  -22426   -21912   -21602   -21460   -21672   -22428   -23633   -25137 
  -26649   -27986   -29309   -30690   -31975   -32906   -33240   -33010 
  -32519   -31839   -30690   -28873   -26373   -23395   -20280   -17228 
  -14313   -11470    -8701    -6323    -4501    -3119    -2088    -1316 
    -635      163     1089     1834     1867      712    -1528    -4478 
   -7868   -11329   -14665   -17911   -20948   -23592   -25889   -27919 
  -29511   -30432   -30537   -29848   -28756   -27639   -26542   -25434 
  -24267   -23031   -21697   -20126   -18484   -17292   -16842   -17018 
  -17532   -18122   -18721   -19348   -19903   -20369   -20800   -21142 
  -21373   -21466   -21430   -21457   -21796   -22626   -23922   -25513 
  -27103   -28168   -28495   -28332   -27747   -26601   -24846   -22541 
  -19965   -17452   -15056   -12652   -10153    -7602    -5199    -3206 
   -1829    -1062     -559       70      834     1501     1936     2136 
    2260     2524     2920     3239     3295     2973     2241     1093 
    -440    -2215    -4174    -6378    -8864   -11640   -14612   -17591 
  -20425   -23036   -25344   -27217   -28552   -29449   -30111   -30456 
  -30243   -29486   -28455   -27391   -26305   -25167   -24131   -23416 
  -23065   -22809   -22386   -21843   -21156   -20221   -19243   -18465 
  -17888   -17533   -17456   -17642   -18072   -18622   -19144   -19685 
  -20299   -20879   -21256   -21334   -21111   -20732   -20418   -20224 
  -20107   -19997   -19808   -19618   -19523   -19507   -19616   -19873 
  -20224   -20661   -21034   -21089   -20802   -20373   -20004   -19757 
  -19654   -19819   -20298   -20910   -21369   -21596   -21845   -22323 
  -22985   -23542   -23521   -22733   -21346   -19493   -17280   -14893 
  -12511   -10309    -8348    -6543    -4895    -3438    -2185    -1272 
    -759     -621     -892    -1460    -2191    -3152    -4422    -6035 
   -8013   -10169   -12162   -13943   -15638   -17221   -18817   -20641 
  -22469   -23959   -25089   -25811   -26123   -26178   -25928   -25276 
  -24296   -23111   -21768   -20169   -18318   -16462   -14788   -13327 
  -12120   -11146   -10250    -9266    -8170    -7122    -6371    -6034 
   -6026    -6337    -7117    -8431   -10256   -12604   -15424   -18521 
  -21629   -24472   -26854   -28758   -30288   -31517   -32438   -33040 
  -33339   -33346   -32988   -32169   -31019   -29742   -28375   -27000 
  -25681   -24335   -23023   -21972   -21258   -20795   -20562   -20633 
  -21021   -21651   -22565   -23700   -24655   -25235   -25607   -25788 
  -25727   -25422   -24687   -23414   -21727   -19807   -17828   -15923 
  -14160   -12467   -10811    -9390    -8266    -7255    -6317    -5511 
   -4878    -4543    -4501    -4562    -4635    -4724    -4850    -5143 
   -5744    -6576    -7538    -8581    -9519   -10225   -10785   -11253 
  -11611   -11871   -12014   -12122   -12429   -13022   -13893   -15142 
  -16839   -18782   -20517   -21759   -22587   -23099   -23236   -22968 
  -22329   -21343   -20101   -18828   -17691   -16592   -15481   -14557 
  -14024   -13989   -14440   -15263   -16387   -17767   -19338   -21084 
  -22875   -24314   -25184   -25750   -26275   -26685   -26801   -26607 
  -26303   -26046   -25841   -25788   -25947   -26165   -26296   -26222 
  -25831   -25199   -24488   -23724   -22840   -21778   -20532   -19115 
  -17510   -15742   -13849   -11871    -9958    -8238    -6719    -5372 
   -4161    -3093    -2242    -1664    -1361    -1339    -1601    -2038 
   -2517    -3034    -3667    -4504    -5595    -6992    -8684   -10444 
  -12097   -13587   -14873   -16091   -17450   -18933   -20398   -21823 
  -23265   -24798   -26435   -27962   -29205   -30165   -30810   -31157 
  -31179   -30773   -29993   -28924   -27651   -26353   -25133   -24072 
  -23298   -22737   -22236   -21741   -21112   -20169   -19051   -18117 
  -17500   -17101   -16818   -16558   -16276   -16000   -15819   -15813 
  -16053   -16478   -16799   -16928   -17063   -17359   -17932   -18772 
  -19705   -20576   -21285   -21739   -21900   -21787   -21430   -20882 
  -20209   -19507   -18795   -17927   -16895   -15828   -14763   -13740 
  -12751   -11759   -10944   -10496   -10431   -10726   -11334   -12156 
