Origin Time       2025/01/13 21:19:00
Lat.              31.8
Long.             131.6
Depth. (km)       30
Mag.              6.9
Station Code      KGS004
Station Lat.      32.0145
Station Long.     130.1927
Station Height(m) 3
Record Time       2025/01/13 21:19:59
Sampling Freq(Hz) 100Hz
Duration Time(s)  122
Dir.              U-D
Scale Factor      7845(gal)/8223790
Max. Acc. (gal)   3.372
Last Correction   2025/01/13 21:19:59
Memo.             
[...]
    9020     8999     8966     8945     8953     9011     9155     9358 
    9512     9539     9436     9244     9053     8964     9013     9113 
    9151     9124     9112     9142     9180     9219     9278     9369 
    9501     9655     9768     9805     9790     9772     9791     9856 
    9934     9996    10031    10044    10056    10088    10118    10096 
    9975     9763     9524     9296     9073     8830     8553     8314 
    8221     8287     8415     8518     8599     8726     8922     9123 
    9234     9235     9194     9178     9189     9181     9123     9069 
    9112     9254     9417     9532     9580     9591     9606     9664 
    9795     9968    10115    10189    10201    10219    10312    10471 
   10613    10697    10728    10698    10585    10405    10200     9988 
    9778     9590     9441     9315     9182     9061     8970     8937 
    8985     9072     9115     9088     9007     8905     8857     8945 
    9163     9428     9639     9756     9811     9848     9877     9864 
    9798     9732     9693     9640     9548     9405     9216     9097 
    9148     9246     9305     9390     9445     9424     9423     9467 
    9508     9498     9390     9198     9008     8869     8766     8688 
    8657     8700     8793     8858     8827     8718     8586     8456 
    8368     8378     8472     8598     8733     8901     9097     9289 
    9486     9695     9899    10125    10363    10579    10779    10957 
   11067    11075    10979    10790    10520    10199     9861     9533 
    9243     9040     8969     9028     9180     9354     9485     9572 
    9620     9595     9517     9445     9394     9355     9342     9382 
    9450     9477     9462     9456     9485     9525     9544     9547 
    9567     9612     9639     9594     9463     9292     9134     9073 
    9198     9504     9853    10096    10162    10098    10003     9907 
    9774     9595     9452     9425     9464     9433     9261     9000 
    8761     8611     8579     8645     8721     8750     8733     8668 
    8592     8583     8645     8704     8735     8785     8887     9022 
    9148     9247     9312     9333     9298     9212     9157     9247 
    9474     9699     9818     9819     9717     9539     9356     9231 
    9159     9143     9212     9340     9464     9589     9713     9788 
    9795     9769     9740     9728     9763     9842     9917     9942 
    9914     9803     9599     9387     9277     9259     9283     9335 
    9396     9437     9450     9421     9358     9297     9271     9290 
    9350     9447     9589     9760     9945    10145    10350    10519 
   10613    10623    10584    10543    10516    10488    10439    10374 
   10297    10207    10098     9976     9882     9845     9822     9747 
    9652     9632     9715     9871    10037    10157    10224    10239 
   10170    10022     9856     9728     9678     9701     9751     9799 
    9834     9815     9718     9576     9433     9319     9234     9173 
    9144     9188     9296     9389     9406     9377     9362     9377 
    9413     9447     9427     9352     9292     9251     9185     9082 
    8966     8856     8775     8742     8749     8781     8814     8808 
    8757     8700     8695     8726     8739     8753     8804     8866 
    8897     8881     8831     8779     8745     8769     8891     9084 
    9254     9310     9281     9283     9370     9472     9521     9506 
    9481     9528     9670     9857    10037    10200    10366    10493 
   10503    10385    10212    10050     9931     9877     9900     9983 
   10072    10122    10129    10089     9998     9852     9648     9390 
    9139     9003     9019     9093     9124     9066     8942     8839 
    8819     8847     8874     8907     8958     9000     9007     8982 
    8941     8910     8914     8959     9031     9127     9271     9459 
    9624     9709     9740     9794     9888     9964     9981     9971 
    9953     9906     9772     9553     9324     9113     8899     8679 
    8492     8392     8394     8425     8422     8410     8442     8565 
    8789     9065     9337     9568     9729     9801     9803     9796 
    9837     9940    10092    10272    10443    10582    10670    10687 
   10605    10422    10210    10041     9968    10023    10172    10300 
   10318    10233    10104     9999     9954     9911     9799     9644 
    9528     9517     9614     9715     9717     9649     9624     9690 
    9776     9807     9810     9842     9922    10012    10049     9984 
    9867     9769     9671     9471     9124     8687     8301     8097 
    8081     8151     8264     8451     8680     8885     9042     9157 
    9213     9178     9088     9036     9045     9049     9003     8955 
    9000     9163     9346     9437     9424     9373     9344     9356 
    9393     9447     9524     9610     9656     9614     9485     9313 
    9153     8996     8843     8779     8866     9070     9278     9359 
    9275     9150     9100     9076     8976     8824     8737     8770 
    8861     8931     8988     9104     9350     9709    10053    10266 
   10332    10318    10287    10224    10054     9748     9347     8896 
    8457     8154     8082     8187     8361     8573     8843     9189 
    9564     9863    10025    10098    10173    10273    10322    10265 
   10115     9902     9697     9564     9460     9281     9039     8851 
    8795     8862     9036     9274     9509     9711     9883    10010 
   10080    10118    10201    10372    10561    10660    10640    10543 
   10424    10319    10270    10276    10274    10193    10004     9710 
    9381     9131     9007     8978     9046     9220     9432     9564 
    9568     9478     9319     9113     8931     8850     8869     8915 
    8915     8889     8931     9074     9221     9232     9067     8816 
    8635     8629     8711     8727     8656     8598     8641     8823 
    9117     9401     9607     9833    10134    10428    10586    10594 
   10578    10663    10817    10906    10802    10461    10008     9652 
    9445     9337     9335     9493     9805    10181    10492    10686 
   10800    10862    10848    10700    10409    10053     9729     9528 
    9498     9613     9764     9817     9706     9491     9267     9057 
    8849     8725     8814     9121     9518     9844    10003    10053 
   10137    10268    10312    10156     9842     9570     9506     9647 
    9860     9999     9985     9850     9660     9448     9202     8901 
    8554     8248     8086     8082     8151     8225     8298     8409 
    8619     8934     9244     9456     9606     9765     9902     9929 
    9801     9576     9367     9213     9088     8992     8999     9161 
    9464     9850    10188    10312    10153     9810     9481     9316 
    9296     9305     9302     9312     9339     9356     9369     9429 
    9583     9811    10037    10184    10203    10095     9907     9709 
    9544     9375     9161     8945     8787     8675     8565     8476 
    8451     8464     8444     8343     8189     8063     7997     7952 
    7892     7852     7965     8262     8583     8781     8854     8895 
    8989     9103     9074     8822     8479     8239     8159     8185 
    8294     8542     8918     9246     9348     9242     9081     8955 
    8854     8762     8681     8592     8505     8502     8646     8880 
    9077     9143     9070     8966     8974     9151     9454     9828 
   10242    10675    11053    11265    11213    10935    10616    10390 
   10192     9917     9598     9335     9178     9113     9096     9154 
    9387     9841    10368    10706    10733    10509    10150     9751 
    9387     9105     8916     8784     8665     8549     8459     8421 
    8437     8472     8511     8571     8621     8602     8554     8596 
    8760     9007     9298     9508     9501     9342     9235     9315 
    9549     9807    10011    10224    10496    10690    10617    10303 
   10041    10085    10322    10454    10409    10365    10473    10727 
   11009    11206    11275    11209    10998    10700    10458    10342 
   10292    10230    10110     9914     9652     9373     9174     9155 
    9283     9417     9459     9396     9244     9078     9027     9130 
    9281     9420     9543     9567     9387     9081     8864     8850 
    8980     9124     9135     8945     8658     8426     8325     8352 
    8452     8569     8683     8768     8833     8931     9089     9281 
    9458     9558     9541     9425     9239     8993     8764     8657 
    8712     8850     8934     8905     8818     8707     8563     8390 
    8220     8089     8046     8135     8341     8613     8870     9063 
    9169     9161     9053     8928     8861     8869     8931     9000 
    9011     8950     8888     8897     8993     9166     9377     9531 
    9547     9410     9169     8919     8754     8707     8748     8831 
    8927     9005     9049     9057     9036     9019     9045     9097 
    9126     9104     9019     8870     8731     8702     8819     9057 
    9356     9663     9961    10280    10640    10967    11119    11091 
   11002    10894    10750    10582    10390    10162     9895     9613 
    9317     8969     8568     8203     7994     8005     8183     8418 
    8665     8951     9279     9629     9950    10158    10322    10593 
   10902    11057    11056    10997    10895    10789    10741    10708 
   10736    10952    11234    11453    11589    11570    11381    11063 
   10710    10513    10546    10705    10905    11113    11283    11357 
   11317    11210    11156    11214    11300    11330    11318    11310 
   11283    11207    11095    10974    10898    10952    11138    11385 
   11619    11745    11650    11311    10813    10239     9672     9224 
    8958     8826     8754     8689     8598     8515     8533     8692 
    8953     9243     9491     9667     9775     9811     9805     9830 
    9884     9930    10012    10142    10211    10125     9887     9552 
    9161     8752     8433     8272     8226     8268     8380     8505 
    8584     8602     8529     8394     8334     8417     8571     8741 
    8893     8997     9135     9327     9416     9370     9275     9121 
    8896     8614     8279     7994     7892     7983     8182     8378 
    8478     8484     8487     8538     8610     8677     8752     8827 
    8865     8850     8854     8958     9080     9055     8857     8591 
    8341     8089     7820     7580     7379     7218     7102     7017 
    6980     6974     7015     7214     7533     7898     8325     8725 
    9022     9252     9416     9478     9444     9351     9207     8986 
    8715     8475     8341     8324     8388     8490     8560     8546 
    8472     8376     8278     8239     8336     8563     8853     9155 
    9416     9616     9784     9895     9915     9857     9698     9435 
    9157     8932     8748     8587     8500     8545     8712     9001 
    9396     9783    10103    10443    10789    11080    11368    11623 
   11794    11944    12047    12035    11946    11785    11518    11173 
   10804    10426    10065     9768     9564     9462     9428     9427 
    9456     9549     9740    10021    10318    10527    10608    10620 
   10612    10586    10558    10565    10617    10702    10752    10710 
   10636    10609    10608    10570    10471    10315    10141     9965 
    9741     9486     9289     9157     9065     9032     9051     9085 
    9130     9193     9261     9293     9294     9315     9393     9525 
    9686     9834     9929     9952     9886     9715     9464     9193 
    8903     8579     8290     8132     8112     8170     8267     8388 
    8513     8645     8812     8966     9040     9032     8955     8826 
    8706     8635     8560     8419     8230     8064     7970     7960 
    8046     8247     8550     8900     9238     9533     9759     9894 
    9940     9904     9818     9718     9622     9553     9548     9603 
    9688     9741     9728     9667     9579     9485     9400     9309 
    9177     8965     8704     8514     8473     8556     8691     8842 
    8977     9072     9158     9274     9424     9628     9911    10255 
   10593    10852    11001    11059    11083    11122    11186    11260 
   11330    11389    11392    11276    11028    10689    10318     9936 
    9543     9173     8841     8529     8264     8114     8078     8093 
    8114     8148     8224     8345     8495     8680     8908     9162 
    9409     9587     9641     9630     9653     9701     9693     9634 
    9587     9541     9443     9278     9081     8897     8719     8540 
    8392     8270     8160     8100     8109     8213     8417     8704 
    9032     9344     9618     9865    10087    10288    10497    10737 
   10972    11124    11161    11122    11049    10971    10879    10774 
   10723    10717    10648    10521    10366    10138     9973     9945 
    9917     9913     9927     9860     9796     9811     9875     9987 
   10095    10156    10207    10255    10245    10147     9995     9861 
    9802     9794     9786     9791     9842     9977    10196    10442 
   10685    10921    11115    11232    11259    11173    10993    10778 
   10516    10196     9887     9603     9329     9123     8984     8891 
    8857     8843     8834     8833     8833     8922     9146     9404 
    9629     9845    10049    10214    10362    10507    10611    10656 
   10643    10561    10411    10234    10079     9948     9802     9612 
    9385     9146     8881     8581     8249     7885     7545     7279 
    7044     6794     6516     6232     6015     5922     5935     6026 
    6168     6330     6519     6782     7130     7523     7927     8357 
    8839     9359     9871    10324    10683    10944    11142    11292 
   11377    11364    11249    11083    10912    10736    10512    10184 
    9788     9390     8981     8618     8360     8136     7916     7744 
    7577     7364     7179     7109     7144     7291     7522     7773 
    8048     8336     8614     8912     9239     9618    10060    10478 
   10814    11083    11286    11408    11430    11340    11198    11052 
   10899    10759    10629    10498    10408    10345    10245    10131 
   10084    10095    10112    10108    10080    10064    10069    10046 
    9958     9828     9687     9570     9481     9445     9525     9661 
    9720     9690     9641     9602     9585     9560     9505     9443 
    9427     9517     9703     9911    10138    10382    10606    10827 
   10987    11071    11111    11041    10906    10758    10546    10276 
    9931     9510     9065     8613     8222     7971     7842     7805 
    7857     7965     8106     8264     8430     8629     8834     8955 
    8962     8885     8766     8648     8540     8424     8294     8198 
    8216     8365     8569     8812     9127     9458     9738     9985 
   10195    10341    10458    10569    10670    10771    10876    10976 
   11045    11057    11024    10964    10829    10577    10260     9958 
    9722     9524     9315     9093     8910     8808     8791     8820 
    8835     8816     8803     8802     8761     8649     8482     8294 
    8175     8212     8333     8422     8473     8509     8546     8588 
    8549     8430     8363     8410     8527     8671     8829     9047 
    9375     9765    10138    10457    10696    10825    10863    10851 
   10793    10648    10404    10118     9844     9567     9283     9015 
    8764     8552     8395     8283     8243     8298     8407     8532 
    8657     8756     8816     8858     8904     8968     9049     9126 
    9184     9220     9229     9215     9173     9108     9067     9084 
    9146     9263     9433     9583     9680     9757     9845     9954 
   10057    10119    10161    10201    10211    10172    10093     9987 
    9855     9728     9645     9612     9597     9558     9495     9433 
    9370     9305     9273     9269     9246     9216     9255     9386 
    9559     9740     9922    10076    10152    10126    10022     9888 
    9761     9643     9532     9443     9404     9417     9431     9400 
    9337     9219     9059     8966     8966     8969     8943     8920 
    8934     9011     9113     9148     9117     9111     9154     9192 
    9184     9127     9057     9066     9213     9444     9672     9864 
   10064    10303    10530    10698    10797    10832    10825    10786 
   10702    10578    10420    10214     9979     9782     9671     9625 
    9593     9541     9475     9421     9393     9383     9397     9429 
    9474     9514     9536     9559     9597     9613     9590     9520 
    9375     9154     8901     8687     8553     8469     8406     8370 
    8365     8415     8492     8534     8568     8652     8792     8976 
    9144     9235     9273     9315     9375     9423     9421     9393 
    9412     9517     9674     9836     9985    10130    10272    10408 
   10552    10717    10855    10886    10813    10697    10554    10378 
   10188     9988     9798     9629     9475     9328     9166     8981 
    8793     8598     8375     8158     8027     7997     8005     8010 
    8029     8089     8210     8379     8542     8698     8889     9126 
    9363     9576     9749     9879    10046    10292    10484    10569 
   10656    10756    10872    10993    10957    10787    10581    10304 
   10021     9779     9562     9451     9450     9471     9513     9583 
    9643     9694     9756     9833     9948    10095    10230    10332 
   10404    10423    10369    10280    10185    10061     9887     9676 
    9510     9468     9524     9648     9861    10106    10268    10358 
   10498    10667    10782    10871    10914    10874    10791    10656 
   10444    10207     9991     9813     9687     9576     9443     9316 
    9231     9196     9185     9140     9072     9015     8958     8888 
    8783     8667     8561     8441     8307     8139     7905     7701 
    7545     7377     7267     7257     7299     7385     7508     7641 
    7797     7973     8151     8328     8480     8615     8756     8926 
    9126     9294     9383     9412     9391     9306     9158     8997 
    8888     8846     8834     8812     8761     8714     8723     8779 
    8861     8962     9038     9058     9055     9053     9020     8947 
    8878     8864     8920     9062     9265     9458     9620     9799 
   10025    10276    10515    10708    10863    10978    11014    10948 
   10800    10594    10326     9979     9582     9197     8883     8629 
    8391     8202     8148     8235     8384     8523     8637     8768 
    8939     9147     9382     9589     9741     9902    10095    10303 
   10503    10659    10779    10899    11003    11064    11092    11095 
   11079    11049    11016    10980    10929    10845    10731    10608 
   10486    10361    10269    10245    10261    10277    10280    10300 
   10369    10458    10517    10501    10397    10237    10049     9853 
    9680     9524     9344     9127     8877     8642     8492     8436 
    8428     8451     8517     8613     8735     8892     9077     9266 
    9468     9699     9929    10110    10223    10261    10220    10104 
    9945     9767     9564     9358     9157     8954     8793     8694 
    8635     8619     8644     8729     8880     9059     9269     9514 
    9763    10022    10287    10492    10620    10713    10760    10731 
   10650    10542    10393    10216    10041     9877     9749     9678 
