Origin Time       2025/01/13 21:19:00
Lat.              31.8
Long.             131.6
Depth. (km)       30
Mag.              6.9
Station Code      KGS025
Station Lat.      30.7319
Station Long.     130.9977
Station Height(m) 15
Record Time       2025/01/13 21:20:11
Sampling Freq(Hz) 100Hz
Duration Time(s)  80
Dir.              U-D
Scale Factor      3920(gal)/6182761
Max. Acc. (gal)   1.737
Last Correction   2025/01/13 21:20:11
Memo.             
[...]
    4105     3945     3855     3881     3939     3933     3896     3890 
    3912     3935     3949     3965     3993     3989     3921     3852 
    3823     3811     3851     3960     4074     4178     4282     4359 
    4449     4604     4777     4939     5135     5341     5469     5476 
    5354     5143     4923     4689     4428     4247     4243     4384 
    4597     4786     4830     4701     4513     4364     4255     4193 
    4219     4324     4473     4623     4758     4897     4999     4988 
    4875     4719     4553     4387     4231     4058     3832     3615 
    3487     3453     3510     3629     3721     3768     3834     3893 
    3875     3802     3750     3741     3764     3851     4012     4195 
    4370     4486     4511     4537     4603     4628     4566     4378 
    4082     3830     3693     3636     3699     3903     4137     4334 
    4563     4832     5039     5174     5294     5386     5460     5548 
    5612     5628     5599     5511     5389     5225     5051     4989 
    5006     5000     5024     5080     5050     4899     4681     4470 
    4305     4205     4185     4234     4281     4228     4060     3853 
    3659     3526     3495     3527     3576     3655     3775     3921 
    4062     4164     4247     4352     4440     4451     4431     4414 
    4380     4338     4269     4169     4089     4049     4061     4146 
    4253     4359     4457     4454     4316     4131     3955     3817 
    3767     3782     3814     3883     3995     4118     4219     4266 
    4241     4170     4069     3915     3740     3597     3475     3383 
    3393     3485     3557     3590     3651     3755     3845     3899 
    3947     4013     4109     4228     4346     4458     4540     4521 
    4354     4065     3757     3573     3575     3730     3971     4233 
    4520     4817     5021     5070     5009     4924     4911     5023 
    5212     5352     5370     5359     5429     5545     5649     5715 
    5665     5488     5293     5156     5053     4948     4872     4894 
    4966     4945     4796     4630     4534     4517     4558     4613 
    4621     4579     4557     4596     4678     4719     4645     4509 
    4401     4311     4243     4232     4213     4132     4018     3883 
    3768     3775     3907     4066     4179     4229     4281     4444 
    4684     4867     4929     4869     4694     4461     4280     4204 
    4199     4223     4223     4148     4085     4140     4201     4133 
    3980     3804     3636     3556     3589     3718     3960     4269 
    4550     4778     4955     5040     5014     4948     4925     4945 
    4973     5012     5038     4992     4911     4856     4772     4655 
    4618     4707     4825     4842     4720     4520     4330     4207 
    4145     4123     4161     4312     4614     4983     5237     5280 
    5144     4916     4678     4476     4333     4290     4352     4433 
    4468     4487     4516     4551     4605     4682     4733     4700 
    4593     4454     4295     4116     3945     3838     3812     3836 
    3916     4032     4101     4112     4140     4179     4163     4119 
    4102     4069     3974     3858     3747     3632     3553     3529 
    3525     3549     3634     3749     3862     3997     4161     4303 
    4374     4384     4369     4372     4450     4583     4669     4681 
    4655     4584     4514     4557     4730     4958     5170     5298 
    5313     5287     5335     5475     5582     5522     5301     5000 
    4716     4554     4453     4274     4042     3837     3661     3532 
    3436     3319     3209     3200     3342     3579     3798     3944 
    4016     3996     3902     3810     3760     3745     3765     3820 
    3884     3927     3936     3917     3908     3947     4002     4033 
    4064     4114     4198     4324     4433     4503     4619     4785 
    4927     5073     5244     5325     5254     5100     4933     4797 
    4765     4868     4975     4937     4839     4840     4921     5026 
    5115     5130     5119     5162     5221     5266     5323     5418 
    5536     5605     5607     5608     5624     5644     5697     5758 
    5752     5669     5546     5409     5239     4997     4718     4504 
    4408     4347     4197     3971     3783     3664     3548     3403 
    3253     3118     3023     3026     3143     3316     3472     3526 
    3423     3212     3006     2872     2804     2793     2842     2924 
    3014     3131     3293     3513     3812     4169     4510     4777 
    4938     4991     4990     4989     4980     4943     4907     4882 
    4790     4596     4412     4351     4415     4543     4652     4677 
    4642     4586     4483     4316     4134     3985     3894     3847 
    3796     3746     3746     3796     3846     3888     3993     4204 
    4430     4590     4722     4852     4935     4966     4983     4984 
    4941     4847     4705     4545     4439     4397     4340     4251 
    4199     4200     4195     4167     4173     4202     4223     4286 
    4406     4546     4710     4892     5097     5356     5615     5799 
    5876     5815     5658     5492     5326     5125     4903     4712 
    4565     4447     4403     4503     4707     4866     4909     4894 
    4872     4838     4812     4802     4774     4778     4897     5110 
    5317     5448     5511     5497     5386     5276     5236     5227 
    5287     5434     5523     5471     5372     5284     5186     5102 
    5080     5076     4952     4662     4318     4025     3809     3662 
    3583     3578     3612     3637     3639     3593     3549     3628 
    3832     4024     4095     4046     3958     3908     3909     3916 
    3860     3691     3490     3397     3433     3478     3394     3193 
    3001     2880     2837     2891     3022     3188     3406     3714 
    4041     4303     4506     4618     4620     4639     4766     4885 
    4886     4820     4735     4617     4518     4500     4510     4479 
    4434     4457     4588     4753     4828     4790     4715     4626 
    4528     4496     4577     4721     4892     5097     5317     5483 
    5544     5554     5562     5538     5494     5454     5372     5196 
    4929     4646     4445     4363     4364     4377     4385     4418 
    4478     4525     4537     4555     4645     4828     5053     5218 
    5260     5203     5092     4977     4886     4772     4590     4382 
    4227     4177     4220     4311     4400     4436     4416     4371 
    4326     4291     4222     4075     3877     3677     3511     3415 
    3410     3463     3494     3478     3482     3566     3723     3880 
    3948     3918     3897     3953     4013     4036     4078     4158 
    4281     4461     4637     4760     4861     4982     5128     5257 
    5302     5242     5117     4964     4800     4648     4486     4284 
    4104     3993     3942     3992     4130     4274     4412     4560 
    4735     5015     5400     5737     5929     5989     5939     5812 
    5618     5337     5013     4740     4604     4575     4534     4461 
    4422     4431     4495     4622     4791     4970     5090     5065 
    4908     4720     4594     4540     4480     4349     4178     4036 
    3949     3882     3815     3744     3618     3464     3374     3320 
    3281     3292     3289     3183     2985     2801     2756     2834 
    2894     2861     2783     2763     2885     3152     3439     3616 
    3726     3843     3928     3973     4014     4052     4107     4169 
    4213     4314     4542     4859     5182     5421     5567     5720 
    5922     6136     6313     6387     6352     6239     6073     5969 
    6008     6080     6108     6133     6161     6139     6040     5844 
    5551     5238     5043     5040     5184     5389     5553     5580 
    5444     5184     4854     4533     4353     4336     4330     4264 
    4172     4095     4131     4289     4381     4284     4055     3804 
    3624     3493     3309     3071     2883     2843     2969     3160 
    3345     3556     3738     3792     3752     3690     3633     3633 
    3738     3894     3994     4016     4055     4168     4259     4223 
    4078     3922     3850     3875     3936     3938     3836     3713 
    3663     3687     3752     3766     3643     3485     3448     3543 
    3697     3837     3907     3953     4064     4209     4299     4326 
    4344     4403     4496     4585     4623     4595     4576     4577 
    4482     4265     4040     3935     4009     4214     4417     4527 
    4552     4509     4362     4114     3898     3842     3904     3977 
    3988     3896     3764     3749     3892     4070     4205     4312 
    4389     4487     4656     4781     4786     4780     4779     4680 
    4528     4462     4495     4520     4447     4290     4125     4041 
    4133     4359     4547     4639     4693     4772     4925     5091 
    5125     5049     5029     5120     5247     5316     5241     5082 
    5000     5022     5083     5163     5232     5241     5224     5216 
    5185     5146     5161     5167     5070     4968     5022     5210 
    5412     5546     5568     5476     5296     5069     4844     4578 
    4230     3899     3659     3497     3424     3379     3275     3195 
    3258     3427     3628     3816     3936     3988     4072     4300 
    4625     4844     4858     4774     4700     4656     4686     4826 
    4976     5007     4954     4925     4930     4920     4891     4886 
    4927     4941     4856     4740     4659     4584     4484     4333 
    4123     3888     3694     3554     3353     3063     2812     2607 
    2384     2220     2152     2072     1948     1835     1776     1836 
    2009     2175     2340     2615     2974     3370     3834     4313 
    4666     4867     5044     5242     5377     5450     5519     5624 
    5811     6056     6288     6479     6624     6732     6821     6857 
    6824     6819     6898     6997     7052     7009     6872     6757 
    6704     6618     6427     6139     5791     5417     5027     4615 
    4220     3931     3775     3700     3672     3712     3798     3829 
    3750     3633     3569     3581     3650     3721     3727     3723 
    3776     3823     3853     3870     3770     3595     3524     3502 
    3388     3276     3255     3299     3450     3696     3895     3976 
    3996     4048     4181     4339     4465     4595     4698     4666 
    4528     4401     4347     4416     4554     4596     4478     4289 
    4134     4069     4067     4059     4025     3984     3984     4084 
    4270     4471     4647     4788     4902     4964     4925     4832 
    4740     4596     4409     4261     4156     4054     3943     3836 
    3764     3725     3690     3664     3723     3932     4215     4413 
    4480     4475     4475     4532     4622     4705     4805     4916 
    4967     4983     5022     5054     5050     5001     4891     4801 
    4824     4896     4933     4951     4954     4947     4936     4868 
    4787     4791     4849     4936     5080     5215     5256     5201 
    5063     4864     4636     4372     4085     3853     3686     3528 
    3420     3429     3525     3634     3748     3898     4079     4240 
    4350     4393     4341     4207     4030     3808     3532     3261 
    3041     2844     2670     2574     2599     2711     2846     2986 
    3099     3157     3222     3353     3527     3687     3782     3811 
    3824     3836     3846     3916     4058     4218     4381     4524 
    4638     4773     4973     5238     5505     5658     5670     5680 
    5822     6052     6229     6328     6383     6361     6292     6276 
    6320     6351     6281     6064     5788     5583     5460     5375 
    5293     5170     4999     4836     4730     4681     4643     4557 
    4399     4210     4071     4022     4047     4148     4307     4457 
    4559     4616     4629     4632     4691     4821     4978     5134 
    5286     5431     5568     5710     5822     5840     5785     5748 
    5749     5748     5743     5727     5653     5582     5602     5636 
    5598     5509     5363     5154     4970     4885     4839     4736 
    4626     4601     4620     4622     4635     4659     4647     4598 
    4535     4488     4488     4535     4625     4708     4714     4658 
    4588     4521     4466     4379     4203     3970     3780     3659 
    3568     3473     3342     3176     3046     3005     3017     2986 
    2921     2925     2995     3045     3078     3136     3173     3154 
    3144     3209     3320     3409     3455     3459     3442     3469 
    3572     3673     3717     3724     3694     3663     3719     3822 
    3851     3790     3690     3584     3499     3465     3442     3345 
    3177     2997     2802     2622     2501     2420     2407     2505 
    2676     2890     3119     3289     3368     3401     3437     3505 
    3597     3637     3596     3514     3435     3426     3488     3536 
    3553     3545     3508     3476     3460     3498     3669     3902 
    4029     4040     4037     4056     4090     4156     4256     4343 
    4403     4506     4705     4969     5263     5553     5765     5902 
    6018     6091     6095     6040     5936     5809     5658     5503 
    5376     5207     4970     4760     4638     4566     4466     4318 
    4195     4144     4118     4065     3997     3940     3890     3847 
    3850     3925     3995     3974     3920     3923     4025     4268 
    4607     4930     5174     5301     5345     5440     5661     5970 
    6295     6548     6730     6908     7069     7163     7165     7054 
    6881     6745     6693     6698     6668     6545     6402     6302 
    6225     6177     6144     6056     5887     5677     5468     5247 
    5036     4935     4928     4892     4809     4748     4698     4613 
    4495     4317     4053     3774     3548     3399     3359     3404 
    3453     3485     3520     3596     3744     3922     4075     4236 
    4425     4611     4783     4939     5100     5263     5312     5201 
    5061     4983     4946     4930     4926     4921     4936     5003 
    5127     5261     5339     5368     5395     5407     5424     5522 
    5663     5736     5737     5657     5449     5166     4843     4461 
    4123     3923     3793     3702     3705     3819     4030     4303 
    4540     4686     4787     4883     4933     4869     4729     4627 
    4535     4350     4096     3831     3571     3365     3233     3136 
    3040     2967     2953     2950     2876     2732     2591     2500 
    2435     2384     2389     2455     2542     2593     2553     2450 
    2370     2355     2411     2494     2560     2641     2743     2778 
    2763     2809     2889     2936     3034     3219     3408     3557 
    3668     3723     3743     3766     3784     3802     3835     3848 
    3851     3853     3850     3918     4070     4219     4356     4525 
    4729     4961     5223     5512     5792     5967     5998     5992 
    6028     6084     6145     6240     6361     6449     6501     6558 
    6600     6575     6466     6292     6085     5865     5662     5481 
    5274     5050     4876     4773     4729     4683     4605     4587 
    4673     4822     5024     5223     5341     5408     5472     5485 
    5466     5520     5626     5681     5641     5510     5342     5193 
    5063     4948     4836     4695     4556     4472     4434     4428 
    4476     4545     4562     4533     4502     4472     4456     4469 
    4487     4519     4613     4750     4885     5026     5128     5083 
    4924     4772     4640     4517     4448     4441     4435     4403 
    4370     4346     4318     4286     4220     4069     3873     3732 
    3654     3595     3556     3520     3490     3526     3640     3759 
    3835     3866     3831     3724     3638     3647     3681     3664 
    3618     3550     3454     3388     3352     3252     3077     2911 
    2779     2655     2548     2504     2517     2561     2629     2691 
    2733     2810     2935     3028     3035     3001     2979     2988 
    3051     3156     3273     3427     3597     3676     3676     3747 
    3923     4113     4259     4328     4339     4403     4584     4790 
    4896     4900     4903     4990     5168     5386     5563     5663 
    5746     5890     6085     6255     6360     6405     6405     6396 
    6403     6411     6374     6271     6134     5991     5861     5782 
    5755     5756     5813     5905     5971     6061     6194     6267 
    6243     6166     6060     5954     5898     5890     5853     5737 
    5568     5376     5200     5117     5131     5151     5126     5086 
    5054     5010     4980     4986     4961     4874     4775     4676 
    4567     4462     4377     4314     4254     4154     3990     3797 
    3634     3541     3513     3504     3509     3566     3643     3693 
    3699     3639     3564     3547     3568     3571     3538     3491 
    3473     3513     3566     3525     3348     3109     2884     2712 
    2632     2601     2546     2491     2449     2396     2375     2393 
    2394     2361     2315     2284     2289     2303     2273     2221 
    2219     2287     2391     2512     2667     2850     3017     3126 
    3181     3226     3287     3346     3408     3451     3421     3363 
    3331     3313     3322     3371     3450     3577     3750     3944 
    4157     4389     4623     4834     5045     5246     5373     5446 
    5507     5525     5490     5398     5253     5117     5033     5005 
    5027     5103     5229     5349     5403     5400     5394     5437 
    5516     5598     5687     5769     5830     5871     5883     5838 
    5745     5686     5688     5704     5712     5666     5534     5363 
    5192     5059     4967     4868     4780     4736     4688     4609 
    4548     4533     4552     4596     4643     4663     4650     4607 
    4551     4524     4516     4482     4468     4492     4435     4286 
    4179     4146     4158     4213     4246     4180     4047     3919 
    3809     3714     3678     3708     3751     3787     3816     3829 
    3871     3954     4016     4060     4115     4170     4259     4377 
    4480     4599     4733     4815     4836     4810     4767     4739 
    4679     4574     4470     4386     4327     4267     4181     4109 
    4089     4103     4127     4167     4244     4371     4517     4636 
    4736     4851     5000     5185     5381     5524     5581     5606 
    5640     5666     5661     5645     5644     5663     5702     5750 
    5777     5770     5748     5714     5641     5526     5401     5279 
    5146     4978     4782     4617     4510     4406     4266     4119 
    3993     3916     3890     3857     3801     3754     3707     3642 
    3585     3544     3493     3386     3222     3070     2979     2954 
    2992     3057     3115     3184     3272     3334     3370     3407 
    3425     3409     3367     3305     3230     3159     3132     3165 
    3241     3325     3376     3379     3380     3454     3606     3759 
    3875     3999     4132     4246     4387     4607     4865     5101 
    5290     5409     5460     5497     5555     5601     5577     5493 
    5417     5392     5396     5376     5279     5113     4937     4793 
    4682     4573     4458     4379     4336     4283     4213     4137 
    4045     3965     3927     3949     4054     4204     4319     4383 
