Origin Time       2025/01/13 21:19:00
Lat.              31.8
Long.             131.6
Depth. (km)       30
Mag.              6.9
Station Code      KGS007
Station Lat.      31.8143
Station Long.     130.3032
Station Height(m) 4
Record Time       2025/01/13 21:20:00
Sampling Freq(Hz) 100Hz
Duration Time(s)  120
Dir.              N-S
Scale Factor      3920(gal)/6182761
Max. Acc. (gal)   21.491
Last Correction   2025/01/13 21:20:00
Memo.             
[...]
    9871    10441    10888    11247    11514    11653    11634    11463 
   11246    11105    11054    11023    10951    10807    10585    10315 
   10043     9744     9397     9043     8674     8230     7673     7034 
    6360     5661     4962     4273     3556     2820     2099     1392 
     699       92     -313     -461     -380     -154      113      339 
     495      629      820     1072     1329     1576     1842     2156 
    2594     3203     3922     4653     5300     5789     6036     5956 
    5563     4930     4095     3038     1718      157    -1553    -3323 
   -5118    -6941    -8737   -10407   -11898   -13167   -14088   -14502 
  -14365   -13777   -12857   -11673   -10340    -8993    -7672    -6369 
   -5061    -3739    -2465    -1297     -219      791     1696     2413 
    2935     3331     3688     4117     4707     5504     6520     7673 
    8805     9823    10742    11576    12288    12829    13191    13353 
   13231    12784    12086    11235    10291     9273     8196     7045 
    5766     4351     2835     1276     -218    -1597    -2947    -4324 
   -5633    -6786    -7761    -8476    -8851    -8916    -8696    -8185 
   -7434    -6529    -5564    -4605    -3682    -2827    -2028    -1251 
    -576      -85      288      667     1118     1643     2229     2837 
    3369     3758     4058     4395     4806     5214     5576     5890 
    6150     6381     6593     6755     6835     6816     6709     6545 
    6339     6076     5706     5209     4669     4226     3958     3911 
    4136     4643     5398     6279     7072     7677     8144     8472 
    8565     8319     7724     6900     5914     4703     3265     1707 
     110    -1496    -3059    -4544    -5926    -7138    -8164    -9053 
   -9860   -10589   -11191   -11645   -11991   -12297   -12591   -12803 
  -12864   -12805   -12723   -12674   -12638   -12546   -12329   -11970 
  -11459   -10708    -9574    -7997    -6041    -3849    -1576      667 
    2854     4976     7005     8909    10712    12510    14314    16069 
   17765    19399    20938    22339    23568    24595    25375    25858 
   26001    25796    25306    24603    23693    22540    21154    19601 
   18000    16462    14983    13526    12075    10600     9074     7485 
    5808     4010     2097      165    -1688    -3449    -5120    -6685 
   -8200    -9744   -11263   -12644   -13859   -14893   -15740   -16459 
  -17047   -17406   -17475   -17245   -16701   -15810   -14601   -13176 
  -11631   -10106    -8800    -7826    -7146    -6583    -5973    -5285 
   -4534    -3697    -2767    -1792     -821      135     1041     1868 
    2627     3336     3998     4597     5079     5391     5576     5692 
    5734     5744     5779     5761     5603     5345     5064     4785 
    4481     4071     3499     2845     2255     1803     1509     1392 
    1470     1729     2142     2695     3333     3974     4599     5162 
    5596     5941     6266     6555     6818     7152     7624     8241 
    8971     9699    10247    10507    10445    10044     9342     8370 
    7122     5695     4221     2748     1330       67    -1012    -1974 
   -2906    -3839    -4716    -5463    -6155    -6891    -7620    -8273 
   -8816    -9184    -9335    -9281    -9035    -8619    -8057    -7355 
   -6537    -5659    -4779    -3924    -3117    -2408    -1839    -1417 
   -1117     -864     -603     -260      279     1052     2053     3254 
    4545     5782     6878     7785     8524     9193     9846    10476 
   11080    11639    12137    12569    12903    13081    13030    12735 
   12279    11772    11251    10703    10150     9642     9257     9079 
    9085     9163     9190     9063     8750     8267     7628     6868 
    6009     5058     4091     3230     2545     2010     1550     1105 
     681      335       88     -122     -358     -659    -1057    -1519 
   -1977    -2378    -2720    -3107    -3641    -4276    -4910    -5486 
   -6001    -6465    -6920    -7389    -7787    -8023    -8109    -8069 
   -7925    -7733    -7470    -7073    -6573    -6030    -5478    -4992 
   -4664    -4548    -4643    -4883    -5175    -5482    -5824    -6170 
   -6419    -6469    -6271    -5857    -5312    -4733    -4182    -3660 
   -3157    -2678    -2226    -1767    -1271     -753     -238      262 
     770     1336     2015     2864     3892     5017     6146     7238 
    8276     9209     9998    10643    11147    11519    11772    11942 
   12117    12345    12578    12729    12767    12761    12773    12794 
   12831    12889    12889    12753    12470    12105    11747    11403 
   10997    10459     9760     8946     8070     7160     6246     5315 
    4319     3282     2285     1395      611     -116     -844    -1605 
   -2397    -3234    -4111    -4982    -5784    -6471    -7038    -7495 
   -7800    -7870    -7677    -7275    -6723    -6058    -5308    -4511 
   -3712    -2942    -2248    -1677    -1279    -1112    -1156    -1326 
   -1550    -1756    -1903    -1992    -2040    -2070    -2130    -2263 
   -2452    -2611    -2631    -2467    -2144    -1710    -1195     -610 
      11      584     1013     1255     1324     1249     1090      897 
     675      426      169      -59     -255     -469     -727    -1010 
   -1267    -1405    -1342    -1060     -591       43      839     1778 
    2822     3928     5016     6029     6993     7931     8796     9526 
   10102    10563    10956    11309    11667    12047    12417    12756 
   13049    13249    13319    13263    13074    12727    12220    11580 
   10828     9959     8987     7954     6886     5777     4620     3446 
    2307     1221      206     -692    -1461    -2120    -2659    -3068 
   -3409    -3753    -4089    -4339    -4449    -4405    -4247    -4035 
   -3792    -3539    -3321    -3169    -3099    -3103    -3155    -3228 
   -3277    -3305    -3381    -3544    -3743    -3856    -3800    -3623 
   -3432    -3298    -3226    -3198    -3158    -3063    -2912    -2678 
   -2366    -2052    -1767    -1498    -1239     -996     -771     -557 
    -343      -96      221      640     1212     1955     2811     3732 
    4703     5670     6607     7535     8453     9349    10216    11024 
   11758    12391    12897    13268    13494    13584    13580    13527 
   13470    13427    13346    13154    12845    12439    11946    11418 
   10917    10476    10094     9735     9318     8749     7953     6916 
    5669     4252     2716     1111     -526    -2134    -3671    -5167 
   -6647    -8113    -9562   -10964   -12297   -13544   -14672   -15697 
  -16706   -17761   -18865   -19960   -20894   -21515   -21779   -21710 
  -21331   -20680   -19759   -18522   -17002   -15301   -13474   -11541 
   -9533    -7480    -5407    -3312    -1179      977     3072     4996 
    6717     8261     9659    10928    12045    13005    13818    14530 
   15270    16096    16912    17674    18447    19224    19946    20563 
   20950    20972    20556    19671    18400    16869    15088    13009 
   10722     8456     6335     4344     2457      649    -1132    -2891 
   -4562    -6151    -7725    -9278   -10769   -12175   -13402   -14329 
  -14930   -15218   -15222   -15018   -14667   -14175   -13544   -12793 
  -11941   -11032   -10131    -9226    -8259    -7210    -6008    -4632 
   -3198    -1763     -340     1038     2380     3710     5059     6486 
    8020     9608    11169    12685    14167    15567    16820    17894 
   18727    19247    19440    19309    18878    18228    17439    16578 
   15712    14849    13958    13052    12146    11201    10243     9297 
    8297     7230     6116     4911     3645     2429     1294      180 
    -977    -2208    -3506    -4833    -6090    -7190    -8092    -8742 
   -9144    -9357    -9379    -9220    -8934    -8574    -8234    -7958 
   -7728    -7589    -7581    -7665    -7775    -7832    -7798    -7719 
   -7623    -7455    -7141    -6640    -5943    -5060    -4055    -3048 
   -2143    -1396     -791     -259      261      805     1361     1861 
    2249     2548     2843     3166     3485     3769     3983     4129 
    4226     4266     4241     4104     3818     3441     3024     2579 
    2059     1327      333     -843    -2151    -3536    -4916    -6207 
   -7253    -7951    -8287    -8188    -7617    -6664    -5437    -4010 
   -2454     -848      706     2111     3356     4488     5530     6508 
    7467     8448     9472    10546    11638    12648    13491    14169 
   14714    15126    15422    15663    15900    16194    16604    17132 
   17766    18500    19270    19967    20518    20913    21141    21172 
   20989    20588    19996    19252    18384    17418    16411    15400 
   14361    13256    12038    10646     9066     7327     5482     3603 
    1745      -80    -1900    -3694    -5344    -6782    -8014    -9034 
   -9846   -10497   -11027   -11478   -11935   -12433   -12948   -13487 
  -14020   -14456   -14744   -14899   -14948   -14901   -14732   -14415 
  -13928   -13294   -12620   -11969   -11347   -10803   -10342    -9931 
   -9561    -9163    -8650    -7996    -7231    -6457    -5717    -4981 
   -4255    -3552    -2899    -2358    -1939    -1574    -1212     -797 
    -249      429     1162     1882     2557     3200     3789     4285 
    4721     5099     5377     5593     5812     6038     6282     6576 
    6933     7329     7711     8048     8338     8582     8761     8812 
    8723     8587     8445     8252     8000     7693     7303     6862 
    6433     6055     5729     5385     4938     4378     3712     2965 
    2196     1432      698       83     -343     -625     -799     -818 
    -664     -355       53      471      846     1163     1459     1806 
    2235     2710     3152     3523     3830     4057     4198     4270 
    4274     4196     4040     3848     3699     3621     3575     3566 
    3636     3764     3938     4162     4429     4716     4965     5134 
    5210     5151     4921     4508     3916     3185     2377     1522 
     619     -297    -1177    -2005    -2765    -3443    -4040    -4534 
   -4920    -5266    -5601    -5862    -6000    -6013    -5921    -5740 
   -5471    -5155    -4809    -4389    -3865    -3249    -2552    -1793 
   -1008     -216      588     1364     2063     2666     3143     3494 
    3780     4061     4389     4794     5259     5750     6232     6675 
    7079     7450     7778     8062     8297     8454     8511     8474 
    8355     8157     7869     7488     6992     6344     5554     4682 
    3794     2911     2007     1125      346     -309     -822    -1175 
   -1420    -1614    -1767    -1906    -2031    -2106    -2182    -2334 
   -2556    -2814    -3053    -3240    -3393    -3533    -3657    -3777 
   -3935    -4170    -4478    -4825    -5162    -5419    -5537    -5509 
   -5353    -5106    -4812    -4467    -4037    -3548    -3069    -2670 
   -2403    -2270    -2237    -2274    -2361    -2464    -2557    -2647 
   -2752    -2880    -2994    -3012    -2873    -2573    -2132    -1548 
    -833      -73      653     1303     1834     2242     2542     2741 
    2883     2977     2986     2948     2908     2859     2827     2811 
    2784     2759     2739     2731     2779     2928     3202     3592 
    4075     4597     5062     5415     5683     5894     6036     6097 
    6077     5953     5729     5459     5199     4977     4797     4642 
    4492     4366     4329     4419     4606     4846     5129     5445 
    5773     6113     6509     6998     7531     8036     8486     8862 
    9131     9225     9087     8725     8193     7546     6817     6091 
    5501     5120     4923     4858     4907     5014     5102     5170 
    5209     5148     4953     4644     4326     4140     4122     4268 
    4602     5088     5654     6267     6900     7488     7953     8262 
    8448     8595     8755     8907     8990     8970     8875     8722 
    8488     8200     7868     7415     6818     6135     5407     4724 
    4147     3610     3067     2558     2101     1680     1309     1020 
     784      560      348      177       58      -26     -117     -251 
    -441     -722    -1109    -1574    -2086    -2622    -3193    -3813 
   -4449    -5087    -5754    -6454    -7165    -7869    -8573    -9275 
   -9944   -10530   -10989   -11286   -11412   -11385   -11239   -10980 
  -10600   -10135    -9659    -9210    -8781    -8368    -7966    -7546 
   -7099    -6661    -6231    -5774    -5279    -4779    -4345    -4015 
   -3775    -3612    -3479    -3310    -3089    -2822    -2515    -2169 
   -1750    -1235     -637       53      838     1661     2460     3231 
    4016     4828     5642     6447     7209     7848     8299     8543 
    8599     8511     8331     8103     7847     7584     7319     7015 
    6619     6104     5499     4838     4115     3331     2507     1699 
     953      278     -318     -836    -1290    -1695    -2089    -2517 
   -3024    -3637    -4323    -4978    -5489    -5787    -5850    -5665 
   -5216    -4554    -3782    -2935    -1986     -954      143     1305 
    2510     3747     5004     6264     7547     8886    10285    11708 
   13094    14416    15692    16945    18187    19458    20814    22266 
   23762    25222    26541    27642    28494    29049    29248    29040 
   28415    27417    26107    24560    22844    20989    19026    16984 
   14882    12773    10718     8736     6832     5009     3242     1503 
    -242    -2054    -3992    -6066    -8261   -10570   -12973   -15410 
  -17811   -20122   -22316   -24377   -26262   -27921   -29298   -30366 
  -31158   -31702   -32029   -32225   -32300   -32159   -31740   -31035 
  -30055   -28821   -27340   -25636   -23757   -21766   -19716   -17596 
  -15380   -13121   -10882    -8674    -6519    -4439    -2372     -248 
    1870     3875     5703     7305     8673     9859    10949    12009 
   13062    14117    15155    16084    16861    17530    18106    18531 
   18717    18648    18473    18271    17895    17281    16568    15855 
   15115    14305    13431    12493    11470    10454     9522     8562 
    7518     6450     5394     4391     3484     2729     2204     1822 
    1442     1051      580       -2     -560    -1026    -1399    -1662 
   -1862    -2003    -2067    -2064    -1894    -1567    -1219     -769 
    -174      469     1232     2088     2890     3710     4583     5454 
    6364     7223     7911     8462     8853     9073     9217     9313 
    9303     9076     8613     8048     7411     6715     6124     5663 
    5256     4953     4707     4401     4015     3508     2923     2294 
    1463      467     -540    -1633    -2756    -3758    -4714    -5624 
   -6434    -7270    -8147    -9036   -10001   -10935   -11741   -12472 
  -13039   -13311   -13253   -12883   -12297   -11513   -10534    -9460 
   -8256    -6908    -5525    -4110    -2720    -1439     -112     1285 
    2642     4069     5551     6974     8439     9844    10990    11965 
   12768    13323    13652    13683    13444    13091    12635    12146 
   11723    11318    10978    10717    10407    10099     9848     9567 
    9274     8922     8446     7941     7432     6989     6756     6618 
    6485     6408     6324     6240     6141     5831     5317     4684 
    3899     3115     2429     1782     1276      916      614      432 
     343      331      444      523      478      383      185     -102 
    -376     -643     -856    -1024    -1274    -1577    -1891    -2235 
   -2531    -2782    -3016    -3139    -3206    -3273    -3196    -2967 
   -2610    -2028    -1332     -638      126      868     1514     2108 
    2565     2877     3145     3390     3689     4069     4457     4870 
    5291     5670     6038     6375     6689     7003     7151     7073 
    6863     6452     5819     5016     3971     2737     1425       14 
   -1431    -2862    -4328    -5736    -7018    -8204    -9232   -10122 
  -10916   -11528   -12009   -12440   -12752   -12990   -13196   -13294 
  -13308   -13231   -13003   -12671   -12183   -11493   -10669    -9658 
   -8453    -7141    -5706    -4217    -2749    -1221      328     1823 
    3259     4514     5550     6449     7177     7757     8244     8626 
    8982     9340     9646    10036    10609    11285    12086    12982 
   13847    14668    15347    15761    15973    16006    15846    15559 
   15125    14543    13872    13064    12177    11362    10600     9874 
    9229     8625     8041     7482     6958     6528     6174     5880 
    5674     5429     5054     4608     4073     3456     2823     2147 
    1443      721     -118    -1055    -2005    -2946    -3815    -4614 
   -5415    -6194    -6916    -7593    -8223    -8848    -9496   -10153 
  -10904   -11790   -12726   -13706   -14704   -15609   -16371   -16914 
  -17150   -17092   -16752   -16167   -15421   -14512   -13453   -12297 
  -11009    -9607    -8160    -6670    -5191    -3748    -2303     -908 
     425     1717     2901     3993     5046     5995     6867     7739 
    8566     9365    10162    10906    11613    12270    12843    13398 
   13919    14333    14651    14819    14763    14502    14056    13430 
   12645    11762    10890    10057     9241     8514     7876     7219 
    6538     5818     5002     4151     3265     2316     1427      708 
     189     -119     -248     -212       -9      311      747     1310 
    1946     2661     3445     4198     4910     5607     6282     6977 
    7692     8383     9058     9668    10176    10650    11090    11474 
   11840    12166    12430    12633    12718    12666    12506    12252 
   11926    11529    11028    10424     9709     8852     7897     6911 
    5899     4879     3852     2801     1749      697     -350    -1320 
   -2209    -3040    -3825    -4653    -5582    -6614    -7756    -8964 
  -10184   -11359   -12430   -13441   -14454   -15453   -16428   -17323 
  -18057   -18652   -19119   -19456   -19748   -20025   -20239   -20390 
  -20456   -20388   -20195   -19873   -19400   -18768   -17956   -17032 
  -16074   -15031   -13858   -12560   -11118    -9570    -7948    -6245 
   -4486    -2682     -833     1006     2803     4547     6198     7764 
    9267    10689    12048    13378    14692    15996    17270    18468 
   19537    20414    21096    21631    22000    22172    22160    21973 
   21648    21222    20716    20149    19493    18728    17899    17023 
   16089    15106    14071    12994    11912    10833     9766     8723 
    7670     6566     5397     4152     2869     1625      424     -731 
   -1790    -2742    -3584    -4298    -4895    -5364    -5676    -5853 
   -5928    -5932    -5867    -5720    -5542    -5387    -5282    -5286 
   -5366    -5422    -5449    -5452    -5408    -5325    -5204    -5023 
   -4744    -4338    -3832    -3270    -2653    -1982    -1285     -568 
     174      951     1745     2513     3257     4008     4755     5491 
    6210     6904     7628     8414     9231    10042    10777    11375 
   11858    12238    12521    12751    12933    13048    13087    13012 
   12803    12488    12124    11773    11432    11072    10696    10323 
    9969     9669     9432     9212     8962     8630     8141     7458 
    6604     5600     4445     3157     1772      315    -1179    -2657 
   -4079    -5427    -6688    -7846    -8899    -9880   -10838   -11781 
  -12663   -13441   -14101   -14633   -15062   -15396   -15592   -15651 
  -15631   -15524   -15316   -15038   -14676   -14229   -13732   -13183 
