Origin Time       2025/01/13 21:19:00
Lat.              31.8
Long.             131.6
Depth. (km)       30
Mag.              6.9
Station Code      KGS019
Station Lat.      31.2776
Station Long.     130.3008
Station Height(m) 10
Record Time       2025/01/13 21:20:05
Sampling Freq(Hz) 100Hz
Duration Time(s)  82
Dir.              N-S
Scale Factor      3920(gal)/6182761
Max. Acc. (gal)   3.731
Last Correction   2025/01/13 21:20:06
Memo.             
[...]
   -2758    -3735    -4794    -5595    -6035    -6228    -6246    -5954 
   -5316    -4667    -4217    -3677    -2898    -2276    -2133    -2359 
   -2753    -3070    -3088    -3055    -3463    -4322    -5190    -5649 
   -5473    -4733    -3779    -2950    -2499    -2541    -2863    -3082 
   -2994    -2660    -2251    -1886    -1643    -1627    -1871    -2327 
   -2926    -3470    -3745    -3813    -3860    -3899    -3799    -3550 
   -3298    -3090    -2909    -2831    -2844    -2920    -3227    -3849 
   -4580    -5096    -5108    -4526    -3577    -2737    -2334    -2123 
   -1681    -1068     -600     -392     -388     -464     -493     -494 
    -604     -876    -1209    -1538    -1973    -2448    -2498    -1899 
   -1106     -788    -1301    -2486    -3728    -4472    -4685    -4611 
   -4440    -4334    -4375    -4442    -4442    -4462    -4607    -4893 
   -5257    -5553    -5640    -5377    -4738    -4124    -4017    -4391 
   -4876    -5179    -5246    -5151    -4850    -4296    -3637    -3049 
   -2556    -2192    -2049    -2040    -1939    -1711    -1542    -1618 
   -2047    -2908    -4123    -5231    -5624    -5251    -4663    -4318 
   -4267    -4290    -4139    -3819    -3459    -3083    -2809    -2829 
   -3111    -3507    -3946    -4277    -4404    -4683    -5535    -6701 
   -7472    -7438    -6705    -5655    -4636    -3784    -3077    -2495 
   -2067    -1792    -1646    -1556    -1350     -996     -779     -957 
   -1420    -1936    -2505    -3176    -3789    -4213    -4509    -4720 
   -4800    -4793    -4841    -5046    -5409    -5849    -6200    -6332 
   -6251    -5967    -5370    -4374    -3248    -2547    -2472    -2658 
   -2739    -2711    -2744    -3017    -3620    -4402    -5099    -5513 
   -5467    -4933    -4207    -3634    -3263    -2998    -2845    -2720 
   -2436    -2109    -2087    -2454    -2949    -3255    -3240    -3046 
   -3018    -3412    -4003    -4221    -3797    -3000    -2314    -2085 
   -2176    -2150    -1963    -1888    -1907    -1917    -2043    -2263 
   -2388    -2475    -2738    -3229    -3830    -4308    -4420    -4143 
   -3716    -3358    -3185    -3240    -3384    -3408    -3252    -2949 
   -2560    -2248    -2248    -2660    -3269    -3724    -3919    -4002 
   -4109    -4267    -4370    -4250    -3933    -3607    -3257    -2659 
   -1720     -675      -94     -468    -1545    -2546    -3095    -3352 
   -3511    -3664    -3872    -4074    -4102    -3900    -3574    -3240 
   -2997    -2922    -2941    -2908    -2735    -2434    -2229    -2452 
   -3079    -3680    -3910    -3790    -3533    -3355    -3375    -3509 
   -3518    -3265    -2774    -2102    -1351     -693     -251      -48 
     -92     -372     -802    -1303    -1858    -2415    -2857    -3117 
   -3346    -3792    -4461    -5182    -5826    -6193    -6123    -5767 
   -5401    -5148    -5009    -4887    -4659    -4302    -3813    -3286 
   -3041    -3240    -3693    -4195    -4585    -4683    -4606    -4796 
   -5418    -6015    -6061    -5541    -4826    -4316    -4220    -4419 
   -4598    -4692    -4955    -5488    -6036    -6353    -6407    -6287 
   -6140    -6059    -5891    -5401    -4573    -3537    -2463    -1669 
   -1438    -1740    -2368    -3099    -3602    -3606    -3234    -2874 
   -2783    -2920    -3089    -3123    -2976    -2688    -2290    -1802 
   -1288     -812     -487     -538     -976    -1413    -1589    -1684 
   -1902    -2248    -2706    -3178    -3366    -3147    -2918    -3136 
   -3710    -4213    -4324    -3957    -3424    -3258    -3520    -3730 
   -3562    -3141    -2716    -2493    -2655    -3173    -3813    -4491 
   -5251    -5946    -6337    -6412    -6355    -6371    -6509    -6568 
   -6341    -5882    -5411    -5023    -4574    -3945    -3224    -2550 
   -2053    -1811    -1723    -1641    -1598    -1720    -2027    -2322 
   -2330    -2007    -1662    -1721    -2338    -3200    -3830    -4047 
   -4012    -4003    -4288    -4913    -5543    -5784    -5577    -5020 
   -4154    -3166    -2421    -2165    -2500    -3345    -4114    -4119 
   -3413    -2603    -2053    -1879    -2186    -2737    -3078    -3190 
   -3222    -2976    -2474    -2309    -2800    -3471    -3705    -3332 
   -2583    -1893    -1611    -1728    -1975    -2116    -2028    -1677 
   -1225     -994    -1294    -2244    -3619    -4954    -5893    -6389 
   -6595    -6651    -6549    -6167    -5472    -4683    -4011    -3489 
   -3298    -3679    -4434    -5138    -5543    -5533    -5199    -4929 
   -5052    -5465    -5728    -5473    -4685    -3623    -2618    -2013 
   -2070    -2803    -3893    -4807    -5121    -4770    -4019    -3340 
   -3093    -3201    -3335    -3257    -2901    -2463    -2364    -2811 
   -3521    -4063    -4216    -3955    -3524    -3350    -3539    -3753 
   -3647    -3112    -2290    -1503     -912     -444     -167     -180 
    -381     -788    -1501    -2227    -2533    -2431    -2228    -2142 
   -2348    -2979    -3773    -4208    -4067    -3436    -2493    -1695 
   -1488    -1670    -1750    -1684    -1697    -1887    -2271    -2794 
   -3224    -3328    -3107    -2724    -2359    -2262    -2668    -3530 
   -4490    -5096    -5107    -4708    -4340    -4161    -3997    -3871 
   -3970    -4163    -4207    -4122    -3939    -3619    -3406    -3611 
   -4141    -4650    -4869    -4707    -4281    -3807    -3491    -3499 
   -3850    -4347    -4740    -4874    -4689    -4190    -3515    -2994 
   -2948    -3415    -4158    -4932    -5667    -6420    -7208    -7902 
   -8268    -8140    -7508    -6527    -5489    -4646    -4096    -3821 
   -3562    -2920    -1932    -1169    -1017    -1237    -1395    -1315 
   -1090     -988    -1233    -1766    -2400    -3068    -3709    -4175 
   -4439    -4579    -4567    -4434    -4444    -4720    -5056    -5250 
   -5229    -4974    -4588    -4230    -3938    -3700    -3483    -3057 
   -2286    -1508    -1016     -671     -435     -489     -721     -854 
    -884     -835     -620     -504     -954    -1916    -2968    -3922 
   -4712    -5173    -5310    -5343    -5328    -5162    -4847    -4294 
   -3327    -2119    -1134     -620     -492     -516     -446     -217 
     -63     -289     -953    -1880    -2808    -3390    -3412    -3079 
   -2759    -2638    -2790    -3206    -3710    -4240    -4902    -5571 
   -5941    -5966    -5754    -5314    -4805    -4568    -4689    -4920 
   -4998    -4775    -4212    -3423    -2684    -2270    -2225    -2419 
   -2760    -3149    -3444    -3605    -3622    -3488    -3373    -3425 
   -3500    -3394    -3098    -2844    -3021    -3699    -4442    -4847 
   -4905    -4824    -4796    -4949    -5292    -5541    -5353    -4792 
   -4199    -3738    -3418    -3252    -3184    -3085    -2914    -2721 
   -2484    -2179    -1955    -1985    -2280    -2750    -3216    -3472 
   -3447    -3190    -2776    -2379    -2330    -2760    -3260    -3331 
   -2992    -2523    -2064    -1740    -1650    -1685    -1760    -2009 
   -2541    -3206    -3594    -3300    -2396    -1463    -1037    -1147 
   -1466    -1745    -1906    -1968    -2117    -2557    -3152    -3584 
   -3763    -3692    -3292    -2682    -2213    -2116    -2353    -2626 
   -2516    -1949    -1319     -943     -863    -1101    -1562    -1890 
   -1900    -1818    -1842    -1908    -2020    -2284    -2652    -3062 
   -3544    -3919    -3889    -3486    -3037    -2892    -3203    -3793 
   -4433    -5131    -5903    -6660    -7328    -7757    -7742    -7321 
   -6689    -5957    -5260    -4789    -4528    -4273    -3933    -3592 
   -3417    -3516    -3762    -3958    -4222    -4796    -5569    -6196 
   -6423    -6077    -5159    -4117    -3545    -3597    -4005    -4453 
   -4705    -4600    -4192    -3739    -3467    -3483    -3747    -4093 
   -4488    -5034    -5605    -5831    -5503    -4783    -3971    -3263 
   -2836    -2849    -3191    -3525    -3623    -3483    -3275    -3248 
   -3443    -3613    -3520    -3169    -2796    -2720    -3033    -3420 
   -3464    -3144    -2820    -2729    -2735    -2661    -2608    -2729 
   -2917    -3021    -3076    -3139    -3312    -3813    -4643    -5492 
   -6114    -6421    -6338    -5885    -5302    -4898    -4736    -4683 
   -4717    -4838    -4863    -4661    -4290    -3738    -2973    -2173 
   -1577    -1275    -1267    -1521    -1915    -2257    -2463    -2697 
   -3250    -4218    -5316    -6105    -6396    -6336    -6127    -5826 
   -5300    -4318    -2839    -1213       36      520      150     -750 
   -1637    -2186    -2407    -2475    -2614    -3027    -3802    -4808 
   -5655    -5922    -5513    -4657    -3590    -2508    -1712    -1462 
   -1684    -2083    -2444    -2618    -2466    -2181    -2280    -3038 
   -4248    -5446    -6146    -6027    -5151    -4033    -3278    -3025 
   -2944    -2683    -2143    -1495    -1051     -983    -1154    -1235 
    -994     -407      446     1363     1952     1803      792     -713 
   -2061    -2846    -3148    -3283    -3474    -3806    -4284    -4795 
   -5197    -5467    -5628    -5591    -5294    -4932    -4749    -4721 
   -4663    -4455    -4048    -3453    -2801    -2335    -2228    -2374 
   -2515    -2570    -2600    -2587    -2533    -2518    -2518    -2423 
   -2228    -2021    -1924    -2073    -2514    -3166    -3949    -4798 
   -5558    -6058    -6253    -6237    -6146    -6041    -5906    -5663 
   -5220    -4591    -3875    -3114    -2356    -1775    -1538    -1632 
   -1897    -2099    -2071    -1900    -1941    -2555    -3742    -5091 
   -6099    -6620    -6899    -7119    -7263    -7381    -7514    -7551 
   -7334    -6767    -5896    -4957    -4227    -3795    -3542    -3297 
   -3009    -2735    -2495    -2252    -2042    -2085    -2602    -3419 
   -4021    -4113    -3764    -3138    -2511    -2283    -2579    -3153 
   -3832    -4553    -5074    -5204    -5119    -5039    -4854    -4302 
   -3361    -2367    -1761    -1805    -2453    -3299    -3805    -3751 
   -3376    -3060    -2936    -2863    -2770    -2830    -3206    -3813 
   -4342    -4474    -4131    -3553    -3056    -2787    -2671    -2549 
   -2395    -2276    -2160    -1953    -1674    -1504    -1649    -2131 
   -2705    -3097    -3254    -3298    -3412    -3772    -4352    -4854 
   -5010    -4932    -4936    -5044    -4961    -4522    -3869    -3240 
   -2778    -2548    -2546    -2638    -2739    -2964    -3371    -3756 
   -3931    -3979    -4023    -3998    -3832    -3580    -3295    -3045 
   -3004    -3298    -3861    -4539    -5214    -5841    -6344    -6524 
   -6215    -5524    -4796    -4406    -4562    -5166    -5846    -6248 
   -6280    -6063    -5727    -5376    -5108    -4972    -5002    -5171 
   -5265    -5059    -4605    -4235    -4351    -5068    -6015    -6654 
   -6699    -6168    -5249    -4178    -3176    -2346    -1643    -1091 
    -798     -705     -701     -827    -1052    -1252    -1492    -1833 
   -2027    -1887    -1632    -1594    -1882    -2425    -3021    -3416 
   -3511    -3380    -3080    -2680    -2376    -2371    -2672    -3083 
   -3383    -3512    -3580    -3667    -3638    -3238    -2358    -1163 
       8      821     1005      526     -176     -487     -242      212 
     374      -89    -1021    -1841    -2141    -2024    -1784    -1583 
   -1492    -1530    -1706    -2049    -2493    -2796    -2768    -2480 
   -2099    -1687    -1294    -1024    -1007    -1411    -2252    -3233 
   -4105    -4859    -5474    -5941    -6327    -6541    -6392    -5911 
   -5314    -4838    -4657    -4746    -4865    -4782    -4395    -3719 
   -2838    -1870     -968     -310      -25      -94     -375     -727 
   -1067    -1332    -1494    -1657    -2014    -2721    -3826    -5195 
   -6481    -7333    -7688    -7706    -7530    -7273    -7022    -6711 
   -6163    -5293    -4124    -2684    -1159      -73       15     -966 
   -2545    -4064    -5033    -5351    -5271    -5099    -4909    -4608 
   -4267    -4068    -4033    -4164    -4520    -5022    -5514    -5912 
   -6203    -6538    -7157    -8031    -8810    -9156    -8936    -8185 
   -7026    -5694    -4506    -3649    -3070    -2599    -2056    -1382 
    -757     -503     -875    -1945    -3524    -5111    -6132    -6388 
   -6151    -5846    -5768    -5934    -6024    -5693    -4983    -4254 
   -3815    -3732    -3780    -3657    -3260    -2643    -1918    -1324 
   -1075    -1119    -1201    -1112     -854     -630     -704    -1158 
   -1781    -2213    -2190    -1745    -1210     -888     -793     -798 
    -889    -1193    -1836    -2773    -3722    -4307    -4291    -3687 
   -2758    -1881    -1347    -1262    -1592    -2206    -2931    -3656 
   -4343    -4961    -5506    -6031    -6529    -6911    -7049    -6858 
   -6360    -5593    -4564    -3365    -2241    -1473    -1204    -1436 
   -2035    -2676    -3072    -3297    -3636    -4162    -4592    -4538 
   -3858    -2741    -1591     -812     -548     -589     -646     -688 
    -941    -1575    -2553    -3716    -4777    -5363    -5353    -5053 
   -4820    -4769    -4892    -5128    -5317    -5342    -5247    -5115 
   -4968    -4779    -4545    -4298    -4069    -3854    -3572    -3213 
   -3005    -3155    -3553    -3931    -4092    -3946    -3550    -3083 
   -2678    -2375    -2254    -2364    -2574    -2669    -2523    -2099 
   -1476     -898     -583     -534     -660     -888    -1108    -1191 
   -1155    -1164    -1303    -1507    -1740    -2058    -2574    -3396 
   -4426    -5296    -5745    -5883    -5998    -6340    -7031    -7958 
   -8828    -9344    -9276    -8579    -7471    -6204    -4891    -3678 
   -2807    -2339    -2060    -1702    -1168     -566     -160     -196 
    -709    -1528    -2372    -2958    -3242    -3394    -3452    -3298 
   -2994    -2769    -2693    -2696    -2739    -2791    -2849    -2993 
   -3272    -3690    -4305    -5196    -6310    -7432    -8230    -8407 
   -7997    -7409    -7067    -7126    -7443    -7643    -7363    -6525 
   -5356    -4185    -3245    -2604    -2261    -2219    -2418    -2772 
   -3283    -3947    -4546    -4713    -4277    -3444    -2553    -1784 
   -1175     -755     -639    -1058    -2059    -3247    -4121    -4471 
   -4294    -3646    -2648    -1468     -340      424      683      657 
     624      632      557      215     -564    -1685    -2711    -3248 
   -3278    -2995    -2544    -1968    -1259     -470      220      655 
     864      993     1143     1305     1391     1279      894      286 
    -424    -1178    -1964    -2731    -3402    -3902    -4191    -4262 
   -4154    -3990    -3986    -4368    -5169    -6105    -6778    -6990 
   -6772    -6288    -5774    -5364    -4990    -4552    -4105    -3836 
   -3864    -4155    -4645    -5248    -5765    -5932    -5647    -5103 
   -4590    -4256    -4121    -4118    -4155    -4212    -4286    -4344 
   -4395    -4498    -4705    -5028    -5430    -5846    -6165    -6298 
   -6280    -6188    -6055    -5981    -6049    -6180    -6216    -6028 
   -5574    -4990    -4531    -4371    -4492    -4748    -5053    -5473 
   -6093    -6795    -7282    -7348    -6993    -6296    -5318    -4137 
   -2899    -1806    -1031     -677     -689     -801     -775     -624 
    -460     -319     -238     -338     -695    -1210    -1752    -2296 
   -2824    -3292    -3711    -4111    -4380    -4307    -3791    -2914 
   -1877     -977     -461     -331     -409     -569     -778    -1022 
   -1310    -1637    -1930    -2101    -2102    -1910    -1598    -1345 
   -1289    -1469    -1840    -2308    -2848    -3511    -4264    -4880 
   -5056    -4743    -4237    -3878    -3774    -3834    -3931    -4027 
   -4127    -4199    -4246    -4309    -4374    -4374    -4271    -4110 
   -3972    -3872    -3742    -3516    -3214    -2948    -2823    -2795 
   -2698    -2457    -2185    -1985    -1836    -1749    -1829    -2121 
   -2571    -3039    -3334    -3348    -3124    -2766    -2385    -2054 
   -1802    -1699    -1829    -2165    -2608    -3107    -3614    -4031 
   -4313    -4535    -4820    -5207    -5618    -5929    -6048    -5962 
   -5718    -5356    -4881    -4346    -3874    -3542    -3335    -3209 
   -3108    -3007    -2930    -2874    -2829    -2861    -3021    -3249 
   -3431    -3457    -3225    -2716    -2085    -1622    -1544    -1798 
   -2147    -2422    -2592    -2708    -2905    -3332    -3983    -4722 
   -5395    -5847    -5949    -5711    -5273    -4782    -4332    -3931 
   -3517    -3051    -2583    -2185    -1877    -1607    -1311    -1031 
    -907     -994    -1218    -1502    -1791    -2043    -2300    -2597 
   -2909    -3251    -3691    -4174    -4528    -4718    -4887    -5142 
   -5456    -5746    -5922    -5937    -5821    -5630    -5355    -4954 
   -4441    -3861    -3245    -2658    -2209    -2010    -2124    -2477 
   -2876    -3206    -3510    -3845    -4159    -4405    -4623    -4799 
   -4881    -4898    -4911    -4943    -5047    -5266    -5554    -5837 
   -6034    -6034    -5771    -5323    -4876    -4643    -4802    -5362 
   -6096    -6722    -7121    -7309    -7314    -7145    -6779    -6191 
   -5432    -4659    -4018    -3511    -3112    -2888    -2893    -3076 
   -3335    -3578    -3775    -3949    -4058    -4001    -3783    -3544 
   -3385    -3267    -3116    -2877    -2524    -2143    -1936    -2021 
   -2325    -2669    -2882    -2922    -2926    -3083    -3468    -4017 
   -4564    -4873    -4749    -4178    -3331    -2439    -1688    -1161 
    -806     -525     -289     -201     -441    -1077    -1898    -2562 
   -2879    -2901    -2793    -2682    -2615    -2559    -2410    -2126 
   -1839    -1687    -1660    -1683    -1755    -1907    -2126    -2355 
   -2543    -2671    -2788    -2956    -3146    -3274    -3289    -3211 
   -3114    -3071    -3051    -2927    -2667    -2408    -2293    -2318 
   -2393    -2455    -2500    -2613    -2868    -3140    -3223    -3096 
   -2875    -2639    -2488    -2527    -2720    -2941    -3191    -3572 
   -4059    -4507    -4813    -4933    -4867    -4642    -4283    -3884 
   -3621    -3598    -3742    -3867    -3826    -3647    -3529    -3628 
   -3893    -4155    -4319    -4398    -4473    -4663    -5002    -5374 
   -5637    -5694    -5499    -5076    -4521    -3977    -3563    -3317 
   -3217    -3215    -3220    -3136    -3006    -3003    -3186    -3447 
   -3623    -3572    -3320    -3111    -3197    -3619    -4199    -4662 
   -4828    -4732    -4525    -4296    -4049    -3792    -3588    -3474 
   -3398    -3290    -3165    -3109    -3171    -3322    -3483    -3579 
   -3583    -3473    -3216    -2874    -2581    -2396    -2328    -2411 
   -2622    -2816    -2881    -2847    -2799    -2814    -2960    -3214 
   -3451    -3551    -3479    -3301    -3157    -3136    -3196    -3207 
   -3090    -2880    -2669    -2549    -2599    -2821    -3124    -3391 
   -3546    -3559    -3478    -3409    -3385    -3354    -3295    -3242 
   -3236    -3328    -3536    -3805    -4052    -4234    -4353    -4413 
   -4419    -4366    -4252    -4120    -4044    -3997    -3867    -3639 
   -3390    -3119    -2787    -2478    -2356    -2530    -2999    -3644 
   -4231    -4577    -4733    -4868    -5039    -5174    -5185    -5034 
   -4771    -4491    -4240    -4045    -3955    -3982    -4062    -4071 
   -3913    -3590    -3177    -2818    -2666    -2721    -2842    -2897 
   -2815    -2627    -2476    -2493    -2705    -3084    -3568    -4049 
