Origin Time       2025/01/13 21:19:00
Lat.              31.8
Long.             131.6
Depth. (km)       30
Mag.              6.9
Station Code      KGS011
Station Lat.      31.5896
Station Long.     130.3490
Station Height(m) 18
Record Time       2025/01/13 21:19:54
Sampling Freq(Hz) 100Hz
Duration Time(s)  94
Dir.              E-W
Scale Factor      3920(gal)/6182761
Max. Acc. (gal)   12.821
Last Correction   2025/01/13 21:19:55
Memo.             
[...]
  -20019   -20601   -20928   -21046   -21138   -21340   -21555   -21685 
  -21904   -22480   -23391   -24362   -25244   -26020   -26505   -26494 
  -25999   -25137   -24169   -23280   -22396   -21602   -20965   -20339 
  -19939   -20032   -20356   -20721   -21349   -22202   -22809   -22919 
  -22408   -21044   -19213   -17764   -17010   -16816   -17092   -17746 
  -18608   -19584   -20485   -20833   -20338   -19315   -18255   -17379 
  -16800   -16613   -16802   -17298   -18035   -18901   -19769   -20652 
  -21525   -22154   -22576   -23057   -23372   -23256   -23100   -23125 
  -23057   -22967   -22986   -22845   -22616   -22636   -22917   -23416 
  -24063   -24684   -25247   -25614   -25424   -24652   -23762   -23114 
  -22552   -21757   -20794   -19910   -19157   -18595   -18248   -17965 
  -17696   -17518   -17461   -17531   -17760   -18112   -18415   -18652 
  -18867   -18793   -18373   -18098   -18213   -18544   -19107   -19937 
  -20772   -21410   -21769   -21725   -21315   -20714   -20073   -19598 
  -19430   -19640   -20344   -21535   -23051   -24595   -25837   -26765 
  -27362   -27310   -26528   -25203   -23492   -21804   -20664   -20142 
  -20088   -20506   -21168   -21628   -21831   -21869   -21532   -20787 
  -20060   -19686   -19619   -19806   -20126   -20208   -20025   -19821 
  -19532   -19091   -18525   -17803   -17181   -17053   -17528   -18502 
  -19727   -20920   -21917   -22576   -22681   -22145   -21168   -19934 
  -18556   -17380   -16859   -17262   -18459   -20048   -21757   -23361 
  -24544   -25157   -25402   -25624   -25845   -25868   -25665   -25248 
  -24659   -24152   -23855   -23534   -23042   -22568   -22119   -21459 
  -20665   -19935   -19248   -18680   -18288   -17885   -17436   -17154 
  -17029   -16909   -17016   -17613   -18554   -19767   -21180   -22290 
  -22796   -22862   -22692   -22333   -21689   -20753   -19591   -18438 
  -17817   -18002   -18795   -19833   -20800   -21594   -22267   -22871 
  -23397   -23735   -23922   -24177   -24421   -24290   -23621   -22535 
  -21313   -20284   -19566   -19093   -18852   -18847   -19034   -19354 
  -19605   -19513   -19024   -18318   -17668   -17274   -17119   -17030 
  -16903   -17027   -17659   -18449   -19000   -19253   -19228   -19188 
  -19479   -20095   -20948   -22005   -23009   -23683   -23956   -23820 
  -23281   -22440   -21627   -21315   -21640   -22362   -23269   -24149 
  -24789   -25133   -25032   -24396   -23503   -22602   -21804   -21356 
  -21429   -21878   -22477   -23012   -23116   -22596   -21806   -21139 
  -20650   -20318   -20094   -19902   -19750   -19578   -19259   -18870 
  -18553   -18256   -17984   -17951   -18315   -18983   -19756   -20553 
  -21265   -21653   -21704   -21584   -21394   -21252   -21149   -20978 
  -20856   -20893   -21007   -21047   -20803   -20189   -19390   -18673 
  -18344   -18495   -18725   -18764   -18834   -19036   -19179   -19147 
  -19044   -18948   -18891   -19061   -19543   -20337   -21536   -23021 
  -24392   -25193   -25202   -24686   -24094   -23532   -22998   -22757 
  -22850   -22977   -23178   -23618   -24048   -24273   -24360   -24164 
  -23491   -22476   -21293   -20075   -19180   -18850   -18936   -19266 
  -19745   -20103   -20075   -19767   -19423   -19004   -18450   -18060 
  -18040   -18190   -18468   -19026   -19731   -20393   -21072   -21615 
  -21529   -20772   -19774   -18766   -18072   -18034   -18418   -18963 
  -19712   -20547   -21286   -21872   -22216   -22278   -22249   -22481 
  -23090   -23840   -24625   -25461   -26091   -26371   -26435   -26177 
  -25365   -24188   -23023   -22062   -21558   -21675   -22176   -22773 
  -23261   -23428   -23231   -22766   -22226   -21787   -21447   -21196 
  -20978   -20636   -20232   -19941   -19823   -19824   -19705   -19359 
  -19033   -18928   -19089   -19491   -19862   -19903   -19619   -19112 
  -18482   -18005   -17926   -18207   -18684   -19296   -19946   -20390 
  -20517   -20347   -19803   -19086   -18644   -18502   -18511   -18815 
  -19421   -20078   -20679   -21216   -21511   -21464   -21359   -21389 
  -21423   -21649   -22301   -22979   -23385   -23571   -23320   -22663 
  -22178   -22137   -22395   -22926   -23698   -24472   -25143   -25714 
  -25895   -25436   -24432   -23030   -21389   -19790   -18401   -17250 
  -16550   -16533   -16978   -17452   -17992   -18887   -19974   -20908 
  -21565   -21781   -21471   -20886   -20156   -19151   -18037   -17214 
  -16854   -17030   -17718   -18531   -19179   -19808   -20389   -20748 
  -21143   -21821   -22623   -23443   -24286   -24844   -24732   -24042 
  -23094   -22085   -21199   -20598   -20250   -20047   -20075   -20364 
  -20637   -20757   -20812   -20727   -20374   -19787   -19162   -18820 
  -18957   -19546   -20520   -21746   -22855   -23351   -22993   -21982 
  -20664   -19390   -18598   -18511   -18879   -19426   -20162   -21044 
  -21927   -22700   -23226   -23404   -23271   -23048   -22933   -22972 
  -23310   -23997   -24820   -25569   -26046   -26152   -25911   -25337 
  -24542   -23581   -22609   -22040   -21869   -21822   -21793   -21370 
  -20286   -18972   -17834   -16993   -16584   -16619   -16920   -17367 
  -17871   -18267   -18607   -19045   -19570   -20138   -20577   -20633 
  -20275   -19750   -19454   -19502   -19637   -19668   -19608   -19620 
  -19874   -20426   -21321   -22397   -23348   -24130   -24642   -24559 
  -23923   -23062   -22248   -21724   -21507   -21401   -21312   -21411 
  -21899   -22557   -23050   -23295   -23183   -22668   -21997   -21423 
  -20858   -20059   -19085   -18176   -17403   -16808   -16504   -16524 
  -16806   -17238   -17629   -17777   -17732   -17813   -18293   -19299 
  -20687   -22109   -23429   -24615   -25485   -25850   -25758   -25611 
  -25628   -25568   -25337   -25048   -24703   -24357   -24189   -24255 
  -24370   -24330   -24052   -23420   -22372   -21063   -19717   -18527 
  -17770   -17566   -17539   -17295   -16920   -16583   -16366   -16503 
  -17082   -17766   -18337   -18851   -19129   -18981   -18638   -18403 
  -18336   -18325   -18215   -17952   -17609   -17304   -17151   -17186 
  -17305   -17515   -18013   -18729   -19393   -20162   -21352   -22709 
  -23723   -24317   -24644   -24780   -24892   -25041   -24981   -24493 
  -23663   -22611   -21325   -20067   -19243   -18835   -18805   -19306 
  -20115   -20874   -21432   -21730   -21982   -22495   -23133   -23596 
  -23872   -23991   -23991   -24148   -24624   -25042   -24896   -24177 
  -23098   -21796   -20591   -19735   -19235   -19145   -19275   -19138 
  -18681   -18324   -18179   -18088   -18188   -18464   -18580   -18579 
  -18661   -18714   -18802   -19156   -19526   -19437   -18907   -18185 
  -17444   -17058   -17254   -17793   -18572   -19599   -20412   -20507 
  -20187   -20074   -20265   -20672   -21351   -22117   -22714   -23273 
  -23897   -24299   -24587   -25349   -26496   -27420   -27968   -28229 
  -28067   -27333   -26094   -24471   -22551   -20560   -18688   -16944 
  -15412   -14312   -13856   -13930   -14185   -14594   -15306   -16151 
  -16801   -17143   -17335   -17733   -18641   -19976   -21291   -22204 
  -22563   -22429   -22109   -21856   -21728   -21915   -22565   -23469 
  -24339   -25061   -25616   -25890   -25767   -25477   -25343   -25370 
  -25640   -26528   -28021   -29556   -30813   -31783   -32283   -32205 
  -31641   -30678   -29518   -28391   -27183   -25539   -23369   -21002 
  -18547   -15805   -12962   -10380    -8165    -6703    -6565    -7618 
   -9217   -11061   -12952   -14434   -15481   -16353   -16865   -17039 
  -17307   -17688   -18062   -18546   -18969   -19103   -19334   -19991 
  -20566   -20610   -20509   -20801   -21618   -22858   -24320   -25865 
  -27592   -29492   -31047   -31740   -31756   -31583   -31380   -31200 
  -31275   -31642   -31908   -31609   -30526   -28815   -26885   -25020 
  -23331   -21896   -20776   -19963   -19222   -18201   -16751   -14903 
  -12854   -11053    -9870    -9351    -9529   -10538   -12204   -14091 
  -15919   -17452   -18522   -19269   -19777   -20010   -20133   -20284 
  -20508   -20731   -20526   -19613   -18277   -16988   -16034   -15550 
  -15727   -16684   -18250   -20185   -22333   -24556   -26684   -28508 
  -29858   -30686   -31126   -31334   -31391   -31289   -30778   -29589 
  -27765   -25513   -23000   -20412   -18059   -16224   -15042   -14676 
  -15147   -15969   -16438   -16261   -15676   -15125   -14938   -15130 
  -15468   -15774   -15993   -16038   -15752   -15177   -14649   -14372 
  -14248   -14219   -14417   -14891   -15466   -16153   -17034   -17563 
  -17208   -16381   -15804   -15833   -16588   -18001   -19938   -22326 
  -24900   -27158   -28722   -29564   -29882   -29945   -29996   -30095 
  -30048   -29813   -29609   -29321   -28691   -27989   -27461   -26928 
  -26319   -25555   -24277   -22480   -20689   -19226   -18034   -17118 
  -16541   -16161   -15889   -15879   -16054   -16156   -16291   -16624 
  -16942   -16973   -16598   -15834   -14989   -14269   -13424   -12413 
  -11565   -10937   -10449   -10355   -10850   -11750   -12898   -14329 
  -16019   -17922   -20148   -22721   -25351   -27698   -29486   -30465 
  -30800   -30984   -31214   -31513   -31770   -31550   -30705   -29594 
  -28458   -27197   -25724   -24287   -23242   -22708   -22579   -22611 
  -22456   -21955   -21354   -20952   -20720   -20485   -20381   -20668 
  -21125   -21340   -21277   -20970   -20374   -19749   -19373   -19012 
  -18489   -18120   -18146   -18671   -19791   -21091   -21862   -22040 
  -22054   -22058   -22081   -22212   -22241   -21884   -21322   -20675 
  -19685   -18772   -18738   -19345   -20114   -21183   -22300   -22931 
  -23193   -23375   -23437   -23522   -23861   -24221   -24421   -24589 
  -24564   -24290   -24228   -24528   -24764   -24587   -24009   -23218 
  -22193   -20821   -19241   -17733   -16772   -16764   -17546   -18718 
  -19866   -20503   -20360   -19470   -18192   -16977   -15925   -15214 
  -15330   -16288   -17565   -18774   -19623   -19826   -19405   -18598 
  -17644   -16841   -16530   -16939   -18073   -19711   -21440   -22866 
  -23793   -24080   -23697   -22794   -21532   -20233   -19513   -19768 
  -20800   -22110   -23284   -24187   -24763   -24793   -24285   -23543 
  -22791   -22318   -22341   -22734   -23428   -24348   -25145   -25609 
  -25685   -25125   -23908   -22443   -21022   -19815   -19170   -19362 
  -20269   -21470   -22506   -22961   -22634   -21646   -20275   -19057 
  -18512   -18604   -18977   -19345   -19583   -19600   -19133   -18189 
  -17224   -16449   -15750   -15018   -14059   -12850   -11879   -11651 
  -12131   -13085   -14457   -16016   -17470   -18971   -20732   -22542 
  -24064   -25226   -26164   -26850   -27117   -27037   -26814   -26599 
  -26462   -26382   -26454   -26658   -26496   -25750   -24955   -24607 
  -24828   -25544   -26349   -26792   -26859   -26698   -26279   -25719 
  -25271   -24841   -24125   -23013   -21545   -19728   -17630   -15492 
  -13523   -11759   -10230    -8959    -7890    -7087    -6772    -7006 
   -7571    -8414    -9767   -11518   -13359   -15410   -17644   -19643 
  -21446   -23378   -25301   -26821   -27785   -28263   -28356   -28256 
  -28056   -27655   -27188   -26883   -26690   -26570   -26533   -26410 
  -26137   -25843   -25603   -25612   -26040   -26743   -27606   -28499 
  -29040   -29021   -28561   -27764   -26581   -25001   -23196   -21493 
  -20135   -18991   -17792   -16644   -15809   -15185   -14569   -13881 
  -12953   -11853   -11075   -10897   -11097   -11307   -11332   -11246 
  -11302   -11712   -12367   -12911   -13438   -14563   -16511   -18995 
  -21753   -24525   -27038   -29234   -31103   -32413   -33078   -33412 
  -33679   -33893   -34057   -34243   -34526   -34856   -35097   -35090 
  -34540   -33260   -31562   -29903   -28352   -26800   -25289   -23865 
  -22427   -20835   -19114   -17451   -16066   -15112   -14516   -14030 
  -13527   -12954   -12144   -11173   -10436    -9939    -9366    -8865 
   -8765    -8973    -9441   -10326   -11424   -12330   -12909   -13133 
  -13056   -13095   -13719   -14939   -16617   -18719   -21006   -23168 
  -25062   -26474   -27292   -27785   -28224   -28598   -28758   -28599 
  -28178   -27744   -27346   -26594   -25294   -23774   -22432   -21591 
  -21410   -21684   -22014   -22145   -22100   -21809   -21116   -20187 
  -19240   -18480   -18306   -18798   -19590   -20502   -21498   -22344 
  -22956   -23279   -22908   -21757   -20327   -18983   -17774   -16837 
  -16397   -16394   -16602   -17051   -17693   -18161   -18307   -18178 
  -17793   -17488   -17582   -17947   -18429   -18884   -19027   -18752 
  -18116   -17096   -15730   -14195   -12657   -11210   -10056    -9458 
   -9560   -10614   -12739   -15437   -18149   -20651   -22749   -24336 
  -25476   -26166   -26366   -26284   -26259   -26357   -26390   -26295 
  -26136   -25741   -24955   -24065   -23378   -22936   -22766   -22814 
  -22914   -23012   -23120   -23153   -23085   -23026   -23013   -23074 
  -23410   -24111   -25013   -25961   -26985   -28019   -28696   -28841 
  -28655   -28344   -28117   -28156   -28381   -28584   -28703   -28730 
  -28478   -27753   -26581   -25042   -23192   -21198   -19277   -17451 
  -15586   -13789   -12525   -12102   -12297   -12650   -12830   -12859 
  -12998   -13273   -13508   -13706   -13992   -14406   -14974   -15660 
  -16105   -15970   -15433   -14784   -14138   -13798   -14023   -14753 
  -15990   -17740   -19758   -21840   -23893   -25834   -27683   -29507 
  -31417   -33532   -35745   -37737   -39319   -40511   -41181   -41065 
  -40082   -38331   -36102   -33827   -31547   -28930   -26130   -23669 
  -21692   -20112   -18917   -17967   -16880   -15416   -13740   -12075 
  -10532    -9298    -8588    -8440    -8668    -9027    -9504   -10190 
  -10864   -11259   -11326   -10990   -10474   -10329   -10709   -11407 
  -12296   -13296   -14428   -15808   -17396   -19040   -20658   -22271 
  -24040   -26148   -28529   -30775   -32300   -32914   -32908   -32335 
  -31144   -29730   -28502   -27514   -26681   -26008   -25432   -24589 
  -23292   -21792   -20257   -18739   -17397   -16332   -15507   -14889 
  -14585   -14687   -15063   -15587   -16254   -16962   -17658   -18263 
  -18542   -18602   -18702   -18800   -18895   -18968   -18898   -18769 
  -18783   -19163   -19965   -20912   -21860   -22804   -23492   -23843 
  -24110   -24344   -24482   -24634   -24904   -25245   -25524   -25731 
  -25831   -25584   -25055   -24524   -23871   -23024   -22236   -21497 
  -20650   -19844   -19309   -18960   -18563   -18030   -17261   -16274 
  -15388   -14807   -14538   -14656   -15223   -16151   -17252   -18431 
  -19672   -20891   -21927   -22609   -22873   -22819   -22634   -22502 
  -22522   -22727   -23071   -23419   -23705   -24005   -24352   -24732 
  -25141   -25560   -25960   -26161   -25990   -25625   -25269   -24817 
  -24181   -23430   -22613   -21743   -20945   -20437   -20303   -20456 
  -20788   -21136   -21261   -21060   -20643   -20160   -19782   -19654 
  -19793   -20210   -20956   -21898   -22749   -23400   -23814   -23840 
  -23473   -22837   -21951   -20839   -19708   -18899   -18610   -18792 
  -19266   -19813   -20333   -20735   -20763   -20292   -19446   -18432 
  -17616   -17420   -17946   -18932   -20075   -21178   -22169   -22999 
  -23460   -23429   -23086   -22698   -22435   -22306   -22172   -21966 
  -21866   -22038   -22334   -22590   -22756   -22625   -22103   -21423 
  -20665   -19784   -19020   -18634   -18632   -18855   -19068   -19180 
  -19259   -19233   -19061   -19052   -19414   -19937   -20407   -20803 
  -21172   -21492   -21679   -21695   -21569   -21384   -21152   -20848 
  -20595   -20433   -20360   -20536   -21002   -21613   -22169   -22517 
  -22586   -22325   -21998   -21996   -22210   -22370   -22490   -22560 
  -22496   -22412   -22491   -22770   -23176   -23604   -23887   -23890 
  -23642   -23083   -21997   -20578   -19366   -18586   -18139   -17848 
  -17648   -17680   -18008   -18471   -18871   -19059   -18954   -18585 
  -18068   -17481   -16817   -16129   -15615   -15312   -14942   -14241 
  -13254   -12416   -12185   -12549   -13247   -14218   -15486   -16969 
  -18559   -20179   -21711   -23035   -24186   -25302   -26392   -27385 
  -28291   -29099   -29766   -30209   -30194   -29628   -28781   -27882 
  -26936   -25906   -24833   -23827   -22963   -22277   -21717   -21123 
  -20492   -19881   -19201   -18407   -17557   -16816   -16475   -16680 
  -17304   -18181   -19097   -19634   -19498   -18810   -17831   -16802 
  -16081   -15903   -16128   -16393   -16421   -16311   -16366   -16659 
  -17142   -17894   -18933   -20095   -21192   -22148   -23054   -24073 
  -25247   -26501   -27710   -28743   -29472   -29740   -29552   -29190 
  -28784   -28137   -27223   -26267   -25373   -24564   -23920   -23448 
  -22976   -22235   -21135   -19889   -18856   -18288   -18250   -18770 
  -19771   -20928   -22016   -23010   -23709   -23905   -23650   -22973 
  -21835   -20425   -19049   -17905   -17223   -17250   -17895   -18786 
  -19649   -20365   -20820   -20886   -20565   -19984   -19260   -18592 
  -18188   -18032   -17963   -17990   -18298   -18960   -19914   -21036 
  -22028   -22682   -23134   -23451   -23458   -23163   -22827   -22581 
  -22501   -22712   -23049   -23285   -23585   -24119   -24674   -24976 
  -24965   -24621   -23996   -23359   -22961   -22807   -22752   -22643 
  -22401   -22036   -21566   -20930   -20100   -19173   -18314   -17588 
  -16890   -16107   -15311   -14698   -14352   -14221   -14311   -14650 
  -15245   -16039   -16846   -17591   -18308   -18855   -19108   -19203 
  -19390   -19817   -20357   -20840   -21323   -21742   -21918   -22070 
  -22383   -22623   -22834   -23273   -23765   -24204   -24768   -25288 
  -25568   -25904   -26490   -27032   -27223   -26971   -26192   -24958 
  -23644   -22522   -21614   -20929   -20404   -19847   -19197   -18618 
  -18209   -17787   -17177   -16488   -15886   -15406   -15065   -14845 
  -14740   -14909   -15485   -16319   -17209   -18139   -19062   -19901 
  -20766   -21714   -22613   -23402   -24096   -24631   -25010   -25436 
  -25920   -26050   -25727   -25331   -24948   -24492   -24055   -23620 
  -23242   -23266   -23766   -24255   -24289   -23927   -23312   -22421 
  -21322   -20078   -18783   -17839   -17494   -17534   -17776   -18104 
  -18282   -18279   -18280   -18275   -18208   -18295   -18628   -18922 
  -19137   -19635   -20457   -21239   -21786   -22061   -21893   -21259 
  -20334   -19209   -18195   -17811   -18092   -18689   -19404   -20034 
  -20337   -20414   -20541   -20731   -20949   -21360   -22003   -22695 
  -23370   -24070   -24654   -24945   -25009   -24840   -24282   -23430 
  -22531   -21682   -20998   -20625   -20487   -20385   -20200   -19856 
  -19350   -18868   -18695   -18943   -19357   -19624   -19695   -19562 
  -19258   -18920   -18505   -18031   -17845   -18094   -18602   -19316 
  -20246   -21235   -22149   -22970   -23527   -23648   -23382   -22754 
  -21933   -21405   -21428   -21867   -22542   -23373   -24113   -24429 
  -24405   -24221   -23816   -23350   -23052   -22929   -23008   -23200 
  -23255   -23106   -22871   -22628   -22303   -21814   -21174   -20456 
  -19882   -19680   -19820   -20110   -20439   -20707   -20702   -20403 
  -20063   -19730   -19245   -18650   -18042   -17427   -16794   -16096 
