Origin Time       2025/01/13 21:19:00
Lat.              31.8
Long.             131.6
Depth. (km)       30
Mag.              6.9
Station Code      KGS007
Station Lat.      31.8143
Station Long.     130.3032
Station Height(m) 4
Record Time       2025/01/13 21:20:00
Sampling Freq(Hz) 100Hz
Duration Time(s)  120
Dir.              E-W
Scale Factor      3920(gal)/6182761
Max. Acc. (gal)   14.745
Last Correction   2025/01/13 21:20:00
Memo.             
[...]
    1943     2184     2393     2652     2905     2971     2690     2114 
    1506     1033      677      393      136      -90     -174      -14 
     373      883     1439     2005     2495     2763     2748     2493 
    2110     1782     1636     1658     1794     1972     2119     2245 
    2362     2340     2038     1529     1047      826      933     1245 
    1606     1924     2191     2391     2487     2495     2436     2240 
    1818     1197      504      -69     -320     -209       79      303 
     342      301      408      761     1243     1652     1847     1789 
    1545     1252      978      708      405       54     -276     -453 
    -366      -27      445      963     1467     1829     1938     1821 
    1670     1703     1988     2471     3040     3524     3843     4107 
    4400     4648     4756     4732     4705     4816     5039     5187 
    5135     5022     5091     5394     5796     6162     6449     6659 
    6774     6755     6560     6179     5647     5049     4472     3906 
    3341     2916     2785     2881     2945     2786     2463     2154 
    1971     1913     1882     1783     1629     1496     1428     1452 
    1581     1758     1887     1902     1797     1594     1317     1020 
     746      521      346      194       86      113      325      677 
    1039     1285     1388     1393     1380     1415     1507     1655 
    1873     2191     2670     3328     4053     4669     5076     5320 
    5506     5621     5586     5439     5322     5299     5272     5154 
    4999     4876     4796     4742     4703     4631     4464     4195 
    3822     3340     2793     2196     1517      747      -38     -711 
   -1256    -1715    -2057    -2222    -2226    -2167    -2097    -1971 
   -1732    -1379     -953     -466       78      617     1044     1249 
    1226     1086      892      618      266     -108     -478     -871 
   -1245    -1459    -1379     -999     -402      323     1102     1954 
    2871     3643     4112     4362     4588     4919     5299     5557 
    5603     5611     5872     6426     7067     7612     8051     8505 
    8989     9315     9287     9001     8817     8957     9279     9380 
    9017     8330     7642     7210     7000     6763     6386     5953 
    5578     5288     5002     4611     4099     3593     3217     2936 
    2637     2262     1809     1272      639      -90     -888    -1608 
   -2040    -2130    -2019    -1895    -1872    -1952    -2098    -2270 
   -2418    -2501    -2533    -2546    -2490    -2299    -2034    -1786 
   -1556    -1314    -1049     -758     -483     -253      -33      232 
     618     1156     1790     2491     3273     4111     4926     5619 
    6142     6493     6621     6478     6167     5833     5509     5188 
    4883     4591     4376     4352     4499     4657     4751     4830 
    4900     4868     4604     4058     3351     2664     2055     1436 
     791      321      207      371      554      597      600      739 
     986     1154     1108      877      580      347      270      362 
     551      735      832      807      686      527      378      274 
     210      156       73      -61     -156      -81      199      626 
    1152     1806     2605     3462     4232     4778     5018     4949 
    4702     4502     4494     4645     4811     4944     5157     5571 
    6152     6715     7104     7302     7346     7205     6816     6246 
    5682     5284     5108     5100     5189     5330     5451     5490 
    5491     5527     5578     5573     5439     5176     4888     4633 
    4363     4047     3705     3400     3179     2986     2689     2239 
    1701     1156      716      494      483      546      542      478 
     479      601      783      914      904      730      401      -82 
    -660    -1165    -1425    -1410    -1206     -875     -398      197 
     755     1159     1451     1766     2176     2596     2914     3140 
    3364     3633     3934     4229     4464     4570     4456     4053 
    3413     2659     1914     1289      863      682      709      818 
     933     1095     1408     1913     2492     2942     3148     3104 
    2852     2483     2083     1656     1181      726      465      535 
     944     1568     2184     2662     2999     3182     3202     3069 
    2750     2244     1627      966      346      -98     -262     -153 
     133      470      782     1127     1609     2233     2904     3464 
    3781     3904     4000     4140     4289     4432     4579     4655 
    4544     4266     3983     3861     3943     4176     4476     4769 
    5034     5249     5363     5358     5298     5265     5269     5242 
    5099     4820     4495     4256     4159     4139     4063     3850 
    3505     3017     2361     1595      805       49     -582     -982 
   -1137    -1113     -989     -864     -815     -846     -964    -1202 
   -1592    -2116    -2686    -3186    -3505    -3565    -3355    -2888 
   -2174    -1301     -432      278      757      995     1026      923 
     787      699      694      814     1094     1550     2179     2930 
    3718     4467     5113     5610     5973     6208     6268     6178 
    6046     5972     6028     6180     6326     6425     6468     6409 
    6165     5695     5054     4429     4026     3858     3814     3822 
    3838     3881     4014     4228     4387     4385     4272     4100 
    3837     3470     3078     2816     2771     2953     3345     3850 
    4323     4667     4846     4857     4731     4492     4143     3705 
    3255     2954     2916     3066     3245     3346     3313     3163 
    2980     2798     2579     2347     2204     2214     2354     2550 
    2786     3106     3463     3703     3666     3271     2510     1491 
     425     -520    -1289    -1881    -2271    -2351    -2067    -1493 
    -759       40      854     1593     2134     2449     2643     2805 
    2880     2770     2553     2418     2441     2540     2550     2320 
    1857     1334      917      672      583      624      831     1225 
    1764     2374     2992     3600     4153     4586     4892     5073 
    5064     4821     4394     3864     3255     2551     1756      942 
     251     -191     -377     -357     -191        6      129      179 
     236      331      412      474      590      760      862      807 
     640      469      378      347      253       35     -233     -417 
    -385     -117      299      851     1570     2401     3198     3765 
    3959     3835     3595     3376     3194     3057     3037     3240 
    3700     4296     4842     5224     5449     5592     5714     5760 
    5594     5202     4743     4361     4066     3784     3504     3322 
    3369     3656     3940     3907     3525     3034     2692     2626 
    2782     3006     3212     3397     3534     3580     3533     3389 
    3105     2715     2381     2200     2115     2049     1951     1836 
    1830     1985     2195     2429     2797     3337     3923     4427 
    4832     5205     5595     5928     6037     5850     5506     5193 
    4979     4829     4635     4301     3887     3542     3320     3162 
    2995     2774     2490     2234     2109     2139     2302     2565 
    2873     3149     3345     3453     3480     3420     3223     2906 
    2555     2220     1921     1641     1332      949      496       93 
    -128     -164     -110      -14      126      273      398      538 
     762     1133     1657     2286     2928     3466     3806     3941 
    3950     3878     3729     3545     3339     3104     2858     2624 
    2406     2214     2106     2062     1925     1596     1184      865 
     702      632      557      497      608      931     1284     1485 
    1509     1456     1412     1436     1561     1774     2066     2413 
    2717     2891     2938     2942     3031     3244     3438     3455 
    3327     3222     3272     3447     3571     3520     3325     3111 
    2956     2816     2662     2598     2697     2886     3036     3054 
    2932     2751     2601     2523     2527     2614     2783     3019 
    3294     3581     3845     4078     4288     4427     4439     4323 
    4094     3813     3588     3413     3162     2761     2237     1669 
    1121      571       13     -455     -762     -952    -1091    -1200 
   -1234    -1115     -840     -490     -134      226      642     1139 
    1647     2079     2378     2467     2385     2285     2202     2141 
    2199     2374     2564     2786     3154     3649     4117     4441 
    4578     4576     4541     4540     4572     4614     4671     4736 
    4777     4810     4840     4760     4414     3735     2824     1899 
    1099      320     -552    -1381    -1931    -2044    -1692    -1064 
    -475      -56      276      583      794      845      820      860 
     983     1149     1345     1560     1812     2063     2195     2164 
    2007     1786     1585     1493     1603     1957     2469     2966 
    3404     3846     4218     4387     4380     4362     4466     4660 
    4762     4560     4038     3396     2819     2358     2043     1934 
    2057     2333     2543     2425     1978     1504     1225     1057 
     780      292     -309     -861    -1317    -1775    -2269    -2742 
   -3207    -3730    -4349    -5043    -5664    -5967    -5783    -5155 
   -4214    -3038    -1763     -593      371     1197     1990     2785 
    3557     4266     4885     5356     5541     5332     4789     4168 
    3800     3828     4075     4286     4378     4390     4397     4465 
    4642     4970     5415     5842     6167     6434     6740     7221 
    7937     8743     9423     9805     9825     9592     9206     8629 
    7824     6911     6152     5755     5733     5969     6350     6818 
    7421     8258     9223    10062    10727    11323    11825    12114 
   12158    12031    11814    11476    10962    10298     9466     8423 
    7281     6218     5308     4535     3893     3430     3198     3189 
    3381     3713     4053     4268     4285     4104     3756     3265 
    2670     2047     1563     1404     1457     1386     1121      952 
    1147     1630     2040     2166     2157     2366     3018     3948 
    4787     5357     5706     5951     6190     6416     6528     6514 
    6492     6497     6340     5790     4881     3961     3293     2801 
    2374     1994     1532      983      564      256     -173     -794 
   -1561    -2425    -3363    -4376    -5460    -6646    -7907    -9029 
   -9924   -10861   -12058   -13349   -14416   -15125   -15584   -15972 
  -16347   -16646   -16786   -16713   -16418   -15891   -15083   -14065 
  -12913   -11602   -10259    -9033    -7870    -6704    -5494    -4276 
   -3163    -2160    -1224     -297      727     1848     2989     4176 
    5500     6855     7931     8581     8985     9498    10408    11719 
   13187    14573    15848    17010    17897    18402    18565    18469 
   18227    17921    17511    16844    15805    14434    12927    11595 
   10606     9807     9040     8413     8071     7971     8010     8168 
    8486     8982     9544     9945     9953     9406     8280     6751 
    5164     3868     2956     2196     1298      139    -1216    -2619 
   -4049    -5556    -7038    -8321    -9348   -10204   -10946   -11475 
  -11629   -11337   -10654    -9661    -8469    -7300    -6321    -5485 
   -4663    -3791    -2860    -1922    -1091     -414      184      804 
    1472     2184     2994     3945     4961     5923     6752     7446 
    8099     8819     9624    10379    10905    11168    11289    11415 
   11602    11775    11815    11659    11309    10795    10132     9339 
    8498     7717     7034     6406     5777     5163     4656     4338 
    4223     4268     4391     4487     4447     4193     3704     3051 
    2340     1638      989      400     -121     -491     -666     -704 
    -676     -648     -655     -700     -767     -789     -709     -557 
    -420     -420     -595     -871    -1148    -1306    -1209     -806 
    -206      405      907     1200     1163      797      230     -421 
   -1088    -1727    -2253    -2542    -2576    -2503    -2474    -2487 
   -2397    -2050    -1392     -519      410     1403     2579     3936 
    5413     6932     8342     9520    10398    10941    11208    11317 
   11383    11483    11642    11844    12027    12137    12167    12145 
   12112    12078    12053    12106    12252    12368    12329    12091 
   11707    11297    10881    10338     9616     8783     7874     6840 
    5625     4214     2669     1151     -185    -1288    -2216    -3040 
   -3759    -4290    -4619    -4869    -5183    -5683    -6493    -7573 
   -8666    -9554   -10172   -10535   -10701   -10709   -10554   -10296 
  -10101   -10129   -10412   -10842   -11275   -11600   -11763   -11773 
  -11592   -11157   -10468    -9519    -8276    -6787    -5141    -3357 
   -1448      494     2313     3849     5018     5826     6306     6513 
    6515     6421     6385     6492     6769     7247     7907     8652 
    9309     9687     9679     9299     8643     7798     6849     5931 
    5149     4471     3736     2845     1854      872       -6     -725 
   -1311    -1819    -2246    -2574    -2816    -2919    -2776    -2417 
   -1965    -1450     -856     -221      397      945     1376     1673 
    1880     2086     2344     2667     3064     3550     4206     5156 
    6419     7901     9443    10866    12144    13351    14504    15602 
   16678    17834    19148    20541    21857    22966    23824    24528 
   25162    25636    25793    25571    25025    24206    23114    21774 
   20265    18646    16937    15155    13384    11749    10300     9029 
    7925     6913     5870     4679     3281     1768      304    -1045 
   -2350    -3725    -5196    -6667    -7999    -9168   -10291   -11447 
  -12614   -13775   -14954   -16151   -17264   -18109   -18571   -18744 
  -18841   -18982   -19096   -18992   -18545   -17791   -16857   -15878 
  -14903   -13911   -12880   -11708   -10258    -8527    -6612    -4627 
   -2725    -1059      376     1694     2872     3825     4673     5537 
    6354     7155     7985     8712     9365    10102    10918    11770 
   12588    13231    13657    13945    14077    13953    13570    12972 
   12194    11311    10372     9347     8262     7186     6103     4988 
    3888     2864     1957     1169      421     -390    -1296    -2217 
   -3038    -3720    -4314    -4858    -5294    -5523    -5519    -5355 
   -5163    -5026    -4898    -4693    -4401    -4078    -3784    -3536 
   -3332    -3158    -2996    -2839    -2679    -2535    -2469    -2517 
   -2605    -2609    -2434    -2048    -1499     -873     -288      168 
     568     1024     1554     2158     2810     3411     3872     4196 
    4449     4697     4980     5304     5653     5948     6122     6218 
    6347     6605     7042     7663     8465     9400    10348    11213 
   11971    12591    13009    13225    13311    13315    13242    13102 
   12889    12586    12204    11784    11395    11119    11012    11053 
   11143    11201    11186    11037    10672    10049     9202     8234 
    7245     6251     5203     4046     2792     1535      359     -737 
   -1798    -2825    -3800    -4727    -5575    -6291    -6840    -7193 
   -7385    -7492    -7566    -7639    -7691    -7693    -7661    -7577 
   -7434    -7262    -7093    -6964    -6889    -6832    -6722    -6482 
   -6062    -5437    -4595    -3553    -2327     -947      488     1857 
    3136     4366     5627     7002     8471     9933    11334    12709 
   14108    15554    17028    18486    19875    21043    21786    22014 
   21797    21309    20706    20012    19181    18153    16918    15537 
   14084    12633    11246     9924     8670     7520     6418     5213 
    3844     2364      841     -638    -1989    -3167    -4231    -5304 
   -6418    -7527    -8549    -9404   -10075   -10558   -10872   -11106 
  -11337   -11570   -11769   -11894   -11942   -11945   -11870   -11598 
  -11069   -10346    -9570    -8827    -8089    -7284    -6382    -5423 
   -4441    -3410    -2258     -914      595     2213     3890     5517 
    7001     8321     9431    10227    10620    10630    10352     9888 
    9344     8770     8126     7340     6428     5535     4797     4205 
    3678     3156     2557     1822      996      158     -640    -1364 
   -2015    -2666    -3412    -4255    -5142    -6033    -6846    -7456 
   -7784    -7847    -7694    -7411    -7178    -7083    -7046    -6966 
   -6751    -6312    -5609    -4707    -3757    -2803    -1789     -687 
     550     1966     3481     4926     6186     7263     8220     9091 
    9897    10681    11458    12208    12904    13498    13969    14359 
   14716    15060    15370    15607    15794    15935    15963    15899 
   15816    15717    15587    15420    15193    14839    14313    13643 
   12844    11938    10988    10031     9064     8089     7174     6378 
    5678     5043     4456     3863     3188     2401     1536      671 
    -135     -896    -1627    -2314    -3031    -3850    -4706    -5459 
   -6013    -6347    -6515    -6574    -6534    -6412    -6274    -6168 
   -6097    -6127    -6317    -6527    -6535    -6276    -5819    -5225 
   -4472    -3495    -2289     -933      495     2001     3613     5243 
    6681     7766     8521     9040     9373     9535     9520     9298 
    8867     8301     7710     7189     6777     6420     6052     5708 
    5409     5110     4808     4515     4227     3963     3754     3647 
    3669     3701     3564     3203     2654     1973     1209      347 
    -646    -1783    -2990    -4116    -5068    -5811    -6308    -6538 
   -6515    -6281    -5870    -5297    -4594    -3804    -2974    -2164 
   -1449     -853     -359      -17      122      142      195      352 
     580      806      982     1131     1313     1549     1848     2236 
    2734     3286     3813     4337     4937     5650     6413     7113 
    7726     8302     8825     9203     9390     9453     9416     9235 
    8939     8577     8137     7641     7147     6692     6311     6004 
    5720     5400     4979     4488     4035     3613     3243     3020 
    2870     2665     2388     2038     1608     1092      490     -164 
    -804    -1374    -1861    -2294    -2701    -3077    -3424    -3716 
   -3878    -3936    -3972    -3996    -4004    -3966    -3806    -3503 
   -3066    -2458    -1670     -789      109     1007     1889     2742 
    3584     4387     5100     5683     6059     6163     6030     5767 
    5491     5267     5044     4751     4396     4034     3722     3479 
    3276     3112     3009     2996     3112     3373     3781     4313 
    4878     5371     5741     5973     5999     5741     5209     4462 
    3529     2426     1250      162     -712    -1325    -1700    -1838 
   -1717    -1396     -999     -596     -208      157      555     1080 
    1727     2435     3191     4011     4845     5611     6323     6970 
    7438     7629     7485     7031     6404     5746     5133     4605 
    4229     4077     4148     4376     4666     4941     5176     5374 
    5555     5741     5955     6189     6384     6542     6713     6901 
    7068     7176     7215     7191     7131     7054     6915     6666 
    6333     5978     5609     5195     4765     4338     3893     3430 
    2959     2501     2086     1732     1430     1136      816      468 
