Origin Time       2025/01/13 21:19:00
Lat.              31.8
Long.             131.6
Depth. (km)       30
Mag.              6.9
Station Code      KGS019
Station Lat.      31.2776
Station Long.     130.3008
Station Height(m) 10
Record Time       2025/01/13 21:20:05
Sampling Freq(Hz) 100Hz
Duration Time(s)  82
Dir.              U-D
Scale Factor      3920(gal)/6182761
Max. Acc. (gal)   2.175
Last Correction   2025/01/13 21:20:06
Memo.             
[...]
     178     -598     -949     -255     1265     2239     1836      830 
     302      382      690      949      917      518       88      136 
     755     1344     1191      376     -227        5      740     1232 
    1118      595      226      547     1442     2039     1620      433 
    -668    -1026     -495      423      702     -112    -1082    -1047 
     -70      991     1471     1039      -51     -807     -505      478 
    1223     1047      -69    -1228    -1411     -651      299      902 
     876      239     -352     -201      483     1007     1096      665 
    -193     -695     -248      582     1071     1202      961      344 
      88      808     1796     2048     1616      907        8     -526 
      73     1283     1637      723     -436     -854     -271     1016 
    2048     1770      353     -756     -399     1060     2207     2128 
    1162      143     -361      -59      832     1418     1009       88 
    -317      -21      396      740     1137     1297      993      612 
     502      599      926     1499     1801     1353      554      209 
     597     1346     1843     1691      963      147     -145      372 
    1186     1362      658     -282     -851     -840     -174      713 
     769     -377    -1613    -1671     -649      454      998      842 
     143     -516     -504      202      966     1040      169    -1105 
   -1709    -1067      120      706      512      127     -109       32 
     846     1811     1798      783      -89     -256      -86      151 
     369      319      -10     -170       75      389      386      118 
      -9      243      555      473      -94     -902    -1318     -726 
     456     1042      678      132       92      668     1596     2200 
    1912     1098      608      724     1186     1558     1277      339 
    -234      282     1212     1606     1285      414     -476     -412 
     632     1378     1138      416     -373     -935     -714       39 
     240     -291     -903    -1491    -1814     -975      708     1509 
     968      394      465      682      910     1255     1068       32 
    -825     -620      227      913     1084      756      353      554 
    1534     2544     2667     1812      683      -85     -321       11 
     750     1297     1327     1204     1193     1277     1597     2009 
    2094     2009     2032     1785     1114      636      662      803 
     824      794      677      501      299      -75     -443     -433 
    -315     -485     -580     -289      -81     -274     -500     -431 
    -150      181      434      536      466       68     -681    -1116 
    -541      531      927      446     -232     -730     -846     -185 
     813      768     -577    -1665    -1374     -330      532      918 
     597     -308     -826     -361      612     1416     1341      -61 
   -1612    -1384      341     1298      687     -380    -1402    -2250 
   -1699      643     2632     2417     1083      487      742     1296 
    1965     2168     1422      430       90      362      749      776 
     318      111      820     1690     1685     1190     1078     1259 
    1251     1070      911      602      -32     -533     -345      219 
     563      648      480      105      115      505      197     -850 
   -1342    -1108     -849     -264      730      982      249     -196 
     166      571      634      742      891      565     -101     -372 
    -117      222      525      714      303     -517     -529      579 
    1592     1732     1493     1358     1151      834      839     1220 
    1403     1085      643      317      -85     -394     -304     -259 
    -684    -1126    -1078     -643      -38      494      539      188 
     125      595     1177     1409     1004       10     -825     -535 
     706     1461      917      -28     -204      378     1116     1698 
    1815     1212      377       29      262      785     1141      711 
    -568    -1630    -1317       20     1015     1190      932      138 
   -1206    -1916     -995      672     1397      748     -427    -1218 
   -1178     -334      755     1332     1132      595      330      560 
    1100     1511     1321      459     -474     -719     -249      283 
     399      122     -275     -470     -235      329      729      532 
     -59     -438     -389     -295     -482     -750     -780     -560 
    -203      147      137     -436     -939     -376     1092     2023 
    1592      615      307      901     1769     2326     2321     1491 
     -52    -1153     -712      643     1361     1165      924      868 
     754     1000     1824     2458     2323     1744     1261     1195 
    1583     1958     1699      985      651     1023     1719     2305 
    2354     1492      126     -534      179     1507     2078     1224 
    -459    -1641    -1436      -80     1456     2116     1359      -97 
    -564      567     1884     1947      874     -538    -1602    -1525 
     -79     1496     1528       15    -1315    -1109      379     1889 
    2216     1154     -313    -1055     -740      289     1271     1160 
    -321    -1810    -1827     -659      461      941      730       28 
    -441       -7      991     1571     1309      620      105      206 
    1062     2106     2387     1594      335     -521     -361      761 
    1726     1319     -192    -1532    -1932    -1198      422     1709 
    1313     -370    -1478     -970      616     2284     3027     1944 
    -404    -1781    -1023      509     1289     1172      264    -1068 
   -1515     -583      366      287     -418    -1154    -1392     -464 
    1227     2102     1559      695      439      717     1278     1711 
    1355      334     -338     -235       69      144      -34     -409 
    -520       63      773      724       71     -315     -146      163 
     334      373      104     -584    -1149    -1011     -467     -185 
    -264     -305       43      629      841      453       63      166 
     496      822     1260     1536     1293      915      858      877 
     621      157     -289     -556     -534     -234       60      -74 
    -667    -1194    -1199     -736      -84      460      636      578 
     635      740      693      601      521      374      255      387 
     837     1367     1582     1331      877      567      527      722 
    1022     1197     1072      612      -18     -396     -259       17 
     -20     -278     -555     -876    -1210    -1364    -1083     -249 
     821     1441     1173      475      305      957     1796     2200 
    2097     1581      823      399      740     1391     1615     1325 
     894      715     1235     2422     3271     2964     1981     1282 
    1296     1830     2206     1811      843        0     -329      -89 
     522      777       83     -965    -1327     -954     -422       18 
     170     -105     -201      473     1343     1574     1144      337 
    -549     -942     -602      -82      128       73     -235     -706 
    -699       57      717      638      317      200      107       86 
     320      493      324       57      -33      108      560     1166 
    1365      883      215      -20      220      613      945     1065 
     720      -79     -757     -725     -124      428      632      501 
      78      -97      739     2134     2762     2342     1673     1234 
    1110     1423     1805     1481      400     -710    -1253    -1055 
    -400        7     -264     -920    -1462    -1710    -1604    -1075 
    -506     -531    -1044    -1310    -1036     -520      -82       32 
    -333     -852     -895     -403      135      422      382       69 
    -103      184      648      916      972      817      363      -54 
     157      830     1104      700      251      429     1257     2171 
    2567     2251     1537     1090     1360     2056     2413     1859 
     567     -546     -577      552     2013     2744     2403     1654 
    1305     1466     1874     2365     2527     1849      658     -169 
    -401     -281      164      684      593     -226     -959     -961 
    -421      160      391      143     -376     -912    -1240    -1015 
    -327      -15     -588    -1303    -1197     -482       12       27 
    -187     -364     -335     -129       28     -105     -610    -1198 
   -1369    -1016     -534     -283     -239     -110      270      727 
     954      864      629      416      335      482      683      533 
     -55     -601     -559      -30      414      498      329       40 
    -173      -72      342      768      890      669      417      468 
     737      919     1054     1247     1260     1074     1083     1351 
    1605     1806     1955     1787     1354     1179     1333     1377 
    1220      940      509      321      768     1311     1167      464 
    -205     -555     -412      193      620      290     -461     -953 
    -995     -711     -288      -90     -411    -1073    -1519    -1305 
    -462      506      967      678       16     -345      -20      750 
    1377     1465      946      115     -284      250     1115     1294 
     601     -343     -809     -491      225      667      579      151 
    -347     -580     -269      327      635      555      488      751 
    1364     2150     2756     2818     2323     1674     1400     1720 
    2271     2525     2453     2350     2243     2097     2160     2400 
    2401     2120     1801     1388      800      256     -180     -674 
   -1117    -1283    -1306    -1384    -1367    -1045     -508      -35 
     211      323      470      636      687      575      398      370 
     562      842     1135     1357     1296     1022      930     1115 
    1258     1132      789      435      349      620      942     1018 
     866      500      -17     -292     -148     -103     -567    -1129 
   -1274    -1034     -580     -101      -71     -707    -1431    -1583 
   -1211     -803     -757    -1161    -1643    -1699    -1381    -1079 
    -713      -14      734     1077     1028      832      713      899 
    1338     1625     1486     1009      485      418     1285     2634 
    3043     1856      208     -359      340     1260     1492      993 
     288      -59      267     1189     2095     2251     1681     1045 
     708      630      873     1368     1532     1092      723      949 
    1338     1397     1252     1098      868      647      693      891 
     842      458     -120     -799    -1389    -1659    -1586    -1285 
    -951     -830     -899     -950     -986     -988     -643       48 
     468      269     -123     -277     -255     -193      -35      138 
      65     -152      -24      542     1036     1041      622      151 
      89      681     1608     2175     1970     1310      952     1314 
    1998     2209     1714     1050      718      789     1243     1877 
    2118     1736     1244     1016      900      962     1418     1775 
    1394      669      406      646     1016     1375     1505     1066 
     209     -404     -324      313      955      944      146     -673 
    -719      -64      779     1350     1209      419     -176      121 
    1063     1838     1835     1139      380      100      367      853 
    1118      984      588      126     -151       67      550      567 
      15     -512     -680     -462       62      396       78     -558 
    -869     -702     -215      367      675      543      211      -54 
     -88      181      499      496      109     -473     -900     -781 
    -207      297      449      329       97       95      672     1523 
    1896     1607     1074      626      461      658      964     1107 
    1073      856      501      313      427      532      420      250 
     120      -26      -89       81      369      472      232     -189 
    -445     -357      -71       53     -251     -774    -1014     -865 
    -566     -138      316      332      -83     -216      253      877 
    1263     1302      852       90     -347     -167      298      634 
     558       -7     -667     -766      -97      794     1138      669 
    -262     -873     -466      652     1356     1114      345     -343 
    -418      391     1523     1963     1524     1012     1102     1790 
    2582     2754     2028     1074      794     1294     1869     1779 
     993      209      102      658     1294     1506     1205      655 
     328      489      809      830      523      109     -138       88 
     737     1134      694     -306    -1145    -1440    -1225     -778 
    -530     -781    -1287    -1417     -901     -133      331      285 
    -164     -728     -992     -673       10      400      185     -140 
     -98       47       68      252      605      724      589      527 
     585      532      398      500      739      538     -150     -566 
    -333        6       53       23      -60     -357     -533     -149 
     614     1205     1325     1134     1039     1292     1857     2503 
    2825     2534     1937     1634     1796     2143     2307     2041 
    1394      752      567      917     1433     1697     1505      922 
     314      172      677     1428     1782     1499      879      433 
     561     1170     1616     1419      816      354      331      712 
    1129     1152      882      743      727      628      540      390 
    -177     -958    -1260    -1028     -959    -1310    -1647    -1871 
   -2245    -2459    -2126    -1796    -2032    -2339    -2183    -1877 
   -1705    -1548    -1541    -1824    -2018    -1903    -1861    -2214 
   -2742    -3015    -2926    -2682    -2312    -1716    -1175    -1073 
   -1175    -1007     -651     -392     -111      286      557      734 
    1247     2151     2903     3056     2696     2288     2297     2804 
    3391     3552     3186     2647     2404     2691     3300     3735 
    3736     3452     3105     2830     2758     2801     2555     1898 
    1256      876      618      528      717      880      770      732 
    1100     1590     1789     1700     1491     1279     1307     1691 
    2017     1764      999      302      110      446     1023     1303 
     856      -74     -830    -1117    -1067     -921     -937    -1215 
   -1566    -1703    -1528    -1220    -1033     -949     -722     -485 
    -718    -1303    -1549    -1293     -966     -732     -524     -518 
    -779     -968     -901     -760     -510       28      531      639 
     680     1014     1389     1569     1758     2018     2067     1888 
    1791     1928     2325     2890     3174     2804     2010     1321 
    1059     1288     1792     2028     1558      618     -154     -487 
    -459      -77      459      585      102     -473     -630     -357 
     192      783      926      458       -7       52      377      609 
     803      847      437     -128     -221       75      129     -298 
    -843    -1120    -1079     -801     -419     -347     -912    -1661 
   -1836    -1447    -1044     -867     -917    -1136    -1210     -847 
    -242      146      127      -97     -152      152      607      899 
     918      729      615      994     1781     2208     1855     1215 
     736      428      516     1167     1782     1628      827       87 
     -95      394     1243     1766     1650     1197      663      216 
     205      673     1112     1207     1115      859      408      199 
     542      925      796      359       14     -147      -51      314 
     697      839      644      183     -223     -255        7      233 
     257      167       92       51       31       91      339      730 
     994      905      552      260      288      568      805      872 
     820      640      457      598     1028     1203      838      347 
     210      448      859     1151     1061      742      624      882 
    1237     1167      456     -398     -622     -137      322      194 
    -295     -646     -626     -213      401      789      752      583 
     619      873     1146     1167      813      405      350      574 
     787      878      781      639      959     1852     2567     2396 
    1576      887      825     1248     1556     1339      788      290 
      81      370     1035     1308      694     -152     -317      178 
     707      813      255     -777    -1385     -900      135      704 
     471     -279    -1008    -1037     -215      679      949      740 
     388      114      259      792     1099      859      452      285 
     395      724     1211     1662     1864     1734     1379     1125 
    1190     1360     1385     1327     1226     1039      986     1257 
    1541     1475     1156      815      512      369      545      847 
     874      590      322      227      155        9      -61       31 
      45     -234     -643     -881     -858     -651     -359     -147 
    -222     -532     -682     -424       19      334      386       72 
    -516     -864     -602      -16      402      406      -13     -463 
    -408      114      603      708      341     -299     -693     -472 
     137      589      484     -212    -1053    -1373     -962     -334 
    -130     -429     -840    -1074    -1044     -713     -385     -631 
   -1351    -1745    -1496    -1002     -590     -382     -492     -721 
    -617     -207       15     -177     -588     -920     -913     -525 
     -44      214      140     -194     -468     -250      382      750 
     493      119      212      617      890      956      890      695 
     551      719     1173     1583     1634     1307      914      865 
    1273     1775     1833     1310      675      481      854     1551 
    2128     2131     1563     1035     1104     1684     2281     2411 
    1855      910      280      456     1250     1912     1763      967 
     458      757     1408     1801     1764     1358      837      628 
     939     1512     1782     1377      628      238      380      635 
     668      387     -127     -513     -370      209      688      701 
     348       47      101      312      316      140       -8     -124 
    -167      115      773     1430     1679     1497     1221     1181 
    1450     1884     2175     2034     1547     1104      924      980 
    1211     1449     1393      964      404      -54     -308     -384 
    -487     -742     -956     -985     -941     -923     -902     -856 
    -840     -871     -873     -836     -817     -708     -380       54 
     359      496      585      617      609      810     1242     1512 
    1464     1347     1302     1305     1408     1539     1401      946 
     590      686     1093     1391     1238      566     -288     -818 
    -783     -364      -79     -437    -1322    -1970    -1787     -951 
    -189      -72     -532    -1066    -1210     -758       84      677 
     583      180       96      320      502      558      515      336 
     164      233      489      651      611      504      479      542 
     609      628      675      854     1078     1163     1103     1067 
    1194     1473     1762     1856     1628     1218      892      755 
     811     1017     1164     1083      880      725      657      665 
     753      839      804      649      555      671      874      908 
     745      543      359      191       68      -85     -328     -506 
    -428      -77      384      654      533      250      168      232 
     194       92       27     -112     -282     -202       53       60 
