Origin Time       2025/01/13 21:19:00
Lat.              31.8
Long.             131.6
Depth. (km)       30
Mag.              6.9
Station Code      KGS010
Station Lat.      31.7123
Station Long.     130.2735
Station Height(m) 16
Record Time       2025/01/13 21:19:56
Sampling Freq(Hz) 100Hz
Duration Time(s)  147
Dir.              E-W
Scale Factor      7845(gal)/8223790
Max. Acc. (gal)   14.062
Last Correction   2025/01/13 21:19:57
Memo.             
[...]
     974     1548     2165     2741     3261     3726     4136     4517 
    4870     5159     5368     5468     5375     5094     4769     4468 
    4125     3667     3103     2494     1907     1381      965      693 
     526      373      183      -54     -326     -641    -1035    -1526 
   -2127    -2841    -3620    -4401    -5135    -5813    -6457    -7076 
   -7619    -8010    -8229    -8298    -8203    -7943    -7516    -6920 
   -6249    -5617    -4962    -4280    -3751    -3393    -3075    -2806 
   -2620    -2413    -2118    -1790    -1505    -1271    -1034     -753 
    -450     -145      179      499      729      849      924     1020 
    1123     1165     1116      972      718      375      -51     -577 
   -1177    -1794    -2393    -2933    -3356    -3632    -3773    -3824 
   -3816    -3708    -3431    -3025    -2581    -2120    -1624    -1047 
    -368      361     1096     1825     2513     3154     3793     4407 
    4908     5269     5503     5670     5809     5830     5698     5564 
    5498     5387     5215     5065     4893     4585     4091     3402 
    2496     1356       58    -1329    -2809    -4348    -5872    -7311 
   -8635    -9829   -10820   -11556   -12085   -12469   -12721   -12795 
  -12622   -12205   -11618   -10885   -10045    -9150    -8236    -7372 
   -6628    -6035    -5568    -5157    -4730    -4244    -3782    -3422 
   -3145    -2940    -2779    -2586    -2320    -2027    -1788    -1614 
   -1502    -1498    -1605    -1749    -1826    -1768    -1582    -1314 
   -1019     -766     -602     -503     -429     -380     -360     -329 
    -268     -226     -261     -367     -471     -569     -672     -716 
    -692     -665     -680     -741     -832     -942    -1059    -1200 
   -1352    -1445    -1486    -1533    -1576    -1590    -1571    -1501 
   -1385    -1235     -989     -619     -201      189      521      746 
     843      862      851      847      888      977     1119     1323 
    1609     1948     2262     2521     2706     2794     2795     2717 
    2565     2355     2093     1741     1247      614     -101     -839 
   -1557    -2188    -2693    -3100    -3411    -3580    -3657    -3743 
   -3838    -3889    -3924    -3996    -4060    -4027    -3928    -3836 
   -3719    -3559    -3433    -3422    -3501    -3580    -3588    -3458 
   -3186    -2852    -2479    -2029    -1468     -812     -156      436 
     966     1435     1842     2168     2392     2484     2416     2249 
    2027     1764     1468     1112      710      290     -194     -758 
   -1328    -1807    -2143    -2311    -2328    -2269    -2191    -2099 
   -2000    -1922    -1869    -1858    -1907    -2029    -2270    -2655 
   -3117    -3554    -3906    -4162    -4297    -4297    -4233    -4209 
   -4206    -4178    -4185    -4276    -4401    -4488    -4529    -4529 
   -4513    -4554    -4696    -4880    -5059    -5224    -5335    -5375 
   -5367    -5294    -5130    -4878    -4560    -4190    -3765    -3257 
   -2635    -1912    -1134     -338      436     1201     1995     2789 
    3543     4276     4972     5572     6053     6385     6556     6619 
    6646     6664     6651     6558     6327     5940     5414     4766 
    4031     3208     2277     1254      167     -961    -2092    -3222 
   -4429    -5749    -7068    -8260    -9308   -10183   -10820   -11206 
  -11395   -11434   -11346   -11129   -10750   -10180    -9452    -8622 
   -7732    -6844    -5973    -5086    -4205    -3400    -2731    -2218 
   -1836    -1536    -1382    -1467    -1756    -2162    -2542    -2740 
   -2725    -2519    -2170    -1756    -1337     -966     -653     -418 
    -297     -267     -298     -376     -472     -553     -602     -600 
    -562     -487     -356     -197      -47       97      259      473 
     768     1147     1607     2123     2658     3249     3863     4396 
    4831     5138     5254     5219     5088     4837     4459     4000 
    3483     2934     2388     1856     1352      870      390      -95 
    -558     -972    -1356    -1730    -2108    -2540    -3056    -3636 
   -4249    -4881    -5508    -6060    -6489    -6809    -7038    -7195 
   -7296    -7326    -7267    -7078    -6704    -6145    -5414    -4522 
   -3549    -2569    -1599     -693      101      808     1452     2006 
    2424     2716     2862     2856     2797     2743     2702     2682 
    2636     2527     2343     2091     1852     1691     1575     1435 
    1251     1017      741      479      276      103      -95     -341 
    -653    -1082    -1634    -2257    -2895    -3492    -3987    -4374 
   -4666    -4868    -4968    -4953    -4857    -4753    -4672    -4623 
   -4599    -4549    -4444    -4284    -4106    -3963    -3846    -3736 
   -3677    -3712    -3839    -4017    -4234    -4464    -4641    -4741 
   -4776    -4708    -4529    -4268    -3893    -3399    -2868    -2354 
   -1903    -1591    -1366    -1144     -966     -859     -826     -886 
   -1003    -1107    -1188    -1251    -1285    -1287    -1236    -1085 
    -834     -525     -172      191      513      780      981     1097 
    1154     1188     1197     1189     1179     1173     1205     1300 
    1410     1476     1436     1267     1001      672      288     -122 
    -519     -861    -1107    -1279    -1424    -1530    -1590    -1607 
   -1551    -1386    -1127     -805     -433      -43      321      637 
     858      961      958      869      699      457      140     -251 
    -675    -1070    -1401    -1671    -1907    -2084    -2182    -2232 
   -2234    -2199    -2158    -2135    -2145    -2170    -2209    -2278 
   -2376    -2486    -2585    -2689    -2818    -2959    -3094    -3225 
   -3346    -3461    -3574    -3655    -3667    -3607    -3511    -3434 
   -3445    -3572    -3800    -4117    -4521    -5012    -5548    -6026 
   -6405    -6681    -6851    -6951    -6966    -6863    -6632    -6243 
   -5724    -5144    -4517    -3797    -2976    -2099    -1209     -311 
     594     1486     2344     3136     3824     4418     4941     5368 
    5656     5778     5742     5587     5339     5015     4619     4135 
    3555     2899     2172     1374      537     -319    -1181    -2019 
   -2835    -3674    -4591    -5552    -6486    -7345    -8043    -8517 
   -8760    -8770    -8564    -8166    -7554    -6760    -5890    -4977 
   -4043    -3181    -2416    -1701    -1026     -384      228      785 
    1237     1599     1898     2115     2255     2328     2317     2216 
    2042     1814     1557     1278      974      656      299     -149 
    -726    -1406    -2173    -3009    -3892    -4804    -5726    -6617 
   -7473    -8313    -9126    -9873   -10505   -10964   -11229   -11318 
  -11246   -11024   -10644   -10103    -9414    -8604    -7697    -6717 
   -5694    -4648    -3572    -2471    -1387     -348      634     1540 
    2385     3173     3870     4471     4985     5414     5798     6157 
    6467     6725     6924     7059     7157     7223     7213     7087 
    6837     6459     5964     5358     4648     3867     3052     2249 
    1539      966      504      101     -251     -538     -757     -866 
    -842     -692     -413      -35      356      712      989     1156 
    1263     1354     1399     1377     1302     1225     1183     1163 
    1146     1148     1156     1140     1096     1000      827      581 
     264     -116     -544    -1003    -1475    -1961    -2463    -2997 
   -3551    -4105    -4672    -5252    -5794    -6282    -6713    -7083 
   -7414    -7696    -7925    -8172    -8476    -8800    -9119    -9432 
   -9736   -10011   -10196   -10242   -10176   -10054    -9911    -9803 
   -9733    -9609    -9343    -8900    -8302    -7616    -6905    -6223 
   -5568    -4905    -4275    -3711    -3194    -2714    -2274    -1852 
   -1429     -982     -496       -5      481      990     1534     2127 
    2741     3357     3951     4496     5008     5502     5965     6358 
    6620     6732     6685     6474     6137     5691     5124     4442 
    3701     2974     2297     1664     1040      427     -137     -627 
   -1027    -1324    -1539    -1701    -1826    -1926    -2014    -2103 
   -2205    -2296    -2343    -2316    -2192    -1964    -1628    -1217 
    -773     -322      103      496      873     1266     1669     2043 
    2373     2652     2880     3107     3356     3562     3678     3693 
    3630     3526     3387     3227     3032     2771     2455     2110 
    1737     1289      737       95     -610    -1325    -1992    -2598 
   -3136    -3611    -4052    -4471    -4868    -5250    -5593    -5853 
   -6004    -6026    -5934    -5788    -5618    -5431    -5224    -4951 
   -4603    -4221    -3824    -3416    -2992    -2552    -2128    -1776 
   -1507    -1304    -1159    -1061    -1012    -1012    -1031    -1042 
   -1042    -1046    -1059    -1101    -1216    -1412    -1672    -2008 
   -2409    -2833    -3253    -3626    -3917    -4145    -4306    -4390 
   -4423    -4452    -4491    -4533    -4568    -4577    -4531    -4405 
   -4190    -3927    -3661    -3397    -3140    -2894    -2687    -2560 
   -2477    -2382    -2249    -2061    -1849    -1641    -1444    -1267 
   -1104     -934     -750     -552     -356     -147      120      463 
     869     1304     1744     2147     2471     2725     2913     3032 
    3107     3156     3203     3265     3306     3289     3208     3030 
    2713     2235     1618      911      186     -480    -1044    -1489 
   -1803    -2006    -2124    -2187    -2185    -2112    -1996    -1849 
   -1688    -1580    -1591    -1757    -2092    -2600    -3288    -4164 
   -5181    -6265    -7377    -8478    -9512   -10485   -11410   -12256 
  -13014   -13660   -14161   -14503   -14671   -14670   -14492   -14115 
  -13579   -12973   -12348   -11707   -11030   -10304    -9498    -8630 
   -7750    -6837    -5859    -4814    -3703    -2581    -1516     -510 
     463     1398     2301     3146     3843     4347     4689     4911 
    5028     5016     4847     4561     4222     3851     3468     3113 
    2812     2577     2400     2277     2222     2230     2273     2343 
    2423     2488     2544     2605     2656     2687     2690     2656 
    2577     2438     2230     1933     1547     1111      688      332 
      56     -152     -325     -459     -527     -508     -409     -268 
     -98      105      311      490      600      626      602      553 
     471      337      136     -133     -429     -703     -915    -1042 
   -1112    -1124    -1062     -953     -784     -523     -218       68 
     321      540      742      935     1097     1246     1391     1517 
    1641     1773     1885     1965     2003     1975     1871     1717 
    1540     1350     1148      958      787      629      475      306 
     106     -135     -442     -803    -1179    -1544    -1858    -2100 
   -2254    -2300    -2269    -2209    -2137    -2042    -1927    -1803 
   -1694    -1620    -1576    -1548    -1529    -1544    -1617    -1748 
   -1939    -2204    -2509    -2802    -3072    -3312    -3539    -3790 
   -4036    -4243    -4401    -4496    -4545    -4568    -4557    -4519 
   -4472    -4399    -4270    -4095    -3898    -3677    -3439    -3191 
   -2952    -2782    -2733    -2817    -2998    -3234    -3516    -3838 
   -4189    -4556    -4918    -5243    -5494    -5670    -5807    -5892 
   -5903    -5865    -5794    -5724    -5691    -5711    -5787    -5880 
   -5937    -5950    -5899    -5752    -5481    -5058    -4491    -3829 
   -3127    -2417    -1710     -994     -290      365     1000     1641 
    2255     2825     3375     3885     4340     4741     5063     5250 
    5265     5131     4903     4603     4239     3839     3439     3030 
    2616     2222     1825     1401      954      465      -56     -567 
   -1020    -1383    -1640    -1803    -1892    -1906    -1868    -1833 
   -1821    -1850    -1937    -2062    -2247    -2542    -2917    -3310 
   -3682    -3983    -4217    -4449    -4708    -4988    -5302    -5665 
   -6087    -6550    -7005    -7426    -7811    -8124    -8349    -8506 
   -8572    -8542    -8472    -8371    -8194    -7898    -7465    -6925 
   -6293    -5583    -4855    -4160    -3503    -2897    -2392    -2008 
   -1723    -1533    -1401    -1271    -1121     -947     -739     -494 
    -201      125      459      781     1097     1402     1665     1848 
    1941     1952     1872     1698     1448     1152      835      514 
     195     -120     -405     -633     -823     -982    -1100    -1159 
   -1108     -901     -544      -51      535     1169     1844     2548 
    3222     3808     4283     4646     4941     5200     5422     5613 
    5773     5898     5976     6002     5977     5892     5724     5470 
    5136     4720     4212     3608     2941     2227     1447      612 
    -251    -1132    -2037    -2930    -3769    -4548    -5244    -5787 
   -6147    -6350    -6380    -6211    -5879    -5437    -4889    -4253 
   -3599    -2979    -2409    -1894    -1435    -1054     -762     -513 
    -303     -133       63      306      595      926     1258     1563 
    1815     1985     2068     2064     1979     1830     1657     1498 
    1372     1252     1086      873      631      392      180      -16 
    -193     -330     -440     -545     -676     -858    -1108    -1444 
   -1831    -2247    -2736    -3272    -3831    -4442    -5088    -5769 
   -6498    -7273    -8083    -8892    -9675   -10473   -11337   -12193 
  -12955   -13652   -14300   -14887   -15398   -15803   -16078   -16214 
  -16256   -16236   -16112   -15857   -15457   -14875   -14110   -13204 
  -12175   -11030    -9801    -8494    -7086    -5607    -4116    -2616 
   -1132      284     1630     2929     4189     5405     6551     7578 
    8475     9248     9880    10358    10698    10917    11051    11136 
   11164    11118    10990    10767    10434     9981     9413     8735 
    7943     7034     6038     4977     3867     2718     1507      233 
   -1032    -2242    -3391    -4440    -5371    -6201    -6926    -7523 
   -7962    -8210    -8287    -8235    -8074    -7809    -7445    -6978 
   -6397    -5733    -5034    -4307    -3608    -2988    -2440    -1965 
   -1586    -1298    -1053     -866     -792     -792     -830     -916 
   -1038    -1179    -1331    -1470    -1528    -1466    -1321    -1125 
    -919     -741     -552     -328     -124       70      291      530 
     811     1155     1548     1983     2430     2844     3230     3577 
    3848     4085     4299     4477     4641     4774     4858     4881 
    4868     4864     4853     4806     4723     4590     4392     4132 
    3770     3294     2725     2088     1408      677      -91     -854 
   -1630    -2427    -3207    -3950    -4638    -5256    -5844    -6446 
   -7048    -7634    -8226    -8845    -9485   -10111   -10689   -11182 
  -11537   -11759   -11877   -11875   -11724   -11408   -10926   -10292 
   -9537    -8683    -7719    -6667    -5595    -4542    -3526    -2570 
   -1695     -904     -221      271      549      697      773      781 
     714      572      346       62     -147     -236     -253     -214 
    -149      -63       71      232      418      652      872     1044 
    1192     1285     1305     1283     1243     1197     1131      993 
     766      488      178     -125     -380     -610     -846    -1096 
   -1366    -1651    -1969    -2397    -2984    -3684    -4441    -5244 
   -6053    -6839    -7597    -8259    -8753    -9084    -9224    -9180 
   -9018    -8714    -8230    -7620    -6909    -6096    -5197    -4234 
   -3242    -2299    -1480     -808     -287       93      371      564 
     653      652      607      521      434      421      488      629 
     841     1093     1395     1767     2174     2575     2975     3388 
    3775     4087     4337     4540     4684     4772     4758     4618 
    4390     4083     3719     3375     3088     2849     2667     2521 
    2384     2241     2050     1790     1447      994      429     -220 
    -924    -1660    -2398    -3150    -3902    -4603    -5221    -5707 
   -6022    -6169    -6176    -6057    -5823    -5502    -5135    -4787 
   -4541    -4422    -4383    -4392    -4436    -4498    -4607    -4754 
   -4862    -4900    -4850    -4737    -4625    -4527    -4410    -4247 
   -4033    -3771    -3480    -3180    -2871    -2558    -2228    -1863 
   -1453    -1019     -588     -174      199      575     1028     1568 
    2155     2741     3280     3726     4066     4317     4487     4594 
    4630     4571     4463     4333     4179     4016     3851     3692 
    3555     3449     3353     3258     3152     3009     2836     2662 
    2513     2392     2254     2096     1938     1767     1564     1318 
    1028      697      326      -75     -506     -967    -1456    -1981 
   -2546    -3118    -3674    -4201    -4684    -5108    -5482    -5807 
   -6110    -6448    -6847    -7287    -7757    -8236    -8721    -9207 
   -9659   -10030   -10291   -10431   -10455   -10376   -10210    -9992 
   -9738    -9435    -9074    -8667    -8212    -7690    -7098    -6471 
   -5838    -5235    -4687    -4205    -3815    -3514    -3261    -3060 
   -2916    -2776    -2616    -2434    -2195    -1868    -1451     -961 
    -444       56      530      932     1251     1547     1809     2008 
    2170     2281     2347     2419     2488     2531     2551     2528 
    2431     2266     2052     1804     1549     1304     1063      834 
     611      375      133     -102     -352     -606     -824    -1003 
   -1150    -1242    -1294    -1333    -1374    -1459    -1593    -1749 
   -1949    -2208    -2490    -2782    -3069    -3312    -3483    -3573 
   -3555    -3406    -3126    -2745    -2312    -1868    -1421     -985 
    -546     -102      315      685      984     1220     1410     1530 
    1587     1594     1541     1440     1286     1082      886      726 
     600      557      612      731      919     1177     1471     1773 
    2062     2292     2424     2458     2380     2182     1881     1498 
    1031      494      -72     -668    -1278    -1869    -2447    -3002 
   -3511    -3983    -4405    -4760    -5051    -5290    -5524    -5807 
   -6150    -6558    -7040    -7570    -8141    -8731    -9267    -9706 
  -10044   -10251   -10331   -10322   -10230   -10060    -9822    -9505 
   -9119    -8665    -8135    -7554    -6945    -6308    -5659    -5028 
   -4467    -3981    -3546    -3148    -2782    -2439    -2084    -1703 
   -1296     -838     -311      303     1000     1740     2515     3325 
    4143     4949     5732     6461     7114     7709     8260     8761 
    9213     9605     9904    10129    10289    10355    10322    10206 
   10037     9846     9629     9377     9113     8831     8482     8060 
    7599     7069     6462     5815     5136     4452     3793     3138 
    2498     1899     1324      749      175     -386     -962    -1576 
   -2201    -2826    -3461    -4104    -4753    -5393    -6015    -6654 
   -7296    -7901    -8482    -9066    -9660   -10223   -10706   -11122 
  -11502   -11846   -12163   -12432   -12629   -12804   -12974   -13095 
  -13162   -13189   -13144   -13015   -12835   -12599   -12276   -11859 
  -11334   -10739   -10130    -9506    -8853    -8185    -7491    -6779 
   -6081    -5378    -4665    -3962    -3246    -2520    -1810    -1117 
    -441      213      847     1478     2079     2613     3076     3472 
