Origin Time       2025/01/13 21:19:00
Lat.              31.8
Long.             131.6
Depth. (km)       30
Mag.              6.9
Station Code      KGS020
Station Lat.      31.2396
Station Long.     130.4915
Station Height(m) 21
Record Time       2025/01/13 21:19:53
Sampling Freq(Hz) 100Hz
Duration Time(s)  109
Dir.              N-S
Scale Factor      7845(gal)/8223790
Max. Acc. (gal)   12.919
Last Correction   2025/01/13 21:19:53
Memo.             
[...]
  -15642   -15676   -15484   -14989   -14006   -12691   -11187    -9589 
   -8132    -6960    -6160    -5834    -5841    -6030    -6436    -6968 
   -7528    -8048    -8181    -7636    -6485    -4833    -2934    -1297 
     -28      981     1621     1872     1692      872     -522    -2220 
   -3982    -5591    -6960    -8006    -8662    -9004    -9061    -8770 
   -8186    -7465    -6828    -6561    -6754    -7221    -7797    -8382 
   -8976    -9749   -10774   -11970   -13216   -14216   -14669   -14574 
  -13965   -12816   -11273    -9543    -7846    -6465    -5540    -5090 
   -5104    -5470    -5967    -6353    -6459    -6214    -5678    -5027 
   -4473    -4167    -4110    -4218    -4469    -4880    -5490    -6332 
   -7237    -7993    -8600    -9151    -9732   -10446   -11264   -12033 
  -12719   -13266   -13505   -13428   -13113   -12588   -11956   -11283 
  -10454    -9356    -7919    -6145    -4240    -2447     -923      198 
     891     1229     1300     1201      934      326     -783    -2392 
   -4239    -5915    -7227    -8166    -8730    -8984    -8989    -8741 
   -8355    -8063    -7998    -8259    -8947   -10010   -11259   -12536 
  -13651   -14316   -14355   -13784   -12660   -11088    -9301    -7553 
   -6080    -5093    -4638    -4603    -4851    -5206    -5410    -5275 
   -4793    -4012    -3038    -2026    -1112     -499     -361     -687 
   -1432    -2586    -3973    -5327    -6467    -7225    -7531    -7515 
   -7287    -6880    -6384    -5895    -5505    -5308    -5300    -5366 
   -5424    -5443    -5393    -5352    -5475    -5798    -6216    -6563 
   -6747    -6839    -6925    -6979    -6968    -6875    -6743    -6714 
   -6789    -6909    -7230    -7869    -8688    -9460   -10102   -10674 
  -11129   -11381   -11542   -11651   -11516   -10989   -10064    -8835 
   -7560    -6477    -5740    -5514    -5879    -6710    -7749    -8761 
   -9617   -10197   -10428   -10266    -9682    -8793    -7850    -7044 
   -6365    -5638    -4807    -3958    -3194    -2700    -2592    -2774 
   -3168    -3739    -4371    -5038    -5771    -6455    -6880    -6901 
   -6509    -5852    -5147    -4638    -4488    -4712    -5266    -6060 
   -6887    -7551    -7986    -8124    -7844    -7118    -6046    -4737 
   -3353    -2193    -1551    -1555    -2270    -3738    -5815    -8168 
  -10380   -12036   -12880   -12970   -12622   -12087   -11479   -10887 
  -10350    -9914    -9706    -9814   -10270   -10974   -11632   -12059 
  -12306   -12490   -12649   -12795   -12893   -12764   -12278   -11438 
  -10300    -9061    -7923    -6934    -6176    -5670    -5259    -4873 
   -4410    -3700    -2884    -2120    -1329     -639     -187      145 
     388      479      418      166     -243     -689    -1148    -1630 
   -2201    -2975    -3839    -4618    -5417    -6327    -7263    -8113 
   -8695    -8966    -9140    -9333    -9580    -9995   -10651   -11562 
  -12627   -13705   -14744   -15568   -15892   -15669   -15013   -13948 
  -12483   -10706    -8760    -6858    -5233    -4035    -3304    -2972 
   -2941    -3040    -3083    -3213    -3500    -3688    -3794    -3959 
   -4075    -4243    -4630    -5200    -5967    -6866    -7739    -8583 
   -9335    -9888   -10362   -10847   -11267   -11604   -11796   -11666 
  -11164   -10241    -8893    -7406    -6016    -4816    -3910    -3252 
   -2767    -2462    -2268    -2153    -2114    -2107    -2141    -2261 
   -2432    -2569    -2623    -2596    -2637    -2990    -3607    -4356 
   -5274    -6243    -7161    -7981    -8437    -8456    -8252    -7948 
   -7690    -7624    -7759    -8104    -8561    -8920    -9192    -9463 
   -9622    -9695    -9875   -10285   -10982   -11769   -12353   -12737 
  -12860   -12459   -11493   -10007    -8060    -5891    -3680    -1603 
      20     1090     1765     2080     2047     1879     1637     1198 
     562     -243    -1217    -2254    -3311    -4421    -5449    -6320 
   -7183    -8024    -8721    -9309    -9853   -10393   -10926   -11442 
  -11954   -12405   -12681   -12776   -12663   -12336   -11940   -11541 
  -11105   -10752   -10516   -10215    -9830    -9548    -9455    -9436 
   -9215    -8702    -8133    -7519    -6732    -5957    -5240    -4484 
   -3820    -3231    -2613    -2115    -1755    -1337     -812      -95 
     808     1599     2091     2137     1460      197    -1225    -2679 
   -4132    -5506    -6948    -8491    -9921   -11161   -12171   -12899 
  -13510   -14135   -14742   -15283   -15653   -15728   -15507   -15017 
  -14280   -13412   -12464   -11294    -9950    -8694    -7561    -6609 
   -5960    -5417    -4834    -4282    -3703    -3176    -2820    -2457 
   -2062    -1680    -1220     -935    -1086    -1528    -2282    -3449 
   -4650    -5695    -6712    -7443    -7758    -7861    -7739    -7515 
   -7423    -7433    -7658    -8203    -8887    -9645   -10496   -11310 
  -11986   -12424   -12523   -12378   -12052   -11450   -10602    -9653 
   -8730    -8036    -7609    -7338    -7244    -7292    -7381    -7496 
   -7538    -7356    -6929    -6400    -5980    -5888    -6223    -6818 
   -7526    -8274    -8858    -9221    -9472    -9649    -9772    -9741 
   -9371    -8664    -7744    -6736    -5729    -4760    -3851    -3032 
   -2394    -2070    -2106    -2401    -2789    -3188    -3582    -3996 
   -4459    -4881    -5140    -5152    -4912    -4646    -4584    -4669 
   -4808    -5115    -5632    -6207    -6804    -7462    -8066    -8552 
   -8980    -9333    -9660   -10007   -10195   -10133    -9934    -9620 
   -9190    -8734    -8374    -8226    -8375    -8800    -9325    -9753 
  -10045   -10181    -9995    -9441    -8711    -7923    -7184    -6604 
   -6070    -5518    -4996    -4440    -3856    -3357    -3013    -2847 
   -2768    -2736    -2899    -3246    -3530    -3788    -4152    -4482 
   -4753    -4997    -5104    -5108    -5077    -5042    -5127    -5308 
   -5521    -5911    -6481    -7110    -7923    -8993   -10138   -11277 
  -12364   -13261   -14061   -14790   -15257   -15469   -15458   -15147 
  -14571   -13737   -12641   -11419   -10172    -8934    -7796    -6794 
   -5886    -5147    -4664    -4299    -3909    -3445    -2756    -1787 
    -739      255     1183     1912     2440     2857     3092     3117 
    2853     2214     1336      309     -899    -2226    -3645    -5139 
   -6601    -7983    -9296   -10431   -11267   -11727   -11805   -11646 
  -11412   -11236   -11210   -11234   -11242   -11250   -11097   -10725 
  -10235    -9641    -9013    -8332    -7415    -6338    -5246    -4062 
   -2975    -2288    -1846    -1597    -1725    -2209    -3129    -4514 
   -6038    -7514    -8878    -9911   -10601   -11013   -11051   -10754 
  -10141    -9057    -7600    -6087    -4666    -3624    -3210    -3235 
   -3569    -4132    -4677    -5232    -5900    -6600    -7304    -7946 
   -8429    -8827    -9142    -9300    -9373    -9432    -9481    -9536 
   -9622    -9787   -10152   -10702   -11242   -11697   -12052   -12202 
  -12168   -12015   -11709   -11261   -10643    -9736    -8521    -7137 
   -5765    -4518    -3422    -2546    -1976    -1733    -1829    -2211 
   -2808    -3620    -4571    -5468    -6164    -6660    -7034    -7312 
   -7442    -7389    -7287    -7335    -7584    -8012    -8625    -9370 
  -10156   -10872   -11388   -11668   -11754   -11607   -11145   -10374 
   -9344    -8071    -6608    -5103    -3740    -2668    -1966    -1615 
   -1529    -1652    -1938    -2280    -2528    -2601    -2519    -2384 
   -2289    -2289    -2463    -2839    -3327    -3875    -4515    -5278 
   -6131    -6976    -7751    -8484    -9229    -9979   -10700   -11402 
  -12118   -12802   -13312   -13541   -13514   -13346   -13111   -12818 
  -12483   -12133   -11809   -11512   -11124   -10600   -10018    -9328 
   -8499    -7622    -6728    -5860    -5070    -4398    -4005    -3982 
   -4155    -4423    -4780    -5040    -5097    -5022    -4764    -4303 
   -3751    -3082    -2273    -1486     -845     -479     -521     -873 
   -1347    -1896    -2550    -3304    -4087    -4815    -5406    -5749 
   -5784    -5559    -5161    -4733    -4368    -4032    -3748    -3654 
   -3794    -4133    -4683    -5521    -6718    -8176    -9636   -10930 
  -12052   -12982   -13628   -13933   -13952   -13733   -13267   -12599 
  -11835   -11138   -10666   -10396   -10272   -10342   -10534   -10685 
  -10635   -10222    -9470    -8538    -7437    -6192    -4942    -3711 
   -2494    -1360     -322      576     1285     1840     2185     2227 
    1995     1560      982      321     -382    -1125    -1948    -2816 
   -3630    -4306    -4800    -5181    -5539    -5868    -6169    -6428 
   -6623    -6818    -7130    -7678    -8492    -9414   -10241   -10864 
  -11237   -11400   -11466   -11533   -11705   -11954   -12120   -12276 
  -12474   -12606   -12785   -12976   -12896   -12569   -12082   -11416 
  -10737   -10110    -9497    -8973    -8509    -8106    -7888    -7803 
   -7803    -7869    -7746    -7321    -6752    -6025    -5158    -4365 
   -3703    -3219    -3068    -3289    -3927    -4972    -6201    -7375 
   -8279    -8753    -8810    -8527    -8036    -7514    -7053    -6670 
   -6365    -6178    -6188    -6385    -6655    -6867    -6982    -7059 
   -7117    -7145    -7198    -7236    -7153    -6982    -6777    -6567 
   -6461    -6447    -6426    -6412    -6400    -6347    -6334    -6455 
   -6799    -7406    -8162    -8976    -9775   -10392   -10754   -10867 
  -10714   -10407   -10084    -9791    -9594    -9462    -9220    -8775 
   -8148    -7411    -6696    -6075    -5532    -5066    -4669    -4315 
   -4033    -3871    -3828    -3840    -3797    -3650    -3451    -3244 
   -3059    -2975    -3044    -3285    -3721    -4336    -5058    -5800 
   -6471    -6988    -7319    -7442    -7321    -7017    -6706    -6534 
   -6542    -6706    -6983    -7341    -7708    -7970    -8097    -8124 
   -8023    -7762    -7356    -6833    -6242    -5653    -5123    -4671 
   -4259    -3881    -3597    -3453    -3476    -3686    -4077    -4648 
   -5417    -6390    -7577    -8955   -10388   -11672   -12685   -13435 
  -13952   -14231   -14249   -14031   -13593   -12895   -12050   -11207 
  -10430    -9841    -9456    -9104    -8756    -8457    -8155    -7835 
   -7470    -6980    -6370    -5633    -4753    -3869    -3082    -2347 
   -1728    -1316    -1077    -1061    -1285    -1651    -2177    -2840 
   -3519    -4212    -4924    -5625    -6331    -7021    -7626    -8133 
   -8498    -8692    -8796    -8869    -8953    -9043    -9051    -8935 
   -8691    -8289    -7785    -7271    -6747    -6235    -5764    -5313 
   -4905    -4580    -4369    -4257    -4116    -3962    -3877    -3704 
   -3487    -3435    -3522    -3874    -4708    -5940    -7425    -8991 
  -10376   -11518   -12347   -12673   -12537   -12098   -11437   -10758 
  -10237    -9895    -9834    -9981   -10069   -10052    -9907    -9514 
   -8903    -8101    -7109    -6003    -4841    -3732    -2801    -2046 
   -1452    -1011     -684     -495     -448     -481     -646    -1054 
   -1657    -2413    -3396    -4576    -5841    -7119    -8297    -9310 
  -10164   -10785   -11114   -11207   -11155   -11014   -10852   -10700 
  -10589   -10575   -10544   -10350    -9981    -9387    -8607    -7847 
   -7218    -6754    -6469    -6231    -5937    -5613    -5201    -4658 
   -4090    -3526    -2955    -2435    -1942    -1509    -1254    -1196 
   -1387    -1903    -2673    -3619    -4676    -5794    -6961    -8093 
   -9097    -9948   -10584   -10863   -10716   -10211    -9478    -8650 
   -7774    -6920    -6324    -6181    -6490    -7199    -8221    -9382 
  -10497   -11431   -12132   -12626   -12970   -13162   -13163   -12992 
  -12785   -12664   -12567   -12430   -12295   -12105   -11767   -11275 
  -10651    -9990    -9391    -8862    -8352    -7797    -7130    -6343 
   -5494    -4553    -3466    -2299    -1121       -1      930     1613 
    2039     2232     2322     2408     2498     2548     2493     2331 
    2153     2008     1834     1548     1008       68    -1259    -2916 
   -4818    -6768    -8657   -10481   -12179   -13726   -15141   -16364 
  -17343   -18065   -18495   -18615   -18463   -18129   -17745   -17370 
  -16935   -16362   -15635   -14791   -13841   -12787   -11807   -11011 
  -10170    -9278    -8522    -7726    -6831    -5952    -4978    -4005 
   -3213    -2508    -2003    -1868    -1992    -2384    -3022    -3654 
   -4209    -4723    -5090    -5310    -5502    -5652    -5730    -5749 
   -5703    -5679    -5718    -5813    -6068    -6448    -6863    -7344 
   -7839    -8345    -8937    -9510    -9954   -10226   -10281   -10165 
   -9991    -9968   -10258   -10694   -11199   -11882   -12529   -12965 
  -13275   -13262   -12787   -11967   -10741    -9238    -7769    -6427 
   -5383    -4781    -4496    -4517    -4781    -5015    -5185    -5287 
   -5063    -4549    -3894    -2988    -1954     -986      -93      429 
     337     -291    -1413    -2847    -4303    -5599    -6529    -7045 
   -7253    -7133    -6667    -5913    -4850    -3519    -2142     -893 
     151      904     1374     1674     1849     1904     1867     1699 
    1308      656     -228    -1285    -2481    -3773    -5055    -6210 
   -7182    -8001    -8725    -9447   -10246   -11145   -12191   -13321 
  -14354   -15238   -15925   -16272   -16290   -16075   -15689   -15176 
  -14511   -13710   -12865   -11989   -11068   -10153    -9289    -8509 
   -7885    -7481    -7304    -7272    -7179    -6804    -6004    -4695 
   -2930     -882     1259     3258     4892     6045     6624     6535 
    5741     4276     2219     -352    -3288    -6291    -8969   -10994 
  -12195   -12542   -12144   -11264   -10272    -9566    -9409    -9904 
  -11091   -12845   -14887   -16910   -18592   -19739   -20247   -19957 
  -18789   -16881   -14513   -11804    -8856    -6070    -3676    -1665 
    -263      456      648      321     -326     -981    -1649    -2268 
   -2713    -3111    -3369    -3415    -3489    -3553    -3620    -4081 
   -4889    -5848    -7079    -8472    -9910   -11477   -13030   -14449 
  -15637   -16298   -16394   -16038   -15229   -14104   -12688   -10953 
   -9186    -7361    -5417    -3906    -2911    -2200    -1999    -2146 
   -2388    -2864    -3416    -3883    -4311    -4486    -4287    -3831 
   -3161    -2515    -2137    -1976    -2060    -2407    -2864    -3396 
   -4005    -4650    -5387    -6187    -6991    -7838    -8576    -9065 
   -9335    -9346    -9171    -8926    -8546    -8185    -8039    -7955 
   -7943    -8263    -8706    -8915    -8984    -8847    -8298    -7550 
   -6745    -5873    -5144    -4577    -3994    -3451    -2951    -2479 
   -2344    -2629    -3140    -3931    -4993    -5984    -6797    -7473 
   -7838    -8035    -8329    -8658    -9140    -9778   -10245   -10585 
  -10804   -10635   -10116    -9325    -8291    -7267    -6376    -5656 
   -5216    -4923    -4600    -4374    -4268    -4141    -4121    -4287 
   -4514    -4877    -5429    -6033    -6658    -7333    -7973    -8529 
   -9003    -9391    -9791   -10189   -10573   -11009   -11411   -11740 
  -12083   -12438   -12850   -13402   -14048   -14764   -15557   -16240 
  -16633   -16695   -16360   -15587   -14459   -13078   -11596   -10183 
   -8837    -7619    -6658    -5825    -5015    -4270    -3458    -2493 
   -1414     -236      888     1706     2135     2189     1844     1208 
     402     -517    -1317    -1919    -2444    -2755    -2795    -2718 
   -2550    -2415    -2465    -2628    -2918    -3310    -3622    -3858 
   -4060    -4147    -4097    -3893    -3574    -3302    -3080    -2895 
   -2928    -3213    -3624    -4128    -4749    -5447    -6053    -6569 
   -7133    -7611    -7948    -8283    -8487    -8538    -8554    -8386 
   -8001    -7452    -6643    -5744    -4942    -4272    -3971    -4094 
   -4348    -4666    -5017    -5211    -5296    -5302    -5138    -4976 
   -4892    -4861    -5096    -5636    -6396    -7410    -8599    -9949 
  -11470   -12949   -14274   -15390   -16065   -16204   -15898   -15257 
  -14435   -13567   -12771   -12148   -11645   -11227   -10948   -10685 
  -10439   -10384   -10431   -10563   -10894   -11319   -11781   -12264 
  -12648   -12892   -12951   -12773   -12490   -12214   -11908   -11529 
  -11059   -10485    -9876    -9283    -8668    -8059    -7457    -6741 
   -5872    -4861    -3753    -2670    -1695     -901     -434     -434 
    -958    -1980    -3400    -5034    -6659    -8097    -9217    -9973 
  -10381   -10480   -10390   -10226   -10007    -9755    -9471    -9142 
   -8784    -8419    -8086    -7894    -7890    -8009    -8222    -8510 
   -8787    -8973    -9000    -8865    -8615    -8183    -7524    -6716 
   -5844    -5001    -4228    -3512    -2975    -2670    -2477    -2467 
   -2678    -2924    -3191    -3465    -3542    -3383    -2960    -2177 
   -1173     -137      850     1615     2069     2305     2349     2219 
    2027     1768     1374      893      329     -333    -1054    -1863 
   -2744    -3638    -4553    -5428    -6189    -6875    -7500    -8064 
   -8583    -9024    -9339    -9418    -9151    -8538    -7672    -6679 
   -5661    -4642    -3751    -3125    -2646    -2303    -2211    -2181 
   -2162    -2305    -2525    -2886    -3534    -4298    -5113    -6023 
   -6960    -7908    -8710    -9178    -9374    -9275    -8824    -8253 
   -7717    -7260    -7132    -7403    -7943    -8824    -9946   -10990 
  -11888   -12617   -13138   -13541   -13826   -13961   -13959   -13814 
  -13651   -13570   -13521   -13509   -13589   -13738   -13907   -14004 
  -13871   -13466   -12816   -11836   -10600    -9367    -8221    -7221 
   -6467    -5962    -5724    -5778    -6039    -6366    -6663    -6901 
   -7080    -7233    -7338    -7419    -7533    -7636    -7816    -8162 
   -8517    -8831    -9121    -9266    -9246    -9073    -8707    -8236 
   -7761    -7268    -6770    -6323    -5904    -5499    -5125    -4777 
   -4521    -4413    -4421    -4517    -4677    -4880    -5140    -5471 
   -5881    -6431    -7091    -7765    -8455    -9153    -9818   -10465 
  -11020   -11407   -11665   -11754   -11635   -11389   -11051   -10597 
  -10030    -9343    -8530    -7589    -6535    -5460    -4469    -3630 
   -3013    -2663    -2531    -2575    -2774    -3088    -3491    -3878 
   -4153    -4401    -4569    -4569    -4599    -4743    -4970    -5432 
   -6091    -6794    -7565    -8313    -8877    -9305    -9606    -9775 
   -9940   -10031    -9958    -9859    -9753    -9617    -9602    -9688 
   -9761    -9855    -9833    -9555    -9135    -8563    -7774    -6880 
   -5913    -4869    -3851    -2851    -1854     -939      -63      758 
    1381     1813     2069     2026     1701     1204      531     -279 
   -1170    -2127    -3017    -3747    -4387    -4992    -5617    -6293 
   -6980    -7719    -8548    -9435   -10390   -11376   -12294   -13070 
  -13574   -13709   -13487   -12907   -12035   -11061   -10119    -9278 
   -8615    -8149    -7894    -7871    -8004    -8201    -8388    -8417 
   -8299    -8100    -7717    -7253    -6852    -6450    -6129    -6018 
   -6085    -6338    -6767    -7323    -8002    -8727    -9370    -9957 
  -10517   -10960   -11306   -11593   -11774   -11917   -12052   -12100 
  -12125   -12151   -12069   -11835   -11395   -10728    -9921    -8992 
   -7944    -6866    -5776    -4635    -3518    -2521    -1680    -1062 
