Origin Time       2025/01/13 21:19:00
Lat.              31.8
Long.             131.6
Depth. (km)       30
Mag.              6.9
Station Code      KGS017
Station Lat.      31.3954
Station Long.     130.8702
Station Height(m) 64
Record Time       2025/01/13 21:19:51
Sampling Freq(Hz) 100Hz
Duration Time(s)  104
Dir.              E-W
Scale Factor      3920(gal)/6182761
Max. Acc. (gal)   31.569
Last Correction   2025/01/13 21:19:51
Memo.             
[...]
  -34718   -39853   -44356   -48105   -50936   -53004   -54643   -55092 
  -52565   -46819   -40279   -35436   -32527   -30552   -29275   -29760 
  -33117   -38522   -43129   -44853   -44189   -42424   -40213   -38496 
  -38129   -38440   -37837   -35758   -33178   -31046   -29344   -28093 
  -27804   -29059   -32128   -35789   -37919   -38021   -36764   -34212 
  -30600   -27310   -26001   -27128   -29797   -32772   -34976   -36286 
  -38005   -40894   -43293   -42391   -37061   -28462   -18448    -9031 
   -2167     1633     3502     4461     4282     2063    -2647    -8709 
  -13505   -15239   -14362   -11993    -8807    -5643    -3679    -4325 
   -8504   -15081   -21399   -25783   -28262   -29200   -29006   -29051 
  -30879   -34469   -38529   -42172   -45349   -47508   -47473   -45477 
  -43414   -42965   -44519   -47080   -48967   -48922   -46762   -43502 
  -40461   -38574   -38651   -40480   -42262   -42456   -40978   -38238 
  -34206   -29003   -23864   -20521   -19994   -22258   -25950   -28893 
  -30078   -30233   -30372   -30884   -31596   -31956   -31621   -31050 
  -30426   -29030   -27028   -25678   -25323   -25238   -25301   -26575 
  -29742   -34094   -38209   -40693   -41157   -39809   -36235   -30643 
  -24405   -18525   -13438    -9607    -7582    -7828   -10555   -15253 
  -20475   -25701   -31570   -36920   -39458   -39021   -37172   -35256 
  -33604   -31082   -26455   -20577   -15624   -13114   -13524   -16433 
  -20711   -25297   -30051   -35420   -41643   -48265   -53803   -56942 
  -57317   -54770   -49669   -42979   -35631   -28400   -21813   -16681 
  -13874   -13388   -14542   -16224   -17385   -17675   -17089   -16434 
  -17123   -19212   -21875   -24366   -25525   -25224   -24446   -23112 
  -20942   -18673   -16916   -15864   -15637   -16211   -17939   -21709 
  -27735   -34812   -41381   -46382   -49373   -50853   -51259   -49993 
  -47200   -44510   -42376   -39468   -35378   -31115   -27728   -26578 
  -28602   -32426   -35747   -37679   -38211   -37150   -34564   -31292 
  -28137   -25101   -22421   -21019   -20732   -20012   -18151   -15953 
  -14356   -13968   -15475   -19179   -24450   -30169   -35494   -40602 
  -46132   -51789   -56713   -60327   -62005   -61356   -59103   -56448 
  -53735   -50898   -47871   -43777   -38100   -31946   -26337   -21347 
  -16914   -12806    -9149    -7131    -7679   -10202   -13134   -15076 
  -15434   -14074   -11105    -7120    -2870      692     2482     2438 
    1204    -1356    -5481   -10492   -15484   -19664   -22549   -24474 
  -26031   -27602   -29637   -32208   -34910   -37627   -40229   -42521 
  -44724   -46802   -48679   -50834   -53481   -56045   -57482   -57270 
  -55799   -53482   -50854   -48903   -48253   -48408   -47959   -45954 
  -42477   -38146   -34176   -31755   -30897   -30811   -31163   -32348 
  -34280   -35961   -36410   -34787   -31037   -26674   -23123   -20687 
  -19477   -19646   -21084   -23460   -26744   -30958   -34889   -37015 
  -37393   -36831   -36051   -35719   -35584   -34764   -33313   -31979 
  -30443   -27625   -23433   -18134   -11492    -4370     1299     4653 
    6066     6217     5907     5571     5016     4213     3549     3044 
    1965     -466    -3849    -6886    -9330   -11912   -14703   -17601 
  -21087   -25297   -29958   -35119   -40646   -45946   -50526   -53763 
  -54862   -53727   -51188   -48555   -46916   -46644   -47593   -49069 
  -50339   -51510   -52765   -53703   -53885   -52980   -51154   -48985 
  -46372   -42774   -38068   -32866   -28594   -26423   -26471   -28139 
  -30373   -32831   -36415   -41317   -46039   -48792   -48728   -45888 
  -41036   -35956   -32335   -30397   -29875   -30614   -32128   -34017 
  -35920   -37103   -37076   -36106   -34652   -32910   -31302   -30249 
  -29608   -29198   -28750   -27475   -24977   -21793   -18334   -14343 
   -9343    -3164     3358     8689    11863    12941    12536    10914 
    7866     3436    -1715    -6639   -10969   -14985   -18927   -23134 
  -27901   -32907   -37446   -40988   -43629   -46003   -48167   -48972 
  -47332   -43769   -40016   -37130   -35228   -34737   -35535   -36390 
  -36724   -36830   -37006   -37259   -36967   -35521   -33149   -30655 
  -28844   -27867   -27451   -27972   -29830   -32695   -36774   -41913 
  -45870   -46729   -44878   -41630   -38024   -34428   -30716   -26877 
  -22666   -17771   -12906    -9230    -7202    -6735    -7380    -8642 
  -10817   -14628   -19632   -24081   -26847   -28377   -29476   -30403 
  -31279   -32303   -33744   -36165   -39796   -43954   -47722   -50426 
  -51493   -50597   -47879   -43949   -39368   -34159   -28488   -23500 
  -20732   -21072   -24253   -28971   -34100   -39519   -45227   -50604 
  -54906   -57577   -57729   -54601   -49135   -43395   -38304   -33675 
  -29935   -28030   -28094   -29516   -31630   -33448   -33954   -32941 
  -30471   -26711   -22659   -19444   -17199   -15334   -13799   -13266 
  -13569   -13539   -12436   -10538    -8857    -8131    -8511   -10265 
  -13384   -17191   -20762   -23212   -24422   -25208   -26126   -26935 
  -27379   -27471   -27059   -25788   -23538   -20860   -19064   -19255 
  -20987   -22988   -24852   -26621   -28019   -29026   -29776   -30327 
  -31058   -31976   -31969   -29990   -26642   -23435   -20780   -18528 
  -17477   -18463   -21649   -26993   -33416   -38790   -41913   -43264 
  -43974   -44625   -44955   -44461   -42821   -40354   -38249   -37500 
  -38285   -40390   -43437   -46864   -49902   -52158   -53800   -54608 
  -54155   -52512   -49817   -46143   -41533   -35779   -29096   -22983 
  -19593   -19767   -22165   -24563   -25760   -26224   -26730   -27074 
  -26546   -24768   -22042   -19120   -16599   -14539   -12367    -9642 
   -6821    -4833    -4739    -7100   -10656   -13156   -13654   -12662 
  -11030    -9607    -9000    -9231   -10298   -12647   -16559   -21700 
  -27254   -32130   -35639   -37926   -39600   -41281   -43326   -45939 
  -49311   -53075   -56099   -57423   -56967   -55012   -51633   -47035 
  -42049   -37857   -35118   -33670   -33103   -33199   -34113   -35981 
  -38038   -38883   -37658   -34146   -28644   -22235   -16039   -10711 
   -7225    -6651    -9103   -13544   -18483   -23029   -27185   -31353 
  -35626   -39147   -40904   -40733   -38676   -34731   -29795   -25891 
  -25071   -27886   -32529   -36402   -38860   -40820   -42904   -45551 
  -48826   -51802   -53220   -52371   -49506   -45505   -40960   -35849 
  -30253   -25180   -22115   -21498   -22139   -22537   -22405   -22491 
  -23182   -23711   -22978   -20887   -18090   -14761   -10917    -7341 
   -4871    -3688    -3788    -4961    -7014   -10398   -15032   -19696 
  -24061   -29047   -34658   -39785   -43564   -45617   -45920   -44491 
  -40833   -34673   -27284   -20956   -17128   -15922   -17080   -20240 
  -24704   -29585   -34036   -37401   -39396   -40043   -38893   -35228 
  -29987   -25275   -21854   -19670   -19172   -20344   -22448   -24908 
  -27291   -28879   -29259   -29107   -29258   -29730   -30169   -30166 
  -29447   -28314   -27587   -27916   -29151   -30464   -31037   -30846 
  -30627   -31024   -32228   -33793   -34864   -35266   -35512   -35618 
  -34894   -33121   -30968   -28878   -26912   -25404   -24624   -24511 
  -24708   -24736   -24341   -23661   -23551   -24778   -26919   -29164 
  -31033   -32065   -31930   -31145   -31190   -33096   -36110   -38335 
  -38337   -36138   -32965   -29962   -27356   -24988   -23362   -23372 
  -24758   -26269   -27526   -29129   -31394   -34278   -37922   -41983 
  -45242   -46977   -47407   -46893   -46127   -45668   -44905   -43077 
  -40678   -38402   -35773   -32318   -28935   -26781   -26084   -26831 
  -28948   -31731   -34567   -37199   -39055   -39978   -40693   -41688 
  -42645   -42886   -42070   -40494   -38596   -36351   -33230   -29035 
  -24637   -21123   -18755   -17173   -15981   -15095   -14715   -14824 
  -14977   -14786   -13941   -11837    -8426    -4911    -2697    -2338 
   -3487    -5120    -6104    -6334    -6720    -7776    -9671   -12664 
  -16497   -20764   -25249   -29313   -32095   -33270   -33112   -32133 
  -30855   -29673   -29036   -29565   -31269   -33280   -34903   -36277 
  -37760   -39264   -40243   -40125   -39136   -38134   -37289   -36206 
  -34993   -34247   -34111   -33698   -32500   -31237   -30284   -29179 
  -27463   -25107   -22820   -21494   -21208   -21495   -22311   -24010 
  -26459   -28845   -30346   -30825   -30971   -31492   -32513   -34102 
  -36442   -39449   -42947   -46730   -50671   -55172   -60327   -64824 
  -66937   -66013   -62740   -58548   -54394   -50369   -46393   -42220 
  -37696   -33467   -30110   -27452   -25561   -24716   -24276   -22905 
  -19980   -16135   -12279    -8871    -6027    -3597    -1586     -112 
    1128     2207     2536     1582     -934    -4757    -8932   -12946 
  -16617   -19425   -21389   -23003   -24713   -26887   -29392   -31880 
  -34108   -35961   -37495   -38336   -38112   -37348   -36968   -37383 
  -38217   -38859   -38711   -37315   -35017   -32437   -29999   -28415 
  -27660   -26496   -24321   -21672   -19001   -16762   -15688   -15895 
  -17113   -19665   -23676   -28164   -31798   -34039   -35256   -35759 
  -35829   -36319   -37362   -38183   -38780   -39313   -39704   -40437 
  -41331   -41355   -40404   -39401   -39320   -40385   -42164   -44327 
  -46465   -48152   -49231   -49437   -48886   -48251   -47673   -46856 
  -45856   -44512   -42440   -40056   -37907   -36105   -35520   -36952 
  -39655   -42536   -44633   -44800   -42477   -37820   -31785   -25629 
  -19773   -14488    -9800    -4740     1044     6403    10057    11684 
   11233     8079     2442    -3888    -9465   -13874   -16871   -18285 
  -17838   -15183   -10965    -6605    -2835      116     1613      987 
   -1962    -6860   -12903   -19550   -26734   -34117   -40556   -44930 
  -47563   -49947   -53082   -56577   -59176   -60037   -59271   -57292 
  -54244   -50307   -45906   -41542   -37862   -35022   -32041   -28273 
  -24473   -21294   -18766   -17274   -16869   -17027   -17784   -19035 
  -19855   -19904   -19890   -20302   -20821   -21126   -21300   -21211 
  -21001   -21637   -23491   -26123   -29690   -34516   -39923   -44696 
  -48603   -52410   -56174   -59346   -61561   -62213   -61174   -59435 
  -58110   -57361   -56479   -55082   -53374   -51656   -50121   -48421 
  -46081   -42966   -38628   -32429   -24395   -15126    -5480     3281 
   10051    14210    15183    13302    10125     6653     3055     -184 
   -2510    -3854    -4287    -3940    -3590    -4423    -7232   -12265 
  -19234   -27271   -35129   -41779   -47374   -52414   -55767   -56098 
  -53760   -49380   -43437   -37069   -31610   -28135   -27017   -27867 
  -29879   -31988   -33916   -35926   -37186   -36939   -35985   -35431 
  -35929   -38176   -42410   -47565   -51963   -54435   -54454   -52132 
  -48071   -42743   -36545   -30362   -25192   -21747   -20513   -21297 
  -23586   -27146   -31318   -35217   -38412   -40412   -40718   -39612 
  -38136   -37060   -36422   -36280   -36457   -36045   -34500   -32167 
  -29668   -27848   -27882   -30248   -34046   -38307   -42535   -45594 
  -46207   -44109   -39333   -31877   -22460   -12094    -1934     5975 
    9797     9140     4545    -2520   -10147   -17379   -23704   -28214 
  -30444   -30586   -29068   -26891   -24853   -22601   -19874   -17113 
  -14448   -11764    -9488    -8615   -10180   -14148   -19231   -24558 
  -30289   -36417   -42054   -45727   -46167   -43036   -36958   -28996 
  -20215   -11619    -4209     1019     3223     1780    -3460   -11468 
  -20640   -30072   -39091   -47035   -53830   -59461   -63803   -66704 
  -67194   -64180   -58188   -50855   -43417   -36658   -30749   -25117 
  -20118   -17401   -18025   -21999   -28594   -36467   -44536   -51839 
  -57545   -61649   -63356   -60795   -54071   -45221   -36003   -27828 
  -22043   -19990   -22146   -26973   -32319   -36225   -37019   -35185 
  -31877   -26668   -20001   -13431    -7884    -4364    -3286    -3962 
   -5555    -6897    -6805    -4935    -2281     -923    -1961    -4714 
   -8425   -13077   -18716   -24579   -29290   -32464   -34951   -37490 
  -40379   -43485   -46187   -48382   -50529   -52381   -53208   -52805 
  -51332   -49177   -46787   -44162   -41249   -38413   -36246   -35312 
  -36061   -38651   -42347   -45785   -47724   -47152   -44147   -39978 
  -35503   -30765   -25934   -21902   -19606   -19367   -20929   -22961 
  -23934   -23670   -22542   -20722   -18712   -17696   -18866   -21822 
  -24945   -27220   -28238   -28008   -27081   -25998   -25386   -25279 
  -24884   -24114   -22955   -20970   -18316   -15334   -13097   -13195 
  -15195   -17425   -19386   -20902   -21387   -20701   -18852   -15729 
  -11965    -8437    -5478    -3855    -4422    -6715    -9479   -11282 
  -11141    -9447    -7245    -5285    -4004    -3850    -5643   -10044 
  -16535   -23757   -30738   -36912   -41591   -44481   -46147   -47098 
  -47279   -47323   -48382   -50601   -53744   -57653   -61538   -64809 
  -67472   -69442   -70715   -71153   -70142   -67399   -63338   -58428 
  -53036   -47935   -43951   -41222   -39614   -38695   -37423   -35282 
  -32506   -29219   -25730   -22310   -19053   -16953   -16999   -19159 
  -23451   -29479   -35672   -40440   -43195   -44732   -46300   -47870 
  -48562   -47958   -46173   -43652   -41003   -38866   -37318   -35159 
  -30895   -23843   -14400    -4417     4100    10634    15399    18616 
   20386    19838    16265    10803     4166    -4592   -15091   -25451 
  -34823   -42681   -47703   -49316   -48287   -45516   -41480   -36240 
  -29911   -23254   -17571   -13999   -12550   -12807   -15073   -19374 
  -25062   -31450   -37428   -41956   -44913   -46044   -45034   -42808 
  -40083   -36930   -34395   -33157   -32367   -30851   -27880   -23784 
  -19246   -14593   -11143    -9926   -10168   -11709   -15134   -20309 
  -26948   -34573   -42957   -51824   -59640   -65262   -68526   -68856 
  -65889   -60130   -52497   -43894   -35007   -26888   -21182   -19086 
  -20564   -24721   -30621   -36950   -41684   -43439   -42005   -37664 
  -31045   -22964   -14531    -7365    -2929    -1535    -2255    -4303 
   -7241    -9741   -10973   -12106   -14144   -16763   -19467   -21750 
  -23008   -22936   -21795   -20275   -19098   -18837   -19558   -21190 
  -23958   -27567   -31783   -36933   -42408   -47215   -51440   -55143 
  -57805   -59138   -58803   -56384   -52483   -48346   -44604   -41645 
  -39923   -39499   -39990   -40578   -40308   -38670   -35668   -31296 
  -25832   -20443   -16313   -14060   -14099   -16581   -21440   -28146 
  -35187   -41230   -45972   -49100   -50571   -50780   -49608   -47138 
  -44058   -40608   -36268   -30922   -25134   -19036   -12899    -7189 
   -1398     4371     8557    10476    10638     8975     5017    -1337 
   -9787   -19279   -28560   -36839   -42776   -44532   -41497   -35003 
  -27089   -19083   -12034    -7199    -5334    -6168    -8714   -11924 
  -15127   -18513   -22949   -28490   -33986   -38636   -42675   -46211 
  -48558   -49266   -48673   -47320   -45953   -45055   -44052   -42190 
  -39472   -36506   -34012   -32423   -31932   -32590   -34242   -36838 
  -40279   -43521   -45064   -44403   -42107   -39161   -36125   -32802 
  -28994   -24784   -20976   -18766   -17943   -18099   -20296   -24830 
  -30541   -36202   -40703   -43537   -44465   -42813   -38791   -34129 
  -30157   -26833   -23920   -20994   -17573   -14352   -12569   -12805 
  -14927   -18286   -22147   -26188   -30482   -34673   -37254   -36928 
  -34327   -30794   -26943   -23369   -21191   -21474   -24334   -28740 
  -33588   -38008   -41175   -42963   -43276   -41967   -39945   -37844 
  -35490   -33158   -31188   -29529   -27911   -26158   -24943   -24903 
  -25177   -24691   -23804   -23431   -24063   -26060   -29549   -34585 
  -41563   -50094   -58288   -63983   -66177   -65522   -63031   -58542 
  -51404   -41706   -30421   -19390   -10656    -5067    -2186    -1138 
   -1121    -1853    -3218    -4644    -5438    -4838    -2290     1546 
    4985     6563     5874     3361      -87    -3413    -6351    -9236 
  -11932   -14461   -17316   -20723   -25307   -32036   -40799   -50761 
  -60844   -69496   -75452   -78167   -77638   -74207   -68384   -61144 
  -53304   -44967   -36693   -29390   -23575   -19803   -18236   -18723 
  -21186   -25050   -29605   -34012   -37041   -38421   -38618   -37473 
  -35392   -33578   -32482   -32241   -32769   -33316   -33561   -33637 
  -33315   -32583   -31993   -31826   -31792   -31491   -30641   -29191 
  -27415   -25882   -25050   -24878   -25430   -26569   -27207   -27123 
  -27432   -28281   -29110   -30124   -31359   -31870   -30865   -28198 
  -23912   -18794   -14219   -10872    -8708    -7352    -6470    -6271 
   -7061    -8859   -11421   -14195   -17128   -20466   -23566   -25640 
  -26550   -26592   -26659   -27318   -28094   -28716   -29312   -29833 
  -30551   -31859   -33898   -36796   -40389   -43988   -46659   -47668 
  -46757   -44315   -41512   -39455   -38215   -37171   -35756   -33717 
  -31028   -27807   -24542   -21846   -19904   -18505   -17536   -17260 
  -17749   -18630   -19555   -20161   -20604   -21740   -23657   -25893 
  -28620   -31776   -34401   -35542   -35172   -34207   -33297   -32056 
  -30193   -28254   -26858   -26303   -26591   -27410   -28602   -30282 
  -32348   -34431   -36316   -38304   -40451   -41941   -42395   -42219 
  -41528   -40117   -37862   -35077   -32410   -30399   -29744   -30723 
  -32894   -36043   -39750   -42927   -44793   -45743   -46995   -48885 
  -50631   -51727   -51961   -51204   -49825   -47861   -44873   -41420 
  -38633   -36809   -35812   -35471   -35346   -34963   -34029   -32635 
  -31361   -30801   -30807   -30396   -28842   -26103   -22315   -17986 
  -13710    -9671    -6399    -4714    -4885    -6926   -10637   -15031 
  -18799   -21070   -21584   -20576   -18448   -15596   -12622   -10319 
   -9142    -9030    -9620   -10276   -10521   -10440   -10533   -11205 
  -12168   -12858   -13127   -12994   -12971   -14108   -16523   -19540 
  -22565   -24928   -26067   -25175   -21885   -17288   -12483    -8274 
   -5778    -5609    -7942   -12509   -18125   -23435   -27802   -31221 
  -33655   -35244   -36583   -37943   -39296   -40689   -41996   -43091 
  -44022   -45066   -46672   -48917   -51377   -53459   -54575   -54325 
  -52798   -50696   -48729   -47029   -45449   -43874   -42375   -41261 
  -40580   -39958   -39124   -38097   -36952   -35828   -34853   -33952 
  -33261   -33109   -33531   -34535   -36000   -37464   -38792   -40305 
  -42082   -43707   -44670   -44681   -43670   -42235   -41404   -41292 
  -41173   -40597   -39654   -38882   -38771   -39236   -39788   -39646 
  -38400   -36504   -34153   -31146   -27766   -24385   -21049   -17722 
  -14501   -11767   -10028    -9669   -10732   -12819   -15509   -18758 
  -22367   -25370   -26724   -26276   -24656   -22656   -20693   -18594 
  -16295   -14411   -13586   -13881   -14983   -16531   -18132   -19277 
  -19628   -19238   -18310   -17020   -15447   -13569   -11625   -10264 
  -10017   -10881   -12528   -14604   -16902   -19435   -22094   -24575 
  -26765   -28811   -31097   -33985   -37263   -40281   -42456   -43352 
  -42556   -40015   -36542   -33429   -31546   -31196   -32301   -34408 
