Origin Time       2025/01/13 21:19:00
Lat.              31.8
Long.             131.6
Depth. (km)       30
Mag.              6.9
Station Code      KGS029
Station Lat.      30.2363
Station Long.     130.5553
Station Height(m) 60
Record Time       2025/01/13 21:20:39
Sampling Freq(Hz) 100Hz
Duration Time(s)  60
Dir.              N-S
Scale Factor      3920(gal)/6182761
Max. Acc. (gal)   2.034
Last Correction   2025/01/13 21:20:39
Memo.             
[...]
   14822    14994    14826    14689    14605    14533    14712    15018 
   15084    14845    14504    14420    14624    14610    14342    14384 
   14703    14788    14675    14716    14930    15128    15219    15272 
   15331    15248    15024    14934    15045    15060    14827    14716 
   15032    15296    14988    14452    14220    14281    14477    14674 
   14640    14522    14671    14818    14639    14511    14673    14765 
   14659    14551    14537    14764    15160    15374    15423    15369 
   14969    14405    14178    14323    14704    15241    15614    15624 
   15390    15056    14829    14910    15259    15657    15855    15801 
   15630    15407    15266    15259    15063    14696    14711    15066 
   15231    15218    15228    15144    15013    15072    15230    15301 
   15473    15788    15766    15288    14920    14935    14984    14821 
   14602    14610    14896    15035    14829    14884    15334    15352 
   14855    14657    14819    14808    14626    14547    14543    14466 
   14415    14605    14921    15048    14912    14685    14567    14674 
   15108    15685    15806    15478    15339    15195    14614    14167 
   14163    14201    14416    14867    14892    14470    14294    14543 
   14832    14820    14687    14792    14835    14505    14249    14334 
   14546    14841    15024    14902    14946    15280    15310    15110 
   15221    15460    15420    15174    15014    15069    15086    14786 
   14473    14653    15156    15339    15171    15245    15524    15497 
   15351    15382    15299    15103    15062    14965    14655    14349 
   14235    14527    15144    15546    15583    15619    15796    15901 
   15769    15583    15707    16148    16468    16387    16155    16017 
   15783    15330    14910    14721    14746    14933    15179    15367 
   15470    15489    15382    15051    14562    14363    14668    15007 
   15065    15088    15163    15127    15121    15263    15211    14798 
   14387    14292    14520    14866    14965    14782    14724    14789 
   14630    14394    14281    14222    14431    14893    15045    14843 
   14679    14521    14426    14687    15068    15176    15134    15136 
   15107    15021    14959    14909    14882    14984    15108    15004 
   14831    14953    15187    15169    15125    15287    15346    15065 
   14626    14413    14574    14738    14704    14834    15160    15239 
   14999    14701    14421    14136    13990    14229    14692    14741 
   14242    13830    13841    14063    14345    14537    14454    14357 
   14692    15310    15697    15757    15748    15830    15955    15891 
   15464    14877    14418    14115    14086    14490    14986    15248 
   15439    15498    15164    14611    14184    14141    14539    14992 
   15223    15320    15168    14760    14514    14563    14741    15007 
   15168    15070    14986    15146    15346    15203    14667    14333 
   14713    15397    15822    15992    15906    15502    15096    15020 
   15220    15427    15505    15509    15475    15511    15661    15490 
   14856    14542    14854    15065    14884    14614    14382    14404 
   14743    14883    14698    14675    14857    14901    14887    14958 
   14764    14205    13891    14144    14567    14823    14873    14769 
   14776    15068    15279    15121    14981    15169    15350    15176 
   14821    14551    14328    14157    14253    14588    14845    14837 
   14694    14564    14408    14310    14390    14404    14312    14562 
   15096    15239    14815    14398    14398    14480    14292    14267 
   14819    15446    15551    15302    15109    15008    14835    14684 
   14856    15252    15375    15190    15089    15071    14930    14829 
   15029    15425    15629    15531    15450    15420    15049    14458 
   14250    14472    14764    15021    15141    15090    15200    15537 
   15821    16142    16529    16494    15975    15495    15233    15051 
   14888    14656    14399    14230    14114    14072    14092    14069 
   14155    14397    14538    14512    14258    13838    13992    14918 
   15503    15309    15180    15301    15205    15082    15114    15011 
   14860    14860    14948    15308    15828    15811    15241    14766 
   14551    14624    15210    15942    16209    16117    16095    16104 
   15696    14793    14076    14141    14642    14826    14608    14539 
   14759    14769    14394    14108    14187    14397    14589    14848 
   15095    15016    14490    13923    13820    14105    14382    14494 
   14379    13939    13487    13565    13975    14101    14109    14366 
   14490    14352    14490    14809    14736    14516    14689    15043 
   15073    14779    14663    15062    15671    16012    15996    15656 
   15002    14428    14383    14693    14992    15269    15583    15853 
   15942    15818    15633    15540    15555    15610    15697    15841 
   15894    15720    15511    15420    15283    15032    14831    14734 
   14814    15202    15551    15410    15113    15193    15504    15716 
   15830    15813    15564    15306    15357    15607    15663    15348 
   14945    14805    14849    14844    14818    14759    14478    14017 
   13717    13787    14118    14443    14552    14507    14626    15022 
   15236    14895    14523    14701    15011    14915    14659    14636 
   14839    15061    15115    15001    14850    14630    14347    14361 
   14822    15352    15635    15687    15576    15310    14973    14686 
   14419    14247    14441    14925    15251    15129    14639    14220 
   14281    14620    14822    14998    15377    15719    15715    15297 
   14619    14195    14272    14319    14179    14438    14999    15144 
   14958    14905    14869    14833    15069    15391    15546    15587 
   15396    15090    15175    15351    14817    13943    13800    14383 
   14765    14592    14357    14498    14973    15560    15960    15977 
   15809    15620    15365    15319    15525    15404    15057    15130 
   15326    15170    15127    15482    15694    15408    14988    14940 
   15207    15284    15065    14859    14816    14996    15243    15179 
   14855    14628    14670    14972    15175    14940    14681    14884 
   15230    15243    14955    14657    14572    14754    15125    15472 
   15530    15371    15260    15278    15498    15781    15714    15408 
   15357    15483    15405    15167    15099    15383    15760    15761 
   15415    15243    15456    15699    15625    15414    15422    15413 
   15010    14637    14799    15144    15232    15146    14939    14683 
   14744    15042    14986    14759    15041    15367    14950    14435 
   14590    14864    14708    14408    14358    14621    14819    14649 
   14494    14519    14265    13941    14121    14458    14476    14405 
   14459    14526    14458    14260    14274    14682    15139    15543 
   15949    15911    15299    14758    14814    15299    15594    15456 
   15290    15339    15299    14961    14686    14841    15160    15253 
   15261    15337    15189    14712    14307    14298    14538    14592 
   14332    14225    14464    14522    14305    14439    15077    15728 
   16038    15951    15578    15238    15230    15363    15133    14656 
   14619    15024    15151    14762    14272    14047    14084    14186 
   14316    14657    15202    15619    15711    15572    15330    15138 
   15028    14866    14835    15128    15355    15209    14918    14595 
   14220    13995    14013    14248    14806    15444    15568    15224 
   15035    15081    14963    14672    14558    14782    15092    15133 
   15053    15230    15474    15389    15111    15043    15234    15325 
   15166    15084    15156    15107    15101    15416    15776    15842 
   15534    14856    14223    14132    14291    14313    14542    15070 
   15302    15072    14821    14668    14448    14321    14368    14351 
   14378    14647    14816    14767    14903    15113    15017    15037 
   15499    15769    15507    15217    15146    15102    15154    15390 
   15574    15669    15850    15986    15912    15773    15706    15638 
   15531    15569    15850    16032    15805    15479    15372    15308 
   15240    15204    15030    14971    15301    15451    15078    14749 
   14825    15058    15089    14740    14235    13967    14026    14194 
   14145    13893    13809    13765    13518    13635    14331    14820 
   14882    14988    15166    15345    15550    15380    14758    14387 
   14570    14768    14653    14539    14693    15020    15241    15040 
   14648    14626    14730    14514    14336    14481    14713    14826 
   14638    14200    13989    14222    14696    15256    15764    15986 
   15768    15305    14993    14882    14859    15053    15404    15564 
   15448    15217    15069    15210    15528    15630    15418    15111 
   14977    15154    15311    15122    14899    14902    14839    14511 
   14226    14331    14615    14714    14852    15274    15565    15417 
   15237    15314    15237    14862    14768    15058    15118    14836 
   14654    14615    14559    14695    15021    15183    15218    15366 
   15591    15712    15533    15110    14852    14970    15243    15347 
   15260    15342    15643    15612    15193    15054    15269    15400 
   15476    15492    15153    14627    14424    14718    15225    15507 
   15411    15099    14679    14275    14035    13931    14135    14810 
   15462    15576    15282    14951    14831    14852    14661    14276 
   14220    14627    14987    14959    14800    14899    15121    15010 
   14644    14489    14594    14764    14976    15177    15309    15439 
   15428    15012    14436    14218    14382    14607    14732    14791 
   14925    15144    15246    15266    15374    15329    14958    14707 
   14850    14939    14664    14433    14726    15369    15703    15442 
   15073    15074    15240    15197    15077    15207    15554    15861 
   15907    15480    14727    14366    14703    15028    14859    14570 
   14473    14538    14564    14217    13738    13770    14097    14126 
   14075    14181    14180    14136    14251    14369    14426    14448 
   14420    14556    14923    15267    15471    15497    15376    15412 
   15655    15862    16032    16165    16203    16172    15901    15447 
   15274    15363    15334    15218    15105    14930    14892    15052 
   15011    14768    14825    15115    15153    15077    15295    15566 
   15602    15712    15805    15292    14541    14434    14823    15110 
   15208    15152    14951    14787    14805    14902    14871    14874 
   15184    15457    15341    15119    15050    15235    15670    15697 
   14893    14139    14073    14176    14251    14400    14252    14068 
   14514    15132    15295    15408    15764    16003    16009    15906 
   15709    15599    15768    15932    15647    14978    14392    14137 
   14150    14383    14834    15340    15503    15086    14434    14105 
   14191    14339    14274    14108    14140    14460    14810    14813 
   14573    14673    15069    15065    14739    14711    14844    14807 
   14794    14903    15036    15223    15310    15048    14693    14808 
   15380    15813    15816    15556    15056    14376    14009    14223 
   14659    14908    14853    14586    14397    14416    14352    14244 
   14625    15397    15793    15561    15174    15142    15491    15737 
   15536    15188    15028    14917    14726    14649    14891    15275 
   15282    14775    14265    14160    14414    14755    14888    14969 
   15475    16178    16396    16190    16019    16067    16405    16699 
   16437    15908    15554    14951    13904    13173    13125    13324 
   13533    13789    14068    14476    15012    15165    14685    14400 
   15082    16065    16294    15856    15330    14846    14491    14370 
   14243    14023    13983    14152    14329    14462    14510    14544 
   14745    14850    14465    13858    13594    13885    14511    15046 
   15318    15335    15040    14712    14714    14800    14866    15405 
   16225    16441    15945    15298    14960    15155    15432    15138 
   14634    14491    14313    13762    13419    13778    14372    14600 
   14655    14730    14423    13794    13504    13690    14134    14724 
   15048    14791    14413    14409    14561    14382    13854    13576 
   13876    14217    14195    14066    13898    13697    13904    14427 
   14461    13967    13763    14142    14634    14832    14897    15349 
   16218    16702    16225    15253    14640    14776    15375    15862 
   16057    16270    16656    16804    16307    15515    15063    15074 
   15410    15911    16063    15470    14546    13875    13525    13357 
   13341    13514    13863    14255    14588    14896    15076    14871 
   14454    14384    14682    14845    14844    15053    15351    15441 
   15576    15822    15616    14795    13961    13738    14281    15197 
   15823    15880    15758    15840    15863    15636    15621    15873 
   15765    15274    14857    14449    13913    13515    13457    13735 
   14260    14747    14950    15031    15107    14943    14624    14604 
   14875    15032    15015    15036    15200    15549    15879    15855 
   15610    15479    15431    15431    15575    15701    15604    15472 
   15558    15811    15976    15779    15218    14704    14633    15100 
   15984    16769    16832    16299    15751    15363    15190    15408 
   15814    15972    15712    15201    14870    14981    15314    15620 
   15742    15413    14732    14286    14381    14794    15086    14858 
   14186    13507    12879    12182    11754    11929    12611    13600 
   14604    15202    15252    15030    14849    14625    14159    13772 
   13950    14518    14944    15067    14902    14398    13911    14013 
   14578    14986    15069    15150    15423    15809    16271    16762 
   16904    16486    16006    15916    16079    16359    16639    16555 
   16237    16207    16193    15609    14799    14476    14708    15120 
   15482    15802    16050    16163    16247    16319    16217    15988 
   15797    15633    15504    15438    15358    15275    15192    15036 
   14932    14960    14828    14520    14645    15430    16245    16440 
   15880    15046    14739    14991    15002    14557    14226    14208 
   14259    14364    14430    14097    13586    13637    14272    14794 
   14859    14671    14380    13929    13477    13344    13549    13905 
   14251    14491    14738    15019    14986    14612    14441    14715 
   15221    15675    15730    15493    15514    15559    14926    13899 
   13356    13559    14234    14977    15376    15363    15142    14896 
   14857    15068    15276    15343    15284    15207    15286    15340 
   15055    14726    14757    14867    14708    14435    14255    14296 
   14606    15007    15493    16200    16628    16092    14937    14011 
   13460    13136    13395    14505    15862    16601    16607    16278 
   15824    15425    15335    15522    15791    15983    15898    15612 
   15386    14986    14319    14186    14826    15148    14755    14648 
   15236    15837    16109    16293    16439    16380    16140    15813 
   15345    14739    14155    13692    13369    13204    13306    13838 
   14529    14759    14550    14431    14435    14259    13931    13791 
   14117    14658    14873    14812    14869    14902    14716    14590 
   14589    14519    14496    14608    14696    14762    15009    15471 
   15807    15691    15270    14717    13945    13302    13331    13808 
   14187    14399    14579    14678    14611    14526    14651    14865 
   14949    15068    15314    15526    15843    16338    16579    16412 
   16143    15796    15238    14692    14502    14718    15072    15292 
   15397    15571    15854    15924    15394    14586    14273    14556 
   15027    15501    15848    15892    15639    15180    14684    14419 
   14468    14692    14944    15115    15187    15220    15241    15300 
   15432    15542    15572    15507    15183    14718    14603    14813 
   14957    15216    15688    15695    14928    14049    13668    13817 
   14241    14650    14944    15128    15174    15223    15361    15270 
   14830    14548    14731    15008    15061    15150    15450    15425 
   14689    13807    13422    13508    13750    13979    14237    14546 
   14775    14881    14917    14835    14811    15115    15423    15371 
   15180    15049    15032    15210    15337    15117    14722    14515 
   14648    14914    14885    14445    13998    14006    14459    14833 
   14836    14865    15182    15483    15546    15342    14975    14882 
   15222    15612    15919    16132    15966    15598    15559    15723 
   15711    15654    15790    16092    16412    16541    16388    16145 
   15957    15704    15356    15159    15314    15659    15860    15879 
   15814    15571    15203    15098    15453    15873    15859    15624 
   15754    16198    16425    16305    16111    15992    15876    15590 
   15100    14793    14987    15321    15297    14910    14442    14235 
   14363    14355    14056    14043    14444    14723    14768    14884 
   15142    15371    15321    14949    14644    14684    14794    14780 
   14896    15179    15252    15043    14927    15080    15267    15218 
   14841    14343    14175    14455    14786    14928    15074    15254 
   15111    14648    14476    14874    15364    15447    15101    14685 
   14580    14685    14600    14322    14075    13812    13616    13799 
   14273    14659    14860    14930    14879    14738    14522    14351 
   14375    14404    14300    14298    14425    14530    14684    14807 
   14708    14547    14486    14527    14769    15049    15126    15275 
   15527    15377    14961    14906    15234    15651    15986    16026 
   15863    15845    15872    15720    15583    15572    15505    15344 
   15216    15148    15138    15266    15542    15755    15656    15258 
   14810    14532    14476    14477    14311    14127    14301    14661 
   14715    14566    14644    14937    15142    15084    14871    14823 
   14931    14793    14431    14281    14409    14576    14637    14531 
   14313    14056    13818    13931    14538    15055    15018    14668 
   14358    14211    14230    14321    14467    14661    14727    14689 
   14820    15004    14916    14622    14448    14577    14887    15208 
   15519    15606    15244    14676    14208    13916    13917    14174 
   14524    14985    15354    15232    14769    14393    14189    14215 
   14503    14736    14738    14779    15033    15349    15470    15262 
   14995    15044    15220    15160    15018    15069    15294    15617 
   15909    15893    15492    14947    14451    14098    13969    14039 
   14328    14866    15313    15381    15369    15466    15428    15270 
   15244    15352    15469    15519    15466    15366    15239    15043 
   14909    14917    14910    14952    15153    15256    15183    15227 
   15413    15524    15491    15372    15312    15365    15343    15235 
   15226    15117    14732    14512    14704    14893    14917    14965 
   14925    14762    14808    15101    15299    15262    15133    14984 
   14733    14406    14244    14380    14695    15033    15164    14999 
   14848    14879    15047    15490    15941    15856    15510    15403 
   15325    15091    14870    14722    14762    14981    15034    14907 
   14933    15130    15234    15148    15046    15040    14994    14954 
