Origin Time       2025/01/13 21:19:00
Lat.              31.8
Long.             131.6
Depth. (km)       30
Mag.              6.9
Station Code      KGS016
Station Lat.      31.4162
Station Long.     130.3225
Station Height(m) 11
Record Time       2025/01/13 21:19:54
Sampling Freq(Hz) 100Hz
Duration Time(s)  109
Dir.              U-D
Scale Factor      7845(gal)/8223790
Max. Acc. (gal)   3.252
Last Correction   2025/01/13 21:19:54
Memo.             
[...]
   16614    16506    16919    17443    17635    17297    16609    16116 
   16179    16474    16526    16430    16495    16740    17130    17551 
   17659    17374    17093    17081    17132    17047    16923    16868 
   16908    17054    17126    16908    16657    16789    17157    17305 
   17165    17008    17034    17228    17393    17251    16833    16522 
   16451    16390    16297    16353    16569    16822    17058    17163 
   16995    16688    16556    16711    17074    17474    17635    17463 
   17167    16957    16934    17089    17181    17061    16965    17081 
   17203    17149    17034    16889    16663    16586    16837    17115 
   17104    16946    16853    16789    16796    16972    17120    17107 
   17184    17443    17579    17454    17235    17050    16950    16881 
   16644    16243    15966    15947    16059    16168    16193    16204 
   16480    17107    17689    17768    17325    16737    16486    16773 
   17208    17203    16779    16468    16522    16723    16795    16629 
   16270    15927    15988    16672    17620    18166    17996    17327 
   16688    16491    16677    16906    17015    17012    16943    16991 
   17315    17656    17655    17462    17396    17410    17354    17253 
   17176    17182    17282    17298    17076    16806    16807    17039 
   17221    17247    17139    16961    16902    16993    16972    16699 
   16418    16356    16389    16321    16255    16339    16475    16538 
   16502    16424    16430    16530    16590    16644    16829    17111 
   17397    17649    17790    17730    17527    17350    17307    17410 
   17562    17505    17140    16721    16476    16362    16322    16309 
   16162    15916    15803    15873    16146    16704    17273    17412 
   17239    17194    17416    17726    17814    17448    16896    16703 
   16885    16942    16691    16372    16127    16078    16457    17105 
   17496    17469    17285    17070    16896    16992    17296    17419 
   17336    17343    17479    17613    17653    17481    17138    17003 
   17263    17544    17494    17223    16873    16513    16333    16351 
   16371    16441    16688    16942    17074    17122    16961    16557 
   16341    16745    17570    18222    18377    18144    17861    17795 
   17805    17536    17030    16750    16907    17145    17112    16854 
   16567    16468    16714    17100    17253    17196    17190    17190 
   16996    16706    16514    16430    16445    16572    16733    16891 
   17000    16915    16756    16849    17146    17320    17286    17163 
   17101    17262    17504    17424    17024    16725    16645    16611 
   16645    16764    16753    16537    16328    16237    16177    16179 
   16364    16650    16957    17313    17555    17425    16989    16524 
   16159    15978    16059    16202    16160    15998    15917    16006 
   16270    16599    16865    17157    17586    17948    17980    17770 
   17550    17401    17366    17486    17551    17335    17096    17223 
   17595    17810    17683    17221    16626    16349    16572    16883 
   16888    16640    16330    16150    16297    16644    16839    16846 
   16838    16877    17034    17336    17524    17386    17163    17188 
   17471    17861    18064    17728    17023    16667    16977    17454 
   17433    16822    16191    16206    16802    17185    16884    16328 
   16140    16370    16613    16461    15888    15483    15886    16837 
   17428    17304    16915    16829    17236    17836    18009    17551 
   17041    17032    17309    17323    16883    16298    16121    16596 
   17273    17473    17082    16599    16497    16767    17061    17108 
   16943    16753    16649    16713    16960    17166    17115    16915 
   16779    16789    16945    17146    17234    17166    17054    17073 
   17285    17485    17420    17153    16997    17154    17540    17829 
   17674    17128    16721    16857    17340    17621    17365    16738 
   16260    16267    16526    16625    16525    16448    16521    16686 
   16785    16792    16916    17197    17304    17091    16872    16919 
   17176    17464    17567    17336    17019    17012    17223    17215 
   16895    16599    16622    16937    17247    17308    17176    17031 
   16930    16892    16999    17201    17358    17477    17594    17564 
   17413    17379    17355    16992    16337    15770    15579    15820 
   16291    16650    16722    16621    16613    16862    17297    17629 
   17578    17244    16974    16807    16552    16244    16074    16073 
   16143    16198    16070    15689    15411    15614    16136    16560 
   16679    16465    16106    16021    16401    16934    17253    17351 
   17481    17842    18343    18593    18303    17659    17149    17112 
   17447    17728    17662    17309    16926    16717    16663    16675 
   16815    17142    17539    17820    17814    17425    16800    16298 
   16127    16213    16395    16474    16316    16152    16321    16744 
   17151    17463    17666    17783    17922    18002    17744    17170 
   16735    16752    17069    17428    17547    17182    16565    16200 
   16200    16402    16715    16958    16911    16677    16551    16565 
   16641    16865    17163    17232    17111    17120    17184    16974 
   16525    16101    15894    16073    16573    16976    17018    16857 
   16665    16541    16636    16916    17115    17127    17069    17068 
   17259    17678    18014    17950    17617    17316    17134    17128 
   17381    17703    17790    17639    17433    17292    17342    17625 
   17822    17586    17118    16783    16565    16355    16101    15695 
   15290    15338    15952    16706    17158    17147    16764    16410 
   16515    16976    17308    17253    16953    16757    16903    17177 
   17086    16522    15973    15971    16596    17383    17631    17093 
   16329    16078    16487    17155    17640    17659    17236    16806 
   16806    17131    17288    17091    16812    16702    16826    17151 
   17405    17290    16926    16671    16733    17099    17458    17402 
   17018    16815    16954    17066    16958    16883    17045    17328 
   17467    17321    17039    16885    16919    16968    16834    16529 
   16291    16276    16326    16206    15973    15938    16237    16675 
   17018    17184    17157    16987    16964    17365    17941    18256 
   18230    17918    17393    16989    16945    17068    17145    17161 
   17046    16777    16610    16725    16996    17332    17784    18218 
   18428    18381    18092    17667    17358    17207    17051    16903 
   16773    16514    16166    16036    16232    16470    16503    16384 
   16217    16140    16313    16591    16652    16525    16503    16656 
   16802    16812    16661    16443    16440    16804    17247    17435 
   17408    17369    17424    17579    17699    17639    17497    17440 
   17421    17367    17289    17101    16776    16553    16555    16528 
   16333    16173    16156    16156    16112    16137    16333    16626 
   16754    16518    16094    15874    16046    16517    17073    17432 
   17481    17479    17667    17883    17941    18000    18184    18256 
   18073    17770    17435    17124    16931    16838    16792    16875 
   17146    17385    17300    16961    16680    16619    16758    16892 
   16737    16356    16185    16432    16842    17092    17081    16904 
   16767    16843    17062    17263    17412    17455    17389    17444 
   17726    17898    17729    17493    17413    17362    17288    17219 
   17018    16660    16325    16043    15765    15604    15592    15615 
   15714    15989    16333    16578    16699    16769    16822    16889 
   17085    17381    17555    17564    17577    17594    17452    17142 
   16849    16765    16914    17074    17000    16760    16656    16826 
   17163    17451    17485    17315    17224    17293    17340    17312 
   17282    17197    16997    16730    16436    16221    16308    16646 
   16852    16808    16842    17135    17479    17624    17421    16850 
   16309    16332    16784    17001    16814    16627    16641    16745 
   16864    16860    16702    16722    17066    17374    17402    17307 
   17215    17097    16945    16839    16875    17050    17263    17347 
   17244    17184    17348    17537    17520    17406    17412    17528 
   17564    17423    17270    17346    17541    17459    16999    16517 
   16343    16487    16714    16653    16200    15830    16019    16588 
   16976    16827    16236    15731    15826    16430    16965    17024 
   16764    16661    17030    17691    18162    18200    17984    17790 
   17726    17687    17464    17039    16626    16409    16401    16529 
   16699    16779    16717    16690    16857    17084    17190    17257 
   17329    17166    16731    16424    16309    15997    15534    15338 
   15489    15897    16541    17203    17617    17718    17491    16991 
   16637    16931    17753    18480    18697    18362    17748    17331 
   17247    17091    16696    16483    16664    16839    16571    15822 
   14940    14578    15134    16101    16634    16610    16474    16564 
   16996    17608    17933    17764    17405    17111    16814    16472 
   16247    16321    16661    16938    16800    16355    16102    16274 
   16599    16866    17169    17500    17625    17479    17228    17031 
   16968    16985    16891    16611    16447    16661    17000    17150 
   17216    17374    17730    18316    18775    18742    18532    18646 
   18914    18769    18044    17155    16636    16630    16796    16636 
   16114    15666    15588    15832    16147    16150    15786    15522 
   15718    16183    16475    16343    15988    15946    16533    17393 
   17818    17579    17170    17207    17780    18389    18481    18090 
   17845    18192    18765    18833    18131    17077    16470    16762 
   17505    17784    17173    16119    15499    15757    16455    16758 
   16360    15855    15944    16507    16891    16834    16657    16795 
   17302    17729    17575    16957    16503    16524    16792    17032 
   17176    17370    17790    18192    18018    17196    16449    16440 
   16984    17446    17366    16717    16073    16110    16749    17312 
   17234    16453    15566    15406    16106    16897    17107    16837 
   16434    16121    16135    16457    16718    16734    16730    16974 
   17523    18146    18300    17589    16483    16040    16634    17541 
   17861    17339    16491    16051    16105    16105    15751    15329 
   15182    15358    15762    16249    16634    16846    16938    16870 
   16672    16632    16883    17072    16883    16575    16629    17190 
   17956    18296    17730    16619    15988    16429    17464    18031 
   17529    16349    15514    15758    16787    17506    17269    16752 
   17113    18459    19577    19273    17639    15839    15066    15592 
   16514    16625    15774    15067    15573    17082    18377    18619 
   18091    17659    17949    18891    19637    19369    18342    17415 
   16945    16744    16492    15905    15083    14590    14751    15322 
   15865    15936    15372    14789    15021    15981    16814    16976 
   16623    16333    16621    17352    17794    17625    17302    17193 
   17259    17397    17385    17058    16839    17342    18327    18814 
   18365    17527    17061    17271    17728    17613    16853    16225 
   16202    16445    16436    16123    15781    15742    16204    16746 
   16681    16187    16116    16765    17637    18193    18272    18004 
   17801    18017    18414    18519    18376    18306    18353    18381 
   18241    17794    17253    17046    17088    17034    16899    16706 
   16339    15913    15539    15246    15238    15577    15890    15893 
   15846    16028    16177    15981    15615    15488    15932    16929 
   17821    17932    17367    16757    16686    17347    18193    18462 
   18283    18407    18981    19452    19408    18916    18316    18027 
   18098    18009    17404    16557    16008    16147    16850    17397 
   17208    16519    16058    16324    17163    17852    17752    17034 
   16465    16416    16652    16918    17088    17118    17088    17035 
   17018    17163    17370    17335    16908    16171    15403    14948 
   14925    15083    15043    14744    14493    14601    15148    15911 
   16424    16329    15832    15583    15912    16541    16981    16993 
   16834    16929    17297    17631    17682    17460    17331    17637 
   18193    18620    18895    19116    19132    18864    18628    18721 
   19021    19271    19286    18895    18247    17845    17869    17946 
   17622    16795    15792    14951    14295    13791    13583    13910 
   14756    15641    16151    16370    16637    17356    18546    19434 
   19426    18956    18654    18512    18172    17409    16457    15952 
   16249    16837    16870    16272    15669    15550    15905    16281 
   16214    15762    15421    15547    15932    16085    15808    15353 
   15140    15398    16023    16714    17172    17228    16958    16706 
   16768    17050    17321    17566    17844    18096    18235    18154 
   17803    17382    17153    17097    17053    17014    17027    17001 
   16812    16363    15527    14458    13776    13952    14791    15747 
   16405    16632    16579    16546    16660    16756    16815    17126 
   17780    18567    19279    19654    19483    18985    18608    18508 
   18573    18750    18958    18985    18867    18913    19117    19082 
   18574    17763    17023    16706    16876    17128    16916    16164 
   15221    14415    13929    13787    13795    13720    13582    13535 
   13601    13805    14156    14442    14553    14688    14974    15400 
   16002    16734    17541    18524    19548    20078    19901    19450 
   19199    19263    19530    19704    19566    19329    19300    19337 
   19126    18723    18346    18131    18112    18072    17705    17134 
   16722    16509    16330    16185    16148    16240    16386    16399 
   16197    15993    16075    16406    16645    16636    16548    16606 
   16895    17286    17504    17404    17177    17030    16850    16557 
   16332    16294    16389    16484    16367    15873    15188    14746 
   14806    15287    15869    16237    16402    16595    16845    17018 
   17153    17301    17394    17568    18065    18702    18994    18806 
   18428    18010    17513    17068    16771    16536    16424    16565 
   16777    16807    16725    16673    16536    16275    16093    16028 
   15963    15946    16052    16162    16170    16186    16352    16734 
   17292    17672    17510    17010    16649    16546    16584    16706 
   16846    17003    17259    17486    17533    17658    18003    18193 
   17988    17606    17267    17118    17286    17548    17383    16775 
   16332    16314    16339    16129    15803    15651    16031    16914 
   17541    17286    16533    16051    16069    16357    16594    16525 
   16189    15925    15969    16164    16220    15994    15601    15425 
   15732    16271    16642    16777    16727    16677    16950    17413 
   17478    16981    16429    16197    16204    16368    16656    16856 
   16937    17146    17470    17666    17790    18056    18334    18345 
   18083    17695    17302    17074    17116    17329    17555    17717 
   17832    18022    18388    18704    18563    18017    17577    17529 
   17699    17666    17115    16302    15905    16136    16503    16514 
   16129    15661    15530    15840    16229    16432    16553    16677 
   16703    16594    16559    16865    17508    18180    18500    18307 
   17806    17388    17298    17466    17651    17752    17847    17930 
   17868    17586    17170    16854    16852    17039    17038    16663 
   16127    15770    15734    15919    16112    16209    16312    16540 
   16823    17046    17128    17030    16906    16899    16868    16642 
   16263    15928    15944    16475    17220    17683    17790    17876 
   18108    18342    18459    18446    18301    18152    18180    18347 
   18486    18480    18234    17807    17523    17635    18022    18331 
   18365    18269    18269    18324    18104    17416    16584    16101 
   16004    16062    16189    16281    16200    16079    16059    15974 
   15753    15570    15510    15496    15441    15294    15125    15034 
   15028    15144    15496    16051    16506    16650    16630    16622 
   16596    16529    16457    16411    16517    16831    17150    17255 
   17188    17138    17159    17162    17162    17213    17227    17089 
   16837    16684    16812    17080    17192    17115    17127    17458 
   17979    18331    18333    18087    17847    17859    18048    18046 
   17776    17447    17135    16777    16321    15827    15503    15541 
   15871    16216    16409    16506    16530    16470    16492    16708 
   16950    17055    17042    16956    16861    16868    16954    16941 
   16776    16573    16368    16193    16082    15867    15477    15226 
   15269    15379    15542    15938    16413    16765    17057    17311 
   17514    17865    18474    19080    19423    19580    19707    19772 
   19730    19634    19449    19184    19105    19419    19882    19988 
   19595    19056    18758    18706    18538    18000    17262    16603 
   16131    15830    15630    15464    15358    15295    15044    14527 
   14122    14199    14634    15083    15387    15576    15795    16140 
   16474    16596    16563    16637    16861    16937    16746    16499 
   16359    16449    16853    17332    17505    17375    17254    17236 
   17257    17313    17339    17297    17199    16969    16644    16422 
   16262    15994    15853    16144    16613    16804    16673    16456 
   16301    16270    16403    16528    16453    16332    16406    16623 
   16737    16634    16460    16428    16602    16865    17030    17001 
   16910    16964    17228    17645    18118    18481    18609    18512 
   18341    18276    18272    18180    18080    18068    18023    17880 
   17757    17635    17338    16922    16627    16418    16052    15557 
   15221    15206    15477    15866    16136    16233    16336    16518 
   16640    16630    16568    16546    16722    17166    17610    17752 
   17647    17562    17594    17591    17412    17124    16923    16977 
   17236    17506    17705    17851    17965    18141    18391    18542 
   18470    18284    18157    18098    17987    17784    17508    17131 
   16723    16486    16490    16557    16506    16380    16326    16349 
   16420    16575    16733    16686    16448    16345    16557    16835 
   16900    16776    16568    16382    16345    16301    15854    15095 
   14681    14885    15255    15364    15282    15230    15358    15815 
   16518    17055    17174    17109    17184    17375    17535    17732 
   18057    18361    18447    18355    18301    18419    18580    18547 
   18285    17968    17732    17629    17632    17545    17220    16814 
   16534    16366    16231    16096    15936    15813    15931    16443 
   17115    17442    17228    16814    16745    17251    17932    18171 
   17826    17262    16858    16807    17107    17490    17631    17612 
   17724    17892    17903    17818    17626    17188    16715    16591 
   16842    17153    17130    16606    15867    15422    15441    15685 
   15940    16178    16382    16625    16987    17289    17417    17585 
   17868    18069    18161    18303    18419    18306    18048    17872 
