Origin Time       2025/01/13 21:19:00
Lat.              31.8
Long.             131.6
Depth. (km)       30
Mag.              6.9
Station Code      KGS016
Station Lat.      31.4162
Station Long.     130.3225
Station Height(m) 11
Record Time       2025/01/13 21:19:54
Sampling Freq(Hz) 100Hz
Duration Time(s)  109
Dir.              N-S
Scale Factor      7845(gal)/8223790
Max. Acc. (gal)   6.593
Last Correction   2025/01/13 21:19:54
Memo.             
[...]
  -11595   -11634   -11227   -10577   -10093   -10185   -10731   -11183 
  -11327   -11246   -10980   -10651   -10426   -10373   -10417   -10319 
   -9967    -9491    -9034    -8634    -8187    -7591    -7013    -6623 
   -6308    -5922    -5436    -4974    -4761    -4768    -4698    -4453 
   -4278    -4401    -4764    -5119    -5220    -5027    -4828    -4966 
   -5517    -6299    -7026    -7497    -7589    -7300    -6917    -6718 
   -6643    -6438    -5884    -4992    -3985    -3221    -3136    -3734 
   -4473    -4966    -5111    -4959    -4816    -4954    -5374    -5864 
   -6268    -6736    -7489    -8391    -9035    -9196    -9107    -9305 
  -10073   -11051   -11664   -11685   -11286   -10922   -10883   -10863 
  -10584   -10469   -10949   -11670   -11904   -11302   -10168    -9189 
   -8843    -9049    -9391    -9485    -9072    -8251    -7469    -7042 
   -7025    -7325    -7631    -7600    -7094    -6322    -5800    -5764 
   -5915    -5906    -5487    -4615    -3798    -3553    -3680    -3827 
   -3986    -4056    -3792    -3262    -2767    -2602    -3036    -3975 
   -4916    -5618    -6366    -7335    -8217    -8722    -8905    -8908 
   -8845    -8873    -9004    -9077    -9101    -9154    -9146    -9182 
   -9624   -10546   -11595   -12359   -12590   -12212   -11491   -10835 
  -10204    -9302    -8127    -7001    -6326    -6305    -6878    -7819 
   -8783    -9402    -9389    -8681    -7659    -6970    -6903    -7138 
   -7190    -6910    -6566    -6486    -6670    -6879    -6917    -6767 
   -6679    -6879    -7199    -7281    -7059    -6813    -6804    -7003 
   -7195    -7184    -6963    -6632    -6212    -5710    -5251    -5092 
   -5493    -6407    -7479    -8428    -9074    -9247    -8958    -8426 
   -7851    -7338    -6959    -6646    -6323    -6254    -6709    -7557 
   -8457    -9219    -9888   -10597   -11371   -11956   -11932   -11176 
   -9937    -8440    -6937    -5873    -5605    -6180    -7398    -8795 
   -9811   -10291   -10535   -10670   -10393    -9478    -8155    -6967 
   -6304    -6196    -6502    -7122    -8046    -9147   -10030   -10450 
  -10540   -10476   -10278    -9884    -9175    -8133    -6961    -5887 
   -5063    -4650    -4664    -4980    -5486    -6080    -6555    -6625 
   -6232    -5661    -5193    -4835    -4483    -4155    -4018    -4305 
   -5155    -6345    -7415    -8166    -8565    -8556    -8206    -7685 
   -7129    -6720    -6667    -6916    -7109    -7014    -6670    -6270 
   -6143    -6567    -7473    -8448    -9051    -9132    -8815    -8356 
   -7962    -7665    -7465    -7456    -7623    -7816    -7994    -8164 
   -8255    -8233    -8078    -7674    -6970    -6210    -5765    -5676 
   -5719    -5859    -6220    -6816    -7553    -8324    -8981    -9535 
  -10185   -10922   -11461   -11514   -11086   -10550   -10301   -10444 
  -10764   -10951   -10953   -10891   -10740   -10419    -9940    -9401 
   -8992    -8853    -8764    -8310    -7468    -6574    -5817    -5209 
   -4739    -4303    -3870    -3538    -3254    -2949    -2775    -2835 
   -2978    -3037    -3072    -3227    -3638    -4503    -5759    -6972 
   -7821    -8262    -8419    -8519    -8746    -9130    -9632   -10201 
  -10732   -11049   -11040   -10752   -10322    -9911    -9667    -9528 
   -9327    -9027    -8657    -8262    -7996    -8013    -8325    -8793 
   -9282    -9688    -9844    -9706    -9502    -9381    -9186    -8750 
   -8131    -7423    -6664    -5934    -5254    -4641    -4295    -4252 
   -4145    -3742    -3191    -2722    -2616    -3114    -4167    -5559 
   -7022    -8162    -8617    -8397    -8005    -7889    -8102    -8549 
   -9032    -9409    -9909   -10781   -11801   -12573   -12965   -12973 
  -12667   -12264   -11790   -11047   -10146    -9524    -9440    -9741 
  -10104   -10235    -9956    -9497    -9309    -9413    -9320    -8653 
   -7447    -5921    -4378    -3217    -2612    -2408    -2451    -2701 
   -3015    -3283    -3603    -4072    -4626    -5204    -5775    -6262 
   -6708    -7164    -7441    -7472    -7551    -7950    -8703    -9671 
  -10593   -11232   -11570   -11757   -11844   -11753   -11458   -10997 
  -10386    -9644    -8854    -8233    -8014    -8220    -8595    -8812 
   -8739    -8442    -7993    -7442    -6887    -6399    -6012    -5833 
   -5925    -6246    -6808    -7512    -8000    -8020    -7720    -7325 
   -6849    -6216    -5422    -4585    -4017    -4047    -4689    -5656 
   -6646    -7487    -8077    -8424    -8549    -8330    -7751    -7036 
   -6373    -5896    -5721    -5881    -6366    -7118    -7969    -8688 
   -9005    -8795    -8321    -7873    -7503    -7321    -7252    -7102 
   -7105    -7429    -7835    -8230    -8633    -8866    -8765    -8272 
   -7470    -6623    -6069    -6033    -6492    -7256    -8087    -8815 
   -9462   -10062   -10376   -10147    -9552    -8978    -8514    -8012 
   -7445    -6990    -6825    -6948    -7244    -7520    -7546    -7375 
   -7321    -7595    -8135    -8588    -8614    -8298    -7901    -7466 
   -7045    -6883    -7103    -7527    -7955    -8397    -8815    -8919 
   -8581    -8021    -7352    -6540    -5714    -5094    -4851    -5088 
   -5729    -6544    -7403    -8221    -8883    -9375    -9661    -9556 
   -8915    -7854    -6756    -5894    -5252    -4806    -4600    -4679 
   -5082    -5788    -6681    -7547    -8085    -8155    -7960    -7686 
   -7290    -6816    -6648    -7129    -8097    -9094    -9903   -10544 
  -10990   -11199   -11168   -10943   -10673   -10478   -10291    -9957 
   -9418    -8753    -8151    -7825    -7722    -7611    -7603    -7992 
   -8688    -9263    -9421    -9219    -8807    -8233    -7651    -7231 
   -6952    -6801    -6736    -6563    -6257    -5988    -5840    -5773 
   -5755    -5778    -5848    -6065    -6498    -6894    -6926    -6577 
   -6023    -5498    -5269    -5530    -6254    -7132    -7731    -7693 
   -6966    -5989    -5290    -4990    -5000    -5333    -6000    -6880 
   -7847    -8672    -9020    -8892    -8625    -8370    -8033    -7578 
   -7034    -6536    -6435    -6943    -7771    -8472    -8833    -8781 
   -8320    -7701    -7307    -7292    -7570    -7885    -7882    -7488 
   -7036    -6818    -6872    -7159    -7614    -8097    -8503    -8838 
   -9120    -9336    -9553    -9837   -10104   -10281   -10408   -10521 
  -10642   -10744   -10729   -10519   -10168    -9774    -9344    -8895 
   -8538    -8411    -8664    -9387   -10305   -10953   -11240   -11254 
  -10891   -10130    -9255    -8560    -8117    -7958    -8095    -8255 
   -8078    -7555    -6930    -6376    -5960    -5657    -5324    -4914 
   -4571    -4375    -4284    -4318    -4565    -5043    -5698    -6405 
   -6853    -6771    -6292    -5710    -5121    -4549    -4077    -3763 
   -3686    -3937    -4351    -4615    -4699    -4784    -4934    -5136 
   -5405    -5729    -6072    -6426    -6774    -7009    -7055    -7109 
   -7387    -7782    -8159    -8579    -9090    -9691   -10320   -10808 
  -10941   -10638   -10079    -9578    -9308    -9161    -8941    -8623 
   -8320    -8228    -8588    -9443   -10539   -11446   -11809   -11637 
  -11159   -10543    -9937    -9435    -8966    -8517    -8156    -7871 
   -7704    -7780    -8037    -8262    -8311    -8171    -7840    -7240 
   -6357    -5397    -4579    -4020    -3708    -3420    -3028    -2727 
   -2722    -3095    -3901    -5019    -6058    -6652    -6755    -6548 
   -6188    -5800    -5451    -5084    -4780    -4746    -5039    -5665 
   -6528    -7230    -7553    -7758    -8075    -8407    -8596    -8588 
   -8418    -8268    -8482    -9161    -9917   -10389   -10588   -10596 
  -10476   -10480   -10816   -11287   -11607   -11697   -11508   -11045 
  -10509   -10085    -9772    -9541    -9402    -9229    -8870    -8483 
   -8398    -8716    -9292    -9813    -9882    -9470    -8892    -8275 
   -7645    -7165    -6874    -6589    -6231    -5908    -5676    -5603 
   -5786    -6043    -6056    -5732    -5186    -4565    -4064    -3851 
   -3877    -3962    -4078    -4326    -4727    -5308    -6096    -6851 
   -7287    -7398    -7288    -7090    -6975    -6961    -6921    -6867 
   -6902    -6936    -6862    -6894    -7311    -8008    -8645    -9043 
   -9271    -9520    -9900   -10268   -10404   -10342   -10305   -10397 
  -10584   -10875   -11205   -11418   -11569   -11718   -11712   -11549 
  -11377   -11192   -10953   -10744   -10521   -10179    -9904    -9914 
  -10065   -10122   -10000    -9742    -9441    -9140    -8812    -8455 
   -8178    -8036    -7943    -7732    -7192    -6343    -5548    -5107 
   -4985    -4912    -4706    -4467    -4317    -4349    -4696    -5238 
   -5653    -5798    -5633    -5109    -4378    -3844    -3727    -3834 
   -4016    -4340    -4738    -5089    -5418    -5710    -5860    -5848 
   -5730    -5506    -5204    -5074    -5363    -6053    -6912    -7605 
   -7935    -7950    -7886    -7979    -8284    -8710    -9119    -9389 
   -9579    -9795    -9880    -9624    -9069    -8503    -8212    -8262 
   -8559    -8885    -8934    -8602    -8139    -7858    -7897    -8205 
   -8637    -9019    -9236    -9194    -8810    -8156    -7439    -6847 
   -6581    -6608    -6620    -6604    -6831    -7294    -7734    -7996 
   -8128    -8245    -8368    -8430    -8384    -8263    -8098    -7873 
   -7651    -7528    -7462    -7307    -7011    -6725    -6529    -6362 
   -6247    -6228    -6170    -5892    -5405    -4870    -4437    -4240 
   -4410    -4972    -5734    -6471    -7179    -7936    -8729    -9470 
  -10041   -10361   -10420   -10349   -10296   -10207   -10022    -9751 
   -9400    -9155    -9123    -9309    -9809   -10440   -10790   -10724 
  -10320    -9606    -8679    -7830    -7354    -7252    -7323    -7510 
   -7780    -7997    -8158    -8367    -8610    -8770    -8731    -8438 
   -7966    -7445    -6856    -6216    -5838    -5911    -6299    -6839 
   -7253    -7225    -6917    -6772    -6843    -6944    -7117    -7400 
   -7550    -7473    -7480    -7688    -7846    -7842    -7732    -7526 
   -7219    -6831    -6447    -6150    -5994    -5968    -5925    -5854 
   -5915    -6139    -6520    -7106    -7781    -8297    -8540    -8487 
   -8131    -7557    -6858    -6149    -5636    -5462    -5632    -6046 
   -6552    -7044    -7515    -8008    -8374    -8333    -7971    -7731 
   -7821    -8060    -8198    -8090    -7807    -7673    -7912    -8384 
   -8841    -9188    -9408    -9437    -9271    -9042    -8853    -8783 
   -9032    -9660   -10338   -10714   -10712   -10416   -10045    -9869 
  -10003   -10273   -10373   -10141    -9595    -8949    -8561    -8532 
   -8607    -8540    -8217    -7587    -6740    -5962    -5425    -4988 
   -4526    -4160    -4044    -4290    -4903    -5591    -6061    -6255 
   -6203    -6025    -5917    -5899    -5818    -5629    -5401    -5135 
   -4885    -4887    -5208    -5584    -5846    -6025    -6064    -5900 
   -5537    -4995    -4469    -4274    -4465    -4818    -5112    -5359 
   -5686    -6057    -6389    -6659    -6787    -6836    -7018    -7368 
   -7785    -8237    -8803    -9526   -10208   -10658   -10918   -11105 
  -11360   -11650   -11693   -11403   -10921   -10413   -10042    -9780 
   -9464    -9153    -9084    -9327    -9717   -10084   -10413   -10712 
  -10827   -10593   -10029    -9274    -8584    -8214    -8098    -8014 
   -7942    -7931    -7963    -8020    -8050    -7954    -7588    -6887 
   -6016    -5216    -4645    -4349    -4216    -4126    -4045    -3905 
   -3666    -3416    -3294    -3322    -3464    -3723    -4060    -4357 
   -4610    -4955    -5449    -6056    -6745    -7392    -7866    -8225 
   -8625    -9107    -9637   -10187   -10620   -10770   -10728   -10686 
  -10654   -10559   -10361   -10026    -9641    -9405    -9396    -9531 
   -9730    -9886    -9895    -9860    -9915   -10046   -10156   -10056 
   -9585    -8781    -7830    -6974    -6399    -6218    -6453    -6886 
   -7202    -7322    -7344    -7372    -7483    -7611    -7601    -7411 
   -7123    -6794    -6466    -6297    -6438    -6828    -7279    -7669 
   -7893    -7893    -7843    -7923    -7944    -7638    -7013    -6226 
   -5421    -4726    -4240    -4048    -4216    -4745    -5567    -6551 
   -7474    -8094    -8266    -8014    -7443    -6689    -5973    -5420 
   -4899    -4375    -4081    -4217    -4816    -5792    -6899    -7766 
   -8148    -8074    -7759    -7426    -7213    -7165    -7252    -7497 
   -8035    -8807    -9597   -10353   -11084   -11697   -12082   -12163 
  -11819   -11045   -10177    -9613    -9406    -9394    -9397    -9236 
   -8942    -8734    -8680    -8741    -8969    -9265    -9344    -9113 
   -8668    -8083    -7460    -6885    -6377    -5956    -5691    -5701 
   -5980    -6289    -6435    -6480    -6519    -6492    -6351    -6108 
   -5709    -5224    -4928    -4972    -5319    -5900    -6570    -7130 
   -7464    -7582    -7651    -7824    -8056    -8206    -8217    -8129 
   -8008    -7942    -8048    -8363    -8733    -8958    -8953    -8661 
   -8044    -7285    -6716    -6536    -6794    -7342    -7836    -8095 
   -8190    -8208    -8220    -8293    -8397    -8460    -8503    -8587 
   -8735    -9081    -9776   -10686   -11515   -12128   -12478   -12436 
  -11978   -11306   -10612    -9957    -9450    -9170    -8973    -8760 
   -8746    -9090    -9580    -9973   -10184   -10143    -9860    -9487 
   -9139    -8772    -8424    -8230    -8152    -8108    -8140    -8190 
   -8087    -7777    -7257    -6415    -5202    -3851    -2673    -1788 
   -1186     -834     -741     -994    -1593    -2404    -3294    -4094 
   -4733    -5329    -5972    -6561    -7025    -7438    -7726    -7699 
   -7438    -7254    -7296    -7450    -7626    -7812    -7939    -7921 
   -7830    -7816    -7850    -7792    -7666    -7476    -7221    -7045 
   -6961    -6864    -6839    -6993    -7223    -7411    -7646    -7944 
   -8160    -8264    -8298    -8328    -8469    -8649    -8667    -8486 
   -8209    -7838    -7334    -6914    -6808    -6939    -7198    -7549 
   -7816    -7913    -8014    -8222    -8487    -8850    -9354    -9879 
  -10318   -10700   -11021   -11184   -11152   -11011   -10833   -10573 
  -10255    -9964    -9691    -9463    -9319    -9273    -9344    -9418 
   -9366    -9259    -9209    -9159    -8932    -8434    -7722    -6899 
   -6072    -5405    -5053    -4984    -5017    -4982    -4841    -4735 
   -4783    -4895    -4870    -4565    -3955    -3186    -2519    -2115 
   -1934    -1867    -1917    -2111    -2363    -2604    -2899    -3314 
   -3854    -4541    -5293    -5896    -6266    -6504    -6751    -7105 
   -7658    -8399    -9116    -9521    -9467    -9088    -8735    -8676 
   -8881    -9197    -9622   -10172   -10702   -11098   -11257   -11032 
  -10490    -9868    -9217    -8476    -7758    -7303    -7263    -7643 
   -8349    -9169    -9890   -10436   -10814   -10952   -10817   -10554 
  -10314   -10180   -10287   -10619   -10924   -11072   -11119   -11105 
  -11059   -10979   -10779   -10449   -10091    -9752    -9342    -8819 
   -8237    -7612    -7030    -6682    -6616    -6674    -6750    -6820 
   -6729    -6421    -6219    -6412    -6967    -7686    -8270    -8429 
   -8203    -7894    -7599    -7179    -6698    -6345    -6085    -5906 
   -5935    -6134    -6386    -6648    -6786    -6704    -6401    -5871 
   -5163    -4419    -3906    -3902    -4410    -5224    -6077    -6660 
   -6880    -6862    -6737    -6666    -6820    -7146    -7345    -7215 
   -6864    -6577    -6656    -7138    -7649    -7803    -7553    -7114 
   -6826    -7014    -7701    -8549    -9225    -9659    -9857    -9819 
   -9703    -9715    -9805    -9840    -9817    -9707    -9548    -9560 
   -9880   -10378   -10825   -11036   -10944   -10687   -10569   -10743 
  -11033   -11263   -11456   -11634   -11778   -11848   -11727   -11358 
  -10816   -10239    -9776    -9437    -9105    -8707    -8279    -7948 
   -7763    -7616    -7411    -7117    -6666    -6118    -5751    -5703 
   -5853    -6043    -6168    -6146    -5922    -5547    -5224    -5088 
   -5066    -4961    -4646    -4306    -4261    -4515    -4800    -4949 
   -4876    -4568    -4214    -3979    -3790    -3516    -3127    -2654 
   -2192    -1960    -2092    -2377    -2511    -2458    -2332    -2204 
   -2199    -2482    -3001    -3582    -4136    -4567    -4827    -5097 
   -5690    -6708    -7960    -9161   -10057   -10578   -10832   -10943 
  -10999   -11057   -11288   -11874   -12668   -13435   -14058   -14308 
  -14076   -13576   -12957   -12206   -11431   -10793   -10428   -10546 
  -11160   -11954   -12555   -12737   -12460   -11792   -10930   -10115 
   -9374    -8642    -8028    -7653    -7398    -7052    -6536    -5899 
   -5378    -5259    -5455    -5620    -5576    -5402    -5363    -5591 
   -5911    -6158    -6346    -6551    -6795    -6970    -6966    -6716 
   -6207    -5609    -5117    -4698    -4179    -3477    -2648    -1898 
   -1497    -1598    -2114    -2852    -3781    -4899    -6037    -7055 
   -7919    -8571    -9011    -9309    -9408    -9228    -8959    -8851 
   -8958    -9288    -9801   -10304   -10677   -10948   -11102   -11098 
  -10999   -10902   -10844   -10881   -11065   -11341   -11615   -11912 
  -12298   -12698   -13011   -13230   -13343   -13339   -13269   -13119 
  -12764   -12210   -11551   -10750    -9850    -9092    -8575    -8190 
   -7797    -7315    -6801    -6415    -6285    -6400    -6600    -6681 
   -6430    -5713    -4747    -3925    -3352    -2938    -2610    -2259 
   -1891    -1705    -1825    -2150    -2573    -3079    -3595    -3990 
   -4222    -4310    -4329    -4456    -4849    -5377    -5807    -6284 
   -7048    -7944    -8687    -9148    -9289    -9177    -8981    -8749 
   -8399    -7958    -7601    -7461    -7487    -7492    -7366    -7253 
   -7362    -7632    -7819    -7898    -8066    -8376    -8750    -9127 
   -9309    -9126    -8775    -8529    -8463    -8657    -9120    -9582 
   -9788    -9801    -9798    -9809    -9821    -9952   -10265   -10528 
  -10451   -10004    -9306    -8608    -8270    -8324    -8523    -8788 
   -9045    -9112    -9001    -8792    -8506    -8262    -8081    -7803 
   -7318    -6606    -5779    -5007    -4422    -4166    -4271    -4621 
   -5154    -5776    -6177    -6012    -5228    -4132    -3199    -2767 
   -2799    -3091    -3431    -3626    -3746    -4118    -4895    -5798 
   -6408    -6691    -6890    -7128    -7492    -8019    -8509    -8788 
   -8941    -9055    -9101    -9171    -9468   -10025   -10685   -11211 
  -11394   -11210   -10791   -10241    -9572    -8856    -8278    -7966 
   -7939    -8205    -8710    -9170    -9289    -9103    -8780    -8444 
   -8267    -8283    -8352    -8461    -8642    -8773    -8797    -8784 
   -8710    -8503    -8225    -7966    -7705    -7441    -7273    -7260 
   -7387    -7651    -7956    -8117    -8121    -8127    -8186    -8183 
   -8004    -7624    -7125    -6702    -6531    -6682    -7145    -7825 
   -8599    -9348    -9949   -10282   -10212    -9684    -8812    -7812 
   -6932    -6327    -6026    -5989    -6041    -6010    -5937    -5964 
   -6178    -6565    -7037    -7547    -8064    -8487    -8748    -8935 
   -9123    -9309    -9582    -9963   -10249   -10237    -9882    -9277 
   -8607    -8112    -7924    -7857    -7680    -7527    -7497    -7383 
   -7076    -6636    -6165    -5833    -5633    -5420    -5320    -5606 
