Origin Time       2025/01/13 21:19:00
Lat.              31.8
Long.             131.6
Depth. (km)       30
Mag.              6.9
Station Code      KGS006
Station Lat.      31.9060
Station Long.     130.7021
Station Height(m) 188
Record Time       2025/01/13 21:19:50
Sampling Freq(Hz) 100Hz
Duration Time(s)  112
Dir.              U-D
Scale Factor      7845(gal)/8223790
Max. Acc. (gal)   5.608
Last Correction   2025/01/13 21:19:51
Memo.             
[...]
   -1996    -1624    -1316    -1189    -1296    -1586    -1907    -2137 
   -2246    -2232    -2081    -1798    -1445    -1155    -1088    -1279 
   -1551    -1651    -1474    -1048     -480       24      257      144 
    -238     -706    -1081    -1275    -1304    -1336    -1552    -1910 
   -2232    -2403    -2401    -2334    -2381    -2585    -2779    -2797 
   -2646    -2513    -2610    -2984    -3458    -3769    -3798    -3620 
   -3348    -3048    -2754    -2446    -2138    -1900    -1753    -1665 
   -1591    -1466    -1267    -1021     -774     -666     -831    -1236 
   -1725    -2111    -2235    -2097    -1848    -1607    -1378    -1093 
    -745     -454     -341     -382     -491     -625     -814    -1054 
   -1198    -1186    -1198    -1463    -2100    -3040    -3978    -4545 
   -4590    -4267    -3871    -3585    -3358    -3041    -2565    -2016 
   -1560    -1273    -1111    -1038    -1058    -1135    -1235    -1364 
   -1545    -1780    -2008    -2143    -2142    -2027    -1844    -1574 
   -1198     -801     -568     -615     -907    -1282    -1524    -1459 
   -1047     -399      224      546      486      197      -75     -178 
     -90       90      237      237      -14     -517    -1028    -1290 
   -1279    -1175    -1209    -1505    -1925    -2158    -2018    -1545 
    -974     -606     -557     -684     -781     -735     -545     -263 
      76      394      513      317     -124     -673    -1227    -1702 
   -2008    -2072    -1910    -1672    -1494    -1395    -1358    -1362 
   -1398    -1462    -1529    -1530    -1366    -1020     -635     -425 
    -517     -904    -1486    -2092    -2524    -2652    -2459    -2050 
   -1668    -1537    -1683    -1960    -2185    -2295    -2351    -2439 
   -2590    -2774    -2968    -3200    -3442    -3580    -3543    -3338 
   -2990    -2563    -2177    -1962    -2008    -2299    -2648    -2818 
   -2736    -2505    -2227    -1964    -1769    -1674    -1698    -1846 
   -2069    -2290    -2428    -2384    -2092    -1622    -1175     -913 
    -824     -814     -827     -823     -808     -876    -1071    -1301 
   -1480    -1566    -1490    -1251     -973     -772     -661     -639 
    -743    -1034    -1555    -2258    -3002    -3642    -4128    -4479 
   -4666    -4612    -4286    -3723    -3033    -2400    -1998    -1883 
   -1993    -2137    -2054    -1613     -946     -319       54       85 
    -175     -576     -935    -1117    -1115    -1005     -885     -839 
    -904    -1039    -1156    -1221    -1301    -1428    -1510    -1445 
   -1243    -1005     -884     -942    -1098    -1266    -1432    -1624 
   -1825    -1992    -2103    -2154    -2166    -2197    -2319    -2517 
   -2702    -2841    -3019    -3265    -3464    -3503    -3369    -3126 
   -2872    -2704    -2701    -2922    -3334    -3758    -4010    -4014 
   -3813    -3512    -3173    -2768    -2266    -1695    -1120     -594 
    -132      263      567      712      619      257     -278     -780 
   -1073    -1162    -1196    -1332    -1644    -2081    -2493    -2759 
   -2870    -2833    -2610    -2173    -1632    -1205    -1017    -1067 
   -1316    -1696    -2153    -2620    -2986    -3165    -3159    -3017 
   -2817    -2656    -2597    -2616    -2632    -2577    -2447    -2292 
   -2155    -2037    -1880    -1601    -1140     -568      -67      224 
     292      257      264      340      341      118     -341     -901 
   -1374    -1649    -1759    -1821    -1926    -2065    -2143    -2089 
   -1925    -1784    -1804    -1976    -2133    -2128    -2011    -1973 
   -2108    -2304    -2388    -2285    -2018    -1628    -1240    -1036 
   -1082    -1251    -1341    -1243    -1043     -895     -832     -807 
    -791     -800     -882    -1050    -1178    -1124     -899     -599 
    -302      -76       20      -18     -166     -376     -589     -816 
   -1108    -1420    -1598    -1516    -1155     -654     -267     -232 
    -630    -1343    -2139    -2798    -3168    -3221    -3099    -3036 
   -3165    -3442    -3731    -3905    -3873    -3630    -3284    -2930 
   -2563    -2147    -1736    -1447    -1360    -1441    -1595    -1775 
   -1969    -2188    -2479    -2853    -3154    -3169    -2844    -2281 
   -1691    -1301    -1244    -1483    -1821    -2080    -2226    -2326 
   -2473    -2675    -2822    -2790    -2531    -2073    -1491     -920 
    -491     -220      -35      103      133      -59     -484    -1047 
   -1595    -1973    -2107    -2022    -1802    -1614    -1590    -1674 
   -1729    -1653    -1428    -1150     -984    -1005    -1117    -1143 
    -994     -726     -430     -143      136      384      545      549 
     353      -24     -487     -899    -1174    -1282    -1278    -1323 
   -1522    -1822    -2023    -1915    -1464     -893     -541     -588 
    -896    -1165    -1219    -1093     -959     -999    -1224    -1424 
   -1409    -1166     -778     -382     -141     -148     -376     -699 
    -977    -1142    -1227    -1320    -1474    -1683    -1931    -2228 
   -2556    -2806    -2863    -2714    -2404    -2012    -1709    -1661 
   -1865    -2100    -2123    -1868    -1486    -1215    -1213    -1512 
   -2034    -2650    -3183    -3477    -3530    -3443    -3265    -3030 
   -2816    -2655    -2521    -2362    -2100    -1749    -1507    -1601 
   -2076    -2764    -3387    -3728    -3728    -3418    -2925    -2488 
   -2297    -2400    -2736    -3221    -3727    -4124    -4359    -4419 
   -4314    -4086    -3743    -3277    -2786    -2384    -2026    -1561 
    -943     -348      -55     -174     -537     -851     -953     -889 
    -853    -1013    -1421    -2006    -2654    -3260    -3709    -3936 
   -3959    -3828    -3600    -3337    -3069    -2801    -2523    -2230 
   -1925    -1586    -1175     -710     -309     -108      -91     -103 
      -1      245      502      557      295     -234     -855    -1386 
   -1769    -2060    -2311    -2484    -2443    -2096    -1587    -1212 
   -1111    -1220    -1401    -1490    -1445    -1391    -1453    -1660 
   -1944    -2170    -2232    -2115    -1910    -1756    -1710    -1714 
   -1649    -1478    -1314    -1324    -1578    -2007    -2430    -2651 
   -2586    -2242    -1709    -1127     -587     -116      283      562 
     639      542      425      380      392      373      182     -267 
    -891    -1507    -1988    -2313    -2552    -2787    -3078    -3376 
   -3500    -3331    -2957    -2581    -2378    -2376    -2432    -2369 
   -2145    -1869    -1660    -1534    -1421    -1255    -1031     -808 
    -747    -1023    -1651    -2435    -3072    -3339    -3213    -2781 
   -2173    -1503     -841     -248      203      522      758      939 
    1043     1020      778      244     -515    -1324    -2014    -2505 
   -2832    -3086    -3326    -3537    -3700    -3850    -3977    -3996 
   -3794    -3352    -2793    -2328    -2107    -2119    -2247    -2324 
   -2161    -1710    -1178     -822     -724     -770     -757     -676 
    -743    -1112    -1742    -2411    -2847    -3006    -3057    -3179 
   -3491    -3951    -4302    -4307    -3940    -3350    -2728    -2185 
   -1698    -1183     -681     -371     -418     -797    -1278    -1560 
   -1485    -1152     -864     -862    -1183    -1722    -2304    -2736 
   -2913    -2899    -2832    -2801    -2794    -2732    -2554    -2251 
   -1863    -1418     -896     -279      334      750      858      762 
     692      831     1139     1335     1162      606     -155     -878 
   -1398    -1737    -2045    -2486    -3152    -3937    -4553    -4754 
   -4453    -3707    -2763    -1894    -1169     -550      -60      205 
     217       91        0       58      237      349      180     -348 
   -1136    -1931    -2457    -2625    -2625    -2713    -2891    -2928 
   -2725    -2401    -2077    -1776    -1470    -1151     -893     -783 
    -832     -969    -1048    -1020     -980    -1043    -1258    -1590 
   -1894    -2011    -1915    -1692    -1436    -1240    -1213    -1394 
   -1703    -1966    -2050    -2027    -2104    -2355    -2674    -2967 
   -3149    -3126    -2971    -2879    -2920    -2986    -2909    -2582 
   -2097    -1675    -1486    -1579    -1873    -2227    -2547    -2817 
   -3049    -3213    -3211    -2965    -2562    -2214    -2083    -2160 
   -2296    -2330    -2192    -1911    -1595    -1433    -1601    -2085 
   -2660    -3009    -3014    -2849    -2706    -2619    -2493    -2234 
   -1834    -1390    -1021     -780     -589     -340      -20      243 
     283       20     -518    -1223    -1902    -2315    -2355    -2196 
   -2172    -2543    -3291    -4132    -4806    -5250    -5512    -5632 
   -5614    -5501    -5363    -5192    -4899    -4456    -3925    -3395 
   -2913    -2440    -1950    -1472    -1044     -685     -371      -43 
     372      908     1433     1672     1470      969      475      191 
      76      -81     -467    -1062    -1679    -2151    -2446    -2556 
   -2440    -2081    -1509     -753      145     1017     1591     1706 
    1468     1178     1062     1098     1090      872      468      105 
     -40      -33      -52     -275     -769    -1321    -1536    -1215 
    -519      155      405       60     -723    -1634    -2415    -2899 
   -2994    -2714    -2203    -1690    -1417    -1490    -1771    -1964 
   -1837    -1359     -676      -35      360      475      298     -176 
    -861    -1676    -2577    -3458    -4178    -4645    -4887    -5015 
   -5139    -5292    -5394    -5393    -5321    -5159    -4839    -4355 
   -3747    -2998    -2074    -1074     -198      448      849     1011 
    1028     1030     1035     1034     1016      907      645      214 
    -395    -1170    -2014    -2764    -3244    -3349    -3179    -2940 
   -2695    -2401    -2068    -1780    -1634    -1683    -1880    -2091 
   -2122    -1902    -1578    -1431    -1740    -2535    -3424    -3888 
   -3645    -2778    -1719    -1015     -940    -1354    -1863    -2111 
   -2004    -1728    -1525    -1459    -1443    -1428    -1476    -1705 
   -2123    -2562    -2781    -2614    -2110    -1586    -1391    -1625 
   -2083    -2404    -2344    -1950    -1480    -1196    -1166    -1217 
   -1105     -704     -116      322      306     -147     -746    -1128 
   -1089     -808     -684     -908    -1297    -1539    -1525    -1379 
   -1278    -1362    -1602    -1737    -1620    -1463    -1548    -1888 
   -2380    -3014    -3825    -4666    -5192    -5158    -4718    -4255 
   -3998    -3913    -3906    -3997    -4221    -4473    -4637    -4754 
   -4923    -5074    -5071    -4935    -4811    -4765    -4712    -4494 
   -4132    -3871    -3773    -3573    -2974    -1935     -693      457 
    1279     1638     1638     1503     1383     1402     1539     1507 
    1048      203     -699    -1258    -1416    -1536    -1931    -2621 
   -3451    -4171    -4531    -4509    -4325    -4172    -4014    -3669 
   -2978    -1972     -947     -244       25      -24     -164     -176 
     -48      -27     -302     -801    -1271    -1456    -1242     -696 
       6      653     1034     1116     1058     1019      999      881 
     704      720     1043     1485     1788     1810     1536     1001 
     259     -484     -931     -985     -807     -602     -457     -379 
    -328     -211       52      519     1089     1408     1210      576 
    -287    -1190    -2020    -2774    -3441    -3917    -4098    -3947 
   -3429    -2570    -1621     -950     -791    -1057    -1377    -1377 
    -961     -338      130      168     -222     -785    -1255    -1471 
   -1428    -1262     -996     -522       32      322      187     -224 
    -635     -880     -992    -1090    -1331    -1776    -2231    -2397 
   -2174    -1713    -1270    -1042    -1044    -1147    -1169    -1023 
    -804     -672     -727    -1055    -1692    -2566    -3469    -4078 
   -4149    -3699    -2980    -2362    -2041    -1903    -1823    -1788 
   -1706    -1491    -1224    -1078    -1194    -1622    -2304    -3117 
   -3971    -4847    -5637    -6021    -5814    -5287    -4881    -4804 
   -4909    -4853    -4425    -3703    -2968    -2551    -2554    -2799 
   -3076    -3258    -3339    -3389    -3483    -3588    -3480    -3005 
   -2327    -1696    -1216     -886     -633     -429     -317     -280 
    -303     -434     -684     -977    -1239    -1505    -1837    -2116 
   -2054    -1534     -792     -143      229      257       40     -132 
      35      631     1383     1759     1485      831      245     -124 
    -456     -897    -1391    -1759    -1768    -1343     -753     -398 
    -463     -801    -1084    -1044     -631      -78      290      340 
      63     -527    -1289    -1980    -2451    -2712    -2876    -3021 
   -3073    -2941    -2694    -2482    -2431    -2578    -2820    -2988 
   -3021    -3026    -3154    -3407    -3630    -3640    -3384    -3002 
   -2716    -2641    -2818    -3269    -3867    -4306    -4367    -4087 
   -3657    -3264    -2997    -2828    -2717    -2624    -2519    -2407 
   -2293    -2177    -2103    -2185    -2469    -2839    -3075    -2940 
   -2369    -1601     -972     -650     -587     -679     -873    -1112 
   -1327    -1452    -1456    -1375    -1266    -1217    -1350    -1652 
   -1950    -2141    -2285    -2563    -3082    -3650    -3919    -3708 
   -3102    -2327    -1602    -1024     -584     -272     -114     -129 
    -253     -353     -338     -218      -21      230      442      469 
     342      313      592     1182     1890     2504     3013     3522 
    3987     4197     3970     3348     2525     1630      727      -55 
    -567     -769     -815     -963    -1351    -1911    -2502    -2876 
   -2806    -2386    -1922    -1671    -1734    -2016    -2300    -2443 
   -2430    -2293    -2000    -1470     -807     -321     -244     -633 
   -1344    -2076    -2612    -2978    -3339    -3850    -4506    -5132 
   -5481    -5412    -5042    -4665    -4491    -4434    -4228    -3758 
   -3110    -2400    -1749    -1306    -1185    -1394    -1831    -2363 
   -2866    -3253    -3515    -3645    -3682    -3832    -4272    -4963 
   -5651    -5942    -5574    -4642    -3500    -2492    -1752    -1254 
    -892     -498       94      936     1898     2759     3379     3697 
    3680     3406     3102     2876     2550     1906      961      -68 
    -965    -1657    -2185    -2529    -2566    -2239    -1736    -1360 
   -1266    -1367    -1486    -1458    -1208     -869     -689     -778 
   -1036    -1287    -1448    -1532    -1599    -1713    -1873    -2029 
   -2178    -2326    -2415    -2459    -2606    -2957    -3389    -3639 
   -3524    -3067    -2425    -1767    -1254    -1001    -1004    -1147 
   -1308    -1408    -1387    -1213     -966     -874    -1205    -2020 
   -3075    -4014    -4554    -4580    -4251    -3881    -3681    -3605 
   -3438    -3030    -2359    -1474     -504      403     1173     1796 
    2323     2729     2855     2550     1795      761     -243     -969 
   -1378    -1613    -1931    -2524    -3373    -4274    -4945    -5217 
   -5148    -4924    -4689    -4460    -4164    -3742    -3206    -2671 
   -2238    -1779    -1036      103     1499     2818     3665     3819 
    3372     2574     1588      468     -697    -1759    -2539    -2862 
   -2698    -2295    -2026    -2150    -2678    -3365    -3859    -3950 
   -3676    -3242    -2890    -2763    -2829    -2918    -2855    -2600 
   -2278    -2077    -2106    -2320    -2629    -3009    -3437    -3816 
   -4004    -3946    -3727    -3492    -3412    -3609    -4072    -4672 
   -5134    -5192    -4881    -4486    -4241    -4160    -4035    -3632 
   -2901    -1969     -997      -60      724     1152     1089      548 
    -292    -1113    -1594    -1632    -1406    -1258    -1490    -2142 
   -2920    -3474    -3665    -3593    -3500    -3564    -3759    -3946 
   -3964    -3705    -3231    -2743    -2381    -2162    -2000    -1761 
   -1431    -1162    -1120    -1337    -1699    -2062    -2371    -2639 
   -2894    -3126    -3210    -2990    -2506    -2004    -1730    -1760 
   -1930    -1937    -1570     -850       41      901     1613     2110 
    2361     2446     2481     2490     2451     2330     2050     1601 
    1074      545       22     -479     -966    -1449    -1918    -2359 
   -2716    -2882    -2783    -2461    -2002    -1513    -1134     -924 
    -783     -580     -330     -160     -133     -234     -460     -784 
   -1155    -1536    -1902    -2191    -2276    -2111    -1848    -1691 
   -1705    -1811    -1837    -1649    -1364    -1213    -1244    -1336 
   -1364    -1223     -868     -388       20      190       49     -380 
    -958    -1501    -1884    -2072    -2127    -2173    -2222    -2150 
   -1907    -1556    -1181     -849     -577     -355     -193     -105 
    -109     -228     -465     -733     -888     -859     -691     -480 
    -349     -361     -500     -758    -1121    -1541    -1956    -2289 
   -2527    -2717    -2833    -2797    -2617    -2401    -2304    -2425 
   -2709    -2997    -3099    -2862    -2296    -1580     -934     -492 
    -298     -352     -588     -849    -1032    -1181    -1363    -1579 
   -1844    -2204    -2652    -3171    -3734    -4239    -4519    -4494 
   -4220    -3851    -3547    -3416    -3470    -3640    -3835    -3991 
   -4043    -3897    -3483    -2863    -2247    -1825    -1656    -1676 
   -1768    -1856    -1952    -2045    -2069    -1993    -1836    -1652 
   -1533    -1541    -1657    -1815    -1964    -2137    -2425    -2867 
   -3406    -3906    -4197    -4201    -3958    -3538    -3063    -2679 
   -2413    -2147    -1798    -1398    -1026     -734     -508     -288 
     -25      279      561      750      832      861      859      742 
     398     -167     -900    -1759    -2628    -3291    -3593    -3499 
   -3052    -2415    -1806    -1340    -1059     -986    -1051    -1109 
   -1055     -837     -467      -27      419      846     1252     1624 
    1850     1782     1389      766       55     -612    -1178    -1682 
   -2191    -2705    -3176    -3549    -3775    -3875    -3948    -4071 
   -4217    -4328    -4369    -4288    -4063    -3755    -3416    -3037 
   -2613    -2205    -1885    -1699    -1707    -1852    -1914    -1740 
   -1424    -1209    -1212    -1354    -1541    -1730    -1898    -2116 
   -2479    -2914    -3223    -3314    -3218    -3044    -2916    -2825 
   -2608    -2147    -1506     -874     -392      -49      226      442 
     527      383       12     -459     -859     -996     -758     -257 
     248      546      573      415      166     -157     -544     -912 
   -1175    -1331    -1448    -1567    -1653    -1756    -2015    -2482 
   -3071    -3653    -4117    -4380    -4415    -4247    -3909    -3505 
   -3219    -3105    -3024    -2843    -2529    -2107    -1642    -1173 
    -697     -279      -16       49      -43     -218     -367     -394 
    -292     -141      -45      -82     -276     -610    -1027    -1503 
   -2052    -2602    -3011    -3223    -3311    -3365    -3434    -3546 
   -3712    -3920    -4109    -4201    -4160    -4004    -3758    -3434 
   -3068    -2759    -2623    -2697    -2889    -3041    -3037    -2859 
   -2582    -2301    -2087    -1957    -1865    -1786    -1734    -1733 
   -1827    -2053    -2388    -2758    -3048    -3171    -3111    -2875 
   -2539    -2312    -2301    -2390    -2454    -2465    -2461    -2506 
