Origin Time       2025/01/13 21:19:00
Lat.              31.8
Long.             131.6
Depth. (km)       30
Mag.              6.9
Station Code      KGS002
Station Lat.      32.0916
Station Long.     130.3519
Station Height(m) 12
Record Time       2025/01/13 21:19:54
Sampling Freq(Hz) 100Hz
Duration Time(s)  108
Dir.              E-W
Scale Factor      7845(gal)/8223790
Max. Acc. (gal)   6.396
Last Correction   2025/01/13 21:19:54
Memo.             
[...]
     287     -201     -708    -1240    -1740    -2079    -2147    -1969 
   -1657    -1246     -739     -249       72      163       39     -233 
    -540     -735     -780     -764     -743     -687     -529     -278 
     -43      101      162      174      190      225      218      132 
      12      -55      -66     -108     -194     -226     -143       18 
     193      371      540      608      471       98     -426    -1003 
   -1583    -2119    -2493    -2628    -2565    -2365    -2045    -1652 
   -1263     -899     -594     -440     -449     -537     -652     -777 
    -819     -699     -502     -349     -214       -5      264      507 
     676      764      750      608      376      190      156      218 
     272      291      271      174      -29     -318     -580     -704 
    -658     -495     -297      -75      229      602      934     1104 
    1065      878      664      500      409      399      469      575 
     654      683      648      526      321       98      -76     -201 
    -310     -422     -529     -639     -758     -805     -742     -661 
    -656     -704     -770     -889    -1116    -1435    -1798    -2106 
   -2228    -2150    -1973    -1738    -1433    -1082     -778     -610 
    -560     -560     -581     -592     -569     -548     -552     -560 
    -535     -459     -360     -287     -238     -162      -75      -89 
    -265     -511     -688     -738     -684     -589     -487     -337 
    -155      -32       -6      -48     -124     -205     -306     -452 
    -618     -784     -978    -1196    -1339    -1333    -1216    -1086 
   -1032    -1102    -1262    -1462    -1703    -1937    -2065    -2077 
   -2014    -1900    -1755    -1587    -1398    -1179     -923     -660 
    -434     -257     -148     -151     -263     -405     -517     -579 
    -573     -527     -461     -360     -203      -32       35      -76 
    -291     -500     -661     -783     -882     -919     -812     -569 
    -315     -170     -121     -117     -149     -217     -305     -421 
    -572     -716     -795     -800     -746     -603     -361     -114 
      25       52       51       66       83      103      129      143 
     174      260      399      550      653      685      676      641 
     588      503      329       40     -334     -750    -1124    -1348 
   -1352    -1156     -868     -575     -295      -45      135      252 
     355      457      508      477      380      238       95        8 
     -22      -29      -21      -20      -45      -78     -124     -256 
    -477     -681     -812     -949    -1146    -1336    -1424    -1397 
   -1274    -1063     -804     -558     -375     -292     -324     -423 
    -538     -611     -564     -378     -147       32      147      171 
      93       -5      -32        8       59       48      -52     -216 
    -372     -460     -465     -402     -310     -264     -259     -240 
    -207     -180     -147     -101      -76     -121     -238     -403 
    -608     -843    -1074    -1236    -1287    -1273    -1246    -1177 
   -1048     -901     -788     -699     -591     -460     -361     -319 
    -291     -233     -166     -122      -82      -13       71      112 
      37     -160     -421     -693     -951    -1155    -1262    -1277 
   -1224    -1121     -993     -843     -658     -441     -194       51 
     255      406      465      402      287      251      328      419 
     437      364      205       17     -121     -189     -211     -229 
    -257     -271     -252     -203     -162     -162     -180     -166 
    -121      -64      -35     -125     -394     -793    -1194    -1479 
   -1582    -1476    -1201     -849     -513     -237      -59       -8 
     -67     -179     -317     -507     -729     -877     -872     -693 
    -363       20      295      365      244        1     -290     -573 
    -796     -958    -1135    -1381    -1667    -1972    -2280    -2521 
   -2608    -2484    -2201    -1872    -1551    -1247     -974     -743 
    -541     -333      -93      147      322      421      473      495 
     475      422      371      349      319      218       94       58 
     151      317      486      648      849     1063     1175     1120 
     936      654      256     -247     -756    -1159    -1444    -1637 
   -1730    -1722    -1594    -1350    -1090     -899     -739     -575 
    -465     -479     -546     -545     -452     -313     -120      152 
     453      700      858      924      874      688      353      -71 
    -484     -818    -1023    -1019     -778     -411      -48      279 
     567      742      757      630      400      114     -145     -313 
    -363     -297     -128       75      190      121      -95     -348 
    -538     -618     -580     -441     -240      -70        4        5 
     -24      -83     -191     -340     -500     -621     -660     -665 
    -723     -854     -972     -985     -915     -850     -832     -882 
   -1011    -1177    -1308    -1352    -1297    -1175    -1059     -978 
    -915     -861     -826     -811     -780     -683     -518     -344 
    -233     -240     -371     -550     -733     -928    -1081    -1121 
   -1081    -1047    -1082    -1175    -1263    -1301    -1305    -1290 
   -1251    -1147     -951     -677     -355      -14      319      612 
     804      842      739      550      326       75     -248     -653 
   -1062    -1377    -1514    -1440    -1175     -780     -352      -27 
     137      182      183      194      193      122      -36     -247 
    -477     -738    -1009    -1243    -1441    -1610    -1717    -1742 
   -1675    -1560    -1468    -1390    -1305    -1233    -1155    -1036 
    -882     -731     -598     -477     -422     -499     -658     -805 
    -893     -874     -719     -442      -99      190      355      444 
     502      519      494      419      301      132     -114     -414 
    -685     -876     -954     -893     -723     -502     -245       82 
     469      828     1080     1170     1073      834      565      360 
     265      287      399      546      656      685      614      449 
     233      -29     -337     -608     -776     -872     -940     -990 
   -1032    -1078    -1117    -1084     -896     -552     -163      120 
     199       59     -265     -702    -1123    -1393    -1439    -1293 
   -1016     -652     -255      105      365      457      357      108 
    -240     -616     -938    -1177    -1327    -1372    -1310    -1169 
   -1005     -900     -886     -912     -931     -922     -855     -711 
    -488     -240      -76      -48     -153     -365     -608     -820 
    -994    -1080    -1007     -800     -581     -449     -391     -388 
    -504     -754    -1036    -1221    -1215     -988     -612     -245 
     -22       21      -68     -245     -490     -792    -1120    -1399 
   -1536    -1494    -1327    -1113     -919     -816     -814     -814 
    -720     -548     -351     -140       33       89        8     -157 
    -321     -417     -464     -504     -560     -630     -687     -702 
    -679     -639     -603     -580     -588     -621     -627     -600 
    -592     -612     -608     -526     -340      -78      176      334 
     387      367      271      109      -48     -145     -202     -294 
    -463     -652     -795     -896     -978    -1039    -1048     -989 
    -854     -630     -342      -47      211      426      610      738 
     739      622      465      345      340      454      603      691 
     672      518      189     -257     -658     -943    -1163    -1321 
   -1355    -1227     -973     -683     -414     -205      -71        9 
      64       83       52        6       13       98      202      275 
     332      368      341      226       12     -292     -608     -891 
   -1158    -1393    -1567    -1722    -1922    -2135    -2236    -2076 
   -1599     -888      -67      737     1356     1622     1467      961 
     249     -535    -1297    -1911    -2269    -2336    -2138    -1721 
   -1175     -588       12      579      969     1058      918      734 
     580      422      280      228      272      302      220      120 
     159      317      449      475      384      163     -210     -697 
   -1135    -1324    -1213     -938     -683     -541     -500     -553 
    -695     -857     -958    -1036    -1216    -1530    -1872    -2073 
   -2039    -1830    -1544    -1181     -738     -317      -63      -25 
    -151     -382     -703    -1048    -1289    -1405    -1470    -1456 
   -1259     -874     -444      -89      166      310      314      180 
     -64     -375     -679     -922    -1057    -1046     -904     -756 
    -737     -828     -899     -893     -868     -855     -835     -797 
    -773     -791     -838     -869     -819     -626     -287      130 
     544      861      993      931      772      618      471      295 
      66     -287     -753    -1169    -1413    -1549    -1672    -1737 
   -1661    -1470    -1254    -1048     -827     -575     -325      -71 
     226      529      714      742      719      762      905     1120 
    1308     1355     1190      820      326     -226     -780    -1189 
   -1332    -1248    -1047     -823     -670     -680     -873    -1132 
   -1242    -1092     -787     -468     -151      139      236       44 
    -319     -638     -756     -676     -557     -517     -537     -567 
    -600     -638     -633     -546     -434     -376     -353     -286 
    -133       40      162      280      496      808     1152     1495 
    1796     1988     2004     1825     1475     1003      450     -139 
    -688    -1109    -1358    -1441    -1368    -1144     -816     -483 
    -268     -236     -353     -581     -892    -1197    -1402    -1483 
   -1456    -1340    -1167     -996     -868     -756     -603     -391 
    -190     -141     -342     -697    -1016    -1273    -1583    -1941 
   -2215    -2388    -2563    -2783    -2930    -2884    -2743    -2708 
   -2859    -3157    -3586    -4105    -4599    -4949    -5044    -4792 
   -4185    -3369    -2558    -1896    -1451    -1246    -1202    -1210 
   -1262    -1390    -1532    -1583    -1556    -1568    -1690    -1894 
   -2119    -2305    -2421    -2500    -2558    -2520    -2338    -2065 
   -1799    -1620    -1561    -1583    -1602    -1560    -1421    -1136 
    -707     -252       45       87      -52     -225     -319     -311 
    -237     -110      113      480      901     1179     1212     1046 
     801      598      513      622      970     1516     2173     2832 
    3341     3596     3580     3368     3103     2901     2797     2816 
    2955     3134     3284     3395     3468     3523     3605     3748 
    3919     4070     4189     4303     4464     4685     4892     4996 
    4974     4849     4664     4442     4241     4180     4288     4423 
    4422     4224     3856     3384     2868     2376     1911     1432 
     934      459       90      -59       51      338      642      842 
     895      815      650      432      135     -206     -410     -373 
    -230     -121      -39        1      -89     -356     -772    -1285 
   -1846    -2405    -2909    -3319    -3649    -3919    -4132    -4344 
   -4658    -5061    -5340    -5289    -4927    -4444    -3974    -3543 
   -3183    -2976    -2961    -3046    -3078    -3001    -2833    -2577 
   -2247    -1953    -1868    -2045    -2313    -2489    -2544    -2531 
   -2455    -2323    -2253    -2369    -2654    -2992    -3306    -3588 
   -3763    -3672    -3246    -2612    -1935    -1321     -858     -623 
    -589     -634     -672     -724     -843    -1069    -1464    -2034 
   -2594    -2961    -3149    -3234    -3226    -3156    -3090    -3072 
   -3122    -3180    -3057    -2570    -1783     -976     -384      -83 
      36      187      468      807     1096     1188      922      311 
    -356     -729     -685     -378       -6      334      648      970 
    1372     1884     2448     2959     3333     3503     3433     3191 
    2967     2913     3042     3294     3646     4082     4510     4837 
    5019     5027     4841     4441     3863     3265     2857     2685 
    2585     2405     2165     1921     1653     1318      882      349 
    -222     -776    -1308    -1867    -2452    -3029    -3561    -3991 
   -4280    -4434    -4426    -4247    -3977    -3673    -3311    -2867 
   -2371    -1908    -1547    -1282    -1075     -950     -994    -1242 
   -1568    -1834    -2047    -2307    -2643    -2980    -3179    -3163 
   -3019    -2944    -3036    -3240    -3480    -3746    -3994    -4120 
   -4102    -4090    -4236    -4494    -4676    -4649    -4413    -4036 
   -3586    -3117    -2651    -2188    -1719    -1219     -715     -346 
    -189     -156     -145      -99       13      162      248      240 
     218      264      415      695     1047     1435     1880     2338 
    2695     2889     2897     2783     2659     2558     2461     2421 
    2506     2687     2866     3009     3191     3412     3550     3585 
    3581     3515     3330     3017     2632     2269     1996     1825 
    1729     1640     1494     1274      994      700      468      329 
     248      175       93       -1     -112     -256     -440     -639 
    -828    -1046    -1348    -1687    -1921    -1949    -1807    -1621 
   -1485    -1364    -1166     -843     -463     -109      218      500 
     627      527      278       -2     -267     -480     -603     -712 
    -958    -1354    -1779    -2130    -2366    -2494    -2608    -2826 
   -3233    -3843    -4595    -5400    -6176    -6806    -7126    -7067 
   -6748    -6323    -5814    -5215    -4622    -4143    -3785    -3469 
   -3132    -2774    -2415    -2003    -1466     -834     -274       95 
     334      572      854     1123     1297     1325     1213     1017 
     800      606      454      368      348      268      -18     -454 
    -847    -1089    -1219    -1270    -1196     -984     -749     -665 
    -769     -880     -815     -592     -336     -102      121      321 
     486      689     1007     1375     1638     1687     1529     1229 
     850      573      633     1024     1522     1973     2400     2814 
    3102     3222     3294     3381     3412     3303     3099     2940 
    2862     2785     2735     2805     2940     2997     2941     2880 
    2857     2789     2656     2531     2408     2257     2092     1908 
    1713     1524     1332     1142      951      700      371       33 
    -230     -427     -596     -715     -764     -812     -912    -1027 
   -1123    -1202    -1283    -1362    -1455    -1611    -1844    -2076 
   -2189    -2118    -1902    -1652    -1487    -1456    -1524    -1669 
   -1885    -2084    -2173    -2164    -2127    -2101    -2070    -2018 
   -1992    -2084    -2335    -2714    -3137    -3493    -3712    -3755 
   -3615    -3400    -3287    -3304    -3327    -3281    -3202    -3129 
   -3060    -2988    -2932    -2922    -2963    -2999    -3030    -3095 
   -3167    -3165    -3064    -2895    -2708    -2509    -2277    -2039 
   -1884    -1817    -1749    -1614    -1391    -1081     -703     -328 
     -70      -21     -184     -499     -865    -1192    -1413    -1516 
   -1564    -1606    -1611    -1543    -1414    -1259    -1105     -977 
    -870     -745     -523     -172      248      639      954     1208 
    1397     1456     1354     1179     1051     1007     1039     1134 
    1314     1632     2050     2512     3029     3618     4237     4797 
    5223     5498     5636     5652     5584     5464     5286     4985 
    4518     3933     3306     2697     2165     1757     1463     1263 
    1166     1152     1132     1030      850      650      502      449 
     449      430      400      418      452      406      305      233 
     145      -36     -267     -464     -638     -858    -1120    -1320 
   -1374    -1282    -1071     -769     -441     -170       -9       56 
      12     -198     -565    -1024    -1518    -1989    -2409    -2744 
   -2952    -3038    -3087    -3157    -3222    -3215    -3142    -3045 
   -2952    -2875    -2841    -2916    -3084    -3230    -3252    -3117 
   -2820    -2424    -2041    -1725    -1501    -1370    -1335    -1424 
   -1634    -1908    -2207    -2516    -2787    -2938    -2952    -2883 
   -2781    -2635    -2432    -2245    -2169    -2199    -2257    -2281 
   -2222    -2027    -1706    -1337     -973     -618     -298      -47 
     135      252      276      159     -129     -579    -1138    -1725 
   -2232    -2562    -2673    -2590    -2373    -2060    -1694    -1370 
   -1144     -939     -638     -256       85      309      400      334 
     113     -207     -569     -882    -1042    -1058    -1011     -919 
    -784     -633     -503     -378     -194       66      344      588 
     783      905      935      904      846      723      513      301 
     194      202      257      297      298      284      284      332 
     446      594      693      722      746      797      835      823 
     764      673      549      383      241      214      272      337 
     409      522      669      787      834      850      908     1077 
    1325     1537     1665     1732     1709     1580     1418     1310 
    1235     1093      864      589      306       58      -67      -16 
     130      199       86     -203     -581     -935    -1223    -1421 
   -1462    -1378    -1313    -1341    -1431    -1528    -1624    -1733 
   -1836    -1887    -1903    -1914    -1915    -1929    -1993    -2073 
   -2106    -2089    -2035    -1923    -1757    -1575    -1429    -1350 
   -1340    -1382    -1429    -1440    -1433    -1413    -1351    -1258 
   -1159    -1074    -1000     -920     -828     -739     -688     -722 
    -845    -1021    -1227    -1447    -1651    -1790    -1838    -1837 
   -1841    -1857    -1849    -1756    -1537    -1235     -899     -545 
    -190      157      484      792     1111     1424     1692     1906 
    2039     2084     2095     2128     2147     2099     2046     2097 
    2239     2377     2457     2444     2312     2085     1823     1572 
    1317      999      581       78     -480    -1061    -1595    -1976 
   -2138    -2107    -1973    -1795    -1568    -1285     -954     -614 
    -290       31      306      444      414      280      130       59 
     103      214      352      500      592      585      529      488 
     471      430      345      224       89      -55     -236     -423 
    -558     -666     -791     -868     -828     -742     -714     -769 
    -886    -1004    -1063    -1101    -1171    -1271    -1375    -1455 
   -1512    -1578    -1642    -1664    -1655    -1638    -1648    -1703 
   -1759    -1794    -1811    -1783    -1711    -1638    -1572    -1503 
   -1445    -1422    -1406    -1339    -1233    -1146    -1066     -935 
    -731     -471     -143      267      710     1077     1294     1318 
    1139      814      454      167      -31     -167     -226     -210 
    -191     -240     -368     -540     -743    -1013    -1324    -1626 
   -1892    -2072    -2172    -2216    -2134    -1885    -1524    -1131 
    -847     -762     -824     -999    -1277    -1561    -1771    -1906 
   -1985    -2058    -2187    -2334    -2430    -2427    -2331    -2214 
   -2076    -1873    -1628    -1370    -1102     -857     -684     -589 
    -548     -557     -642     -784     -918     -981     -936     -776 
