Origin Time       2025/01/13 21:19:00
Lat.              31.8
Long.             131.6
Depth. (km)       30
Mag.              6.9
Station Code      KGS014
Station Lat.      31.4963
Station Long.     130.6994
Station Height(m) 4
Record Time       2025/01/13 21:19:50
Sampling Freq(Hz) 100Hz
Duration Time(s)  147
Dir.              E-W
Scale Factor      7845(gal)/8223790
Max. Acc. (gal)   30.380
Last Correction   2025/01/13 21:19:51
Memo.             
[...]
   -2868    -2955    -2809    -2251    -1115      461     2165     3765 
    5150     6365     7545     8749     9958    11037    11715    11871 
   11665    11287    10810    10160     9154     7636     5607     3323 
    1183     -623    -2168    -3512    -4653    -5616    -6507    -7389 
   -8155    -8757    -9331   -10011   -10781   -11523   -12191   -12731 
  -12960   -12749   -12156   -11245    -9988    -8425    -6667    -4823 
   -3133    -1922    -1493    -2011    -3260    -4720    -5935    -6698 
   -7138    -7636    -8495    -9790   -11446   -13355   -15427   -17544 
  -19450   -20771   -21280   -21061   -20294   -19105   -17622   -15971 
  -14207   -12337   -10407    -8571    -7002    -5714    -4662    -3875 
   -3311    -2916    -2752    -2906    -3352    -4001    -4765    -5454 
   -5748    -5398    -4401    -3019    -1574     -218      996     2056 
    3056     4050     4920     5657     6369     7042     7577     7881 
    7825     7375     6832     6613     6831     7300     7642     7434 
    6529     5027     3149     1320     -164    -1359    -2369    -3299 
   -4275    -5205    -5876    -6227    -6323    -6318    -6439    -6797 
   -7231    -7469    -7329    -6733    -5767    -4719    -3834    -3110 
   -2474    -1898    -1310     -589      232     1024     1803     2654 
    3527     4307     4893     5225     5260     4909     4151     3180 
    2220     1390      839      606      463      190     -225     -691 
   -1138    -1576    -1922    -1975    -1667    -1125     -564     -186 
    -211     -785    -1783    -2952    -4228    -5676    -7211    -8545 
   -9385    -9576    -9159    -8324    -7265    -6245    -5580    -5366 
   -5374    -5297    -4953    -4375    -3753    -3343    -3280    -3477 
   -3877    -4579    -5590    -6652    -7464    -7873    -7842    -7392 
   -6608    -5638    -4774    -4401    -4750    -5736    -6879    -7603 
   -7676    -7195    -6390    -5544    -4806    -4189    -3743    -3485 
   -3369    -3341    -3202    -2648    -1522       52     1688     2988 
    3786     4045     3773     3073     2100     1040      160     -368 
    -573     -561     -446     -340     -247      -31      353      792 
    1210     1517     1576     1381      928      116     -999    -2157 
   -3188    -4036    -4683    -5263    -5902    -6488    -6856    -6937 
   -6708    -6268    -5787    -5319    -4865    -4455    -4089    -3770 
   -3539    -3422    -3353    -3227    -3036    -2853    -2675    -2556 
   -2701    -3154    -3800    -4611    -5491    -6231    -6766    -7087 
   -7179    -7134    -7082    -7164    -7581    -8433    -9697   -11272 
  -12962   -14635   -16305   -17922   -19323   -20393   -21046   -21155 
  -20632   -19472   -17720   -15498   -12941   -10131    -7184    -4261 
   -1455     1139     3311     4936     6057     6724     7060     7204 
    7099     6571     5489     3848     1865      -85    -1656    -2612 
   -2824    -2384    -1494     -261     1089     2164     2698     2637 
    2065     1240      430     -213     -637     -953    -1362    -1910 
   -2488    -2963    -3148    -2951    -2521    -2037    -1567    -1166 
    -814     -449      -71      330      716      913      804      430 
     -83     -619    -1065    -1328    -1452    -1563    -1756    -2088 
   -2542    -3010    -3418    -3678    -3624    -3202    -2539    -1809 
   -1189     -915    -1104    -1587    -2016    -2065    -1516     -340 
    1267     2941     4332     5282     5825     6052     6034     5842 
    5586     5391     5328     5382     5476     5449     5066     4185 
    2826     1074     -926    -2916    -4606    -5811    -6520    -6872 
   -7068    -7209    -7296    -7358    -7441    -7533    -7627    -7715 
   -7690    -7443    -6997    -6444    -5929    -5657    -5799    -6372 
   -7306    -8437    -9533   -10440   -11005   -11056   -10563    -9605 
   -8284    -6790    -5398    -4368    -3816    -3721    -3970    -4310 
   -4518    -4522    -4303    -3927    -3586    -3496    -3812    -4557 
   -5575    -6654    -7618    -8355    -8827    -8989    -8789    -8208 
   -7265    -6092    -4908    -3816    -2725    -1551     -321      843 
    1757     2276     2311     1881     1174      375     -407    -1069 
   -1602    -2137    -2764    -3414    -4029    -4629    -5101    -5317 
   -5278    -5032    -4708    -4410    -4139    -3905    -3703    -3530 
   -3478    -3628    -3931    -4236    -4359    -4243    -3985    -3624 
   -3115    -2485    -1803    -1156     -669     -426     -419     -560 
    -665     -567     -271       62      220       74     -371    -1104 
   -2099    -3217    -4266    -5061    -5459    -5394    -4935    -4244 
   -3393    -2390    -1370     -475      290      900     1333     1764 
    2469     3547     4765     5706     6075     5707     4499     2586 
     341    -1881    -3777    -5097    -5832    -6199    -6380    -6454 
   -6546    -6767    -7152    -7711    -8401    -9016    -9243    -8896 
   -8082    -7053    -6062    -5348    -5007    -4885    -4777    -4595 
   -4353    -4120    -3954    -3865    -3831    -3821    -3789    -3658 
   -3379    -3006    -2668    -2436    -2299    -2219    -2193    -2262 
   -2469    -2818    -3294    -3813    -4263    -4607    -4870    -5057 
   -5219    -5362    -5278    -4780    -3836    -2473     -845      828 
    2424     3836     4999     6006     6945     7723     8125     7940 
    7053     5620     3954     2259      623     -913    -2338    -3662 
   -4889    -5965    -6829    -7460    -7842    -8000    -8016    -7919 
   -7657    -7245    -6786    -6367    -6026    -5806    -5810    -6089 
   -6593    -7202    -7705    -7889    -7696    -7253    -6724    -6196 
   -5714    -5308    -5020    -4892    -4869    -4855    -4872    -4927 
   -4915    -4760    -4522    -4278    -4048    -3848    -3720    -3728 
   -3869    -4000    -3924    -3505    -2732    -1714     -630      361 
    1117     1518     1553     1343     1051      810      634      487 
     340      163      -28     -226     -481     -773     -996    -1092 
   -1100    -1057     -959     -784     -492     -133      153      367 
     572      665      529      167     -457    -1360    -2351    -3249 
   -4016    -4590    -4860    -4793    -4455    -3939    -3322    -2659 
   -1991    -1337     -735     -310     -222     -554    -1251    -2150 
   -3109    -4035    -4783    -5246    -5449    -5460    -5341    -5224 
   -5286    -5620    -6199    -6974    -7773    -8302    -8387    -8028 
   -7314    -6512    -5976    -5890    -6255    -6937    -7658    -8147 
   -8280    -8024    -7338    -6295    -5081    -3824    -2586    -1521 
    -773     -307       29      352      679     1003     1345     1679 
    1880     1879     1749     1541     1247      912      511      -90 
    -962    -2047    -3211    -4233    -4908    -5197    -5193    -5015 
   -4791    -4668    -4725    -4905    -5117    -5366    -5657    -5900 
   -5984    -5810    -5217    -4186    -2987    -1904     -976     -136 
     604     1269     1950     2652     3279     3765     4101     4351 
    4502     4410     4004     3223     1931      218    -1587    -3262 
   -4684    -5742    -6446    -6925    -7379    -7992    -8850    -9925 
  -11067   -12056   -12756   -13161   -13293   -13135   -12721   -12118 
  -11333   -10444    -9660    -9103    -8802    -8764    -8870    -8896 
   -8721    -8372    -7832    -7057    -6164    -5308    -4599    -4180 
   -4126    -4334    -4680    -5084    -5414    -5521    -5298    -4742 
   -4072    -3596    -3461    -3647    -4017    -4398    -4750    -5127 
   -5513    -5833    -5989    -5883    -5428    -4549    -3249    -1757 
    -388      653     1209     1178      627     -198    -1004    -1539 
   -1742    -1742    -1605    -1312     -900     -361      378     1345 
    2540     3964     5549     7175     8781    10322    11659    12638 
   13212    13429    13321    12870    12121    11138     9954     8673 
    7460     6442     5684     5159     4758     4372     3885     3237 
    2508     1788     1066      330     -391    -1058    -1594    -1977 
   -2309    -2674    -3156    -3883    -4841    -5872    -6798    -7427 
   -7619    -7350    -6758    -6072    -5395    -4722    -4060    -3434 
   -2879    -2494    -2366    -2481    -2744    -3092    -3547    -4199 
   -5123    -6336    -7776    -9279   -10723   -12064   -13244   -14224 
  -15120   -16015   -16885   -17757   -18605   -19195   -19309   -18866 
  -17810   -16152   -14075   -11808    -9525    -7425    -5699    -4405 
   -3447    -2659    -1891    -1044      -68      935     1706     2057 
    1961     1399      434     -749    -1954    -2968    -3649    -4032 
   -4249    -4483    -4907    -5567    -6416    -7346    -8158    -8704 
   -9040    -9223    -9231    -9088    -8760    -8244    -7711    -7279 
   -6934    -6602    -6089    -5294    -4315    -3215    -1969     -652 
     633     1854     2987     4024     4968     5786     6442     6859 
    6906     6563     5935     5174     4459     3921     3580     3404 
    3330     3303     3329     3410     3447     3269     2805     2119 
    1352      652       87     -399     -988    -1895    -3188    -4716 
   -6273    -7703    -8820    -9463    -9598    -9252    -8525    -7577 
   -6477    -5259    -4039    -2880    -1795     -855     -117      463 
     958     1435     1925     2388     2798     3161     3483     3743 
    3885     3877     3730     3388     2781     1956     1008       31 
    -900    -1841    -2887    -4066    -5382    -6754    -8001    -8945 
   -9502    -9780    -9969   -10146   -10293   -10363   -10303   -10150 
  -10025    -9983   -10007   -10004    -9821    -9445    -9030    -8662 
   -8344    -8101    -7951    -7836    -7631    -7279    -6852    -6471 
   -6273    -6315    -6482    -6620    -6643    -6520    -6273    -5918 
   -5441    -4837    -4060    -2999    -1628      -95     1378     2605 
    3478     4017     4324     4499     4549     4402     3986     3261 
    2278     1166       29    -1046    -1961    -2667    -3113    -3227 
   -3056    -2709    -2218    -1582     -838      -10      874     1690 
    2286     2602     2617     2292     1555      440     -843    -2091 
   -3214    -4175    -4972    -5721    -6550    -7408    -8158    -8715 
   -9022    -9085    -8978    -8761    -8434    -7940    -7312    -6698 
   -6199    -5834    -5597    -5456    -5370    -5308    -5252    -5134 
   -4774    -3978    -2637     -816     1216     3065     4476     5454 
    6141     6659     6994     7037     6723     6004     4876     3449 
    1898      363    -1028    -2212    -3219    -3990    -4357    -4240 
   -3649    -2679    -1512     -251     1063     2300     3304     4056 
    4577     4822     4716     4259     3526     2631     1671      664 
    -375    -1381    -2319    -3142    -3802    -4310    -4668    -4791 
   -4581    -4099    -3516    -2940    -2412    -2035    -1962    -2289 
   -3045    -4198    -5690    -7376    -8973   -10235   -11045   -11349 
  -11213   -10779   -10131    -9240    -8047    -6555    -4797    -2835 
    -776     1318     3388     5244     6621     7294     7184     6361 
    5027     3487     1960      483     -984    -2504    -4158    -5929 
   -7728    -9495   -11115   -12428   -13362   -13895   -14011   -13737 
  -13142   -12341   -11445   -10507    -9578    -8723    -7958    -7268 
   -6679    -6237    -5980    -5948    -6150    -6551    -7157    -8014 
   -9120   -10404   -11739   -12931   -13860   -14534   -14920   -14966 
  -14697   -14111   -13194   -12008   -10678    -9369    -8147    -6984 
   -5877    -4827    -3808    -2866    -2093    -1520    -1066     -672 
    -368     -166      -24       24      -83     -326     -664    -1034 
   -1345    -1576    -1791    -2034    -2268    -2424    -2355    -1900 
   -1132     -292      417      881     1101     1167     1200     1256 
    1337     1479     1775     2253     2832     3419     3912     4160 
    4067     3638     2978     2313     1877     1776     1988     2461 
    3099     3694     3993     3873     3395     2739     2137     1807 
    1877     2344     3148     4193     5270     6049     6255     5810 
    4760     3229     1478     -211    -1711    -3045    -4267    -5337 
   -6184    -6804    -7215    -7434    -7470    -7295    -6902    -6365 
   -5775    -5260    -4973    -4955    -5134    -5493    -6039    -6702 
   -7425    -8174    -8912    -9641   -10349   -11034   -11720   -12403 
  -13130   -13941   -14733   -15273   -15276   -14570   -13167   -11176 
   -8784    -6268    -3886    -1810     -172      936     1572     1860 
    1931     1980     2165     2562     3173     3928     4715     5466 
    6164     6804     7416     8064     8729     9315     9702     9763 
    9428     8772     7933     6991     6015     5120     4365     3711 
    3057     2307     1394      249    -1146    -2673    -4175    -5586 
   -6868    -7920    -8610    -8949    -8982    -8692    -8225    -7861 
   -7798    -8110    -8760    -9639   -10584   -11464   -12274   -13041 
  -13784   -14508   -15156   -15688   -16102   -16428   -16726   -17043 
  -17410   -17752   -17828   -17424   -16498   -15074   -13188   -10949 
   -8548    -6137    -3881    -2042     -841     -298     -336     -810 
   -1475    -2137    -2793    -3588    -4671    -6115    -7942   -10107 
  -12456   -14759   -16788   -18304   -19086   -19022   -18069   -16216 
  -13635   -10666    -7577    -4517    -1605     1173     3987     7021 
   10334    13834    17346    20660    23593    25979    27681    28648 
   28856    28363    27333    25957    24414    22790    21039    19126 
   17080    14985    12991    11191     9563     8081     6689     5323 
    4001     2832     1941     1371     1042      830      592      263 
    -133     -611    -1167    -1719    -2141    -2347    -2351    -2222 
   -2124    -2236    -2628    -3322    -4295    -5498    -6868    -8310 
   -9688   -10864   -11781   -12476   -12965   -13270   -13486   -13682 
  -13861   -14054   -14291   -14611   -15105   -15769   -16453   -17045 
  -17524   -17919   -18350   -18891   -19468   -19985   -20417   -20734 
  -20908   -20941   -20839   -20683   -20649   -20781   -20920   -20930 
  -20695   -20051   -19021   -17803   -16475   -15070   -13687   -12321 
  -10936    -9664    -8630    -7794    -7051    -6269    -5285    -3969 
   -2340     -525     1359     3199     4884     6366     7666     8827 
    9853    10697    11273    11534    11484    11101    10314     9084 
    7391     5208     2635     -112    -2882    -5620    -8143   -10069 
  -11018   -10821    -9578    -7570    -5150    -2662     -360     1696 
    3626     5552     7462     9211    10644    11688    12348    12681 
   12723    12410    11657    10565     9427     8465     7797     7456 
    7411     7692     8270     9015     9950    11101    12275    13316 
   14192    14809    15053    14854    14134    12972    11551    10006 
    8511     7191     6015     4993     4155     3451     2848     2288 
    1668      930       32    -1013    -2123    -3177    -4093    -4830 
   -5364    -5763    -6238    -6944    -7913    -9128   -10477   -11834 
  -13134   -14262   -15110   -15736   -16290   -16953   -17918   -19282 
  -21015   -22975   -24853   -26331   -27306   -27828   -28007   -27984 
  -27804   -27373   -26616   -25539   -24135   -22396   -20370   -18115 
  -15674   -13180   -10773    -8502    -6443    -4684    -3249    -2099 
   -1113     -226      556     1254     1753     1813     1416      715 
    -207    -1219    -2161    -3006    -3747    -4430    -5165    -5964 
   -6759    -7488    -8024    -8333    -8577    -8862    -9139    -9413 
   -9707   -10026   -10482   -11160   -11927   -12568   -12910   -12865 
  -12513   -11989   -11303   -10515    -9791    -9080    -8236    -7219 
   -5902    -4228    -2373     -483     1421     3318     5223     7206 
    9317    11543    13699    15471    16710    17455    17672    17319 
   16426    14953    12900    10477     7970     5687     3902     2637 
    1707      950      224     -537    -1212    -1626    -1715    -1522 
   -1111     -460      504     1807     3352     5003     6585     7811 
    8442     8461     8056     7458     6824     6296     6037     6111 
    6459     6943     7376     7539     7337     6889     6304     5634 
    4943     4217     3476     2787     2088     1351      623     -153 
   -1053    -2130    -3466    -5027    -6656    -8202    -9559   -10624 
  -11253   -11388   -11105   -10484    -9622    -8657    -7663    -6660 
   -5715    -4951    -4413    -4032    -3736    -3487    -3242    -2970 
   -2775    -2840    -3330    -4399    -6054    -8140   -10500   -12910 
  -15094   -16911   -18268   -19080   -19440   -19527   -19421   -19157 
  -18720   -17941   -16754   -15257   -13451   -11358    -9162    -6991 
   -4974    -3304    -2031    -1104     -502     -168      -74     -260 
    -646    -1181    -1957    -2924    -3921    -4943    -5958    -6814 
   -7511    -8108    -8424    -8328    -7825    -6837    -5468    -3929 
   -2272     -696      596     1676     2461     2824     2891     2644 
    1966      955     -317    -1752    -3187    -4693    -6284    -7784 
   -9174   -10440   -11437   -12221   -12923   -13436   -13694   -13805 
  -13756   -13468   -12922   -12035   -10766    -9161    -7263    -5263 
   -3373    -1588       41     1404     2566     3576     4390     5104 
    5844     6664     7607     8610     9558    10397    11049    11454 
   11669    11674    11400    10944    10405     9753     9039     8388 
    7797     7222     6663     6085     5470     4803     4045     3227 
    2394     1552      731      -29     -770    -1506    -2177    -2768 
   -3358    -4031    -4833    -5749    -6704    -7580    -8298    -8866 
   -9274    -9425    -9289    -8993    -8634    -8221    -7812    -7487 
   -7263    -7132    -7082    -7060    -7051    -7094    -7198    -7318 
   -7369    -7198    -6694    -5849    -4665    -3207    -1669     -234 
    1016     2029     2799     3346     3636     3646     3402     2952 
    2411     1903     1486     1125      751      326     -155     -685 
   -1173    -1486    -1583    -1495    -1242     -850     -396       17 
     325      487      463      234     -183     -756    -1458    -2250 
   -3040    -3773    -4475    -5097    -5552    -5826    -5942    -5904 
   -5748    -5520    -5184    -4727    -4243    -3759    -3208    -2604 
   -2010    -1502    -1225    -1283    -1701    -2463    -3523    -4804 
   -6197    -7578    -8837    -9884   -10709   -11385   -11978   -12519 
  -13086   -13725   -14341   -14760   -14859   -14616   -14102   -13400 
  -12568   -11686   -10845   -10084    -9432    -8880    -8328    -7722 
   -7044    -6276    -5489    -4749    -4052    -3447    -3015    -2817 
   -2895    -3229    -3757    -4437    -5188    -5926    -6639    -7295 
   -7854    -8320    -8692    -9011    -9346    -9694   -10041   -10409 
  -10787   -11113   -11333   -11410   -11318   -11025   -10498    -9782 
   -8961    -8083    -7199    -6380    -5670    -5093    -4654    -4325 
   -4045    -3744    -3368    -2938    -2512    -2128    -1803    -1520 
   -1167     -611      189     1217     2458     3848     5302     6756 
    8163     9481    10640    11573    12298    12876    13352    13765 
   14130    14472    14774    14962    14944    14643    14011    13103 
   12078    11133    10359     9772     9340     8976     8532     7896 
