Origin Time       2025/01/13 21:19:00
Lat.              31.8
Long.             131.6
Depth. (km)       30
Mag.              6.9
Station Code      KGS009
Station Lat.      31.7368
Station Long.     130.7613
Station Height(m) 4
Record Time       2025/01/13 21:19:46
Sampling Freq(Hz) 100Hz
Duration Time(s)  191
Dir.              N-S
Scale Factor      3920(gal)/6182761
Max. Acc. (gal)   27.861
Last Correction   2025/01/13 21:19:46
Memo.             
[...]
   -6984    -6237    -6126    -6608    -7694    -9086   -10516   -12013 
  -13483   -14635   -15368   -15563   -14824   -12907   -10136    -7068 
   -4082    -1643     -377     -509    -1608    -2968    -4159    -5166 
   -6155    -7303    -8484    -9070    -8497    -6997    -5350    -4156 
   -3606    -3638    -4090    -4744    -5493    -6453    -7525    -8218 
   -8323    -8116    -7801    -7445    -7132    -6910    -6991    -7723 
   -9168   -10982   -12618   -13575   -13664   -13082   -12220   -11413 
  -10658    -9776    -8820    -7898    -6979    -6224    -6022    -6478 
   -7202    -7685    -7717    -7435    -7080    -6791    -6576    -6437 
   -6447    -6613    -6840    -7068    -7178    -7009    -6643    -6308 
   -6020    -5663    -5200    -4642    -3965    -3119    -2134    -1111 
    -222      153     -416    -2028    -4383    -6915    -9011   -10271 
  -10721   -10810   -11033   -11586   -12351   -13001   -13197   -12994 
  -12795   -12692   -12400   -11733   -10616    -9012    -7181    -5705 
   -5023    -4997    -5094    -5071    -5255    -6071    -7539    -9302 
  -10942   -12255   -13287   -14130   -14582   -14069   -12299    -9796 
   -7427    -5736    -4836    -4560    -4680    -5075    -5738    -6809 
   -8456   -10516   -12468   -13777   -14043   -13056   -11067    -8832 
   -6982    -5594    -4590    -4079    -4161    -4808    -5921    -7058 
   -7470    -6786    -5221    -3224    -1445     -596     -861    -1868 
   -3262    -4826    -6272    -7432    -8388    -8978    -8648    -7278 
   -5429    -3703    -2611    -2643    -3835    -5765    -8019   -10208 
  -12004   -13436   -14634   -15327   -15080   -13708   -11297    -8512 
   -6520    -5824    -6014    -6809    -8210    -9973   -11800   -13620 
  -15318   -16646   -17460   -17782   -17587   -16668   -14893   -12618 
  -10531    -9025    -8092    -7685    -7656    -7623    -7381    -7114 
   -6878    -6356    -5360    -4097    -2922    -2279    -2677    -4382 
   -7189   -10431   -13307   -15276   -16093   -15905   -15395   -15119 
  -14951   -14554   -13731   -12307   -10283    -8108    -6499    -5955 
   -6490    -7794    -9323   -10377   -10419    -9286    -7206    -4763 
   -2568    -1020     -469    -1120    -2661    -4365    -5630    -6378 
   -6985    -7789    -8704    -9261    -8815    -6929    -3929     -898 
    1017     1317      375     -900    -1543     -971      588     2215 
    2931     2214      302    -1926    -3615    -4517    -5025    -5770 
   -7174    -9196   -11343   -12974   -13693   -13637   -13417   -13644 
  -14534   -15684   -16086   -14925   -12457    -9745    -7901    -7605 
   -8558    -9559    -9630    -8884    -8156    -7964    -8125    -8248 
   -8035    -7276    -6094    -4958    -4188    -3771    -3601    -3600 
   -3827    -4609    -6180    -8245   -10200   -11577   -12166   -12075 
  -11691   -11384   -11342   -11497   -11481   -10934    -9833    -8415 
   -6908    -5388    -4012    -3190    -3097    -3348    -3438    -3101 
   -2442    -1931    -2016    -2759    -4036    -5740    -7663    -9453 
  -10747   -11399   -11607   -11715   -11918   -12126   -12002   -11123 
   -9342    -7104    -5116    -3727    -2912    -2652    -2935    -3590 
   -4504    -5800    -7408    -8854    -9802   -10275   -10309    -9964 
   -9494    -9184    -9014    -8601    -7837    -7235    -7174    -7592 
   -8477    -9744   -10919   -11508   -11513   -11463   -11956   -13336 
  -15589   -18191   -20330   -21494   -21765   -21586   -21330   -21073 
  -20613   -19721   -18317   -16326   -13752   -10820    -7736    -4614 
   -1772      362     1728     2563     2788     1922     -293    -3585 
   -7532   -11736   -15619   -18634   -20517   -21166   -20544   -18632 
  -15399   -10872    -5438        7     4595     8009    10385    12034 
   13127    13484    12924    11665     9977     7983     6035     4429 
    2753      462    -2295    -5093    -7641    -9511   -10312   -10041 
   -9047    -8002    -7588    -7902    -8375    -8253    -7138    -5246 
   -3317    -2217    -2329    -3353    -4703    -5708    -5810    -5096 
   -4204    -3637    -3660    -4531    -6231    -8305   -10344   -12353 
  -14499   -16829   -19183   -21265   -22930   -24138   -24708   -24489 
  -23496   -21784   -19644   -17726   -16629   -16414   -16724   -17218 
  -17584   -17490   -16831   -15776   -14620   -13698   -13250   -13177 
  -13165   -13057   -12793   -12289   -11584   -10643    -9083    -6664 
   -3889    -1815    -1261    -2329    -4570    -7108    -8916    -9669 
   -9885   -10110   -10643   -11676   -13159   -14760   -16108   -17029 
  -17569   -17792   -17790   -17768   -17669   -17052   -15509   -12913 
   -9568    -6251    -3717    -2211    -1506    -1144     -785     -512 
    -548     -927    -1553    -2176    -2416    -2041    -1065      374 
    2156     4252     6680     9349    11936    13987    15280    15870 
   15714    14801    13494    12110    10670     9392     8601     8209 
    7876     7338     6392     4920     2893      367    -2476    -5433 
   -8393   -11115   -13170   -14447   -15199   -15440   -14905   -13539 
  -11610    -9500    -7724    -6912    -7309    -8631   -10640   -13174 
  -15716   -17692   -18962   -19676   -20078   -20436   -20687   -20231 
  -18326   -14717    -9916    -5032    -1333      439      532      -82 
    -613    -1006    -1618    -2780    -4599    -6905    -9313   -11507 
  -13517   -15473   -17215   -18481   -19343   -20103   -20893   -21624 
  -22125   -22139   -21298   -19334   -16388   -12936    -9544    -7040 
   -6423    -7889   -10613   -13766   -16882   -19553   -21537   -22989 
  -24252   -25509   -26832   -28264   -29599   -30488   -30798   -30625 
  -30161   -29754   -29726   -29929   -29792   -28824   -26779   -23534 
  -19300   -14856   -11025    -8035    -5697    -3816    -2156     -403 
    1597     3714     5611     6977     7641     7460     6430     4835 
    3051     1458      397       -7      172      836     1852     3004 
    4077     4834     5167     5438     6124     7163     8100     8713 
    8968     8664     7876     7330     7586     8383     9094     9355 
    9104     8445     7742     7379     7255     6950     6139     4726 
    2892      914     -920    -2173    -2416    -1637     -187     1546 
    3076     3934     3990     3400     2413     1276      245     -540 
   -1103    -1427    -1470    -1299     -932     -282      555     1202 
    1331      901      116     -674    -1058     -792     -135      364 
     475      326      -42     -745    -1777    -3081    -4811    -7090 
   -9665   -12117   -14203   -15729   -16208   -15169   -12905   -10308 
   -8050    -6520    -5961    -6262    -7198    -8905   -11677   -15456 
  -19835   -24349   -28559   -32120   -34932   -37088   -38607   -39457 
  -39811   -39910   -39906   -40075   -40693   -41667   -42687   -43685 
  -44710   -45472   -45510   -44766   -43605   -42293   -40905   -39521 
  -37976   -35873   -33211   -30492   -28103   -25880   -23485   -20939 
  -18416   -15936   -13710   -12102   -10930    -9810    -8964    -8673 
   -8724    -8952    -9392    -9825    -9821    -9256    -8391    -7445 
   -6544    -6083    -6487    -7568    -8744    -9605    -9974    -9851 
   -9296    -8315    -6974    -5452    -3933    -2766    -2287    -2174 
   -1716     -646      835     2445     3926     5117     6203     7546 
    9294    11437    13990    16901    19899    22567    24468    25231 
   24776    23389    21416    19050    16613    14524    12769    11154 
    9730     8357     6596     4477     2566     1138       66     -705 
   -1245    -1957    -3204    -4903    -6893    -9133   -11264   -12510 
  -12360   -11093    -9320    -7512    -6021    -4858    -3655    -2196 
    -710      496     1441     2291     2986     3317     3265     2878 
    1987      584    -1021    -2792    -5039    -7694    -9986   -11091 
  -10817    -9520    -7682    -5750    -3967    -2008      709     4146 
    7682    10608    12143    11708     9496     6337     3098      358 
   -1690    -3223    -4519    -5724    -6834    -7875    -9128   -10862 
  -13024   -15335   -17472   -19389   -21332   -23333   -25109   -26464 
  -27221   -27076   -26037   -24545   -22934   -21324   -20020   -19476 
  -19851   -20912   -22346   -23867   -25279   -26515   -27408   -27757 
  -27436   -26315   -24578   -22723   -20999   -19296   -17460   -15548 
  -13929   -13177   -13602   -14766   -15804   -16063   -15311   -13600 
  -10965    -7378    -2995     1900     7000    11636    14856    16128 
   15574    13798    11731    10170     9228     8393     7285     5964 
    4524     2854      666    -2529    -7065   -12455   -17470   -21064 
  -22784   -22619   -21294   -20056   -19582   -19730   -20136   -20501 
  -20630   -20390   -19810   -19055   -18089   -16716   -14836   -12218 
   -8416    -3638      936     4432     6924     8352     8239     6827 
    4989     2974      605    -1981    -4796    -8113   -11719   -15208 
  -18721   -22165   -24733   -26019   -26300   -25684   -24232   -22428 
  -20551   -18389   -15921   -13350   -10677    -7905    -5330    -3440 
   -2815    -3759    -5721    -7593    -8690    -8892    -8228    -7052 
   -5980    -5068    -3890    -2411     -813      927     2551     3431 
    3353     2630     1402     -442    -2946    -6216   -10266   -14533 
  -18376   -21783   -24703   -26601   -27279   -27119   -26572   -25832 
  -24709   -22945   -20670   -18176   -15694   -13658   -12575   -12433 
  -12523   -11836    -9564    -5550     -578     4080     7708    10155 
   11061    10230     8367     6182     3679     1149     -623    -1515 
   -2102    -2630    -2897    -2783    -2368    -1751    -1004     -341 
     -58      -74       29      387      891     1722     3188     5139 
    7103     8900    10601    12107    13292    14160    14419    13465 
   10989     7156     2251    -3188    -7963   -10970   -12143   -12039 
  -10947    -9000    -6958    -5842    -5949    -7069    -9038   -11587 
  -14104   -16040   -17425   -18397   -18672   -18070   -16736   -14543 
  -11225    -7145    -3111      420     3428     5896     7584     8337 
    8438     8315     8005     7186     5718     3636      970    -1961 
   -4726    -7245    -9598   -11709   -13419   -14578   -15123   -15354 
  -16001   -17608   -19936   -22382   -24711   -26841   -28711   -30727 
  -33069   -34927   -35545   -35094   -34148   -33196   -32617   -32511 
  -32562   -32559   -32808   -33409   -33910   -33942   -33200   -31469 
  -29250   -27351   -25978   -25127   -25280   -26832   -29365   -32013 
  -34080   -35182   -35325   -34872   -33977   -32255   -29286   -24995 
  -19732   -14345    -9746    -6166    -3221     -628     1475     2845 
    3439     3393     2936     2348     1828     1331      661     -137 
    -729     -845     -345      887     2710     4609     6209     7613 
    9083    10834    13058    15649    18008    19482    19854    19510 
   19269    19771    21064    22859    24957    27301    29567    31181 
   31626    30476    27512    23074    18203    13976    10610     7547 
    4200      400    -3636    -7546   -10950   -13439   -14858   -15573 
  -16022   -16299   -16480   -16818   -17325   -17561   -17129   -16015 
  -14356   -12340   -10371    -8939    -8151    -7642    -7205    -6886 
   -6430    -5494    -4087    -2163      432     3205     5198     6047 
    6050     5636     5327     5459     5749     5725     5425     5305 
    5716     6664     7879     8935     9289     8472     6500     3977 
    1506     -729    -2619    -4009    -4985    -5819    -6685    -7478 
   -8040    -8481    -9124   -10171   -11489   -12864   -14367   -16158 
  -18193   -20291   -22245   -23882   -25213   -26366   -27559   -29154 
  -31247   -33551   -35837   -37932   -39524   -40438   -40905   -41187 
  -41203   -40973   -40985   -41466   -41916   -41814   -41006   -39268 
  -36339   -32396   -28017   -23623   -19197   -14833   -10919    -7388 
   -3804     -295     2549     4391     5294     5473     5078     4246 
    3129     1662     -569    -3999    -8503   -13252   -17211   -19799 
  -21088   -21464   -21328   -20771   -19412   -16907   -13318    -8867 
   -3990      444     3645     5483     6261     6270     5707     4722 
    3358     1586     -513    -2716    -4816    -6604    -7809    -8369 
   -8567    -8803    -9486   -10835   -12543   -13950   -14622   -14519 
  -13871   -13110   -12593   -12303   -11910   -11234   -10451    -9641 
   -8648    -7438    -6077    -4564    -3028    -1815     -866      400 
    2266     4591     7009     8740     9046     7821     5321     1940 
   -1564    -4265    -5728    -6230    -6326    -6465    -6853    -7313 
   -7408    -6899    -5999    -5074    -4262    -3581    -3055    -2548 
   -1886    -1149     -609     -457     -672    -1211    -2085    -3097 
   -3875    -4091    -3523    -2172     -223     2038     4109     5505 
    6073     5812     4806     3361     1853      581     -241     -669 
   -1028    -1493    -1916    -2038    -1659     -734      548     1885 
    2985     3627     3728     3332     2555     1502      285    -1012 
   -2600    -4787    -7425   -10048   -12319   -14025   -15052   -15491 
  -15357   -14384   -12411    -9601    -6228    -2728      208     2167 
    3348     4110     4617     4830     4696     4288     3664     2938 
    2300     1731     1099      335     -709    -2179    -4081    -6398 
   -8971   -11485   -13862   -16244   -18742   -21465   -24486   -27773 
  -31132   -34289   -37328   -40593   -43916   -46766   -49032   -50808 
  -51841   -51804   -50663   -48421   -44978   -40444   -35230   -29766 
  -24317   -19078   -14236    -9948    -6372    -3562    -1523     -409 
    -298     -943    -1996    -3236    -4508    -5663    -6679    -7716 
   -8984   -10584   -12495   -14583   -16650   -18568   -20247   -21580 
  -22526   -23189   -23684   -23972   -23932   -23523   -22793   -21828 
  -20846   -20072   -19435   -18728   -17887   -16930   -15907   -14909 
  -13933   -12877   -11771   -10788    -9992    -9246    -8348    -7210 
   -5885    -4507    -3245    -2271    -1769    -1771    -2066    -2444 
   -2687    -2459    -1582     -178     1674     4064     6912     9972 
   13095    16113    18670    20476    21574    22023    21732    20802 
   19511    18005    16503    15531    15393    15864    16642    17390 
   17479    16422    14296    11561     8629     5555     2126    -1847 
   -6249   -10631   -14386   -16852   -17552   -16392   -13684    -9989 
   -5836    -1786     1505     3645     4668     4904     4700     4208 
    3398     2046      -45    -2675    -5357    -7627    -9275   -10430 
  -11465   -12872   -14937   -17487   -20083   -22348   -24049   -25006 
  -25193   -24840   -24188   -23141   -21419   -19096   -16521   -13918 
  -11406    -9072    -6996    -5313    -4160    -3499    -3112    -2786 
   -2350    -1770    -1297    -1141    -1190    -1363    -1847    -2836 
   -4562    -7313   -10861   -14306   -16727   -17743   -17560   -16752 
  -16030   -15901   -16397   -17176   -17685   -17480   -16633   -15678 
  -15231   -15574   -16449   -17250   -17330   -16334   -14444   -12128 
   -9805    -7700    -5695    -3453     -731     2369     5324     7480 
    8514     8562     7909     6726     5123     3267     1262     -881 
   -2940    -4619    -6044    -7445    -8685    -9592   -10169   -10322 
   -9975    -9405    -9032    -9033    -9314    -9610    -9539    -8876 
   -7808    -6662    -5650    -5040    -5046    -5488    -6026    -6675 
   -7659    -9036   -10884   -13235   -15731   -18042   -20118   -21747 
  -22742   -23226   -23217   -22589   -21528   -20438   -19521   -18854 
  -18487   -18215   -17686   -16648   -14863   -12110    -8523    -4848 
   -2096     -861    -1062    -2135    -3360    -4267    -4923    -5720 
   -6843    -8041    -8851    -8968    -8369    -7220    -6008    -5460 
   -5963    -7427    -9564   -11850   -13635   -14683   -15239   -15449 
  -15257   -14676   -13734   -12416   -10788    -9079    -7533    -6239 
   -5212    -4445    -3771    -2937    -1876     -748      304     1232 
    1927     2361     2798     3312     3451     2850     1559     -378 
   -2930    -5791    -8631   -11324   -13783   -15869   -17431   -18387 
  -18717   -18497   -17985   -17353   -16657   -16090   -15855   -15973 
  -16369   -16909   -17206   -16903   -16094   -14895   -13155   -10909 
   -8441    -5872    -3196     -507     1975     3881     4921     5021 
    4054     2090     -268    -2385    -4062    -5162    -5422    -4951 
   -4097    -2928    -1524     -241      650     1111     1062      366 
    -836    -2135    -3334    -4503    -5491    -6029    -6228    -6296 
   -6113    -5526    -4736    -4015    -3325    -2659    -2333    -2526 
   -3217    -4720    -7449   -11243   -15539   -19969   -24353   -28335 
  -31507   -33773   -35193   -35670   -35243   -34192   -32673   -30793 
  -28826   -26999   -25355   -23798   -22279   -20825   -19398   -17897 
  -16224   -14276   -11859    -8762    -5063    -1208     2186     4592 
    5768     5801     4986     3574     1609     -952    -3983    -7217 
  -10460   -13549   -16357   -18878   -21158   -23266   -25106   -26437 
  -27118   -26963   -25883   -24273   -22585   -20863   -19053   -17246 
  -15529   -13896   -12184   -10189    -7808    -5132    -2616     -731 
     522     1289     1552     1376      979      486      -37     -298 
      20      879     2157     3943     6204     8532    10465    11880 
   12955    13895    14896    16098    17374    18510    19368    19854 
   20060    20162    20274    20534    20995    21563    22185    22840 
   23391    23677    23676    23351    22537    21213    19567    17653 
   15336    12549     9396     6149     3108      448    -1780    -3660 
   -5395    -7045    -8421    -9379   -10085   -10778   -11554   -12486 
  -13518   -14379   -14892   -15091   -15131   -15127   -15078   -15135 
  -15523   -16259   -17305   -18598   -19984   -21269   -22237   -22748 
  -22687   -21930   -20451   -18319   -15724   -12943   -10241    -7867 
   -5954    -4462    -3229    -2200    -1516    -1289    -1583    -2523 
   -4141    -6336    -9110   -12528   -16360   -20184   -23716   -26727 
  -29016   -30641   -31874   -32936   -33877   -34657   -35225   -35601 
  -35892   -36169   -36468   -37014   -38096   -39654   -41389   -43161 
  -44809   -45926   -46274   -45905   -44796   -42909   -40404   -37593 
  -34844   -32441   -30497   -29053   -28043   -27247   -26503   -25773 
  -24954   -23867   -22408   -20583   -18508   -16505   -14942   -13909 
  -13173   -12409   -11432   -10211    -8900    -7777    -6878    -5938 
   -4778    -3376    -1595      730     3581     6767     9896    12543 
   14531    15845    16512    16683    16664    16746    17012    17412 
   17981    18673    19226    19599    20051    20751    21697    22801 
   23985    25190    26241    26956    27295    27267    26826    26022 
   25074    24148    23183    21942    20248    18063    15437    12639 
    9947     7376     4899     2599      563    -1077    -2144    -2702 
   -3055    -3408    -3862    -4431    -4945    -5161    -4914    -4189 
   -3082    -1673      -79     1401     2523     3272     3559     3160 
    2090      612    -1162    -3293    -5742    -8347   -11067   -13890 
  -16535   -18782   -20684   -22269   -23542   -24541   -25287   -25721 
  -25791   -25588   -25099   -24215   -23007   -21646   -20273   -19080 
