Origin Time       2025/01/13 21:19:00
Lat.              31.8
Long.             131.6
Depth. (km)       30
Mag.              6.9
Station Code      KGS004
Station Lat.      32.0145
Station Long.     130.1927
Station Height(m) 3
Record Time       2025/01/13 21:19:59
Sampling Freq(Hz) 100Hz
Duration Time(s)  122
Dir.              E-W
Scale Factor      7845(gal)/8223790
Max. Acc. (gal)   9.609
Last Correction   2025/01/13 21:19:59
Memo.             
[...]
   -4083    -4278    -4496    -4708    -4876    -4963    -4980    -4965 
   -4953    -4961    -4974    -4962    -4924    -4892    -4869    -4828 
   -4760    -4642    -4460    -4234    -3954    -3601    -3252    -3019 
   -2905    -2799    -2635    -2450    -2266    -2049    -1818    -1603 
   -1335    -1017     -760     -554     -344     -116      116      328 
     494      606      660      650      596      526      450      376 
     295      184       33     -135     -302     -479     -665     -870 
   -1082    -1243    -1317    -1318    -1277    -1225    -1182    -1144 
   -1111    -1098    -1111    -1152    -1219    -1267    -1277    -1263 
   -1212    -1102     -962     -820     -653     -423     -175       45 
     264      453      554      615      639      544      371      183 
     -22     -218     -409     -634     -907    -1250    -1664    -2118 
   -2592    -3084    -3564    -4008    -4432    -4855    -5267    -5621 
   -5871    -6021    -6089    -6097    -6076    -6031    -5960    -5883 
   -5807    -5697    -5499    -5182    -4749    -4229    -3646    -3057 
   -2550    -2161    -1842    -1559    -1367    -1289    -1309    -1460 
   -1679    -1837    -1927    -1998    -2031    -2022    -2012    -2022 
   -2043    -2097    -2200    -2327    -2444    -2540    -2606    -2660 
   -2758    -2905    -3041    -3142    -3204    -3199    -3110    -2956 
   -2755    -2550    -2405    -2316    -2263    -2258    -2330    -2469 
   -2666    -2968    -3358    -3744    -4118    -4483    -4785    -5062 
   -5356    -5572    -5683    -5784    -5883    -5971    -6085    -6187 
   -6261    -6342    -6404    -6426    -6432    -6417    -6384    -6345 
   -6259    -6079    -5818    -5494    -5111    -4715    -4353    -4006 
   -3645    -3265    -2860    -2463    -2149    -1910    -1667    -1397 
   -1075     -681     -298       -5      260      560      831     1021 
    1151     1240     1294     1317     1300     1201      996      719 
     379      -25     -460     -911    -1383    -1856    -2309    -2744 
   -3172    -3600    -4023    -4433    -4841    -5275    -5741    -6210 
   -6659    -7067    -7395    -7630    -7786    -7862    -7820    -7622 
   -7258    -6759    -6158    -5481    -4753    -4008    -3267    -2520 
   -1742     -973     -264      405     1030     1540     1972     2373 
    2706     2992     3260     3457     3570     3609     3539     3364 
    3117     2755     2285     1790     1285      773      333      -45 
    -425     -773    -1061    -1302    -1471    -1570    -1621    -1593 
   -1479    -1344    -1223    -1016     -610     -164       66      214 
     529      900     1077     1053      949      780      507      135 
    -342     -955    -1713    -2548    -3397    -4256    -5113    -5950 
   -6771    -7570    -8318    -9012    -9666   -10234   -10663   -10902 
  -10882   -10619   -10204    -9666    -9020    -8317    -7558    -6744 
   -5935    -5140    -4303    -3370    -2351    -1348     -437      363 
    1035     1618     2153     2563     2813     2968     2998     2821 
    2528     2199     1746     1194      666      136     -434    -1000 
   -1567    -2185    -2862    -3596    -4360    -5065    -5703    -6351 
   -6975    -7476    -7885    -8255    -8525    -8695    -8808    -8835 
   -8781    -8696    -8590    -8471    -8367    -8249    -8059    -7816 
   -7565    -7280    -6934    -6536    -6085    -5613    -5163    -4741 
   -4332    -3944    -3564    -3176    -2814    -2494    -2169    -1850 
   -1587    -1382    -1256    -1225    -1237    -1297    -1421    -1544 
   -1651    -1795    -1934    -2045    -2227    -2509    -2870    -3333 
   -3819    -4239    -4635    -4973    -5178    -5324    -5433    -5431 
   -5260    -4938    -4510    -4018    -3520    -3053    -2589    -2070 
   -1529    -1019     -553     -149      187      473      743     1036 
    1324     1599     1890     2164     2374     2497     2544     2542 
    2489     2392     2228     1933     1487      924      298     -309 
    -857    -1347    -1776    -2141    -2428    -2613    -2666    -2586 
   -2396    -2133    -1841    -1539    -1224     -892     -588     -399 
    -344     -310     -243     -175      -95      -39      -62     -109 
    -145     -187     -234     -328     -467     -606     -788    -1111 
   -1543    -1957    -2355    -2735    -3084    -3489    -3890    -4194 
   -4434    -4637    -4854    -5104    -5371    -5647    -5881    -6081 
   -6245    -6320    -6304    -6220    -6056    -5838    -5620    -5359 
   -5024    -4668    -4290    -3885    -3512    -3154    -2772    -2450 
   -2219    -1985    -1788    -1767    -1898    -2079    -2259    -2413 
   -2544    -2691    -2847    -3014    -3221    -3457    -3685    -3917 
   -4176    -4446    -4698    -4935    -5185    -5460    -5753    -6014 
   -6191    -6293    -6345    -6316    -6208    -6062    -5871    -5633 
   -5404    -5179    -4900    -4571    -4276    -4071    -3874    -3636 
   -3427    -3249    -3064    -2859    -2578    -2249    -1958    -1678 
   -1425    -1312    -1247    -1092     -907     -764     -658     -607 
    -610     -673     -828    -1063    -1310    -1534    -1753    -1948 
   -2120    -2323    -2544    -2732    -2857    -2882    -2851    -2884 
   -3024    -3203    -3370    -3519    -3645    -3743    -3840    -3931 
   -3966    -3951    -3904    -3832    -3775    -3743    -3728    -3759 
   -3842    -3929    -4002    -4067    -4102    -4079    -4014    -3900 
   -3715    -3483    -3260    -3068    -2879    -2670    -2447    -2224 
   -1983    -1711    -1448    -1202     -946     -684     -434     -193 
      13      147      228      287      306      275      221      130 
     -21     -201     -402     -639     -864    -1046    -1237    -1431 
   -1578    -1703    -1846    -2019    -2228    -2471    -2720    -2924 
   -3040    -3063    -3013    -2932    -2841    -2728    -2641    -2637 
   -2664    -2683    -2714    -2748    -2766    -2776    -2797    -2830 
   -2866    -2905    -2947    -2978    -2988    -2972    -2936    -2887 
   -2835    -2778    -2713    -2654    -2610    -2555    -2489    -2439 
   -2385    -2311    -2245    -2203    -2174    -2145    -2091    -2008 
   -1925    -1888    -1933    -2054    -2215    -2382    -2544    -2716 
   -2941    -3240    -3566    -3875    -4172    -4452    -4685    -4874 
   -5004    -5047    -5017    -4945    -4847    -4729    -4569    -4351 
   -4067    -3720    -3333    -2910    -2421    -1926    -1479    -1021 
    -572     -180      232      653     1001     1318     1613     1845 
    2053     2261     2428     2506     2501     2409     2188     1864 
    1489     1042      527      -18     -616    -1274    -1977    -2724 
   -3470    -4162    -4823    -5482    -6097    -6652    -7168    -7641 
   -8062    -8419    -8694    -8881    -8997    -9057    -9053    -8997 
   -8937    -8835    -8640    -8376    -8062    -7697    -7283    -6789 
   -6205    -5579    -4920    -4220    -3492    -2744    -1979    -1224 
    -502      191      824     1363     1830     2224     2498     2651 
    2749     2766     2601     2346     2095     1748     1312      899 
     486       37     -383     -761    -1151    -1537    -1892    -2270 
   -2644    -2951    -3267    -3636    -3967    -4257    -4564    -4824 
   -4990    -5120    -5208    -5235    -5263    -5251    -5097    -4866 
   -4652    -4450    -4267    -4166    -4172    -4172    -4155    -4241 
   -4333    -4332    -4351    -4387    -4365    -4311    -4252    -4182 
   -4094    -3986    -3869    -3763    -3689    -3645    -3628    -3626 
   -3650    -3707    -3765    -3796    -3816    -3831    -3807    -3753 
   -3713    -3657    -3558    -3457    -3362    -3281    -3245    -3225 
   -3167    -3102    -3090    -3068    -3014    -3033    -3065    -3018 
   -2968    -2918    -2837    -2781    -2729    -2640    -2542    -2442 
   -2311    -2169    -2053    -1941    -1802    -1675    -1606    -1561 
   -1544    -1574    -1620    -1653    -1680    -1729    -1821    -1915 
   -2002    -2123    -2289    -2489    -2698    -2872    -3036    -3213 
   -3379    -3539    -3697    -3820    -3917    -4009    -4106    -4252 
   -4449    -4634    -4772    -4874    -4930    -4919    -4847    -4714 
   -4518    -4287    -4020    -3670    -3254    -2818    -2377    -1972 
   -1620    -1298    -1004     -714     -410      -81      274      619 
     957     1291     1602     1906     2216     2506     2783     3030 
    3210     3331     3399     3380     3268     3053     2754     2425 
    2065     1660     1232      746      209     -292     -777    -1291 
   -1795    -2280    -2799    -3348    -3874    -4374    -4833    -5228 
   -5587    -5915    -6193    -6448    -6667    -6808    -6868    -6862 
   -6775    -6590    -6318    -5995    -5628    -5211    -4741    -4199 
   -3607    -3019    -2466    -1965    -1530    -1146     -780     -430 
    -148       52      217      333      367      344      244       43 
    -233     -579     -973    -1389    -1831    -2286    -2709    -3095 
   -3427    -3724    -4051    -4367    -4630    -4903    -5155    -5325 
   -5485    -5647    -5742    -5799    -5849    -5849    -5756    -5551 
   -5279    -5063    -4934    -4795    -4637    -4515    -4409    -4314 
   -4252    -4206    -4205    -4232    -4267    -4341    -4422    -4500 
   -4600    -4679    -4729    -4799    -4862    -4869    -4869    -4897 
   -4893    -4858    -4874    -4912    -4878    -4758    -4590    -4418 
   -4275    -4121    -3931    -3726    -3512    -3276    -3017    -2776 
   -2578    -2386    -2201    -2061    -1952    -1827    -1695    -1586 
   -1518    -1493    -1517    -1588    -1694    -1809    -1888    -1902 
   -1867    -1782    -1641    -1472    -1296    -1108     -913     -726 
    -577     -486     -442     -430     -438     -471     -507     -521 
    -525     -523     -500     -459     -400     -309     -195      -82 
      35      153      236      256      243      206      114      -31 
    -216     -438     -670     -876    -1070    -1247    -1390    -1525 
   -1648    -1744    -1830    -1898    -1950    -1975    -2004    -2111 
   -2246    -2339    -2415    -2485    -2542    -2533    -2459    -2380 
   -2286    -2147    -1965    -1732    -1453    -1162     -873     -600 
    -336      -86       98      210      253      214      128       16 
    -128     -295     -488     -733    -1032    -1401    -1849    -2344 
   -2862    -3424    -4033    -4645    -5267    -5931    -6581    -7171 
   -7711    -8181    -8576    -8915    -9155    -9262    -9259    -9159 
   -8974    -8715    -8357    -7920    -7450    -6922    -6331    -5748 
   -5182    -4580    -3940    -3280    -2629    -2031    -1466     -930 
    -456      -16      359      575      657      675      584      361 
      62     -298     -734    -1229    -1783    -2365    -2914    -3418 
   -3881    -4280    -4603    -4858    -5077    -5270    -5432    -5566 
   -5657    -5703    -5695    -5614    -5497    -5356    -5144    -4858 
   -4529    -4163    -3758    -3345    -2959    -2601    -2277    -1996 
   -1765    -1610    -1534    -1470    -1383    -1328    -1305    -1294 
   -1306    -1320    -1331    -1366    -1437    -1547    -1702    -1898 
   -2101    -2328    -2612    -2886    -3092    -3288    -3497    -3767 
   -4129    -4367    -4422    -4564    -4757    -4789    -4800    -4941 
   -5077    -5115    -5163    -5231    -5232    -5223    -5192    -5107 
   -5036    -4959    -4862    -4777    -4662    -4480    -4249    -3973 
   -3651    -3300    -2956    -2670    -2392    -2068    -1763    -1509 
   -1316    -1213    -1146    -1073    -1013     -955     -895     -830 
    -750     -646     -494     -302     -102      108      330      542 
     723      881     1027     1166     1317     1486     1642     1760 
    1827     1857     1861     1830     1768     1702     1653     1640 
    1668     1718     1767     1810     1823     1795     1737     1628 
    1464     1309     1213     1111      935      722      507      272 
      45     -126     -245     -337     -394     -387     -367     -363 
    -359     -387     -456     -572     -758     -969    -1186    -1464 
   -1760    -2033    -2353    -2713    -3057    -3441    -3898    -4374 
   -4824    -5255    -5649    -5977    -6257    -6501    -6689    -6813 
   -6882    -6889    -6809    -6644    -6404    -6085    -5703    -5267 
   -4762    -4220    -3680    -3126    -2571    -2079    -1653    -1263 
    -945     -712     -535     -461     -495     -576     -745    -1012 
   -1301    -1634    -2041    -2488    -2992    -3564    -4143    -4707 
   -5283    -5871    -6466    -7061    -7605    -8077    -8505    -8846 
   -9043    -9123    -9115    -9024    -8878    -8672    -8391    -8054 
   -7654    -7198    -6709    -6150    -5535    -4946    -4395    -3906 
   -3534    -3219    -2891    -2548    -2235    -2003    -1827    -1676 
   -1560    -1422    -1183     -928     -831     -913    -1057    -1161 
   -1237    -1383    -1624    -1934    -2322    -2743    -3144    -3542 
   -3959    -4375    -4781    -5200    -5607    -5969    -6297    -6615 
   -6913    -7149    -7310    -7438    -7619    -7889    -8167    -8388 
   -8557    -8687    -8815    -8907    -8901    -8869    -8826    -8637 
   -8322    -8004    -7705    -7427    -7079    -6525    -5915    -5440 
   -4997    -4475    -3940    -3449    -2909    -2357    -1919    -1474 
    -951     -468       17      564     1097     1626     2177     2710 
    3248     3788     4272     4708     5119     5491     5827     6143 
    6438     6702     6937     7126     7254     7337     7372     7311 
    7134     6866     6509     6041     5454     4789     4090     3319 
    2489     1676      865       54     -745    -1543    -2312    -3028 
   -3708    -4359    -4969    -5510    -5958    -6331    -6652    -6913 
   -7086    -7129    -7063    -6975    -6841    -6597    -6258    -5875 
   -5482    -5026    -4475    -3866    -3276    -2748    -2270    -1863 
   -1509    -1235    -1063     -884     -729     -677     -687     -773 
    -938    -1142    -1405    -1742    -2110    -2506    -2953    -3414 
   -3900    -4438    -4990    -5520    -6029    -6546    -7061    -7489 
   -7879    -8275    -8530    -8673    -8793    -8780    -8629    -8433 
   -8159    -7734    -7203    -6613    -5908    -5119    -4299    -3424 
   -2558    -1794    -1096     -444      118      606     1044     1404 
    1671     1869     2002     2058     2019     1880     1642     1297 
     880      437      -33     -556    -1121    -1686    -2189    -2627 
   -3079    -3546    -3908    -4133    -4284    -4372    -4399    -4356 
   -4230    -4060    -3829    -3505    -3126    -2689    -2182    -1663 
   -1158     -657     -191      191      519      834     1120     1356 
    1529     1630     1679     1671     1557     1308      935      480 
     -17     -542    -1097    -1644    -2180    -2736    -3269    -3763 
   -4293    -4861    -5409    -5907    -6326    -6674    -6999    -7294 
   -7555    -7815    -8068    -8263    -8328    -8290    -8262    -8247 
   -8190    -8095    -7950    -7746    -7491    -7173    -6793    -6381 
   -5987    -5609    -5202    -4780    -4360    -3947    -3562    -3187 
   -2795    -2415    -2106    -1903    -1736    -1466    -1108     -795 
    -599     -480     -355     -265     -333     -545     -785    -1004 
   -1237    -1490    -1723    -1926    -2107    -2284    -2452    -2589 
   -2702    -2814    -2907    -2970    -3034    -3117    -3179    -3207 
   -3218    -3188    -3065    -2845    -2573    -2270    -1911    -1485 
   -1085     -738     -398     -108      113      298      449      545 
     581      565      499      406      292      151      -10     -184 
    -359     -549     -762     -976    -1188    -1414    -1649    -1867 
   -2065    -2250    -2394    -2494    -2548    -2544    -2509    -2479 
   -2459    -2463    -2497    -2546    -2598    -2662    -2727    -2779 
   -2825    -2871    -2928    -3033    -3191    -3376    -3576    -3767 
   -3931    -4081    -4243    -4419    -4581    -4696    -4777    -4833 
   -4835    -4780    -4671    -4492    -4249    -3940    -3586    -3235 
   -2871    -2457    -1980    -1416     -837     -421     -128      282 
     778     1151     1428     1672     1837     1965     2076     2096 
    2027     1900     1713     1489     1213      820      346      -94 
    -500     -908    -1312    -1726    -2158    -2544    -2860    -3154 
   -3433    -3670    -3900    -4149    -4391    -4588    -4741    -4864 
   -4961    -5036    -5100    -5074    -4869    -4641    -4552    -4455 
   -4252    -4070    -3916    -3730    -3562    -3441    -3366    -3338 
   -3323    -3353    -3439    -3537    -3647    -3802    -3994    -4218 
   -4494    -4791    -5077    -5386    -5729    -6085    -6481    -6889 
   -7268    -7646    -8014    -8347    -8669    -8946    -9140    -9323 
   -9520    -9672    -9782    -9873    -9927    -9936    -9915    -9856 
   -9742    -9589    -9405    -9193    -8965    -8737    -8495    -8232 
   -7942    -7576    -7126    -6704    -6318    -5834    -5265    -4757 
   -4330    -3882    -3414    -3041    -2756    -2493    -2312    -2224 
   -2180    -2173    -2196    -2277    -2397    -2492    -2562    -2617 
   -2654    -2637    -2532    -2365    -2203    -2080    -1900    -1638 
   -1390    -1131     -826     -526     -232       90      448      795 
    1129     1483     1831     2181     2543     2887     3191     3446 
    3645     3792     3862     3843     3757     3599     3364     3078 
    2752     2400     2031     1656     1291      953      649      382 
     145      -59     -233     -400     -585     -735     -808     -864 
    -935     -954     -916     -854     -788     -735     -672     -645 
    -669     -693     -756     -891    -1093    -1321    -1533    -1759 
   -1999    -2207    -2380    -2551    -2708    -2824    -2938    -3048 
   -3092    -3094    -3100    -3094    -3090    -3121    -3165    -3210 
   -3264    -3327    -3369    -3380    -3383    -3375    -3352    -3314 
   -3269    -3245    -3226    -3200    -3179    -3133    -3071    -3022 
   -2964    -2903    -2871    -2853    -2848    -2847    -2822    -2768 
   -2683    -2562    -2413    -2268    -2119    -1964    -1837    -1745 
   -1682    -1647    -1628    -1622    -1632    -1652    -1691    -1759 
   -1846    -1941    -2073    -2257    -2462    -2678    -2902    -3114 
   -3312    -3503    -3693    -3925    -4198    -4423    -4585    -4764 
   -4965    -5165    -5383    -5601    -5794    -5976    -6146    -6269 
   -6334    -6342    -6291    -6214    -6164    -6138    -6107    -6069 
   -6025    -5973    -5931    -5887    -5809    -5730    -5672    -5584 
   -5425    -5206    -4941    -4617    -4224    -3784    -3354    -2992 
   -2668    -2309    -1907    -1490    -1074     -676     -310       45 
     406      731     1028     1285     1444     1594     1782     1917 
    2023     2160     2273     2351     2424     2485     2525     2547 
    2533     2463     2339     2177     1999     1809     1607     1391 
    1166      938      710      461      170     -147     -479     -854 
   -1298    -1815    -2369    -2933    -3485    -3996    -4482    -4968 
   -5404    -5746    -6037    -6278    -6461    -6590    -6637    -6619 
   -6570    -6505    -6444    -6388    -6319    -6242    -6169    -6120 
   -6089    -6045    -5987    -5915    -5829    -5748    -5660    -5540 
