Origin Time       2025/01/13 21:19:00
Lat.              31.8
Long.             131.6
Depth. (km)       30
Mag.              6.9
Station Code      KGS015
Station Lat.      31.4308
Station Long.     131.0109
Station Height(m) 34
Record Time       2025/01/13 21:19:47
Sampling Freq(Hz) 100Hz
Duration Time(s)  116
Dir.              E-W
Scale Factor      7845(gal)/8223790
Max. Acc. (gal)   42.216
Last Correction   2025/01/13 21:19:47
Memo.             
[...]
   -4899    -9154   -13485   -17089   -18662   -17521   -14399   -10199 
   -5107      781     7015    12606    16476    18485    18968    17462 
   13452     7992     2836    -1158    -3488    -3856    -2685     -139 
    4051     9342    14071    16622    16572    14451    10817     5786 
    -548    -7222   -12937   -17321   -20487   -21628   -19229   -13012 
   -4525     4507    13061    20254    24718    25284    22504    17967 
   12486     6343      357    -4448    -7862   -10210   -11254   -10146 
   -6326     -166     6933    12881    16200    16934    15846    13647 
   10906     7848     4588     1433    -1387    -3784    -5891    -8004 
   -9691   -10420   -10609   -10050    -7738    -4085     -396     2516 
    4052     4081     3248     2165      822    -1092    -3618    -6388 
   -8631    -9409    -8453    -6520    -4104     -743     3412     7052 
    9273    10039     9459     7742     5022     1499    -2097    -5482 
   -8927   -11909   -13317   -12318    -8866    -4261     -101     3412 
    6859     9856    11211    10280     7238     2303    -4519   -12711 
  -20889   -27295   -30424   -29974   -27174   -23521   -19538   -14790 
   -8599     -822     7614    14804    19338    21239    20368    16086 
    9385     2034    -5896   -14566   -22306   -26811   -26886   -23314 
  -18455   -13838    -8865    -3186     1881     5514     8141     9975 
   10617     9250     5117    -1294    -8221   -13622   -15838   -14594 
  -11286    -6998    -1372     5618    12441    17491    20538    22060 
   21663    18231    12114     5895     2461     2768     5130     6998 
    7727     8533    10809    15469    22141    29407    36244    41287 
   42358    38434    30543    21039    12121     4419    -2604    -9564 
  -16190   -21282   -24127   -24840   -23276   -19283   -14008    -8723 
   -3342     2176     7377    11855    14624    14782    12856    10035 
    7339     5657     4575     2243    -2137    -7006   -10075   -10323 
   -7838    -3119     2481     7425    11249    13972    15272    15026 
   13001     8189      480    -8229   -15708   -20694   -22987   -22875 
  -20568   -16996   -13379    -9209    -3049     4816    12272    17766 
   21425    23564    23777    21645    17370    11632     4610    -3879 
  -12737   -19475   -22146   -20638   -16102    -9343     -437     9809 
   19757    28300    34364    36528    34260    28090    19475    10237 
    1015    -8514   -17844   -25100   -29081   -30728   -31062   -29990 
  -27892   -25655   -23440   -20933   -18115   -15394   -13614   -13774 
  -16059   -19589   -23294   -26612   -29293   -30477   -28948   -24815 
  -19657   -14985   -11414    -8993    -7727    -7677    -8776   -10376 
  -11356   -11427   -11331   -11070    -9447    -5680     -172     6057 
   11682    15337    16557    16013    14295    11817     9483     7958 
    7141     6758     6894     7580     8403     9263    10261    10837 
   10388     9142     7484     5421     3137     1371     1278     3438 
    7114    11034    13709    13656    10739     6150     1440    -1903 
   -3034    -2077      283     3597     7886    12492    15805    17073 
   16806    15165    11821     7172     2361    -1463    -3766    -4831 
   -5031    -4649    -3852    -2010      982     3761     5289     5185 
    3507     1807     2043     4244     6712     7790     6255     1372 
   -5620   -11820   -15811   -18335   -20043   -21149   -21386   -18854 
  -12406    -3998     4239    11573    16893    19623    20792    20876 
   19346    16525    13352    10343     8141     7904    10214    14720 
   20417    25425    28132    28459    27149    24636    20902    16017 
   10230     4214     -916    -4968    -8424   -11060   -12459   -12600 
  -11732   -10426    -9101    -7682    -6122    -4673    -3472    -2790 
   -3322    -5026    -7029    -8892   -11014   -14339   -19278   -24644 
  -28310   -28811   -25876   -19966   -12135    -4125     2261     6675 
   10555    14987    19095    20995    19614    15284     9362     3537 
   -1093    -3964    -4779    -4118    -2748     -233     4263    10300 
   16056    19585    19826    16762    11322     5132     -425    -5173 
   -9809   -14544   -18292   -19469   -17705   -14100    -9934    -6069 
   -2853     -189     1906     3595     5709     8734    11983    14305 
   14706    12371     7244      430    -6284   -11260   -13879   -14310 
  -12602    -8768    -3242     2658     6743     7811     6264     2080 
   -4725   -12298   -18960   -24393   -28042   -29521   -28780   -25555 
  -20476   -15072   -10455    -7011    -5165    -5648    -8208   -11375 
  -14088   -15998   -16981   -17201   -16653   -15047   -12654   -10181 
   -7916    -6197    -5366    -4506    -2814    -1445    -1144     -680 
    1132     4696    10145    16522    21924    25405    27071    26588 
   23865    20001    15955    12031     8847     7017     6569     7577 
    9818    12046    12881    11593     8537     5061     1706    -1973 
   -5918    -9612   -12623   -14558   -15049   -14002   -11495    -7480 
   -2579     1713     4410     5323     4545     2862     1722     1917 
    2628     2527     1031    -1857    -5489    -8604   -10235   -10123 
   -8696    -6971    -5416    -3071      882     5751    10440    14280 
   16737    17770    17810    17027    15402    13316    11199     8845 
    6112     3869     3110     4129     6696    10133    13887    17671 
   21020    23504    24775    24432    22014    17475    11970     7098 
    3402      673     -900     -977      383     2577     4307     4745 
    4351     3418     1552    -1100    -4124    -7487   -10531   -12089 
  -11627    -8928    -4086     1629     6218     8517     9130     9332 
    9455     8966     7064     3168    -2265    -7852   -12341   -14958 
  -15533   -15057   -14786   -14659   -13699   -11697    -9953    -9680 
  -10581   -11913   -13412   -15087   -17050   -18904   -19846   -19711 
  -18949   -17660   -15661   -13081   -10119    -7101    -4602    -2925 
   -2088    -1977    -2211    -2304    -1684       85     2340     3611 
    3241     2130     1873     3234     5649     8054     9671    10470 
   10766    10266     8565     6334     4833     4460     4450     3897 
    2991     2878     3925     5132     5441     4637     3199     1683 
      31    -2201    -5157    -8553   -11538   -12715   -11168    -7069 
   -1189     5435    11901    17685    22060    24112    23480    20586 
   16681    12953     9366     5749     2575      -95    -2512    -4702 
   -6721    -8521    -9823   -10316   -10179   -10505   -11866   -12895 
  -12046    -9786    -7561    -5655    -3354     -415     2636     5136 
    6683     7268     7029     6042     4612     3426     3229     4201 
    5826     7740     9957    12102    13358    12889    10373     6431 
    2030    -2319    -6385    -9825   -12114   -12750   -11676    -9409 
   -6593    -3647     -864     1360     2365     1491    -1198    -4754 
   -8104   -10597   -11743   -11052    -8391    -4341     -207     2937 
    5184     6951     7960     7423     4714      162    -4958    -9413 
  -12769   -15122   -16418   -16578   -15790   -14296   -12291    -9776 
   -6651    -3527    -1669    -1321    -1205     -241     1495     3454 
    5023     5533     4780     3522     2624     1998     1144       22 
   -1193    -2552    -3901    -4521    -3798    -1687     1063     3038 
    3593     3348     2752     1626      -37    -2139    -4727    -7404 
   -9259    -9609    -8135    -4992     -889     3761     8876    14014 
   18786    22999    26192    28028    28594    27876    25625    21963 
   17429    12260     6339      -54    -6459   -12482   -17120   -19476 
  -19766   -18426   -15403   -11029    -6327    -1969     2007     5468 
    7989     9197     8845     6763     3470      283    -1806    -2574 
   -2164     -839     1139     3427     5360     6153     5503     3719 
    1105    -2374    -6532   -10284   -12461   -12849   -11758    -9687 
   -7118    -3819      700     6091    11472    16011    18728    19164 
   18061    16395    14728    13309    11614     8618     4066    -1250 
   -6214   -10058   -12645   -14045   -14154   -13186   -11668    -9661 
   -6704    -2781     1239     4126     4599     2303    -1516    -5599 
   -9263   -11597   -12158   -11022    -7904    -2922     3107     9510 
   15462    19921    22280    21890    18219    12390     6408      814 
   -4569    -9013   -11967   -13626   -13984   -12916   -10432    -6663 
   -2543      607     2236     2392     1352     -406    -2304    -3978 
   -5703    -7541    -8675    -8255    -6039    -2390     1809     5143 
    6318     5378     3491     1838     1186     1414     1638     1669 
    2435     4758     8819    14061    19214    23336    26010    26667 
   25037    21762    17694    12945     7246      832    -5562   -11267 
  -16029   -19826   -22646   -24457   -25208   -25118   -24618   -23905 
  -22995   -21787   -20125   -18125   -15882   -13171    -9868    -6301 
   -2975     -325     1429     2551     3411     4116     4847     6072 
    8202    10968    13425    14793    14743    13188    10311     6388 
    1687    -3029    -7094   -10905   -14810   -18225   -20565   -21605 
  -21155   -19128   -15763   -11692    -7565    -3738     -301     2762 
    5410     7404     8455     8729     8814     9146     9509     9323 
    8422     6775     4383     1723     -747    -2598    -3152    -2438 
   -1385     -720     -357      430     2228     4916     7977    10681 
   12405    13436    14554    15788    16457    15955    14030    10974 
    7827     5961     5950     6987     7581     6760     4781     2782 
    1794     2265     3973     6072     7686     8282     7744     6670 
    5622     4396     2754      654    -2074    -5208    -8236   -11097 
  -13770   -15832   -16883   -16567   -14497   -10854    -6334    -1568 
    2393     4398     4588     4085     4005     5321     7996    10771 
   12816    13842    13019     9894     5009     -715    -6034   -10027 
  -12691   -13994   -13676   -11853    -8837    -5513    -3048    -1740 
   -1707    -3337    -6428   -10312   -14339   -17859   -20046   -20277 
  -18315   -14200    -8446    -1772     5116    11275    15587    17311 
   16563    14064    10720     7446     4874     3368     3138     3925 
    5244     6764     7774     7657     6936     6547     6801     7356 
    7774     7884     7653     7156     6697     6768     7522     8357 
    8739     8955     9390     9740     9375     8117     6446     4888 
    3570     2343      884    -1223    -4187    -7650   -10790   -12914 
  -13865   -13872   -12996   -10906    -7512    -3616      -79     2820 
    4599     4653     3009      120    -3402    -7049   -10868   -14828 
  -18154   -20070   -20453   -19499   -17142   -13551    -9645    -6336 
   -3935    -2442    -2065    -3306    -5937    -8911   -11612   -13898 
  -15452   -16135   -16131   -15538   -14354   -12534    -9911    -6658 
   -3418     -828      618      814       51    -1495    -3596    -5432 
   -6097    -5386    -3419     -253     3601     7357    10756    13759 
   16170    18044    19438    20171    20316    20115    19419    17890 
   15464    12367     9175     6627     4819     3350     2018      526 
   -1464    -3739    -5904    -7917    -9742   -11218   -12297   -12826 
  -12484   -11310    -9433    -6374    -1659     4718    12818    22106 
   30774    37203    40805    41377    39283    35023    28397    19805 
   10833     2860    -3422    -7875   -10833   -12453   -12874   -12451 
  -11245    -9220    -6535    -3288      191     3025     4558     4880 
    4186     2866     1723     1100      778      788     1140     1387 
    1043      -21    -1575    -3300    -4752    -5445    -5579    -5634 
   -5510    -4887    -3437     -587     4032    10015    16374    22146 
   26539    28788    28495    26229    22894    18401    12557     6169 
     -27    -5493    -9481   -11790   -12618   -12070   -10569    -8576 
   -6230    -3951    -2579    -2826    -5094    -9279   -14457   -19660 
  -24509   -28522   -31372   -33239   -33582   -31529   -27194   -21018 
  -13362    -4891     3757    11662    17226    19361    18374    15136 
   10249     4486    -1040    -5657    -8993   -10469   -10095    -8688 
   -6810    -4644    -2488     -600      900     1706     1273     -422 
   -2659    -4982    -7109    -8141    -7515    -5728    -3476    -1151 
     662     1269      468    -1611    -4650    -7847   -10416   -11911 
  -12016   -10631    -7747    -3531     1576     7075    12239    16117 
   17837    17007    13896     8931     2535    -4468   -11387   -18308 
  -25192   -31268   -35706   -37748   -36971   -33816   -29106   -23503 
  -17506   -11368    -5208      567     5506     9606    12881    14887 
   15195    14080    12220    10200     8715     8181     8245     8388 
    8426     8043     6849     4990     2898      976     -468    -1402 
   -1750    -1132      807     4109     8437    13231    18040    22654 
   26743    29928    31904    32019    30005    26400    21489    15622 
    9761     4514       56    -3186    -5235    -6615    -6930    -5601 
   -3295     -861     1447     3391     4780     5714     6355     6849 
    7377     7568     6574     4726     3505     3447     4206     5772 
    7867     9782    11411    13070    14709    16235    17455    17491 
   15777    13058    10145     7246     4779     2995     1672      930 
    1321     3419     7029    10686    13220    14756    15414    14654 
   12137     8171     3107    -3110   -10527   -18520   -25947   -32167 
  -37162   -40830   -43117   -44173   -43857   -41729   -37467   -31255 
  -24309   -18418   -14621   -12708   -11492    -9909    -7708    -4702 
    -700     3751     7901    11570    15155    19371    24313    28749 
   31527    32625    31904    28856    23591    16393     7500    -1934 
  -10230   -16259   -19534   -20271   -19321   -17675   -16160   -15209 
  -14728   -14266   -13429   -12329   -11402   -10802   -10517   -10601 
  -10770   -10872   -11083   -11091   -10539    -9324    -7163    -4040 
    -292     3757     7538    10316    11634    11381     9764     7307 
    4807     2994     2301     2944     4743     7298    10239    12961 
   14755    15466    15452    14905    13942    13001    12417    11936 
   11319    10382     8341     5082     1698    -1486    -5098    -9352 
  -13629   -17122   -19622   -21319   -22349   -22634   -21793   -19608 
  -16812   -14597   -13122   -11809   -10589    -9705    -9400    -9868 
  -11037   -12692   -14382   -14897   -12631    -7109      530     8714 
   16513    23679    29944    34650    37079    36886    34173    29209 
   22437    14457     5895    -2367    -9468   -15244   -19908   -23013 
  -23481   -20603   -14705    -7240      180     6732    11961    15406 
   16722    15534    11740     6173     -151    -6756   -12645   -16245 
  -16754   -14210    -8837    -1269     7237    15557    22635    27047 
   27901    25093    19029    10902     2010    -6596   -13728   -18200 
  -19121   -16274   -10204    -1879     7659    17359    25737    31299 
   33345    31627    26167    17770     7750    -2598   -11778   -18504 
  -22148   -22478   -19726   -14362    -7163      839     9236    17857 
   25826    31621    33955    32815    28857    22457    14539     6436 
   -1541    -8918   -13998   -15653   -13680    -8357    -1243     5664 
   11523    15832    17529    16240    12561     6991       78    -7161 
  -13667   -18805   -22416   -24445   -24690   -22912   -19225   -14334 
   -9113    -4139       -8     2523     3029     1800     -588    -4021 
   -8101   -11965   -15645   -19286   -22272   -24335   -25324   -24834 
  -23052   -20677   -18420   -16877   -16389   -17116   -18725   -20375 
  -21514   -21934   -21469   -19954   -17517   -14445   -10443    -5449 
     -24     5467    10638    15340    19731    23431    25852    26798 
   26395    24808    21887    17562    12283     6324     -180    -6443 
  -11441   -14570   -15653   -14897   -12887   -10319    -7492    -4619 
   -2380    -1127     -542     -591    -1331    -2128    -2598    -2764 
   -1946       22     2168     3959     4799     3696     1109    -1860 
   -5049    -8181   -10686   -12263   -12760   -12351   -11242    -9633 
   -7715    -5305    -2413      653     3996     7960    12339    16588 
   20640    24063    25948    26154    24804    21817    17450    12321 
    7020     2012    -2008    -4359    -4638    -2868      515     5061 
   10214    15597    20941    25594    29092    31318    31922    30721 
   28089    24395    20146    16271    13320    11214     9983     9698 
   10112    11295    13312    14947    14882    12962     9282     4152 
   -1761    -8212   -15036   -21566   -27035   -30839   -32467   -31669 
  -28728   -24436   -19581   -14575    -9436    -4143      692     4233 
    5877     5204     2320    -2262    -7546   -12024   -14831   -16085 
  -16159   -15492   -14728   -14565   -15215   -16259   -17172   -17685 
  -17647   -17018   -16098   -15190   -14215   -13058   -11623    -9798 
   -7597    -5008    -1848     2145     6713    10835    13683    15101 
   15136    14157    12974    12073    11523    11784    13153    15210 
   17659    20220    22198    23172    23224    22488    21103    19217 
   16987    14644    12090     8915     5159     1259    -2577    -6413 
  -10377   -14364   -17805   -20258   -21801   -22507   -22153   -20513 
  -17822   -14353   -10052    -5470    -1777      442     1480     1715 
    1312      556     -307    -1152    -1687    -1710    -1305     -529 
     718     2492     4807     7626    10624    13049    14062    13674 
   12360    10034     6729     3099     -187    -2731    -4126    -4035 
   -2929    -1656     -545       -6     -344    -1151    -2214    -3721 
   -5805    -8542   -11700   -14647   -16505   -16619   -15075   -12367 
   -9092    -6041    -3829    -2547    -2359    -3573    -5643    -7576 
   -8668    -8230    -6303    -3800    -1084     1791     4099     5312 
    5409     4421     2872     1285     -592    -2664    -3977    -3913 
   -2497      182     3915     8372    13242    17942    21591    23541 
   23618    21498    16985    10879     4225    -2293    -7990   -12426 
  -15654   -17721   -18378   -17613   -15938   -13848   -11608    -9417 
   -7450    -5979    -5328    -5340    -5211    -4459    -3450    -2450 
   -1246      346     2482     5346     8650    11870    14953    17698 
   19489    20081    19557    17826    14783    10712     6118     1449 
   -2710    -5606    -6851    -6393    -4336    -1470     1273     3574 
    5181     5933     6139     6021     5427     4533     3855     3582 
    3497     3115     2322     1621     1177      727      253     -195 
    -598     -855    -1196    -1674    -1641     -757      616     1971 
    2716     2473     1240     -677    -2749    -4563    -5660    -5560 
   -4166    -1655     1726     5698     9726    13408    16887    19878 
   21633    21695    19793    16074    11152     5748      481    -4207 
   -7789    -9873   -10436    -9229    -6249    -2250     1969     5629 
    8210     9796    10381    10027     8881     6610     3163     -865 
   -4835    -8499   -11630   -13714   -14557   -14206   -12737   -10490 
   -7704    -4568    -1823     -463    -1032    -3474    -7396   -12580 
  -18582   -24376   -29524   -33944   -36845   -37473   -35548   -30983 
  -24267   -16429    -8483    -1325     4469     8835    11786    13227 
