Origin Time       2025/01/13 21:19:00
Lat.              31.8
Long.             131.6
Depth. (km)       30
Mag.              6.9
Station Code      KGS019
Station Lat.      31.2776
Station Long.     130.3008
Station Height(m) 10
Record Time       2025/01/13 21:20:05
Sampling Freq(Hz) 100Hz
Duration Time(s)  82
Dir.              E-W
Scale Factor      3920(gal)/6182761
Max. Acc. (gal)   3.589
Last Correction   2025/01/13 21:20:06
Memo.             
[...]
    8818     8963     9286     9614     9625     9389     9319     9557 
    9977    10404    10490     9959     9078     8418     8245     8471 
    8904     9396     9873    10211    10253    10034     9731     9400 
    9007     8609     8269     8006     8056     8713     9685    10318 
   10408    10198     9973     9946    10081    10052     9661     9082 
    8617     8334     8060     7734     7536     7611     7923     8299 
    8571     8748     8952     9207     9346     9088     8369     7574 
    7191     7331     7767     8274     8785     9319     9790     9942 
    9681     9353     9388     9875    10462    10550     9837     8708 
    7868     7636     7833     8281     8905     9429     9562     9271 
    8591     7658     6891     6591     6629     6783     6936     7015 
    7061     7239     7628     8083     8365     8367     8202     8067 
    8108     8363     8647     8613     8108     7255     6261     5352 
    4813     4886     5522     6325     6970     7489     7991     8486 
    8971     9340     9396     9095     8612     8191     8001     8127 
    8569     9152     9568     9652     9568     9722    10421    11473 
   12326    12684    12668    12487    12247    11950    11561    11214 
   11150    11312    11301    10864    10149     9475     9024     8726 
    8446     8269     8476     9086     9608     9461     8638     7842 
    7847     8671     9561     9902     9787     9652     9773    10018 
    9885     9046     7748     6471     5579     5317     5723     6614 
    7783     8938     9634     9714     9494     9239     8954     8737 
    8733     8781     8610     8244     7883     7723     8007     8747 
    9501     9790     9565     9144     8833     8647     8375     7848 
    7130     6373     5565     4738     4248     4424     5151     6071 
    6909     7551     8086     8680     9364    10076    10765    11360 
   11701    11592    11082    10530    10227    10118     9963     9678 
    9483     9653    10212    10948    11513    11603    11242    10678 
   10059     9530     9241     9031     8613     8005     7382     6818 
    6398     6307     6612     7054     7171     6672     5796     5213 
    5396     6257     7354     8148     8278     7919     7675     7882 
    8212     8162     7637     6986     6646     6634     6503     5998 
    5383     5111     5494     6487     7632     8452     8868     9152 
    9654    10470    11250    11467    11034    10486    10304    10349 
   10191     9657     8995     8709     9188    10277    11303    11692 
   11453    10944    10430     9926     9301     8558     7920     7547 
    7430     7503     7628     7621     7520     7670     8393     9539 
   10550    10995    10965    10970    11375    11922    11964    11166 
    9851     8795     8620     9183     9662     9344     8230     6991 
    6377     6551     7114     7608     7773     7651     7541     7583 
    7680     7835     8098     8394     8648     8812     8869     8928 
    9030     8985     8663     8265     8124     8312     8667     9050 
    9339     9428     9434     9549     9769     9963     9935     9539 
    8997     8721     8830     9151     9343     9023     8186     7245 
    6489     5957     5719     5814     6124     6457     6630     6581 
    6497     6637     7029     7450     7666     7654     7615     7793 
    8297     9039     9775    10157     9898     9059     8144     7719 
    7919     8421     8809     8928     8952     9142     9599    10228 
   10774    11003    10949    10866    11040    11578    12114    12006 
   11021     9528     8181     7542     7643     7967     7989     7516 
    6760     6256     6308     6614     6814     6988     7317     7724 
    8014     8063     7913     7753     7685     7653     7643     7684 
    7763     7930     8215     8510     8724     8859     8895     8825 
    8740     8743     8889     9201     9611     9932     9989     9799 
    9581     9516     9516     9369     9130     9082     9325     9655 
    9835     9758     9494     9277     9372     9851    10553    11217 
   11575    11408    10726     9873     9318     9200     9140     8649 
    7699     6779     6508     7066     7917     8305     7931     7132 
    6557     6449     6396     6089     5794     5874     6418     7318 
    8252     8815     8863     8640     8600     8989     9535     9699 
    9229     8373     7611     7306     7542     8062     8413     8396 
    8212     8084     8046     7967     7667     7310     7335     7830 
    8524     9178     9604     9655     9363     8903     8480     8241 
    8156     8066     7921     7857     7984     8272     8668     9117 
    9453     9534     9446     9412     9566     9843    10072    10139 
   10005     9703     9385     9173     8951     8510     7843     7142 
    6687     6668     6982     7442     8083     8925     9769    10432 
   10860    11000    10812    10360     9802     9328     9075     9058 
    9158     9220     9213     9210     9217     9138     8957     8955 
    9526    10646    11825    12566    12634    12137    11481    10970 
   10595    10300    10099     9907     9666     9518     9569     9650 
    9414     8572     7192     5908     5547     6389     7854     8979 
    9220     8849     8548     8617     8768     8675     8403     8265 
    8512     9046     9411     9301     8909     8646     8737     9037 
    9086     8576     7785     7288     7359     7852     8455     8923 
    9171     9268     9326     9334     9217     9040     8952     8958 
    8912     8677     8242     7740     7400     7387     7588     7753 
    7804     7789     7749     7781     8004     8378     8689     8630 
    8001     7001     6155     5864     6124     6582     6859     6935 
    7101     7533     8134     8669     8994     9245     9665    10157 
   10317    10016     9605     9495     9778    10158    10147     9531 
    8671     8149     8167     8449     8664     8720     8687     8612 
    8403     8008     7590     7291     7066     6844     6531     6067 
    5677     5679     6096     6699     7278     7738     8065     8317 
    8591     8923     9229     9408     9480     9631    10001    10444 
   10648    10415     9762     8973     8464     8356     8387     8314 
    8157     8145     8558     9446    10536    11471    11960    11850 
   11276    10580    10031     9701     9487     9242     9013     8992 
    9173     9243     8934     8426     8149     8265     8588     8928 
    9227     9388     9259     8783     8042     7240     6611     6257 
    6096     6002     5991     6252     6914     7768     8315     8211 
    7716     7453     7693     8231     8821     9366     9887    10447 
   10916    11037    10763    10233     9624     9187     9112     9364 
    9760    10098    10241    10098     9656     9083     8548     8029 
    7506     7158     7248     7873     8902    10038    10936    11444 
   11644    11547    11051    10276     9543     8997     8686     8748 
    9186     9764    10133     9978     9234     8178     7286     6952 
    7142     7461     7708     8097     8875     9881    10563    10479 
    9721     8882     8604     9015     9680    10058     9891     9277 
    8450     7557     6804     6534     6819     7245     7312     6907 
    6348     6030     6022     6079     6062     6143     6492     6994 
    7374     7359     6838     6072     5638     6008     7169     8562 
    9492     9693     9428     9155     9194     9523     9787     9712 
    9471     9439     9637     9714     9346     8474     7348     6402 
    5973     6130     6679     7320     7894     8407     8802     8919 
    8640     7914     6863     5957     5718     6205     7002     7652 
    8008     8121     7930     7365     6657     6271     6526     7358 
    8448     9489    10353    11171    12116    13005    13395    13163 
   12686    12336    12095    11730    11108    10384     9941    10066 
   10628    11162    11257    10784     9953     9173     8748     8765 
    9128     9530     9618     9355     9008     8718     8373     7884 
    7341     6973     6997     7320     7556     7492     7275     7123 
    7127     7335     7796     8453     9074     9493     9843    10306 
   10795    11092    11115    10861    10396     9947     9719     9593 
    9260     8622     7884     7335     7183     7501     8195     9008 
    9657    10037    10261    10526    10960    11476    11807    11778 
   11472    11064    10618    10040     9188     8087     6997     6244 
    6039     6366     6979     7629     8157     8354     7998     7135 
    6148     5560     5758     6662     7742     8529     8912     8981 
    8861     8666     8460     8275     8198     8298     8482     8596 
    8618     8569     8401     8109     7812     7669     7763     8007 
    8190     8138     7829     7436     7223     7231     7227     7058 
    6855     6846     7109     7538     7997     8411     8763     9078 
    9316     9344     9140     8806     8358     7772     7157     6657 
    6353     6273     6359     6448     6375     6121     5861     5842 
    6189     6794     7388     7790     8096     8497     8975     9358 
    9538     9464     9107     8500     7688     6755     5975     5699 
    6043     6855     7903     8895     9510     9590     9235     8803 
    8784     9402    10385    11282    11877    12198    12309    12157 
   11572    10516     9308     8447     8279     8846     9927    11187 
   12287    13039    13540    13954    14248    14278    13994    13452 
   12789    12216    11872    11659    11415    11146    10917    10716 
   10485    10140     9683     9313     9150     9052     8920     8887 
    9125     9614    10002     9823     8998     7928     7085     6666 
    6546     6486     6368     6241     6255     6470     6783     7059 
    7223     7255     7167     6996     6847     6888     7235     7807 
    8392     8826     9019     8956     8759     8578     8431     8190 
    7731     7086     6408     5887     5659     5688     5823     5926 
    5969     6037     6187     6424     6765     7195     7646     8046 
    8293     8265     7894     7279     6730     6557     6820     7317 
    7788     8111     8334     8596     8985     9384     9515     9186 
    8417     7356     6219     5237     4576     4406     4877     5932 
    7288     8530     9202     9109     8497     7840     7529     7713 
    8313     9144    10014    10743    11202    11335    11172    10857 
   10611    10622    11010    11775    12725    13508    13760    13332 
   12396    11349    10663    10627    11124    11823    12453    12798 
   12699    12238    11715    11359    11179    11019    10659     9972 
    8960     7682     6315     5186     4516     4294     4469     5007 
    5834     6889     8100     9301    10260    10744    10610     9989 
    9292     8932     8988     9211     9352     9351     9278     9188 
    9046     8852     8773     9018     9621    10416    11091    11331 
   11148    10922    10931    11026    10862    10293     9453     8583 
    7846     7298     6932     6712     6636     6729     6988     7412 
    8020     8728     9288     9463     9224     8785     8463     8396 
    8437     8423     8373     8328     8215     7905     7344     6691 
    6259     6214     6489     6940     7431     7886     8323     8796 
    9328     9883    10339    10530    10308     9608     8553     7485 
    6737     6353     6215     6272     6472     6670     6749     6754 
    6835     7056     7328     7520     7581     7530     7349     6970 
    6421     5852     5428     5215     5124     5033     4940     4955 
    5178     5636     6250     6846     7281     7559     7785     8019 
    8226     8379     8497     8562     8541     8478     8490     8663 
    8958     9258     9453     9444     9196     8763     8213     7637 
    7198     7062     7324     7972     8914    10046    11240    12292 
   13019    13402    13557    13581    13522    13378    13022    12358 
   11559    10927    10597    10435    10169     9696     9181     8828 
    8736     8909     9276     9744    10247    10762    11277    11713 
   11933    11810    11352    10767    10300     9987     9683     9240 
    8597     7806     7027     6476     6341     6660     7322     8201 
    9165    10068    10839    11447    11792    11780    11397    10644 
    9606     8514     7537     6636     5718     4799     4019     3563 
    3522     3810     4319     5063     6067     7147     7995     8402 
    8385     8139     7827     7476     7087     6679     6305     6067 
    5982     5934     5897     6040     6482     7106     7715     8161 
    8338     8267     8051     7706     7250     6854     6697     6776 
    6938     6989     6852     6722     6875     7333     7892     8363 
    8651     8795     8975     9363     9963    10602    11053    11165 
   10960    10647    10503    10663    11061    11563    12003    12209 
   12147    11921    11665    11464    11309    11172    11060    10913 
   10646    10274     9801     9180     8515     8053     7968     8243 
    8684     9017     9132     9142     9178     9254     9288     9142 
    8779     8371     8137     8103     8107     8041     7979     8051 
    8296     8628     8914     9104     9261     9419     9535     9606 
    9695     9876    10145    10362    10401    10298    10131     9900 
    9588     9231     8941     8862     8994     9176     9245     9110 
    8770     8290     7742     7203     6728     6277     5752     5136 
    4488     3868     3356     3049     3001     3246     3806     4612 
    5525     6404     7088     7446     7481     7326     7183     7223 
    7478     7840     8114     8154     8078     8197     8643     9246 
    9753    10081    10354    10695    11047    11259    11218    10897 
   10376     9862     9591     9614     9725     9712     9533     9262 
    9017     8915     8982     9163     9387     9544     9551     9491 
    9538     9757    10033    10191    10156     9999     9836     9725 
    9630     9433     9003     8338     7586     6944     6576     6510 
    6661     6955     7330     7736     8140     8505     8776     8887 
    8769     8456     8129     7943     7869     7780     7656     7647 
    7900     8365     8847     9182     9327     9353     9328     9261 
    9179     9154     9225     9345     9374     9204     8918     8678 
    8537     8498     8539     8539     8443     8385     8538     8912 
    9337     9577     9474     9069     8596     8320     8356     8596 
    8804     8868     8978     9396    10095    10767    11088    10952 
   10584    10315    10241    10220    10097     9837     9520     9243 
    8950     8556     8148     7852     7651     7460     7229     6973 
    6792     6766     6834     6906     6994     7149     7426     7864 
    8413     8941     9322     9499     9521     9538     9667     9857 
    9970     9958     9874     9764     9655     9593     9574     9530 
    9422     9271     9137     9094     9169     9337     9524     9591 
    9418     9109     8953     9109     9467     9831    10115    10308 
   10390    10342    10180     9983     9842     9779     9752     9706 
    9568     9275     8853     8412     8037     7750     7536     7340 
    7119     6899     6704     6535     6422     6357     6263     6100 
    5923     5792     5730     5734     5811     5990     6263     6560 
    6803     6981     7156     7414     7806     8282     8686     8889 
    8914     8927     9115     9531    10028    10359    10393    10210 
    9984     9834     9785     9784     9762     9701     9658     9709 
    9844     9941     9905     9767     9580     9360     9127     8893 
    8677     8533     8534     8712     9063     9546    10054    10396 
   10396    10042     9514     9042     8737     8595     8617     8799 
    9053     9279     9433     9491     9400     9129     8693     8164 
    7652     7285     7148     7236     7435     7585     7587     7435 
    7156     6804     6491     6323     6375     6694     7201     7667 
    7899     7888     7760     7659     7648     7667     7618     7495 
    7400     7434     7552     7600     7538     7529     7764     8249 
    8804     9217     9398     9428     9456     9502     9447     9235 
    8954     8741     8680     8738     8795     8794     8776     8763 
    8753     8772     8821     8887     9002     9183     9388     9525 
    9473     9173     8665     8079     7599     7355     7315     7372 
    7505     7745     8030     8254     8371     8376     8300     8252 
    8316     8449     8555     8591     8604     8677     8857     9086 
    9204     9090     8822     8646     8762     9133     9534     9768 
    9812     9781     9784     9801     9763     9695     9668     9698 
    9733     9704     9579     9386     9172     8964     8747     8492 
    8228     8065     8102     8313     8567     8755     8822     8742 
    8552     8361     8257     8254     8293     8260     8101     7937 
    7931     8083     8259     8333     8271     8153     8090     8109 
    8165     8224     8298     8439     8698     9032     9309     9422 
    9365     9191     8968     8785     8724     8809     8997     9191 
    9301     9294     9198     9065     8935     8814     8678     8488 
    8251     8054     7997     8093     8266     8426     8551     8696 
    8905     9154     9375     9497     9473     9326     9141     9009 
    8949     8933     8979     9122     9315     9451     9466     9350 
    9147     8997     9019     9185     9412     9638     9799     9826 
    9677     9388     9076     8852     8768     8806     8888     8928 
    8879     8764     8625     8469     8302     8166     8092     8092 
    8180     8326     8480     8612     8666     8569     8323     8002 
    7706     7556     7635     7879     8133     8308     8409     8489 
    8616     8805     8981     9062     9047     9000     8992     9065 
    9200     9327     9414     9482     9533     9529     9433     9232 
    8948     8669     8505     8479     8480     8377     8146     7886 
    7715     7662     7671     7680     7673     7678     7724     7813 
    7916     8008     8086     8144     8144     8062     7975     7965 
    8003     8076     8239     8493     8754     8944     9057     9132 
    9220     9357     9524     9664     9710     9607     9394     9201 
    9111     9129     9223     9331     9408     9453     9461     9421 
    9358     9336     9383     9470     9596     9798    10051    10276 
   10396    10320    10014     9575     9190     8995     8954     8926 
    8853     8761     8646     8493     8344     8263     8286     8429 
    8669     8891     8956     8848     8685     8558     8423     8231 
    8041     7932     7904     7908     7880     7784     7650     7573 
    7637     7840     8105     8346     8523     8672     8821     8927 
    8944     8872     8717     8531     8421     8421     8466     8489 
    8460     8358     8186     8000     7841     7746     7793     7955 
    8084     8116     8094     8081     8091     8038     7838     7570 
    7414     7445     7609     7799     7882     7799     7617     7440 
    7330     7339     7510     7801     8072     8228     8314     8428 
    8594     8742     8817     8831     8818     8836     8982     9299 
    9698    10035    10242    10324    10324    10311    10321    10311 
