Origin Time       2025/01/13 21:19:00
Lat.              31.8
Long.             131.6
Depth. (km)       30
Mag.              6.9
Station Code      KGS002
Station Lat.      32.0916
Station Long.     130.3519
Station Height(m) 12
Record Time       2025/01/13 21:19:54
Sampling Freq(Hz) 100Hz
Duration Time(s)  108
Dir.              N-S
Scale Factor      7845(gal)/8223790
Max. Acc. (gal)   5.343
Last Correction   2025/01/13 21:19:54
Memo.             
[...]
    3831     4010     4156     4243     4229     4120     3951     3753 
    3493     3113     2682     2363     2219     2223     2381     2670 
    2987     3211     3316     3391     3537     3724     3852     3881 
    3848     3780     3631     3387     3123     2933     2841     2841 
    2903     2988     3052     3094     3177     3338     3543     3738 
    3843     3831     3747     3616     3472     3400     3420     3466 
    3468     3361     3117     2808     2582     2482     2417     2347 
    2363     2543     2856     3186     3423     3520     3458     3249 
    2959     2662     2413     2242     2197     2350     2671     3017 
    3292     3519     3721     3886     4013     4104     4087     3902 
    3635     3408     3184     2884     2606     2502     2547     2612 
    2625     2596     2569     2596     2693     2805     2839     2797 
    2776     2836     2999     3240     3489     3705     3836     3807 
    3661     3553     3539     3545     3516     3464     3330     3026 
    2628     2319     2166     2154     2269     2493     2802     3111 
    3279     3334     3423     3553     3619     3600     3572     3564 
    3532     3485     3439     3361     3244     3140     3114     3199 
    3312     3314     3176     2982     2802     2664     2600     2624 
    2708     2820     2899     2866     2745     2647     2621     2621 
    2583     2527     2508     2523     2525     2500     2498     2601 
    2805     3059     3357     3682     3963     4125     4148     4068 
    3927     3759     3609     3512     3473     3415     3265     3067 
    2895     2772     2733     2841     3102     3411     3640     3775 
    3793     3620     3318     3045     2825     2597     2438     2473 
    2664     2874     3071     3281     3423     3370     3161     2965 
    2916     3002     3148     3312     3484     3643     3762     3825 
    3836     3805     3727     3593     3418     3214     2965     2659 
    2323     2052     1941     2012     2234     2566     2916     3141 
    3206     3204     3217     3249     3311     3429     3603     3747 
    3724     3531     3319     3245     3357     3565     3735     3834 
    3856     3792     3685     3599     3516     3388     3211     3025 
    2886     2847     2889     2967     3075     3194     3285     3348 
    3416     3545     3744     3927     3979     3916     3842     3801 
    3740     3627     3485     3323     3141     2979     2890     2851 
    2763     2560     2255     1908     1640     1560     1706     2031 
    2407     2683     2837     2964     3134     3310     3392     3330 
    3175     3009     2862     2748     2764     2941     3129     3204 
    3175     3091     3015     3002     3071     3168     3226     3233 
    3219     3223     3302     3481     3740     4039     4275     4347 
    4271     4144     4029     3955     3909     3825     3663     3454 
    3231     3021     2866     2766     2655     2511     2417     2458 
    2637     2891     3123     3257     3285     3227     3105     2995 
    2990     3069     3137     3148     3130     3132     3172     3208 
    3196     3184     3245     3380     3585     3865     4129     4249 
    4214     4079     3844     3530     3252     3068     2903     2713 
    2505     2272     2037     1858     1795     1881     2068     2235 
    2330     2343     2277     2187     2145     2154     2161     2162 
    2238     2415     2598     2744     2930     3207     3538     3867 
    4162     4388     4498     4482     4387     4234     4018     3754 
    3454     3138     2830     2547     2336     2242     2247     2292 
    2313     2327     2424     2633     2863     3029     3129     3191 
    3238     3265     3262     3210     3115     3026     2970     2932 
    2871     2739     2540     2351     2234     2212     2317     2538 
    2808     3061     3245     3327     3346     3388     3497     3630 
    3685     3570     3298     3002     2826     2791     2801     2778 
    2720     2668     2675     2778     2968     3208     3461     3684 
    3834     3940     4085     4284     4518     4780     5030     5175 
    5166     5023     4792     4544     4338     4159     3979     3825 
    3677     3462     3188     2961     2872     2920     3013     3064 
    3057     3006     2933     2855     2821     2909     3105     3321 
    3532     3735     3861     3819     3611     3352     3133     2965 
    2836     2714     2567     2415     2301     2257     2338     2613 
    3065     3535     3854     3998     4014     3944     3869     3862 
    3894     3862     3667     3314     2922     2641     2524     2477 
    2393     2268     2131     1983     1826     1698     1679     1823 
    2070     2344     2679     3119     3574     3924     4180     4387 
    4507     4502     4357     4077     3705     3330     3011     2779 
    2663     2648     2667     2667     2660     2698     2797     2906 
    2922     2766     2470     2180     2004     1944     1961     2037 
    2147     2239     2239     2108     1883     1617     1341     1140 
    1112     1298     1680     2228     2862     3460     3921     4172 
    4216     4147     4025     3835     3591     3366     3200     3117 
    3132     3210     3285     3331     3321     3226     3094     3010 
    3024     3102     3175     3199     3199     3217     3268     3323 
    3349     3341     3307     3267     3272     3333     3406     3487 
    3570     3601     3582     3599     3685     3781     3796     3688 
    3453     3125     2789     2527     2371     2324     2382     2555 
    2814     3072     3261     3400     3576     3811     4039     4239 
    4449     4650     4760     4716     4537     4299     4044     3727 
    3333     2943     2639     2412     2261     2236     2347     2539 
    2748     2959     3230     3596     3955     4158     4166     4037 
    3824     3569     3342     3176     3036     2901     2751     2575 
    2428     2377     2412     2493     2601     2745     2953     3234 
    3512     3681     3754     3794     3805     3784     3744     3690 
    3603     3442     3199     2938     2766     2714     2743     2801 
    2866     2926     2983     3051     3154     3285     3412     3510 
    3555     3547     3488     3375     3235     3114     2982     2781 
    2532     2316     2209     2238     2361     2501     2620     2733 
    2860     2988     3098     3153     3118     3009     2855     2663 
    2475     2366     2331     2324     2358     2447     2560     2687 
    2848     3006     3107     3164     3222     3304     3439     3661 
    3933     4185     4359     4417     4372     4286     4171     3996 
    3800     3670     3611     3569     3543     3578     3696     3858 
    3977     3983     3896     3758     3585     3396     3195     2971 
    2733     2513     2342     2243     2243     2381     2633     2899 
    3115     3298     3437     3480     3422     3285     3075     2839 
    2651     2547     2506     2520     2585     2656     2705     2770 
    2880     2999     3103     3225     3357     3410     3349     3253 
    3167     3071     2987     2968     3013     3057     3061     3017 
    2911     2758     2633     2621     2728     2902     3107     3315 
    3477     3522     3424     3292     3231     3204     3121     2990 
    2880     2799     2735     2713     2731     2745     2749     2772 
    2856     3045     3335     3658     3929     4109     4255     4464 
    4699     4826     4823     4735     4553     4276     3974     3708 
    3483     3262     3003     2660     2281     1969     1755     1609 
    1541     1582     1729     1944     2173     2398     2637     2882 
    3098     3273     3435     3592     3696     3694     3596     3430 
    3223     3048     2974     2983     3033     3080     3061     2982 
    2907     2845     2766     2686     2658     2693     2758     2822 
    2925     3114     3337     3469     3480     3454     3427     3342 
    3214     3156     3242     3424     3593     3734     3902     4062 
    4095     4004     3904     3805     3616     3370     3244     3288 
    3360     3357     3338     3364     3381     3319     3198     3133 
    3183     3262     3252     3136     2999     2876     2745     2648 
    2631     2663     2704     2722     2697     2627     2542     2494 
    2513     2523     2447     2344     2270     2207     2235     2498 
    2947     3399     3804     4182     4453     4488     4240     3848 
    3497     3179     2826     2535     2466     2620     2813     2932 
    3059     3269     3543     3850     4187     4549     4872     5023 
    4874     4452     3958     3566     3260     2957     2693     2516 
    2347     2077     1804     1726     1856     2039     2188     2374 
    2673     3018     3280     3464     3686     4014     4361     4579 
    4600     4429     4070     3535     2921     2411     2112     1953 
    1836     1802     1964     2316     2682     2899     3002     3152 
    3369     3458     3269     2866     2396     1948     1553     1289 
    1208     1231     1279     1447     1842     2409     2992     3523 
    4037     4545     4978     5238     5269     5100     4774     4314 
    3769     3244     2803     2447     2181     2083     2178     2373 
    2571     2748     2940     3223     3595     3947     4212     4387 
    4434     4275     3888     3339     2733     2208     1879     1725 
    1651     1636     1698     1848     2111     2498     2991     3528 
    4028     4422     4683     4818     4857     4811     4633     4230 
    3635     3078     2764     2682     2747     2955     3325     3778 
    4125     4214     4091     3862     3495     2926     2284     1791 
    1513     1412     1516     1813     2157     2412     2569     2709 
    2949     3365     3897     4440     4938     5368     5656     5702 
    5474     5042     4521     3996     3522     3117     2737     2344 
    2006     1822     1798     1848     1904     1981     2145     2436 
    2818     3215     3623     4066     4491     4816     5046     5244 
    5389     5401     5306     5165     4916     4484     3963     3573 
    3449     3558     3751     3920     4112     4359     4529     4533 
    4456     4348     4133     3827     3596     3574     3701     3836 
    3958     4145     4411     4635     4733     4738     4722     4677 
    4518     4153     3616     3049     2528     2007     1472     1020 
     745      621      577      665      935     1248     1443     1482 
    1366     1111      828      657      589      490      283       37 
    -129     -179     -206     -287     -388     -453     -459     -394 
    -309     -307     -400     -473     -450     -360     -203      102 
     635     1313     1914     2296     2525     2712     2870     2982 
    3080     3196     3308     3411     3569     3820     4116     4376 
    4580     4779     5011     5216     5320     5359     5420     5516 
    5556     5478     5329     5155     4909     4584     4282     4079 
    3950     3877     3905     4054     4237     4376     4480     4575 
    4594     4459     4248     4148     4249     4498     4789     5039 
    5201     5250     5155     4927     4645     4390     4182     4040 
    3982     3931     3762     3484     3265     3231     3349     3551 
    3821     4060     4129     4024     3875     3819     3878     3954 
    3923     3770     3622     3591     3655     3742     3858     4027 
    4151     4072     3800     3495     3225     2933     2597     2272 
    1996     1807     1798     1965     2158     2303     2473     2722 
    2968     3080     3088     3161     3331     3435     3334     3057 
    2697     2286     1846     1439     1177     1170     1374     1588 
    1638     1505     1300     1174     1260     1561     1937     2245 
    2481     2694     2824     2799     2683     2563     2430     2218 
    1927     1629     1360     1124     1016     1156     1526     1954 
    2304     2528     2550     2353     2108     1960     1865     1818 
    1922     2157     2394     2656     3080     3672     4320     4926 
    5437     5809     6042     6196     6307     6339     6238     6000 
    5656     5244     4816     4449     4244     4228     4267     4213 
    4093     4037     4155     4495     4968     5383     5625     5663 
    5516     5273     5030     4819     4599     4325     3993     3657 
    3396     3264     3302     3582     4051     4488     4750     4915 
    5117     5368     5587     5713     5748     5744     5744     5699 
    5478     5084     4658     4233     3743     3230     2783     2384 
    1953     1493     1069      737      526      450      486      573 
     666      742      793      857      989     1179     1360     1455 
    1445     1420     1444     1471     1464     1499     1597     1622 
    1471     1227     1027      912      854      803      657      317 
    -180     -695    -1124    -1382    -1401    -1258    -1112    -1003 
    -849     -558     -118      392      858     1215     1476     1645 
    1721     1763     1854     2010     2165     2269     2285     2184 
    2029     1995     2168     2484     2848     3179     3461     3715 
    3892     3958     3944     3882     3813     3751     3666     3611 
    3701     3954     4253     4507     4741     5001     5217     5314 
    5352     5390     5400     5397     5483     5679     5875     6004 
    6131     6291     6446     6604     6816     7071     7354     7697 
    8075     8422     8669     8745     8626     8341     7924     7446 
    6980     6504     5976     5433     4912     4419     4020     3815 
    3842     4070     4398     4671     4811     4874     4915     4909 
    4851     4806     4781     4673     4352     3802     3215     2795 
    2521     2285     2096     1976     1872     1740     1599     1534 
    1611     1814     1993     1962     1682     1271      873      546 
     218     -186     -598     -915    -1123    -1240    -1266    -1189 
   -1039     -865     -723     -675     -727     -785     -712     -468 
    -156      132      426      791     1213     1615     1915     2074 
    2111     2120     2204     2355     2481     2517     2446     2254 
    1964     1613     1220      858      657      650      762      949 
    1227     1598     1981     2299     2597     2983     3460     3920 
    4326     4768     5316     5868     6238     6384     6390     6299 
    6104     5827     5533     5287     5115     5035     5074     5175 
    5255     5351     5599     6033     6473     6758     6928     7088 
    7242     7331     7335     7258     7084     6771     6330     5848 
    5417     5074     4816     4619     4426     4189     3954     3823 
    3796     3802     3815     3817     3770     3636     3439     3267 
    3176     3154     3168     3219     3326     3458     3557     3588 
    3558     3495     3403     3303     3233     3157     3021     2859 
    2766     2744     2691     2559     2386     2164     1875     1574 
    1324     1163     1081     1004      899      787      714      715 
     811      994     1193     1305     1297     1208     1044      820 
     604      396      116     -257     -635     -918    -1078    -1119 
   -1026     -835     -652     -554     -530     -477     -348     -194 
     -27      171      333      419      449      400      303      270 
     355      526      749     1017     1336     1678     2065     2586 
    3283     4083     4876     5574     6114     6457     6609     6609 
    6504     6363     6222     6033     5742     5405     5121     4946 
    4850     4810     4855     5015     5239     5448     5605     5706 
    5742     5701     5575     5344     5022     4673     4376     4194 
    4140     4180     4268     4342     4399     4525     4768     5121 
    5584     6114     6627     7010     7173     7161     7079     6924 
    6683     6381     6027     5664     5324     4973     4592     4218 
    3897     3639     3384     3080     2772     2543     2428     2397 
    2385     2365     2334     2268     2188     2168     2261     2470 
    2727     2902     2921     2787     2508     2120     1717     1372 
    1069      751      450      255      193      233      337      499 
     712      916     1065     1178     1287     1413     1556     1676 
    1730     1701     1624     1553     1507     1499     1568     1725 
    1962     2297     2751     3304     3862     4322     4646     4815 
    4833     4752     4642     4549     4430     4226     3994     3823 
    3712     3593     3406     3125     2762     2331     1867     1394 
     928      514      203       12      -31      103      388      735 
    1088     1474     1880     2230     2489     2691     2847     2918 
    2883     2774     2658     2604     2670     2843     3046     3252 
    3489     3770     4058     4290     4417     4437     4394     4357 
    4371     4433     4557     4766     4997     5157     5211     5142 
    4909     4526     4062     3608     3221     2914     2709     2625 
    2646     2720     2810     2898     2971     3053     3194     3385 
    3564     3673     3704     3726     3815     3959     4090     4224 
    4394     4504     4464     4360     4309     4322     4391     4536 
    4749     4974     5152     5287     5395     5445     5429     5408 
    5418     5386     5224     4953     4607     4178     3674     3157 
    2720     2415     2218     2092     2012     1981     1996     2010 
    2018     2068     2168     2299     2446     2581     2722     2928 
    3211     3526     3817     4110     4419     4645     4725     4702 
    4606     4464     4328     4213     4101     3974     3859     3804 
    3778     3730     3677     3653     3642     3640     3624     3507 
    3238     2920     2677     2520     2396     2286     2199     2135 
    2088     2061     2076     2145     2250     2366     2466     2538 
    2593     2625     2583     2447     2247     2000     1738     1503 
    1273     1036      827      649      498      394      345      334 
     309      251      186      116       70      124      280      465 
     633      815     1081     1453     1921     2462     3003     3429 
    3684     3828     3971     4139     4270     4326     4315     4241 
    4089     3871     3659     3550     3589     3742     3935     4082 
    4102     4005     3883     3781     3662     3503     3321     3163 
    3053     2974     2934     2978     3118     3322     3508     3647 
    3798     3998     4203     4379     4534     4675     4749     4725 
    4676     4715     4834     4931     4961     4954     4916     4795 
    4584     4368     4207     4090     4027     4020     4031     4052 
    4093     4139     4166     4158     4148     4179     4214     4237 
    4290     4360     4378     4305     4172     4017     3825     3618 
    3461     3358     3302     3288     3256     3152     2983     2785 
    2590     2409     2312     2389     2593     2810     2997     3141 
    3252     3342     3439     3573     3699     3758     3771     3755 
    3670     3530     3430     3408     3416     3406     3358     3256 
    3098     2956     2924     3021     3190     3346     3431     3420 
    3315     3177     3084     3034     3005     2988     2959     2870 
    2727     2620     2627     2701     2752     2762     2758     2749 
