Origin Time       2025/01/13 21:19:00
Lat.              31.8
Long.             131.6
Depth. (km)       30
Mag.              6.9
Station Code      KGS008
Station Lat.      31.7638
Station Long.     130.5659
Station Height(m) 11
Record Time       2025/01/13 21:19:49
Sampling Freq(Hz) 100Hz
Duration Time(s)  185
Dir.              N-S
Scale Factor      7845(gal)/8223790
Max. Acc. (gal)   36.748
Last Correction   2025/01/13 21:19:49
Memo.             
[...]
   -8036   -10139   -11777   -13128   -14234   -15075   -15573   -15668 
  -15442   -15153   -15078   -15259   -15502   -15552   -15163   -14187 
  -12600   -10442    -7912    -5293    -2640      214     3358     6633 
    9821    12699    14986    16484    17073    16636    15130    12644 
    9424     5853     2228    -1204    -4162    -6475    -8151    -9400 
  -10571   -11777   -12837   -13501   -13574   -13027   -12048   -10947 
   -9942    -9030    -8021    -6705    -5061    -3118     -738     2158 
    5368     8495    11121    12950    13952    14342    14420    14438 
   14582    14891    15159    15053    14354    12935    10713     7794 
    4433      957    -2239    -4931    -7210    -9355   -11526   -13510 
  -14895   -15466   -15246   -14250   -12425    -9741    -6234    -2115 
    2286     6725    10943    14717    18088    21070    23529    25577 
   27486    28894    28984    28148    27129    24954    21267    16977 
   11915     6378     1335    -3331    -7688   -11350   -14064   -15608 
  -15917   -15275   -14095   -12486   -10566    -8714    -7137    -5844 
   -4830    -4110    -3720    -3562    -3408    -3075    -2421    -1409 
     -93     1502     3267     4888     6076     6721     6872     6664 
    6255     5765     5352     5077     4688     3770     2037     -380 
   -2951    -5223    -7072    -8629   -10104   -11557   -12923   -14172 
  -15298   -16263   -16862   -16804   -15870   -13988   -11362    -8356 
   -5173    -1749     2085     6254    10447    14419    17865    20416 
   21886    22347    22095    21466    20757    20205    19827    19507 
   19232    19084    19190    19608    20160    20517    20331    19261 
   17049    13556     8911     3584    -1861    -6934   -11294   -14948 
  -18081   -20710   -22715   -23969   -24475   -24375   -23782   -22684 
  -20974   -18528   -15241   -11133    -6417    -1313     4014     9470 
   15075    20634    25725    30176    33999    36950    38554    38674 
   37720    36243    34682    33120    31326    29246    26914    24124 
   20626    16410    11804     7300     3068    -1088    -5157    -8716 
  -11302   -12792   -13417   -13456   -13122   -12591   -11958   -11203 
  -10281    -9270    -8320    -7487    -6779    -6102    -5373    -4715 
   -4342    -4376    -4688    -4984    -5274    -6025    -7711   -10389 
  -13560   -16540   -18955   -20849   -22500   -24150   -25824   -27372 
  -28563   -29172   -29137   -28629   -27864   -26858   -25490   -23572 
  -20916   -17509   -13474    -9072    -4791     -970     2558     6006 
    9333    12577    15800    18986    22127    25089    27653    29713 
   31322    32601    33573    34076    33805    32518    30311    27537 
   24551    21648    18916    16186    13373    10585     7960     5637 
    3728     2208      811     -772    -2605    -4452    -5900    -6790 
   -7372    -7809    -7893    -7466    -6633    -5485    -3985    -2023 
     519     3547     6755     9714    12097    14044    15907    17772 
   19575    21049    21821    21872    21359    20324    18870    17046 
   14767    12050     9036     5814     2361    -1286    -4951    -8392 
  -11464   -14257   -16931   -19449   -21613   -23156   -23827   -23490 
  -22017   -19472   -16252   -12725    -9178    -5988    -3439    -1422 
     477     2301     3565     4186     4648     5059     5252     5362 
    5506     5705     5958     6146     6043     5255     3604     1647 
      32    -1273    -2614    -4149    -5900    -7755    -9485   -10833 
  -11632   -11867   -11601   -10945   -10073    -9165    -8417    -7977 
   -7692    -6980    -5358    -3064     -761     1189     2733     3910 
    4891     5863     6940     8352    10230    12395    14548    16364 
   17706    18642    18995    18501    17190    15292    12996    10351 
    7411     4297     1088    -2173    -5394    -8432   -11136   -13414 
  -15164   -16198   -16366   -15774   -14602   -12815   -10407    -7489 
   -4050     -147     3723     6983     9621    11954    14079    15909 
   17396    18690    19932    20973    21694    22094    22179    22167 
   22272    22499    22835    23152    23093    22200    20116    16873 
   12912     8812     5008     1719     -899    -2794    -4180    -5397 
   -6654    -7905    -8892    -9540   -10147   -10920   -11757   -12515 
  -13077   -13321   -13086   -12193   -10624    -8496    -5945    -3229 
    -608     1728     3520     4526     4725     4301     3489     2527 
    1653      940      253     -587    -1765    -3314    -5044    -6727 
   -8187    -9351   -10254   -10917   -11261   -11298   -11242   -11260 
  -11389   -11632   -11759   -11342   -10181    -8565    -6944    -5416 
   -3950    -2550     -957     1044     3485     6469     9863    13169 
   15978    18188    19846    21119    22285    23396    24308    25043 
   25718    26310    26611    26325    25355    23801    21737    19291 
   16548    13413     9836     6041     2378    -1005    -4083    -6849 
   -9339   -11427   -12914   -13802   -14261   -14478   -14620   -14806 
  -15041   -15260   -15429   -15520   -15533   -15577   -15704   -15749 
  -15593   -15331   -15020   -14535   -13635   -12089    -9886    -7230 
   -4332    -1399     1283     3418     4919     5984     6777     7329 
    7681     7947     8179     8282     8189     8163     8565     9358 
   10264    11107    11815    12320    12522    12440    12081    11434 
   10620     9652     8444     7056     5711     4764     4383     4239 
    3817     2971     1934     1013      481      530     1120     2095 
    3399     4949     6517     7900     9026     9946    10725    11364 
   11911    12422    12788    12906    12766    12322    11475    10088 
    8073     5544     2789      114    -2278    -4297    -5917    -7325 
   -8734   -10108   -11326   -12352   -13081   -13402   -13293   -12815 
  -12177   -11588   -10975   -10164    -9139    -8033    -6995    -5981 
   -4878    -3855    -3078    -2447    -1837    -1030      355     2521 
    5324     8467    11728    14948    17813    20036    21699    22974 
   23897    24528    24914    25058    24970    24673    24128    23234 
   21988    20421    18567    16652    14968    13593    12343    11005 
    9548     8066     6593     5108     3592     2031      542     -631 
   -1359    -1603    -1339     -683       55      579      716      436 
    -214    -1262    -2708    -4363    -6062    -7811    -9625   -11442 
  -13122   -14499   -15388   -15612   -15183   -14359   -13432   -12576 
  -11965   -11821   -12213   -13014   -14075   -15106   -15743   -15809 
  -15249   -14129   -12631   -10801    -8586    -6033    -3271     -527 
    1795     3406     4432     5139     5602     5876     6100     6401 
    6812     7314     7886     8411     8719     8706     8336     7627 
    6590     5300     3940     2663     1584      824      378      190 
     297      696     1290     1995     2763     3592     4461     5294 
    5940     6158     5776     4820     3488     1960      317    -1316 
   -2772    -3982    -4950    -5699    -6261    -6687    -7018    -7253 
   -7431    -7626    -7835    -7977    -7879    -7377    -6534    -5583 
   -4696    -3889    -3052    -2084    -1028       51     1223     2582 
    4102     5699     7306     8826    10137    11183    12009    12710 
   13369    13957    14328    14341    13926    13170    12298    11510 
   10921    10501    10057     9360     8298     6963     5591     4433 
    3595     3021     2631     2404     2343     2462     2766     3214 
    3700     4040     4198     4359     4646     4976     5120     4860 
    4110     2849     1092    -1034    -3349    -5660    -7750    -9495 
  -10845   -11728   -12117   -11992   -11338   -10218    -8723    -6994 
   -5219    -3549    -2104     -942       28      934     1769     2451 
    2917     3118     3083     2909     2639     2408     2421     2687 
    3145     3823     4695     5648     6592     7473     8337     9304 
   10365    11408    12347    13113    13729    14204    14561    14885 
   15072    14868    14104    12721    10832     8769     6839     5173 
    3769     2570     1561      710      -94     -943    -1861    -2755 
   -3485    -4093    -4712    -5300    -5744    -6112    -6488    -6916 
   -7433    -7901    -8135    -8097    -7753    -7098    -6281    -5475 
   -4737    -4068    -3493    -2986    -2470    -1979    -1509    -1004 
    -433      280     1175     2227     3400     4635     5896     7165 
    8482     9879    11275    12464    13274    13748    14053    14320 
   14617    14968    15418    15977    16536    16893    16891    16455 
   15553    14241    12685    11070     9456     7776     5903     3825 
    1674     -484    -2641    -4741    -6733    -8584   -10291   -11890 
  -13420   -14901   -16329   -17683   -18935   -20031   -20923   -21550 
  -21818   -21678   -21089   -20046   -18696   -17242   -15823   -14540 
  -13402   -12278   -11016    -9612    -8191    -6851    -5657    -4703 
   -4016    -3537    -3202    -2933    -2682    -2408    -1923     -993 
     437     2281     4372     6493     8486    10327    12055    13684 
   15138    16283    17105    17755    18311    18740    19049    19278 
   19434    19570    19746    19851    19606    18873    17805    16598 
   15429    14413    13527    12779    12255    11962    11812    11730 
   11713    11770    11867    11923    11781    11273    10335     9019 
    7393     5472     3310     1097     -947    -2720    -4203    -5433 
   -6430    -7161    -7603    -7811    -7848    -7754    -7506    -6991 
   -6157    -5090    -3923    -2803    -1854    -1111     -519       -4 
     515     1070     1629     2216     2857     3480     4016     4421 
    4560     4251     3449     2235      747     -841    -2389    -3792 
   -5047    -6299    -7554    -8626    -9454   -10095   -10532   -10775 
  -10833   -10601    -9985    -8966    -7519    -5749    -3898    -2053 
    -129     1869     3836     5621     7098     8294     9389    10520 
   11676    12756    13605    14080    14158    13845    13096    11929 
   10476     8878     7304     5904     4691     3622     2733     2052 
    1578     1328     1235     1128      854      275     -670    -1908 
   -3246    -4426    -5254    -5714    -5907    -5915    -5773    -5518 
   -5248    -5092    -5049    -5015    -4918    -4756    -4608    -4565 
   -4612    -4657    -4635    -4567    -4526    -4590    -4745    -4893 
   -4899    -4648    -4113    -3364    -2485    -1529     -549      463 
    1602     2920     4434     6242     8392    10781    13265    15747 
   18085    20123    21770    22989    23800    24266    24436    24356 
   24015    23302    22117    20448    18315    15735    12772     9552 
    6247     3044      102    -2519    -4827    -6849    -8644   -10253 
  -11749   -13247   -14767   -16281   -17806   -19317   -20769   -22072 
  -23026   -23510   -23577   -23361   -22972   -22484   -21902   -21186 
  -20325   -19376   -18435   -17556   -16683   -15665   -14364   -12690 
  -10620    -8147    -5271    -2122     1100     4283     7418    10575 
   13840    17248    20760    24159    27160    29666    31715    33335 
   34523    35280    35614    35546    35090    34254    33095    31691 
   30046    28117    25915    23533    21116    18804    16660    14636 
   12663    10741     8907     7156     5459     3736     1915       -2 
   -1977    -3894    -5634    -7173    -8510    -9612   -10470   -11109 
  -11545   -11800   -11851   -11666   -11229   -10602    -9945    -9433 
   -9181    -9198    -9390    -9598    -9695    -9653    -9450    -9035 
   -8402    -7535    -6436    -5206    -3970    -2741    -1447      -47 
    1331     2592     3855     5246     6750     8264     9715    11078 
   12194    12961    13456    13610    13316    12633    11583    10181 
    8488     6467     4068     1398    -1339    -4094    -6895    -9493 
  -11708   -13737   -15519   -16860   -17913   -18752   -19225   -19242 
  -18766   -17838   -16605   -15151   -13567   -12148   -11009    -9859 
   -8580    -7321    -5944    -4271    -2409     -376     1860     4126 
    6295     8321    10142    11745    13086    14088    14770    15248 
   15631    15931    16075    16023    15759    15283    14690    14094 
   13491    12864    12182    11384    10447     9386     8217     6994 
    5741     4414     2943     1289     -579    -2712    -5051    -7445 
   -9801   -12060   -14103   -15753   -16888   -17436   -17358   -16792 
  -15932   -14810   -13487   -12050   -10534    -9020    -7464    -5845 
   -4341    -2975    -1675     -445      623     1418     2118     2948 
    3969     5350     7115     9105    11308    13599    15669    17419 
   18871    20021    20898    21579    22154    22623    22945    23109 
   22995    22507    21686    20513    18982    17286    15535    13664 
   11632     9408     7022     4588     2114     -450    -2986    -5317 
   -7445    -9436   -11298   -13073   -14829   -16530   -18103   -19480 
  -20514   -21070   -21068   -20434   -19215   -17559   -15560   -13258 
  -10746    -8145    -5518    -2883     -255     2304     4681     6824 
    8788    10605    12310    14018    15726    17346    18839    20102 
   21011    21568    21813    21755    21489    21130    20783    20576 
   20532    20464    20217    19930    19830    19930    20175    20514 
   20841    21065    21105    20869    20264    19157    17425    15082 
   12106     8438     4171     -495    -5314   -10021   -14451   -18531 
  -22187   -25416   -28233   -30595   -32524   -34098   -35360   -36283 
  -36769   -36749   -36219   -35112   -33326   -30856   -27877   -24665 
  -21393   -18081   -14818   -11682    -8615    -5630    -2832     -284 
    2034     4170     6045     7609     8980    10318    11735    13128 
   14299    15215    15905    16336    16497    16379    15924    15067 
   13774    12140    10295     8203     5877     3469     1059    -1352 
   -3697    -5814    -7619    -9112   -10207   -10822   -11056   -11049 
  -10886   -10561    -9981    -9082    -7823    -6199    -4314    -2207 
     126     2583     5081     7581     9979    12214    14273    16071 
   17564    18790    19857    20877    21749    22441    23166    24017 
   24830    25408    25635    25439    24746    23512    21844    19913 
   17775    15592    13656    11961    10282     8614     7041     5551 
    4126     2751     1433      238     -876    -2012    -3177    -4322 
   -5366    -6205    -6781    -7105    -7182    -7037    -6750    -6350 
   -5803    -5146    -4531    -4037    -3576    -3079    -2533    -1992 
   -1543    -1152     -787     -487     -203       70      153      -98 
    -672    -1424    -2218    -3011    -3709    -4256    -4706    -5004 
   -5038    -4819    -4413    -3850    -3210    -2613    -2122    -1792 
   -1615    -1485    -1343    -1179    -1019     -934     -939     -967 
    -934     -770     -421      125      738     1251     1595     1780 
    1852     1880     1952     2189     2697     3472     4364     5231 
    5980     6493     6651     6412     5838     5035     4063     2941 
    1703      441     -760    -1907    -3079    -4351    -5701    -6994 
   -8056    -8749    -8941    -8602    -7861    -6862    -5659    -4321 
   -2967    -1660     -378      955     2417     3981     5659     7538 
    9598    11796    14104    16407    18620    20680    22451    23807 
   24632    24841    24433    23475    22086    20397    18547    16667 
   14856    13203    11782    10525     9192     7564     5589     3384 
    1104    -1273    -3801    -6243    -8384   -10342   -12121   -13597 
  -14908   -16125   -17135   -17960   -18658   -19199   -19592   -19874 
  -20005   -19940   -19696   -19299   -18760   -18115   -17373   -16426 
  -15241   -13942   -12587   -11160    -9622    -7917    -5979    -3731 
   -1236     1329     3901     6389     8590    10458    12109    13620 
   15079    16605    18252    20056    22007    24004    25933    27754 
   29458    30925    31951    32373    32096    31078    29296    26775 
   23627    19955    15861    11576     7346     3315     -372    -3600 
   -6370    -8764   -10943   -13042   -15047   -16977   -18901   -20796 
  -22638   -24439   -26121   -27540   -28644   -29454   -29853   -29650 
  -28844   -27540   -25764   -23687   -21555   -19271   -16664   -13944 
  -11330    -8788    -6208    -3539     -947     1463     4028     6898 
    9830    12834    15973    19072    21906    24092    25326    25574 
   24908    23548    21767    19867    18222    17038    16224    15611 
   15114    14683    14239    13744    13132    12307    11296    10172 
    8912     7538     6238     5233     4629     4515     4931     5672 
    6521     7376     8071     8407     8102     6987     5196     2841 
      76    -2791    -5644    -8457   -11074   -13336   -15188   -16669 
  -17837   -18720   -19357   -19774   -20058   -20270   -20358   -20248 
  -19799   -18775   -17050   -14615   -11549    -8051    -4286     -342 
    3555     7250    10814    14235    17406    20344    23033    25404 
   27418    28983    30110    31008    31712    32104    32175    31796 
   30758    29166    27175    24737    21847    18459    14486     9987 
    4989     -460    -5999   -11192   -15823   -19746   -22848   -25095 
  -26536   -27364   -27760   -27695   -27078   -25888   -24119   -21793 
  -18925   -15500   -11642    -7642    -3699      324     4619     9074 
   13446    17610    21425    24732    27355    29023    29562    29016 
   27650    25945    24171    22191    19896    17308    14392    11290 
    8221     5205     2299     -391    -2828    -4888    -6567    -8002 
   -9213   -10231   -11057   -11601   -11853   -11889   -11816   -11778 
  -11997   -12637   -13581   -14528   -15190   -15354   -14916   -13932 
  -12703   -11402    -9876    -8221    -6702    -5240    -3744    -2336 
   -1129     -195      444      784     1031     1478     2133     3019 
    4261     5887     7974    10512    13359    16432    19629    22800 
   25759    28333    30450    32019    32958    33303    33092    32297 
   30832    28611    25647    22148    18443    14805    11462     8618 
    6331     4536     3132     2004     1104      457       27     -380 
    -982    -1904    -3225    -5004    -7196    -9671   -12245   -14708 
  -16929   -18866   -20536   -22006   -23367   -24719   -26121   -27473 
  -28617   -29469   -29976   -30060   -29667   -28825   -27621   -26072 
  -24146   -21832   -19111   -16066   -12953   -10045    -7469    -5184 
   -3065    -1038      938     2970     5159     7473     9805    12093 
   14256    16119    17509    18397    18893    18944    18264    16762 
   14617    11911     8811     5594     2502     -133    -2199    -3885 
   -5328    -6570    -7601    -8348    -8797    -8941    -8681    -8035 
   -7123    -5960    -4652    -3338    -1841       37     2197     4492 
    6847     9209    11584    13973    16285    18409    20331    22018 
   23403    24522    25455    26235    26847    27260    27432    27278 
   26757    25898    24752    23410    21995    20594    19225    17815 
   16262    14504    12496    10204     7681     5046     2431      -58 
   -2365    -4394    -6052    -7345    -8334    -9109    -9774   -10366 
  -10867   -11223   -11338   -11128   -10604    -9795    -8689    -7258 
   -5467    -3375    -1162      967     2783     4032     4612     4526 
    3852     2801     1642      612     -153     -600     -724     -615 
