Origin Time       2025/01/13 21:19:00
Lat.              31.8
Long.             131.6
Depth. (km)       30
Mag.              6.9
Station Code      KGS010
Station Lat.      31.7123
Station Long.     130.2735
Station Height(m) 16
Record Time       2025/01/13 21:19:56
Sampling Freq(Hz) 100Hz
Duration Time(s)  147
Dir.              U-D
Scale Factor      7845(gal)/8223790
Max. Acc. (gal)   6.455
Last Correction   2025/01/13 21:19:57
Memo.             
[...]
    8095     7920     7750     7797     7939     8133     8414     8475 
    8226     7958     7717     7522     7456     7399     7277     7110 
    6876     6739     6812     6941     7117     7395     7678     7963 
    8237     8395     8433     8421     8436     8467     8473     8527 
    8695     8912     9093     9177     9151     9036     8889     8765 
    8672     8602     8541     8452     8341     8251     8190     8225 
    8399     8584     8661     8660     8653     8676     8735     8789 
    8762     8594     8276     7886     7518     7257     7183     7218 
    7257     7308     7303     7196     7123     7121     7134     7206 
    7265     7184     6979     6710     6496     6527     6841     7258 
    7577     7692     7627     7507     7488     7663     8041     8521 
    8830     8781     8550     8321     8132     8118     8236     8232 
    8055     7753     7376     7080     7021     7204     7537     7859 
    8052     8166     8330     8571     8776     8822     8699     8482 
    8256     8102     8005     7858     7639     7423     7234     7122 
    7141     7242     7356     7422     7410     7339     7277     7304 
    7400     7483     7499     7406     7203     6991     6870     6822 
    6817     6863     6933     7005     7049     7026     7007     7074 
    7233     7449     7622     7708     7781     7867     7985     8216 
    8525     8787     8970     9096     9173     9229     9316     9433 
    9455     9289     9022     8739     8452     8230     8104     7979 
    7832     7647     7385     7111     6898     6741     6659     6677 
    6751     6829     6848     6771     6648     6552     6539     6701 
    7026     7399     7751     7958     7917     7749     7569     7400 
    7331     7380     7414     7426     7512     7643     7808     8039 
    8216     8293     8386     8495     8594     8684     8706     8685 
    8703     8787     8931     9074     9144     9148     9115     9023 
    8908     8904     9058     9207     9170     8942     8631     8359 
    8158     7996     7875     7817     7811     7797     7639     7195 
    6538     6007     5880     6150     6656     7159     7450     7520 
    7487     7419     7407     7545     7755     7936     8021     7878 
    7576     7360     7272     7234     7230     7272     7380     7555 
    7744     7875     7950     7985     7973     7958     7966     7920 
    7854     7857     7906     8081     8417     8669     8671     8502 
    8280     8114     8052     8062     8128     8194     8203     8181 
    8059     7808     7565     7387     7254     7195     7203     7319 
    7620     8029     8380     8545     8526     8490     8573     8741 
    8881     8927     8934     9004     9070     9009     8815     8523 
    8233     8054     8001     8047     8116     8078     7908     7643 
    7295     6909     6554     6303     6158     6057     5989     5956 
    5837     5586     5337     5216     5278     5481     5657     5717 
    5703     5690     5806     6133     6592     7011     7240     7219 
    7026     6817     6756     6941     7321     7750     8085     8233 
    8214     8097     7927     7776     7713     7774     7921     8066 
    8194     8368     8564     8691     8754     8846     9030     9281 
    9512     9664     9751     9802     9814     9753     9616     9459 
    9355     9335     9362     9316     9126     8866     8653     8549 
    8518     8475     8407     8320     8186     7987     7663     7207 
    6775     6511     6432     6493     6586     6651     6743     6882 
    7033     7249     7537     7734     7747     7647     7499     7364 
    7327     7393     7547     7797     8108     8390     8590     8715 
    8802     8900     8974     8951     8927     8999     9139     9267 
    9254     9042     8680     8213     7715     7339     7202     7277 
    7461     7622     7655     7557     7402     7294     7366     7649 
    7973     8189     8278     8260     8159     7971     7747     7628 
    7658     7711     7645     7420     7144     6966     6955     7064 
    7204     7338     7465     7554     7576     7550     7442     7199 
    6874     6585     6458     6516     6629     6674     6629     6524 
    6465     6565     6828     7169     7477     7695     7831     7921 
    8082     8403     8815     9207     9467     9498     9363     9216 
    9105     9038     9070     9209     9425     9647     9747     9652 
    9387     9050     8779     8680     8789     9059     9347     9491 
    9413     9116     8638     8091     7626     7317     7134     7026 
    6945     6845     6713     6548     6353     6231     6280     6428 
    6536     6497     6254     5832     5375     5063     4988     5144 
    5510     6000     6436     6750     7024     7269     7512     7846 
    8186     8411     8500     8426     8284     8241     8314     8511 
    8776     8938     9000     8997     8772     8391     8168     8201 
    8406     8685     8834     8725     8473     8275     8249     8387 
    8576     8668     8598     8444     8302     8228     8251     8314 
    8330     8314     8295     8262     8202     8137     8089     8059 
    8050     8058     8044     7981     7875     7731     7541     7392 
    7418     7569     7726     7886     7981     7820     7537     7500 
    7607     7614     7809     8216     8402     8414     8460     8419 
    8340     8398     8515     8552     8472     8220     7807     7431 
    7184     6957     6724     6494     6196     5830     5435     5080 
    4911     5022     5364     5822     6313     6789     7202     7535 
    7743     7785     7731     7665     7663     7763     7889     7997 
    8127     8241     8295     8334     8417     8545     8671     8803 
    9015     9313     9593     9691     9593     9504     9428     9234 
    9119     9116     8928     8648     8441     8172     7892     7751 
    7770     7908     8060     8128     8060     7836     7566     7387 
    7335     7441     7681     7916     8017     7933     7703     7456 
    7306     7276     7287     7284     7300     7341     7388     7491 
    7676     7824     7812     7650     7398     7184     7179     7372 
    7638     7815     7794     7655     7570     7651     7811     7931 
    8141     8456     8577     8541     8606     8675     8727     8950 
    9255     9431     9387     9150     8837     8583     8428     8278 
    8024     7596     7040     6527     6207     6135     6293     6550 
    6752     6870     6948     7011     7106     7253     7384     7539 
    7847     8293     8716     8949     8897     8631     8351     8224 
    8259     8352     8406     8347     8194     8074     8066     8167 
    8287     8311     8245     8085     7878     7815     7854     7852 
    7978     8187     8151     7901     7630     7425     7404     7542 
    7708     7831     7836     7766     7692     7576     7447     7358 
    7304     7272     7206     7055     6828     6500     6104     5753 
    5535     5516     5697     5977     6273     6494     6592     6590 
    6563     6610     6760     6964     7157     7272     7292     7275 
    7260     7283     7404     7560     7585     7430     7128     6821 
    6748     6910     7065     7177     7333     7381     7312     7492 
    7982     8468     8789     8914     8957     9080     9194     9224 
    9270     9409     9672    10007    10280    10427    10484    10489 
   10423    10268    10060     9840     9657     9508     9324     9063 
    8698     8252     7834     7472     7126     6858     6741     6732 
    6721     6612     6374     6072     5859     5918     6280     6764 
    7145     7284     7221     7107     7063     7152     7383     7677 
    7939     8028     7776     7339     7137     7299     7715     8181 
    8413     8321     8014     7620     7311     7209     7319     7608 
    7959     8213     8318     8378     8564     8937     9382     9694 
    9668     9301     8808     8432     8367     8702     9266     9718 
    9852     9668     9337     9111     9038     8962     8775     8442 
    8025     7669     7449     7366     7373     7306     7053     6650 
    6170     5763     5566     5505     5499     5711     6120     6459 
    6876     7553     8191     8665     8992     9046     8892     8660 
    8417     8220     8020     7831     7773     7879     8047     8156 
    8127     7956     7742     7570     7441     7372     7412     7595 
    7921     8295     8576     8706     8685     8564     8433     8348 
    8295     8212     8025     7749     7500     7380     7391     7466 
    7473     7398     7406     7553     7723     7862     8021     8156 
    8118     7974     7901     7857     7786     7769     7888     8151 
    8406     8428     8154     7716     7284     6895     6532     6299 
    6311     6554     6853     7024     7026     6868     6505     6011 
    5664     5690     5999     6309     6443     6390     6255     6164 
    6196     6380     6658     6894     7003     7009     6951     6882 
    6855     6902     7041     7276     7620     8010     8239     8172 
    8032     8156     8457     8634     8673     8545     8303     8318 
    8704     9306     9968    10378    10316     9822     9084     8398 
    8040     8193     8773     9383     9641     9466     9004     8445 
    7954     7645     7503     7416     7335     7285     7253     7233 
    7279     7391     7484     7476     7352     7168     6951     6697 
    6394     6010     5620     5283     4930     4644     4642     4946 
    5381     5788     6038     6073     6021     6170     6633     7159 
    7581     7912     8047     8095     8271     8556     8930     9235 
    9279     9232     9286     9437     9644     9778     9752     9657 
    9553     9423     9351     9362     9315     9189     9077     8950 
    8800     8679     8534     8364     8313     8473     8795     9180 
    9506     9645     9508     9142     8716     8402     8310     8438 
    8680     8955     9204     9289     9069     8577     8137     8028 
    8095     8159     8239     8117     7589     6902     6266     5815 
    5836     6315     6956     7520     7774     7599     7203     6914 
    6835     6849     6816     6639     6322     5968     5674     5466 
    5379     5486     5756     6026     6193     6261     6247     6251 
    6455     6897     7372     7635     7631     7510     7477     7685 
    8114     8572     8865     8931     8807     8627     8592     8753 
    8942     8993     8847     8532     8243     8172     8287     8469 
    8668     8837     8937     8962     8893     8718     8440     8105 
    7877     7946     8349     8969     9553     9792     9605     9169 
    8710     8421     8387     8488     8583     8656     8757     8889 
    9003     9066     9069     8992     8824     8530     8139     7851 
    7844     8025     8174     8106     7821     7497     7296     7257 
    7269     7209     7107     7045     7060     7138     7125     6926 
    6678     6505     6489     6727     7160     7646     8087     8374 
    8460     8387     8189     7962     7807     7690     7570     7457 
    7323     7164     6983     6712     6332     5910     5555     5404 
    5521     5838     6262     6758     7264     7678     7959     8087 
    8082     8021     7943     7842     7777     7830     8001     8295 
    8702     9094     9358     9485     9495     9466     9575     9949 
   10507    11011    11223    11061    10620    10046     9517     9171 
    9018     8950     8841     8596     8197     7686     7152     6702 
    6408     6251     6174     6156     6199     6232     6141     5940 
    5760     5676     5682     5733     5794     5899     6057     6181 
    6249     6334     6462     6658     6898     7079     7179     7284 
    7460     7723     8009     8213     8313     8303     8148     7874 
    7593     7412     7380     7535     7882     8264     8444     8320 
    8019     7804     7877     8229     8683     9018     9073     8857 
    8577     8410     8365     8402     8465     8476     8353     8059 
    7659     7258     6885     6565     6385     6419     6636     6893 
    7024     6932     6629     6239     5927     5756     5648     5490 
    5243     4942     4630     4324     4052     3856     3785     3893 
    4158     4486     4823     5162     5535     6002     6561     7146 
    7654     8013     8279     8540     8793     9007     9124     9169 
    9275     9482     9736    10014    10265    10450    10611    10813 
   11117    11542    11988    12334    12501    12421    12186    11961 
   11786    11680    11637    11547    11313    10929    10469    10060 
    9771     9549     9329     9104     8887     8680     8502     8348 
    8195     8060     7936     7776     7562     7337     7183     7094 
    6959     6710     6354     5962     5621     5329     5031     4660 
    4199     3748     3445     3397     3605     3946     4305     4618 
    4841     4986     5117     5316     5665     6196     6886     7638 
    8317     8876     9328     9666     9884    10003    10054    10104 
   10245    10493    10762    10926    10883    10667    10381    10062 
    9755     9516     9363     9282     9258     9274     9305     9348 
    9435     9589     9821    10092    10343    10561    10747    10898 
   11038    11159    11182    11057    10806    10415     9859     9174 
    8395     7577     6806     6087     5397     4781     4274     3889 
    3595     3299     2957     2590     2208     1840     1513     1240 
    1084     1050     1084     1216     1491     1861     2315     2905 
    3631     4425     5223     6034     6876     7711     8469     9074 
    9483     9760     9976    10184    10442    10727    10970    11176 
   11380    11578    11731    11821    11850    11788    11681    11588 
   11473    11296    11070    10821    10593    10413    10270    10126 
    9921     9624     9298     8981     8626     8233     7923     7821 
    7924     8131     8352     8542     8685     8815     8993     9185 
    9288     9281     9225     9136     8942     8575     8032     7354 
    6601     5809     5022     4287     3676     3260     3029     2967 
    3059     3249     3511     3827     4197     4656     5139     5564 
    5948     6296     6631     7042     7558     8116     8626     9004 
    9198     9213     9127     9063     9115     9270     9398     9363 
    9116     8704     8253     7943     7900     8064     8282     8430 
    8446     8403     8397     8392     8424     8571     8758     8927 
    9103     9216     9220     9167     9080     8981     8912     8888 
    8920     8982     9032     9077     9131     9138     9015     8768 
    8518     8424     8513     8679     8827     8910     8893     8770 
    8598     8494     8542     8750     9077     9402     9601     9653 
    9599     9501     9413     9344     9294     9254     9178     9058 
    8942     8860     8815     8803     8793     8722     8507     8156 
    7777     7473     7296     7225     7198     7168     7048     6806 
    6517     6242     6056     6010     6075     6227     6408     6465 
    6378     6272     6247     6401     6704     7026     7335     7587 
    7707     7699     7584     7358     7083     6858     6693     6529 
    6358     6183     5984     5794     5671     5610     5562     5509 
    5437     5329     5219     5174     5244     5429     5714     6080 
    6482     6829     7051     7183     7326     7546     7815     8044 
    8183     8224     8168     8029     7839     7630     7393     7074 
    6624     6068     5514     5151     5111     5394     5937     6596 
    7177     7607     7950     8324     8769     9169     9447     9660 
    9778     9733     9529     9201     8850     8586     8428     8343 
    8233     8027     7736     7406     7107     6978     7091     7353 
    7616     7813     7982     8187     8468     8841     9270     9663 
    9940    10062    10075    10106    10305    10716    11191    11524 
   11605    11429    11087    10693    10284     9898     9562     9234 
    8865     8452     7992     7506     7060     6706     6443     6286 
    6204     6116     6081     6164     6293     6463     6689     6918 
    7187     7568     7993     8352     8687     9061     9450     9891 
   10373    10723    10790    10557    10137     9706     9404     9342 
    9514     9726     9767     9552     9113     8590     8116     7746 
    7491     7299     7092     6843     6552     6203     5784     5405 
    5227     5293     5476     5633     5733     5796     5857     5980 
    6191     6500     6939     7472     8028     8569     9027     9274 
    9285     9163     9038     8997     9020     8973     8761     8359 
    7803     7226     6786     6543     6419     6261     6012     5698 
    5347     5142     5246     5533     5848     6137     6354     6552 
    6806     7113     7469     7839     8176     8494     8808     9128 
    9433     9651     9702     9598     9450     9347     9305     9297 
    9269     9167     8970     8719     8449     8176     7916     7693 
    7546     7491     7499     7496     7419     7284     7114     6916 
    6745     6629     6559     6542     6602     6741     6890     6978 
    7005     7033     7128     7269     7387     7456     7483     7469 
    7419     7325     7206     7132     7169     7315     7523     7769 
    8013     8232     8444     8654     8896     9174     9404     9489 
    9408     9212     8984     8775     8630     8533     8421     8248 
    7983     7615     7190     6778     6427     6143     5907     5740 
    5694     5763     5880     5973     6033     6153     6405     6759 
    7165     7554     7815     7933     7987     8043     8147     8270 
    8375     8475     8533     8488     8343     8129     7917     7782 
    7747     7773     7797     7788     7743     7669     7612     7661 
    7859     8185     8569     8941     9266     9471     9494     9471 
    9555     9713     9864     9961    10008    10048    10110    10188 
   10212    10137    10034     9946     9838     9703     9520     9262 
    8972     8656     8306     7997     7773     7547     7249     6875 
    6450     6056     5775     5616     5544     5508     5443     5360 
    5324     5391     5593     5873     6151     6372     6519     6659 
    6895     7276     7790     8384     8949     9374     9648     9844 
   10039    10305    10650    10987    11225    11321    11303    11238 
   11152    11030    10843    10592    10318    10031     9709     9337 
    8858     8247     7623     7084     6602     6181     5826     5468 
    5067     4652     4232     3844     3562     3372     3215     3086 
    2998     2983     3107     3377     3750     4202     4666     5078 
    5437     5760     6091     6508     6993     7450     7831     8140 
    8413     8679     8931     9159     9362     9555     9769     9977 
   10088    10066     9956     9857     9875    10027    10233    10384 
   10426    10330    10092     9741     9335     8942     8608     8378 
    8282     8276     8266     8158     7920     7599     7253     6930 
    6647     6380     6119     5836     5497     5158     4919     4845 
    4935     5084     5181     5204     5219     5340     5626     6019 
    6446     6863     7241     7561     7815     8039     8321     8683 
    9019     9261     9413     9516     9618     9737     9826     9857 
