Origin Time       2025/01/13 21:19:00
Lat.              31.8
Long.             131.6
Depth. (km)       30
Mag.              6.9
Station Code      KGS026
Station Lat.      30.5199
Station Long.     130.9553
Station Height(m) 114
Record Time       2025/01/13 21:20:29
Sampling Freq(Hz) 100Hz
Duration Time(s)  60
Dir.              U-D
Scale Factor      7845(gal)/8223790
Max. Acc. (gal)   1.887
Last Correction   2025/01/13 21:20:29
Memo.             
    9108     9123     9354     9687    10038    10326    10393    10237 
    9942     9602     9418     9431     9441     9421     9440     9435 
    9428     9532     9757    10081    10405    10573    10609    10577 
   10412    10164     9969     9841     9801     9898    10091    10264 
   10260     9994     9585     9197     8947     8912     9065     9315 
    9589     9760     9726     9529     9283     9140     9211     9460 
    9829    10218    10434    10400    10169     9737     9224     8946 
    9038     9358     9769    10192    10462    10417    10096     9683 
    9323     9093     9065     9263     9626    10052    10432    10650 
   10570    10172     9610     9082     8722     8619     8802     9232 
    9830    10372    10627    10638    10566    10420    10201    10029 
    9958     9958    10012    10057    10011     9913     9830     9747 
    9657     9612     9655     9807    10017    10200    10316    10289 
   10033     9656     9383     9256     9270     9460     9756    10071 
   10345    10431    10226     9788     9298     8969     8928     9234 
    9848    10492    10781    10644    10273     9764     9217     8806 
    8660     8873     9359     9869    10281    10505    10412    10058 
    9652     9348     9261     9458     9815    10133    10331    10347 
   10187    10022     9925     9806     9707     9706     9732     9713 
    9698     9756     9863     9964    10046    10114    10122     9998 
    9741     9429     9144     8958     8958     9184     9558     9933 
   10181    10219    10052     9814     9574     9332     9184     9177 
    9221     9297     9452     9679     9895    10021     9991     9780 
    9478     9193     8951     8845     8943     9115     9273     9491 
    9744     9979    10246    10490    10613    10636    10540    10305 
   10066     9910     9775     9668     9684     9779     9830     9826 
    9753     9555     9281     9100     9167     9477     9864    10192 
   10420    10492    10332     9941     9447     9089     9020     9166 
    9436     9829    10231    10430    10366    10197    10065     9937 
    9798     9725     9720     9741     9813     9900     9926     9921 
   10002    10185    10349    10393    10295    10066     9853     9826 
    9927    10035    10158    10258    10235    10080     9845     9630 
    9516     9447     9374     9337     9340     9367     9486     9763 
   10139    10434    10511    10362    10029     9583     9111     8735 
    8631     8896     9444    10053    10488    10611    10395     9875 
    9266     8926     8968     9211     9553     9921    10093     9964 
    9667     9342     9085     9049     9324     9802    10255    10515 
   10480    10080     9429     8872     8704     8974     9599    10381 
   10960    11041    10659    10046     9369     8837     8752     9144 
    9755    10359    10778    10895    10716    10261     9656     9198 
    9105     9320     9697    10177    10658    10906    10822    10544 
   10199     9811     9478     9342     9437     9701     9979    10038 
    9848     9618     9427     9285     9331     9548     9752     9900 
    9953     9776     9394     8959     8572     8348     8451     8918 
    9590    10218    10600    10665    10471    10169     9883     9679 
    9667     9911    10289    10562    10544    10254     9861     9481 
    9192     9136     9323     9613     9938    10226    10332    10188 
    9857     9520     9371     9454     9705    10098    10523    10786 
   10790    10558    10168     9671     9130     8748     8694     8924 
    9324     9798    10324    10824    10984    10666    10153     9682 
    9321     9181     9323     9649     9996    10210    10201    10031 
    9852     9695     9587     9643     9823     9984    10071    10084 
   10062    10025     9933     9864     9898     9929     9890     9799 
    9617     9390     9297     9386     9585     9863    10153    10323 
   10284    10065     9828     9676     9551     9451     9456     9562 
    9720     9855     9894     9891     9879     9787     9676     9651 
    9675     9725     9795     9802     9755     9760     9783     9791 
    9886    10123    10389    10493    10368    10120     9859     9630 
    9486     9424     9413     9506     9774    10157    10457    10535 
   10458    10281     9979     9664     9558     9688     9892    10000 
    9936     9726     9481     9308     9277     9363     9451     9491 
    9501     9440     9305     9192     9165     9223     9331     9474 
    9655     9798     9796     9695     9556     9387     9228     9116 
    9108     9298     9621     9940    10247    10486    10546    10415 
   10120     9742     9467     9416     9528     9666     9803     9979 
   10108    10023     9737     9494     9436     9493     9633     9913 
   10227    10382    10320    10110     9817     9541     9391     9417 
    9590     9807     9917     9918     9940     9954     9919     9942 
   10011    10019     9983     9903     9783     9699     9680     9794 
   10106    10413    10532    10569    10565    10417    10154     9919 
    9825     9821     9779     9725     9699     9620     9505     9493 
    9609     9771     9902     9906     9722     9447     9228     9153 
    9297     9691    10204    10628    10818    10766    10544    10166 
    9679     9352     9370     9629    10042    10528    10848    10871 
   10671    10322     9931     9644     9485     9423     9463     9582 
    9759     9945    10058    10098    10069     9937     9751     9643 
    9633     9626     9603     9617     9603     9506     9433     9427 
    9413     9444     9585     9699     9709     9740     9757     9545 
    9132     8761     8526     8460     8623     8972     9379     9779 
   10111    10314    10363    10266    10064     9850     9742     9783 
    9872     9914     9918     9898     9877     9937    10092    10293 
   10465    10447    10174     9848     9616     9396     9170     9051 
    9135     9425     9783    10079    10269    10246     9926     9456 
    9120     9032     9103     9317     9711    10191    10621    10905 
   10971    10817    10480    10065     9715     9504     9536     9861 
   10222    10332    10238    10106     9984     9929    10060    10351 
   10667    10908    10944    10678    10212     9776     9478     9346 
    9482     9904    10404    10747    10831    10592    10042     9371 
    8839     8640     8838     9315     9917    10474    10724    10593 
   10239     9752     9215     8824     8707     8857     9151     9478 
    9798    10004     9994     9856     9745     9630     9420     9134 
    8843     8646     8599     8629     8722     8953     9294     9583 
    9629     9459     9274     9143     9104     9228     9478     9755 
    9965    10022     9915     9705     9505     9475     9698    10053 
   10357    10532    10507    10220     9819     9509     9343     9294 
    9342     9467     9628     9790     9950    10041     9990     9886 
    9817     9732     9628     9541     9433     9267     9099     9028 
    9116     9300     9436     9491     9485     9383     9254     9283 
    9520     9834    10115    10336    10471    10507    10494    10473 
   10482    10590    10737    10762    10615    10361    10061     9728 
    9420     9336     9612    10077    10511    10862    10974    10665 
   10147     9780     9653     9698     9859    10048    10137    10069 
    9941     9876     9906     9995    10107    10243    10381    10384 
   10168     9844     9572     9406     9350     9454     9740    10075 
   10304    10424    10453    10326    10048     9780     9690     9734 
    9788     9873     9995    10006     9859     9688     9598     9682 
    9991    10430    10886    11230    11314    11129    10750    10215 
    9647     9252     9197     9514    10083    10681    11064    11038 
   10565     9786     8976     8448     8356     8630     9150     9713 
    9999     9890     9541     9143     8899     8961     9275     9756 
   10370    10912    11113    10939    10542    10075     9675     9499 
    9622     9933    10215    10334    10249     9954     9531     9162 
    8972     9005     9228     9531     9845    10056     9981     9688 
    9423     9293     9294     9394     9536     9666     9734     9769 
    9805     9775     9676     9632     9644     9633     9639     9714 
    9784     9801     9795     9748     9649     9593     9640     9734 
    9836     9961    10099    10254    10439    10557    10511    10315 
   10061     9867     9794     9784     9748     9656     9526     9383 
    9263     9173     9120     9157     9266     9360     9423     9431 
    9296     9034     8783     8623     8583     8729     9105     9591 
    9946     9990     9732     9352     9024     8766     8572     8608 
    9004     9571    10015    10203    10156    10011     9936     9972 
   10104    10380    10774    11071    11122    10989    10746    10470 
   10269    10160    10089    10065    10081    10068    10003     9923 
    9872     9883     9949    10053    10214    10322    10253    10122 
   10031     9956     9987    10154    10295    10316    10201     9926 
    9607     9413     9366     9394     9463     9548     9601     9535 
    9289     8922     8595     8484     8631     8934     9294     9575 
    9593     9336     8932     8533     8313     8332     8494     8773 
    9185     9545     9648     9505     9184     8734     8363     8325 
    8641     9097     9454     9624     9639     9509     9331     9279 
    9396     9613     9879    10146    10392    10562    10530    10304 
   10019     9733     9493     9366     9342     9412     9594     9890 
   10287    10639    10755    10642    10363     9921     9471     9285 
    9390     9613     9894    10212    10459    10574    10594    10547 
   10504    10567    10710    10848    10943    10905    10619    10141 
    9701     9483     9489     9705    10158    10619    10709    10419 
   10052     9798     9675     9737    10030    10395    10663    10825 
   10863    10768    10644    10546    10515    10635    10824    10876 
   10748    10602    10550    10551    10604    10804    11129    11415 
   11530    11429    11117    10685    10288    10042    10007    10181 
   10432    10571    10500    10243     9946     9759     9733     9859 
   10033    10081     9967     9786     9578     9373     9304     9448 
    9687     9871     9944     9864     9583     9163     8748     8402 
    8109     7894     7824     7892     8047     8268     8488     8600 
    8579     8542     8629     8804     8981     9162     9290     9288 
    9178     8981     8734     8622     8738     8969     9271     9695 
   10068    10143     9927     9612     9354     9171     9101     9298 
    9737    10183    10525    10714    10638    10305     9910     9628 
    9539     9687    10034    10405    10666    10787    10719    10449 
   10091     9717     9329     9054     9034     9238     9555     9921 
   10293    10588    10692    10586    10370    10114     9836     9610 
    9540     9603     9703     9861    10119    10307    10243    10058 
    9933     9771     9570     9522     9571     9548     9470     9386 
    9396     9583     9809     9957    10100    10226    10242    10146 
    9980     9798     9649     9545     9545     9657     9738     9757 
    9796     9763     9601     9416     9212     8986     8924     9130 
    9425     9586     9606     9593     9513     9328     9190     9189 
    9235     9346     9568     9782     9925     9991     9899     9664 
    9401     9204     9173     9306     9540     9888    10243    10427 
   10484    10459    10281    10026     9841     9701     9529     9412 
    9521     9837    10115    10239    10307    10331    10195     9891 
    9570     9359     9302     9391     9607     9894    10106    10096 
    9887     9629     9455     9454     9637     9968    10416    10827 
   10956    10763    10405     9977     9543     9273     9235     9377 
    9741    10157    10300    10242    10141     9909     9594     9364 
    9319     9475     9683     9852    10053    10231    10243    10115 
   10000     9987    10045    10138    10273    10389    10354    10147 
    9942     9841     9805     9871    10137    10524    10817    10920 
   10962    10980    10816    10462    10129     9946     9875     9840 
    9869     9965    10038    10048     9990     9884     9830     9880 
    9980    10073    10191    10328    10328    10165     9987     9848 
    9775     9906    10247    10557    10643    10557    10405    10203 
    9977     9819     9790     9849     9952    10072    10035     9744 
    9351     9001     8781     8815     9103     9505     9877    10084 
   10072     9899     9648     9393     9184     9076     9169     9513 
    9975    10346    10581    10710    10592    10164     9714     9518 
    9571     9730     9891    10007     9987     9771     9504     9315 
    9169     9009     8841     8765     8889     9151     9414     9568 
    9548     9362     9069     8810     8779     8950     9107     9204 
    9344     9493     9560     9567     9533     9460     9409     9409 
    9470     9563     9525     9323     9119     9008     9050     9258 
    9533     9828    10104    10242    10189    10038     9930     9907 
    9923    10053    10335    10569    10584    10450    10291    10160 
   10134    10278    10507    10693    10783    10786    10732    10623 
   10493    10400    10324    10264    10238    10226    10219    10224 
   10208    10091     9815     9506     9400     9525     9732     9954 
   10145    10166     9992     9798     9678     9547     9418     9447 
    9649     9856     9949     9927     9807     9586     9331     9128 
    8951     8818     8810     8869     8927     9050     9193     9225 
    9175     9138     9067     8908     8770     8750     8810     8939 
    9148     9389     9618     9795     9840     9678     9344     9031 
    8881     8926     9212     9672    10045    10211    10277    10258 
   10073     9798     9622     9605     9630     9667     9736     9769 
    9783     9810     9798     9805     9910     9980     9863     9607 
    9340     9100     8928     8985     9293     9607     9779     9886 
    9927     9842     9721     9664     9651     9612     9533     9516 
    9590     9594     9497     9463     9504     9583     9778    10000 
   10110    10166    10227    10301    10428    10515    10461    10358 
   10273    10206    10223    10349    10544    10768    10881    10802 
   10690    10642    10554    10459    10561    10898    11259    11443 
   11492    11489    11354    11090    10829    10574    10389    10434 
   10586    10639    10582    10426    10242    10160    10098    10004 
   10019    10062     9990     9929     9909     9823     9767     9819 
    9896     9952    10000    10046    10048     9913     9664     9454 
    9294     9136     9065     9124     9240     9369     9490     9621 
    9714     9644     9479     9331     9136     8950     8900     8907 
    8923     9031     9193     9336     9439     9421     9327     9319 
    9431     9628     9871    10052    10110    10083     9958     9786 
    9707     9709     9706     9732     9774     9729     9605     9516 
    9517     9585     9703     9886    10081    10173    10118     9971 
    9759     9524     9360     9331     9460     9759    10161    10493 
   10581    10428    10157     9875     9675     9597     9597     9645 
    9714     9729     9693     9698     9806    10000    10184    10282 
   10280    10156     9973     9855     9771     9644     9551     9544 
    9544     9564     9653     9722     9682     9518     9297     9169 
    9186     9259     9351     9452     9498     9462     9409     9454 
    9625     9832     9963     9953     9810     9614     9463     9405 
    9433     9570     9841    10137    10247    10127     9923     9707 
    9440     9177     9077     9173     9359     9587     9836     9984 
    9929     9715     9501     9413     9455     9551     9701     9914 
   10091    10108     9999     9882     9857     9981    10193    10378 
   10467    10395    10160     9915     9805     9815     9903    10029 
   10120    10149    10161    10191    10223    10206    10123    10019 
    9958     9996    10147    10335    10427    10378    10292    10274 
   10315    10339    10308    10206    10015     9803     9659     9624 
    9736     9964    10126    10096     9942     9778     9652     9607 
    9682     9829     9954    10026    10033     9942     9790     9633 
    9471     9344     9312     9364     9486     9639     9721     9703 
    9606     9423     9163     8866     8668     8669     8770     8912 
    9162     9414     9512     9570     9691     9720     9594     9468 
    9406     9332     9251     9285     9472     9697     9890    10102 
   10241    10127     9799     9490     9364     9408     9528     9720 
    9961    10116    10076     9921     9780     9715     9751     9918 
   10214    10524    10635    10474    10191     9929     9761     9714 
    9767     9938    10162    10295    10373    10489    10570    10550 
   10498    10474    10467    10482    10548    10654    10743    10764 
   10713    10621    10535    10500    10505    10490    10498    10575 
   10588    10494    10404    10273    10065     9987    10125    10346 
   10586    10797    10856    10750    10517    10176     9803     9509 
    9362     9406     9594     9841    10104    10268    10222    10014 
    9734     9452     9248     9178     9254     9440     9644     9787 
    9832     9782     9722     9683     9599     9486     9400     9377 
    9437     9529     9624     9792     9975     9972     9769     9458 
    9058     8654     8451     8545     8831     9170     9506     9760 
    9809     9636     9332     8970     8679     8606     8758     9061 
    9383     9543     9463     9208     8907     8748     8823     9042 
    9293     9531     9710     9811     9848     9825     9751     9679 
    9639     9593     9551     9556     9595     9632     9648     9659 
    9707     9794     9906    10071    10233    10274    10218    10150 
   10057     9940     9915    10010    10111    10164    10157    10057 
    9969    10029    10130    10142    10123    10064     9868     9644 
    9579     9690     9914    10185    10407    10490    10419    10257 
   10122    10107    10215    10404    10602    10725    10721    10582 
   10342    10061     9830     9697     9617     9583     9618     9644 
    9560     9431     9332     9184     9000     8986     9159     9313 
    9343     9266     9108     8870     8594     8415     8406     8479 
    8573     8726     8927     9096     9188     9196     9142     9077 
    9030     9040     9151     9332     9504     9563     9437     9184 
    8972     8918     8996     9105     9243     9445     9576     9552 
    9514     9508     9459     9420     9421     9466     9606     9814 
   10008    10123    10093     9958     9846     9823     9914    10092 
   10260    10362    10423    10458    10453    10377    10264    10196 
   10173    10189    10304    10450    10471    10401    10285    10042 
    9722     9514     9501     9586     9634     9602     9493     9370 
    9337     9364     9360     9375     9441     9478     9463     9510 
    9671     9859    10000    10081    10093    10010     9856     9691 
