Origin Time       2025/01/13 21:19:00
Lat.              31.8
Long.             131.6
Depth. (km)       30
Mag.              6.9
Station Code      KGS003
Station Lat.      32.0559
Station Long.     130.5874
Station Height(m) 176
Record Time       2025/01/13 21:19:52
Sampling Freq(Hz) 100Hz
Duration Time(s)  137
Dir.              E-W
Scale Factor      3920(gal)/6182761
Max. Acc. (gal)   13.418
Last Correction   2025/01/13 21:19:52
Memo.             
[...]
   28470    27283    25729    24236    23126    22623    22945    23910 
   25177    26796    28768    30802    32560    33715    34005    33473 
   32554    31712    31201    30999    30811    30412    29716    28670 
   27366    25892    24300    22856    21837    21249    20952    20873 
   20975    21190    21663    22580    23794    25105    26395    27644 
   28957    30499    32414    34546    36593    38366    39669    40304 
   40214    39519    38341    36840    35349    34252    33697    33529 
   33608    33690    33388    32555    31399    30329    29626    29471 
   30039    31069    31913    32051    31320    29855    28041    26398 
   25233    24669    25019    26412    28331    30151    31501    32178 
   32105    31239    29876    28516    27372    26737    26942    27821 
   29027    30384    31448    31477    30298    28351    26157    24352 
   23416    23236    23281    23057    22422    21539    20629    19962 
   19741    19844    20193    20897    21853    22748    23366    23725 
   23798    23402    22530    21393    20234    19446    19488    20362 
   21777    23588    25530    27155    28162    28529    28340    27728 
   27004    26287    25390    24291    23244    22549    22204    21937 
   21511    20801    19835    19067    19204    20593    23312    27182 
   31485    35374    38366    40320    40983    40216    38610    36996 
   35785    35131    35199    35927    36929    37842    38442    38541 
   38096    37365    36504    35517    34879    35149    36268    37716 
   39001    39809    39845    38927    37142    34748    32088    29675 
   28098    27593    28026    29273    30976    32164    32043    30533 
   27819    24366    20816    17534    14698    12507    11372    11722 
   13624    17022    21555    26282    30309    33273    35173    36045 
   36035    35555    34953    34413    34088    34021    34032    33836 
   33522    33498    33987    35026    36303    37224    37534    37275 
   36391    34782    32711    30741    29033    27432    26065    25238 
   25114    25597    26339    26944    27305    27598    28008    28548 
   29081    29580    30056    30230    29869    29182    28183    26644 
   24853    23241    22091    21674    22124    23519    25521    27443 
   28838    29297    28544    26917    25026    23153    21566    20669 
   20483    20834    21628    22527    22982    22668    21634    20130 
   18508    17231    16691    16942    17851    19273    20964    22748 
   24613    26660    29048    31636    34107    36361    38131    38926 
   38692    37664    35939    33824    31757    29685    27452    25436 
   24310    24614    26421    29440    33185    36775    39472    41013 
   41042    39496    37111    34678    32565    31003    30136    29789 
   29592    29402    29304    29328    29642    30513    31850    33301 
   34627    35555    35650    34848    33629    32348    31120    30158 
   29751    30082    31142    32843    34966    36981    38329    38767 
   38273    36914    35002    33096    31640    30804    30483    30498 
   30580    30288    29609    28699    27432    26070    24913    23839 
   23024    23005    24079    26022    28362    30733    32763    34085 
   34727    34979    34921    34569    34060    33287    32019    30459 
   29236    28792    29050    29515    29536    28673    27003    25001 
   22985    21106    19617    18556    17652    16711    15828    15133 
   14682    14540    14741    15116    15441    15902    16630    17398 
   18324    19664    21242    22755    24072    25105    25789    26173 
   26327    26238    25767    24890    24016    23685    24281    25947 
   28355    30740    32365    33080    33096    32598    31968    31580 
   31405    31350    31477    31705    31890    32007    31956    31590 
   30976    30469    30427    30932    31934    33437    35163    36464 
   37099    37145    36488    35318    34082    32993    32221    31910 
   31979    32222    32272    31865    31131    30093    28726    27301 
   25926    24616    23728    23574    24041    24918    26036    26969 
   27159    26421    25121    23810    22919    22876    23955    26035 
   28879    32240    35555    38181    39864    40724    41069    41138 
   40953    40475    39569    38051    35897    33083    29597    25950 
   23088    21649    21771    23255    25466    27531    28785    28865 
   27632    25304    22563    20217    18809    18513    19344    21199 
   23623    26053    27930    28545    27572    25428    22783    20147 
   18085    17191    17518    18698    20440    22296    23730    24535 
   24584    23757    22275    20740    19725    19492    20096    21420 
   23245    25263    27122    28624    29591    29918    29868    29885 
   30271    31275    32958    34758    35988    36534    36505    35961 
   35172    34531    34067    33565    32927    32086    31062    29958 
   28857    27885    26975    26140    25814    26283    27544    29477 
   31652    33521    34696    35100    35057    34821    34490    34306 
   34213    34022    33773    33228    32147    30705    29104    27490 
   26139    25443    25725    26990    28820    30699    32187    32796 
   32425    31440    30131    28694    27265    25892    24755    24071 
   23886    24145    24716    25377    25936    26145    25714    24652 
   23240    21722    20454    19944    20361    21516    23141    24970 
   26851    28541    29756    30432    30589    30590    31100    32315 
   34084    36235    38310    39717    40115    39525    38172    36308 
   34331    32561    31009    29736    28932    28577    28365    28092 
   27727    27118    26370    25989    26311    27346    28897    30586 
   31902    32380    31856    30513    28677    26757    25224    24339 
   24031    24232    24870    25522    25781    25701    25475    25046 
   24363    23754    23631    24181    25375    26758    27572    27479 
   26765    25766    24757    24211    24506    25559    27035    28751 
   30577    32228    33523    34396    34677    34371    33949    33827 
   33927    34053    34111    33948    33372    32591    32222    32574 
   33596    35130    36753    37955    38446    38068    36740    34643 
   32234    29948    27966    26462    25694    25682    26209    26929 
   27549    27802    27341    26247    24951    23867    23542    24306 
   26038    28389    30860    32907    34086    34230    33461    31931 
   29747    27148    24573    22489    21271    21350    23063    26154 
   29917    33692    36891    38963    39715    39597    39034    38216 
   37731    37876    38448    39357    40307    40896    40687    39186 
   36357    32422    27773    23132    19122    16020    14004    13086 
   12962    13459    14609    16252    18047    19727    21158    22202 
   22815    23209    23542    23673    23445    22915    22204    21556 
   21470    22372    24215    26519    28795    30678    31763    31774 
   30892    29589    28331    27777    28397    29958    32041    34283 
   36173    37225    37226    36459    35282    33994    33248    33526 
   34755    36576    38380    39477    39391    38004    35554    32436 
   29144    26295    24296    23187    22791    22880    23163    23318 
   23298    23154    22803    22342    22061    22096    22411    23162 
   24465    25951    27247    28290    29008    29354    29517    29754 
   30167    30685    31109    31147    30437    28857    26754    24517 
   22404    20715    19616    18996    18713    18700    18814    18929 
   19145    19721    20711    21869    23102    24485    25947    27410 
   28777    29881    30640    31161    31620    31976    32112    32157 
   32211    32103    31784    31378    30863    30269    29704    29110 
   28349    27462    26691    26086    25545    25166    25074    25199 
   25412    25718    26170    26649    27057    27495    27909    28228 
   28665    29288    29954    30557    31025    31276    31156    30627 
   29881    29119    28419    27974    28034    28457    29022    29671 
   30101    30007    29446    28622    27783    27329    27604    28629 
   30095    31716    33346    34656    35443    35824    35922    35900 
   35904    36088    36573    37160    37758    38529    39415    40295 
   41154    41860    42250    42398    42414    42183    41538    40364 
   38601    36337    33883    31750    30259    29369    29049    29200 
   29426    29457    29293    28874    28170    27300    26440    25769 
   25363    25211    25310    25488    25385    24822    23838    22567 
   21331    20454    19943    19567    19158    18637    17843    16785 
   15758    14894    14197    13752    13407    12957    12504    12230 
   12400    13284    14783    16763    19126    21512    23909    26533 
   29042    31161    32958    34296    35113    35605    35963    36178 
   36108    35710    34904    33516    31568    29348    27081    24982 
   23458    22735    22674    23121    23961    24854    25579    26258 
   26974    27792    28744    29759    30818    31684    32110    32218 
   32016    31629    31610    32112    32992    34155    35217    35814 
   35698    34876    33724    32391    30949    29722    28938    28686 
   29072    30087    31384    32391    32731    32305    31135    29551 
   28070    26943    26198    25878    26002    26402    26962    27896 
   29180    30572    32133    33824    35489    37144    38734    40059 
   40735    40534    39692    38399    36795    35184    33711    32415 
   31331    30558    30194    30015    29793    29498    29008    28397 
   28036    28069    28388    28847    29346    29877    30372    30756 
   31126    31403    31223    30464    29195    27510    25845    24653 
   23987    23716    23773    24060    24265    24066    23403    22403 
   21249    20301    19992    20404    21348    22754    24619    26627 
   28454    30147    31590    32576    33113    33123    32552    31503 
   30228    29148    28518    28354    28607    28975    29160    29258 
   29332    29257    28940    28444    27833    26943    25903    25122 
   24722    24716    25213    26248    27635    29219    30976    32713 
   34261    35755    37303    38705    39770    40401    40368    39399 
   37448    34837    31835    28676    25990    24180    23101    22543 
   22282    21977    21451    20922    20615    20538    20674    21033 
   21600    22295    23150    24250    25312    25970    26236    26139 
   25554    24628    23676    22793    21997    21478    21316    21369 
   21832    22952    24500    26303    28300    30288    32025    33331 
   34307    35132    35762    36165    36475    36713    36744    36655 
   36508    36068    35368    34715    34115    33431    32691    31993 
   31353    30701    30151    29817    29592    29590    30003    30649 
   31338    32089    32775    33111    32974    32355    31301    30069 
   29083    28690    28948    29672    30643    31673    32414    32569 
   32256    31500    30079    28261    26482    24860    23721    23384 
   23649    24303    25341    26580    27676    28351    28447    27895 
   26759    25322    24055    23251    22806    22767    23282    24092 
   25160    26582    28033    29259    30119    30540    30617    30399 
   30198    30268    30391    30472    30523    30421    30079    29453 
   28612    27624    26493    25327    24271    23418    22932    23036 
   23640    24414    25254    26041    26442    26395    26172    25932 
   25686    25513    25566    25937    26608    27594    28849    30155 
   31348    32330    32847    32666    31920    30846    29441    27891 
   26631    25889    25761    26347    27424    28415    28975    29052 
   28517    27485    26388    25482    24899    24783    25204    26180 
   27617    29227    30778    32087    32866    33171    33276    33162 
   32928    32789    32759    32793    32802    32739    32528    31986 
   31120    30143    29171    28219    27450    26789    25872    24733 
   23678    22881    22454    22425    22651    22911    23193    23694 
   24450    25305    26260    27288    28223    29047    29705    30089 
   30132    29838    29440    29029    28569    28191    27911    27660 
   27552    27659    27724    27539    27281    27155    27241    27663 
   28555    29855    31239    32416    33275    33691    33536    32960 
   32202    31319    30549    30251    30514    31336    32667    34246 
   35681    36685    37257    37507    37473    37293    37056    36632 
   35944    35089    34141    32958    31460    29859    28179    26285 
   24360    22596    20879    19161    17685    16673    16111    16100 
   16834    18209    20099    22524    25282    27986    30294    32002 
   33037    33477    33704    34158    34893    35839    36912    37792 
   38187    38041    37470    36553    35297    33937    32693    31666 
   31009    30737    30744    30735    30432    29886    29051    27856 
   26571    25474    24646    24217    24290    24699    25205    25731 
   26257    26642    26862    27245    28027    29150    30610    32326 
   33893    34995    35614    35669    35108    34116    32956    31880 
   31006    30383    30032    29753    29264    28411    27109    25334 
   23394    21712    20413    19660    19656    20368    21526    22829 
   24254    25685    26842    27737    28460    29042    29610    30314 
   31246    32399    33750    35228    36539    37413    37835    37722 
   36947    35576    33769    31602    29100    26496    24157    22201 
   20453    18819    17257    15547    13679    11837    10107     8652 
    7732     7531     7905     8654     9877    11548    13437    15538 
   17909    20310    22514    24509    26252    27797    29286    30810 
   32327    33658    34828    35924    36827    37553    38332    39235 
   40078    40645    40707    40102    38887    37351    35962    35001 
   34570    34790    35448    36188    36984    37849    38743    39773 
   41023    42457    43870    45057    46045    46661    46639    46125 
   45261    44016    42518    40973    39460    37878    36202    34431 
   32369    29993    27585    25227    22885    20788    19094    17761 
   16830    16383    16315    16378    16625    17261    18337    19890 
   21855    24148    26650    29176    31697    34235    36632    38674 
   40351    41520    41848    41385    40267    38386    35783    32731 
   29569    26678    24433    23013    22177    21507    20813    19905 
   18502    16654    14690    12918    11611    11013    11280    12424 
   14356    17068    20406    23864    27083    29911    32146    33853 
   35300    36556    37540    38214    38724    39135    39245    39122 
   39021    38887    38617    38205    37504    36315    34775    33226 
   31785    30614    30013    30038    30432    30832    31020    30864 
   30287    29573    29001    28430    27789    27161    26586    26128 
   25812    25632    25395    24898    24232    23499    22721    21916 
   21170    20505    19692    18715    17741    16651    15510    14701 
   14275    14084    14118    14320    14558    14801    15203    15849 
   16660    17676    19055    20859    22936    25148    27467    29647 
   31381    32743    33783    34290    34439    34533    34530    34544 
   34736    34938    34892    34441    33533    32138    30311    28361 
   26625    25167    24044    23404    23044    22678    22413    22377 
   22571    23118    24240    25986    28102    30288    32397    34245 
   35608    36481    36931    36902    36493    35994    35527    35038 
   34478    33935    33435    32796    32019    31167    30039    28601 
   26988    25226    23455    22011    21237    21290    22180    23915 
   26252    28699    30943    32826    34118    34733    34908    34956 
   35089    35627    36800    38442    40220    41752    42646    42626 
   41638    39963    37935    35689    33457    31592    30149    28890 
   27704    26462    24880    23046    21348    19972    19016    18655 
   18964    19835    21097    22594    24108    25396    26436    27403 
   28305    29004    29548    30059    30507    31058    32073    33599 
   35510    37713    40001    42025    43487    44376    44790    44634 
   43846    42570    40856    38674    36133    33319    30113    26485 
   22689    18989    15509    12531    10395     9078     8412     8380 
    9010    10216    11880    14031    16434    18703    20955    23376 
   25873    28465    31188    33826    35993    37476    38414    38755 
   38274    37098    35269    32776    29937    27107    24661    22887 
   21940    21955    22732    23867    25157    26319    26915    26866 
   26329    25372    24134    23000    22344    22080    22104    22470 
   22906    23236    23437    23392    23139    22761    22453    22486 
   22874    23621    24799    26199    27531    28758    29838    30532 
   30748    30611    30159    29386    28455    27493    26515    25695 
   25313    25501    26185    27299    28832    30594    32376    34171 
   35965    37540    38724    39564    39899    39590    38860    37872 
   36658    35289    33901    32697    31708    30888    30361    30083 
   29898    29860    30007    30292    30663    31092    31554    31876 
   32026    32200    32374    32435    32386    32090    31283    29917 
   28209    26457    24938    23910    23437    23215    23051    23122 
   23529    24135    24897    25959    27247    28606    30078    31571 
   32907    33975    34739    35206    35374    35299    34912    34065 
   32727    30998    28997    26706    24283    22094    20321    18950 
   18061    17760    17847    18252    19191    20592    22246    24076 
   25986    27809    29470    31048    32467    33472    34063    34453 
   34567    34200    33445    32511    31479    30400    29485    28798 
   28199    27956    28479    29796    31811    34425    37253    39838 
   42016    43703    44804    45298    45175    44470    43182    41335 
   39244    37091    34735    32393    30361    28476    26634    24987 
   23609    22511    21845    21735    22022    22474    23066    23866 
   24789    25796    27069    28508    29680    30391    30576    30058 
   28987    27858    26986    26455    26323    26490    26637    26612 
   26487    26190    25723    25398    25553    26400    27897    29820 
   31991    34108    35959    37520    38612    39129    39159    38840 
   38247    37242    35764    33838    31303    28205    24898    21703 
   18837    16534    14936    13887    13289    13231    13613    14291 
   15220    16290    17466    18752    20166    21846    23682    25372 
   26851    28009    28577    28570    28171    27364    26217    25059 
   24148    23573    23463    23870    24577    25251    25661    25754 
   25443    24780    24149    23734    23618    23992    24856    26127 
   27685    29399    31132    32585    33629    34474    35231    35927 
   36793    37895    38936    39695    40025    39742    38778    37264 
   35479    33593    31694    29995    28687    27693    26854    26151 
   25445    24526    23449    22373    21417    20772    20673    21169 
   22039    23186    24716    26441    27956    29132    30040    30754 
   31412    32114    32747    33142    33321    33487    33621    33524 
   33292    32946    32337    31581    30763    29832    28868    28131 
   27868    28023    28574    29638    31033    32537    34093    35564 
   36786    37678    38273    38647    38685    38315    37710    36894 
