Origin Time       2025/01/13 21:19:00
Lat.              31.8
Long.             131.6
Depth. (km)       30
Mag.              6.9
Station Code      KGS001
Station Lat.      32.1947
Station Long.     130.1763
Station Height(m) 77
Record Time       2025/01/13 21:19:57
Sampling Freq(Hz) 100Hz
Duration Time(s)  111
Dir.              E-W
Scale Factor      3920(gal)/6182761
Max. Acc. (gal)   6.032
Last Correction   2025/01/13 21:19:58
Memo.             
[...]
  -18179   -17728   -17315   -17039   -16928   -16938   -17037   -17187 
  -17287   -17240   -17036   -16730   -16402   -16139   -16013   -16004 
  -15995   -15860   -15523   -15049   -14623   -14376   -14334   -14476 
  -14749   -15129   -15647   -16302   -17034   -17769   -18410   -18824 
  -18918   -18678   -18159   -17525   -16953   -16541   -16322   -16233 
  -16188   -16195   -16318   -16574   -16883   -17162   -17379   -17516 
  -17601   -17663   -17644   -17487   -17193   -16771   -16285   -15847 
  -15562   -15524   -15762   -16169   -16612   -17010   -17319   -17551 
  -17712   -17778   -17778   -17782   -17754   -17532   -17022   -16345 
  -15730   -15363   -15279   -15327   -15311   -15162   -14934   -14737 
  -14661   -14735   -14955   -15349   -15935   -16603   -17142   -17384 
  -17284   -16941   -16535   -16220   -16092   -16179   -16389   -16625 
  -16887   -17168   -17449   -17762   -18136   -18515   -18831   -19068 
  -19199   -19144   -18875   -18449   -17972   -17562   -17261   -16967 
  -16572   -16100   -15707   -15563   -15719   -16056   -16385   -16605 
  -16721   -16737   -16670   -16546   -16397   -16312   -16372   -16562 
  -16831   -17087   -17208   -17143   -16922   -16663   -16500   -16448 
  -16526   -16765   -17042   -17234   -17365   -17435   -17419   -17380 
  -17324   -17171   -16935   -16703   -16537   -16465   -16480   -16556 
  -16636   -16652   -16621   -16567   -16493   -16482   -16619   -16929 
  -17370   -17838   -18235   -18486   -18559   -18486   -18317   -18088 
  -17822   -17556   -17311   -17024   -16634   -16149   -15613   -15107 
  -14726   -14533   -14495   -14522   -14589   -14743   -15003   -15336 
  -15721   -16092   -16328   -16395   -16353   -16307   -16385   -16628 
  -16920   -17110   -17151   -17137   -17170   -17246   -17321   -17281 
  -16985   -16479   -15975   -15656   -15612   -15800   -16043   -16196 
  -16242   -16233   -16214   -16208   -16219   -16226   -16220   -16221 
  -16253   -16314   -16338   -16276   -16194   -16177   -16239   -16356 
  -16501   -16625   -16688   -16754   -16926   -17185   -17419   -17520 
  -17385   -17018   -16565   -16156   -15879   -15802   -15927   -16211 
  -16557   -16864   -17097   -17256   -17396   -17582   -17804   -18030 
  -18190   -18192   -18075   -17984   -18023   -18163   -18229   -18063 
  -17665   -17151   -16642   -16175   -15742   -15369   -15100   -14987 
  -15103   -15473   -16060   -16810   -17606   -18282   -18713   -18840 
  -18679   -18362   -18054   -17849   -17776   -17795   -17836   -17867 
  -17867   -17816   -17720   -17575   -17364   -17136   -16990   -16973 
  -17082   -17279   -17473   -17585   -17641   -17724   -17872   -18004 
  -17964   -17647   -17085   -16457   -15979   -15779   -15857   -16093 
  -16358   -16579   -16692   -16691   -16639   -16582   -16585   -16776 
  -17194   -17745   -18266   -18543   -18401   -17866   -17125   -16374 
  -15717   -15182   -14769   -14442   -14162   -13973   -13995   -14335 
  -14997   -15867   -16768   -17484   -17878   -17951   -17754   -17356 
  -16885   -16481   -16197   -15976   -15779   -15664   -15717   -15963 
  -16314   -16584   -16678   -16680   -16748   -17014   -17457   -17900 
  -18252   -18526   -18717   -18849   -18921   -18843   -18536   -17939 
  -17010   -15880   -14828   -14066   -13699   -13762   -14160   -14686 
  -15187   -15641   -16039   -16315   -16436   -16434   -16385   -16373 
  -16442   -16548   -16612   -16593   -16511   -16465   -16573   -16888 
  -17369   -17857   -18177   -18285   -18263   -18186   -18033   -17719 
  -17210   -16608   -16106   -15842   -15828   -15961   -16107   -16185 
  -16178   -16107   -16053   -16167   -16542   -17194   -18067   -18973 
  -19677   -20031   -19984   -19551   -18880   -18193   -17614   -17176 
  -16905   -16785   -16781   -16886   -17059   -17223   -17344   -17436 
  -17539   -17701   -17923   -18131   -18248   -18207   -17958   -17523 
  -16938   -16241   -15546   -14966   -14572   -14463   -14639   -14950 
  -15292   -15653   -16002   -16297   -16494   -16557   -16487   -16354 
  -16269   -16260   -16264   -16262   -16276   -16288   -16224   -16021 
  -15724   -15470   -15369   -15459   -15730   -16105   -16500   -16917 
  -17369   -17777   -18005   -18026   -17945   -17887   -17922   -17956 
  -17738   -17132   -16296   -15540   -15108   -15020   -15115   -15263 
  -15452   -15689   -15938   -16139   -16229   -16236   -16325   -16617 
  -17067   -17519   -17779   -17735   -17467   -17155   -16896   -16644 
  -16311   -15895   -15493   -15246   -15215   -15285   -15285   -15175 
  -15084   -15202   -15592   -16142   -16673   -17065   -17305   -17461 
  -17588   -17627   -17478   -17170   -16848   -16598   -16372   -16079 
  -15720   -15446   -15452   -15835   -16524   -17263   -17756   -17915 
  -17873   -17800   -17759   -17725   -17664   -17578   -17519   -17571 
  -17826   -18307   -18863   -19250   -19336   -19165   -18826   -18392 
  -17908   -17410   -16971   -16645   -16436   -16295   -16130   -15972 
  -15930   -16036   -16342   -16877   -17569   -18264   -18705   -18728 
  -18447   -18044   -17620   -17224   -16872   -16587   -16423   -16417 
  -16530   -16663   -16672   -16447   -16062   -15693   -15433   -15313 
  -15357   -15547   -15831   -16156   -16449   -16567   -16444   -16200 
  -16019   -16028   -16249   -16604   -17007   -17413   -17825   -18236 
  -18561   -18641   -18377   -17866   -17283   -16739   -16290   -15936 
  -15646   -15460   -15433   -15579   -15905   -16373   -16856   -17189 
  -17296   -17280   -17330   -17589   -18157   -18935   -19579   -19857 
  -19798   -19457   -18832   -17967   -16992   -16096   -15448   -15126 
  -15108   -15272   -15484   -15682   -15850   -16045   -16340   -16680 
  -16897   -16813   -16421   -15973   -15740   -15759   -15888   -15959 
  -15855   -15613   -15438   -15520   -15927   -16675   -17632   -18483 
  -18978   -19058   -18831   -18505   -18282   -18299   -18544   -18832 
  -18973   -18853   -18439   -17840   -17212   -16693   -16351   -16074 
  -15744   -15402   -15079   -14785   -14596   -14588   -14821   -15286 
  -15868   -16451   -16924   -17169   -17190   -17141   -17158   -17286 
  -17594   -18036   -18364   -18462   -18427   -18339   -18215   -18073 
  -17958   -17907   -17882   -17800   -17642   -17446   -17199   -16921 
  -16725   -16644   -16597   -16490   -16222   -15738   -15093   -14436 
  -13880   -13471   -13335   -13705   -14613   -15714   -16621   -17173 
  -17393   -17432   -17419   -17355   -17226   -17054   -16874   -16706 
  -16441   -15943   -15232   -14465   -13879   -13640   -13733   -14000 
  -14205   -14237   -14247   -14469   -14992   -15741   -16576   -17348 
  -17967   -18420   -18666   -18618   -18253   -17651   -16959   -16309 
  -15782   -15451   -15307   -15239   -15214   -15315   -15678   -16451 
  -17662   -19141   -20608   -21735   -22195   -21827   -20788   -19474 
  -18270   -17349   -16702   -16313   -16174   -16251   -16473   -16681 
  -16698   -16453   -15953   -15303   -14695   -14256   -14037   -14062 
  -14338   -14836   -15471   -16089   -16544   -16827   -17033   -17173 
  -17176   -17054   -16924   -16910   -17043   -17231   -17362   -17341 
  -17075   -16588   -15977   -15381   -15030   -15124   -15654   -16347 
  -16858   -17057   -17007   -16816   -16625   -16578   -16654   -16664 
  -16490   -16168   -15855   -15705   -15677   -15634   -15542   -15452 
  -15430   -15483   -15551   -15609   -15742   -16067   -16570   -17079 
  -17443   -17584   -17472   -17183   -16847   -16578   -16414   -16249 
  -15985   -15608   -15101   -14531   -14093   -13943   -14138   -14669 
  -15422   -16180   -16715   -16902   -16800   -16584   -16393   -16264 
  -16126   -15875   -15490   -15082   -14842   -14902   -15262   -15870 
  -16716   -17744   -18677   -19183   -19146   -18650   -17933   -17324 
  -16978   -16830   -16850   -17106   -17565   -17997   -18195   -18229 
  -18325   -18601   -19029   -19504   -19917   -20186   -20221   -19911 
  -19180   -18197   -17308   -16708   -16385   -16184   -15886   -15463 
  -15123   -15166   -15807   -16953   -18267   -19399   -20064   -20212 
  -20030   -19668   -19195   -18662   -18186   -18041   -18411   -19155 
  -19942   -20449   -20561   -20380   -20019   -19516   -18836   -17903 
  -16855   -16061   -15787   -16019   -16511   -17008   -17459   -17974 
  -18587   -19131   -19374   -19210   -18734   -18251   -18043   -18086 
  -18193   -18280   -18287   -18097   -17651   -17035   -16484   -16321 
  -16759   -17718   -18828   -19652   -20042   -20137   -20053   -19788 
  -19322   -18642   -17753   -16746   -15842   -15271   -15127   -15434 
  -16128   -16970   -17654   -17965   -17866   -17513   -17070   -16566 
  -16046   -15607   -15354   -15292   -15194   -14834   -14257   -13650 
  -13203   -13046   -13170   -13476   -13801   -13910   -13654   -13113 
  -12531   -12196   -12316   -12847   -13520   -14091   -14431   -14473 
  -14297   -14103   -13976   -13896   -13908   -14092   -14422   -14767 
  -15017   -15197   -15451   -15879   -16407   -16819   -16908   -16603 
  -16017   -15326   -14632   -13907   -13146   -12499   -12215   -12541 
  -13512   -14789   -15953   -16832   -17455   -17953   -18449   -18975 
  -19490   -19877   -20002   -19824   -19445   -19051   -18782   -18661 
  -18562   -18256   -17610   -16670   -15584   -14553   -13821   -13599 
  -13951   -14727   -15707   -16677   -17419   -17839   -17945   -17721 
  -17217   -16573   -15900   -15272   -14753   -14332   -13915   -13433 
  -12934   -12573   -12474   -12611   -12873   -13188   -13590   -14140 
  -14786   -15387   -15821   -16035   -16028   -15851   -15630   -15493 
  -15469   -15504   -15535   -15551   -15631   -15848   -16211   -16657 
  -17066   -17372   -17556   -17653   -17799   -18042   -18354   -18792 
  -19291   -19601   -19483   -18911   -18185   -17680   -17513   -17523 
  -17511   -17473   -17541   -17828   -18331   -18841   -19136   -19242 
  -19296   -19312   -19268   -19187   -19094   -19053   -19112   -19243 
  -19330   -19188   -18735   -18088   -17428   -16927   -16744   -16911 
  -17355   -18005   -18755   -19459   -19998   -20295   -20359   -20255 
  -19979   -19546   -19075   -18667   -18409   -18436   -18813   -19486 
  -20266   -20828   -20907   -20489   -19781   -19059   -18461   -17931 
  -17413   -16945   -16558   -16284   -16125   -15999   -15904   -15913 
  -15978   -15955   -15799   -15596   -15509   -15682   -16089   -16522 
  -16761   -16695   -16386   -16027   -15761   -15568   -15300   -14843 
  -14261   -13686   -13225   -12966   -12933   -13096   -13468   -14069 
  -14829   -15577   -16127   -16390   -16385   -16213   -15965   -15715 
  -15614   -15820   -16292   -16779   -17044   -17016   -16748   -16377 
  -16080   -15960   -15988   -16093   -16225   -16375   -16586   -16882 
  -17200   -17445   -17578   -17629   -17679   -17854   -18164   -18420 
  -18455   -18241   -17766   -17083   -16391   -15904   -15687   -15666 
  -15735   -15825   -15940   -16191   -16613   -17067   -17460   -17885 
  -18450   -19117   -19723   -20116   -20228   -20060   -19656   -19066 
  -18366   -17678   -17133   -16833   -16795   -16932   -17145   -17372 
  -17595   -17816   -18005   -18074   -17937   -17626   -17334   -17242 
  -17372   -17604   -17796   -17893   -17947   -18007   -18055   -18092 
  -18159   -18226   -18182   -18003   -17759   -17470   -17164   -16939 
  -16829   -16749   -16620   -16457   -16306   -16184   -16106   -16078 
  -16023   -15837   -15562   -15370   -15401   -15690   -16188   -16757 
  -17229   -17473   -17431   -17121   -16575   -15860   -15129   -14481 
  -13898   -13392   -13030   -12916   -13210   -13992   -15156   -16418 
  -17417   -17978   -18192   -18245   -18372   -18738   -19264   -19770 
  -20120   -20194   -19966   -19533   -18952   -18238   -17515   -16909 
  -16434   -16072   -15848   -15844   -16158   -16740   -17393   -17908 
  -18129   -18044   -17753   -17294   -16678   -15976   -15286   -14757 
  -14503   -14526   -14746   -15034   -15336   -15726   -16240   -16815 
  -17328   -17592   -17457   -16963   -16274   -15509   -14722   -13963 
  -13327   -12960   -12983   -13373   -13903   -14239   -14172   -13742 
  -13174   -12721   -12474   -12347   -12253   -12229   -12361   -12679 
  -13162   -13779   -14448   -15083   -15625   -15992   -16182   -16324 
  -16521   -16727   -16823   -16827   -16924   -17224   -17651   -18059 
  -18372   -18586   -18693   -18699   -18670   -18719   -18967   -19438 
  -19984   -20376   -20482   -20339   -20006   -19500   -18951   -18606 
  -18647   -19089   -19754   -20395   -20845   -21008   -20881   -20570 
  -20134   -19542   -18788   -17902   -16922   -16008   -15391   -15214 
  -15474   -16030   -16692   -17317   -17811   -18156   -18388   -18524 
  -18557   -18490   -18318   -18018   -17545   -16882   -16109   -15359 
  -14735   -14246   -13819   -13418   -13081   -12853   -12761   -12793 
  -12942   -13208   -13535   -13811   -13857   -13514   -12817   -11941 
  -11080   -10394    -9973    -9895   -10204   -10816   -11554   -12234 
  -12740   -13095   -13402   -13714   -14040   -14355   -14578   -14666 
  -14706   -14821   -15098   -15545   -16044   -16458   -16717   -16811 
  -16746   -16547   -16295   -16064   -15895   -15856   -15979   -16217 
  -16454   -16595   -16636   -16643   -16687   -16753   -16795   -16875 
  -17079   -17412   -17831   -18250   -18599   -18874   -19094   -19339 
  -19702   -20227   -20911   -21698   -22528   -23419   -24358   -25211 
  -25837   -26192   -26272   -26051   -25485   -24543   -23317   -22057 
  -21061   -20460   -20139   -19884   -19573   -19276   -19155   -19290 
  -19675   -20226   -20775   -21236   -21652   -21992   -22104   -21860 
  -21255   -20425   -19591   -18921   -18450   -18113   -17822   -17536 
  -17282   -17108   -17009   -16959   -16922   -16804   -16507   -16042 
  -15451   -14761   -14093   -13617   -13406   -13395   -13410   -13303 
  -13037   -12646   -12219   -11868   -11687   -11687   -11805   -12017 
  -12360   -12843   -13374   -13813   -14076   -14190   -14239   -14313 
  -14445   -14567   -14598   -14540   -14438   -14325   -14253   -14301 
  -14472   -14677   -14840   -14960   -15060   -15173   -15328   -15535 
  -15833   -16283   -16853   -17407   -17857   -18190   -18386   -18450 
  -18403   -18167   -17634   -16864   -16071   -15448   -15059   -14836 
  -14717   -14758   -15065   -15687   -16536   -17454   -18298   -18980 
  -19521   -19955   -20211   -20206   -19953   -19541   -19132   -18875 
  -18753   -18625   -18391   -18049   -17701   -17433   -17241   -17084 
  -16907   -16696   -16514   -16471   -16668   -17134   -17827   -18637 
  -19408   -20010   -20301   -20160   -19632   -18910   -18206   -17687 
  -17442   -17473   -17684   -17927   -18073   -18066   -17944   -17796 
  -17685   -17624   -17627   -17706   -17796   -17786   -17595   -17226 
  -16793   -16422   -16188   -16114   -16122   -16100   -16010   -15824 
  -15516   -15160   -14878   -14739   -14830   -15210   -15763   -16281 
  -16615   -16702   -16573   -16309   -15992   -15644   -15273   -14939 
  -14710   -14643   -14784   -15104   -15580   -16235   -17002   -17687 
  -18126   -18335   -18421   -18493   -18661   -18909   -19078   -19030 
  -18705   -18144   -17458   -16747   -16098   -15591   -15256   -15074 
  -15043   -15153   -15347   -15637   -16055   -16525   -16924   -17120 
  -16994   -16529   -15842   -15127   -14510   -14016   -13629   -13347 
  -13233   -13340   -13652   -14084   -14460   -14632   -14631   -14600 
  -14659   -14832   -15085   -15375   -15628   -15765   -15763   -15625 
  -15394   -15204   -15222   -15529   -16063   -16644   -17100   -17396 
  -17622   -17887   -18250   -18690   -19121   -19461   -19656   -19686 
  -19606   -19502   -19442   -19444   -19402   -19197   -18814   -18320 
  -17870   -17636   -17685   -17974   -18387   -18809   -19159   -19365 
  -19397   -19277   -19032   -18713   -18433   -18271   -18207   -18130 
  -17945   -17653   -17277   -16816   -16305   -15802   -15370   -15083 
  -15018   -15199   -15554   -15986   -16427   -16781   -16959   -17003 
  -17026   -17020   -16907   -16678   -16367   -16016   -15681   -15369 
  -15045   -14757   -14565   -14401   -14190   -13916   -13598   -13342 
  -13237   -13229   -13219   -13180   -13144   -13174   -13306   -13508 
  -13728   -13926   -14071   -14151   -14199   -14261   -14349   -14478 
  -14702   -15030   -15425   -15891   -16473   -17171   -17965   -18849 
  -19747   -20508   -21011   -21151   -20911   -20449   -19974   -19639 
  -19559   -19735   -20051   -20389   -20686   -20898   -21003   -21000 
  -20877   -20670   -20491   -20410   -20447   -20603   -20821   -21010 
  -21075   -20964   -20694   -20297   -19824   -19324   -18812   -18310 
  -17798   -17219   -16558   -15841   -15156   -14637   -14351   -14225 
  -14147   -14050   -13900   -13709   -13536   -13450   -13478   -13581 
  -13672   -13651   -13463   -13133   -12758   -12456   -12318   -12348 
  -12496   -12739   -13072   -13458   -13886   -14359   -14864   -15435 
  -16073   -16657   -17070   -17256   -17229   -17053   -16758   -16357 
  -15892   -15429   -15074   -14927   -15014   -15303   -15714   -16144 
  -16514   -16760   -16802   -16588   -16120   -15433   -14588   -13667 
  -12774   -12041   -11557   -11380   -11554   -12063   -12865   -13882 
  -14945   -15890   -16642   -17173   -17474   -17571   -17547   -17500 
  -17500   -17582   -17758   -18022   -18293   -18446   -18455   -18393 
  -18320   -18330   -18568   -19084   -19778   -20490   -21078   -21459 
  -21630   -21639   -21499   -21178   -20720   -20264   -19975   -19944 
  -20132   -20437   -20755   -21024   -21261   -21494   -21704   -21871 
  -21947   -21883   -21704   -21475   -21258   -21082   -20923   -20757 
  -20613   -20526   -20516   -20582   -20675   -20753   -20788   -20742 
  -20586   -20302   -19931   -19557   -19203   -18841   -18409   -17888 
  -17355   -16881   -16488   -16143   -15768   -15368   -15015   -14768 
  -14680   -14749   -14917   -15153   -15465   -15904   -16464   -17052 
  -17580   -17984   -18237   -18343   -18302   -18156   -17997   -17849 
  -17656   -17410   -17126   -16768   -16322   -15818   -15323   -14952 
  -14770   -14716   -14668   -14526   -14256   -13877   -13440   -12976 
  -12497   -12078   -11805   -11662   -11634   -11743   -11958   -12211 
  -12478   -12757   -13000   -13126   -13113   -13020   -12920   -12896 
  -13057   -13449   -13991   -14591   -15201   -15741   -16135   -16365 
  -16448   -16419   -16306   -16106   -15797   -15367   -14886   -14434 
  -13999   -13558   -13149   -12815   -12614   -12622   -12825   -13134 
  -13477   -13801   -14093   -14385   -14709   -15106   -15635   -16317 
  -17082   -17844   -18566   -19211   -19725   -20090   -20325   -20435 
  -20398   -20240   -20014   -19726   -19403   -19106   -18857   -18638 
  -18447   -18299   -18131   -17815   -17300   -16656   -16001   -15459 
  -15127   -14997   -15001   -15100   -15257   -15453   -15697   -15993 
  -16335   -16687   -17005   -17257   -17447   -17636   -17844   -18067 
  -18339   -18648   -18928   -19115   -19110   -18841   -18354   -17742 
  -17123   -16615   -16279   -16120   -16096   -16155   -16320   -16566 
  -16754   -16834   -16832   -16761   -16698   -16684   -16663   -16601 
  -16500   -16387   -16311   -16264   -16232   -16235   -16257   -16272 
