Origin Time       2025/01/13 21:19:00
Lat.              31.8
Long.             131.6
Depth. (km)       30
Mag.              6.9
Station Code      KGS020
Station Lat.      31.2396
Station Long.     130.4915
Station Height(m) 21
Record Time       2025/01/13 21:19:53
Sampling Freq(Hz) 100Hz
Duration Time(s)  109
Dir.              E-W
Scale Factor      7845(gal)/8223790
Max. Acc. (gal)   13.677
Last Correction   2025/01/13 21:19:53
Memo.             
[...]
    4615     3141     1647      290     -986    -2278    -3558    -4855 
   -6014    -6689    -6794    -6351    -5406    -4293    -3316    -2598 
   -2286    -2351    -2559    -2770    -2828    -2506    -1768     -704 
     529     1648     2425     2843     2911     2667     2238     1748 
    1345     1231     1497     2141     3078     4085     5012     5811 
    6380     6578     6285     5494     4371     3119     1950     1075 
     511      103     -271     -685    -1117    -1512    -1960    -2577 
   -3307    -4099    -4931    -5688    -6268    -6520    -6280    -5611 
   -4725    -3819    -3076    -2497    -1915    -1256     -538      149 
     665     1027     1397     1842     2367     2932     3429     3865 
    4307     4661     4814     4745     4426     3948     3473     3048 
    2718     2515     2344     2155     1912     1522      969      257 
    -649    -1682    -2720    -3689    -4546    -5275    -5775    -5894 
   -5568    -4787    -3549    -1950     -220     1422     2891     4198 
    5298     6099     6529     6570     6264     5715     5124     4648 
    4274     3932     3539     2965     2141     1035     -372    -2062 
   -3892    -5545    -6714    -7341    -7514    -7323    -6920    -6462 
   -5988    -5467    -4874    -4126    -3092    -1742     -126     1638 
    3319     4680     5625     6172     6365     6297     6129     6008 
    5991     6035     6072     6021     5784     5304     4561     3577 
    2459     1359      373     -473    -1190    -1741    -2104    -2400 
   -2722    -2988    -3111    -3059    -2774    -2270    -1601     -811 
     -64      413      564      446      116     -340     -795    -1088 
   -1085     -808     -386       81      432      594      695      689 
     540      526      553      292     -110     -639    -1401    -2106 
   -2747    -3426    -3755    -3748    -3769    -3605    -3148    -2540 
   -1580     -394      700     1917     3249     4437     5613     6648 
    7248     7572     7608     7242     6689     5815     4441     2897 
    1301     -360    -1858    -3262    -4618    -5660    -6397    -6805 
   -6697    -6276    -5699    -4887    -4000    -3163    -2316    -1648 
   -1351    -1250    -1081     -803     -353      508     1680     2821 
    3946     4846     5158     5124     4843     4172     3495     2941 
    2319     1915     1684     1256      850      464     -259    -1140 
   -2034    -2974    -3627    -3962    -4228    -4297    -4278    -4433 
   -4594    -4742    -4845    -4503    -3716    -2631    -1117      575 
    2118     3603     4974     6042     6795     7095     6939     6548 
    5867     5044     4441     3883     3348     2995     2489     1842 
    1306      639      -87     -712    -1528    -2374    -2984    -3592 
   -3997    -3990    -3963    -3848    -3465    -3161    -2843    -2290 
   -1723    -1019      -54      893     1827     2717     3277     3582 
    3674     3385     2895     2285     1493      923      726      695 
    1092     1918     2775     3708     4504     4656     4317     3670 
    2655     1657      881       60     -722    -1375    -2092    -2708 
   -3171    -3766    -4326    -4706    -5063    -5209    -5038    -4644 
   -3777    -2403     -857      699     2123     3261     4166     4792 
    5093     5296     5495     5873     6833     8167     9568    11087 
   12170    12426    12208    11222     9215     6751     3901      715 
   -2008    -4153    -5935    -6906    -7256    -7488    -7357    -7002 
   -6720    -6259    -5769    -5467    -5108    -4761    -4536    -4240 
   -3955    -3657    -3164    -2797    -2700    -2654    -2837    -3172 
   -3231    -3294    -3488    -3222    -2583    -1923     -915      178 
     777     1262     1682     1539     1228      973      368     -195 
    -527    -1159    -1742    -1941    -2196    -2273    -2014    -1954 
   -1926    -1683    -1548    -1343     -945     -769     -664     -386 
    -167      206      858     1358     1823     2339     2457     2301 
    2014     1325      564        5     -568     -924     -847     -483 
     329     1525     2675     3716     4421     4421     3956     3280 
    2594     2407     2760     3388     4307     5327     6200     7014 
    7574     7470     6669     5154     3011      693    -1586    -3757 
   -5470    -6615    -7296    -7497    -7331    -6922    -6277    -5594 
   -5026    -4557    -4272    -4132    -3960    -3766    -3468    -2903 
   -2242    -1610     -814      194     1395     2829     4288     5599 
    6782     7732     8482     9248     9865    10049     9849     9228 
    8190     7157     6319     5521     4827     4185     3474     2934 
    2601     2339     2255     2174     1867     1447      747     -399 
   -1763    -3289    -4889    -6107    -6768    -6945    -6531    -5611 
   -4401    -2956    -1593     -615       78      510      680      756 
     754      642      382      -33     -329     -390     -345      -74 
     301      430      492      469       94     -228     -292     -311 
      -5      567      954     1289     1447     1042      376     -472 
   -1738    -3009    -4014    -4845    -5211    -5047    -4575    -3672 
   -2494    -1386     -234      891     1840     2778     3469     3692 
    3804     3798     3519     3403     3491     3407     3391     3557 
    3574     3596     3726     3645     3492     3465     3281     3041 
    3002     2916     2801     2824     2721     2535     2380     1976 
    1424      955      472      153      130      141      143      120 
     -85     -356     -649    -1101    -1563    -1964    -2443    -2833 
   -3022    -3065    -2793    -2177    -1404     -642     -110      256 
     514      407      128     -256    -1252    -2563    -3727    -4973 
   -5886    -6122    -6212    -6007    -5265    -4484    -3404    -1702 
      21     1730     3491     4684     5355     5687     5343     4572 
    3693     2498     1273      313     -583    -1124    -1086     -778 
     -59     1032     1949     2724     3397     3659     3708     3620 
    3096     2304     1409      297     -761    -1571    -2278    -2785 
   -3052    -3211    -3110    -2775    -2415    -1923    -1399    -1140 
   -1113    -1290    -1625    -1875    -1941    -1783    -1416    -1042 
    -604       37      781     1595     2424     3068     3526     3828 
    3873     3777     3778     3916     4212     4634     4988     5186 
    5192     4936     4542     4078     3453     2724     1972     1247 
     702      325       -4     -225     -337     -463     -615     -800 
   -1035    -1244    -1428    -1599    -1625    -1451    -1109     -576 
      59      625     1021     1158     1013      680      189     -446 
   -1140    -1807    -2361    -2760    -3086    -3388    -3639    -3843 
   -4006    -4098    -4143    -4137    -3955    -3478    -2675    -1572 
    -234     1264     2770     4055     5073     5791     6037     5918 
    5629     5142     4685     4498     4396     4364     4476     4506 
    4422     4317     4032     3578     3009     2115     1007     -103 
   -1397    -2820    -4071    -5125    -5873    -6126    -5981    -5427 
   -4403    -3188    -2033    -1134     -743     -783    -1035    -1383 
   -1518    -1264     -735       64     1024     1875     2571     3045 
    3096     2752     2066      977     -361    -1695    -2887    -3777 
   -4317    -4603    -4607    -4244    -3512    -2442    -1165      149 
    1458     2670     3565     4075     4266     4164     3979     3964 
    4109     4402     4869     5374     5849     6299     6539     6412 
    5895     4962     3785     2582     1323        4    -1236    -2367 
   -3357    -4153    -4865    -5598    -6355    -7175    -8017    -8779 
   -9452   -10023   -10435   -10640   -10532   -10066    -9310    -8237 
   -6812    -5151    -3338    -1429      379     1900     3071     3912 
    4542     5098     5675     6295     6856     7333     7781     8043 
    8064     8087     7982     7534     6952     6172     5082     4048 
    3064     2022     1224      506     -310     -837    -1170    -1590 
   -1953    -2448    -3118    -3542    -3815    -4013    -3789    -3280 
   -2675    -1837    -1004     -322      378      961     1467     2172 
    2899     3531     4155     4567     4754     4920     4935     4779 
    4614     4329     3947     3612     3171     2523     1717      768 
    -124     -739    -1086    -1171    -1012     -774     -535     -278 
     -90      -21      -85     -365     -795    -1221    -1656    -2030 
   -2223    -2313    -2319    -2230    -2151    -2061    -1872    -1626 
   -1351    -1073     -927     -981    -1213    -1566    -1872    -1999 
   -1969    -1757    -1355     -849     -203      627     1521     2371 
    3087     3526     3662     3507     3068     2486     1933     1462 
    1088      831      722      816     1053     1260     1399     1463 
    1377     1155      900      719      751     1051     1574     2253 
    2937     3470     3815     3912     3670     3102     2265     1221 
      72    -1077    -2088    -2820    -3260    -3522    -3723    -3940 
   -4160    -4309    -4383    -4376    -4195    -3816    -3348    -2926 
   -2670    -2613    -2690    -2818    -2890    -2741    -2263    -1480 
    -480      649     1811     2874     3796     4665     5375     5745 
    5921     5938     5671     5283     4822     4241     3827     3628 
    3450     3419     3485     3384     3195     2829     2074     1221 
     473     -187     -511     -450     -244      101      511      835 
    1158     1385     1317     1098      770      245     -329     -927 
   -1615    -2254    -2883    -3591    -4234    -4797    -5242    -5343 
   -5120    -4675    -3994    -3204    -2385    -1478     -662     -120 
     207      319      136     -198     -445     -571     -529      -90 
     703     1603     2682     3862     4820     5644     6284     6440 
    6346     6178     5783     5367     4965     4375     3873     3532 
    3049     2546     2080     1426      762      182     -434     -885 
   -1223    -1682    -2058    -2296    -2434    -2227    -1790    -1437 
   -1242    -1444    -2185    -3187    -4330    -5548    -6562    -7272 
   -7638    -7535    -7136    -6543    -5698    -4814    -3915    -2855 
   -1831     -803      414     1621     2844     4189     5382     6400 
    7364     8014     8305     8399     8164     7685     7210     6612 
    5872     5138     4282     3335     2470     1599      745        6 
    -730    -1453    -2081    -2713    -3299    -3699    -3971    -4151 
   -4241    -4356    -4430    -4403    -4413    -4407    -4306    -4155 
   -3788    -3037    -1934     -399     1574     3735     5922     7952 
    9433    10084     9819     8654     6793     4517     2076     -202 
   -2091    -3510    -4349    -4614    -4386    -3650    -2523    -1198 
     224     1618     2867     3873     4494     4742     4685     4295 
    3717     3127     2479     1822     1264      773      364       36 
    -365     -854    -1372    -1956    -2431    -2614    -2529    -2092 
   -1227      -81     1216     2457     3341     3839     4043     3878 
    3348     2529     1441      213    -1011    -2155    -3048    -3596 
   -3896    -3985    -3897    -3735    -3535    -3373    -3346    -3408 
   -3534    -3744    -3966    -4175    -4382    -4495    -4402    -4009 
   -3267    -2300    -1333     -465      311     1016     1575     1966 
    2432     2963     3356     3959     4877     5703     6713     8019 
    9036     9859    10485    10262     9381     8158     6247     4018 
    1926     -267    -2216    -3611    -4819    -5732    -6300    -6849 
   -7132    -7067    -6956    -6617    -6112    -5769    -5321    -4731 
   -4272    -3649    -2856    -2215    -1456     -575      149      970 
    1957     2859     3754     4746     5667     6331     6844     7364 
    7708     7859     7962     7727     7160     6546     5641     4479 
    3289     1755       58    -1304    -2488    -3326    -3561    -3650 
   -3627    -3321    -3186    -3202    -3064    -3041    -3005    -2686 
   -2407    -2106    -1587    -1084     -454      361      994     1483 
    1799     1629     1154      471     -600    -1755    -2743    -3696 
   -4471    -4985    -5385    -5533    -5341    -4907    -4197    -3318 
   -2435    -1534     -769     -299      -54      -20     -128     -221 
    -378     -581     -629     -557     -433     -160      189      527 
     966     1561     2358     3426     4590     5602     6378     6794 
    6763     6361     5614     4594     3485     2396     1502     1112 
    1314     2092     3439     5113     6814     8367     9589    10478 
   11196    11712    11946    11843    11252    10125     8498     6338 
    3765     1031    -1726    -4399    -6851    -8996   -10671   -11727 
  -12189   -12070   -11414   -10434    -9317    -8135    -6936    -5706 
   -4460    -3273    -2193    -1289     -603      -47      477     1032 
    1767     2771     3858     4984     6212     7092     7357     7280 
    6616     5259     3793     2154      207    -1453    -2863    -4198 
   -4958    -5371    -5848    -6068    -6393    -7176    -7919    -8781 
   -9910   -10705   -11296   -11844   -11839   -11529   -11115   -10099 
   -8706    -7199    -5413    -3813    -2546    -1177      171     1521 
    3153     4962     6976     8999    10693    12275    13460    13999 
   14470    14582    14065    13635    12988    11854    10991    10107 
    8854     7744     6363     4498     2787      965    -1089    -2852 
   -4639    -6539    -8195    -9919   -11585   -12731   -13572   -14026 
  -13915   -13559   -12754   -11246    -9398    -7283    -4976    -2833 
    -843      835     2143     3588     4918     5860     7003     7920 
    8178     8505     8653     8398     8541     8623     8106     7696 
    7060     5659     4290     2928     1127     -411    -1622    -2874 
   -3684    -4131    -4506    -4387    -3912    -3325    -2299    -1089 
     -74      999     1952     2540     3179     3807     4128     4442 
    4639     4521     4490     4406     4008     3655     3137     2126 
    1053      -14    -1089    -1638    -1710    -1507     -758      222 
     984     1732     2289     2342     2236     1914     1235      696 
     216     -471    -1017    -1547    -2222    -2656    -2884    -2951 
   -2544    -1830     -895      457     1914     3179     4275     5000 
    5296     5270     4752     3942     3303     2678     2187     2214 
    2412     2731     3384     3909     4264     4700     4824     4639 
    4456     3916     2949     1825      253    -1655    -3466    -5374 
   -7234    -8592    -9653   -10335   -10358   -10116    -9684    -8974 
   -8353    -7663    -6717    -5833    -4873    -3751    -2833    -2039 
   -1270     -738     -183      598     1240     1782     2475     2967 
    3086     3133     3024     2624     2253     1958     1609     1491 
    1640     1772     2023     2327     2317     2207     2029     1491 
     870      220     -714    -1532    -2026    -2435    -2536    -2335 
   -2155    -1783    -1216     -706      -25      669      958      985 
     706       54     -477     -781     -924     -604       24      626 
    1296     1898     2149     2178     2083     1767     1323      951 
     741      615      553      564      471      301      201       74 
      31      176      284      363      434      348      317      487 
     691     1021     1464     1741     1910     2066     2166     2423 
    2928     3547     4401     5464     6481     7435     8216     8577 
    8560     8117     7129     5776     4191     2444      858     -360 
   -1229    -1698    -1844    -1840    -1721    -1579    -1537    -1586 
   -1806    -2253    -2841    -3564    -4371    -5100    -5728    -6276 
   -6677    -6955    -7111    -7042    -6705    -6077    -5115    -3898 
   -2536    -1046      531     2150     3720     5192     6593     7693 
    8282     8538     8415     7842     7223     6613     5859     5256 
    4718     3937     3181     2413     1363      390     -380    -1200 
   -1895    -2427    -2947    -3207    -3137    -2882    -2404    -1915 
   -1605    -1366    -1340    -1499    -1526    -1560    -1652    -1505 
   -1209     -869     -360      129      480      812     1001      959 
     881      824      691      490      329      176      -93     -340 
    -484     -749    -1019    -1140    -1344    -1491    -1456    -1503 
   -1391     -924     -375      437     1536     2524     3531     4504 
    5034     5336     5472     5125     4590     4012     3164     2350 
    1694      984      450      112     -270     -507     -623     -819 
    -916     -940    -1051    -1107    -1221    -1575    -1975    -2431 
   -3038    -3646    -4280    -4870    -5243    -5595    -5875    -5879 
   -5896    -5873    -5587    -5317    -5022    -4571    -4287    -4106 
   -3811    -3689    -3748    -3743    -3847    -4012    -4004    -3960 
   -3797    -3346    -2797    -2077    -1120     -170      799     1811 
    2681     3484     4253     4885     5472     6010     6404     6768 
    7068     7188     7217     7080     6713     6322     5934     5532 
    5309     5231     5175     5185     5125     4897     4645     4342 
    3970     3707     3516     3254     2928     2424     1657      726 
    -382    -1660    -2930    -4133    -5209    -6011    -6544    -6832 
   -6874    -6852    -6871    -6882    -6975    -7161    -7290    -7288 
   -7159    -7001    -6824    -6478    -6076    -5656    -4963    -4162 
   -3377    -2377    -1435     -708      122      810     1179     1618 
    1987     2147     2477     2816     2994     3319     3639     3829 
    4205     4645     5000     5441     5768     5854     5884     5686 
    5250     4895     4509     4074     3862     3736     3608     3618 
    3528     3273     3063     2708     2147     1620     1021      329 
    -272     -888    -1521    -2012    -2447    -2755    -2740    -2533 
   -2174    -1614    -1047     -437      279      868     1385     1965 
    2470     2941     3447     3878     4311     4788     5155     5449 
    5714     5803     5721     5535     5173     4603     3869     3048 
    2169     1173      162     -734    -1560    -2127    -2331    -2392 
   -2262    -1969    -1763    -1498    -1071     -606       59      885 
    1599     2289     2878     3061     2987     2762     2245     1637 
    1105      584      259      210      270      491      796      912 
     865      685      318     -114     -621    -1263    -1884    -2443 
   -2961    -3254    -3300    -3200    -2926    -2566    -2189    -1702 
   -1198     -843     -642     -657     -905    -1233    -1545    -1765 
   -1783    -1634    -1383     -980     -465      112      818     1620 
    2442     3245     3912     4378     4689     4819     4742     4525 
    4171     3667     3036     2284     1455      615     -237    -1066 
   -1773    -2370    -2851    -3154    -3312    -3358    -3330    -3356 
   -3451    -3559    -3704    -3829    -3831    -3689    -3396    -2982 
   -2536    -2084    -1648    -1301    -1019     -745     -459      -97 
     352      816     1283     1692     1884     1863     1679     1266 
     742      311      -56     -351     -503     -657     -811     -851 
    -939    -1124    -1282    -1507    -1800    -2011    -2201    -2338 
   -2289    -2165    -1991    -1674    -1345    -1063     -753     -490 
