Origin Time       2025/01/13 21:19:00
Lat.              31.8
Long.             131.6
Depth. (km)       30
Mag.              6.9
Station Code      KGS018
Station Lat.      31.3757
Station Long.     130.5449
Station Height(m) 51
Record Time       2025/01/13 21:19:50
Sampling Freq(Hz) 100Hz
Duration Time(s)  151
Dir.              N-S
Scale Factor      3920(gal)/6182761
Max. Acc. (gal)   28.160
Last Correction   2025/01/13 21:19:51
Memo.             
[...]
    5121     5439     5033     3367     1179     -487    -1218     -765 
    1029     3585     6075     8383    10625    12410    13144    12361 
    9952     6717     4048     2600     2111     2376     3237     4074 
    4208     3322     1293    -1573    -4478    -6996    -9386   -11818 
  -13941   -15385   -16275   -17141   -18818   -21898   -25844   -29760 
  -33545   -37100   -39769   -40936   -40181   -37553   -33969   -30463 
  -27094   -23218   -18758   -14308   -10206    -6536    -3529    -1579 
   -1287    -2857    -5216    -6845    -7531    -8085    -8738    -9286 
   -9908   -10404    -9915    -8188    -5783    -3328    -1436     -307 
     792     2814     5863     9046    11097    11167     9350     6575 
    3748     1400      189      571     2005     3304     3611     2938 
    2056     1949     3040     4813     6483     7787     8702     8533 
    6406     2644    -1645    -5587    -8595   -10534   -11478   -11344 
  -10613   -10423   -11376   -12890   -14007   -14564   -14992   -15408 
  -15684   -15830   -16103   -16971   -18507   -20087   -21128   -21461 
  -20928   -19323   -16624   -13212   -10069    -8390    -8517    -9532 
  -10277   -10372    -9872    -8698    -7086    -5926    -6027    -7313 
   -9001   -10303   -10917   -11160   -11517   -12019   -12383   -12402 
  -11943   -11105   -10102    -9008    -8070    -7516    -6908    -5413 
   -2478     1994     7238    11490    13348    12690    10008     6086 
    2098     -896    -2712    -4018    -5383    -7078    -9453   -12303 
  -14677   -16007   -16358   -15921   -15267   -15114   -15495   -16253 
  -17479   -18843   -19952   -21010   -22062   -22548   -22193   -21386 
  -20413   -19168   -17503   -15126   -11728    -7455    -2701     2293 
    7378    12332    16814    20345    22347    22394    20477    16903 
   12161     7088     2844      367     -326     -294     -669    -1452 
   -1748     -979      492     1872     2892     3833     4783     5795 
    7248     9109    10500    10375     8197     4056    -1388    -6989 
  -11504   -14180   -15038   -14789   -14608   -15473   -17377   -19631 
  -21697   -23277   -24359   -25299   -26162   -26591   -26396   -25486 
  -23896   -22016   -19879   -16886   -12850    -8351    -3935       91 
    3172     4661     4336     2431     -479    -3631    -6591    -9501 
  -12543   -15435   -17821   -19917   -22022   -23808   -24883   -25035 
  -23846   -21296   -17981   -14185    -9794    -5029     -579     2844 
    5060     6691     8631    11043    13147    14176    14063    13087 
   11473     9320     6549     3083     -795    -4393    -7075    -8521 
   -8576    -7584    -6492    -5927    -5833    -6052    -6406    -6598 
   -6714    -7297    -8626   -10425   -12312   -13936   -14895   -15230 
  -15544   -16140   -16576   -16332   -15323   -13838   -12716   -12835 
  -14128   -15932   -17812   -19476   -20449   -20283   -18846   -16182 
  -12765    -9718    -7902    -7415    -8234   -10183   -12399   -13858 
  -14117   -13160   -11143    -8477    -5711    -3358    -1838    -1088 
    -118     2250     6106    10980    16615    21792    24467    24026 
   21415    17490    12813     8277     4580     1588    -1022    -3573 
   -6638   -10010   -12523   -13649   -13943   -14036   -14139   -14328 
  -14408   -13765   -12123    -9920    -7744    -6232    -5944    -6488 
   -6643    -5580    -3273      -49     3382     5853     6697     6061 
    3961      951    -1180    -1480     -834     -456    -1186    -3539 
   -7362   -12089   -17467   -23266   -28716   -33352   -37530   -41199 
  -43406   -43361   -41083   -37072   -31921   -26132   -19747   -12397 
   -4387     3137     9379    13884    16179    16404    15104    12666 
    9666     6774     4085     1265    -1771    -4892    -8237   -11990 
  -15830   -19093   -21273   -22106   -21606   -20261   -18679   -17146 
  -15953   -15315   -14870   -14356   -14312   -15082   -15959   -16054 
  -14993   -12533    -8741    -4576    -1252      581      598    -1164 
   -3803    -5844    -6169    -4726    -2306      268     2525     4498 
    6459     8188     9117     8875     7193     4215      968    -1463 
   -2829    -3298    -3250    -3457    -4329    -5556    -6713    -7402 
   -7241    -6312    -5375    -5182    -5510    -5640    -5457    -5001 
   -4128    -3306    -3263    -4103    -5642    -7485    -8861    -9509 
   -9932   -10209   -10011    -9616    -9460    -9439    -9279    -8855 
   -8301    -8067    -8466    -9225    -9625    -9124    -7647    -5263 
   -2242      613     2364     2506     1123    -1228    -3770    -5736 
   -6834    -7348    -7493    -7422    -7374    -7204    -6794    -6599 
   -6965    -7989    -9889   -12416   -14718   -16300   -17252   -17491 
  -16683   -14978   -12898   -10875    -9498    -9109    -9101    -8802 
   -8141    -6753    -3995      -63     4044     7559    10258    12186 
   13691    15181    16555    17250    16751    14990    12315     9075 
    5558     2110    -1142    -4461    -8249   -12871   -18313   -23826 
  -28414   -31487   -32841   -32692   -31654   -30148   -28329   -26505 
  -24642   -22263   -19427   -16662   -14262   -12406   -11288   -11016 
  -11341   -11512   -11128   -10587   -10181   -10049   -10720   -12388 
  -14436   -15978   -16280   -15066   -12724    -9962    -7421    -5625 
   -4830    -4697    -4572    -4211    -3711    -3039    -2334    -1930 
   -1579     -694      715     2242     3779     5449     7212     8826 
    9856     9584     7679     4760     1476    -2018    -5272    -7531 
   -8671    -9282    -9761   -10016    -9993    -9705    -9168    -8622 
   -8106    -7386    -6782    -6922    -7802    -9080   -10513   -11594 
  -11754   -10990    -9701    -8142    -6503    -5169    -4247    -3416 
   -2601    -1870    -1126     -637     -939    -2118    -3847    -5713 
   -7353    -8543    -9243    -9490    -9234    -8556    -7723    -6608 
   -4901    -2931    -1274      -87      722     1310     1880     2724 
    4037     5535     6572     6473     4952     2525      -46    -2306 
   -3802    -4363    -4608    -5212    -6116    -6788    -6906    -6924 
   -7582    -8972   -10758   -12628   -14389   -16214   -18384   -20879 
  -23595   -26426   -28906   -30244   -29830   -27449   -23448   -18898 
  -14872   -11647    -8864    -6079    -3040      299     3704     6604 
    8217     7882     5712     2680     -229    -2410    -3546    -3722 
   -3293    -2561    -1667     -534      958     2666     4160     4845 
    4284     2587      275    -2025    -3660    -4282    -4187    -3987 
   -4213    -5170    -6745    -8291    -9181    -9561   -10065   -11113 
  -12862   -15210   -17745   -20018   -21797   -23246   -24637   -25847 
  -26491   -26194   -24742   -22267   -19119   -15738   -12614   -10098 
   -8384    -7481    -7065    -6717    -6275    -5721    -5076    -4499 
   -4141    -3861    -3422    -2916    -2654    -2784    -3191    -3509 
   -3410    -3040    -2629    -1990     -989      155     1113     1473 
    1024      145     -687    -1551    -2727    -4122    -5444    -6492 
   -7064    -6928    -5996    -4393    -2701    -1896    -2462    -4013 
   -5953    -7916    -9678   -11068   -11941   -12171   -11655   -10275 
   -7973    -4908    -1616      949     2097     2216     2135     1917 
    1135     -255    -2017    -3925    -5855    -8019   -10647   -13567 
  -16489   -19199   -21394   -22756   -23199   -22820   -21751   -20136 
  -18051   -15592   -13041   -10852    -9542    -9161    -9094    -8883 
   -8612    -8413    -8228    -8035    -7855    -7551    -6918    -5873 
   -4385    -2716    -1437     -758     -629    -1216    -2427    -3734 
   -4754    -5392    -5687    -5823    -5978    -6109    -6016    -5751 
   -5659    -5663    -5142    -3849    -2055      109     2520     4717 
    6322     7267     7543     7294     6811     6067     4863     3334 
    1697       34    -1342    -2048    -2160    -1942    -1366     -532 
     119      476      754      853      564      -63    -1154    -2991 
   -5344    -7781   -10342   -12838   -14434   -14779   -14390   -13721 
  -12914   -12047   -10983    -9559    -7941    -6361    -4810    -3395 
   -2607    -2709    -3421    -4663    -6695    -9582   -13315   -17794 
  -22283   -25833   -28176   -29346   -29066   -27278   -24501   -21206 
  -17705   -14464   -11597    -8849    -6548    -5178    -4463    -4032 
   -4043    -4682    -5761    -7053    -8368    -9136    -8848    -7617 
   -5534    -2771     -310     1067     1749     2200     2207     1637 
     550    -1341    -4194    -7647   -11546   -15925   -20218   -23805 
  -26831   -29445   -31160   -31511   -30377   -27676   -23548   -18643 
  -13739    -9361    -5992    -3768    -2015     -174     1658     3617 
    6054     8840    11577    13680    14315    13073    10359     6719 
    2384    -2190    -6248    -9536   -12281   -14357   -15537   -16237 
  -16987   -17797   -18734   -19854   -20472   -20016   -18911   -17460 
  -15269   -12391    -9534    -6945    -4474    -2401     -842      807 
    3001     5718     9019    12853    16627    19703    21802    22616 
   21931    19969    16765    12076     6297      154    -6127   -12132 
  -16901   -19917   -21269   -21082   -19737   -18098   -16808   -15796 
  -14844   -13921   -12908   -11780   -10691    -9697    -8820    -8268 
   -8342    -8966    -9783   -10816   -12015   -12512   -11457    -8887 
   -5207     -862     3456     7186    10122    11892    12128    11101 
    9218     6435     2849    -1142    -5292    -9177   -12177   -14187 
  -15466   -16081   -16246   -16581   -17315   -17794   -17357   -16110 
  -14643   -13594   -13398   -13998   -15040   -16429   -18089   -19389 
  -19683   -19138   -18288   -17344   -16457   -15915   -15855   -16361 
  -17439   -18505   -18795   -18326   -17428   -15940   -13788   -11365 
   -8850    -6317    -4283    -3079    -2333    -1709    -1259    -1015 
    -997    -1269    -1742    -2380    -3231    -3946    -3994    -3204 
   -1621      634     3171     5441     7109     8208     8995     9728 
   10553    11360    11612    10792     9061     6856     4404     2110 
     490     -281     -284      278     1087     1796     2096     1773 
     697    -1124    -3454    -6055    -8781   -11250   -13092   -14419 
  -15312   -15442   -14697   -13307   -11282    -8549    -5409    -2309 
     334     2148     3201     3922     4437     4526     4111     3362 
    2333      916     -735    -2162    -3133    -3903    -4807    -6026 
   -7646    -9376   -10726   -11663   -12426   -13130   -13844   -14480 
  -14780   -14769   -14817   -15177   -15760   -16404   -17041   -17519 
  -17686   -17572   -17177   -16602   -16419   -17072   -18294   -19706 
  -21035   -21677   -21173   -19851   -18381   -17233   -16735   -16952 
  -17443   -17691   -17579   -17122   -16330   -15416   -14525   -13541 
  -12495   -11718   -11469   -11800   -12750   -14304   -16204   -18124 
  -19829   -21041   -21568   -21511   -21018   -20066   -18608   -16687 
  -14478   -12243   -10125    -7982    -5488    -2545      677     4148 
    7849    11593    15301    18912    22174    24812    26639    27435 
   26984    25446    23235    20448    17104    13513     9892     6308 
    2870     -426    -3662    -6886   -10176   -13636   -17299   -20888 
  -23767   -25497   -26168   -25976   -24974   -23275   -20930   -17857 
  -14297   -10888    -7994    -5607    -3894    -3112    -3180    -3762 
   -4411    -4701    -4537    -3996    -2964    -1451      255     2048 
    3980     5888     7564     8969     9752     9188     6969     3395 
   -1060    -5986   -11041   -15912   -20484   -24763   -28385   -30824 
  -32052   -32256   -31456   -29889   -27855   -25388   -22624   -19682 
  -16432   -12892    -9242    -5347     -931     3829     8603    13287 
   17510    20744    22889    24066    24345    23781    22387    20227 
   17492    14500    11865     9985     8563     7600     7507     8100 
    9202    10952    12880    14173    14391    13280    10516     5837 
    -661    -8447   -16825   -25046   -32406   -38464   -43018   -46099 
  -47905   -48469   -47731   -45887   -43282   -40259   -37287   -34670 
  -32146   -29312   -26344   -23877   -22216   -21048   -19957   -18748 
  -17161   -14802   -11628    -8082    -4695    -1896      100     1353 
    1931     1922     1625     1112     -114    -2323    -4962    -7365 
   -9271   -10542   -11201   -11609   -12217   -13260   -14702   -16208 
  -17280   -17670   -17493   -16951   -16101   -14837   -13156   -11168 
   -8925    -6579    -4258    -1776      933     3571     5874     7681 
    8932     9735    10144    10072     9409     8268     7019     5847 
    4632     3221     1586      -84    -1489    -2611    -3753    -4993 
   -6097    -7126    -8345    -9711   -11198   -13170   -15770   -18618 
  -21480   -24316   -26820   -28730   -29977   -30394   -29757   -27832 
  -24460   -19805   -14195    -7951    -1450     4991    10980    15938 
   19467    21483    22052    21412    19949    17878    15238    12363 
    9779     7710     6383     6223     7380     9663    12756    16144 
   19265    21835    23686    24620    24611    23641    21437    17836 
   13118     7731     2067    -3329    -7811   -11117   -13338   -14530 
  -14805   -14426   -13382   -11424    -8736    -6056    -4034    -3059 
   -3438    -4937    -6840    -8895   -11039   -12835   -14229   -15552 
  -16586   -16845   -16185   -14596   -12228    -9629    -7579    -6624 
   -6764    -7841    -9840   -12566   -15937   -20195   -25283   -30949 
  -37033   -42892   -47482   -50274   -51202   -50110   -47223   -43237 
  -38367   -32587   -26547   -21078   -16499   -12902   -10494    -9229 
   -8566    -8186    -8043    -7922    -8007    -8753   -10083   -11777 
  -13847   -15921   -17383   -18337   -19290   -20248   -21094   -22065 
  -22983   -23190   -22592   -21476   -19564   -16371   -12028    -7097 
   -2181     2114     5662     8932    11939    14092    15446    16610 
   17663    18687    20235    22243    23961    25060    25418    24804 
   23552    22434    21643    20713    19472    18053    16027    12811 
    8578     3836    -1001    -5490    -9615   -13909   -18472   -22723 
  -26383   -29568   -31831   -32513   -31739   -29896   -27259   -24479 
  -21985   -19476   -16764   -14090   -11469    -8818    -6400    -4265 
   -2018      367     2455     4233     5959     7383     8174     8384 
    7889     6513     4807     3559     2757     1939      950     -275 
   -1880    -3991    -6830   -10385   -14002   -16964   -19131   -20487 
  -20746   -20055   -19156   -18218   -16698   -14571   -12257    -9770 
   -7130    -4732    -2671     -742      988     2529     4184     5821 
    6906     7421     7587     7055     5555     3406      840    -1878 
   -4159    -5874    -7360    -8628    -9488   -10100   -10701   -11238 
  -11838   -12930   -14681   -17019   -19930   -23226   -26323   -28735 
  -30424   -31253   -30941   -29649   -27642   -24798   -21053   -16622 
  -11497    -5699      196     5645    10462    14202    16445    17472 
   17539    16295    13703    10256     6149     1588    -2700    -6162 
   -8954   -11451   -13652   -15418   -16862   -17978   -18534   -18450 
  -17692   -16383   -15149   -14572   -14653   -15316   -16588   -17988 
  -18795   -18860   -18309   -17051   -15164   -12985   -10713    -8661 
   -7459    -7355    -8028    -9213   -10703   -11942   -12399   -12138 
  -11432   -10250    -8673    -6979    -5132    -3069     -938     1401 
    4123     6897     9434    11890    14253    16201    17683    18759 
   19101    18457    17082    15200    12891    10494     8336     6406 
    4676     3185     1790      400     -824    -1950    -3435    -5452 
   -7579    -9387   -10827   -11883   -12443   -12591   -12463   -11975 
  -11168   -10200    -8972    -7606    -6600    -6041    -5688    -5606 
   -5888    -6353    -6939    -7684    -8380    -8901    -9379    -9855 
  -10336   -10984   -11916   -13068   -14348   -15721   -17074   -18170 
  -18886   -19351   -19612   -19512   -19006   -18038   -16479   -14488 
  -12366   -10281    -8452    -7125    -6269    -5591    -4887    -4105 
   -3187    -2151    -1121     -275      210      330      262       89 
    -442    -1779    -3997    -6642    -9201   -11234   -12353   -12571 
  -12362   -12215   -12314   -12630   -13091   -13470   -13511   -13278 
  -13030   -12961   -13211   -13751   -14287   -14517   -14345   -13761 
  -12756   -11435    -9921    -8226    -6359    -4339    -2215     -183 
    1468     2363     2193      930    -1318    -4313    -7673   -11149 
  -14517   -17451   -19859   -21807   -23169   -23776   -23671   -22911 
  -21477   -19573   -17543   -15521   -13643   -12232   -11473   -11248 
  -11291   -11319   -11110   -10534    -9567    -8203    -6420    -4386 
   -2451     -737      927     2631     4281     5810     7126     8154 
    9179    10514    12021    13457    14713    15619    15957    15568 
   14416    12634    10349     7592     4440     1163    -1867    -4414 
   -6396    -7830    -8775    -9189    -9017    -8324    -7232    -5966 
   -4776    -3748    -3018    -2829    -3187    -3986    -5272    -6997 
   -9009   -11314   -13914   -16553   -19001   -21172   -22803   -23686 
  -23945   -23674   -22824   -21462   -19709   -17639   -15317   -12792 
  -10268    -8128    -6553    -5413    -4519    -3795    -3214    -2690 
   -2178    -1764    -1464    -1131     -753     -600     -950    -1966 
   -3812    -6439    -9342   -11965   -14082   -15526   -16073   -15841 
  -15270   -14517   -13441   -12047   -10372    -8361    -6150    -4033 
   -2155     -562      607     1264     1546     1605     1417      895 
       5    -1230    -2690    -4133    -5344    -6307    -7102    -7819 
   -8641    -9673   -10894   -12326   -13921   -15468   -16785   -17787 
  -18294   -18140   -17407   -16138   -14266   -12026    -9700    -7215 
   -4603    -2208     -182     1573     2971     3869     4425     4872 
    5245     5546     5788     5925     6015     6315     6890     7416 
    7702     7854     7780     7240     6191     4630     2545      134 
   -2301    -4562    -6520    -8090    -9348   -10555   -11863   -13183 
  -14409   -15432   -16092   -16511   -17003   -17506   -17860   -18282 
  -18909   -19644   -20495   -21455   -22434   -23466   -24652   -25867 
  -26705   -26880   -26442   -25497   -24149   -22688   -21306   -19872 
  -18285   -16623   -14944   -13324   -11929   -10750    -9450    -7782 
   -5793    -3477     -917     1472     3443     5079     6378     7422 
    8556     9786    10730    11278    11458    11066    10072     8675 
    6895     4650     1919    -1253    -4689    -8056   -10929   -12948 
  -13985   -14072   -13301   -11993   -10507    -8851    -6978    -4975 
   -2719     -101     2517     4799     6837     8577     9786    10544 
   10820    10295     9118     7753     6233     4529     2967     1632 
     191    -1452    -3129    -4836    -6494    -7831    -8844    -9747 
  -10618   -11562   -12779   -14176   -15404   -16349   -17166   -17917 
  -18519   -18968   -19295   -19363   -19143   -18801   -18156   -16989 
  -15678   -14517   -13277   -11908   -10619    -9378    -8248    -7657 
   -7694    -7987    -8380    -8881    -9279    -9413    -9398    -9241 
   -8847    -8429    -8134    -7824    -7651    -7934    -8550    -9192 
   -9899   -10777   -11605   -12264   -12926   -13471   -13577   -13259 
