Origin Time       2025/01/13 21:19:00
Lat.              31.8
Long.             131.6
Depth. (km)       30
Mag.              6.9
Station Code      KGS007
Station Lat.      31.8143
Station Long.     130.3032
Station Height(m) 4
Record Time       2025/01/13 21:20:00
Sampling Freq(Hz) 100Hz
Duration Time(s)  120
Dir.              U-D
Scale Factor      3920(gal)/6182761
Max. Acc. (gal)   4.928
Last Correction   2025/01/13 21:20:00
Memo.             
[...]
  -22956   -22854   -22726   -22715   -22869   -23218   -23781   -24534 
  -25380   -26130   -26663   -27070   -27511   -28038   -28573   -29022 
  -29351   -29543   -29603   -29587   -29524   -29374   -29089   -28680 
  -28212   -27762   -27330   -26820   -26181   -25453   -24672   -23860 
  -23071   -22337   -21640   -20990   -20462   -20101   -19846   -19626 
  -19427   -19265   -19204   -19283   -19460   -19755   -20233   -20800 
  -21287   -21678   -22045   -22441   -22872   -23306   -23718   -24137 
  -24582   -25009   -25369   -25662   -25897   -26098   -26291   -26471 
  -26610   -26653   -26524   -26142   -25483   -24639   -23786   -23086 
  -22560   -22117   -21725   -21396   -21116   -20872   -20688   -20634 
  -20801   -21196   -21674   -22063   -22323   -22509   -22659   -22841 
  -23195   -23721   -24196   -24435   -24481   -24466   -24494   -24628 
  -24817   -24963   -25058   -25130   -25158   -25144   -25147   -25181 
  -25165   -25034   -24818   -24617   -24499   -24465   -24503   -24623 
  -24808   -24994   -25139   -25255   -25347   -25381   -25315   -25152 
  -24978   -24851   -24733   -24598   -24459   -24332   -24217   -24097 
  -23997   -23958   -23938   -23854   -23648   -23351   -23103   -22955 
  -22826   -22714   -22694   -22749   -22834   -22974   -23135   -23179 
  -23055   -22846   -22642   -22472   -22323   -22150   -21947   -21785 
  -21674   -21506   -21210   -20836   -20467   -20170   -19998   -19937 
  -19902   -19861   -19880   -20032   -20358   -20870   -21529   -22230 
  -22904   -23561   -24186   -24694   -25020   -25188   -25267   -25305 
  -25342   -25446   -25659   -25936   -26151   -26212   -26177   -26193 
  -26307   -26422   -26455   -26451   -26504   -26627   -26731   -26703 
  -26558   -26418   -26316   -26210   -26095   -25979   -25856   -25736 
  -25619   -25445   -25148   -24765   -24398   -24128   -24024   -24069 
  -24123   -24084   -23985   -23881   -23793   -23726   -23665   -23587 
  -23452   -23252   -23072   -22989   -23021   -23200   -23535   -23949 
  -24297   -24450   -24422   -24276   -24015   -23669   -23334   -23102 
  -22974   -22885   -22782   -22689   -22673   -22727   -22783   -22795 
  -22756   -22709   -22673   -22615   -22491   -22320   -22212   -22221 
  -22242   -22150   -21942   -21698   -21460   -21242   -21106   -21091 
  -21157   -21232   -21249   -21227   -21246   -21261   -21205   -21200 
  -21370   -21678   -22106   -22642   -23183   -23685   -24148   -24505 
  -24705   -24752   -24729   -24743   -24801   -24857   -24885   -24844 
  -24727   -24579   -24437   -24349   -24289   -24107   -23738   -23241 
  -22700   -22196   -21761   -21391   -21101   -20925   -20861   -20856 
  -20890   -21024   -21318   -21722   -22139   -22555   -23002   -23440 
  -23802   -24057   -24204   -24260   -24253   -24178   -24042   -23924 
  -23902   -23960   -24075   -24266   -24550   -24913   -25282   -25557 
  -25744   -25976   -26326   -26743   -27186   -27654   -28139   -28636 
  -29113   -29486   -29691   -29776   -29826   -29807   -29627   -29303 
  -28924   -28544   -28168   -27797   -27407   -26942   -26377   -25727 
  -25076   -24553   -24201   -23964   -23757   -23569   -23455   -23348 
  -23125   -22815   -22536   -22336   -22164   -22004   -21906   -21854 
  -21836   -21894   -22001   -22115   -22226   -22330   -22440   -22504 
  -22459   -22379   -22360   -22369   -22347   -22279   -22185   -22103 
  -22000   -21833   -21660   -21537   -21487   -21531   -21654   -21828 
  -22021   -22169   -22208   -22130   -21968   -21794   -21671   -21597 
  -21508   -21390   -21293   -21236   -21179   -21099   -21013   -20918 
  -20806   -20756   -20866   -21094   -21336   -21548   -21715   -21881 
  -22133   -22473   -22871   -23360   -23942   -24562   -25166   -25690 
  -26086   -26368   -26600   -26863   -27174   -27475   -27718   -27877 
  -27911   -27805   -27658   -27604   -27635   -27677   -27742   -27827 
  -27900   -27974   -28028   -28021   -28003   -28018   -28036   -28039 
  -28021   -27961   -27844   -27630   -27234   -26635   -25919   -25196 
  -24519   -23886   -23250   -22539   -21778   -21045   -20380   -19805 
  -19309   -18873   -18568   -18494   -18677   -19048   -19512   -20006 
  -20498   -20981   -21469   -21958   -22411   -22796   -23107   -23365 
  -23608   -23863   -24131   -24409   -24724   -25088   -25453   -25783 
  -26072   -26307   -26474   -26587   -26705   -26857   -26979   -27005 
  -26929   -26763   -26525   -26226   -25869   -25518   -25238   -24951 
  -24565   -24158   -23843   -23582   -23280   -22936   -22595   -22264 
  -21946   -21699   -21581   -21546   -21492   -21406   -21408   -21592 
  -21915   -22291   -22677   -23050   -23394   -23649   -23745   -23705 
  -23609   -23497   -23427   -23488   -23709   -24032   -24378   -24662 
  -24818   -24861   -24845   -24830   -24864   -24894   -24832   -24650 
  -24378   -24133   -24009   -23942   -23840   -23702   -23575   -23482 
  -23372   -23189   -22971   -22785   -22662   -22581   -22500   -22413 
  -22336   -22281   -22247   -22213   -22183   -22156   -22134   -22164 
  -22300   -22518   -22744   -22907   -22983   -23021   -23101   -23244 
  -23402   -23578   -23866   -24303   -24816   -25329   -25767   -26062 
  -26189   -26151   -25981   -25757   -25535   -25296   -24986   -24584 
  -24091   -23493   -22815   -22118   -21443   -20842   -20416   -20233 
  -20229   -20281   -20339   -20430   -20594   -20805   -20965   -21061 
  -21224   -21569   -22060   -22546   -22898   -23118   -23297   -23503 
  -23727   -23924   -24062   -24107   -24035   -23875   -23692   -23511 
  -23320   -23138   -22977   -22851   -22786   -22770   -22775   -22826 
  -22934   -23051   -23128   -23154   -23162   -23222   -23406   -23724 
  -24093   -24395   -24602   -24744   -24837   -24892   -24933   -24982 
  -25046   -25111   -25151   -25155   -25153   -25185   -25280   -25428 
  -25546   -25556   -25500   -25458   -25442   -25449   -25510   -25622 
  -25742   -25845   -25904   -25902   -25827   -25596   -25157   -24608 
  -24070   -23563   -23047   -22493   -21967   -21577   -21332   -21173 
  -21057   -20940   -20777   -20575   -20401   -20285   -20176   -20056 
  -20000   -20064   -20259   -20561   -20900   -21257   -21661   -22092 
  -22523   -22991   -23516   -24034   -24459   -24821   -25196   -25564 
  -25930   -26334   -26747   -27181   -27644   -28042   -28316   -28518 
  -28715   -28888   -28961   -28895   -28704   -28383   -27904   -27295 
  -26668   -26125   -25664   -25200   -24696   -24241   -23940   -23761 
  -23594   -23379   -23113   -22828   -22559   -22309   -22107   -22005 
  -21993   -22032   -22094   -22147   -22185   -22241   -22332   -22452 
  -22602   -22780   -22943   -23061   -23165   -23283   -23369   -23380 
  -23346   -23336   -23377   -23429   -23472   -23538   -23630   -23688 
  -23669   -23579   -23449   -23325   -23226   -23100   -22898   -22637 
  -22352   -22068   -21819   -21634   -21533   -21531   -21586   -21631 
  -21670   -21749   -21876   -22066   -22342   -22676   -23003   -23255 
  -23385   -23422   -23402   -23307   -23157   -23052   -23065   -23146 
  -23184   -23134   -23059   -23038   -23079   -23161   -23273   -23403 
  -23585   -23873   -24222   -24546   -24841   -25144   -25433   -25660 
  -25850   -26106   -26507   -27021   -27554   -28044   -28492   -28923 
  -29306   -29576   -29720   -29789   -29842   -29884   -29873   -29756 
  -29492   -29099   -28645   -28157   -27644   -27138   -26644   -26133 
  -25609   -25096   -24612   -24182   -23782   -23360   -22951   -22645 
  -22481   -22393   -22338   -22388   -22538   -22692   -22877   -23132 
  -23365   -23516   -23612   -23669   -23690   -23715   -23800   -23919 
  -23984   -24019   -24127   -24273   -24360   -24363   -24285   -24182 
  -24105   -24032   -23916   -23731   -23512   -23314   -23143   -22964 
  -22722   -22433   -22151   -21885   -21660   -21519   -21466   -21484 
  -21553   -21641   -21725   -21831   -21985   -22159   -22347   -22571 
  -22810   -23034   -23257   -23523   -23854   -24193   -24446   -24616 
  -24752   -24838   -24870   -24867   -24779   -24557   -24225   -23843 
  -23469   -23117   -22805   -22566   -22401   -22267   -22146   -22077 
  -22114   -22248   -22416   -22619   -22888   -23125   -23218   -23213 
  -23180   -23152   -23171   -23171   -23054   -22886   -22747   -22583 
  -22377   -22178   -21989   -21831   -21721   -21597   -21454   -21370 
  -21336   -21307   -21348   -21534   -21814   -22114   -22403   -22679 
  -23025   -23440   -23743   -23835   -23802   -23767   -23757   -23717 
  -23640   -23558   -23484   -23428   -23424   -23505   -23656   -23832 
  -23981   -24070   -24128   -24187   -24208   -24157   -24112   -24184 
  -24340   -24459   -24501   -24509   -24497   -24408   -24243   -24102 
  -24050   -24070   -24125   -24216   -24338   -24430   -24458   -24461 
  -24479   -24536   -24650   -24827   -25044   -25264   -25475   -25672 
  -25843   -25979   -26037   -25957   -25738   -25434   -25079   -24660 
  -24177   -23676   -23208   -22788   -22423   -22121   -21870   -21663 
  -21511   -21405   -21331   -21257   -21129   -20992   -20901   -20849 
  -20854   -20912   -21001   -21158   -21397   -21681   -21952   -22176 
  -22412   -22753   -23182   -23606   -23979   -24312   -24591   -24775 
  -24856   -24880   -24885   -24864   -24779   -24628   -24479   -24349 
  -24172   -23907   -23595   -23305   -23058   -22844   -22663   -22497 
  -22317   -22147   -22032   -21973   -21951   -21957   -21962   -21941 
  -21924   -21974   -22112   -22300   -22456   -22551   -22655   -22813 
  -22970   -23105   -23295   -23623   -24109   -24708   -25355   -25989 
  -26561   -27052   -27438   -27701   -27905   -28090   -28212   -28300 
  -28432   -28600   -28767   -28924   -29061   -29190   -29299   -29355 
  -29367   -29393   -29487   -29641   -29824   -29986   -30025   -29894 
  -29659   -29366   -29005   -28567   -28081   -27603   -27138   -26629 
  -26068   -25512   -25020   -24637   -24375   -24198   -24033   -23792 
  -23473   -23147   -22845   -22591   -22442   -22410   -22465   -22573 
  -22704   -22849   -22988   -23071   -23072   -23014   -22950   -22913 
  -22864   -22733   -22513   -22247   -21971   -21700   -21427   -21166 
  -20983   -20910   -20899   -20880   -20842   -20816   -20824   -20886 
  -20991   -21134   -21324   -21514   -21650   -21738   -21786   -21803 
  -21807   -21813   -21836   -21907   -22040   -22211   -22360   -22447 
  -22447   -22318   -22084   -21822   -21557   -21336   -21225   -21215 
  -21280   -21397   -21493   -21520   -21526   -21571   -21663   -21809 
  -22000   -22205   -22421   -22624   -22807   -23021   -23275   -23506 
  -23703   -23921   -24155   -24327   -24413   -24468   -24544   -24666 
  -24827   -24977   -25091   -25209   -25340   -25449   -25514   -25537 
  -25561   -25658   -25850   -26075   -26254   -26369   -26428   -26431 
  -26378   -26287   -26206   -26140   -26066   -25997   -25928   -25821 
  -25670   -25499   -25345   -25209   -25042   -24819   -24539   -24231 
  -23961   -23756   -23612   -23525   -23452   -23362   -23261   -23162 
  -23113   -23170   -23289   -23392   -23477   -23563   -23600   -23546 
  -23449   -23397   -23411   -23458   -23545   -23713   -23939   -24153 
  -24314   -24444   -24555   -24619   -24662   -24742   -24849   -24941 
  -25032   -25159   -25310   -25444   -25512   -25464   -25317   -25136 
  -24934   -24677   -24358   -24004   -23634   -23244   -22841   -22449 
  -22088   -21770   -21486   -21198   -20902   -20639   -20451   -20369 
  -20395   -20498   -20650   -20849   -21095   -21377   -21671   -21947 
  -22204   -22485   -22833   -23249   -23698   -24142   -24560   -24942 
  -25284   -25586   -25812   -25917   -25921   -25896   -25873   -25826 
  -25749   -25683   -25674   -25715   -25762   -25768   -25712   -25627 
  -25559   -25509   -25452   -25386   -25355   -25383   -25412   -25391 
  -25334   -25271   -25192   -25073   -24923   -24759   -24563   -24327 
  -24098   -23922   -23760   -23554   -23329   -23138   -22976   -22809 
  -22631   -22436   -22222   -22010   -21783   -21517   -21221   -20907 
  -20599   -20370   -20290   -20375   -20610   -21014   -21549   -22055 
  -22432   -22743   -23065   -23415   -23784   -24158   -24517   -24835 
  -25119   -25393   -25658   -25878   -26008   -26033   -25960   -25779 
  -25489   -25097   -24624   -24111   -23594   -23082   -22591   -22145 
  -21773   -21485   -21242   -21000   -20748   -20475   -20208   -19995 
  -19830   -19708   -19677   -19740   -19880   -20092   -20355   -20689 
  -21133   -21678   -22293   -22938   -23576   -24193   -24762   -25249 
  -25665   -26022   -26311   -26546   -26760   -26981   -27219   -27443 
  -27605   -27660   -27560   -27304   -26963   -26580   -26152   -25713 
  -25293   -24882   -24487   -24124   -23781   -23439   -23101   -22783 
  -22509   -22311   -22206   -22170   -22158   -22152   -22170   -22206 
  -22237   -22267   -22288   -22275   -22261   -22280   -22336   -22441 
  -22586   -22726   -22828   -22874   -22895   -22951   -23031   -23090 
  -23116   -23104   -23058   -22987   -22899   -22812   -22741   -22697 
  -22689   -22692   -22682   -22658   -22606   -22513   -22424   -22379 
  -22358   -22310   -22245   -22227   -22264   -22312   -22336   -22303 
  -22194   -22057   -21955   -21919   -21957   -22039   -22100   -22115 
  -22122   -22158   -22265   -22488   -22823   -23253   -23787   -24408 
  -25072   -25744   -26407   -27063   -27725   -28393   -29056   -29678 
  -30221   -30683   -31061   -31321   -31462   -31539   -31574   -31541 
  -31439   -31297   -31089   -30784   -30402   -29977   -29521   -29038 
  -28544   -28054   -27526   -26915   -26245   -25567   -24913   -24304 
  -23759   -23282   -22879   -22559   -22326   -22184   -22119   -22090 
  -22073   -22061   -22054   -22055   -22038   -21998   -21980   -22015 
  -22101   -22192   -22260   -22354   -22522   -22744   -22977   -23163 
  -23274   -23343   -23407   -23486   -23582   -23681   -23786   -23922 
  -24092   -24269   -24434   -24563   -24642   -24682   -24676   -24580 
  -24406   -24206   -23983   -23732   -23480   -23218   -22930   -22649 
  -22417   -22266   -22194   -22157   -22115   -22067   -22052   -22071 
  -22078   -22064   -22059   -22066   -22106   -22216   -22370   -22530 
  -22719   -22935   -23142   -23298   -23386   -23443   -23457   -23410 
  -23405   -23491   -23600   -23744   -23960   -24173   -24333   -24473 
  -24596   -24686   -24748   -24774   -24776   -24787   -24805   -24807 
  -24804   -24846   -24940   -25021   -25046   -25068   -25105   -25086 
  -24955   -24760   -24569   -24380   -24204   -24100   -24003   -23830 
  -23634   -23444   -23234   -23039   -22870   -22663   -22369   -22006 
  -21642   -21315   -21048   -20853   -20700   -20550   -20394   -20246 
  -20131   -20054   -19988   -19931   -19883   -19864   -19909   -19962 
  -19970   -19993   -20042   -20067   -20104   -20156   -20181   -20219 
  -20267   -20307   -20388   -20464   -20491   -20528   -20577   -20582 
  -20539   -20462   -20392   -20356   -20335   -20337   -20384   -20478 
  -20603   -20702   -20823   -21048   -21309   -21608   -22034   -22520 
  -22993   -23491   -23970   -24360   -24675   -24933   -25118   -25200 
  -25198   -25185   -25187   -25179   -25151   -25117   -25063   -24965 
  -24854   -24761   -24669   -24592   -24562   -24559   -24592   -24665 
  -24738   -24827   -24978   -25183   -25435   -25710   -25991   -26292 
  -26592   -26863   -27129   -27425   -27722   -27985   -28235   -28477 
  -28700   -28906   -29077   -29222   -29371   -29529   -29681   -29807 
  -29933   -30075   -30208   -30289   -30290   -30259   -30243   -30200 
  -30111   -30023   -29946   -29815   -29619   -29436   -29252   -28992 
  -28685   -28356   -27930   -27422   -26943   -26493   -25991   -25393 
  -24717   -24048   -23437   -22872   -22390   -22042   -21801   -21602 
  -21466   -21451   -21493   -21525   -21642   -21864   -22060   -22228 
  -22417   -22550   -22606   -22624   -22600   -22527   -22417   -22298 
  -22210   -22155   -22097   -22028   -21973   -21918   -21848   -21822 
  -21888   -21993   -22103   -22276   -22500   -22712   -22944   -23190 
  -23366   -23454   -23465   -23411   -23349   -23278   -23152   -22981 
  -22789   -22566   -22335   -22153   -22036   -21957   -21895   -21849 
  -21840   -21856   -21847   -21806   -21790   -21812   -21826   -21834 
  -21870   -21902   -21884   -21840   -21773   -21654   -21519   -21409 
  -21291   -21161   -21064   -21003   -20966   -20975   -21039   -21153 
  -21324   -21564   -21897   -22334   -22837   -23359   -23867   -24365 
  -24861   -25354   -25871   -26395   -26884   -27351   -27782   -28109 
  -28326   -28478   -28595   -28667   -28654   -28543   -28382   -28226 
  -28057   -27836   -27583   -27320   -27053   -26789   -26508   -26214 
  -25946   -25710   -25518   -25395   -25295   -25176   -25065   -24955 
  -24828   -24702   -24594   -24486   -24332   -24126   -23920   -23732 
  -23556   -23415   -23318   -23216   -23065   -22909   -22786   -22673 
  -22572   -22487   -22376   -22228   -22089   -21942   -21734   -21507 
  -21312   -21141   -20957   -20729   -20480   -20236   -19996   -19777 
  -19598   -19468   -19405   -19403   -19424   -19455   -19518   -19640 
  -19848   -20131   -20439   -20763   -21095   -21420   -21751   -22075 
  -22338   -22515   -22648   -22781   -22912   -23064   -23263   -23461 
  -23618   -23753   -23871   -23974   -24074   -24177   -24333   -24574 
  -24836   -25120   -25483   -25881   -26255   -26625   -26996   -27342 
  -27638   -27844   -27958   -28028   -28033   -27928   -27740   -27507 
  -27223   -26887   -26503   -26055   -25568   -25073   -24547   -24013 
  -23525   -23071   -22646   -22266   -21928   -21673   -21520   -21395 
  -21248   -21092   -20964   -20924   -20982   -21112   -21310   -21557 
  -21813   -22072   -22351   -22661   -23002   -23346   -23661   -23962 
  -24242   -24462   -24609   -24693   -24685   -24590   -24479   -24344 
  -24138   -23903   -23673   -23439   -23195   -22952   -22732   -22534 
  -22346   -22184   -22087   -22066   -22092   -22136   -22206   -22298 
  -22372   -22410   -22443   -22516   -22627   -22745   -22850   -22939 
  -22982   -22938   -22834   -22702   -22508   -22230   -21891   -21512 
  -21109   -20712   -20366   -20077   -19838   -19659   -19544   -19507 
  -19568   -19731   -20007   -20382   -20824   -21347   -21945   -22548 
  -23112   -23659   -24230   -24840   -25465   -26061   -26598   -27059 
  -27453   -27788   -28056   -28290   -28487   -28583   -28608   -28603 
  -28516   -28349   -28156   -27963   -27792   -27642   -27507   -27378 
  -27215   -27018   -26830   -26665   -26491   -26300   -26115   -25945 
  -25787   -25631   -25471   -25293   -25072   -24828   -24594   -24362 
  -24142   -23947   -23751   -23551   -23364   -23176   -22965   -22740 
  -22525   -22336   -22155   -21967   -21787   -21629   -21488   -21371 
  -21284   -21209   -21161   -21187   -21278   -21394   -21546   -21771 
  -22062   -22393   -22763   -23164   -23568   -23960   -24306   -24577 
  -24802   -25012   -25202   -25358   -25464   -25522   -25574   -25650 
  -25731   -25775   -25761   -25696   -25585   -25427   -25262   -25104 
  -24897   -24631   -24330   -24007   -23689   -23380   -23094   -22866 
  -22673   -22487   -22317   -22158   -21993   -21842   -21726   -21619 
