Origin Time       2025/01/13 21:19:00
Lat.              31.8
Long.             131.6
Depth. (km)       30
Mag.              6.9
Station Code      KGS009
Station Lat.      31.7368
Station Long.     130.7613
Station Height(m) 4
Record Time       2025/01/13 21:19:46
Sampling Freq(Hz) 100Hz
Duration Time(s)  191
Dir.              U-D
Scale Factor      3920(gal)/6182761
Max. Acc. (gal)   12.700
Last Correction   2025/01/13 21:19:46
Memo.             
[...]
  -14849   -16187   -17668   -19558   -20544   -19333   -17490   -17048 
  -17115   -15883   -13840   -12808   -13341   -14295   -14214   -12891 
  -11723   -12293   -14869   -18004   -19397   -18513   -17701   -18984 
  -21511   -23562   -24672   -24831   -23925   -22709   -22435   -22979 
  -22888   -21481   -19437   -17641   -16659   -16439   -15929   -14085 
  -11359    -9326    -8822    -9176    -9720   -10651   -11802   -12500 
  -12526   -11918   -10730    -9389    -8630    -8793    -9167    -8793 
   -7941    -7524    -7570    -7744    -8245    -9048    -9689   -10244 
  -11416   -13733   -16744   -19002   -19813   -20095   -20044   -18387 
  -15243   -12852   -13017   -15390   -17877   -18560   -17471   -16049 
  -15229   -14877   -14749   -14807   -14557   -13558   -12899   -14032 
  -16130   -17452   -18057   -18548   -18897   -19553   -20636   -20974 
  -20083   -19083   -18664   -18270   -17477   -16298   -14745   -13617 
  -13847   -14440   -13942   -12995   -12681   -12889   -13785   -15772 
  -18021   -19534   -20569   -21348   -21046   -19295   -17316   -16723 
  -17893   -19717   -20783   -20704   -20258   -20282   -20620   -20638 
  -20669   -21670   -23507   -24958   -25252   -24646   -23555   -22177 
  -21526   -22915   -25569   -27185   -26738   -24900   -23026   -22310 
  -22537   -22085   -20052   -17432   -15453   -13930   -12238   -10678 
  -10096   -10861   -12350   -13610   -14630   -16035   -17627   -18414 
  -17855   -16374   -14739   -13374   -12317   -11010    -8379    -4432 
    -948      379     -493    -2327    -4026    -5558    -7147    -8245 
   -8179    -7386    -6960    -6741    -5660    -4308    -4548    -6651 
   -9038   -10446   -10954   -11123   -11080   -10440    -8848    -6819 
   -5567    -5759    -6800    -7514    -7903    -9039   -10724   -11904 
  -12665   -13177   -12970   -12400   -12305   -12722   -13345   -13923 
  -13981   -13321   -12382   -11538   -10809   -10517   -11208   -12709 
  -14214   -15039   -15045   -14932   -15423   -16063   -16066   -15624 
  -15394   -15456   -15466   -15484   -15871   -16332   -16017   -14938 
  -14093   -13770   -13083   -11506    -9874    -9500   -10554   -11855 
  -12516   -12905   -13540   -14081   -14071   -13953   -14426   -15470 
  -17055   -19355   -21549   -22527   -22709   -22938   -22590   -20791 
  -18308   -16671   -16178   -15968   -15656   -15650   -16133   -16879 
  -17877   -19133   -19943   -19707   -19103   -18934   -18785   -18056 
  -17224   -17354   -18586   -19569   -19208   -18210   -17555   -17042 
  -16608   -17006   -18303   -19353   -19207   -18234   -17391   -17077 
  -17383   -18310   -19168   -19112   -18335   -17579   -17047   -16621 
  -16315   -16020   -15411   -14290   -12899   -11740   -11049   -10629 
  -10060    -9228    -8771    -9353   -10698   -12228   -13671   -14568 
  -14821   -15129   -15540   -15243   -14090   -12711   -11759   -11618 
  -11953   -11874   -10927    -9567    -8610    -8011    -6939    -5616 
   -5176    -5653    -6403    -7578    -9414   -11560   -13583   -15068 
  -16076   -17475   -19420   -20763   -21063   -21251   -21916   -22707 
  -23416   -24269   -25224   -25878   -25980   -25675   -25217   -24695 
  -24118   -23377   -22332   -21374   -21143   -21433   -21280   -20196 
  -18634   -17349   -16659   -16115   -15001   -13266   -11468   -10039 
   -9218    -9131    -9516    -9969   -10397   -10636   -10166    -8806 
   -7036    -5372    -4291    -4277    -4982    -5505    -5623    -5676 
   -5979    -6732    -7873    -9226   -10825   -12460   -13320   -13064 
  -12433   -12113   -12259   -12997   -14142   -15180   -15973   -16582 
  -16910   -17266   -18030   -18740   -19063   -19631   -20702   -21641 
  -22204   -22800   -23508   -24025   -24367   -24805   -25307   -25485 
  -25070   -24181   -22903   -21034   -18573   -15987   -13825   -12319 
  -11260   -10275    -9305    -8530    -8019    -7895    -8347    -9128 
   -9638    -9613    -9247    -8772    -8578    -9241   -10410   -10773 
  -10090    -9508    -9363    -8745    -7424    -6318    -5997    -6271 
   -7016    -8187    -9593   -11115   -12470   -13255   -13566   -13662 
  -13414   -12752   -11868   -10719    -9150    -7529    -6562    -6628 
   -7431    -8155    -8373    -8671    -9773   -11495   -13111   -14445 
  -15997   -17946   -19599   -20292   -20228   -19902   -19545   -19474 
  -20028   -20859   -21172   -20806   -20325   -20188   -20339   -20323 
  -19903   -19650   -20125   -20937   -21463   -21683   -21651   -21100 
  -20130   -19317   -18977   -18962   -18723   -17734   -16395   -15535 
  -15375   -15914   -17093   -18150   -18155   -17271   -16613   -16835 
  -17641   -18496   -18902   -18584   -17998   -17841   -18145   -18668 
  -19516   -20435   -20432   -19170   -17562   -16319   -15506   -15333 
  -15765   -16158   -16290   -16667   -17379   -17879   -18004   -17963 
  -17559   -16482   -14844   -13097   -11929   -11729   -12059   -12379 
  -12849   -13789   -14890   -15492   -15515   -15504   -15647   -15618 
  -15532   -15899   -16542   -16759   -16331   -15569   -14895   -14748 
  -15396   -16624   -17857   -18706   -19134   -19098   -18559   -17844 
  -17354   -16945   -16100   -14700   -13212   -12074   -11345   -11109 
  -11529   -12250   -12728   -13236   -14393   -15891   -16840   -16845 
  -16134   -15340   -14847   -14115   -12651   -10910    -9365    -8166 
   -7611    -7502    -7145    -6706    -6960    -7993    -9442   -11081 
  -12480   -13160   -13193   -13014   -12990   -13232   -13334   -12677 
  -11289    -9869    -8859    -8103    -7430    -6976    -6800    -6756 
   -6818    -7098    -7579    -8197    -9093   -10322   -11480   -12074 
  -11976   -11455   -10852   -10181    -9479    -9306   -10019   -11003 
  -11551   -12025   -12975   -13844   -14168   -14670   -15562   -15956 
  -15620   -15123   -14751   -14568   -14532   -14466   -14686   -15786 
  -17456   -18665   -19078   -19255   -19553   -19938   -20651   -21748 
  -22665   -23196   -23622   -23786   -23448   -22846   -22046   -20992 
  -20151   -19566   -18448   -16913   -15963   -15702   -15797   -16272 
  -16743   -16851   -16964   -17083   -16691   -15993   -15583   -15313 
  -14699   -13829   -13187   -13005   -13050   -12916   -12486   -11918 
  -11335   -10910   -10891   -11143   -11122   -10575    -9807    -9005 
   -8050    -7171    -6702    -6425    -6149    -6063    -6074    -5987 
   -6187    -7094    -8505   -10086   -11735   -13281   -14504   -15343 
  -15906   -16363   -16789   -17169   -17323   -16936   -16138   -15656 
  -15899   -16354   -16529   -16734   -17104   -17300   -17802   -19356 
  -21311   -22638   -23394   -23778   -23683   -23357   -23055   -22790 
  -22539   -22033   -21165   -20441   -20212   -20134   -19694   -18836 
  -17934   -17096   -16132   -15266   -14703   -14098   -13516   -13546 
  -13991   -14137   -14021   -13949   -13853   -13754   -13709   -13756 
  -14039   -14392   -14756   -15498   -16329   -16612   -16792   -17649 
  -18919   -19861   -20122   -19670   -18873   -18521   -18967   -19501 
  -19292   -18527   -17818   -17225   -16651   -16316   -16191   -15814 
  -15288   -15444   -16500   -17758   -18811   -19692   -20042   -19602 
  -19093   -19220   -19461   -19112   -18580   -18403   -18225   -17773 
  -17505   -17497   -17029   -15947   -15008   -14473   -13814   -12775 
  -11559   -10444    -9741    -9484    -9227    -8752    -8425    -8412 
   -8361    -8061    -7724    -7681    -7940    -8113    -8083    -8107 
   -8189    -8322    -8878    -9950   -10904   -11116   -10992   -11560 
  -12872   -13822   -13910   -14096   -15300   -16994   -18040   -18058 
  -17440   -16811   -16648   -16800   -16684   -16202   -15802   -15640 
  -15382   -14836   -14027   -12775   -11341   -10662   -10743   -10536 
   -9885    -9725   -10437   -11366   -11918   -12025   -11616   -10908 
  -10640   -11020   -11468   -11796   -12479   -13598   -14598   -15224 
  -15800   -16613   -17589   -18547   -19354   -19718   -19353   -18439 
  -17406   -16419   -15385   -14263   -13331   -12981   -13179   -13566 
  -13940   -14238   -14563   -15188   -16032   -16790   -17524   -18262 
  -18667   -18731   -18911   -19297   -19453   -19276   -19175   -19313 
  -19354   -18969   -18372   -18106   -18196   -18126   -17699   -17131 
  -16406   -15485   -14776   -14483   -14209   -13763   -13351   -12852 
  -11999   -11009   -10322   -10077   -10169   -10527   -11153   -11831 
  -12128   -11874   -11351   -10920   -10578   -10018    -9214    -8548 
   -8264    -8256    -8356    -8507    -8680    -8894    -9232    -9558 
   -9643    -9711   -10150   -10879   -11540   -11980   -12213   -12216 
  -12070   -11991   -11882   -11490   -11114   -11131   -11293   -11235 
  -10877   -10422   -10359   -10801   -11155   -11262   -11705   -12554 
  -13181   -13372   -13431   -13356   -13043   -13092   -14122   -15731 
  -17137   -18026   -18409   -18436   -18321   -18224   -18340   -18712 
  -19080   -19392   -19900   -20549   -21254   -22324   -23688   -24731 
  -25235   -25388   -25377   -25597   -26248   -26846   -26965   -26768 
  -26441   -25826   -24834   -23754   -22824   -21976   -21141   -20381 
  -19833   -19599   -19433   -18898   -17990   -16961   -15678   -14027 
  -12435   -11204    -9983    -8609    -7699    -7627    -7800    -7658 
   -7529    -7910    -8553    -8874    -9023    -9814   -11511   -13313 
  -14440   -15174   -16129   -17261   -18318   -19242   -19904   -20271 
  -20388   -20225   -20044   -20043   -19692   -18662   -17478   -16464 
  -15366   -14266   -13641   -13572   -13701   -13609   -12934   -11647 
  -10032    -8417    -7244    -6572    -5871    -5073    -4655    -4684 
   -5018    -5661    -6254    -6384    -6435    -7137    -8405    -9424 
   -9939   -10592   -11725   -12984   -14159   -15333   -16391   -17242 
  -18125   -19162   -20222   -21110   -21395   -20695   -19347   -18154 
  -17456   -16943   -16541   -16711   -17495   -18230   -18543   -18719 
  -18960   -19080   -18902   -18626   -18719   -19315   -19977   -20344 
  -20563   -20755   -20818   -20872   -20966   -20797   -20461   -20372 
  -20284   -19729   -18907   -18181   -17486   -16671   -15780   -14986 
  -14335   -13669   -13054   -12773   -12791   -12915   -13303   -14146 
  -15168   -16077   -17055   -18097   -18741   -18983   -19261   -19533 
  -19241   -17967   -16021   -14270   -13206   -12612   -11973   -10896 
   -9695    -9255    -9793   -10600   -11104   -11375   -11810   -12685 
  -13819   -14752   -15385   -15999   -16588   -16864   -16870   -16789 
  -16428   -15598   -14624   -13856   -13141   -12290   -11483   -10954 
  -10604   -10005    -9003    -8065    -7582    -7344    -7081    -6859 
   -6791    -6864    -7072    -7497    -8223    -9102    -9924   -10855 
  -12082   -13191   -13733   -13987   -14376   -14811   -15226   -15900 
  -16661   -16782   -16232   -15842   -15833   -15620   -15251   -15331 
  -15692   -15768   -15744   -16105   -16784   -17459   -18077   -18620 
  -18886   -18916   -19043   -19274   -19281   -18974   -18578   -18289 
  -18075   -17760   -17322   -17090   -17412   -18231   -19224   -20112 
  -20732   -21124   -21489   -21998   -22662   -23121   -22970   -22463 
  -22032   -21376   -20053   -18335   -16558   -14630   -12661   -10954 
   -9513    -8331    -7419    -6418    -5049    -3654    -2686    -2148 
   -1891    -2018    -2749    -4057    -5539    -6726    -7441    -7890 
   -8484    -9321   -10035   -10337   -10219    -9780    -9398    -9482 
   -9750    -9560    -8979    -8548    -8175    -7497    -6978    -7250 
   -7968    -8663    -9661   -11220   -13041   -14838   -16512   -17906 
  -18772   -19100   -19130   -18843   -18174   -17499   -17053   -16570 
  -15919   -15344   -15017   -14842   -14650   -14342   -13899   -13584 
  -13801   -14464   -15111   -15479   -15505   -15314   -15190   -15123 
  -14829   -14379   -14257   -14603   -14864   -14571   -14068   -13962 
  -14223   -14271   -13821   -13176   -12655   -12272   -11906   -11367 
  -10599    -9884    -9602    -9896   -10534   -11117   -11540   -11983 
  -12535   -13125   -13606   -13884   -14116   -14402   -14482   -14238 
  -13998   -13925   -13746   -13424   -13369   -13785   -14525   -15351 
  -15959   -16288   -16672   -17293   -17920   -18271   -18345   -18368 
  -18484   -18611   -18608   -18524   -18573   -18927   -19607   -20351 
  -20769   -20881   -20989   -21126   -21104   -20838   -20516   -20324 
  -20042   -19407   -18615   -17982   -17493   -17052   -16949   -17594 
  -18755   -19756   -20512   -21463   -22587   -23363   -23582   -23394 
  -22877   -22102   -21068   -19620   -17964   -16619   -15721   -15031 
  -14328   -13500   -12610   -11817   -11183   -10696   -10379   -10306 
  -10566   -11101   -11665   -12185   -12901   -13916   -15023   -16032 
  -16953   -17959   -19124   -20183   -20924   -21444   -21609   -21188 
  -20516   -20004   -19537   -19026   -18662   -18388   -17993   -17647 
  -17623   -17705   -17399   -16640   -15854   -15326   -15024   -14871 
  -14794   -14895   -15475   -16396   -16988   -16939   -16562   -16278 
  -16366   -16758   -16963   -16744   -16463   -16471   -16748   -17028 
  -17048   -16944   -17166   -17891   -18857   -19693   -20263   -20731 
  -21188   -21401   -21214   -20787   -20264   -19716   -19233   -18857 
  -18636   -18505   -18235   -17754   -17193   -16705   -16325   -15913 
  -15381   -14810   -14231   -13539   -12508   -11004    -9176    -7085 
   -4665    -2232     -237     1338     2740     3912     4597     4811 
    4920     5142     5294     5144     4701     4129     3560     3073 
    2772     2614     2427     2173     1792     1160      371     -417 
   -1333    -2554    -3954    -5277    -6436    -7419    -8124    -8453 
   -8395    -8044    -7691    -7612    -7746    -8008    -8428    -8790 
   -8913    -9200   -10120   -11449   -12875   -14637   -16779   -18908 
  -20947   -23019   -24950   -26660   -28462   -30429   -32060   -32994 
  -33410   -33499   -33206   -32517   -31607   -30662   -29703   -28704 
  -27705   -26718   -25756   -24943   -24348   -23843   -23304   -22849 
  -22660   -22748   -22973   -23236   -23626   -24159   -24582   -24855 
  -25137   -25264   -25102   -24847   -24513   -23976   -23348   -22617 
  -21585   -20319   -18918   -17279   -15519   -14011   -12903   -12129 
  -11771   -11896   -12349   -13148   -14406   -15822   -17082   -18188 
  -19001   -19369   -19458   -19375   -18992   -18244   -17304   -16429 
  -15659   -14835   -13909   -12900   -11796   -10738    -9932    -9381 
   -8951    -8611    -8456    -8515    -8693    -8852    -8871    -8819 
   -8966    -9389    -9841   -10116   -10254   -10340   -10363   -10390 
  -10510   -10606   -10579   -10606   -10855   -11204   -11481   -11763 
  -12096   -12266   -12176   -11975   -11637   -10994   -10167    -9412 
   -8759    -8202    -7850    -7750    -7819    -8037    -8488    -9080 
   -9538    -9809   -10081   -10406   -10613   -10603   -10539   -10542 
  -10513   -10381   -10213   -10071    -9929    -9724    -9427    -9035 
   -8674    -8668    -9212   -10131   -11074   -11785   -12240   -12612 
  -13065   -13668   -14351   -14900   -15148   -15145   -15042   -14867 
  -14548   -14068   -13463   -12807   -12288   -12040   -12012   -12199 
  -12707   -13499   -14379   -15233   -16147   -17248   -18495   -19767 
  -20942   -21858   -22443   -22866   -23317   -23759   -24054   -24181 
  -24325   -24651   -24987   -25064   -24863   -24438   -23820   -23169 
  -22530   -21617   -20315   -19010   -18048   -17416   -17058   -16951 
  -17015   -17289   -17840   -18507   -19141   -19862   -20755   -21653 
  -22445   -23183   -23781   -24027   -23956   -23774   -23444   -22861 
  -22225   -21658   -20990   -20234   -19509   -18716   -17783   -16810 
  -15915   -15128   -14439   -13932   -13598   -13210   -12714   -12268 
  -11840   -11313   -10823   -10499   -10163    -9649    -9119    -8731 
   -8417    -8140    -7918    -7656    -7271    -6903    -6807    -6999 
   -7221    -7327    -7463    -7771    -8217    -8693    -9021    -9120 
   -9233    -9660   -10450   -11472   -12675   -14138   -15731   -17101 
  -18146   -19013   -19781   -20465   -20974   -21182   -21170   -21084 
  -20904   -20546   -20099   -19766   -19444   -18770   -17739   -16708 
  -15821   -14938   -14038   -13311   -12766   -12172   -11484   -10874 
  -10441   -10163    -9875    -9435    -8982    -8716    -8683    -8856 
   -9116    -9373    -9683   -10052   -10467   -10990   -11543   -11934 
  -12151   -12228   -12064   -11729   -11469   -11311   -11127   -10861 
  -10554   -10380   -10368   -10266    -9966    -9662    -9489    -9422 
   -9477    -9632    -9784   -10051   -10672   -11528   -12290   -12912 
  -13478   -13818   -13708   -13304   -13008   -12920   -12768   -12367 
  -11788   -11259   -10989   -10917   -10842   -10790   -10969   -11408 
  -11806   -11963   -12096   -12409   -12768   -13008   -13146   -13179 
  -13052   -12852   -12699   -12590   -12636   -13076   -13804   -14483 
  -15226   -16399   -17872   -19288   -20629   -21926   -23031   -23887 
  -24502   -24836   -24976   -25082   -25141   -25105   -25048   -24917 
  -24584   -24196   -23892   -23492   -22900   -22345   -21929   -21560 
  -21357   -21408   -21447   -21308   -21022   -20561   -20040   -19616 
  -19254   -18903   -18528   -18097   -17691   -17378   -17083   -16792 
  -16652   -16591   -16267   -15533   -14528   -13468   -12521   -11688 
  -10864   -10078    -9511    -9186    -8889    -8557    -8351    -8296 
   -8388    -8741    -9312   -10001   -10825   -11690   -12473   -13226 
  -14027   -14868   -15633   -16202   -16575   -16712   -16540   -16173 
  -15750   -15202   -14421   -13496   -12585   -11605   -10401    -9154 
   -8186    -7558    -7201    -7077    -7103    -7214    -7349    -7322 
   -7012    -6610    -6351    -6232    -6271    -6544    -6916    -7269 
   -7715    -8299    -8914    -9478    -9925   -10292   -10719   -11204 
  -11615   -11927   -12226   -12525   -12842   -13306   -13927   -14556 
  -15145   -15797   -16600   -17487   -18292   -18978   -19647   -20354 
  -21001   -21419   -21718   -22193   -22786   -23306   -23824   -24413 
  -25013   -25516   -25821   -25944   -25928   -25757   -25525   -25444 
  -25605   -25837   -25922   -25931   -25954   -25810   -25446   -25027 
  -24646   -24347   -24167   -24105   -24150   -24244   -24329   -24455 
  -24675   -24936   -25157   -25183   -24912   -24550   -24276   -23934 
  -23405   -22774   -22040   -21131   -20075   -18913   -17652   -16414 
  -15372   -14503   -13646   -12710   -11661   -10509    -9318    -8084 
   -6757    -5430    -4265    -3245    -2266    -1359     -563      149 
     738     1198     1628     2063     2456     2842     3254     3518 
    3570     3611     3621     3411     3015     2498     1961     1357 
     288     -800    -1086    -1239    -1816    -2028    -1860    -1848 
   -1675    -1374    -1337    -1374    -1456    -1758    -2207    -2789 
   -3591    -4529    -5373    -6188    -7319    -8769   -10281   -11762 
  -13189   -14509   -15713   -16771   -17652   -18344   -18824   -19186 
  -19587   -20029   -20487   -20999   -21520   -21972   -22392   -22858 
  -23412   -24075   -24771   -25379   -25905   -26386   -26729   -26890 
  -27029   -27213   -27260   -27097   -26894   -26757   -26665   -26686 
  -26880   -27212   -27678   -28228   -28773   -29326   -29806   -30075 
