Origin Time       2025/01/13 21:19:00
Lat.              31.8
Long.             131.6
Depth. (km)       30
Mag.              6.9
Station Code      KGS015
Station Lat.      31.4308
Station Long.     131.0109
Station Height(m) 34
Record Time       2025/01/13 21:19:47
Sampling Freq(Hz) 100Hz
Duration Time(s)  116
Dir.              N-S
Scale Factor      7845(gal)/8223790
Max. Acc. (gal)   47.436
Last Correction   2025/01/13 21:19:47
Memo.             
[...]
   17722    17788    18709    20615    22945    24700    24709    22551 
   19269    16349    14589    13853    13329    12506    11523    10196 
    8023     5267     2702      962      634     1892     4417     7736 
   11013    13424    15172    17000    18951    20247    19858    17425 
   13813    10154     6976     4522     3213     3534     5266     7342 
    9023    10316    11036    10669     9080     6706     4406     2748 
    1564      730      515      997     2004     3581     5876     8510 
   10698    12019    12357    11569    10017     8473     7048     5385 
    3176      -70    -4264    -8422   -11761   -13914   -14273   -12313 
   -8572    -4430    -1007     1092     1849     1900     1881     2039 
    2166     1642       36    -2335    -4901    -7677   -10485   -12305 
  -12306   -10276    -6070      186     7209    12874    15992    16916 
   16710    16023    14561    11989     8703     5022      553    -4615 
   -8993   -10910    -9848    -6651    -2629     1621     5778     9288 
   11865    13663    15088    16039    15819    13828     9759     4311 
    -476    -2525    -1136     2713     7425    12044    16146    19219 
   20784    20518    18366    14806    10686     6718     3377     1032 
    -441    -1707    -2986    -3766    -3670    -2735    -1067     1038 
    3013     4527     5660     6396     6369     5169     2616     -947 
   -4194    -5809    -5864    -4760    -2295     1707     7452    14986 
   23149    30022    34395    36084    35749    34462    32555    29427 
   24734    18777    11880     4387    -2776    -8059   -10152    -9073 
   -6026    -2328     1289     4826     9055    14820    21847    28653 
   33308    34870    34125    31930    28171    22831    16301     8997 
    1732    -4190    -7784    -8988    -8822    -8502    -7973    -6327 
   -3744    -1645     -646     -201      -74      -17      363      537 
      87     -486     -974    -1333    -1343    -1625    -2884    -4016 
   -3354    -1345      191      348     -417     -976     -720        0 
    1054     3148     6548     9925    11728    11804    10399     7520 
    3811      -51    -3932    -7319    -9568   -10346    -8874    -4808 
     727     6311    10999    14384    16744    18655    20771    23199 
   25319    26912    28250    29212    29691    30146    30634    30456 
   29211    26750    23089    19087    15269    11222     7319     4271 
    1633    -1294    -4332    -6493    -7105    -6863    -6998    -7832 
   -8560    -7979    -5738    -2859     -661      164     -549    -2239 
   -3630    -4044    -3763    -3123    -2586    -2465    -2393    -2263 
   -2258    -2095    -1532     -684      226     1329     3060     5247 
    7349     9339    11699    14700    17428    18577    17872    15310 
   10449     3734    -2675    -5931    -4707     -461     4376     8402 
   11086    12598    13454    13763    13512    12468     9969     6104 
    2056    -1305    -3978    -5829    -6517    -6241    -5242    -3493 
   -1100     1930     5567     9354    13074    17186    22092    27276 
   31347    32930    31152    25972    18486    10384     3218    -1810 
   -4029    -3786    -2085      365     3041     5381     7030     7919 
    8340     8818     9625    10435    10605     9736     7998     6222 
    5360     5363     5138     3975     1992     -294    -2018    -2741 
   -2817    -2593    -2015     -927      654     2597     4866     7619 
   10690    13689    16555    19118    20943    21589    21039    20108 
   19318    18334    17068    16070    15720    15591    14891    13269 
   11326    10409    11326    13583    16085    18274    20229    21659 
   22065    21649    20806    19534    17871    15951    13894    12097 
   10932     9995     8283     5331     1489    -2529    -5663    -7393 
   -8706   -10694   -12807   -13421   -11808    -8610    -4727     -899 
    2316     4760     6751     8953    11732    14469    15560    13867 
    9945     4811     -889    -6222   -10791   -14890   -17976   -19171 
  -18315   -15593   -11727    -8262    -6347    -5800    -5846    -6111 
   -6567    -6955    -7099    -7392    -7970    -8328    -7929    -6377 
   -3817    -1036     1517     3827     5699     6558     5975     4498 
    2852      957    -1561    -4388    -6332    -6770    -6106    -4561 
   -2034     1386     5001     7792     9502    10385    10447     9850 
    8914     7743     6961     7870    11267    16806    23218    29003 
   33141    35395    36386    36742    36086    33712    29658    24267 
   17636    10496     4071    -1051    -4460    -5771    -5063    -2312 
    2320     7727    12371    15310    16321    15383    12891    10111 
    8515     8055     7186     5258     3341     2860     4206     6380 
    8289     9664    10498    10601     9844     8590     7437     6498 
    5610     4893     4482     3823     2243      522      372     2421 
    5940     9783    13223    16231    18762    20383    21286    22276 
   23330    23773    23276    21836    19727    16972    13382     9679 
    7123     6505     7836    10536    14099    18038    21389    22978 
   22389    20580    18639    16282    12830     8679     4745     1445 
   -1084    -2579    -3119    -2979    -1912      120     2284     3400 
    2554     -189    -3850    -7608   -11064   -13830   -15828   -17257 
  -17915   -17760   -17190   -16267   -15010   -13817   -12881   -11826 
  -10447    -8896    -6436    -2365     2205     5760     7770     8154 
    6916     4217      538    -3186    -5634    -6033    -4811    -2683 
    -290     1779     3677     5841     7977     9381     9688     9198 
    8714     8606     8338     7395     6031     5003     5074     6585 
    9560    13761    18153    21605    23557    23549    21851    19552 
   17039    14073    10957     8449     7095     7161     9004    12830 
   18044    23352    27719    31055    33393    34078    32533    28718 
   22939    16078     9232     2978    -2571    -7133   -10165   -11453 
  -10955    -8900    -6319    -4245    -2585     -488     2182     4247 
    4599     3595     2304     1225       12    -2085    -5424    -9494 
  -13093   -15026   -14600   -11631    -6721    -1220     3651     7361 
    9945    11944    13944    16117    18253    19510    18947    16830 
   14571    13547    14193    15858    17631    19186    20719    22169 
   22767    21597    18495    14569    11507    10045     9875    10550 
   11850    13682    15529    16384    15554    12907     8847     4365 
     101    -4212    -8719   -12915   -16263   -18415   -19049   -17837 
  -14654   -10154    -5537    -1620     1578     4415     6720     7811 
    7342     5472     2447    -1609    -6351   -10952   -14733   -17558 
  -19538   -20532   -19770   -16668   -11608    -5451      747     6031 
    9995    12357    12766    11218     7989     3622     -627    -3171 
   -3105     -754     2606     6011     9513    13315    17325    21384 
   25212    28447    30800    32395    33211    32413    29621    25763 
   21907    18459    15506    13031    10960     9347     8365     7935 
    7761     7973     9123    11236    13316    14291    14358    14516 
   15060    15894    17122    18503    19535    19861    19552    19152 
   18700    17687    16029    13941    11615     9146     6397     3388 
     446    -2135    -4108    -4951    -4290    -2651     -916      660 
    2124     3171     3468     3160     2709     2421     2076     1233 
    -344    -2760    -5676    -8143    -9016    -7519    -3929      445 
    4228     7038     9354    11542    13753    15762    16807    16588 
   15412    13320    10444     7545     5217     3491     2347     1711 
    1420     1672     2666     4008     5046     5545     5877     6373 
    6851     7082     6941     6069     4355     2504     1169      321 
     -74       70      715     1786     3045     4352     5942     7965 
   10025    11511    12232    12418    12263    11753    10893     9788 
    8363     6196     3307      893      -63       29      556     1324 
    2223     3273     4441     5262     5166     4252     3184     2613 
    3080     4595     6542     8577    10373    11090    10451     8910 
    6779     4263     1738     -251    -1293    -1443    -1023        2 
    2020     5108     8777    12264    14870    16006    15520    13968 
   11988    10189     9267     9250     9809    10758    11600    11805 
   11213     9768     7469     4477     1247    -1324    -2069     -247 
    3990     9603    15250    20054    23739    26379    27857    27652 
   25362    21000    14998     8276     1753    -4244    -9580   -14067 
  -17709   -20344   -21621   -21465   -20059   -17610   -14497   -11452 
   -9049    -7456    -6589    -5800    -4645    -3464    -2203     -421 
    1845     4568     7862    11361    14359    16298    16775    15691 
   13428    10278     6575     3075      -54    -3064    -5656    -7381 
   -7599    -5571    -1421     3987     9751    14831    18075    19144 
   18689    17323    15168    12191     8679     5219     2403      762 
     646     2107     4731     7607     9925    11404    12059    11975 
   11256     9922     7839     4942     1586    -1152    -2146    -1536 
    -132     1819     4329     7396    11099    15007    18173    19923 
   19768    17377    13481     9562     6610     4835     4145     4665 
    6642     9931    13998    18115    21683    24410    26173    27197 
   28007    28780    29056    28235    26295    23793    21223    18566 
   15669    12622     9478     6396     4008     3042     3636     5171 
    6910     8487     9788    10675    11152    11665    12633    13946 
   15041    15678    16461    17799    19314    20428    20791    20484 
   19664    18258    16186    13502    10349     6623     2355    -1900 
   -5819    -9246   -11781   -13336   -14058   -13922   -13096   -11631 
   -8880    -4440      994     6156     9919    11735    11831    10924 
    9583     8009     6135     3763     1051    -1377    -3079    -4213 
   -5371    -6966    -8837   -10725   -12552   -14202   -15491   -16322 
  -16780   -16811   -15917   -13491    -9410    -4513     -310     2116 
    2569     1449     -488    -2485    -3713    -3443    -1792      768 
    3950     7148     9790    11746    12766    12528    11029     8310 
    4486       70    -4301    -8102   -10832   -12444   -13428   -13960 
  -13695   -12564   -11070    -9828    -9217    -9062    -8806    -8426 
   -8379    -8731    -9244    -9640    -9571    -8862    -7264    -4457 
    -788     3051     6821    10359    13394    15876    17815    19122 
   19892    20171    19535    18013    16456    15527    15472    16472 
   18589    21643    25019    27658    28784    28506    27147    24614 
   20802    16144    11507     7574     4552     2598     2228     3865 
    7419    12523    18366    23957    28868    33058    36690    40038 
   42959    44879    45284    44132    41735    38477    34794    30990 
   27205    23625    20429    17977    16623    16074    15758    15435 
   15095    14850    14783    14850    15061    15369    15373    14747 
   13752    12966    12479    11550     9517     6633     3547      599 
   -2014    -4009    -5200    -5707    -5751    -5012    -2992      -83 
    2597     4229     4730     4426     3696     2636     1111     -850 
   -3257    -5879    -7854    -8635    -8413    -7632    -6832    -6269 
   -6011    -6318    -6970    -7246    -6883    -6085    -4846    -2862 
     -95     3015     5829     7713     8338     7592     5367     1684 
   -2929    -7477   -11052   -13054   -13211   -11940    -9991    -7897 
   -6049    -4534    -3229    -2349    -2114    -2471    -3503    -5209 
   -7299    -9639   -12191   -14634   -16555   -17452   -16610   -13722 
   -9275    -4083     1127     5890    10015    13397    15714    16530 
   15849    14011    11253     7936     4334      162    -4511    -8679 
  -11400   -12402   -11974   -10777    -9092    -6675    -3708     -707 
    2308     5518     9009    12807    16686    20571    24432    27545 
   29068    28763    26792    23707    20160    16384    12486     8841 
    5791     3450     2187     2450     4000     6242     8899    11967 
   15399    18875    21937    24152    25343    25986    26654    27403 
   28278    29273    30136    30855    31486    32030    32593    32852 
   32071    29720    25555    19518    12125     4625    -1705    -6199 
   -8812    -9664    -8756    -6527    -3821    -1136     1189     2770 
    3478     3362     2617     1678      633    -1174    -3998    -7113 
   -9834   -11619   -11867   -10821    -9120    -6798    -3929     -864 
    2282     5304     8010    10785    13967    17271    20220    22640 
   24453    25397    25475    25066    24403    23495    22273    20884 
   19881    19731    20164    20401    20268    20177    19944    19160 
   17953    16565    15445    15277    16058    17061    17639    17304 
   15805    13491    10971     8648     6906     6188     6675     8104 
    9957    11915    13836    15388    16113    15755    14164    11168 
    6914     1634    -4641   -11554   -18300   -23895   -27421   -28360 
  -26661   -22958   -18563   -14555   -11362    -9336    -8791    -9493 
  -10997   -13165   -15892   -18705   -21215   -23431   -24975   -25226 
  -24158   -21892   -18508   -14395    -9828    -4621      996     5987 
    9472    11056    10669     8727     5890     3069     1607     2778 
    7074    13825    21683    29477    36532    42448    46611    48066 
   45802    39336    28821    15039      -41   -14180   -26160   -35299 
  -41148   -43509   -42156   -37264   -29829   -21178   -12467    -4939 
     338     3285     4347     3601     1011    -2971    -7620   -12434 
  -16775   -19791   -20785   -19215   -14937    -8216      330     9468 
   17667    23641    26889    27684    26284    23144    19093    14385 
    8951     3480    -1144    -4473    -5925    -5246    -2830     1015 
    5548     9452    12079    13659    14700    15830    17721    20798 
   25050    30011    35116    40115    44564    47544    48539    47825 
   46255    44616    42681    39852    36205    32347    28954    26177 
   24052    23149    23302    23280    22381    20989    19955    19916 
   20953    22607    24374    25898    26495    25667    23845    21600 
   18894    15589    11821     7616     3003    -1752    -6555   -11365 
  -15967   -20136   -23834   -27117   -29752   -31592   -32717   -32845 
  -31750   -29290   -25038   -18874   -11217    -2921     4590    10203 
   14068    16761    18574    20175    22432    25722    29994    34830 
   39411    42797    44401    43852    40830    35756    29338    21929 
   14602     8667     4340     1748     1224     2362     4325     6280 
    7454     7560     6727     5236     3651     2405     1486      749 
     157     -251     -796    -2004    -3986    -6590    -9490   -12425 
  -15537   -18674   -21274   -23047   -23745   -23072   -21108   -17952 
  -13770    -9235    -4985    -1414     1181     2791     3474     3229 
    2122      214    -2543    -6270   -10844   -15838   -20694   -24721 
  -27595   -29666   -31270   -32474   -33143   -32845   -31241   -28404 
  -24869   -21212   -17478   -13554    -9193    -3910     2512    10204 
   19017    28043    36416    43754    49589    53312    54392    52501 
   48001    41845    34796    27221    19437    11746     4461    -1730 
   -5556    -5821    -2401     3979    12356    21529    30141    37066 
   41899    44459    44104    40622    34723    27267    19047    11005 
    4114     -862    -3424    -3510    -1737     1331     5536    10145 
   13919    15916    15327    11659     5089    -3666   -13171   -21730 
  -28459   -33168   -35634   -35391   -32343   -27261   -21027   -14041 
   -6419     1510     8784    14247    17485    19012    19645    19984 
   20375    21064    22245    23666    24799    25650    26397    26985 
   27760    29096    30574    31806    32800    33295    33278    33168 
   32682    31117    28659    26087    23554    21087    19345    18704 
   18947    20070    22114    24590    26696    27704    27168    24923 
   21019    15657     9224     2600    -3447    -8877   -13290   -16054 
  -17286   -16968   -15257   -13352   -12089   -11713   -12430   -13900 
  -15597   -17309   -19093   -20889   -22175   -22653   -22477   -21909 
  -21061   -19545   -17003   -13568    -9640    -5616    -1748     1584 
    3944     5391     6293     6886     7439     8077     8646     9154 
    9443     9088     8000     6490     4912     3284     1875     1374 
    1528     1633     1803     2268     3032     4120     5350     6575 
    7989     9867    12140    14624    17174    19221    20328    20551 
   20206    20042    20298    20707    21412    22400    23518    24667 
   25771    26963    27954    28332    28275    27922    27064    25618 
   23502    20347    16245    11888     7534     3121    -1335    -5872 
  -10377   -14671   -18636   -22138   -25029   -27116   -28198   -28039 
  -26449   -23688   -20595   -17834   -15484   -13458   -11707   -10276 
   -9058    -7965    -7369    -7314    -7256    -6867    -6054    -4841 
   -3532    -2454    -1567     -669      483     2339     5040     8622 
   13302    18407    23068    27295    30844    33149    34152    34140 
   33637    33295    33318    33524    33862    34177    34017    33278 
   32255    30910    29003    26447    23128    19224    15210    11194 
    7207     3437     -117    -3219    -5521    -7119    -8071    -8255 
   -7736    -6612    -5131    -3897    -3478    -4079    -5599    -7728 
   -9753   -10871   -10875    -9786    -7477    -4206     -460     3541 
    7265    10127    12222    13464    13389    12000     9609     6420 
    2647    -1162    -4398    -6804    -8176    -8345    -7248    -4858 
   -1579     1965     5401     8330    10207    10674     9752     7851 
    5575     3219      839    -1260    -2555    -2547    -1090     1594 
    5128     8932    12382    15318    17798    19256    18963    17186 
   14898    12718    10795     9294     8534     8758     9879    11578 
   13460    15012    16043    16821    17551    18281    18732    18463 
   17648    16873    16452    16349    16476    16897    17645    18666 
   19927    21460    23284    24945    25848    25841    24842    22925 
   20522    17936    15199    12255     9154     6177     3746     2261 
    1806     1881     1775     1453     1331     1352     1302     1221 
    1138     1007      950      959      611     -330    -1517    -2390 
   -2741    -2813    -2639    -1873     -627      550     1498     2332 
    2952     3203     3048     2498     1397     -461    -2945    -5836 
   -9004   -12228   -15176   -17332   -18330   -18196   -16862   -14297 
  -10928    -7202    -3499     -260     2303     4197     5378     5799 
    5779     5818     6077     6508     7063     7726     8608     9572 
   10021     9674     8745     7358     5644     3919     2489     1537 
    1054      905     1081     1587     2192     2713     3153     3376 
    3187     2463     1156     -535    -2204    -3510    -4369    -4807 
   -4812    -4264    -3090    -1445      510     2516     4144     5270 
    6058     6637     6943     6990     7161     7645     8457     9819 
   11645    13622    15577    17255    18272    18446    18150    17828 
   17462    16918    16112    15001    13714    12564    11808    11338 
   10984    10781    10636    10612    11063    12117    13911    16725 
