Origin Time       2025/01/13 21:19:00
Lat.              31.8
Long.             131.6
Depth. (km)       30
Mag.              6.9
Station Code      KGS001
Station Lat.      32.1947
Station Long.     130.1763
Station Height(m) 77
Record Time       2025/01/13 21:19:57
Sampling Freq(Hz) 100Hz
Duration Time(s)  111
Dir.              N-S
Scale Factor      3920(gal)/6182761
Max. Acc. (gal)   5.644
Last Correction   2025/01/13 21:19:58
Memo.             
[...]
  -13564   -12800   -12228   -11789   -11485   -11355   -11397   -11587 
  -11896   -12261   -12618   -12960   -13323   -13661   -13797   -13598 
  -13134   -12635   -12376   -12501   -12951   -13535   -14009   -14245 
  -14287   -14130   -13749   -13245   -12690   -12080   -11493   -11030 
  -10676   -10388   -10204   -10159   -10187   -10163    -9987    -9625 
   -9174    -8819    -8694    -8817    -9109    -9455    -9802   -10129 
  -10371   -10473   -10402   -10106    -9583    -8945    -8376    -8040 
   -7976    -8084    -8313    -8757    -9473   -10387   -11348   -12191 
  -12791   -13098   -13097   -12819   -12343   -11743   -11082   -10468 
  -10004    -9710    -9531    -9405    -9268    -9059    -8752    -8394 
   -8091    -7942    -8004    -8266    -8640    -9075    -9580   -10139 
  -10686   -11123   -11355   -11366   -11207   -10936   -10664   -10521 
  -10548   -10703   -10885   -11005   -11068   -11152   -11324   -11572 
  -11796   -11910   -11933   -11940   -11954   -11883   -11635   -11296 
  -11067   -11073   -11297   -11596   -11788   -11776   -11621   -11420 
  -11164   -10810   -10396   -10034    -9837    -9811    -9881   -10003 
  -10162   -10378   -10655   -10877   -10869   -10574   -10118    -9724 
   -9525    -9495    -9539    -9592    -9649    -9713    -9762    -9808 
   -9933   -10208   -10685   -11380   -12231   -13110   -13842   -14255 
  -14276   -13959   -13437   -12856   -12350   -12023   -11906   -11933 
  -11966   -11886   -11635   -11197   -10589    -9850    -9075    -8428 
   -8027    -7879    -7969    -8285    -8811    -9537   -10441   -11411 
  -12245   -12766   -12940   -12836   -12562   -12159   -11579   -10800 
   -9904    -9003    -8200    -7605    -7320    -7375    -7662    -7965 
   -8124    -8130    -8045    -7925    -7854    -7978    -8404    -9129 
  -10048   -11023   -11961   -12782   -13336   -13507   -13348   -13073 
  -12910   -12961   -13217   -13580   -13860   -13912   -13740   -13469 
  -13271   -13251   -13428   -13763   -14133   -14389   -14410   -14131 
  -13626   -13051   -12489   -12000   -11654   -11448   -11349   -11340 
  -11424   -11655   -12068   -12571   -12988   -13150   -12974   -12525 
  -11937   -11314   -10705   -10110    -9511    -8925    -8425    -8095 
   -7969    -8082    -8516    -9254   -10112   -10911   -11558   -12042 
  -12361   -12403   -12073   -11477   -10792   -10144    -9663    -9404 
   -9324    -9436    -9776   -10313   -10986   -11708   -12358   -12825 
  -13087   -13195   -13158   -12946   -12582   -12111   -11574   -11070 
  -10748   -10681   -10831   -11082   -11336   -11604   -11935   -12301 
  -12602   -12742   -12706   -12578   -12469   -12445   -12486   -12539 
  -12616   -12747   -12908   -13059   -13169   -13154   -12868   -12286 
  -11583   -11020   -10750   -10678   -10550   -10179    -9590    -8946 
   -8376    -7956    -7797    -8030    -8698    -9658   -10635   -11411 
  -11905   -12129   -12156   -12068   -11914   -11718   -11459   -11066 
  -10482    -9727    -8903    -8135    -7505    -7081    -6984    -7346 
   -8140    -9127    -9986   -10483   -10507   -10057    -9281    -8415 
   -7639    -6993    -6449    -6029    -5847    -6005    -6494    -7199 
   -7953    -8680    -9437   -10260   -11035   -11615   -12026   -12429 
  -12925   -13466   -13940   -14267   -14451   -14550   -14612   -14618 
  -14474   -14141   -13744   -13410   -13180   -13082   -13106   -13189 
  -13303   -13439   -13553   -13599   -13582   -13523   -13380   -13069 
  -12595   -12113   -11839   -11901   -12243   -12691   -13082   -13319 
  -13396   -13380   -13351   -13404   -13620   -14010   -14504   -14973 
  -15250   -15247   -15054   -14877   -14849   -14939   -15058   -15131 
  -15071   -14797   -14263   -13464   -12477   -11436   -10454    -9610 
   -8957    -8529    -8307    -8199    -8112    -8003    -7856    -7685 
   -7549    -7492    -7480    -7450    -7391    -7349    -7395    -7572 
   -7854    -8176    -8490    -8821    -9294    -9973   -10714   -11268 
  -11438   -11175   -10596    -9887    -9200    -8596    -8064    -7629 
   -7324    -7116    -6929    -6695    -6401    -6135    -6076    -6361 
   -6972    -7743    -8422    -8779    -8747    -8421    -7993    -7608 
   -7252    -6891    -6599    -6511    -6722    -7182    -7734    -8223 
   -8561    -8784    -9013    -9335    -9763   -10254   -10746   -11209 
  -11606   -11838   -11856   -11729   -11607   -11690   -12175   -13111 
  -14308   -15454   -16325   -16885   -17219   -17428   -17587   -17695 
  -17690   -17527   -17215   -16787   -16288   -15761   -15245   -14772 
  -14377   -14099   -13950   -13944   -14093   -14341   -14581   -14714 
  -14706   -14598   -14426   -14210   -13982   -13777   -13596   -13411 
  -13219   -13019   -12766   -12391   -11902   -11425   -11030   -10657 
  -10237    -9742    -9213    -8771    -8532    -8547    -8745    -8949 
   -9026    -8984    -8911    -8889    -8929    -8978    -8994    -8978 
   -8955    -8959    -8971    -8917    -8766    -8556    -8353    -8212 
   -8158    -8205    -8350    -8548    -8766    -9031    -9381    -9802 
  -10228   -10584   -10829   -10943   -10889   -10672   -10352    -9988 
   -9642    -9384    -9250    -9207    -9180    -9113    -9006    -8952 
   -9059    -9276    -9414    -9353    -9144    -8920    -8789    -8806 
   -8998    -9363    -9824   -10248   -10557   -10767   -10932   -11101 
  -11292   -11501   -11733   -12001   -12281   -12495   -12558   -12432 
  -12178   -11980   -12015   -12312   -12776   -13234   -13476   -13332 
  -12792   -12023   -11256   -10693   -10423   -10401   -10564   -10865 
  -11214   -11493   -11613   -11548   -11386   -11284   -11372   -11704 
  -12233   -12788   -13188   -13340   -13250   -13027   -12819   -12631 
  -12352   -11935   -11449   -11017   -10720   -10523   -10331   -10125 
   -9951    -9841    -9763    -9626    -9408    -9217    -9152    -9227 
   -9451    -9832   -10312   -10792   -11191   -11447   -11549   -11524 
  -11382   -11148   -10900   -10704   -10575   -10527   -10609   -10849 
  -11235   -11713   -12196   -12594   -12881   -13095   -13275   -13424 
  -13540   -13639   -13700   -13642   -13409   -12983   -12370   -11653 
  -10960   -10404   -10105   -10152   -10555   -11187   -11786   -12116 
  -12121   -11920   -11733   -11703   -11785   -11839   -11777   -11570 
  -11219   -10765   -10257    -9736    -9257    -8895    -8723    -8786 
   -9069    -9482    -9888   -10180   -10342   -10411   -10411   -10360 
  -10279   -10177   -10073    -9932    -9682    -9345    -9031    -8796 
   -8644    -8584    -8620    -8752    -8999    -9375    -9853   -10384 
  -10855   -11061   -10871   -10370    -9788    -9349    -9136    -9077 
   -9087    -9175    -9392    -9775   -10295   -10839   -11275   -11537 
  -11642   -11639   -11581   -11479   -11288   -11000   -10679   -10407 
  -10259   -10284   -10492   -10877   -11418   -12029   -12602   -13078 
  -13423   -13617   -13661   -13535   -13215   -12754   -12267   -11879 
  -11698   -11714   -11802   -11867   -11876   -11864   -11930   -12127 
  -12424   -12764   -13057   -13203   -13152   -12891   -12451   -11912 
  -11357   -10853   -10478   -10322   -10393   -10562   -10645   -10558 
  -10358   -10119    -9896    -9796    -9924   -10270   -10701   -11090 
  -11421   -11755   -12120   -12484   -12783   -12967   -13048   -13093 
  -13177   -13389   -13768   -14209   -14544   -14648   -14461   -14068 
  -13592   -13021   -12305   -11471   -10626    -9928    -9456    -9166 
   -9011    -9021    -9246    -9698   -10330   -11043   -11720   -12263 
  -12602   -12676   -12477   -12074   -11578   -11099   -10709   -10407 
  -10142    -9899    -9700    -9528    -9316    -9020    -8723    -8612 
   -8801    -9249    -9821   -10395   -10906   -11299   -11499   -11475 
  -11306   -11103   -10922   -10788   -10726   -10734   -10777   -10822 
  -10840   -10837   -10864   -10939   -11059   -11231   -11447   -11655 
  -11788   -11817   -11716   -11434   -10972   -10404    -9856    -9464 
   -9301    -9305    -9338    -9320    -9225    -9040    -8818    -8662 
   -8654    -8803    -9049    -9299    -9474    -9546    -9534    -9471 
   -9398    -9340    -9326    -9375    -9446    -9483    -9450    -9333 
   -9144    -8874    -8525    -8152    -7846    -7711    -7797    -8047 
   -8340    -8574    -8708    -8775    -8848    -9008    -9322    -9839 
  -10535   -11303   -12008   -12544   -12848   -12923   -12809   -12572 
  -12283   -11995   -11753   -11556   -11334   -11048   -10744   -10486 
  -10332   -10327   -10419   -10501   -10545   -10599   -10706   -10878 
  -11121   -11420   -11738   -12089   -12501   -12979   -13458   -13805 
  -13963   -14022   -14085   -14188   -14333   -14540   -14845   -15238 
  -15645   -15970   -16134   -16140   -16077   -15997   -15915   -15877 
  -15914   -16030   -16196   -16329   -16340   -16170   -15783   -15202 
  -14536   -13892   -13332   -12880   -12496   -12098   -11651   -11154 
  -10573    -9896    -9201    -8568    -8022    -7550    -7140    -6803 
   -6552    -6387    -6273    -6130    -5923    -5709    -5550    -5495 
   -5598    -5890    -6361    -6941    -7548    -8136    -8645    -9006 
   -9217    -9315    -9336    -9314    -9284    -9269    -9250    -9195 
   -9129    -9116    -9205    -9408    -9709   -10077   -10495   -10970 
  -11487   -11969   -12307   -12428   -12303   -11933   -11414   -10880 
  -10407   -10007    -9661    -9381    -9250    -9341    -9668   -10158 
  -10695   -11205   -11646   -11973   -12167   -12206   -12076   -11821 
  -11501   -11206   -11037   -11036   -11215   -11555   -11988   -12451 
  -12914   -13331   -13675   -13936   -14082   -14094   -13963   -13690 
  -13318   -12912   -12501   -12090   -11687   -11340   -11113   -11012 
  -11025   -11156   -11384   -11695   -12066   -12403   -12593   -12562 
  -12320   -11944   -11486   -10956   -10402    -9929    -9610    -9451 
   -9446    -9609    -9953   -10491   -11184   -11910   -12514   -12892 
  -12977   -12767   -12355   -11885   -11466   -11139   -10907   -10756 
  -10635   -10514   -10408   -10323   -10231   -10097    -9920    -9710 
   -9504    -9377    -9378    -9526    -9785   -10021   -10121   -10092 
  -10010    -9946    -9959   -10101   -10364   -10672   -10958   -11214 
  -11445   -11651   -11819   -11906   -11869   -11721   -11521   -11306 
  -11076   -10816   -10559   -10355   -10217   -10145   -10131   -10192 
  -10386   -10752   -11288   -11926   -12570   -13155   -13627   -13941 
  -14089   -14107   -14066   -14024   -13970   -13845   -13613   -13281 
  -12876   -12436   -12012   -11667   -11458   -11402   -11454   -11478 
  -11333   -10985   -10517   -10058    -9711    -9504    -9375    -9239 
   -9080    -8948    -8869    -8827    -8839    -8957    -9220    -9654 
  -10205   -10736   -11130   -11299   -11211   -10972   -10789   -10805 
  -11022   -11332   -11585   -11667   -11561   -11333   -11083   -10887 
  -10784   -10801   -10962   -11250   -11595   -11903   -12104   -12195 
  -12207   -12120   -11889   -11498   -10963   -10339    -9715    -9205 
   -8897    -8784    -8795    -8877    -9010    -9207    -9498    -9888 
  -10326   -10762   -11203   -11649   -12044   -12347   -12544   -12586 
  -12427   -12049   -11467   -10742    -9992    -9338    -8841    -8533 
   -8416    -8436    -8501    -8521    -8487    -8507    -8713    -9134 
   -9685   -10268   -10880   -11565   -12289   -12921   -13334   -13477 
  -13403   -13243   -13129   -13156   -13377   -13773   -14243   -14640 
  -14835   -14780   -14536   -14231   -13961   -13752   -13582   -13413 
  -13217   -13016   -12848   -12712   -12595   -12486   -12389   -12318 
  -12291   -12315   -12363   -12384   -12316   -12116   -11803   -11444 
  -11095   -10788   -10524   -10278   -10013    -9690    -9277    -8769 
   -8183    -7581    -7044    -6621    -6313    -6088    -5931    -5856 
   -5875    -5978    -6140    -6355    -6656    -7067    -7572    -8128 
   -8688    -9222    -9691   -10046   -10248   -10317   -10353   -10466 
  -10679   -10956   -11245   -11508   -11735   -11917   -12058   -12181 
  -12307   -12431   -12560   -12728   -12958   -13250   -13575   -13873 
  -14084   -14191   -14230   -14240   -14226   -14175   -14079   -13971 
  -13930   -14012   -14145   -14164   -13961   -13564   -13107   -12747 
  -12596   -12681   -12959   -13348   -13762   -14108   -14284   -14250 
  -14056   -13806   -13593   -13428   -13224   -12908   -12505   -12097 
  -11773   -11605   -11621   -11775   -11982   -12187   -12356   -12444 
  -12391   -12141   -11696   -11144   -10596   -10126    -9740    -9380 
   -8986    -8558    -8165    -7888    -7763    -7784    -7935    -8171 
   -8419    -8642    -8826    -8957    -9019    -8991    -8887    -8748 
   -8619    -8549    -8546    -8571    -8593    -8587    -8559    -8602 
   -8800    -9114    -9423    -9603    -9591    -9425    -9197    -8990 
   -8862    -8791    -8661    -8384    -7962    -7478    -7091    -6921 
   -6971    -7199    -7574    -8046    -8549    -9013    -9357    -9550 
   -9621    -9619    -9611    -9636    -9649    -9588    -9430    -9179 
   -8865    -8564    -8357    -8294    -8407    -8690    -9083    -9519 
   -9926   -10237   -10435   -10566   -10679   -10771   -10850   -10987 
  -11266   -11713   -12255   -12799   -13266   -13588   -13760   -13823 
  -13808   -13756   -13724   -13780   -13963   -14249   -14564   -14831 
  -15030   -15184   -15317   -15442   -15588   -15819   -16169   -16614 
  -17091   -17545   -17956   -18295   -18507   -18571   -18535   -18500 
  -18569   -18781   -19110   -19487   -19797   -19925   -19819   -19458 
  -18804   -17872   -16739   -15491   -14184   -12851   -11531   -10266 
   -9125    -8176    -7464    -7007    -6779    -6714    -6798    -7056 
   -7439    -7832    -8137    -8296    -8311    -8226    -8086    -7928 
   -7778    -7658    -7560    -7402    -7090    -6612    -6037    -5428 
   -4829    -4277    -3811    -3468    -3258    -3192    -3278    -3492 
   -3804    -4196    -4675    -5253    -5897    -6535    -7107    -7555 
   -7859    -8058    -8215    -8416    -8757    -9281    -9955   -10708 
  -11484   -12247   -12957   -13584   -14112   -14539   -14854   -15054 
  -15163   -15180   -15090   -14893   -14641   -14434   -14359   -14452 
  -14674   -14947   -15213   -15430   -15571   -15610   -15508   -15300 
  -15101   -15003   -14995   -15002   -14918   -14635   -14093   -13301 
  -12329   -11293   -10298    -9416    -8677    -8054    -7473    -6861 
   -6235    -5712    -5413    -5376    -5562    -5909    -6380    -6959 
   -7627    -8333    -9027    -9701   -10359   -10982   -11543   -12020 
  -12403   -12718   -13003   -13269   -13517   -13755   -13970   -14134 
  -14270   -14409   -14535   -14582   -14486   -14245   -13908   -13532 
  -13164   -12836   -12565   -12388   -12325   -12323   -12297   -12184 
  -11963   -11684   -11427   -11256   -11202   -11214   -11174   -10970 
  -10549    -9946    -9261    -8617    -8113    -7792    -7682    -7827 
   -8228    -8791    -9384    -9938   -10438   -10863   -11189   -11420 
  -11590   -11747   -11910   -12053   -12142   -12148   -12058   -11888 
  -11678   -11464   -11262   -11122   -11123   -11263   -11478   -11711 
  -11902   -12013   -12023   -11911   -11710   -11481   -11273   -11131 
  -11054   -11002   -10944   -10881   -10800   -10664   -10479   -10307 
  -10185   -10096    -9995    -9884    -9836    -9887    -9959    -9943 
   -9795    -9552    -9285    -9075    -8992    -9076    -9299    -9567 
   -9799    -9933    -9931    -9812    -9626    -9419    -9243    -9145 
   -9157    -9287    -9534    -9896   -10361   -10887   -11424   -11953 
  -12451   -12871   -13191   -13426   -13593   -13701   -13755   -13738 
  -13635   -13481   -13326   -13192   -13086   -12994   -12876   -12700 
  -12472   -12223   -12001   -11830   -11668   -11467   -11222   -10959 
  -10696   -10436   -10165    -9865    -9557    -9311    -9166    -9102 
   -9091    -9078    -8996    -8819    -8538    -8158    -7726    -7311 
   -6970    -6766    -6747    -6917    -7255    -7703    -8169    -8584 
   -8899    -9112    -9311    -9605   -10046   -10632   -11298   -11948 
  -12500   -12902   -13148   -13290   -13381   -13476   -13623   -13841 
  -14129   -14403   -14531   -14465   -14250   -13929   -13520   -13047 
  -12543   -12044   -11580   -11133   -10671   -10175    -9660    -9160 
   -8691    -8246    -7833    -7476    -7211    -7083    -7124    -7342 
   -7734    -8326    -9142   -10133   -11182   -12128   -12822   -13193 
  -13248   -13059   -12698   -12233   -11736   -11251   -10813   -10460 
  -10204   -10069   -10097   -10274   -10508   -10721   -10888   -11039 
  -11250   -11594   -12082   -12667   -13279   -13864   -14379   -14813 
  -15172   -15464   -15667   -15725   -15588   -15263   -14790   -14220 
  -13612   -13026   -12515   -12086   -11722   -11436   -11257   -11198 
  -11246   -11350   -11413   -11330   -11080   -10713   -10282    -9828 
   -9372    -8928    -8507    -8124    -7807    -7602    -7542    -7654 
   -7959    -8483    -9239   -10161   -11101   -11903   -12458   -12720 
  -12698   -12433   -12000   -11496   -10981   -10434    -9794    -9020 
   -8134    -7240    -6490    -6015    -5869    -6038    -6457    -7028 
   -7621    -8151    -8621    -9086    -9603   -10213   -10932   -11722 
  -12480   -13109   -13579   -13913   -14117   -14183   -14124   -13925 
  -13563   -13081   -12560   -12049   -11594   -11223   -10943   -10780 
  -10739   -10779   -10857   -10934   -10987   -10989   -10860   -10538 
  -10041    -9444    -8859    -8410    -8204    -8298    -8668    -9244 
   -9977   -10822   -11712   -12571   -13306   -13826   -14075   -14046 
  -13779   -13338   -12773   -12085   -11262   -10353    -9490    -8814 
   -8428    -8359    -8532    -8835    -9194    -9550    -9871   -10166 
  -10473   -10820   -11179   -11502   -11767   -11965   -12091   -12154 
  -12158   -12110   -12062   -12091   -12232   -12482   -12837   -13269 
  -13712   -14103   -14416   -14656   -14828   -14923   -14952   -14951 
  -14936   -14883   -14779   -14653   -14541   -14463   -14440   -14493 
  -14609   -14761   -14889   -14939   -14894   -14742   -14476   -14107 
  -13659   -13167   -12652   -12121   -11603   -11115   -10631   -10136 
   -9665    -9298    -9105    -9083    -9202    -9428    -9699    -9941 
  -10107   -10185   -10190   -10178   -10199   -10229   -10231   -10192 
  -10101    -9967    -9752    -9389    -8878    -8249    -7541    -6834 
   -6244    -5877    -5776    -5926    -6261    -6669    -7044    -7316 
   -7448    -7487    -7534    -7650    -7864    -8189    -8602    -9056 
   -9488    -9852   -10154   -10393   -10518   -10485   -10285    -9958 
   -9568    -9164    -8796    -8501    -8287    -8168    -8152    -8240 
   -8464    -8889    -9550   -10414   -11403   -12432   -13418   -14276 
  -14952   -15430   -15711   -15817   -15789   -15625   -15285   -14762 
  -14109   -13403   -12741   -12203   -11844   -11674   -11645   -11696 
  -11771   -11805   -11769   -11684   -11594   -11509   -11390   -11174 
  -10802   -10255    -9614    -9004    -8539    -8267    -8134    -8054 
   -7968    -7843    -7684    -7489    -7254    -7005    -6783    -6641 
   -6620    -6693    -6801    -6918    -7020    -7078    -7105    -7135 
   -7223    -7437    -7828    -8409    -9180   -10103   -11073   -11953 
  -12644   -13113   -13390   -13571   -13774   -14057   -14414   -14805 
