Origin Time       2025/01/13 21:19:00
Lat.              31.8
Long.             131.6
Depth. (km)       30
Mag.              6.9
Station Code      KGS006
Station Lat.      31.9060
Station Long.     130.7021
Station Height(m) 188
Record Time       2025/01/13 21:19:50
Sampling Freq(Hz) 100Hz
Duration Time(s)  112
Dir.              E-W
Scale Factor      7845(gal)/8223790
Max. Acc. (gal)   11.502
Last Correction   2025/01/13 21:19:51
Memo.             
[...]
  -10885   -11514   -12185   -12768   -13285   -13697   -13921   -13959 
  -13802   -13378   -12595   -11383    -9818    -8181    -6825    -6008 
   -5802    -6064    -6528    -6944    -7218    -7439    -7735    -8166 
   -8757    -9512   -10366   -11218   -12060   -12978   -13946   -14828 
  -15512   -15874   -15867   -15639   -15327   -14939   -14478   -14002 
  -13585   -13196   -12698   -12087   -11524   -11101   -10791   -10574 
  -10438   -10307   -10053    -9666    -9271    -8982    -8851    -8883 
   -9020    -9205    -9414    -9616    -9776    -9849    -9751    -9448 
   -8991    -8468    -7975    -7566    -7290    -7230    -7485    -8075 
   -8887    -9809   -10804   -11780   -12595   -13162   -13497   -13649 
  -13624   -13429   -13117   -12712   -12171   -11418   -10365    -9028 
   -7578    -6249    -5238    -4611    -4347    -4433    -4911    -5876 
   -7330    -9128   -11118   -13107   -14808   -16021   -16718   -16958 
  -16822   -16403   -15774   -14912   -13794   -12542   -11331   -10277 
   -9470    -8946    -8695    -8689    -8884    -9219    -9602    -9903 
  -10044   -10010    -9787    -9366    -8785    -8160    -7618    -7215 
   -7022    -7063    -7234    -7460    -7720    -7965    -8152    -8287 
   -8414    -8633    -9018    -9609   -10447   -11500   -12592   -13471 
  -14004   -14231   -14266   -14258   -14312   -14384   -14388   -14318 
  -14203   -14056   -13873   -13635   -13356   -13053   -12710   -12361 
  -12089   -11967   -12066   -12322   -12538   -12583   -12447   -12143 
  -11647   -10948   -10138    -9348    -8606    -7848    -7079    -6461 
   -6157    -6227    -6735    -7696    -8947   -10243   -11377   -12213 
  -12699   -12842   -12622   -12021   -11105   -10017    -8934    -8012 
   -7321    -6853    -6555    -6385    -6335    -6361    -6415    -6532 
   -6732    -6959    -7190    -7480    -7900    -8461    -9127    -9894 
  -10760   -11691   -12629   -13549   -14482   -15476   -16538   -17643 
  -18694   -19529   -19997   -20024   -19575   -18706   -17586   -16393 
  -15234   -14094   -12942   -11862   -10933   -10207    -9755    -9572 
   -9555    -9598    -9672    -9829   -10122   -10596   -11280   -12094 
  -12884   -13517   -13915   -14084   -14057   -13786   -13162   -12101 
  -10632    -8930    -7184    -5509    -3974    -2619    -1487     -660 
    -221     -253     -769    -1688    -2928    -4353    -5790    -7187 
   -8579    -9952   -11232   -12306   -13120   -13744   -14249   -14584 
  -14674   -14505   -14085   -13497   -12850   -12212   -11655   -11223 
  -10841   -10450   -10014    -9468    -8837    -8230    -7736    -7398 
   -7230    -7198    -7222    -7279    -7385    -7539    -7763    -8144 
   -8699    -9346   -10012   -10625   -11068   -11286   -11295   -11168 
  -11079   -11157   -11335   -11507   -11657   -11755   -11732   -11624 
  -11526   -11394   -11157   -10828   -10426   -10027    -9722    -9491 
   -9292    -9150    -9153    -9427   -10023   -10817   -11646   -12455 
  -13223   -13875   -14289   -14388   -14222   -13913   -13527   -13128 
  -12831   -12630   -12440   -12282   -12201   -12164   -12145   -12124 
  -12098   -12136   -12286   -12533   -12835   -13139   -13382   -13467 
  -13239   -12623   -11700   -10625    -9593    -8822    -8459    -8496 
   -8812    -9229    -9570    -9751    -9914   -10245   -10731   -11306 
  -11973   -12737   -13567   -14357   -14941   -15255   -15325   -15157 
  -14794   -14359   -13961   -13660   -13509   -13555   -13774   -14095 
  -14438   -14735   -14920   -14913   -14769   -14650   -14580   -14472 
  -14319   -14146   -13980   -13884   -13859   -13822   -13755   -13689 
  -13647   -13620   -13556   -13358   -12937   -12263   -11375   -10343 
   -9246    -8168    -7182    -6354    -5759    -5389    -5163    -5027 
   -4887    -4634    -4261    -3797    -3249    -2686    -2207    -1864 
   -1695    -1794    -2265    -3106    -4197    -5352    -6412    -7281 
   -7850    -8064    -8002    -7767    -7497    -7375    -7531    -7990 
   -8649    -9374   -10131   -10951   -11813   -12665   -13458   -14181 
  -14879   -15518   -15934   -15974   -15568   -14710   -13463   -11966 
  -10400    -8912    -7612    -6625    -6039    -5834    -5871    -6037 
   -6378    -6990    -7882    -9011   -10274   -11553   -12800   -14014 
  -15169   -16209   -17059   -17649   -17930   -17880   -17555   -17066 
  -16438   -15637   -14704   -13717   -12788   -12056   -11526   -11095 
  -10716   -10370   -10068    -9830    -9633    -9441    -9239    -8986 
   -8648    -8262    -7925    -7663    -7431    -7238    -7126    -7041 
   -6890    -6682    -6485    -6366    -6331    -6296    -6228    -6235 
   -6428    -6891    -7715    -8962   -10565   -12294   -13905   -15229 
  -16136   -16526   -16437   -16047   -15519   -14963   -14509   -14262 
  -14273   -14590   -15201   -15952   -16594   -16893   -16690   -16001 
  -15043   -14014   -12989   -12010   -11106   -10253    -9418    -8630 
   -7985    -7553    -7314    -7223    -7306    -7578    -8001    -8565 
   -9283   -10054   -10706   -11115   -11234   -11071   -10698   -10200 
   -9630    -9049    -8509    -8074    -7788    -7589    -7402    -7254 
   -7199    -7230    -7331    -7489    -7670    -7843    -8046    -8374 
   -8872    -9501   -10170   -10785   -11313   -11801   -12306   -12820 
  -13267   -13593   -13776   -13776   -13591   -13281   -12895   -12510 
  -12267   -12247   -12436   -12785   -13207   -13575   -13776   -13736 
  -13405   -12800   -12059   -11333   -10652   -10019    -9432    -8881 
   -8436    -8143    -7946    -7812    -7763    -7809    -7938    -8140 
   -8394    -8652    -8896    -9127    -9317    -9451    -9568    -9749 
  -10026   -10374   -10809   -11317   -11794   -12166   -12383   -12384 
  -12171   -11828   -11406   -10887   -10328    -9852    -9564    -9531 
   -9666    -9838   -10010   -10085    -9957    -9694    -9454    -9323 
   -9342    -9537    -9855   -10150   -10328   -10431   -10598   -10867 
  -11098   -11168   -11034   -10701   -10207    -9610    -9032    -8604 
   -8386    -8380    -8572    -9000    -9747   -10785   -11982   -13188 
  -14273   -15222   -16089   -16839   -17365   -17581   -17433   -16938 
  -16173   -15202   -14114   -13053   -12154   -11472   -10951   -10512 
  -10147    -9904    -9821    -9884   -10061   -10319   -10582   -10806 
  -11030   -11267   -11491   -11684   -11790   -11751   -11593   -11416 
  -11290   -11242   -11299   -11456   -11695   -12017   -12420   -12856 
  -13246   -13518   -13616   -13537   -13383   -13223   -13057   -12931 
  -12868   -12810   -12702   -12483   -12070   -11434   -10665    -9892 
   -9216    -8722    -8505    -8604    -8922    -9279    -9552    -9656 
   -9517    -9140    -8627    -8082    -7511    -6853    -6089    -5240 
   -4345    -3473    -2702    -2081    -1652    -1464    -1557    -1926 
   -2506    -3199    -3897    -4536    -5143    -5780    -6457    -7145 
   -7813    -8446    -9040    -9531    -9834    -9918    -9767    -9414 
   -9000    -8660    -8510    -8658    -9142    -9917   -10894   -11982 
  -13092   -14094   -14936   -15672   -16247   -16534   -16564   -16441 
  -16213   -15931   -15693   -15577   -15608   -15773   -15943   -15974 
  -15851   -15610   -15282   -14932   -14597   -14231   -13738   -13055 
  -12190   -11215   -10268    -9537    -9185    -9292    -9822   -10629 
  -11551   -12467   -13302   -14033   -14656   -15180   -15589   -15869 
  -16004   -15905   -15454   -14636   -13532   -12275   -11022    -9875 
   -8885    -8121    -7645    -7438    -7443    -7608    -7881    -8195 
   -8461    -8630    -8730    -8800    -8861    -8955    -9117    -9305 
   -9493    -9732   -10050   -10409   -10741   -11005   -11186   -11288 
  -11357   -11458   -11581   -11670   -11718   -11754   -11759   -11705 
  -11589   -11380   -11070   -10716   -10395   -10206   -10249   -10500 
  -10845   -11209   -11515   -11703   -11815   -11931   -12006   -11963 
  -11820   -11607   -11325   -10987   -10569   -10044    -9477    -8910 
   -8343    -7836    -7418    -7030    -6664    -6407    -6303    -6331 
   -6434    -6523    -6539    -6471    -6338    -6204    -6141    -6146 
   -6205    -6327    -6490    -6677    -6867    -7025    -7184    -7430 
   -7792    -8270    -8838    -9408    -9895   -10281   -10631   -11048 
  -11574   -12235   -13059   -14021   -15021   -15944   -16684   -17180 
  -17419   -17415   -17199   -16775   -16178   -15506   -14837   -14207 
  -13682   -13350   -13263   -13396   -13645   -13888   -14045   -14064 
  -13932   -13713   -13508   -13360   -13261   -13223   -13271   -13386 
  -13518   -13662   -13852   -14077   -14276   -14395   -14405   -14327 
  -14176   -13926   -13551   -12984   -12137   -11097   -10056    -9100 
   -8291    -7731    -7483    -7554    -7885    -8352    -8851    -9342 
   -9794   -10174   -10488   -10747   -10912   -10921   -10732   -10332 
   -9783    -9215    -8762    -8546    -8607    -8905    -9428   -10146 
  -10949   -11688   -12240   -12534   -12587   -12441   -12104   -11612 
  -11053   -10477    -9896    -9369    -8951    -8631    -8372    -8152 
   -8008    -7989    -8020    -7970    -7771    -7398    -6921    -6488 
   -6181    -6018    -6064    -6393    -6945    -7635    -8415    -9131 
   -9641    -9948   -10058    -9975    -9775    -9575    -9475    -9544 
   -9817   -10269   -10864   -11551   -12251   -12934   -13586   -14164 
  -14648   -14975   -15036   -14797   -14299   -13620   -12835   -11977 
  -11106   -10293    -9544    -8870    -8357    -8094    -8082    -8264 
   -8581    -9000    -9451    -9849   -10185   -10531   -10983   -11664 
  -12627   -13846   -15244   -16645   -17851   -18755   -19340   -19611 
  -19539   -19087   -18318   -17379   -16337   -15179   -13917   -12556 
  -11064    -9489    -7943    -6539    -5368    -4476    -3951    -3927 
   -4409    -5290    -6462    -7770    -9032   -10157   -11087   -11722 
  -12032   -12083   -11912   -11546   -11021   -10370    -9740    -9294 
   -9047    -8955    -8972    -9024    -9080    -9184    -9359    -9552 
   -9734    -9926   -10149   -10417   -10693   -10887   -10970   -11001 
  -11065   -11178   -11333   -11565   -11855   -12133   -12352   -12464 
  -12484   -12465   -12444   -12491   -12717   -13173   -13786   -14369 
  -14786   -15006   -14980   -14601   -13811   -12652   -11237    -9728 
   -8336    -7230    -6431    -5926    -5728    -5826    -6195    -6750 
   -7398    -8151    -8982    -9811   -10606   -11295   -11718   -11794 
  -11558   -11044   -10301    -9428    -8533    -7709    -7037    -6542 
   -6165    -5863    -5688    -5734    -6048    -6627    -7434    -8407 
   -9474   -10535   -11435   -12054   -12399   -12486   -12263   -11788 
  -11191   -10570   -10008    -9587    -9363    -9391    -9680   -10157 
  -10731   -11335   -11900   -12436   -13084   -13915   -14885   -15954 
  -17031   -17963   -18630   -18945   -18841   -18326   -17482   -16417 
  -15250   -14106   -13051   -12097   -11209   -10368    -9594    -8889 
   -8256    -7732    -7342    -7125    -7101    -7296    -7730    -8347 
   -9085    -9867   -10474   -10693   -10467    -9860    -8915    -7704 
   -6374    -5030    -3739    -2604    -1688    -1012     -595     -476 
    -685    -1250    -2169    -3430    -5020    -6874    -8830   -10687 
  -12256   -13370   -13956   -14091   -13852   -13270   -12460   -11595 
  -10782   -10119    -9688    -9466    -9343    -9232    -9128    -9077 
   -9097    -9178    -9315    -9459    -9541    -9566    -9609    -9717 
   -9844    -9895    -9882    -9938   -10127   -10376   -10598   -10755 
  -10858   -10949   -11041   -11088   -11087   -11065   -10960   -10650 
  -10116    -9377    -8437    -7362    -6293    -5413    -4854    -4626 
   -4756    -5273    -6077    -7047    -8148    -9377   -10697   -12019 
  -13259   -14380   -15373   -16289   -17200   -18083   -18831   -19326 
  -19488   -19345   -18972   -18362   -17527   -16515   -15318   -13969 
  -12673   -11627   -10902   -10524   -10473   -10666   -11053   -11600 
  -12236   -12868   -13421   -13851   -14104   -14162   -14064   -13860 
  -13603   -13324   -13031   -12741   -12430   -12101   -11861   -11817 
  -12077   -12760   -13838   -15125   -16420   -17577   -18468   -18987 
  -19152   -18998   -18509   -17776   -16918   -15990   -15083   -14276 
  -13597   -13080   -12690   -12357   -12055   -11739   -11365   -10925 
  -10480   -10139    -9967    -9973   -10200   -10663   -11292   -11956 
  -12521   -12933   -13139   -13041   -12641   -12031   -11261   -10409 
   -9589    -8900    -8376    -7989    -7727    -7614    -7674    -7923 
   -8322    -8815    -9379   -10002   -10579   -10966   -11065   -10879 
  -10476    -9923    -9301    -8738    -8313    -8001    -7781    -7641 
   -7512    -7361    -7187    -6917    -6493    -5954    -5354    -4761 
   -4290    -4004    -3879    -3813    -3731    -3620    -3488    -3406 
   -3449    -3627    -3939    -4378    -4915    -5490    -5989    -6390 
   -6794    -7250    -7790    -8475    -9273   -10111   -10964   -11821 
  -12642   -13348   -13846   -14099   -14068   -13760   -13340   -12989 
  -12772   -12717   -12849   -13173   -13676   -14327   -15044   -15757 
  -16471   -17173   -17757   -18088   -18121   -17875   -17363   -16636 
  -15831   -15098   -14519   -14130   -13994   -14139   -14466   -14832 
  -15121   -15287   -15344   -15330   -15334   -15437   -15583   -15653 
  -15592   -15453   -15338   -15244   -15074   -14732   -14179   -13458 
  -12609   -11550   -10201    -8542    -6581    -4457    -2447     -787 
     419     1124     1320     1044      322     -851    -2390    -4102 
   -5783    -7287    -8533    -9505   -10260   -10849   -11241   -11479 
  -11665   -11789   -11867   -11970   -12117   -12357   -12762   -13320 
  -13953   -14562   -15064   -15422   -15626   -15639   -15398   -14879 
  -14158   -13354   -12538   -11769   -11132   -10674   -10404   -10318 
  -10377   -10517   -10685   -10824   -10876   -10831   -10677   -10363 
   -9850    -9124    -8264    -7442    -6750    -6230    -5953    -5946 
   -6173    -6554    -7017    -7572    -8179    -8725    -9177    -9555 
   -9900   -10295   -10736   -11141   -11450   -11642   -11724   -11736 
  -11688   -11539   -11257   -10836   -10280    -9626    -8903    -8106 
   -7252    -6335    -5385    -4486    -3700    -3129    -2932    -3149 
   -3754    -4758    -6131    -7774    -9572   -11403   -13120   -14562 
  -15630   -16324   -16702   -16827   -16750   -16498   -16075   -15557 
  -15053   -14593   -14176   -13818   -13509   -13254   -13082   -12964 
  -12818   -12610   -12361   -12073   -11781   -11558   -11391   -11209 
  -10929   -10504   -10018    -9548    -9065    -8613    -8329    -8237 
   -8275    -8398    -8559    -8737    -8931    -9130    -9279    -9310 
   -9244    -9158    -9088    -9123    -9346    -9676    -9994   -10296 
  -10574   -10786   -10951   -11106   -11302   -11622   -12079   -12630 
  -13262   -13959   -14669   -15299   -15747   -15969   -15948   -15650 
  -15118   -14449   -13693   -12877   -12078   -11434   -11045   -10918 
  -11024   -11340   -11835   -12397   -12829   -13032   -13001   -12654 
  -11938   -10932    -9780    -8603    -7462    -6393    -5470    -4787 
   -4395    -4257    -4320    -4572    -4985    -5505    -6056    -6512 
   -6786    -6907    -6948    -6997    -7144    -7435    -7867    -8403 
   -8989    -9574   -10108   -10557   -10895   -11090   -11098   -10953 
  -10717   -10382    -9963    -9552    -9207    -8903    -8646    -8464 
   -8330    -8240    -8257    -8411    -8685    -9101    -9691   -10438 
  -11311   -12279   -13290   -14245   -15028   -15564   -15815   -15768 
  -15489   -15099   -14667   -14231   -13851   -13549   -13273   -12978 
  -12702   -12479   -12302   -12187   -12183   -12307   -12517   -12762 
  -13007   -13182   -13244   -13220   -13150   -13088   -13117   -13255 
  -13398   -13440   -13379   -13230   -12941   -12483   -11880   -11155 
  -10358    -9540    -8766    -8128    -7642    -7267    -6983    -6787 
   -6685    -6681    -6802    -7065    -7430    -7823    -8217    -8595 
   -8932    -9263    -9657   -10168   -10822   -11628   -12546   -13475 
  -14358   -15163   -15797   -16201   -16393   -16362   -16077   -15589 
  -14976   -14266   -13463   -12609   -11781   -11036   -10423    -9975 
   -9670    -9471    -9331    -9184    -8969    -8654    -8255    -7803 
   -7360    -7014    -6825    -6821    -6972    -7200    -7493    -7839 
   -8154    -8421    -8677    -8927    -9194    -9482    -9728    -9945 
  -10206   -10482   -10729   -10960   -11167   -11329   -11475   -11614 
  -11722   -11790   -11816   -11763   -11581   -11257   -10845   -10396 
   -9923    -9432    -8930    -8428    -7944    -7511    -7155    -6910 
   -6799    -6795    -6937    -7299    -7852    -8511    -9263   -10125 
  -11032   -11896   -12684   -13405   -14071   -14685   -15210   -15628 
  -15971   -16245   -16387   -16343   -16116   -15734   -15226   -14628 
  -13996   -13392   -12870   -12484   -12256   -12159   -12164   -12239 
  -12320   -12344   -12264   -12058   -11749   -11389   -11043   -10736 
  -10492   -10326   -10214   -10107   -10002    -9922    -9876    -9888 
   -9985   -10189   -10482   -10808   -11148   -11489   -11793   -12040 
  -12217   -12271   -12170   -11886   -11391   -10717    -9929    -9078 
   -8239    -7460    -6774    -6205    -5764    -5463    -5343    -5416 
   -5638    -5969    -6370    -6802    -7225    -7600    -7929    -8247 
   -8541    -8773    -8981    -9225    -9464    -9653    -9821    -9965 
  -10049   -10104   -10179   -10269   -10404   -10633   -10929   -11271 
  -11664   -12081   -12457   -12750   -12942   -13019   -12954   -12744 
  -12434   -12060   -11645   -11227   -10837   -10494   -10210    -9948 
   -9691    -9462    -9278    -9167    -9181    -9373    -9741   -10234 
  -10777   -11313   -11803   -12221   -12538   -12739   -12833   -12854 
  -12833   -12788   -12764   -12784   -12823   -12847   -12787   -12573 
  -12218   -11740   -11129   -10431    -9707    -8962    -8222    -7565 
   -7080    -6833    -6832    -7049    -7443    -7974    -8641    -9387 
  -10123   -10833   -11497   -12023   -12388   -12618   -12721   -12745 
  -12754   -12779   -12850   -13008   -13221   -13455   -13691   -13887 
  -14010   -14088   -14122   -14119   -14127   -14162   -14206   -14245 
  -14249   -14173   -14033   -13848   -13589   -13293   -13055   -12897 
  -12785   -12695   -12621   -12532   -12379   -12109   -11732   -11298 
  -10829   -10363    -9988    -9755    -9637    -9566    -9475    -9374 
   -9279    -9175    -9073    -8969    -8843    -8714    -8606    -8541 
   -8530    -8579    -8733    -8989    -9282    -9576    -9861   -10096 
  -10249   -10336   -10390   -10401   -10366   -10307   -10255   -10238 
  -10247   -10254   -10204   -10038    -9783    -9512    -9224    -8924 
   -8642    -8368    -8104    -7859    -7627    -7419    -7237    -7061 
   -6914    -6817    -6755    -6724    -6720    -6725    -6735    -6727 
   -6675    -6588    -6516    -6515    -6610    -6835    -7223    -7746 
   -8329    -8903    -9404    -9802   -10100   -10327   -10507   -10655 
  -10800   -10987   -11268   -11662   -12172   -12775   -13390   -13961 
  -14512   -15066   -15596   -16070   -16449   -16696   -16802   -16776 
  -16622   -16339   -15939   -15450   -14886   -14254   -13618   -13059 
  -12594   -12181   -11794   -11466   -11213   -11009   -10866   -10816 
