Origin Time       2025/01/13 21:19:00
Lat.              31.8
Long.             131.6
Depth. (km)       30
Mag.              6.9
Station Code      KGS008
Station Lat.      31.7638
Station Long.     130.5659
Station Height(m) 11
Record Time       2025/01/13 21:19:49
Sampling Freq(Hz) 100Hz
Duration Time(s)  185
Dir.              U-D
Scale Factor      7845(gal)/8223790
Max. Acc. (gal)   14.793
Last Correction   2025/01/13 21:19:49
Memo.             
[...]
    5861     5456     5266     5456     5958     6575     7188     7730 
    8041     7965     7582     7248     7360     8074     9136    10014 
   10291     9983     9513     9262     9193     8980     8406     7592 
    6914     6710     6999     7492     7865     7977     7879     7712 
    7581     7546     7736     8298     9219    10231    10825    10516 
    9371     8125     7499     7573     7927     8095     7869     7339 
    6806     6597     6779     7048     7110     6994     6883     6870 
    6879     6772     6512     6201     5995     5981     6160     6494 
    6975     7539     8017     8303     8473     8638     8827     8911 
    8711     8294     7962     7939     8230     8618     8742     8328 
    7456     6597     6184     6266     6713     7322     7673     7389 
    6574     5717     5294     5509     6324     7537     8691     9243 
    9042     8392     7735     7441     7591     7862     7882     7639 
    7454     7650     8284     9127     9742     9682     8934     8149 
    8101     8965    10177    10872    10552     9416     8086     7173 
    6986     7350     7761     7862     7678     7449     7296     7094 
    6683     6088     5481     5062     4826     4533     4174     4179 
    4943     6332     7681     8307     8082     7491     7236     7713 
    8660     9385     9443     8942     8340     8052     8118     8206 
    7931     7194     6386     6153     6727     7600     8010     7642 
    6886     6404     6427     6713     7034     7403     7956     8660 
    9188     9246     8878     8325     7808     7489     7488     7788 
    8094     8039     7591     7030     6575     6268     6099     6116 
    6463     7299     8610    10049    10962    10801     9605     8016 
    7002     7276     8575     9784    10039     9398     8522     8035 
    8027     7987     7365     6235     5286     5124     5736     6601 
    7217     7389     7167     6758     6392     6108     5860     5776 
    6106     6929     7983     8739     8715     7982     7285     7371 
    8244     9266     9828     9906     9900     9979     9956     9757 
    9514     9302     9031     8448     7342     5867     4514     3838 
    4059     4860     5680     6158     6276     6346     6752     7488 
    8139     8349     8170     7971     8104     8630     9366    10065 
   10602    10960    11017    10542     9521     8264     7237     6832 
    7117     7808     8503     8851     8637     7959     7283     7076 
    7389     7867     8178     8336     8494     8569     8301     7491 
    6224     4897     3955     3670     4132     5132     6169     6766 
    6816     6644     6624     6817     7065     7299     7651     8314 
    9216     9941    10118     9722     9031     8433     8233     8499 
    9046     9563     9784     9612     9151     8588     8054     7554 
    6966     6207     5440     5020     5219     5900     6566     6786 
    6471     5795     5047     4500     4264     4329     4769     5730 
    7152     8652     9697     9818     8938     7578     6534     6291 
    6762     7469     7916     7924     7681     7524     7654     7915 
    7920     7578     7361     7900     9262    10694    11191    10308 
    8468     6666     5817     6106     7051     8090     8791     8861 
    8329     7569     7071     7071     7354     7481     7163     6525 
    6104     6386     7294     8198     8525     8240     7750     7469 
    7507     7685     7785     7672     7395     7246     7458     7897 
    8245     8368     8402     8496     8584     8448     7932     7132 
    6407     6133     6404     6944     7345     7371     7032     6632 
    6602     7037     7557     7719     7492     7298     7595     8452 
    9405     9840     9539     8761     7938     7449     7403     7588 
    7759     7832     7809     7726     7616     7549     7597     7758 
    7951     8104     8198     8341     8677     9146     9435     9184 
    8243     6917     5891     5665     6141     6791     7022     6531 
    5571     4772     4684     5402     6461     7261     7624     7838 
    8317     9207    10123    10417     9821     8681     7616     7091 
    7213     7738     8260     8469     8334     8102     8098     8502 
    9240     9963    10156     9594     8683     8081     8054     8357 
    8653     8839     9074     9532     9984     9850     8815     7206 
    5833     5517     6443     7985     9213     9489     8756     7520 
    6439     5859     5732     5786     5726     5481     5297     5524 
    6254     7237     8109     8653     8872     8966     9207     9647 
   10084    10285    10087     9377     8178     6778     5688     5332 
    5684     6381     7083     7686     8201     8614     8853     8708 
    8020     7015     6135     5709     5833     6277     6625     6658 
    6444     6158     5917     5771     5768     5976     6412     6903 
    7246     7510     7997     8924    10161    11291    11931    11942 
   11539    11198    11207    11388    11295    10540     9093     7406 
    6170     5780     6012     6261     6091     5553     5008     4707 
    4602     4425     3967     3375     3046     3222     3835     4730 
    5779     6833     7699     8233     8430     8429     8482     8785 
    9342    10004    10540    10717    10552    10365    10408    10524 
   10278     9410     8101     6820     6011     5842     6174     6745 
    7292     7545     7321     6735     6211     6147     6586     7267 
    7850     8048     7789     7294     6894     6772     6844     6870 
    6808     6914     7399     8137     8688     8563     7703     6636 
    6069     6304     7033     7678     7902     7727     7352     7092 
    7236     7750     8329     8758     9105     9601    10359    11153 
   11496    11079    10048     8891     8047     7645     7599     7793 
    8019     7962     7516     6913     6500     6613     7419     8669 
    9725    10021     9578     8949     8664     8831     9104     8959 
    8105     6728     5409     4635     4418     4378     4095     3395 
    2419     1524     1136     1551     2681     4158     5643     6934 
    7997     8953     9918    10921    11874    12595    12942    12789 
   11946    10404     8554     6966     6004     5660     5589     5339 
    4684     3804     3130     3030     3566     4430     5166     5578 
    5946     6683     7859     9150    10079    10288     9810     9077 
    8611     8694     9201     9782    10100     9998     9647     9375 
    9215     8939     8422     7751     7133     6767     6690     6785 
    6980     7321     7890     8676     9532    10269    10739    10901 
   10855    10701    10454    10129     9694     9053     8166     7128 
    6153     5447     5134     5216     5459     5501     5217     4735 
    4232     3892     3885     4267     4990     5952     7053     8210 
    9329    10288    10925    11024    10384     9078     7627     6631 
    6232     6054     5616     4855     4194     4014     4303     4806 
    5254     5483     5497     5382     5236     5213     5451     5935 
    6619     7491     8502     9595    10685    11565    11982    11819 
   11160    10242     9319     8473     7585     6585     5661     5120 
    5135     5695     6573     7369     7751     7688     7506     7612 
    8085     8575     8590     7902     6855     6247     6671     7893 
    8999     9096     8068     6721     5976     6045     6458     6675 
    6681     6933     7738     8829     9587     9595     9100     8930 
    9740    11379    13046    13975    14068    13917    14021    14169 
   13755    12536    10957     9818     9599    10125    10802    11107 
   10868    10187     9189     8019     6993     6517     6690     7140 
    7334     6947     6123     5443     5526     6469     7677     8395 
    8372     7985     7878     8352     8955     8857     7661     5823 
    4336     3888     4388     5239     5869     6178     6508     7137 
    7958     8608     8792     8525     8087     7753     7546     7219 
    6513     5447     4322     3511     3219     3492     4288     5451 
    6620     7354     7456     7173     6995     7219     7680     7900 
    7555     6727     5784     5078     4712     4595     4631     4801 
    5155     5737     6534     7473     8449     9306     9864     9988 
    9682     9150     8712     8603     8791     8962     8784     8216 
    7545     7175     7380     8105     8982     9655    10034    10193 
   10210    10127     9900     9378     8498     7531     7001     7219 
    7942     8534     8448     7631     6551     5780     5544     5717 
    5991     6045     5776     5412     5273     5464     5776     5849 
    5466     4768     4163     3969     4147     4401     4463     4291 
    4027     3863     4006     4563     5389     6211     6851     7302 
    7742     8401     9221     9880    10095     9811     9247     8843 
    8958     9525    10110    10315    10126     9886     9942    10345 
   10841    11091    10870    10201     9323     8469     7763     7290 
    7105     7169     7419     7794     8237     8815     9667    10782 
   11938    12829    13224    13134    12837    12683    12739    12729 
   12312    11326     9887     8430     7500     7276     7372     7225 
    6647     5871     5259     5078     5305     5591     5598     5386 
    5332     5687     6331     6914     7119     6860     6347     5983 
    6052     6405     6612     6397     5871     5458     5489     5815 
    5999     5721     5078     4619     4824     5532     6089     5952 
    5117     4168     3798     4255     5192     5971     6207     6131 
    6363     7292     8669     9864    10405    10278     9883     9699 
    9879    10204    10366    10239     9940     9643     9413     9182 
    8807     8244     7699     7481     7771     8471     9228     9663 
    9599     9211     8860     8748     8808     8938     9067     9144 
    9177     9130     8779     7886     6513     4966     3605     2764 
    2577     2893     3415     3896     4299     4743     5323     6038 
    6779     7412     7884     8225     8509     8785     9049     9235 
    9309     9200     8680     7582     6068     4496     3283     2795 
    3069     3728     4321     4703     5097     5749     6628     7491 
    8046     8118     7842     7578     7572     7793     8090     8360 
    8569     8699     8762     8754     8604     8328     8148     8313 
    8868     9613    10257    10638    10778    10789    10785    10709 
   10405     9940     9528     9211     8899     8502     7900     7111 
    6416     6045     6004     6218     6488     6567     6457     6273 
    5917     5201     4097     2775     1636     1093     1282     2035 
    3001     3762     4233     4796     5796     7082     8098     8311 
    7742     7102     7148     7956     8965     9474     9266     8911 
    9279    10698    12700    14401    15174    15155    14970    15012 
   15041    14497    13109    11265     9821     9298     9354     9192 
    8314     6949     5907     5818     6542     7376     7776     7813 
    7948     8486     9193     9420     8833     7873     7346     7749 
    8891    10111    10844    10914    10500     9919     9391     8995 
    8726     8536     8406     8451     8787     9340     9933    10439 
   10725    10692    10454    10331    10608    11130    11229    10312 
    8482     6481     5148     4807     5059     5167     4803     4329 
    4291     4760     5162     4851     3757     2477     1728     1786 
    2447     3179     3418     3059     2552     2427     2677     2844 
    2682     2490     2764     3612     4554     4981     4710     4202 
    4201     4968     6057     6787     6758     6122     5414     5034 
    5043     5219     5154     4646     4028     3869     4526     6037 
    8101    10149    11711    12645    12935    12717    12375    12243 
   12380    12556    12398    11817    11044    10336     9788     9220 
    8394     7431     6710     6442     6640     7338     8523     9979 
   11308    12247    12866    13324    13682    14042    14461    14875 
   15137    14909    13936    12413    10898     9929     9633     9680 
    9682     9618     9695     9882     9936     9670     9119     8672 
    8783     9429    10100    10220     9481     8017     6372     5081 
    4375     4126     3925     3473     2917     2695     3059     3715 
    4041     3663     2752     1915     1667     2065     2951     4199 
    5641     7141     8500     9342     9612     9688     9825    10046 
   10285    10301     9911     9139     8071     6921     5988     5352 
    4884     4390     3867     3757     4463     5607     6264     5896 
    4909     4288     4699     5953     7244     7751     7198     5976 
    4753     4021     3916     4226     4537     4618     4708     5116 
    5830     6613     7159     7410     7585     7713     7557     7007 
    6345     6160     6855     8091     8953     8823     7857     6662 
    5842     5649     5915     6336     6659     6808     6982     7337 
    7693     7780     7481     6750     5647     4376     3086     1861 
     853      270      380     1336     2776     3973     4818     5911 
    7358     8965    10744    12349    13439    14108    14588    15136 
   15911    16818    17537    17779    17494    16876    16224    15647 
   14993    14150    13269    12622    12228    11723    10783     9362 
    7472     5265     3279     2336     3071     5170     7329     8414 
    8353     7904     7878     8307     8326     7223     5274     3407 
    2488     2578     2702     1732     -656    -3843    -6625    -7867 
   -7264    -5447    -3283    -1248      645     2593     4550     6147 
    6980     6966     6696     7013     8148     9657    10809    11128 
   10871    10692    11011    11774    12406    12191    10886     8884 
    7078     6397     7086     8567    10135    11492    12711    13921 
   14925    15358    15290    15255    15556    15847    15445    13895 
   11410     8841     7242     7294     8795    10555    11075     9679 
    7011     4473     3199     3396     4471     5659     6527     7114 
    7804     8973    10736    12946    15188    16776    16974    15418 
   12434     9096     6706     5910     6303     6945     7140     6826 
    6436     6459     7056     7924     8455     8027     6409     4104 
    2154     1449     2187     3929     6043     7983     9440    10424 
   11095    11535    11931    12641    13787    15056    15963    16102 
   15373    14224    13412    13420    14183    15174    15522    14563 
   12644    10913    10179    10238    10112     8942     6764     4367 
    2546     1615     1383     1432     1408     1124      558      -79 
    -376      -76      720     1715     2516     2940     3227     3618 
    4077     4437     4618     4808     5202     5580     5478     4818 
    4110     3870     4135     4518     4549     3998     2949     1703 
     693      367      870     1962     3407     5138     7076     9027 
   10542    11167    11101    11164    12016    13563    14931    15172 
   14180    12684    11457    10758    10353     9823     9009     8216 
    7897     8187     8694     8711     7848     6404     5077     4355 
    4172     4136     4082     4182     4531     4984     5127     4565 
    3588     3042     3545     5077     6998     8424     8901     8581 
    7885     7191     6704     6455     6340     6255     6239     6407 
    6764     7101     7101     6824     6799     7389     8293     8845 
    8671     8114     8067     9094    10858    12490    13324    13582 
   14179    15641    17636    19269    19670    18751    17320    16274 
   15925    15969    15716    14615    12722    10581     8831     7797 
    6987     5587     3659     2025     1277     1325     1574     1513 
    1066      396     -179     -152      816     2397     3847     4733 
    5097     5165     5142     5111     5036     4911     4824     4878 
    5107     5524     6208     7226     8467     9622    10392    10721 
   10764    10687    10562    10266     9626     8842     8387     8453 
    8814     9090     8965     8266     7029     5529     4226     3570 
    3685     4303     5119     6072     7314     8884    10573    12152 
   13450    14357    14901    15240    15572    15858    15741    15026 
   13834    12328    10740     9336     8210     7446     7172     7271 
    7325     6947     5976     4491     2851     1548      773      356 
      87     -103      -99      302     1077     1877     2334     2347 
    2100     1915     2146     3028     4477     6087     7317     7786 
    7497     6886     6462     6332     6227     5910     5456     5201 
    5412     5979     6482     6597     6327     5973     5917     6301 
    6863     7119     6737     5787     4706     3974     3869     4371 
    5217     6097     6895     7743     8806    10145    11718    13311 
   14553    15237    15468    15340    14935    14517    14193    13828 
   13327    12703    12131    11772    11591    11404    11041    10651 
   10463    10326     9864     8783     7184     5665     4745     4409 
    4251     3813     2911     1788      936      596      626      793 
     976     1293     2068     3435     5092     6509     7388     7925 
    8606     9672    10876    11790    12245    12447    12696    13046 
   13282    13167    12664    11915    11202    10983    11470    12343 
   13154    13471    12942    11777    10561     9629     9054     8750 
    8441     7967     7349     6569     5722     5136     5051     5364 
    5819     6137     6084     5722     5339     5121     5266     6038 
    7472     9235    10841    12000    12735    13115    13027    12275 
   10945     9483     8279     7533     7264     7171     6863     6293 
    5830     5907     6602     7573     8262     8222     7510     6609 
    6054     6029     6166     6033     5676     5489     5782     6507 
    7253     7605     7543     7418     7518     7986     8839     9753 
   10289    10305     9933     9425     9026     8831     8746     8598 
    8386     8343     8766     9706    10840    11715    12040    11871 
   11437    10763     9718     8253     6471     4696     3403     2907 
    3137     3630     3817     3395     2512     1678     1341     1590 
    2219     2814     3049     3086     3275     3759     4456     4961 
    4814     4083     3372     3288     4028     5248     6268     6621 
    6466     6384     6868     7951     9219    10195    10628    10584 
   10417    10520    10922    11275    11219    10736    10103     9606 
    9327     9096     8592     7643     6430     5269     4267     3341 
    2513     1971     1814     1968     2245     2452     2563     2790 
    3429     4661     6399     8201     9641    10647    11264    11527 
   11624    11735    11871    12019    12245    12598    13015    13410 
   13668    13662    13406    12951    12258    11319    10239     9186 
    8278     7550     7013     6737     6874     7416     8166     8923 
    9509     9813     9826     9518     8915     8233     7680     7333 
    7133     6832     6272     5591     5000     4633     4558     4777 
    5228     5784     6327     6885     7622     8668     9969    11236 
   12116    12541    12748    12964    13257    13571    13794    13779 
   13363    12475    11227     9926     8912     8187     7392     6218 
    4661     3045     1819     1204     1038     1009      905      743 
