Origin Time       2025/01/13 21:19:00
Lat.              31.8
Long.             131.6
Depth. (km)       30
Mag.              6.9
Station Code      KGS022
Station Lat.      31.2804
Station Long.     131.0504
Station Height(m) 12
Record Time       2025/01/13 21:19:50
Sampling Freq(Hz) 100Hz
Duration Time(s)  98
Dir.              E-W
Scale Factor      7845(gal)/8223790
Max. Acc. (gal)   14.193
Last Correction   2025/01/13 21:19:50
Memo.             
[...]
    -444     -585     -488     -229       60      781     1772     2076 
     892    -1954    -5277    -6677    -5134    -2209      303     1802 
    1980     1030     -162    -1310    -2447    -2766    -1710     -361 
    -297    -1576    -2884    -3375    -3240    -2736    -1679      -40 
    1408     1915     2049     3036     4958     6366     5675     2776 
    -483    -2018    -1988    -2127    -2867    -3449    -4109    -5409 
   -6465    -5937    -3613     -333     2605     4114     4031     3233 
    2666     2088      903      -66      368     1351     1151      406 
    1016     2470     2629     1026    -1011    -2385    -3221    -4109 
   -4696    -4044    -2662    -1884    -1433     -186     1590     2517 
    1638     -402    -1458     -283     1895     3427     4255     4862 
    4783     3318     1021     -463     -238      556      -24    -2384 
   -5206    -7395    -8787    -9466    -9593    -9077    -7695    -6035 
   -4657    -3026     -922      920     2068     2474     2444     3272 
    5400     7022     6735     5100     3191     1788     1166      915 
    1073     2219     3288     2393      257    -1021    -1354    -1846 
   -2889    -3873    -3487    -1688     -629    -1325    -2135    -1864 
   -1312    -1709    -2997    -3388    -2020    -1271    -2965    -5235 
   -6168    -6249    -6304    -6066    -4569    -1476     1641     2394 
     475    -2014    -3585    -4430    -4336    -2309     1594     5622 
    7284     5356     1850     -125     -704    -1777    -2606    -1329 
    1171     2546     2305     1545      724     -565    -2311    -3738 
   -3775    -1491     2104     3821     2520      527     -468     -804 
    -920     -976     -855     -361     -237    -1162    -2417    -3470 
   -4681    -5703    -5495    -3457      174     3716     4784     2937 
     508       94     1968     4406     5995     6428     5445     3129 
     788     -429     -803    -1217    -2257    -3746    -4918    -5278 
   -4814    -4004    -3840    -4523    -4928    -4630    -4472    -4596 
   -4162    -3096    -2415    -2295    -1880    -1460    -2026    -3029 
   -3404    -3389    -3331    -3033    -3092    -3832    -3812    -2178 
    -247     1154     2951     5189     6195     5174     3302     2052 
    1711     1621     1526     1698     1460     -186    -2303    -2793 
   -1251      842     2041     1937     1219      876      842      422 
    -286     -827    -1402    -2421    -3851    -5185    -6079    -6949 
   -7875    -7812    -6075    -3396    -1343     -878    -1109     -603 
     379      876      915      805      639      195    -1003    -1973 
   -1227      125      283     -198     -417     -703    -1107    -1289 
   -1038     -189      496       95     -729     -918     -553     -398 
   -1138    -2916    -5166    -7020    -7719    -6959    -5401    -4170 
   -3487    -2880    -2351    -1980    -1115      639     2192     2450 
    2122     2204     2577     3082     3584     3366     2533     2488 
    3740     5154     5942     6588     6920     5748     3847     3969 
    6520     8820     8900     6910     3424    -1059    -5483    -8537 
   -9695    -9590    -9161    -8931    -8865    -8068    -5778    -3195 
   -2154    -2153    -1620     -649      122      992     1972     2054 
     417    -2088    -3462    -3096    -2442    -2555    -3222    -4498 
   -6158    -6400    -3601     1567     6921    10461    11160     9618 
    7353     4988     3059     2755     3634     3808     2947     1941 
     726    -1217    -3778    -6315    -7537    -6640    -4719    -2998 
   -1389       55      460     -737    -2781    -4186    -4588    -4804 
   -5067    -4901    -4278    -3894    -4518    -5825    -6386    -5174 
   -2155     1883     5574     8073     9286     8731     6336     3775 
    2641     2756     3433     4059     3770     2357      122    -2748 
   -5057    -5343    -3985    -1744     1356     4359     6080     6318 
    4592      935    -2898    -5437    -6571    -6484    -5721    -5093 
   -4436    -3404    -2749    -3138    -4325    -5719    -6498    -5998 
   -4256    -1656     1001     2056      415    -2833    -5765    -7412 
   -7418    -5795    -3558    -1966    -1200     -766     -153     1071 
    2733     4395     5860     6575     6269     5576     4540     2416 
    -456    -2639    -3326    -2616    -1067      -60     -599    -1777 
   -2489    -2972    -3265    -2713    -1277      719     2439     2173 
    -240    -2933    -4789    -5717    -5502    -4374    -2920    -1382 
      56     1286     2250     2470     1452     -864    -3723    -5098 
   -3959    -2424    -2484    -2979    -2459    -1501     -926     -668 
    -336      407     1611     3280     5282     6731     6844     5732 
    3647     1031     -751     -357     1624     2976     2569     1067 
   -1096    -3937    -6528    -7647    -7087    -5539    -3955    -2848 
   -2378    -2978    -4600    -6559    -8540    -9987    -9749    -7618 
   -4510    -1159     1941     3970     4460     3973     3164     1965 
     229    -1422    -2047    -1674    -1258    -1248    -1297    -1363 
   -1717    -1971    -1501     -415      923     2481     3769     4006 
    3451     2749     1910     1194     1003      900      386     -637 
   -2365    -4818    -7200    -8160    -7133    -4969    -2702     -715 
     872     2119     3258     4098     3948     2489      314    -1857 
   -3713    -4322    -2581      386     1884     1067     -743    -2427 
   -3543    -3611    -2554    -1129      -83      664     1548     2357 
    2351     1297     -465    -2523    -4365    -5509    -5605    -4095 
    -981     2062     3360     3015     1686      117     -256     1173 
    3456     5389     5896     4298     1431     -702     -980     -153 
     336       41     -248     -126     -483    -1872    -3407    -4284 
   -4818    -5197    -4905    -3848    -2666    -1777    -1278    -1501 
   -2370    -3024    -2899    -1779      750     4036     6201     6432 
    5360     3532     1551      394      249      427      619      706 
     -22    -1903    -3966    -4969    -4618    -3292    -1150     1621 
    4180     5923     7028     7279     6046     3699     1202    -1062 
   -2876    -4020    -4677    -4950    -4808    -4604    -4707    -5198 
   -6156    -7110    -6756    -4367     -792     2204     3292     2648 
    1524      639      -40     -249      352     1420     2327     2490 
    1536     -243    -2350    -4329    -5202    -4369    -2612    -1075 
    -232       45       58     -309    -1440    -3056    -4465    -5209 
   -4941    -3808    -2239     -241     1505     1591      117    -1665 
   -3271    -4133    -3272    -1107      961     1987      977    -2282 
   -5755    -7192    -6347    -3917     -507     2867     5113     6033 
    5973     5024     3326     1698     1016     1170     1321     1140 
     892      135    -1919    -4599    -6427    -7010    -6745    -5983 
   -5143    -4410    -3501    -2458    -1669    -1161     -622      279 
    1468     2322     2619     2957     3650     4309     4626     4421 
    3462     2257     1923     2613     3333     3312     2284      122 
   -2668    -4785    -5051    -3476    -1328      141      699      427 
    -689    -2027    -2886    -3388    -3519    -3024    -2416    -1944 
   -1050     -241     -688    -2100    -3639    -5247    -6687    -7165 
   -6258    -4529    -3180    -2732    -2578    -2338    -2358    -2643 
   -2694    -2313    -1528     -363      699      999      274    -1208 
   -2620    -3144    -2544    -1081      496     1282     1066      326 
    -665    -1780    -2243    -1333      322     1579     2122     2019 
    1305      411      -95     -129       55      380      849     1021 
     506      -74      140      984     1732     1941     1564      770 
     -86     -265      899     2856     4284     4459     3159      633 
   -1857    -3183    -3348    -2517     -764     1044     1714      899 
    -795    -2644    -4499    -6018    -6146    -4567    -2405     -683 
     522     1121      832     -106    -1209    -2123    -2388    -1792 
    -862     -237       44      305      662      834      556       13 
    -572    -1216    -1701    -1545     -634      268     -166    -2548 
   -5803    -8073    -8510    -7439    -5323    -2772    -1004     -936 
   -2015    -2764    -2307     -889      753     1956     2045      801 
    -818    -1726    -1807     -884     1440     4170     5404     4621 
    2799      931     -434     -945     -625     -317    -1252    -3623 
   -6262    -7920    -7834    -5737    -2736     -865     -874    -1892 
   -2978    -3450    -2809    -1345      306     1760     2347     1582 
      43    -1601    -3217    -4252    -4137    -3281    -2101     -658 
     415      572       76     -922    -2452    -3970    -4669    -4005 
   -2043      341     2374     3959     4827     4534     3450     2566 
    2613     3613     4941     5787     5579     4176     2027     -130 
   -1827    -2685    -2397    -1520    -1178    -1756    -2928    -4419 
   -5676    -5675    -4089    -1861      -89      918     1179      704 
    -194     -859     -819     -529     -708    -1224    -1804    -2448 
   -2571    -1559      189     1752     2489     2089      681     -866 
   -1476     -793      630     1744     1836     1135      259     -410 
    -696     -606     -207      225      148     -548    -1507    -2459 
   -2991    -2814    -2489    -2785    -3846    -5332    -6490    -6409 
   -5058    -3357    -1996    -1058     -252      967     2637     4018 
    4750     5009     4712     3821     2501      801     -769    -1620 
   -2242    -3152    -3639    -3257    -2848    -3010    -3200    -2592 
    -885     1383     3553     5564     6939     6700     5100     3129 
     966    -1043    -1914    -1763    -1602    -1584    -1626    -2370 
   -4013    -5544    -5755    -4683    -3736    -3969    -4993    -5948 
   -6381    -6220    -5427    -3919    -2072     -760     -453     -774 
   -1030     -958     -965    -1386    -1957    -2578    -3450    -4137 
   -4089    -3534    -2790    -2019    -1584    -1518    -1255     -322 
     990     1861     2189     2926     4468     5880     6119     5076 
    3427     1930      819       -4     -503     -639     -627     -652 
    -778    -1159    -1674    -1956    -2022    -1885    -1096      291 
    1335     1444      963      504      355       82     -778    -1418 
    -828      179      403       67     -538    -1579    -2451    -2434 
   -1680     -513      850     1802     1846     1204      225    -1011 
   -2092    -2116     -527     2092     4260     4804     3638     1398 
   -1088    -3080    -3996    -3504    -1983     -352      572      229 
   -1161    -2585    -3669    -4425    -4232    -3248    -2677    -2683 
   -2574    -2263    -1825    -1273    -1073    -1453    -2034    -2366 
   -2323    -2212    -2236    -1981    -1266     -749     -957    -1479 
   -1657    -1529    -1420    -1059     -166      645      691      218 
    -382    -1179    -2049    -2485    -2192    -1362     -450       35 
    -295    -1162    -1497     -743      465     1487     2126     2286 
    2582     3750     5040     5202     4070     2076      -68    -1471 
   -1776    -1117     -182     -232    -1490    -2748    -3497    -4237 
   -4942    -5382    -5737    -5563    -4089    -1705      376     1431 
    1620     1464     1251     1202     1607     2309     2682     2199 
     803     -911    -1961    -1887    -1135     -639    -1123    -2359 
   -3543    -4086    -3415    -1390      796     1779     1553      765 
    -180     -710     -544     -743    -2211    -3978    -4908    -5333 
   -5767    -5846    -5248    -4264    -3350    -2844    -2795    -2965 
   -2943    -2096     -259     1640     2763     3084     2533     1463 
    1042     1524     1865     1371      286     -756    -1227     -891 
     209     1563     2201     1638      564     -152     -508     -754 
    -949    -1421    -2181    -2494    -2119    -1483     -602      540 
    1336     1422     1142      978     1023      753     -278    -1692 
   -3044    -4241    -4803    -4313    -3138    -1764     -680     -353 
    -311      280     1470     3099     5082     6717     6972     5439 
    2637     -336    -2563    -3916    -4631    -4834    -4973    -5574 
   -6440    -7026    -7059    -6444    -5009    -2312     1779     6309 
    9883    11533    10461     6423      781    -4256    -7268    -7782 
   -6084    -3576    -2139    -2695    -5038    -8274   -10635   -10297 
   -6903    -1827     2583     4545     4005     2201      623      241 
     839     1100     -156    -2706    -5053    -5958    -5528    -4417 
   -2681     -345     1799     3160     4153     5424     6903     7913 
    7794     6400     4151     1680     -349    -1310    -1051     -209 
      27    -1023    -2539    -2920    -1377     1517     4226     5131 
    3823     1329     -912    -2002    -2322    -2978    -4297    -6093 
   -8604   -11558   -13382   -12603    -9186    -4228      658     3877 
    4920     4774     4506     4128     3406     2466     1250     -526 
   -2776    -4843    -6300    -7500    -8332    -7881    -6019    -3350 
    -101     3294     5852     7101     7393     7258     6886     6042 
    4835     3969     3514     2419     -471    -5182   -10072   -13005 
  -13062   -10524    -6312    -2052      789     1674      332    -2833 
   -5926    -7202    -6592    -4762    -2143      589     2292     2378 
    1210     -629    -2389    -2920    -1429     2006     6756    11438 
   14112    13830    11095     6963     2772     -330    -1917    -1814 
    -456      418     -631    -3464    -7442   -11524   -13956   -13946 
  -12278    -9952    -7553    -5432    -3507    -1458      733     2959 
    4866     5489     4446     2922     2215     2498     3485     4571 
    4788     4108     3631     4156     5898     8800    11642    12239 
    9609     4675     -797    -5132    -7329    -7094    -4869    -2072 
    -162      456     -175    -1998    -4423    -6613    -8001    -8218 
   -7150    -5343    -3719    -2714    -2297    -2398    -2979    -4133 
   -5656    -6737    -6845    -6042    -4197    -1552      610     1440 
    1196      371     -411     -484      537     2716     5412     7542 
    8506     8047     6073     3338      997     -498     -928     -226 
     652      792      430     -198    -1348    -2893    -4267    -4807 
   -4101    -2797    -2066    -2096    -2315    -2268    -1860    -1634 
   -2155    -3032    -3757    -4344    -4495    -4051    -3708    -4014 
   -4850    -5614    -5362    -3859    -1888      -37     1725     3798 
    6505     9123    10453    10309     8986     6582     3451      -62 
   -3663    -6640    -8298    -8424    -7645    -7287    -7881    -8706 
   -8914    -7728    -4865    -1705      190      882      753      102 
    -211       82      677     1583     2404     2432     1418     -985 
   -4828    -8572    -9810    -7194    -1414     5262    10407    12590 
   11970    10211     8888     7931     6698     5422     4317     3051 
    1749      831      226     -449    -1687    -3640    -5644    -7025 
   -7585    -7218    -6385    -6023    -6408    -6982    -6868    -5533 
   -3443    -1626     -751    -1170    -2976    -5300    -6372    -4854 
   -1028     3343     6394     7279     6014     3219      133    -2010 
   -2484    -1287      527     1744     2149     2126     2114     2450 
    2632     1922      832        0    -1150    -2716    -3597    -3308 
   -2447    -1572     -656      355      812      159    -1239    -2999 
   -4891    -6048    -5821    -4548    -2610     -121     2235     3495 
    3589     3126     2305     1024     -473    -1580    -1837    -1422 
    -815     -193      252      259      153      315       52    -1683 
   -4747    -7716    -9050    -8106    -5568    -3357    -3438    -6003 
   -9381   -11735   -12017    -9695    -5121     -197     2880     3356 
    1964      -12    -1528    -1899     -926      653     1486      845 
    -654    -1925    -2675    -3032    -2825    -2261    -2019    -2115 
   -2010    -1705    -1231      -91     1301     1570      580     -271 
     -64     1063     2704     4260     5067     4762     3285     1193 
    -322     -641     -286       -8     -329    -1638    -3609    -5192 
   -5810    -5589    -4595    -2894     -986      344      841     1344 
    2840     5154     7573     9622    10538     9768     8040     6396 
    5020     3727     2419     1073     -395    -2312    -4467    -5880 
   -6141    -5641    -4573    -3126    -2108    -2296    -3678    -5486 
   -6583    -6235    -4433    -1393     2450     5941     7708     7388 
    5734     3612     1374     -958    -3310    -5159    -5821    -5366 
   -4496    -3623    -2943    -2709    -2883    -3038    -2531     -938 
    1271     2967     3420     2690     1263     -112     -810     -812 
    -513     -699    -2566    -6358   -10450   -12699   -12285    -9957 
   -7122    -4968    -4136    -4630    -5811    -6725    -6593    -5046 
   -2235     1178     4347     6571     7392     6731     5200     3754 
    2781     2104     1557     1094      706       32    -1582    -3917 
   -5715    -6127    -5190    -3129     -299     2585     4675     5229 
    4002     1660     -552    -1725    -1752    -1016      210     1617 
    2366     1617     -697    -3744    -6018    -6274    -4320     -639 
    3619     6654     7376     5953     2859    -1028    -3923    -4295 
   -2122     1638     5842     8722     8329     4537     -697    -5089 
   -7111    -6120    -2555     1915     5055     5339     2941     -653 
   -3715    -4672    -2907      553     4047     6185     6111     4274 
    1984      -59    -1503    -2010    -2012    -2083    -2158    -2272 
   -2772    -3651    -4672    -5697    -6308    -6261    -5821    -5070 
   -4040    -2907    -1782    -1150    -1320    -1636    -1574    -1104 
    -103     1138     2019     2265     1445     -665    -3078    -4549 
   -4873    -4135    -2243      220     2309     3586     3618     2116 
    -149    -2100    -3360    -3993    -4136    -3879    -3292    -2751 
   -2867    -3851    -5182    -6212    -6705    -6439    -5084    -2830 
    -406     1514     2637     2975     2569     1467     -116    -1568 
   -2007    -1366     -580      -54      629     1341     1552     1444 
    1580     2074     2594     2920     3177     3468     3636     3476 
    2852     1830      864      298     -176     -942    -1902    -2884 
   -3850    -4580    -4774    -4391    -3886    -3906    -4349    -4553 
   -4337    -3682    -2397     -777      660     1701     1966     1254 
     194     -480     -413      483     1761     3002     4340     5510 
    5544     4091     1796     -535    -2220    -2691    -1842     -195 
    1219     1247     -433    -2844    -4652    -5200    -4552    -3181 
   -1746     -912    -1055    -1881    -2744    -3373    -3767    -3850 
   -3782    -3958    -4491    -5212    -5841    -5991    -5428    -4201 
   -2717    -1688    -1223     -598      481     1881     3554     4583 
    3709     1258    -1306    -2728    -2270     -199     2150     3265 
    2408      130    -2255    -3711    -3628    -1779      865     2374 
    2034      842     -275     -868     -453      699     1509     1345 
     383     -861    -1829    -2215    -2033    -1505    -1136    -1237 
   -1296     -781      -81      387      884     1386     1327      643 
