Origin Time       2025/01/13 21:19:00
Lat.              31.8
Long.             131.6
Depth. (km)       30
Mag.              6.9
Station Code      KGS005
Station Lat.      31.9006
Station Long.     130.4513
Station Height(m) 43
Record Time       2025/01/13 21:19:51
Sampling Freq(Hz) 100Hz
Duration Time(s)  125
Dir.              U-D
Scale Factor      3920(gal)/6182761
Max. Acc. (gal)   4.664
Last Correction   2025/01/13 21:19:52
Memo.             
[...]
  -22438   -22622   -22853   -23013   -23022   -22918   -22849   -22860 
  -22828   -22702   -22595   -22607   -22732   -22930   -23182   -23440 
  -23621   -23655   -23548   -23419   -23379   -23379   -23322   -23212 
  -23060   -22865   -22692   -22541   -22325   -22119   -22028   -21939 
  -21760   -21514   -21229   -21009   -20964   -21071   -21320   -21751 
  -22271   -22725   -23043   -23188   -23176   -23064   -22842   -22559 
  -22385   -22414   -22583   -22779   -22885   -22814   -22681   -22790 
  -23173   -23543   -23763   -23856   -23821   -23762   -23789   -23815 
  -23762   -23703   -23659   -23602   -23575   -23596   -23567   -23392 
  -23164   -23006   -22852   -22675   -22622   -22746   -22971   -23233 
  -23503   -23730   -23843   -23836   -23772   -23664   -23513   -23398 
  -23307   -23119   -22833   -22569   -22431   -22465   -22593   -22664 
  -22637   -22606   -22681   -22914   -23289   -23797   -24328   -24566 
  -24371   -23976   -23576   -23251   -23105   -23060   -22908   -22664 
  -22535   -22626   -22883   -23140   -23226   -23151   -23046   -23005 
  -23050   -23188   -23400   -23573   -23646   -23706   -23819   -23979 
  -24129   -24186   -24137   -23989   -23758   -23505   -23232   -22912 
  -22627   -22473   -22437   -22524   -22818   -23306   -23776   -23991 
  -23890   -23555   -23092   -22623   -22271   -22094   -22048   -22068 
  -22079   -21976   -21842   -21877   -22097   -22338   -22431   -22334 
  -22127   -21933   -21968   -22335   -22799   -23075   -23150   -23175 
  -23265   -23425   -23560   -23556   -23347   -22933   -22420   -21981 
  -21754   -21850   -22311   -22966   -23504   -23761   -23839   -23837 
  -23699   -23438   -23160   -22887   -22618   -22471   -22558   -22747 
  -22819   -22805   -22860   -22961   -22941   -22655   -22178   -21794 
  -21641   -21638   -21770   -22055   -22406   -22721   -22944   -23072 
  -23137   -23106   -22931   -22684   -22539   -22608   -22827   -23019 
  -23068   -23035   -23041   -23062   -23014   -22963   -22995   -23035 
  -23065   -23244   -23708   -24363   -24905   -25091   -24938   -24631 
  -24378   -24290   -24281   -24189   -23956   -23616   -23306   -23182 
  -23216   -23312   -23485   -23713   -23862   -23870   -23751   -23559 
  -23426   -23340   -23132   -22837   -22638   -22630   -22861   -23318 
  -23866   -24314   -24537   -24522   -24299   -23953   -23605   -23242 
  -22815   -22431   -22167   -22031   -22051   -22156   -22209   -22183 
  -22108   -22024   -22025   -22248   -22677   -23106   -23368   -23428 
  -23344   -23254   -23260   -23307   -23240   -22983   -22619   -22254 
  -21969   -21818   -21764   -21754   -21805   -21965   -22231   -22521 
  -22816   -23169   -23527   -23784   -23881   -23765   -23519   -23347 
  -23311   -23335   -23370   -23405   -23382   -23209   -22932   -22679 
  -22567   -22720   -23097   -23424   -23472   -23299   -23090   -22898 
  -22746   -22694   -22700   -22679   -22603   -22442   -22199   -21954 
  -21736   -21526   -21376   -21365   -21439   -21454   -21419   -21443 
  -21571   -21822   -22160   -22469   -22689   -22891   -23235   -23809 
  -24473   -24987   -25215   -25150   -24898   -24649   -24561   -24663 
  -24828   -24836   -24543   -24042   -23621   -23555   -23870   -24323 
  -24636   -24727   -24672   -24557   -24467   -24527   -24744   -24888 
  -24767   -24428   -23996   -23592   -23259   -22928   -22577   -22281 
  -22144   -22227   -22492   -22872   -23279   -23582   -23767   -23901 
  -24005   -24115   -24270   -24432   -24521   -24456   -24206   -23874 
  -23615   -23482   -23464   -23524   -23581   -23656   -23769   -23781 
  -23598   -23203   -22661   -22236   -22105   -22125   -22103   -21985 
  -21802   -21693   -21791   -22007   -22190   -22343   -22488   -22622 
  -22700   -22634   -22398   -22080   -21849   -21804   -21843   -21854 
  -21836   -21813   -21807   -21816   -21770   -21616   -21420   -21305 
  -21333   -21469   -21685   -21955   -22233   -22508   -22730   -22794 
  -22625   -22204   -21575   -20882   -20290   -19870   -19635   -19606 
  -19769   -20050   -20300   -20424   -20534   -20782   -21154   -21547 
  -21889   -22201   -22565   -22970   -23265   -23375   -23382   -23412 
  -23582   -23850   -24011   -24018   -23972   -23909   -23897   -24043 
  -24302   -24565   -24850   -25146   -25321   -25291   -25048   -24612 
  -24085   -23595   -23228   -23016   -22974   -23078   -23164   -23083 
  -22935   -22896   -23008   -23271   -23655   -24015   -24191   -24098 
  -23771   -23441   -23329   -23380   -23475   -23652   -23964   -24361 
  -24708   -24836   -24684   -24316   -23827   -23413   -23254   -23301 
  -23420   -23572   -23728   -23807   -23718   -23481   -23247   -23093 
  -22965   -22849   -22771   -22704   -22620   -22542   -22506   -22529 
  -22547   -22403   -22080   -21823   -21803   -21935   -22090   -22192 
  -22225   -22267   -22394   -22573   -22731   -22829   -22843   -22759 
  -22613   -22442   -22293   -22219   -22166   -22068   -22015   -22107 
  -22388   -22898   -23589   -24321   -24968   -25458   -25720   -25739 
  -25604   -25350   -24985   -24666   -24520   -24477   -24389   -24117 
  -23678   -23282   -23072   -23026   -23051   -23030   -22918   -22776 
  -22650   -22522   -22410   -22376   -22390   -22358   -22281   -22275 
  -22399   -22614   -22872   -23065   -23076   -22957   -22796   -22635 
  -22606   -22760   -22898   -22913   -22889   -22805   -22632   -22479 
  -22387   -22333   -22331   -22341   -22307   -22236   -22181   -22204 
  -22323   -22519   -22745   -22953   -23130   -23243   -23248   -23186 
  -23139   -23145   -23212   -23341   -23532   -23721   -23856   -23954 
  -24013   -24012   -23925   -23715   -23412   -23082   -22781   -22581 
  -22482   -22462   -22583   -22871   -23252   -23646   -23982   -24227 
  -24388   -24420   -24202   -23734   -23202   -22813   -22659   -22663 
  -22606   -22379   -22076   -21821   -21641   -21509   -21435   -21435 
  -21492   -21602   -21771   -22044   -22524   -23189   -23820   -24186 
  -24215   -24004   -23768   -23667   -23620   -23494   -23307   -23126 
  -23037   -23146   -23458   -23906   -24365   -24676   -24843   -24942 
  -24930   -24804   -24617   -24383   -24180   -24131   -24249   -24415 
  -24494   -24432   -24183   -23694   -23101   -22592   -22179   -21854 
  -21689   -21697   -21811   -21995   -22195   -22297   -22304   -22320 
  -22326   -22252   -22136   -22012   -21831   -21639   -21596   -21768 
  -22081   -22463   -22876   -23232   -23399   -23321   -23013   -22522 
  -22011   -21685   -21603   -21739   -22080   -22548   -23042   -23457 
  -23674   -23674   -23530   -23282   -22914   -22436   -21995   -21769 
  -21718   -21728   -21853   -22165   -22615   -23104   -23542   -23847 
  -23964   -23918   -23808   -23683   -23543   -23475   -23532   -23613 
  -23682   -23790   -23906   -24033   -24225   -24476   -24815   -25283 
  -25831   -26358   -26799   -27152   -27425   -27625   -27778   -27870 
  -27796   -27494   -27034   -26441   -25691   -24900   -24186   -23560 
  -23067   -22722   -22446   -22212   -22046   -21948   -21886   -21802 
  -21667   -21493   -21249   -20887   -20476   -20141   -19879   -19612 
  -19389   -19356   -19520   -19752   -19969   -20151   -20279   -20390 
  -20608   -20989   -21437   -21864   -22259   -22574   -22737   -22746 
  -22678   -22653   -22719   -22792   -22793   -22763   -22781   -22880 
  -23022   -23113   -23104   -23064   -23074   -23061   -22948   -22807 
  -22650   -22379   -21952   -21356   -20670   -20149   -19932   -19909 
  -19992   -20168   -20362   -20489   -20519   -20462   -20403   -20468 
  -20768   -21355   -22143   -22985   -23785   -24458   -24943   -25254 
  -25390   -25277   -24899   -24354   -23762   -23241   -22887   -22718 
  -22764   -23004   -23242   -23357   -23417   -23460   -23491   -23569 
  -23642   -23570   -23401   -23281   -23231   -23245   -23367   -23582 
  -23772   -23822   -23711   -23499   -23273   -23148   -23206   -23417 
  -23735   -24136   -24546   -24920   -25281   -25651   -25993   -26206 
  -26191   -25897   -25374   -24806   -24399   -24235   -24250   -24333 
  -24446   -24565   -24617   -24604   -24565   -24461   -24233   -23815 
  -23202   -22528   -21923   -21429   -21059   -20759   -20428   -20040 
  -19600   -19095   -18654   -18492   -18637   -19002   -19534   -20218 
  -21078   -22071   -23027   -23783   -24328   -24776   -25177   -25459 
  -25543   -25464   -25401   -25464   -25593   -25730   -25828   -25868 
  -25914   -25987   -26069   -26153   -26167   -26110   -26096   -26099 
  -25963   -25660   -25265   -24816   -24343   -23888   -23433   -23003 
  -22685   -22447   -22202   -21959   -21786   -21711   -21658   -21530 
  -21337   -21149   -21079   -21258   -21633   -21961   -22078   -21994 
  -21805   -21641   -21598   -21617   -21615   -21630   -21663   -21680 
  -21707   -21720   -21683   -21646   -21648   -21677   -21695   -21719 
  -21820   -21972   -22099   -22145   -22074   -21949   -21881   -21930 
  -22115   -22416   -22796   -23175   -23419   -23477   -23401   -23232 
  -23048   -22957   -22925   -22840   -22674   -22467   -22274   -22165 
  -22128   -22099   -22101   -22223   -22517   -22918   -23228   -23331 
  -23275   -23089   -22801   -22502   -22268   -22169   -22254   -22414 
  -22459   -22417   -22434   -22498   -22551   -22614   -22687   -22733 
  -22721   -22608   -22355   -21976   -21554   -21234   -21135   -21239 
  -21427   -21617   -21813   -22047   -22338   -22679   -23012   -23275 
  -23464   -23593   -23652   -23640   -23593   -23602   -23757   -24024 
  -24299   -24569   -24867   -25149   -25325   -25388   -25423   -25488 
  -25563   -25656   -25785   -25897   -25953   -25938   -25810   -25549 
  -25221   -24963   -24840   -24829   -24909   -25037   -25127   -25075 
  -24800   -24333   -23789   -23250   -22724   -22204   -21750   -21478 
  -21416   -21463   -21559   -21734   -22011   -22356   -22703   -22945 
  -23006   -22940   -22869   -22815   -22744   -22720   -22783   -22831 
  -22822   -22841   -22922   -23017   -23073   -23080   -23077   -23120 
  -23269   -23528   -23783   -23902   -23817   -23585   -23388   -23353 
  -23483   -23670   -23732   -23575   -23212   -22707   -22210   -21857 
  -21639   -21523   -21486   -21454   -21394   -21324   -21269   -21278 
  -21360   -21483   -21607   -21670   -21665   -21608   -21440   -21193 
  -21032   -21017   -21086   -21158   -21207   -21340   -21630   -21980 
  -22234   -22326   -22379   -22583   -23005   -23662   -24468   -25176 
  -25590   -25706   -25606   -25373   -25128   -25016   -25035   -24982 
  -24728   -24344   -23920   -23547   -23319   -23264   -23404   -23679 
  -23868   -23850   -23735   -23697   -23842   -24141   -24467   -24844 
  -25339   -25773   -25938   -25860   -25617   -25227   -24698   -24054 
  -23395   -22827   -22374   -22043   -21848   -21746   -21709   -21798 
  -22077   -22503   -22964   -23499   -24205   -24858   -25101   -24885 
  -24371   -23724   -23049   -22421   -21979   -21772   -21594   -21358 
  -21246   -21346   -21624   -22115   -22763   -23398   -23951   -24440 
  -24810   -24953   -24851   -24604   -24278   -23806   -23152   -22445 
  -21863   -21482   -21275   -21116   -20892   -20677   -20625   -20789 
  -21127   -21567   -22015   -22330   -22401   -22281   -22107   -22019 
  -22147   -22426   -22652   -22816   -23044   -23328   -23563   -23704 
  -23783   -23909   -24160   -24506   -24932   -25422   -25902   -26317 
  -26626   -26771   -26715   -26495   -26149   -25631   -25012   -24552 
  -24384   -24397   -24463   -24550   -24661   -24779   -24810   -24678 
  -24462   -24318   -24281   -24266   -24190   -23953   -23479   -22824 
  -22045   -21127   -20105   -19086   -18193   -17553   -17257   -17247 
  -17381   -17624   -17998   -18434   -18904   -19499   -20264   -21143 
  -22031   -22803   -23409   -23850   -24075   -24072   -23990   -23957 
  -23905   -23705   -23390   -23089   -22770   -22274   -21677   -21253 
  -21127   -21294   -21731   -22273   -22720   -23112   -23622   -24248 
  -24835   -25247   -25408   -25280   -24844   -24114   -23212   -22310 
  -21508   -20852   -20381   -20127   -20088   -20174   -20267   -20306 
  -20234   -20107   -20166   -20510   -20999   -21482   -21867   -22127 
  -22216   -22014   -21566   -21075   -20636   -20300   -20160   -20258 
  -20603   -21201   -21971   -22751   -23431   -24008   -24525   -25022 
  -25476   -25788   -25982   -26208   -26408   -26330   -25985   -25683 
  -25568   -25567   -25668   -25879   -26107   -26306   -26506   -26657 
  -26679   -26545   -26265   -25926   -25600   -25266   -24938   -24744 
  -24687   -24525   -24129   -23639   -23119   -22524   -21938   -21481 
  -21129   -20837   -20718   -20882   -21202   -21534   -21877   -22200 
  -22479   -22739   -22955   -23095   -23159   -23166   -23160   -23108 
  -22965   -22790   -22628   -22514   -22539   -22803   -23321   -24032 
  -24836   -25589   -26148   -26422   -26369   -26111   -25834   -25559 
  -25260   -25028   -24945   -24962   -25007   -25078   -25143   -25119 
  -24955   -24675   -24337   -23875   -23266   -22783   -22627   -22665 
  -22839   -23269   -23858   -24329   -24541   -24500   -24284   -23976 
  -23532   -22959   -22455   -22129   -21887   -21736   -21817   -22144 
  -22639   -23198   -23585   -23556   -23080   -22274   -21302   -20354 
  -19558   -18932   -18462   -18147   -18001   -18225   -19044   -20257 
  -21450   -22416   -23077   -23405   -23502   -23612   -24036   -24879 
  -25983   -27183   -28374   -29407   -30120   -30398   -30249   -29755 
  -28948   -27937   -26875   -25666   -24224   -22849   -21818   -21036 
  -20422   -20075   -19950   -19813   -19538   -19221   -18992   -18831 
  -18607   -18267   -17838   -17377   -17112   -17242   -17686   -18301 
  -18969   -19512   -19814   -19911   -19878   -19761   -19681   -19871 
  -20453   -21304   -22228   -23144   -24003   -24711   -25210   -25477 
  -25448   -25170   -24910   -24898   -25094   -25365   -25699   -26058 
  -26279   -26279   -26085   -25710   -25238   -24744   -24131   -23427 
  -22839   -22343   -21900   -21683   -21708   -21791   -21824   -21722 
  -21356   -20711   -19897   -19045   -18347   -18004   -18018   -18208 
  -18456   -18763   -19180   -19828   -20707   -21580   -22295   -22905 
  -23455   -23985   -24516   -24975   -25330   -25630   -25867   -26034 
  -26230   -26512   -26664   -26392   -25716   -24866   -24056   -23496 
  -23267   -23337   -23808   -24658   -25521   -26157   -26621   -27007 
  -27433   -28036   -28789   -29470   -29932   -30223   -30355   -30272 
  -30021   -29653   -29175   -28587   -27799   -26753   -25639   -24662 
  -23867   -23334   -23088   -22998   -23037   -23306   -23751   -24118 
  -24133   -23722   -22997   -22116   -21207   -20327   -19471   -18623 
  -17791   -17100   -16722   -16677   -16813   -17051   -17452   -17871 
  -18131   -18438   -18924   -19441   -19969   -20570   -21259   -22033 
  -22773   -23375   -23784   -23888   -23766   -23733   -23855   -23908 
  -23790   -23553   -23300   -23188   -23265   -23472   -23797   -24212 
  -24665   -25150   -25555   -25729   -25700   -25457   -24895   -24176 
  -23649   -23388   -23199   -22944   -22629   -22298   -21966   -21628 
  -21238   -20746   -20226   -19894   -19872   -20082   -20526   -21253 
  -22049   -22671   -23178   -23668   -24065   -24270   -24167   -23729 
  -23128   -22574   -22215   -22030   -21803   -21448   -21075   -20773 
  -20603   -20625   -20789   -20935   -20953   -20913   -21006   -21375 
  -21971   -22607   -23194   -23752   -24154   -24245   -24141   -24019 
  -23893   -23698   -23332   -22745   -22069   -21531   -21230   -21109 
  -21068   -21052   -21046   -21060   -21026   -20742   -20161   -19543 
  -19081   -18723   -18442   -18352   -18607   -19210   -19872   -20337 
  -20642   -20914   -21345   -22164   -23298   -24397   -25218   -25731 
  -26004   -26133   -26214   -26310   -26446   -26609   -26721   -26679 
  -26479   -26263   -26208   -26323   -26425   -26376   -26173   -25914 
  -25767   -25744   -25678   -25540   -25440   -25441   -25551   -25713 
  -25785   -25707   -25534   -25224   -24694   -24018   -23310   -22638 
  -22081   -21646   -21232   -20809   -20561   -20665   -21019   -21387 
  -21694   -22018   -22363   -22610   -22736   -22858   -23033   -23254 
  -23534   -23862   -24174   -24413   -24591   -24723   -24737   -24564 
  -24297   -24097   -23990   -23885   -23764   -23769   -24000   -24369 
  -24783   -25287   -25893   -26492   -26990   -27333   -27462   -27400 
  -27182   -26773   -26168   -25449   -24813   -24449   -24267   -24082 
  -23826   -23434   -22889   -22272   -21620   -21006   -20546   -20266 
  -20109   -19998   -19947   -20077   -20352   -20563   -20639   -20704 
  -20885   -21185   -21521   -21857   -22206   -22501   -22654   -22703 
  -22714   -22692   -22643   -22541   -22348   -22090   -21821   -21530 
  -21190   -20815   -20416   -20003   -19608   -19196   -18714   -18230 
  -17825   -17545   -17512   -17774   -18189   -18634   -19079   -19510 
  -19964   -20508   -21183   -21974   -22809   -23550   -24045   -24299 
  -24447   -24549   -24647   -24788   -24878   -24773   -24473   -24117 
  -23862   -23707   -23491   -23183   -22931   -22818   -22799   -22821 
  -22847   -22839   -22803   -22797   -22859   -22972   -23085   -23166 
  -23277   -23512   -23786   -23909   -23870   -23747   -23489   -23062 
  -22554   -22086   -21792   -21799   -22097   -22479   -22702   -22734 
  -22703   -22693   -22739   -22889   -23167   -23560   -24023   -24462 
  -24795   -25077   -25412   -25747   -25892   -25677   -25132   -24449 
  -23679   -22773   -21833   -20984   -20255   -19694   -19343   -19201 
  -19205   -19235   -19330   -19648   -20143   -20638   -21083   -21532 
  -21986   -22309   -22394   -22331   -22229   -22100   -22002   -21984 
  -22058   -22305   -22729   -23208   -23743   -24420   -25172   -25867 
  -26485   -27060   -27617   -28116   -28404   -28410   -28229   -27948 
  -27575   -27115   -26686   -26431   -26360   -26366   -26361   -26363 
  -26408   -26467   -26557   -26719   -26942   -27202   -27487   -27750 
  -27921   -27955   -27830   -27574   -27290   -27026   -26708   -26293 
  -25815   -25310   -24843   -24404   -23828   -23035   -22127   -21211 
  -20378   -19749   -19407   -19307   -19341   -19463   -19651   -19886 
  -20231   -20749   -21303   -21692   -21924   -22084   -22164   -22240 
  -22456   -22682   -22723   -22698   -22747   -22845   -22977   -23072 
  -23066   -23041   -23065   -23081   -23064   -23095   -23201   -23303 
  -23362   -23371   -23307   -23160   -22932   -22643   -22260   -21727 
  -21133   -20653   -20354   -20192   -20121   -20149   -20224   -20204 
  -20101   -20115   -20344   -20703   -21044   -21273   -21408   -21504 
  -21647   -21905   -22209   -22446   -22583   -22600   -22494   -22307 
  -22093   -21912   -21831   -21828   -21844   -21901   -21997   -22089 
  -22175   -22240   -22326   -22522   -22805   -23091   -23259   -23202 
  -22996   -22753   -22439   -22101   -21882   -21774   -21702   -21704 
  -21832   -22047   -22293   -22526   -22675   -22709   -22699   -22698 
  -22693   -22757   -22931   -23114   -23265   -23409   -23490   -23489 
  -23466   -23410   -23253   -23060   -22974   -22994   -23035   -23091 
  -23220   -23430   -23701   -24072   -24571   -25134   -25655   -26089 
