Origin Time       2025/01/13 21:19:00
Lat.              31.8
Long.             131.6
Depth. (km)       30
Mag.              6.9
Station Code      KGS020
Station Lat.      31.2396
Station Long.     130.4915
Station Height(m) 21
Record Time       2025/01/13 21:19:53
Sampling Freq(Hz) 100Hz
Duration Time(s)  109
Dir.              U-D
Scale Factor      7845(gal)/8223790
Max. Acc. (gal)   6.940
Last Correction   2025/01/13 21:19:53
Memo.             
[...]
    8463     9134     9753    10222    10461    10442    10199     9807 
    9304     8715     8094     7526     7171     7209     7647     8343 
    9128     9819    10278    10486    10415     9984     9170     8085 
    6986     6151     5729     5811     6489     7693     9150    10488 
   11333    11373    10459     8743     6697     4918     3947     4162 
    5675     8208    11136    13702    15221    15291    13918    11514 
    8854     6710     5377     4779     4885     5734     7223     9094 
   10916    12136    12402    11724    10357     8700     7272     6532 
    6637     7341     8166     8698     8716     8228     7469     6741 
    6218     5973     6034     6353     6899     7751     8927    10184 
   11129    11483    11234    10659    10122     9794     9663     9659 
    9599     9292     8712     7970     7244     6810     6925     7573 
    8444     9135     9414     9297     8970     8622     8310     8020 
    7742     7464     7231     7200     7489     8046     8737     9437 
   10025    10396    10466    10204     9698     9058     8349     7627 
    6959     6386     5942     5775     6122     7069     8424     9729 
   10426    10235     9406     8426     7653     7263     7308     7704 
    8307     8981     9516     9693     9498     9082     8599     8275 
    8321     8696     9202     9641     9803     9531     8834     7936 
    7222     6978     7196     7655     8172     8777     9583    10492 
   11218    11600    11612    11315    10855    10234     9277     7942 
    6450     5219     4699     5101     6286     7869     9369    10396 
   10741    10349     9385     8262     7426     7148     7545     8552 
    9832    10905    11364    11013     9969     8536     6961     5454 
    4367     4167     5135     7223    10007    12691    14457    14812 
   13644    11227     8143     5113     2848     1854     2303     3973 
    6385     8989    11237    12684    13119    12540    11101     9158 
    7275     6008     5690     6331     7659     9273    10754    11712 
   11928    11365    10096     8345     6542     5219     4858     5593 
    7038     8575     9715    10201     9994     9275     8351     7554 
    7215     7562     8552     9865    11137    12078    12455    12056 
   10859     9139     7371     6048     5482     5721     6654     8090 
    9818    11570    12957    13566    13140    11707     9613     7430 
    5729     4950     5231     6230     7354     8240     8861     9297 
    9545     9513     9112     8336     7295     6320     5833     5975 
    6548     7306     8168     9080     9927    10678    11338    11774 
   11757    11126     9958     8656     7670     7121     6961     7211 
    7823     8626     9462    10218    10778    10980    10687     9992 
    9208     8584     8110     7657     7215     6879     6709     6736 
    6947     7265     7580     7746     7673     7453     7299     7319 
    7514     7936     8588     9286     9809    10026     9892     9462 
    8847     8129     7465     7133     7306     7947     8845     9597 
    9838     9558     9035     8596     8424     8469     8563     8602 
    8617     8648     8662     8645     8646     8644     8534     8338 
    8183     8106     8059     8010     7977     8013     8090     8060 
    7920     7909     8276     9058     9976    10578    10574     9923 
    8841     7796     7252     7344     7924     8764     9660    10399 
   10698    10347     9459     8432     7616     7180     7165     7501 
    8033     8536     8779     8700     8459     8299     8451     9028 
    9923    10777    11134    10793     9954     9036     8364     7971 
    7700     7452     7241     7111     7188     7618     8328     9013 
    9343     9162     8596     7954     7539     7526     7844     8272 
    8694     9100     9401     9499     9406     9185     8932     8729 
    8569     8482     8525     8640     8706     8714     8781     9018 
    9398     9790    10073    10273    10474    10566    10314     9701 
    8919     8147     7435     6801     6349     6189     6347     6833 
    7682     8861    10174    11226    11604    11146     9960     8325 
    6656     5425     4982     5310     6115     7140     8217     9188 
    9879    10106     9823     9215     8565     8114     7997     8280 
    8955     9873    10804    11530    11869    11682    10963     9811 
    8424     7209     6617     6789     7487     8334     9047     9514 
    9672     9424     8770     7929     7210     6804     6748     7024 
    7558     8197     8793     9259     9490     9350     8781     7909 
    7028     6523     6654     7364     8405     9524    10469    10982 
   10899    10199     8959     7377     5842     4837     4747     5756 
    7605     9606    11088    11707    11373    10218     8590     6918 
    5606     4996     5158     5830     6754     7863     9089    10141 
   10642    10451     9757     8887     8112     7632     7608     8147 
    9185    10449    11577    12143    11790    10504     8673     6943 
    5911     5829     6589     7896     9412    10793    11719    12028 
   11718    10868     9633     8222     6921     5994     5591     5778 
    6469     7425     8376     9126     9564     9690     9583     9383 
    9215     9161     9224     9343     9454     9508     9428     9109 
    8598     8100     7777     7738     8083     8816     9748    10520 
   10795    10432     9521     8214     6656     5208     4379     4463 
    5452     7115     9036    10717    11801    12183    11916    11097 
    9888     8557     7410     6706     6593     7083     8109     9450 
   10654    11245    11009    10058     8739     7477     6624     6415 
    6937     8063     9432    10515    10855    10341     9173     7708 
    6455     5949     6419     7627     9020    10057    10490    10392 
    9942     9271     8499     7705     6916     6239     5880     5969 
    6552     7597     8834     9880    10552    10820    10701    10266 
    9568     8723     8028     7739     7801     7920     7906     7776 
    7593     7472     7520     7688     7828     7870     7893     8100 
    8660     9499    10261    10530    10139     9207     8012     6986 
    6494     6561     6949     7429     7889     8407     9096     9860 
   10469    10771    10728    10462    10247    10278    10450    10424 
    9967     9104     8048     7103     6565     6554     7006     7773 
    8627     9342     9780     9836     9445     8689     7758     6939 
    6535     6646     7148     7877     8665     9346     9845    10166 
   10285    10185     9902     9475     8954     8471     8185     8163 
    8368     8722     9116     9482     9740     9736     9288     8364 
    7258     6443     6301     6960     8230     9697    10903    11484 
   11296    10515     9531     8688     8097     7740     7627     7742 
    7973     8172     8290     8407     8608     8887     9177     9436 
    9609     9556     9144     8449     7765     7349     7279     7553 
    8052     8510     8710     8626     8310     7889     7632     7767 
    8289     8962     9413     9439     9215     8969     8706     8365 
    7973     7584     7236     6898     6550     6345     6505     7052 
    7805     8619     9429    10157    10659    10832    10727    10500 
   10301    10173    10048     9860     9545     9004     8247     7462 
    6920     6852     7352     8306     9391    10200    10501    10335 
    9869     9286     8718     8190     7728     7443     7388     7489 
    7742     8186     8721     9224     9675     9991    10037     9802 
    9396     8932     8515     8239     8170     8388     8904     9499 
    9845     9837     9587     9144     8445     7511     6486     5578 
    5057     5227     6188     7716     9428    10932    11890    12096 
   11453    10012     8075     6172     4838     4403     4966     6330 
    8020     9591    10721    11134    10763     9834     8703     7682 
    6974     6643     6682     7119     7924     8955    10079    11090 
   11603    11284    10152     8552     7010     6131     6272     7315 
    8842    10345    11407    11821    11516    10588     9293     7875 
    6501     5471     5197     5821     7072     8503     9690    10388 
   10597    10397     9861     9161     8486     7920     7484     7200 
    7126     7350     7920     8737     9609    10385    10966    11229 
   11099    10652    10081     9517     8877     8025     7078     6378 
    6208     6586     7302     8037     8594     8959     9192     9315 
    9335     9255     9078     8865     8757     8926     9466    10295 
   11103    11466    11111    10122     8854     7730     7056     6944 
    7377     8220     9207    10072    10694    11079    11180    10822 
    9988     8930     7947     7240     6862     6679     6536     6490 
    6671     7045     7454     7695     7612     7283     6932     6682 
    6581     6658     6893     7308     7962     8765     9437     9701 
    9472     8849     8021     7308     6995     7180     7875     8969 
   10122    10953    11252    10991    10258     9161     7875     6701 
    5953     5836     6338     7236     8247     9042     9277     8900 
    8190     7423     6824     6640     7021     7985     9404    10924 
   12075    12465    11955    10801     9486     8395     7680     7366 
    7500     8035     8714     9208     9273     8835     8039     7198 
    6648     6610     7148     8171     9437    10563    11107    10744 
    9497     7785     6215     5275     5228     6122     7747     9705 
   11574    12972    13566    13178    11908    10126     8241     6559 
    5425     5130     5706     6975     8645    10332    11658    12360 
   12333    11599    10328     8893     7732     7110     7037     7342 
    7832     8391     8838     8860     8189     6847     5252     4071 
    3937     5223     7762    10795    13400    14964    15283    14411 
   12474     9705     6604     3855     2189     2204     3996     7067 
   10574    13563    15313    15538    14296    11905     8843     5687 
    3179     2034     2601     4664     7479    10169    12090    12737 
   11896     9942     7524     5184     3474     2868     3453     5076 
    7543    10396    12823    14099    13894    12382    10158     7855 
    5899     4612     4264     4923     6404     8375    10358    11816 
   12438    12156    11117     9748     8561     8019     8332     9215 
   10183    11034    11761    12185    12029    11076     9332     7194 
    5202     3773     3241     3790     5325     7499     9751    11357 
   11782    11030     9421     7346     5362     4148     4137     5206 
    6913     8789    10355    11122    10844     9759     8380     7055 
    5937     5220     5128     5688     6671     7778     8833     9775 
   10535    11003    11146    10866    10017     8676     7129     5740 
    4843     4629     5190     6407     7798     8945     9837    10643 
   11379    11827    11672    10754     9244     7524     5969     5001 
    5073     6315     8321    10457    12179    13139    13178    12286 
   10598     8473     6407     4888     4355     5046     6725     8758 
   10478    11458    11531    10751     9416     7948     6679     5837 
    5591     5985     6875     7956     8993     9938    10700    11088 
   11115    10955    10727    10513    10324    10029     9526     8955 
    8723     9082     9845    10683    11358    11730    11734    11257 
   10228     8888     7638     6708     6208     6211     6551     7052 
    7807     8853     9977    10918    11504    11708    11596    11186 
   10384     9043     7204     5197     3346     1987     1668     2781 
    5152     8247    11430    14030    15523    15728    14719    12764 
   10374     8141     6524     5726     5656     6004     6416     6764 
    7117     7427     7577     7542     7330     7091     7152     7631 
    8432     9532    10760    11684    11996    11639    10658     9244 
    7825     6759     6110     5879     6181     7071     8318     9493 
   10268    10585    10554    10301     9913     9510     9256     9185 
    9127     8893     8495     8035     7588     7307     7258     7295 
    7395     7658     7946     8024     7871     7528     7068     6739 
    6725     7053     7801     8937    10080    10679    10378     9325 
    8109     7253     6918     6988     7271     7722     8451     9467 
   10593    11445    11503    10528     8756     6718     5092     4426 
    4837     6066     7789     9702    11419    12568    12970    12588 
   11569    10235     8785     7344     6295     6031     6593     7731 
    9022    10006    10467    10408     9869     8965     7927     7069 
    6629     6536     6500     6304     5971     5787     6073     6856 
    7904     8816     9134     8753     7946     7060     6434     6150 
    6118     6399     6917     7500     8209     9039     9876    10716 
   11383    11665    11619    11315    10805    10258     9813     9533 
    9381     9140     8677     8128     7668     7398     7375     7554 
    7812     7936     7735     7288     6871     6631     6573     6751 
    7199     7867     8696     9477     9985    10273    10327    10126 
   10044    10401    11281    12715    14160    14831    14574    13571 
   12202    11119    10696    10899    11462    11917    11973    11630 
   10839     9578     8071     6565     5316     4737     5049     6118 
    7690     9317    10482    10917    10539     9429     7874     6237 
    4831     3943     3855     4757     6619     9070    11423    12874 
   12879    11360     8645     5470     2782     1343     1584     3423 
    6174     9022    11291    12428    12306    11230     9609     7993 
    6937     6597     6805     7346     7993     8631     9281     9868 
   10212    10200     9871     9418     9099     9076     9405    10072 
   10889    11514    11668    11271    10423     9232     7759     6164 
    4698     3634     3321     3958     5302     6802     7929     8367 
    8116     7480     6835     6521     6674     7122     7654     8172 
    8634     9045     9364     9441     9290     9184     9271     9441 
    9564     9525     9270     8911     8586     8372     8336     8426 
    8448     8189     7510     6486     5474     4945     5186     6083 
    7225     8241     8934     9198     9054     8671     8137     7454 
    6743     6214     6129     6723     7933     9370    10569    11215 
   11242    10763     9991     9144     8311     7547     7091     7214 
    7811     8573     9404    10192    10729    10995    11070    11007 
   10841    10436     9742     8938     8109     7349     6870     6762 
    7052     7722     8488     9043     9269     9086     8517     7705 
    6851     6309     6388     6994     7879     8927    10007    10945 
   11681    12190    12360    12113    11518    10760    10080     9672 
    9614     9888    10357    10816    11192    11479    11537    11151 
   10179     8648     6867     5352     4511     4457     5139     6486 
    8255     9925    11088    11641    11605    11161    10501     9647 
    8812     8326     8166     8245     8606     9077     9433     9516 
    9097     8186     7117     6262     5976     6400     7354     8545 
    9545     9972     9855     9356     8499     7450     6440     5568 
    5069     5227     6030     7279     8708     9979    10829    11136 
   10887    10226     9271     8102     7036     6507     6700     7568 
    8976    10620    12063    12961    13217    12881    11988    10596 
    8937     7399     6351     6038     6450     7362     8496     9495 
   10033     9941     9169     7912     6600     5567     5035     5167 
    5919     7091     8487     9910    11052    11570    11349    10552 
    9436     8267     7302     6754     6733     7184     7851     8391 
    8549     8201     7392     6426     5698     5413     5582     6129 
    6864     7624     8320     8853     9225     9522     9703     9636 
    9244     8584     7885     7384     7155     7146     7338     7744 
    8289     8853     9418     9960    10345    10530    10577    10489 
   10338    10330    10523    10783    10963    10917    10616    10265 
    9999     9678     9169     8556     7990     7578     7348     7229 
    7156     7126     7165     7287     7516     7840     8104     8132 
    7879     7462     7080     6883     6941     7295     7888     8475 
    8784     8746     8453     8008     7539     7113     6736     6571 
    6814     7493     8553     9841    11084    12044    12557    12528 
   11990    11109    10048     8988     8220     8060     8706     9994 
   11416    12472    12841    12475    11589    10385     8978     7635 
    6669     6208     6354     7200     8607    10104    11098    11303 
   10771     9710     8513     7546     6924     6681     6840     7292 
    7879     8433     8770     8765     8309     7418     6338     5391 
    4896     5013     5707     6879     8306     9593    10411    10694 
   10590    10331    10093     9972     9936     9867     9721     9520 
    9286     9088     9000     9038     9211     9479     9715     9875 
    9942     9852     9626     9379     9175     9030     8935     8853 
    8708     8472     8209     8040     8089     8445     9161    10127 
   11080    11835    12359    12582    12348    11556    10180     8328 
    6407     4984     4432     4756     5680     6876     8025     8864 
    9310     9360     9003     8317     7456     6619     6065     6033 
    6631     7726     8986    10081    10746    10763    10044     8718 
    7123     5649     4672     4425     4874     5823     6984     8033 
    8742     8947     8657     8131     7568     7159     7202     7649 
    8195     8684     8943     8908     8796     8722     8635     8492 
    8293     8251     8607     9242     9911    10500    10921    11165 
   11229    10983    10467     9949     9583     9362     9256     9251 
    9306     9308     9126     8725     8143     7456     6758     6134 
    5672     5449     5487     5744     6133     6555     6872     7010 
    7105     7283     7477     7703     8085     8600     9177     9738 
   10089    10160    10083     9857     9466     9072     8712     8380 
    8270     8537     9224    10304    11564    12687    13371    13365 
   12646    11443    10044     8737     7746     7111     6808     6755 
    6772     6787     6901     7117     7344     7550     7681     7734 
    7893     8264     8754     9262     9653     9771     9572     9108 
    8526     8024     7712     7749     8248     9082    10084    11060 
   11716    11962    11788    11134    10146     9003     7834     7002 
    6787     7102     7700     8306     8768     9019     8930     8422 
    7584     6610     5733     5097     4773     4899     5603     6787 
    8162     9445    10346    10647    10432     9925     9275     8610 
    8062     7797     7982     8536     9211     9865    10269    10060 
    9182     7808     6118     4563     3631     3454     4018     5219 
    6678     8013     9076     9849    10315    10413    10120     9472 
    8552     7623     7102     7176     7688     8384     9050     9602 
   10125    10654    11141    11493    11554    11302    10882    10438 
   10218    10519    11286    12208    13039    13510    13547    13370 
   12993    12313    11354    10099     8658     7310     6319     6002 
    6490     7520     8770    10022    11020    11543    11477    10735 
