Origin Time       2025/01/13 21:19:00
Lat.              31.8
Long.             131.6
Depth. (km)       30
Mag.              6.9
Station Code      KGS027
Station Lat.      30.3488
Station Long.     130.8829
Station Height(m) 15
Record Time       2025/01/13 21:20:27
Sampling Freq(Hz) 100Hz
Duration Time(s)  71
Dir.              U-D
Scale Factor      3920(gal)/6182761
Max. Acc. (gal)   1.165
Last Correction   2025/01/13 21:20:27
Memo.             
[...]
   27139    27113    26942    26831    26868    26972    26989    26883 
   26814    26914    27076    27113    27000    26848    26758    26780 
   26913    27092    27261    27430    27563    27546    27348    27100 
   26969    27014    27173    27319    27299    27098    26986    27184 
   27504    27608    27443    27185    26981    26906    26996    27195 
   27323    27227    26946    26686    26647    26896    27324    27684 
   27746    27486    27137    26992    27135    27394    27554    27566 
   27468    27252    26937    26633    26428    26337    26348    26417 
   26485    26514    26528    26623    26861    27135    27242    27118 
   26948    26977    27170    27250    27134    27039    27110    27205 
   27131    26905    26697    26639    26723    26843    26919    26957 
   26992    27048    27129    27200    27222    27215    27230    27268 
   27273    27217    27159    27146    27151    27162    27193    27196 
   27103    26977    26978    27125    27227    27152    27058    27202 
   27552    27763    27585    27148    26805    26774    26933    27025 
   26993    26966    27011    27020    26856    26541    26279    26311 
   26703    27227    27525    27469    27267    27126    27019    26886 
   26801    26839    26950    27037    27067    27077    27097    27126 
   27166    27208    27210    27167    27116    27079    27074    27138 
   27271    27405    27481    27479    27398    27267    27137    27057 
   27063    27185    27403    27604    27695    27691    27623    27478 
   27296    27187    27188    27218    27211    27175    27132    27073 
   27009    26991    27031    27060    27045    27069    27199    27362 
   27427    27364    27269    27213    27151    27034    26911    26863 
   26922    27028    27086    27069    27015    26974    26965    26977 
   26986    26969    26900    26799    26766    26832    26895    26907 
   26974    27164    27348    27376    27280    27196    27149    27096 
   27083    27122    27088    26936    26814    26841    26955    27025 
   27000    26917    26837    26806    26856    26987    27161    27354 
   27575    27808    27977    27964    27693    27216    26732    26487 
   26598    26977    27398    27649    27654    27492    27296    27144 
   27012    26909    26968    27257    27579    27650    27436    27135 
   26908    26732    26508    26239    26075    26138    26391    26686 
   26880    26887    26696    26389    26161    26174    26366    26565 
   26740    26933    27058    26981    26753    26580    26611    26856 
   27247    27668    27964    28006    27803    27536    27401    27446 
   27533    27485    27284    27034    26775    26514    26342    26342 
   26486    26683    26848    26924    26919    26909    26973    27122 
   27264    27291    27214    27115    27041    26992    26952    26922 
   26925    26959    26971    26930    26891    26945    27132    27417 
   27667    27711    27499    27197    27000    26940    26970    27056 
   27145    27169    27138    27161    27332    27592    27780    27830 
   27794    27718    27592    27418    27294    27338    27502    27550 
   27326    26947    26652    26534    26547    26653    26824    26965 
   27004    27008    27076    27184    27230    27179    27124    27151 
   27208    27218    27207    27234    27281    27258    27109    26885 
   26684    26577    26599    26743    26941    27077    27048    26879 
   26740    26736    26806    26887    26991    27107    27168    27101 
   26885    26609    26450    26523    26750    26947    26997    26912 
   26778    26675    26633    26623    26632    26709    26897    27130 
   27278    27259    27101    26944    26918    26995    27045    27043 
   27067    27137    27170    27076    26878    26721    26726    26870 
   27040    27163    27249    27327    27371    27347    27284    27251 
   27305    27439    27519    27426    27233    27125    27178    27282 
   27299    27268    27383    27700    27925    27732    27226    26866 
   26914    27170    27321    27317    27265    27203    27114    27000 
   26880    26814    26873    27027    27128    27079    26942    26852 
   26882    26997    27121    27210    27219    27124    26989    26911 
   26899    26888    26855    26822    26775    26685    26603    26638 
   26831    27108    27311    27328    27227    27185    27263    27365 
   27403    27389    27357    27312    27286    27309    27321    27215 
   27002    26800    26694    26702    26789    26889    26984    27090 
   27150    27074    26889    26760    26789    26894    26956    26990 
   27068    27180    27250    27227    27134    27050    27037    27059 
   27016    26876    26740    26700    26712    26686    26642    26670 
   26776    26884    26968    27081    27240    27366    27362    27220 
   27041    26946    26954    27005    27073    27141    27156    27068 
   26892    26717    26659    26796    27098    27406    27561    27538 
   27403    27239    27109    27045    27025    27006    26980    26985 
   27024    27040    26990    26915    26914    27045    27257    27389 
   27326    27175    27148    27272    27364    27290    27094    26894 
   26770    26791    26997    27287    27470    27476    27397    27329 
   27254    27114    26986    27049    27316    27527    27424    27050 
   26684    26528    26556    26663    26804    26946    27005    26947 
   26893    26978    27147    27229    27183    27094    26973    26794 
   26639    26620    26766    27049    27365    27521    27353    26908 
   26502    26458    26738    27013    27087    27025    26941    26868 
   26811    26809    26905    27065    27218    27343    27425    27441 
   27465    27667    28061    28394    28377    27986    27492    27162 
   27043    27071    27199    27347    27388    27256    27013    26780 
   26650    26682    26877    27132    27298    27313    27231    27139 
   27066    26997    26937    26921    26959    26987    26891    26671 
   26520    26578    26737    26830    26861    26945    27155    27476 
   27790    27931    27849    27627    27349    27075    26898    26890 
   27031    27232    27398    27463    27368    27105    26798    26642 
   26714    26914    27060    27014    26803    26600    26537    26612 
   26777    26972    27111    27148    27143    27214    27428    27714 
   27914    27936    27793    27553    27309    27134    27022    26938 
   26929    27051    27198    27171    26956    26757    26741    26898 
   27113    27277    27304    27160    26949    26875    27006    27195 
   27284    27235    27096    26947    26817    26683    26590    26646 
   26841    26987    26924    26723    26600    26637    26735    26804 
   26844    26837    26740    26625    26662    26917    27267    27542 
   27634    27520    27287    27111    27137    27347    27545    27549 
   27387    27216    27107    27016    26924    26883    26913    26932 
   26861    26700    26490    26265    26099    26134    26438    26824 
   27005    26918    26761    26740    26841    26908    26905    26948 
   27102    27292    27426    27479    27472    27425    27381    27425 
   27550    27578    27395    27125    26964    26957    27026    27112 
   27219    27316    27269    26997    26704    26711    27070    27523 
   27805    27847    27710    27469    27188    26947    26837    26887 
   27025    27155    27216    27186    27119    27146    27352    27648 
   27844    27846    27746    27673    27656    27651    27636    27600 
   27532    27459    27408    27335    27203    27081    27044    27043 
   26942    26691    26419    26334    26526    26930    27408    27763 
   27794    27481    27066    26878    27073    27520    27918    28013 
   27791    27464    27229    27097    26961    26774    26600    26490 
   26403    26297    26196    26171    26292    26553    26863    27096 
   27178    27139    27103    27124    27081    26860    26548    26359 
   26383    26480    26453    26314    26264    26367    26452    26403 
   26320    26351    26529    26797    27090    27310    27316    27098 
   26866    26839    27013    27192    27211    27088    26978    27012 
   27175    27375    27544    27637    27628    27564    27488    27386 
   27272    27204    27184    27161    27098    26977    26794    26626 
   26647    26935    27305    27468    27381    27304    27475    27827 
   28072    27996    27654    27284    27077    27033    27030    27017 
   27052    27173    27323    27386    27270    27000    26709    26537 
   26520    26593    26699    26842    27005    27110    27092    26983 
   26894    26906    27020    27162    27234    27170    26976    26742 
   26623    26731    26993    27189    27153    26930    26747    26818 
   27117    27410    27540    27548    27542    27553    27568    27605 
   27652    27619    27468    27324    27297    27333    27312    27199 
   27051    26933    26860    26809    26786    26853    27006    27088 
   26981    26823    26864    27113    27313    27281    27120    27029 
   27063    27107    27040    26880    26745    26720    26786    26884 
   27002    27161    27379    27632    27848    27961    27970    27927 
   27842    27686    27493    27331    27227    27181    27177    27127 
   26929    26614    26383    26410    26641    26840    26847    26707 
   26588    26577    26624    26701    26838    27003    27100    27066 
   26947    26859    26861    26860    26675    26290    25960    25948 
   26259    26689    26992    27004    26703    26227    25824    25743 
   26128    26916    27764    28191    27999    27475    27096    27110 
   27457    27926    28282    28361    28179    27915    27777    27874 
   28130    28342    28319    28021    27599    27241    27025    26963 
   27092    27415    27787    27961    27801    27407    27035    26891 
   26964    27057    26972    26667    26299    26084    26090    26236 
   26451    26715    26940    26980    26794    26495    26229    26105 
   26202    26555    27081    27544    27716    27596    27365    27184 
   27107    27135    27260    27442    27587    27626    27582    27495 
   27357    27183    27056    27061    27211    27423    27561    27558 
   27459    27318    27130    26881    26652    26561    26639    26817 
   26987    27027    26829    26446    26125    26082    26270    26480 
   26605    26698    26803    26911    27034    27179    27255    27155 
   26961    26881    26970    27092    27122    27058    26974    26956 
   27035    27134    27105    26916    26730    26726    26917    27142 
   27220    27108    26903    26719    26609    26578    26641    26807 
   26974    26995    26892    26843    26942    27128    27353    27633 
   27904    28006    27867    27605    27407    27336    27277    27088 
   26785    26563    26604    26887    27232    27460    27503    27385 
   27174    26949    26775    26719    26848    27113    27317    27297 
   27070    26755    26480    26380    26550    26919    27256    27360 
   27196    26867    26536    26380    26477    26705    26868    26918 
   26927    26945    26975    27017    27089    27253    27521    27761 
   27839    27743    27566    27441    27479    27695    27982    28135 
   27954    27478    27014    26840    26924    27025    27000    26935 
   26946    27037    27153    27241    27297    27375    27498    27553 
   27394    27102    27001    27261    27643    27771    27515    27054 
   26644    26411    26392    26593    26926    27174    27190    27061 
   26936    26837    26792    26900    27160    27433    27590    27581 
   27410    27123    26860    26826    27091    27478    27734    27722 
   27428    26962    26558    26457    26728    27193    27553    27639 
   27503    27289    27084    26932    26904    27058    27307    27438 
   27303    26939    26497    26105    25839    25794    26037    26466 
   26858    27063    27073    26923    26629    26318    26246    26523 
   26966    27306    27428    27366    27215    27121    27219    27464 
   27641    27626    27500    27419    27463    27595    27681    27598 
   27370    27144    27031    27013    27023    27038    27077    27194 
   27440    27714    27774    27540    27242    27112    27123    27144 
   27158    27212    27286    27319    27308    27300    27335    27445 
   27629    27802    27853    27761    27606    27472    27402    27395 
   27407    27373    27282    27192    27120    26999    26788    26602 
   26638    26924    27211    27211    26906    26557    26437    26605 
   26879    27005    26895    26657    26415    26219    26133    26245 
   26551    26914    27168    27237    27154    27023    26948    26932 
   26931    26999    27237    27602    27931    28159    28304    28299 
   28048    27645    27367    27386    27604    27803    27835    27662 
   27389    27205    27142    27046    26818    26519    26282    26231 
   26383    26600    26709    26640    26460    26303    26229    26176 
   26130    26199    26449    26775    26970    26905    26632    26330 
   26162    26184    26320    26439    26466    26423    26350    26249 
   26118    25989    25953    26097    26358    26562    26664    26759 
   26861    26859    26732    26594    26533    26541    26610    26765 
   26973    27083    26909    26456    26000    25868    26180    26756 
   27271    27485    27315    26862    26440    26367    26644    26971 
   27106    27113    27162    27246    27245    27129    26995    26978 
   27132    27389    27647    27883    28144    28437    28643    28611 
   28319    27920    27660    27740    28167    28690    28923    28670 
   28118    27611    27346    27309    27329    27201    26905    26657 
   26693    26970    27155    27013    26707    26581    26754    27013 
   27083    26904    26629    26453    26500    26753    27028    27097 
   26942    26767    26714    26698    26608    26551    26743    27173 
   27588    27777    27716    27510    27309    27249    27351    27511 
   27625    27706    27823    27969    28053    28021    27908    27804 
   27782    27810    27743    27499    27185    26977    26956    27051 
   27133    27179    27227    27252    27251    27328    27540    27754 
   27769    27514    27104    26769    26685    26822    26986    26989 
   26799    26547    26398    26437    26596    26717    26729    26683 
   26634    26644    26793    27056    27242    27214    27099    27120 
   27257    27276    27119    27009    27132    27382    27507    27405 
   27189    27029    27039    27237    27498    27648    27638    27519 
   27349    27220    27250    27454    27688    27770    27663    27473 
   27284    27117    27040    27130    27328    27419    27270    26967 
   26672    26486    26469    26616    26803    26847    26710    26570 
   26593    26737    26834    26821    26802    26899    27077    27195 
   27216    27238    27287    27245    27061    26937    27090    27388 
   27512    27364    27126    26984    26926    26808    26578    26354 
   26275    26361    26507    26553    26424    26258    26314    26698 
   27264    27757    27965    27840    27533    27256    27106    27071 
   27096    27105    27006    26723    26300    25951    25895    26157 
   26571    26959    27248    27433    27524    27571    27683    27902 
   28105    28153    28058    27884    27621    27256    26923    26803 
   26845    26777    26487    26228    26319    26739    27166    27358 
   27381    27397    27376    27206    26934    26763    26868    27221 
   27604    27815    27774    27493    27111    26874    26937    27205 
   27479    27667    27781    27814    27753    27681    27684    27721 
   27688    27571    27408    27181    26890    26675    26685    26844 
   26892    26691    26346    26061    25951    25996    26097    26155 
   26157    26179    26265    26330    26273    26147    26120    26262 
   26498    26740    26945    27066    27079    27024    26954    26914 
   26984    27281    27809    28348    28619    28542    28252    27929 
   27634    27333    27063    26916    26863    26801    26706    26626 
   26561    26435    26182    25890    25787    25985    26338    26598 
   26684    26737    26915    27188    27413    27525    27555    27548 
   27557    27617    27689    27719    27758    27885    27999    27904 
   27601    27323    27265    27385    27543    27700    27859    27950 
   27893    27759    27735    27873    28005    27991    27918    27914 
   27895    27735    27539    27455    27355    27051    26704    26651 
   26904    27130    27132    27101    27259    27490    27530    27360 
   27191    27150    27144    27019    26787    26642    26717    26923 
   27086    27129    27082    26991    26928    26989    27141    27182 
   27007    26794    26730    26736    26653    26518    26431    26363 
   26259    26177    26174    26246    26440    26820    27302    27679 
   27793    27645    27385    27201    27169    27260    27432    27633 
   27753    27688    27495    27338    27288    27335    27476    27610 
   27546    27289    27127    27249    27495    27635    27643    27557 
   27316    26901    26499    26378    26604    26976    27208    27124 
   26772    26429    26429    26841    27349    27556    27382    27046 
   26766    26597    26513    26541    26737    27060    27328    27364 
   27181    26961    26838    26781    26698    26599    26547    26511 
   26408    26279    26257    26350    26393    26251    26007    25886 
   26001    26277    26600    26903    27125    27228    27232    27176 
   27067    26893    26687    26525    26477    26528    26556    26426 
   26181    26092    26344    26742    26937    26846    26660    26575 
   26645    26785    26899    26974    27036    27070    27043    26960 
   26897    26930    27052    27194    27287    27271    27138    27006 
   27037    27278    27607    27841    27875    27743    27579    27506 
   27579    27807    28140    28416    28451    28229    27918    27677 
   27499    27321    27204    27254    27390    27410    27268    27116 
   27075    27109    27111    27087    27127    27220    27264    27251 
   27240    27221    27172    27159    27219    27229    27089    26906 
   26840    26896    26978    27074    27234    27390    27405    27310 
   27260    27287    27263    27101    26857    26630    26458    26295 
   26096    25931    25910    26035    26212    26339    26400    26474 
   26619    26789    26897    26910    26881    26913    27072    27338 
   27600    27718    27654    27506    27400    27425    27584    27759 
   27813    27757    27700    27693    27662    27479    27122    26728 
   26479    26437    26509    26562    26555    26544    26603    26765 
   26987    27205    27380    27487    27512    27464    27360    27253 
   27244    27394    27620    27710    27487    27043    26751    26885 
   27282    27564    27598    27557    27566    27556    27484    27452 
   27538    27654    27689    27646    27566    27466    27387    27340 
   27229    26980    26714    26664    26886    27204    27433    27510 
   27435    27253    27056    26932    26900    26938    27052    27254 
   27466    27560    27502    27375    27301    27342    27426    27431 
   27342    27230    27145    27102    27101    27111    27079    26954 
   26757    26614    26630    26735    26779    26735    26696    26735 
   26845    26966    27014    26945    26803    26710    26759    26920 
