Origin Time       2025/01/13 21:19:00
Lat.              31.8
Long.             131.6
Depth. (km)       30
Mag.              6.9
Station Code      KGS024
Station Lat.      31.0888
Station Long.     130.6982
Station Height(m) 75
Record Time       2025/01/13 21:20:00
Sampling Freq(Hz) 100Hz
Duration Time(s)  88
Dir.              N-S
Scale Factor      7845(gal)/8223790
Max. Acc. (gal)   17.141
Last Correction   2025/01/13 21:20:00
Memo.             
[...]
   -2970    -1625     1121     4927     8851    11923    13792    14678 
   14997    15141    15403    15699    15465    14530    13440    12351 
   10682     8160     5061     1630    -1803    -4472    -5838    -6415 
   -7028    -7726    -8074    -7769    -6654    -4657    -1829     1302 
    3932     5911     7678     9220    10014    10042     9968    10092 
   10126     9919     9564     8958     7861     6353     4764     3164 
    1568      197     -930    -1923    -2793    -3580    -4072    -4048 
   -3871    -3717    -3156    -2195    -1420    -1005     -530      552 
    2393     4492     6273     7821     9612    11626    13343    14446 
   14993    15041    14477    13417    12399    11757    11252    10393 
    8915     6961     4895     3052     1652      631     -291    -1147 
   -1744    -2046    -2014    -1470     -429      787     1895     2639 
    2637     1930     1086      608      832     1864     3464     5312 
    7053     8197     8476     8237     7817     7149     6365     5755 
    5125     3900     1732     -849    -2644    -2928    -1845      136 
    2195     3204     2704     1325       33     -670     -718     -259 
     330     1059     2440     4468     6628     8584    10203    11673 
   13373    15259    17043    18312    18014    15244    10573     5350 
     533    -3265    -5769    -7067    -7438    -7330    -6984    -6083 
   -4125    -1144     1984     4102     4834     4936     5298     6085 
    7119     8191     9003     9155     8388     7176     6396     6319 
    6534     6528     5962     4945     4283     4781     5949     6370 
    5273     3075      909     -184      -10      911     1871     2195 
    1660      899      839     1795     3435     5173     6346     6565 
    5913     4808     3690     2783     2415     3040     4502     6135 
    7619     8930     9825     9772     8306     5691     2945      896 
    -162     -298       37      411      621      548      372      413 
     749     1507     2847     4483     5868     6841     7726     8613 
    9042     8681     7593     5900     4077     2970     2970     3612 
    4055     3942     3705     3829     4041     3705     2659      967 
   -1293    -3268    -3835    -3037    -1853    -1019     -591     -280 
     -40      187     1092     3105     5574     7803     9626    10856 
   11283    10910     9941     8660     7246     6045     5462     5175 
    4515     3402     1850     -438    -3379    -6231    -8035    -8171 
   -6831    -4649    -2003      800     3159     4630     5508     6428 
    7811     9817    12294    14675    16187    16183    14648    12356 
   10208     8695     7878     7403     6727     5456     3686     2110 
    1414     1409     1151      139    -1341    -2821    -3751    -3740 
   -3088    -2511    -2346    -2181    -1314      496     2952     5705 
    8491    10852    12393    13217    13624    13633    13200    12617 
   12217    11781    10781     9019     6566     3559      341    -2581 
   -4826    -6273    -6918    -6808    -6129    -5138    -3942    -2590 
   -1155      525     2952     6471    10496    13741    15464    15792 
   15137    13853    12158    10184     7943     5390     2862      963 
      -5     -306     -652    -1425    -2288    -2743    -2336     -873 
    1098     2735     3615     3839     3618     3106     2695     2727 
    2883     2610     2019     1711     1827     2139     2608     3100 
    3523     4000     4336     4473     4935     5852     6714     7175 
    7234     6890     6014     4803     3847     3458     3659     4398 
    5278     5805     5871     5775     5665     5084     3592     1572 
     -81     -922    -1297    -1642    -2069    -2563    -2655    -1549 
     680     2951     4450     5206     5647     6251     7395     9159 
   11038    12048    11665    10359     8887     7464     6083     4853 
    3584     1915       10    -1699    -3044    -3910    -4095    -3611 
   -2735    -1657     -234     1512     3157     4541     5869     7268 
    8768    10341    11982    13621    14704    14427    12599     9891 
    7150     4862     3052     1378     -438    -2195    -3287    -3257 
   -2178     -496     1067     1702     1305      683      739     1791 
    3516     5356     6910     8002     8587     8716     8444     7751 
    6727     5583     4463     3466     2791     2556     2532     2273 
    1503      160    -1560    -2903    -2940    -1383     1300     4091 
    5922     6528     6497     6567     7103     7935     8680     9061 
    8966     8441     7491     5965     3869     1680      -74    -1355 
   -2405    -3484    -4599    -5289    -5036    -3677    -1379     1371 
    3978     5956     7098     7835     8843    10054    10909    11322 
   11595    11641    10980     9522     7646     5790     4500     4132 
    4302     4283     3646     2277      368    -1556    -2901    -3250 
   -2648    -1494        2     1578     2558     2633     2411     2677 
    3542     4550     5317     5769     5934     5860     5661     5401 
    4995     4480     4152     4199     4392     4322     3947     3553 
    3159     2631     2195     2174     2585     3265     4058     4731 
    4997     4800     4352     3854     3554     3748     4379     5139 
    5864     6458     6943     7506     8166     8591     8459     7770 
    6708     5657     5109     5100     5236     5146     4544     3335 
    1846      679      245      400      727     1059     1314     1360 
    1231     1032      916     1094     1597     2320     3010     3234 
    3067     3129     3526     3701     3294     2520     1921     2000 
    2922     4280     5462     6235     6721     7163     7882     8919 
    9548     8884     6883     4347     2424     2058     3441     5906 
    8202     9217     8694     7350     6327     6211     6713     7210 
    7179     6523     5787     5529     5695     5842     5368     3835 
    1702       74     -490     -314      172      733      899      243 
    -796    -1274     -862      124     1437     2929     4145     4553 
    4232     3564     2524     1136      -55     -437      139     1256 
    2454     3545     4099     3694     2756     2057     1942     2527 
    3836     5503     6729     6898     6114     4900     3751     3065 
    3172     4117     5335     6061     6262     6345     6282     5744 
    4519     2694      776     -635    -1305    -1220     -452      499 
     945      877      951     1682     3146     5088     6979     8203 
    8419     7734     6551     5354     4507     4001     3531     3056 
    2955     3416     4005     3983     3086     1918     1464     2056 
    3022     3566     3553     3264     3126     3742     5429     7840 
   10253    11862    12064    10944     9292     8025     7771     8596 
    9707     9780     8019     4823     1264    -1811    -3786    -4253 
   -3438    -1922     -294      738      896      642      387      353 
     785     1576     2376     2889     3010     2999     3009     2820 
    2371     1867     1509     1467     1865     2782     4085     5305 
    6080     6405     6478     6659     7283     8334     9462    10297 
   10764    10835    10307     9244     8148     7341     6706     6165 
    5790     5417     4635     3361     2037     1116      645      472 
     702     1367     2007     2405     2843     3518     4363     4993 
    5144     5179     5400     5752     6389     7383     8305     8540 
    7674     5914     4097     3034     2992     3542     3785     3102 
    1602     -112    -1277    -1432     -784       66      529      467 
     383      685     1086     1287     1603     2455     3712     4777 
    5146     4731     3618     1962      396     -108      760     2319 
    3892     5341     6663     7746     8453     8721     8542     7888 
    6912     6039     5408     4661     3472     1935      583     -121 
    -255     -133      -28     -140     -249      147     1012     1780 
    2249     2648     3111     3715     4434     5049     5576     6428 
    7674     8792     9261     8942     8100     7192     6585     6400 
    6619     7037     6955     5697     3673     1975     1140     1092 
    1601     2126     2091     1672     1671     2608     4247     5935 
    7168     7700     7618     7248     6789     6264     5567     4513 
    3198     2015     1273     1016      980      820      589      653 
    1105     1698     2169     2371     2265     1895     1462     1335 
    1721     2447     3234     4005     5027     6539     7990     8324 
    7061     4598     1825     -220     -760      442     2808     5028 
    5994     5599     4587     3900     4147     5332     6781     7524 
    7149     5967     4502     3300     2673     2519     2736     3277 
    3878     4268     4437     4575     4855     5301     5736     5922 
    5707     4927     3516     1991     1291     1876     3281     4544 
    4970     4472     3314     2157     1864     2651     4118     5837 
    7272     7865     7523     6650     5740     5169     5188     5838 
    6790     7515     7743     7554     7037     6184     5119     4128 
    3419     2867     2193     1547     1460     1973     2601     3285 
    4326     5617     6725     7439     7874     8044     7643     6516 
    4928     3132     1227     -616    -2222    -3493    -4272    -4171 
   -3013    -1378      120     1598     3280     5027     6606     7755 
    8318     8460     8330     7803     6714     5158     3535     2261 
    1497     1085      753      554      738     1397     2506     3755 
    4617     5003     5263     5647     6168     6583     6509     5807 
    4661     3657     3573     4375     5248     5778     5979     5622 
    4488     2828     1161      -67     -595     -383      387     1472 
    2747     4186     5606     6625     7033     6859     6227     5287 
    4139     3063     2421     2030     1374      417     -461     -939 
    -661      599     2589     4828     6876     8295     8816     8461 
    7470     6343     5530     5038     4730     4536     4290     3681 
    2481     1131      432      481      796     1252     2160     3287 
    3730     3190     2296     1568     1059      874     1264     2261 
    3678     5167     6196     6515     6469     6612     7298     8594 
   10322    12029    13220    13653    13294    12363    11109     9462 
    7446     5463     3901     2683     1140    -1305    -4349    -7099 
   -8838    -9225    -8284    -6494    -4464    -2451     -589      938 
    2313     3906     5806     7874     9836    11398    12468    13015 
   13046    12795    12465    11916    11034    10019     9105     8592 
    8608     8553     7847     6654     5227     3443     1262     -935 
   -2786    -4395    -5960    -7167    -7423    -6539    -4761    -2448 
      44     2501     5012     7773    10569    12652    13281    12424 
   10871     9553     8803     8461     8321     8167     7793     7110 
    6111     4938     3805     2759     1853     1219      977     1308 
    2039     2511     2443     2100     1628     1053      388     -418 
   -1213    -1598    -1217      -27     1663     3599     5665     7504 
    8838     9931    11048    11936    12113    11234     9424     7218 
    4831     2274       85    -1098    -1323    -1185    -1290    -1844 
   -2716    -3824    -4904    -5333    -4737    -3298    -1432      403 
    1765     2520     3060     3754     4387     4548     4186     3613 
    3046     2562     2542     3302     4305     4680     4287     3809 
    3943     4588     5248     5896     6631     7236     7493     7267 
    6586     5829     5244     4716     4090     3094     1432     -669 
   -2721    -4518    -5765    -5757    -3967     -750     2864     6003 
    8328     9913    11176    12842    15219    17340    17815    16310 
   13463    10262     7716     6231     5606     5506     5138     3523 
     708    -2354    -4735    -5767    -5347    -4068    -2612    -1405 
    -491      594     2273     4544     7284    10133    12494    14187 
   15279    15516    14648    12788    10268     7578     5152     2902 
     558    -1587    -2895    -3055    -2112     -284     1868     3562 
    4372     4475     4315     4274     4573     5123     5505     5398 
    4857     4128     3341     2424     1502     1084     1537     2683 
    3982     4785     4706     3900     2764     1726     1317     1729 
    2478     3127     3701     4222     4509     4517     4486     4546 
    4531     4282     3796     3163     2308     1027     -257     -488 
     756     2902     5262     7365     8739     9007     8283     7322 
    6758     6243     5024     3168     1389      224       59     1090 
    3045     5281     7153     8557     9724    10446    10328     9502 
    8297     6799     5193     3730     2320      645    -1393    -3348 
   -4700    -5190    -4503    -2620     -287     1707     3281     4522 
    5116     4811     3883     2986     2678     2925     3001     2043 
    -168    -2974    -5189    -5782    -4612    -2454     -172     1644 
    2713     3213     3549     3960     4371     4603     4884     5817 
    7636     9778    11223    11128     9315     6517     3886     2295 
    2095     2951     3989     4475     4191     3126     1374     -583 
   -2315    -3870    -5304    -6201    -5908    -4205    -1474     1756 
    5030     7989    10385    12047    13150    14318    15699    16480 
   15763    13378    10250     7840     6700     6393     6608     7146 
    7418     6921     5616     3568      805    -2708    -6816   -10714 
  -13362   -14072   -12611    -9467    -5895    -2933     -495     2119 
    5216     8544    11657    14110    15573    16021    15722    15094 
   14319    12945    10561     7726     5601     5186     6812     9572 
   11805    12241    10633     7867     5238     3356     1952      633 
    -614    -1759    -2936    -3964    -4133    -3092    -1489     -145 
     683     1156     1692     2687     4144     5840     7562     9153 
   10574    11657    11890    10897     9165     7994     8387    10322 
   12766    14023    13045    10203     6501     2957      306    -1318 
   -2197    -2822    -3707    -4874    -5698    -5441    -3869    -1439 
     990     2683     3181     2434     1070       -5     -306       95 
     687      801      257     -217      468     2710     5856     8818 
   10903    12114    12820    13315    13693    13648    12525    10042 
    6660     3226      580     -905    -1545    -1853    -2080    -2006 
   -1059      973     3542     5937     7767     8706     8607     7780 
    6772     6030     5732     5771     5686     5104     4271     3716 
    3882     4699     5292     4963     4037     3260     2932     2771 
    2327     1293     -522    -2988    -5354    -6602    -6181    -4484 
   -2666    -1682    -1663    -1976    -1475      463     3256     5972 
    7924     8599     7865     6037     3805     1989     1077      996 
    1294     1501     1372     1059      895      855      911     1533 
    3017     4727     5625     5377     4604     4332     5343     7692 
   10633    13101    14582    15210    15040    13954    12116     9865 
    7306     4426     1409    -1360    -3357    -4126    -3674    -2312 
    -305     1954     3828     4908     5347     5726     6628     8279 
   10669    13404    15572    16384    15434    12629     8804     5313 
    2905     1877     2160     2822     2801     2087     1213      103 
   -1443    -2898    -3456    -2874    -1676     -581      342     1642 
    3673     6045     7735     7879     6515     4125     1032    -2126 
   -4224    -4502    -3245    -1413      112     1023     1788     3258 
    5807     8785    10849    10959     8916     5336     1509    -1206 
   -2185    -1890    -1418    -1358    -1267     -391     1367     3308 
    4720     5697     6816     8203     9352     9605     8579     6412 
    3802     1846     1595     3424     6747    10268    12636    13242 
   12572    11718    11500    11843    11942    11246     9779     7469 
    4334     1178    -1036    -2188    -2690    -2978    -3334    -3505 
   -3060    -2176    -1282     -432      564     1811     3150     4311 
    5105     5371     5109     4677     4541     5026     6361     8437 
   10677    12509    13575    13579    12370     9999     6812     3589 
     977    -1223    -3520    -5994    -8356   -10075   -10462    -9247 
   -7037    -4810    -3206    -2281    -1497     -179     1869     4264 
    6262     7342     7844     8706    10566    13417    16622    19052 
   19766    18613    16241    13554    10860     7942     4916     2230 
     -64    -2274    -4564    -6687    -8264    -9217    -9420    -8401 
   -6014    -2828      275     2727     4394     5346     5998     7075 
    8849    10728    11874    11861    10723     8941     7306     6299 
    5765     5190     4108     2646     1441      737      234     -251 
    -753    -1439    -2290    -2675    -1869      164     2883     5701 
    8147     9823    10638    10941    11110    11052    10447     9201 
    7485     5634     4000     2848     2184     1688     1167      633 
      79     -440     -827     -770       60     1412     2702     3547 
    3765     3527     3447     4052     5336     6957     8654    10210 
   11145    10949     9661     8043     6785     5829     4908     4004 
    3130     2165      962     -284    -1231    -1903    -2392    -2477 
   -1907     -676      959     2677     4220     5476     6555     7662 
    8891    10185    11388    12347    13043    13566    13759    13128 
   11491     9292     6920     4575     2515      699    -1138    -2986 
   -4580    -5630    -5991    -5680    -4698    -3267    -1900     -880 
    -133      456      903     1227     1591     2168     2921     3657 
    4237     4656     4920     5093     5309     5587     5832     5991 
    6114     6257     6459     6833     7391     7886     8110     8037 
    7647     6852     5679     4491     3755     3478     3277     2999 
    2787     2624     2327     1845     1310     1004     1050     1254 
    1517     1867     2215     2552     2867     3022     3087     3296 
    3673     4098     4563     5182     6050     7003     7665     7751 
    7140     6006     4950     4411     4209     3946     3434     2686 
    1948     1551     1564     1784     1962     2091     2446     3192 
    4141     4904     5279     5522     6037     6951     8098     9192 
    9896     9961     9433     8629     7877     7192     6282     4905 
    3117     1277     -263    -1397    -2030    -2020    -1282       94 
    1674     2990     3937     4625     5173     5752     6435     6945 
    6901     6241     5190     4016     2974     2396     2524     3237 
    4171     4968     5374     5308     4843     4148     3449     2988 
    3073     3947     5355     6535     6728     5616     3608     1647 
     422       -1      128      444      472       -6     -657     -662 
     604     2740     4619     5557     5690     5549     5687     6382 
    7483     8590     9297     9366     8800     7759     6489     5323 
    4576     4255     3929     3148     1834      130    -1587    -2768 
   -3191    -3002    -2451    -1867    -1379     -712      375     1737 
    3029     3944     4418     4708     5082     5518     5815     5906 
    5900     5818     5587     5228     4814     4380     3966     3623 
    3361     3132     2859     2452     1896     1401     1298     1748 
