Origin Time       2025/01/13 21:19:00
Lat.              31.8
Long.             131.6
Depth. (km)       30
Mag.              6.9
Station Code      KGS004
Station Lat.      32.0145
Station Long.     130.1927
Station Height(m) 3
Record Time       2025/01/13 21:19:59
Sampling Freq(Hz) 100Hz
Duration Time(s)  122
Dir.              N-S
Scale Factor      7845(gal)/8223790
Max. Acc. (gal)   8.221
Last Correction   2025/01/13 21:19:59
Memo.             
[...]
   -5013    -4989    -5036    -5092    -5111    -5078    -4973    -4827 
   -4691    -4554    -4388    -4180    -3955    -3744    -3612    -3632 
   -3789    -3997    -4213    -4399    -4519    -4596    -4675    -4720 
   -4698    -4610    -4472    -4303    -4151    -4028    -3915    -3839 
   -3863    -3987    -4174    -4396    -4608    -4766    -4899    -5032 
   -5119    -5113    -5032    -4930    -4851    -4830    -4878    -4973 
   -5088    -5240    -5436    -5659    -5890    -6088    -6232    -6322 
   -6347    -6303    -6184    -6011    -5846    -5711    -5583    -5486 
   -5439    -5401    -5331    -5205    -5047    -4935    -4916    -4951 
   -4981    -4996    -4989    -4945    -4904    -4893    -4860    -4762 
   -4577    -4303    -3970    -3612    -3284    -3011    -2776    -2570 
   -2401    -2269    -2208    -2296    -2519    -2779    -3014    -3206 
   -3337    -3423    -3497    -3546    -3550    -3511    -3442    -3389 
   -3407    -3515    -3692    -3889    -4074    -4272    -4488    -4700 
   -4930    -5178    -5397    -5556    -5668    -5749    -5807    -5881 
   -5992    -6111    -6242    -6405    -6555    -6666    -6763    -6835 
   -6831    -6736    -6538    -6210    -5782    -5320    -4872    -4494 
   -4243    -4112    -4025    -3901    -3750    -3609    -3495    -3406 
   -3329    -3221    -3071    -2943    -2924    -3040    -3256    -3485 
   -3674    -3848    -4051    -4287    -4530    -4757    -4945    -5077 
   -5169    -5248    -5348    -5518    -5773    -6066    -6327    -6505 
   -6620    -6727    -6841    -6957    -7051    -7057    -6947    -6728 
   -6443    -6142    -5845    -5541    -5200    -4793    -4368    -3987 
   -3662    -3400    -3221    -3092    -2984    -2876    -2729    -2548 
   -2393    -2317    -2330    -2393    -2447    -2448    -2423    -2421 
   -2446    -2484    -2565    -2716    -2913    -3107    -3322    -3651 
   -4106    -4579    -5011    -5368    -5632    -5849    -6073    -6274 
   -6404    -6458    -6490    -6556    -6683    -6845    -7010    -7215 
   -7487    -7723    -7843    -7869    -7838    -7742    -7538    -7163 
   -6585    -5861    -5096    -4402    -3883    -3580    -3396    -3211 
   -3015    -2843    -2712    -2647    -2655    -2691    -2708    -2689 
   -2643    -2582    -2519    -2478    -2496    -2586    -2763    -3038 
   -3402    -3805    -4182    -4500    -4796    -5096    -5381    -5640 
   -5860    -6031    -6146    -6183    -6119    -5967    -5790    -5682 
   -5660    -5682    -5736    -5810    -5884    -5956    -6026    -6075 
   -6056    -5935    -5730    -5493    -5251    -4996    -4729    -4500 
   -4329    -4167    -4014    -3925    -3912    -3943    -3956    -3932 
   -3892    -3827    -3721    -3582    -3449    -3362    -3312    -3244 
   -3092    -2820    -2479    -2170    -1975    -1987    -2200    -2494 
   -2822    -3218    -3673    -4126    -4533    -4853    -5031    -5070 
   -5032    -4932    -4772    -4625    -4588    -4691    -4889    -5093 
   -5248    -5366    -5479    -5616    -5721    -5725    -5657    -5543 
   -5401    -5319    -5327    -5367    -5395    -5409    -5413    -5391 
   -5339    -5300    -5348    -5495    -5661    -5755    -5771    -5798 
   -5886    -5985    -6019    -5941    -5746    -5487    -5250    -5062 
   -4858    -4622    -4418    -4310    -4337    -4472    -4587    -4550 
   -4380    -4224    -4174    -4260    -4480    -4703    -4789    -4741 
   -4592    -4386    -4176    -3983    -3812    -3663    -3512    -3373 
   -3287    -3262    -3321    -3470    -3667    -3844    -3987    -4151 
   -4368    -4606    -4815    -4938    -4982    -5036    -5136    -5246 
   -5323    -5327    -5256    -5189    -5179    -5208    -5236    -5228 
   -5178    -5117    -5062    -4989    -4878    -4758    -4677    -4630 
   -4595    -4581    -4599    -4594    -4531    -4446    -4368    -4310 
   -4303    -4368    -4487    -4602    -4634    -4553    -4372    -4128 
   -3883    -3662    -3470    -3360    -3329    -3311    -3330    -3439 
   -3623    -3861    -4122    -4357    -4527    -4633    -4770    -5035 
   -5400    -5814    -6226    -6562    -6797    -6921    -6913    -6768 
   -6501    -6153    -5786    -5478    -5298    -5201    -5076    -4891 
   -4664    -4421    -4243    -4189    -4226    -4230    -4082    -3771 
   -3391    -3059    -2825    -2613    -2351    -2050    -1733    -1432 
   -1237    -1270    -1553    -1965    -2397    -2829    -3231    -3599 
   -3966    -4338    -4711    -5053    -5294    -5467    -5715    -6141 
   -6709    -7314    -7873    -8298    -8533    -8627    -8619    -8499 
   -8290    -8017    -7681    -7292    -6863    -6407    -5977    -5691 
   -5625    -5691    -5742    -5728    -5620    -5405    -5101    -4675 
   -4066    -3327    -2616    -2030    -1582    -1301    -1143     -973 
    -808     -762     -874    -1139    -1493    -1807    -2011    -2134 
   -2215    -2289    -2436    -2729    -3167    -3669    -4099    -4380 
   -4579    -4834    -5258    -5861    -6551    -7213    -7755    -8113 
   -8328    -8526    -8750    -8986    -9243    -9470    -9549    -9443 
   -9219    -8947    -8699    -8515    -8325    -7994    -7476    -6820 
   -6095    -5363    -4733    -4268    -3875    -3427    -2874    -2220 
   -1530     -905     -399      -28      187      260      228       95 
    -166     -531     -938    -1318    -1584    -1686    -1714    -1792 
   -1953    -2135    -2261    -2339    -2439    -2627    -2955    -3411 
   -3948    -4541    -5136    -5645    -6003    -6216    -6330    -6408 
   -6505    -6633    -6756    -6859    -6916    -6901    -6820    -6696 
   -6604    -6608    -6677    -6762    -6833    -6853    -6817    -6731 
   -6619    -6538    -6481    -6381    -6211    -5984    -5705    -5389 
   -5077    -4816    -4645    -4567    -4542    -4542    -4581    -4666 
   -4785    -4932    -5050    -5047    -4908    -4715    -4563    -4450 
   -4356    -4305    -4302    -4367    -4506    -4633    -4685    -4664 
   -4594    -4553    -4602    -4671    -4648    -4564    -4498    -4483 
   -4550    -4646    -4707    -4784    -4847    -4860    -4903    -4950 
   -4945    -4954    -4935    -4814    -4638    -4499    -4407    -4309 
   -4217    -4077    -3796    -3476    -3159    -2852    -2643    -2479 
   -2280    -2073    -1888    -1737    -1663    -1702    -1854    -2092 
   -2423    -2868    -3338    -3731    -4018    -4207    -4355    -4519 
   -4685    -4833    -4962    -5080    -5171    -5198    -5179    -5184 
   -5217    -5262    -5332    -5463    -5699    -6049    -6439    -6789 
   -7055    -7258    -7445    -7611    -7769    -7915    -7977    -7933 
   -7834    -7727    -7701    -7797    -7940    -8025    -7992    -7816 
   -7506    -7087    -6602    -6100    -5647    -5244    -4830    -4430 
   -4109    -3824    -3539    -3241    -2926    -2610    -2262    -1891 
   -1629    -1537    -1513    -1497    -1509    -1526    -1532    -1593 
   -1715    -1849    -2030    -2246    -2430    -2656    -2945    -3227 
   -3547    -3936    -4328    -4699    -5020    -5232    -5362    -5487 
   -5632    -5757    -5842    -5925    -6025    -6124    -6197    -6197 
   -6122    -6022    -5894    -5707    -5482    -5212    -4872    -4483 
   -4114    -3790    -3447    -3091    -2839    -2716    -2652    -2652 
   -2658    -2566    -2446    -2384    -2351    -2400    -2566    -2778 
   -2960    -3048    -3041    -2995    -2979    -3065    -3279    -3581 
   -3896    -4176    -4425    -4648    -4876    -5112    -5324    -5522 
   -5695    -5768    -5745    -5701    -5668    -5657    -5690    -5764 
   -5838    -5906    -5977    -6033    -6103    -6246    -6444    -6690 
   -6945    -7113    -7134    -6993    -6687    -6243    -5703    -5173 
   -4733    -4369    -4126    -3973    -3751    -3551    -3518    -3569 
   -3693    -3867    -3964    -4009    -4025    -4001    -3994    -4016 
   -4033    -4039    -4004    -3919    -3792    -3669    -3612    -3630 
   -3688    -3782    -3927    -4114    -4309    -4460    -4536    -4499 
   -4361    -4193    -4021    -3847    -3689    -3516    -3330    -3195 
   -3125    -3094    -3130    -3254    -3429    -3654    -3979    -4361 
   -4703    -4974    -5177    -5305    -5393    -5458    -5494    -5552 
   -5664    -5826    -6025    -6276    -6573    -6848    -7048    -7150 
   -7094    -6871    -6577    -6289    -6061    -5935    -5906    -5915 
   -5919    -5915    -5881    -5811    -5773    -5807    -5836    -5791 
   -5670    -5495    -5321    -5206    -5155    -5131    -5094    -5024 
   -4892    -4687    -4473    -4344    -4348    -4463    -4645    -4862 
   -5066    -5197    -5254    -5258    -5197    -5116    -5059    -4970 
   -4827    -4672    -4519    -4384    -4291    -4234    -4176    -4087 
   -3963    -3786    -3566    -3370    -3226    -3099    -2961    -2786 
   -2579    -2365    -2126    -1900    -1730    -1574    -1435    -1345 
   -1296    -1310    -1420    -1626    -1954    -2384    -2822    -3219 
   -3586    -3923    -4201    -4422    -4614    -4791    -4977    -5220 
   -5562    -5992    -6451    -6921    -7411    -7920    -8459    -9054 
   -9670   -10237   -10704   -11017   -11140   -11098   -10953   -10744 
  -10498   -10235    -9921    -9518    -9067    -8623    -8172    -7700 
   -7240    -6772    -6291    -5821    -5329    -4827    -4376    -3936 
   -3449    -2944    -2474    -2053    -1665    -1335    -1073     -884 
    -799     -823     -926    -1094    -1278    -1410    -1509    -1610 
   -1717    -1841    -1976    -2096    -2193    -2253    -2263    -2231 
   -2161    -2085    -2054    -2091    -2181    -2273    -2340    -2381 
   -2338    -2241    -2239    -2365    -2461    -2473    -2481    -2452 
   -2450    -2605    -2857    -3169    -3530    -3871    -4203    -4552 
   -4919    -5313    -5683    -5948    -6120    -6246    -6308    -6308 
   -6278    -6231    -6134    -5972    -5807    -5648    -5458    -5278 
   -5139    -5022    -4949    -4916    -4881    -4835    -4823    -4869 
   -4932    -4993    -5088    -5201    -5283    -5377    -5520    -5638 
   -5711    -5792    -5814    -5742    -5655    -5564    -5502    -5521 
   -5575    -5630    -5705    -5803    -5881    -5908    -5891    -5811 
   -5678    -5529    -5383    -5297    -5290    -5292    -5250    -5121 
   -4938    -4772    -4656    -4650    -4756    -4878    -4988    -5086 
   -5197    -5381    -5630    -5879    -6100    -6285    -6457    -6627 
   -6775    -6907    -6999    -7029    -7015    -6986    -6966    -6929 
   -6860    -6802    -6740    -6640    -6532    -6385    -6199    -6043 
   -5888    -5717    -5537    -5266    -4901    -4507    -4091    -3728 
   -3468    -3231    -2965    -2660    -2319    -2027    -1848    -1740 
   -1630    -1483    -1335    -1206    -1112    -1094    -1109    -1127 
   -1138    -1092    -1039    -1071    -1183    -1333    -1471    -1584 
   -1672    -1746    -1860    -2022    -2203    -2451    -2763    -3095 
   -3489    -3908    -4291    -4718    -5177    -5599    -6004    -6384 
   -6706    -6971    -7183    -7318    -7338    -7256    -7117    -6944 
   -6782    -6656    -6547    -6461    -6388    -6319    -6265    -6207 
   -6187    -6204    -6141    -6011    -5853    -5620    -5375    -5162 
   -4954    -4781    -4603    -4436    -4321    -4164    -4025    -3967 
   -3900    -3897    -3940    -3888    -3782    -3665    -3599    -3612 
   -3672    -3796    -3933    -4062    -4203    -4321    -4450    -4622 
   -4776    -4900    -5004    -5063    -5097    -5101    -5066    -5044 
   -4995    -4882    -4772    -4679    -4618    -4629    -4679    -4743 
   -4827    -4881    -4854    -4772    -4681    -4560    -4388    -4244 
   -4144    -4010    -3796    -3520    -3244    -3007    -2808    -2682 
   -2663    -2739    -2907    -3150    -3438    -3775    -4112    -4432 
   -4785    -5116    -5362    -5553    -5707    -5849    -6025    -6212 
   -6405    -6625    -6856    -7069    -7236    -7383    -7508    -7514 
   -7414    -7294    -7148    -6972    -6751    -6434    -6088    -5786 
   -5472    -5132    -4784    -4405    -4004    -3613    -3257    -2930 
   -2621    -2343    -2111    -1946    -1873    -1856    -1854    -1864 
   -1902    -2011    -2182    -2371    -2546    -2702    -2863    -3041 
   -3230    -3449    -3694    -3959    -4245    -4511    -4729    -4888 
   -4968    -5004    -5062    -5155    -5265    -5323    -5306    -5287 
   -5263    -5196    -5107    -5004    -4919    -4897    -4893    -4842 
   -4723    -4556    -4380    -4234    -4162    -4166    -4182    -4203 
   -4253    -4302    -4357    -4461    -4621    -4828    -5090    -5413 
   -5787    -6164    -6528    -6879    -7200    -7512    -7798    -7993 
   -8108    -8185    -8208    -8160    -8051    -7942    -7851    -7751 
   -7647    -7507    -7300    -7067    -6810    -6523    -6242    -5961 
   -5664    -5344    -4990    -4600    -4164    -3711    -3268    -2802 
   -2281    -1698    -1096     -541      -12      496      936     1301 
    1579     1732     1761     1680     1525     1362     1208     1027 
     789      487      140     -264     -747    -1274    -1853    -2508 
   -3223    -4002    -4842    -5744    -6701    -7628    -8463    -9197 
   -9852   -10488   -11121   -11704   -12220   -12629   -12896   -13059 
  -13161   -13205   -13188   -13105   -12951   -12714   -12380   -11965 
  -11460   -10868   -10218    -9510    -8750    -7938    -7067    -6158 
   -5248    -4364    -3491    -2601    -1740     -930     -147      568 
    1206     1814     2363     2835     3233     3534     3753     3908 
    3977     3951     3877     3774     3612     3380     3029     2502 
    1894     1275      606     -103     -828    -1570    -2296    -3003 
   -3711    -4449    -5270    -6143    -6986    -7765    -8469    -9116 
   -9751   -10374   -10910   -11269   -11465   -11554   -11512   -11334 
  -11084   -10767   -10369    -9925    -9432    -8926    -8465    -8025 
   -7582    -7125    -6647    -6177    -5715    -5238    -4730    -4175 
   -3600    -3044    -2505    -2006    -1556    -1147     -780     -390 
     -21      174      241      179      -76     -391     -768    -1274 
   -1786    -2274    -2751    -3188    -3615    -4027    -4432    -4834 
   -5236    -5667    -6079    -6459    -6864    -7277    -7720    -8154 
   -8453    -8618    -8672    -8641    -8554    -8322    -7917    -7437 
   -6863    -6205    -5536    -4828    -4168    -3673    -3257    -2906 
   -2656    -2420    -2203    -2033    -1880    -1773    -1730    -1772 
   -1852    -1903    -1960    -2023    -2135    -2339    -2571    -2859 
   -3204    -3541    -3874    -4190    -4521    -4941    -5367    -5707 
   -5956    -6100    -6180    -6230    -6303    -6427    -6532    -6627 
   -6737    -6763    -6698    -6631    -6561    -6501    -6439    -6284 
   -6034    -5719    -5377    -5051    -4711    -4399    -4132    -3817 
   -3504    -3200    -2843    -2498    -2196    -1946    -1783    -1614 
   -1424    -1264    -1129    -1089    -1143    -1197    -1283    -1399 
   -1513    -1667    -1845    -2064    -2351    -2670    -3052    -3473 
   -3856    -4240    -4637    -5070    -5544    -5935    -6245    -6554 
   -6866    -7250    -7673    -8031    -8368    -8658    -8834    -8955 
   -9038    -9076    -9084    -9034    -8918    -8715    -8426    -8087 
   -7673    -7234    -6839    -6427    -6030    -5678    -5304    -4955 
   -4662    -4378    -4109    -3842    -3576    -3299    -2930    -2488 
   -2016    -1534    -1108     -737     -414     -202      -89      -74 
    -164     -319     -583     -947    -1355    -1858    -2407    -2898 
   -3343    -3736    -4089    -4444    -4788    -5123    -5391    -5547 
   -5657    -5771    -5927    -6166    -6390    -6569    -6759    -6933 
   -7088    -7223    -7312    -7415    -7507    -7533    -7546    -7534 
   -7464    -7371    -7244    -7129    -7090    -7078    -7086    -7102 
   -7092    -7074    -7030    -6968    -6917    -6832    -6713    -6570 
   -6385    -6164    -5892    -5599    -5351    -5109    -4837    -4580 
   -4402    -4336    -4369    -4449    -4514    -4542    -4585    -4664 
   -4743    -4837    -4892    -4841    -4725    -4576    -4405    -4191 
   -3937    -3708    -3478    -3234    -3025    -2782    -2484    -2224 
   -1969    -1688    -1476    -1320    -1175    -1086    -1054    -1070 
   -1128    -1220    -1383    -1630    -1984    -2436    -2899    -3377 
   -3871    -4314    -4742    -5167    -5570    -5960    -6303    -6636 
   -6982    -7254    -7507    -7734    -7840    -7909    -7971    -7958 
   -7886    -7732    -7470    -7133    -6736    -6323    -5917    -5524 
   -5192    -4889    -4607    -4387    -4197    -4025    -3861    -3650 
   -3424    -3171    -2847    -2520    -2218    -1952    -1772    -1610 
   -1463    -1398    -1386    -1459    -1628    -1834    -2106    -2411 
   -2689    -2970    -3253    -3553    -3879    -4236    -4675    -5130 
   -5530    -5914    -6253    -6570    -6917    -7231    -7514    -7753 
   -7900    -7975    -7952    -7828    -7661    -7404    -7057    -6663 
   -6176    -5626    -5074    -4471    -3882    -3365    -2841    -2362 
   -1983    -1642    -1345    -1090     -851     -607     -361     -167 
      13      182      248      226      129      -25     -198     -459 
    -823    -1252    -1786    -2373    -2925    -3461    -3969    -4463 
   -4972    -5445    -5896    -6353    -6813    -7283    -7703    -8037 
   -8316    -8526    -8702    -8841    -8903    -8955    -8996    -8939 
   -8819    -8661    -8459    -8245    -7998    -7689    -7318    -6889 
   -6458    -6052    -5674    -5352    -5046    -4756    -4487    -4182 
   -3886    -3588    -3218    -2890    -2617    -2316    -2053    -1825 
   -1609    -1468    -1408    -1390    -1417    -1507    -1671    -1915 
   -2259    -2678    -3113    -3550    -3960    -4306    -4607    -4860 
   -5049    -5225    -5412    -5555    -5638    -5680    -5698    -5749 
   -5877    -6056    -6232    -6389    -6509    -6562    -6550    -6494 
   -6397    -6296    -6220    -6130    -6007    -5841    -5644    -5468 
   -5341    -5271    -5273    -5312    -5336    -5359    -5417    -5524 
   -5675    -5842    -6012    -6164    -6303    -6434    -6508    -6540 
   -6578    -6601    -6619    -6644    -6655    -6659    -6662    -6650 
   -6639    -6598    -6478    -6420    -6474    -6419    -6311    -6289 
   -6173    -6007    -5911    -5788    -5671    -5611    -5587    -5609 
   -5647    -5688    -5742    -5769    -5761    -5744    -5675    -5510 
   -5259    -4945    -4627    -4336    -4052    -3778    -3507    -3223 
   -2928    -2619    -2272    -1919    -1591    -1243     -861     -450 
     -13      399      754     1042     1251     1393     1453     1429 
    1360     1271     1163     1017      811      565      270      -76 
    -448     -880    -1367    -1860    -2378    -2924    -3457    -3982 
   -4504    -5007    -5487    -5945    -6407    -6875    -7326    -7773 
   -8235    -8710    -9171    -9582    -9972   -10304   -10516   -10687 
  -10801   -10751   -10612   -10442   -10160    -9763    -9327    -8888 
   -8455    -8035    -7600    -7128    -6689    -6266    -5805    -5409 
   -5096    -4804    -4561    -4345    -4120    -3923    -3784    -3696 
   -3680    -3797    -4010    -4241    -4492    -4753    -5043    -5414 
   -5830    -6259    -6691    -7055    -7310    -7496    -7622    -7704 
   -7823    -7951    -8029    -8079    -8064    -7992    -7923    -7821 
