Origin Time       2025/01/13 21:19:00
Lat.              31.8
Long.             131.6
Depth. (km)       30
Mag.              6.9
Station Code      KGS027
Station Lat.      30.3488
Station Long.     130.8829
Station Height(m) 15
Record Time       2025/01/13 21:20:27
Sampling Freq(Hz) 100Hz
Duration Time(s)  71
Dir.              E-W
Scale Factor      3920(gal)/6182761
Max. Acc. (gal)   2.997
Last Correction   2025/01/13 21:20:27
Memo.             
[...]
    6181     6104     6030     5960     5884     5815     5836     5998 
    6208     6361     6404     6304     6112     5938     5816     5715 
    5634     5612     5690     5878     6134     6380     6549     6657 
    6759     6836     6818     6670     6417     6156     5977     5908 
    5943     6058     6238     6493     6766     6963     7066     7083 
    6992     6809     6593     6373     6151     5962     5886     5963 
    6142     6365     6598     6772     6808     6690     6424     6044 
    5683     5494     5468     5534     5678     5865     6068     6351 
    6742     7140     7407     7468     7308     6978     6598     6305 
    6180     6200     6278     6349     6383     6376     6380     6468 
    6645     6829     6923     6874     6696     6459     6252     6147 
    6164     6273     6396     6454     6457     6501     6652     6881 
    7116     7303     7377     7275     7035     6783     6585     6432 
    6335     6305     6291     6255     6216     6202     6221     6284 
    6378     6420     6367     6262     6162     6141     6240     6419 
    6625     6839     7017     7098     7063     6946     6813     6703 
    6590     6445     6291     6166     6093     6085     6148     6273 
    6422     6522     6507     6392     6273     6207     6203     6275 
    6391     6492     6558     6595     6601     6570     6504     6404 
    6267     6110     5945     5783     5676     5696     5833     6002 
    6136     6229     6293     6322     6323     6293     6218     6149 
    6148     6172     6182     6233     6336     6408     6398     6323 
    6240     6236     6328     6441     6492     6469     6403     6332 
    6323     6428     6603     6762     6834     6787     6669     6551 
    6469     6433     6421     6405     6377     6355     6398     6554 
    6767     6898     6860     6697     6511     6363     6262     6177 
    6056     5909     5818     5805     5825     5871     5960     6068 
    6196     6386     6623     6850     7021     7050     6891     6603 
    6276     5991     5822     5753     5684     5567     5452     5390 
    5399     5471     5572     5658     5718     5785     5902     6110 
    6447     6875     7254     7484     7565     7502     7288     6980 
    6648     6309     5994     5761     5634     5615     5723     5946 
    6207     6446     6617     6677     6631     6525     6410     6308 
    6189     6027     5855     5749     5783     5980     6253     6473 
    6611     6736     6873     6950     6897     6717     6459     6175 
    5919     5723     5605     5569     5590     5640     5717     5800 
    5850     5833     5755     5688     5688     5748     5856     5968 
    6023     6042     6106     6246     6420     6565     6603     6462 
    6189     5925     5776     5798     6009     6348     6714     7020 
    7183     7195     7159     7152     7125     6974     6647     6225 
    5901     5855     6098     6458     6729     6805     6717     6590 
    6522     6520     6534     6510     6423     6308     6244     6314 
    6521     6777     7013     7205     7328     7371     7348     7304 
    7302     7394     7583     7806     7960     7962     7796     7507 
    7183     6901     6676     6499     6380     6308     6284     6336 
    6465     6625     6745     6730     6549     6264     5955     5666 
    5459     5398     5479     5647     5845     6021     6158     6272 
    6388     6541     6728     6909     7014     6958     6738     6507 
    6431     6557     6827     7128     7318     7296     7082     6799 
    6563     6422     6359     6322     6291     6310     6395     6493 
    6561     6587     6547     6430     6263     6086     5906     5782 
    5860     6181     6634     7114     7532     7787     7846     7751 
    7538     7207     6784     6364     6035     5837     5788     5853 
    5976     6124     6284     6438     6532     6490     6318     6098 
    5880     5694     5594     5579     5556     5481     5413     5401 
    5482     5697     6002     6267     6424     6488     6480     6409 
    6294     6136     5911     5635     5374     5214     5222     5424 
    5820     6358     6944     7481     7890     8096     8072     7873 
    7557     7165     6792     6527     6378     6376     6575     6956 
    7413     7817     8043     8010     7766     7444     7148     6912 
    6719     6546     6414     6376     6488     6743     7026     7222 
    7297     7257     7117     6897     6606     6275     5986     5796 
    5675     5597     5597     5669     5757     5870     6014     6088 
    5992     5749     5414     5027     4688     4535     4633     4940 
    5340     5692     5932     6103     6253     6376     6464     6492 
    6403     6159     5808     5478     5280     5260     5445     5801 
    6200     6557     6901     7267     7616     7897     8022     7902 
    7572     7136     6661     6224     5909     5737     5702     5814 
    6030     6231     6348     6417     6459     6441     6359     6253 
    6145     6029     5904     5823     5874     6072     6336     6586 
    6779     6878     6888     6877     6920     7006     7050     7001 
    6895     6818     6825     6903     7018     7181     7423     7725 
    7995     8111     7996     7652     7156     6647     6241     5958 
    5783     5687     5610     5526     5496     5580     5757     5964 
    6123     6138     5983     5742     5491     5246     5048     4970 
    5020     5136     5250     5326     5376     5435     5562     5796 
    6072     6276     6367     6375     6352     6344     6375     6455 
    6566     6647     6645     6558     6402     6193     5985     5842 
    5783     5784     5829     5932     6140     6454     6766     6986 
    7128     7202     7182     7088     6969     6862     6796     6796 
    6902     7137     7491     7906     8292     8589     8787     8895 
    8945     8962     8901     8713     8439     8169     8008     8008 
    8110     8205     8169     7905     7463     6986     6575     6278 
    6158     6241     6435     6612     6742     6830     6845     6745 
    6496     6083     5567     5093     4754     4536     4435     4475 
    4615     4787     4941     5002     4934     4799     4627     4382 
    4084     3785     3532     3411     3479     3705     4039     4433 
    4845     5289     5803     6319     6682     6809     6714     6480 
    6256     6166     6214     6326     6426     6507     6631     6832 
    7078     7329     7545     7674     7689     7575     7300     6931 
    6635     6471     6401     6402     6425     6377     6232     6068 
    5941     5823     5657     5410     5091     4788     4613     4622 
    4832     5209     5628     5973     6238     6462     6687     6965 
    7257     7400     7299     7047     6802     6678     6690     6760 
    6814     6817     6761     6695     6695     6770     6865     6951 
    7035     7127     7273     7506     7784     8061     8287     8382 
    8318     8125     7857     7591     7374     7194     7012     6837 
    6741     6778     6857     6821     6636     6349     5989     5642 
    5423     5332     5297     5297     5371     5543     5793     6109 
    6500     6939     7331     7591     7723     7747     7663     7476 
    7151     6657     6058     5459     4955     4647     4599     4791 
    5157     5633     6166     6702     7160     7451     7557     7516 
    7363     7144     6899     6646     6413     6209     6003     5808 
    5657     5545     5466     5433     5433     5443     5530     5782 
    6204     6716     7204     7569     7791     7928     8046     8136 
    8152     8059     7820     7444     7023     6656     6359     6099 
    5860     5651     5522     5514     5564     5597     5647     5772 
    5982     6248     6484     6598     6592     6557     6545     6483 
    6286     5961     5566     5169     4850     4667     4622     4680 
    4781     4878     4994     5167     5388     5628     5840     5952 
    5912     5734     5491     5267     5107     4999     4921     4899 
    4994     5230     5571     5963     6369     6752     7071     7332 
    7566     7745     7832     7830     7752     7610     7404     7144 
    6918     6804     6808     6941     7202     7553     7975     8421 
    8776     8953     8952     8780     8435     7936     7310     6595 
    5896     5330     4949     4795     4894     5161     5498     5868 
    6239     6572     6795     6829     6676     6405     6092     5795 
    5572     5451     5391     5342     5284     5219     5185     5210 
    5274     5401     5640     5939     6184     6331     6416     6495 
    6597     6670     6633     6438     6108     5773     5561     5539 
    5758     6200     6710     7087     7185     6986     6602     6149 
    5687     5257     4854     4491     4312     4450     4876     5471 
    6100     6612     6902     6936     6687     6155     5451     4778 
    4326     4162     4213     4376     4619     4945     5342     5763 
    6117     6333     6413     6408     6368     6359     6442     6590 
    6733     6846     6922     6929     6879     6828     6784     6740 
    6748     6844     7008     7211     7409     7521     7522     7479 
    7450     7445     7456     7472     7498     7562     7667     7805 
    7954     8041     7994     7796     7440     6938     6373     5873 
    5548     5447     5599     5998     6538     7060     7476     7770 
    7919     7900     7714     7396     7019     6690     6485     6409 
    6443     6555     6674     6716     6627     6397     6074     5748 
    5494     5336     5247     5204     5224     5296     5321     5201 
    4939     4627     4339     4110     3996     4066     4360     4834 
    5384     5964     6557     7070     7371     7396     7161     6707 
    6108     5497     5021     4777     4817     5108     5568     6141 
    6794     7464     8032     8362     8406     8208     7835     7384 
    7005     6830     6868     7021     7230     7499     7819     8140 
    8376     8435     8283     7955     7532     7089     6670     6342 
    6192     6204     6231     6165     5996     5691     5274     4932 
    4841     5023     5418     5913     6375     6759     7076     7286 
    7327     7187     6864     6358     5769     5281     5014     4959 
    5060     5270     5506     5634     5572     5396     5280     5297 
    5385     5497     5606     5717     5935     6332     6829     7262 
    7470     7374     7045     6662     6389     6284     6322     6433 
    6558     6687     6804     6878     6911     6897     6811     6680 
    6551     6447     6401     6456     6606     6796     7001     7216 
    7400     7512     7565     7606     7684     7865     8197     8585 
    8828     8858     8775     8647     8476     8274     8021     7683 
    7317     7024     6815     6655     6566     6613     6769     6919 
    6989     6973     6847     6587     6250     5929     5649     5378 
    5081     4746     4454     4327     4389     4555     4722     4816 
    4795     4672     4550     4570     4816     5271     5854     6461 
    6989     7352     7497     7376     6947     6234     5354     4444 
    3648     3157     3079     3356     3913     4711     5668     6628 
    7391     7800     7839     7610     7239     6833     6469     6201 
    6068     6102     6293     6550     6740     6754     6577     6300 
    6015     5744     5514     5406     5518     5894     6488     7175 
    7776     8146     8265     8176     7882     7396     6783     6114 
    5432     4785     4295     4122     4300     4718     5229     5687 
    6024     6253     6354     6317     6172     5901     5508     5104 
    4796     4650     4761     5194     5926     6878     7901     8805 
    9474     9866     9935     9642     9024     8189     7243     6301 
    5534     5100     5045     5310     5816     6503     7236     7841 
    8242     8423     8375     8164     7878     7568     7268     6977 
    6699     6510     6484     6615     6881     7234     7556     7747 
    7804     7806     7826     7846     7809     7718     7606     7453 
    7239     7042     6941     6902     6839     6723     6578     6440 
    6317     6221     6180     6221     6342     6480     6568     6656 
    6806     6984     7128     7191     7156     7075     7016     6963 
    6904     6892     6952     7023     6999     6815     6525     6250 
    6080     6046     6118     6278     6540     6887     7232     7483 
    7598     7559     7380     7144     6959     6854     6794     6721 
    6615     6531     6509     6528     6553     6528     6411     6270 
    6219     6285     6441     6633     6790     6858     6806     6646 
    6423     6155     5867     5588     5302     5006     4745     4544 
    4376     4219     4038     3771     3437     3196     3207     3524 
    4105     4816     5489     6043     6490     6850     7144     7404 
    7617     7719     7701     7629     7549     7454     7330     7161 
    6929     6659     6412     6229     6140     6185     6364     6625 
    6929     7240     7508     7718     7875     7961     7964     7886 
    7720     7486     7246     7057     6929     6834     6747     6670 
    6630     6644     6675     6649     6554     6435     6345     6333 
    6406     6534     6700     6879     7028     7119     7135     7067 
    6917     6693     6426     6165     5939     5779     5750     5881 
    6133     6465     6842     7156     7226     6952     6367     5554 
    4629     3730     2930     2259     1807     1653     1757     2034 
    2432     2901     3356     3722     3979     4093     4002     3734 
    3418     3174     3054     3050     3120     3258     3502     3862 
    4284     4717     5104     5378     5519     5534     5418     5190 
    4922     4698     4539     4427     4380     4453     4658     4978 
    5432     5985     6530     7012     7382     7575     7595     7474 
    7244     6990     6813     6752     6770     6848     7039     7368 
    7787     8203     8498     8616     8595     8494     8369     8266 
    8182     8104     8059     8085     8188     8342     8484     8556 
    8548     8469     8338     8193     8078     8037     8106     8285 
    8522     8741     8880     8884     8737     8488     8229     8076 
    8095     8237     8424     8613     8792     8974     9139     9200 
    9084     8803     8418     7976     7492     7007     6601     6335 
    6215     6202     6241     6312     6423     6568     6712     6818 
    6849     6782     6633     6384     6015     5570     5127     4747 
    4482     4370     4423     4642     5010     5506     6067     6593 
    7018     7326     7503     7553     7511     7418     7311     7251 
    7305     7464     7652     7788     7813     7726     7554     7286 
    6922     6515     6131     5795     5474     5121     4766     4501 
    4354     4283     4241     4216     4247     4396     4670     5010 
    5336     5605     5814     5955     5966     5759     5295     4624 
    3878     3248     2876     2778     2921     3302     3907     4673 
    5492     6230     6753     6954     6790     6343     5791     5293 
    4953     4857     5036     5463     6114     6923     7729     8384 
    8813     8968     8819     8357     7592     6627     5692     5017 
    4715     4793     5197     5845     6619     7366     7951     8290 
    8356     8167     7761     7186     6558     6050     5790     5839 
    6189     6730     7332     7880     8270     8488     8560     8454 
    8145     7683     7124     6527     6005     5688     5642     5819 
    6129     6510     6880     7142     7252     7183     6906     6463 
    5955     5449     4981     4608     4348     4187     4163     4285 
    4467     4627     4726     4715     4598     4459     4381     4421 
    4619     4959     5362     5754     6104     6402     6623     6749 
    6788     6767     6717     6671     6641     6630     6654     6706 
    6757     6815     6930     7131     7365     7571     7781     8036 
    8292     8478     8545     8474     8272     7969     7632     7330 
    7100     6941     6823     6730     6653     6556     6453     6409 
    6437     6527     6670     6793     6815     6712     6463     6058 
    5567     5075     4601     4158     3798     3573     3515     3672 
    4064     4614     5178     5644     5945     6024     5871     5556 
    5211     4937     4783     4765     4867     5055     5294     5545 
    5747     5848     5805     5606     5311     5003     4727     4527 
    4479     4637     4985     5490     6088     6650     7066     7289 
    7302     7132     6865     6580     6324     6147     6059     6021 
    6060     6255     6617     7064     7465     7719     7763     7600 
    7326     7038     6783     6599     6528     6591     6792     7121 
    7559     8036     8444     8702     8741     8510     8039     7429 
    6796     6277     5985     5935     6086     6393     6799     7238 
    7643     7938     8064     8002     7754     7359     6888     6405 
    5955     5638     5555     5720     6102     6630     7175     7629 
    7939     8087     8061     7836     7421     6893     6347     5871 
    5586     5574     5796     6187     6694     7204     7583     7761 
    7752     7595     7358     7125     6924     6737     6582     6525 
    6624     6868     7181     7454     7582     7524     7346     7126 
    6878     6606     6358     6163     5990     5802     5598     5392 
    5202     5055     4970     4945     4996     5137     5353     5606 
    5858     6079     6229     6271     6225     6120     6010     6003 
    6161     6465     6860     7266     7608     7838     7941     7937 
    7871     7787     7707     7638     7593     7575     7590     7639 
    7692     7695     7613     7428     7133     6737     6286     5872 
    5559     5352     5248     5228     5229     5207     5169     5109 
    4990     4801     4549     4245     3940     3732     3685     3781 
    3965     4200     4459     4698     4899     5057     5117     5041 
    4859     4627     4400     4214     4078     4002     3995     4044 
    4133     4227     4287     4299     4250     4148     4031     3909 
    3778     3676     3608     3567     3602     3747     3960     4187 
    4416     4661     4930     5214     5485     5696     5798     5795 
    5738     5663     5584     5543     5572     5685     5904     6252 
    6726     7278     7819     8251     8471     8406     8090     7663 
    7285     7072     7050     7168     7378     7657     7973     8280 
    8527     8662     8642     8471     8225     7969     7732     7547 
    7433     7381     7389     7446     7484     7440     7350     7301 
    7312     7384     7547     7777     8002     8210     8421     8591 
    8686     8720     8658     8450     8124     7733     7326     6992 
    6818     6827     6993     7266     7602     7970     8321     8607 
    8799     8849     8705     8377     7926     7422     6947     6602 
    6454     6510     6729     7043     7345     7532     7562     7443 
    7189     6815     6363     5886     5420     5017     4751     4676 
    4780     5001     5278     5570     5857     6129     6360     6511 
    6543     6445     6219     5886     5526     5250     5118     5134 
    5298     5602     5982     6365     6717     7008     7210     7323 
