Origin Time       2025/01/13 21:19:00
Lat.              31.8
Long.             131.6
Depth. (km)       30
Mag.              6.9
Station Code      KGS008
Station Lat.      31.7638
Station Long.     130.5659
Station Height(m) 11
Record Time       2025/01/13 21:19:49
Sampling Freq(Hz) 100Hz
Duration Time(s)  185
Dir.              E-W
Scale Factor      7845(gal)/8223790
Max. Acc. (gal)   33.930
Last Correction   2025/01/13 21:19:49
Memo.             
[...]
  -13235   -14397   -15583   -16698   -17641   -18319   -18647   -18517 
  -17859   -16738   -15317   -13776   -12245   -10767    -9269    -7584 
   -5593    -3348    -1055      950     2351     3098     3443     3735 
    4178     4735     5260     5697     6108     6579     7107     7628 
    8116     8557     8926     9135     9119     9022     9120     9454 
    9751     9647     8885     7457     5520     3167      440    -2536 
   -5568    -8422   -10901   -12885   -14386   -15535   -16434   -17039 
  -17223   -16881   -16038   -14872   -13548   -12101   -10519    -8765 
   -6772    -4500    -1904     1077     4352     7587    10377    12499 
   13998    15032    15688    16004    16135    16263    16360    16283 
   15870    14978    13633    11958     9988     7696     5053     2137 
    -861    -3763    -6431    -8789   -10832   -12448   -13419   -13620 
  -13173   -12434   -11766   -11353   -11222   -11206   -11053   -10682 
  -10126    -9333    -8136    -6431    -4419    -2438     -645      920 
    2205     3165     3847     4406     4977     5572     6197     6697 
    6739     6338     5746     5086     4511     4099     3778     3592 
    3646     4033     4843     6002     7269     8418     9394    10291 
   11144    11923    12677    13504    14474    15622    16918    18245 
   19442    20367    20826    20572    19429    17334    14391    10901 
    7165     3333     -433    -3944    -7182   -10214   -13038   -15566 
  -17674   -19313   -20490   -21226   -21605   -21744   -21822   -22072 
  -22597   -23214   -23533   -23283   -22457   -21093   -19161   -16664 
  -13686   -10332    -6759    -3200      149     3084     5378     7003 
    8060     8716     9274     9990    10940    12029    13042    13792 
   14233    14361    14176    13740    13161    12513    11757    10685 
    9062     6913     4525     2223      180    -1609    -3261    -4901 
   -6562    -8210    -9850   -11520   -13113   -14347   -14990   -14952 
  -14296   -13321   -12337   -11426   -10569    -9747    -8970    -8336 
   -7913    -7686    -7611    -7608    -7639    -7731    -7848    -7867 
   -7734    -7520    -7323    -7126    -6798    -6300    -5800    -5502 
   -5441    -5381    -4938    -3929    -2452     -669     1308     3426 
    5572     7430     8669     9186     9077     8544     7759     6762 
    5597     4425     3377     2498     1826     1360     1071      951 
     982     1166     1582     2251     3100     4043     4926     5570 
    5888     5894     5625     5143     4626     4278     4210     4437 
    4812     5105     5262     5456     5937     6766     7712     8476 
    8924     9051     8872     8378     7678     7068     6721     6517 
    6259     5875     5374     4837     4379     4033     3728     3357 
    2855     2284     1817     1487     1129      560     -310    -1462 
   -2793    -4191    -5547    -6716    -7574    -8056    -8105    -7757 
   -7182    -6507    -5724    -4815    -3867    -3133    -2897    -3279 
   -4268    -5729    -7311    -8608    -9350    -9366    -8703    -7639 
   -6384    -4990    -3508    -2052     -834      -18      450      719 
     839      792      625      500      648     1202     2088     3059 
    3874     4482     4963     5375     5744     6064     6264     6322 
    6274     6091     5737     5297     4939     4815     4997     5532 
    6421     7528     8640     9648    10503    11149    11639    12079 
   12519    12989    13513    14114    14750    15244    15452    15341 
   14871    13979    12610    10682     8189     5269     2115    -1101 
   -4213    -7065    -9521   -11453   -12780   -13517   -13747   -13614 
  -13315   -12974   -12610   -12135   -11361   -10143    -8522    -6670 
   -4774    -3024    -1588     -630     -298     -673    -1665    -2928 
   -4032    -4815    -5398    -5944    -6531    -7076    -7373    -7287 
   -6782    -5964    -5055    -4216    -3541    -3137    -3106    -3483 
   -4206    -5157    -6231    -7372    -8590    -9922   -11313   -12734 
  -14257   -15867   -17460   -18908   -19971   -20362   -19894   -18531 
  -16451   -14096   -11962   -10336    -9270    -8642    -8278    -8032 
   -7832    -7719    -7755    -7846    -7812    -7543    -7018    -6195 
   -4977    -3298    -1202     1156     3546     5721     7496     8721 
    9248     8995     8060     6751     5440     4418     3777     3402 
    3125     2898     2749     2616     2330     1792     1080      402 
      -1      -99      -71     -102     -311     -741    -1362    -2101 
   -2751    -3032    -2826    -2134     -939      646     2442     4341 
    6343     8484    10681    12733    14615    16487    18376    20121 
   21694    23232    24760    26237    27602    28638    29145    29046 
   28293    26955    25253    23363    21466    19666    17724    15407 
   12892    10427     8036     5660     3200      558    -2231    -5011 
   -7630    -9984   -11947   -13350   -14069   -13961   -12995   -11448 
   -9574    -7442    -5228    -3173    -1441     -124      835     1586 
    2234     2898     3711     4716     5795     6724     7303     7395 
    6921     5880     4407     2724      953     -900    -2847    -4872 
   -6948    -9128   -11550   -14207   -16853   -19205   -21131   -22755 
  -24198   -25353   -26125   -26547   -26559   -26048   -25038   -23801 
  -22630   -21438   -20027   -18445   -16744   -14929   -13088   -11275 
   -9571    -8048    -6612    -5130    -3492    -1598      589     3018 
    5486     7662     9367    10660    11697    12582    13279    13730 
   13905    13713    13136    12329    11406    10388     9267     8081 
    6953     5994     5202     4617     4297     4189     4120     3883 
    3292     2203      616    -1345    -3619    -6070    -8510   -10810 
  -12814   -14418   -15658   -16461   -16672   -16220   -15079   -13281 
  -10925    -8101    -4955    -1723     1277     3754     5621     6975 
    7919     8514     8768     8753     8694     8743     8923     9225 
    9595    10002    10454    10940    11406    11727    11758    11416 
   10728     9809     8689     7317     5656     3684     1452     -885 
   -3186    -5335    -7273    -8961   -10218   -10818   -10740   -10088 
   -9016    -7657    -5981    -3963    -1764      441     2506     4328 
    5918     7284     8426     9404    10212    10899    11618    12368 
   13057    13640    14061    14322    14509    14648    14682    14488 
   13911    12914    11520     9784     7834     5778     3622     1298 
   -1223    -3897    -6617    -9224   -11647   -13926   -16008   -17749 
  -19040   -19753   -19716   -18794   -16961   -14291   -10930    -7129 
   -3287      206     3233     5849     8082     9987    11651    13097 
   14334    15442    16538    17678    18785    19606    19831    19422 
   18571    17340    15666    13582    11151     8343     5188     1834 
   -1582    -4951    -8176   -11236   -14099   -16690   -18990   -20979 
  -22600   -23901   -24945   -25582   -25679   -25386   -24837   -23974 
  -22696   -20887   -18488   -15553   -12237    -8872    -5833    -3248 
   -1074      735     2331     3944     5692     7470     9090    10505 
   11804    13032    14072    14789    15187    15252    14820    13786 
   12166     9944     7087     3727      160    -3273    -6397    -9225 
  -11723   -13720   -15115   -15971   -16438   -16660   -16694   -16538 
  -16160   -15512   -14573   -13319   -11774   -10096    -8471    -7030 
   -5887    -5016    -4261    -3462    -2494    -1359     -217      768 
    1580     2278     2851     3280     3607     3838     3966     4000 
    3906     3661     3245     2597     1756      916      305      -17 
    -129      -59      118      179      -36     -594    -1552    -2882 
   -4491    -6235    -7877    -9298   -10504   -11387   -11788   -11516 
  -10353    -8276    -5532    -2409      874     4132     7126     9587 
   11346    12378    12704    12440    11770    10833     9713     8465 
    7137     5779     4419     3117     1944      918       68     -558 
   -1015    -1386    -1763    -2296    -3102    -4121    -5162    -6049 
   -6733    -7288    -7778    -8214    -8664    -9209    -9830   -10424 
  -10813   -10728   -10045    -8833    -7179    -5147    -2820     -302 
    2203     4444     6200     7357     8025     8457     8864     9386 
   10096    11092    12565    14542    16783    18998    20996    22685 
   24009    24938    25455    25529    25172    24448    23413    22134 
   20596    18669    16403    13915    11161     8191     5142     2065 
    -945    -3851    -6750    -9634   -12397   -14951   -17221   -19091 
  -20386   -21034   -21146   -20818   -20069   -18986   -17759   -16567 
  -15461   -14361   -13181   -11902   -10477    -8804    -6860    -4708 
   -2481     -325     1703     3565     5198     6655     7951     8958 
    9578     9786     9509     8725     7542     6110     4573     3115 
    1937     1186      878      895     1063     1239     1316     1275 
    1202     1240     1452     1779     2234     2922     3686     4248 
    4498     4361     3904     3389     3024     2933     3226     3912 
    4907     6091     7267     8260     9047     9560     9612     9252 
    8781     8259     7608     6994     6601     6432     6428     6609 
    7117     8014     9143    10280    11242    11808    11700    10708 
    8806     6161     2955     -616    -4260    -7838   -11381   -14764 
  -17821   -20505   -22765   -24588   -26063   -27199   -27911   -28143 
  -27880   -27056   -25674   -23873   -21694   -19063   -15978   -12487 
   -8683    -4639     -422     3689     7365    10454    12822    14405 
   15327    15763    15882    15830    15569    14959    13988    12715 
   11099     8999     6274     2903     -947    -4993    -8999   -12802 
  -16359   -19813   -23249   -26522   -29475   -31977   -33847   -34933 
  -35121   -34400   -32975   -31014   -28545   -25659   -22473   -19025 
  -15415   -11839    -8491    -5506    -2933     -814      733     1718 
    2457     3318     4448     5869     7630     9670    11719    13525 
   15016    16181    16947    17247    17123    16636    15759    14499 
   12907    11045     9090     7306     5859     4753     3893     3203 
    2689     2353     2053     1552      731     -326    -1520    -2818 
   -4145    -5422    -6651    -7730    -8384    -8330    -7456    -5849 
   -3604     -800     2239     5250     8271    11241    13990    16518 
   18890    21178    23418    25515    27225    28316    28791    28750 
   28259    27427    26256    24676    22806    20869    19053    17371 
   15662    13805    11711     9382     6994     4664     2504      703 
    -730    -1966    -3114    -4185    -5173    -6107    -7030    -7900 
   -8704    -9533   -10397   -11265   -12108   -12815   -13358   -13752 
  -13981   -14106   -14175   -14180   -14143   -14034   -13759   -13315 
  -12791   -12274   -11724   -11022   -10099    -8964    -7676    -6216 
   -4510    -2581     -553     1362     2921     4000     4569     4644 
    4297     3595     2583     1385      186     -837    -1622    -2246 
   -2782    -3269    -3735    -4189    -4638    -5067    -5422    -5634 
   -5611    -5313    -4857    -4460    -4303    -4453    -4845    -5374 
   -5952    -6457    -6794    -6891    -6674    -6137    -5347    -4351 
   -3141    -1698      -45     1745     3600     5437     7055     8159 
    8581     8328     7524     6397     5198     4179     3520     3219 
    3091     2952     2708     2377     2093     1996     2122     2458 
    2961     3566     4279     5132     6089     7055     7902     8517 
    8845     8870     8641     8226     7658     7036     6512     6135 
    5795     5350     4735     3947     2983     1854      581     -758 
   -2070    -3285    -4321    -5111    -5678    -6130    -6639    -7325 
   -8194    -9166   -10046   -10619   -10787   -10650   -10415   -10278 
  -10430   -11041   -12191   -13852   -15850   -17942   -19930   -21659 
  -23004   -23911   -24381   -24460   -24268   -23919   -23458   -22918 
  -22291   -21485   -20398   -18906   -16900   -14409   -11492    -8271 
   -4986    -1800     1206     3946     6349     8295     9664    10463 
   10763    10652    10328    10080    10142    10627    11539    12769 
   14160    15539    16710    17537    17963    17959    17590    16974 
   16173    15292    14528    14007    13743    13698    13840    14183 
   14690    15157    15357    15207    14763    14157    13603    13333 
   13514    14242    15545    17358    19437    21417    23016    24043 
   24403    24129    23268    21878    20094    18011    15654    13116 
   10480     7726     4872     1998     -915    -3894    -6890    -9805 
  -12484   -14854   -16931   -18690   -20129   -21251   -22002   -22342 
  -22256   -21753   -20954   -20042   -19164   -18418   -17896   -17620 
  -17478   -17331   -17084   -16694   -16163   -15438   -14419   -13086 
  -11502    -9776    -8098    -6667    -5580    -4846    -4432    -4172 
   -3916    -3650    -3321    -2847    -2216    -1378     -313      872 
    2081     3187     4005     4438     4472     4093     3373     2565 
    1938     1584     1510     1728     2214     2940     3854     4757 
    5431     5763     5632     5059     4259     3333     2350     1401 
     436     -552    -1503    -2470    -3523    -4758    -6297    -8151 
  -10249   -12478   -14671   -16656   -18249   -19367   -19996   -20097 
  -19596   -18427   -16605   -14164   -11084    -7365    -3068     1634 
    6488    11299    15938    20247    24128    27529    30346    32532 
   34105    35043    35351    35068    34084    32186    29319    25591 
   21174    16309    11344     6694     2667     -634    -3292    -5543 
   -7601    -9621   -11747   -14026   -16398   -18796   -21114   -23251 
  -25165   -26778   -28028   -28894   -29320   -29339   -29025   -28343 
  -27229   -25659   -23750   -21748   -19688   -17491   -15280   -13198 
  -11256    -9433    -7747    -6284    -5070    -3924    -2725    -1614 
    -599      581     2061     3800     5699     7616     9514    11375 
   13027    14300    15130    15542    15615    15338    14728    13940 
   13042    11956    10671     9323     8054     6910     6006     5525 
    5571     6054     6724     7454     8268     9036     9655    10277 
   11013    11816    12706    13707    14751    15800    16843    17798 
   18592    19191    19514    19534    19340    18933    18219    17188 
   15924    14490    12896    11227     9629     8105     6625     5215 
    3831     2367      749    -1051    -2991    -4973    -6912    -8715 
  -10292   -11587   -12595   -13356   -13863   -14003   -13697   -12973 
  -11952   -10790    -9593    -8459    -7516    -6864    -6525    -6438 
   -6498    -6635    -6758    -6824    -6893    -7015    -7171    -7342 
   -7573    -7861    -8116    -8301    -8372    -8220    -7801    -7144 
   -6254    -5201    -4085    -2943    -1827     -824       41      757 
    1258     1501     1458     1090      421     -426    -1335    -2301 
   -3364    -4440    -5449    -6389    -7223    -7960    -8638    -9236 
   -9760   -10276   -10868   -11581   -12341   -13050   -13629   -13946 
  -13892   -13481   -12823   -12058   -11271   -10486    -9703    -8931 
   -8185    -7450    -6632    -5587    -4239    -2635     -926      746 
    2278     3595     4685     5572     6288     6916     7508     8068 
    8592     9039     9425     9841    10327    10864    11434    11967 
   12391    12649    12680    12495    12222    12010    11915    11880 
   11862    11848    11742    11430    10868    10056     9013     7749 
    6231     4456     2467      342    -1873    -4114    -6242    -8166 
   -9821   -11095   -11951   -12387   -12368   -11898   -11041    -9944 
   -8742    -7504    -6316    -5227    -4212    -3258    -2335    -1463 
    -741     -157      378      934     1614     2466     3439     4510 
    5626     6709     7684     8424     8854     8961     8712     8135 
    7322     6332     5196     3925     2574     1217     -117    -1452 
   -2821    -4210    -5520    -6677    -7688    -8533    -9188    -9672 
   -9981   -10110   -10066    -9822    -9369    -8775    -8108    -7399 
   -6682    -6015    -5427    -4858    -4236    -3518    -2681    -1722 
    -672      394     1368     2211     2932     3557     4164     4826 
    5587     6489     7503     8554     9556    10376    10914    11145 
   11079    10727    10065     9181     8294     7537     6947     6488 
    6058     5663     5324     4963     4557     4082     3472     2754 
    1993     1254      585      -12     -560    -1094    -1611    -2047 
   -2407    -2695    -2871    -2938    -2906    -2758    -2465    -1979 
   -1293     -486      337     1078     1688     2208     2706     3256 
    3958     4858     5919     7047     8098     9009     9780    10363 
   10717    10824    10697    10390     9915     9305     8658     8006 
    7330     6677     6120     5672     5217     4644     3997     3322 
    2585     1784      932       36     -873    -1817    -2820    -3804 
   -4710    -5556    -6357    -7133    -7889    -8588    -9273   -10029 
  -10820   -11553   -12272   -13036   -13759   -14382   -14889   -15245 
  -15526   -15769   -15894   -15898   -15862   -15835   -15828   -15865 
  -15992   -16175   -16305   -16333   -16237   -15997   -15592   -15022 
  -14364   -13693   -13063   -12513   -12009   -11508   -10994   -10453 
   -9864    -9117    -8185    -7227    -6308    -5367    -4432    -3557 
   -2772    -2073    -1385     -697      -82      492     1117     1775 
    2408     2999     3564     4136     4714     5282     5884     6578 
    7372     8210     9038     9877    10768    11719    12699    13629 
   14486    15277    15901    16289    16459    16414    16133    15645 
   15045    14431    13819    13127    12291    11329    10245     9040 
    7716     6278     4787     3319     1950      727     -342    -1248 
   -2025    -2709    -3285    -3789    -4279    -4726    -5098    -5440 
   -5745    -5954    -6046    -6052    -5968    -5744    -5410    -5049 
   -4679    -4314    -3960    -3627    -3358    -3177    -3038    -2891 
   -2716    -2493    -2220    -1899    -1510    -1100     -754     -480 
    -268      -90      102      286      453      653      889     1163 
    1512     1926     2373     2859     3411     4044     4750     5456 
    6106     6725     7315     7855     8343     8776     9158     9414 
    9444     9285     9012     8590     7982     7215     6345     5456 
    4580     3696     2797     1863      857     -251    -1458    -2732 
   -4010    -5144    -6002    -6567    -6887    -6966    -6814    -6574 
   -6374    -6200    -6002    -5773    -5532    -5236    -4824    -4302 
   -3720    -3065    -2304    -1489     -729      -99      396      824 
    1174     1381     1503     1707     2066     2509     2940     3368 
    3824     4275     4671     5001     5256     5439     5568     5626 
    5582     5404     5061     4576     3969     3242     2430     1599 
     846      213     -288     -603     -750     -819     -882     -985 
   -1143    -1367    -1669    -2037    -2458    -2922    -3393    -3863 
   -4340    -4814    -5301    -5837    -6420    -7076    -7812    -8573 
   -9321   -10048   -10748   -11414   -12020   -12587   -13144   -13671 
  -14157   -14594   -14947   -15202   -15367   -15431   -15380   -15199 
  -14879   -14422   -13857   -13212   -12444   -11554   -10600    -9578 
