Origin Time       2025/01/13 21:19:00
Lat.              31.8
Long.             131.6
Depth. (km)       30
Mag.              6.9
Station Code      KGS036
Station Lat.      31.8360
Station Long.     129.8678
Station Height(m) 6
Record Time       2025/01/13 21:20:02
Sampling Freq(Hz) 100Hz
Duration Time(s)  103
Dir.              U-D
Scale Factor      3920(gal)/6182761
Max. Acc. (gal)   2.428
Last Correction   2025/01/13 21:20:02
Memo.             
[...]
   21110    20848    20668    20605    20668    20724    20623    20412 
   20188    20020    20045    20284    20546    20631    20534    20397 
   20297    20243    20320    20554    20760    20722    20493    20252 
   20063    19995    20146    20464    20782    21070    21433    21884 
   22293    22540    22617    22511    22194    21809    21527    21382 
   21392    21550    21716    21684    21441    21222    21142    21092 
   21033    21013    20966    20780    20555    20470    20463    20370 
   20206    20066    19900    19702    19690    20011    20578    21275 
   22035    22681    23042    23167    23088    22721    22186    21771 
   21625    21668    21776    21879    21878    21764    21709    21835 
   22064    22226    22258    22156    21843    21322    20809    20522 
   20414    20339    20310    20346    20275    19967    19614    19467 
   19563    19870    20302    20679    20927    21081    21187    21280 
   21416    21634    21792    21707    21472    21342    21400    21550 
   21752    21964    22014    21834    21580    21373    21190    21085 
   21146    21241    21194    21095    21127    21206    21115    20892 
   20684    20474    20264    20124    20048    20021    20078    20214 
   20341    20418    20519    20737    21070    21417    21752    22130 
   22467    22623    22640    22604    22465    22222    22022    21916 
   21789    21599    21437    21277    20994    20690    20539    20534 
   20690    21055    21500    21756    21737    21658    21683    21734 
   21744    21751    21737    21618    21422    21270    21213    21262 
   21476    21844    22185    22321    22303    22267    22179    21946 
   21640    21336    20986    20630    20358    20182    20120    20201 
   20427    20671    20744    20692    20655    20617    20534    20423 
   20308    20219    20209    20248    20205    20090    20078    20223 
   20371    20438    20557    20816    21088    21250    21353    21412 
   21380    21376    21483    21548    21481    21405    21408    21377 
   21262    21239    21332    21358    21301    21234    21093    20901 
   20927    21298    21736    21925    21839    21572    21154    20698 
   20436    20409    20414    20334    20268    20291    20397    20668 
   21078    21396    21538    21616    21700    21743    21733    21783 
   21952    22184    22425    22601    22595    22361    22032    21769 
   21563    21366    21244    21255    21353    21477    21571    21559 
   21463    21413    21474    21556    21523    21371    21157    20942 
   20833    20859    20925    20926    20810    20602    20358    20166 
   20149    20372    20745    21109    21436    21737    21900    21883 
   21810    21796    21826    21804    21711    21593    21436    21273 
   21292    21534    21795    21956    22000    21924    21822    21788 
   21798    21729    21500    21183    20845    20516    20265    20110 
   20006    19901    19833    19891    20034    20204    20469    20836 
   21178    21443    21680    21826    21771    21580    21377    21153 
   20914    20835    20965    21109    21162    21217    21361    21539 
   21705    21906    22061    22002    21734    21397    21087    20785 
   20510    20386    20420    20478    20481    20486    20544    20641 
   20847    21180    21431    21486    21482    21473    21359    21186 
   21049    20898    20736    20652    20647    20623    20562    20570 
   20627    20624    20632    20810    21124    21374    21500    21591 
   21659    21666    21634    21610    21609    21621    21660    21723 
   21681    21452    21170    20960    20795    20727    20821    21002 
   21222    21477    21694    21787    21782    21836    21941    21889 
   21681    21558    21583    21566    21462    21435    21480    21460 
   21403    21422    21466    21409    21274    21141    21030    20983 
   21079    21268    21373    21371    21370    21351    21248    21077 
   20879    20657    20459    20420    20515    20602    20746    21016 
   21246    21320    21344    21397    21410    21378    21375    21440 
   21608    21916    22319    22639    22711    22583    22430    22322 
   22245    22241    22251    22093    21795    21565    21425    21186 
   20751    20282    19986    19914    20025    20231    20453    20661 
   20874    21115    21357    21612    21917    22153    22160    22020 
   21915    21836    21650    21318    20937    20609    20408    20437 
   20655    20822    20825    20782    20853    21025    21138    21178 
   21236    21253    21169    21085    21047    20957    20860    20925 
   21095    21209    21304    21487    21649    21604    21403    21188 
   20917    20584    20380    20403    20515    20608    20664    20669 
   20704    20885    21141    21296    21263    21103    20926    20826 
   20851    20960    21059    21044    20950    20948    21045    21080 
   21019    21005    21099    21204    21339    21624    21918    21936 
   21699    21442    21294    21353    21628    21909    22046    22091 
   22103    22026    21809    21532    21254    20956    20683    20528 
   20521    20582    20622    20649    20647    20586    20528    20609 
   20886    21212    21428    21548    21662    21836    22095    22363 
   22497    22452    22263    21950    21607    21381    21369    21525 
   21685    21793    21855    21814    21709    21643    21539    21257 
   20935    20868    21058    21291    21404    21288    20917    20468 
   20253    20368    20561    20646    20729    20858    20900    20905 
   21032    21214    21292    21236    21169    21226    21406    21658 
   21847    21766    21439    21151    21112    21226    21298    21271 
   21136    20955    20913    21070    21253    21276    21155    20980 
   20766    20609    20695    20963    21098    20988    20792    20633 
   20541    20533    20635    20839    21037    21143    21174    21197 
   21251    21288    21243    21132    21117    21374    21842    22259 
   22421    22313    22060    21789    21575    21422    21251    21027 
   20854    20858    21037    21357    21752    22010    21942    21541 
   20945    20397    20127    20192    20424    20641    20875    21153 
   21266    21052    20721    20580    20660    20876    21155    21365 
   21473    21586    21736    21808    21715    21515    21353    21270 
   21189    21204    21440    21703    21822    21892    21927    21805 
   21492    21037    20470    19847    19359    19272    19642    20207 
   20719    21148    21410    21420    21334    21340    21407    21437 
   21436    21407    21282    21065    20857    20697    20573    20588 
   20785    20975    21065    21227    21558    21935    22213    22353 
   22296    22002    21646    21480    21547    21631    21510    21246 
   21034    20939    20942    21036    21112    20965    20606    20251 
   19959    19656    19427    19410    19562    19874    20451    21189 
   21804    22137    22245    22263    22250    22265    22305    22225 
   21992    21817    21837    21921    21967    22017    21977    21725 
   21414    21283    21376    21583    21797    21990    22176    22316 
   22378    22380    22255    21957    21617    21384    21333    21444 
   21614    21777    21905    21941    21846    21684    21512    21307 
   21117    21040    21110    21346    21635    21719    21460    21010 
   20652    20529    20569    20583    20444    20220    20090    20106 
   20141    20124    20134    20256    20479    20690    20819    20911 
   20963    20969    21006    21102    21247    21469    21715    21815 
   21739    21657    21664    21722    21794    21856    21877    21818 
   21722    21683    21657    21572    21544    21679    21856    21909 
   21690    21119    20419    19907    19645    19564    19617    19793 
   20057    20302    20508    20762    21064    21334    21596    21871 
   22008    21927    21737    21589    21568    21603    21522    21279 
   21018    20938    21146    21549    21892    22073    22176    22181 
   22028    21807    21747    21898    21967    21777    21483    21283 
   21296    21508    21714    21735    21632    21542    21404    21141 
   20849    20638    20509    20378    20205    20008    19747    19429 
   19283    19540    20097    20671    21127    21439    21586    21592 
   21558    21579    21681    21850    21985    21958    21840    21820 
   21905    21888    21656    21332    21019    20674    20310    20064 
   19980    19954    19986    20177    20420    20483    20370    20222 
   20044    19854    19760    19765    19834    20009    20315    20647 
   20838    20937    21231    21797    22350    22671    22856    22938 
   22813    22568    22315    21964    21483    21012    20677    20535 
   20628    20857    20967    20901    20925    21184    21475    21727 
   22044    22224    22044    21652    21322    21173    21123    21088 
   21103    21142    21098    20986    20907    20821    20660    20517 
   20501    20638    20877    21086    21157    21115    21097    21166 
   21297    21515    21815    22047    22084    22075    22213    22404 
   22522    22542    22438    22267    22089    21868    21541    21193 
   21086    21297    21564    21572    21207    20591    19929    19444 
   19342    19609    19993    20225    20220    20098    20012    20062 
   20373    20907    21374    21674    21969    22305    22648    22924 
   22896    22438    21801    21374    21187    20987    20734    20531 
   20348    20158    20044    20129    20460    20954    21429    21710 
   21761    21759    21891    22023    21914    21668    21540    21508 
   21449    21432    21429    21236    20897    20685    20746    20985 
   21219    21384    21446    21330    21151    21162    21419    21735 
   21957    22073    22076    21990    21891    21863    21950    22072 
   22094    21918    21541    21133    20845    20578    20201    19868 
   19791    19889    19970    19979    19970    19958    19977    20219 
   20748    21350    21899    22414    22844    23058    23056    23008 
   22974    22821    22472    22001    21484    20953    20503    20177 
   19892    19710    19851    20257    20580    20669    20657    20646 
   20692    20868    21113    21241    21170    20985    20730    20435 
   20258    20301    20490    20679    20821    20958    21045    21080 
   21239    21627    22094    22421    22579    22677    22691    22496 
   22185    21936    21662    21268    20861    20512    20286    20279 
   20467    20675    20729    20662    20634    20718    20896    21075 
   21121    20986    20801    20740    20724    20563    20333    20269 
   20372    20495    20671    20953    21169    21168    21084    21094 
   21159    21215    21255    21194    21047    21003    21223    21670 
   22108    22380    22492    22428    22254    22211    22383    22515 
   22447    22338    22210    21903    21490    21169    20923    20664 
   20437    20300    20252    20303    20476    20707    20859    20971 
   21180    21427    21618    21726    21723    21605    21324    20922 
   20606    20467    20437    20506    20673    20831    20935    21101 
   21357    21586    21695    21708    21684    21614    21480    21320 
   21133    20909    20741    20698    20694    20702    20815    20910 
   20756    20411    20149    20091    20148    20277    20458    20565 
   20610    20798    21133    21361    21414    21457    21509    21499 
   21478    21501    21526    21529    21542    21535    21452    21336 
   21284    21299    21277    21225    21212    21174    21056    20925 
   20817    20650    20381    20119    19910    19689    19522    19558 
   19777    19956    19988    20015    20108    20251    20514    20897 
   21180    21204    21149    21203    21247    21175    21091    20995 
   20733    20413    20330    20492    20719    20910    20983    20873 
   20662    20608    20829    21090    21186    21198    21223    21221 
   21209    21308    21450    21424    21246    21107    21042    20988 
   21039    21289    21570    21675    21729    21901    21970    21793 
   21626    21620    21703    21817    21931    22038    22106    22084 
   21965    21814    21772    21911    22154    22350    22413    22401 
   22384    22348    22259    22125    21931    21604    21164    20713 
   20276    19871    19604    19572    19779    20172    20603    20895 
   21086    21286    21437    21490    21522    21565    21486    21170 
   20764    20539    20628    20961    21403    21849    22171    22293 
   22327    22401    22473    22448    22376    22384    22503    22644 
   22739    22799    22801    22714    22561    22334    22029    21693 
   21388    21147    20930    20778    20802    20925    20936    20778 
   20566    20343    20081    19827    19669    19693    19951    20376 
   20827    21184    21451    21671    21794    21790    21728    21591 
   21273    20859    20612    20604    20680    20682    20555    20304 
   19983    19734    19617    19542    19481    19481    19528    19605 
   19794    20203    20756    21302    21841    22394    22900    23296 
   23548    23626    23484    23155    22816    22606    22423    22125 
   21719    21265    20813    20394    20102    20080    20288    20572 
   20861    21089    21206    21293    21442    21532    21404    21148 
   20899    20645    20442    20451    20693    20980    21210    21432 
   21623    21746    21948    22332    22722    22962    23102    23186 
   23230    23225    23131    22956    22701    22331    21818    21152 
   20408    19717    19145    18638    18130    17704    17450    17377 
   17486    17749    18092    18467    18895    19388    19816    20035 
   20145    20341    20599    20825    21023    21196    21382    21622 
   21882    22148    22359    22464    22496    22430    22234    21999 
   21831    21733    21678    21686    21704    21651    21576    21550 
   21478    21247    21008    21054    21415    21800    22018    22128 
   22139    22052    22031    22159    22365    22610    22867    23013 
   22912    22687    22562    22494    22369    22258    22219    22114 
   21866    21613    21424    21223    21060    21090    21290    21421 
   21332    21094    20764    20327    19905    19596    19268    18918 
   18729    18675    18665    18783    19050    19367    19671    19988 
   20302    20505    20605    20761    21049    21363    21590    21743 
   21821    21803    21779    21837    21944    22087    22346    22718 
   23060    23276    23367    23315    23059    22684    22362    22067 
   21745    21501    21361    21239    21130    21139    21320    21577 
   21796    21907    21832    21533    21125    20811    20648    20546 
   20481    20490    20535    20583    20745    21094    21455    21619 
   21600    21498    21256    20885    20578    20362    20084    19738 
   19412    19136    18876    18656    18558    18576    18671    18904 
   19341    19889    20399    20837    21197    21422    21549    21714 
   21936    22080    22159    22319    22504    22518    22403    22367 
   22371    22269    22116    21978    21852    21815    21948    22170 
   22256    22137    21950    21742    21489    21261    21094    20872 
   20512    20125    19839    19640    19496    19465    19577    19722 
   19860    20081    20381    20683    21003    21317    21488    21550 
   21692    21882    21992    22038    22061    22015    21831    21560 
   21295    21004    20723    20615    20692    20791    20829    20891 
   21006    21086    21120    21152    21120    20920    20629    20412 
   20221    19955    19753    19741    19757    19698    19741    19943 
   20211    20561    21038    21593    22095    22471    22791    23096 
   23405    23785    24215    24543    24697    24796    24919    24987 
   24945    24837    24677    24394    24000    23597    23149    22561 
   21928    21395    20868    20221    19574    19044    18596    18251 
   18108    18194    18423    18733    19148    19589    19885    20030 
   20220    20501    20744    21011    21413    21816    22079    22243 
   22350    22348    22241    22155    22173    22222    22273    22426 
   22637    22774    22871    22916    22778    22465    22093    21707 
   21269    20830    20482    20191    19931    19767    19674    19547 
   19398    19344    19406    19529    19728    20028    20360    20620 
   20825    21067    21324    21500    21620    21736    21789    21786 
   21844    21959    22055    22129    22237    22423    22599    22663 
   22695    22770    22812    22761    22656    22514    22292    21993 
   21626    21151    20610    20166    19902    19727    19596    19575 
   19623    19602    19519    19494    19518    19557    19708    19956 
   20164    20323    20513    20750    20975    21172    21369    21551 
   21750    22037    22327    22464    22510    22645    22810    22814 
   22694    22634    22654    22606    22453    22296    22137    21941 
   21813    21803    21748    21550    21352    21241    21165    21096 
   21030    20968    20883    20757    20619    20471    20335    20292 
   20350    20382    20283    20132    20020    19883    19684    19550 
   19592    19731    19919    20229    20626    20976    21275    21589 
   21816    21840    21721    21489    21171    20918    20836    20956 
   21211    21518    21886    22213    22309    22200    22036    21831 
   21548    21241    20927    20586    20306    20223    20355    20550 
   20670    20761    20874    20966    21049    21194    21334    21382 
   21426    21517    21562    21508    21398    21284    21123    20928 
   20860    20930    21002    21081    21221    21373    21520    21732 
   21992    22165    22166    22051    21987    22035    22096    22137 
   22171    22124    21990    21910    21893    21854    21836    21846 
   21793    21686    21596    21521    21383    21143    20871    20624 
   20411    20270    20231    20243    20250    20336    20525    20663 
   20687    20727    20872    21022    21104    21241    21468    21622 
   21645    21640    21587    21425    21276    21195    21096    20988 
   20908    20848    20791    20746    20763    20827    20879    20943 
   21046    21144    21223    21357    21553    21714    21807    21910 
   22087    22271    22376    22445    22486    22399    22164    21881 
   21575    21238    20979    20814    20619    20413    20369    20579 
   20901    21173    21421    21661    21830    21970    22149    22303 
   22348    22369    22463    22518    22385    22145    21947    21763 
   21573    21501    21536    21494    21323    21122    20885    20581 
   20321    20128    19877    19586    19431    19536    19835    20189 
   20580    20975    21305    21624    21979    22254    22320    22219 
   22077    21922    21754    21646    21572    21337    20886    20404 
   20010    19690    19477    19451    19553    19657    19798    20041 
   20336    20624    20870    21036    21074    21007    20969    21000 
   21010    20979    20927    20785    20528    20309    20246    20255 
   20257    20295    20408    20500    20528    20628    20810    20898 
   20838    20733    20607    20427    20287    20265    20280    20270 
   20303    20489    20807    21150    21472    21745    21948    22143 
   22390    22646    22844    22999    23081    22991    22760    22528 
   22360    22177    21919    21661    21435    21188    20989    20967 
