Origin Time       2025/01/13 21:19:00
Lat.              31.8
Long.             131.6
Depth. (km)       30
Mag.              6.9
Station Code      KGS027
Station Lat.      30.3488
Station Long.     130.8829
Station Height(m) 15
Record Time       2025/01/13 21:20:27
Sampling Freq(Hz) 100Hz
Duration Time(s)  71
Dir.              N-S
Scale Factor      3920(gal)/6182761
Max. Acc. (gal)   2.951
Last Correction   2025/01/13 21:20:27
Memo.             
[...]
   -5925    -6028    -5942    -5722    -5469    -5202    -4900    -4617 
   -4448    -4429    -4514    -4654    -4864    -5163    -5451    -5598 
   -5614    -5615    -5681    -5805    -5902    -5859    -5646    -5380 
   -5209    -5170    -5197    -5193    -5109    -5021    -5069    -5263 
   -5478    -5638    -5731    -5747    -5698    -5613    -5513    -5412 
   -5278    -5095    -4934    -4868    -4907    -4999    -5062    -5057 
   -5005    -4993    -5095    -5266    -5399    -5457    -5496    -5592 
   -5754    -5906    -5985    -5998    -5948    -5828    -5695    -5604 
   -5557    -5568    -5654    -5772    -5844    -5855    -5880    -5957 
   -6011    -5966    -5825    -5639    -5449    -5266    -5061    -4773 
   -4384    -4001    -3804    -3896    -4221    -4627    -4989    -5283 
   -5550    -5818    -6046    -6152    -6089    -5875    -5549    -5207 
   -5008    -4992    -5027    -5018    -4986    -4990    -5048    -5113 
   -5148    -5158    -5098    -4897    -4590    -4306    -4144    -4157 
   -4346    -4613    -4851    -5037    -5221    -5447    -5651    -5668 
   -5421    -5020    -4642    -4381    -4220    -4111    -4049    -4071 
   -4224    -4518    -4869    -5155    -5329    -5439    -5526    -5564 
   -5502    -5343    -5153    -5007    -4958    -4995    -5017    -4955 
   -4892    -4939    -5102    -5304    -5453    -5476    -5371    -5209 
   -5080    -5026    -5012    -4983    -4948    -4948    -5039    -5266 
   -5536    -5647    -5485    -5109    -4731    -4573    -4695    -4985 
   -5330    -5690    -6050    -6375    -6600    -6648    -6503    -6216 
   -5833    -5375    -4888    -4461    -4201    -4146    -4234    -4390 
   -4584    -4778    -4952    -5140    -5343    -5448    -5365    -5159 
   -4934    -4711    -4508    -4376    -4344    -4419    -4586    -4787 
   -4949    -5062    -5173    -5304    -5408    -5425    -5383    -5381 
   -5458    -5596    -5762    -5894    -5937    -5888    -5772    -5632 
   -5498    -5375    -5255    -5155    -5136    -5262    -5546    -5948 
   -6374    -6709    -6879    -6874    -6743    -6553    -6333    -6094 
   -5839    -5564    -5313    -5163    -5115    -5107    -5096    -5070 
   -5027    -4973    -4921    -4907    -4946    -5011    -5076    -5129 
   -5205    -5354    -5581    -5831    -6019    -6103    -6139    -6190 
   -6202    -6085    -5890    -5752    -5708    -5696    -5637    -5485 
   -5259    -5031    -4839    -4676    -4545    -4518    -4683    -4985 
   -5221    -5265    -5174    -5045    -4934    -4882    -4890    -4906 
   -4912    -4947    -5025    -5121    -5230    -5329    -5305    -5069 
   -4718    -4439    -4336    -4354    -4369    -4371    -4491    -4830 
   -5333    -5784    -5962    -5851    -5645    -5552    -5610    -5686 
   -5691    -5670    -5686    -5761    -5902    -6072    -6174    -6102 
   -5836    -5453    -5048    -4684    -4400    -4237    -4242    -4436 
   -4788    -5211    -5572    -5775    -5849    -5922    -6078    -6256 
   -6322    -6222    -6027    -5870    -5857    -5973    -6083    -6042 
   -5811    -5502    -5292    -5254    -5308    -5307    -5132    -4785 
   -4437    -4321    -4495    -4789    -5005    -5055    -4932    -4715 
   -4535    -4463    -4419    -4266    -3998    -3765    -3692    -3784 
   -4025    -4399    -4810    -5124    -5306    -5425    -5571    -5775 
   -6019    -6236    -6324    -6247    -6076    -5893    -5721    -5530 
   -5281    -4978    -4685    -4474    -4369    -4328    -4301    -4286 
   -4309    -4397    -4537    -4692    -4812    -4816    -4675    -4493 
   -4387    -4338    -4304    -4347    -4534    -4849    -5205    -5492 
   -5647    -5671    -5552    -5274    -4868    -4423    -4066    -3931 
   -4090    -4489    -4980    -5386    -5582    -5542    -5324    -5041 
   -4801    -4649    -4547    -4454    -4418    -4551    -4885    -5353 
   -5887    -6417    -6855    -7132    -7202    -7036    -6638    -6091 
   -5568    -5200    -4985    -4877    -4872    -4968    -5162    -5447 
   -5719    -5817    -5688    -5391    -5020    -4693    -4488    -4402 
   -4414    -4514    -4717    -5043    -5425    -5699    -5746    -5594 
   -5359    -5148    -5016    -4945    -4892    -4859    -4930    -5162 
   -5478    -5773    -6046    -6301    -6491    -6597    -6678    -6794 
   -6903    -6876    -6652    -6305    -5925    -5503    -5047    -4675 
   -4489    -4474    -4559    -4683    -4804    -4886    -4933    -4978 
   -4994    -4892    -4669    -4451    -4357    -4405    -4556    -4782 
   -5077    -5442    -5850    -6263    -6591    -6697    -6551    -6280 
   -6002    -5763    -5578    -5439    -5316    -5207    -5157    -5192 
   -5278    -5364    -5421    -5387    -5202    -4909    -4618    -4365 
   -4122    -3939    -3965    -4302    -4863    -5432    -5845    -6025 
   -5960    -5744    -5559    -5484    -5432    -5324    -5204    -5171 
   -5262    -5425    -5594    -5711    -5697    -5539    -5360    -5281 
   -5299    -5354    -5400    -5407    -5388    -5420    -5567    -5798 
   -6033    -6203    -6209    -5977    -5606    -5270    -4951    -4511 
   -3947    -3417    -3078    -3020    -3259    -3712    -4210    -4596 
   -4832    -4977    -5046    -5004    -4868    -4654    -4364    -4103 
   -4036    -4219    -4585    -5064    -5581    -6028    -6320    -6467 
   -6538    -6553    -6457    -6233    -5972    -5812    -5836    -5997 
   -6168    -6248    -6230    -6218    -6314    -6476    -6563    -6494 
   -6309    -6156    -6187    -6421    -6727    -6929    -6923    -6737 
   -6471    -6223    -6017    -5784    -5421    -4927    -4457    -4194 
   -4163    -4224    -4220    -4083    -3847    -3615    -3492    -3503 
   -3601    -3779    -4051    -4336    -4527    -4675    -4874    -5095 
   -5270    -5389    -5467    -5554    -5757    -6136    -6624    -7084 
   -7412    -7618    -7772    -7873    -7848    -7663    -7333    -6897 
   -6430    -5983    -5527    -5066    -4700    -4523    -4550    -4692 
   -4811    -4846    -4841    -4879    -5003    -5141    -5151    -4981 
   -4705    -4423    -4228    -4183    -4211    -4119    -3850    -3558 
   -3388    -3380    -3498    -3628    -3669    -3668    -3746    -3961 
   -4280    -4600    -4808    -4874    -4846    -4771    -4669    -4498 
   -4209    -3922    -3843    -4011    -4326    -4709    -5114    -5485 
   -5782    -5988    -6013    -5727    -5153    -4508    -4065    -3987 
   -4241    -4610    -4884    -5074    -5354    -5841    -6432    -6868 
   -6986    -6856    -6632    -6412    -6224    -6026    -5727    -5317 
   -4938    -4692    -4502    -4293    -4127    -4105    -4240    -4415 
   -4506    -4516    -4549    -4738    -5131    -5586    -5897    -5961 
   -5848    -5786    -5927    -6132    -6131    -5810    -5271    -4731 
   -4416    -4446    -4730    -5015    -5094    -4971    -4807    -4699 
   -4608    -4485    -4312    -4081    -3866    -3813    -4000    -4353 
   -4738    -5084    -5375    -5592    -5748    -5891    -6005    -5994 
   -5806    -5491    -5151    -4872    -4705    -4666    -4760    -4959 
   -5202    -5457    -5689    -5832    -5876    -5878    -5879    -5891 
   -5926    -6014    -6163    -6340    -6485    -6529    -6396    -6060 
   -5584    -5086    -4672    -4368    -4123    -3873    -3665    -3684 
   -4033    -4573    -5091    -5521    -5922    -6311    -6617    -6754 
   -6650    -6286    -5773    -5283    -4863    -4444    -4026    -3711 
   -3541    -3464    -3423    -3385    -3305    -3215    -3286    -3684 
   -4368    -5121    -5777    -6320    -6785    -7174    -7451    -7545 
   -7327    -6772    -6081    -5492    -5091    -4835    -4666    -4590 
   -4671    -4941    -5368    -5893    -6439    -6919    -7245    -7372 
   -7354    -7329    -7352    -7295    -6999    -6492    -5974    -5610 
   -5387    -5199    -5000    -4820    -4670    -4540    -4409    -4253 
   -4095    -3969    -3841    -3663    -3451    -3294    -3304    -3514 
   -3848    -4216    -4589    -4974    -5362    -5733    -6080    -6347 
   -6446    -6369    -6225    -6171    -6314    -6614    -6920    -7106 
   -7137    -7050    -6885    -6597    -6095    -5396    -4660    -4088 
   -3817    -3852    -4115    -4505    -4925    -5318    -5685    -5992 
   -6137    -6019    -5627    -5079    -4568    -4218    -4018    -3875 
   -3716    -3511    -3277    -3055    -2858    -2659    -2444    -2246 
   -2158    -2279    -2639    -3172    -3734    -4203    -4573    -4885 
   -5147    -5396    -5681    -5974    -6183    -6278    -6290    -6222 
   -6043    -5816    -5709    -5788    -5973    -6219    -6552    -6960 
   -7376    -7755    -8088    -8335    -8398    -8213    -7806    -7248 
   -6633    -6072    -5602    -5161    -4722    -4359    -4185    -4241 
   -4443    -4662    -4830    -4893    -4814    -4659    -4521    -4397 
   -4249    -4112    -4062    -4109    -4208    -4360    -4570    -4768 
   -4881    -4897    -4852    -4790    -4729    -4691    -4757    -5036 
   -5544    -6152    -6673    -6976    -7061    -7020    -6881    -6532 
   -5896    -5092    -4346    -3795    -3431    -3187    -3056    -3093 
   -3330    -3728    -4170    -4491    -4652    -4771    -4946    -5160 
   -5363    -5568    -5787    -5965    -6055    -6088    -6092    -6030 
   -5839    -5523    -5198    -4956    -4774    -4637    -4608    -4751 
   -5018    -5277    -5432    -5456    -5321    -5019    -4645    -4348 
   -4131    -3852    -3536    -3414    -3608    -3978    -4311    -4509 
   -4563    -4457    -4180    -3794    -3407    -3091    -2893    -2861 
   -3015    -3379    -4000    -4794    -5516    -5977    -6112    -5916 
   -5474    -4993    -4674    -4503    -4358    -4301    -4487    -4893 
   -5343    -5697    -5884    -5828    -5501    -5046    -4690    -4526 
   -4483    -4471    -4463    -4466    -4520    -4626    -4693    -4665 
   -4577    -4537    -4696    -5113    -5691    -6280    -6808    -7305 
   -7781    -8157    -8326    -8225    -7834    -7196    -6494    -5979 
   -5723    -5629    -5666    -5856    -6137    -6417    -6680    -6915 
   -7012    -6880    -6564    -6142    -5645    -5162    -4872    -4905 
   -5212    -5609    -5983    -6365    -6793    -7260    -7732    -8097 
   -8212    -8042    -7648    -7114    -6521    -5978    -5545    -5149 
   -4719    -4410    -4500    -5069    -5877    -6558    -6904    -6946 
   -6815    -6599    -6287    -5799    -5127    -4417    -3910    -3803 
   -4079    -4534    -4979    -5346    -5656    -5973    -6303    -6556 
   -6618    -6458    -6178    -5902    -5642    -5381    -5195    -5167 
   -5280    -5471    -5664    -5773    -5778    -5766    -5816    -5900 
   -5924    -5828    -5635    -5438    -5359    -5482    -5776    -6063 
   -6149    -5951    -5506    -4947    -4420    -3963    -3506    -3000 
   -2506    -2156    -2042    -2156    -2436    -2815    -3222    -3587 
   -3817    -3856    -3768    -3681    -3638    -3566    -3468    -3492 
   -3728    -4101    -4485    -4779    -4928    -4922    -4774    -4517 
   -4193    -3822    -3442    -3169    -3100    -3198    -3372    -3606 
   -3926    -4277    -4557    -4735    -4858    -4948    -4992    -5035 
   -5199    -5553    -6028    -6547    -7130    -7808    -8539    -9209 
   -9644    -9715    -9458    -9005    -8435    -7725    -6834    -5810 
   -4816    -4014    -3486    -3260    -3310    -3526    -3798    -4079 
   -4307    -4407    -4368    -4253    -4146    -4070    -4019    -4044 
   -4187    -4423    -4724    -5092    -5477    -5745    -5770    -5535 
   -5142    -4707    -4258    -3770    -3233    -2695    -2308    -2246 
   -2570    -3231    -4156    -5252    -6406    -7524    -8516    -9215 
   -9426    -9115    -8437    -7581    -6737    -6117    -5806    -5713 
   -5734    -5843    -6009    -6140    -6122    -5879    -5407    -4782 
   -4137    -3655    -3496    -3665    -4016    -4422    -4883    -5442 
   -6013    -6410    -6538    -6480    -6335    -6088    -5740    -5393 
   -5113    -4870    -4635    -4453    -4382    -4390    -4439    -4565 
   -4802    -5124    -5489    -5843    -6073    -6086    -5940    -5786 
   -5675    -5566    -5427    -5267    -5148    -5166    -5347    -5607 
   -5820    -5901    -5843    -5667    -5400    -5132    -5001    -5071 
   -5288    -5551    -5802    -6038    -6245    -6380    -6355    -6053 
   -5415    -4556    -3735    -3198    -3029    -3158    -3487    -3950 
   -4492    -5052    -5592    -6056    -6306    -6193    -5698    -4988 
   -4310    -3835    -3614    -3628    -3806    -4073    -4436    -4943 
   -5560    -6133    -6454    -6374    -5908    -5201    -4438    -3753 
   -3225    -2912    -2820    -2912    -3210    -3804    -4711    -5760 
   -6654    -7192    -7349    -7183    -6806    -6394    -6076    -5862 
   -5717    -5682    -5831    -6190    -6755    -7478    -8219    -8788 
   -9044    -8984    -8727    -8375    -7949    -7442    -6883    -6364 
   -5999    -5872    -5991    -6279    -6620    -6903    -7032    -6993 
   -6873    -6747    -6630    -6503    -6322    -6096    -5941    -5994 
   -6263    -6594    -6800    -6806    -6658    -6423    -6140    -5845 
   -5560    -5309    -5163    -5192    -5386    -5662    -5936    -6156 
   -6307    -6401    -6428    -6334    -6110    -5853    -5674    -5569 
   -5416    -5131    -4772    -4469    -4338    -4418    -4600    -4719 
   -4732    -4722    -4781    -4926    -5086    -5137    -4963    -4544 
   -3996    -3491    -3156    -2990    -2879    -2753    -2674    -2728 
   -2909    -3107    -3183    -3072    -2794    -2400    -1930    -1414 
    -916     -577     -566     -948    -1647    -2530    -3451    -4247 
   -4763    -4927    -4774    -4399    -3891    -3295    -2659    -2145 
   -1963    -2185    -2704    -3343    -3983    -4586    -5150    -5617 
   -5848    -5731    -5305    -4727    -4173    -3787    -3635    -3717 
   -4005    -4443    -4957    -5492    -6004    -6404    -6580    -6489 
   -6169    -5709    -5228    -4822    -4526    -4353    -4358    -4615 
   -5131    -5784    -6420    -6939    -7254    -7301    -7090    -6705 
   -6299    -6012    -5873    -5847    -5927    -6130    -6462    -6870 
   -7199    -7264    -6974    -6400    -5766    -5274    -4973    -4838 
   -4851    -4993    -5236    -5532    -5778    -5810    -5477    -4761 
   -3827    -2937    -2341    -2156    -2353    -2839    -3522    -4343 
   -5220    -5996    -6502    -6623    -6303    -5576    -4595    -3599 
   -2815    -2382    -2317    -2555    -3019    -3674    -4484    -5327 
   -6021    -6419    -6521    -6476    -6410    -6326    -6201    -6071 
   -6048    -6261    -6726    -7342    -7975    -8521    -8942    -9195 
   -9178    -8825    -8193    -7459    -6787    -6251    -5894    -5773 
   -5887    -6166    -6546    -6975    -7378    -7651    -7706    -7537 
   -7202    -6787    -6405    -6151    -6031    -6020    -6159    -6495 
   -6950    -7331    -7464    -7324    -6994    -6536    -6003    -5478 
   -5049    -4779    -4741    -4972    -5403    -5886    -6293    -6552 
   -6599    -6388    -5954    -5385    -4742    -4081    -3558    -3371 
   -3586    -4089    -4708    -5304    -5773    -6039    -6061    -5825 
   -5330    -4606    -3772    -3012    -2455    -2143    -2106    -2375 
   -2940    -3715    -4581    -5426    -6126    -6579    -6774    -6753 
   -6527    -6098    -5517    -4908    -4422    -4155    -4096    -4151 
   -4223    -4286    -4390    -4572    -4794    -4966    -5019    -4956 
   -4824    -4659    -4480    -4299    -4130    -4018    -4027    -4181 
   -4449    -4761    -5049    -5270    -5368    -5301    -5087    -4774 
   -4411    -4065    -3823    -3732    -3769    -3892    -4073    -4277 
   -4451    -4533    -4498    -4390    -4283    -4216    -4196    -4205 
   -4220    -4247    -4276    -4263    -4175    -4016    -3815    -3620 
   -3496    -3471    -3498    -3532    -3593    -3700    -3805    -3866 
   -3883    -3878    -3862    -3846    -3884    -4015    -4209    -4410 
   -4594    -4717    -4746    -4731    -4741    -4770    -4773    -4749 
   -4749    -4806    -4909    -5023    -5116    -5134    -5048    -4880 
   -4664    -4438    -4245    -4109    -4052    -4098    -4267    -4572 
   -5024    -5593    -6183    -6699    -7110    -7455    -7771    -8027 
   -8132    -8014    -7670    -7171    -6600    -6026    -5534    -5198 
   -5043    -5065    -5244    -5543    -5926    -6351    -6733    -6936 
   -6873    -6612    -6346    -6206    -6178    -6199    -6225    -6243 
   -6277    -6389    -6612    -6866    -7004    -6960    -6762    -6452 
   -6085    -5737    -5459    -5259    -5137    -5104    -5152    -5254 
   -5399    -5586    -5745    -5786    -5712    -5601    -5523    -5544 
   -5698    -5917    -6091    -6172    -6169    -6125    -6067    -5948 
   -5677    -5226    -4670    -4135    -3715    -3448    -3331    -3326 
   -3353    -3354    -3372    -3483    -3659    -3771    -3752    -3644 
   -3502    -3358    -3262    -3281    -3444    -3727    -4091    -4482 
   -4815    -5006    -5065    -5084    -5110    -5090    -4968    -4781 
   -4625    -4549    -4519    -4470    -4336    -4094    -3801    -3584 
   -3562    -3772    -4157    -4609    -5026    -5348    -5559    -5670 
   -5680    -5587    -5428    -5267    -5174    -5179    -5276    -5452 
   -5663    -5858    -6032    -6195    -6317    -6356    -6293    -6142 
   -5939    -5725    -5552    -5458    -5454    -5517    -5638    -5854 
   -6181    -6567    -6942    -7246    -7416    -7372    -7096    -6684 
   -6249    -5834    -5461    -5162    -4951    -4854    -4915    -5106 
   -5314    -5422    -5398    -5303    -5189    -5041    -4848    -4636 
   -4462    -4414    -4540    -4775    -5002    -5166    -5297    -5425 
   -5540    -5610    -5600    -5498    -5345    -5205    -5114    -5092 
   -5146    -5244    -5326    -5384    -5460    -5560    -5638    -5647 
   -5585    -5490    -5384    -5264    -5159    -5130    -5198    -5368 
   -5648    -5984    -6292    -6553    -6781    -6952    -7049    -7095 
   -7120    -7148    -7204    -7289    -7392    -7515    -7674    -7866 
   -8035    -8104    -8044    -7845    -7475    -6914    -6192    -5391 
   -4645    -4088    -3799    -3778    -3964    -4265    -4589    -4873 
   -5094    -5261    -5389    -5472    -5476    -5402    -5321    -5306 
   -5363    -5430    -5418    -5287    -5074    -4833    -4604    -4392 
   -4191    -3972    -3696    -3379    -3091    -2898    -2843    -2961 
   -3242    -3625    -4044    -4465    -4858    -5187    -5397    -5434 
   -5324    -5145    -4942    -4740    -4576    -4458    -4352    -4247 
   -4149    -4045    -3946    -3906    -3952    -4068    -4243    -4444 
   -4604    -4673    -4635    -4491    -4278    -4063    -3888    -3732 
   -3557    -3382    -3272    -3284    -3430    -3637    -3761    -3692 
   -3456    -3195    -3013    -2918    -2900    -2953    -3066    -3256 
   -3592    -4092    -4657    -5148    -5508    -5749    -5902    -6003 
   -6075    -6112    -6110    -6104    -6146    -6251    -6396    -6546 
   -6676    -6779    -6868    -6954    -7034    -7087    -7084    -6999 
   -6831    -6628    -6458    -6350    -6282    -6213    -6127    -6040 
   -5970    -5928    -5934    -5997    -6101    -6222    -6368    -6556 
   -6795    -7060    -7297    -7451    -7475    -7354    -7113    -6782 
   -6379    -5936    -5489    -5078    -4740    -4493    -4333    -4274 
   -4339    -4513    -4760    -5022    -5240    -5397    -5485    -5490 
