Origin Time       2025/01/13 21:19:00
Lat.              31.8
Long.             131.6
Depth. (km)       30
Mag.              6.9
Station Code      KGS012
Station Lat.      31.6057
Station Long.     130.5740
Station Height(m) 4
Record Time       2025/01/13 21:20:00
Sampling Freq(Hz) 100Hz
Duration Time(s)  159
Dir.              N-S
Scale Factor      7845(gal)/8223790
Max. Acc. (gal)   9.260
Last Correction   2025/01/13 21:20:01
Memo.             
[...]
  -10980   -11092   -11140   -11219   -11273   -11230   -11248   -11331 
  -11281   -11144   -11014   -10795   -10503   -10224    -9923    -9630 
   -9418    -9186    -8911    -8758    -8712    -8590    -8374    -8082 
   -7719    -7454    -7358    -7314    -7275    -7209    -7079    -6953 
   -6856    -6766    -6708    -6716    -6808    -6936    -7061    -7230 
   -7474    -7781    -8106    -8413    -8731    -9055    -9350    -9652 
   -9967   -10234   -10376   -10405   -10399   -10357   -10285   -10212 
  -10083    -9869    -9609    -9371    -9205    -9072    -8973    -8934 
   -8892    -8802    -8656    -8487    -8386    -8376    -8433    -8544 
   -8680    -8800    -8916    -9067    -9266    -9489    -9688    -9864 
  -10056   -10253   -10413   -10563   -10771   -11006   -11173   -11284 
  -11371   -11422   -11460   -11502   -11526   -11524   -11480   -11408 
  -11375   -11371   -11352   -11389   -11565   -11848   -12168   -12479 
  -12692   -12729   -12634   -12490   -12390   -12374   -12330   -12194 
  -12037   -11853   -11592   -11273   -10868   -10319    -9688    -9115 
   -8672    -8251    -7693    -6998    -6259    -5540    -4882    -4329 
   -3832    -3283    -2663    -2038    -1478     -985     -525     -145 
     135      432      797     1152     1443     1614     1632     1588 
    1557     1497     1398     1264     1019      639      211     -207 
    -591     -916    -1200    -1486    -1868    -2350    -2840    -3335 
   -3812    -4191    -4494    -4772    -5081    -5476    -5899    -6278 
   -6596    -6829    -6995    -7126    -7236    -7358    -7523    -7670 
   -7728    -7727    -7743    -7776    -7807    -7874    -7982    -8082 
   -8182    -8345    -8596    -8869    -9072    -9186    -9246    -9324 
   -9468    -9628    -9775    -9922   -10080   -10264   -10465   -10679 
  -10905   -11084   -11205   -11272   -11254   -11188   -11188   -11280 
  -11406   -11569   -11770   -11983   -12264   -12638   -12989   -13255 
  -13471   -13606   -13637   -13666   -13684   -13632   -13590   -13539 
  -13379   -13189   -13063   -12962   -12829   -12667   -12502   -12325 
  -12162   -12071   -12008   -11893   -11774   -11701   -11664   -11643 
  -11541   -11280   -10978   -10741   -10528   -10365   -10284   -10191 
  -10023    -9814    -9603    -9401    -9202    -9047    -8957    -8872 
   -8706    -8440    -8114    -7746    -7360    -7007    -6693    -6355 
   -5954    -5560    -5223    -4912    -4652    -4438    -4193    -3925 
   -3713    -3574    -3516    -3516    -3488    -3429    -3411    -3438 
   -3481    -3546    -3601    -3636    -3685    -3743    -3827    -3928 
   -3943    -3832    -3663    -3559    -3634    -3838    -4039    -4171 
   -4189    -4153    -4209    -4361    -4531    -4666    -4691    -4630 
   -4645    -4776    -4915    -5001    -5004    -4947    -4947    -5039 
   -5192    -5390    -5544    -5621    -5734    -5872    -5988    -6157 
   -6339    -6498    -6759    -7098    -7389    -7654    -7915    -8175 
   -8484    -8814    -9111    -9379    -9578    -9710    -9859   -10022 
  -10197   -10408   -10608   -10810   -11045   -11302   -11595   -11917 
  -12206   -12444   -12675   -12903   -13103   -13277   -13414   -13551 
  -13728   -13876   -13930   -13914   -13880   -13891   -13967   -14061 
  -14118   -14088   -13979   -13907   -13927   -13950   -13940   -13913 
  -13844   -13755   -13684   -13612   -13540   -13409   -13139   -12850 
  -12623   -12361   -12055   -11728   -11344   -10947   -10604   -10314 
  -10029    -9637    -9093    -8533    -8056    -7615    -7195    -6809 
   -6404    -5979    -5556    -5166    -4851    -4585    -4298    -4024 
   -3825    -3640    -3433    -3298    -3281    -3339    -3434    -3557 
   -3697    -3809    -3920    -4129    -4445    -4791    -5131    -5462 
   -5787    -6126    -6447    -6704    -6948    -7188    -7353    -7466 
   -7605    -7751    -7843    -7877    -7900    -7923    -7951    -8058 
   -8266    -8471    -8590    -8591    -8479    -8375    -8382    -8455 
   -8552    -8633    -8634    -8603    -8607    -8640    -8710    -8785 
   -8819    -8861    -8934    -8996    -9020    -8986    -8932    -8891 
   -8849    -8838    -8866    -8864    -8819    -8818    -8854    -8857 
   -8838    -8799    -8698    -8571    -8473    -8425    -8430    -8429 
   -8347    -8198    -8054    -7958    -7936    -7971    -8028    -8063 
   -8008    -7894    -7831    -7801    -7736    -7643    -7504    -7273 
   -7006    -6770    -6577    -6403    -6180    -5877    -5566    -5281 
   -5019    -4834    -4725    -4627    -4557    -4498    -4388    -4237 
   -4093    -3982    -3958    -3982    -3954    -3865    -3715    -3522 
   -3350    -3217    -3126    -3098    -3114    -3136    -3103    -3024 
   -3017    -3133    -3279    -3403    -3511    -3528    -3412    -3287 
   -3250    -3295    -3397    -3503    -3573    -3627    -3697    -3786 
   -3865    -3985    -4163    -4226    -4217    -4263    -4324    -4480 
   -4695    -4807    -4896    -5055    -5204    -5301    -5462    -5710 
   -5949    -6214    -6509    -6754    -6959    -7210    -7549    -7909 
   -8201    -8425    -8614    -8819    -9101    -9427    -9730   -10021 
  -10255   -10408   -10540   -10719   -10949   -11180   -11395   -11659 
  -12004   -12425   -12961   -13559   -14040   -14320   -14488   -14665 
  -14886   -15124   -15376   -15628   -15776   -15774   -15685   -15554 
  -15431   -15361   -15349   -15367   -15342   -15244   -15128   -14999 
  -14812   -14628   -14515   -14416   -14254   -14027   -13751   -13417 
  -13043   -12692   -12424   -12214   -12015   -11805   -11587   -11361 
  -11124   -10871   -10619   -10363   -10072    -9782    -9580    -9466 
   -9363    -9212    -9012    -8812    -8654    -8544    -8417    -8232 
   -8019    -7789    -7564    -7398    -7276    -7168    -7101    -7071 
   -7037    -6983    -6905    -6835    -6770    -6687    -6623    -6561 
   -6471    -6424    -6419    -6404    -6419    -6492    -6578    -6674 
   -6770    -6844    -6912    -6955    -6967    -7001    -7028    -7010 
   -6987    -6934    -6791    -6581    -6334    -6089    -5904    -5769 
   -5660    -5589    -5524    -5416    -5274    -5167    -5182    -5323 
   -5509    -5711    -5962    -6232    -6442    -6612    -6829    -7140 
   -7489    -7726    -7798    -7813    -7819    -7825    -7947    -8139 
   -8164    -8079    -8074    -8110    -8248    -8482    -8610    -8653 
   -8687    -8696    -8746    -8860    -8950    -8932    -8854    -8833 
   -8915    -9096    -9321    -9495    -9555    -9536    -9575    -9711 
   -9822    -9879    -9925    -9913    -9838    -9765    -9679    -9578 
   -9490    -9405    -9310    -9211    -9113    -9046    -9009    -8964 
   -8856    -8679    -8484    -8295    -8087    -7893    -7786    -7759 
   -7765    -7786    -7796    -7811    -7875    -7962    -8058    -8167 
   -8235    -8253    -8293    -8359    -8401    -8372    -8278    -8155 
   -7996    -7800    -7632    -7472    -7254    -7015    -6743    -6399 
   -6066    -5815    -5594    -5373    -5167    -4945    -4698    -4503 
   -4372    -4230    -4104    -4033    -3975    -3932    -3955    -3973 
   -3896    -3800    -3794    -3890    -4075    -4333    -4571    -4730 
   -4876    -5043    -5244    -5563    -5946    -6247    -6471    -6660 
   -6806    -6982    -7221    -7407    -7489    -7514    -7516    -7537 
   -7592    -7643    -7641    -7597    -7535    -7476    -7446    -7412 
   -7335    -7236    -7114    -6975    -6860    -6754    -6612    -6473 
   -6332    -6172    -6029    -5911    -5792    -5719    -5721    -5699 
   -5601    -5485    -5400    -5425    -5590    -5719    -5725    -5759 
   -5859    -5969    -6122    -6253    -6305    -6365    -6455    -6590 
   -6844    -7142    -7354    -7500    -7631    -7781    -8031    -8365 
   -8673    -8903    -9065    -9255    -9566    -9921   -10220   -10480 
  -10728   -10974   -11271   -11624   -11947   -12224   -12510   -12791 
  -13047   -13286   -13487   -13689   -13940   -14192   -14399   -14578 
  -14754   -14939   -15149   -15341   -15414   -15384   -15342   -15300 
  -15286   -15323   -15296   -15129   -14917   -14713   -14477   -14218 
  -13927   -13586   -13219   -12839   -12465   -12086   -11630   -11076 
  -10543   -10137    -9823    -9520    -9188    -8802    -8383    -7998 
   -7669    -7342    -6961    -6544    -6145    -5755    -5343    -4932 
   -4549    -4189    -3858    -3578    -3349    -3165    -3021    -2886 
   -2770    -2737    -2783    -2848    -2941    -3067    -3188    -3326 
   -3505    -3685    -3832    -3955    -4066    -4193    -4325    -4459 
   -4627    -4795    -4935    -5067    -5182    -5333    -5560    -5782 
   -5964    -6168    -6369    -6585    -6909    -7279    -7576    -7812 
   -7994    -8105    -8193    -8282    -8345    -8391    -8452    -8499 
   -8490    -8456    -8440    -8468    -8576    -8712    -8750    -8661 
   -8550    -8513    -8572    -8706    -8849    -8922    -8915    -8919 
   -8981    -9085    -9213    -9308    -9328    -9329    -9369    -9432 
   -9468    -9478    -9494    -9475    -9379    -9243    -9086    -8916 
   -8792    -8712    -8587    -8367    -8093    -7811    -7576    -7438 
   -7353    -7242    -7094    -6949    -6808    -6659    -6544    -6473 
   -6436    -6457    -6517    -6586    -6674    -6791    -6918    -7036 
   -7164    -7303    -7410    -7481    -7539    -7580    -7588    -7558 
   -7488    -7366    -7242    -7157    -7074    -6982    -6890    -6777 
   -6679    -6659    -6654    -6613    -6585    -6578    -6552    -6538 
   -6570    -6606    -6610    -6632    -6662    -6646    -6658    -6762 
   -6901    -7048    -7188    -7271    -7308    -7368    -7484    -7654 
   -7852    -8054    -8232    -8348    -8444    -8575    -8718    -8864 
   -9040    -9213    -9329    -9393    -9416    -9416    -9458    -9589 
   -9778    -9958   -10089   -10173   -10249   -10349   -10465   -10555 
  -10606   -10662   -10766   -10902   -11026   -11126   -11188   -11213 
  -11277   -11423   -11564   -11658   -11731   -11731   -11654   -11596 
  -11574   -11535   -11508   -11497   -11408   -11238   -11068   -10920 
  -10806   -10756   -10693   -10546   -10359   -10135    -9867    -9647 
   -9498    -9325    -9086    -8839    -8622    -8379    -8095    -7850 
   -7634    -7393    -7183    -7021    -6826    -6592    -6363    -6137 
   -5903    -5718    -5580    -5431    -5285    -5136    -4912    -4662 
   -4484    -4351    -4252    -4197    -4109    -3959    -3800    -3657 
   -3511    -3400    -3354    -3306    -3256    -3269    -3262    -3164 
   -3082    -3060    -3053    -3096    -3210    -3321    -3430    -3568 
   -3658    -3684    -3736    -3821    -3933    -4125    -4338    -4467 
   -4564    -4706    -4854    -5017    -5256    -5555    -5845    -6085 
   -6250    -6386    -6574    -6812    -7052    -7283    -7481    -7642 
   -7805    -8004    -8197    -8349    -8534    -8746    -8899    -9039 
   -9202    -9355    -9544    -9784   -10019   -10270   -10570   -10859 
  -11105   -11337   -11547   -11742   -11981   -12262   -12496   -12690 
  -12888   -13042   -13149   -13297   -13467   -13597   -13720   -13832 
  -13871   -13873   -13918   -13949   -13903   -13842   -13783   -13690 
  -13630   -13609   -13535   -13431   -13332   -13182   -12992   -12816 
  -12630   -12433   -12268   -12129   -11966   -11782   -11610   -11431 
  -11233   -11025   -10813   -10602   -10404   -10207    -9981    -9756 
   -9558    -9367    -9173    -8972    -8758    -8534    -8306    -8087 
   -7870    -7623    -7331    -7007    -6648    -6281    -5972    -5701 
   -5416    -5147    -4857    -4500    -4174    -3923    -3690    -3485 
   -3314    -3130    -2922    -2729    -2555    -2388    -2263    -2211 
   -2220    -2284    -2365    -2407    -2421    -2451    -2511    -2620 
   -2772    -2930    -3091    -3253    -3397    -3531    -3657    -3765 
   -3905    -4122    -4344    -4537    -4725    -4877    -5020    -5223 
   -5472    -5741    -6014    -6234    -6419    -6671    -6979    -7290 
   -7608    -7898    -8137    -8382    -8681    -9039    -9410    -9747 
  -10044   -10307   -10558   -10844   -11153   -11442   -11684   -11842 
  -11958   -12124   -12316   -12482   -12630   -12727   -12760   -12765 
  -12758   -12772   -12822   -12852   -12826   -12750   -12637   -12521 
  -12432   -12340   -12231   -12089   -11898   -11689   -11493   -11318 
  -11194   -11110   -11011   -10870   -10674   -10454   -10285   -10193 
  -10139   -10083    -9990    -9861    -9728    -9625    -9549    -9468 
   -9378    -9266    -9140    -9049    -8946    -8811    -8704    -8621 
   -8509    -8394    -8299    -8221    -8148    -8036    -7865    -7645 
   -7393    -7175    -7005    -6818    -6619    -6434    -6226    -6002 
   -5800    -5590    -5383    -5262    -5189    -5093    -4984    -4876 
   -4770    -4675    -4579    -4480    -4396    -4320    -4264    -4229 
   -4166    -4064    -3937    -3802    -3734    -3720    -3685    -3640 
   -3570    -3403    -3202    -3033    -2876    -2747    -2652    -2547 
   -2423    -2297    -2185    -2095    -2000    -1900    -1798    -1683 
   -1575    -1494    -1431    -1404    -1425    -1464    -1514    -1605 
   -1740    -1904    -2100    -2326    -2556    -2799    -3086    -3411 
   -3769    -4186    -4611    -4963    -5308    -5718    -6150    -6636 
   -7182    -7678    -8133    -8634    -9167    -9713   -10277   -10814 
  -11326   -11862   -12386   -12862   -13335   -13811   -14281   -14739 
  -15172   -15580   -15959   -16297   -16588   -16838   -17042   -17226 
  -17413   -17572   -17664   -17702   -17718   -17722   -17722   -17706 
  -17647   -17548   -17437   -17305   -17157   -16989   -16785   -16549 
  -16299   -16043   -15804   -15569   -15322   -15071   -14781   -14459 
  -14183   -13959   -13759   -13578   -13346   -13039   -12727   -12425 
  -12105   -11770   -11426   -11067   -10698   -10343    -9999    -9629 
   -9252    -8922    -8617    -8286    -7919    -7539    -7168    -6797 
   -6405    -5989    -5551    -5115    -4723    -4369    -4027    -3689 
   -3342    -2994    -2656    -2327    -2046    -1821    -1590    -1339 
   -1089     -838     -611     -456     -359     -301     -306     -376 
    -484     -643     -854    -1086    -1310    -1516    -1702    -1894 
   -2106    -2330    -2573    -2830    -3078    -3307    -3554    -3861 
   -4218    -4583    -4930    -5240    -5491    -5692    -5888    -6099 
   -6315    -6505    -6667    -6836    -7038    -7269    -7520    -7763 
   -7969    -8166    -8364    -8542    -8712    -8876    -9030    -9197 
   -9379    -9541    -9678    -9809    -9941   -10066   -10147   -10188 
  -10230   -10276   -10315   -10365   -10419   -10444   -10438   -10413 
  -10380   -10338   -10309   -10300   -10300   -10308   -10301   -10258 
  -10193   -10115   -10031    -9963    -9911    -9886    -9860    -9815 
   -9790    -9767    -9702    -9609    -9493    -9370    -9281    -9200 
   -9070    -8897    -8714    -8533    -8388    -8293    -8206    -8098 
   -7969    -7832    -7696    -7553    -7411    -7279    -7141    -7005 
   -6866    -6718    -6594    -6480    -6336    -6204    -6115    -6043 
   -6003    -5979    -5926    -5876    -5864    -5865    -5865    -5887 
   -5922    -5962    -6030    -6100    -6160    -6234    -6300    -6345 
   -6394    -6448    -6505    -6579    -6650    -6697    -6736    -6768 
   -6793    -6839    -6912    -6993    -7086    -7196    -7327    -7468 
   -7587    -7693    -7808    -7925    -8029    -8124    -8229    -8343 
   -8436    -8498    -8544    -8565    -8565    -8576    -8603    -8630 
   -8645    -8618    -8553    -8476    -8375    -8260    -8171    -8100 
   -8031    -7959    -7874    -7804    -7765    -7722    -7658    -7589 
   -7528    -7493    -7507    -7565    -7638    -7716    -7804    -7888 
   -7962    -8048    -8176    -8345    -8525    -8676    -8791    -8893 
   -9019    -9148    -9248    -9328    -9391    -9404    -9363    -9323 
   -9294    -9259    -9229    -9188    -9103    -9026    -8997    -8981 
   -8950    -8899    -8806    -8695    -8617    -8579    -8563    -8553 
   -8511    -8425    -8332    -8272    -8259    -8271    -8289    -8302 
   -8309    -8325    -8378    -8453    -8533    -8633    -8753    -8853 
   -8947    -9077    -9215    -9325    -9412    -9481    -9549    -9632 
   -9722    -9813    -9887    -9938    -9949    -9911    -9873    -9873 
   -9895    -9922    -9941    -9941    -9919    -9907    -9918    -9934 
   -9953    -9973    -9981    -9971    -9954    -9922    -9877    -9860 
   -9863    -9840    -9782    -9720    -9663    -9590    -9493    -9382 
   -9265    -9169    -9115    -9065    -9003    -8939    -8864    -8783 
   -8708    -8610    -8484    -8370    -8256    -8132    -8012    -7898 
   -7798    -7707    -7601    -7487    -7402    -7353    -7314    -7253 
   -7152    -7036    -6952    -6898    -6856    -6822    -6782    -6740 
   -6708    -6678    -6636    -6588    -6550    -6508    -6430    -6331 
   -6258    -6218    -6180    -6135    -6085    -6027    -5981    -5953 
   -5921    -5895    -5900    -5914    -5906    -5881    -5832    -5778 
   -5759    -5744    -5726    -5718    -5701    -5679    -5676    -5692 
   -5726    -5788    -5887    -6010    -6134    -6250    -6350    -6428 
   -6509    -6643    -6832    -7038    -7244    -7425    -7546    -7620 
   -7672    -7712    -7769    -7850    -7925    -7986    -8044    -8097 
   -8135    -8158    -8175    -8189    -8201    -8214    -8233    -8262 
   -8305    -8334    -8328    -8311    -8303    -8303    -8321    -8345 
   -8361    -8391    -8438    -8491    -8552    -8599    -8626    -8658 
   -8706    -8754    -8787    -8804    -8829    -8868    -8916    -8962 
   -8988    -8997    -9011    -9038    -9082    -9153    -9228    -9273 
   -9289    -9293    -9302    -9331    -9378    -9413    -9414    -9398 
   -9386    -9375    -9370    -9352    -9305    -9261    -9223    -9167 
   -9094    -9016    -8938    -8860    -8770    -8676    -8586    -8487 
   -8395    -8320    -8247    -8174    -8102    -8027    -7939    -7831 
   -7735    -7688    -7665    -7626    -7564    -7499    -7443    -7388 
   -7331    -7290    -7263    -7246    -7240    -7221    -7194    -7169 
   -7142    -7118    -7084    -7015    -6930    -6866    -6818    -6775 
   -6723    -6650    -6570    -6505    -6446    -6408    -6428    -6470 
   -6502    -6540    -6571    -6589    -6624    -6675    -6705    -6717 
   -6747    -6797    -6864    -6936    -6986    -7001    -6998    -7002 
   -7024    -7071    -7155    -7263    -7352    -7412    -7465    -7507 
   -7561    -7635    -7708    -7790    -7873    -7931    -7977    -8025 
   -8074    -8121    -8182    -8266    -8361    -8460    -8571    -8671 
   -8757    -8868    -9012    -9161    -9316    -9489    -9655    -9782 
   -9880    -9985   -10103   -10216   -10330   -10427   -10494   -10562 
  -10628   -10660   -10683   -10716   -10724   -10708   -10677   -10598 
  -10488   -10405   -10366   -10330   -10253   -10133   -10011    -9896 
   -9787    -9710    -9643    -9553    -9444    -9316    -9174    -9053 
   -8955    -8846    -8702    -8536    -8359    -8167    -7983    -7820 
   -7641    -7449    -7269    -7087    -6897    -6728    -6578    -6442 
   -6336    -6255    -6176    -6137    -6143    -6129    -6087    -6042 
   -5987    -5949    -5952    -5958    -5961    -5980    -6003    -6015 
   -6035    -6087    -6164    -6264    -6390    -6521    -6629    -6727 
