Origin Time       2025/01/13 21:19:00
Lat.              31.8
Long.             131.6
Depth. (km)       30
Mag.              6.9
Station Code      KGS005
Station Lat.      31.9006
Station Long.     130.4513
Station Height(m) 43
Record Time       2025/01/13 21:19:51
Sampling Freq(Hz) 100Hz
Duration Time(s)  125
Dir.              E-W
Scale Factor      3920(gal)/6182761
Max. Acc. (gal)   10.095
Last Correction   2025/01/13 21:19:52
Memo.             
[...]
   -1501    -1494    -1580    -1622    -1579    -1585    -1663    -1691 
   -1594    -1429    -1371    -1500    -1556    -1370    -1267    -1421 
   -1514    -1439    -1393    -1401    -1454    -1592    -1682    -1647 
   -1624    -1670    -1664    -1560    -1510    -1603    -1710    -1744 
   -1768    -1846    -1948    -1992    -1999    -2004    -1996    -2049 
   -2111    -2029    -1941    -1981    -1981    -1857    -1739    -1659 
   -1583    -1558    -1552    -1553    -1690    -1863    -1831    -1726 
   -1785    -1871    -1741    -1484    -1387    -1460    -1467    -1327 
   -1153    -1083    -1151    -1276    -1396    -1532    -1659    -1640 
   -1464    -1337    -1357    -1414    -1400    -1263    -1099    -1059 
   -1042     -926     -895    -1116    -1415    -1492    -1324    -1126 
   -1000     -947     -959     -998    -1074    -1176    -1232    -1248 
   -1286    -1355    -1392    -1342    -1244    -1199    -1279    -1404 
   -1360    -1086     -757     -593     -691     -964    -1283    -1647 
   -1964    -1963    -1628    -1277    -1114    -1161    -1324    -1395 
   -1299    -1141     -951     -710     -546     -626     -880    -1084 
   -1100     -972     -915    -1000     -952     -727     -671     -831 
    -959     -979     -959    -1033    -1242    -1272     -951     -687 
    -815    -1204    -1599    -1813    -1909    -2136    -2407    -2446 
   -2432    -2691    -3001    -2971    -2672    -2386    -2244    -2192 
   -1977    -1488    -1014     -870    -1040    -1304    -1506    -1683 
   -1896    -2056    -2107    -2154    -2342    -2687    -2976    -2837 
   -2173    -1467    -1222    -1286    -1250    -1045     -833     -758 
    -827     -936    -1108    -1484    -2011    -2358    -2380    -2371 
   -2583    -2877    -2965    -2694    -2210    -1832    -1605    -1297 
    -887     -624     -671     -821     -728     -566     -842    -1491 
   -1998    -2204    -2333    -2556    -2859    -3024    -2892    -2722 
   -2718    -2539    -1937    -1164     -514     -115       68       64 
    -284     -939    -1536    -1902    -2167    -2448    -2686    -2673 
   -2342    -1986    -1876    -1801    -1445     -989     -801     -823 
    -712     -345       95      342      275       -9     -358     -768 
   -1222    -1531    -1662    -1920    -2428    -2866    -2962    -2760 
   -2336    -1706     -944     -222      202      251      180      114 
    -205     -892    -1660    -2194    -2410    -2419    -2333    -2124 
   -1801    -1541    -1464    -1360     -923     -269      174      189 
     -37      -69      233      429      145     -386     -796    -1250 
   -2021    -2714    -2734    -2276    -2066    -2235    -2191    -1572 
    -718      -90      376      873     1072      639     -192     -999 
   -1470    -1538    -1604    -2014    -2433    -2468    -2380    -2530 
   -2712    -2620    -2541    -2874    -3285    -3182    -2564    -1828 
   -1225     -744     -403     -526    -1183    -1770    -1944    -2232 
   -3029    -3853    -4040    -3579    -2990    -2654    -2452    -2096 
   -1686    -1655    -2014    -2151    -1828    -1556    -1552    -1415 
    -947     -385     -126     -352     -726     -959    -1344    -2122 
   -2828    -2895    -2563    -2499    -2713    -2596    -1937    -1249 
    -986    -1008    -1027    -1089    -1413    -1974    -2372    -2325 
   -2120    -2093    -2070    -1767    -1395    -1353    -1513    -1452 
   -1228    -1244    -1571    -1895    -1974    -1884    -1781    -1583 
   -1220     -831     -454      -38      265      267      -35     -610 
   -1477    -2451    -3184    -3474    -3266    -2713    -2157    -1675 
   -1127     -628     -421     -493     -637     -684     -476       62 
     649     1008     1211     1298     1152      811      405      -75 
    -672    -1274    -1707    -1912    -1978    -2031    -2002    -1690 
   -1227    -1020    -1201    -1654    -2186    -2436    -2243    -1846 
   -1379     -701      121      656      681      415      110     -189 
    -675    -1600    -2790    -3693    -4047    -4068    -4016    -3917 
   -3654    -3204    -2705    -2254    -1824    -1445    -1171     -990 
    -920     -848     -460      294     1061     1562     1790     1720 
    1206      223     -975    -2027    -2694    -2884    -2672    -2272 
   -1853    -1549    -1517    -1722    -1884    -1809    -1605    -1532 
   -1735    -2071    -2314    -2491    -2635    -2651    -2630    -2717 
   -2826    -2837    -2744    -2542    -2207    -1752    -1265     -935 
    -899    -1001     -889     -380      323      785      689       27 
    -896    -1629    -1893    -1759    -1532    -1481    -1621    -1814 
   -1881    -1662    -1250     -914     -741     -588     -269      199 
     514      436       29     -368     -437     -356     -444     -689 
   -1132    -1866    -2683    -3375    -3833    -3910    -3663    -3291 
   -2806    -2204    -1610     -995     -203      693     1415     1558 
     843     -402    -1608    -2579    -3253    -3569    -3646    -3563 
   -3325    -3011    -2550    -1777     -822      -42      346      380 
     195     -179     -783    -1514    -2124    -2503    -2684    -2657 
   -2509    -2415    -2352    -2217    -2044    -1824    -1406     -821 
    -371     -246     -367     -494     -469     -564    -1122    -1885 
   -2386    -2641    -2946    -3271    -3225    -2691    -2055    -1604 
   -1383    -1409    -1470    -1388    -1452    -1898    -2547    -3311 
   -4182    -4903    -5291    -5361    -5077    -4460    -3738    -3215 
   -2884    -2348    -1465     -557       93      432      555      550 
     394      170       50     -152     -810    -1880    -3054    -4090 
   -4722    -4901    -4824    -4445    -3609    -2485    -1320     -102 
    1119     1994     2343     2238     1691      930      336      -69 
    -402     -588     -626     -759    -1154    -1638    -1941    -2042 
   -2175    -2607    -3221    -3523    -3333    -2924    -2467    -1963 
   -1471    -1067     -851     -876    -1019    -1166    -1387    -1720 
   -1982    -1880    -1399     -929     -881    -1325    -1965    -2432 
   -2625    -2690    -2713    -2562    -2126    -1607    -1251     -943 
    -466      109      531      668      701      804      802      602 
     435      446      538      556      366     -108     -724    -1150 
   -1328    -1618    -2159    -2708    -3190    -3588    -3794    -3982 
   -4197    -4102    -3727    -3374    -2962    -2317    -1546     -847 
    -263      333      920     1305     1432     1368     1296     1408 
    1393      754     -365    -1488    -2471    -3407    -4239    -4608 
   -4259    -3522    -2922    -2533    -2029    -1134     -106      493 
     752     1156     1602     1703     1458     1092      640      -47 
   -1035    -2162    -3008    -3354    -3600    -4044    -4392    -4352 
   -3996    -3569    -3200    -2766    -2184    -1609    -1214     -969 
    -739     -543     -511     -694    -1073    -1524    -1862    -2125 
   -2498    -2968    -3390    -3694    -3837    -3766    -3442    -2865 
   -2217    -1839    -1855    -2122    -2495    -2726    -2601    -2321 
   -2100    -1827    -1421     -919     -369      122      486      781 
    1031     1256     1495     1542     1184      618       20     -721 
   -1545    -2120    -2266    -2169    -2199    -2498    -2757    -2641 
   -2251    -2005    -2186    -2626    -2945    -3071    -3106    -2925 
   -2414    -1784    -1280     -997    -1073    -1489    -1928    -2207 
   -2290    -2138    -1906    -1752    -1527    -1044     -367      296 
     820     1194     1368     1248      867      459      250      191 
      56     -101       -3      364      738      894      820      675 
     511      142     -492    -1132    -1594    -2002    -2453    -2782 
   -2753    -2394    -2013    -1870    -1938    -1942    -1650    -1290 
   -1242    -1313    -1012     -403       95      414      677      800 
     624       27     -959    -2029    -2883    -3468    -3804    -3789 
   -3332    -2627    -1966    -1370     -738     -137      261      420 
     469      428      169     -239     -520     -580     -690    -1106 
   -1680    -2234    -2904    -3637    -4040    -3947    -3422    -2625 
   -1837    -1136     -479     -186     -534    -1155    -1634    -2105 
   -2665    -3070    -3240    -3272    -3166    -2983    -2846    -2601 
   -2023    -1268     -595      -21      462      812     1029     1085 
     913      488     -110     -705    -1239    -1854    -2598    -3352 
   -4041    -4710    -5358    -5761    -5681    -5144    -4314    -3349 
   -2401    -1561     -869     -426     -402     -754    -1215    -1681 
   -2223    -2833    -3399    -3794    -3979    -4020    -3972    -3750 
   -3246    -2571    -2052    -1888    -1819    -1458     -929     -769 
   -1151    -1655    -1969    -2239    -2642    -3091    -3330    -3157 
   -2678    -2101    -1385     -492      360      908     1028      730 
     119     -718    -1688    -2545    -3061    -3229    -3195    -3164 
   -3180    -3120    -2998    -2855    -2554    -1983    -1281     -771 
    -501     -102      623     1397     1968     2389     2702     2709 
    2226     1339      342     -440     -970    -1584    -2289    -2614 
   -2510    -2340    -2159    -1896    -1600    -1316    -1099     -963 
    -798     -473      -48      209      132     -347    -1351    -2747 
   -4132    -5310    -6203    -6576    -6377    -5827    -5012    -4012 
   -3074    -2199    -1152     -148      308      334      462      737 
     883      887      940     1167     1520     1775     1777     1679 
    1706     1723     1382      650     -169     -812    -1157    -1249 
   -1297    -1322    -1141     -889     -970    -1522    -2355    -3239 
   -4025    -4546    -4600    -4080    -3051    -1757     -512      507 
    1169     1344     1168      919      600       74     -606    -1346 
   -2081    -2574    -2667    -2669    -2804    -2814    -2574    -2243 
   -1887    -1574    -1307     -915     -410      -29      202      504 
     913     1089      828      348     -296    -1345    -2690    -3876 
   -4585    -4740    -4512    -4199    -3898    -3682    -3790    -4219 
   -4661    -4917    -5007    -4995    -4854    -4552    -4252    -4097 
   -3975    -3753    -3382    -2826    -2243    -1894    -1740    -1643 
   -1639    -1619    -1265     -465      504     1218     1405     1036 
     272     -674    -1650    -2524    -3207    -3769    -4255    -4535 
   -4577    -4527    -4410    -4106    -3617    -3123    -2816    -2729 
   -2776    -2907    -3139    -3499    -3999    -4544    -4920    -5021 
   -4874    -4479    -3787    -2853    -1953    -1256     -591      170 
     843     1222     1441     1846     2530     3353     4180     4778 
    4931     4661     4138     3511     2763     1852      902       38 
    -695    -1238    -1514    -1501    -1318    -1171    -1205    -1449 
   -1798    -2056    -2215    -2449    -2710    -2818    -2811    -2865 
   -3104    -3378    -3338    -2942    -2486    -2095    -1579     -862 
    -212      154      375      583      634      447      118     -336 
    -834    -1222    -1634    -2233    -2778    -2972    -2870    -2624 
   -2171    -1468     -710       -3      676     1195     1524     1771 
    1724     1085       -4    -1086    -1869    -2472    -3117    -3776 
   -4302    -4592    -4636    -4552    -4316    -3826    -3168    -2408 
   -1585     -808     -119      329      265     -319    -1104    -1750 
   -2200    -2603    -3007    -3334    -3485    -3377    -2950    -2232 
   -1420     -730     -179      347      877     1287     1457     1378 
    1128      797      450      117     -265     -737    -1058     -962 
    -629     -386     -207       62      359      562      582      416 
     272      229       15     -488    -1016    -1418    -1792    -2145 
   -2423    -2569    -2420    -2077    -2006    -2311    -2583    -2629 
   -2682    -2916    -3178    -3181    -2926    -2832    -3148    -3498 
   -3454    -3167    -3027    -3100    -3059    -2589    -1910    -1428 
   -1096     -672      -90      483      747      634      318      -62 
    -397     -616     -752     -917    -1294    -1928    -2562    -2854 
   -2597    -1823     -877     -155      261      441      393      164 
    -210     -679    -1121    -1571    -2111    -2605    -2862    -2734 
   -2230    -1639    -1176     -796     -486     -372     -504     -662 
    -649     -632     -815    -1125    -1400    -1478    -1293    -1044 
    -963    -1070    -1231    -1286    -1239    -1274    -1498    -1809 
   -1949    -1797    -1696    -2083    -2831    -3514    -4093    -4825 
   -5729    -6606    -7376    -8022    -8523    -8942    -9194    -9185 
   -9175    -9226    -8981    -8319    -7342    -6150    -5040    -4237 
   -3688    -3320    -3174    -3426    -4203    -5272    -6257    -6996 
   -7500    -7725    -7602    -7327    -7167    -7016    -6628    -6003 
   -5229    -4398    -3630    -2886    -2102    -1419    -1082    -1303 
   -2021    -2840    -3499    -4064    -4543    -4814    -4840    -4594 
   -4043    -3313    -2554    -1792    -1101     -598     -177      309 
     664      651      390      123      -66     -176     -271     -448 
    -581     -403      133      925     1911     3074     4471     6132 
    7869     9345    10375    10983    11133    10712     9752     8465 
    7081     5699     4385     3254     2438     2078     2236     2860 
    3927     5443     7340     9350    11032    12222    13184    14031 
   14448    14107    13022    11595    10189     8673     6830     4940 
    3500     2703     2309     1874     1349     1209     1701     2427 
    2831     2764     2380     1777     1032      202     -775    -2022 
   -3590    -5346    -7125    -8932   -10619   -11753   -12247   -12519 
  -12745   -12687   -12303   -11799   -11180   -10364    -9588    -9017 
   -8564    -8410    -8653    -8950    -9078    -9019    -8901    -8989 
   -9165    -9068    -8678    -8146    -7541    -6825    -5864    -4682 
   -3530    -2537    -1683    -1122     -989    -1192    -1665    -2383 
   -3206    -3927    -4344    -4445    -4413    -4348    -4186    -3932 
   -3733    -3631    -3544    -3569    -3808    -4111    -4382    -4609 
   -4589    -4341    -4279    -4508    -4812    -5231    -5829    -6314 
   -6329    -5756    -4638    -3106    -1384      257     1725     3162 
    4512     5561     6293     6489     5767     4277     2452      591 
   -1098    -2491    -3500    -4097    -4324    -4279    -4040    -3450 
   -2426    -1418     -941     -894     -886     -834     -687     -271 
     307      811     1131     1141      848      437       19     -435 
   -1054    -1735    -1918    -1305     -341      599     1649     2792 
    3645     4006     4081     4104     3967     3534     2897     2097 
    1202      453      -17      -71      532     1595     2616     3432 
    4061     4551     5115     5752     6228     6567     6932     7251 
    7238     6697     5822     4938     4094     3171     2039      590 
   -1013    -2465    -3705    -4580    -4867    -4856    -4942    -5091 
   -5150    -5115    -5104    -5076    -4894    -4755    -4896    -5209 
   -5622    -6147    -6552    -6573    -6208    -5663    -5208    -4963 
   -4850    -4813    -5007    -5547    -6062    -6063    -5674    -5379 
   -5479    -6047    -6942    -7953    -8933    -9732   -10231   -10351 
   -9957    -9016    -7908    -7082    -6362    -5307    -4096    -3119 
   -2242    -1268     -415       52       61     -297     -692     -690 
    -197      548     1403     2264     2943     3556     4266     4789 
    4955     5056     5215     5179     4824     4313     3709     2950 
    2171     1473      709      -46     -520     -705     -672     -385 
     122      807     1602     2280     2700     2841     2560     1722 
     254    -1850    -4207    -6275    -7847    -8922    -9591    -9970 
   -9971    -9595    -9017    -8194    -7042    -5719    -4491    -3525 
   -2723    -1882     -880      333     1576     2456     2818     2825 
    2517     1806      761     -413    -1333    -1763    -2117    -2847 
   -3776    -4541    -4985    -5076    -4957    -4829    -4699    -4547 
   -4443    -4466    -4694    -5083    -5498    -5914    -6453    -7133 
   -7577    -7490    -7228    -7137    -7027    -6768    -6567    -6527 
   -6487    -6212    -5606    -4804    -3998    -3257    -2582    -2015 
   -1640    -1380     -962     -374       75      296      481      861 
    1632     2804     4274     5960     7442     8150     8096     7684 
    7136     6522     5908     5414     5103     4771     4242     3583 
    2988     2669     2570     2326     1663      682     -167     -565 
    -639     -712     -958    -1195    -1271    -1484    -1975    -2424 
   -2647    -2758    -2829    -2663    -2180    -1715    -1375     -784 
     232     1420     2443     3086     3383     3556     3676     3484 
    2806     1970     1499     1620     2088     2443     2554     2563 
    2439     1981     1102       -3     -936    -1439    -1609    -1617 
   -1335     -593      332      919      972      623        6     -837 
   -1840    -2785    -3376    -3503    -3351    -3180    -3036    -2769 
   -2387    -2181    -2330    -2600    -2768    -2923    -3055    -2874 
   -2255    -1479     -942     -789     -756     -410      296      909 
    1131     1074      779      160     -727    -1658    -2328    -2587 
   -2629    -2814    -3312    -3949    -4581    -5452    -6770    -8247 
   -9452   -10248   -10769   -11139   -11211   -10810   -10075    -9194 
   -8204    -7134    -6014    -4960    -4235    -3961    -4017    -4263 
   -4579    -4864    -5116    -5382    -5709    -6133    -6543    -6668 
   -6441    -6163    -5956    -5486    -4621    -3746    -3150    -2736 
   -2345    -1959    -1854    -2305    -3081    -3847    -4679    -5752 
   -6928    -7679    -7548    -6866    -6405    -6263    -5876    -4891 
   -3442    -1831     -281     1111     2307     3258     3870     4278 
    4878     5792     6710     7210     7057     6478     5797     4858 
    3553     2370     1739     1528     1476     1649     2255     3255 
    4339     5132     5447     5434     5259     4733     3719     2664 
    2128     2050     1934     1522      941      351     -226     -876 
   -1633    -2367    -3057    -3869    -4728    -5300    -5480    -5459 
   -5468    -5554    -5624    -5649    -5654    -5734    -5958    -6108 
   -5849    -5110    -4080    -2922    -1533      255     2228     3904 
    5014     5638     6025     6172     5804     5074     4495     4136 
    3763     3429     3344     3531     3756     3711     3385     2957 
    2347     1376      243     -743    -1679    -2733    -3771    -4618 
   -5148    -5395    -5679    -6021    -6060    -5803    -5501    -5136 
   -4533    -3625    -2560    -1516     -549      320     1150     1987 
    2682     3144     3443     3531     3306     2870     2516     2398 
    2225     1600      561     -670    -2047    -3600    -5264    -6693 
   -7515    -7829    -7987    -8010    -7695    -7113    -6510    -5837 
   -4840    -3567    -2395    -1565     -961     -426     -109     -191 
    -408     -283      309     1030     1440     1426     1162      723 
     -26    -1155    -2512    -3897    -5231    -6480    -7597    -8543 
   -9201    -9436    -9380    -9264    -8963    -8308    -7543    -6917 
