Origin Time       2025/01/13 21:19:00
Lat.              31.8
Long.             131.6
Depth. (km)       30
Mag.              6.9
Station Code      KGS036
Station Lat.      31.8360
Station Long.     129.8678
Station Height(m) 6
Record Time       2025/01/13 21:20:02
Sampling Freq(Hz) 100Hz
Duration Time(s)  103
Dir.              E-W
Scale Factor      3920(gal)/6182761
Max. Acc. (gal)   6.431
Last Correction   2025/01/13 21:20:02
Memo.             
[...]
   -3003    -3171    -3332    -3403    -3434    -3519    -3653    -3797 
   -3914    -3949    -3908    -3841    -3769    -3678    -3551    -3407 
   -3267    -3168    -3173    -3283    -3508    -3897    -4446    -5068 
   -5627    -5991    -6068    -5890    -5624    -5369    -5112    -4879 
   -4709    -4582    -4438    -4184    -3777    -3347    -3089    -3014 
   -3029    -3085    -3170    -3317    -3530    -3765    -3977    -4145 
   -4303    -4454    -4499    -4343    -4042    -3740    -3520    -3430 
   -3480    -3632    -3867    -4141    -4413    -4688    -4902    -5017 
   -5094    -5127    -5065    -4943    -4796    -4608    -4389    -4162 
   -3978    -3891    -3901    -4030    -4295    -4646    -5031    -5408 
   -5748    -5988    -6054    -5956    -5710    -5299    -4739    -4075 
   -3387    -2757    -2236    -1870    -1675    -1650    -1806    -2119 
   -2482    -2783    -2985    -3066    -2996    -2792    -2498    -2185 
   -1968    -1959    -2124    -2360    -2639    -2948    -3269    -3627 
   -4059    -4566    -5090    -5573    -5966    -6251    -6494    -6741 
   -6959    -7102    -7142    -7073    -6881    -6503    -5904    -5174 
   -4453    -3823    -3321    -2934    -2566    -2179    -1897    -1864 
   -2030    -2251    -2467    -2644    -2750    -2785    -2745    -2655 
   -2603    -2688    -2892    -3141    -3463    -3891    -4378    -4867 
   -5286    -5578    -5756    -5841    -5840    -5816    -5793    -5689 
   -5492    -5292    -5120    -4934    -4709    -4484    -4318    -4245 
   -4274    -4346    -4408    -4455    -4440    -4283    -4006    -3725 
   -3466    -3225    -3108    -3142    -3219    -3255    -3231    -3184 
   -3139    -3067    -2977    -2935    -3005    -3222    -3596    -4117 
   -4766    -5456    -6047    -6472    -6674    -6595    -6288    -5835 
   -5302    -4794    -4366    -3991    -3663    -3476    -3488    -3657 
   -3960    -4337    -4648    -4830    -4890    -4832    -4629    -4246 
   -3721    -3195    -2810    -2587    -2472    -2418    -2403    -2466 
   -2670    -3056    -3620    -4294    -4978    -5579    -6039    -6313 
   -6339    -6069    -5556    -4989    -4489    -4031    -3626    -3307 
   -3062    -2916    -2872    -2850    -2790    -2712    -2673    -2741 
   -2937    -3166    -3331    -3449    -3568    -3677    -3729    -3745 
   -3755    -3750    -3788    -3948    -4228    -4576    -4932    -5221 
   -5361    -5357    -5270    -5137    -5048    -5067    -5154    -5241 
   -5254    -5168    -5026    -4834    -4550    -4173    -3744    -3289 
   -2814    -2309    -1781    -1291     -959     -911    -1155    -1598 
   -2167    -2794    -3440    -4073    -4603    -4962    -5161    -5261 
   -5314    -5321    -5264    -5117    -4911    -4745    -4648    -4636 
   -4747    -4925    -5106    -5343    -5650    -5887    -5964    -5941 
   -5864    -5664    -5260    -4730    -4218    -3769    -3380    -3071 
   -2889    -2865    -2959    -3133    -3361    -3591    -3740    -3708 
   -3489    -3213    -2985    -2800    -2622    -2495    -2499    -2630 
   -2847    -3159    -3566    -4003    -4413    -4783    -5091    -5306 
   -5444    -5564    -5706    -5864    -5996    -6022    -5922    -5773 
   -5653    -5607    -5658    -5820    -6046    -6205    -6240    -6172 
   -5975    -5615    -5089    -4441    -3740    -3035    -2414    -2028 
   -1915    -1947    -2021    -2117    -2223    -2306    -2365    -2456 
   -2576    -2687    -2853    -3105    -3405    -3778    -4212    -4622 
   -4959    -5237    -5427    -5479    -5433    -5334    -5185    -4999 
   -4788    -4599    -4528    -4573    -4621    -4627    -4639    -4640 
   -4574    -4472    -4355    -4207    -4074    -3984    -3832    -3556 
   -3269    -3063    -2923    -2878    -2969    -3136    -3259    -3295 
   -3261    -3171    -3092    -3071    -3079    -3107    -3158    -3235 
   -3362    -3532    -3700    -3828    -3946    -4115    -4331    -4546 
   -4737    -4894    -5034    -5206    -5370    -5429    -5410    -5395 
   -5395    -5372    -5264    -5040    -4721    -4347    -3946    -3515 
   -3099    -2761    -2528    -2427    -2474    -2641    -2877    -3164 
   -3514    -3921    -4375    -4812    -5123    -5268    -5295    -5277 
   -5273    -5287    -5265    -5158    -4982    -4811    -4740    -4816 
   -4991    -5208    -5436    -5638    -5737    -5662    -5418    -5001 
   -4422    -3818    -3330    -3006    -2837    -2766    -2744    -2782 
   -2906    -3105    -3365    -3698    -4072    -4385    -4556    -4600 
   -4553    -4424    -4278    -4181    -4117    -4058    -3986    -3903 
   -3821    -3758    -3711    -3642    -3536    -3408    -3283    -3226 
   -3277    -3435    -3688    -3992    -4292    -4568    -4818    -4982 
   -4971    -4796    -4551    -4336    -4202    -4149    -4174    -4273 
   -4415    -4529    -4589    -4657    -4774    -4885    -4875    -4685 
   -4351    -3930    -3521    -3192    -2913    -2687    -2544    -2485 
   -2522    -2673    -2889    -3059    -3130    -3163    -3252    -3418 
   -3629    -3851    -4015    -4093    -4154    -4274    -4496    -4782 
   -5040    -5239    -5393    -5518    -5622    -5718    -5800    -5802 
   -5676    -5424    -5074    -4721    -4459    -4304    -4203    -4114 
   -4071    -4066    -3978    -3738    -3492    -3401    -3415    -3397 
   -3321    -3280    -3317    -3372    -3444    -3564    -3713    -3909 
   -4156    -4337    -4346    -4223    -4058    -3918    -3903    -4021 
   -4136    -4170    -4142    -4068    -3957    -3785    -3535    -3262 
   -3042    -2882    -2804    -2866    -3030    -3164    -3203    -3190 
   -3130    -2990    -2860    -2859    -3042    -3457    -4065    -4677 
   -5110    -5363    -5515    -5572    -5543    -5459    -5344    -5292 
   -5398    -5630    -5872    -6003    -5972    -5839    -5669    -5368 
   -4817    -4082    -3328    -2669    -2156    -1820    -1675    -1683 
   -1794    -1984    -2217    -2407    -2453    -2347    -2218    -2230 
   -2467    -2869    -3324    -3767    -4207    -4703    -5225    -5727 
   -6248    -6742    -7045    -7129    -7109    -7030    -6855    -6570 
   -6197    -5768    -5301    -4833    -4439    -4177    -4063    -4037 
   -4041    -4093    -4186    -4287    -4424    -4576    -4618    -4528 
   -4505    -4691    -4978    -5221    -5370    -5407    -5341    -5223 
   -5069    -4829    -4505    -4192    -3959    -3783    -3610    -3410 
   -3169    -2894    -2628    -2415    -2252    -2059    -1822    -1672 
   -1660    -1702    -1774    -1934    -2125    -2241    -2364    -2621 
   -2975    -3379    -3799    -4146    -4357    -4450    -4471    -4492 
   -4618    -4854    -5068    -5177    -5247    -5408    -5696    -6023 
   -6302    -6548    -6855    -7183    -7353    -7308    -7090    -6706 
   -6188    -5632    -5111    -4570    -3978    -3398    -2851    -2311 
   -1849    -1565    -1428    -1341    -1299    -1322    -1400    -1534 
   -1737    -1990    -2242    -2494    -2779    -3084    -3378    -3662 
   -3973    -4326    -4737    -5247    -5823    -6346    -6715    -6966 
   -7209    -7417    -7489    -7363    -6999    -6424    -5741    -5094 
   -4641    -4454    -4491    -4668    -4899    -5088    -5155    -5087 
   -4920    -4687    -4396    -4081    -3757    -3420    -3142    -2960 
   -2805    -2660    -2590    -2627    -2718    -2806    -2897    -2977 
   -2972    -2838    -2651    -2542    -2524    -2541    -2643    -2948 
   -3466    -4097    -4770    -5396    -5875    -6204    -6399    -6408 
   -6221    -5927    -5548    -5004    -4322    -3624    -2963    -2360 
   -1875    -1574    -1482    -1594    -1838    -2116    -2449    -2854 
   -3222    -3483    -3621    -3663    -3698    -3772    -3848    -3939 
   -4133    -4449    -4809    -5159    -5455    -5623    -5596    -5452 
   -5361    -5319    -5192    -4928    -4594    -4352    -4304    -4400 
   -4568    -4801    -5062    -5216    -5209    -5127    -5029    -4904 
   -4723    -4504    -4310    -4121    -3839    -3452    -3057    -2729 
   -2465    -2196    -1881    -1621    -1543    -1634    -1815    -2088 
   -2534    -3124    -3746    -4380    -4947    -5314    -5544    -5821 
   -6134    -6277    -6158    -5829    -5366    -4947    -4732    -4687 
   -4674    -4579    -4414    -4324    -4395    -4565    -4754    -4879 
   -4829    -4525    -3952    -3209    -2430    -1725    -1246    -1013 
    -902     -937    -1242    -1808    -2561    -3490    -4521    -5393 
   -5897    -6033    -5815    -5227    -4403    -3570    -2881    -2419 
   -2237    -2338    -2654    -3077    -3601    -4274    -4982    -5539 
   -5886    -6039    -5970    -5703    -5344    -4953    -4597    -4413 
   -4500    -4815    -5173    -5414    -5482    -5343    -5076    -4846 
   -4682    -4498    -4262    -4050    -3946    -3932    -3983    -4164 
   -4522    -4918    -5131    -5074    -4772    -4295    -3732    -3177 
   -2766    -2605    -2652    -2760    -2862    -3000    -3228    -3564 
   -3944    -4352    -4855    -5359    -5617    -5499    -5023    -4267 
   -3380    -2557    -1947    -1598    -1476    -1555    -1847    -2280 
   -2734    -3226    -3834    -4530    -5227    -5876    -6415    -6739 
   -6805    -6663    -6410    -6162    -6034    -6065    -6157    -6229 
   -6222    -5967    -5418    -4793    -4304    -3968    -3664    -3330 
   -3002    -2649    -2236    -1862    -1629    -1533    -1547    -1662 
   -1874    -2151    -2326    -2265    -2080    -1977    -2085    -2406 
   -2866    -3465    -4225    -5021    -5639    -6011    -6220    -6309 
   -6274    -6152    -5978    -5757    -5460    -5084    -4724    -4462 
   -4232    -3962    -3711    -3556    -3517    -3595    -3742    -3871 
   -3917    -3877    -3772    -3616    -3470    -3394    -3375    -3402 
   -3527    -3769    -4076    -4413    -4762    -5044    -5185    -5177 
   -5089    -5030    -4968    -4752    -4392    -4031    -3753    -3612 
   -3636    -3737    -3868    -4090    -4401    -4708    -4926    -5048 
   -5051    -4864    -4560    -4272    -4025    -3810    -3591    -3353 
   -3195    -3231    -3483    -3904    -4422    -4919    -5256    -5393 
   -5380    -5270    -5092    -4858    -4572    -4258    -3954    -3653 
   -3349    -3107    -2973    -2898    -2832    -2853    -3043    -3318 
   -3538    -3620    -3533    -3319    -3067    -2851    -2722    -2751 
   -2982    -3354    -3761    -4151    -4536    -4949    -5368    -5743 
   -6036    -6191    -6183    -6070    -5898    -5659    -5414    -5257 
   -5201    -5214    -5245    -5245    -5155    -4916    -4591    -4308 
   -4139    -4105    -4143    -4160    -4123    -4055    -3996    -3971 
   -4034    -4203    -4359    -4383    -4277    -4088    -3849    -3622 
   -3461    -3386    -3437    -3611    -3838    -4068    -4247    -4303 
   -4256    -4217    -4246    -4310    -4404    -4533    -4642    -4715 
   -4801    -4921    -5011    -5010    -4912    -4689    -4322    -3840 
   -3225    -2503    -1792    -1202     -789     -544     -421     -420 
    -552     -769    -1025    -1270    -1434    -1519    -1559    -1638 
   -1842    -2136    -2468    -2799    -3025    -3123    -3205    -3394 
   -3715    -4131    -4621    -5122    -5527    -5765    -5849    -5825 
   -5722    -5619    -5663    -5936    -6383    -6887    -7360    -7690 
   -7747    -7563    -7285    -7008    -6756    -6528    -6299    -6034 
   -5723    -5336    -4793    -4073    -3247    -2411    -1661    -1069 
    -634     -322     -144     -114     -202     -431     -816    -1236 
   -1558    -1743    -1829    -1898    -2028    -2219    -2450    -2717 
   -3003    -3327    -3750    -4254    -4722    -5072    -5331    -5536 
   -5702    -5883    -6105    -6336    -6550    -6713    -6752    -6595 
   -6292    -5954    -5609    -5283    -5027    -4879    -4844    -4861 
   -4791    -4550    -4214    -3891    -3626    -3449    -3356    -3285 
   -3196    -3098    -2986    -2857    -2750    -2653    -2526    -2428 
   -2456    -2658    -3025    -3542    -4192    -4848    -5385    -5803 
   -6100    -6250    -6289    -6288    -6309    -6335    -6327    -6314 
   -6354    -6467    -6662    -6909    -7114    -7182    -7033    -6636 
   -6008    -5191    -4315    -3518    -2870    -2480    -2427    -2664 
   -3056    -3437    -3657    -3621    -3346    -2934    -2441    -1911 
   -1403     -936     -523     -188       75      273      355      302 
     151     -117     -508     -935    -1340    -1788    -2325    -2869 
   -3342    -3724    -4047    -4427    -4958    -5635    -6414    -7280 
   -8246    -9269   -10295   -11261   -12015   -12462   -12634   -12571 
  -12337   -12010   -11580   -10999   -10301    -9540    -8742    -7904 
   -7038    -6209    -5428    -4649    -3863    -3076    -2299    -1493 
    -576      404     1319     2128     2885     3613     4271     4872 
    5412     5804     5981     5899     5540     4965     4266     3457 
    2502     1388       81    -1417    -2992    -4536    -5960    -7169 
   -8122    -8850    -9399    -9821   -10214   -10660   -11135   -11538 
  -11753   -11742   -11518   -11097   -10541    -9874    -9081    -8159 
   -7098    -5922    -4652    -3306    -1967     -704      462     1490 
    2317     2907     3235     3225     2832     2152     1345      452 
    -569    -1650    -2715    -3816    -4989    -6222    -7505    -8792 
   -9959   -10915   -11659   -12161   -12398   -12431   -12300   -12003 
  -11527   -10852   -10009    -9069    -8083    -7138    -6298    -5406 
   -4264    -2957    -1689     -518      594     1655     2609     3448 
    4187     4817     5356     5778     6017     6037     5810     5319 
    4591     3727     2751     1552      146    -1349    -2895    -4468 
   -6010    -7428    -8580    -9425   -10096   -10702   -11265   -11829 
  -12391   -12831   -13033   -13027   -12907   -12688   -12405   -12089 
  -11641   -10965   -10062    -8943    -7618    -6160    -4682    -3203 
   -1712     -277     1032     2140     3007     3686     4125     4206 
    3988     3579     2971     2213     1421      624     -183     -951 
   -1641    -2300    -2957    -3550    -4108    -4750    -5507    -6363 
   -7317    -8343    -9324   -10133   -10740   -11117   -11229   -11112 
  -10821   -10399    -9870    -9203    -8384    -7460    -6464    -5408 
   -4312    -3189    -2031     -864      214     1123     1846     2311 
    2438     2280     1882     1252      488     -276    -1017    -1818 
   -2733    -3787    -5005    -6245    -7316    -8184    -8817    -9160 
   -9233    -9082    -8746    -8239    -7530    -6636    -5653    -4683 
   -3813    -3116    -2577    -2084    -1564    -1061     -616     -200 
     166      411      570      706      795      843      915      990 
     956      758      359     -318    -1248    -2328    -3485    -4662 
   -5827    -6952    -7987    -8866    -9530    -9939   -10065    -9917 
   -9538    -8970    -8279    -7583    -6979    -6466    -6019    -5676 
   -5467    -5388    -5428    -5550    -5679    -5752    -5772    -5677 
   -5378    -4884    -4233    -3529    -2912    -2379    -1898    -1505 
   -1205     -981     -863     -884    -1019    -1238    -1559    -1985 
   -2487    -3053    -3675    -4317    -4955    -5572    -6115    -6512 
   -6743    -6871    -6974    -7095    -7256    -7421    -7499    -7445 
   -7263    -6971    -6565    -6026    -5427    -4919    -4564    -4319 
   -4133    -3944    -3730    -3562    -3444    -3285    -3069    -2834 
   -2551    -2190    -1837    -1588    -1428    -1327    -1311    -1402 
   -1592    -1851    -2144    -2428    -2711    -3061    -3489    -3933 
   -4333    -4693    -5085    -5562    -6074    -6553    -7036    -7570 
   -8095    -8547    -8922    -9210    -9348    -9294    -9052    -8614 
   -8024    -7371    -6684    -5948    -5150    -4302    -3392    -2377 
   -1277     -144      968     1932     2612     2949     2992     2844 
    2536     2044     1383      605     -255    -1159    -2039    -2877 
   -3667    -4389    -5064    -5728    -6373    -6949    -7429    -7805 
   -8017    -8045    -7986    -7920    -7829    -7701    -7567    -7390 
   -7077    -6644    -6191    -5794    -5461    -5177    -4983    -4882 
   -4768    -4562    -4322    -4105    -3871    -3591    -3280    -2909 
   -2398    -1738     -980     -127      745     1478     2013     2322 
    2368     2147     1692     1066      308     -537    -1417    -2338 
   -3276    -4168    -4970    -5637    -6143    -6500    -6739    -6911 
   -7078    -7261    -7413    -7503    -7542    -7539    -7476    -7366 
   -7265    -7171    -7058    -6933    -6744    -6451    -6092    -5700 
   -5262    -4764    -4218    -3640    -3063    -2540    -2051    -1561 
   -1085     -649     -291      -44       93      168      221      229 
     180       68     -140     -474     -922    -1489    -2222    -3097 
   -4042    -5013    -5964    -6890    -7803    -8661    -9420   -10073 
  -10654   -11155   -11516   -11746   -11874   -11880   -11728   -11359 
  -10717    -9772    -8517    -7030    -5474    -3977    -2591    -1362 
    -332      468     1044     1422     1606     1637     1517     1190 
     718      240     -184     -535     -804    -1054    -1398    -1866 
   -2421    -3063    -3753    -4413    -4998    -5475    -5856    -6176 
   -6472    -6783    -7103    -7354    -7478    -7512    -7549    -7650 
   -7803    -7961    -8090    -8090    -7879    -7497    -6977    -6292 
   -5439    -4454    -3420    -2421    -1481     -582      223      816 
    1147     1218     1049      687      147     -551    -1290    -1941 
   -2486    -2945    -3281    -3493    -3659    -3845    -4076    -4380 
   -4797    -5295    -5827    -6439    -7112    -7739    -8240    -8581 
   -8762    -8769    -8575    -8173    -7564    -6805    -5983    -5168 
   -4435    -3829    -3383    -3153    -3122    -3200    -3362    -3562 
   -3669    -3641    -3497    -3242    -2919    -2581    -2272    -1999 
   -1763    -1622    -1609    -1695    -1863    -2090    -2336    -2566 
   -2779    -2970    -3134    -3296    -3439    -3531    -3572    -3591 
   -3672    -3864    -4091    -4259    -4362    -4432    -4466    -4462 
   -4417    -4297    -4099    -3874    -3676    -3529    -3479    -3554 
   -3687    -3828    -4003    -4210    -4414    -4597    -4735    -4796 
   -4778    -4728    -4675    -4621    -4553    -4460    -4371    -4310 
   -4248    -4153    -4034    -3927    -3853    -3833    -3851    -3842 
   -3800    -3750    -3681    -3570    -3451    -3406    -3456    -3567 
   -3738    -3964    -4200    -4425    -4681    -4940    -5103    -5150 
   -5076    -4863    -4585    -4303    -4035    -3857    -3797    -3782 
   -3784    -3816    -3878    -4006    -4225    -4513    -4854    -5215 
   -5540    -5759    -5844    -5845    -5779    -5634    -5421    -5161 
   -4859    -4492    -4070    -3625    -3150    -2667    -2200    -1765 
   -1415    -1193    -1112    -1163    -1310    -1565    -1975    -2518 
   -3128    -3783    -4456    -5071    -5562    -5923    -6182    -6343 
   -6407    -6419    -6402    -6348    -6277    -6223    -6176    -6095 
   -5970    -5772    -5478    -5169    -4888    -4580    -4233    -3870 
   -3520    -3204    -2877    -2498    -2145    -1917    -1798    -1754 
   -1768    -1809    -1841    -1834    -1812    -1797    -1805    -1885 
   -2020    -2167    -2344    -2576    -2846    -3149    -3536    -4012 
   -4515    -5046    -5594    -6104    -6583    -7006    -7319    -7526 
