Origin Time       2025/01/13 21:19:00
Lat.              31.8
Long.             131.6
Depth. (km)       30
Mag.              6.9
Station Code      KGS005
Station Lat.      31.9006
Station Long.     130.4513
Station Height(m) 43
Record Time       2025/01/13 21:19:51
Sampling Freq(Hz) 100Hz
Duration Time(s)  125
Dir.              N-S
Scale Factor      3920(gal)/6182761
Max. Acc. (gal)   9.450
Last Correction   2025/01/13 21:19:52
Memo.             
[...]
    1687      598     -328    -1032    -1639    -2357    -3356    -4709 
   -6276    -7721    -8817    -9543    -9913    -9935    -9690    -9380 
   -9125    -8806    -8339    -7713    -6855    -5836    -4796    -3791 
   -2948    -2380    -1921    -1309     -482      459     1244     1527 
    1306      890      518      305      168     -121     -525     -696 
    -378      478     1724     2939     3752     4242     4715     5326 
    6135     7272     8707    10134    11320    12217    12774    12972 
   12866    12508    11909    10903     9215     6856     4207     1655 
    -658    -2794    -4856    -6858    -8719   -10335   -11539   -12053 
  -11823   -11098   -10076    -8988    -8065    -7155    -5939    -4363 
   -2702    -1214      186     1570     2640     3201     3539     3904 
    4171     4236     4152     4066     4057     3842     3225     2548 
    2166     2053     2063     2198     2548     2915     2779     2057 
    1374     1224     1531     2031     2568     3029     3355     3633 
    4022     4713     5828     7094     8058     8695     9233     9592 
    9523     9040     8296     7340     6175     4781     3246     1804 
     506     -713    -1784    -2732    -3678    -4516    -5056    -5223 
   -4938    -4194    -3221    -2272    -1365     -385      731     1871 
    2851     3675     4378     4767     4749     4490     4096     3566 
    2919     2215     1533      844       30     -896    -1833    -2746 
   -3615    -4321    -4770    -5036    -5185    -5153    -4900    -4419 
   -3697    -2741    -1594     -410      612     1401     2030     2620 
    3148     3496     3702     3876     4069     4243     4195     3861 
    3490     3214     2889     2439     1965     1461      815       89 
    -610    -1276    -1850    -2233    -2374    -2340    -2272    -2189 
   -2045    -1899    -1800    -1725    -1607    -1263     -539      440 
    1357     1974     2202     2073     1715     1271      885      704 
     735      868      976      941      744      493      355      388 
     459      407      219      160      456      924     1348     1798 
    2359     2983     3623     4200     4577     4770     4913     5007 
    5016     4948     4911     5140     5688     6307     6769     7051 
    7259     7378     7181     6516     5558     4633     3860     3220 
    2831     2718     2543     1958      987      -78     -992    -1659 
   -2099    -2424    -2788    -3279    -3783    -4048    -4033    -4001 
   -4117    -4255    -4316    -4344    -4300    -4107    -3862    -3753 
   -3824    -3917    -3878    -3711    -3475    -3145    -2638    -1956 
   -1187     -432      245      902     1621     2302     2754     3012 
    3308     3761     4339     4968     5541     5963     6271     6611 
    7157     8056     9202    10146    10548    10527    10449    10441 
   10267     9746     8925     7868     6655     5360     4032     2737 
    1468      240     -713    -1195    -1286    -1189    -1077    -1022 
    -935     -713     -402      -58      332      679      864      894 
     760      390     -196     -888    -1642    -2483    -3331    -3985 
   -4323    -4378    -4285    -4215    -4201    -4133    -3976    -3813 
   -3791    -4077    -4755    -5747    -6823    -7759    -8494    -9011 
   -9202    -8978    -8406    -7648    -6780    -5833    -4847    -3724 
   -2419    -1124       84     1325     2527     3476     4175     4841 
    5571     6178     6494     6561     6495     6321     5878     5118 
    4288     3560     2933     2521     2497     2803     3151     3350 
    3498     3808     4302     4777     5061     5257     5456     5505 
    5297     4894     4450     4110     3744     3126     2284     1272 
      99    -1102    -2185    -3060    -3623    -3737    -3383    -2769 
   -2146    -1609    -1109     -588      -42      611     1476     2384 
    2967     3032     2702     2301     2047     1818     1372      772 
     290      -88     -559    -1048    -1397    -1568    -1482    -1128 
    -654     -169      322      893     1682     2736     3864     4833 
    5580     6097     6358     6370     6208     6035     5945     5785 
    5394     4892     4532     4397     4383     4390     4423     4533 
    4692     4824     4953     5149     5390     5617     5745     5707 
    5510     5119     4531     3923     3412     2879     2249     1618 
    1075      669      446      322      173        6     -111     -127 
     -19      165      420      915     1710     2522     3068     3422 
    3829     4292     4573     4584     4451     4217     3843     3411 
    3066     2924     2982     3032     2885     2531     2002     1404 
     833      233     -418    -1058    -1686    -2363    -3153    -3999 
   -4744    -5295    -5618    -5649    -5387    -5040    -4833    -4685 
   -4338    -3710    -2953    -2308    -1898    -1619    -1395    -1382 
   -1715    -2351    -3247    -4366    -5492    -6358    -7001    -7677 
   -8436    -8977    -9036    -8681    -8053    -7128    -5900    -4594 
   -3455    -2486    -1545     -550      384     1009     1244     1216 
     968      489      -26     -407     -811    -1397    -2029    -2470 
   -2547    -2235    -1728    -1198     -568      223     1067     1908 
    2846     3935     5027     5937     6705     7396     7868     8009 
    7900     7597     7100     6539     6125     5870     5531     5002 
    4535     4381     4572     5089     5907     6961     8085     8912 
    9149     8875     8292     7455     6349     5042     3731     2542 
    1402      269     -764    -1596    -2196    -2584    -2715    -2474 
   -1886    -1168     -534       -1      556     1203     1970     2892 
    3910     4903     5721     6261     6639     7017     7312     7358 
    7193     6999     6804     6454     5981     5601     5353     5173 
    5078     5073     5161     5317     5384     5307     5254     5288 
    5304     5224     4944     4351     3514     2593     1586      477 
    -579    -1486    -2275    -2985    -3642    -4214    -4667    -5032 
   -5308    -5383    -5157    -4771    -4514    -4402    -4223    -3930 
   -3638    -3405    -3146    -2820    -2615    -2730    -3117    -3625 
   -4221    -4977    -5830    -6517    -6925    -7152    -7129    -6671 
   -5874    -5054    -4328    -3503    -2485    -1478     -614      169 
     834     1247     1359     1187      816      374     -116     -723 
   -1490    -2379    -3243    -3897    -4239    -4310    -4185    -3884 
   -3460    -2970    -2390    -1678     -861      -37      640      952 
     849      602      381       64     -398     -919    -1448    -1953 
   -2392    -2646    -2605    -2349    -1936    -1259     -297      802 
    1854     2742     3507     4269     5041     5735     6292     6740 
    7115     7394     7603     7898     8448     9198     9904    10493 
   11109    11823    12558    13193    13667    13984    14128    14126 
   14035    13761    13244    12619    11992    11311    10492     9574 
    8596     7478     6211     5006     4108     3572     3310     3267 
    3460     3823     4232     4727     5353     5988     6485     6758 
    6784     6580     6213     5797     5348     4706     3713     2433 
    1125      -10     -961    -1787    -2544    -3247    -3782    -4065 
   -4233    -4425    -4622    -4798    -5006    -5311    -5721    -6220 
   -6805    -7456    -8115    -8741    -9307    -9732    -9987   -10079 
   -9880    -9347    -8686    -8078    -7563    -7107    -6643    -6204 
   -5869    -5587    -5287    -5076    -5104    -5320    -5550    -5798 
   -6225    -6794    -7209    -7241    -6890    -6248    -5392    -4434 
   -3467    -2517    -1559     -534      534     1455     2090     2522 
    2878     3150     3271     3163     2791     2239     1598      856 
     -21     -909    -1555    -1933    -2192    -2383    -2465    -2377 
   -2173    -1994    -1797    -1452    -1063     -857     -786     -561 
    -145      186      343      501      674      711      701      931 
    1384     1808     2228     2897     3804     4618     5186     5753 
    6474     7157     7647     8068     8564     8990     9142     9166 
    9283     9400     9346     9228     9299     9564     9831    10078 
   10402    10831    11344    11881    12381    12858    13376    13928 
   14347    14525    14539    14506    14496    14430    14160    13734 
   13246    12660    11964    11163    10238     9125     7719     6007 
    4125     2248      468    -1212    -2814    -4400    -5951    -7256 
   -8215    -8902    -9267    -9209    -8729    -7908    -6927    -5963 
   -5053    -4206    -3566    -3280    -3339    -3670    -4188    -4823 
   -5602    -6461    -7253    -8019    -8846    -9679   -10460   -11156 
  -11712   -12140   -12427   -12487   -12360   -12134   -11822   -11459 
  -11013   -10442    -9847    -9238    -8596    -8098    -7827    -7586 
   -7227    -6843    -6498    -6169    -5952    -5899    -5822    -5570 
   -5209    -4783    -4204    -3446    -2591    -1670     -549      923 
    2622     4234     5699     7200     8649     9759    10533    11099 
   11405    11383    11092    10635    10028     9283     8573     8053 
    7689     7365     7018     6709     6488     6262     5938     5511 
    5021     4522     4056     3724     3615     3658     3727     3802 
    3946     4173     4455     4824     5345     6068     6911     7665 
    8299     8909     9415     9693     9733     9543     9161     8687 
    8209     7765     7302     6697     6025     5478     4988     4444 
    3943     3515     3066     2578     2081     1563     1045      569 
     104     -425    -1033    -1688    -2314    -2812    -3166    -3482 
   -3869    -4299    -4694    -5056    -5377    -5627    -5819    -5982 
   -6116    -6188    -6232    -6304    -6311    -6165    -5960    -5810 
   -5706    -5550    -5262    -4854    -4380    -3898    -3527    -3336 
   -3216    -3075    -2955    -2885    -2858    -2885    -2983    -3150 
   -3247    -3102    -2808    -2586    -2406    -2099    -1638    -1099 
    -546       89      903     1757     2526     3352     4346     5464 
    6560     7389     7910     8301     8547     8622     8729     8933 
    9085     9087     8915     8577     8155     7778     7420     6957 
    6469     6055     5666     5260     4768     4187     3634     3150 
    2747     2471     2268     2066     1911     1850     1884     1931 
    1865     1735     1595     1307      812      219     -398     -956 
   -1303    -1419    -1363    -1117     -692     -138      531     1287 
    2077     2887     3709     4477     5079     5442     5603     5587 
    5291     4666     3804     2809     1783      891      238     -223 
    -539     -709     -746     -544       -3      767     1606     2487 
    3475     4606     5703     6554     7181     7651     7925     8005 
    7956     7797     7472     6948     6347     5839     5327     4505 
    3325     2042      837     -285    -1304    -2137    -2790    -3388 
   -4022    -4704    -5354    -5907    -6414    -6844    -7081    -7200 
   -7423    -7800    -8130    -8280    -8335    -8346    -8179    -7737 
   -7175    -6659    -6153    -5634    -5161    -4776    -4558    -4557 
   -4726    -4961    -5102    -5100    -5050    -4924    -4619    -4170 
   -3646    -2964    -2006     -822      494     1905     3268     4392 
    5280     6038     6631     6944     6925     6673     6335     5919 
    5365     4616     3673     2701     1802      894       40     -548 
    -833     -957    -1052    -1188    -1364    -1510    -1611    -1670 
   -1609    -1407    -1110     -715     -232      320      954     1626 
    2244     2736     3153     3641     4185     4598     4797     4873 
    4944     5017     5051     5102     5235     5347     5253     4956 
    4653     4437     4235     3992     3738     3494     3257     3058 
    2934     2942     3212     3746     4340     4875     5392     5934 
    6524     7123     7575     7799     7895     7939     7904     7801 
    7636     7356     6936     6406     5831     5279     4754     4217 
    3666     3126     2591     2003     1323      678      185     -302 
    -949    -1658    -2301    -2937    -3668    -4488    -5308    -6072 
   -6852    -7667    -8372    -8932    -9438    -9853   -10077   -10051 
   -9814    -9575    -9480    -9451    -9401    -9312    -9122    -8804 
   -8425    -7988    -7457    -6795    -5833    -4479    -2934    -1403 
     129     1697     3170     4442     5594     6685     7647     8418 
    8986     9370     9575     9577     9431     9163     8638     7824 
    6870     5844     4683     3303     1708       63    -1443    -2810 
   -4117    -5279    -6167    -6840    -7436    -7962    -8328    -8475 
   -8377    -8069    -7623    -7093    -6542    -6010    -5518    -5086 
   -4654    -4128    -3453    -2652    -1804     -882      221     1475 
    2755     4041     5361     6692     8004     9303    10562    11680 
   12580    13314    13983    14593    15012    15186    15182    14926 
   14289    13353    12319    11332    10444     9586     8670     7710 
    6787     5975     5329     4862     4501     4177     3969     3972 
    4132     4400     4853     5513     6260     6912     7347     7641 
    7915     8076     8058     7946     7732     7373     6956     6536 
    6027     5379     4725     4212     3832     3498     3113     2674 
    2209     1668     1068      472     -161     -916    -1805    -2850 
   -4119    -5577    -7099    -8569    -9867   -10936   -11809   -12533 
  -13116   -13527   -13765   -13850   -13752   -13474   -13104   -12634 
  -11965   -11157   -10366    -9587    -8766    -7987    -7345    -6753 
   -6078    -5308    -4485    -3607    -2623    -1539     -473      507 
    1382     2107     2643     2992     3181     3195     2968     2529 
    2008     1494     1064      820      874     1264     1791     2203 
    2480     2753     3112     3489     3800     4095     4442     4818 
    5243     5825     6573     7365     8124     8824     9446     9985 
   10371    10500    10354    10005     9611     9367     9325     9343 
    9287     9078     8653     8100     7613     7201     6714     6092 
    5351     4530     3689     2827     1942     1130      451     -134 
    -639    -1062    -1465    -1928    -2481    -3146    -3931    -4750 
   -5482    -6046    -6410    -6601    -6654    -6625    -6546    -6341 
   -5919    -5287    -4493    -3624    -2849    -2308    -1985    -1767 
   -1553    -1294     -995     -687     -475     -418     -389     -277 
    -165     -130     -127     -136     -215     -376     -626     -984 
   -1399    -1783    -2080    -2295    -2492    -2784    -3259    -3837 
   -4354    -4755    -5083    -5376    -5596    -5670    -5623    -5583 
   -5550    -5325    -4829    -4191    -3485    -2657    -1625     -285 
    1370     3161     4934     6727     8479     9904    10944    11819 
   12593    13203    13616    13827    13810    13516    12959    12246 
   11451    10577     9630     8607     7466     6252     5138     4285 
    3746     3438     3247     3144     3068     2926     2698     2351 
    1903     1432      910      301     -410    -1205    -1986    -2740 
   -3475    -4098    -4618    -5101    -5435    -5474    -5231    -4800 
   -4225    -3461    -2473    -1318      -42     1338     2742     4119 
    5457     6651     7583     8235     8623     8725     8484     7875 
    7012     6050     5017     3858     2617     1443      452     -352 
   -1015    -1536    -1889    -2094    -2170    -2087    -1844    -1525 
   -1246    -1015     -773     -566     -509     -623     -885    -1318 
   -1965    -2779    -3594    -4322    -5026    -5744    -6385    -6768 
   -6825    -6692    -6489    -6160    -5665    -5123    -4628    -4115 
   -3542    -3012    -2633    -2373    -2133    -1919    -1872    -2080 
   -2413    -2703    -3023    -3461    -3835    -3940    -3858    -3773 
   -3692    -3483    -3038    -2417    -1734     -958      -40      973 
    2022     3119     4372     5776     7107     8257     9335    10353 
   11183    11786    12279    12747    13090    13187    13086    12868 
   12549    12139    11632    11026    10391     9773     9188     8702 
    8323     8010     7769     7554     7287     6986     6683     6331 
    5884     5417     5020     4634     4185     3698     3189     2678 
    2195     1751     1391     1133      944      861      908      975 
     995     1034     1148     1308     1485     1699     1916     2026 
    1970     1869     1829     1725     1462     1193     1027      862 
     600      311      175      255      372      366      244       -3 
    -401     -903    -1438    -1991    -2633    -3389    -4150    -4875 
   -5611    -6332    -6928    -7300    -7473    -7532    -7479    -7289 
   -7013    -6718    -6412    -6118    -5908    -5853    -5936    -6023 
   -5991    -5906    -5893    -5935    -5947    -5947    -5999    -6061 
   -6012    -5772    -5375    -4898    -4350    -3711    -2977    -2206 
   -1480     -775      -31      732     1498     2266     3053     3934 
    4924     5911     6780     7530     8253     8946     9472     9738 
    9789     9708     9494     9091     8549     7990     7440     6849 
    6198     5507     4769     3965     3165     2471     1903     1436 
    1141     1083     1152     1227     1309     1383     1424     1438 
    1413     1373     1339     1235     1024      771      544      304 
     -20     -415     -847    -1324    -1802    -2184    -2406    -2475 
   -2472    -2462    -2460    -2463    -2459    -2427    -2327    -2140 
   -1928    -1767    -1613    -1355     -974     -525      -26      495 
     955     1292     1515     1678     1811     1851     1696     1361 
     972      612      219     -304     -886    -1382    -1779    -2150 
   -2478    -2611    -2407    -1888    -1165     -253      883     2098 
    3144     4002     4822     5568     6060     6192     6010     5659 
    5183     4550     3886     3342     2828     2139     1305      566 
      45     -319     -576     -659     -485     -114      282      628 
     961     1268     1456     1490     1447     1411     1347     1167 
     910      673      476      346      314      344      388      426 
     432      383      394      617     1001     1407     1812     2297 
    2902     3477     3874     4247     4794     5419     5921     6323 
    6780     7263     7567     7656     7735     7928     8120     8182 
    8154     8111     8015     7775     7382     6943     6561     6195 
    5722     5167     4645     4137     3566     2973     2471     2097 
    1793     1476     1097      636       48     -665    -1411    -2172 
   -3027    -3954    -4814    -5564    -6263    -6868    -7242    -7393 
   -7457    -7443    -7240    -6850    -6406    -5933    -5325    -4558 
   -3750    -2994    -2236    -1390     -484      397     1225     2024 
    2821     3561     4136     4545     4860     5052     5063     4991 
    5007     5130     5179     5017     4718     4389     3947     3299 
    2589     1980     1391      712       80     -316     -543     -824 
   -1217    -1545    -1678    -1713    -1783    -1799    -1607    -1312 
   -1091     -896     -641     -436     -453     -648     -840    -1046 
   -1387    -1754    -1978    -2104    -2228    -2307    -2227    -1994 
   -1720    -1386     -886     -271      338      925     1495     1925 
