Origin Time       2025/01/13 21:19:00
Lat.              31.8
Long.             131.6
Depth. (km)       30
Mag.              6.9
Station Code      KGS018
Station Lat.      31.3757
Station Long.     130.5449
Station Height(m) 51
Record Time       2025/01/13 21:19:50
Sampling Freq(Hz) 100Hz
Duration Time(s)  151
Dir.              E-W
Scale Factor      3920(gal)/6182761
Max. Acc. (gal)   32.062
Last Correction   2025/01/13 21:19:51
Memo.             
[...]
  -10659   -12540   -11176    -7558    -3111     1082     4380     6556 
    7455     6728     4486     1917      296     -325     -362      678 
    3261     6522     9015     9631     8038     5275     2945     1730 
    1493     2091     3525     5405     6817     7331     7303     7123 
    7213     8035     9519    11565    14640    18599    22164    24547 
   26237    27893    29478    30783    32108    33683    34974    35263 
   34367    32561    30311    28035    25751    23044    19494    15080 
   10465     6788     4915     5282     8133    13131    19315    25862 
   32110    37052    39755    40001    38244    35174    31061    25844 
   20179    15400    12075     9480     6839     4350     2367      543 
   -1404    -3155    -4370    -5096    -5815    -7279    -9848   -13149 
  -16672   -20215   -23711   -27204   -30626   -33242   -34250   -33715 
  -32095   -29638   -26588   -23111   -19071   -14302    -9005    -3784 
     852     4961     8846    12848    17494    22941    28607    33784 
   38012    40894    42096    41672    40274    38705    37280    35773 
   33900    31896    30228    28833    27443    26347    25829    25263 
   23736    21059    17639    14248    11862    10616     9369     7220 
    4569     2348     1235     1296     1907     2707     4333     7303 
   10946    14381    17441    20180    22706    25624    29360    33018 
   35282    35965    35524    34252    32442    30175    27074    22817 
   17634    12003     6134      386    -4516    -8363   -11455   -13668 
  -14609   -14411   -13635   -12539   -11076    -9432    -7901    -6639 
   -5870    -5773    -6221    -6876    -7381    -7416    -6638    -4634 
    -941     4670    11654    18829    25161    30185    34036    37204 
   39913    42030    43554    44335    43520    40353    35277    29312 
   22876    16179     9882     5032     2844     3871     7317    11654 
   15513    18102    19343    19522    18574    16040    12021     7598 
    3734      320    -3267    -7315   -11581   -15411   -18335   -20656 
  -22842   -24318   -23667   -20328   -15255    -9800    -4783     -581 
    2500     4093     4075     3084     2388     2630     3019     2401 
     763     -793    -1100      110     2015     3921     6405    10246 
   15071    20376    26409    33030    39082    43102    44166    42461 
   38948    34354    28878    22583    15751     9034     3198    -1230 
   -3887    -4502    -3015      269     4442     8515    12284    15791 
   18693    20795    22056    22186    21167    19567    17828    15875 
   13640    11355     9207     7314     5932     5280     5358     6162 
    7751     9949    12590    15789    19292    22293    24207    25075 
   25109    24254    22404    19723    16495    12909     9086     5127 
    1368    -1452    -2669    -2294     -963      707     2440     4191 
    6122     8162     9619     9946     9191     7604     5655     4133 
    3598     3934     4641     5314     5806     6303     7052     8075 
    9510    11519    13832    15956    17480    18450    19578    21552 
   24632    28758    33041    35684    35515    32849    28276    21931 
   14426     7246     1892     -871    -1251     -166     1501     3220 
    4483     4640     3538     2001      902      358      358      921 
    1668     2458     3723     5632     7828     9847    11284    12109 
   12952    14428    16053    16481    14988    12119     9113     7102 
    6399     6869     8986    13043    17665    20631    20863    18886 
   15799    12574     9976     8139     6689     5464     4384     3212 
    1950      680     -708    -1936    -2439    -2181    -1549     -781 
     320     2073     4227     6175     7601     8611     9676    11188 
   12903    14068    14051    12961    11514    10279     9319     8394 
    7367     6138     4306     1779     -490    -1404    -1045     -351 
     -84     -530    -1326    -1507     -576      935     2700     5088 
    8153    11532    15015    18279    20723    22091    22604    22477 
   22219    22714    23965    24958    25064    24287    22704    20558 
   18324    16604    15919    16181    16534    16000    14392    12305 
   10123     7616     4524     1150    -1668    -3238    -3581    -3260 
   -2756    -2052     -896      646     2366     4352     6752     9460 
   12145    14224    15182    15163    14996    15445    16367    17050 
   17464    18323    20145    22774    25333    26773    26712    25420 
   23265    20670    18276    16603    15774    15637    15777    15748 
   15508    15211    14893    14543    14175    13939    14287    15676 
   17883    20060    21683    22858    23601    23645    22978    21836 
   20506    19441    18851    18275    17048    14860    11675     7676 
    3390     -626    -3686    -4698    -3264     -674     1162     1380 
     260    -1720    -4018    -6034    -7739    -9470   -11070   -11881 
  -11391    -9517    -6745    -4271    -3228    -3709    -5213    -7296 
   -9170    -9817    -9188    -8435    -8659    -9953   -11503   -12060 
  -10553    -6681     -738     6711    14499    21182    26157    29617 
   31749    32894    33703    34270    34235    34208    35336    37535 
   39978    42443    44849    46528    46785    45625    43726    42019 
   41063    40549    39691    37945    35306    32062    28161    23289 
   17532    11477     5857     1295    -1750    -3112    -3037    -1915 
      68     2779     5654     7934     9464    10536    11137    10820 
    9195     6411     2963     -849    -4893    -8798   -12085   -14702 
  -17120   -19857   -23088   -26675   -30251   -33125   -34273   -32751 
  -28147   -20649   -11176    -1327     7428    14285    18834    21087 
   21715    21383    20187    18151    15725    13560    12008    11122 
   10994    11614    12785    14178    15300    16113    17210    18802 
   20424    21520    21703    20981    19711    18034    15794    13022 
   10303     8298     6957     5877     5089     5022     5977     7605 
    9035     9750    10060    10521    11373    12797    14899    17338 
   19380    20285    19966    19088    18363    18201    18407    18314 
   17715    16954    16465    16541    16812    16391    14971    13054 
   10886     8115     4780     1448    -1564    -4035    -5473    -5751 
   -5360    -4555    -3147    -1146     1124     3319     5284     6913 
    7925     8178     7944     7912     8914    11171    14217    17629 
   21176    24527    27250    28983    29644    29391    28322    26405 
   23880    21434    19411    17122    13758     9711     5986     2988 
     737     -722    -1472    -1593    -1112     -249      807     2376 
    4942     8445    12245    15476    17481    18217    18249    18072 
   17599    16923    16687    17002    17245    17041    16468    15676 
   14915    14588    14575    13878    11575     7707     3142    -1155 
   -4774    -7714    -9952   -11332   -11580   -10737    -9335    -7532 
   -4761     -769     3725     7884    11795    16131    21194    26423 
   30699    33421    34730    34760    33600    31662    29598    27750 
   25946    24022    22109    20380    18924    17811    17005    16254 
   15195    13556    11412     9057     6646     4463     3011     2484 
    2660     3143     3592     4054     4920     6456     8495    10484 
   12011    13078    13495    12947    11733    10296     8594     6665 
    4889     3375     1881      394     -897    -1928    -2544    -2572 
   -2056     -964      934     3535     6064     7877     9172    10530 
   12229    14037    15658    17179    18734    20343    22312    25158 
   28883    32532    34781    34984    33429    30739    27254    22887 
   17622    11972     6487     1314    -3378    -7267   -10311   -12609 
  -14011   -14522   -14525   -14176   -13356   -12243   -11240   -10566 
  -10403   -10817   -11305   -11117    -9846    -7417    -4026     -207 
    3180     5554     7341     9399    12087    15262    18606    21920 
   25061    27542    28857    29044    28508    27657    26523    24592 
   21462    17577    13959    11444    10222     9849     9818     9827 
    9620     9291     9310     9987    11254    12631    13346    12787 
   10867     8028     5053     2732     1388      692      149     -410 
    -990    -1479    -1378     -240     1714     3886     5865     7525 
    9005    10676    12791    15114    17226    19060    20761    22164 
   22828    22680    22348    22584    23398    24089    24142    23682 
   22980    22110    21286    20922    21071    21244    21069    20782 
   20870    21483    22211    22511    22187    21211    19587    17570 
   15548    13829    12676    12252    12304    12226    11854    11768 
   12376    13430    14594    15788    16986    18033    18858    19734 
   20928    22323    23487    23887    23309    22080    20689    19309 
   17716    15777    13898    12583    11793    11124    10443     9931 
    9653     9455     8938     7652     5543     2821     -470    -4289 
   -8271   -11930   -14920   -17015   -18245   -18905   -19232   -19150 
  -18438   -17238   -15985   -14754   -13182   -10894    -7811    -4351 
   -1214     1241     3090     4371     5056     5307     5357     5340 
    5364     5472     5526     5460     5606     6414     7948     9871 
   11868    13869    15739    17139    17927    18234    18303    18441 
   18580    18311    17727    17304    17123    17055    17086    17310 
   17848    18524    18764    18064    16469    14594    13154    12559 
   12860    13715    14535    15047    15308    15260    14974    14922 
   15370    16008    16683    17765    19290    20706    21685    22216 
   22222    21713    20763    19137    16706    13970    11340     8655 
    6002     3949     2809     2561     3185     4420     5679     6732 
    7702     8441     8961     9610    10266    10547    10480    10185 
    9793     9801    10683    12250    13874    15188    16156    16656 
   16399    15192    13105    10665     8667     7387     6645     6556 
    7300     8416     9070     8978     8434     7660     6811     6023 
    5196     4284     3500     2983     2682     2663     3177     4414 
    6419     8959    11360    13166    14642    16054    17281    18217 
   18760    18815    18563    18182    17452    16117    14326    12339 
   10280     8457     7277     6686     6340     6124     5857     5182 
    4142     3060     2075     1380     1315     1961     3113     4690 
    6638     8488     9660     9844     8765     6437     3415      203 
   -2950    -5615    -7083    -6961    -5702    -4043    -2276     -520 
    1028     2367     3695     5147     6821     8873    11252    13718 
   16111    18269    19950    20849    20673    19457    17856    16847 
   17002    18435    21208    24940    28700    31829    34164    35650 
   36262    36080    35186    33564    31372    28846    25936    22762 
   19747    16971    14231    11391     8435     5641     3409     1778 
     387     -971    -1954    -2289    -2413    -2748    -2968    -2523 
   -1170      996     3488     5839     8212    11132    14642    18066 
   20715    22379    22954    22230    20087    16666    12615     8892 
    6001     3945     2868     2944     3931     5456     7293     9062 
   10124    10122     9336     8304     7375     6598     5847     5133 
    4720     4679     4586     4024     3088     2009      805     -587 
   -2314    -4370    -6250    -7380    -7660    -7325    -6516    -5148 
   -3190     -969     1017     2542     3883     5438     7130     8682 
   10169    11734    13447    15625    18636    22478    27022    32253 
   37772    42695    46341    48392    48764    47827    46107    43780 
   40931    37839    34631    31217    27727    24531    21736    19162 
   16793    14780    13252    12332    11888    11403    10531     9446 
    8385     7305     6236     5657     6276     8273    10755    12377 
   12631    11991    10819     8925     6149     2717     -893    -4189 
   -6902    -8994   -10405   -11073   -11086   -10540    -9595    -8617 
   -7921    -7565    -7400    -7306    -7504    -8238    -9203    -9826 
   -9885    -9541    -9143    -9025    -9283    -9673    -9707    -9062 
   -7661    -5275    -1707     2673     7065    10775    13530    15351 
   16101    15494    13620    11109     8694     6762     5299     4225 
    3733     4162     5538     7481     9529    11510    13573    15701 
   17533    18823    19618    20116    20521    20872    21000    20854 
   20732    20903    21317    21896    22677    23788    25405    27533 
   29884    31888    32938    32674    30969    28163    25140    22709 
   21295    21005    21425    21735    21442    20699    19654    18120 
   16049    13545    10554     7017     3111     -826    -4511    -7714 
  -10153   -11673   -12316   -11911   -10143    -7133    -3227     1376 
    6431    11560    16262    20024    22642    24267    25130    25352 
   25133    24926    25136    25795    26705    27647    28386    28704 
   28452    27371    25070    21498    17173    12859     9417     7530 
    7264     8325    10393    12965    15477    17723    19693    20912 
   20436    17925    14022     9389     4347     -662    -5060    -8249 
   -9801    -9808    -8709    -6859    -4437    -1622     1244     3757 
    5591     6539     6777     6650     6256     5942     6596     8902 
   12840    17903    23403    28752    33697    38085    41456    43420 
   43924    42786    39802    35084    28969    22137    15535     9736 
    4627     -277    -5457   -11078   -16785   -21931   -26197   -29819 
  -32797   -34768   -36296   -38287   -39954   -40182   -39452   -38216 
  -36441   -34674   -33196   -31745   -30079   -28008   -25526   -22499 
  -18556   -13733    -8534    -3484     1131     5423     9791    14419 
   18975    23012    26369    29012    30979    32474    33599    34315 
   34706    34832    34538    33622    31976    29605    26762    24101 
   22284    21320    20896    20989    21576    22435    23283    23857 
   24139    24308    24624    25367    26506    27692    28702    29599 
   30480    31250    31638    31548    31367    31480    31823    32352 
   33200    34279    35311    36115    36607    36744    36582    36436 
   36714    37440    38209    38613    38554    38056    37028    35403 
   33286    30879    28109    24586    20097    14618     8284     1745 
   -4272    -9469   -13646   -16796   -19384   -21891   -24447   -26955 
  -29080   -30254   -30095   -28672   -26258   -23171   -19796   -16458 
  -13276   -10079    -6469    -2125     2928     8349    13810    19264 
   24852    30543    36057    41194    45771    49278    51159    51198 
   49472    46283    41913    36282    29247    21176    12814     4710 
   -2785    -9278   -14350   -17505   -18537   -18041   -16881   -15574 
  -14386   -13538   -13268   -13526   -14068   -15015   -16551   -18424 
  -20257   -21843   -22988   -23479   -23352   -22643   -21129   -18883 
  -16327   -13668   -10866    -7895    -4984    -2529     -854     -178 
    -393    -1069    -1761    -2011    -1427       94     2343     5071 
    8240    11725    15089    18108    20980    23857    26619    29202 
   31647    33795    35559    37138    38566    39734    40802    41974 
   43165    44085    44435    44031    42754    40541    37479    33724 
   29543    25379    21543    18112    15204    12896    11064     9632 
    8661     8047     7620     7500     7704     7799     7475     6826 
    5948     5133     5174     6501     8583    10702    12586    14432 
   16614    18919    20643    21592    22116    22401    22289    21735 
   20979    19921    18055    15196    11578     7442     3150     -578 
   -3232    -4990    -6179    -6905    -7229    -6971    -5893    -4187 
   -2087      507     3620     6986    10401    13748    16538    18318 
   19257    19724    20029    20309    20275    19644    18530    17199 
   15861    14806    14143    13625    13226    13265    13887    14852 
   15805    16631    17217    17186    16293    14721    12843    11018 
    9575     8652     8154     8027     8270     8707     9200     9780 
   10232    10212     9746     8946     7719     6103     4312     2318 
    -103    -2899    -5678    -8063    -9966   -11378   -12117   -11885 
  -10535    -8388    -6043    -3912    -2211    -1070     -313      605 
    2102     4179     6763     9550    11781    13046    13564    13416 
   12491    10964     9142     7138     5107     3387     2156     1399 
    1223     1716     2665     3801     4993     5967     6558     7067 
    7609     7945     8138     8486     9051     9709    10415    11174 
   11913    12648    13483    14431    15616    17423    20075    23381 
   26997    30408    32880    34020    33941    32697    30301    27070 
   23348    19364    15535    12304     9728     7807     6889     7209 
    8520    10429    12733    15342    18073    20785    23448    25993 
   28398    30536    32067    32809    32833    32049    30203    27400 
   24050    20554    17357    14638    12149     9893     8228     7125 
    6194     5204     3896     1836    -1062    -4418    -7964   -11655 
  -15222   -18244   -20511   -21950   -22447   -21980   -20661   -18432 
  -15144   -11090    -6791    -2506     1475     4710     7052     8600 
    9388     9563     9495     9349     9178     9366    10267    11736 
   13444    15218    16966    18761    20795    22806    24241    24949 
   24979    24362    23300    21993    20526    19087    17943    17194 
   16725    16510    16672    17154    17800    18522    19120    19350 
   19062    18170    16830    15469    14443    13782    13415    13531 
   14303    15462    16558    17301    17463    16868    15468    13205 
   10080     6435     2738     -755    -3787    -5934    -6930    -6750 
   -5422    -3127     -358     2336     4737     6801     8314     9043 
    8892     7890     6172     3888     1267    -1399    -3826    -5866 
   -7722    -9588   -11274   -12471   -12946   -12520   -11154    -8962 
   -6036    -2320     2149     7086    12127    16958    21347    25059 
   27885    29847    31197    32244    33151    33780    33913    33580 
   33100    32831    32866    33076    33377    33679    33749    33347 
   32321    30621    28494    26350    24393    22595    20852    19064 
   16988    14332    11088     7480     3874      656    -2108    -4557 
   -6567    -7690    -7635    -6605    -5000    -3127    -1081     1233 
    3742     6210     8452    10292    11670    12634    13071    12862 
   12069    10892     9587     8115     6190     3872     1499     -784 
   -2850    -4326    -4894    -4479    -3235    -1575      159     2035 
    4248     6722     9219    11531    13470    15052    16376    17327 
   17854    18189    18533    18885    19213    19461    19626    19822 
   20044    20206    20363    20573    20710    20713    20635    20375 
   19777    18726    17147    15183    13177    11368     9833     8622 
    7761     7310     7310     7571     7925     8554     9606    10713 
   11347    11316    10531     8905     6615     3929     1010    -1916 
   -4578    -6882    -8793   -10160   -10822   -10662    -9620    -7809 
   -5502    -2913     -238     2159     3972     5185     5803     5667 
    4850     3753     2651     1663     1026      924     1229     1855 
    2942     4382     5905     7628     9717    11896    13948    15980 
   18026    20136    22409    24650    26567    28145    29510    30706 
