Origin Time       2025/01/13 21:19:00
Lat.              31.8
Long.             131.6
Depth. (km)       30
Mag.              6.9
Station Code      KGS023
Station Lat.      31.1990
Station Long.     130.8490
Station Height(m) 179
Record Time       2025/01/13 21:19:49
Sampling Freq(Hz) 100Hz
Duration Time(s)  120
Dir.              E-W
Scale Factor      3920(gal)/6182761
Max. Acc. (gal)   23.104
Last Correction   2025/01/13 21:19:50
Memo.             
[...]
   12369    18329    24628    31044    37217    42760    47679    51715 
   54315    55181    54419    52534    50317    48177    45677    42459 
   38334    32673    25632    18289    11218     4547    -1413    -6121 
   -9421   -11712   -13042   -13125   -11875    -9762    -7958    -6928 
   -5345    -1742     3482     8878    13722    17606    19833    20077 
   18850    17306    16296    16029    16863    19134    22316    25616 
   29006    32754    36414    39154    40792    41641    41515    40161 
   38445    37542    37228    36368    34531    32339    30722    29566 
   27953    25937    24099    22475    20669    18184    15184    12212 
    9562     7375     5889     6005     8155    11552    15577    20043 
   24768    29416    33344    35731    35999    34364    31115    26218 
   20224    14028     8186     3022     -903    -3176    -4462    -5175 
   -4832    -3923    -3063    -1554     1406     6189    12326    18401 
   23615    28328    32892    36912    40187    42967    44867    45574 
   45542    44547    41630    37168    32831    29491    26915    24486 
   21728    18727    15665    12499     9339     6943     5725     4846 
    4171     4617     6357     8745    11002    13084    15443    17971 
   20171    21652    22341    22187    21072    19401    18007    17473 
   17483    17441    17542    18088    18892    19910    21477    23883 
   26995    30317    33120    34890    35515    34831    33100    31072 
   28768    25874    22581    19146    15940    13329    11071     9004 
    7720     7473     7526     7299     7147     7659     8839    10318 
   12175    14886    18368    21984    25303    28289    30999    33128 
   34117    33952    33158    31882    29777    26780    23286    19717 
   16503    13995    12234    11215    10856    10780    10795    11310 
   12812    15184    17997    20695    22743    24550    26882    29407 
   31351    32570    33446    34357    34921    34213    32042    29048 
   25875    23022    20870    19363    17863    15921    13943    11943 
    9241     6121     3521     1835     1197     1757     3389     5520 
    7389     8454     8895     9463    10371    11402    12788    14670 
   16638    18618    21089    23849    26051    27656    29145    30543 
   31890    33403    34886    35857    36180    36147    35900    35229 
   34098    32872    31991    31670    31688    31835    32347    33072 
   33444    33046    31531    29073    25907    21954    17609    13506 
   10279     8091     6188     4338     3426     4202     6185     7923 
    8584     8713     9231    10280    11492    12580    13308    13791 
   14321    14801    15114    15283    15034    14198    13428    13618 
   14860    16789    19150    21472    23134    24037    24529    24525 
   23821    23028    22754    22896    23586    25225    27574    29995 
   32022    33256    33446    32734    31266    29004    26347    23969 
   21716    18969    16133    14132    12864    11987    11773    12187 
   13233    15264    18149    21782    25892    29271    31102    31720 
   31576    30499    28336    25653    23076    20863    18998    17288 
   15923    15327    15487    15981    16655    17744    18847    19247 
   19213    19368    19666    19648    19146    18730    18972    19439 
   19512    19665    20696    22346    23732    24557    25080    25293 
   24922    23862    22065    19739    17435    15385    13622    12446 
   11989    12029    12485    13490    14933    16495    18146    20053 
   22166    24325    26415    28162    29228    29420    28560    26632 
   23807    20387    17163    15032    14137    13934    13755    13096 
   11993    11038    10478    10084     9987    10434    11236    12165 
   13352    15046    17176    19581    22297    25056    27010    27483 
   26626    25108    23654    22877    22925    23484    24197    24661 
   24622    24472    24546    24543    24317    23783    22535    20616 
   18634    16938    15403    14337    14422    15383    16365    17026 
   17650    18753    20215    21424    22112    22288    22118    21738 
   21148    20741    21147    22157    22796    22667    22305    22186 
   22101    21574    20410    18664    16526    14182    11784     9886 
    9148     9323     9827    11229    14475    18873    22833    25953 
   28741    31286    33161    34073    34137    33691    33261    33245 
   33423    33610    33937    33959    33385    32902    32795    32469 
   31461    29847    27988    26335    25180    24056    22419    20605 
   18855    16650    13545     9958     6670     3989     2140     1306 
    1146     1081      687       -7     -357      300     1585     2466 
    2842     3363     4293     5464     6829     8723    11427    14993 
   19189    23264    26704    29518    31607    33074    34310    35268 
   35595    35324    34734    33714    32028    30070    28314    26697 
   25316    24436    23962    23719    23477    23316    23752    24695 
   25541    25991    26182    26450    26822    26994    26599    25496 
   23987    22488    21282    20546    20138    19540    18333    16676 
   15023    13556    12229    11165    10601    10707    11675    13591 
   16273    19246    22049    24448    26028    26377    25658    24479 
   23534    23189    23258    23190    22414    20844    18919    16822 
   14167    10789     7153     3839     1231     -645    -1968    -2464 
   -1643      593     4006     8044    12030    15765    19388    22764 
   25612    27878    29502    30480    31467    33076    34690    35446 
   35512    35425    35528    36119    37180    38305    39252    40117 
   40893    41672    42599    42831    41333    38664    35790    32550 
   28833    25262    21817    17653    12992     9105     6254     3829 
    1677       26     -797     -741     -364      -12      743     2327 
    4284     5590     5952     5955     5919     6074     6992     8769 
   10831    12589    13908    15101    16355    17688    19317    21227 
   23054    24764    26680    28988    31607    34195    36281    37393 
   37213    36024    34441    32622    30690    29088    27575    25522 
   23238    21380    20215    19933    20118    19905    18866    17069 
   15228    14020    13383    13275    13455    13097    11647     9455 
    7441     6463     6960     8431     9827    10945    12229    13786 
   15334    16712    18106    19506    20537    20968    20910    20673 
   20490    20468    20690    21061    21291    21240    21084    21166 
   21715    22448    22894    23269    24227    26052    28755    32356 
   36683    41011    44212    45912    46959    47918    48263    47452 
   45567    43029    40058    36376    31821    26551    20773    15258 
   10939     7519     3862      -63    -2954    -4241    -4725    -5130 
   -5397    -5002    -3607    -1371     1471     4892     8776    12556 
   15539    17471    18478    18718    18115    16787    15549    15147 
   15617    16989    19608    23408    27672    31630    34796    37172 
   39162    40622    40998    40657    40186    38816    35767    31956 
   28334    24569    20405    15970    11240     6571     2643      -10 
   -1100     -513     1598     4530     7548    10154    11970    13312 
   14760    16446    18477    21005    23814    26315    28145    29405 
   30222    30673    30655    29868    28277    26053    23427    20921 
   19172    18288    17917    17937    18124    18046    17832    18091 
   19364    21506    23674    25376    26852    28566    30472    32018 
   33122    33864    33706    32209    29808    27443    25511    23695 
   21819    20048    18427    16663    14503    12285    10617     9499 
    8356     7157     6593     6961     8206    10473    13569    17105 
   20967    24630    27360    29512    31682    33056    32725    31160 
   28845    25584    21722    18153    15475    14162    14197    14447 
   14323    14320    13950    12079     8792     5144     1933     -717 
   -2676    -3432    -2524       52     3718     8094    13384    19382 
   25014    29183    31678    33064    34073    35123    35988    36412 
   36822    37280    36803    34964    32515    29933    27109    23913 
   20227    16304    12949    10647     9165     8732    10245    13491 
   17055    20012    22103    23109    23002    21747    19320    16746 
   15652    16321    17667    18956    20198    21379    22417    23405 
   24491    25764    27131    28219    28748    28938    28995    29034 
   29651    31106    32817    34264    35381    36395    37259    37484 
   36711    34642    31131    26413    20902    15408    11005     8135 
    6491     6022     6904     8821    11534    14649    17353    19568 
   21749    23989    26057    27730    29026    30043    30698    30477 
   28924    26386    23456    20492    17776    15263    12423     8856 
    4896     1021    -2488    -5033    -6025    -5393    -3356     -315 
    3143     6693    10466    14381    18000    21118    23680    25729 
   27654    29501    30569    30598    30149    29336    27818    25875 
   23769    21218    18558    16528    15189    14668    15344    16602 
   17306    17247    16843    16196    15087    13382    11409     9974 
    9672    10384    11763    13781    16387    19268    22230    24949 
   26672    26958    26258    25255    24217    23510    23606    24204 
   24916    25946    26861    27038    26961    26975    27298    28747 
   31171    33669    35696    36928    37354    37043    36358    35800 
   35314    34771    34033    32878    31319    29433    27211    24834 
   22865    21359    19844    18345    16912    15172    12852    10153 
    7559     5438     4052     3407     3499     4760     7159     9876 
   12343    14307    15317    15244    14582    13729    12666    11415 
   10083     8601     6981     5454     4206     3555     4052     5754 
    8078    10618    13241    15938    18961    22162    24683    26211 
   27490    29046    30727    32623    35106    38141    41251    43764 
   45078    45049    43988    42046    39149    35928    32998    29498 
   24854    19927    15170    10630     6917     4556     3514     3411 
    4071     5649     8105    11233    14726    17987    20563    22523 
   23959    24650    24709    24689    24884    25205    25243    24431 
   22725    20755    19003    17249    15112    12678    10540     9347 
    8966     8736     8516     8588     8972     9468    10198    11434 
   12991    14541    16051    17568    19162    20760    21971    22734 
   23639    25024    26431    27466    28208    28685    29049    29687 
   30948    33156    36197    39462    42587    45493    47941    49599 
   50295    50017    48822    46916    44524    41594    37942    33407 
   27886    21737    15630     9941     4795      504    -2419    -4007 
   -4969    -5859    -6963    -8309    -9450    -9988   -10032    -9724 
   -8863    -7444    -5452    -2302     2123     7001    11559    15469 
   18516    20374    20917    20432    19464    18561    17800    17228 
   17545    19140    21535    24130    26307    27451    27532    27118 
   26776    26922    28240    31130    34640    37734    40653    43439 
   45534    46840    47040    45487    41927    36142    28378    20017 
   12462     5816       97    -3448    -4262    -3331    -1501     1081 
    4327     7558    10020    11783    13640    16255    19437    22881 
   26606    30256    33458    36469    39717    42891    45029    45585 
   44729    42697    39279    34445    29059    23875    18984    14654 
   11336     9450     9308    10488    12107    13502    14234    14092 
   13245    12527    12901    14518    16927    19882    23425    27059 
   30004    31909    32358    31094    28241    23663    17747    11759 
    6148      593    -4684    -9170   -11658   -11163    -8666    -5261 
   -1394     2489     6328     9835    13248    17245    21613    26372 
   31642    36773    41044    44242    46730    48417    48849    48442 
   48096    48297    48977    49498    48324    44585    39337    33315 
   26420    19126    12088     6007     1757      -69      466     2895 
    6827    11387    15348    18226    20046    20914    21112    20711 
   19399    17079    14187    11201     8484     6518     5668     5929 
    7231     9953    14041    18332    22229    25368    26558    25428 
   22162    17030    11311     6484     3628     2916     3858     6279 
    9516    12821    16202    19286    21324    22018    21743    21344 
   20994    20250    19271    18166    17051    16946    18162    20179 
   23039    26286    29128    31311    32459    32789    32889    32714 
   32298    31495    29850    27443    24987    22998    21124    19477 
   18630    18353    18477    19318    21261    24358    28294    32772 
   37079    40569    42970    43747    42839    40899    38456    35822 
   33331    31215    29242    26884    24066    21092    18054    15112 
   12343     9384     6230     3174      394    -1782    -3024    -2988 
   -1490     1246     4881     8930    12904    16628    19935    22385 
   23823    24759    25437    25725    25748    25522    24786    23113 
   20142    16228    12245     8891     6413     4790     4066     4193 
    5149     6849     8669    10335    12478    15513    19221    23154 
   26954    30488    33508    35359    35566    34486    32582    29662 
   25618    21068    16656    12498     8749     5400     1941    -1492 
   -4418    -7042    -9366   -10871   -11160    -9985    -7253    -3237 
    1445     6659    12933    20249    28019    35687    42513    47968 
   52232    55338    56663    56267    55298    54332    53309    52462 
   51400    49281    46030    41650    36157    30149    24400    19644 
   16371    15136    16399    19522    23349    27262    30739    32995 
   33952    34020    33141    31237    28133    23891    19430    15596 
   12569    10088     7969     5946     3494      552    -2827    -6402 
   -9393   -11117   -10764    -7790    -2531     4602    13207    22373 
   30985    38217    43468    46517    47783    47712    46749    45502 
   43703    40457    35661    29616    22648    15690     9316     3670 
    -895    -4730    -7998   -10292   -11854   -12772   -12737   -11603 
   -9533    -7008    -4064     -403     4206     9547    14734    19044 
   22059    23661    24152    24063    24120    24530    25073    25673 
   26143    26558    27214    27944    28390    28462    28264    27912 
   27556    27311    27258    27699    28732    29872    30903    32185 
   33775    35253    36406    37205    37381    36834    35716    33893 
   31104    27233    22575    18045    14364    11694    10342    10474 
   11799    14115    17045    20081    23110    25977    28314    29823 
   30470    30430    29809    28872    27856    26735    25647    24569 
   23292    21976    20683    19206    17710    16365    14845    13143 
   11636    10343     9410     9181     9457     9894    10535    11301 
   11866    12324    13163    14444    15758    16839    17506    17448 
   16538    14921    12789    10345     7751     5082     2530      413 
   -1004    -1461     -827      605     2590     5501     9711    14758 
   19628    23614    26551    28510    29624    29946    29611    29127 
   28771    28338    28081    28492    29300    30100    30935    31793 
   32433    32651    32608    32461    32031    31316    30382    29395 
   28673    28040    27222    26223    25016    23601    22027    20500 
   19168    17954    17093    17059    17910    19265    20788    22297 
   23805    25333    26544    27204    27398    27259    27010    26684 
   26116    25396    24844    24490    23749    22145    19858    17065 
   13814    10345     6856     3491      506    -1853    -3473    -4265 
   -4127    -3135    -1516      588     3095     5858     8863    12396 
   16706    21664    26872    31769    35983    39564    42473    44686 
   46608    48410    49827    50820    51433    51340    50244    48321 
   45758    42574    39043    35302    31262    27316    23962    21091 
   18554    16582    15076    13662    12466    11661    10888     9923 
    9020     8213     7253     6224     5180     3738     1819     -177 
   -2192    -4427    -6689    -8706   -10414   -11558   -11816   -11066 
   -9178    -6098    -2288     1448     4839     8288    11978    15520 
   18437    20620    22279    23464    23978    24076    24486    25419 
   26645    28199    30155    32380    34798    37350    39864    42153 
   44087    45595    46587    47045    47106    46711    45774    44563 
   43189    41629    40117    38636    36919    34657    31407    27025 
   21798    16216    10934     6572     3524     1806     1241     1751 
    3120     5081     7679    10818    14038    17190    20450    23715 
   26754    29591    32044    33332    32901    31016    28225    24962 
   21615    18362    15196    12318     9925     7904     6324     5360 
    4740     4103     3363     2419     1197       21     -554     -257 
     928     3058     6255    10624    15877    21208    25929    29802 
   32698    34494    35399    35912    36285    36405    36262    35860 
   35044    34094    33320    32477    31418    30109    28502    26669 
   24584    22364    20113    18163    17232    17325    18150    19700 
   21845    24424    26726    27982    28450    28570    28408    27986 
   27283    26207    24640    22590    20191    17641    15137    12711 
   10471     8707     7559     6874     6348     6020     6256     6943 
    7598     8056     8338     8496     8766     9380    10326    11697 
   13671    16078    18706    21483    24103    26255    27924    29171 
   29948    30253    30281    30077    29541    28821    28063    27291 
   26652    26128    25485    24819    24324    23626    22380    20818 
   19160    17434    15718    14184    12997    12283    12329    13233 
   14617    16119    17455    18318    18712    18816    18640    18216 
   17947    18317    19403    20975    22740    24528    26337    28061 
   29440    30290    30669    30835    31031    31312    31572    31709 
   31721    31657    31596    31615    31719    31735    31309    30245 
   28465    25873    22795    19695    16580    13557    10954     8702 
    6629     4878     3431     2036      881      364      360      515 
     734     1018     1450     2335     3769     5411     7100     8889 
   10556    11962    13181    14202    15322    16948    18867    20684 
   22352    23896    25284    26564    27768    28746    29400    29907 
   30352    30617    30822    31262    32029    33018    34061    34932 
   35596    36264    36825    36812    36137    35014    33523    31773 
   29826    27565    25013    22463    20197    18161    16196    14344 
   12572    10874     9491     8545     8062     8133     8675     9457 
   10391    11514    12721    13799    14632    15141    15337    15331 
   15124    14729    14414    14417    14709    15273    16086    16947 
   17917    19326    21113    22941    24677    26223    27411    28261 
   28784    28840    28621    28493    28332    27835    26963    25587 
   23457    20748    18066    15908    14571    14214    14528    15011 
   15604    16356    17115    17948    19054    20263    21214    21825 
   22212    22509    23015    23925    24949    25712    26059    25731 
   24628    23211    21817    20220    18311    16336    14605    13487 
   13176    13450    14019    14784    15571    16131    16571    17248 
