Origin Time       2025/01/13 21:19:00
Lat.              31.8
Long.             131.6
Depth. (km)       30
Mag.              6.9
Station Code      KGS012
Station Lat.      31.6057
Station Long.     130.5740
Station Height(m) 4
Record Time       2025/01/13 21:20:00
Sampling Freq(Hz) 100Hz
Duration Time(s)  159
Dir.              U-D
Scale Factor      7845(gal)/8223790
Max. Acc. (gal)   6.140
Last Correction   2025/01/13 21:20:01
Memo.             
[...]
    8101     7983     8210     8668     8947     8980     8843     8625 
    8436     8228     7888     7538     7447     7495     7300     6980 
    6943     7138     7304     7321     7057     6658     6550     6735 
    6813     6743     6725     6758     6764     6768     6858     6997 
    7045     7037     7038     7017     7026     7103     7123     7040 
    6917     6768     6659     6794     7202     7614     7781     7635 
    7348     7271     7460     7612     7545     7366     7233     7057 
    6820     6801     7011     7156     7157     7090     6905     6619 
    6447     6432     6430     6461     6461     6300     6165     6184 
    6205     6161     6021     5791     5668     5713     5775     5833 
    5946     6045     6124     6355     6704     6974     7226     7593 
    7978     8251     8464     8621     8573     8538     8827     9067 
    9042     9150     9375     9477     9644     9799     9741     9833 
   10239    10557    10632    10704    10933    11365    11854    12094 
   12179    12336    12599    13058    13439    13454    13408    13521 
   13649    13699    13637    13448    13205    12943    12590    12160 
   11773    11475    11222    10894    10386     9790     9283     8991 
    8877     8731     8428     8132     7996     7917     7777     7589 
    7399     7335     7410     7389     7231     7129     7159     7264 
    7380     7395     7215     6997     6883     6791     6735     6804 
    6868     6767     6517     6211     5979     6004     6238     6367 
    6353     6362     6415     6544     6724     6847     6966     7072 
    7115     7141     7175     7333     7555     7546     7379     7335 
    7425     7537     7573     7443     7271     7277     7415     7572 
    7780     7973     8058     8151     8336     8468     8479     8498 
    8629     8862     9126     9331     9436     9456     9486     9597 
    9737     9848     9907     9890     9805     9745     9768     9853 
    9976     9976     9763     9570     9563     9706     9867     9759 
    9431     9290     9458     9680     9630     9239     8766     8496 
    8527     8658     8608     8337     7992     7740     7624     7573 
    7558     7615     7735     7834     7843     7786     7773     7932 
    8201     8379     8418     8405     8360     8290     8297     8440 
    8615     8698     8621     8397     8170     8114     8237     8349 
    8264     7971     7695     7728     8083     8500     8699     8540 
    8229     8110     8287     8629     8881     8914     8796     8680 
    8722     8887     9015     9016     8953     9008     9140     9157 
    9049     8899     8830     8895     8999     9128     9231     9177 
    9028     8918     8866     8881     8954     8988     8888     8679 
    8453     8303     8243     8284     8449     8581     8500     8262 
    8043     8012     8248     8549     8611     8438     8210     8013 
    7935     7960     7869     7619     7381     7252     7223     7171 
    6949     6612     6339     6241     6311     6473     6575     6494 
    6311     6193     6145     6142     6231     6288     6188     6080 
    6011     5925     5922     5973     5934     5883     5940     6083 
    6255     6470     6728     6894     6976     7152     7381     7546 
    7636     7690     7821     8101     8457     8710     8758     8749 
    8779     8748     8635     8544     8572     8738     8915     8966 
    8931     8926     8961     9016     9080     9144     9252     9373 
    9408     9394     9477     9651     9757     9701     9533     9425 
    9479     9633     9864    10120    10284    10399    10504    10548 
   10621    10781    10902    10918    10860    10771    10659    10463 
   10169     9848     9526     9225     8993     8791     8568     8376 
    8162     7786     7337     6982     6731     6574     6534     6504 
    6393     6327     6388     6520     6644     6647     6519     6405 
    6393     6458     6562     6656     6696     6693     6694     6728 
    6802     6879     6925     6968     7067     7245     7392     7388 
    7294     7276     7446     7715     7874     7867     7827     7905 
    8128     8367     8472     8406     8291     8240     8264     8409 
    8673     8984     9293     9522     9589     9540     9509     9587 
    9757     9923     9987     9934     9894    10035    10319    10500 
   10524    10523    10552    10665    10843    10949    11013    11141 
   11242    11215    11097    10875    10554    10319    10278    10280 
   10183    10010     9856     9798     9859     9969     9975     9886 
    9865     9906     9940     9964     9906     9718     9489     9293 
    9148     9138     9263     9298     9147     8942     8737     8590 
    8586     8579     8370     7989     7550     7206     7155     7352 
    7508     7420     7177     7015     6944     6849     6745     6637 
    6538     6528     6577     6589     6617     6723     6774     6725 
    6739     6872     7053     7194     7256     7284     7263     7190 
    7229     7403     7541     7592     7658     7732     7749     7777 
    7878     8054     8290     8538     8772     8883     8827     8831 
    8901     8792     8592     8495     8370     8124     7927     7827 
    7703     7543     7423     7375     7364     7312     7252     7276 
    7408     7566     7653     7749     7905     8035     8245     8631 
    8958     9088     9223     9477     9772    10119    10408    10458 
   10435    10511    10612    10671    10577    10339    10158    10006 
    9725     9460     9354     9254     9153     9116     8922     8568 
    8424     8549     8635     8559     8436     8309     8195     8167 
    8213     8220     8094     7921     7879     7905     7862     7784 
    7696     7676     7844     8070     8109     7977     7790     7564 
    7356     7279     7248     7122     6918     6740     6675     6756 
    6966     7180     7338     7497     7561     7549     7699     7954 
    8164     8445     8833     9108     9185     9171     9119     9094 
    9181     9348     9481     9435     9189     8914     8770     8772 
    8781     8672     8503     8364     8193     8005     7905     7763 
    7515     7400     7350     7136     6912     6771     6621     6556 
    6601     6558     6457     6511     6646     6651     6596     6621 
    6674     6706     6745     6743     6727     6843     7028     7057 
    7015     7090     7175     7269     7515     7732     7731     7747 
    7944     8178     8429     8658     8683     8648     8831     9165 
    9455     9644     9769     9842     9869     9911     9965     9969 
    9923     9890     9844     9721     9602     9535     9428     9269 
    9113     9004     8943     8950     9013     9039     9055     9134 
    9174     9151     9150     9154     9123     9049     8791     8252 
    7773     7681     7763     7789     7766     7614     7354     7242 
    7298     7362     7550     7839     7897     7759     7719     7847 
    8079     8322     8503     8533     8388     8253     8237     8274 
    8351     8430     8432     8386     8363     8352     8357     8363 
    8239     7992     7801     7722     7645     7493     7346     7326 
    7415     7523     7578     7572     7576     7646     7751     7830 
    7885     7935     7952     7962     7954     7857     7734     7700 
    7716     7744     7850     7967     7993     7948     7786     7519 
    7303     7173     7150     7249     7283     7160     7075     7209 
    7464     7601     7561     7516     7666     8021     8397     8614 
    8650     8580     8503     8496     8537     8542     8569     8753 
    9054     9351     9533     9512     9396     9466     9771    10027 
   10131    10196    10141     9975     9861     9779     9724     9737 
    9741     9672     9594     9517     9389     9305     9377     9463 
    9398     9262     9188     9134     9077     9073     9112     9254 
    9432     9402     9261     9251     9332     9405     9463     9437 
    9340     9337     9429     9410     9197     8895     8680     8586 
    8429     8194     7996     7834     7767     7798     7781     7739 
    7789     7861     7893     7970     8051     8039     7990     7867 
    7592     7311     7190     7233     7256     7122     6991     6939 
    6916     6991     7045     6939     6862     6876     6853     6918 
    7057     6940     6674     6573     6637     6899     7238     7406 
    7524     7701     7878     8106     8328     8518     8792     8978 
    8959     9055     9270     9383     9533     9668     9672     9759 
    9892     9945    10057    10219    10343    10463    10525    10494 
   10461    10457    10547    10732    10804    10764    10783    10791 
   10820    10956    10963    10787    10620    10465    10396    10504 
   10631    10669    10686    10704    10665    10578    10508    10473 
   10384    10193     9990     9780     9548     9320     9018     8662 
    8414     8278     8183     8114     7992     7724     7383     7091 
    6882     6737     6621     6467     6238     5919     5593     5433 
    5398     5296     5204     5202     5128     4996     4981     5054 
    5139     5209     5197     5165     5196     5138     4976     4904 
    4959     5073     5236     5350     5319     5273     5287     5283 
    5281     5220     5088     5104     5275     5360     5316     5262 
    5259     5301     5358     5364     5301     5259     5347     5548 
    5752     5927     6102     6280     6489     6675     6804     6975 
    7194     7384     7573     7809     8094     8426     8775     9063 
    9289     9485     9682     9969    10342    10683    10972    11269 
   11618    11970    12236    12465    12737    12978    13166    13375 
   13579    13740    13856    13863    13786    13734    13702    13668 
   13663    13632    13495    13288    13101    12970    12874    12802 
   12744    12711    12723    12727    12610    12361    12140    12069 
   12029    11869    11591    11248    10933    10716    10509    10242 
    9977     9813     9741     9693     9680     9640     9451     9188 
    9019     8962     8866     8660     8382     8027     7592     7165 
    6840     6589     6367     6138     5819     5485     5273     5127 
    4963     4791     4634     4503     4371     4218     4028     3844 
    3767     3761     3731     3636     3433     3154     2949     2907 
    3010     3171     3298     3418     3645     3971     4303     4607 
    4823     4946     5142     5454     5742     5976     6218     6519 
    6926     7383     7766     8075     8406     8812     9207     9471 
    9706    10046    10407    10683    10875    11059    11273    11450 
   11596    11703    11765    11880    12017    12112    12178    12128 
   11932    11735    11562    11335    11099    10889    10660    10461 
   10309    10137     9995     9952     9913     9803     9647     9452 
    9217     8989     8808     8642     8472     8289     8098     7946 
    7842     7727     7534     7300     7113     6974     6882     6808 
    6696     6609     6590     6586     6575     6569     6569     6550 
    6524     6597     6782     6956     7055     7115     7157     7192 
    7249     7275     7226     7149     7111     7146     7261     7410 
    7516     7570     7651     7782     7952     8178     8380     8472 
    8496     8553     8689     8841     8953     9036     9063     9078 
    9148     9175     9074     8928     8831     8775     8754     8776 
    8779     8783     8803     8776     8742     8788     8899     9053 
    9239     9359     9379     9373     9335     9296     9351     9440 
    9531     9713     9940    10052    10030     9998    10031    10110 
   10193    10238    10206    10080     9921     9809     9755     9722 
    9639     9467     9298     9178     9094     9027     8900     8694 
    8432     8136     7916     7820     7747     7614     7497     7504 
    7565     7604     7635     7665     7720     7808     7893     7948 
    7944     7935     8005     8087     8093     8041     7997     8000 
    8094     8263     8407     8487     8525     8519     8471     8411 
    8399     8424     8444     8463     8452     8367     8244     8214 
    8321     8402     8344     8176     7952     7773     7670     7584 
    7465     7311     7137     6941     6758     6646     6601     6570 
    6515     6400     6169     5864     5621     5449     5298     5143 
    4932     4719     4614     4607     4615     4608     4606     4634 
    4716     4822     4911     5063     5337     5687     6025     6215 
    6272     6384     6654     7069     7523     7911     8244     8573 
    8926     9296     9622     9840     9996    10206    10458    10687 
   10839    10889    10929    11021    11141    11272    11356    11350 
   11314    11287    11246    11199    11234    11348    11412    11367 
   11221    11064    11013    11094    11267    11435    11504    11511 
   11566    11680    11763    11799    11767    11659    11515    11325 
   11132    11017    10926    10785    10577    10342    10162    10071 
   10056    10045     9927     9675     9394     9220     9192     9285 
    9402     9414     9359     9300     9207     9144     9182     9202 
    9089     8883     8641     8374     8120     7886     7628     7357 
    7102     6880     6691     6515     6309     6029     5726     5486 
    5285     5085     4878     4618     4272     3855     3445     3153 
    2999     2890     2731     2535     2367     2231     2114     1996 
    1902     1962     2201     2466     2700     2983     3300     3581 
    3842     4068     4283     4611     5007     5337     5614     5860 
    6073     6334     6706     7110     7449     7793     8176     8509 
    8795     9103     9420     9747    10091    10318    10377    10484 
   10755    11078    11411    11738    11971    12163    12437    12706 
   12831    12958    13203    13389    13450    13540    13702    13817 
   13879    13942    13892    13718    13612    13574    13498    13409 
   13275    13061    12903    12845    12753    12625    12496    12267 
   11963    11742    11572    11323    11044    10790    10470    10153 
   10011     9895     9624     9328     9084     8865     8742     8675 
    8465     8159     7960     7815     7659     7603     7537     7325 
    7119     7001     6866     6740     6659     6511     6273     6049 
    5849     5660     5522     5445     5344     5182     5051     4955 
    4828     4756     4762     4720     4679     4787     4884     4827 
    4838     4961     4966     4911     4943     5011     5128     5379 
    5644     5792     5913     6085     6272     6498     6791     7037 
    7182     7348     7527     7618     7713     7879     8000     8064 
    8147     8236     8343     8473     8513     8441     8410     8459 
    8505     8526     8545     8552     8530     8486     8429     8390 
    8418     8452     8374     8263     8257     8279     8221     8171 
    8247     8374     8455     8503     8494     8449     8506     8696 
    8924     9051     9013     8930     8928     9043     9217     9352 
    9478     9683     9918    10039    10066    10123    10207    10322 
   10458    10478    10358    10227    10126    10031     9971     9950 
    9940     9930     9886     9757     9605     9506     9448     9454 
    9574     9710     9709     9562     9402     9324     9304     9304 
    9286     9178     9000     8880     8802     8656     8475     8340 
    8274     8283     8314     8264     8179     8170     8168     8128 
    8136     8212     8328     8433     8515     8596     8650     8726 
    8854     8927     8937     8916     8839     8800     8885     8973 
    8958     8891     8830     8779     8783     8850     8914     8930 
    8887     8814     8741     8652     8552     8452     8402     8421 
    8424     8395     8349     8252     8144     8108     8162     8243 
    8290     8311     8253     8064     7847     7724     7676     7655 
    7635     7569     7457     7319     7163     7009     6878     6810 
    6798     6758     6677     6571     6471     6389     6253     6054 
    5890     5800     5746     5671     5589     5549     5545     5529 
    5501     5512     5567     5622     5657     5671     5664     5665 
    5698     5786     5868     5869     5864     5899     5903     5895 
    5937     5998     6043     6123     6251     6388     6563     6770 
    6932     7063     7241     7477     7711     7919     8118     8284 
    8405     8509     8575     8559     8530     8619     8769     8889 
    8999     9070     9107     9148     9165     9163     9196     9262 
    9317     9396     9510     9556     9529     9506     9497     9498 
    9514     9560     9602     9603     9625     9699     9774     9829 
    9877     9918     9954     9996    10019    10006    10025    10083 
   10125    10161    10218    10312    10435    10547    10616    10611 
   10577    10589    10616    10596    10534    10442    10354    10301 
   10239    10156    10100    10027     9857     9674     9590     9586 
    9552     9400     9146     8899     8780     8803     8818     8745 
    8630     8484     8367     8376     8456     8461     8397     8330 
    8287     8333     8452     8496     8438     8363     8283     8156 
    7989     7824     7686     7576     7474     7380     7257     7055 
    6870     6802     6808     6825     6806     6741     6677     6629 
    6597     6562     6507     6489     6544     6574     6523     6473 
    6457     6455     6471     6466     6459     6502     6548     6579 
    6621     6650     6660     6686     6714     6736     6778     6812 
    6821     6853     6874     6863     6872     6852     6791     6783 
    6841     6922     6947     6871     6844     6947     7034     7098 
    7246     7404     7501     7626     7757     7861     8046     8343 
    8662     8928     9147     9401     9668     9872    10057    10276 
   10481    10635    10775    10924    11091    11267    11369    11423 
   11561    11770    11951    12063    12128    12194    12240    12232 
   12225    12226    12147    12005    11911    11885    11850    11734 
   11568    11450    11385    11290    11169    11088    11024    10945 
   10903    10899    10875    10827    10752    10644    10538    10451 
   10330    10169    10044     9945     9782     9552     9346     9194 
    9109     9066     8974     8826     8703     8610     8459     8257 
    8141     8113     8051     7908     7704     7507     7383     7287 
    7133     6914     6712     6534     6347     6196     6062     5906 
    5790     5734     5674     5580     5481     5417     5412     5400 
    5285     5101     4965     4901     4851     4793     4754     4711 
    4645     4610     4606     4590     4599     4685     4796     4868 
    4931     4993     5038     5109     5189     5215     5246     5340 
    5424     5464     5513     5537     5530     5586     5697     5772 
    5799     5805     5833     5923     6056     6199     6346     6473 
    6602     6808     7101     7414     7672     7874     8110     8375 
    8581     8788     9093     9433     9693     9852    10003    10210 
   10463    10725    10893    10972    11124    11341    11518    11654 
   11766    11858    11943    12075    12226    12262    12204    12159 
   12113    12071    12033    12013    12008    11946    11844    11727 
