Origin Time       2025/01/13 21:19:00
Lat.              31.8
Long.             131.6
Depth. (km)       30
Mag.              6.9
Station Code      KGS006
Station Lat.      31.9060
Station Long.     130.7021
Station Height(m) 188
Record Time       2025/01/13 21:19:50
Sampling Freq(Hz) 100Hz
Duration Time(s)  112
Dir.              N-S
Scale Factor      7845(gal)/8223790
Max. Acc. (gal)   9.544
Last Correction   2025/01/13 21:19:51
Memo.             
[...]
   10663    10480     9930     9058     7921     6648     5467     4553 
    3885     3343     2937     2781     2882     3137     3474     3828 
    4087     4167     4060     3804     3503     3257     3046     2803 
    2532     2261     1954     1503      847       59     -769    -1525 
   -2035    -2241    -2214    -2042    -1848    -1728    -1637    -1464 
   -1104     -549       76      735     1518     2409     3283     4083 
    4818     5409     5595     5135     4124     2893     1753      926 
     504      444      662     1158     1961     2975     3977     4791 
    5346     5641     5737     5632     5202     4342     3164     2004 
    1113      533      233      122       54      -81     -390     -946 
   -1652    -2324    -2860    -3207    -3306    -3095    -2533    -1628 
    -510      533     1231     1553     1626     1503     1282     1173 
    1235     1343     1448     1640     1957     2357     2845     3495 
    4345     5364     6382     7119     7360     7117     6619     6165 
    5996     6201     6654     7107     7377     7379     7098     6628 
    6103     5574     4988     4306     3528     2668     1802     1094 
     727      756     1057     1428     1696     1850     1968     2004 
    1814     1372      778      116     -549    -1124    -1583    -1956 
   -2209    -2281    -2185    -2027    -1910    -1892    -1972    -2016 
   -1860    -1494    -1074     -800     -758     -770     -612     -252 
     270      947     1748     2586     3346     3928     4245     4180 
    3600     2463      934     -614    -1792    -2403    -2444    -2088 
   -1590    -1043     -395      309     1017     1714     2307     2670 
    2741     2559     2262     2014     1933     2041     2296     2666 
    3103     3496     3711     3669     3412     3072     2749     2411 
    1939     1309      576     -220    -1019    -1768    -2482    -3090 
   -3399    -3326    -2990    -2540    -2047    -1509     -884     -120 
     750     1563     2161     2470     2458     2130     1615     1151 
     878      796      855      908      803      537      206      -56 
    -152      -83      153      595     1258     2142     3204     4310 
    5297     6079     6619     6907     7014     7095     7271     7500 
    7638     7618     7555     7593     7712     7804     7878     8016 
    8214     8380     8337     7875     6913     5503     3789     1977 
     313     -989    -1764    -1972    -1769    -1324     -724     -102 
     399      739      862      668      149     -611    -1476    -2230 
   -2658    -2643    -2154    -1283     -236      881     2095     3387 
    4621     5648     6378     6783     6855     6601     6088     5456 
    4900     4637     4747     5071     5368     5539     5683     5927 
    6242     6571     6932     7240     7291     7006     6462     5722 
    4811     3761     2612     1433      295     -724    -1479    -1867 
   -1929    -1772    -1544    -1421    -1493    -1680    -1861    -2033 
   -2223    -2404    -2523    -2517    -2344    -1993    -1483     -922 
    -396       81      490      832     1215     1701     2243     2799 
    3380     3990     4546     4923     5055     4951     4654     4256 
    3829     3349     2787     2192     1624     1086      554      110 
     -97        2      446     1244     2307     3454     4480     5244 
    5756     6124     6424     6636     6728     6670     6428     6037 
    5593     5150     4785     4587     4525     4463     4279     3931 
    3435     2812     2081     1277      460     -249     -770    -1173 
   -1607    -2169    -2866    -3640    -4359    -4892    -5246    -5452 
   -5427    -5067    -4384    -3489    -2479    -1390     -179     1240 
    2852     4529     6147     7561     8598     9148     9155     8604 
    7581     6284     4895     3476     2033      634     -552    -1370 
   -1791    -1880    -1705    -1359     -999     -737     -561     -427 
    -346     -278     -152       49      322      614      854      946 
     719      117     -662    -1381    -1922    -2303    -2608    -2934 
   -3310    -3673    -3955    -4131    -4116    -3780    -3121    -2270 
   -1412     -726     -279       62      506     1150     1929     2710 
    3381     3862     4141     4321     4476     4623     4783     4939 
    5028     4980     4747     4380     3970     3576     3227     2907 
    2616     2471     2566     2862     3315     3888     4554     5323 
    6107     6777     7298     7668     7909     8118     8338     8506 
    8529     8363     8023     7581     7122     6727     6435     6180 
    5844     5383     4783     3989     2965     1694      179    -1452 
   -3013    -4411    -5597    -6465    -6926    -6971    -6621    -5903 
   -4881    -3658    -2320     -943      399     1668     2857     3952 
    4892     5638     6219     6682     7041     7299     7560     8020 
    8754     9637    10496    11222    11703    11836    11608    11044 
   10168     9061     7815     6515     5233     4017     2909     1919 
     982       14     -961    -1838    -2548    -3024    -3191    -3119 
   -2974    -2814    -2631    -2416    -2172    -1925    -1694    -1448 
   -1183     -950     -762     -588     -368      -45      382      889 
    1437     1944     2282     2353     2119     1560      722     -236 
   -1194    -2107    -2934    -3599    -4037    -4286    -4368    -4198 
   -3755    -3144    -2442    -1686     -962     -403      -97      -21 
     -68     -117      -60      178      616     1163     1632     1787 
    1485      770     -148    -1046    -1822    -2505    -3080    -3434 
   -3465    -3136    -2471    -1521     -337      989     2344     3618 
    4735     5671     6376     6798     6952     6875     6592     6153 
    5670     5248     4895     4554     4237     3923     3545     3157 
    2886     2791     2898     3140     3415     3708     4039     4375 
    4639     4760     4706     4472     4035     3399     2674     2015 
    1541     1279     1181     1188     1255     1344     1479     1711 
    2037     2390     2702     2952     3138     3257     3424     3805 
    4425     5229     6158     7138     8120     9018     9710    10131 
   10293    10199     9838     9220     8411     7546     6702     5859 
    5016     4264     3713     3388     3213     3111     3046     2978 
    2895     2756     2459     1939     1224      411     -415    -1224 
   -1992    -2712    -3427    -4166    -4862    -5439    -5838    -6014 
   -5975    -5763    -5373    -4803    -4116    -3408    -2743    -2151 
   -1665    -1263     -870     -445        8      459      873     1254 
    1613     1960     2342     2805     3289     3699     4035     4337 
    4619     4930     5275     5622     5958     6224     6345     6326 
    6135     5670     4927     4017     3041     2103     1302      646 
      74     -457     -962    -1436    -1841    -2146    -2361    -2467 
   -2403    -2157    -1826    -1567    -1486    -1563    -1718    -1896 
   -2074    -2204    -2176    -1895    -1367     -665      163     1061 
    1891     2498     2828     2893     2732     2466     2187     1875 
    1485     1004      460      -97     -615    -1027    -1308    -1512 
   -1644    -1655    -1521    -1205     -670       45      896     1881 
    2963     3991     4807     5385     5794     5999     5957     5721 
    5333     4804     4197     3630     3198     2920     2797     2833 
    3015     3339     3790     4337     4901     5312     5397     5139 
    4637     4010     3400     2907     2547     2296     2116     2002 
    2015     2176     2427     2691     2868     2868     2654     2309 
    2007     1900     2064     2432     2822     3079     3181     3233 
    3302     3335     3298     3253     3267     3375     3626     4024 
    4498     5022     5595     6142     6520     6646     6556     6353 
    6093     5803     5458     5007     4509     4101     3819     3596 
    3358     3073     2745     2388     2037     1760     1629     1686 
    1922     2266     2617     2855     2913     2758     2326     1594 
     681     -284    -1255    -2177    -2952    -3497    -3767    -3726 
   -3331    -2614    -1660     -522      711     1860     2729     3234 
    3426     3400     3206     2886     2482     1989     1387      735 
     153     -292     -599     -773     -796     -560       -9      733 
    1548     2473     3558     4774     6064     7337     8494     9440 
   10060    10270    10075     9548     8746     7688     6430     5069 
    3703     2427     1312      359     -469    -1174    -1726    -2149 
   -2502    -2828    -3176    -3593    -4071    -4595    -5115    -5489 
   -5563    -5271    -4638    -3723    -2628    -1516     -488      406 
    1097     1564     1856     2076     2393     2938     3700     4536 
    5228     5641     5852     6010     6153     6215     6145     5934 
    5580     5097     4603     4243     4001     3802     3627     3465 
    3298     3060     2663     2123     1536      994      602      409 
     382      475      689     1035     1455     1817     2007     1954 
    1610      990      156     -811    -1786    -2608    -3157    -3423 
   -3474    -3310    -2898    -2311    -1624     -845       -6      834 
    1671     2532     3457     4464     5503     6458     7198     7639 
    7723     7426     6799     5942     4966     4009     3217     2656 
    2282     2023     1933     2116     2513     2934     3254     3403 
    3318     2978     2384     1603      789       18     -696    -1304 
   -1790    -2239    -2740    -3310    -3858    -4255    -4399    -4212 
   -3634    -2655    -1374       64     1578     3087     4517     5827 
    6957     7827     8397     8723     8927     9092     9248     9423 
    9625     9833     9983    10007     9890     9720     9602     9537 
    9444     9219     8734     7928     6874     5713     4564     3465 
    2451     1586      874      287     -152     -388     -417     -341 
    -270     -232     -236     -288     -421     -707    -1173    -1706 
   -2157    -2532    -2907    -3246    -3451    -3464    -3292    -2963 
   -2482    -1848    -1044     -105      904     1948     2956     3825 
    4511     4963     5109     4935     4500     3901     3256     2678 
    2224     1871     1568     1313     1085      810      411     -143 
    -810    -1533    -2346    -3269    -4226    -5104    -5829    -6378 
   -6759    -6983    -7095    -7168    -7217    -7186    -6972    -6490 
   -5742    -4758    -3538    -2116     -598      870     2154     3225 
    4125     4822     5194     5200     4924     4469     3898     3311 
    2795     2334     1923     1657     1566     1534     1437     1252 
     999      662      261     -147     -542     -909    -1205    -1362 
   -1297     -965     -383      380     1246     2184     3194     4233 
    5190     5902     6237     6177     5795     5152     4295     3276 
    2146      986      -70     -940    -1598    -2004    -2122    -1944 
   -1489     -791      106     1101     2047     2911     3750     4540 
    5266     5967     6592     7086     7551     8112     8733     9227 
    9451     9424     9143     8552     7684     6582     5285     3892 
    2481     1117     -135    -1186    -1921    -2347    -2567    -2602 
   -2455    -2149    -1664    -1027     -280      580     1514     2463 
    3470     4603     5813     6972     8039     9030     9902    10558 
   10902    10881    10512     9783     8652     7184     5495     3649 
    1753      -52    -1664    -2986    -3948    -4499    -4603    -4338 
   -3808    -3045    -2137    -1231     -398      365     1078     1748 
    2338     2851     3381     3997     4631     5165     5556     5810 
    5907     5850     5656     5377     5111     4865     4583     4330 
    4203     4187     4212     4233     4232     4147     3874     3354 
    2659     1956     1410     1142     1146     1304     1495     1647 
    1694     1580     1283      823      198     -614    -1501    -2249 
   -2799    -3234    -3496    -3472    -3175    -2682    -2052    -1337 
    -600      103      696     1155     1588     2020     2322     2458 
    2513     2504     2415     2311     2263     2289     2350     2376 
    2326     2230     2126     2012     1904     1800     1707     1760 
    2092     2625     3176     3673     4170     4691     5192     5617 
    5900     6000     5950     5852     5765     5614     5320     4939 
    4534     4121     3716     3306     2871     2436     2010     1567 
    1104      664      342      232      390      837     1476     2164 
    2794     3271     3547     3640     3507     3095     2459     1702 
     936      322        9       32      326      816     1459     2212 
    2995     3723     4353     4881     5289     5551     5633     5414 
    4827     4017     3181     2473     1993     1741     1615     1516 
    1371     1167      935      693      415      122     -112     -218 
    -140      152      579      922      992      754      261     -423 
   -1205    -1961    -2582    -3001    -3165    -3042    -2639    -2025 
   -1271     -417      500     1417     2280     3042     3623     4000 
    4261     4444     4544     4627     4764     4992     5328     5741 
    6106     6272     6191     5935     5594     5248     4980     4808 
    4710     4681     4661     4526     4286     4055     3851     3744 
    3875     4261     4793     5304     5613     5637     5364     4776 
    3885     2789     1634      507     -664    -1945    -3199    -4280 
   -5223    -6096    -6875    -7523    -7965    -8047    -7728    -7065 
   -6081    -4849    -3487    -2107     -884        6      507      604 
     311     -283    -1015    -1757    -2432    -2930    -3152    -3002 
   -2393    -1370     -106     1242     2560     3726     4672     5393 
    5868     6124     6215     6106     5764     5256     4675     4077 
    3466     2871     2394     2153     2180     2389     2664     2974 
    3334     3743     4164     4580     4995     5393     5725     5927 
    5995     5891     5501     4774     3786     2667     1539      468 
    -456    -1085    -1348    -1333    -1154     -880     -560     -213 
     170      556      892     1178     1431     1601     1624     1451 
    1028      391     -309     -907    -1316    -1561    -1659    -1583 
   -1366    -1051     -652     -205      225      599      878     1009 
     962      808      683      676      876     1362     2061     2844 
    3658     4405     4993     5422     5714     5929     6154     6438 
    6756     7036     7233     7366     7462     7503     7453     7304 
    7037     6567     5832     4839     3663     2415     1190       45 
    -951    -1717    -2172    -2234    -1880    -1181     -224      865 
    1908     2733     3202     3283     3087     2731     2253     1717 
    1244      931      796      808      876      899      834      635 
     221     -386    -1050    -1665    -2151    -2428    -2525    -2459 
   -2133    -1553     -859     -108      746     1711     2739     3757 
    4671     5385     5891     6205     6316     6320     6400     6624 
    6953     7349     7763     8143     8424     8557     8473     8097 
    7500     6856     6223     5580     4959     4417     3916     3389 
    2837     2286     1788     1367      953      488       43     -332 
    -672     -985    -1213    -1293    -1206     -940     -511      -17 
     422      805     1219     1683     2150     2604     3086     3662 
    4287     4826     5213     5463     5579     5594     5522     5348 
    5043     4567     3881     2994     1966      886     -172    -1159 
   -2006    -2658    -3110    -3408    -3607    -3712    -3736    -3717 
   -3647    -3505    -3337    -3141    -2836    -2389    -1850    -1208 
    -430      429     1267     2018     2658     3206     3734     4338 
    5013     5698     6369     6957     7364     7541     7493     7275 
    6899     6332     5613     4826     4025     3211     2370     1528 
     712      -63     -683     -951     -854     -540      -62      504 
     953     1183     1197      959      542       59     -457     -908 
   -1170    -1239    -1155     -915     -510       36      649     1240 
    1768     2228     2605     2905     3191     3526     3909     4279 
    4548     4662     4648     4518     4252     3888     3503     3109 
    2737     2488     2389     2396     2471     2573     2639     2633 
    2506     2193     1692     1050      275     -572    -1340    -1911 
   -2270    -2439    -2446    -2335    -2134    -1910    -1760    -1684 
   -1599    -1460    -1274    -1039     -751     -395       52      571 
    1117     1663     2224     2844     3464     3986     4363     4550 
    4548     4444     4313     4171     4033     3909     3770     3581 
    3360     3115     2802     2424     2043     1648     1142      487 
    -249     -980    -1655    -2220    -2639    -2890    -2928    -2760 
   -2485    -2176    -1858    -1503    -1028     -390      380     1223 
    2030     2698     3195     3510     3661     3724     3751     3766 
    3862     4108     4487     4997     5638     6346     7049     7717 
    8337     8860     9227     9406     9379     9126     8685     8127 
    7456     6670     5815     4958     4162     3412     2668     1949 
    1256      545     -144     -675     -936     -889     -522      128 
     980     1935     2921     3882     4743     5409     5881     6258 
    6616     6982     7339     7604     7708     7663     7503     7233 
    6876     6493     6135     5811     5503     5178     4830     4463 
    4059     3635     3268     2983     2763     2582     2380     2108 
    1734     1250      695       98     -552    -1227    -1867    -2447 
   -2978    -3430    -3743    -3871    -3800    -3545    -3138    -2619 
   -2041    -1474     -992     -612     -328     -189     -194     -280 
    -421     -584     -772    -1034    -1337    -1637    -1976    -2358 
   -2716    -3015    -3238    -3370    -3423    -3412    -3343    -3231 
   -3115    -3011    -2884    -2716    -2551    -2430    -2324    -2172 
   -1930    -1609    -1181     -585      160      961     1776     2577 
    3296     3902     4348     4592     4719     4804     4815     4723 
    4518     4183     3743     3253     2729     2177     1675     1274 
     973      784      684      616      533      395      209       -1 
    -220     -403     -496     -503     -414     -179      191      635 
    1163     1795     2493     3249     4063     4864     5555     6058 
    6316     6300     6038     5616     5086     4476     3851     3264 
    2722     2254     1895     1671     1632     1792     2095     2494 
    2978     3499     3981     4378     4673     4866     4984     5067 
    5119     5084     4941     4692     4344     3919     3462     3018 
    2598     2201     1837     1470     1062      642      248      -76 
    -260     -268     -124      141      491      873     1246     1579 
    1849     2052     2177     2218     2189     2115     2042     2022 
    2035     2060     2091     2076     1988     1883     1815     1807 
    1844     1903     2046     2344     2767     3272     3863     4525 
    5238     5994     6750     7497     8251     8961     9551     9990 
   10251    10288    10076     9653     9051     8267     7291     6157 
    4915     3631     2354     1113      -51    -1100    -2015    -2787 
