Origin Time       2025/01/13 21:19:00
Lat.              31.8
Long.             131.6
Depth. (km)       30
Mag.              6.9
Station Code      KGS026
Station Lat.      30.5199
Station Long.     130.9553
Station Height(m) 114
Record Time       2025/01/13 21:20:29
Sampling Freq(Hz) 100Hz
Duration Time(s)  60
Dir.              N-S
Scale Factor      7845(gal)/8223790
Max. Acc. (gal)   5.352
Last Correction   2025/01/13 21:20:29
Memo.             
[...]
   -2253    -2293    -2277    -2220    -2214    -2238    -2243    -2263 
   -2241    -2087    -1911    -1803    -1723    -1738    -1884    -1996 
   -2011    -2000    -1992    -1998    -1979    -1860    -1664    -1471 
   -1321    -1232    -1250    -1360    -1489    -1663    -1927    -2162 
   -2282    -2313    -2214    -2007    -1799    -1566    -1323    -1183 
   -1146    -1166    -1266    -1448    -1614    -1634    -1563    -1521 
   -1485    -1401    -1242     -988     -729     -589     -611     -789 
   -1082    -1389    -1636    -1837    -2039    -2242    -2398    -2447 
   -2313    -2029    -1726    -1435    -1193    -1121    -1212    -1402 
   -1725    -2116    -2388    -2471    -2415    -2258    -2091    -1961 
   -1794    -1582    -1362    -1138    -1015    -1121    -1401    -1722 
   -2030    -2274    -2407    -2450    -2405    -2274    -2138    -2035 
   -1921    -1777    -1645    -1591    -1638    -1715    -1796    -1923 
   -1984    -1884    -1752    -1682    -1657    -1705    -1838    -1991 
   -2083    -2099    -2052    -1935    -1752    -1555    -1398    -1244 
   -1119    -1156    -1358    -1597    -1858    -2126    -2292    -2326 
   -2259    -2123    -1962    -1791    -1656    -1625    -1657    -1710 
   -1783    -1868    -1968    -2088    -2254    -2486    -2675    -2682 
   -2481    -2138    -1726    -1323    -1016     -816     -666     -600 
    -697     -934    -1224    -1555    -1894    -2076    -2061    -2056 
   -2104    -2050    -1985    -2031    -2020    -1877    -1706    -1517 
   -1367    -1320    -1312    -1302    -1296    -1223    -1057     -926 
    -907     -950    -1040    -1202    -1375    -1521    -1707    -1895 
   -1972    -2025    -2133    -2168    -2137    -2095    -1942    -1780 
   -1806    -1934    -2079    -2255    -2332    -2242    -2126    -2058 
   -2004    -1954    -1911    -1872    -1858    -1890    -1981    -2145 
   -2405    -2735    -2997    -3141    -3180    -3011    -2652    -2246 
   -1773    -1246     -788     -465     -373     -565     -940    -1418 
   -1935    -2431    -2863    -3157    -3254    -3177    -3024    -2833 
   -2569    -2274    -1931    -1455     -977     -650     -483     -517 
    -800    -1256    -1755    -2193    -2506    -2678    -2714    -2609 
   -2374    -2069    -1764    -1533    -1433    -1487    -1669    -1884 
   -2073    -2196    -2139    -1972    -1869    -1794    -1691    -1606 
   -1509    -1402    -1385    -1491    -1687    -1923    -2107    -2150 
   -2041    -1844    -1657    -1526    -1428    -1412    -1540    -1732 
   -1908    -2045    -2123    -2134    -2023    -1765    -1431    -1057 
    -710     -506     -417     -372     -419     -573     -828    -1247 
   -1771    -2270    -2717    -3024    -3121    -3099    -2995    -2747 
   -2427    -2131    -1784    -1381    -1111     -996     -923     -907 
    -980    -1134    -1360    -1617    -1861    -2042    -2151    -2247 
   -2330    -2413    -2527    -2621    -2693    -2741    -2690    -2581 
   -2484    -2359    -2218    -2061    -1861    -1656    -1463    -1305 
   -1287    -1435    -1653    -1904    -2207    -2492    -2608    -2551 
   -2447    -2313    -2142    -1954    -1707    -1371    -1012     -729 
    -602     -661     -869    -1154    -1412    -1525    -1464    -1359 
   -1291    -1212    -1116    -1008     -893     -889    -1048    -1313 
   -1702    -2061    -2191    -2214    -2239    -2188    -2083    -1939 
   -1750    -1628    -1570    -1494    -1475    -1529    -1584    -1726 
   -1977    -2214    -2378    -2448    -2424    -2316    -2103    -1879 
   -1772    -1719    -1647    -1691    -1869    -1988    -2079    -2280 
   -2477    -2594    -2748    -2921    -2982    -2911    -2729    -2479 
   -2273    -2116    -1931    -1732    -1572    -1478    -1468    -1521 
   -1563    -1549    -1487    -1412    -1387    -1393    -1317    -1173 
   -1053    -1008    -1096    -1324    -1653    -2008    -2247    -2295 
   -2209    -2033    -1809    -1584    -1337    -1066     -801     -548 
    -363     -290     -301     -444     -768    -1163    -1547    -1942 
   -2286    -2479    -2563    -2596    -2567    -2474    -2351    -2212 
   -2039    -1910    -1921    -2026    -2200    -2454    -2668    -2763 
   -2820    -2816    -2678    -2467    -2230    -2026    -1956    -1956 
   -1948    -1968    -1993    -1980    -2004    -2145    -2363    -2597 
   -2766    -2866    -3019    -3227    -3365    -3388    -3316    -3121 
   -2752    -2330    -1999    -1683    -1391    -1291    -1318    -1348 
   -1420    -1467    -1426    -1425    -1503    -1548    -1518    -1414 
   -1227    -1016     -892     -904    -1046    -1325    -1690    -2050 
   -2349    -2486    -2454    -2398    -2342    -2172    -1873    -1463 
    -950     -436      -60      124      120      -75     -442     -946 
   -1568    -2231    -2871    -3476    -3908    -4083    -4091    -3948 
   -3654    -3280    -2810    -2223    -1590     -973     -422        2 
     264      336      234      -36     -498    -1061    -1545    -1908 
   -2196    -2350    -2421    -2538    -2619    -2589    -2463    -2188 
   -1854    -1602    -1348    -1061     -850     -733     -657     -679 
    -912    -1324    -1794    -2254    -2624    -2793    -2749    -2596 
   -2389    -2128    -1900    -1755    -1603    -1487    -1503    -1601 
   -1744    -1956    -2224    -2511    -2785    -3078    -3364    -3505 
   -3483    -3389    -3214    -2938    -2632    -2328    -2014    -1737 
   -1572    -1553    -1692    -1954    -2249    -2513    -2745    -2959 
   -3146    -3319    -3437    -3392    -3200    -2936    -2558    -2130 
   -1749    -1325     -835     -399      -58      195      313      259 
      74     -143     -356     -630     -932    -1147    -1291    -1364 
   -1244     -951     -637     -392     -287     -344     -475     -615 
    -823    -1113    -1398    -1641    -1861    -1984    -1935    -1757 
   -1556    -1401    -1259    -1129    -1082    -1084    -1061    -1036 
   -1017     -996     -982     -927     -793     -664     -627     -737 
   -1031    -1425    -1811    -2165    -2447    -2668    -2875    -2963 
   -2867    -2673    -2343    -1876    -1494    -1336    -1437    -1788 
   -2251    -2662    -2918    -3009    -3024    -3038    -3091    -3194 
   -3246    -3156    -2963    -2713    -2436    -2270    -2241    -2216 
   -2177    -2133    -2035    -1948    -1894    -1769    -1551    -1235 
    -815     -425     -198     -164     -286     -502     -807    -1170 
   -1529    -1845    -2053    -2108    -2077    -1995    -1826    -1628 
   -1487    -1402    -1416    -1576    -1836    -2215    -2708    -3177 
   -3626    -4033    -4190    -4067    -3797    -3381    -2817    -2282 
   -1950    -1798    -1742    -1815    -2054    -2434    -2934    -3530 
   -4120    -4575    -4791    -4727    -4452    -4032    -3478    -2849 
   -2222    -1605    -1048     -625     -328     -155     -136     -275 
    -546     -909    -1333    -1773    -2149    -2416    -2573    -2610 
   -2558    -2416    -2104    -1601    -1019     -438       81      446 
     660      776      704      372     -135     -774    -1506    -2211 
   -2829    -3283    -3472    -3423    -3149    -2673    -2162    -1657 
   -1032     -378       60      209       99     -243     -746    -1317 
   -1888    -2322    -2525    -2614    -2656    -2610    -2488    -2247 
   -1821    -1251     -622      -13      461      723      784      623 
     159     -545    -1359    -2254    -3190    -4018    -4614    -4911 
   -4891    -4626    -4261    -3909    -3559    -3141    -2673    -2250 
   -1935    -1748    -1669    -1660    -1668    -1663    -1649    -1648 
   -1651    -1675    -1786    -1984    -2216    -2533    -2947    -3330 
   -3611    -3801    -3890    -3862    -3716    -3404    -2898    -2272 
   -1611    -1038     -639     -390     -303     -442     -812    -1412 
   -2158    -2936    -3676    -4206    -4372    -4256    -3947    -3435 
   -2795    -2080    -1304     -580      -27      217       37     -429 
   -1011    -1703    -2371    -2817    -3059    -3028    -2609    -1972 
   -1306     -614       78      692     1185     1533     1718     1772 
    1728     1634     1597     1566     1447     1308     1154      893 
     553      193     -234     -780    -1378    -1915    -2346    -2673 
   -2812    -2704    -2438    -2054    -1552    -1053     -603     -191 
     108      233      155     -175     -693    -1270    -1848    -2376 
   -2872    -3338    -3642    -3757    -3734    -3550    -3246    -2937 
   -2660    -2355    -2041    -1840    -1811    -1937    -2187    -2559 
   -3001    -3433    -3812    -4058    -4125    -4086    -3920    -3562 
   -3109    -2602    -2038    -1572    -1351    -1414    -1756    -2241 
   -2741    -3213    -3570    -3786    -3870    -3777    -3439    -2840 
   -2054    -1231     -565     -209     -178     -418     -904    -1613 
   -2438    -3199    -3747    -4013    -3998    -3724    -3268    -2729 
   -2141    -1494     -899     -523     -392     -417     -556     -753 
    -907    -1004    -1111    -1213    -1206    -1085     -897     -585 
    -217      -59     -206     -567    -1070    -1630    -2104    -2393 
   -2511    -2511    -2393    -2154    -1802    -1308     -730     -260 
       1       91      -52     -498    -1090    -1728    -2482    -3256 
   -3807    -4072    -4137    -3981    -3541    -2994    -2544    -2164 
   -1840    -1601    -1387    -1190    -1047     -923     -853     -913 
   -1038    -1186    -1393    -1578    -1757    -2092    -2574    -3078 
   -3562    -3973    -4125    -3971    -3701    -3357    -2857    -2371 
   -2079    -1946    -1980    -2219    -2520    -2729    -2894    -3052 
   -3159    -3171    -3006    -2674    -2293    -1908    -1594    -1440 
   -1375    -1344    -1402    -1545    -1759    -2002    -2106    -1949 
   -1583    -1067     -434      183      598      766      828      834 
     738      648      523      163     -306     -702    -1097    -1421 
   -1561    -1630    -1683    -1696    -1692    -1706    -1845    -2142 
   -2461    -2790    -3186    -3534    -3767    -3883    -3842    -3680 
   -3433    -3145    -2945    -2778    -2521    -2308    -2189    -2022 
   -1817    -1618    -1379    -1135     -938     -780     -722     -789 
    -942    -1182    -1476    -1742    -1935    -1987    -1807    -1413 
    -920     -422      135      778     1378     1883     2255     2394 
    2346     2053     1433      741       75     -652    -1219    -1479 
   -1524    -1368    -1082     -754     -392      -43      243      384 
     319      105     -294     -926    -1610    -2242    -2880    -3446 
   -3827    -3981    -3794    -3294    -2641    -1883    -1181     -756 
    -594     -715    -1162    -1787    -2511    -3288    -3996    -4569 
   -4930    -5035    -4939    -4554    -3943    -3345    -2716    -2085 
   -1783    -1836    -1979    -2165    -2419    -2587    -2597    -2506 
   -2328    -2083    -1782    -1458    -1252    -1217    -1354    -1725 
   -2315    -2995    -3599    -3996    -4171    -4143    -3958    -3631 
   -3071    -2299    -1452     -600       97      426      380       21 
    -618    -1437    -2382    -3372    -4209    -4804    -5152    -5131 
   -4719    -4095    -3312    -2420    -1721    -1374    -1290    -1456 
   -1885    -2547    -3345    -4014    -4414    -4599    -4480    -4064 
   -3538    -2890    -2161    -1543    -1036     -657     -552     -626 
    -679     -657     -573     -514     -518     -427     -249      -82 
     226      634      819      714      402      -29     -395     -606 
    -634     -444     -168      117      459      715      799      762 
     589      311       27     -259     -550     -830    -1096    -1345 
   -1590    -1830    -2014    -2155    -2359    -2578    -2716    -2863 
   -3021    -3073    -3049    -2965    -2787    -2612    -2509    -2447 
   -2479    -2644    -2894    -3154    -3312    -3348    -3333    -3225 
   -3030    -2874    -2737    -2589    -2490    -2475    -2617    -2905 
   -3223    -3569    -3912    -4151    -4311    -4401    -4288    -3916 
   -3330    -2602    -1906    -1425    -1240    -1339    -1593    -1942 
   -2494    -3167    -3801    -4445    -4959    -5043    -4662    -3951 
   -3007    -1926     -831       67      661      985      927      357 
    -598    -1769    -3034    -4207    -5073    -5435    -5178    -4325 
   -3005    -1499      -70     1146     2004     2421     2397     1834 
     710     -773    -2340    -3657    -4444    -4633    -4248    -3403 
   -2280    -1011      237     1263     1995     2376     2286     1772 
    1028      194     -626    -1296    -1657    -1680    -1476    -1043 
    -376      319      905     1345     1520     1390     1017      483 
     -62     -529     -931    -1219    -1445    -1753    -2085    -2401 
   -2776    -3098    -3300    -3508    -3676    -3673    -3495    -3125 
   -2560    -1911    -1266     -724     -407     -207       -4       75 
      81      124       51     -168     -442     -857    -1449    -2128 
   -2826    -3464    -3997    -4374    -4445    -4213    -3753    -3048 
   -2250    -1548     -907     -380     -139     -206     -638    -1453 
   -2411    -3337    -4229    -4907    -5297    -5548    -5494    -4958 
   -4167    -3254    -2249    -1413     -945     -837    -1062    -1479 
   -1945    -2425    -2758    -2874    -2879    -2648    -2068    -1266 
    -352      544     1264     1687     1645     1150      340     -843 
   -2330    -3730    -4896    -5849    -6336    -6220    -5589    -4402 
   -2733     -885      945     2532     3526     3800     3368     2180 
     483    -1325    -3064    -4496    -5394    -5807    -5819    -5495 
   -4973    -4303    -3484    -2639    -1885    -1328    -1092    -1156 
   -1386    -1678    -1915    -2100    -2312    -2540    -2778    -3032 
   -3241    -3379    -3508    -3635    -3704    -3700    -3527    -3083 
   -2470    -1827    -1255     -922     -927    -1240    -1822    -2631 
   -3530    -4334    -4930    -5213    -5128    -4737    -4082    -3221 
   -2340    -1584    -1005     -631     -417     -264     -175     -222 
    -484     -980    -1544    -1952    -2133    -2103    -1927    -1768 
   -1744    -1830    -1939    -1934    -1671    -1173     -579       29 
     564      959     1217     1252     1009      569      -47     -866 
   -1831    -2805    -3607    -4089    -4174    -3861    -3210    -2319 
   -1259      -82     1024     1849     2307     2323     1875     1105 
     149     -945    -2025    -2826    -3152    -2959    -2382    -1584 
    -679      198      899     1335     1459     1217      615     -229 
   -1113    -1849    -2388    -2741    -2925    -2929    -2735    -2404 
   -2023    -1702    -1675    -2039    -2655    -3416    -4206    -4850 
   -5290    -5557    -5599    -5348    -4807    -4014    -3133    -2386 
   -1895    -1722    -1900    -2301    -2693    -3001    -3319    -3631 
   -3844    -3962    -3939    -3666    -3173    -2629    -2119    -1652 
   -1267     -985     -872     -999    -1317    -1771    -2289    -2704 
   -2913    -2936    -2810    -2506    -1942    -1201     -472      214 
     815     1136     1088      726       95     -730    -1560    -2226 
   -2685    -2978    -3092    -2953    -2579    -2027    -1278     -434 
     265      715      882      704      197     -553    -1443    -2246 
   -2735    -2886    -2743    -2346    -1776    -1082     -291      502 
    1186     1668     1840     1636     1111      380     -426    -1215 
   -1861    -2146    -2064    -1811    -1408     -884     -418      -25 
     313      446      317       -8     -562    -1286    -1953    -2536 
   -3086    -3481    -3690    -3748    -3626    -3350    -2933    -2421 
   -1989    -1696    -1521    -1566    -1825    -2101    -2370    -2651 
   -2764    -2739    -2793    -2909    -3051    -3287    -3539    -3681 
   -3728    -3761    -3815    -3865    -3878    -3852    -3732    -3462 
   -3091    -2639    -2089    -1540    -1069     -666     -394     -319 
    -437     -737    -1219    -1825    -2442    -2947    -3222    -3240 
   -3084    -2853    -2586    -2277    -1953    -1644    -1323    -1050 
    -973    -1128    -1425    -1811    -2285    -2754    -3119    -3385 
   -3530    -3496    -3368    -3269    -3183    -3084    -3017    -2940 
   -2817    -2685    -2540    -2407    -2371    -2417    -2452    -2478 
   -2501    -2442    -2332    -2312    -2358    -2401    -2444    -2396 
   -2220    -2002    -1725    -1401    -1117     -869     -619     -396 
    -238     -143      -97     -144     -288     -457     -594     -650 
    -573     -390     -198      -49       44       81       79       39 
     -39     -172     -388     -623     -762     -756     -623     -405 
    -166      -44     -118     -352     -677    -1051    -1471    -1954 
   -2462    -2921    -3257    -3346    -3122    -2709    -2265    -1888 
   -1690    -1736    -1993    -2435    -3065    -3807    -4482    -4992 
   -5300    -5260    -4788    -4047    -3176    -2227    -1406     -853 
    -507     -440     -743    -1312    -2050    -2893    -3669    -4182 
   -4369    -4283    -3983    -3555    -3084    -2600    -2123    -1669 
   -1262     -942     -722     -568     -500     -638    -1009    -1514 
   -2062    -2565    -2949    -3154    -3105    -2829    -2471    -2076 
   -1622    -1192     -853     -577     -398     -363     -484     -770 
   -1166    -1667    -2241    -2752    -3172    -3524    -3735    -3763 
   -3620    -3291    -2821    -2304    -1836    -1490    -1264    -1107 
   -1023    -1021    -1048    -1117    -1281    -1470    -1598    -1613 
   -1372     -799      -64      616     1140     1422     1412     1194 
     865      386     -220     -788    -1233    -1555    -1748    -1838 
   -1856    -1795    -1642    -1445    -1260    -1109    -1065    -1132 
   -1194    -1200    -1173    -1046     -791     -535     -351     -244 
    -274     -438     -676     -994    -1378    -1730    -2006    -2223 
   -2362    -2404    -2396    -2330    -2187    -2079    -2035    -1987 
   -2022    -2084    -1938    -1656    -1401    -1107     -792     -580 
    -457     -467     -700    -1084    -1571    -2151    -2640    -2914 
   -2971    -2735    -2239    -1637    -1066     -642     -384     -272 
    -378     -668    -1021    -1451    -1944    -2320    -2467    -2443 
   -2288    -2035    -1796    -1642    -1575    -1621    -1837    -2232 
   -2781    -3414    -3993    -4414    -4648    -4720    -4642    -4341 
   -3781    -3013    -2150    -1393     -904     -670     -662     -922 
   -1363    -1823    -2281    -2744    -3103    -3287    -3294    -3096 
   -2666    -2037    -1333     -710     -283     -139     -294     -679 
   -1201    -1794    -2376    -2805    -3056    -3215    -3198    -2944 
   -2596    -2232    -1868    -1541    -1289    -1190    -1277    -1449 
   -1679    -1973    -2232    -2425    -2604    -2718    -2713    -2608 
   -2404    -2141    -1903    -1683    -1466    -1321    -1275    -1313 
   -1431    -1514    -1467    -1328    -1120     -896     -765     -692 
    -596     -506     -433     -394     -425     -553     -777    -1043 
   -1267    -1416    -1524    -1614    -1686    -1726    -1688    -1534 
   -1306    -1074     -861     -723     -747     -916    -1112    -1274 
   -1452    -1641    -1814    -2038    -2288    -2485    -2628    -2668 
   -2624    -2587    -2540    -2446    -2322    -2178    -2038    -1941 
