Origin Time       2025/01/13 21:19:00
Lat.              31.8
Long.             131.6
Depth. (km)       30
Mag.              6.9
Station Code      KGS011
Station Lat.      31.5896
Station Long.     130.3490
Station Height(m) 18
Record Time       2025/01/13 21:19:54
Sampling Freq(Hz) 100Hz
Duration Time(s)  94
Dir.              N-S
Scale Factor      3920(gal)/6182761
Max. Acc. (gal)   16.029
Last Correction   2025/01/13 21:19:55
Memo.             
[...]
   -7189    -8605    -9616   -10008   -10111   -10289   -10501   -10500 
  -10173    -9465    -8321    -6871    -5278    -3647    -2199    -1269 
   -1161    -1781    -2541    -2899    -2764    -2474    -2412    -2700 
   -3405    -4443    -5303    -5619    -5592    -5581    -5647    -5505 
   -4981    -4325    -3734    -3051    -2180    -1287     -613     -415 
    -891    -1893    -2940    -3682    -4105    -4298    -4373    -4581 
   -5190    -6236    -7568    -8914    -9786    -9920    -9708    -9570 
   -9454    -9274    -9028    -8463    -7520    -6694    -6217    -5860 
   -5543    -5207    -4824    -4618    -4649    -4733    -4689    -4354 
   -3701    -2887    -2291    -2277    -2725    -3458    -4575    -5868 
   -6914    -7605    -7830    -7188    -5435    -2997     -766      658 
    1090      518     -735    -2125    -3222    -3831    -4005    -3869 
   -3606    -3535    -3968    -4965    -6296    -7767    -9327   -10749 
  -11526   -11245   -10118    -8851    -7909    -7290    -6930    -6849 
   -6948    -6980    -6720    -5988    -4764    -3453    -2522    -2048 
   -2031    -2527    -3413    -4549    -5794    -6873    -7531    -7660 
   -7339    -6737    -5947    -5085    -4344    -3833    -3537    -3253 
   -2709    -1822     -602      733     1602     1623      922     -238 
   -1792    -3700    -5529    -6701    -7034    -6772    -6299    -5733 
   -5049    -4596    -4778    -5628    -6965    -8357    -9226    -9337 
   -8829    -7916    -6785    -5634    -4755    -4473    -4903    -5796 
   -6799    -7698    -8264    -8299    -7817    -6923    -5920    -5273 
   -5101    -5262    -5697    -6388    -7294    -8145    -8437    -7871 
   -6505    -4568    -2365     -147     1904     3324     3509     2448 
     650    -1387    -3297    -4948    -6271    -7020    -7046    -6441 
   -5428    -4457    -4087    -4471    -5202    -5769    -6129    -6571 
   -7006    -7062    -6589    -5663    -4604    -3837    -3585    -4001 
   -5114    -6583    -7979    -8943    -9164    -8594    -7593    -6800 
   -6537    -6483    -6364    -6242    -6054    -5695    -5223    -4578 
   -3690    -2856    -2469    -2673    -3255    -3794    -4194    -4578 
   -4919    -5150    -5107    -4650    -4019    -3496    -3101    -2751 
   -2402    -2124    -1943    -1871    -2089    -2644    -3284    -3826 
   -4335    -4931    -5661    -6508    -7335    -7883    -7957    -7560 
   -6836    -5989    -5254    -4820    -4829    -5380    -6292    -7185 
   -7843    -8104    -7848    -7163    -6152    -5063    -4283    -3932 
   -4091    -4871    -5887    -6543    -6708    -6467    -5740    -4626 
   -3445    -2422    -1719    -1395    -1498    -2279    -3766    -5405 
   -6663    -7572    -8182    -8240    -7751    -6970    -6088    -5425 
   -5170    -5129    -5036    -4712    -4115    -3365    -2556    -1728 
   -1116    -1065    -1623    -2565    -3716    -4899    -5852    -6389 
   -6505    -6357    -6080    -5706    -5331    -5023    -4700    -4369 
   -4066    -3629    -3025    -2614    -2816    -3918    -5837    -7996 
   -9875   -11129   -11372   -10534    -9048    -7542    -6372    -5476 
   -4787    -4384    -4244    -4315    -4733    -5545    -6549    -7463 
   -7877    -7296    -5566    -3119     -565     1522     2382     1626 
    -262    -2531    -4563    -5854    -6232    -5918    -5251    -4570 
   -4270    -4527    -5052    -5549    -6110    -6826    -7464    -7840 
   -7933    -7571    -6639    -5422    -4294    -3396    -2811    -2760 
   -3370    -4482    -5701    -6535    -6842    -6803    -6545    -6409 
   -6723    -7222    -7554    -7701    -7698    -7500    -7101    -6511 
   -5611    -4261    -2521     -745      624     1541     2230     2725 
    2946     2748     2094     1174      -72    -1752    -3548    -5166 
   -6522    -7484    -7976    -8165    -8291    -8374    -8313    -8151 
   -8126    -8491    -9171    -9808   -10180   -10200    -9803    -9005 
   -7961    -6870    -5867    -5142    -4883    -5052    -5543    -6295 
   -7069    -7486    -7398    -6949    -6290    -5468    -4551    -3688 
   -2982    -2423    -2012    -1741    -1508    -1225     -883     -412 
     190      663      712      142    -1082    -2664    -4232    -5591 
   -6539    -7087    -7588    -8194    -8777    -9129    -9000    -8462 
   -7926    -7534    -7030    -6215    -5159    -4138    -3469    -3272 
   -3507    -4100    -4909    -5753    -6408    -6641    -6415    -5887 
   -5316    -4938    -4886    -5225    -5850    -6522    -7041    -7233 
   -6980    -6217    -4915    -3174    -1334       -2      283     -552 
   -2203    -4308    -6468    -8132    -8804    -8243    -6502    -4225 
   -2453    -1752    -2088    -3190    -4532    -5567    -6046    -5914 
   -5336    -4482    -3429    -2591    -2419    -2930    -4001    -5548 
   -7436    -9309   -10643   -11005   -10165    -8406    -6431    -4633 
   -3177    -2454    -2749    -4002    -5878    -7704    -8777    -8792 
   -7875    -6429    -4836    -3379    -2377    -2030    -2366    -3395 
   -4992    -6657    -7768    -8079    -7636    -6637    -5478    -4479 
   -3786    -3515    -3674    -4029    -4198    -4103    -4066    -4235 
   -4393    -4300    -3828    -2905    -1623     -426      114     -221 
   -1262    -2657    -3991    -5044    -5861    -6508    -6970    -7350 
   -7850    -8459    -8885    -8887    -8572    -8148    -7680    -7178 
   -6567    -5815    -5068    -4388    -3820    -3544    -3518    -3694 
   -4282    -5153    -5879    -6335    -6568    -6552    -6302    -5943 
   -5676    -5549    -5447    -5271    -4894    -4335    -3738    -3009 
   -2260    -1898    -1912    -2088    -2461    -2952    -3265    -3220 
   -2913    -2550    -2317    -2431    -3099    -4384    -6035    -7532 
   -8593    -9194    -9308    -9036    -8542    -7960    -7394    -6793 
   -6166    -5648    -5215    -4868    -4707    -4574    -4336    -4139 
   -4013    -3920    -3979    -4228    -4568    -5035    -5757    -6587 
   -7192    -7443    -7381    -7104    -6766    -6415    -5963    -5444 
   -5042    -4860    -4832    -4768    -4450    -3860    -3227    -2701 
   -2251    -1980    -2119    -2736    -3684    -4727    -5690    -6432 
   -6742    -6499    -5792    -4871    -3987    -3307    -3002    -3150 
   -3613    -4188    -4696    -5010    -5057    -4767    -4167    -3374 
   -2632    -2392    -2913    -4029    -5423    -6863    -8335    -9628 
  -10156    -9740    -8797    -7742    -6713    -5714    -4919    -4538 
   -4400    -4297    -4330    -4638    -5149    -5570    -5685    -5479 
   -4822    -3791    -2963    -2640    -2597    -2737    -3212    -4128 
   -5384    -6595    -7420    -7876    -7977    -7586    -6746    -5689 
   -4626    -3718    -3204    -3333    -4068    -4979    -5568    -5724 
   -5721    -5757    -5844    -5938    -5830    -5299    -4436    -3563 
   -3005    -3083    -3947    -5375    -6919    -8030    -8304    -7720 
   -6482    -5018    -3795    -2990    -2712    -2910    -3168    -3269 
   -3302    -3228    -3021    -2818    -2695    -2678    -2785    -2878 
   -2852    -3013    -3762    -5009    -6311    -7380    -8113    -8405 
   -8384    -8262    -7969    -7532    -7080    -6390    -5286    -4096 
   -3210    -2852    -3226    -4301    -5749    -7179    -8235    -8725 
   -8781    -8709    -8490    -7840    -6893    -6087    -5564    -5274 
   -5362    -6067    -7224    -8200    -8367    -7540    -5987    -4191 
   -2782    -2151    -2038    -2033    -2018    -1939    -1689    -1205 
    -628     -298     -448     -953    -1461    -1836    -2197    -2595 
   -2975    -3285    -3475    -3442    -3241    -3271    -3744    -4403 
   -5005    -5467    -5604    -5275    -4699    -4323    -4433    -5124 
   -6315    -7529    -8224    -8425    -8505    -8564    -8455    -8293 
   -8476    -8929    -9046    -8614    -7886    -7040    -6336    -6083 
   -6237    -6461    -6393    -5834    -4909    -3997    -3344    -2895 
   -2696    -2961    -3589    -4147    -4444    -4656    -4962    -5476 
   -6224    -7010    -7484    -7093    -5448    -3033     -709     1118 
    2229     2430     1803      466    -1431    -3494    -5379    -6818 
   -7459    -7221    -6413    -5343    -4239    -3524    -3581    -4266 
   -5230    -6401    -7604    -8415    -8696    -8665    -8559    -8525 
   -8636    -8810    -8919    -8939    -8761    -8239    -7470    -6630 
   -5760    -4959    -4319    -3700    -3070    -2731    -2838    -3105 
   -3235    -3195    -3003    -2663    -2298    -2164    -2437    -2993 
   -3607    -4202    -4725    -5002    -4782    -4068    -3199    -2334 
   -1463     -814     -594     -897    -1752    -2882    -4027    -5247 
   -6611    -8144    -9748   -11081   -11917   -12334   -12594   -12966 
  -13429   -13871   -14280   -14359   -13730   -12550   -11119    -9421 
   -7605    -6140    -5274    -4849    -4620    -4417    -4110    -3590 
   -2680    -1198      574     1996     2867     3427     3741     3656 
    3132     2405     1647      597     -996    -2832    -4291    -4945 
   -4716    -3768    -2530    -1460     -680     -245     -310     -889 
   -1855    -3077    -4622    -6589    -8704   -10618   -12244   -13456 
  -14057   -14125   -14001   -13957   -13926   -13658   -13063   -12227 
  -11384   -10658    -9719    -8361    -6973    -5721    -4300    -2717 
   -1262      -84      890     1927     3121     4213     4892     4857 
    3946     2539     1215       23    -1230    -2395    -3286    -3948 
   -4353    -4395    -4225    -4204    -4510    -4918    -5093    -5166 
   -5619    -6495    -7353    -7828    -7816    -7514    -7276    -7334 
   -7860    -8900   -10145   -11095   -11389   -10967   -10010    -8971 
   -8398    -8367    -8545    -8641    -8324    -7269    -5508    -3515 
   -1928    -1000     -330      649     2018     3263     3690     2860 
     641    -2737    -6373    -9176   -10657   -10653    -9287    -7366 
   -5585    -4163    -3332    -3041    -2821    -2217    -1143      -95 
     465      676      821      988     1269     1822     2507     2729 
    2035      401    -1982    -4622    -6926    -8549    -9416    -9942 
  -10632   -11222   -11215   -10584    -9422    -7855    -6290    -5286 
   -5171    -5748    -6600    -7501    -8176    -8174    -7340    -6082 
   -5032    -4439    -4173    -4316    -5048    -6323    -7992    -9758 
  -11180   -11892   -11756   -11011   -10029    -8843    -7311    -5645 
   -4313    -3525    -3281    -3519    -3951    -4170    -3878    -3021 
   -1823     -482      920     1957     1877      301    -2377    -5268 
   -7707    -9566   -10894   -11648   -11832   -11729   -11567   -11017 
   -9795    -8283    -6897    -5718    -5037    -5313    -6398    -7544 
   -8362    -9089    -9878   -10631   -11627   -13461   -16003   -18354 
  -19904   -20417   -19594   -17418   -14532   -11806    -9306    -6533 
   -3627     -973     1504     3820     5748     7217     8312     9093 
    9571     9613     9005     7690     5660     3107      890     -151 
     -20      834     1984     3076     3595     3101     1831       94 
   -2044    -4104    -5545    -6085    -5547    -4205    -2655    -1149 
     180      572     -631    -2979    -5794    -8638   -10831   -11977 
  -12040   -10795    -8600    -6615    -5535    -5341    -5760    -6345 
   -6960    -7627    -7854    -7218    -5996    -4557    -2869     -929 
     818     1819     1873     1134     -145    -1798    -3529    -4856 
   -5602    -5952    -6105    -6266    -6498    -6699    -7001    -7581 
   -8185    -8406    -8167    -7554    -6503    -5098    -3535    -2014 
   -1255    -2144    -4668    -7879   -10701   -12525   -13057   -12224 
  -10526    -8864    -8062    -8508    -9903   -11676   -13423   -14638 
  -14814   -13868   -11953    -9440    -6990    -4953    -3258    -2050 
   -1673    -1991    -2317    -2239    -1835    -1093      110     1702 
    3331     4449     4709     4162     3000     1404     -309    -1644 
   -2299    -2339    -1944    -1289     -492      402     1225     1659 
    1428      326    -1625    -4033    -6468    -8628   -10202   -11117 
  -11734   -12491   -13494   -14680   -16120   -17763   -19336   -20542 
  -20953   -20238   -18525   -16188   -13666   -11252    -8925    -6716 
   -4817    -3388    -2388    -1527     -687       56      698     1142 
    1200      609     -827    -2740    -4487    -5880    -6969    -7587 
   -7599    -7094    -6065    -4482    -2686    -1028      515     1809 
    2425     2299     1901     1729     1928     2514     3535     4601 
    4963     4239     2384     -599    -4259    -7771   -10590   -12417 
  -13033   -12581   -11576   -10421    -9191    -8045    -7171    -6527 
   -6223    -6320    -6447    -6345    -6021    -5354    -4432    -3760 
   -3537    -3480    -3471    -3791    -4740    -6053    -7156    -7987 
   -8693    -9147    -9256    -9076    -8615    -7741    -6516    -5352 
   -4455    -3627    -2706    -1716     -676      352     1223     1855 
    2154     2114     1894     1294      -61    -2003    -4110    -6130 
   -7875    -9230   -10108   -10417   -10283   -10140   -10440   -11193 
  -12023   -12719   -13229   -13378   -13018   -12189   -11027    -9664 
   -8100    -6238    -4237    -2520    -1324     -687     -598     -753 
    -695     -213      862     2576     4497     6211     7695     8940 
    9780    10042     9596     8453     6890     5227     3712     2605 
    1886     1407     1299     1463     1447      969     -145    -2088 
   -4917    -8468   -12369   -16217   -19629   -22299   -24238   -25803 
  -27305   -28706   -29790   -30326   -30176   -29481   -28430   -26934 
  -24922   -22621   -20219   -17611   -14645   -11319    -7814    -4345 
    -990     2084     4513     6045     6825     7375     8063     8939 
   10058    11348    12646    14014    15452    16638    17270    17355 
   16938    16002    14701    13110    11138     9025     7169     5614 
    4194     2615      511    -2174    -5271    -8755   -12695   -16911 
  -20888   -24185   -26627   -28164   -28953   -29249   -29081   -28540 
  -27972   -27465   -26797   -25822   -24475   -22885   -21381   -20067 
  -18850   -17811   -17083   -16373   -15182   -13477   -11536    -9417 
   -6966    -4190    -1376     1313     3748     5527     6647     7643 
    8707     9676    10548    11411    12255    12875    13032    12730 
   12046    10932     9448     7821     6106     4222     2276      439 
   -1103    -2114    -2745    -3499    -4578    -5795    -6953    -7945 
   -8790    -9541   -10035   -10032    -9510    -8722    -8059    -7713 
   -7642    -7818    -8141    -8427    -8544    -8394    -8119    -8038 
   -8034    -7845    -7758    -7985    -8246    -8335    -8206    -7749 
   -6956    -5978    -4961    -4059    -3357    -2833    -2554    -2523 
   -2663    -2942    -3133    -3052    -2797    -2351    -1702    -1072 
    -583     -195      100      186     -173    -1020    -2060    -3011 
   -3761    -4246    -4362    -4035    -3416    -2766    -2239    -2048 
   -2539    -3850    -5764    -7984   -10235   -12133   -13355   -13837 
  -13754   -13420   -13035   -12692   -12507   -12495   -12613   -12835 
  -13063   -13278   -13476   -13416   -12972   -12191   -10960    -9197 
   -7036    -4773    -2750    -1088      135      762     1017     1418 
    2135     3048     4056     5036     5924     6601     6743     6179 
    5027     3441     1550     -505    -2535    -4287    -5566    -6334 
   -6767    -7263    -8212    -9705   -11496   -13115   -14125   -14467 
  -14291   -13579   -12349   -10877    -9574    -8709    -8164    -7769 
   -7666    -7939    -8465    -9152    -9852   -10280   -10151    -9291 
   -7748    -5757    -3583    -1468      457     2123     3403     4318 
    5013     5546     6032     6477     6615     6233     5351     4201 
    2966     1558     -175    -2246    -4414    -6434    -8345   -10152 
  -11718   -12847   -13393   -13554   -13642   -13736   -13858   -14005 
  -14096   -14171   -14273   -14307   -14136   -13527   -12387   -10864 
   -9068    -7160    -5391    -4019    -3256    -3028    -3012    -2878 
   -2432    -1661     -601      645     1924     3304     4869     6407 
    7702     8576     8731     8028     6566     4598     2510      520 
   -1377    -3088    -4544    -5843    -7034    -8107    -8940    -9365 
   -9552    -9742    -9985   -10351   -10767   -10991   -10925   -10624 
  -10133    -9341    -8186    -6923    -5863    -5090    -4594    -4395 
   -4527    -5018    -5849    -6903    -7994    -8866    -9238    -9059 
   -8505    -7699    -6712    -5652    -4639    -3776    -3154    -2808 
   -2674    -2663    -2619    -2221    -1262      125     1581     2721 
    3381     3464     2869     1747      225    -1610    -3396    -4785 
   -5680    -6174    -6457    -6519    -6284    -6125    -6542    -7588 
   -9032   -10571   -11857   -12713   -13151   -13063   -12358   -11237 
   -9867    -8322    -6931    -5931    -5243    -4815    -4630    -4538 
   -4422    -4213    -3752    -3129    -2599    -2216    -2043    -1950 
   -1590    -1025     -382      521     1544     2225     2406     2195 
    1611      661     -501    -1672    -2709    -3673    -4818    -6213 
   -7670    -9049   -10226   -11026   -11376   -11430   -11463   -11585 
  -11737   -11883   -12039   -12190   -12279   -12198   -11800   -11042 
  -10038    -8954    -7941    -7060    -6324    -5800    -5500    -5363 
   -5351    -5344    -5179    -4851    -4485    -4139    -3717    -3132 
   -2411    -1654    -1067     -776     -733     -795     -742     -603 
    -615     -702     -748     -860    -1008    -1130    -1193     -981 
    -388      377      923      891      244     -950    -2762    -5117 
   -7621    -9921   -11862   -13217   -13828   -13844   -13455   -12777 
  -11922   -11044   -10294    -9744    -9449    -9336    -9130    -8701 
   -8015    -6966    -5631    -4263    -3025    -1918    -1016     -556 
    -558     -726     -860     -906     -683      -31      983     2026 
    2594     2441     1672      293    -1694    -3889    -5808    -7277 
   -8210    -8541    -8358    -7829    -7178    -6532    -5870    -5384 
   -5360    -5796    -6508    -7299    -7912    -8075    -7668    -6830 
   -5848    -4889    -4047    -3551    -3573    -3982    -4581    -5366 
   -6304    -7081    -7271    -6718    -5543    -3952    -2228     -599 
     669     1159      969      622      251     -115     -182      119 
     470      571      412      181      -41     -417    -1059    -1929 
   -3077    -4523    -6024    -7252    -8019    -8249    -7961    -7384 
   -6830    -6492    -6377    -6428    -6787    -7533    -8331    -9040 
   -9915   -10982   -12035   -12895   -13423   -13656   -13711   -13621 
  -13491   -13461   -13525   -13602   -13536   -13091   -12156   -10762 
   -9003    -7184    -5608    -4197    -2782    -1504     -616     -141 
      75      182      285      375      336       82     -270     -420 
    -214      133      317      324      244      -85     -793    -1620 
   -2303    -2851    -3230    -3449    -3704    -3987    -4212    -4492 
   -4921    -5518    -6273    -7216    -8459    -9940   -11405   -12671 
  -13650   -14278   -14585   -14629   -14353   -13764   -12971   -11977 
  -10857    -9696    -8356    -6800    -5108    -3177    -1098      762 
    2254     3377     3959     3815     3045     1947      685     -586 
   -1592    -2307    -2860    -3185    -3273    -3302    -3441    -3771 
