Origin Time       2025/01/13 21:19:00
Lat.              31.8
Long.             131.6
Depth. (km)       30
Mag.              6.9
Station Code      KGS025
Station Lat.      30.7319
Station Long.     130.9977
Station Height(m) 15
Record Time       2025/01/13 21:20:11
Sampling Freq(Hz) 100Hz
Duration Time(s)  80
Dir.              N-S
Scale Factor      3920(gal)/6182761
Max. Acc. (gal)   3.348
Last Correction   2025/01/13 21:20:11
Memo.             
[...]
    1876     1735     1585     1450     1367     1323     1278     1204 
    1116     1053     1034     1021      977      911      852      824 
     840      896      973     1019      986      886      757      615 
     450      284      157       73       26       37      102      196 
     339      551      797     1004     1116     1138     1117     1100 
    1122     1191     1264     1288     1246     1186     1183     1246 
    1338     1436     1524     1576     1582     1564     1533     1475 
    1416     1371     1335     1334     1382     1427     1422     1378 
    1317     1251     1203     1193     1215     1258     1300     1302 
    1275     1263     1271     1300     1340     1329     1228     1066 
     869      660      510      471      517      590      642      634 
     551      426      313      278      347      482      620      737 
     840      925      979     1015     1061     1112     1168     1270 
    1401     1508     1591     1644     1646     1599     1521     1459 
    1461     1524     1610     1681     1714     1705     1654     1574 
    1480     1353     1183     1001      829      680      566      495 
     481      522      605      731      885     1020     1121     1213 
    1320     1437     1530     1588     1636     1698     1787     1892 
    1979     2031     2045     2042     2040     2034     2042     2073 
    2073     2018     1949     1881     1821     1798     1825     1868 
    1879     1837     1745     1623     1503     1395     1292     1229 
    1228     1250     1253     1226     1167     1090     1033     1022 
    1018      970      870      727      582      501      502      550 
     600      605      521      339      129      -11      -74      -90 
     -42       50      131      176      146        9     -204     -437 
    -673     -920    -1158    -1351    -1473    -1480    -1341    -1097 
    -803     -486     -145      256      722     1191     1615     1994 
    2350     2708     3071     3409     3666     3801     3842     3840 
    3804     3735     3649     3567     3519     3524     3562     3594 
    3596     3555     3461     3342     3237     3112     2899     2611 
    2299     1992     1735     1556     1402     1220     1014      816 
     655      529      416      298      163       10     -143     -276 
    -353     -343     -257     -123       53      262      483      701 
     926     1186     1498     1868     2290     2742     3176     3549 
    3868     4142     4330     4374     4240     3942     3545     3130 
    2742     2393     2072     1723     1310      879      492      167 
    -111     -351     -558     -747     -906    -1021    -1091    -1102 
   -1071    -1060    -1131    -1307    -1559    -1837    -2078    -2213 
   -2228    -2170    -2077    -1975    -1864    -1701    -1461    -1155 
    -803     -422      -75      166      327      499      705      892 
    1016     1063     1033      955      881      860      915     1041 
    1220     1410     1591     1787     2009     2237     2444     2614 
    2733     2792     2779     2727     2698     2723     2787     2878 
    3003     3160     3301     3383     3407     3395     3352     3263 
    3119     2929     2741     2584     2421     2258     2141     2056 
    1970     1891     1832     1786     1758     1748     1740     1714 
    1649     1518     1341     1170     1028      912      829      809 
     870      987     1121     1225     1281     1313     1334     1334 
    1346     1424     1543     1639     1719     1810     1899     1963 
    2001     2004     1958     1883     1811     1729     1630     1543 
    1473     1380     1273     1205     1165     1096      959      732 
     431      151      -16      -79     -107     -136     -153     -145 
    -128     -115      -81       15      148      238      241      182 
     120      115      189      306      401      437      443      475 
     546      638      710      728      701      659      602      526 
     441      365      326      327      334      319      287      252 
     249      325      449      529      540      542      610      804 
    1118     1446     1677     1802     1868     1896     1898     1897 
    1879     1801     1658     1494     1363     1272     1167     1037 
     957      964     1016     1074     1150     1225     1255     1291 
    1389     1493     1547     1578     1618     1660     1693     1722 
    1752     1748     1695     1627     1558     1487     1405     1273 
    1090      906      744      585      413      250      156      165 
     255      366      446      492      520      543      610      760 
     964     1174     1356     1494     1587     1631     1623     1567 
    1450     1278     1081      878      714      633      645      745 
     897     1065     1241     1398     1481     1474     1418     1356 
    1298     1245     1205     1184     1202     1267     1340     1380 
    1386     1372     1358     1349     1317     1243     1143     1061 
    1053     1141     1271     1409     1574     1777     1985     2157 
    2282     2370     2445     2531     2627     2702     2717     2630 
    2431     2162     1836     1443     1011      586      200     -124 
    -379     -574     -732     -880    -1023    -1135    -1188    -1189 
   -1190    -1226    -1293    -1377    -1441    -1430    -1305    -1053 
    -723     -406     -155       50      246      440      605      734 
     856      996     1159     1346     1588     1922     2302     2660 
    3009     3372     3734     4081     4388     4629     4808     4936 
    5029     5067     4993     4822     4637     4496     4423     4413 
    4449     4513     4565     4577     4536     4431     4275     4089 
    3856     3565     3226     2845     2424     1953     1432      904 
     409      -51     -469     -822    -1082    -1212    -1194    -1085 
    -965     -857     -764     -729     -770     -827     -861     -893 
    -922     -926     -909     -882     -836     -762     -670     -577 
    -497     -443     -393     -309     -197      -49      178      466 
     741      936     1021     1030     1024     1000      913      746 
     546      387      290      241      258      360      516      670 
     769      780      688      522      332      158       44       23 
      43       33        9        8       27       43       60      126 
     239      334      400      477      590      752      947     1111 
    1198     1239     1284     1357     1449     1533     1578     1608 
    1683     1805     1927     2023     2103     2205     2360     2543 
    2714     2873     3039     3215     3360     3431     3443     3448 
    3480     3537     3590     3590     3524     3409     3279     3173 
    3120     3121     3133     3090     2978     2827     2680     2577 
    2516     2445     2356     2239     2055     1817     1545     1235 
     903      562      216     -111     -376     -558     -657     -636 
    -473     -260      -78       92      279      475      674      876 
    1072     1246     1379     1463     1495     1505     1547     1647 
    1785     1908     1972     2010     2097     2227     2352     2422 
    2363     2154     1854     1523     1213      955      723      459 
     144     -185     -507     -819    -1087    -1288    -1439    -1496 
   -1395    -1168     -887     -572     -231      101      388      639 
     858     1004     1055     1064     1067     1058     1015      905 
     734      564      464      448      465      458      422      367 
     288      203      153      157      207      311      470      645 
     815     1023     1274     1494     1652     1791     1937     2058 
    2135     2225     2360     2487     2556     2588     2623     2673 
    2736     2839     3013     3221     3435     3674     3921     4140 
    4344     4520     4637     4724     4799     4794     4664     4463 
    4255     4045     3813     3550     3262     2966     2644     2253 
    1811     1362      910      471      119     -111     -253     -341 
    -386     -380     -336     -310     -320     -334     -331     -307 
    -279     -274     -281     -252     -157      -10      148      308 
     496      708      933     1161     1359     1510     1627     1720 
    1788     1817     1801     1759     1730     1776     1920     2122 
    2348     2546     2636     2640     2635     2641     2645     2613 
    2514     2370     2204     2021     1870     1815     1858     1990 
    2229     2513     2704     2743     2684     2558     2360     2120 
    1833     1446      961      433      -99     -593    -1005    -1308 
   -1504    -1657    -1840    -2045    -2220    -2335    -2380    -2356 
   -2290    -2218    -2141    -2027    -1852    -1641    -1437    -1257 
   -1072     -866     -674     -517     -343      -94      241      616 
     938     1166     1334     1472     1577     1673     1761     1792 
    1755     1717     1742     1831     1948     2081     2228     2381 
    2516     2608     2692     2826     3011     3202     3328     3332 
    3228     3064     2867     2669     2487     2291     2076     1882 
    1736     1631     1532     1385     1187      992      849      744 
     630      514      465      538      724      978     1243     1467 
    1603     1627     1559     1421     1220      964      676      403 
     184        5     -160     -291     -398     -515     -619     -673 
    -672     -616     -504     -354     -222     -146      -97      -46 
      14       95      211      367      568      790      995     1170 
    1352     1585     1873     2180     2502     2838     3161     3460 
    3735     4001     4269     4526     4757     4992     5281     5595 
    5837     5952     5945     5835     5648     5417     5178     4948 
    4710     4452     4178     3870     3491     3023     2473     1849 
    1172      503     -116     -665    -1113    -1438    -1632    -1698 
   -1663    -1546    -1330    -1002     -569      -69      451      940 
    1356     1701     1998     2249     2481     2717     2940     3153 
    3382     3599     3760     3855     3889     3891     3908     3938 
    3923     3836     3699     3542     3363     3144     2888     2598 
    2305     2054     1834     1600     1352     1107      876      691 
     557      439      306      166       34     -126     -372     -695 
   -1073    -1503    -1933    -2300    -2594    -2832    -3018    -3140 
   -3188    -3176    -3119    -3012    -2877    -2752    -2639    -2535 
   -2446    -2362    -2276    -2176    -2055    -1938    -1860    -1847 
   -1904    -2006    -2127    -2254    -2340    -2334    -2212    -1985 
   -1687    -1358     -996     -573      -92      405      891     1358 
    1800     2188     2496     2747     2949     3074     3123     3115 
    3058     2955     2797     2599     2408     2244     2090     1941 
    1842     1840     1892     1935     1976     2007     1991     1925 
    1808     1640     1467     1330     1248     1240     1287     1336 
    1365     1377     1380     1362     1279     1115      889      631 
     399      245      166      149      196      326      578      957 
    1436     1990     2575     3138     3640     4065     4431     4789 
    5174     5559     5847     5943     5827     5503     4976     4315 
    3627     2972     2361     1797     1275      784      313     -130 
    -486     -703     -798     -832     -865     -906     -927     -937 
    -973    -1036    -1102    -1164    -1214    -1223    -1169    -1074 
   -1003     -989     -981     -900     -705     -385       72      665 
    1329     1964     2539     3066     3498     3786     3915     3875 
    3676     3362     2983     2582     2194     1845     1559     1381 
    1334     1357     1381     1408     1469     1569     1720     1935 
    2182     2454     2800     3258     3808     4375     4849     5165 
    5332     5370     5267     5000     4606     4173     3749     3339 
    2973     2659     2383     2168     2013     1856     1653     1393 
    1100      808      538      325      202      190      315      542 
     769      920      952      846      629      324      -63     -494 
    -904    -1222    -1405    -1467    -1453    -1391    -1259    -1032 
    -762     -528     -351     -214     -131     -125     -159     -192 
    -226     -251     -235     -159      -30      126      301      504 
     741     1020     1317     1577     1805     2033     2235     2369 
    2408     2352     2257     2179     2124     2089     2103     2184 
    2274     2291     2190     1957     1608     1171      681      202 
    -195     -457     -583     -626     -631     -623     -622     -639 
    -666     -673     -655     -613     -517     -371     -231     -127 
     -71      -84     -161     -253     -295     -240      -94      103 
     310      512      717      916     1093     1235     1316     1338 
    1310     1222     1097     1002      978     1045     1259     1663 
    2202     2782     3341     3822     4166     4363     4422     4354 
    4216     4090     4026     4027     4095     4231     4413     4607 
    4772     4871     4878     4773     4566     4305     4018     3702 
    3363     3052     2810     2620     2430     2234     2061     1902 
    1715     1491     1247      992      728      462      198      -43 
    -249     -432     -591     -714     -810     -903    -1024    -1214 
   -1475    -1753    -1993    -2195    -2377    -2551    -2745    -2963 
   -3172    -3363    -3557    -3743    -3888    -3987    -4049    -4063 
   -3999    -3862    -3691    -3504    -3288    -3068    -2890    -2760 
   -2659    -2563    -2406    -2140    -1786    -1368     -890     -370 
     161      696     1232     1769     2292     2762     3132     3396 
    3590     3743     3867     3994     4153     4314     4450     4591 
    4757     4934     5130     5360     5612     5842     6009     6106 
    6165     6213     6223     6163     6069     5986     5909     5829 
    5742     5626     5439     5133     4711     4222     3729     3274 
    2840     2385     1920     1467     1008      526       58     -326 
    -581     -671     -586     -385     -121      205      572      926 
    1213     1405     1503     1529     1504     1433     1313     1173 
    1039      922      840      804      787      768      735      662 
     576      553      603      646      627      582      548      520 
     493      452      380      307      275      284      310      313 
     250      116      -34     -138     -161     -118      -36       96 
     304      555      783      947     1023     1025     1001      967 
     908      831      773      759      791      851      935     1044 
    1165     1271     1314     1277     1198     1094      965      832 
     707      582      466      386      349      344      364      400 
     464      571      711      859      995     1122     1252     1387 
    1527     1666     1783     1860     1903     1948     2027     2121 
    2198     2263     2322     2354     2332     2260     2166     2061 
    1949     1825     1671     1486     1285     1103      960      822 
     644      434      209      -33     -293     -566     -827    -1044 
   -1207    -1335    -1433    -1485    -1476    -1405    -1278    -1107 
    -908     -705     -523     -365     -216      -57      114      287 
     468      693      984     1316     1639     1940     2224     2489 
    2733     2946     3131     3311     3503     3703     3889     4033 
    4121     4152     4141     4108     4070     4041     4019     4001 
    3990     3972     3915     3814     3677     3495     3275     3030 
    2762     2513     2344     2256     2201     2153     2099     2021 
    1908     1753     1548     1324     1111      901      683      434 
     146     -145     -431     -732    -1034    -1303    -1537    -1748 
   -1940    -2107    -2253    -2367    -2415    -2373    -2253    -2096 
   -1924    -1728    -1506    -1288    -1101     -933     -728     -438 
     -64      367      853     1414     2045     2693     3278     3736 
    4067     4306     4457     4539     4600     4650     4673     4682 
    4664     4588     4472     4361     4277     4217     4146     4026 
    3855     3652     3416     3158     2951     2865     2909     3059 
    3274     3532     3812     4066     4240     4311     4277     4139 
    3906     3614     3306     3010     2748     2510     2251     1954 
    1625     1281      947      648      421      278      187      133 
     141      219      347      481      581      632      640      629 
     605      553      468      368      255      109      -71     -273 
    -496     -729     -956    -1166    -1344    -1487    -1589    -1640 
   -1662    -1680    -1670    -1611    -1501    -1353    -1190    -1042 
    -921     -821     -729     -644     -566     -478     -369     -249 
    -126       15      212      488      824     1176     1495     1743 
    1882     1902     1836     1724     1583     1411     1203      982 
     773      577      392      227       82      -40     -139     -214 
    -263     -285     -265     -177       -6      244      551      870 
    1176     1458     1687     1849     1957     2029     2074     2099 
    2127     2159     2165     2130     2080     2030     1993     2004 
    2078     2200     2358     2545     2751     2981     3228     3465 
    3692     3936     4209     4487     4724     4893     5002     5087 
    5187     5298     5387     5440     5457     5455     5451     5431 
    5356     5219     5050     4889     4737     4558     4334     4073 
    3776     3422     3018     2597     2185     1803     1443     1084 
     734      401       81     -224     -506     -764     -984    -1153 
   -1274    -1356    -1409    -1458    -1540    -1665    -1814    -1964 
   -2102    -2212    -2281    -2300    -2261    -2166    -2031    -1875 
   -1709    -1547    -1401    -1268    -1139    -1016     -904     -803 
    -708     -605     -478     -329     -202     -143     -135     -146 
    -167     -190     -210     -239     -269     -271     -239     -186 
    -128      -65       -4       53      105      159      244      381 
     557      747      946     1154     1357     1537     1681     1792 
    1871     1917     1903     1812     1676     1516     1340     1176 
    1046      944      859      785      721      667      627      606 
     594      587      599      620      633      650      688      746 
     823      919     1010     1077     1122     1159     1207     1279 
    1366     1462     1606     1814     2051     2286     2504     2695 
    2841     2933     2981     2989     2962     2926     2892     2855 
    2817     2768     2702     2619     2526     2449     2404     2387 
    2389     2391     2377     2355     2341     2344     2350     2325 
    2263     2181     2077     1933     1765     1603     1439     1267 
    1112      983      868      756      623      491      406      362 
     352      395      492      635      795      928     1032     1139 
    1259     1389     1511     1603     1684     1780     1881     1971 
    2048     2113     2174     2237     2283     2284     2228     2098 
    1894     1667     1449     1250     1080      939      831      769 
     741      711      675      656      661      653      603      511 
