Origin Time       2025/01/13 21:19:00
Lat.              31.8
Long.             131.6
Depth. (km)       30
Mag.              6.9
Station Code      KGS028
Station Lat.      30.4204
Station Long.     130.5771
Station Height(m) 41
Record Time       2025/01/13 21:20:35
Sampling Freq(Hz) 100Hz
Duration Time(s)  60
Dir.              N-S
Scale Factor      3920(gal)/6182761
Max. Acc. (gal)   1.651
Last Correction   2025/01/13 21:20:36
Memo.             
[...]
   -4985    -4759    -4785    -4941    -4851    -4540    -4303    -4297 
   -4479    -4503    -4145    -3896    -4237    -4673    -4563    -4154 
   -4013    -4272    -4610    -4577    -4202    -4030    -4189    -4269 
   -4269    -4471    -4611    -4341    -3931    -3791    -3906    -3980 
   -3911    -3965    -4262    -4424    -4162    -3848    -4020    -4470 
   -4480    -3998    -3724    -3950    -4174    -3974    -3656    -3773 
   -4340    -4854    -4951    -4812    -4846    -5071    -5084    -4687 
   -4209    -4132    -4579    -5184    -5400    -5195    -5148    -5445 
   -5571    -5308    -5031    -4984    -5088    -5279    -5380    -5131 
   -4723    -4560    -4687    -5037    -5454    -5560    -5379    -5365 
   -5471    -5203    -4606    -4278    -4422    -4612    -4566    -4538 
   -4738    -4927    -4867    -4658    -4538    -4640    -4784    -4698 
   -4528    -4569    -4824    -5073    -4969    -4485    -4149    -4178 
   -4163    -4051    -4261    -4693    -4830    -4694    -4686    -4826 
   -4844    -4702    -4620    -4615    -4499    -4434    -4663    -4805 
   -4435    -3960    -3976    -4396    -4688    -4477    -4034    -4076 
   -4650    -4890    -4332    -3696    -3924    -4827    -5332    -5000 
   -4446    -4210    -4227    -4411    -4747    -4873    -4558    -4222 
   -4168    -4139    -4057    -4211    -4744    -5379    -5486    -4839 
   -4102    -3833    -3779    -3650    -3618    -3884    -4415    -4934 
   -5170    -5231    -5281    -5174    -4873    -4610    -4468    -4366 
   -4243    -3995    -3688    -3644    -3896    -4158    -4384    -4676 
   -4966    -5091    -5044    -4990    -4892    -4642    -4487    -4601 
   -4780    -4856    -4832    -4732    -4678    -4765    -4820    -4717 
   -4592    -4546    -4674    -5008    -5121    -4703    -4325    -4494 
   -4792    -4838    -4731    -4516    -4458    -4952    -5484    -5136 
   -4253    -3949    -4329    -4692    -4688    -4406    -4118    -4167 
   -4615    -4984    -4799    -4374    -4317    -4437    -4231    -3925 
   -3953    -4160    -4188    -4047    -3917    -3893    -4171    -4800 
   -5356    -5483    -5301    -5050    -4834    -4677    -4595    -4580 
   -4538    -4449    -4506    -4713    -4699    -4432    -4368    -4609 
   -4802    -4791    -4729    -4672    -4547    -4408    -4371    -4459 
   -4603    -4699    -4683    -4616    -4605    -4569    -4409    -4311 
   -4507    -4977    -5380    -5335    -4894    -4434    -4177    -4173 
   -4409    -4685    -4794    -4758    -4646    -4433    -4165    -3971 
   -3882    -3799    -3640    -3575    -3938    -4619    -4957    -4612 
   -4092    -3978    -4233    -4586    -4848    -4773    -4355    -4008 
   -4040    -4287    -4382    -4193    -4004    -4182    -4588    -4762 
   -4668    -4656    -4792    -4773    -4513    -4325    -4330    -4255 
   -4057    -4030    -4205    -4366    -4577    -4976    -5333    -5382 
   -5188    -4942    -4816    -4836    -4867    -4886    -4873    -4723 
   -4674    -5007    -5339    -5246    -5072    -5262    -5549    -5439 
   -5012    -4676    -4501    -4260    -3899    -3723    -4045    -4779 
   -5376    -5330    -4927    -4863    -5114    -5081    -4658    -4389 
   -4520    -4624    -4460    -4330    -4505    -4902    -5216    -5274 
   -5155    -5016    -4961    -4890    -4690    -4606    -4833    -5028 
   -4917    -4893    -5254    -5498    -5178    -4650    -4314    -4100 
   -3977    -4063    -4264    -4402    -4519    -4650    -4666    -4604 
   -4661    -4750    -4654    -4451    -4313    -4186    -3990    -3874 
   -4004    -4214    -4330    -4595    -5116    -5465    -5316    -5005 
   -5071    -5358    -5169    -4390    -3777    -3938    -4478    -4593 
   -4211    -3926    -4081    -4410    -4416    -4060    -3876    -4126 
   -4436    -4569    -4648    -4717    -4766    -4646    -4042    -3272 
   -3165    -3707    -4049    -3946    -3946    -4169    -4228    -4258 
   -4545    -4733    -4596    -4500    -4571    -4539    -4432    -4473 
   -4589    -4631    -4684    -4904    -5317    -5741    -5819    -5372 
   -4721    -4371    -4349    -4323    -4305    -4426    -4626    -4979 
   -5413    -5484    -5077    -4623    -4464    -4495    -4501    -4436 
   -4392    -4608    -5059    -5218    -4953    -4892    -5336    -5726 
   -5533    -5007    -4737    -4823    -4929    -4877    -4722    -4530 
   -4452    -4709    -5206    -5441    -5075    -4433    -4141    -4349 
   -4645    -4744    -4761    -4844    -5048    -5183    -4845    -4268 
   -4256    -4828    -5129    -4708    -4037    -3782    -4008    -4304 
   -4368    -4145    -3822    -3870    -4467    -5047    -5114    -4853 
   -4595    -4490    -4495    -4340    -3985    -3855    -4119    -4359 
   -4359    -4424    -4742    -5102    -5268    -5252    -5174    -5102 
   -5017    -4844    -4583    -4350    -4307    -4494    -4733    -4803 
   -4668    -4508    -4545    -4755    -4850    -4598    -4092    -3737 
   -3937    -4553    -4841    -4484    -4072    -4106    -4526    -5000 
   -5070    -4719    -4561    -4827    -5006    -4873    -4754    -4686 
   -4498    -4354    -4395    -4511    -4661    -4872    -5032    -5015 
   -4839    -4515    -4183    -4196    -4512    -4632    -4392    -4071 
   -3930    -4142    -4611    -4901    -4801    -4426    -3881    -3540 
   -3879    -4560    -4782    -4535    -4401    -4526    -4640    -4542 
   -4234    -3969    -4052    -4345    -4407    -4289    -4468    -4856 
   -4899    -4588    -4419    -4574    -4797    -4897    -4877    -4778 
   -4702    -4751    -4870    -5012    -5289    -5522    -5291    -4776 
   -4535    -4566    -4513    -4405    -4535    -4862    -4957    -4697 
   -4592    -4904    -5171    -5148    -5024    -4699    -4158    -3862 
   -3927    -3995    -4091    -4450    -4852    -5017    -4957    -4734 
   -4499    -4394    -4307    -4203    -4276    -4481    -4533    -4393 
   -4315    -4410    -4386    -4031    -3735    -3908    -4380    -4614 
   -4291    -3901    -4104    -4556    -4698    -4839    -5218    -5368 
   -5072    -4681    -4460    -4497    -4779    -4930    -4615    -4205 
   -4276    -4713    -4995    -4978    -4807    -4536    -4239    -4148 
   -4335    -4518    -4521    -4441    -4276    -4125    -4297    -4658 
   -4626    -4129    -3769    -3866    -4042    -3963    -3913    -4189 
   -4421    -4382    -4525    -4895    -4959    -4745    -4701    -4740 
   -4586    -4454    -4515    -4570    -4650    -4994    -5448    -5547 
   -5257    -5061    -5103    -5039    -4676    -4183    -4017    -4498 
   -5170    -5267    -4836    -4537    -4585    -4691    -4716    -4704 
   -4620    -4511    -4515    -4611    -4685    -4651    -4467    -4285 
   -4323    -4537    -4806    -5202    -5486    -5152    -4391    -3950 
   -4083    -4437    -4609    -4547    -4601    -4910    -5019    -4712 
   -4438    -4481    -4630    -4606    -4365    -4200    -4384    -4782 
   -5093    -5146    -5009    -4957    -5058    -4982    -4633    -4357 
   -4281    -4345    -4517    -4471    -4041    -3773    -4089    -4475 
   -4319    -3886    -3808    -4218    -4677    -4726    -4429    -4111 
   -3918    -3959    -4275    -4689    -5074    -5358    -5323    -5001 
   -4809    -4782    -4584    -4322    -4293    -4482    -4865    -5406 
   -5776    -5731    -5393    -4927    -4523    -4516    -4873    -5039 
   -4752    -4369    -4257    -4390    -4507    -4424    -4209    -4005 
   -3876    -4010    -4518    -4925    -4757    -4374    -4297    -4483 
   -4824    -5285    -5587    -5540    -5197    -4625    -4010    -3656 
   -3654    -3915    -4419    -5021    -5421    -5625    -5690    -5476 
   -5081    -4619    -3985    -3479    -3679    -4494    -5154    -5104 
   -4589    -4376    -4751    -5088    -4923    -4686    -4641    -4316 
   -3635    -3313    -3686    -4351    -4839    -4908    -4763    -4945 
   -5383    -5396    -4856    -4206    -3675    -3474    -3838    -4410 
   -4592    -4462    -4538    -4894    -5214    -5292    -5048    -4560 
   -4131    -3974    -3952    -3816    -3642    -3771    -4280    -4782 
   -4881    -4614    -4263    -4065    -4137    -4347    -4419    -4238 
   -3912    -3731    -3943    -4312    -4368    -4128    -3961    -3965 
   -4137    -4541    -4784    -4439    -3932    -3900    -4249    -4495 
   -4454    -4370    -4502    -4739    -4776    -4586    -4411    -4363 
   -4317    -4167    -3939    -3739    -3766    -4062    -4353    -4449 
   -4388    -4220    -4114    -4272    -4447    -4268    -3997    -4074 
   -4377    -4570    -4598    -4610    -4622    -4534    -4459    -4513 
   -4554    -4506    -4439    -4401    -4508    -4734    -4725    -4392 
   -4214    -4464    -4776    -4815    -4761    -4831    -4825    -4562 
   -4291    -4305    -4646    -5185    -5646    -5795    -5720    -5636 
   -5519    -5182    -4574    -3976    -3841    -4202    -4719    -5184 
   -5456    -5568    -5710    -5740    -5416    -4973    -4756    -4633 
   -4407    -4317    -4507    -4741    -4822    -4806    -4903    -5058 
   -4874    -4355    -4088    -4393    -4825    -4682    -3894    -3261 
   -3399    -3895    -4222    -4530    -4988    -5388    -5561    -5530 
   -5225    -4647    -4200    -4235    -4550    -4718    -4593    -4469 
   -4763    -5412    -5829    -5650    -5231    -5120    -5285    -5272 
   -4877    -4330    -4119    -4573    -5247    -5448    -5382    -5636 
   -5900    -5444    -4573    -4243    -4512    -4730    -4799    -5111 
   -5697    -6132    -6014    -5448    -5061    -5153    -5208    -4828 
   -4384    -4244    -4226    -4077    -3873    -3901    -4273    -4734 
   -4931    -4693    -4162    -3696    -3424    -3208    -3109    -3320 
   -3728    -4123    -4537    -4882    -4834    -4499    -4286    -4089 
   -3760    -3742    -4173    -4523    -4604    -4702    -4884    -5008 
   -4971    -4701    -4315    -4156    -4351    -4539    -4307    -3825 
   -3670    -3853    -3850    -3751    -4083    -4635    -4750    -4398 
   -4087    -4029    -3951    -3675    -3444    -3548    -3994    -4501 
   -4726    -4574    -4191    -3827    -3710    -3724    -3647    -3684 
   -4025    -4419    -4703    -4992    -5228    -5229    -5039    -4940 
   -5094    -5162    -4798    -4362    -4255    -4301    -4392    -4611 
   -4794    -4881    -5052    -5196    -5144    -5100    -5126    -4901 
   -4285    -3652    -3557    -4035    -4489    -4619    -4719    -4773 
   -4537    -4342    -4523    -4722    -4673    -4637    -4638    -4490 
   -4346    -4276    -4189    -4288    -4604    -4687    -4462    -4525 
   -5041    -5228    -4636    -3985    -3976    -4257    -4327    -4420 
   -4679    -4667    -4295    -3983    -3963    -4176    -4584    -5128 
   -5410    -5204    -4937    -4794    -4450    -3956    -3681    -3682 
   -3757    -3776    -3822    -3946    -3997    -4048    -4420    -5024 
   -5468    -5734    -5852    -5530    -4883    -4465    -4384    -4407 
   -4470    -4630    -4928    -5194    -5157    -4945    -4815    -4614 
   -4250    -4043    -4083    -4118    -4231    -4743    -5444    -5692 
   -5420    -5223    -5337    -5471    -5358    -4891    -4206    -3746 
   -3819    -4192    -4398    -4356    -4368    -4586    -4797    -4817 
   -4802    -4821    -4609    -4177    -3889    -3821    -3765    -3699 
   -3785    -4114    -4594    -4983    -5130    -5134    -5186    -5388 
   -5640    -5636    -5209    -4664    -4503    -4627    -4543    -4428 
   -4708    -5092    -5110    -4797    -4496    -4590    -5063    -5243 
   -4745    -4203    -4126    -4100    -3783    -3561    -3800    -4219 
   -4443    -4644    -4955    -4891    -4232    -3659    -3686    -3984 
   -4128    -4127    -4348    -4997    -5708    -6027    -5947    -5720 
   -5586    -5702    -5876    -5665    -5064    -4503    -4328    -4537 
   -4799    -4943    -5160    -5594    -6078    -6167    -5768    -5561 
   -5872    -5972    -5432    -4803    -4485    -4384    -4470    -4660 
   -4797    -4996    -5381    -5642    -5445    -4892    -4173    -3534 
   -3444    -3897    -4292    -4398    -4471    -4595    -4738    -5015 
   -5195    -4804    -4087    -3701    -3659    -3575    -3518    -3811 
   -4400    -4948    -5240    -5302    -5236    -5073    -4826    -4430 
   -3772    -2998    -2580    -2846    -3447    -3710    -3647    -3895 
   -4636    -5323    -5380    -4766    -4056    -3899    -4151    -4114 
   -3730    -3628    -4007    -4482    -4760    -4781    -4701    -4767 
   -4873    -4685    -4239    -3978    -4134    -4353    -4324    -4216 
   -4166    -4115    -4194    -4485    -4581    -4157    -3591    -3310 
   -3313    -3671    -4563    -5727    -6471    -6533    -6455    -6561 
   -6455    -5939    -5246    -4516    -4008    -4156    -4789    -5214 
   -5225    -5119    -5053    -5101    -5274    -5187    -4591    -3911 
   -3533    -3374    -3451    -3920    -4559    -5047    -5333    -5395 
   -5318    -5312    -5287    -4924    -4230    -3610    -3359    -3372 
   -3389    -3333    -3366    -3584    -3872    -4174    -4418    -4379 
   -4126    -3911    -3708    -3554    -3696    -4077    -4379    -4444 
   -4299    -4094    -3945    -3744    -3514    -3554    -3954    -4480 
   -4859    -4933    -4789    -4616    -4455    -4229    -3888    -3590 
   -3565    -3685    -3602    -3332    -3285    -3686    -4317    -4756 
   -4753    -4606    -4878    -5454    -5616    -5222    -4846    -4799 
   -4841    -4913    -5426    -6309    -6712    -6480    -6476    -6861 
   -6837    -6153    -5289    -4588    -4201    -4314    -4934    -5824 
   -6692    -7179    -6865    -5840    -4927    -4715    -4905    -5036 
   -5110    -5273    -5550    -5922    -6245    -6250    -5890    -5504 
   -5402    -5489    -5464    -5218    -4897    -4459    -3676    -2815 
   -2556    -3137    -4106    -4821    -4949    -4683    -4531    -4656 
   -4589    -3941    -3043    -2467    -2401    -2749    -3353    -3985 
   -4463    -4846    -5158    -5248    -5216    -5218    -4985    -4363 
   -3754    -3534    -3674    -3947    -4099    -4101    -4354    -5100 
   -5764    -5650    -5057    -4781    -4876    -4780    -4315    -3855 
   -3728    -3928    -4312    -4765    -5194    -5494    -5596    -5465 
   -5116    -4658    -4139    -3663    -3693    -4426    -5151    -5085 
   -4409    -3900    -4018    -4577    -5039    -5103    -4926    -4903 
   -5129    -5066    -4496    -4109    -4227    -4284    -3929    -3544 
   -3590    -3846    -3808    -3485    -3280    -3607    -4482    -5187 
   -5155    -4851    -4836    -4876    -4757    -4733    -4855    -4958 
   -5034    -4948    -4466    -3801    -3486    -3710    -4009    -3727 
   -3031    -2958    -3887    -4886    -5065    -4618    -4322    -4610 
   -5152    -5304    -4908    -4504    -4546    -4635    -4235    -3724 
   -3839    -4537    -5123    -5247    -5139    -5001    -4841    -4705 
   -4625    -4754    -5235    -5618    -5444    -5153    -5176    -5162 
   -4984    -5058    -5242    -4928    -4293    -4110    -4507    -4847 
   -4640    -4156    -3930    -3955    -3961    -4056    -4387    -4619 
   -4475    -4299    -4337    -4245    -3848    -3504    -3477    -3661 
   -3992    -4450    -4766    -4776    -4643    -4482    -4309    -4270 
   -4531    -4972    -5223    -4999    -4341    -3760    -3803    -4256 
   -4365    -3992    -3922    -4661    -5599    -5762    -4972    -4120 
   -3946    -3950    -3559    -3364    -3911    -4436    -4059    -3268 
   -3196    -4063    -5035    -5457    -5524    -5448    -5133    -4766 
   -4504    -4124    -3614    -3346    -3586    -4169    -4744    -5182 
   -5289    -4793    -4051    -3725    -3825    -3845    -3644    -3604 
   -3994    -4559    -4824    -4616    -4179    -3836    -3694    -3688 
   -3827    -4161    -4446    -4329    -3872    -3427    -3279    -3531 
   -3935    -4137    -4288    -4735    -5168    -5027    -4482    -4060 
   -3969    -4185    -4582    -4952    -5237    -5601    -6104    -6400 
   -6038    -5124    -4359    -4228    -4556    -4989    -5237    -5133 
   -4947    -5062    -5335    -5299    -4859    -4576    -5020    -5838 
   -6202    -6012    -5736    -5556    -5386    -5171    -4890    -4638 
   -4630    -4875    -5201    -5572    -5899    -5861    -5477    -5259 
   -5469    -5869    -6126    -5964    -5319    -4645    -4461    -4613 
   -4692    -4815    -5337    -6182    -6816    -6694    -5834    -4928 
   -4626    -4790    -4830    -4650    -4678    -5060    -5469    -5558 
   -5214    -4676    -4398    -4469    -4417    -3993    -3611    -3639 
   -3956    -4326    -4641    -5057    -5761    -6363    -6294    -5742 
   -5231    -4830    -4517    -4410    -4354    -4161    -4124    -4528 
   -4995    -5084    -5027    -5199    -5460    -5448    -4997    -4195 
   -3448    -3241    -3470    -3562    -3482    -3758    -4448    -5081 
   -5398    -5283    -4714    -4096    -3855    -3968    -4198    -4306 
   -4189    -3972    -3792    -3774    -4088    -4617    -5020    -5121 
   -4880    -4418    -4138    -4242    -4301    -3915    -3407    -3248 
   -3341    -3302    -2989    -2669    -2691    -2909    -2986    -3018 
   -3230    -3613    -4023    -4146    -3834    -3563    -3770    -4208 
   -4547    -4744    -4701    -4326    -3771    -3328    -3186    -3347 
   -3720    -4209    -4773    -5330    -5680    -5617    -5035    -4206 
   -3733    -3788    -4003    -4234    -4618    -5111    -5468    -5454 
   -5037    -4504    -4142    -4088    -4421    -4739    -4333    -3458 
   -3164    -3672    -4208    -4226    -3980    -3957    -4272    -4666 
   -4719    -4264    -3731    -3513    -3398    -3223    -3292    -3734 
   -4286    -4737    -4877    -4556    -4196    -4340    -4767    -4813 
   -4298    -3824    -4075    -4875    -5386    -5254    -4947    -4913 
   -5005    -4824    -4309    -3901    -4010    -4506    -5029    -5422 
   -5670    -5796    -5766    -5542    -5278    -5130    -4944    -4565 
   -4251    -4363    -4773    -5018    -5038    -5245    -5680    -5832 
   -5647    -5653    -5853    -5756    -5363    -4969    -4587    -4281 
   -4290    -4648    -5233    -5871    -6273    -6368    -6388    -6297 
   -5748    -4853    -4168    -3806    -3549    -3563    -4079    -4796 
   -5117    -4832    -4382    -4237    -4117    -3494    -2743    -2669 
   -3216    -3625    -3450    -3036    -3013    -3378    -3578    -3393 
   -3161    -3140    -3216    -3345    -3560    -3612    -3498    -3745 
   -4444    -5003    -5062    -4816    -4702    -5083    -5745    -5836 
   -5003    -4130    -4121    -4628    -4794    -4521    -4342    -4513 
   -4744    -4752    -4681    -4807    -5099    -5278    -5271    -5389 
   -5723    -5858    -5513    -4860    -4198    -3670    -3365    -3515 
   -4198    -5044    -5551    -5587    -5534    -5752    -5924    -5476 
   -4563    -3895    -3768    -4047    -4662    -5344    -5646    -5600 
   -5536    -5466    -5240    -4913    -4669    -4544    -4377    -4204 
   -4326    -4647    -4689    -4473    -4421    -4593    -4745    -4754 
   -4744    -4864    -4939    -4726    -4485    -4524    -4489    -4033 
   -3605    -3770    -4287    -4553    -4551    -4677    -5010    -5309 
   -5359    -5183    -5042    -4995    -4726    -4176    -3827    -3945 
   -4225    -4405    -4512    -4554    -4555    -4651    -4840    -4921 
   -4793    -4547    -4283    -4098    -4060    -4137    -4334    -4648 
   -4931    -4998    -4773    -4376    -4093    -4068    -4106    -3927 
