Origin Time       2025/01/13 21:19:00
Lat.              31.8
Long.             131.6
Depth. (km)       30
Mag.              6.9
Station Code      KGS022
Station Lat.      31.2804
Station Long.     131.0504
Station Height(m) 12
Record Time       2025/01/13 21:19:50
Sampling Freq(Hz) 100Hz
Duration Time(s)  98
Dir.              U-D
Scale Factor      7845(gal)/8223790
Max. Acc. (gal)   7.090
Last Correction   2025/01/13 21:19:50
Memo.             
[...]
    7663     6990     5013     4322     5836     7474     7287     6030 
    5989     8060    10152     9568     6648     4220     3973     4899 
    5347     5189     5313     5917     6111     5320     4099     3264 
    3321     4120     4438     3836     3851     4988     5818     6035 
    6473     7057     7126     6346     5031     4738     6831     9104 
    7700     3437      985     1987     3844     4140     2916     1804 
    1652     1495     1328     2651     4986     6039     5008     3685 
    4621     7454     8722     6880     4256     3858     6203     8418 
    7749     5379     3616     2220      707      878     4060     7709 
    7942     5173     3345     4228     6434     7342     5185     2475 
    3088     5863     7296     6982     6147     4769     2745     1699 
    2945     5123     5991     4870     2802     2215     4814     8073 
    7973     4945     2293     2096     4695     8155     9266     7298 
    4800     3673     3460     4342     6718     8406     7285     4669 
    3623     5089     7242     8403     8019     6431     5341     5564 
    5954     6285     7221     8125     7758     5778     3767     4164 
    6430     7483     6488     5344     5175     5468     5798     5668 
    4521     3434     3796     4931     5350     5162     5443     5805 
    5597     5597     5833     5435     4876     4986     5189     4530 
    3165     2164     2683     4440     5035     2907      305      754 
    4071     6650     6138     3893     3163     4788     6201     5584 
    4156     3651     3978     4703     6112     6832     4900     1953 
    1532     4170     6876     6694     3867     1237     1078     3356 
    6120     7117     6135     4941     4645     5173     6316     7611 
    8010     7118     6440     7072     7568     6674     5414     5308 
    6880     9479    10887     9105     5836     4392     4711     4969 
    5182     5659     5502     4386     3003     2176     2589     3842 
    4699     4463     3449     2910     3237     3631     4143     4838 
    4618     3044     1728     2643     5382     7732     8413     7410 
    5071     3345     5035     8838    10135     7885     5215     4415 
    4969     5601     6228     6998     7109     5931     4160     3376 
    4584     6577     6720     4793     3609     4468     5416     4845 
    3924     4407     5425     5097     4185     4183     4564     4738 
    4812     4459     3974     4444     5618     6365     6813     6918 
    5598     3615     3361     5352     7657     8387     7441     5961 
    4887     4334     4475     5786     7628     8160     6469     4307 
    4266     5954     6826     6160     5526     5871     5985     5590 
    6459     7873     7142     4905     3518     3342     3699     3730 
    3375     3855     4730     4078     2234     1355     2486     4523 
    5694     5945     6203     6542     6976     7560     7798     7858 
    8090     7757     6561     5233     4217     3823     4365     5294 
    5659     5213     4160     2953     2470     3231     4978     6301 
    5252     2393      658     1418     3568     5691     6766     6050 
    4409     3646     3792     4402     5809     6601     5269     3592 
    3956     5960     7364     6762     4807     3157     2970     4145 
    5760     7484     8932     8586     6158     3816     3483     5173 
    7330     8033     6953     5336     4143     3612     3762     4225 
    4761     5452     5427     3875     2089     1826     3349     5840 
    7653     7156     5023     4153     5771     7669     7726     6628 
    5853     5440     5113     5664     7630     9508     9235     7223 
    5513     5117     6232     7935     8132     6535     4992     4646 
    4810     4372     3929     4687     5765     5485     3769     1857 
    1470     3426     6008     6863     6034     4796     3514     2457 
    2274     2932     3757     3836     2755     1971     2844     4256 
    4707     4062     3244     3651     5462     7231     7587     6517 
    5648     6340     7757     8370     7789     6470     5471     5784 
    6795     7123     6404     4947     3523     3142     3775     4621 
    5258     5517     5246     4523     3631     3356     4314     5362 
    5269     4885     5259     6347     7460     7501     6565     5859 
    5709     5640     5196     4617     4554     4699     4602     4445 
    4214     3882     3568     3295     3121     3183     3767     4819 
    5545     5240     4379     4298     5386     6613     6839     5657 
    4101     4141     5868     6976     6102     4556     4040     4503 
    5382     6794     8217     8428     7206     5406     4315     4920 
    6203     6268     5559     5483     5733     5661     5427     5363 
    5667     6043     6255     6138     5036     3381     2724     3713 
    5922     7786     7669     6351     5940     7063     8530     8568 
    6852     5059     4696     5653     6637     6523     5792     5329 
    4897     4548     4745     5111     5223     5059     4858     5077 
    5367     5013     4625     5391     7007     7734     6717     5375 
    5347     6428     7562     7885     6839     4901     3545     3946 
    5664     6856     6608     5791     5150     4542     4024     4101 
    4935     5732     5236     3350     1709     1779     3157     4531 
    5224     4938     3410     1745     2232     5043     7349     7047 
    4864     2817     2506     3954     5620     6093     5050     3177 
    1718     1386     1818     2099     1995     2398     3769     5347 
    6137     5944     5513     5371     5428     5717     6083     6228 
    6390     6905     7701     8082     7134     5343     4329     4538 
    4990     4807     3897     2856     2396     2743     3582     4241 
    4182     3622     3152     3171     3897     4726     4240     2722 
    2362     3554     4791     5717     6467     6426     5768     5310 
    5003     4704     4808     5092     4954     4823     5474     6351 
    6126     5009     4747     6112     8266     9725     9342     7990 
    7719     8677     9386     8847     7204     5645     5067     5112 
    5252     5321     5208     4990     4652     3983     3501     3807 
    3936     3099     2358     2596     3627     4878     5401     4965 
    4491     4492     4383     3677     3156     3923     5501     6451 
    6234     5131     3947     4047     5764     7569     7773     6621 
    5838     5701     5181     4635     4746     4942     4920     5101 
    5737     6871     7979     7938     6631     5377     4973     5244 
    5962     6459     6162     5350     4336     3739     4010     4270 
    3974     3769     4247     5397     6280     6142     5757     6029 
    6756     7238     7009     6277     5400     4452     3894     4086 
    4607     5158     5437     4986     4172     3757     4263     5514 
    6288     5850     4770     3925     3809     4040     4050     3879 
    3554     3256     3520     4361     5242     5594     5235     4486 
    3929     4052     4606     5192     6039     6720     6259     5043 
    4190     4172     4972     6015     6534     6330     5848     5908 
    6789     7720     7935     7500     6874     6265     5865     5742 
    5618     5566     5679     5707     5815     6042     6057     6145 
    6548     6934     7233     7398     7227     6813     6219     5420 
    4602     3987     3734     4159     5363     6346     5651     3300 
    1301     1448     3030     4070     3910     3246     2849     2847 
    2905     3015     3442     4102     4441     4087     3618     3883 
    4625     4938     4888     5273     5898     5949     5679     5652 
    5656     5427     4801     3993     3843     4546     5518     6088 
    5674     4747     4259     4309     4837     5611     5833     5375 
    4630     3623     2833     3172     4623     6122     6521     5722 
    4730     4592     5638     7173     8082     7987     7237     6282 
    5545     5179     4982     5004     5293     5201     4696     4683 
    5213     5748     6147     6157     5906     6089     6370     5734 
    4419     3732     4077     4602     5058     5775     6235     6174 
    6049     5765     5302     5047     4866     4588     4278     3805 
    3369     3663     4708     5495     5478     5302     5356     5202 
    5077     5887     7379     8160     7599     6415     5597     5718 
    6644     7395     7121     6010     4861     4529     5370     6583 
    6596     4905     3198     3084     3774     3985     3852     3549 
    2974     3005     4472     6199     6219     4699     3747     4661 
    6590     7647     7140     6081     5339     4954     5190     6322 
    7703     8236     7362     5659     4456     4490     5460     6349 
    5985     4716     4394     5707     7275     7784     7246     6104 
    5039     4957     5730     6313     5938     4402     2430     1340 
    1753     3241     4623     4904     4260     3357     2832     3616 
    5617     6885     6041     4414     3870     4117     4417     5112 
    5848     5506     4221     3322     3659     4946     6162     6289 
    5370     4409     4198     5047     6562     7304     6210     4328 
    3800     4909     5803     5510     5112     5861     7511     8276 
    7149     5567     4930     5113     5850     6434     5952     4776 
    3651     2970     3217     4257     5343     5759     5287     4773 
    5000     5764     6720     7245     6924     6482     6112     5314 
    4469     4153     4515     5034     4515     2913     1529     1304 
    2326     3856     4947     5331     5005     4194     3838     4510 
    5755     6899     7177     6378     5598     5501     5501     5436 
    5435     5292     5405     5900     5821     5049     4812     5556 
    6222     5957     5051     4233     4222     5265     6520     6799 
    5871     4396     3283     3611     5521     7041     6438     4486 
    2736     2019     2766     4571     6147     6384     5242     3688 
    2806     3191     4683     6500     7685     7203     4972     2824 
    2389     3395     4990     6210     6095     4892     3693     3396 
    4171     5233     5441     4329     3133     3638     5161     5408 
    4141     2933     2546     2762     3211     3460     3302     2837 
    2427     2647     3454     4063     3990     3570     3488     3829 
    4090     4147     4090     3886     4041     5104     6458     6967 
    6577     6297     6709     7601     8370     8068     6774     5784 
    5431     5320     5589     5985     5823     5389     5703     6748 
    7206     6428     5373     5108     5733     6867     7801     7804 
    7055     6507     7030     8594     9733     8939     6667     4660 
    4068     4891     5903     5663     4468     3758     3840     3982 
    3780     3402     3183     3565     4745     6100     6779     6640 
    5800     4380     3337     3627     4483     4480     3493     2772 
    3418     4725     5410     5564     5593     5506     5535     5764 
    5788     5260     4517     4114     4094     4156     3971     3815 
    4548     6076     7080     6567     4986     3851     3890     4617 
    5529     6100     5980     5536     5057     4638     4534     4969 
    5892     6470     6120     5598     5463     5487     5579     5625 
    5424     5163     5032     4854     4753     4976     4988     4509 
    4194     4267     4257     3897     3696     4456     5683     6178 
    6056     5938     5945     5996     5549     4504     3726     3342 
    2835     2450     2506     2678     2740     2790     2640     2176 
    2085     3009     4568     5825     6095     5547     5146     5769 
    7371     9003     9923    10038     9051     7069     5541     5431 
    5923     5871     4988     4149     4575     6185     7676     8019 
    7542     7292     7200     6577     5752     5144     4558     4221 
    4457     5027     5344     4446     2470     1568     2735     4105 
    4043     2932     1969     2069     3105     4048     4241     3952 
    3909     4453     5131     5247     4658     4190     4874     6380 
    7447     7670     7460     6971     6253     5763     5764     5981 
    6133     5960     5597     5783     6728     8097     9352     9517 
    8472     7269     6436     5779     5335     5518     6323     6960 
    6994     6797     6534     6489     7364     8621     8706     7119 
    4745     3187     3339     4112     3973     2910     2050     2261 
    3287     4075     4108     3912     3827     3554     3192     3310 
    4063     4681     4542     4388     4738     4774     4004     2963 
    2492     2862     3225     2897     2475     2818     3808     4341 
    3786     2975     2967     3811     4725     5100     5252     5583 
    5703     5189     4441     3919     3426     3146     3636     4444 
    4762     4791     5194     5886     6327     6439     5998     4865 
    4045     4244     5017     5697     5597     5062     5336     6227 
    6706     6631     6007     5009     4711     5942     7962     9313 
    9726     9572     8533     6887     5580     4858     5005     6054 
    6847     6670     6068     5454     5104     5692     7199     8587 
    8941     8189     7022     6473     6939     7303     6523     5367 
    4992     5486     6214     6750     7392     8118     8333     8164 
    8206     8487     8488     7825     7099     7291     8235     8614 
    7288     4780     2953     2817     3886     4992     5224     4718 
    4176     4444     5871     7090     6428     4234     2060     1092 
    1698     2987     3254     1744     -529    -2100    -2258     -843 
    1517     3199     3068     1927     1864     3580     5341     5937 
    6278     7033     7757     8033     7620     6798     6488     6875 
    7171     7045     6826     6543     5962     5421     5574     5989 
    5749     5481     6169     7082     6974     5548     3458     2093 
    2577     4573     6678     7688     7326     6407     6133     6899 
    7979     8027     6569     5109     5201     6440     7439     6899 
    4649     2756     3122     4981     6775     7534     6543     4444 
    3222     3973     5841     6902     5962     4008     2907     2984 
    3208     2793     1845     1007      519      521     1603     3315 
    4099     3747     3438     3931     4985     5576     5061     4079 
    3684     4453     6342     8367     8953     7731     6169     5321 
    4766     4112     3619     3719     4317     4679     4923     6115 
    8043     9174     8796     7832     7483     7473     6747     5366 
    4344     4263     4521     4047     2906     2155     1964     1572 
    1035     1190     2077     2874     3123     3102     3329     3978 
    4595     4743     4673     4691     4494     3855     3096     2619 
    2929     4202     5566     6373     6941     7412     7488     7020 
    6385     6052     5795     5344     5069     5005     4718     4452 
    4673     5184     5687     6075     6367     6762     7204     7570 
    7911     8229     8503     8633     8556     8259     7604     6651 
    5379     3692     2168     1675     2448     3658     4145     3878 
    3433     2805     2200     2222     2767     3477     4348     4999 
    5016     4770     4877     5575     6439     6736     6577     6435 
    6052     5275     4734     5135     6270     6844     6053     4691 
    3937     4122     4711     5125     5474     5714     5267     4174 
    3348     3740     5177     6232     6108     5413     4939     4891 
    5061     5258     5356     5302     5265     5069     4342     3653 
    3646     3937     4251     4781     5408     5881     6181     6284 
    6127     6042     6527     7479     8305     8581     8298     7661 
    7164     7354     7609     6729     5036     3735     3258     3553 
    4364     5127     5351     4955     4587     4958     5647     5788 
    5170     4072     3261     3601     5019     6652     7658     7520 
    6647     6284     7183     8623     8775     6920     4808     4257 
    5152     6444     7069     6590     5605     4708     4156     4503 
    5821     6801     6142     4440     3464     4000     5157     5751 
    5757     5543     5090     4607     4230     4066     4476     5038 
    4912     4221     3802     4178     4957     5475     5613     5435 
    4880     4132     3854     4267     4638     4545     4256     3885 
    3469     3464     4009     3916     2226      139     -646       37 
    1123     1533     1394     1358     1235      936     1471     3488 
    5702     6382     5923     5791     5976     5686     5134     5171 
    6019     7090     7830     8037     7507     6258     5023     4745 
    5464     6251     6467     6448     6659     6732     6142     5530 
    5894     6906     7592     7931     8460     8841     8291     7176 
    6663     6875     6794     6149     5525     5287     5803     6774 
    7032     6569     6299     6216     5888     5420     5103     4950 
    4819     4841     5131     5104     4191     2856     1703      797 
     476     1098     2204     3102     3483     3246     2606     2080 
    1821     1599     1699     2641     4054     4833     4494     4121 
    4861     6015     6554     6543     6230     6073     6570     7117 
    7022     6739     6872     7364     7809     8205     8785     8966 
    8386     7998     8283     8494     8047     7096     6354     6390 
    6924     7290     7245     7044     6885     6507     6033     6104 
    6486     6413     5957     5613     5578     5732     5837     5752 
    5151     3933     2821     2346     2297     2608     3389     4006 
    3709     3113     3136     3458     3516     3431     3493     3743 
    3916     3916     4009     4156     4261     4564     4754     4457 
    4305     4594     4887     5452     6350     6565     5898     5486 
    6012     6949     7469     7221     6412     5726     5737     6455 
    7304     7164     5819     4708     4845     5636     6085     6037 
    6157     6619     6740     6219     5456     5011     4872     4383 
    3570     3199     3537     4202     4530     4315     4029     3843 
    3727     4128     5173     6050     6212     6339     6886     7106 
    6783     6814     7470     7916     7510     6519     5632     5605 
    6631     7422     6801     5598     5028     5123     5616     6150 
    6000     4908     3468     2704     3144     4012     4355     4187 
    3800     3495     3589     4055     4671     5004     4730     4303 
    4189     4293     4563     4900     5194     5540     5686     5351 
    4839     4558     4753     5289     5543     5370     5344     5674 
    6066     6372     6388     5763     4842     4525     4950     5567 
    5950     5827     5266     4926     5300     5904     6018     5641 
    5120     4746     4650     4723     4943     5250     5324     5005 
    4446     4129     4241     4139     3717     3820     4614     5433 
    5643     5196     4855     5082     5456     5736     5948     5891 
    5652     5638     5840     5753     5181     4704     4930     5698 
    6358     6272     5441     4743     4762     4989     4888     4885 
    5289     5413     4926     4382     4224     4510     4779     4337 
    3473     3160     3559     4028     4068     3754     3478     3443 
    3603     3929     4459     5069     5190     4569     4044     4197 
    4610     4918     4846     4341     4072     4345     4738     4896 
