Origin Time       2025/01/13 21:19:00
Lat.              31.8
Long.             131.6
Depth. (km)       30
Mag.              6.9
Station Code      KGS015
Station Lat.      31.4308
Station Long.     131.0109
Station Height(m) 34
Record Time       2025/01/13 21:19:47
Sampling Freq(Hz) 100Hz
Duration Time(s)  116
Dir.              U-D
Scale Factor      7845(gal)/8223790
Max. Acc. (gal)   20.476
Last Correction   2025/01/13 21:19:47
Memo.             
[...]
    3734     1852    -1339    -5367    -9231   -11843   -12542   -11196 
   -8093    -4195     -930      861     1300      795     -182    -1140 
   -2270    -4086    -6000    -6401    -3996      999     6701    10821 
   11676     8560     2478    -4310   -10157   -14482   -16950   -17188 
  -14678    -9161    -1821     4864     8937     9782     7285     1672 
   -5300   -10585   -12270   -10694    -7157    -2799     1675     6122 
   10444    13639    13941    10494     4407    -1651    -4729    -3603 
     425     5282     9780    13277    15007    14820    13486    11313 
    7731     2539    -3075    -6875    -7295    -4770    -1431      702 
    1185      487     -876    -2130    -2825    -3527    -4654    -5740 
   -6424    -6575    -6215    -5663    -4631    -2555       94     2205 
    3350     3983     4136     2674    -1127    -5771    -8434    -7888 
   -5482    -3096    -1220      930     3979     7157     8889     8241 
    5259      695    -4306    -8557   -11159   -11993   -11605   -10278 
   -7938    -5235    -3519    -3268    -3883    -4881    -6004    -6467 
   -5003    -1505     1900     2786      881    -1962    -3836    -4417 
   -4313    -3700    -2338     -348     1463     2334     2488     2844 
    3645     4220     4263     4207     4256     4110     3527     2486 
    1013     -818    -2681    -4002    -4557    -4595    -4089    -2597 
    -140     2191     2984     1881     -337    -3252    -7215   -11796 
  -15431   -16821   -15493   -11631    -6124     -386     4060     5937 
    4804     1399    -3026    -7457   -11130   -13328   -13347   -10856 
   -6174       74     6993    12961    16087    15596    12278     7473 
    2182    -2513    -5252    -5289    -2829     1139     5435     9641 
   13329    14952    13193     8567     2779    -2427    -5711    -6469 
   -4649     -724     3886     7538     9151     7969     3993    -1185 
   -5292    -7268    -7690    -7227    -5724    -3238     -696      749 
     423    -1252    -3119    -4823    -6739    -8637    -9975   -10469 
   -9836    -8127    -5872    -3308     -103     3689     6716     7176 
    4737      927    -2232    -4191    -5900    -7331    -7149    -5084 
   -2432     -665     -427    -1309    -2448    -3439    -4432    -5767 
   -7744   -10127   -12044   -12665   -11670    -9516    -7053    -4803 
   -3202    -2635    -2741    -2509    -1197      751     1946     1763 
     970      310     -434    -1933    -4459    -7368    -9595   -10682 
  -10868   -10114    -7618    -3225     1576     5140     6930     6987 
    5317     2133    -1811    -5582    -8424    -9576    -8546    -5684 
   -2007     1665     5107     7902     8849     6959     2685    -2193 
   -5657    -6701    -5759    -3766     -918     3199     8132    12268 
   14338    14158    12116     8903     5454     2542      699      399 
    1402     2548     3244     4122     6011     8911    11732    12919 
   11570     8062     3592     -529    -3495    -5367    -6384    -6357 
   -5053    -2745     -634      -43    -1175    -3329    -5664    -7804 
  -10054   -12414   -13876   -13575   -11811    -9377    -6674    -3802 
   -1204      283      144    -1536    -4178    -6940    -9413   -11464 
  -12309   -10833    -6643     -660     4907     7944     8006     5919 
    2718     -703    -3757    -5715    -5637    -3419      -21     3565 
    6959     9946    11523    10224     5846       40    -4999    -8017 
   -8997    -8525    -6967    -4257     -654     2770     4788     4660 
    2442     -873    -3870    -5599    -6318    -6794    -6717    -5154 
   -2263      692     2556     3048     2628     1786      529    -1291 
   -3083    -3740    -2949    -1433     -148      419      383      -82 
   -1063    -2814    -5397    -7867    -8594    -7187    -5165    -4182 
   -4359    -4791    -4820    -4399    -3928    -3465    -2509    -1262 
    -575     -557     -537       45      972     1447     1248     1013 
    1300     2037     2736     2983     2809     2562     2637     3100 
    3379     2812     1343     -859    -3762    -7099   -10173   -12087 
  -12417   -11720   -10851   -10087    -9246    -8351    -7653    -6966 
   -5908    -4641    -3624    -3187    -3134    -2579     -788     1954 
    4625     6349     6979     6774     5833     4152     2255     1417 
    2590     5148     7585     9273    10517    11276    10968     9401 
    7146     5092     3731     2921     2617     3107     4352     6154 
    8344    10235    10710     9086     5784     1996    -1273    -3647 
   -5177    -5892    -5776    -5293    -5186    -5525    -5814    -5937 
   -6309    -7348    -8964   -10552   -11583   -11870   -11414   -10369 
   -8884    -6952    -4789    -3164    -2909    -4120    -6293    -8915 
  -11322   -12560   -11982    -9807    -6799    -3750    -1194      865 
    2690     4209     5073     5107     4314     2718      568    -1559 
   -3219    -4518    -5578    -6019    -5590    -4518    -3034    -1466 
    -585     -973    -2307    -3964    -5823    -7921    -9811   -10802 
  -10488    -8684    -5501    -1533     2519     5921     7743     7573 
    6247     5162     4974     5263     5209     4625     4199     4437 
    5177     6039     6346     5464     3604     1366     -797    -2420 
   -3075    -2714    -1682     -275     1425     3202     4544     5059 
    5003     5038     5360     5562     5566     5803     6151     5863 
    4668     3186     2227     1945     1787     1364      746     -114 
   -1355    -2859    -4538    -6389    -8108    -9201    -9265    -8041 
   -5879    -3689    -1900     -438      449      723      810      461 
   -1167    -4099    -7252    -9394    -9964    -9151    -7526    -5447 
   -2866      -55     2242     3528     3670     2605      213    -3423 
   -7516   -10820   -12420   -12152   -10490    -8006    -4981    -1698 
    1290     3160     2976      459    -3557    -7747   -11020   -12699 
  -12415   -10147    -6515    -2604      523     2191     2328     1208 
    -900    -3568    -5907    -6772    -5707    -3501    -1220      901 
    3021     4903     6147     6389     5121     2177    -1788    -5476 
   -7371    -6747    -4117     -225     4286     8379    11038    11664 
   10139     7007     2970    -1135    -3921    -4525    -3331    -1104 
    1409     3445     4398     3943     2289       81    -2123    -4239 
   -6427    -8120    -8359    -7308    -6099    -5787    -6871    -9015 
  -11479   -13504   -14116   -12818   -10307    -7647    -5211    -2762 
     -97     2689     5143     6592     6812     6057     4517     2477 
     471     -989    -1610    -1398     -494      915     2471     3797 
    4710     5177     5008     3819     1645     -762    -2340    -2432 
   -1449     -409      121      133     -141     -355     -379     -422 
    -645     -868     -603      448     2093     4001     5865     7203 
    7581     7145     6392     5535     4599     3541     2246     1047 
     585     1020     1883     2416     1993      378    -2124    -4719 
   -6555    -7182    -6821    -5948    -4830    -3925    -3790    -4492 
   -5880    -8060   -11086   -14355   -16676   -16785   -14229    -9891 
   -5204    -1147     1827     3447     3431     1706    -1445    -5211 
   -8428   -10390   -10868    -9682    -7132    -4245    -2270    -1868 
   -2733    -4298    -6091    -7669    -9023   -10388   -11637   -12186 
  -11114    -7906    -3542      225     2567     3520     3366     2596 
    1455       29    -1202    -1742    -1371       -2     2072     4224 
    6049     7410     8137     7983     6922     5360     3840     2573 
    1308     -113    -1192    -1389     -997     -526       68      783 
     918     -116    -1830    -3191    -3767    -3883    -3863    -3450 
   -2270     -506     1455     3442     5246     6355     6087     4303 
    1817     -556    -2459    -3477    -3252    -2026     -587      432 
    1136     1858     2342     2054      999     -164     -820    -1120 
   -1501    -1931    -2342    -2893    -3456    -3559    -2851    -1726 
   -1075     -912     -480      409     1362     2023     2281     2018 
     858    -1125    -3003    -4035    -4441    -4827    -5309    -5556 
   -5406    -5130    -5098    -5143    -4568    -3034     -731     2025 
    4652     6405     6747     5468     2910     -159    -3006    -5139 
   -6327    -6392    -5070    -2407      888     3678     5206     5502 
    4957     3966     3036     2604     2652     3084     3932     4869 
    5325     5109     4509     3904     3423     2949     2122      502 
   -1965    -4730    -6879    -7623    -6806    -5022    -3018    -1039 
     895     2199     2069      410    -2282    -5422    -8407   -10849 
  -12576   -13375   -13359   -13105   -13007   -13054   -13122   -13008 
  -12339   -10739    -8179    -4855    -1129     2214     4660     6258 
    6656     5367     2901      391    -1498    -2878    -4078    -4949 
   -5003    -4094    -2587    -1209     -762    -1494    -2836    -4017 
   -4666    -4737    -4220    -3289    -2497    -2457    -3348    -4707 
   -5742    -5962    -5460    -4449    -2782     -498     1580     2612 
    2633     2223     1821     1578     1633     2432     4249     6583 
    8621     9859    10191     9729     8517     6608     4367     2430 
    1516     1958     3206     4162     4158     3534     3003     2820 
    2794     2427     1440      268     -792    -2018    -3257    -3962 
   -4267    -4544    -4784    -5134    -5707    -6266    -6554    -6417 
   -5826    -5024    -4550    -4610    -4735    -4691    -4939    -5817 
   -6859    -7375    -7360    -7101    -6461    -5317    -4064    -3186 
   -2601    -1853     -814      191      812      851      260     -714 
   -1491    -1539     -557     1452     3834     5660     6589     6778 
    6366     5599     4982     4590     3982     2961     1622      174 
    -953    -1414    -1328    -1086     -993    -1165    -1637    -2493 
   -3910    -5803    -7358    -7732    -7091    -6060    -4885    -3836 
   -3287    -3375    -4036    -5112    -6486    -7979    -9367   -10721 
  -11732   -11286    -8838    -5063    -1093     2120     4259     5451 
    5544     4085     1063    -2648    -5952    -8275    -9340    -8847 
   -6802    -3608       31     3207     5547     7261     8208     8334 
    8260     8284     8345     8702     9498    10363    10551     9498 
    7473     5171     2992     1255      579     1321     2871     4368 
    5753     7175     7969     7269     5007     1752    -1636    -4315 
   -5913    -6515    -6606    -6852    -7385    -7804    -7838    -7564 
   -7345    -7294    -7198    -7311    -7916    -8456    -8094    -6671 
   -5089    -4280    -4040    -3788    -3591    -3738    -4098    -4353 
   -4494    -4706    -4823    -4558    -4374    -4900    -5763    -6330 
   -6708    -7196    -7500    -7011    -5640    -3973    -2825    -2250 
   -1228      730     2720     3821     4081     3951     3599     2832 
    1601      465      -94     -319     -417        6     1509     4158 
    7306    10106    12046    13039    13216    12692    11688    10409 
    8773     6625     4008     1243    -1151    -2905    -4090    -4930 
   -5756    -6664    -7437    -8054    -8787    -9880   -11400   -13235 
  -15067   -16393   -16740   -16042   -14731   -13282   -11755    -9825 
   -7272    -4445    -1926      -51     1119     1749     2103     2286 
    2149     1568      729      -16     -483     -712     -499      413 
    1576     2547     3495     4299     4599     4465     3952     2920 
    1490      140     -837    -1522    -1645     -677     1209     3273 
    5028     6245     6725     6639     6173     5287     4261     3352 
    2589     2011     1165     -453    -2763    -5606    -8776   -11799 
  -14030   -14748   -13923   -12326   -10361    -8108    -5749    -3446 
   -1683     -616      426     1672     2820     4101     5929     8162 
   10405    12399    13991    15029    15164    14289    12784    10625 
    7481     3821      726    -1374    -3018    -4787    -6767    -8831 
  -10773   -12302   -13217   -13417   -12955   -12329   -11892   -11252 
  -10030    -8320    -6420    -4855    -4056    -3898    -3929    -3708 
   -2984    -2043    -1526    -1524    -1451     -996     -472     -348 
    -820    -1699    -2593    -3190    -3460    -3468    -3071    -2350 
   -1899    -2065    -2551    -3006    -3300    -3360    -3111    -2582 
   -2053    -1605     -693     1190     3716     5787     6482     5852 
    4587     2952      657    -1903    -3721    -4590    -4851    -4492 
   -3505    -2408    -2110    -3296    -5610    -7921    -9882   -11900 
  -13620   -14314   -13815   -12181    -9783    -7284    -5107    -3738 
   -3701    -4631    -5435    -5377    -4291    -2131     1035     4795 
    8430    11155    12465    12411    11129     8615     5362     2100 
    -669    -2199    -1842      241     3299     6357     8850    10713 
   11773    11753    10646     8710     6226     3511     1116     -292 
    -496       -9      564     1162     1705     1674      731     -927 
   -2763    -4230    -5286    -6133    -6465    -5784    -4256    -2533 
    -973      302      946      842      348     -280     -901    -1228 
   -1143     -710      153     1634     3508     5036     5734     5483 
    4158     1999     -386    -2462    -3832    -4463    -4442    -3747 
   -2647    -1637     -955     -197      911     1858     2502     3095 
    3357     3015     2033      410    -1360    -2624    -3267    -3300 
   -2631    -1741    -1522    -2454    -4610    -7813   -11507   -15299 
  -18914   -21593   -22715   -22063   -19454   -15345   -10712    -6174 
   -2083     1134     3010     3167     1547    -1279    -4286    -6617 
   -7767    -7437    -5651    -2755      468     2952     4216     4318 
    3384     1896      279    -1545    -3493    -5035    -5690    -5514 
   -5074    -4765    -4284    -3341    -2301    -1517    -1173    -1386 
   -1687    -1494     -718      561     2119     3438     4082     3862 
    2875     1665      649     -190     -587     -184      982     2878 
    5401     8055    10179    11330    11345    10372     8811     6936 
    5094     3677     2659     2169     2481     3385     4560     5630 
    6049     5535     4121     2092      -27    -1849    -3306    -4267 
   -4537    -4224    -3649    -3096    -2972    -3736    -5489    -8005 
  -11118   -14373   -16850   -18019   -17948   -16841   -15110   -13185 
  -11086    -8784    -6615    -5136    -4698    -5022    -5625    -6412 
   -7337    -7977    -7848    -6957    -5664    -4071    -2164     -163 
    1713     3221     4027     4144     3813     3310     3141     3694 
    4595     5124     5231     5213     5166     5130     5004     4868 
    5116     5802     6592     7064     7051     6882     6741     6428 
    5914     5200     4326     3744     3851     4488     5008     4858 
    4190     3364     2428     1568     1151     1208     1449     1601 
    1537     1371     1271     1125      619     -430    -1842    -3183 
   -4056    -4240    -3840    -3303    -2929    -2558    -2080    -1641 
   -1372    -1566    -2559    -4243    -6015    -7157    -7628    -8014 
   -8579    -9255    -9895   -10237   -10269   -10111    -9640    -8753 
   -7746    -7172    -7017    -6675    -6107    -5769    -5825    -6112 
   -6184    -5773    -5127    -4414    -3476    -2205     -773      683 
    2111     3372     4577     5938     7182     7979     8608     9404 
   10235    10759    10763    10419    10112     9994     9768     9045 
    7869     6588     5367     4091     2639     1227      157     -522 
    -935    -1206    -1340    -1256    -1092    -1043     -942     -801 
   -1070    -1867    -3030    -4503    -6131    -7684    -8984    -9937 
  -10571   -11007   -11384   -11820   -12262   -12478   -12345   -12050 
  -12005   -12355   -12787   -13144   -13560   -14072   -14557   -14790 
  -14388   -13178   -11585    -9990    -8257    -6386    -4792    -3792 
   -3379    -3291    -3177    -2990    -2868    -2689    -2056     -676 
    1185     2870     4023     4654     4841     4693     4313     3824 
    3195     2362     1823     2193     3299     4494     5444     6224 
    6975     7636     8033     8073     7763     7310     7002     7009 
    7466     8326     9240     9961    10350    10131     9244     8190 
    7427     6725     5729     4700     4089     3855     3609     3153 
    2835     2955     3071     2658     1750      851      464      314 
    -216    -1105    -1915    -2432    -2813    -3279    -3780    -4283 
   -4990    -5958    -7020    -7975    -8538    -8418    -7549    -6157 
   -4526    -2820    -1194      209     1247     1668     1343      488 
    -535    -1579    -2687    -3727    -4361    -4402    -3821    -2770 
   -1842    -1732    -2377    -3191    -3811    -4008    -3813    -3572 
   -3393    -3373    -3874    -4900    -6053    -7110    -8025    -8831 
   -9613   -10234   -10519   -10569   -10470   -10201   -10027   -10211 
  -10405   -10162    -9563    -8903    -8236    -7450    -6573    -5760 
   -5231    -5116    -5063    -4722    -4406    -4450    -4689    -5001 
   -5375    -5464    -4961    -3840    -2057      234     2477     4229 
    5402     5907     5765     5273     4523     3542     2770     2613 
    2999     3685     4607     5630     6513     7184     7551     7574 
    7430     7155     6635     5869     5036     4303     3631     3030 
    2416     1557      749      371      274      292      437      704 
    1048     1470     1849     1942     1969     2369     2914     3087 
    2789     2087     1059     -171    -1787    -3892    -6070    -7963 
   -9313    -9786    -9319    -8125    -6654    -5414    -4513    -3935 
   -3902    -4492    -5348    -5886    -5713    -4666    -2825     -683 
    1286     2825     3711     3871     3365     2382     1289      342 
    -375     -837     -945     -518      217      792     1107     1054 
     357     -974    -2632    -4153    -5201    -5702    -5578    -4842 
   -3777    -2681    -1887    -1822    -2668    -4125    -5575    -6453 
   -6412    -5424    -3811    -2004     -413      727     1432     1614 
    1089       33    -1140    -2278    -3300    -3933    -4013    -3499 
   -2432    -1321     -766     -797    -1225    -2087    -3283    -4467 
   -5329    -5421    -4360    -2423     -103     2193     3817     4449 
    4500     4185     3485     2752     2280     2050     2080     2521 
    3433     4702     6060     7099     7423     6771     5163     3042 
    1035     -457    -1410    -1895    -1707     -648      922     2128 
    2273     1385     -144    -2049    -3996    -5537    -6361    -6296 
   -5424    -4139    -2776    -1537     -831     -962    -1755    -2941 
   -4185    -4986    -5185    -4978    -4550    -4045    -3585    -3192 
   -2889    -2899    -3547    -4878    -6502    -7842    -8467    -8190 
   -7083    -5499    -4017    -3219    -3138    -3424    -4043    -4961 
   -5795    -6222    -6138    -5553    -4591    -3441    -2280    -1309 
    -699     -473     -537     -830    -1267    -1621    -1709    -1499 
   -1129     -789     -411      139      684     1023     1196     1138 
     716       64     -591    -1109    -1363    -1228     -722     -110 
     365      699     1048     1652     2443     3036     3426     3970 
    4627     4997     4876     4371     3662     2813     1788      735 
      24     -217     -232     -210     -206     -216     -164        0 
