Origin Time       2025/01/13 21:19:00
Lat.              31.8
Long.             131.6
Depth. (km)       30
Mag.              6.9
Station Code      KGS017
Station Lat.      31.3954
Station Long.     130.8702
Station Height(m) 64
Record Time       2025/01/13 21:19:51
Sampling Freq(Hz) 100Hz
Duration Time(s)  104
Dir.              U-D
Scale Factor      3920(gal)/6182761
Max. Acc. (gal)   14.646
Last Correction   2025/01/13 21:19:51
Memo.             
[...]
  -17885   -15363   -14050   -13476   -13212   -13212   -12993   -12021 
  -10985   -10706   -10905   -10969   -10599   -10074   -10103   -11064 
  -12743   -14455   -15351   -14903   -12854    -9366    -5467    -2650 
   -1945    -3554    -7332   -12777   -18471   -22863   -25238   -25621 
  -24700   -23158   -21109   -18703   -16470   -15390   -16289   -18594 
  -20936   -22632   -23641   -23883   -22983   -20964   -18957   -18433 
  -20128   -23451   -26795   -29085   -30088   -29509   -27451   -24993 
  -23212   -21782   -19495   -16515   -14241   -13252   -13065   -12732 
  -11763   -10925   -11015   -12027   -13887   -16397   -19087   -21307 
  -22321   -22051   -20848   -18596   -15290   -11713    -8866    -7141 
   -6431    -6889    -9047   -13153   -18137   -21620   -22221   -20882 
  -18810   -16081   -12981   -10528    -9234    -8586    -7923    -7376 
   -7473    -8183    -9025    -9801   -10919   -12927   -15656   -18377 
  -20787   -23091   -25073   -25785   -24896   -23626   -23338   -24198 
  -25351   -25689   -25138   -24474   -23597   -21660   -18440   -14622 
  -10989    -7641    -4724    -3165    -3782    -6715   -11262   -15900 
  -19618   -22201   -23401   -23609   -23739   -23795   -23045   -21290 
  -19123   -17104   -15451   -14312   -13447   -12449   -11650   -11971 
  -13798   -16353   -18630   -20305   -21251   -21343   -20515   -18622 
  -16290   -14895   -14908   -15644   -16375   -16810   -17134   -17645 
  -18425   -19534   -20898   -21953   -22094   -21554   -21083   -20736 
  -19870   -18272   -16661   -15790   -15382   -14881   -14561   -15106 
  -16813   -18971   -20295   -20743   -21228   -21643   -21397   -20734 
  -20196   -19860   -19398   -18883   -19145   -20463   -21715   -21550 
  -19637   -16883   -14675   -13318   -11952   -10293    -8887    -8040 
   -7920    -9078   -11803   -15220   -18192   -20753   -23129   -24717 
  -25082   -24380   -23059   -21771   -20928   -20625   -20811   -21207 
  -21438   -21227   -20810   -21063   -22417   -23971   -24575   -24151 
  -23051   -21514   -20132   -19216   -18424   -17523   -16290   -14665 
  -13208   -12324   -12114   -12750   -13822   -14555   -14643   -13807 
  -11895    -9586    -7950    -7667    -8562    -9742   -10517   -10727 
  -10521   -10501   -11327   -12997   -14971   -16729   -18479   -21195 
  -25050   -28704   -30809   -30965   -29261   -25882   -21194   -16131 
  -12149   -10270   -10320   -11445   -13316   -16083   -19225   -21806 
  -23669   -25272   -26488   -26112   -23325   -19176   -15247   -12012 
   -9216    -6549    -4059    -2355    -1914    -2586    -4133    -6665 
  -10249   -14382   -18137   -20696   -21547   -20643   -18754   -17301 
  -17298   -18465   -19730   -20314   -20251   -20101   -19954   -19331 
  -18028   -16239   -14666   -14281   -15109   -16307   -17164   -17344 
  -16847   -15778   -14417   -13361   -12872   -13069   -14508   -17068 
  -19472   -20733   -21080   -21415   -22282   -23527   -24650   -25019 
  -24337   -22948   -21113   -18837   -16614   -15243   -15010   -15487 
  -16112   -16815   -17400   -17047   -15559   -13930   -13116   -13051 
  -12883   -12325   -12427   -14208   -17062   -19249   -19602   -18331 
  -16178   -13353    -9910    -6463    -3799    -2445    -2930    -5520 
   -9483   -13600   -17163   -19985   -22329   -24619   -26530   -27116 
  -26231   -24997   -24329   -23899   -23111   -21953   -20531   -18860 
  -17221   -15958   -14887   -13623   -12541   -12366   -13235   -15108 
  -17794   -20472   -22541   -23816   -23733   -22022   -19511   -17162 
  -14886   -12139    -9391    -7910    -7939    -8439    -8931   -10154 
  -12512   -15003   -16388   -16728   -16940   -17639   -18932   -20600 
  -22424   -24083   -24878   -24838   -25260   -26795   -28444   -28843 
  -27763   -26455   -25939   -25610   -24644   -23147   -21368   -19235 
  -16853   -14882   -14017   -14308   -15305   -16486   -17588   -18349 
  -18109   -16727   -15052   -13832   -13137   -12651   -12346   -12745 
  -13951   -15356   -16370   -16884   -17569   -18939   -20094   -19628 
  -17315   -14343   -11967   -10474   -10005   -10895   -12680   -14436 
  -15895   -17509   -19863   -22826   -25433   -27004   -27680   -27729 
  -27178   -25955   -24183   -22690   -22272   -22485   -22479   -22188 
  -21921   -21611   -20769   -19237   -17608   -16514   -16021   -15632 
  -14864   -14067   -13574   -12667   -11051    -9812   -10003   -11650 
  -14124   -16604   -18420   -19205   -18742   -17099   -14913   -13155 
  -12392   -12317   -12442   -12791   -13376   -14018   -14988   -16605 
  -18461   -20048   -20907   -20162   -17637   -14533   -11957    -9818 
   -7627    -5812    -5369    -6631    -9458   -13091   -15806   -16891 
  -17397   -18009   -18461   -18533   -18089   -16819   -14601   -11796 
   -8967    -6636    -5140    -4230    -3368    -2676    -2924    -4471 
   -6956   -10046   -13735   -17886   -21594   -23448   -23255   -22406 
  -21904   -21566   -20896   -19793   -18760   -18371   -18534   -18702 
  -19009   -20382   -22856   -25164   -26348   -26337   -25108   -22529 
  -19452   -17672   -17733   -18531   -19536   -21025   -22634   -23752 
  -24011   -22983   -21187   -20061   -19779   -18978   -16781   -13701 
  -10780    -8459    -6811    -6301    -6983    -8184    -9594   -10935 
  -11661   -12248   -13724   -15937   -18215   -20648   -23224   -25092 
  -25733   -25619   -25640   -26547   -28259   -29837   -30459   -29872 
  -28344   -26323   -23962   -21398   -18805   -16091   -13510   -12004 
  -12520   -15139   -18601   -21115   -21926   -21447   -20210   -18679 
  -17346   -16292   -15238   -14202   -13665   -13872   -14451   -14721 
  -14055   -12547   -10985    -9762    -8965    -8996   -10142   -12206 
  -14651   -17117   -19642   -21941   -23351   -23608   -22916   -21773 
  -20622   -19503   -18632   -18734   -20184   -22344   -24217   -25587 
  -26751   -27369   -26698   -24363   -20541   -16282   -12830   -10311 
   -8408    -7553    -8464   -11069   -14414   -17683   -20379   -21935 
  -22301   -21749   -20378   -18664   -16917   -14722   -12257   -10558 
  -10085   -10321   -10566   -10546   -10573   -11357   -13285   -15941 
  -18928   -22338   -25921   -28947   -30790   -31051   -29717   -27308 
  -24504   -21524   -18356   -15505   -13398   -11822   -10750   -10445 
  -10846   -11534   -11763   -11003    -9628    -8180    -6878    -6058 
   -6106    -7564   -10610   -14044   -16543   -17983   -18816   -19690 
  -21050   -22475   -23259   -23216   -22450   -20993   -18887   -16404 
  -14176   -12686   -11743   -11037   -10751   -11263   -12694   -14798 
  -17258   -20082   -23327   -26453   -28637   -29421   -28582   -26248 
  -22962   -19320   -16205   -14620   -14840   -16600   -19420   -22418 
  -24773   -26213   -27039   -27710   -28215   -28034   -26518   -23616 
  -19965   -15952   -11845    -8197    -5428    -4123    -4552    -5815 
   -7039    -8173    -9397   -10796   -11978   -12478   -12258   -11203 
   -9786    -9192    -9755   -11012   -12432   -13653   -14841   -16072 
  -17190   -18442   -20119   -22082   -23601   -23816   -22733   -20911 
  -19033   -18231   -19413   -22561   -26741   -30308   -31878   -31245 
  -28889   -25044   -19982   -14887   -11247    -9486    -9178   -10112 
  -11997   -14080   -16071   -17928   -18928   -18703   -17886   -16907 
  -15618   -14335   -14000   -14567   -14700   -13973   -13263   -13158 
  -13764   -14652   -14897   -14544   -14736   -15969   -17598   -18995 
  -20365   -22079   -23777   -24586   -23963   -22201   -19975   -17706 
  -15739   -14552   -14318   -14759   -15701   -17246   -19287   -21427 
  -22985   -23164   -22061   -20819   -20124   -19556   -18840   -18505 
  -18976   -19946   -20715   -20927   -20858   -20643   -20043   -19284 
  -18701   -17920   -16482   -14666   -13310   -12908   -13116   -13220 
  -12776   -12144   -12247   -13194   -13882   -13654   -13348   -13848 
  -14714   -15296   -15757   -15990   -15465   -14365   -13094   -11729 
  -10652   -10187   -10069   -10145   -10739   -11811   -12423   -11985 
  -11379   -11506   -12022   -12488   -13386   -15514   -18755   -22179 
  -25415   -28272   -29719   -28834   -25454   -20308   -15399   -12297 
  -10544    -9223    -8466    -8932   -10583   -12484   -14364   -17020 
  -20584   -23892   -25619   -25245   -23222   -20545   -17765   -14567 
  -10981    -8186    -7119    -7462    -8699   -10825   -13705   -16600 
  -18763   -20252   -21314   -21581   -20831   -19465   -17948   -16638 
  -15544   -14375   -13477   -13669   -14967   -16776   -18817   -20866 
  -22350   -22761   -22310   -21742   -21305   -20579   -19375   -18033 
  -16788   -15354   -13538   -12082   -12159   -14061   -16902   -19531 
  -21581   -23477   -25217   -26081   -25702   -24490   -23066   -21574 
  -19736   -17844   -16680   -16385   -16453   -16079   -14665   -12791 
  -11606   -11669   -13276   -16716   -21847   -27665   -32577   -35608 
  -36773   -36358   -34561   -31387   -27042   -22409   -18519   -15531 
  -12927   -11084   -11135   -12982   -15206   -16625   -17238   -18081 
  -19726   -21666   -23173   -23172   -20786   -16889   -13181   -10878 
  -10493   -11070   -11047   -10001    -8441    -6907    -5613    -4521 
   -3503    -2578    -2240    -3142    -5485    -9112   -14104   -20331 
  -26347   -30288   -31496   -30284   -27509   -24352   -21260   -17732 
  -13489    -9074    -5392    -3093    -2498    -3638    -5916    -8318 
  -10245   -11639   -12861   -14669   -17398   -20429   -22919   -24503 
  -25299   -25985   -27576   -30268   -33257   -35823   -37467   -37504 
  -35601   -32417   -28747   -24534   -19626   -14381    -9247    -4877 
   -2176    -1432    -2017    -3384    -5673    -9104   -13267   -17324 
  -20852   -23803   -25900   -26996   -27390   -27358   -26745   -25251 
  -23090   -20669   -18044   -15428   -13245   -11699   -11195   -12018 
  -13697   -15684   -17666   -19714   -22434   -25518   -27250   -26445 
  -23780   -21029   -19307   -18366   -17645   -16807   -15314   -12865 
   -9842    -7038    -5076    -3641    -2326    -1954    -3506    -6842 
  -11053   -14814   -16973   -17652   -17534   -16224   -13301   -10159 
   -8731    -9356   -11108   -12960   -14284   -15012   -14991   -13871 
  -12055   -10594   -10332   -11163   -11988   -12202   -12267   -12467 
  -12725   -13515   -15480   -17996   -19531   -19566   -18823   -18126 
  -17782   -17518   -16949   -16082   -15313   -15082   -15497   -16228 
  -16674   -16217   -14440   -11539    -8572    -6501    -5542    -6051 
   -8437   -12081   -15723   -18537   -20344   -21365   -21827   -21504 
  -19991   -17278   -13830   -10689    -8999    -9119   -11070   -14860 
  -19814   -25108   -30344   -34821   -37701   -38651   -37775   -35758 
  -33401   -30865   -28387   -26688   -25974   -25632   -25022   -23966 
  -22581   -21135   -20155   -19905   -19771   -18971   -17616   -16843 
  -17833   -20441   -23387   -25555   -26504   -26408   -25803   -25096 
  -24280   -23176   -21822   -20429   -19319   -18827   -18832   -18948 
  -19139   -19661   -20472   -20780   -19617   -16602   -11814    -6071 
    -906     2685     4422     4041     1562    -2515    -7574   -13011 
  -18401   -23173   -26244   -26941   -25506   -22628   -19316   -16334 
  -13643   -10943    -8150    -5809    -5213    -6750    -9171   -11585 
  -13901   -15601   -16456   -16940   -17376   -17952   -18809   -19915 
  -21262   -22933   -25028   -26965   -27865   -28158   -28412   -27966 
  -26327   -23589   -20231   -17157   -14674   -12779   -12041   -12758 
  -14576   -16752   -17976   -17785   -17350   -16943   -15705   -14227 
  -13480   -13072   -12663   -12008   -10067    -6633    -2996     -337 
     513    -1061    -4547    -8681   -12611   -16169   -19700   -23220 
  -25861   -27054   -26972   -25656   -23553   -22027   -22082   -23359 
  -24524   -24549   -23700   -22711   -21816   -21462   -21784   -21454 
  -19413   -15825   -11001    -5721    -1398      936     1118     -523 
   -3701    -7848   -12003   -15813   -19449   -22777   -25523   -27326 
  -27911   -27644   -27041   -26038   -24052   -20753   -16919   -13665 
  -11223    -9430    -8212    -7579    -7911    -9805   -13530   -18373 
  -23062   -26967   -29540   -30098   -29279   -28439   -27814   -26804 
  -25115   -23179   -21693   -20657   -19718   -19348   -20344   -22526 
  -24633   -25417   -24748   -23396   -21968   -20682   -19769   -19422 
  -19604   -20198   -21076   -21983   -22482   -21957   -19981   -16874 
  -13509   -10623    -8559    -7324    -6554    -5686    -4522    -3255 
   -1934     -557      673     1350      958     -414    -2113    -3990 
   -6286    -9135   -12353   -15292   -17792   -20214   -22233   -23335 
  -23617   -23520   -23417   -23089   -22081   -20636   -19596   -19496 
  -20331   -22095   -24555   -26949   -28673   -29750   -30679   -31640 
  -32118   -31670   -30154   -27620   -24395   -20682   -16496   -12014 
   -7862    -5094    -4384    -5578    -8188   -11592   -14728   -16693 
  -17593   -17610   -16234   -13350    -9764    -6502    -4314    -3520 
   -4296    -7122   -11966   -17459   -21726   -23690   -23823   -23318 
  -22633   -21773   -21030   -20907   -21583   -22397   -22824   -23205 
  -23370   -22751   -21858   -21517   -21805   -22291   -22208   -20864 
  -18284   -15219   -12364    -9766    -7672    -6930    -7779    -9424 
  -11006   -12414   -13559   -13687   -12403    -9873    -6614    -3755 
   -1789     -638    -1031    -3884    -9092   -15063   -20335   -25136 
  -29746   -33791   -36987   -39142   -40236   -39899   -38078   -35943 
  -33992   -31685   -29178   -27143   -26211   -26547   -27141   -26725 
  -25241   -23533   -22098   -20838   -19615   -18268   -16425   -13750 
  -10518    -7913    -6579    -5608    -4456    -3953    -4899    -6994 
   -8709    -8612    -6771    -4062    -1372      179      -81    -1973 
   -5250    -9469   -13901   -18173   -22237   -25656   -27187   -26166 
  -23601   -20714   -18150   -16116   -14417   -13317   -13222   -13821 
  -14865   -16313   -17855   -19158   -19856   -19491   -17895   -15569 
  -13356   -11701   -10704   -10387   -10702   -11781   -13764   -16171 
  -18288   -20084   -21780   -23185   -24054   -24269   -23892   -23266 
  -22508   -21374   -19754   -17865   -16165   -15117   -14933   -15631 
  -16955   -18436   -19573   -19700   -18669   -17445   -16991   -17278 
  -18015   -19285   -20571   -20804   -19980   -18496   -16199   -13937 
  -13011   -13217   -13756   -14225   -14290   -13886   -13350   -13337 
  -14451   -16484   -18846   -21425   -23922   -25627   -26474   -26766 
  -26363   -25166   -23330   -21065   -18989   -17572   -16430   -15316 
  -14428   -13631   -12792   -12194   -11961   -11944   -12398   -13712 
  -15566   -17615   -19950   -21828   -21941   -20199   -17595   -15064 
  -13070   -11585   -10490    -9836    -9544    -9223    -8539    -7964 
   -8551   -10382   -12370   -14125   -16234   -18555   -20125   -20318 
  -19271   -17807   -16756   -16160   -15502   -14511   -13413   -12286 
  -11014    -9929    -9403    -9521   -10303   -11606   -13378   -15602 
  -17977   -20132   -21766   -22820   -23359   -23361   -23267   -23817 
  -25157   -26841   -28164   -28592   -28287   -27612   -26506   -24759 
  -22512   -20385   -18967   -18534   -19127   -20327   -21555   -22576 
  -23306   -23713   -23864   -23690   -22894   -21319   -19232   -17172 
  -15501   -13928   -12105   -10603   -10132   -10392   -10709   -10929 
  -11070   -11009   -10575    -9636    -8473    -7701    -7431    -7349 
   -7690    -8854   -10553   -12425   -14398   -16414   -18440   -20210 
  -21252   -21289   -20284   -18568   -16708   -14997   -13632   -12886 
  -12878   -13685   -15143   -16641   -17804   -18634   -18981   -18782 
  -18238   -17534   -16846   -16328   -16110   -16418   -17467   -18908 
  -19839   -19944   -19745   -19635   -19630   -19761   -20168   -20839 
  -21487   -21797   -21658   -21257   -20913   -20817   -21153   -21983 
  -22996   -23864   -24319   -24281   -24101   -23661   -22517   -21027 
  -19629   -18358   -17345   -16472   -15568   -14948   -14867   -15067 
  -15053   -14389   -12995   -11316    -9809    -8481    -7170    -5954 
   -5306    -5745    -7171    -9017   -10901   -12535   -13643   -14379 
  -15191   -16356   -17815   -19102   -19784   -20086   -20539   -21297 
  -22029   -22295   -22198   -22452   -23429   -24525   -24935   -24612 
  -23779   -22372   -20631   -19009   -17545   -16214   -15078   -14182 
  -13808   -14148   -15044   -16141   -16843   -17026   -17236   -17578 
  -17750   -17709   -17479   -17197   -17104   -17049   -16488   -15172 
  -13602   -12314   -11350   -10974   -11559   -12941   -14905   -17368 
  -20103   -22737   -24813   -26168   -26779   -26343   -24763   -22301 
  -19258   -16182   -13720   -12087   -11095   -10443    -9973    -9901 
  -10606   -12140   -13851   -14874   -15165   -15146   -14879   -14256 
  -13273   -12167   -11258   -10686   -10731   -11584   -12913   -14332 
  -15669   -16891   -18189   -19785   -21536   -23013   -24022   -24792 
  -25547   -26172   -26408   -26175   -25555   -24644   -23479   -22070 
  -20529   -19061   -17750   -16564   -15671   -15235   -14963   -14406 
  -13622   -13268   -13793   -14906   -16243   -17770   -19287   -20432 
  -21148   -21479   -21262   -20488   -19431   -18242   -16920   -15612 
  -14547   -13767   -13212   -13016   -13312   -13832   -14244   -14565 
  -14748   -14533   -14075   -13903   -14173   -14773   -15767   -16935 
  -17733   -18038   -18019   -17806   -17661   -17750   -17990   -18281 
  -18667   -19353   -20320   -21172   -21565   -21426   -20839   -20106 
  -19655   -19679   -20276   -21607   -23399   -24870   -25355   -24739 
  -23426   -21857   -20095   -18071   -15949   -14047   -12600   -11572 
  -10780   -10273   -10144   -10058    -9621    -8933    -8250    -7494 
   -6553    -5722    -5428    -5806    -6593    -7327    -8010    -9171 
  -11015   -13142   -14938   -16123   -17142   -18506   -20063   -21583 
  -23277   -25257   -27125   -28362   -28876   -29039   -29200   -29341 
  -29288   -29007   -28655   -28364   -27989   -27329   -26561   -25990 
  -25523   -24815   -23765   -22489   -20995   -19112   -16641   -13682 
  -10808    -8470    -6471    -4609    -3328    -3061    -3542    -4271 
   -5224    -6749    -8818   -10906   -12610   -13930   -15191   -16454 
  -17085   -16782   -16196   -15990   -16266   -16964   -18141   -19598 
  -20763   -21425   -21798   -22026   -22264   -22515   -22411   -21851 
  -21195   -20673   -20180   -19674   -19446   -19657   -19892   -19721 
  -19221   -18567   -17673   -16415   -14845   -13023   -10936    -8806 
   -7178    -6446    -6549    -7260    -8454   -10047   -11970   -14041 
  -15811   -16885   -17278   -17283   -17167   -16971   -16711   -16688 
  -17226   -18331   -19684   -20874   -21734   -22307   -22677   -22976 
  -23057   -22452   -20977   -19057   -17447   -16663   -16512   -16372 
  -16003   -15788   -16234   -17405   -18814   -19895   -20415   -20436 
  -20169   -19727   -19005   -18015   -17013   -16178   -15631   -15464 
  -15476   -15585   -16127   -17275   -18777   -20219   -21171   -21458 
  -21361   -21263   -21113   -20531   -19531   -18658   -18236   -18102 
  -18095   -18162   -18143   -17843   -17176   -16190   -15026   -13843 
  -12902   -12581   -13076   -14077   -15059   -15816   -16518   -17507 
