Origin Time       2025/01/13 21:19:00
Lat.              31.8
Long.             131.6
Depth. (km)       30
Mag.              6.9
Station Code      KGS021
Station Lat.      31.2535
Station Long.     130.6324
Station Height(m) 8
Record Time       2025/01/13 21:19:53
Sampling Freq(Hz) 100Hz
Duration Time(s)  147
Dir.              E-W
Scale Factor      3920(gal)/6182761
Max. Acc. (gal)   17.873
Last Correction   2025/01/13 21:19:54
Memo.             
[...]
    7721     5206     2482     -145    -2563    -4701    -6381    -7545 
   -8333    -8770    -8825    -8741    -8971    -9802   -10777   -11020 
  -10439    -9053    -6471    -2997      764     4508     7979    10986 
   13304    15005    16647    18410    19822    20671    21079    20879 
   19619    17235    14465    11875     9268     6563     4139     2261 
     913      103     -218     -254      -16      779     2160     3761 
    5237     6441     7505     8554     9504    10324    11068    11748 
   12388    13184    14196    15158    16063    17104    18154    19063 
   20017    21055    21808    22142    22159    21662    20360    18331 
   15997    13664    11452     9620     8176     6579     4600     2534 
     485    -1559    -3392    -4906    -6138    -6915    -7095    -6640 
   -5523    -3806    -1500     1216     4150     7216    10140    12836 
   15369    17372    18448    18667    17990    16219    13803    11513 
    9444     7318     5188     3051      735    -1497    -3266    -4565 
   -5255    -5160    -4576    -3780    -3013    -2532    -1981     -943 
     472     1927     3042     3490     3186     2697     2848     3684 
    4678     5791     7050     7860     8073     8098     7943     7534 
    7131     7042     7254     7555     8003     8890    10255    11822 
   13409    14950    16283    17294    17994    18257    17990    17356 
   16375    14955    13267    11618    10084     8782     8137     8176 
    8405     8409     8109     7697     7525     7946     8700     8879 
    7976     6251     4418     3193     2560     2068     1462      586 
    -362     -922    -1111    -1272    -1350    -1224    -1215    -1447 
   -1544    -1287     -813      -42     1270     2973     4718     6187 
    7174     7843     8386     8632     8296     7395     6360     5562 
    4953     4441     4080     3844     3870     4569     6191     8468 
   10584    11874    12580    13266    14009    14620    14787    14075 
   12493    10610     9034     7988     7260     6670     6331     6282 
    6442     6989     8066     9350    10504    11592    12587    12933 
   12370    11354    10179     8935     7862     7120     6615     6127 
    5794     6143     7338     9053    10994    12995    15016    17127 
   19263    21357    23238    24318    24430    23946    22734    20833 
   18875    16916    14633    12148     9665     7060     4315     1845 
    -107    -1700    -3040    -4202    -5324    -6472    -7579    -8437 
   -8922    -9107    -9012    -8771    -8733    -8960    -9155    -9139 
   -8919    -8409    -7429    -5865    -3661     -845     2308     5345 
    7838     9577    10749    11530    11836    11762    11605    11615 
   11838    12161    12483    12705    12938    13486    14337    15263 
   16193    17026    17600    17880    17771    17091    15734    13764 
   11465     9254     7548     6499     5924     5573     5396     5485 
    5838     6426     7165     7786     8106     8302     8579     9031 
    9824    10749    11193    11017    10712    10871    11868    13512 
   15302    17079    18640    19541    19762    19444    18427    16712 
   14561    12127     9432     6587     3879     1444     -902    -3079 
   -4745    -6019    -7033    -7351    -6830    -6000    -5144    -4037 
   -2605    -1094      340     1768     3268     4651     5660     6335 
    6712     6655     6336     6099     5880     5467     4862     4047 
    3196     2781     2802     2823     2643     2192     1395      291 
    -993    -2411    -3890    -5077    -5768    -6229    -6744    -7154 
   -7051    -6543    -5949    -5113    -4169    -3478    -2857    -2040 
    -946      480     2252     4284     6374     8483    10750    13241 
   15869    18306    20168    21364    21935    21914    21394    20467 
   19376    18513    17904    17137    16099    15129    14546    14625 
   15387    16358    17088    17589    18162    18772    18720    17568 
   15843    14018    12041    10151     8606     7109     5485     3870 
    2217      486    -1232    -2763    -3793    -4225    -4280    -4128 
   -3790    -3255    -2624    -2128    -1819    -1457     -862     -205 
     301      776     1406     2260     3564     5606     8206    10748 
   12850    14484    15728    16772    17686    18270    18423    18376 
   18264    17754    16689    15250    13546    12025    11084    10482 
    9976     9408     8643     8011     7915     8421     9301    10237 
   11248    12499    14150    16178    18174    20012    21701    22878 
   23284    22778    21285    19108    16641    13913    10898     7908 
    5075     2443      342    -1100    -2223    -3576    -5097    -6029 
   -6339    -6648    -7038    -7390    -7740    -7820    -7283    -6280 
   -5217    -4161    -3157    -2214     -899      799     2319     3382 
    4012     4487     5089     5691     6017     6095     6194     6266 
    6183     6087     5797     5030     3925     2841     2129     1696 
    1352     1262     1456     1750     1961     2058     2125     2090 
    1944     1981     2302     2650     3220     4770     7488    10771 
   14095    17161    19870    22215    24019    25264    25949    26024 
   25754    25281    24554    23461    21692    19430    17267    15280 
   13201    10947     8751     6863     5261     3779     2382     1076 
    -272    -1485    -2091    -2006    -1615    -1332    -1217    -1051 
    -681     -124      459      932     1464     2309     3390     4521 
    5820     7482     9338    11160    13008    14804    16265    17194 
   17446    17046    16051    14522    12855    11173     9158     6967 
    4998     3262     1706      450     -627    -1794    -3045    -4180 
   -4993    -5535    -6072    -6588    -6966    -7332    -7751    -8123 
   -8370    -8399    -8258    -8022    -7441    -6372    -5126    -3903 
   -2727    -1727     -672      883     3017     5476     7841     9995 
   12245    14655    16896    18745    20223    21369    22353    23603 
   25297    27109    28636    29563    29614    28686    26989    24911 
   22738    20577    18380    16200    14202    12369    10707     9407 
    8460     7719     7344     7468     7741     7805     7563     6829 
    5424     3490     1492     -285    -2054    -3812    -5104    -5750 
   -5920    -5754    -5290    -4619    -3871    -3018    -1886     -414 
    1274     3096     4872     6354     7573     8541     9133     9376 
    9323     8837     7693     6014     4139     2317      805     -210 
    -577     -351       90      588     1252     2000     2651     3257 
    4059     5325     7145     9330    11535    13446    15151    17016 
   19098    21231    23351    25229    26459    26942    26866    26303 
   25172    23570    21816    20089    18450    17026    15798    14664 
   13699    13170    13309    13833    14051    13763    13324    12836 
   12221    11677    11257    10584     9402     7837     6008     4083 
    2514     1535      927      597      679     1016     1292     1522 
    1953     2616     3206     3461     3412     3184     2777     2248 
    1817     1550     1266      902      474     -296    -1494    -2573 
   -3229    -3695    -4038    -4163    -4135    -4005    -3648    -2998 
   -2157    -1141      185     1710     2812     3168     3341     3685 
    3762     3410     3024     2729     2346     1784     1088      460 
     -18     -421     -585     -391      -58      302      739     1216 
    1788     2625     3788     5197     6773     8422     9931    11234 
   12394    13272    13570    13231    12539    11674    10595     9453 
    8515     7801     7235     6944     7201     8036     9108    10136 
   11018    11559    11559    11170    10788    10542    10260     9874 
    9521     9370     9543     9979    10401    10562    10338     9794 
    9212     8926     9206     9989    10745    10968    10683    10196 
    9667     9196     8839     8469     8111     8043     8314     8594 
    8576     8413     8527     8988     9680    10711    12059    13422 
   14555    15356    15783    15951    16042    15959    15478    14765 
   14067    13218    12051    10621     8988     7310     5882     5059 
    5015     5428     5794     5834     5379     4543     3827     3515 
    3626     4099     4673     5190     5776     6508     7284     7908 
    8098     7771     7164     6504     5925     5518     5369     5618 
    6339     7412     8556     9617    10630    11546    12252    12776 
   13151    13193    12617    11325     9640     8117     6977     6139 
    5648     5526     5522     5345     4878     4236     3741     3559 
    3523     3414     3217     3037     2879     2693     2535     2582 
    2924     3418     3783     3762     3282     2571     2033     1904 
    2085     2316     2520     2902     3526     4121     4518     4818 
    5026     5058     5140     5522     5997     6374     6881     7577 
    8180     8543     8532     7941     6904     5703     4368     2914 
    1491      169    -1046    -2088    -2877    -3259    -3099    -2569 
   -1856     -847      611     2506     4737     7170     9519    11463 
   12980    14104    14619    14461    13954    13408    12843    12188 
   11518    11118    11262    11842    12353    12415    12107    11628 
   11114    10792    10761    10808    10570     9665     7929     5568 
    2780     -257    -3092    -5366    -7094    -8312    -8897    -8710 
   -7790    -6352    -4442    -1866     1302     4663     7878    10728 
   13174    15222    16676    17431    17716    17700    17282    16556 
   15945    15620    15215    14423    13332    12026    10573     9193 
    8045     7145     6459     5934     5515     5101     4630     4332 
    4533     5187     5916     6362     6319     5666     4416     2747 
     815    -1157    -2678    -3367    -3258    -2530    -1267      445 
    2427     4591     7075    10002    13087    15821    18044    19932 
   21541    22648    23041    22768    22036    21199    20649    20422 
   20271    20187    20390    20747    20830    20426    19619    18732 
   18115    17902    18023    18240    18263    17869    16969    15670 
   14138    12452    10685     8826     6797     4736     2818     1065 
    -485    -1811    -2933    -3992    -5177    -6211    -6654    -6636 
   -6526    -6435    -6241    -5724    -4627    -2746     -341     1900 
    3628     4944     5894     6570     7308     8414     9816    11103 
   12063    12802    13357    13684    13801    13693    13136    11837 
    9853     7432     4685     1955     -279    -2072    -3670    -5135 
   -6536    -7750    -8577    -9004    -9025    -8695    -8005    -6765 
   -5020    -3009     -933      973     2594     3936     5015     5839 
    6335     6554     6749     7001     7164     7179     7116     7073 
    7154     7305     7430     7690     8305     9343    10672    11985 
   13092    14005    14672    14974    14833    14173    13142    12122 
   11237    10218     8793     6854     4604     2550     1062      342 
     642     1741     2821     3545     4195     4744     5103     5493 
    5957     6459     6939     7068     6670     5595     3572      989 
   -1257    -2481    -2406    -1338       49     1233     2090     2761 
    3480     4463     5688     6963     8167     9346    10652    12064 
   13485    14776    15662    16074    16150    15940    15485    14969 
   14598    14306    13831    13045    11959    10623     9113     7586 
    6242     5017     3595     1759     -515    -3074    -5507    -7230 
   -7845    -7364    -5972    -3887    -1473      994     3473     5949 
    8603    11822    15687    19793    23525    26390    28092    28549 
   28076    27104    25781    24339    23085    21960    20677    18950 
   16859    14919    13363    12152    11402    10936    10332     9517 
    8571     7593     6834     6204     5352     4248     3108     2133 
    1512     1270     1136      856      388     -283    -1106    -1771 
   -1946    -1546     -494     1135     2777     3943     4700     5383 
    6274     7390     8465     9382    10292    11056    11394    11546 
   11834    12144    12270    12155    11768    11023     9986     8913 
    7902     7032     6663     6975     7522     7823     7953     8067 
    8127     8223     8513     9006     9509     9835     9980     9882 
    9474     8943     8435     7823     6992     6002     5135     4641 
    4336     4133     4343     5009     5904     6843     7637     8228 
    8642     8671     8005     6656     4944     3219     1737      797 
     630     1025     1765     3090     5103     7570    10158    12373 
   13795    14220    13604    12090     9789     6852     3584      288 
   -2667    -5042    -6803    -7893    -8354    -8272    -7603    -6313 
   -4610    -2930    -1465     -187      795     1617     2606     3658 
    4499     5134     5681     6161     6541     6872     7368     8123 
    8984     9937    10994    11989    12884    13628    14052    14149 
   13893    13106    11695     9555     6713     3658      996    -1021 
   -2406    -3200    -3511    -3535    -3418    -3227    -2994    -2774 
   -2457    -1867    -1071      -65     1210     2541     3807     5051 
    6136     6894     7397     7785     8107     8569     9394    10491 
   11678    12822    13738    14181    13801    12262     9597     6192 
    2435    -1251    -4491    -7281    -9558   -11110   -12044   -12441 
  -12135   -11088    -9442    -7472    -5543    -3759    -1943      -84 
    1785     3881     6392     9308    12497    15814    19130    22311 
   25184    27728    30131    32335    33999    34914    35184    34984 
   34365    33489    32485    31271    29798    28140    26403    24531 
   22416    20210    18114    16156    14238    12318    10509     8900 
    7748     7436     7917     8876    10113    11291    12010    12166 
   11810    11252    10890    10679    10587    10651    10537     9997 
    9082     7710     5729     3316      937     -994    -2383    -3362 
   -3955    -4318    -4666    -4824    -4730    -4484    -4010    -3291 
   -2294    -1174     -384      -32      122      114      -71     -202 
     -81      137      251      366      541      643      836     1337 
    2149     3494     5431     7604     9773    11703    13329    14935 
   16531    17850    18758    19294    19620    19874    20120    20290 
   20250    20034    19758    19463    19153    18758    18189    17391 
   16346    15146    13870    12435    10736     8842     6864     4683 
    2193     -430    -3086    -5793    -8401   -10832   -12996   -14594 
  -15536   -15919   -15812   -15391   -14952   -14570   -13868   -12626 
  -11045    -9105    -6721    -4125    -1463     1362     4317     7121 
    9527    11438    12686    13112    12891    12288    11271     9874 
    8430     7165     6206     5608     5174     4808     4605     4585 
    4797     5169     5497     5782     6014     6039     5846     5573 
    5419     5566     6167     7359     9099    11292    13802    16264 
   18350    20010    21201    21675    21479    21008    20437    19761 
   18923    17849    16607    15320    14037    12741    11410    10063 
    8841     7993     7569     7423     7547     8030     8897    10108 
   11468    12698    13766    14753    15587    16264    16738    16671 
   15833    14371    12513    10349     7821     4899     1751    -1330 
   -4057    -6221    -7692    -8556    -9064    -9164    -8729    -8018 
   -7267    -6536    -5907    -5395    -4908    -4325    -3652    -3040 
   -2478    -1943    -1635    -1455    -1113     -766     -453      137 
     966     1902     2961     4028     5133     6509     8110     9678 
   11016    11914    12315    12361    12169    11885    11638    11341 
   10812    10003     9025     8038     7172     6472     5932     5544 
    5350     5538     6155     7042     8231     9734    11311    12827 
   14223    15360    16158    16573    16583    16197    15395    14275 
   12997    11687    10406     9036     7550     6010     4322     2670 
    1352      291     -498     -890    -1066    -1139     -957     -479 
     280     1529     3463     5997     8932    12092    15307    18424 
   21309    23879    26086    27788    28854    29380    29523    29261 
   28634    27791    26644    25120    23381    21479    19377    17229 
   15214    13338    11588     9939     8272     6549     4720     2678 
     574    -1415    -3347    -5185    -6808    -8206    -9416   -10409 
  -11026   -11179   -10875   -10085    -8864    -7234    -5146    -2790 
    -437     1919     4318     6591     8586    10226    11487    12308 
   12432    11744    10524     9048     7352     5459     3484     1565 
    -247    -2028    -3802    -5399    -6569    -7201    -7334    -7036 
   -6435    -5671    -4774    -3708    -2460    -1048      547     2379 
    4488     6711     8702    10320    11609    12671    13666    14640 
   15612    16613    17577    18479    19398    20372    21347    22272 
   23124    23760    24005    23755    22951    21627    19820    17612 
   15241    12903    10621     8330     6068     3909     1753     -415 
   -2397    -4023    -5229    -5988    -6252    -6083    -5667    -5044 
   -4142    -2955    -1438      323     2138     4101     6218     8158 
    9791    11073    11738    11696    11227    10746    10449    10272 
   10181    10156    10037     9666     9009     8134     7133     6017 
    4711     3195     1557      -83    -1645    -3010    -4029    -4683 
   -4998    -4874    -4212    -3034    -1418      530     2701     4974 
    7249     9547    11911    14226    16335    18223    19964    21582 
   22944    23838    24273    24453    24489    24410    24181    23698 
   23010    22234    21347    20350    19297    18195    17070    15906 
   14644    13368    12167    10935     9630     8419     7371     6440 
    5769     5428     5188     4897     4541     4122     3712     3348 
    2995     2651     2310     1953     1598     1334     1287     1433 
    1608     1798     2095     2455     2782     3038     3099     2787 
    2142     1357      503     -385    -1191    -1832    -2334    -2857 
   -3493    -4182    -4866    -5481    -6009    -6509    -7034    -7629 
   -8242    -8739    -9082    -9237    -9048    -8402    -7347    -5985 
   -4391    -2680     -979      678     2290     3816     5230     6488 
    7559     8536     9528    10546    11559    12509    13303    13887 
   14371    14976    15846    16998    18400    19915    21306    22435 
   23291    23789    23769    23262    22364    21045    19354    17417 
   15274    13061    10945     8871     6815     4970     3470     2311 
    1505     1094     1049     1319     1878     2630     3455     4292 
    5108     5896     6644     7277     7767     8131     8364     8467 
    8404     8270     8253     8396     8764     9438    10270    11060 
   11713    12116    12217    12004    11467    10757     9979     9002 
    7714     6155     4427     2645      866     -888    -2519    -3961 
   -5144    -5949    -6431    -6730    -6793    -6512    -5815    -4640 
   -3062    -1228      764     2823     4881     6934     9070    11353 
   13648    15747    17631    19398    20997    22390    23695    24904 
   25907    26713    27295    27491    27193    26428    25263    23723 
   21898    19926    17828    15649    13532    11508     9578     7816 
    6277     4993     4060     3556     3363     3312     3374     3433 
