Origin Time       2025/01/13 21:19:00
Lat.              31.8
Long.             131.6
Depth. (km)       30
Mag.              6.9
Station Code      KGS022
Station Lat.      31.2804
Station Long.     131.0504
Station Height(m) 12
Record Time       2025/01/13 21:19:50
Sampling Freq(Hz) 100Hz
Duration Time(s)  98
Dir.              N-S
Scale Factor      7845(gal)/8223790
Max. Acc. (gal)   13.726
Last Correction   2025/01/13 21:19:50
Memo.             
[...]
    6426     6251     6860     7765     8060     7577     7064     6886 
    6740     6612     6512     6320     6438     6972     7299     7211 
    7005     6816     6647     6484     6446     6866     7855     8807 
    8899     7990     6736     6083     6517     7539     8305     8596 
    8550     8048     7199     6589     6435     6438     6498     6686 
    6870     7068     7375     7443     7134     6782     6381     5803 
    5464     5852     6747     7488     7708     7492     7156     6941 
    6687     6365     6642     7852     9012     9051     8179     7231 
    6783     7018     7465     7465     7276     7496     7827     7717 
    7213     6733     6940     7828     8256     7793     7483     7844 
    7923     6878     5363     4677     5228     6396     7294     7495 
    7221     6686     5968     5486     5567     6170     7326     8665 
    9174     8540     7569     6925     6640     6716     7267     8064 
    8579     8270     7092     5949     5517     5416     5641     6616 
    7717     8191     8280     8160     7681     6926     6093     5717 
    6300     7371     8006     7889     7277     6647     6401     6481 
    6523     6505     6783     7464     8171     8433     8114     7599 
    7465     7716     7835     7749     7838     8113     8199     7867 
    7249     6794     6659     6473     6338     6790     7649     8263 
    8182     7284     6218     5972     6577     7199     7450     7492 
    7269     6732     6162     5768     5848     6493     6894     6697 
    6656     6944     7115     7196     7348     7576     7668     7167 
    6292     6007     6629     7473     7809     7456     6889     6909 
    7653     8255     7951     6914     5934     5765     6347     7105 
    7877     8276     7666     6648     6563     7538     8391     8386 
    7996     7700     7415     7191     7102     6988     6821     6694 
    6750     7168     7678     7607     6847     6029     5701     6002 
    6714     7337     7742     8378     9182     9316     8472     7361 
    6812     6856     6891     6797     6855     6767     6238     5778 
    5917     6372     6494     6350     6691     7589     8174     8136 
    8012     7774     6880     5698     5232     5765     6843     7994 
    8796     8830     8027     6963     6370     6285     6563     7379 
    8303     8332     7402     6654     6787     7234     7198     6546 
    5772     5584     6251     7383     8325     8618     8361     7917 
    7275     6579     6453     6736     6625     6496     7322     8499 
    8448     6948     5204     4326     4889     6612     8218     8851 
    8769     8256     7241     6123     5904     7044     8816    10038 
    9990     8745     6966     5508     4896     5043     5679     6551 
    7308     7786     7959     7766     7349     6820     6164     5814 
    6431     7936     9200     9066     7873     6855     6220     5567 
    5260     5860     7022     7742     7438     6524     5948     6278 
    7258     8001     7917     7492     7481     7619     7210     6720 
    7263     8522     9026     8460     7854     7620     7280     6605 
    5852     5597     6251     7272     7758     7746     7805     7848 
    7331     6323     5625     5849     6798     7634     7537     6712 
    6153     6178     6519     7105     7585     7604     7537     7600 
    7485     7265     7218     7094     6639     6373     6872     7723 
    8171     8017     7325     6277     5343     5051     5845     7538 
    9067     9691     9478     8495     6966     5748     5501     6048 
    6956     7785     8105     7978     7780     7734     7815     7654 
    7001     6326     6232     6502     6440     5979     5854     6525 
    7361     7607     7465     7403     7522     7978     8637     8702 
    7969     7346     7110     6615     5972     5749     5745     5679 
    5837     6328     6820     7204     7638     7705     6836     5809 
    5910     7095     8522     9342     8845     7414     6424     6446 
    6855     7349     8287     9456    10025     9556     8009     6029 
    5151     5841     6778     7086     7202     7314     6968     6301 
    5817     5471     5413     6245     7751     8931     9136     8279 
    6687     4996     3815     3715     5066     7250     8888     9158 
    8257     6828     5578     5123     5792     7491     9531    10845 
   10658     9061     7326     6918     7753     8657     9000     8735 
    7977     7163     6739     6733     6893     6818     6303     5728 
    5487     5525     5675     5618     5161     4881     5352     6304 
    7346     8356     8911     8517     7522     6986     7392     8000 
    8012     7595     7080     6407     5850     6060     7380     9414 
   10809    10226     7850     5273     4012     4476     6331     8884 
   10543     9961     8046     6544     5884     5875     6311     6868 
    7572     8248     8028     6702     5339     4919     5325     5778 
    5918     6212     7149     8388     9019     8591     7607     6943 
    6893     6922     6702     6741     7099     6928     6151     5724 
    6222     7449     8546     8579     7669     6660     6087     6228 
    7157     8455     9304     9050     7882     6656     6197     6893 
    8224     9101     8954     7986     6718     5509     4511     4175 
    4930     6116     6428     5811     5656     6605     7794     8451 
    8649     8846     9387     9865     9572     8716     7929     7298 
    6664     6060     5980     7113     8924     9502     7862     5582 
    4927     5922     6895     7150     7318     7528     6974     5485 
    4205     4263     5563     6995     7492     7206     7198     7468 
    7103     6340     6249     7018     7929     8135     7416     6756 
    7163     8027     7892     6660     5971     6798     8021     8453 
    8403     8414     8359     8043     7701     8024     9279    10255 
    9633     7909     6396     5460     4649     3817     3585     4374 
    5458     5564     4522     3755     4450     5944     6818     6743 
    6550     6928     7564     7879     8021     8436     8988     8973 
    8068     7121     7222     8032     8267     7712     7319     7392 
    7156     6393     6181     7311     8765     8773     7223     5800 
    5729     6552     7269     7645     7935     8217     8336     8020 
    7403     7188     7535     7647     7007     6400     7163     9219 
   10764    10588     9310     8251     8158     8776     9382     9643 
    9621     9279     8387     7032     6126     6571     7938     9070 
    9259     8210     6340     4949     5036     6273     7315     7304 
    6623     5877     5173     4622     4575     4973     5281     5476 
    5873     6222     6318     6438     6712     7071     7275     7137 
    7176     7888     8756     8985     8559     8002     7338     6079 
    4554     3952     4712     6089     7086     7079     6143     5013 
    4364     4283     4626     5432     6640     7892     8553     8191 
    7578     7848     8465     8181     7371     7376     8433     9605 
   10030     9416     7832     5875     4679     4896     6305     8445 
   10543    11531    11105     9983     8687     7354     6656     7017 
    7765     8222     8136     7402     6550     6122     5431     3910 
    2951     4147     6639     8181     7962     6875     5594     3883 
    2023     1255     2207     4039     5347     5347     4611     4387 
    4853     5309     5740     6524     7477     8314     9146     9998 
   10592    10620     9832     8502     7753     8248     9375    10168 
    9985     8760     7198     6153     5703     5355     5050     5047 
    4847     3757     2330     1675     2023     2743     3142     3307 
    3789     4623     5678     7133     8658     9404     9487     9867 
   10423    10334    10138    11001    12360    12474    10933     9076 
    8000     7566     7597     8500    10103    11422    11805    11060 
    9196     6890     5296     5046     6026     7755     9406    10106 
    9775     8907     7709     6386     5374     4680     4013     3449 
    2924     1972      814      367      903     2050     3438     4714 
    5987     7639     9202     9751     9081     7655     6065     4868 
    4553     5329     6848     8402     9364     9541     9364     9583 
   10598    12243    13837    14686    14805    14701    14581    14126 
   12957    11047     8625     6444     5591     6046     6721     7021 
    6960     6393     5077     3118     1325      580      873     1908 
    3478     4635     4545     4035     4374     5397     6257     6789 
    7325     8029     8761     9171     9200     9599    11199    13559 
   15323    15855    15830    16109    16148    14507    11098     7433 
    4764     3130     2035     1286     1017     1324     1723     1351 
     244     -571     -307     1192     3267     4711     5443     6748 
    9093    11421    12684    12591    11277     9386     8039     8098 
    9607    11950    14231    15696    15796    14091    10859     7403 
    4855     3399     3060     3794     4897     5579     5292     3470 
     533    -1679    -1841     -356     1981     4864     7596     9119 
    9286     8876     8561     8468     8463     9018    10650    12152 
   11512     8521     5034     3086     3269     4770     6798     9385 
   12401    14607    14391    11500     7771     5317     4341     3701 
    2882     2496     2779     2504      471    -2500    -3915    -2193 
    1391     4333     5896     7361     9489    10897    10320     9571 
   11249    14453    16240    15670    13709    11441     9803     9166 
    8949     8627     8437     8218     7145     5455     4338     3894 
    2824      143    -2894    -3707    -1850      569     1929     2631 
    3615     4394     3873     2735     3082     5680     8897    10887 
   11896    13363    15510    16984    16893    16397    16910    17473 
   16468    14462    12845    11765    10550     8579     6012     4077 
    3551     3627     3350     3095     3434     3731     3187     2263 
    1960     2370     2547     1814     1101     2047     4415     6006 
    5686     4876     5904     9398    13274    15079    14863    14103 
   12799     9792     5510     2459     2573     4688     5859     5120 
    4108     4067     4197     3364     2165     2374     4752     7693 
    8903     8442     7943     6972     3751     -697    -3083    -2127 
     513     2812     4513     6674     9300    10628     9880     9093 
   10287    12401    13545    14224    15870    18269    19558    18041 
   14890    13381    14062    13756    10361     5805     3245     3080 
    3136     2566     2999     4884     6389     6173     4434     2523 
    1918     2211     2085     2276     4135     6299     6343     4391 
    2519     2263     3763     5849     7558     9946    14000    17415 
   17209    14265    11403     9232     7146     5746     6130     8433 
   11496    12910    11068     8241     7878     9468    10436    10413 
   10272     9618     7855     5994     5404     6335     8113     8878 
    6856     3519     1933     1964     1397       29     -585      275 
    1606     2332     3011     4742     7206     8930     9180     8834 
    9437    11620    14307    15925    15928    14936    14031    13379 
   12357    11128    10064     8797     7734     8171     9613    10080 
    9528     9838    11718    13728    14098    12623    10868    10022 
    8912     6007     2388      386      519     1291      976     -927 
   -3411    -5076    -5594    -5285    -3878    -1335     1447     3672 
    4912     4831     4023     3859     4896     6685     8702    10326 
   10782    10083     9400     9310     8968     8174     8048     9202 
   11186    13200    14833    16309    17200    16159    13285    10507 
    8995     8503     8433     8035     7109     6157     4958     2751 
      35    -1537     -938     1556     4459     6111     6521     6731 
    6990     7111     7333     7717     7460     6350     5764     6335 
    7045     7198     6835     6195     5961     6426     6786     6728 
    7186     8761    10400     9852     6430     2855     1956     2826 
    2559      481    -1501    -1868     -845      650     2251     4018 
    5468     5965     6080     7063     9035    10867    11294     9990 
    8546     9213    11727    13528    13433    12430    11346    10276 
    9667    10264    11847    13161    13211    11777     9273     6482 
    4023     2354     1768     1701     1155      400      369      623 
     542      963     2340     3662     4556     5992     8311    10494 
   11213    10135     8766     8667     9387     9983    10550    11307 
   11650    10436     7676     5424     5297     6296     6728     6550 
    6771     7734     8386     7641     6164     5316     5100     4657 
    3971     4098     5638     7846     9790    10782    10388     9795 
   10611    12140    12989    13567    14550    15169    14747    14057 
   13617    12286     9126     5340     3176     3530     5275     6682 
    6845     5782     4097     2706     2376     3861     7392    11296 
   13069    11686     7789     3407     1039      984     1594     2446 
    3928     4649     3099     1008     1372     4131     6778     7836 
    7855     8334    10098    12343    13976    14940    15078    13547 
   10806     9085     9821    12420    15144    15938    13768     9748 
    6307     5281     6478     8405    10327    12060    12465    10642 
    7857     6224     6475     7985     9401     9429     8382     7447 
    6135     3017    -1520    -5513    -7258    -6065    -2539     1877 
    5805     8152     8592     7668     6087     5070     6091     8853 
   11271    12264    12804    13489    13230    11379     9215     8365 
    8976    10093    11014    11553    11638    11157     9863     7719 
    5479     4133     3913     4048     3557     2710     2664     3464 
    4077     3989     3626     3184     2239     1206     1212     2392 
    4218     6030     6772     6377     6353     7547     9288    10875 
   11770    11395    10077     8789     8023     7655     7265     6407 
    5073     3624     2056      259    -1289    -1867    -1248       16 
    1232     2434     4212     6917    10110    12642    13311    11624 
    8650     6656     6970     9224    12334    14706    15051    13626 
   11676    10183     9401     8833     7797     6407     5347     4621 
    3788     2978     2562     2656     3192     3928     4469     4513 
    4209     4002     3900     3530     3181     3828     5456     6597 
    6462     5904     5405     4348     3061     2867     3921     5310 
    6558     7735     9081    10760    12475    13765    14530    14751 
   14408    13656    12360     9844     6292     3684     3397     4333 
    5111     5516     5570     5570     5977     6593     6960     7125 
    7749     9618    12525    15183    16660    17130    16962    15561 
   12343     8496     5806     4461     3682     3310     3453     3491 
    2829     2253     3037     5111     7514     9377     9979     9439 
    8757     8787     9902    11688    13186    14092    14470    13775 
   11780     9715     8984     9225     8878     7176     4774     2938 
    2231     2008     1587      994      261     -480     -626       97 
    1545     3577     5578     6794     7227     7094     6471     5962 
    6193     6791     7074     7057     6979     6700     6191     5718 
    5132     4117     3041     2594     3491     6327    10323    13412 
   14296    13041    10085     6359     3747     3434     4441     5452 
    6475     7572     8247     8302     7774     6646     5194     4083 
    3819     4405     5911     8365    10535    10602     8569     6022 
    3986     3001     3751     5881     7708     8268     8299     8862 
   10157    11610    12775    14050    15580    16332    15472    13348 
   10604     7931     6193     5335     4644     4711     6372     8060 
    7537     5233     3165     2246     2358     3221     4525     6134 
    7619     7817     6183     3970     2890     3226     3974     4298 
    4407     5155     6995     9220    10450    10062     8796     7838 
    7609     7979     8893    10022    10863    11277    11323    10993 
   10233     9117     7848     6690     6308     7443     9688    11709 
   12895    13034    11551     8887     6642     5761     6124     7175 
    8063     8008     7086     6069     5512     5593     6241     7029 
    7446     7157     6305     5819     6497     7870     8606     8093 
    7311     7399     8140     8789     9024     8482     6664     4008 
    2002     1435     2020     3537     5362     6597     7402     8127 
    8187     7121     5537     4475     4222     4288     4554     5294 
    6181     6548     6281     5908     5984     6637     7781     8970 
    9475     9074     7794     5934     4789     5275     6675     7769 
    7873     7180     6446     6039     6099     6999     8652    10019 
    9925     8131     5659     4105     4315     5648     6995     7989 
    8563     8494     8017     7840     8321     9096     9502     9205 
    8372     7630     7555     7847     7823     7322     6161     3973 
    1551      523     1059     1842     1972     1370      511      508 
    2093     4676     7167     8777     8955     7533     5236     3628 
    3586     4441     5385     6431     7689     8856     9644    10210 
   10976    11943    12422    12125    11982    12965    14500    14918 
   13386    10350     6779     3902     2569     2776     4217     6261 
    7840     8290     7813     7107     6764     6879     7456     8444 
    9159     8918     7852     6739     6556     7638     9347    10737 
   11102    10423     9297     8208     7538     7834     9140    10498 
   10754     9707     8090     6806     6521     7325     8677     9938 
   10427     9566     7572     5216     3312     2797     3906     5452 
    6323     6624     6430     5517     4278     3249     2932     3951 
    5840     7250     8023     8957    10034    10604    10189     8394 
    5840     4831     6713     9945    12480    13440    12243     9153 
    5934     4178     4274     5865     8063     9744    10002     8694 
    6687     4903     3672     3291     4033     5520     6600     6313 
    5092     4033     3531     3823     5292     7453     9194     9868 
    9300     7500     5123     3485     3503     5109     7607    10031 
   11400    11151     9536     7350     5483     4982     6423     9024 
   11427    12874    12923    11349     9103     7993     8617     9605 
    9448     8270     7299     7159     7250     6673     5297     3775 
    2558     1476      568      417     1464     3715     6539     8263 
    7789     6515     6195     6446     6408     6423     6837     7109 
    6760     5921     4911     4067     3676     3696     3734     3466 
    3215     3697     5044     6740     8241     9067     8959     8120 
    6999     6345     6733     7507     7391     6151     4672     3835 
    3782     4264     5536     7666     9464    10218    10960    12264 
   13315    13670    13490    12684    11306     9540     7114     4213 
    1922      453     -889    -1459      137     3642     7511    10154 
   10727    10227    10211    10548    10511    10409    10827    11535 
   11588    10625     9370     8445     8009     8048     8239     8294 
    8214     8040     7928     8163     9205    11387    13760    14602 
