Origin Time       2025/01/13 21:19:00
Lat.              31.8
Long.             131.6
Depth. (km)       30
Mag.              6.9
Station Code      KGS010
Station Lat.      31.7123
Station Long.     130.2735
Station Height(m) 16
Record Time       2025/01/13 21:19:56
Sampling Freq(Hz) 100Hz
Duration Time(s)  147
Dir.              N-S
Scale Factor      7845(gal)/8223790
Max. Acc. (gal)   10.886
Last Correction   2025/01/13 21:19:57
Memo.             
[...]
   -1070     -885     -913     -954     -839     -800     -842     -749 
    -669     -649     -602     -648     -691     -672     -788     -988 
   -1170    -1372    -1536    -1582    -1491    -1325    -1134     -931 
    -823     -835     -903    -1032    -1224    -1498    -1880    -2317 
   -2754    -3134    -3466    -3834    -4234    -4614    -4953    -5223 
   -5374    -5397    -5375    -5360    -5332    -5333    -5428    -5626 
   -5921    -6247    -6539    -6741    -6750    -6509    -6129    -5756 
   -5401    -5047    -4742    -4440    -4133    -3905    -3715    -3564 
   -3492    -3495    -3689    -4116    -4584    -4961    -5221    -5397 
   -5539    -5643    -5719    -5772    -5752    -5633    -5387    -5012 
   -4617    -4374    -4334    -4417    -4538    -4565    -4380    -4000 
   -3501    -2999    -2596    -2299    -2089    -1934    -1767    -1563 
   -1362    -1209    -1129    -1148    -1258    -1405    -1525    -1556 
   -1503    -1433    -1383    -1386    -1452    -1507    -1601    -1837 
   -2122    -2446    -2844    -3144    -3377    -3595    -3608    -3537 
   -3593    -3680    -3825    -4182    -4653    -5074    -5397    -5575 
   -5610    -5582    -5556    -5593    -5659    -5676    -5632    -5506 
   -5323    -5131    -4872    -4495    -4064    -3628    -3210    -2870 
   -2686    -2694    -2860    -3084    -3225    -3254    -3281    -3395 
   -3618    -3850    -4002    -4087    -4141    -4133    -3979    -3711 
   -3420    -3073    -2671    -2295    -1969    -1732    -1595    -1498 
   -1460    -1557    -1764    -1991    -2166    -2278    -2342    -2381 
   -2442    -2521    -2575    -2575    -2596    -2704    -2803    -2805 
   -2700    -2546    -2481    -2547    -2720    -2994    -3325    -3707 
   -4176    -4666    -5065    -5374    -5609    -5660    -5432    -4932 
   -4261    -3592    -3052    -2643    -2388    -2351    -2551    -2922 
   -3295    -3512    -3592    -3550    -3379    -3238    -3215    -3257 
   -3433    -3632    -3584    -3341    -3033    -2685    -2376    -2107 
   -1907    -1853    -1949    -2178    -2479    -2849    -3362    -3964 
   -4473    -4784    -4908    -4915    -4862    -4780    -4698    -4615 
   -4487    -4326    -4131    -3890    -3655    -3503    -3507    -3640 
   -3777    -3855    -3888    -3877    -3828    -3823    -3942    -4207 
   -4600    -5001    -5327    -5548    -5667    -5819    -6095    -6446 
   -6787    -7044    -7186    -7164    -6955    -6585    -6073    -5586 
   -5169    -4669    -4195    -3843    -3500    -3137    -2732    -2307 
   -1930    -1564    -1162     -677     -114      387      704      861 
    1003     1186     1416     1694     1923     2104     2323     2477 
    2490     2423     2304     2120     1833     1467     1136      858 
     621      436      230      -13     -207     -294     -292     -292 
    -334     -400     -527     -762    -1075    -1416    -1799    -2191 
   -2583    -3181    -4060    -5092    -6164    -7169    -7977    -8451 
   -8614    -8598    -8422    -8213    -8174    -8314    -8554    -8792 
   -8910    -8862    -8661    -8355    -8032    -7771    -7600    -7491 
   -7373    -7137    -6716    -6201    -5724    -5266    -4738    -4151 
   -3591    -3065    -2571    -2200    -2053    -2107    -2266    -2454 
   -2602    -2668    -2681    -2671    -2673    -2772    -3010    -3302 
   -3541    -3666    -3716    -3836    -4124    -4531    -5007    -5524 
   -6030    -6420    -6610    -6658    -6706    -6887    -7196    -7551 
   -7892    -8110    -8141    -8008    -7753    -7468    -7277    -7204 
   -7194    -7233    -7300    -7333    -7314    -7188    -6894    -6458 
   -5922    -5343    -4762    -4162    -3570    -3092    -2826    -2776 
   -2824    -2874    -2906    -2897    -2899    -2978    -3094    -3200 
   -3257    -3242    -3144    -2957    -2814    -2845    -3003    -3188 
   -3358    -3562    -3890    -4353    -4851    -5293    -5629    -5790 
   -5730    -5479    -5039    -4399    -3655    -2924    -2224    -1574 
   -1024     -576     -151      359     1051     1931     2867     3761 
    4571     5239     5779     6201     6480     6597     6524     6300 
    6030     5806     5670     5572     5429     5269     5211     5282 
    5417     5539     5482     5103     4419     3520     2497     1431 
     357     -718    -1803    -2917    -4036    -5094    -6072    -6976 
   -7808    -8592    -9343   -10027   -10585   -10989   -11236   -11326 
  -11295   -11186   -11033   -10895   -10809   -10755   -10685   -10536 
  -10191    -9524    -8490    -7179    -5836    -4692    -3832    -3208 
   -2682    -2122    -1463     -756     -140      280      475      449 
     238     -108     -514     -876    -1113    -1251    -1418    -1741 
   -2277    -3076    -4099    -5201    -6277    -7275    -8181    -8989 
   -9613    -9987   -10103    -9972    -9659    -9215    -8614    -7848 
   -6993    -6130    -5292    -4444    -3550    -2682    -1966    -1440 
   -1013     -615     -256       52      324      533      619      526 
     232     -236     -774    -1285    -1748    -2185    -2646    -3125 
   -3612    -4171    -4857    -5651    -6442    -7084    -7541    -7857 
   -8094    -8330    -8592    -8822    -8957    -8953    -8753    -8361 
   -7898    -7480    -7140    -6840    -6508    -6115    -5661    -5124 
   -4477    -3696    -2806    -1914    -1065     -222      630     1478 
    2277     2971     3501     3823     3900     3755     3499     3233 
    2978     2691     2323     1857     1318      689      -93    -1036 
   -2089    -3148    -4094    -4874    -5482    -5922    -6277    -6624 
   -7001    -7423    -7830    -8132    -8324    -8453    -8577    -8730 
   -8866    -8938    -8922    -8781    -8519    -8191    -7823    -7420 
   -6991    -6490    -5848    -5067    -4216    -3387    -2659    -2046 
   -1525    -1108     -820     -623     -448     -292     -172      -75 
       2       51       37      -60     -228     -461     -788    -1200 
   -1684    -2238    -2797    -3312    -3775    -4162    -4452    -4666 
   -4849    -5027    -5194    -5256    -5150    -4919    -4584    -4141 
   -3670    -3288    -3063    -2992    -3025    -3098    -3148    -3071 
   -2774    -2278    -1676    -1069     -508        1      472      918 
    1363     1819     2304     2830     3341     3732     3993     4160 
    4198     4020     3605     3018     2309     1497      600     -359 
   -1341    -2295    -3165    -3936    -4629    -5259    -5821    -6331 
   -6798    -7206    -7547    -7803    -7994    -8205    -8424    -8596 
   -8745    -8850    -8861    -8777    -8614    -8359    -8028    -7668 
   -7269    -6835    -6339    -5771    -5216    -4756    -4382    -4039 
   -3681    -3334    -3072    -2934    -2899    -2963    -3110    -3261 
   -3416    -3636    -3885    -4129    -4433    -4804    -5134    -5358 
   -5493    -5563    -5599    -5621    -5609    -5575    -5570    -5620 
   -5742    -5944    -6203    -6493    -6767    -6937    -6953    -6855 
   -6725    -6613    -6531    -6490    -6482    -6444    -6342    -6192 
   -6015    -5836    -5657    -5436    -5130    -4735    -4286    -3801 
   -3302    -2832    -2440    -2174    -2062    -2114    -2303    -2565 
   -2876    -3281    -3778    -4268    -4680    -5011    -5247    -5368 
   -5395    -5347    -5215    -4993    -4716    -4414    -4086    -3753 
   -3462    -3227    -2998    -2755    -2544    -2355    -2143    -1888 
   -1541    -1066     -502      116      811     1566     2304     2905 
    3279     3433     3412     3250     2979     2650     2309     1962 
    1606     1250      876      490       99     -270     -569     -773 
    -922    -1082    -1316    -1667    -2093    -2542    -3036    -3565 
   -4048    -4475    -4851    -5115    -5225    -5194    -5034    -4765 
   -4444    -4125    -3842    -3643    -3562    -3565    -3613    -3681 
   -3747    -3797    -3794    -3736    -3686    -3654    -3585    -3478 
   -3331    -3107    -2814    -2469    -2115    -1841    -1664    -1636 
   -1849    -2254    -2749    -3325    -3924    -4496    -5063    -5607 
   -6093    -6527    -6856    -7005    -6984    -6868    -6731    -6640 
   -6612    -6586    -6529    -6438    -6272    -6010    -5664    -5277 
   -4905    -4573    -4253    -3958    -3713    -3478    -3214    -2941 
   -2705    -2554    -2513    -2613    -2886    -3321    -3873    -4486 
   -5104    -5734    -6396    -7017    -7535    -7894    -8028    -7996 
   -7878    -7690    -7495    -7330    -7107    -6806    -6519    -6228 
   -5841    -5385    -4977    -4679    -4418    -4109    -3801    -3518 
   -3188    -2778    -2292    -1733    -1134     -518      105      696 
    1215     1602     1803     1830     1756     1659     1567     1505 
    1490     1483     1472     1424     1274     1071      878      699 
     527      321       44     -288     -679    -1104    -1512    -1885 
   -2245    -2610    -3011    -3477    -4000    -4525    -5011    -5433 
   -5799    -6168    -6559    -6952    -7341    -7674    -7867    -7935 
   -7940    -7871    -7753    -7657    -7547    -7338    -6970    -6411 
   -5725    -4995    -4237    -3534    -2990    -2569    -2151    -1714 
   -1304     -918     -537     -125      342      843     1352     1849 
    2239     2443     2428     2169     1692     1065      333     -477 
   -1340    -2187    -3010    -3859    -4730    -5582    -6430    -7279 
   -8059    -8753    -9379    -9890   -10319   -10713   -10995   -11130 
  -11122   -10912   -10476    -9872    -9190    -8523    -7931    -7384 
   -6835    -6282    -5737    -5163    -4588    -4112    -3753    -3472 
   -3283    -3164    -3010    -2793    -2540    -2253    -1996    -1803 
   -1651    -1509    -1278     -924     -545     -211       10       75 
     -16     -237     -538     -888    -1237    -1521    -1734    -1908 
   -2026    -2043    -1944    -1701    -1274     -677       35      811 
    1583     2289     2937     3573     4209     4781     5233     5543 
    5647     5458     4938     4120     3110     2027      935     -137 
   -1161    -2165    -3210    -4255    -5215    -6021    -6604    -6987 
   -7207    -7264    -7218    -7145    -7064    -6997    -6971    -6940 
   -6828    -6631    -6354    -5935    -5355    -4671    -3933    -3200 
   -2524    -1895    -1331     -872     -496     -191       -4       36 
     -68     -342     -822    -1482    -2251    -3099    -4010    -4922 
   -5786    -6566    -7191    -7632    -7956    -8230    -8468    -8683 
   -8877    -9030    -9161    -9283    -9382    -9460    -9498    -9487 
   -9482    -9545    -9679    -9853   -10050   -10214   -10277   -10189 
   -9953    -9651    -9347    -9070    -8846    -8617    -8286    -7842 
   -7302    -6660    -5979    -5331    -4669    -3956    -3257    -2581 
   -1864    -1113     -386      275      882     1480     2068     2619 
    3141     3645     4118     4495     4702     4723     4534     4131 
    3586     2976     2336     1694     1069      492      -37     -545 
   -1012    -1417    -1775    -2139    -2567    -3083    -3672    -4271 
   -4843    -5391    -5937    -6519    -7130    -7716    -8230    -8645 
   -8970    -9180    -9212    -9038    -8683    -8222    -7690    -7086 
   -6463    -5896    -5397    -4931    -4459    -3942    -3397    -2883 
   -2396    -1904    -1421     -955     -471       27      479      870 
    1190     1410     1539     1591     1578     1460     1178      716 
     110     -553    -1231    -1935    -2641    -3280    -3834    -4322 
   -4708    -4958    -5069    -5028    -4866    -4603    -4261    -3920 
   -3653    -3522    -3553    -3659    -3769    -3894    -4081    -4372 
   -4762    -5225    -5760    -6331    -6867    -7329    -7740    -8132 
   -8496    -8783    -8935    -8935    -8777    -8468    -8074    -7670 
   -7318    -7048    -6852    -6717    -6561    -6323    -6021    -5651 
   -5221    -4739    -4143    -3433    -2683    -1915    -1116     -276 
     596     1431     2168     2826     3400     3858     4220     4536 
    4847     5150     5400     5514     5431     5154     4727     4226 
    3727     3283     2937     2714     2613     2577     2515     2336 
    1992     1520      945      299     -356    -1046    -1794    -2573 
   -3350    -4051    -4637    -5116    -5494    -5800    -6033    -6176 
   -6281    -6394    -6520    -6677    -6886    -7180    -7607    -8162 
   -8762    -9329    -9838   -10264   -10609   -10889   -11091   -11200 
  -11167   -10947   -10534    -9980    -9387    -8806    -8249    -7716 
   -7175    -6674    -6272    -5948    -5676    -5435    -5182    -4909 
   -4622    -4345    -4129    -3942    -3721    -3485    -3250    -2994 
   -2720    -2505    -2413    -2451    -2605    -2875    -3310    -3902 
   -4541    -5159    -5734    -6238    -6694    -7084    -7369    -7566 
   -7695    -7751    -7734    -7636    -7426    -7090    -6698    -6265 
   -5710    -5034    -4321    -3654    -3072    -2558    -2107    -1753 
   -1467    -1181     -877     -599     -371     -187      -39      103 
     257      427      658      931     1151     1278     1360     1401 
    1366     1317     1302     1304     1339     1401     1451     1518 
    1624     1783     2041     2389     2774     3163     3539     3877 
    4156     4387     4550     4606     4540     4353     4095     3759 
    3276     2717     2143     1528      924      348     -255     -849 
   -1418    -2035    -2643    -3134    -3582    -4068    -4572    -5167 
   -5918    -6729    -7541    -8356    -9148    -9933   -10701   -11395 
  -12042   -12717   -13386   -13968   -14436   -14747   -14862   -14814 
  -14617   -14260   -13784   -13197   -12467   -11595   -10596    -9551 
   -8606    -7812    -7145    -6589    -6072    -5490    -4816    -4070 
   -3265    -2484    -1807    -1251     -788     -367        5      236 
     291      221       63     -182     -511     -889    -1273    -1618 
   -1922    -2203    -2477    -2762    -3025    -3219    -3349    -3424 
   -3441    -3412    -3383    -3370    -3335    -3246    -3098    -2901 
   -2658    -2367    -2092    -1927    -1865    -1840    -1804    -1715 
   -1567    -1404    -1251    -1159    -1109    -1013     -888     -781 
    -704     -669     -681     -731     -847    -1088    -1449    -1887 
   -2370    -2898    -3446    -3956    -4464    -5016    -5549    -5998 
   -6313    -6475    -6536    -6497    -6342    -6131    -5872    -5512 
   -5090    -4653    -4209    -3780    -3368    -3013    -2786    -2666 
   -2597    -2598    -2673    -2740    -2760    -2762    -2798    -2863 
   -2932    -3041    -3191    -3373    -3599    -3856    -4133    -4407 
   -4693    -4985    -5181    -5252    -5244    -5147    -4977    -4779 
   -4523    -4229    -3958    -3681    -3380    -3102    -2891    -2801 
   -2871    -3063    -3330    -3661    -4017    -4378    -4766    -5144 
   -5413    -5551    -5586    -5564    -5541    -5574    -5667    -5780 
   -5917    -6053    -6133    -6149    -6097    -5967    -5742    -5374 
   -4870    -4295    -3657    -2980    -2324    -1701    -1124     -626 
    -214      135      445      702      930     1171     1393     1568 
    1682     1721     1706     1672     1632     1582     1563     1584 
    1611     1622     1571     1441     1275     1088      851      534 
     135     -318     -797    -1289    -1767    -2200    -2578    -2920 
   -3235    -3519    -3761    -3924    -3993    -4041    -4129    -4255 
   -4417    -4622    -4885    -5209    -5574    -5935    -6268    -6583 
   -6897    -7194    -7450    -7619    -7678    -7678    -7658    -7604 
   -7492    -7325    -7134    -6953    -6774    -6583    -6363    -6100 
   -5802    -5497    -5196    -4930    -4745    -4634    -4565    -4513 
   -4444    -4315    -4079    -3735    -3299    -2767    -2199    -1676 
   -1215     -828     -554     -418     -449     -622     -859    -1113 
   -1374    -1626    -1849    -2042    -2251    -2516    -2843    -3229 
   -3647    -4035    -4388    -4769    -5157    -5497    -5784    -5991 
   -6104    -6122    -6033    -5913    -5811    -5686    -5510    -5275 
   -5005    -4761    -4549    -4369    -4276    -4280    -4365    -4522 
   -4720    -4941    -5193    -5495    -5819    -6089    -6269    -6361 
   -6353    -6231    -6015    -5751    -5475    -5215    -4972    -4757 
   -4577    -4406    -4233    -4041    -3808    -3555    -3299    -3026 
   -2728    -2431    -2162    -1933    -1799    -1815    -1976    -2261 
   -2625    -3010    -3352    -3584    -3677    -3685    -3678    -3686 
   -3715    -3732    -3727    -3719    -3719    -3699    -3657    -3630 
   -3632    -3650    -3653    -3591    -3427    -3172    -2882    -2582 
   -2241    -1888    -1571    -1273     -957     -629     -341     -137 
     -55     -132     -332     -591     -877    -1192    -1566    -1980 
   -2394    -2847    -3342    -3785    -4108    -4320    -4473    -4596 
   -4657    -4653    -4642    -4687    -4780    -4861    -4907    -4896 
   -4833    -4733    -4568    -4309    -3963    -3530    -2976    -2326 
   -1675    -1082     -580     -166      193      465      654      841 
    1040     1236     1425     1560     1615     1611     1552     1460 
    1371     1273     1178     1121     1088     1073     1062     1036 
    1023      999      907      780      660      527      356      132 
    -147     -504     -973    -1541    -2214    -2974    -3761    -4526 
   -5239    -5903    -6554    -7202    -7830    -8407    -8907    -9328 
   -9701   -10026   -10314   -10608   -10905   -11159   -11354   -11466 
  -11497   -11496   -11454   -11353   -11195   -10959   -10609   -10108 
   -9455    -8710    -7952    -7280    -6778    -6442    -6234    -6142 
   -6129    -6096    -5980    -5776    -5494    -5163    -4808    -4469 
   -4224    -4085    -3997    -3920    -3805    -3624    -3403    -3154 
   -2840    -2458    -2095    -1811    -1579    -1375    -1188    -1001 
    -814     -612     -395     -179       39      251      419      514 
     519      442      270        8     -290     -579     -846    -1093 
   -1324    -1541    -1730    -1865    -1954    -2034    -2120    -2200 
   -2263    -2296    -2326    -2362    -2336    -2241    -2176    -2201 
   -2282    -2385    -2515    -2673    -2845    -2999    -3134    -3269 
   -3399    -3554    -3755    -3951    -4105    -4230    -4340    -4429 
   -4504    -4576    -4629    -4657    -4672    -4657    -4594    -4507 
   -4409    -4279    -4144    -4021    -3917    -3834    -3739    -3618 
   -3505    -3418    -3346    -3273    -3200    -3134    -3095    -3106 
   -3187    -3366    -3665    -4059    -4494    -4922    -5286    -5518 
   -5633    -5682    -5671    -5595    -5451    -5225    -4926    -4565 
   -4160    -3744    -3323    -2889    -2454    -2018    -1563    -1070 
    -545      -28      445      870     1247     1578     1871     2130 
    2326     2407     2355     2173     1840     1383      857      251 
    -407    -1058    -1713    -2390    -3078    -3748    -4355    -4854 
   -5252    -5571    -5821    -6008    -6116    -6147    -6158    -6187 
   -6223    -6261    -6342    -6501    -6729    -6988    -7253    -7504 
   -7722    -7890    -8004    -8036    -7971    -7798    -7497    -7086 
   -6602    -6069    -5506    -4945    -4396    -3843    -3316    -2876 
   -2542    -2315    -2189    -2155    -2201    -2323    -2477    -2610 
   -2724    -2845    -2990    -3165    -3348    -3500    -3643    -3827 
