Origin Time       2025/01/13 21:19:00
Lat.              31.8
Long.             131.6
Depth. (km)       30
Mag.              6.9
Station Code      KGS013
Station Lat.      31.5973
Station Long.     130.9938
Station Height(m) 118
Record Time       2025/01/13 21:19:44
Sampling Freq(Hz) 100Hz
Duration Time(s)  118
Dir.              E-W
Scale Factor      3920(gal)/6182761
Max. Acc. (gal)   20.481
Last Correction   2025/01/13 21:19:44
Memo.             
[...]
   -7433    -7607    -5956    -3426    -1431     -455     -289     -526 
    -642     -649     -980    -1160      163     3092     6100     7902 
    8214     7750     7572     8001     9181    10600    10599     9406 
    9137    10057    10949    11335    10969     9426     7270     6518 
    8646    12123    14001    13392    11360     9592     9479    10503 
   11009    10257     8472     6336     4615     3812     4153     5265 
    5791     4204      405    -4118    -7585    -8922    -7599    -3323 
    2805     8316    11760    13608    15032    16496    17475    17042 
   14409    10086     5686     1932    -1539    -5072    -8487   -10935 
  -11417    -9682    -6614    -3519     -743     2556     7068    12475 
   17566    20779    21221    18383    11719     2121    -8000   -16130 
  -20078   -18827   -13647    -7059     -275     7215    15198    21182 
   21860    16747     9674     4427     1124    -1344    -3063    -3413 
   -2145    -1194    -2909    -6402    -9424   -11475   -12382   -10747 
   -5448     2624    10917    16780    18591    16964    14588    13033 
   11855    10438     8098     5039     3056     2967     3729     3891 
    2609     1188     2586     7469    12866    15296    13875    10719 
    8707     9153    10993    11993    11534    10288     7919     4616 
    2231     1493     1171      284     -940    -1542     -373     2432 
    5005     6469     7520     7553     5136      403    -5659   -11908 
  -16171   -16267   -12777    -9098    -8010    -8729    -7298     -681 
    9386    18329    23152    23327    19747    14637    11232    11178 
   12488    12158     9974     8240     8805    11028    12086     9742 
    5117     1318     -287     -758    -1505    -2845    -4436    -5916 
   -6526    -5185    -1620     3022     7102     9387     8951     5887 
    1921    -1309    -3547    -4750    -4244    -1130     4520    10110 
   12194    10086     5894     2215      482      361     1401     4806 
   10925    16252    16577    12065     6275      647    -5890   -11343 
  -12444   -10208    -6709    -2581     1397     4892     6943     6292 
    4242     2532      473    -2429    -4685    -5834    -7066    -8076 
   -6622     -546     9451    19085    24566    25250    22270    17176 
   11902     8403     6748     5045     1737    -3409    -8853   -12455 
  -14887   -17984   -20495   -20192   -16792   -11002    -4153     1913 
    6006     7536     5776      959    -4394    -6744    -4207     1403 
    5406     4778     1215    -1438    -1604     -595     1162     5889 
   14191    22806    28499    30021    27107    20922    13720     7455 
    3715     3059     3874     4511     5900     9203    12981    14939 
   14230    11413     8254     7263     9219    11520    11086     8030 
    4786     3349     4272     6164     6200     3078    -1388    -4487 
   -5219    -4773    -4674    -4730    -3850    -2082     -900    -1593 
   -3512    -5041    -6264    -8419   -11116   -12442   -11509    -9685 
   -9257   -10829   -12856   -14088   -14708   -14624   -12516    -7611 
   -1192     4936     9889    12412    10711     4988    -1673    -5628 
   -5326    -2125     1166     2958     4029     6091    10016    15393 
   21071    26104    29612    29864    25541    17729     9087     1889 
   -2653    -4146    -2692     1285     6895    12440    16407    18906 
   20573    21159    20620    19661    18873    18358    17122    13538 
    7504      560    -5857   -10986   -14370   -15904   -15745   -13295 
   -7482     1408    11821    21772    28511    29910    26649    21234 
   15155     8560     1833    -4627   -10500   -14280   -14364   -10862 
   -5268       15     3202     5298     8250    11821    14250    14111 
   11585     8889     7702     6883     4377        8    -4476    -7610 
   -9754   -11853   -13894   -15130   -14311   -10027    -1651    10080 
   22326    30783    32907    29581    22933    14332     4709    -4900 
  -13292   -18982   -20635   -18241   -13264    -7209     -655     6158 
   12251    16357    18271    18114    14922     8196      119    -5709 
   -7802    -8198    -9753   -12417   -13289   -10156    -3839     2579 
    6079     5764     3333     1415     1352     2798     4387     4520 
    3090     1563      843      855     1384     1550       30    -2351 
   -2668      160     4426     7494     7030     3416      248      665 
    4606     9651    12999    12879    10522     8815     7627     5321 
    2112    -1503    -4365    -4346    -1700     1534     4846     8293 
   10778    11589    11152     9914     8563     7716     6668     4825 
    2964     1873     2086     3931     6550     8834    10533    11653 
   12498    13462    13924    12573     8857     3972      343     -676 
     150     1193     1085     -228    -1755    -3016    -3445    -2382 
    -508      865     1077      486      -57     -535    -1679    -3496 
   -5257    -6700    -7895    -8716    -9385   -10220   -10706    -9883 
   -7488    -4195     -718     2776     6416    10188    13221    14371 
   13983    12896    10845     7968     5639     5244     6909     9016 
   10016    10116    10030     9642     8710     7968     8727    11335 
   14561    16761    17241    16339    14710    13082    12338    12713 
   13047    11926     9231     6098     3918     3112     2908     2675 
    2439     2185     1779     1079       17    -1222    -2591    -3949 
   -4300    -2714      115     2270     2625     1891     1498     2010 
    2767     2879     2260     1254       80     -780     -607      684 
    2177     2720     2053      772     -868    -3104    -5420    -6501 
   -5579    -2536     2241     7401    11584    14009    14179    12565 
    9913     5993      893    -3924    -6668    -6636    -4341     -532 
    3889     7335     8311     6765     4231     2620     2497     2468 
     762    -2600    -5711    -6881    -5804    -3018      182     2358 
    3311     3826     4594     5661     6245     5825     5113     4901 
    5159     5420     5023     3696     2130     1327     1544     2192 
    2272      925    -1112    -1805     -698      977     2478     3736 
    4791     5213     4346     2824     1757     1155      760      635 
     676      819     1045      954      552      610     1106     1065 
     471      391     1130     2174     3424     4873     5988     6481 
    6931     7893     9236    10578    11268    10960    10232     9535 
    8981     8506     7455     5796     4668     4727     5432     5577 
    4386     2794     2638     4729     8609    12988    16306    17840 
   17691    15865    12442     8393     5055     2704     1006      352 
    1167     2518     3004     2579     2165     2157     1982      796 
   -1046    -1802     -317     2973     7099    11068    13187    11514 
    6142      170    -3158    -4064    -5508    -8866   -12211   -12657 
   -8679    -1247     6676    12350    14659    14435    13591    12925 
   11464     7933     2711    -2029    -4983    -6803    -8269    -9131 
   -8420    -5688    -1458     3550     8452    12363    15124    16840 
   17352    16816    15510    13558    11327     8832     5892     2983 
     284    -2533    -5104    -6526    -5953    -3031     1253     5054 
    6934     6491     4411     1411    -2213    -5762    -8411    -9997 
  -11001   -11991   -12805   -12872   -12109   -10491    -7795    -3891 
    1186     6778    11894    15735    17527    16898    14005     9395 
    4114     -906    -4958    -6804    -5440    -1417     3924     9509 
   14473    18583    22001    24080    23552    19746    13426     6541 
     976    -2433    -4075    -4666    -4057    -1661     2548     8114 
   14355    20114    23842    24327    21688    17384    12749     7998 
    2806    -2307    -5832    -7184    -7525    -8047    -8279    -6875 
   -3847     -539     2269     4873     7649     9993    10463     8430 
    4919      939    -3741    -9336   -15034   -19155   -19829   -16492 
  -10735    -4834      523     5842    10786    14516    17072    19046 
   20399    19979    16555    10388     3384    -2290    -5750    -7205 
   -6664    -4152     -350     3969     8360    12601    16340    18505 
   17993    15171    11368     7172     2328    -2956    -7374    -9768 
  -10369    -9818    -7905    -4381      218     4919     8434     9628 
    8296     4991      482    -4227    -7804    -9711   -10554   -10193 
   -7968    -4596     -991     3032     7351    10729    11909    10825 
    8556     6511     5422     5094     5540     7138     9629    12134 
   13922    14891    15114    14619    13643    12256    10691     9723 
    9921    11007    11811    11319     9919     8769     8268     7728 
    6266     3682      790    -1031    -1038      392     2095     2466 
    1049     -555     -971    -1002    -2605    -6399   -10817   -14045 
  -15124   -13447    -9327    -4041     1049     4845     7157     8423 
    8626     7352     4560     1047    -2241    -4666    -5582    -4707 
   -2540     -305     1004     1828     3262     5416     7545     9331 
   10937    12151    12372    11365     9661     7891     6032     3685 
     817    -2021    -4415    -6511    -8505   -10383   -11804   -11808 
   -9415    -4505     2132     8898    14064    16972    17684    16105 
   12280     6615     -202    -7034   -12427   -15067   -14597   -11877 
   -8091    -3904      908     6684    12499    16733    18433    17516 
   14541    10504     6373     2630     -655    -3640    -6385    -8395 
   -9080    -8288    -6090    -2590     2118     7717    13452    18415 
   21690    22523    20919    17762    14338    11612     9322     6574 
    3448      952      108     1299     4003     7472    11211    14693 
   17122    17736    16424    13576     9533     4388    -1507    -6605 
   -9207    -9386    -8367    -6870    -4632    -1026     3672     7972 
   10691    11755    11176     9066     6249     3470      744    -2393 
   -5769    -7713    -6527    -2383     3178     9119    15435    21792 
   26782    28802    27011    21974    15295     8338     2034    -2717 
   -5221    -5251    -3351     -828     1281     3035     4883     6827 
    8451     9059     8201     6400     4570     2985     1578      659 
     472      413     -231    -1203    -1895    -2176    -2200    -2227 
   -2596    -3670    -5620    -7799    -8794    -7617    -4601    -1155 
    1335     2331     1977      746     -699    -1714    -1923    -1586 
   -1522    -2241    -3555    -4956    -5859    -5654    -3874     -647 
    3174     6404     7951     7539     5867     4060     3282     3928 
    5403     7130     8880    10530    12068    13454    14633    15551 
   16007    15958    15702    15496    15514    15853    16206    15946 
   14489    11662     8120     4969     2826     1678     1196      743 
    -279    -1570    -1757      252     3992     7975    10886    12222 
   12263    11371     9670     7288     4444     1699       24      145 
    1841     3984     5444     5806     5220     4349     4196     4949 
    5644     5471     4686     3916     2879      739    -2232    -4712 
   -5855    -5748    -5067    -4794    -5530    -6948    -8169    -8617 
   -8345    -7740    -7060    -5947    -4195    -2903    -3141    -4241 
   -4550    -3242    -1009     1141     2895     4262     5483     6926 
    8525    10319    12640    14941    16432    17387    17944    17354 
   15242    12164     8421     3711    -1145    -4489    -5955    -6315 
   -6541    -7075    -7321    -7027    -7018    -7689    -8758   -10214 
  -12066   -14156   -16432   -18538   -19861   -19985   -18665   -15973 
  -12350    -8419    -4695    -1239     1875     4229     5625     6131 
    5664     4227     2435     1224      931     1280     2223     3874 
    5878     7718     9173    10299    11481    12829    13760    13940 
   13733    13658    14105    15182    16549    17634    18200    18466 
   18419    17904    17250    16696    16090    15611    15876    17291 
   19458    21727    24082    26119    26446    24378    20607    16148 
   11436     6429     1331    -3546    -7960   -11523   -13988   -15327 
  -15682   -15618   -15807   -16554   -17937   -19678   -20787   -20303 
  -18215   -15101   -11573    -8167    -5107    -2440     -262     1333 
    2043     1728      816     -467    -2153    -3497    -3102      120 
    6255    13932    21186    26972    31064    33127    32575    29266 
   23914    17786    12443     9162     8113     8698    10754    14510 
   19577    24908    29254    31258    29872    25195    18695    12137 
    6556     2330     -346    -1274     -516     1077     2000     1309 
    -631    -2995    -5273    -6935    -7321    -6192    -4127    -2078 
    -447      800     1309      311    -2712    -7391   -12531   -17041 
  -20357   -22064   -22041   -20704   -18709   -16647   -14709   -12615 
  -10062    -7080    -4185    -2216    -1592    -1922    -2539    -3073 
   -3629    -4429    -5012    -4617    -3309    -1567      598     3301 
    6398     9559    12315    14579    17103    20707    25300    29824 
   32787    33391    31939    28708    23546    16791     9526     2956 
   -1910    -4402    -4599    -3063     -316     2983     6250     9442 
   12748    16169    19387    21741    22328    20275    15410     8531 
     716    -6928   -13149   -16957   -17577   -14480    -8301     -641 
    7269    14858    21665    26747    28629    26713    21872    15055 
    6941    -1494    -9307   -15729   -19910   -21325   -20005   -16067 
  -10012    -2920     4282    10566    14701    16169    15124    11836 
    6707      350    -6863   -14779   -22212   -27163   -28844   -27741 
  -24368   -19388   -13236    -5636     2824    10434    16035    19135 
   19568    17766    14396    10129     5641     1297    -2579    -5104 
   -4967    -1521     4431    11320    17605    22484    26252    28833 
   29161    26621    21822    15897     9720     4581     1566     -729 
   -3719    -6103    -7476    -9129   -11055   -12973   -14761   -15409 
  -14929   -14323   -13519   -12427   -11822   -11809   -11569   -10996 
  -10894   -11082   -10654    -9710    -8150    -5422    -2493     -604 
     442     1154     1576     1515      957      312      255     1558 
    4456     8355    12754    17556    22317    26138    28311    28795 
   28306    27574    26526    24782    22308    19534    17393    16557 
   16528    16448    16435    17328    19776    23623    27754    30673 
   31450    30218    27397    23004    17410    11542     6098     1510 
   -1739    -3259    -2952    -1075     1670     4451     6819     8361 
    8271     6118     2423    -2001    -6448   -10367   -13487   -15594 
  -16469   -16174   -15213   -14336   -13950   -13849   -13649   -13168 
  -12155   -10261    -7560    -4620    -2169     -727     -209     -442 
   -1660    -3638    -5636    -7201    -8123    -8288    -7711    -6324 
   -4018    -1025     1901     4041     5346     6144     6713     7259 
    7761     8123     8572     9426    10544    11217    10819     9435 
    7597     5890     4810     4502     4685     4824     4376     3126 
    1334     -508    -2101    -3475    -4637    -5155    -4325    -1901 
    1341     4010     5195     5024     4318     4028     4651     5830 
    6658     6489     5645     5122     5288     5546     5581     5990 
    7252     8908    10103    10448    10251    10122    10366    10842 
   11324    11637    11539    10918     9763     7900     5278     2195 
    -842    -3113    -4063    -3943    -3398    -2760    -2094    -1395 
    -817     -548     -384       29      745     1524     2041     2112 
    1753      920     -611    -2603    -4134    -4523    -3575    -1272 
    1952     5375     8584    11389    13409    14145    13666    12788 
   12161    11757    11216    10034     7941     5477     3448     2163 
    1888     2864     4330     4820     3656     1283    -1647    -4706 
   -7427    -9486   -10691   -10739    -9607    -7503    -4893    -2741 
   -1555    -1022     -896    -1250    -2243    -3840    -5332    -5832 
   -5291    -4256    -3184    -2171     -857      953     2791     4389 
    6148     8395    11064    13926    16359    17492    17315    16359 
   14560    12049     9477     7672     7644     9202    11178    13402 
   16311    19483    21409    21132    19335    16612    13079     9828 
    7716     6425     5793     5540     5230     5284     5853     6086 
    5328     4274     4130     4441     4305     4248     4433     4394 
    4691     5702     6399     6225     5677     4585     2571       76 
   -2447    -4613    -5484    -4634    -3266    -2512    -2016    -1156 
     322     2445     4692     6297     7070     7351     7098     5925 
    3919     1638     -293    -1405    -1485     -684      461     1397 
    1965     2292     2415     2450     2610     2543     1601     -299 
   -2697    -4872    -6174    -6427    -5599    -3561     -741     1994 
    4340     6474     8243     9260     9480     9099     8151     6661 
    4767     2509      -18    -2338    -3797    -3929    -2725     -722 
    1559     4067     6736     9066    10512    10814     9865     7611 
    4312      723    -2320    -4391    -5427    -5459    -4499    -2783 
   -1022      130      814     1682     3042     4654     6101     6961 
    6852     5689     3758     1484     -849    -3153    -5358    -7082 
   -7549    -6057    -2802      970     4022     5912     6660     6409 
    5279     3286      796    -1395    -2737    -3162    -2907    -2346 
   -1594     -480     1065     2825     4320     5105     5071     4397 
    3542     3030     3097     3780     4911     6046     6921     7658 
    8408     9258    10324    11582    12672    13040    12435    11213 
   10071     9549     9771    10485    11358    12360    13645    15024 
   15947    15886    14591    12300     9573     6835     4328     2176 
     590      -89      -34      108       69       20       98      172 
     -28     -483     -772     -715     -757    -1171    -1579    -1663 
   -1488    -1091     -454      372     1275     1979     2316     2597 
    3141     3698     3862     3664     3535     3913     4849     5908 
    6570     6749     6807     7122     7871     9109    10753    12504 
   13999    15046    15598    15566    14830    13383    11307     8779 
    6114     3501     1077     -771    -1580     -955     1220     4371 
    7412     9510    10570    10918    10846    10514     9737     8082 
    5573     2814      379    -1471    -2693    -3282    -3198    -2521 
   -1448      -89     1432     2759     3398     3112     2159     1009 
     -70    -1106    -2275    -3653    -5262    -7182    -9270   -11198 
  -12770   -13746   -13859   -13107   -11586    -9428    -6945    -4472 
   -2217     -364      956     1771     2117     1889     1056     -120 
   -1197    -1834    -1989    -1745     -995      420     2448     4966 
    7780    10453    12503    13763    14500    15122    15634    15480 
   14106    11670     8883     6274     4101     2489     1360      734 
     901     2103     4375     7576    11283    14885    17834    19658 
   20003    18712    15753    11356     6203     1221    -2882    -5736 
   -7072    -6867    -5332    -2401     1936     7034    12148    16773 
   20204    21733    21058    18290    13975     8748     3024    -2558 
   -6912    -9183    -9391    -8099    -5648    -2119     2195     6634 
   10361    12638    13108    11824     9060     5373     1487    -2171 
