Origin Time       2025/01/13 21:19:00
Lat.              31.8
Long.             131.6
Depth. (km)       30
Mag.              6.9
Station Code      KGS025
Station Lat.      30.7319
Station Long.     130.9977
Station Height(m) 15
Record Time       2025/01/13 21:20:11
Sampling Freq(Hz) 100Hz
Duration Time(s)  80
Dir.              E-W
Scale Factor      3920(gal)/6182761
Max. Acc. (gal)   2.898
Last Correction   2025/01/13 21:20:11
Memo.             
[...]
   -4402    -4465    -4495    -4495    -4490    -4487    -4468    -4408 
   -4289    -4150    -4049    -3985    -3960    -3991    -4066    -4148 
   -4191    -4175    -4095    -3973    -3872    -3812    -3752    -3662 
   -3575    -3554    -3592    -3641    -3691    -3731    -3744    -3727 
   -3695    -3685    -3725    -3809    -3926    -4063    -4193    -4281 
   -4328    -4382    -4468    -4555    -4602    -4603    -4594    -4612 
   -4613    -4563    -4526    -4548    -4591    -4592    -4517    -4409 
   -4350    -4351    -4329    -4230    -4108    -4031    -3983    -3939 
   -3933    -3992    -4103    -4217    -4274    -4284    -4297    -4337 
   -4384    -4384    -4341    -4330    -4375    -4409    -4373    -4268 
   -4126    -3968    -3842    -3785    -3759    -3721    -3657    -3542 
   -3348    -3083    -2800    -2564    -2408    -2317    -2244    -2142 
   -2014    -1885    -1760    -1681    -1694    -1784    -1934    -2095 
   -2179    -2204    -2229    -2268    -2361    -2512    -2662    -2791 
   -2886    -2912    -2893    -2898    -2927    -2940    -2953    -3013 
   -3114    -3225    -3318    -3378    -3442    -3524    -3586    -3648 
   -3746    -3853    -3959    -4044    -4085    -4119    -4156    -4187 
   -4249    -4381    -4587    -4795    -4921    -4972    -4983    -4950 
   -4882    -4821    -4815    -4867    -4948    -5048    -5162    -5269 
   -5351    -5421    -5489    -5555    -5622    -5668    -5665    -5593 
   -5432    -5215    -4980    -4693    -4343    -3981    -3652    -3385 
   -3200    -3092    -3053    -3073    -3133    -3212    -3288    -3371 
   -3487    -3614    -3708    -3763    -3786    -3788    -3790    -3801 
   -3816    -3864    -3953    -4038    -4075    -4043    -3925    -3777 
   -3662    -3577    -3505    -3453    -3408    -3357    -3303    -3245 
   -3173    -3085    -2980    -2895    -2873    -2900    -2950    -3034 
   -3146    -3241    -3275    -3284    -3352    -3507    -3722    -3964 
   -4220    -4494    -4759    -4943    -4973    -4846    -4632    -4404 
   -4186    -3976    -3773    -3593    -3451    -3345    -3302    -3336 
   -3408    -3497    -3626    -3775    -3893    -3968    -4017    -4071 
   -4150    -4236    -4316    -4382    -4430    -4481    -4531    -4530 
   -4452    -4326    -4213    -4157    -4148    -4148    -4120    -4069 
   -4021    -3962    -3894    -3851    -3817    -3767    -3703    -3597 
   -3438    -3281    -3169    -3108    -3086    -3073    -3068    -3108 
   -3187    -3263    -3315    -3322    -3276    -3234    -3254    -3324 
   -3400    -3466    -3510    -3516    -3505    -3535    -3638    -3798 
   -3979    -4106    -4116    -4044    -3933    -3793    -3678    -3631 
   -3642    -3670    -3655    -3575    -3489    -3439    -3417    -3421 
   -3467    -3533    -3559    -3531    -3504    -3501    -3497    -3496 
   -3522    -3580    -3681    -3801    -3897    -3956    -3990    -4031 
   -4092    -4130    -4109    -4041    -3961    -3887    -3783    -3636 
   -3475    -3297    -3106    -2960    -2890    -2881    -2908    -2957 
   -3010    -3060    -3129    -3244    -3425    -3658    -3897    -4111 
   -4287    -4403    -4438    -4426    -4415    -4409    -4410    -4418 
   -4453    -4527    -4589    -4587    -4530    -4432    -4346    -4322 
   -4328    -4338    -4373    -4430    -4451    -4385    -4271    -4195 
   -4191    -4218    -4239    -4269    -4323    -4382    -4449    -4548 
   -4683    -4841    -4979    -5042    -5036    -5005    -4965    -4900 
   -4798    -4674    -4564    -4491    -4448    -4430    -4421    -4389 
   -4311    -4203    -4112    -4067    -4048    -4018    -3944    -3807 
   -3637    -3504    -3431    -3376    -3314    -3244    -3163    -3074 
   -2980    -2883    -2811    -2788    -2815    -2901    -3038    -3186 
   -3328    -3458    -3568    -3699    -3877    -4063    -4213    -4322 
   -4383    -4369    -4295    -4221    -4168    -4119    -4054    -3976 
   -3885    -3756    -3586    -3400    -3224    -3072    -2951    -2871 
   -2850    -2895    -2975    -3055    -3152    -3264    -3346    -3384 
   -3424    -3516    -3640    -3734    -3778    -3816    -3883    -4001 
   -4171    -4334    -4456    -4573    -4711    -4874    -5024    -5128 
   -5222    -5306    -5325    -5299    -5266    -5234    -5230    -5247 
   -5230    -5177    -5121    -5079    -5058    -5058    -5081    -5119 
   -5151    -5160    -5117    -4995    -4806    -4605    -4455    -4338 
   -4176    -3965    -3766    -3597    -3457    -3362    -3303    -3223 
   -3051    -2777    -2480    -2237    -2076    -1987    -1941    -1898 
   -1830    -1745    -1658    -1601    -1635    -1795    -2056    -2331 
   -2539    -2691    -2827    -2951    -3086    -3235    -3340    -3387 
   -3395    -3388    -3408    -3474    -3597    -3824    -4132    -4413 
   -4602    -4734    -4844    -4914    -4931    -4909    -4866    -4826 
   -4813    -4811    -4777    -4722    -4690    -4671    -4630    -4582 
   -4563    -4559    -4510    -4399    -4277    -4188    -4118    -4046 
   -3992    -3978    -3983    -3976    -3947    -3876    -3741    -3550 
   -3325    -3097    -2900    -2754    -2633    -2507    -2384    -2298 
   -2244    -2198    -2194    -2257    -2380    -2573    -2786    -2938 
   -3020    -3008    -2909    -2812    -2737    -2665    -2620    -2587 
   -2563    -2596    -2694    -2843    -3083    -3422    -3764    -4007 
   -4136    -4230    -4359    -4475    -4511    -4502    -4500    -4509 
   -4546    -4613    -4692    -4804    -4956    -5096    -5198    -5258 
   -5294    -5336    -5346    -5285    -5181    -5063    -4925    -4766 
   -4588    -4410    -4262    -4143    -4033    -3945    -3949    -4100 
   -4337    -4550    -4697    -4811    -4907    -4948    -4931    -4916 
   -4928    -4929    -4899    -4820    -4678    -4506    -4342    -4189 
   -4012    -3747    -3404    -3096    -2891    -2781    -2775    -2847 
   -2919    -2959    -2996    -3046    -3093    -3125    -3133    -3109 
   -3051    -2973    -2926    -2930    -2962    -3044    -3216    -3455 
   -3718    -3959    -4112    -4160    -4142    -4087    -3990    -3841 
   -3661    -3493    -3348    -3210    -3084    -2976    -2859    -2732 
   -2642    -2625    -2662    -2705    -2736    -2753    -2749    -2754 
   -2788    -2833    -2888    -2990    -3185    -3467    -3756    -4009 
   -4246    -4460    -4655    -4860    -5080    -5308    -5495    -5577 
   -5549    -5439    -5264    -5039    -4787    -4562    -4401    -4291 
   -4207    -4106    -3971    -3873    -3863    -3904    -3966    -4056 
   -4171    -4312    -4454    -4571    -4665    -4691    -4572    -4294 
   -3913    -3512    -3139    -2792    -2481    -2213    -2005    -1911 
   -1941    -2079    -2311    -2572    -2797    -2952    -3023    -3034 
   -2995    -2904    -2786    -2665    -2552    -2448    -2318    -2151 
   -2016    -2001    -2079    -2171    -2265    -2382    -2542    -2753 
   -2966    -3132    -3246    -3301    -3290    -3233    -3128    -2932 
   -2664    -2393    -2143    -1981    -1988    -2147    -2409    -2724 
   -3026    -3340    -3705    -4072    -4419    -4760    -5068    -5333 
   -5578    -5812    -6024    -6194    -6317    -6401    -6449    -6461 
   -6413    -6280    -6080    -5849    -5606    -5370    -5150    -4954 
   -4801    -4683    -4596    -4571    -4599    -4622    -4580    -4462 
   -4341    -4247    -4129    -3979    -3842    -3764    -3761    -3799 
   -3883    -4040    -4213    -4322    -4345    -4317    -4287    -4259 
   -4218    -4151    -4020    -3834    -3665    -3561    -3522    -3527 
   -3550    -3566    -3555    -3524    -3466    -3312    -3050    -2752 
   -2467    -2215    -1998    -1828    -1764    -1794    -1849    -1953 
   -2157    -2439    -2735    -2964    -3100    -3180    -3215    -3238 
   -3296    -3377    -3476    -3579    -3648    -3693    -3741    -3783 
   -3816    -3838    -3866    -3934    -4031    -4111    -4154    -4153 
   -4114    -4079    -4089    -4156    -4265    -4410    -4573    -4728 
   -4883    -5024    -5129    -5230    -5331    -5371    -5311    -5152 
   -4958    -4796    -4644    -4466    -4292    -4177    -4170    -4241 
   -4304    -4347    -4398    -4413    -4336    -4173    -3980    -3846 
   -3800    -3802    -3843    -3935    -4050    -4153    -4243    -4338 
   -4439    -4498    -4522    -4590    -4702    -4771    -4739    -4652 
   -4600    -4604    -4643    -4703    -4747    -4786    -4866    -4997 
   -5168    -5321    -5369    -5304    -5171    -5021    -4919    -4864 
   -4781    -4652    -4506    -4335    -4126    -3876    -3632    -3459 
   -3311    -3112    -2852    -2538    -2212    -1955    -1793    -1706 
   -1660    -1660    -1734    -1835    -1895    -1939    -2028    -2185 
   -2352    -2426    -2400    -2401    -2527    -2758    -3027    -3287 
   -3499    -3651    -3775    -3867    -3908    -3926    -3919    -3868 
   -3812    -3759    -3675    -3555    -3391    -3153    -2838    -2488 
   -2184    -1986    -1880    -1835    -1857    -1951    -2139    -2435 
   -2774    -3051    -3216    -3302    -3376    -3453    -3508    -3573 
   -3726    -3987    -4295    -4547    -4672    -4677    -4619    -4525 
   -4395    -4248    -4094    -3905    -3678    -3438    -3220    -3099 
   -3142    -3312    -3532    -3782    -4055    -4347    -4657    -4950 
   -5204    -5455    -5718    -5941    -6117    -6259    -6302    -6205 
   -6037    -5873    -5735    -5617    -5494    -5370    -5271    -5204 
   -5152    -5073    -4925    -4729    -4532    -4379    -4324    -4344 
   -4325    -4211    -4022    -3765    -3460    -3179    -2989    -2875 
   -2775    -2673    -2624    -2671    -2815    -3070    -3451    -3893 
   -4296    -4632    -4924    -5179    -5392    -5559    -5691    -5773 
   -5765    -5655    -5421    -5079    -4722    -4420    -4174    -3990 
   -3880    -3806    -3695    -3518    -3307    -3136    -3031    -2909 
   -2698    -2406    -2075    -1770    -1526    -1368    -1345    -1461 
   -1694    -2005    -2312    -2578    -2836    -3153    -3593    -4128 
   -4663    -5155    -5572    -5877    -6089    -6233    -6315    -6383 
   -6473    -6540    -6555    -6517    -6438    -6381    -6373    -6358 
   -6289    -6159    -5958    -5657    -5253    -4782    -4294    -3849 
   -3495    -3214    -2948    -2691    -2476    -2310    -2157    -1998 
   -1877    -1825    -1817    -1825    -1789    -1701    -1645    -1647 
   -1682    -1758    -1831    -1864    -1915    -2001    -2059    -2094 
   -2142    -2191    -2245    -2326    -2413    -2479    -2495    -2455 
   -2438    -2509    -2621    -2750    -2928    -3092    -3134    -3046 
   -2890    -2744    -2659    -2618    -2578    -2526    -2456    -2365 
   -2284    -2255    -2291    -2373    -2487    -2623    -2771    -2913 
   -3039    -3174    -3372    -3625    -3858    -4048    -4212    -4354 
   -4467    -4549    -4616    -4672    -4673    -4616    -4576    -4586 
   -4615    -4643    -4684    -4762    -4874    -4974    -5010    -4992 
   -4981    -5006    -5043    -5073    -5110    -5140    -5097    -4921 
   -4632    -4320    -4051    -3808    -3572    -3392    -3336    -3362 
   -3379    -3392    -3435    -3519    -3648    -3762    -3832    -3929 
   -4068    -4200    -4305    -4366    -4349    -4238    -4038    -3787 
   -3577    -3470    -3458    -3521    -3641    -3793    -3952    -4080 
   -4162    -4226    -4306    -4414    -4553    -4706    -4866    -5043 
   -5235    -5411    -5546    -5647    -5746    -5867    -6001    -6115 
   -6187    -6218    -6225    -6238    -6279    -6346    -6393    -6366 
   -6277    -6162    -6037    -5892    -5693    -5425    -5121    -4784 
   -4378    -3951    -3606    -3382    -3229    -3067    -2866    -2661 
   -2490    -2395    -2382    -2405    -2412    -2369    -2306    -2278 
   -2293    -2350    -2437    -2509    -2560    -2638    -2772    -2964 
   -3186    -3364    -3465    -3534    -3622    -3752    -3934    -4141 
   -4331    -4492    -4634    -4767    -4897    -5031    -5136    -5168 
   -5140    -5087    -5012    -4932    -4855    -4733    -4555    -4362 
   -4147    -3900    -3668    -3511    -3436    -3388    -3343    -3328 
   -3357    -3427    -3521    -3611    -3685    -3767    -3881    -4032 
   -4195    -4354    -4501    -4638    -4783    -4941    -5084    -5171 
   -5194    -5149    -5014    -4822    -4643    -4464    -4255    -4051 
   -3897    -3816    -3808    -3857    -3959    -4092    -4194    -4241 
   -4247    -4213    -4166    -4122    -4032    -3883    -3729    -3625 
   -3596    -3642    -3710    -3763    -3834    -3934    -4038    -4103 
   -4068    -3916    -3673    -3383    -3086    -2779    -2464    -2218 
   -2116    -2142    -2234    -2391    -2642    -2947    -3243    -3521 
   -3794    -4037    -4192    -4235    -4173    -4038    -3880    -3701 
   -3506    -3328    -3152    -2948    -2771    -2693    -2721    -2797 
   -2844    -2840    -2802    -2749    -2706    -2676    -2663    -2686 
   -2729    -2756    -2738    -2663    -2539    -2381    -2218    -2085 
   -1989    -1893    -1745    -1557    -1380    -1259    -1248    -1347 
   -1507    -1707    -1926    -2144    -2353    -2552    -2749    -2948 
   -3120    -3250    -3328    -3366    -3407    -3456    -3447    -3308 
   -3015    -2608    -2164    -1751    -1443    -1317    -1369    -1542 
   -1807    -2142    -2529    -2970    -3424    -3846    -4241    -4590 
   -4865    -5070    -5220    -5331    -5410    -5441    -5417    -5353 
   -5266    -5184    -5163    -5239    -5375    -5508    -5643    -5859 
   -6205    -6654    -7159    -7665    -8099    -8360    -8416    -8355 
   -8259    -8129    -7961    -7773    -7572    -7373    -7193    -7023 
   -6814    -6486    -5998    -5406    -4755    -4040    -3287    -2517 
   -1777    -1166     -724     -413     -207     -104     -136     -326 
    -656    -1081    -1516    -1880    -2182    -2480    -2792    -3113 
   -3466    -3855    -4206    -4456    -4629    -4759    -4862    -4965 
   -5107    -5267    -5371    -5407    -5418    -5429    -5499    -5682 
   -5951    -6250    -6531    -6773    -6983    -7144    -7221    -7185 
   -6984    -6613    -6156    -5682    -5210    -4795    -4511    -4404 
   -4479    -4691    -5000    -5404    -5832    -6172    -6396    -6523 
   -6562    -6512    -6346    -6075    -5739    -5321    -4834    -4355 
   -3931    -3570    -3271    -3021    -2825    -2712    -2704    -2752 
   -2777    -2757    -2675    -2510    -2260    -1932    -1584    -1301 
   -1079     -878     -706     -582     -521     -528     -565     -603 
    -635     -626     -568     -511     -511     -631     -888    -1205 
   -1530    -1876    -2242    -2604    -2959    -3305    -3634    -3928 
   -4164    -4351    -4500    -4607    -4683    -4772    -4880    -4943 
   -4903    -4763    -4566    -4315    -3986    -3633    -3339    -3110 
   -2915    -2727    -2547    -2416    -2365    -2346    -2327    -2356 
   -2454    -2600    -2786    -2984    -3157    -3280    -3325    -3276 
   -3163    -2996    -2732    -2382    -1973    -1474     -927     -434 
     -51      175      207       89     -114     -361     -620     -864 
   -1069    -1244    -1452    -1723    -2030    -2373    -2782    -3263 
   -3772    -4242    -4624    -4891    -5044    -5091    -5049    -4952 
   -4797    -4573    -4314    -4043    -3798    -3635    -3555    -3531 
   -3531    -3533    -3550    -3577    -3579    -3572    -3580    -3599 
   -3650    -3752    -3884    -4038    -4230    -4435    -4614    -4775 
   -4929    -5062    -5169    -5244    -5298    -5368    -5472    -5630 
   -5872    -6177    -6503    -6827    -7107    -7302    -7420    -7480 
   -7453    -7302    -7021    -6630    -6181    -5742    -5347    -5032 
   -4861    -4837    -4900    -5011    -5153    -5271    -5320    -5322 
   -5330    -5376    -5457    -5578    -5742    -5896    -6000    -6090 
   -6164    -6196    -6195    -6142    -6026    -5879    -5710    -5509 
   -5287    -5090    -4961    -4903    -4906    -4965    -5045    -5090 
   -5046    -4893    -4667    -4431    -4200    -3941    -3660    -3406 
   -3214    -3109    -3095    -3118    -3122    -3104    -3085    -3076 
   -3063    -3061    -3129    -3285    -3494    -3699    -3838    -3887 
   -3866    -3790    -3644    -3410    -3107    -2749    -2337    -1924 
   -1590    -1400    -1361    -1417    -1489    -1566    -1718    -1981 
   -2298    -2599    -2872    -3131    -3369    -3565    -3681    -3683 
   -3613    -3547    -3519    -3509    -3494    -3474    -3450    -3453 
   -3526    -3654    -3783    -3874    -3926    -3950    -3930    -3866 
   -3787    -3700    -3618    -3555    -3466    -3335    -3201    -3080 
   -2990    -2927    -2843    -2739    -2653    -2597    -2560    -2531 
   -2505    -2478    -2425    -2346    -2278    -2237    -2200    -2171 
   -2171    -2193    -2251    -2377    -2561    -2760    -2953    -3125 
   -3271    -3415    -3567    -3679    -3726    -3731    -3706    -3649 
   -3584    -3532    -3498    -3488    -3513    -3598    -3753    -3947 
   -4156    -4373    -4589    -4796    -5001    -5206    -5377    -5484 
   -5548    -5600    -5628    -5596    -5464    -5216    -4856    -4402 
   -3907    -3398    -2863    -2344    -1899    -1530    -1241    -1056 
    -979    -1007    -1122    -1285    -1487    -1735    -1993    -2207 
   -2355    -2463    -2576    -2705    -2838    -2984    -3153    -3345 
   -3546    -3724    -3881    -4044    -4213    -4371    -4498    -4617 
   -4783    -4974    -5132    -5248    -5311    -5318    -5299    -5266 
   -5248    -5273    -5325    -5392    -5491    -5622    -5756    -5888 
   -6008    -6085    -6138    -6170    -6134    -6050    -5982    -5961 
   -6014    -6138    -6282    -6407    -6476    -6471    -6406    -6295 
   -6165    -6045    -5925    -5773    -5579    -5366    -5117    -4794 
   -4432    -4089    -3773    -3473    -3203    -2969    -2754    -2546 
   -2346    -2187    -2117    -2124    -2175    -2257    -2359    -2497 
   -2671    -2827    -2949    -3094    -3300    -3542    -3786    -4017 
   -4238    -4443    -4589    -4650    -4639    -4568    -4444    -4299 
   -4171    -4070    -4009    -4029    -4109    -4167    -4167    -4143 
   -4120    -4095    -4069    -4026    -3942    -3838    -3746    -3657 
   -3593    -3618    -3744    -3947    -4187    -4403    -4587    -4757 
   -4882    -4929    -4909    -4858    -4853    -4935    -5068    -5214 
   -5347    -5437    -5460    -5378    -5194    -4954    -4685    -4402 
   -4124    -3887    -3731    -3641    -3580    -3525    -3464    -3398 
   -3321    -3211    -3081    -2979    -2939    -2962    -3022    -3103 
   -3232    -3415    -3615    -3815    -3999    -4148    -4279    -4407 
   -4488    -4504    -4504    -4532    -4598    -4684    -4758    -4805 
   -4831    -4862    -4919    -4994    -5080    -5191    -5316    -5413 
   -5450    -5439    -5432    -5436    -5421    -5372    -5291    -5183 
   -5057    -4886    -4650    -4365    -4054    -3722    -3375    -3039 
   -2764    -2591    -2525    -2554    -2661    -2805    -2934    -3021 
   -3058    -3048    -3000    -2910    -2778    -2623    -2479    -2382 
   -2349    -2374    -2430    -2484    -2516    -2526    -2514    -2476 
   -2428    -2398    -2384    -2378    -2395    -2441    -2496    -2577 
   -2705    -2848    -2976    -3107    -3280    -3505    -3738    -3939 
   -4109    -4277    -4476    -4710    -4933    -5101    -5217    -5301 
