Origin Time       2025/01/13 21:19:00
Lat.              31.8
Long.             131.6
Depth. (km)       30
Mag.              6.9
Station Code      KGS003
Station Lat.      32.0559
Station Long.     130.5874
Station Height(m) 176
Record Time       2025/01/13 21:19:52
Sampling Freq(Hz) 100Hz
Duration Time(s)  137
Dir.              N-S
Scale Factor      3920(gal)/6182761
Max. Acc. (gal)   15.007
Last Correction   2025/01/13 21:19:52
Memo.             
[...]
   -7334    -6052    -5446    -5473    -5968    -6811    -8001    -9406 
  -10964   -12752   -14525   -15887   -16544   -16409   -15707   -14617 
  -13316   -12266   -11727   -11437   -11078   -10359    -9058    -7451 
   -5946    -4654    -3719    -3213    -3165    -3897    -5528    -7865 
  -10539   -12730   -14085   -15060   -15656   -15693   -15484   -14939 
  -13541   -11446    -9217    -7116    -5584    -5098    -5434    -6159 
   -7034    -7705    -7747    -7112    -6264    -5467    -4683    -4269 
   -4600    -5370    -6077    -6546    -6625    -6213    -5762    -5937 
   -6861    -8189    -9607   -10865   -11780   -12437   -12956   -13354 
  -13690   -14011   -14394   -15006   -15851   -16690   -17290   -17299 
  -16285   -14521   -12724   -11152    -9991    -9520    -9359    -8849 
   -7791    -6151    -4028    -1780      269     1902     3072     3890 
    4457     4970     5529     5887     5671     4735     3157     1068 
   -1194    -3303    -5505    -8034   -10562   -12783   -14491   -15435 
  -15818   -16022   -16073   -15891   -15354   -14474   -13604   -12883 
  -12282   -11972   -11881   -11755   -11448   -10802    -9814    -8613 
   -7385    -6425    -6132    -6949    -8887   -11420   -13829   -15448 
  -16072   -15799   -14798   -13632   -12929   -12826   -13268   -14248 
  -15344   -15761   -15181   -13725   -11467    -8743    -6318    -4729 
   -3925    -3906    -4693    -5712    -6522    -7307    -8198    -9198 
  -10356   -11704   -13271   -14815   -15836   -15985   -15077   -13370 
  -11686   -10566   -10110   -10449   -11586   -13139   -14548   -15528 
  -15889   -15405   -14409   -13494   -12822   -12471   -12587   -13097 
  -13934   -15123   -16409   -17342   -17587   -17023   -15911   -14640 
  -13351   -12209   -11249   -10077    -8457    -6526    -4351    -1964 
     382     2392     3956     4877     4806     3675     1756     -540 
   -2596    -3852    -4317    -4505    -4847    -5443    -6244    -7106 
   -7792    -8146    -8259    -8400    -8650    -8970    -9434    -9970 
  -10382   -10636   -10644   -10089    -8905    -7598    -6697    -6469 
   -7268    -9014   -10831   -12062   -12498   -11911   -10483    -8947 
   -8039    -8130    -9124   -10718   -12503   -13759   -13903   -12992 
  -11382    -9490    -7870    -6892    -6680    -7319    -8667   -10258 
  -11467   -11814   -11328   -10360    -9357    -8925    -9505   -11043 
  -13068   -15069   -16660   -17453   -17348   -16461   -14726   -12347 
  -10029    -8472    -7906    -8156    -9001   -10019   -10520   -10196 
   -9294    -8100    -6952    -6399    -6841    -8365   -10816   -13722 
  -16276   -17873   -18596   -18653   -18195   -17710   -17467   -17326 
  -17206   -17020   -16576   -15683   -14236   -12371   -10373    -8403 
   -6590    -5187    -4189    -3397    -2926    -2839    -2820    -2724 
   -2815    -3346    -4297    -5626    -7358    -9338   -11383   -13499 
  -15594   -17335   -18421   -18857   -18778   -18063   -16710   -15187 
  -13569   -11572    -9633    -7989    -6099    -4209    -2725    -1196 
     169      721      537     -467    -2568    -5367    -8306   -11091 
  -13364   -14812   -15326   -14928   -13947   -12895   -11948   -11173 
  -10765   -10444    -9808    -9089    -8343    -7178    -5591    -3714 
   -1453      811     2180     2088      673    -1475    -3837    -6088 
   -7912    -9085    -9569    -9419    -8781    -8089    -7699    -7529 
   -7630    -8078    -8602    -8964    -9016    -8637    -7789    -6592 
   -5355    -4363    -3689    -3245    -2953    -2656    -2224    -1909 
   -2102    -2742    -3552    -4620    -5924    -7209    -8667   -10432 
  -12247   -14082   -15907   -17350   -18035   -18031   -17805   -17614 
  -17594   -17816   -17882   -17434   -16551   -15401   -14133   -12860 
  -11697   -10767    -9943    -8907    -7675    -6602    -5899    -5665 
   -6053    -7023    -8384    -9985   -11566   -12785   -13538   -14033 
  -14390   -14455   -14274   -14148   -14083   -13832   -13342   -12669 
  -11666   -10211    -8550    -6956    -5619    -5052    -5643    -7093 
   -8955   -11005   -12893   -14192   -14778   -14751   -14226   -13518 
  -13125   -13078   -12871   -12238   -11329   -10244    -9006    -7860 
   -7081    -6661    -6610    -6950    -7455    -7829    -7907    -7724 
   -7414    -7223    -7496    -8369    -9652   -10970   -12068   -12619 
  -12071   -10348    -7842    -4968    -2433     -940     -554     -820 
   -1333    -1966    -2601    -3112    -3564    -4046    -4554    -5217 
   -6420    -8288   -10566   -13074   -15473   -17208   -18083   -18258 
  -18046   -17804   -17771   -18082   -18527   -18464   -17462   -15409 
  -12226    -8321    -4628    -1793      -84      229     -775    -2504 
   -4408    -6148    -7405    -8061    -8322    -8454    -8649    -9156 
  -10086   -11167   -11943   -12143   -11823   -11112   -10132    -9227 
   -8692    -8515    -8662    -9137    -9847   -10589   -11149   -11342 
  -10993   -10116    -9073    -8376    -8234    -8482    -8942    -9284 
   -8995    -8023    -6786    -5580    -4657    -4404    -4795    -5337 
   -5726    -5806    -5342    -4391    -3365    -2700    -2597    -2993 
   -3797    -4962    -6293    -7580    -8757    -9575    -9851    -9897 
  -10111   -10664   -11536   -12588   -13440   -13661   -13298   -12520 
  -11401   -10136    -8916    -7909    -7097    -6401    -5961    -5760 
   -5722    -6159    -7212    -8569   -10216   -12232   -14202   -15703 
  -16677   -17213   -17315   -17142   -17060   -16989   -16858   -17029 
  -17311   -17281   -16943   -16207   -15147   -14050   -12886   -11729 
  -10842   -10138    -9378    -8610    -7865    -6985    -6067    -5328 
   -4776    -4551    -4998    -6169    -7727    -9361   -10743   -11398 
  -11205   -10539    -9739    -8924    -8182    -7458    -6441    -5111 
   -3866    -2939    -2295    -1777    -1335    -1027     -819     -896 
   -1532    -2629    -3999    -5520    -7010    -8221    -9156   -10198 
  -11320   -12240   -13112   -13894   -14349   -14616   -14656   -14190 
  -13339   -12421   -11632   -11150   -10888   -10513    -9911    -9214 
   -8719    -8835    -9742   -11389   -13622   -16069   -18205   -19550 
  -20023   -19810   -18901   -17525   -16116   -14720   -13365   -12350 
  -11771   -11355   -10916   -10450    -9843    -9132    -8692    -8761 
   -9315   -10197   -11113   -11827   -12238   -12435   -12591   -12660 
  -12711   -13055   -13582   -13830   -13749   -13471   -12707   -11295 
   -9566    -7799    -6156    -4930    -4301    -4025    -3785    -3615 
   -3547    -3448    -3417    -3727    -4443    -5473    -6842    -8419 
   -9767   -10693   -11357   -11789   -11869   -11724   -11610   -11466 
  -11064   -10343    -9296    -7792    -5817    -3848    -2403    -1565 
   -1333    -1586    -1957    -2306    -2724    -3158    -3316    -3096 
   -2890    -2974    -3408    -4437    -6054    -7840    -9525   -11084 
  -12391   -13270   -13892   -14507   -15007   -15241   -15260   -15163 
  -14892   -14428   -13983   -13507   -12725   -11801   -10925    -9840 
   -8535    -7355    -6462    -5926    -5840    -6257    -7052    -8045 
   -9358   -10920   -12376   -13632   -14567   -15148   -15510   -15652 
  -15792   -16105   -16411   -16714   -17138   -17456   -17446   -17209 
  -16736   -15977   -15267   -14834   -14542   -14438   -14492   -14336 
  -13808   -12796   -11439   -10260    -9160    -8137    -7685    -7427 
   -7155    -7382    -7662    -7436    -7151    -6910    -6376    -5828 
   -5608    -5382    -4908    -4378    -3753    -3064    -2668    -2650 
   -2966    -3584    -4345    -5176    -6087    -7134    -8318    -9492 
  -10543   -11357   -12017   -12742   -13374   -13784   -14114   -14145 
  -13635   -12865   -12191   -11875   -12188   -13081   -14089   -14809 
  -15315   -15774   -16072   -16129   -15985   -15645   -15072   -14360 
  -13781   -13364   -12818   -12030   -11048    -9671    -7687    -5224 
   -2463      324     2570     3888     4296     4001     3241     2268 
    1368      654       69     -267     -344     -626    -1401    -2479 
   -3809    -5390    -6795    -7719    -8357    -8786    -9084    -9557 
  -10092   -10550   -11051   -11411   -11669   -11914   -11669   -10941 
  -10256    -9559    -8808    -8409    -8382    -8403    -8409    -8464 
   -8402    -8053    -7588    -7175    -6754    -6440    -6553    -7034 
   -7404    -7439    -7235    -6851    -6487    -6439    -6706    -7190 
   -7974    -9052   -10094   -10676   -10729   -10475   -10047    -9687 
   -9837   -10614   -11831   -13412   -15202   -16713   -17614   -17906 
  -17527   -16611   -15627   -14944   -14588   -14469   -14726   -15281 
  -15631   -15580   -15217   -14437   -13362   -12438   -11778   -11356 
  -11388   -11863   -12533   -13179   -13543   -13514   -13219   -12814 
  -12421   -12163   -11958   -11491   -10747    -9845    -8637    -7228 
   -6031    -5222    -4829    -4970    -5609    -6392    -7142    -8011 
   -8868    -9455    -9980   -10702   -11565   -12541   -13754   -15129 
  -16277   -16991   -17289   -16997   -16109   -14972   -13665   -12162 
  -10802    -9733    -8680    -7572    -6608    -5844    -5255    -4876 
   -4646    -4361    -3935    -3512    -3191    -2907    -2618    -2519 
   -2789    -3245    -3758    -4474    -5444    -6558    -7661    -8604 
   -9235    -9547    -9796   -10079   -10360   -10810   -11436   -12017 
  -12433   -12651   -12597   -12072   -11055    -9851    -8678    -7758 
   -7465    -7792    -8319    -8774    -9057    -9076    -8934    -8758 
   -8498    -8208    -7987    -7837    -7878    -8067    -8071    -7961 
   -7945    -7779    -7651    -8058    -8778    -9643   -10868   -12180 
  -13206   -14070   -14709   -14744   -14319   -13731   -13083   -12685 
  -12546   -12421   -12311   -12135   -11844   -11542   -11182   -10816 
  -10638   -10548   -10225    -9675    -9113    -8455    -7559    -6664 
   -6124    -5985    -6231    -6943    -7872    -8489    -8495    -7949 
   -6994    -5904    -5243    -5372    -6221    -7606    -9281   -10814 
  -11669   -11759   -11432   -10815   -10147    -9888    -9965   -10036 
  -10101   -10204   -10132    -9769    -9447    -9426    -9542    -9882 
  -10632   -11461   -12061   -12499   -12799   -12823   -12650   -12618 
  -12909   -13530   -14485   -15703   -16845   -17264   -16608   -14942 
  -12305    -9108    -6200    -4045    -2697    -2207    -2420    -2844 
   -3170    -3564    -4085    -4700    -5730    -7259    -9045   -11001 
  -12923   -14424   -15160   -14959   -13892   -12185   -10317    -8855 
   -8063    -7805    -7709    -7467    -6797    -5425    -3407    -1102 
    1190     3181     4385     4644     4278     3387     1924       55 
   -2090    -4540    -7306   -10105   -12533   -14524   -16017   -16900 
  -17435   -17831   -17897   -17587   -17233   -17070   -17127   -17363 
  -17559   -17422   -16728   -15522   -14216   -13058   -12140   -11614 
  -11256   -10806   -10377   -10103   -10034   -10071   -10169   -10365 
  -10431   -10366   -10549   -11006   -11546   -12215   -12970   -13669 
  -14399   -15350   -16624   -17955   -19012   -19917   -20539   -20535 
  -20253   -20031   -19687   -19404   -19516   -19665   -19321   -18324 
  -16541   -13846   -10487    -7022    -3796     -853     1646     3513 
    4948     6219     7330     8353     9356    10155    10478    10271 
    9749     8906     7681     6257     4643     2780      735    -1441 
   -3782    -6396    -9096   -11509   -13605   -15446   -16896   -17935 
  -18700   -19229   -19324   -18886   -18146   -17191   -16005   -14734 
  -13309   -11485    -9276    -6985    -4791    -2726    -1061       59 
     706      728      -54    -1544    -3494    -5670    -7865    -9924 
  -11882   -13966   -16256   -18546   -20689   -22639   -24122   -24706 
  -24327   -23201   -21310   -18807   -16302   -14153   -12352   -10971 
  -10044    -9324    -8480    -7438    -6259    -4944    -3753    -3059 
   -2945    -3499    -4764    -6553    -8506   -10159   -11505   -12696 
  -13534   -14037   -14329   -14278   -13908   -13523   -13301   -13138 
  -13149   -13645   -14581   -15740   -16928   -17888   -18585   -19085 
  -19299   -19304   -19126   -18614   -17958   -17204   -16009   -14466 
  -12839   -10965    -8943    -7281    -6046    -5038    -4335    -3835 
   -3159    -2274    -1427     -690      -90      297      419      303 
     131     -144     -695    -1350    -2077    -3126    -4431    -5756 
   -7057    -8267    -9147    -9426    -9013    -7955    -6263    -4182 
   -2212     -468     1195     2704     4020     5164     6107     6703 
    6702     6106     4876     2850      300    -2458    -5361    -8134 
  -10460   -12336   -13931   -15380   -16728   -18048   -19420   -20636 
  -21343   -21463   -20921   -19448   -17279   -15052   -12869   -10647 
   -8766    -7442    -6380    -5423    -4631    -3814    -2816    -2030 
   -2059    -3063    -4938    -7724   -11116   -14488   -17636   -20440 
  -22547   -24008   -25195   -26179   -26679   -26417   -25417   -23747 
  -21395   -18623   -15642   -12425    -9266    -6677    -4924    -4056 
   -3939    -4377    -5255    -6349    -7441    -8581    -9731   -10776 
  -11985   -13623   -15493   -17416   -19469   -21436   -22924   -23995 
  -24719   -24825   -24319   -23551   -22625   -21404   -20105   -19081 
  -18186   -17251   -16426   -15644   -14580   -13188   -11718   -10130 
   -8343    -6630    -5060    -3502    -2050     -783      460     1796 
    2990     3914     4793     5718     6723     7941     9352    10848 
   12212    13240    13920    14120    13716    12744    11128     8807 
    5944     2853     -288    -3469    -6375    -8689   -10575   -11981 
  -12677   -12947   -12965   -12488   -11591   -10603    -9769    -9319 
   -9409   -10118   -11371   -12857   -14305   -15681   -16932   -17910 
  -18782   -19672   -20291   -20649   -20918   -20914   -20545   -19954 
  -19283   -18603   -18065   -17875   -17874   -17707   -17324   -16859 
  -16248   -15421   -14797   -14621   -14545   -14514   -14585   -14283 
  -13356   -12163   -10889    -9386    -7820    -6432    -5131    -3933 
   -3001    -2325    -1778    -1286     -882     -565     -303     -174 
    -250     -479     -664     -742     -918    -1283    -1883    -2862 
   -4105    -5114    -5631    -5905    -6043    -6139    -6578    -7325 
   -7940    -8343    -8611    -8536    -8012    -7322    -6603    -5743 
   -4877    -4235    -3825    -3551    -3428    -3592    -3960    -4523 
   -5626    -7311    -9398   -11841   -14495   -17049   -19136   -20650 
  -21635   -22044   -22146   -22227   -22206   -22091   -21920   -21520 
  -20699   -19319   -17360   -14924   -12283    -9870    -8005    -6787 
   -6133    -5894    -5942    -5984    -5739    -5314    -4963    -4787 
   -5062    -6229    -8185   -10494   -13074   -15701   -17807   -19277 
  -20345   -21015   -21318   -21472   -21445   -20905   -19669   -17820 
  -15479   -12849   -10279    -7963    -5763    -3616    -1736     -181 
    1192     2258     2718     2691     2395     1601      229    -1413 
   -3230    -5259    -7238    -8894   -10306   -11624   -12779   -13716 
  -14533   -15088   -15086   -14597   -13842   -12881   -11845   -11082 
  -10790   -10838   -11193   -11831   -12388   -12565   -12404   -12106 
  -11833   -11799   -12380   -13522   -14777   -16021   -17229   -18172 
  -18712   -18901   -18755   -18123   -17055   -15888   -14673   -13240 
  -11627    -9886    -8012    -6101    -4429    -3282    -2668    -2522 
   -2916    -3825    -5025    -6369    -7866    -9298   -10367   -11040 
  -11248   -10862   -10002    -8945    -7780    -6417    -5003    -3724 
   -2490    -1415     -861     -744     -756     -953    -1354    -1766 
   -2191    -2764    -3536    -4447    -5542    -6864    -8154    -9198 
  -10009   -10608   -10978   -11056   -10926   -10726   -10408   -10035 
   -9736    -9435    -9078    -8758    -8638    -8865    -9463   -10375 
  -11393   -12247   -12936   -13500   -13768   -13724   -13581   -13421 
  -13152   -12857   -12759   -12717   -12451   -12030   -11472   -10659 
   -9801    -9241    -9087    -9350   -10140   -11390   -12678   -13734 
  -14584   -15132   -15317   -15364   -15488   -15692   -15975   -16358 
  -16637   -16549   -16119   -15392   -14239   -12712   -11202   -10090 
   -9371    -8919    -8804    -8903    -8875    -8717    -8586    -8469 
   -8387    -8378    -8419    -8416    -8281    -8163    -8207    -8354 
   -8617    -9107    -9821   -10594   -11301   -11893   -12135   -11848 
  -11201   -10252    -8961    -7698    -6818    -6341    -6427    -7279 
   -8642   -10105   -11431   -12327   -12639   -12473   -11997   -11437 
  -10773    -9910    -8962    -7758    -6163    -4656    -3525    -2667 
   -2154    -1951    -1801    -1569    -1251     -912     -555     -232 
    -250     -695    -1291    -1975    -2780    -3493    -4039    -4604 
   -5248    -5825    -6276    -6724    -7161    -7435    -7629    -7847 
   -7943    -7847    -7639    -7332    -6967    -6634    -6370    -6207 
   -6161    -6211    -6208    -5848    -5141    -4358    -3545    -2721 
   -2007    -1474    -1108     -782     -563     -620     -889    -1409 
   -2314    -3514    -4867    -6409    -8182    -9989   -11652   -13145 
  -14261   -14875   -15188   -15239   -14866   -14149   -13309   -12371 
  -11338   -10429    -9749    -9269    -9048    -9025    -9157    -9445 
   -9837   -10458   -11395   -12555   -13913   -15478   -17089   -18461 
  -19504   -20280   -20634   -20509   -20177   -19737   -19192   -18675 
  -18054   -17107   -15892   -14537   -13068   -11498   -10072    -9096 
   -8574    -8527    -9030    -9904   -10914   -11877   -12699   -13389 
  -13807   -13947   -13899   -13400   -12428   -11346   -10220    -9012 
   -8018    -7386    -6932    -6705    -6708    -6661    -6567    -6528 
   -6543    -6795    -7356    -8048    -8738    -9268    -9520    -9602 
   -9643    -9756   -10102   -10776   -11733   -12751   -13748   -14663 
  -15199   -15380   -15351   -14867   -13870   -12551   -11004    -9305 
   -7476    -5700    -4248    -3105    -2294    -1870    -1677    -1549 
   -1543    -1901    -2605    -3578    -5015    -6790    -8573   -10372 
  -12120   -13476   -14314   -14966   -15650   -16124   -16383   -16732 
  -17023   -17134   -17351   -17647   -17781   -17768   -17678   -17423 
  -16864   -16036   -15086   -14090   -13126   -12311   -11683   -11079 
  -10389    -9689    -8909    -7983    -7056    -6189    -5344    -4588 
   -3993    -3546    -3094    -2435    -1682     -943      -82      667 
     997     1150     1218      937      425     -100     -815    -1705 
   -2449    -2948    -3416    -4059    -4813    -5708    -6850    -7960 
   -8747    -9188    -9330    -9230    -8936    -8638    -8491    -8372 
   -8280    -8360    -8496    -8596    -8848    -9281    -9695   -10208 
  -11041   -12038   -13007   -14001   -14941   -15567   -15856   -15884 
  -15576   -14995   -14334   -13660   -13005   -12399   -11882   -11497 
  -11021   -10275    -9558    -9019    -8476    -8103    -8003    -7830 
   -7564    -7469    -7523    -7699    -8173    -9069   -10286   -11621 
  -12995   -14338   -15452   -16354   -17292   -18215   -18905   -19470 
  -19969   -20140   -19870   -19276   -18297   -16824   -15138   -13568 
  -12148   -10922   -10011    -9294    -8494    -7665    -7021    -6498 
   -6094    -6013    -6230    -6525    -6889    -7397    -7874    -8205 
