Origin Time       2025/01/13 21:19:00
Lat.              31.8
Long.             131.6
Depth. (km)       30
Mag.              6.9
Station Code      KGS029
Station Lat.      30.2363
Station Long.     130.5553
Station Height(m) 60
Record Time       2025/01/13 21:20:39
Sampling Freq(Hz) 100Hz
Duration Time(s)  60
Dir.              U-D
Scale Factor      3920(gal)/6182761
Max. Acc. (gal)   0.930
Last Correction   2025/01/13 21:20:39
Memo.             
[...]
   36324    36557    36760    36967    37139    37205    37090    36776 
   36507    36410    36351    36392    36644    36891    36868    36648 
   36494    36478    36507    36563    36742    37044    37202    36963 
   36495    36157    36109    36255    36415    36544    36584    36389 
   36130    36106    36210    36337    36510    36513    36268    36025 
   35916    35919    35937    35883    35877    36021    36258    36471 
   36444    36185    36104    36339    36613    36842    36981    36860 
   36692    36840    37165    37324    37309    37289    37312    37339 
   37347    37357    37393    37533    37815    37973    37886    37871 
   37937    37852    37741    37675    37552    37473    37472    37378 
   37164    36972    36983    37251    37488    37358    36928    36543 
   36415    36488    36624    36759    36888    37040    37165    37079 
   36770    36538    36583    36661    36522    36397    36575    36914 
   37121    37110    36959    36728    36458    36258    36217    36347 
   36589    36811    36943    36918    36693    36447    36305    36230 
   36323    36494    36416    36197    36226    36497    36662    36495 
   36105    35780    35726    35982    36337    36515    36543    36578 
   36581    36440    36193    35966    35814    35814    36114    36585 
   36809    36599    36177    35957    36160    36483    36633    36765 
   36940    37006    36923    36708    36485    36430    36509    36661 
   36934    37240    37425    37404    37180    36945    36901    37021 
   37197    37325    37340    37369    37511    37607    37565    37590 
   37729    37723    37536    37397    37396    37439    37360    37081 
   36818    36836    37048    37222    37392    37635    37768    37681 
   37520    37363    37124    36831    36687    36763    36885    36998 
   37135    37134    36964    36873    36975    37188    37356    37320 
   37083    36790    36595    36582    36666    36677    36489    36088 
   35695    35554    35661    35932    36348    36775    36909    36658 
   36256    35913    35711    35693    35757    35782    35826    35829 
   35635    35395    35360    35587    35996    36357    36437    36258 
   36047    36033    36133    36153    36278    36524    36462    36150 
   36074    36296    36637    36986    37262    37460    37492    37314 
   37123    37004    36908    36926    37059    37246    37526    37711 
   37528    37211    37133    37109    36855    36637    36694    36650 
   36229    35849    35986    36494    36901    37027    37040    37006 
   36816    36611    36692    37056    37454    37698    37790    37720 
   37380    36979    36874    36984    37077    37099    37030    36958 
   37005    37087    37094    37023    36910    36826    36847    37057 
   37419    37718    37845    37830    37676    37476    37297    37132 
   37122    37314    37427    37267    37047    36998    36937    36676 
   36410    36363    36517    36750    36969    37160    37319    37341 
   37089    36664    36421    36435    36409    36367    36557    36852 
   37001    36982    36855    36610    36271    36083    36237    36613 
   37036    37386    37568    37527    37184    36704    36520    36703 
   36923    36958    36827    36676    36591    36513    36441    36481 
   36655    36838    36951    37062    37161    37153    37090    37024 
   36927    36779    36527    36275    36286    36495    36594    36507 
   36308    36081    35957    35999    36123    36165    36047    35888 
   35805    35772    35792    35918    36071    36093    35982    35902 
   35963    36182    36503    36802    36998    37071    37043    37028 
   37091    37147    37040    36750    36499    36515    36766    37073 
   37296    37294    36953    36463    36244    36424    36782    37105 
   37202    37001    36733    36619    36637    36744    36933    37182 
   37413    37495    37389    37109    36690    36444    36628    36927 
   36977    36922    36901    36696    36310    36095    36101    36080 
   36052    36160    36280    36262    36246    36479    36932    37270 
   37203    36755    36271    36080    36083    36022    36025    36243 
   36398    36268    35995    35770    35699    35787    35931    36072 
   36197    36189    36027    35945    36028    36118    36231    36451 
   36675    36826    36970    37137    37248    37227    37110    36988 
   36948    37059    37247    37373    37466    37579    37518    37140 
   36678    36392    36280    36424    36926    37522    37911    38064 
   37934    37518    37066    36844    36961    37318    37678    37920 
   38005    37817    37388    36993    36832    36893    37086    37401 
   37791    38015    37917    37683    37564    37481    37252    37024 
   36952    36956    36997    37026    37008    37078    37276    37391 
   37286    37076    36929    36881    36917    37121    37477    37712 
   37644    37362    36984    36627    36465    36613    37017    37471 
   37756    37812    37765    37615    37246    36893    36852    36894 
   36779    36708    36805    36915    36899    36708    36477    36418 
   36461    36463    36551    36809    36975    36773    36358    36080 
   36029    36098    36278    36593    36876    36906    36670    36333 
   36066    35935    35888    35915    36089    36370    36586    36595 
   36393    36188    36152    36270    36548    36858    36955    36884 
   36733    36447    36235    36382    36724    36880    36724    36418 
   36209    36150    36190    36384    36626    36689    36648    36657 
   36681    36711    36791    36882    36913    36837    36727    36686 
   36654    36592    36635    36842    37091    37225    37186    37070 
   37001    36940    36809    36735    36845    36961    36847    36594 
   36429    36340    36215    36214    36495    36747    36681    36452 
   36193    35900    35697    35743    36093    36569    36848    36866 
   36746    36528    36357    36365    36422    36414    36390    36370 
   36374    36402    36358    36244    36146    36051    35974    35977 
   35999    35973    35898    35750    35619    35682    35922    36163 
   36289    36248    36022    35755    35681    35895    36297    36644 
   36742    36686    36621    36487    36276    36139    36191    36402 
   36620    36783    36946    36996    36869    36785    36826    36854 
   36854    36918    37086    37219    37151    37012    37022    37136 
   37144    36952    36729    36739    36953    37083    37075    37079 
   37085    37038    36995    37033    37200    37336    37225    37022 
   36934    36923    36994    37115    37202    37313    37357    37220 
   37058    36869    36592    36458    36563    36774    37006    37189 
   37297    37337    37314    37289    37307    37346    37380    37386 
   37385    37387    37343    37231    37092    36963    36852    36781 
   36805    36911    37081    37368    37578    37385    36967    36760 
   36801    36807    36636    36514    36644    36781    36716    36637 
   36622    36509    36323    36257    36345    36470    36534    36531 
   36532    36552    36506    36394    36315    36306    36315    36329 
   36404    36567    36734    36791    36721    36557    36396    36407 
   36585    36706    36700    36726    36875    37032    37061    36979 
   36905    36894    36870    36813    36813    36802    36670    36503 
   36382    36373    36556    36804    36917    36927    36988    37115 
   37192    37207    37203    37154    37169    37365    37572    37585 
   37455    37344    37340    37383    37405    37490    37656    37743 
   37702    37659    37627    37539    37455    37436    37456    37507 
   37557    37597    37650    37651    37574    37493    37386    37262 
   37223    37230    37188    37137    37081    37001    36950    36897 
   36731    36488    36347    36416    36568    36610    36557    36517 
   36472    36355    36214    36169    36270    36434    36532    36571 
   36633    36646    36551    36505    36546    36496    36362    36313 
   36370    36473    36553    36529    36443    36406    36383    36305 
   36260    36327    36448    36522    36494    36396    36320    36327 
   36444    36648    36798    36774    36664    36602    36586    36616 
   36736    36888    36968    36926    36742    36472    36227    36128 
   36252    36488    36584    36470    36315    36243    36251    36359 
   36538    36672    36703    36721    36824    36869    36714    36534 
   36434    36312    36251    36401    36682    36919    37012    37010 
   37040    37094    37111    37141    37147    37018    36867    36900 
   37061    37120    36982    36751    36615    36673    36836    36996 
   37161    37285    37291    37213    37087    36905    36736    36655 
   36618    36612    36719    36898    36996    36947    36735    36469 
   36380    36445    36414    36215    36013    35985    36120    36261 
   36375    36491    36470    36277    36153    36196    36257    36286 
   36349    36441    36516    36528    36460    36421    36490    36600 
   36740    36934    37078    37106    37110    37147    37178    37210 
   37248    37234    37195    37217    37279    37302    37253    37195 
   37211    37212    37118    37009    36919    36877    36916    36902 
   36807    36818    36867    36775    36637    36528    36438    36484 
   36663    36793    36784    36631    36404    36260    36260    36344 
   36445    36475    36418    36398    36438    36494    36610    36745 
   36795    36766    36722    36748    36874    36994    37063    37134 
   37186    37212    37274    37300    37212    37163    37233    37276 
   37265    37308    37405    37477    37471    37385    37274    37157 
   37021    36977    37111    37245    37253    37240    37215    37116 
   36998    36849    36656    36587    36700    36823    36824    36741 
   36668    36544    36287    36073    36076    36230    36409    36520 
   36538    36521    36473    36367    36246    36244    36406    36507 
   36428    36354    36370    36417    36461    36490    36532    36567 
   36510    36387    36316    36363    36464    36464    36328    36231 
   36304    36436    36485    36494    36495    36448    36398    36380 
   36298    36125    36015    36053    36131    36150    36087    35929 
   35714    35548    35466    35406    35386    35470    35579    35549 
   35415    35399    35540    35663    35726    35812    35917    36010 
   36101    36199    36368    36627    36829    36908    36954    36964 
   36876    36780    36815    36968    37129    37272    37444    37589 
   37577    37457    37386    37396    37423    37413    37409    37477 
   37520    37467    37473    37631    37765    37722    37606    37610 
   37733    37834    37890    37931    37895    37798    37749    37732 
   37654    37536    37494    37546    37589    37585    37546    37423 
   37253    37126    37011    36923    36928    36949    36904    36832 
   36799    36825    36891    36948    36921    36812    36728    36680 
   36616    36591    36593    36525    36397    36250    36106    36008 
   35937    35871    35882    35967    35987    35915    35857    35816 
   35742    35704    35770    35913    36034    36057    36044    36050 
   35988    35846    35738    35715    35777    35934    36135    36255 
   36208    36071    36033    36168    36374    36529    36579    36534 
   36493    36565    36673    36726    36811    36923    36953    36900 
   36842    36859    36932    36928    36851    36813    36822    36832 
   36843    36868    36903    36901    36844    36784    36746    36704 
   36656    36654    36756    36918    37012    36948    36777    36664 
   36723    36904    37019    36985    36910    36881    36906    36955 
   37000    37063    37140    37208    37278    37306    37271    37253 
   37269    37280    37302    37330    37302    37222    37212    37359 
   37523    37559    37546    37528    37461    37377    37280    37200 
   37209    37256    37246    37185    37147    37158    37108    37019 
   37079    37225    37233    37120    36997    36884    36796    36761 
   36786    36849    36869    36756    36546    36387    36334    36333 
   36383    36494    36586    36572    36457    36315    36203    36137 
   36110    36106    36108    36118    36155    36194    36205    36215 
   36213    36194    36194    36184    36195    36325    36507    36618 
   36653    36638    36591    36541    36521    36571    36733    36925 
   36965    36840    36716    36719    36815    36873    36866    36867 
   36864    36810    36755    36773    36834    36827    36740    36716 
   36772    36768    36744    36826    36920    36906    36843    36823 
   36897    37060    37209    37272    37309    37355    37349    37294 
   37320    37475    37583    37552    37548    37604    37554    37427 
   37373    37378    37366    37324    37306    37362    37443    37461 
   37433    37427    37418    37372    37314    37245    37192    37209 
   37252    37259    37270    37344    37429    37430    37396    37409 
   37374    37232    37104    37029    36952    36912    36946    37011 
   37054    37037    36951    36854    36809    36794    36775    36776 
   36806    36818    36749    36624    36557    36574    36592    36606 
   36639    36594    36435    36303    36276    36269    36231    36243 
   36376    36505    36449    36275    36108    35917    35727    35665 
   35753    35918    36014    35917    35715    35570    35518    35549 
   35628    35686    35715    35744    35728    35615    35499    35470 
   35421    35302    35285    35421    35537    35557    35571    35603 
   35623    35660    35732    35815    35929    36078    36214    36315 
   36390    36450    36510    36576    36646    36754    36966    37211 
   37316    37281    37240    37219    37197    37178    37163    37168 
   37166    37085    36936    36819    36781    36783    36778    36778 
   36815    36829    36753    36638    36594    36641    36705    36740 
   36780    36821    36813    36768    36717    36662    36646    36695 
   36760    36822    36881    36873    36762    36609    36516    36534 
   36651    36784    36834    36816    36794    36762    36721    36687 
   36660    36666    36721    36812    36929    37034    37103    37154 
   37211    37272    37294    37300    37391    37541    37624    37655 
   37707    37751    37760    37746    37737    37802    37890    37897 
   37910    37987    38009    37961    37918    37873    37826    37811 
   37824    37841    37829    37769    37688    37587    37443    37303 
   37220    37153    37068    36995    36935    36843    36709    36570 
   36474    36416    36323    36192    36078    35970    35864    35800 
   35777    35773    35758    35714    35671    35648    35679    35772 
   35814    35723    35603    35608    35723    35797    35811    35876 
   35977    36015    36022    36086    36229    36411    36529    36557 
   36595    36691    36801    36907    36969    36968    36986    37015 
   36983    36939    36940    36963    36972    36917    36824    36774 
   36752    36730    36734    36756    36753    36726    36724    36753 
   36769    36783    36827    36863    36853    36825    36808    36825 
   36866    36853    36762    36712    36740    36719    36637    36594 
   36594    36602    36640    36715    36768    36734    36657    36644 
   36727    36873    37007    37019    36914    36818    36792    36790 
   36803    36837    36870    36922    36995    37028    37004    36958 
   36896    36802    36705    36669    36679    36676    36620    36521 
   36454    36435    36411    36390    36356    36273    36219    36246 
   36285    36293    36272    36243    36229    36208    36213    36275 
   36294    36241    36187    36130    36080    36068    36048    35997 
   35966    35994    36061    36092    36081    36082    36082    36065 
   36068    36119    36213    36300    36334    36325    36294    36249 
   36204    36188    36225    36272    36263    36230    36251    36308 
   36373    36452    36514    36516    36475    36454    36489    36566 
   36660    36744    36803    36871    36956    36991    36995    37046 
   37126    37214    37329    37456    37569    37661    37721    37716 
   37657    37629    37646    37638    37655    37752    37869    37984 
   38051    37994    37902    37906    37986    38041    38038    38027 
   38018    37981    37963    37980    37954    37888    37861    37882 
   37901    37904    37874    37759    37612    37533    37502    37466 
   37392    37251    37124    37108    37129    37065    36943    36839 
   36748    36651    36582    36573    36628    36691    36676    36596 
   36549    36555    36526    36422    36335    36349    36413    36443 
   36450    36471    36454    36355    36237    36189    36235    36314 
   36349    36362    36392    36357    36210    36058    35996    36011 
   36031    36033    36068    36094    36033    35978    36032    36111 
   36115    36095    36138    36197    36206    36252    36354    36375 
   36299    36244    36269    36328    36310    36241    36273    36398 
   36494    36544    36586    36619    36618    36584    36606    36716 
   36805    36853    36925    36977    36948    36888    36891    36931 
   36915    36887    36912    36951    37000    37039    36983    36871 
   36809    36810    36841    36881    36918    36946    36952    36938 
   36920    36889    36857    36840    36826    36843    36942    37084 
   37203    37279    37312    37316    37322    37356    37438    37580 
   37715    37721    37623    37572    37609    37638    37628    37634 
   37664    37685    37667    37578    37485    37512    37596    37586 
   37505    37432    37359    37292    37270    37296    37317    37289 
   37245    37195    37104    37009    36960    36964    37017    37034 
   36962    36921    36926    36852    36763    36781    36827    36820 
   36799    36765    36681    36581    36542    36583    36648    36666 
   36618    36556    36493    36403    36340    36349    36387    36415 
   36410    36353    36274    36230    36202    36125    36025    36016 
   36085    36102    36058    36003    35902    35813    35833    35892 
   35936    35986    35997    35947    35889    35902    36009    36125 
   36212    36293    36343    36353    36367    36383    36386    36400 
   36414    36418    36482    36614    36701    36685    36645    36666 
   36741    36803    36841    36901    36972    37008    37043    37135 
   37260    37313    37239    37123    37079    37126    37213    37274 
   37304    37333    37330    37285    37263    37301    37350    37360 
   37335    37311    37308    37314    37292    37222    37135    37090 
   37105    37146    37160    37110    37019    36930    36879    36890 
   36921    36911    36838    36719    36621    36608    36643    36663 
   36651    36594    36501    36441    36446    36445    36404    36422 
   36519    36551    36502    36462    36413    36345    36328    36363 
   36390    36407    36429    36404    36316    36273    36323    36380 
   36420    36486    36522    36470    36410    36435    36540    36644 
   36693    36728    36776    36774    36719    36686    36713    36785 
   36874    36942    36936    36848    36773    36770    36793    36831 
   36900    36954    36946    36909    36919    36975    37003    36995 
   36991    37007    37077    37175    37200    37172    37171    37161 
