Origin Time       2025/01/13 21:19:00
Lat.              31.8
Long.             131.6
Depth. (km)       30
Mag.              6.9
Station Code      KGS009
Station Lat.      31.7368
Station Long.     130.7613
Station Height(m) 4
Record Time       2025/01/13 21:19:46
Sampling Freq(Hz) 100Hz
Duration Time(s)  191
Dir.              E-W
Scale Factor      3920(gal)/6182761
Max. Acc. (gal)   41.569
Last Correction   2025/01/13 21:19:46
Memo.             
[...]
   -9065   -11805   -13957   -15204   -15316   -14309   -12263    -9083 
   -4961     -718     2690     4735     5269     4182     1335    -3314 
   -9469   -16225   -22331   -26972   -30110   -32131   -33653   -35376 
  -37472   -39479   -40981   -41805   -41779   -40997   -39925   -38831 
  -37597   -36000   -33867   -31224   -28223   -24895   -21344   -18206 
  -16498   -16745   -18515   -20892   -23056   -24721   -26240   -27929 
  -29587   -30707   -30783   -29643   -27573   -25227   -23495   -23039 
  -23866   -25334   -26295   -25728   -23649   -21100   -19171   -18271 
  -18125   -18080   -17441   -15903   -13655   -11077    -8627    -6714 
   -5425    -4624    -4105    -3660    -3327    -3506    -4663    -6861 
   -9564   -11909   -13181   -13192   -12236   -10734    -9077    -7683 
   -6811    -6400    -6300    -6481    -6930    -7574    -8383    -9301 
  -10003    -9924    -8576    -5924    -2500      999     4128     6739 
    8938    10988    13041    15028    16974    19099    21485    24010 
   26450    28393    29375    29174    27849    25558    22463    18888 
   15393    12425    10096     8394     7299     6622     6078     5529 
    5129     5357     6577     8517    10516    12157    13369    14117 
   14412    14509    14652    14871    15171    15539    15739    15444 
   14618    13549    12600    12068    11945    11883    11632    11240 
   10800    10300     9641     8587     6768     4072      896    -2220 
   -4895    -6882    -8110    -8658    -8634    -8269    -8079    -8787 
  -10832   -13899   -17223   -20196   -22483   -24124   -25650   -27704 
  -30564   -34008   -37488   -40525   -43032   -45257   -47438   -49466 
  -51044   -51960   -52093   -51502   -50416   -49081   -47761   -46742 
  -46321   -46543   -46982   -46949   -45784   -43213   -39580   -35555 
  -31622   -27952   -24681   -22164   -20860   -21002   -22564   -25412 
  -29106   -32727   -35308   -36523   -36791   -36659   -36367   -35883 
  -34826   -32648   -29339   -25631   -22274   -19363   -16509   -13446 
  -10366    -7768    -6055    -5209    -4762    -4140    -3159    -2163 
   -1508    -1095     -730     -581    -1066    -2486    -4577    -6428 
   -7047    -6108    -4153    -1975      -41     1534     2927     4299 
    5499     6320     6738     6816     6629     6259     5756     5228 
    4983     5259     5838     6327     6656     7059     7759     8793 
   10030    11199    12021    12543    13139    14040    14987    15332 
   14550    12723    10429     8312     6779     5881     5407     5103 
    4705     3861     2293      -48    -2966    -6047    -8933   -11535 
  -13872   -15925   -17635   -19000   -20124   -20967   -21208   -20555 
  -19038   -17065   -15211   -13794   -12851   -12340   -12042   -11652 
  -11032   -10245    -9483    -8855    -8183    -7151    -5528    -3273 
    -603     2054     4119     5070     4908     4248     3752     3656 
    3762     3618     2854     1432     -370    -2148    -3747    -5276 
   -6840    -8455    -9916   -10792   -10774    -9954    -8750    -7716 
   -7343    -7635    -8008    -7749    -6486    -4428    -2196     -377 
     710     1010      720      243      -13      120      461      761 
    1000     1177     1226     1260     1438     1828     2295     2449 
    2001      849     -869    -2587    -3815    -4462    -4639    -4682 
   -5048    -6015    -7557    -9311   -10752   -11542   -11700   -11625 
  -11971   -13212   -15271   -17649   -19770   -21338   -22434   -23289 
  -23980   -24165   -23276   -21055   -17730   -13956   -10555    -8064 
   -6668    -6497    -7663    -9961   -12857   -15756   -18082   -19572 
  -20463   -21144   -21911   -22950   -24254   -25567   -26613   -27423 
  -28265   -29345   -30695   -32118   -33272   -33873   -33910   -33702 
  -33585   -33713   -34183   -34975   -35876   -36627   -37067   -37105 
  -36724   -36002   -35027   -33892   -32688   -31409   -29838   -27506 
  -24041   -19608   -14860   -10514    -7082    -4809    -3659    -3453 
   -3817    -4002    -3290    -1503     1009     3662     5960     7613 
    8517     8676     8085     6862     5342     3880     2679     1782 
    1131      620      216       13      195     1032     2694     4927 
    7065     8466     8920     8631     7985     7323     6782     6293 
    5635     4589     3111     1200    -1132    -3626    -5804    -7201 
   -7639    -7331    -6667    -5983    -5375    -4680    -3741    -2558 
   -1269      -88      770     1182     1108      532     -445    -1629 
   -2790    -3622    -3988    -4002    -3780    -3428    -3050    -2649 
   -2085    -1203      -90      891     1228      401    -1802    -4978 
   -8138   -10469   -12094   -13607   -15189   -16618   -17658   -18119 
  -17947   -17306   -16321   -14808   -12424    -9098    -5108     -828 
    3314     6944     9922    12170    13625    14400    14703    14642 
   14206    13337    12015    10443     9147     8615     8890     9486 
    9672     8949     7295     5105     2952     1229     -136    -1565 
   -3440    -5808    -8277   -10277   -11460   -11775   -11492   -11117 
  -11107   -11667   -12624   -13467   -13691   -13068   -11722   -10016 
   -8392    -7279    -6847    -6773    -6585    -6241    -6135    -6636 
   -7799    -9377   -10988   -12353   -13410   -14273   -15128   -16124 
  -17308   -18660   -20101   -21498   -22766   -23854   -24777   -25735 
  -27016   -28828   -31143   -33602   -35768   -37311   -37968   -37628 
  -36474   -34935   -33380   -31897   -30462   -29122   -27968   -27192 
  -27054   -27573   -28401   -29166   -29743   -30147   -30509   -31095 
  -32164   -33838   -35980   -38208   -40155   -41627   -42444   -42375 
  -41308   -39309   -36531   -33172   -29468   -25671   -22001   -18714 
  -16084   -14167   -12755   -11566   -10356    -8895    -6980    -4570 
   -1858      927     3628     6001     7767     8856     9446     9844 
   10324    10964    11691    12433    13145    13909    14901    16162 
   17539    18776    19599    19831    19404    18360    16861    15167 
   13604    12455    11772    11414    11228    11055    10758    10302 
    9634     8667     7526     6535     5945     5776     5830     5782 
    5375     4627     3885     3562     3796     4472     5365     6163 
    6514     6145     4992     3233     1108    -1226    -3671    -6166 
   -8647   -10933   -12789   -14143   -15087   -15716   -16052   -16130 
  -16125   -16267   -16658   -17219   -17748   -18100   -18367   -18734 
  -19227   -19594   -19419   -18381   -16449   -13983   -11529    -9363 
   -7447    -5760    -4433    -3677    -3664    -4454    -5926    -7773 
   -9747   -11855   -14234   -16934   -19786   -22418   -24429   -25602 
  -25823   -24958   -23012   -20214   -17061   -14265   -12322   -11195 
  -10524    -9878    -8821    -7160    -5137    -3164    -1541     -473 
     -67     -321    -1137    -2388    -3950    -5692    -7608    -9749 
  -11994   -14123   -15908   -17096   -17534   -17275   -16529   -15557 
  -14478   -13177   -11502    -9402    -6896    -4147    -1575      295 
    1176     1105      337     -643    -1326    -1604    -1760    -2088 
   -2668    -3451    -4396    -5480    -6636    -7627    -8150    -8068 
   -7433    -6448    -5401    -4500    -3815    -3280    -2704    -1944 
   -1115     -524     -492    -1255    -2835    -5040    -7613   -10294 
  -12734   -14608   -15970   -17108   -18127   -18944   -19359   -19089 
  -17975   -16116   -13846   -11646    -9888    -8549    -7336    -6051 
   -4748    -3594    -2752    -2411    -2783    -4008    -6169    -9264 
  -13009   -16796   -20008   -22405   -24113   -25374   -26371   -27067 
  -27265   -26904   -26190   -25467   -24878   -24177   -22960   -20978 
  -18272   -15202   -12286    -9990    -8612    -8114    -8156    -8309 
   -8163    -7521    -6542    -5556    -4733    -4116    -3827    -3933 
   -4337    -4960    -5788    -6822    -8087    -9577   -11194   -12787 
  -14184   -15211   -15777   -15901   -15730   -15435   -14985   -14222 
  -13112   -11768   -10404    -9289    -8574    -8136    -7705    -7071 
   -6050    -4467    -2335       69     2335     3998     4552     3606 
    1135    -2427    -6414   -10230   -13411   -15645   -16882   -17355 
  -17331   -16886   -16038   -14834   -13251   -11348    -9389    -7645 
   -6133    -4677    -3311    -2355    -2022    -2241    -2876    -3836 
   -5072    -6571    -8160    -9538   -10567   -11306   -11927   -12517 
  -12945   -13021   -12594   -11561    -9970    -8022    -5925    -3738 
   -1466      690     2420     3608     4218     4150     3505     2648 
    1923     1467     1219     1029      802      628      645      895 
    1389     2009     2501     2704     2533     1917      845     -577 
   -2057    -3163    -3505    -2976    -1706      179     2523     4981 
    7085     8549     9397     9715     9497     8637     6981     4545 
    1638    -1262    -3719    -5507    -6578    -6976    -6850    -6466 
   -6192    -6462    -7626    -9689   -12256   -14797   -16959   -18725 
  -20359   -22165   -24242   -26465   -28624   -30500   -31850   -32431 
  -32082   -30783   -28677   -26042   -23186   -20383   -17803   -15536 
  -13763   -12619   -11998   -11661   -11348   -10913   -10272    -9355 
   -8228    -7032    -5900    -5030    -4572    -4518    -4835    -5545 
   -6654    -8093    -9705   -11327   -12808   -14025   -14939   -15613 
  -16181   -16767   -17469   -18279   -19006   -19503   -19678   -19446 
  -18945   -18408   -17957   -17606   -17326   -17205   -17373   -17853 
  -18572   -19356   -20000   -20402   -20570   -20562   -20453   -20185 
  -19506   -18269   -16556   -14521   -12310   -10058    -7923    -6166 
   -5081    -4772    -5100    -5789    -6506    -7029    -7266    -7110 
   -6571    -5817    -4973    -4191    -3702    -3667    -4101    -4875 
   -5730    -6342    -6512    -6336    -6080    -5927    -5954    -6280 
   -7009    -8142    -9572   -10974   -11910   -12133   -11632   -10545 
   -9152    -7760    -6494    -5270    -3898    -2201     -141     2177 
    4494     6502     8061     9139     9779    10110    10204    10038 
    9549     8676     7428     5859     4088     2191       90    -2325 
   -5117    -8316   -11739   -14964   -17655   -19725   -21238   -22266 
  -22737   -22508   -21516   -19738   -17217   -14169   -10899    -7704 
   -4756    -1988      738     3417     5907     7976     9413    10213 
   10602    10842    11092    11390    11695    11979    12320    12846 
   13514    14056    14182    13743    12711    11176     9390     7659 
    6157     4927     3978     3269     2654     1873      652    -1155 
   -3501    -6218    -9107   -11984   -14738   -17341   -19824   -22317 
  -24922   -27544   -29973   -32061   -33711   -34873   -35643   -36143 
  -36417   -36531   -36538   -36497   -36500   -36536   -36563   -36594 
  -36611   -36519   -36204   -35529   -34301   -32396   -29915   -27126 
  -24369   -21948   -20007   -18491   -17333   -16551   -16158   -16067 
  -15959   -15435   -14352   -12790   -10916    -8940    -7094    -5583 
   -4489    -3771    -3309    -2903    -2366    -1628     -754       59 
     494      348     -262    -1118    -2098    -3175    -4389    -5649 
   -6733    -7469    -7740    -7466    -6664    -5501    -4171    -2733 
   -1129      731     2900     5366     7969    10385    12324    13649 
   14391    14724    14810    14750    14689    14799    15188    15828 
   16556    17193    17658    17910    17867    17409    16385    14738 
   12636    10403     8398     6794     5402     3900     2110      -42 
   -2588    -5419    -8312   -11132   -13863   -16422   -18654   -20524 
  -22168   -23824   -25703   -27832   -30033   -32043   -33647   -34719 
  -35162   -34908   -33905   -32134   -29671   -26704   -23541   -20576 
  -18141   -16343   -15035   -13954   -12967   -12189   -11871   -12193 
  -13144   -14603   -16535   -18998   -22038   -25623   -29555   -33599 
  -37626   -41475   -44860   -47505   -49293   -50285   -50679   -50735 
  -50615   -50281   -49561   -48241   -46078   -42957   -39066   -34758 
  -30376   -26132   -22085   -18270   -14688   -11309    -8220    -5537 
   -3321    -1585     -227      849     1639     2146     2403     2491 
    2518     2521     2414     2065     1401      470     -598    -1707 
   -2825    -3956    -5176    -6559    -8085    -9671   -11198   -12467 
  -13247   -13309   -12450   -10574    -7705    -3983      323     4847 
    9254    13348    17007    20126    22677    24666    26054    26767 
   26776    26131    24900    23195    21269    19454    17916    16579 
   15283    13841    12004     9562     6441     2718    -1337    -5344 
   -8990   -12070   -14481   -16230   -17388   -18019   -18158   -17846 
  -17054   -15671   -13691   -11214    -8322    -5043    -1353     2650 
    6703    10530    13915    16629    18416    19174    19020    18189 
   17028    15874    14905    14150    13581    13126    12531    11465 
    9868     7957     6057     4475     3419     2984     3063     3315 
    3370     3019     2257     1295      417     -258     -773    -1146 
   -1270     -962     -100     1282     2939     4483     5537     5823 
    5279     4129     2672     1127     -399    -1939    -3580    -5327 
   -7115    -8876   -10536   -12066   -13440   -14552   -15272   -15528 
  -15299   -14560   -13296   -11650   -10001    -8894    -8795    -9852 
  -11985   -15056   -18806   -22834   -26815   -30596   -34089   -37304 
  -40359   -43354   -46322   -49317   -52450   -55812   -59357   -62909 
  -66271   -69269   -71719   -73426   -74179   -73869   -72588   -70435 
  -67437   -63687   -59350   -54667   -49968   -45504   -41346   -37513 
  -34048   -30992   -28337   -25949   -23650   -21299   -18756   -16099 
  -13657   -11729   -10496   -10028   -10289   -11233   -12882   -15199 
  -17941   -20692   -22988   -24541   -25321   -25434   -25057   -24310 
  -23187   -21650   -19548   -16649   -12917    -8504    -3625     1518 
    6801    12101    17295    22288    26899    30891    34025    36070 
   36923    36676    35541    33750    31519    29031    26388    23622 
   20731    17759    14892    12366    10354     9023     8567     9083 
   10461    12338    14233    15825    17042    17970    18765    19507 
   20147    20517    20335    19357    17473    14723    11402     7998 
    4918     2302       50    -2035    -4128    -6274    -8343   -10149 
  -11615   -12798   -13784   -14616   -15189   -15197   -14320   -12398 
   -9476    -5793    -1758     2150     5578     8314    10305    11706 
   12718    13493    14115    14536    14631    14215    13094    11271 
    9057     6982     5477     4631     4219     3756     2760      998 
   -1518    -4533    -7660   -10520   -12789   -14324   -15152   -15392 
  -15215   -14799   -14339   -14008   -13955   -14297   -14999   -15930 
  -16956   -18001   -19128   -20398   -21765   -23156   -24392   -25173 
  -25247   -24502   -22980   -20964   -18975   -17507   -16823   -17013 
  -17948   -19243   -20482   -21434   -22058   -22433   -22781   -23330 
  -24175   -25343   -26799   -28414   -30123   -31942   -33886   -35997 
  -38290   -40722   -43247   -45743   -47979   -49724   -50826   -51261 
  -51118   -50588   -49905   -49291   -48842   -48373   -47516   -45903 
  -43294   -39712   -35356   -30574   -25781   -21216   -16918   -12843 
   -9010    -5532    -2484      119     2271     3910     4955     5362 
    5061     4049     2404      167    -2545    -5428    -8083   -10166 
  -11516   -12147   -12162   -11691   -10879    -9792    -8443    -6980 
   -5605    -4452    -3618    -3041    -2538    -1927     -991      457 
    2529     5269     8583    12216    15834    19167    22098    24630 
   26801    28607    29969    30804    31163    31229    31202    31200 
   31245    31362    31635    32126    32776    33340    33430    32685 
   30936    28305    25099    21656    18296    15201    12374     9781 
    7429     5344     3610     2438     2033     2380     3221     4086 
    4430     3876     2345        4    -2836    -5851    -8864   -11854 
  -14829   -17752   -20568   -23202   -25529   -27444   -28946   -30062 
  -30830   -31297   -31499   -31491   -31316   -30991   -30570   -30109 
  -29689   -29402   -29230   -29094   -28931   -28632   -28160   -27626 
  -27113   -26647   -26216   -25694   -24972   -24072   -23055   -21983 
  -20907   -19831   -18794   -17946   -17450   -17374   -17710   -18377 
  -19284   -20408   -21684   -23011   -24337   -25607   -26795   -27899 
  -28852   -29579   -30062   -30396   -30752   -31230   -31855   -32597 
  -33326   -33893   -34203   -34208   -33944   -33502   -32951   -32334 
  -31577   -30502   -28936   -26766   -23976   -20689   -17136   -13590 
  -10292    -7401    -4935    -2815    -1001      486     1630     2363 
    2583     2253     1393      124    -1205    -2193    -2678    -2737 
   -2549    -2246    -1873    -1414     -728      382     1933     3730 
    5579     7403     9205    11047    12986    15050    17304    19782 
   22463    25316    28188    30769    32730    33834    34019    33337 
   31925    30013    27820    25503    23145    20831    18733    17036 
   15880    15251    14956    14795    14600    14241    13651    12892 
   12089    11272    10455     9763     9409     9565    10200    11185 
   12369    13509    14348    14753    14777    14529    14020    13234 
   12109    10514     8405     5831     2955       18    -2846    -5615 
   -8379   -11317   -14434   -17538   -20504   -23327   -25980   -28424 
  -30675   -32768   -34765   -36627   -38190   -39390   -40321   -41101 
  -41663   -41847   -41740   -41516   -41157   -40604   -39956   -39372 
  -38843   -38298   -37824   -37510   -37197   -36707   -36185   -35811 
  -35564   -35460   -35497   -35546   -35539   -35548   -35692   -35978 
  -36344   -36791   -37320   -37886   -38493   -39125   -39657   -39928 
  -39797   -39192   -38186   -36866   -35265   -33516   -31824   -30275 
  -28860   -27558   -26298   -25036   -23835   -22683   -21404   -19832 
  -17904   -15627   -13061   -10361    -7710    -5275    -3270    -1894 
   -1244    -1281    -1817    -2602    -3441    -4188    -4669    -4761 
   -4461    -3756    -2659    -1279      378     2383     4602     6813 
    8981    11092    13058    14800    16192    17166    17764    17983 
   17915    17820    17907    18161    18421    18511    18218    17404 
   16111    14472    12730    11109     9718     8635     7804     7080 
    6434     5871     5398     5050     4773     4461     4082     3586 
    2934     2205     1464      742      152     -131       17      624 
    1621     2775     3803     4548     4885     4697     4019     3000 
    1823      717     -175     -873    -1336    -1494    -1433    -1224 
    -924     -647     -490     -574    -1018    -1902    -3216    -4761 
   -6344    -7867    -9280   -10630   -11929   -13094   -14093   -14943 
  -15697   -16472   -17282   -17972   -18403   -18592   -18673   -18807 
  -19069   -19413   -19714   -19866   -19883   -19839   -19811   -19865 
  -19984   -20087   -20073   -19833   -19296   -18520   -17698   -17087 
  -16932   -17315   -18070   -18917   -19673   -20326   -20945   -21660 
  -22572   -23680   -24988   -26451   -27929   -29343   -30654   -31722 
  -32438   -32789   -32739   -32267   -31342   -29884   -27900   -25467 
  -22691   -19718   -16723   -13953   -11536    -9407    -7569    -6016 
