Origin Time       2025/01/13 21:19:00
Lat.              31.8
Long.             131.6
Depth. (km)       30
Mag.              6.9
Station Code      KGS013
Station Lat.      31.5973
Station Long.     130.9938
Station Height(m) 118
Record Time       2025/01/13 21:19:44
Sampling Freq(Hz) 100Hz
Duration Time(s)  118
Dir.              U-D
Scale Factor      3920(gal)/6182761
Max. Acc. (gal)   11.013
Last Correction   2025/01/13 21:19:44
Memo.             
[...]
   24092    24314    24102    23568    22727    21695    21033    21485 
   23035    24670    25398    24998    23820    22433    21452    21240 
   21527    21549    20846    19775    18933    18537    18772    19959 
   21848    23348    23646    23147    22732    22692    22848    23131 
   23621    24339    25110    25619    25706    25289    24383    23587 
   23618    24202    24321    23456    22060    20860    20179    20161 
   21073    22596    23427    22792    21637    21415    22375    23522 
   23820    22851    20885    19064    18834    20628    23424    25645 
   26292    25450    24121    23550    24199    25378    26309    26983 
   27497    27264    25358    21669    17639    15696    17729    23402 
   29473    31774    28744    22639    17624    16885    20122    23509 
   23243    19095    14470    13281    16503    21674    25342    25793 
   23961    22030    21434    22109    22959    23015    22438    22291 
   23037    23840    24113    24185    24226    24537    25413    26314 
   26849    27000    26442    25043    23015    20790    19125    18425 
   18225    17870    17348    17318    18433    20525    22418    22862 
   21666    19611    17619    16459    16775    18337    19845    20517 
   20975    22366    24904    27112    27451    26153    24641    24243 
   25025    25590    24949    23811    23768    25547    27845    28638 
   27382    25066    23173    22700    23143    23069    21886    20076 
   18275    17302    17923    19706    21555    23041    23834    23314 
   21570    19810    19490    20759    21985    21457    19281    17201 
   16879    18669    21654    24427    26143    27060    27996    29225 
   30159    30048    28560    26091    23649    22123    21836    22445 
   23030    23067    23223    24332    25939    26885    26840    26250 
   25444    24483    23234    21488    19454    17748    16964    17270 
   17943    17913    17222    16967    17675    18698    19206    19240 
   19791    21584    24077    26223    27292    26962    25729    24633 
   24035    23409    22569    22539    24423    27560    29712    29112 
   26021    22454    20466    20789    22679    24478    24593    22556 
   19563    17629    17670    19092    21008    22576    22964    22073 
   20676    19732    19811    20728    21888    23123    24347    24974 
   24747    24157    23532    22775    22232    22964    25401    28238 
   29439    27909    24082    19738    17097    17369    20045    23093 
   24076    22165    18914    16990    18167    21912    26090    28827 
   29399    28246    26543    25235    24287    23249    22393    22335 
   22793    22939    22389    21011    18758    16304    15008    15889 
   18675    21841    23966    24544    23393    21081    19278    18895 
   19237    19464    19689    20286    20917    21317    21841    23010 
   25103    27076    27440    26536    25364    24054    22967    22919 
   23902    24937    25417    25543    25283    24210    22371    20703 
   20463    21768    23296    24127    24538    24615    24077    23347 
   22922    22769    23035    23721    24041    23243    21265    18648 
   16567    15867    16093    16554    17021    17128    16894    17266 
   18887    21116    23091    24691    25800    26406    27199    28353 
   28905    28123    26532    25340    25180    25751    26243    25908 
   24626    22737    20892    20093    20753    22239    23434    23079 
   20824    18261    17386    18410    20012    20876    20686    20213 
   20441    21669    23495    25332    26829    28015    28919    28812 
   26710    23332    20952    20993    23085    25575    26514    25234 
   22908    21168    20510    20657    21876    24398    27220    28784 
   28306    25970    22776    20269    19219    19091    19419    20311 
   21544    22425    22106    20021    16810    14226    13480    14238 
   15719    17825    20398    22425    23062    22840    23159    24870 
   27535    29624    29833    28522    27337    27641    29055    29395 
   27399    24819    24037    24943    25486    24209    21389    18423 
   16989    18208    21716    25596    27478    26236    22909    19654 
   17794    17284    17957    19735    21472    21714    20658    19737 
   19603    19789    19895    20071    20615    21254    21116    19962 
   18955    19717    22827    27136    30280    30461    28208    25934 
   25567    26818    27788    27175    25530    24245    23913    23973 
   23351    21416    18764    16728    15946    16013    16829    18978 
   21858    23429    22546    19694    16069    13455    13832    17489 
   22267    25808    27314    26789    24769    22853    22685    24107 
   25224    24781    23610    23196    23883    24805    24784    23456 
   22083    22550    24939    27173    27340    25294    22340    20084 
   19340    20125    22099    24483    25969    25226    22248    19038 
   17999    19958    24039    28214    30049    28604    25385    22406 
   20292    19076    19421    21610    24110    24645    22701    20200 
   19288    20463    23292    26694    28300    26400    22338    19106 
   18372    19463    20353    19868    19070    19914    23097    27262 
   29470    27283    21527    16408    15766    19482    24712    29056 
   30845    28946    24104    19023    16348    16669    18630    20736 
   22227    22736    22311    21272    19795    18430    18206    19292 
   20909    22858    25214    27015    27252    26476    26053    26615 
   28012    29446    29213    26165    21621    18644    19454    23519 
   27859    29487    27632    23660    19402    16259    15226    16327 
   18595    21124    23162    23797    22535    19944    17679    17160 
   17992    19024    20191    21430    21786    21111    20474    20552 
   21003    21237    21256    21625    22901    25087    27435    29052 
   29602    29293    28514    27560    26488    25338    24370    23717 
   23098    22315    21494    20545    19436    18833    19273    20618 
   22435    23898    24226    23125    20662    17867    16553    17658 
   20516    23593    25398    24894    21977    18319    16754    18764 
   23261    27750    29703    27972    23934    20388    19084    19823 
   21373    22393    22524    22794    23764    24817    25659    26423 
   27137    27928    28697    29002    28705    27849    26198    23736 
   21097    19154    18658    20017    22295    23054    20835    16821 
   13276    11877    13517    17791    22510    25257    25351    23819 
   22330    22010    22752    23904    24863    24914    23880    22582 
   21873    21861    22129    22426    23191    25135    28138    30944 
   32275    31738    29602    26655    24285    23395    23130    21847 
   19049    15873    14097    14701    17312    20425    21983    21013 
   18816    17474    17469    17908    18260    18610    19017    19351 
   19383    18931    18408    19278    22909    28391    32315    31944 
   28344    25320    25543    28349    30980    31110    28129    23408 
   19634    18694    20146    22137    23295    23467    23038    22134 
   20774    18978    16648    14326    13274    13994    15752    17517 
   18474    18406    18273    19352    21611    24012    25798    26386 
   25295    23008    20691    19066    18408    18825    20303    22561 
   24285    24082    22859    23173    26205    30622    33941    34406 
   32007    28605    26358    25413    24597    23420    22127    21425 
   21928    23188    24154    23993    22573    20971    20506    21406 
   23063    24372    24143    22402    20458    19865    21727    25466 
   28603    29045    27103    24654    22958    22234    22506    23658 
   25059    25821    25529    24103    21438    18568    17643    19091 
   20969    21469    20560    19929    20860    22602    23812    23619 
   21753    19342    18242    19048    20574    21061    19902    18006 
   16399    15776    16541    18072    19302    19540    18540    17313 
   17688    20092    22997    24971    26142    26923    27147    27216 
   27749    28419    28713    28513    27860    26752    25077    23404 
   22531    22216    21938    21814    22354    23442    24092    23886 
   23066    21817    20582    19894    20234    21505    22492    22412 
   21837    21880    23236    25252    26903    27870    27972    27565 
   27100    26271    25247    24353    23282    22116    21141    20182 
   19070    18101    17797    18304    19558    21435    23055    23326 
   22316    20869    19623    19083    19667    21184    22445    22125 
   20504    19383    20105    22297    24453    25435    25070    23833 
   22173    20107    17839    15794    14266    14039    15978    19422 
   22385    23441    22677    21575    22009    24319    26785    27540 
   26474    25167    25222    26676    28095    28279    27786    28270 
   30397    33169    34483    32393    27340    22157    19015    17943 
   18092    18737    19447    20123    20591    20645    20605    20841 
   21089    21073    21095    21204    20845    20052    19588    19804 
   20593    21816    23028    23435    22824    22330    23300    25409 
   26795    26103    23966    22145    21546    21669    21604    20685 
   18994    18052    19614    23278    26741    28290    28095    27102 
   25450    22843    19931    18120    18256    20011    22222    23610 
   23306    21294    18789    17553    18249    20058    21907    23136 
   23186    21640    19027    17049    16952    18028    18860    19215 
   19615    20106    20511    20657    20054    18857    18718    21055 
   24618    26269    24625    21353    18922    18862    21529    25771 
   29067    29395    27210    24637    23189    23273    24433    25239 
   24164    20773    16180    12718    12398    15492    20956    27029 
   31107    31112    27615    23297    20684    21000    23998    27997 
   30434    29523    25984    22414    20719    20838    22007    23993 
   26458    28287    28227    26037    23055    21112    20879    21928 
   23661    25345    25969    25013    23371    22783    23846    25504 
   26855    27804    27772    25813    22532    20281    20560    22521 
   24514    25563    25388    24215    22720    21612    21143    21162 
   21047    20097    18533    16919    15474    14867    16018    18786 
   21538    22319    20708    18038    16003    15725    17420    20435 
   23554    25157    24240    21708    19517    18873    19932    22149 
   24657    26811    28144    28174    26988    25775    25945    27637 
   29748    31181    31154    29083    25664    22949    22253    23201 
   24652    25431    24811    22910    20540    18656    17794    17969 
   18708    19152    18767    18092    18517    20467    21913    20616 
   17536    15857    17302    21369    26507    30091    29623    25574 
   21430    20332    22431    25472    27347    27723    27201    26146 
   24979    24329    24280    24513    25157    26376    27449    27184 
   25207    22527    20845    21454    24094    26584    26578    23933 
   20597    18308    17496    17806    18356    18564    18993    20283 
   22014    23123    22840    21620    20977    21790    23382    24148 
   22915    20235    17873    17216    18814    22176    25366    26253 
   24430    21382    19272    19379    21195    23072    23532    22126 
   19877    18873    20325    23016    24248    22406    18678    16046 
   16493    19633    23408    25612    25362    23521    21926    21833 
   22737    23660    24784    26244    27058    26400    24752    23598 
   23939    25110    25556    24478    22384    20545    20065    21118 
   22692    23335    22744    21980    21714    21328    19923    17607 
   15529    14787    15681    17842    20266    21384    20559    19249 
   19334    21195    23739    25118    23963    20636    16740    13851 
   13361    15979    20385    23759    24267    22441    20067    18766 
   19878    23635    27818    29245    26704    21634    16962    15361 
   17401    21376    24774    26080    26184    27126    29419    31955 
   33442    33367    32430    31628    30618    27808    23024    18623 
   16602    16740    17685    18189    18416    19853    22978    26563 
   28947    28986    27385    26535    27246    27383    24965    20864 
   17463    16307    17700    20734    23641    25176    25546    26176 
   28253    31569    34895    36627    35629    32270    28168    24842 
   22723    21306    20323    20306    21709    24061    25993    26142 
   24553    22904    22650    23227    22870    20786    17662    14712 
   12901    12277    12189    12465    13367    15023    17582    20837 
   23868    25749    25973    24242    21183    18614    17906    19028 
   20843    21969    22100    21885    22375    24850    28939    32018 
   32204    30117    27189    24358    22372    21703    22346    23904 
   25194    24784    22455    19166    16504    16429    19304    22759 
   24536    24787    24730    25717    28677    32050    32704    29969 
   26570    25431    26934    29412    30969    30396    27431    22939 
   18774    16658    17067    19506    22691    24321    23134    20693 
   19241    19558    21060    22436    22317    20018    16275    12601 
    9879     8328     8245    10016    13278    17047    20704    23934 
   26060    26026    23620    20329    18332    19223    22744    26296 
   27100    24881    22451    23124    26656    29662    30510    30593 
   30507    29497    28280    27787    27551    27580    28144    28501 
   27717    25356    22132    20094    20715    23005    24514    24037 
   21879    18511    14644    10917     7497     5227     5366     7892 
   11596    15022    17037    17866    19233    22226    25779    28148 
   28380    26086    21974    18649    18750    22161    26042    27282 
   25030    21339    19066    19447    21560    23351    23372    21760 
   20003    19633    20517    21204    21085    20857    20809    20477 
   19800    19103    18819    19692    21958    24730    26968    28261 
   28668    28390    27615    26715    25988    25771    27309    31382 
   36083    38031    35450    29548    23331    19180    17769    18429 
   19452    19385    18815    19764    23156    27480    30301    30558 
   28820    26351    24204    22795    22429    23228    24080    23264 
   20747    18381    17151    16531    16998    19603    23403    26593 
   28422    28183    24729    18485    12923    11835    14728    17935 
   19989    22040    24284    25490    25183    24227    23673    23897 
   24453    24569    23392    20069    15410    12120    11612    12932 
   15307    19014    23445    26414    26394    24659    24450    27625 
   32342    35053    34144    30672    27299    26959    30109    33881 
   35613    34989    32446    29024    27019    27440    28570    28568 
   27068    24106    19470    14106    10843    11740    15976    21272 
   25448    26652    24272    20268    18079    19078    21263    22076 
   20905    18471    15539    13144    12726    14214    15468    15967 
   18168    22928    27720    30076    29133    25102    19803    16712 
   18823    25759    33062    35635    32755    28063    25094    24734 
   25383    24904    22564    19215    16829    16468    16690    15835 
   13932    11653     9686     8677     9058    11507    15766    19944 
   22575    23387    23148    23194    24385    27289    30970    32856 
   32081    30115    28373    26775    25521    26383    28913    30215 
   29407    27682    26034    24233    21908    20219    20440    22611 
   25627    27492    26660    22487    16593    13021    13390    16382 
   20634    23781    24331    23868    23433    22280    20872    20498 
   20399    19235    18128    18250    19189    21262    23683    23802 
   21326    18306    16878    18494    22247    25416    25706    22707 
   18756    16619    16621    17885    20061    22808    25184    25678 
   23711    21091    20240    21618    23794    25199    25061    23695 
   22544    22082    20828    18209    15760    15297    17652    21581 
   24354    25155    25593    26172    25686    24681    25552    28177 
   30198    31547    33299    34284    33045    30606    29435    30626 
   33207    35222    34488    30528    25616    22673    23095    25738 
   27535    26312    22981    20798    22323    26695    29786    27901 
   21657    15266    12377    13278    15740    18132    20415    22335 
   22811    21102    17624    14337    13836    16843    21480    25151 
   26215    24568    21172    17670    16394    18421    21916    24519 
   25810    25850    23789    19654    15494    13474    13986    15785 
   17251    17731    17641    17432    17368    18143    20522    23926 
   26566    27399    26716    25095    22955    20894    19830    20512 
   22954    26418    29331    29801    27691    24962    23529    24407 
   27364    30589    32111    30941    27560    24151    22882    23775 
   25047    25381    24626    22669    20060    18313    17848    17628 
   16973    16348    16652    18088    19917    21443    22525    22785 
   21773    20369    20074    21231    23307    25572    26904    26365 
   24196    21590    19676    18940    19285    20656    23036    25378 
   26129    25137    23422    21906    21539    22800    24424    24188 
   21275    17219    14091    12603    12760    14825    18622    22747 
   25393    25784    24212    21716    19903    19625    20470    21590 
   22153    21941    21435    21164    21732    23630    26459    28855 
   29581    28832    27911    27828    28649    29576    29645    28567 
   27097    26733    28237    30143    29486    25105    20037    18547 
   20962    23784    23976    21031    16774    14292    15165    18015 
   20220    20341    18984    17643    17222    17708    18769    19715 
   19278    17451    16252    17219    20123    23715    26311    26390 
   23998    21769    22452    25596    28709    30056    29517    28115 
   26769    25697    24697    23419    22158    22128    23945    26181 
   26765    25465    23315    20970    19104    18543    19034    19497 
   19456    18831    17304    15375    14963    17380    21493    24973 
   26292    25129    22277    19638    19206    21432    24531    26020 
   25743    25893    27442    28917    28993    28027    26656    25122 
   24365    25551    28103    29729    29159    27788    27462    27980 
   27829    26204    23675    21466    20428    20566    21029    20685 
   19241    17798    17624    18520    19436    20019    20396    20447 
   19771    18052    16036    15666    17977    21629    24524    25621 
   25013    23595    22477    22325    23007    23705    23674    22846 
   21910    21453    21024    20327    20287    21423    22794    23586 
   23974    23885    22847    21260    20322    20885    22739    24591 
   25128    24241    22850    22034    22655    24611    26385    26518 
   24539    20768    16769    14416    14323    16183    18885    20613 
   20459    19020    17216    15617    14617    14554    15479    16691 
   17419    17884    18575    19393    20276    21690    23546    24374 
   23113    20847    19540    20039    21589    22756    22648    21216 
   19353    18637    19719    21563    22830    23418    24440    26449 
   28509    29700    29981    29448    28315    27034    25797    24920 
   24947    25674    26417    26700    26380    26188    27038    28547 
   29400    28681    26429    23656    21991    22337    23886    24963 
