Origin Time       2025/01/13 21:19:00
Lat.              31.8
Long.             131.6
Depth. (km)       30
Mag.              6.9
Station Code      KGS023
Station Lat.      31.1990
Station Long.     130.8490
Station Height(m) 179
Record Time       2025/01/13 21:19:49
Sampling Freq(Hz) 100Hz
Duration Time(s)  120
Dir.              U-D
Scale Factor      3920(gal)/6182761
Max. Acc. (gal)   16.647
Last Correction   2025/01/13 21:19:50
Memo.             
[...]
  -18679   -18530   -19664   -21890   -23888   -24960   -25323   -25327 
  -25633   -26859   -28524   -29485   -29391   -28754   -27787   -26139 
  -23625   -20541   -17847   -16944   -18046   -19767   -21000   -21275 
  -20079   -18083   -17203   -18099   -19427   -19652   -18696   -17840 
  -18012   -18864   -19849   -20954   -22144   -23045   -23291   -23172 
  -23514   -24680   -26671   -29463   -32387   -34275   -34317   -32698 
  -30631   -28837   -26883   -24876   -23762   -23553   -23101   -21718 
  -20035   -19014   -18836   -19510   -21531   -24820   -28155   -30434 
  -31433   -31195   -29762   -27427   -24804   -22836   -22181   -22520 
  -23156   -23638   -23553   -22620   -21074   -19621   -18888   -19074 
  -20020   -21017   -21176   -20450   -19423   -18687   -19028   -20858 
  -23378   -25184   -25488   -24532   -23086   -21711   -20503   -19256 
  -17678   -15573   -13235   -11498   -10941   -11683   -14079   -18340 
  -23502   -27816   -30313   -31527   -32373   -33101   -33775   -34414 
  -34597   -33980   -32853   -31896   -31451   -31098   -30282   -28709 
  -26060   -22383   -18603   -16035   -15348   -15807   -15967   -15307 
  -14390   -13661   -13175   -13236   -14389   -16453   -18336   -19488 
  -20537   -21975   -23431   -24495   -25217   -25749   -26280   -27093 
  -28308   -29694   -30794   -31363   -31404   -30841   -29824   -28822 
  -27905   -26788   -25493   -24100   -22169   -19174   -15619   -13070 
  -12640   -14043   -16290   -18493   -19991   -20640   -20945   -21583 
  -22939   -24704   -25887   -25802   -24944   -24506   -25173   -26667 
  -28144   -28596   -27513   -25585   -23963   -23020   -22249   -20651 
  -17508   -13503   -10513    -9902   -11653   -15093   -19365   -23444 
  -26619   -28459   -28754   -28091   -27015   -25322   -23444   -22309 
  -21784   -21225   -20543   -20139   -20540   -21786   -23410   -25224 
  -27177   -28521   -28413   -27349   -26463   -25799   -24824   -23500 
  -22150   -21127   -20443   -20112   -20618   -22123   -24042   -25567 
  -26204   -25972   -25016   -23818   -23449   -24119   -24745   -24643 
  -24087   -23424   -22636   -21739   -21396   -22204   -23630   -24989 
  -26322   -27693   -28961   -29669   -29014   -26896   -24236   -21917 
  -20213   -18895   -17463   -15672   -13891   -12930   -13487   -15522 
  -18232   -20379   -20891   -20049   -19292   -19592   -21021   -23404 
  -26456   -29544   -31920   -33198   -33249   -31832   -28969   -25713 
  -23605   -23041   -23058   -22484   -20664   -17781   -14624   -12007 
  -10581   -10569   -11617   -13387   -15706   -18032   -19912   -21573 
  -23317   -25147   -26990   -28670   -30014   -30967   -31432   -31234 
  -30390   -29070   -27057   -24146   -21066   -18556   -16233   -13708 
  -11666   -10974   -11614   -12853   -14326   -16570   -19955   -23838 
  -27450   -30735   -33697   -35663   -35788   -33900   -30690   -27277 
  -24586   -23216   -23243   -23869   -23996   -23251   -22249   -21829 
  -22242   -23173   -23980   -24013   -23169   -21796   -20236   -18899 
  -18225   -18330   -19187   -21008   -23858   -27247   -30303   -32155 
  -32493   -31822   -30957   -30448   -30079   -28809   -25678   -20726 
  -15272   -11114    -9083    -8954   -10087   -11754   -13738   -16075 
  -18333   -20104   -21253   -21686   -21758   -22099   -22884   -23825 
  -24650   -25522   -26594   -27452   -27815   -27778   -27218   -25988 
  -24280   -22569   -21234   -20162   -19146   -18283   -17788   -17704 
  -17819   -18199   -19300   -21185   -23423   -25578   -27322   -28396 
  -28892   -29608   -31151   -33173   -35213   -36715   -36689   -34671 
  -31181   -27495   -25033   -24146   -24221   -24724   -25106   -24649 
  -23147   -21292   -19979   -19374   -19246   -19530   -19778   -19336 
  -18216   -16942   -16080   -15738   -15300   -14396   -13484   -13243 
  -14260   -16737   -19971   -22765   -24469   -25434   -26377   -27531 
  -28482   -28512   -27287   -25320   -23514   -22642   -23119   -24638 
  -26401   -27888   -29122   -30496   -32291   -34010   -34506   -32930 
  -29383   -24898   -20848   -18210   -17147   -16972   -16743   -16290 
  -16278   -17193   -18671   -19781   -19906   -19148   -17876   -16397 
  -15209   -15099   -16469   -18621   -20402   -21416   -21962   -22315 
  -22689   -23200   -23582   -23675   -23893   -24648   -25809   -26963 
  -27879   -28463   -28589   -28402   -28322   -28482   -28501   -27838 
  -26417   -24839   -23713   -23090   -22863   -23076   -23556   -23722 
  -23039   -21677   -20439   -19765   -19204   -18188   -16911   -16073 
  -15959   -16354   -17220   -18632   -20200   -21314   -21717   -21602 
  -21366   -21082   -20547   -20107   -20404   -21351   -22196   -22391 
  -22109   -21798   -21546   -21350   -21471   -22064   -22905   -23642 
  -24175   -24761   -25499   -26117   -26617   -27273   -27922   -28133 
  -27826   -27341   -27057   -27007   -26969   -26834   -26578   -25907 
  -24510   -22648   -20836   -19364   -18564   -18846   -20209   -21963 
  -23224   -23716   -23653   -23177   -22449   -21693   -21030   -20564 
  -20264   -20040   -19960   -19874   -19622   -19721   -20842   -23029 
  -25685   -27850   -28929   -29165   -29129   -29182   -29223   -28956 
  -28293   -27005   -24977   -22818   -21030   -19616   -18624   -17984 
  -17527   -17242   -17129   -17450   -18650   -20638   -22649   -23878 
  -24240   -24318   -24488   -24639   -24638   -24528   -24399   -24240 
  -23959   -23559   -23234   -23268   -23627   -23719   -22919   -21218 
  -19177   -17367   -16114   -15697   -16240   -17592   -19611   -22178 
  -24971   -27322   -28423   -28036   -26667   -25205   -24456   -24375 
  -24416   -24592   -25131   -25879   -26584   -27084   -27474   -27989 
  -28227   -27328   -25262   -22913   -20720   -18470   -16577   -15938 
  -16362   -16772   -16780   -16841   -17414   -18414   -19322   -20097 
  -21309   -23138   -25158   -26842   -27861   -28246   -28105   -27452 
  -26632   -26172   -26122   -26060   -25614   -24963   -24845   -25619 
  -26538   -26455   -24864   -22140   -18909   -15454   -12192    -9860 
   -8805    -9041   -10731   -14176   -19199   -24378   -28008   -29757 
  -30216   -29789   -28666   -27141   -25744   -24792   -23984   -23135 
  -22663   -22996   -24243   -26030   -27555   -28324   -28340   -27836 
  -27081   -25906   -23794   -20606   -17069   -14695   -14564   -16336 
  -19003   -21638   -23376   -23932   -23912   -23916   -23845   -23475 
  -23034   -22942   -23372   -24047   -24683   -25560   -27063   -28988 
  -30601   -31432   -31843   -32208   -32251   -31681   -30405   -28213 
  -25128   -21775   -18950   -17107   -16380   -16657   -17663   -18981 
  -20083   -20821   -21440   -21954   -22178   -21901   -20850   -19123 
  -17376   -16274   -15922   -15773   -15322   -14909   -15284   -16708 
  -18926   -21409   -23416   -24348   -24311   -24181   -24897   -26487 
  -27928   -28222   -27277   -25649   -24079   -23039   -22258   -21111 
  -19526   -18215   -18123   -19667   -22449   -25520   -28060   -30017 
  -31750   -33173   -33985   -34073   -33090   -30577   -26677   -22148 
  -18055   -15411   -14467   -14597   -15118   -15719   -16242   -17015 
  -19017   -22690   -27115   -30967   -33493   -34312   -33284   -30843 
  -27819   -24973   -22606   -20368   -18134   -16765   -17052   -18702 
  -20966   -23310   -25269   -26274   -25863   -24145   -21874   -19723 
  -17778   -15841   -13849   -12122   -11154   -11403   -13509   -17734 
  -23141   -28280   -32123   -34244   -34829   -34330   -32983   -30783 
  -27862   -24732   -22044   -20321   -19785   -20255   -21252   -22273 
  -23148   -24098   -25319   -26670   -27656   -27628   -26295   -24009 
  -21409   -18926   -16694   -14895   -13785   -13134   -12529   -12322 
  -13026   -14501   -16473   -18481   -19800   -20242   -20117   -19811 
  -20013   -21476   -24201   -27121   -28927   -29189   -28388   -27384 
  -27091   -27932   -29406   -30395   -30078   -28707   -27226   -26125 
  -25191   -24296   -23754   -23714   -23788   -23523   -22844   -22107 
  -21731   -21658   -21648   -21641   -21188   -19727   -17670   -15967 
  -15098   -15299   -16789   -19393   -22353   -24792   -26565   -28121 
  -29557   -30615   -30969   -30305   -28784   -26851   -24848   -23296 
  -22449   -21941   -21573   -21474   -21844   -22755   -23545   -23398 
  -22380   -21045   -19951   -19525   -19960   -21240   -22792   -23792 
  -24127   -24238   -24456   -24757   -24772   -24227   -23087   -21476 
  -19868   -18825   -18640   -19182   -19614   -19262   -18711   -18880 
  -19717   -20629   -21481   -22530   -23779   -25151   -26794   -28537 
  -29674   -29612   -28303   -26379   -24999   -24988   -26178   -27650 
  -28366   -28084   -27657   -27721   -27936   -27763   -26617   -23925 
  -20205   -17151   -16224   -17429   -19367   -20590   -20850   -20910 
  -21341   -21907   -22241   -22273   -21671   -20197   -18731   -18431 
  -19202   -20142   -20821   -21473   -22465   -23894   -25591   -27242 
  -28294   -28056   -26323   -23796   -21456   -19755   -18787   -18724 
  -19631   -21180   -22877   -24437   -25791   -26887   -27620   -27869 
  -27624   -27050   -26275   -25138   -23482   -21638   -20305   -19897 
  -20042   -19962   -19349   -18539   -17852   -17257   -16856   -16995 
  -17524   -17946   -18373   -19180   -20195   -21098   -21808   -22599 
  -24256   -26947   -29526   -31172   -32183   -32698   -32387   -31481 
  -30761   -30468   -30061   -28941   -26809   -23878   -21004   -18930 
  -17863   -17868   -18696   -19807   -21027   -22283   -23265   -23920 
  -24269   -24036   -23387   -23022   -23210   -23416   -22735   -20840 
  -18546   -16992   -16688   -17495   -19123   -21277   -23014   -22991 
  -21065   -18535   -16657   -15878   -16247   -17772   -20224   -23001 
  -25568   -27839   -29993   -32107   -33715   -34023   -32959   -31228 
  -29381   -27596   -25984   -24759   -24354   -24937   -25974   -26900 
  -27597   -27795   -27001   -25145   -22738   -20387   -18162   -15778 
  -13510   -12072   -11745   -12346   -13708   -15816   -18653   -21904 
  -24882   -26831   -27228   -26078   -24105   -22203   -20888   -20454 
  -20809   -21289   -21408   -21411   -21874   -23203   -25267   -27268 
  -28307   -27916   -26155   -23844   -22230   -21839   -22176   -22714 
  -23488   -24603   -26164   -28448   -31067   -32965   -33720   -33616 
  -32843   -31482   -29640   -27243   -24220   -20879   -17718   -15248 
  -13758   -12797   -11920   -11607   -12188   -13047   -13672   -14392 
  -15772   -17973   -20823   -23843   -26215   -27544   -28144   -28300 
  -28124   -27668   -26641   -24809   -22502   -20305   -18782   -18310 
  -18731   -19501   -20350   -21477   -22990   -24675   -26419   -27947 
  -28525   -27821   -26295   -24685   -23640   -23352   -23395   -23310 
  -23095   -22896   -22782   -23018   -23822   -24893   -25648   -25695 
  -24887   -23266   -21268   -19513   -18341   -18048   -18907   -20649 
  -22605   -24063   -24570   -24272   -23567   -22831   -22642   -23244 
  -24068   -24320   -23731   -22942   -22754   -23234   -24207   -25447 
  -26580   -27651   -28682   -29185   -28962   -28051   -26224   -23499 
  -20186   -16565   -12997    -9841    -7617    -7178    -9069   -12996 
  -17900   -22534   -26220   -28814   -30298   -30912   -31047   -30892 
  -30630   -30439   -30278   -30047   -29550   -28390   -26424   -24283 
  -22783   -21950   -21282   -20356   -18913   -17046   -15275   -14390 
  -14989   -16745   -18505   -19382   -19278   -18511   -17573   -17113 
  -17536   -18575   -19558   -20199   -21005   -22643   -25074   -27733 
  -30135   -32020   -33307   -33973   -34028   -33657   -32944   -31714 
  -29952   -27979   -26207   -24843   -23786   -22848   -21898   -20897 
  -19984   -19468   -19572   -20065   -20472   -20572   -20234   -19219 
  -17681   -16318   -15677   -15691   -16022   -16523   -17033   -17145 
  -16973   -17294   -18264   -19161   -19295   -18595   -17738   -17469 
  -17900   -18829   -20260   -22411   -25266   -28372   -31345   -33955 
  -35835   -36695   -36464   -35204   -33074   -30136   -26521   -22842 
  -19860   -17886   -16850   -16512   -16471   -16260   -15605   -14698 
  -14152   -14612   -16193   -18067   -19288   -19940   -20720   -21991 
  -23614   -25186   -26322   -26877   -26976   -27004   -27560   -28971 
  -30667   -31675   -31548   -30282   -28036   -25238   -22379   -19712 
  -17317   -15503   -14976   -16404   -19938   -24908   -29944   -33845 
  -36104   -36756   -36325   -35408   -34137   -32398   -30204   -27900 
  -26048   -24840   -23805   -22119   -19399   -16327   -14002   -12758 
  -12233   -12055   -11816   -11146   -10307   -10198   -11677   -14778 
  -18677   -22643   -26465   -29870   -32289   -33440   -33610   -32875 
  -30728   -27243   -23682   -21396   -20828   -21476   -22402   -22810 
  -22062   -19742   -16368   -13170   -10779    -9038    -7927    -7887 
   -9224   -11725   -15089   -19289   -24250   -29430   -33967   -37186 
  -38721   -38347   -36188   -33043   -29748   -26442   -23251   -20748 
  -19360   -19249   -20191   -21288   -21528   -20481   -18402   -16109 
  -14563   -14165   -14626   -15527   -16628   -17808   -19112   -20769 
  -23172   -26699   -31340   -36426   -40759   -43506   -44824   -45023 
  -43945   -41387   -37482   -32688   -27452   -22108   -17130   -13228 
  -11086   -10615   -10923   -11281   -11097    -9735    -7413    -5124 
   -3670    -3465    -4526    -6552    -9520   -13946   -20285   -28105 
  -36145   -42950   -47375   -49180   -48975   -47399   -44810   -41496 
  -37511   -32459   -26198   -19550   -13859   -10365    -9642   -11101 
  -13382   -15082   -15592   -15472   -15619   -16548   -18051   -19273 
  -19775   -19708   -19183   -18572   -18420   -18771   -19452   -20433 
  -21774   -23804   -26832   -30208   -32429   -32622   -30932   -27625 
  -23212   -18838   -15535   -13570   -12596   -12173   -12195   -12883 
  -14499   -16953   -19807   -22726   -25502   -27804   -29361   -30029 
  -29791   -28820   -27400   -26035   -25340   -25524   -26322   -27265 
  -27956   -28222   -27899   -26843   -25104   -22731   -19817   -16710 
  -13803   -11540   -10530   -11127   -13009   -15362   -17517   -19230 
  -20423   -21287   -22192   -23211   -24399   -25866   -27427   -28950 
  -30463   -31767   -32763   -33861   -35363   -36902   -37878   -37785 
  -36375   -34122   -31842   -29923   -28467   -27549   -27033   -26513 
  -25443   -23415   -20513   -17345   -14818   -13707   -14121   -15337 
  -16318   -16574   -16410   -16510   -17411   -19085   -21100   -23154 
  -25176   -27023   -28551   -30001   -31595   -33040   -33983   -34194 
  -33381   -31632   -29561   -27561   -25552   -23503   -21641   -20284 
  -19550   -18957   -17692   -15475   -13000   -11352   -11130   -12379 
  -14926   -18268   -21701   -24891   -27768   -30117   -31721   -32272 
  -31233   -28372   -24173   -19601   -15615   -12814   -11329   -10813 
  -10831   -11318   -12220   -13325   -14569   -15690   -16086   -15588 
  -14726   -13927   -13055   -12205   -11994   -12684   -14121   -16130 
  -18387   -20770   -23592   -26945   -30273   -32678   -33658   -33558 
  -33040   -32306   -31092   -29373   -27678   -26566   -26279   -26861 
  -28048   -29370   -30646   -31733   -32038   -31035   -28849   -25984 
  -23113   -21018   -20058   -19880   -19933   -20030   -20382   -21266 
  -22764   -24784   -27070   -29086   -30286   -30443   -29510   -27683 
  -25525   -23619   -22385   -22030   -22523   -23738   -25553   -28041 
  -31192   -34210   -36009   -36183   -34792   -32177   -29128   -26417 
  -24519   -23703   -23883   -24767   -26133   -27704   -28958   -29287 
  -28373   -26355   -23681   -20722   -17689   -14748   -12007    -9638 
   -7964    -7421    -8409   -10963   -14647   -18706   -22431   -25287 
  -26759   -26756   -25576   -23459   -20950   -18659   -16639   -14985 
  -14044   -13776   -13995   -14650   -15493   -16417   -17584   -18801 
  -19614   -19707   -18914   -17312   -15307   -13613   -12840   -12996 
  -13845   -15373   -17717   -20920   -24622   -28159   -31093   -33192 
  -34007   -33353   -31894   -30315   -28882   -28071   -28161   -28749 
  -29332   -29686   -29890   -29885   -29159   -27511   -25264   -22824 
  -20609   -18783   -17255   -16105   -15537   -15695   -16715   -18574 
  -20908   -23420   -26151   -29093   -32116   -34981   -37005   -37367 
  -35894   -33147   -29811   -26246   -22745   -19734   -17511   -16335 
  -16546   -18141   -20539   -22810   -24150   -24423   -24125   -23711 
  -23270   -22790   -22241   -21582   -21054   -21024   -21463   -22051 
  -22469   -22493   -22187   -21826   -21643   -21706   -21800   -21646 
  -21264   -20915   -20753   -20650   -20498   -20440   -20569   -20719 
  -20832   -21238   -22196   -23405   -24308   -24614   -24504   -24370 
  -24305   -24009   -23151   -21757   -20232   -18910   -17907   -17299 
  -16991   -16796   -16707   -16828   -17314   -18185   -19195   -20270 
  -21585   -23174   -24837   -26282   -27216   -27387   -26731   -25495 
  -24161   -23238   -22853   -22582   -22107   -21647   -21455   -21487 
  -21703   -22054   -22222   -21939   -21325   -20654   -20143   -19885 
  -19687   -19359   -19090   -19178   -19801   -21083   -22950   -25070 
  -27127   -28906   -30239   -31061   -31418   -31401   -30978   -30057 
  -28633   -26614   -24057   -21433   -19022   -16778   -14924   -13868 
  -13730   -14350   -15578   -17262   -19116   -20840   -22153   -22825 
  -22999   -23145   -23514   -24009   -24387   -24347   -23991   -23926 
  -24459   -25443   -26799   -28246   -28996   -28539   -27313   -26004 
  -24816   -23807   -22957   -22039   -21075   -20350   -20117   -20556 
  -21514   -22529   -23343   -24002   -24578   -25095   -25654   -26374 
  -27173   -27780   -28033   -28016   -27969   -28272   -29132   -30234 
  -31109   -31475   -31152   -30143   -28539   -26480   -24382   -22459 
  -20592   -18951   -17795   -17204   -17318   -18079   -19153   -20193 
  -20855   -21051   -21007   -20876   -20740   -20680   -20526   -19994 
  -19160   -18426   -18230   -18921   -20306   -21646   -22559   -23209 
  -23685   -24003   -24289   -24510   -24334   -23529   -22279   -20965 
  -19973   -19623   -19975   -20873   -22131   -23545   -24835   -25739 
  -26112   -25733   -24391   -22302   -20076   -18388   -17672   -17707 
  -17904   -18080   -18349   -18734   -19330   -20221   -21183   -21885 
  -22208   -22211   -21959   -21491   -20836   -20182   -19981   -20560 
  -21875   -23657   -25443   -26784   -27535   -27747   -27511   -26922 
  -26105   -25290   -24668   -24221   -23833   -23474   -23373   -23844 
  -24831   -25944   -26725   -26722   -25732   -23874   -21350   -18542 
  -16079   -14452   -13978   -14908   -17009   -19491   -21796   -23983 
  -26150   -27929   -28873   -29071   -28795   -28022   -26786   -25480 
  -24530   -24008   -23709   -23571   -23757   -24254   -24685   -24724 
  -24375   -23610   -22322   -20770   -19463   -18815   -18983   -19704 
  -20601   -21589   -22647   -23706   -24873   -26229   -27441   -27941 
  -27448   -26111   -24271   -22361   -20878   -20153   -20112   -20473 
  -21011   -21535   -22027   -22649   -23352   -23902   -24298   -24627 
  -24762   -24638   -24503   -24541   -24605   -24491   -24159   -23618 
  -22933   -22291   -21850   -21611   -21469   -21300   -21027   -20523 
