Origin Time       2025/01/13 21:19:00
Lat.              31.8
Long.             131.6
Depth. (km)       30
Mag.              6.9
Station Code      KGS024
Station Lat.      31.0888
Station Long.     130.6982
Station Height(m) 75
Record Time       2025/01/13 21:20:00
Sampling Freq(Hz) 100Hz
Duration Time(s)  88
Dir.              E-W
Scale Factor      7845(gal)/8223790
Max. Acc. (gal)   21.989
Last Correction   2025/01/13 21:20:00
Memo.             
[...]
   26873    25902    25018    24123    22972    21147    18342    15002 
   12162    10628    10585    11566    12731    13444    13759    14196 
   14878    15215    14542    12820    10652     8652     7207     6829 
    8020    10536    13497    16221    18401    20012    21363    22689 
   23904    24815    25004    24011    22113    19919    17640    15611 
   14247    13552    13756    15360    18027    20536    22081    22959 
   23685    24120    23850    22921    21851    20866    19248    16347 
   12896    10199     8742     8259     8603     9991    12332    14929 
   17113    18671    19637    20167    20475    20375    19407    17567 
   15425    13752    13023    13331    14773    17043    19219    20633 
   21366    21952    22812    23959    25131    25802    25371    23568 
   20607    17215    14293    12264    10867     9656     8727     8731 
    9845    11369    12714    14098    15870    17608    18569    18711 
   18561    18360    17780    16733    15957    15977    16210    15934 
   15357    15344    16339    17814    19090    20174    21207    21856 
   21693    20636    19143    17905    17173    16761    16455    15930 
   14783    13065    11468    10840    11524    13054    14500    15341 
   15789    16228    16777    17226    17429    17498    17321    16926 
   16789    16953    16977    16811    16750    16858    16835    16449 
   16059    16428    17801    19480    20526    20634    20035    19080 
   18096    17188    16332    15543    14908    14767    15534    17188 
   19295    21215    22408    22908    23012    22555    21344    19959 
   18970    18110    17062    15889    14547    13107    11956    11179 
   10512    10079    10343    11107    11464    11110    10489     9819 
    9385     9742    10854    12159    13207    13802    14328    15476 
   17312    19387    21406    23286    24980    26345    27220    27608 
   27580    27259    26674    25558    23754    21419    18721    15955 
   13795    12879    13169    14166    15365    16341    16915    17150 
   17022    16578    16156    15819    15171    14053    12842    12236 
   12690    13895    15261    16659    18100    19180    19575    19572 
   19611    19950    20700    21708    22515    22545    21369    19133 
   16522    14376    13216    13023    13709    15234    17023    18442 
   19519    20321    20594    20221    19352    18404    17716    17097 
   16348    15653    15214    14933    14623    14520    15060    16407 
   18141    19116    18806    18104    17726    17451    16888    15822 
   14551    13711    13371    13296    13563    14295    15398    16517 
   17564    19070    20947    22202    22420    21829    20644    19327 
   18231    17288    16483    15723    14758    13662    13080    13841 
   15774    17825    19487    20676    21369    21967    22739    23368 
   23340    22087    19322    15812    13011    11550    11097    11194 
   11376    11406    11462    11867    13042    15055    17288    18997 
   19676    19207    17975    16470    14831    12949    11121    10083 
   10185    11264    13047    15295    17847    20413    22566    24233 
   25636    26586    26480    24911    22134    18895    15759    12897 
   10424     8619     7800     7898     8694    10292    12691    15454 
   17969    19874    21439    22806    23376    22692    20910    18391 
   15565    13054    11566    11522    12877    15007    16902    18162 
   19087    19669    19880    20239    21126    22199    22640    21809 
   19859    17743    16443    15993    15657    15219    15044    15093 
   15051    14990    15114    15334    15403    15196    14974    15246 
   16186    17501    18870    20163    21209    21621    21109    19997 
   19321    19930    21301    21897    20941    19030    17066    15473 
   14160    12918    12066    11913    12020    12164    12780    13972 
   15348    16387    16718    16502    16232    16185    16194    16004 
   15666    15464    15589    15893    16206    16733    17720    19120 
   20417    20970    20908    20726    20379    19541    17926    15616 
   13482    12280    11850    11676    11368    10945    10777    11253 
   12765    15115    17390    19067    20102    20466    20417    20286 
   20089    19813    19523    19344    19364    19251    18594    17458 
   16129    14890    14154    14553    16384    18809    20449    20517 
   18819    16021    13690    12731    12779    13308    14118    15018 
   15797    16406    17086    18261    20047    21907    23198    23815 
   24012    23928    23379    22169    20444    18720    17568    16915 
   16081    14828    13616    12838    12476    12333    12333    12599 
   13038    13319    13416    13643    14351    15576    16918    18075 
   19018    19928    20966    21570    20976    19363    17566    16414 
   16322    17023    17982    18862    19372    19126    18137    16910 
   15757    14690    13697    12723    11784    10893    10130    10046 
   11373    14102    17154    19291    20351    21161    22316    23684 
   24862    25740    26514    27091    26985    26115    24962    23907 
   22954    21971    20957    19908    18640    16933    14607    11781 
    8961     6501     4571     3456     3451     4549     6173     7676 
    9028    10593    12631    15051    17463    19684    21667    23198 
   24140    24679    25170    25801    26368    26515    26098    25278 
   24213    22759    20835    18724    16768    15311    14557    14218 
   14011    14127    14586    14810    14219    12879    11172     9348 
    7805     6963     6934     7720     8746     9224     9389    10058 
   11645    13914    16181    17921    18841    18854    18504    18592 
   19423    20522    21201    21497    21709    21876    22257    23039 
   24005    24776    24657    23159    20642    17921    15768    14418 
   13386    12276    11065     9845     8984     8673     8648     8885 
    9590    10916    12887    15102    17020    18180    18354    18029 
   17867    18198    19241    20715    21813    22148    22088    22289 
   22972    23719    24131    24152    23777    23037    22104    21197 
   20502    19921    19063    17720    16075    14504    13378    12754 
   12325    11894    11650    11745    11951    11952    11801    11884 
   12355    12897    13296    13759    14338    14652    14561    14547 
   15109    16285    17798    19194    20366    21624    22936    24027 
   24695    24640    23791    22404    20727    19087    17871    17161 
   16703    16263    15892    15750    15790    15793    15580    15156 
   14791    14863    15479    16291    16838    17035    17158    17540 
   18469    19832    21066    21753    21748    21092    20135    19263 
   18474    17481    16505    16218    16532    16771    16746    16614 
   16611    16753    16551    15882    15515    16060    17082    17560 
   17078    16231    15793    15919    16209    16293    16320    16532 
   16733    16713    16617    16686    16897    17016    16992    17005 
   17189    17435    17428    17026    16623    16700    17081    17358 
   17649    18199    18931    19662    20040    19600    18408    16995 
   15651    14511    13849    13882    14588    15600    16387    16835 
   17304    18053    18976    19793    20217    20017    19226    18162 
   17154    16389    15785    14758    12802    10455     8920     8811 
    9780    11009    11904    12505    13173    14118    15307    16530 
   17540    18200    18478    18598    18866    19226    19404    19152 
   18439    17790    17740    18152    18573    18628    18146    17428 
   16941    16949    17537    18284    18480    18048    17501    17301 
   17497    17791    18068    18360    18470    18193    17610    17089 
   16818    16528    16151    16055    16602    17728    18948    19971 
   20792    21339    21736    22215    22723    22997    22589    21301 
   19754    18636    17841    16974    16173    15952    16521    17663 
   18952    20027    20776    20788    19327    16563    13851    12351 
   11948    11773    11416    11101    11045    11362    12170    13585 
   15664    17948    19552    20063    19739    19072    18404    17734 
   17093    16843    17143    17504    17286    16591    16225    16433 
   16617    16533    16555    16888    17150    16802    16033    15703 
   16233    17057    17450    17436    17271    16748    15570    13923 
   12523    12032    12503    13545    14771    15927    16729    16956 
   16845    16822    16947    17147    17487    17977    18647    19496 
   20179    20372    20170    19846    19724    20155    21146    22179 
   22558    21914    20349    18293    16239    14538    13522    13343 
   13599    13747    13728    13844    14200    14442    14246    13828 
   13606    13753    14064    14072    13481    12557    11979    12333 
   13633    15435    17320    18835    19514    19390    19043    19165 
   19950    20846    21320    21346    21162    21035    21014    21058 
   21324    21810    22140    21899    20845    18967    16579    14076 
   11793    10224     9742    10093    10686    11149    11410    11618 
   11942    12438    13282    14578    16008    17239    18017    18038 
   17539    17304    17764    18453    18594    18169    17928    18397 
   19364    20390    21413    22411    22909    22387    20937    19222 
   17909    17334    17516    18219    19055    19585    19396    18287 
   16602    15174    14570    14621    14959    15507    16270    16988 
   17108    16432    15574    15098    14967    15207    15940    17018 
   18142    18819    18607    17730    16977    17095    18175    19400 
   19807    19222    18185    17297    16800    16491    16144    15776 
   15257    14346    13269    12777    13401    14756    15979    16754 
   17381    18166    18990    19373    19133    18613    18139    17892 
   18003    18316    18333    17516    15766    13551    11479     9976 
    9202     9134     9747    11080    13105    15477    17685    19669 
   21786    24050    26007    27035    26531    24437    21493    18635 
   16352    14701    13720    13432    13531    13653    13895    14682 
   16382    19017    22052    24727    26407    26558    25139    22873 
   20575    18470    16328    14061    11936    10093     8291     6574 
    5817     6848     9196    11650    13751    15742    17537    18646 
   18901    18797    19074    19975    20880    21006    20533    20317 
   20605    20896    20750    20244    19881    19984    20241    20333 
   20466    20804    20961    20366    18904    16987    14978    12883 
   10590     8351     6983     7041     8055     9355    11171    13984 
   17323    20125    21624    21752    21235    20879    20872    20883 
   20366    19129    17481    15781    14380    13664    13830    14577 
   15210    15334    15090    14700    14212    13585    12974    12752 
   13034    13640    14370    14925    14883    14158    13213    12495 
   12240    12656    13722    15167    16582    17543    17957    18031 
   17964    17990    18343    19144    20394    21741    22612    22971 
   23085    22821    22023    20784    19333    18010    16912    15697 
   14068    12368    11267    10775    10492    10600    11461    12781 
   14075    15295    16445    17185    17194    16482    15357    14278 
   13524    13204    13622    15029    17051    18897    20221    21466 
   23102    24906    26226    26775    26831    26611    25863    24156 
   21543    18952    17485    17367    17979    18530    18445    17606 
   16376    15380    15121    15518    16105    16503    16553    16368 
   16063    15680    15429    15489    15869    16534    17424    18485 
   19823    21458    23013    24015    24348    24204    23899    23670 
   23444    23147    22924    22866    22905    22790    22157    20726 
   18499    16082    14297    13259    12542    11739    10579     9292 
    8586     9138    11115    13829    16233    17910    19165    20506 
   22050    23207    23429    22970    21971    20093    17651    15696 
   15066    15758    17034    18162    18824    18844    17991    16150 
   13667    11264     9325     7677     6207     5081     4468     4467 
    4904     5483     6455     8201    10624    13470    16389    19008 
   21062    22237    22431    21890    21001    20260    20058    20445 
   21030    21276    21154    20935    20756    20876    21473    22200 
   22590    22414    21513    19793    17262    14149    11059     8568 
    6733     5275     3882     2380     1012      232      394     1884 
    4731     8411    12375    16337    20363    24583    28663    31851 
   33462    33361    31860    29231    25976    22887    20339    18141 
   15969    13864    12518    12563    13968    16497    19938    23496 
   25739    25671    23444    20036    16609    13851    11769    10104 
    8733     7796     7697     8761    10832    13505    16606    19985 
   23114    25384    26727    27461    27777    27791    27487    26455 
   24286    21061    17371    14040    11762    10821    10949    11732 
   13081    14860    16791    18877    21122    23552    26352    29085 
   30859    31398    30979    29884    28263    26249    24304    22974 
   22248    21519    20008    17281    13738    10368     7916     6548 
    6045     5859     5144     3472     1463      232      486     2178 
    4337     5790     6517     7373     8773    10690    13165    16271 
   19808    23187    26015    28605    31464    34389    36386    36821 
   36063    34645    32679    30206    27344    24290    21251    18057 
   14467    10812     7415     4133      892    -2160    -4662    -6048 
   -6034    -4693    -2081     1578     5718     9968    14439    18885 
   22334    24108    24421    24025    23793    24227    25227    26268 
   26784    26769    26966    28208    30542    33054    34719    34983 
   33376    29689    24837    20174    16129    12501     9225     6285 
    3726     1948     1174      919      907     1602     3168     5227 
    7364     8985     9618     9127     7302     4429     1954     1514 
    3626     7599    11994    15412    17559    19120    20719    22702 
   25555    29440    33405    36185    37200    36244    33412    29369 
   25208    21867    19695    18759    18685    18550    18021    17289 
   16133    14624    13490    13015    12650    11626     9686     7368 
    5302     3739     2929     3204     4563     6593     9088    12167 
   15662    19211    22677    25826    28316    30090    30977    30569 
   29042    27113    25159    23036    20347    17034    14085    12900 
   13851    16235    19228    22161    24313    24966    23823    21335 
   18316    15442    13015    10905     8845     6768     5085     4212 
    3727     3415     4174     6706    10829    15846    20721    24668 
   27476    29268    30508    31567    32227    31951    30348    27739 
   24860    21749    18291    15086    13047    13059    15103    17817 
   19927    21066    21273    20479    18690    16573    14820    13609 
   13370    14268    15483    16077    15313    13158    11040    10304 
   10824    12013    13666    15658    17629    19234    20379    20574 
   19110    16530    14257    13216    13975    16289    18477    19026 
   17695    14877    11523     9306     9589    12168    15624    18661 
   20456    20657    19730    18532    17671    17514    17972    18176 
   17269    15429    13502    12106    11568    12210    14276    17346 
   20005    21037    20584    19641    19256    19832    20656    21004 
   20802    19774    17599    14724    12059    10335     9919    10874 
   13101    16071    18833    20719    21501    21446    21099    20271 
   18451    16197    14542    13811    13833    14327    15049    15871 
   16507    16652    16384    15984    15795    15985    16228    16123 
   15547    14586    13616    13184    13644    14909    16553    18139 
   19307    19867    20075    20375    20941    21747    22577    22819 
   21971    20386    18877    17840    17136    16499    15849    15306 
   14862    14497    14814    16449    18839    20637    21095    20451 
   19213    17408    15024    12555    10567     9459     9310     9877 
   10966    12187    12873    13026    13475    14700    16168    17072 
   17298    17383    17860    18921    20146    20761    20457    19392 
   17798    16178    15336    15970    18115    20829    22831    23248 
   21934    19627    17452    16259    16457    17906    19773    21070 
   21504    21394    21007    20447    19886    19500    19221    18925 
   18651    18351    17953    17674    17594    17396    17109    16992 
   16714    16139    15973    16781    18293    19637    20127    19901 
   19603    19703    20144    20467    20309    19516    18057    16177 
   14447    13552    13775    14682    15668    16475    17247    18273 
   19407    20213    20394    19813    18844    17936    17050    16309 
   15697    14624    13053    11570    10585    10453    11236    12333 
   13185    13721    14064    14573    15603    17047    18652    20059 
   20814    20953    20671    20019    19332    18827    18384    18200 
   18590    19314    19741    19392    18304    16872    15395    14116 
   13173    12374    11419    10095     8631     7831     8185     9624 
   11915    14530    16938    18982    20367    20686    20220    19731 
   19511    19458    19449    19102    18144    16852    15558    14442 
   13802    13765    13961    13959    13851    13864    13925    14157 
   14948    16272    17674    18632    18738    18161    17648    17552 
   17621    17724    17946    18191    18069    17211    15800    14547 
   13934    13919    14341    15002    15448    15248    14624    14295 
   14705    15769    17177    18669    20046    21089    21629    21674 
   21408    21124    21077    21263    21393    21124    20372    19406 
   18449    17555    16884    16551    16399    16197    15840    15369 
   14890    14520    14310    14157    13849    13365    12912    12648 
   12617    12746    12754    12447    12020    11832    12136    13100 
   14692    16636    18663    20524    21937    22918    23706    24317 
   24688    24968    25335    25675    25517    24525    22900    21034 
   19136    17312    15836    15028    14864    15006    15043    14627 
   13728    12633    11653    11070    11011    11294    11607    11755 
   11713    11654    11817    12372    13464    15222    17680    20506 
   22933    24430    25124    25412    25658    25871    25494    24040 
   21775    19404    17550    16549    16317    16297    15924    15064 
   13886    12757    12267    12810    14184    15745    16857    17347 
   17589    17917    18293    18590    18719    18658    18539    18493 
   18497    18458    18296    17971    17537    17145    16868    16551 
   15996    15280    14715    14613    14998    15460    15569    15333 
   15090    15249    15938    16856    17717    18490    19171    19803 
   20467    21049    21234    20718    19452    17763    16151    14862 
   13815    12872    11855    10501     8851     7479     6945     7360 
    8451     9779    11129    12479    13740    14974    16376    17876 
   19187    20124    20767    21327    21996    23024    24484    26048 
   27248    27720    27271    26072    24594    23130    21697    20274 
   18728    16866    14859    13069    11614    10471     9583     8843 
    8303     8151     8542     9598    11238    13128    14952    16572 
