Origin Time       2025/01/13 21:19:00
Lat.              31.8
Long.             131.6
Depth. (km)       30
Mag.              6.9
Station Code      KGS012
Station Lat.      31.6057
Station Long.     130.5740
Station Height(m) 4
Record Time       2025/01/13 21:20:00
Sampling Freq(Hz) 100Hz
Duration Time(s)  159
Dir.              E-W
Scale Factor      7845(gal)/8223790
Max. Acc. (gal)   10.408
Last Correction   2025/01/13 21:20:01
Memo.             
[...]
    5236     5159     4914     4625     4475     4455     4384     4168 
    3867     3535     3283     3337     3657     3863     3808     3661 
    3514     3375     3314     3321     3265     3033     2586     2058 
    1687     1568     1576     1503     1289     1120     1147     1317 
    1609     1977     2259     2446     2656     2972     3433     3932 
    4264     4410     4572     4885     5309     5752     6172     6593 
    7047     7433     7658     7832     8102     8499     8972     9374 
    9636     9892    10250    10686    11142    11550    11847    11996 
   11961    11805    11693    11685    11670    11627    11632    11649 
   11553    11321    11113    11098    11264    11495    11651    11651 
   11584    11546    11566    11657    11676    11595    11578    11605 
   11580    11534    11435    11233    11001    10829    10723    10600 
   10382    10062     9622     9126     8719     8426     8221     8170 
    8229     8271     8306     8321     8178     7909     7677     7465 
    7225     6957     6627     6297     6085     5915     5717     5557 
    5405     5224     5049     4803     4484     4166     3870     3731 
    3743     3709     3731     3916     4062     4195     4500     4853 
    5184     5688     6419     7237     7978     8460     8656     8664 
    8610     8694     8883     8942     8799     8525     8274     8182 
    8172     8133     8066     7920     7727     7662     7732     7773 
    7731     7645     7561     7604     7797     7998     8133     8213 
    8214     8147     8075     8052     8068     8095     8171     8311 
    8361     8249     8148     8068     7959     8033     8274     8411 
    8418     8353     8263     8289     8496     8779     8999     9134 
    9247     9383     9605    10044    10608    11041    11314    11539 
   11820    12236    12723    13112    13324    13435    13570    13783 
   14046    14319    14553    14678    14736    14870    15041    15138 
   15238    15422    15674    15971    16158    16112    15905    15622 
   15402    15376    15404    15309    15084    14790    14555    14462 
   14432    14385    14210    13836    13417    13097    12803    12488 
   12147    11696    11173    10728    10426    10197     9892     9479 
    9040     8622     8320     8163     8048     7904     7688     7414 
    7210     7164     7209     7233     7209     7121     6979     6871 
    6860     6947     7069     7194     7321     7352     7237     7099 
    7026     6995     7017     7047     6963     6775     6606     6551 
    6605     6664     6705     6760     6750     6694     6690     6656 
    6539     6394     6257     6160     6118     6079     6026     5988 
    5904     5733     5575     5485     5389     5259     5065     4799 
    4577     4355     4014     3665     3410     3207     3014     2843 
    2727     2682     2641     2535     2466     2506     2581     2691 
    2847     2913     2840     2782     2817     2916     3123     3461 
    3858     4241     4587     4942     5331     5715     6042     6316 
    6663     7149     7736     8367     8958     9423     9724     9948 
   10284    10770    11317    11840    12239    12522    12766    13014 
   13373    13868    14416    14906    15242    15502    15780    16036 
   16243    16441    16660    16854    17008    17192    17382    17486 
   17506    17537    17625    17689    17664    17555    17375    17138 
   16893    16703    16546    16360    16123    15843    15530    15183 
   14812    14393    13899    13367    12833    12270    11665    11029 
   10366     9730     9175     8750     8468     8214     7900     7597 
    7348     7065     6724     6397     6130     5946     5838     5745 
    5660     5576     5418     5238     5124     5019     5001     5088 
    4953     4563     4222     4040     3943     3877     3836     3770 
    3593     3354     3119     2875     2652     2482     2353     2219 
    2050     1869     1651     1372     1121      963      870      805 
     791      855      980     1152     1367     1582     1761     1899 
    2052     2322     2736     3226     3747     4272     4730     5125 
    5548     5989     6431     6917     7354     7630     7827     8097 
    8530     9088     9630    10098    10446    10658    10951    11475 
   12020    12382    12613    12783    12897    13008    13143    13240 
   13234    13159    13123    13157    13216    13267    13290    13285 
   13244    13128    12961    12804    12672    12544    12395    12201 
   11961    11762    11695    11723    11730    11628    11423    11192 
   10975    10778    10646    10578    10527    10524    10627    10752 
   10831    10899    10930    10913    10971    11124    11215    11209 
   11172    11102    10982    10844    10683    10438    10110     9796 
    9537     9302     9065     8783     8425     7987     7526     7110 
    6717     6257     5655     4978     4399     3993     3713     3496 
    3375     3370     3383     3379     3447     3595     3755     3977 
    4392     4989     5626     6231     6770     7264     7776     8249 
    8580     8773     8854     8876     8972     9236     9629    10019 
   10281    10461    10709    11118    11709    12364    12865    13139 
   13296    13427    13595    13842    14073    14170    14169    14187 
   14308    14575    14971    15390    15709    15930    16137    16322 
   16465    16627    16802    16927    16974    16931    16823    16652 
   16394    16100    15773    15372    14963    14581    14149    13626 
   13050    12523    12151    11881    11600    11284    10908    10467 
   10077     9765     9466     9167     8842     8442     7998     7546 
    7091     6636     6173     5725     5306     4876     4442     4056 
    3688     3277     2829     2358     1890     1476     1097      697 
     317       -4     -279     -504     -665     -801     -962    -1117 
   -1231    -1331    -1413    -1409    -1313    -1129     -812     -384 
      54      473      938     1517     2203     2929     3632     4240 
    4770     5346     6021     6720     7331     7770     8041     8263 
    8569     8951     9296     9506     9597     9660     9782     9981 
   10210    10372    10439    10470    10498    10544    10615    10654 
   10671    10770    10948    11156    11423    11732    11994    12171 
   12287    12359    12415    12525    12706    12853    12862    12757 
   12665    12684    12807    12949    13051    13139    13289    13498 
   13686    13824    13936    13999    14006    14041    14143    14215 
   14192    14134    14061    13926    13753    13582    13396    13212 
   13069    12951    12792    12488    12015    11497    11124    10936 
   10774    10570    10400    10276    10150     9981     9709     9301 
    8876     8548     8210     7817     7441     7042     6681     6496 
    6381     6216     6076     5940     5676     5348     5121     4957 
    4777     4704     4731     4676     4581     4545     4487     4464 
    4584     4695     4704     4707     4633     4391     4164     4093 
    4041     3978     3979     3958     3908     3974     4120     4228 
    4307     4440     4634     4861     5125     5366     5510     5597 
    5688     5887     6291     6785     7152     7345     7445     7574 
    7797     8043     8197     8181     8148     8375     8812     9269 
    9691     9933     9948    10029    10378    10891    11376    11720 
   11932    12116    12420    12865    13308    13664    13938    14131 
   14335    14674    15111    15526    15880    16200    16480    16727 
   16988    17290    17589    17771    17760    17595    17402    17247 
   17050    16771    16471    16168    15904    15753    15550    15095 
   14544    14091    13702    13400    13238    13112    12883    12584 
   12351    12171    11973    11780    11578    11400    11338    11325 
   11276    11163    10899    10539    10235    10022     9838     9595 
    9239     8762     8194     7628     7129     6629     6046     5432 
    4907     4446     3997     3538     3017     2490     2049     1675 
    1352     1073      847      669      479      302      224      249 
     318      344      325      311      292      263      224      162 
      71      -44     -129     -144     -166     -216     -218     -112 
     145      533      976     1455     1937     2373     2770     3163 
    3576     4027     4507     4961     5324     5621     5925     6288 
    6727     7213     7650     7904     8000     8127     8380     8699 
    8989     9139     9085     8958     8881     8792     8644     8487 
    8367     8324     8361     8410     8411     8378     8375     8449 
    8604     8808     8986     9074     9088     9101     9143     9201 
    9325     9543     9747     9876     9934     9902     9825     9788 
    9836     9937    10034    10102    10096    10050    10080    10152 
   10192    10257    10331    10381    10455    10530    10593    10698 
   10879    11130    11323    11434    11546    11664    11865    12187 
   12507    12738    12852    12880    12916    13000    13122    13269 
   13374    13369    13281    13153    13032    12992    13004    12980 
   12897    12799    12717    12673    12675    12680    12658    12606 
   12549    12555    12630    12715    12772    12746    12622    12521 
   12549    12676    12814    12887    12877    12856    12881    12977 
   13163    13373    13495    13539    13560    13567    13545    13505 
   13441    13324    13124    12874    12623    12382    12163    11956 
   11704    11384    11022    10662    10362    10129     9864     9524 
    9189     8919     8712     8590     8510     8394     8220     8000 
    7801     7697     7653     7611     7530     7423     7321     7223 
    7150     7082     6960     6801     6663     6573     6505     6469 
    6531     6651     6696     6636     6525     6411     6363     6350 
    6238     6031     5807     5628     5556     5591     5649     5684 
    5722     5776     5872     6048     6220     6284     6296     6334 
    6420     6610     6891     7110     7173     7129     7072     7118 
    7290     7470     7581     7632     7645     7703     7852     8001 
    8040     7963     7832     7750     7786     7896     7939     7793 
    7491     7210     7096     7148     7260     7303     7192     6988 
    6826     6745     6693     6579     6394     6241     6169     6166 
    6178     6108     5935     5760     5675     5688     5706     5610 
    5375     5144     5055     5088     5178     5271     5312     5337 
    5428     5603     5807     5977     6131     6330     6565     6824 
    7123     7410     7650     7906     8195     8494     8773     8964 
    9105     9273     9437     9601     9772     9900     9987    10079 
   10192    10331    10492    10671    10875    11103    11283    11371 
   11423    11470    11496    11520    11569    11637    11665    11589 
   11477    11461    11512    11520    11418    11178    10886    10670 
   10546    10442    10247     9927     9605     9362     9180     9036 
    8891     8677     8402     8125     7851     7587     7368     7155 
    6953     6825     6700     6509     6340     6249     6218     6268 
    6403     6578     6718     6805     6914     7113     7356     7565 
    7755     7966     8158     8325     8494     8673     8864     9035 
    9184     9320     9418     9498     9621     9775     9883     9927 
    9992    10154    10373    10585    10773    10862    10806    10721 
   10720    10795    10859    10800    10638    10503    10455    10457 
   10428    10308    10116     9914     9730     9593     9467     9279 
    9088     8969     8865     8730     8604     8498     8395     8318 
    8279     8286     8321     8333     8320     8286     8224     8176 
    8198     8316     8491     8606     8630     8640     8668     8742 
    8878     8995     9004     8953     8953     9031     9148     9242 
    9244     9198     9188     9201     9236     9270     9217     9072 
    8910     8770     8648     8534     8464     8461     8468     8429 
    8365     8314     8274     8279     8398     8608     8820     8997 
    9131     9265     9436     9583     9710     9863     9999    10127 
   10292    10463    10606    10716    10860    11140    11512    11858 
   12098    12189    12240    12425    12744    13130    13528    13895 
   14204    14494    14841    15194    15487    15761    16013    16183 
   16271    16293    16221    16136    16112    16000    15763    15541 
   15331    15122    14967    14854    14700    14461    14197    13921 
   13620    13312    12918    12413    11901    11442    11086    10827 
   10544    10179     9778     9389     9007     8626     8247     7843 
    7419     7018     6651     6291     5918     5547     5169     4693 
    4097     3461     2829     2195     1568      981      450      -37 
    -465     -788    -1011    -1158    -1263    -1368    -1416    -1355 
   -1296    -1277    -1213    -1084     -931     -793     -616     -361 
    -152      -55       22      151      342      588      843     1046 
    1183     1306     1428     1533     1636     1701     1714     1755 
    1857     1964     2087     2282     2494     2671     2884     3194 
    3569     3964     4328     4631     4951     5341     5780     6269 
    6795     7302     7769     8201     8590     8935     9258     9618 
   10062    10562    11075    11589    12094    12614    13192    13797 
   14382    14968    15547    16056    16503    16962    17446    17928 
   18388    18783    19060    19225    19354    19500    19645    19712 
   19651    19500    19336    19213    19117    18995    18831    18597 
   18303    18022    17761    17510    17248    16873    16303    15612 
   14979    14481    14034    13552    13022    12468    11975    11614 
   11353    11103    10820    10490    10130     9825     9648     9540 
    9337     8995     8607     8257     8017     7875     7739     7558 
    7362     7176     7006     6902     6856     6768     6606     6385 
    6111     5836     5618     5452     5290     5107     4897     4662 
    4405     4183     4039     3917     3798     3686     3546     3377 
    3206     3056     2965     2933     2913     2883     2841     2799 
    2806     2875     2984     3107     3250     3453     3709     3975 
    4229     4476     4735     5036     5385     5759     6118     6447 
    6778     7118     7460     7796     8095     8340     8552     8716 
    8831     8964     9128     9259     9315     9296     9238     9240 
    9373     9531     9574     9501     9394     9320     9342     9445 
    9516     9478     9369     9286     9293     9381     9508     9651 
    9769     9830     9909    10111    10413    10758    11097    11340 
   11502    11711    12002    12301    12552    12744    12888    13063 
   13332    13639    13895    14065    14153    14210    14277    14327 
   14324    14312    14323    14312    14229    14035    13734    13417 
   13178    12984    12734    12376    11890    11365    10971    10755 
   10581    10265     9772     9275     8911     8654     8424     8097 
    7584     7030     6660     6466     6281     5977     5510     5015 
    4702     4590     4536     4406     4133     3773     3522     3504 
    3613     3676     3636     3543     3495     3597     3815     4005 
    4085     4101     4178     4369     4626     4885     5097     5260 
    5456     5730     6012     6234     6436     6664     6905     7164 
    7395     7519     7600     7705     7808     7902     7971     7981 
    7993     8073     8170     8247     8299     8271     8176     8116 
    8114     8108     8051     7965     7885     7851     7919     8028 
    8068     8051     8048     8125     8329     8591     8793     8919 
    9047     9258     9535     9805    10006    10143    10282    10459 
   10662    10835    10921    10968    11033    11094    11164    11238 
   11259    11246    11260    11323    11396    11414    11391    11375 
   11368    11373    11354    11249    11080    10924    10791    10654 
   10515    10378    10211    10030     9907     9821     9699     9529 
    9313     9086     8908     8741     8509     8226     7950     7697 
    7506     7384     7226     6955     6633     6335     6116     6031 
    6016     5945     5776     5598     5539     5647     5864     6061 
    6154     6192     6282     6481     6790     7126     7341     7431 
    7545     7744     7967     8179     8355     8475     8596     8764 
    8930     9019     9034     9058     9143     9227     9279     9298 
    9244     9157     9135     9146     9104     9018     8934     8885 
    8897     8945     8959     8926     8915     8977     9104     9267 
    9379     9385     9406     9560     9778     9960    10093    10184 
   10242    10338    10500    10633    10690    10744    10805    10832 
   10882    10983    11082    11164    11234    11288    11349    11446 
   11564    11651    11708    11751    11765    11769    11819    11890 
   11916    11898    11904    11955    12032    12105    12137    12120 
   12105    12129    12170    12212    12256    12275    12245    12225 
   12251    12276    12278    12262    12218    12139    12025    11889 
   11731    11565    11416    11256    11038    10791    10539    10272 
   10010     9771     9540     9300     9054     8802     8533     8283 
    8056     7815     7592     7406     7190     6951     6743     6532 
    6315     6177     6126     6064     5998     5988     6002     6030 
    6114     6166     6157     6184     6234     6257     6303     6378 
    6413     6400     6390     6401     6451     6547     6617     6636 
    6656     6689     6721     6790     6924     7060     7126     7148 
    7167     7182     7250     7425     7596     7704     7823     7966 
    8102     8257     8452     8626     8768     8964     9192     9382 
    9586     9792     9936    10091    10293    10471    10625    10778 
   10893    10962    11020    11041    11002    10966    10968    10980 
   10993    10972    10881    10764    10666    10579    10521    10450 
   10318    10130     9899     9641     9386     9174     9016     8841 
    8637     8444     8208     7933     7697     7492     7300     7149 
    7005     6795     6554     6338     6119     5910     5764     5651 
    5526     5382     5171     4907     4684     4527     4411     4326 
    4249     4156     4037     3940     3871     3796     3755     3774 
    3823     3905     4016     4109     4185     4307     4503     4719 
    4947     5184     5386     5576     5803     6043     6259     6453 
    6628     6808     7014     7219     7385     7527     7681     7836 
    8001     8201     8402     8584     8777     8978     9178     9378 
    9562     9732     9903    10083    10293    10548    10806    11038 
   11277    11514    11728    11950    12177    12367    12522    12663 
   12793    12919    13041    13124    13135    13111    13066    12977 
   12877    12799    12710    12579    12407    12179    11915    11670 
   11435    11165    10891    10640    10365    10073     9784     9475 
    9190     8969     8789     8622     8422     8193     8000     7812 
    7581     7352     7140     6932     6739     6528     6289     6085 
    5940     5834     5780     5773     5765     5756     5783     5848 
    5941     6083     6265     6446     6628     6848     7096     7323 
