Origin Time       2025/01/13 21:19:00
Lat.              31.8
Long.             131.6
Depth. (km)       30
Mag.              6.9
Station Code      KGS017
Station Lat.      31.3954
Station Long.     130.8702
Station Height(m) 64
Record Time       2025/01/13 21:19:51
Sampling Freq(Hz) 100Hz
Duration Time(s)  104
Dir.              N-S
Scale Factor      3920(gal)/6182761
Max. Acc. (gal)   32.772
Last Correction   2025/01/13 21:19:51
Memo.             
[...]
   18588    20881    22029    20790    17239    12121     6007     -117 
   -5300    -9272   -11625   -11836   -10559    -9100    -8004    -7529 
   -8185    -9960   -12265   -14612   -16747   -18539   -19825   -20270 
  -19443   -17143   -13802   -10332    -7948    -7766    -9839   -13108 
  -15974   -16954   -15555   -11948    -6395      147     6438    12393 
   18386    23662    26785    26986    24395    19540    13357     7066 
    1825     -740      801     5334     9518    10820     8863     4719 
     -25    -4018    -6782    -8628    -9874   -10852   -11823   -12138 
  -10824    -8021    -5238    -4494    -6759   -11036   -15491   -19222 
  -21805   -22077   -19345   -14408    -8514    -2779     1838     4850 
    6363     6960     7175     6944     5582     2396    -2370    -7820 
  -13385   -18371   -21478   -22061   -20893   -18739   -15733   -12220 
   -8481    -4684    -1311     1549     3925     4870     2982    -1880 
   -8070   -13903   -18818   -22688   -25449   -26650   -25591   -22663 
  -18658   -13529    -7582    -1988     2274     4695     5197     4474 
    3611     3081     2851     3017     3422     3809     4299     4952 
    5770     6779     7812     8952    10245    10795    10095     9650 
   10644    12013    12427    11094     7550     2731    -2093    -6727 
  -10521   -12041   -11421   -10756   -11590   -13501   -15155   -15437 
  -14033   -11771    -9384    -6510    -3265    -1078     -986    -2770 
   -5912    -9778   -13034   -14229   -13061   -10705    -8376    -6095 
   -3952    -2753    -2755    -3511    -4581    -5380    -5344    -4996 
   -5471    -6702    -7418    -6724    -4950    -2996    -1601    -1264 
   -1956    -3632    -6776   -11290   -16557   -22642   -29191   -34539 
  -37331   -37130   -33711   -27464   -19457   -10472    -1406     6254 
   11608    14595    15735    16274    16789    16615    15371    12830 
    8310     2555    -1726    -2747    -1043     2434     7212    11955 
   14684    14566    12292     9294     6665     4440     1943    -1242 
   -5363   -11149   -18520   -25994   -32234   -35959   -35635   -31136 
  -24236   -16940   -10188    -4389     -420      929      -30    -2145 
   -4046    -4967    -5597    -6634    -7174    -6456    -5407    -5239 
   -6157    -7835   -10154   -13000   -15452   -15649   -12535    -7783 
   -4211    -2532    -1589     -586      521     1819     3555     5610 
    7430     8426     8434     7757     6251     3493      213    -2342 
   -4102    -5652    -6701    -6629    -5952    -5465    -4911    -3818 
   -2034      639     4083     8115    12309    14815    14086    10817 
    6081      306    -5869   -11823   -16694   -19326   -19677   -18288 
  -14694    -8421     -127     9076    17451    22550    23323    20576 
   15363     9149     3579     -804    -3942    -5706    -6583    -7562 
   -9339   -11818   -14105   -15393   -16110   -17109   -18126   -18615 
  -18648   -18216   -17382   -16619   -15953   -15061   -14195   -13715 
  -13650   -14047   -14775   -15580   -16737   -18379   -19399   -18997 
  -17821   -16207   -13880   -10888    -7209    -2763     2116     6352 
    8287     6829     2331    -3243    -7402    -9139    -9376    -9824 
  -11551   -14373   -17612   -20488   -21963   -21319   -18895   -15913 
  -13089    -9850    -5540     -431     4994    10531    15592    19487 
   22453    25121    27584    29226    28866    25948    21271    15586 
    9317     3939     1384     2142     4851     7548     8592     6608 
    1534    -5031   -11586   -16906   -19857   -20635   -20137   -18503 
  -15431   -11066    -6463    -3048    -1394    -1022    -1587    -3251 
   -5902    -9364   -13454   -17063   -18712   -17564   -13459    -7159 
    -342     5300     8883    10085     8577     4755       13    -4576 
   -8264    -9703    -8118    -4729    -1423     1186     3476     5434 
    6062     4180     -417    -7076   -14961   -23006   -29637   -33376 
  -33871   -31908   -28694   -25019   -20966   -16810   -13337   -11144 
  -10329   -10699   -11979   -13621   -14992   -15304   -13113    -8149 
   -2361     2648     6702    10138    13569    17186    20049    20793 
   19010    15131     9176     1515    -6301   -12728   -16757   -17802 
  -16009   -12500    -8947    -6486    -5528    -6282    -8160    -9722 
  -10244   -10018    -9415    -8769    -8145    -7025    -5278    -3852 
   -3620    -4343    -5305    -6160    -6868    -7278    -6986    -5618 
   -3376    -1099      544     1669     2846     4489     6848    10056 
   13563    16073    16536    14542     9690     2216    -6051   -13024 
  -17439   -18771   -17594   -15205   -12619   -10298    -8791    -8748 
   -9337    -8659    -6041    -2115     1931     4631     5237     4108 
    1892    -1076    -4459    -7314    -8769    -9073    -8895    -8126 
   -6002    -2348     1687     4558     5566     5077     4034     3275 
    3002     2676     1637     -145    -2114    -3571    -4092    -3671 
   -2449     -840      289      371     -525    -2390    -5209    -8554 
  -11767   -13958   -14475   -13545   -11652    -8857    -5148    -1117 
    2386     5086     7008     8121     8052     6024     2414    -1305 
   -4685    -8012   -10899   -12803   -14179   -15976   -18167   -19869 
  -20550   -20316   -19226   -17175   -14578   -12142   -10179    -8895 
   -8640    -9448   -11104   -13410   -15634   -16722   -16186   -13791 
   -9519    -4554     -715     1312     2004     1847      900     -557 
   -1765    -2586    -3717    -5576    -7883    -9628    -9647    -7947 
   -5442    -2746     -695    -1065    -5164   -11971   -18698   -23051 
  -24371   -23154   -20098   -15531    -9888    -4307      -64     2207 
    2598     1666     -121    -2541    -4891    -6191    -6397    -6075 
   -5497    -4877    -4282    -3435    -2740    -3221    -4557    -5215 
   -4686    -3534    -2045     -111     2670     6769    11745    16430 
   20041    22270    23265    23404    22618    20919    18767    16198 
   13077    10051     8028     6924     5592     3218      248    -2267 
   -3679    -4387    -5413    -6936    -8197    -8928    -9656   -11078 
  -13358   -15513   -16230   -15541   -14380   -12657    -9763    -6022 
   -2145      981     2178     1122    -1741    -6087   -11228   -15995 
  -19531   -21644   -22682   -22907   -22188   -20685   -19191   -18500 
  -18832   -19874   -20869   -20954   -19970   -18300   -16113   -13897 
  -12454   -11693   -11149   -10783   -10306    -9519    -8595    -7377 
   -5595    -3308    -1048      466     1240     1552     1078     -359 
   -2225    -3662    -3836    -2198     1087     4991     8377    10829 
   12404    12872    11917     9809     7118     4262     1547     -758 
   -2483    -3474    -3378    -2252     -537     2033     5563     8662 
    9734     8564     6025     3120      426    -1745    -2916    -2998 
   -2880    -3676    -5925    -9367   -13027   -15947   -17733   -18188 
  -16887   -13763    -9626    -5166     -586     3291     5444     5757 
    4643     2653      203    -2686    -5451    -6897    -6905    -6625 
   -6821    -7316    -7433    -6497    -4698    -2722     -640     1307 
    2227     1954     1073     -430    -2834    -5546    -7660    -8837 
   -9220    -9428    -9960   -10330   -10069    -9706    -9698   -10014 
  -11152   -13842   -17747   -21544   -23937   -24250   -22835   -20579 
  -17728   -14276   -10789    -7867    -5716    -4763    -5483    -7405 
   -9614   -11482   -12248   -11317    -8279    -2691     4662    11356 
   14987    14635    11067     5837      312    -4371    -7456    -9140 
  -10090   -10708   -11187   -11383   -10928    -9479    -6549    -2408 
    1295     3092     2877     1345     -674    -2285    -2955    -3317 
   -4370    -6218    -8485   -10452   -10869    -8990    -5125      -74 
    5002     8719    10443    10401     8902     6778     5083     3693 
    2249     1418     1769     3062     4821     6133     5912     4388 
    2838     1706      400    -1378    -3381    -5250    -6398    -6738 
   -7187    -8295    -9702   -10984   -12086   -13203   -14008   -13607 
  -11817    -9330    -7048    -6019    -6509    -7540    -8515    -9541 
  -10206   -10014    -9012    -7251    -4704    -1563     1891     5263 
    7502     7297     4384     -449    -6105   -11364   -15110   -16662 
  -15975   -13571   -10201    -6619    -3408     -842     1323     3608 
    5697     6446     5325     2757     -312    -2351    -2379    -1224 
    -125      780     1871     3145     3894     3056      135    -4397 
   -9692   -14798   -18656   -21037   -22383   -22741   -22319   -21364 
  -19417   -16693   -14311   -12453   -10474    -8342    -6652    -5797 
   -5550    -5126    -3517     -269     3864     7464     9529     9664 
    7841     4563      870    -2598    -5994    -9008   -11005   -12327 
  -13115   -12765   -11618   -10408    -8958    -7062    -4851    -2249 
     575     2711     3209     2147      656     -148       19      906 
    2092     2960     2949     1416    -2315    -7842   -13417   -17064 
  -17821   -16274   -13522    -9994    -5886    -1725     1996     5061 
    7145     7794     7102     5592     3423      500    -3417    -8590 
  -14190   -18339   -19799   -18645   -15837   -12952   -11284   -10828 
  -11145   -12528   -15080   -17958   -20215   -21025   -19689   -16494 
  -12543    -8729    -5797    -4312    -3662    -2411       -1     2822 
    4982     6246     7175     7767     7126     4516      379    -3604 
   -5803    -6006    -5213    -3899    -1780      544     2261     3698 
    5190     6615     8154     9901    11491    12569    12667    11071 
    7744     4011     1659     1304     2187     3415     4290     4077 
    2352    -1051    -5782   -10554   -14559   -18070   -20691   -21278 
  -19418   -15662   -11416    -8470    -7609    -8397   -10227   -12860 
  -16196   -19572   -21735   -22023   -21060   -19711   -17954   -15568 
  -12762    -9726    -6555    -3299      -68     2603     4009     4208 
    4025     3737     2996     1807      372    -1032    -2040    -2871 
   -3877    -4645    -4707    -4321    -3995    -3859    -3955    -4624 
   -5995    -7917   -10484   -13491   -16278   -18291   -18772   -17364 
  -14750   -11433    -7783    -4616    -2055      459     2861     4497 
    4895     4087     2931     2724     3621     4819     6312     8401 
   10400    11340    11019     9868     8278     6309     3860     1042 
   -1579    -3407    -4270    -4180    -2986     -305     3732     7973 
   11273    12913    12493    10620     8214     5639     3496     2340 
    1844     1543     1222      397    -1175    -2807    -3761    -4165 
   -4408    -4659    -5396    -7016    -9099   -11294   -13999   -17609 
  -22019   -26744   -30934   -33724   -34823   -34286   -31905   -27693 
  -22468   -17061   -11571    -6154    -1924     -324    -1853    -5905 
  -11532   -17622   -22993   -26926   -28930   -28524   -25962   -21976 
  -16602    -9777    -2586     3616     8207    10941    12032    11984 
   10779     8449     5751     3461     2158     2322     3843     6061 
    8028     8626     7418     5080     2315     -776    -4178    -7849 
  -11675   -14880   -16817   -18185   -19431   -19392   -17153   -13011 
   -7561    -2049     1848     3642     3380      557    -4328    -9205 
  -12528   -14312   -15212   -15943   -17039   -18279   -18934   -18302 
  -15983   -12439    -8405    -4378    -1386       11      543      653 
     357      145      227      331      855     2364     4201     5587 
    6890     8355     9517    10082     9874     8771     7115     5134 
    2536     -553    -3245    -4633    -4468    -3390    -2155     -980 
    -132     -113    -1158    -2980    -4958    -6455    -6323    -3491 
    1083     5060     7164     7918     8740    10578    13355    16247 
   18070    17877    15352    10835     5302      -26    -4406    -8080 
  -11588   -14274   -14855   -13332   -10740    -8206    -6794    -6615 
   -6683    -6472    -6196    -5719    -4856    -4014    -3434    -3202 
   -3909    -5840    -8407   -11018   -13457   -15488   -16964   -17995 
  -18533   -18313   -17202   -15484   -14005   -13423   -13605   -14113 
  -14728   -15534   -16489   -17024   -16149   -12781    -6753      482 
    6802    10434    10371     6791      818    -6081   -12460   -17463 
  -21050   -23532   -25041   -25106   -22988   -18653   -12397    -4148 
    5318    13821    19031    19444    15201     8243      651    -6465 
  -12646   -17986   -22548   -25709   -27018   -27026   -26860   -27081 
  -27157   -26206   -23755   -20120   -15901   -11322    -6839    -2921 
     936     5476    10489    15056    18280    19998    21219    23068 
   25806    29113    32198    34418    35643    35572    34082    31311 
   27075    21481    14952     7618     -355    -8324   -15118   -19530 
  -21158   -20686   -19460   -18904   -19861   -22166   -25208   -28000 
  -29127   -27888   -24436   -19406   -14060    -9559    -6537    -5142 
   -5040    -5553    -5190    -2218     3283     9143    12799    12733 
    9147     3454    -3039    -9507   -15227   -19425   -21842   -23168 
  -24049   -24298   -23442   -21430   -18912   -16515   -14295   -12263 
  -10596    -9872   -10957   -13624   -16505   -18456   -18942   -17801 
  -15139   -11640    -8333    -5492    -3221    -2099    -1895    -1724 
   -1497    -1645    -2198    -3090    -4600    -6567    -8404   -10278 
  -12534   -14734   -16356   -17016   -16332   -14427   -11737    -8884 
   -6769    -5699    -4948    -2987     1928    10136    20219    30479 
   39233    44926    47129    46400    43691    39838    34990    29099 
   22094    13824     4757    -4677   -14194   -22338   -27439   -28989 
  -27231   -23150   -18414   -13914    -9387    -4986    -1322     1816 
    5083     8412    11362    13885    15471    15246    13239    10212 
    7487     6153     6263     7930    10755    13174    14202    13621 
   11084     6358     -426    -8750   -17579   -25379   -31035   -34474 
  -35636   -34149   -29818   -23191   -16482   -12253   -11140   -12281 
  -14986   -19170   -24297   -28963   -31780   -32061   -29824   -25272 
  -18735   -10860    -2418     5272    10159    10412     5357    -4214 
  -16093   -27663   -37494   -44577   -47428   -45821   -40799   -33191 
  -24065   -15294    -8703    -4875    -3292    -2987    -2602    -1439 
    -234       60     -634    -1953    -3740    -5781    -7661    -9004 
   -9500    -9384    -9549   -10769   -12979   -15073   -15765   -14795 
  -12569    -9133    -4345     1773     9181    17473    25664    32859 
   38099    39769    37007    30956    23654    16695    10616     5076 
    -120    -4689    -8247   -10505   -11388   -10818    -8819    -5847 
   -2440      694     2766     3705     3615     2281     -220    -3447 
   -6491    -8337    -8768    -7881    -5621    -2590      247     2916 
    6164    10306    15233    20584    25547    29041    30255    29196 
   26232    21447    15117     7415    -1650   -10779   -18351   -24368 
  -28774   -30367   -29019   -25934   -22061   -18587   -16686   -15716 
  -13936   -10740    -7429    -6263    -8566   -13690   -19410   -23801 
  -26439   -26932   -24902   -21049   -16306   -11584    -7424    -3280 
    1525     7147    13555    20400    26557    30714    32608    32282 
   29389    24401    18138    10824     2793    -5532   -13793   -21253 
  -27032   -30606   -32261   -32769   -32378   -31366   -30544   -30006 
  -29129   -27608   -25612   -24110   -24677   -28129   -33772   -40024 
  -45395   -48614   -48598   -45267   -39508   -32382   -25248   -19025 
  -13278    -7456    -1387     5284    12424    19407    25747    30680 
   33162    32750    30308    27538    25479    24286    23703    23153 
   22334    20869    18056    14302    11121     9532     9614    10976 
   12815    13893    13406    11358     7930     3336    -2186    -8237 
  -13642   -16948   -17515   -15462   -11201    -5493      288     4377 
    5376     2910    -1846    -6991   -11726   -15907   -18660   -19165 
  -17760   -15320   -12490   -10224    -9349    -9228    -8844    -8411 
   -8529    -8989    -9626   -11156   -13655   -15680   -15608   -12634 
   -7674    -3281    -1250    -1739    -4639    -9862   -16607   -23125 
  -27863   -30742   -32146   -31665   -28814   -24029   -18236   -11711 
   -4169     3706    10085    13821    14843    13455    10758     8282 
    6956     7003     8192    10472    13976    18183    21833    23476 
   22642    20492    18198    15858    13204     9737     5214      370 
   -4081    -7990   -10787   -11845   -11703   -11736   -12787   -13811 
  -13213   -11390    -9000    -5347     -373     4503     7545     8130 
    6849     4581     2060     -173    -1585    -2252    -3226    -5738 
  -10628   -17629   -25658   -33718   -40370   -44386   -45736   -44087 
  -38717   -30727   -22790   -16378   -11003    -6314    -3024    -2028 
   -3454    -6283    -9153   -11104   -12161   -12899   -13015   -12056 
  -10398    -8548    -6499    -3611      448     5059     9840    14839 
   19472    23027    24798    23185    17223     8241    -1479   -10245 
  -17245   -22144   -24407   -23735   -20563   -15708   -10244    -4928 
      72     4189     6783     8098     8197     6448     2682    -2008 
   -5458    -6188    -4516    -1637     1496     4523     7259     9902 
   13010    16582    20321    23866    26500    28252    29657    29922 
   27886    23756    18179    11570     4650    -2260    -9589   -17500 
  -25780   -33732   -40258   -44925   -48013   -49696   -49813   -48967 
  -48335   -47630   -46000   -43254   -39030   -33271   -26533   -19575 
  -13477    -9202    -7264    -7552    -9090   -10728   -11784   -11746 
  -10357    -8009    -5072    -1469     2660     6651     9640    11042 
   10772     9321     7732     6798     6610     7070     8148     9661 
   11226    12580    13561    13860    13263    11911    10003     7830 
    6142     5102     3832     2026      176    -1330    -2127    -2123 
   -1840    -1686    -1587    -1463    -1247     -467     1277     3531 
    5539     6895     7275     6250     3514     -463    -4321    -6902 
   -7609    -6034    -2563     1604     5552     8660    10361    10526 
    9201     6690     3764      967    -1449    -3252    -4351    -4861 
   -5128    -5331    -5407    -5386    -5494    -6142    -7643   -10031 
  -12746   -14838   -16260   -17569   -18894   -20346   -21917   -23302 
  -24354   -24997   -25295   -25580   -26296   -27640   -29213   -30651 
  -31882   -32646   -32697   -31821   -29952   -27558   -24914   -21771 
  -18291   -15161   -12574    -9895    -6299    -1567     3527     7893 
   10796    11619    10245     7521     4450     1544     -581    -1264 
    -774      275     1660     3094     4398     5688     6975     8368 
    9898    11122    11812    12278    12836    13501    14213    14870 
   15109    14831    14148    12593    10054     7570     6167     6190 
    7563     9659    11401    11867    10675     8088     4917     1591 
   -2298    -6718   -10606   -12901   -13303   -12355   -10886    -9287 
   -7465    -5269    -2882     -675      865      973     -635    -3172 
   -5450    -6623    -6507    -5662    -5087    -5724    -7899   -11263 
  -15285   -19325   -22602   -24713   -25887   -26532   -26996   -27546 
  -27660   -26493   -24579   -23050   -22030   -21351   -20992   -20644 
  -19952   -18521   -15907   -12172    -8090    -4690    -2612    -1979 
