Origin Time       2025/01/13 21:19:00
Lat.              31.8
Long.             131.6
Depth. (km)       30
Mag.              6.9
Station Code      KGS011
Station Lat.      31.5896
Station Long.     130.3490
Station Height(m) 18
Record Time       2025/01/13 21:19:54
Sampling Freq(Hz) 100Hz
Duration Time(s)  94
Dir.              U-D
Scale Factor      3920(gal)/6182761
Max. Acc. (gal)   3.784
Last Correction   2025/01/13 21:19:55
Memo.             
[...]
   25109    25064    25041    25070    25096    25102    25120    25117 
   25085    25074    25098    25113    25089    25065    25060    25082 
   25128    25145    25134    25130    25107    25087    25104    25106 
   25061    25026    25045    25087    25091    25063    25044    25048 
   25069    25078    25077    25079    25061    25065    25092    25075 
   25048    25043    25054    25072    25076    25097    25117    25107 
   25107    25101    25061    25018    24985    24975    24976    24959 
   24973    25018    25034    25041    25076    25110    25115    25093 
   25066    25059    25060    25072    25122    25191    25243    25247 
   25211    25158    25048    24924    24873    24851    24857    24901 
   24898    24923    25041    25104    25075    25026    24942    24818 
   24675    24539    24472    24517    24645    24781    24912    25056 
   25180    25239    25211    25161    25183    25267    25343    25346 
   25253    25098    24903    24704    24598    24632    24794    25066 
   25350    25540    25648    25709    25710    25706    25775    25855 
   25852    25748    25560    25378    25276    25196    25153    25267 
   25474    25580    25526    25386    25218    25029    24846    24731 
   24742    24824    24820    24752    24834    25120    25477    25816 
   26155    26490    26613    26354    25940    25664    25451    25120 
   24740    24471    24308    24179    24083    24058    24092    24099 
   24056    24019    23947    23813    23736    23812    24046    24422 
   24867    25289    25657    25926    26087    26235    26307    26157 
   25913    25677    25273    24701    24238    24027    23974    23935 
   23918    23966    23874    23470    23014    22844    22958    23293 
   23918    24805    25703    26223    26230    26054    25908    25628 
   25239    25068    25169    25189    24965    24706    24567    24548 
   24731    25241    26019    26674    26835    26654    26378    25859 
   25224    25074    25541    26061    26149    25909    25755    25826 
   25923    26022    26342    26711    26504    25620    24705    24036 
   23351    22734    22571    23011    23811    24534    25062    25461 
   25491    25059    24574    24370    24371    24415    24493    24714 
   25034    25237    25357    25648    26123    26472    26423    26147 
   26018    25957    25645    25138    24724    24598    24881    25510 
   26245    26908    27245    27057    26689    26575    26552    26296 
   25899    25502    24945    24148    23458    23293    23494    23448 
   23074    22943    23231    23586    24030    24891    25896    26224 
   25561    24560    23975    23778    23684    23914    24699    25713 
   26558    27243    27935    28499    28424    27375    25756    24273 
   23207    22626    22723    23439    24318    24959    25332    25584 
   25712    25624    25434    25359    25349    25074    24403    23768 
   23595    23617    23506    23625    24370    25392    26035    26051 
   25748    25525    25323    24909    24440    24234    24281    24295 
   24193    24327    24966    25688    25960    26026    26263    26359 
   25992    25512    25369    25570    25965    26522    27145    27560 
   27459    26745    25659    24553    23579    22773    22232    22036 
   22212    22713    23358    23931    24387    24847    25321    25605 
   25516    25123    24654    24258    24083    24274    24645    24880 
   25040    25394    25938    26333    26398    26343    26268    25922 
   25240    24549    24114    23966    24143    24725    25621    26538 
   27114    27089    26551    25906    25407    25044    24867    24798 
   24500    24004    23753    23888    24285    24963    25816    26456 
   26628    26330    25636    24892    24591    24741    24954    25045 
   25170    25445    25557    25226    24887    25068    25411    25333 
   25144    25339    25576    25507    25445    25629    25939    26063 
   25697    25112    24736    24446    24321    24780    25586    26068 
   26020    25761    25648    25670    25547    25309    25352    25686 
   25818    25610    25311    24935    24344    23562    22837    22533 
   22733    23086    23312    23567    24013    24358    24220    23825 
   23805    24282    24784    25114    25577    26125    26097    25350 
   24714    24758    25118    25394    25664    25907    25792    25109 
   24172    23667    23802    24144    24582    25457    26559    27224 
   27374    27409    27374    26973    26143    25182    24307    23480 
   22810    22606    22905    23412    23967    24721    25702    26530 
   26832    26776    26718    26544    26114    25732    25622    25670 
   25686    25637    25649    25620    25202    24379    23627    23360 
   23516    23854    24277    24734    25123    25398    25558    25548 
   25303    24877    24532    24562    24940    25406    25771    25900 
   25711    25281    24737    24128    23458    22784    22402    22682 
   23513    24369    25002    25558    26004    25948    25205    24216 
   23593    23429    23540    24005    24798    25606    26298    26868 
   27212    27316    27274    27240    27367    27421    26917    25849 
   24674    23608    22597    21899    21950    22654    23568    24518 
   25336    25701    25570    25160    24752    24585    24614    24747 
   25191    25931    26500    26572    26333    26276    26608    26944 
   27027    27084    27068    26617    25834    25093    24468    24057 
   24075    24421    24801    25054    25180    25296    25365    25150 
   24714    24345    24008    23589    23321    23482    24032    24683 
   25179    25493    25611    25423    25051    24755    24484    24009 
   23411    23083    23151    23250    23152    23139    23493    24123 
   24749    25205    25470    25520    25387    25277    25337    25505 
   25739    26101    26666    27318    27678    27604    27326    26926 
   26339    25625    24865    24182    23821    23940    24412    24917 
   25227    25480    25979    26547    26691    26488    26370    26194 
   25551    24645    24032    23822    23680    23514    23602    24013 
   24464    24831    25238    25534    25325    24636    24008    23807 
   23804    23722    23895    24757    25968    26817    27160    27289 
   27285    27051    26639    26254    26024    25859    25658    25531 
   25522    25501    25478    25637    26090    26683    27024    26934 
   26683    26524    26320    25870    25316    24911    24623    24359 
   24257    24409    24598    24659    24766    25082    25406    25418 
   25136    24847    24533    23901    23024    22309    21913    21683 
   21642    22091    23066    24119    24841    25256    25501    25450 
   24985    24415    24201    24372    24705    25237    26051    26808 
   27071    26913    26663    26270    25547    24745    24335    24428 
   24709    24925    25213    25750    26392    26914    27304    27576 
   27605    27265    26498    25419    24355    23596    23385    23815 
   24432    24592    24305    24036    23906    23803    23910    24362 
   24848    25091    25247    25565    25977    26191    26125    25956 
   25683    25123    24426    24095    24260    24467    24452    24455 
   24564    24482    24104    23745    23653    23767    24018    24461 
   25061    25612    25918    25989    25980    25919    25703    25439 
   25410    25592    25691    25625    25507    25312    24917    24336 
   23905    24068    24753    25529    26317    27032    27171    26502 
   25407    24387    23753    23633    24061    24936    25832    26273 
   26281    26226    26190    25920    25346    24754    24351    23924 
   23258    22672    22566    22828    23198    23631    24111    24527 
   24828    25200    25831    26453    26565    26154    25561    24990 
   24662    24827    25428    26128    26567    26638    26442    25942 
   25142    24435    24160    24160    24250    24575    25246    26135 
   27105    28006    28527    28413    27733    26815    25984    25229 
   24371    23703    23669    24076    24494    24861    25193    25329 
   25079    24418    23599    22934    22547    22462    22646    22944 
   23188    23293    23294    23344    23641    24307    25281    26243 
   26848    27079    27087    26867    26470    26145    26043    26025 
   25942    25848    25729    25398    24888    24397    23955    23614 
   23580    23891    24281    24438    24399    24585    25235    26041 
   26525    26540    26258    25845    25441    25247    25361    25634 
   25793    25578    24904    23967    23144    22824    23203    24157 
   25357    26347    26832    26997    27103    27089    26946    26921 
   27097    27234    27092    26652    26046    25364    24569    23703 
   22985    22558    22440    22651    23115    23684    24255    24662 
   24724    24514    24289    24255    24500    24816    24831    24549 
   24240    23902    23468    23150    23099    23126    23038    22959 
   23105    23453    23827    24266    25015    25930    26411    26235 
   25811    25495    25207    24858    24660    24715    24808    24835 
   24954    25269    25643    25895    26036    26157    26225    26163 
   26038    25988    26002    25958    25822    25743    25843    25967 
   25956    25897    25816    25594    25210    24776    24530    24656 
   25002    25314    25699    26390    27217    27737    27787    27547 
   27121    26478    25823    25469    25316    24989    24393    23708 
   23071    22619    22487    22743    23337    23946    24317    24657 
   25092    25403    25467    25304    24935    24401    23726    23090 
   22851    23107    23624    24206    24714    25017    25239    25588 
   26028    26509    26997    27342    27468    27407    27198    26890 
   26513    26163    25947    25777    25586    25448    25277    24863 
   24296    23893    23709    23573    23461    23435    23490    23647 
   23979    24453    24850    25010    24930    24583    23992    23356 
   22957    23001    23447    24107    24864    25651    26278    26515 
   26399    26225    26068    25681    25061    24506    24061    23691 
   23674    24057    24562    25124    25719    26174    26460    26583 
   26505    26334    26172    26061    26115    26384    26760    27132 
   27435    27574    27407    26899    26264    25791    25549    25384 
   25205    25073    24997    24916    24933    25256    25843    26386 
   26704    26827    26714    26263    25545    24893    24659    24746 
   24718    24400    23953    23571    23328    23267    23527    24172 
   24954    25489    25638    25490    25123    24679    24345    24162 
   24104    24070    23911    23819    24128    24696    25155    25389 
   25369    25034    24448    23783    23314    23349    23910    24650 
   25289    25821    26129    26056    25857    25799    25679    25299 
   24952    24973    25231    25475    25672    25870    26022    25890 
   25357    24690    24103    23610    23331    23389    23655    23917 
   24156    24463    24798    25045    25234    25526    25909    26158 
   26183    26040    25814    25649    25610    25638    25634    25411 
   24896    24391    24232    24383    24675    25114    25719    26267 
   26434    26191    25867    25723    25671    25538    25383    25375 
   25566    25816    25987    26149    26309    26295    26033    25566 
   25018    24551    24233    24119    24172    24189    24078    23918 
   23835    23976    24362    24747    24937    25037    25066    24848 
   24443    24113    24043    24250    24510    24614    24633    24587 
   24262    23737    23461    23583    23840    24061    24351    24838 
   25364    25721    26053    26486    26746    26658    26494    26465 
   26416    26177    25878    25734    25643    25320    24895    24816 
   25017    25025    24828    24724    24659    24410    24182    24502 
   25449    26482    27193    27687    28002    27772    26927    26045 
   25586    25311    24767    24072    23701    23656    23643    23802 
   24367    25042    25404    25454    25483    25570    25403    24852 
   24316    24122    24160    24296    24644    25238    25810    26130 
   26226    26247    26323    26408    26290    25899    25330    24637 
   23836    23061    22569    22448    22529    22707    22983    23177 
   23104    23002    23269    23985    25007    26132    27175    28104 
   28889    29340    29267    28679    27735    26583    25415    24563 
   24325    24757    25639    26568    27134    27153    26750    26210 
   25849    25844    26007    26049    25979    25818    25374    24666 
   24146    24185    24477    24512    24404    24569    25015    25460 
   25789    26081    26181    25740    24799    23789    22983    22391 
   22132    22432    23193    23893    24124    24062    24075    24082 
   23758    23154    22640    22402    22357    22435    22654    23020 
   23441    23748    23861    23951    24262    24759    25159    25252 
   24927    24158    23187    22517    22571    23267    24153    25067 
   26041    26667    26491    25843    25420    25349    25282    25086 
   25096    25687    26615    27260    27528    27692    27576    26843 
   25779    24994    24654    24507    24531    25118    26258    27186 
   27546    27822    28097    27680    26236    24367    22967    22360 
   22163    22109    22455    23010    22948    22255    21905    22282 
   22823    23214    23754    24458    24903    24977    24906    24941 
   25241    25476    25270    25086    25549    26587    27874    29224 
   30407    31045    30840    29861    28514    27219    26279    25903 
   25972    25953    25442    24549    23607    22915    22637    22610 
   22595    22570    22461    22121    21748    21752    22259    23010 
   23733    24359    24767    24805    24630    24650    25075    25612 
   25807    25697    25682    25891    26109    26188    26252    26477 
   26841    27299    27909    28496    28677    28374    27752    26941 
   26255    26091    26495    27222    27915    28217    28022    27557 
   27166    26996    26971    27061    27186    27094    26625    25679 
   24202    22589    21478    21029    20885    20859    21232    22174 
   23281    24046    24572    25333    26206    26559    26251    25782 
   25539    25371    25045    24774    24797    24866    24675    24243 
   23686    23209    23061    23214    23555    24065    24464    24509 
   24496    24735    25090    25347    25442    25367    25145    24812 
   24428    24075    23815    23726    23817    23880    23831    23951 
   24474    25261    25859    25821    25196    24306    23304    22504 
   22307    22634    23202    23961    24833    25603    26175    26601 
   26982    27312    27361    26982    26313    25515    24725    24198 
   24005    23941    23854    23597    23036    22409    22072    22126 
   22575    23171    23407    23235    23144    23376    23763    24261 
   25003    25914    26637    26911    26869    26658    26119    25403 
   25042    24983    24665    23978    23208    22433    21670    21276 
   21606    22567    23664    24362    24616    24818    25113    25407 
   25786    26299    26661    26450    25580    24537    23930    23977 
   24393    24681    24683    24563    24255    23613    22952    22731 
   22973    23438    24069    25061    26414    27558    28070    28307 
   28576    28547    27985    27230    26721    26571    26641    26916 
   27512    28154    28295    27923    27401    26744    25850    24962 
   24429    24317    24294    24130    24164    24667    25355    25952 
   26345    26298    25858    25604    25867    26354    26796    27168 
   27415    27492    27400    27169    27029    27126    27083    26570 
   25906    25410    24996    24737    24898    25395    25757    25705 
   25568    25806    26326    26796    27293    27990    28536    28413 
   27691    26927    26385    25799    25073    24675    24863    25128 
   24965    24596    24385    24179    23728    23257    23161    23443 
   23820    24028    23945    23720    23652    23838    24132    24565 
   25365    26294    26556    25661    24035    22516    21282    20067 
   19298    19600    20549    21375    22168    23236    24240    24699 
   24606    24446    24559    24590    24412    24751    25925    27196 
   27926    28336    28729    28770    28123    27120    26173    25210 
   24236    23644    23586    23830    24205    24657    25103    25341 
   25151    24709    24335    23988    23647    23517    23619    23954 
   24580    25047    24825    24295    24159    24301    24233    24023 
   24151    24741    25249    25273    25268    25570    25642    25180 
   24741    24768    25111    25457    25757    26309    27074    27291 
   26566    25504    24671    23916    23050    22383    22271    22622 
   23070    23394    23658    23951    24073    23801    23309    22862 
   22578    22682    23299    24163    24874    25235    25299    25247 
   25254    25391    25642    25984    26314    26477    26453    26424 
   26643    27125    27572    27818    27955    27877    27415    26769 
   26187    25615    25015    24533    24232    24126    24292    24669 
   25128    25656    26093    26167    26018    25985    25919    25523 
   25095    25073    25277    25257    24910    24430    24042    23820 
   23724    23803    24140    24581    24920    25209    25570    25945 
   26188    26225    26105    25890    25521    25001    24721    24916 
   25133    25027    24822    24696    24583    24500    24557    24832 
   25400    26189    26928    27522    28164    28816    29056    28687 
   27980    27141    26148    25106    24298    23877    23669    23457 
   23272    23168    23017    22811    22734    22746    22621    22414 
   22334    22473    22856    23406    24000    24584    24974    25042 
   25090    25380    25842    26438    26942    26935    26379    25582 
   24852    24430    24400    24722    25332    26044    26555    26679 
   26422    25931    25516    25484    25775    25990    25932    25909 
   26172    26387    26195    25783    25389    24973    24457    23891 
   23568    23721    24088    24324    24410    24289    23806    23145 
   22671    22434    22229    21968    21773    21820    22023    22103 
   22188    22684    23380    23597    23307    23159    23514    24203 
   24968    25673    26278    26724    26917    26941    27027    27153 
   27105    26879    26637    26447    26140    25612    25263    25441 
   25793    25849    25634    25432    25321    25142    24856    24581 
   24404    24334    24179    23774    23477    23670    24065    24374 
   24761    25082    24872    24197    23497    22953    22534    22236 
   22165    22399    22726    22915    23069    23371    23821    24312 
   24749    25091    25278    25313    25410    25763    26360    27164 
   28151    29140    29826    30031    29862    29558    29194    28684 
   28167    28002    28189    28312    28217    28037    27676    26921 
   25761    24476    23480    22903    22663    22894    23677    24584 
   25118    25383    25691    25936    25878    25589    25357    25346 
   25448    25470    25382    25293    25203    24937    24521    24269 
   24248    24260    24400    24812    25278    25614    25931    26336 
   26776    27103    27099    26705    26133    25550    24934    24285 
   23737    23453    23383    23229    22948    22972    23456    23969 
