Origin Time       2025/01/13 21:19:00
Lat.              31.8
Long.             131.6
Depth. (km)       30
Mag.              6.9
Station Code      KGS014
Station Lat.      31.4963
Station Long.     130.6994
Station Height(m) 4
Record Time       2025/01/13 21:19:50
Sampling Freq(Hz) 100Hz
Duration Time(s)  147
Dir.              N-S
Scale Factor      7845(gal)/8223790
Max. Acc. (gal)   30.106
Last Correction   2025/01/13 21:19:51
Memo.             
[...]
    6604     3609      872    -1215    -2498    -3130    -3350    -3419 
   -3557    -3800    -4194    -4853    -5680    -6442    -6912    -6874 
   -6220    -5005    -3503    -2070     -878      -27      436      683 
     849      877      803      753      720      569      128     -685 
   -1761    -2856    -3744    -4310    -4449    -4094    -3388    -2542 
   -1651     -708      249     1030     1416     1366      969      337 
    -375     -966    -1290    -1267     -911     -376      183      758 
    1300     1655     1701     1363      621     -379    -1377    -2169 
   -2590    -2532    -2104    -1571    -1154     -961    -1057    -1428 
   -1869    -2060    -1796    -1101     -168      758     1549     2259 
    2922     3550     4249     5049     5917     6901     8066     9429 
   10854    12110    13103    13747    13822    13139    11646     9450 
    6852     4317     2373     1381     1321     1939     2886     3792 
    4383     4494     4045     3152     2126     1337     1143     1829 
    3342     5181     6720     7635     7855     7258     5873     4021 
    1961      -90    -1829    -3064    -3832    -4217    -4143    -3653 
   -3140    -2988    -3350    -4186    -5196    -5980    -6284    -5977 
   -5147    -4116    -3150    -2397    -1988    -2023    -2419    -2899 
   -3172    -2953    -1969     -118     2359     4959     7248     9065 
   10411    11314    11749    11677    11140    10242     9094     7798 
    6397     4985     3650     2282      793     -818    -2575    -4390 
   -6038    -7323    -8132    -8434    -8334    -8117    -7996    -7874 
   -7527    -6906    -6058    -4946    -3593    -2085     -417     1256 
    2640     3582     4047     4090     3890     3612     3272     2849 
    2346     1667      679     -602    -2041    -3487    -4762    -5690 
   -6162    -6168    -5749    -4935    -3723    -2158     -282     1922 
    4374     6925     9570    12345    15114    17721    20039    21790 
   22667    22527    21388    19400    16830    14116    11769    10110 
    9192     8806     8607     8295     7697     6871     6039     5270 
    4442     3512     2629     1954     1494     1242     1229     1472 
    1956     2473     2698     2586     2308     1927     1443      915 
     463      309      642     1345     2114     2629     2659     2142 
    1050     -616    -2662    -4758    -6619    -8125    -9282   -10173 
  -11064   -12239   -13707   -15286   -16819   -18183   -19197   -19755 
  -19865   -19467   -18580   -17398   -16005   -14428   -12822   -11319 
  -10037    -9171    -8737    -8518    -8352    -8195    -7867    -7150 
   -6183    -5258    -4464    -3904    -3736    -3962    -4472    -5184 
   -5964    -6554    -6681    -6168    -4923    -3036     -785     1506 
    3586     5296     6593     7566     8409     9339    10488    11892 
   13505    15237    17046    18837    20443    21747    22646    23020 
   22875    22299    21393    20344    19340    18266    16819    14859 
   12417     9624     6774     4153     1860      -75    -1679    -3051 
   -4210    -5043    -5398    -5201    -4452    -3186    -1566      136 
    1649     2832     3796     4730     5780     7087     8600    10088 
   11396    12413    12915    12703    11788    10366     8733     7188 
    6035     5533     5671     6201     6878     7418     7537     7149 
    6407     5598     5063     4997     5364     6021     6752     7341 
    7623     7450     6775     5683     4257     2562      654    -1390 
   -3393    -5163    -6666    -7973    -9148   -10233   -11205   -11981 
  -12430   -12387   -11782   -10750    -9514    -8182    -6704    -5057 
   -3295    -1536       37     1320     2324     3042     3381     3387 
    3168     2681     1998     1294      626      147       75      406 
     866     1071      762      -82    -1248    -2393    -3222    -3531 
   -3218    -2428    -1503     -703     -222     -236     -707    -1432 
   -2270    -3107    -3794    -4193    -4233    -3939    -3426    -2835 
   -2258    -1790    -1475    -1254    -1038     -745     -325      183 
     648      959     1154     1282     1297     1140      799      216 
    -662    -1744    -2895    -4014    -4892    -5314    -5274    -4796 
   -3828    -2493    -1057      306     1464     2289     2857     3412 
    4039     4687     5375     6081     6662     6933     6683     5783 
    4274     2299      197    -1598    -2852    -3449    -3334    -2663 
   -1680     -554      534     1441     2161     2739     3235     3705 
    4091     4367     4652     4997     5285     5417     5298     4765 
    3858     2871     1950     1088      446      114      -54     -105 
    -108     -206     -332     -356     -249       13      346      619 
     789      895     1035     1333     1845     2536     3337     4236 
    5201     6046     6601     6862     6882     6712     6431     6115 
    5718     5132     4387     3580     2812     2231     1876     1629 
    1428     1281     1177     1084     1044     1124     1274     1487 
    1799     2083     2184     2119     1927     1586     1202      997 
    1011     1213     1776     2791     4064     5371     6488     7230 
    7692     8041     8345     8657     8878     8862     8600     8135 
    7457     6524     5335     3915     2311      650     -932    -2369 
   -3588    -4463    -4919    -4908    -4438    -3769    -3165    -2700 
   -2430    -2363    -2353    -2215    -1815    -1127     -230      781 
    1868     2976     4039     5057     6010     6764     7184     7186 
    6817     6254     5543     4585     3322     1753      -62    -1972 
   -3796    -5346    -6417    -7003    -7260    -7275    -7078    -6671 
   -6083    -5331    -4371    -3284    -2193    -1146     -268      318 
     718     1111     1528     1883     2119     2300     2533     2897 
    3464     4221     5080     5950     6768     7534     8203     8631 
    8775     8653     8195     7416     6407     5159     3674     2080 
     540     -868    -2088    -3018    -3666    -4225    -4826    -5437 
   -6042    -6592    -6902    -6889    -6650    -6228    -5649    -4978 
   -4186    -3223    -2107     -864      322     1169     1629     1891 
    2062     2139     2165     2204     2216     2114     1910     1633 
    1239      724      166     -399     -997    -1634    -2309    -3044 
   -3798    -4495    -5134    -5724    -6207    -6504    -6525    -6184 
   -5408    -4129    -2386     -403     1532     3240     4691     5952 
    7103     8190     9194    10048    10693    11102    11261    11132 
   10589     9548     8046     6138     4009     1949      103    -1487 
   -2808    -3969    -5070    -6029    -6791    -7352    -7654    -7684 
   -7383    -6708    -5755    -4482    -2695     -514     1733     3816 
    5535     6783     7626     8183     8604     9007     9524    10253 
   11022    11597    11915    11840    11281    10345     9121     7734 
    6363     5085     3963     3053     2309     1748     1502     1594 
    1826     2041     2245     2419     2635     3113     3929     5011 
    6313     7766     9267    10725    12016    13057    13830    14224 
   14114    13563    12721    11610    10214     8676     7079     5383 
    3755     2416     1378      646      261      193      425      935 
    1571     2220     2934     3640     4081     4153     3936     3488 
    2876     2224     1652     1185      770      383       18     -398 
    -988    -1761    -2675    -3750    -4862    -5791    -6467    -6964 
   -7387    -7794    -8229    -8748    -9352   -10017   -10683   -11245 
  -11595   -11672   -11465   -11028   -10415    -9639    -8722    -7769 
   -6879    -6070    -5328    -4579    -3734    -2790    -1823     -935 
    -220      274      585      818     1017     1115     1058      832 
     405     -139     -575     -754     -677     -403      -20      346 
     504      255     -427    -1412    -2525    -3570    -4360    -4892 
   -5278    -5553    -5788    -6112    -6439    -6581    -6505    -6160 
   -5429    -4441    -3415    -2346    -1206      -95     1003     2146 
    3242     4194     4989     5605     5989     6084     5883     5489 
    5015     4540     4176     4079     4352     4951     5819     6984 
    8360     9814    11321    12773    14030    15087    15921    16351 
   16259    15751    14932    13761    12241    10463     8546     6674 
    5007     3559     2257     1070       -6     -994    -1890    -2685 
   -3391    -4014    -4558    -4963    -5154    -5113    -4822    -4345 
   -3834    -3321    -2817    -2420    -2135    -1899    -1682    -1335 
    -641      465     1906     3538     5190     6710     7971     8927 
    9618    10150    10654    11165    11574    11778    11773    11550 
   11084    10357     9294     7888     6243     4479     2759     1224 
     -81    -1098    -1809    -2317    -2768    -3213    -3670    -4233 
   -4932    -5620    -6116    -6340    -6201    -5656    -4810    -3851 
   -2978    -2269    -1679    -1163     -608      116      978     1845 
    2646     3430     4232     4984     5571     5856     5752     5296 
    4603     3817     3118     2668     2470     2328     2039     1505 
     716     -248    -1236    -2074    -2643    -2894    -2824    -2500 
   -2053    -1560    -1085     -777     -650     -577     -486     -330 
     -28      425      845     1035      926      438     -400    -1359 
   -2243    -3001    -3586    -3971    -4147    -4052    -3630    -2951 
   -2146    -1309     -550      121      851     1732     2710     3716 
    4673     5510     6185     6698     7088     7423     7761     8163 
    8692     9329     9981    10520    10814    10760    10311     9489 
    8359     7067     5790     4598     3477     2438     1451      417 
    -764    -2062    -3307    -4399    -5289    -5844    -5995    -5815 
   -5447    -5069    -4808    -4664    -4581    -4536    -4476    -4355 
   -4186    -3951    -3555    -2921    -2011     -824      645     2409 
    4392     6403     8270     9909    11222    12096    12465    12359 
   11801    10793     9335     7437     5188     2806      504    -1644 
   -3640    -5487    -7177    -8692    -9956   -10782   -10986   -10582 
   -9663    -8301    -6651    -4904    -3246    -1788     -562      422 
    1262     2110     3005     3848     4490     4756     4552     3924 
    2964     1800      545     -746    -1960    -2938    -3572    -3754 
   -3441    -2724    -1792     -824      110     1058     2011     2929 
    3913     5028     6165     7236     8226     9062     9576     9629 
    9185     8249     6798     4876     2694      472    -1707    -3792 
   -5687    -7341    -8795   -10012   -10867   -11395   -11688   -11720 
  -11416   -10741    -9725    -8445    -7001    -5485    -3904    -2305 
    -843      349     1213     1775     2096     2195     2107     1983 
    1919     1850     1773     1742     1695     1603     1506     1332 
    1046      734      488      437      697     1290     2212     3400 
    4754     6273     7923     9586    11196    12708    14021    15129 
   16212    17301    18188    18706    18756    18199    16951    15128 
   13004    10854     8928     7364     6023     4730     3418     2019 
     565     -823    -2097    -3196    -4018    -4571    -4876    -4831 
   -4432    -3886    -3383    -2949    -2573    -2286    -2076    -1871 
   -1651    -1416    -1123     -735     -295       93      429      873 
    1503     2188     2751     3014     2832     2219     1297      201 
    -803    -1418    -1593    -1464    -1182     -958    -1017    -1381 
   -1890    -2378    -2682    -2600    -1954     -677     1148     3318 
    5464     7248     8581     9454     9871    10034    10174    10353 
   10530    10642    10619    10407    10031     9563     8997     8257 
    7306     6185     4992     3870     2986     2436     2227     2359 
    2814     3451     4151     4916     5629     6131     6450     6623 
    6613     6447     6147     5672     4981     4070     2988     1830 
     739     -114     -697    -1109    -1432    -1741    -2169    -2836 
   -3801    -5020    -6335    -7578    -8629    -9394    -9833    -9903 
   -9676    -9414    -9400    -9790   -10596   -11735   -13123   -14642 
  -16109   -17348   -18230   -18674   -18662   -18200   -17267   -15830 
  -13880   -11465    -8768    -6043    -3458    -1047     1258     3466 
    5528     7422     9038    10233    11005    11441    11623    11538 
   11101    10246     8893     7022     4881     2925     1463      510 
      62       62      195      209       29     -399    -1007    -1661 
   -2292    -2808    -3144    -3213    -2871    -2133    -1169     -162 
     766     1649     2594     3596     4642     5784     7002     8264 
    9620    11090    12572    13975    15290    16449    17247    17437 
   16947    15897    14462    12949    11711    10854    10346    10177 
   10319    10674    11126    11664    12220    12721    13169    13483 
   13622    13655    13537    13122    12271    10768     8395     5246 
    1680    -1946    -5404    -8602   -11503   -14021   -16059   -17612 
  -18729   -19337   -19332   -18813   -17930   -16792   -15526   -14183 
  -12842   -11643   -10659   -10056   -10012   -10497   -11426   -12704 
  -14081   -15110   -15387   -14802   -13459   -11542    -9285    -6872 
   -4502    -2493    -1142     -552     -630    -1092    -1605    -1938 
   -2058    -2089    -2110    -2216    -2488    -2697    -2479    -1603 
      27     2388     5449     9186    13359    17624    21724    25439 
   28586    30974    32427    32871    32242    30546    27972    24691 
   20744    16243    11491     6880     2774     -525    -2883    -4428 
   -5383    -5995    -6508    -6953    -7199    -7153    -6658    -5513 
   -3789    -1676      743     3202     5173     6411     7091     7420 
    7545     7611     7599     7295     6600     5621     4317     2527 
     333    -2134    -4855    -7651   -10297   -12723   -14794   -16362 
  -17570   -18609   -19383   -19785   -19884   -19727   -19265   -18434 
  -17159   -15364   -13073   -10467    -7804    -5341    -3303    -1864 
    -996     -486     -153      248     1085     2525     4452     6679 
    9019    11329    13581    15781    17878    19812    21610    23264 
   24744    26096    27248    28093    28561    28408    27425    25660 
   23278    20517    17674    14940    12328     9755     7203     4707 
    2253      -81    -2096    -3665    -4772    -5393    -5513    -5185 
   -4523    -3716    -2963    -2307    -1636     -926     -275      321 
     880     1345     1705     1873     1725     1281      639      -72 
    -734    -1246    -1479    -1420    -1074     -348      660     1752 
    2897     4039     5017     5684     6081     6497     7080     7762 
    8472     9062     9337     9202     8600     7515     6022     4263 
    2396      436    -1652    -3728    -5634    -7315    -8662    -9552 
   -9979   -10065    -9910    -9641    -9416    -9202    -8916    -8553 
   -7990    -7134    -6197    -5408    -4841    -4607    -4684    -4822 
   -4942    -5175    -5563    -6049    -6646    -7438    -8372    -9200 
   -9873   -10539   -11136   -11570   -11869   -11998   -11973   -11832 
  -11448   -10687    -9691    -8669    -7701    -6798    -5896    -4942 
   -3915    -2785    -1622     -469      762     2076     3335     4554 
    5946     7452     8792     9898    10752    11222    11164    10550 
    9454     7928     6104     4232     2535     1194      303     -264 
    -661     -892     -958     -886     -656     -261      274      966 
    1844     2848     3766     4521     5344     6312     7233     8036 
    8773     9483    10195    10881    11551    12205    12690    12880 
   12745    12199    11173     9786     8252     6706     5200     3763 
    2446     1260      106    -1135    -2454    -3743    -4896    -5738 
   -6102    -5923    -5147    -3739    -1836      299     2365     4120 
    5470     6484     7391     8399     9416    10247    10871    11259 
   11333    11092    10494     9471     8131     6690     5320     4063 
    2975     2192     1730     1472     1397     1459     1518     1584 
    1759     2088     2623     3404     4359     5379     6408     7368 
    8203     8930     9521     9945    10220    10320    10150     9693 
    8968     7927     6517     4783     2799      595    -1802    -4252 
   -6608    -8850   -10882   -12503   -13686   -14507   -14910   -14970 
  -14963   -14874   -14486   -13772   -12734   -11277    -9406    -7314 
   -5101    -2830     -808      800     2077     2988     3539     3788 
    3817     3840     3861     3798     3757     3694     3524     3241 
    2816     2355     2004     1742     1537     1409     1282     1020 
     653      284     -171     -828    -1664    -2663    -3746    -4726 
   -5452    -5895    -6079    -5930    -5458    -4896    -4305    -3584 
   -2770    -1858     -747      502     1701     2782     3744     4498 
    5039     5449     5703     5787     5711     5401     4868     4148 
    3288     2529     2084     1939     1960     2073     2223     2300 
    2435     2775     3206     3765     4549     5412     6266     7206 
    8193     9019     9540     9729     9589     9197     8710     8203 
    7750     7415     7117     6793     6502     6204     5796     5270 
    4614     3879     3222     2720     2342     2103     2042     2110 
    2187     2228     2203     2006     1638     1219      761      259 
    -172     -460     -687     -982    -1389    -2000    -2886    -3874 
   -4839    -5792    -6593    -7109    -7384    -7368    -6956    -6199 
   -5221    -4139    -3071    -2145    -1476    -1148    -1132    -1264 
   -1483    -1796    -2049    -2123    -2061    -1961    -1899    -1968 
   -2280    -2832    -3532    -4263    -4877    -5281    -5429    -5302 
   -4958    -4490    -3956    -3377    -2789    -2238    -1679    -1088 
    -491      143      857     1644     2434     3138     3701     4078 
    4249     4244     4163     4167     4337     4666     5146     5671 
    6169     6713     7287     7870     8533     9238     9877    10428 
   10929    11373    11716    11958    12025    11799    11233    10287 
    8935     7271     5410     3423     1362     -661    -2524    -4205 
   -5724    -7087    -8368    -9606   -10687   -11526   -12155   -12561 
  -12679   -12437   -11754   -10574    -8934    -6949    -4800    -2668 
    -630     1302     3113     4756     6200     7465     8564     9533 
   10463    11395    12306    13140    13799    14245    14482    14480 
   14288    14048    13907    13940    14034    14046    13954    13714 
   13298    12788    12233    11605    10955    10368     9774     9093 
    8394     7704     6947     6093     5260     4498     3717     2949 
    2303     1768     1309      943      600      113     -508    -1170 
   -1931    -2770    -3558    -4333    -5143    -5971    -6843    -7755 
   -8622    -9373    -9996   -10498   -10940   -11310   -11538   -11642 
  -11608   -11369   -10960   -10435    -9814    -9182    -8656    -8272 
   -8020    -7898    -7913    -8006    -8087    -8131    -8041    -7693 
   -7064    -6111    -4869    -3541    -2220     -895      430     1775 
    3181     4631     6054     7385     8587     9589    10269    10532 
   10409     9954     9126     7960     6636     5271     3937     2775 
    1853     1101      459     -110     -681    -1270    -1821    -2282 
