Origin Time       2025/01/13 21:19:00
Lat.              31.8
Long.             131.6
Depth. (km)       30
Mag.              6.9
Station Code      KGS028
Station Lat.      30.4204
Station Long.     130.5771
Station Height(m) 41
Record Time       2025/01/13 21:20:35
Sampling Freq(Hz) 100Hz
Duration Time(s)  60
Dir.              U-D
Scale Factor      3920(gal)/6182761
Max. Acc. (gal)   0.741
Last Correction   2025/01/13 21:20:36
Memo.             
[...]
   -6570    -6582    -6456    -6373    -6390    -6368    -6381    -6542 
   -6609    -6401    -6223    -6207    -6208    -6353    -6616    -6662 
   -6537    -6558    -6637    -6473    -6243    -6309    -6487    -6412 
   -6248    -6338    -6539    -6453    -6138    -5972    -5929    -5807 
   -5831    -6113    -6251    -6170    -6222    -6320    -6200    -6109 
   -6231    -6293    -6278    -6431    -6573    -6488    -6445    -6591 
   -6624    -6502    -6489    -6565    -6557    -6417    -6145    -5905 
   -5892    -5986    -6004    -5971    -5853    -5629    -5485    -5511 
   -5534    -5502    -5608    -5736    -5564    -5399    -5642    -5793 
   -5509    -5411    -5729    -5865    -5650    -5584    -5762    -5781 
   -5734    -5936    -6104    -6059    -6018    -5905    -5674    -5631 
   -5796    -5923    -6137    -6524    -6599    -6272    -6187    -6388 
   -6440    -6537    -6955    -7302    -7164    -6839    -6776    -6817 
   -6696    -6557    -6592    -6667    -6568    -6468    -6561    -6587 
   -6365    -6120    -6079    -6198    -6271    -6260    -6309    -6348 
   -6220    -6169    -6403    -6568    -6486    -6451    -6567    -6702 
   -6753    -6600    -6286    -6124    -6210    -6277    -6294    -6369 
   -6362    -6177    -5906    -5766    -5925    -6183    -6264    -6137 
   -5859    -5594    -5564    -5778    -6040    -6144    -6173    -6349 
   -6462    -6249    -5973    -5858    -5776    -5699    -5754    -5964 
   -6197    -6341    -6364    -6227    -6016    -5976    -6157    -6334 
   -6331    -6170    -5983    -5857    -5744    -5613    -5587    -5747 
   -5914    -5945    -5935    -5906    -5770    -5625    -5660    -5772 
   -5779    -5811    -5911    -5910    -5891    -5908    -5773    -5595 
   -5606    -5652    -5608    -5714    -5993    -6109    -6101    -6145 
   -5964    -5650    -5636    -5720    -5723    -5855    -6033    -6139 
   -6219    -6230    -6185    -6193    -6264    -6285    -6243    -6243 
   -6301    -6372    -6490    -6673    -6803    -6757    -6604    -6475 
   -6358    -6235    -6214    -6292    -6330    -6380    -6514    -6558 
   -6511    -6544    -6455    -6074    -5851    -6059    -6264    -6246 
   -6220    -6237    -6331    -6587    -6785    -6691    -6494    -6489 
   -6621    -6573    -6269    -6088    -6202    -6256    -6143    -6144 
   -6168    -5912    -5584    -5503    -5525    -5593    -5902    -6244 
   -6236    -5986    -5812    -5677    -5487    -5470    -5646    -5740 
   -5857    -6154    -6275    -6107    -5984    -5944    -5871    -5906 
   -6090    -6234    -6335    -6521    -6655    -6626    -6608    -6583 
   -6407    -6280    -6373    -6491    -6521    -6607    -6667    -6553 
   -6533    -6683    -6604    -6287    -6091    -6099    -6210    -6265 
   -6136    -5894    -5744    -5785    -5859    -5798    -5741    -5923 
   -6248    -6376    -6261    -6093    -5904    -5780    -5834    -5956 
   -6050    -6072    -6046    -6123    -6109    -5733    -5443    -5720 
   -6134    -6192    -6099    -6039    -6000    -6081    -6230    -6407 
   -6600    -6508    -6180    -6130    -6295    -6267    -6255    -6508 
   -6709    -6784    -6891    -6813    -6528    -6317    -6186    -6107 
   -6181    -6330    -6367    -6262    -6194    -6315    -6531    -6598 
   -6451    -6369    -6411    -6275    -6066    -6145    -6440    -6687 
   -6886    -7041    -6874    -6386    -6029    -5971    -6008    -6099 
   -6296    -6418    -6391    -6396    -6320    -6055    -5905    -5880 
   -5815    -5918    -6046    -5862    -5766    -6049    -6236    -6136 
   -6059    -5961    -5709    -5673    -5933    -6007    -5932    -6085 
   -6240    -6066    -5864    -6004    -6187    -6125    -6172    -6368 
   -6220    -5920    -6068    -6368    -6240    -5989    -6019    -5982 
   -5670    -5488    -5608    -5777    -5881    -5904    -5840    -5804 
   -5759    -5567    -5450    -5625    -5806    -5779    -5727    -5738 
   -5828    -6048    -6229    -6312    -6411    -6458    -6388    -6330 
   -6395    -6499    -6500    -6420    -6383    -6446    -6460    -6266 
   -6041    -6026    -6204    -6438    -6652    -6803    -6701    -6233 
   -5755    -5638    -5821    -6088    -6261    -6241    -6060    -5922 
   -5985    -6063    -6021    -6106    -6365    -6456    -6372    -6436 
   -6455    -6075    -5738    -5960    -6401    -6685    -6941    -7134 
   -7059    -6730    -6314    -6052    -6059    -6205    -6317    -6350 
   -6468    -6693    -6740    -6673    -6765    -6735    -6385    -6250 
   -6502    -6535    -6236    -6129    -6214    -6130    -6016    -6130 
   -6235    -6069    -5808    -5709    -5730    -5713    -5617    -5550 
   -5688    -5973    -6093    -5993    -5925    -5874    -5637    -5390 
   -5446    -5687    -5848    -5979    -6106    -5985    -5644    -5495 
   -5631    -5745    -5808    -6002    -6179    -6223    -6234    -6162 
   -6014    -5977    -6019    -5943    -5733    -5595    -5664    -5807 
   -5843    -5869    -6084    -6310    -6323    -6337    -6424    -6405 
   -6416    -6576    -6630    -6454    -6315    -6289    -6169    -6067 
   -6227    -6460    -6497    -6476    -6646    -6832    -6740    -6521 
   -6479    -6613    -6674    -6526    -6367    -6387    -6477    -6513 
   -6514    -6501    -6451    -6414    -6501    -6623    -6551    -6308 
   -6189    -6278    -6332    -6272    -6226    -6176    -6087    -5993 
   -5835    -5650    -5692    -6005    -6275    -6312    -6304    -6489 
   -6710    -6629    -6402    -6395    -6495    -6477    -6426    -6421 
   -6362    -6196    -6101    -6236    -6435    -6456    -6364    -6368 
   -6383    -6283    -6333    -6535    -6484    -6310    -6302    -6198 
   -5952    -5882    -5945    -6013    -6188    -6383    -6347    -6077 
   -5787    -5615    -5588    -5616    -5595    -5642    -5777    -5814 
   -5822    -5855    -5735    -5536    -5560    -5787    -5828    -5628 
   -5622    -5890    -6089    -6094    -5968    -5726    -5495    -5514 
   -5752    -5865    -5722    -5545    -5566    -5784    -5872    -5680 
   -5546    -5567    -5514    -5478    -5551    -5546    -5481    -5581 
   -5799    -5857    -5748    -5792    -6106    -6373    -6277    -6017 
   -5992    -6171    -6467    -6868    -6979    -6696    -6513    -6520 
   -6396    -6176    -6126    -6232    -6336    -6479    -6664    -6682 
   -6504    -6372    -6331    -6235    -6136    -6129    -6119    -6097 
   -6232    -6464    -6565    -6686    -6941    -6979    -6810    -6882 
   -7116    -7061    -6817    -6764    -6727    -6503    -6461    -6775 
   -7029    -6989    -6948    -7058    -7017    -6731    -6472    -6318 
   -6159    -6038    -6111    -6336    -6421    -6239    -6020    -5877 
   -5651    -5461    -5590    -5838    -5888    -5879    -5983    -6055 
   -6008    -5926    -5766    -5537    -5433    -5465    -5616    -5927 
   -6080    -5863    -5596    -5475    -5390    -5493    -5947    -6291 
   -6099    -5764    -5742    -5878    -5885    -5779    -5765    -5902 
   -5993    -5922    -5856    -5872    -5742    -5564    -5780    -6225 
   -6407    -6438    -6538    -6519    -6312    -6106    -6016    -6152 
   -6475    -6573    -6281    -6094    -6230    -6262    -6147    -6246 
   -6446    -6349    -6088    -6186    -6557    -6661    -6522    -6454 
   -6378    -6175    -6030    -6145    -6386    -6469    -6421    -6429 
   -6395    -6116    -5776    -5799    -6152    -6363    -6333    -6372 
   -6482    -6432    -6318    -6373    -6522    -6656    -6823    -6912 
   -6826    -6663    -6457    -6357    -6540    -6791    -6904    -7035 
   -7157    -6998    -6640    -6367    -6221    -6207    -6344    -6453 
   -6385    -6232    -6037    -5806    -5752    -5925    -6054    -6109 
   -6241    -6160    -5641    -5244    -5393    -5671    -5873    -6185 
   -6320    -6111    -5984    -6058    -6035    -5874    -5905    -6181 
   -6208    -6009    -6156    -6412    -6277    -6102    -6114    -5884 
   -5476    -5424    -5654    -5767    -5773    -5822    -5914    -5995 
   -6016    -6025    -5996    -5775    -5591    -5777    -6003    -5908 
   -5808    -5911    -5890    -5727    -5849    -6206    -6336    -6275 
   -6342    -6457    -6421    -6368    -6383    -6224    -5965    -5997 
   -6163    -6152    -6180    -6319    -6338    -6305    -6341    -6346 
   -6299    -6288    -6258    -6100    -5964    -6028    -6198    -6383 
   -6427    -6111    -5728    -5750    -6018    -6175    -6344    -6591 
   -6552    -6160    -5829    -5792    -5962    -6192    -6311    -6212 
   -6052    -6038    -6133    -6193    -6133    -6071    -6201    -6359 
   -6325    -6237    -6193    -6118    -6072    -6169    -6349    -6470 
   -6441    -6298    -6178    -6080    -6043    -6285    -6588    -6568 
   -6403    -6273    -6069    -5943    -6098    -6267    -6138    -5955 
   -5971    -5922    -5681    -5590    -5816    -6057    -6096    -6058 
   -5924    -5633    -5509    -5691    -5817    -5721    -5595    -5477 
   -5366    -5487    -5784    -5919    -5981    -6180    -6301    -6328 
   -6579    -6776    -6498    -6164    -6238    -6518    -6700    -6682 
   -6594    -6635    -6685    -6599    -6594    -6749    -6729    -6524 
   -6569    -6785    -6729    -6568    -6636    -6719    -6581    -6316 
   -6101    -6124    -6372    -6545    -6524    -6535    -6602    -6527 
   -6357    -6201    -6020    -5894    -5899    -6017    -6324    -6677 
   -6708    -6500    -6350    -6145    -5894    -5925    -6159    -6312 
   -6429    -6462    -6264    -6077    -6133    -6160    -6061    -6132 
   -6245    -6199    -6300    -6466    -6304    -6167    -6407    -6561 
   -6404    -6345    -6423    -6272    -5925    -5718    -5678    -5666 
   -5748    -5952    -6090    -5997    -5734    -5504    -5413    -5461 
   -5633    -5815    -5802    -5575    -5405    -5484    -5706    -5877 
   -5924    -6032    -6270    -6347    -6280    -6403    -6587    -6581 
   -6565    -6585    -6385    -6117    -6098    -6119    -6059    -6133 
   -6131    -5948    -6020    -6234    -6123    -5917    -5954    -6021 
   -6039    -6218    -6349    -6120    -5840    -5861    -5980    -5991 
   -5957    -5870    -5771    -5807    -5941    -6023    -6029    -6002 
   -5938    -5951    -6157    -6299    -6127    -5848    -5789    -5911 
   -5967    -5946    -5959    -5911    -5747    -5662    -5754    -5832 
   -5759    -5583    -5462    -5568    -5800    -5993    -6274    -6573 
   -6486    -6089    -5815    -5629    -5444    -5558    -5896    -6079 
   -6179    -6236    -6032    -5786    -5836    -5969    -5957    -6024 
   -6243    -6354    -6306    -6167    -5999    -6030    -6244    -6377 
   -6481    -6591    -6470    -6161    -5953    -5887    -5957    -6266 
   -6613    -6654    -6438    -6269    -6293    -6372    -6338    -6345 
   -6436    -6324    -6155    -6260    -6365    -6301    -6413    -6665 
   -6561    -6136    -5973    -6145    -6267    -6359    -6530    -6621 
   -6650    -6727    -6730    -6508    -6136    -5858    -5899    -6205 
   -6386    -6267    -6221    -6396    -6359    -6083    -6166    -6595 
   -6664    -6389    -6424    -6631    -6470    -6282    -6405    -6381 
   -6189    -6361    -6683    -6624    -6479    -6625    -6729    -6658 
   -6612    -6433    -6190    -6320    -6620    -6609    -6500    -6675 
   -6922    -6881    -6611    -6331    -6085    -5955    -6088    -6343 
   -6450    -6412    -6276    -6052    -6052    -6393    -6603    -6449 
   -6299    -6334    -6276    -6129    -6175    -6210    -6038    -6048 
   -6329    -6449    -6326    -6273    -6335    -6273    -6113    -6091 
   -6180    -6159    -6066    -6100    -6118    -5880    -5656    -5757 
   -5864    -5682    -5579    -5696    -5610    -5396    -5424    -5507 
   -5482    -5490    -5509    -5503    -5527    -5536    -5599    -5880 
   -6154    -6137    -6055    -6016    -5852    -5739    -5840    -5972 
   -6045    -6134    -6216    -6250    -6274    -6273    -6287    -6430 
   -6618    -6703    -6662    -6508    -6381    -6432    -6558    -6617 
   -6708    -6862    -6859    -6634    -6368    -6220    -6216    -6190 
   -6138    -6261    -6349    -6166    -6029    -6127    -6165    -5997 
   -5861    -5825    -5766    -5811    -5989    -6121    -6273    -6466 
   -6531    -6488    -6478    -6445    -6322    -6329    -6478    -6421 
   -6199    -6206    -6494    -6604    -6245    -5938    -6033    -6045 
   -5866    -5912    -6030    -5842    -5615    -5717    -5827    -5603 
   -5398    -5577    -5884    -5952    -5897    -5962    -6043    -5988 
   -5860    -5810    -5893    -5950    -5928    -5972    -6033    -5993 
   -5946    -5922    -5854    -5895    -6128    -6206    -6002    -5899 
   -6089    -6362    -6372    -6057    -5911    -6117    -6271    -6324 
   -6408    -6262    -5830    -5610    -5794    -5930    -5812    -5693 
   -5654    -5629    -5640    -5624    -5536    -5530    -5615    -5552 
   -5510    -5796    -6040    -5977    -5922    -5846    -5589    -5508 
   -5756    -5904    -5821    -5888    -6060    -5912    -5575    -5442 
   -5465    -5468    -5577    -5869    -6074    -5980    -5761    -5631 
   -5610    -5741    -6068    -6345    -6288    -6139    -6207    -6230 
   -5995    -5787    -5768    -5835    -6014    -6333    -6568    -6588 
   -6567    -6584    -6529    -6484    -6624    -6763    -6613    -6435 
   -6589    -6779    -6745    -6776    -6942    -7011    -6980    -6930 
   -6833    -6676    -6578    -6672    -6859    -6958    -7024    -7165 
   -7144    -6803    -6586    -6841    -7163    -7124    -6974    -7038 
   -7135    -7137    -7237    -7330    -7167    -6922    -6823    -6813 
   -6804    -6726    -6564    -6463    -6511    -6561    -6451    -6259 
   -6181    -6191    -6226    -6389    -6570    -6457    -6175    -6094 
   -6074    -5902    -5930    -6289    -6425    -6169    -5940    -5759 
   -5535    -5600    -5942    -6143    -6144    -6215    -6476    -6653 
   -6432    -5980    -5749    -5909    -6183    -6310    -6269    -6041 
   -5815    -5895    -6104    -6069    -5839    -5707    -5681    -5656 
   -5804    -6061    -6205    -6456    -6659    -6318    -5922    -6200 
   -6699    -6691    -6470    -6556    -6665    -6539    -6567    -6811 
   -6821    -6597    -6469    -6363    -6186    -6281    -6680    -6737 
   -6208    -5711    -5614    -5626    -5570    -5578    -5655    -5676 
   -5760    -6076    -6318    -6121    -5774    -5702    -5673    -5412 
   -5283    -5547    -5823    -5888    -5947    -5953    -5757    -5599 
   -5614    -5575    -5456    -5421    -5416    -5435    -5675    -6015 
   -6114    -6060    -6025    -5906    -5784    -5859    -6077    -6242 
   -6297    -6324    -6246    -6021    -5861    -5825    -5812    -5840 
   -5975    -6139    -6153    -6051    -5947    -5860    -5908    -6023 
   -5884    -5659    -5787    -5991    -5861    -5719    -5826    -5978 
   -6030    -5943    -5784    -5749    -5807    -5781    -5704    -5722 
   -5775    -5740    -5787    -6045    -6252    -6257    -6240    -6249 
   -6107    -5892    -5930    -6179    -6377    -6541    -6626    -6432 
   -6009    -5618    -5465    -5508    -5708    -6162    -6589    -6552 
   -6263    -6115    -5980    -5745    -5781    -6144    -6346    -6282 
   -6237    -6272    -6372    -6552    -6604    -6391    -6222    -6246 
   -6093    -5766    -5838    -6258    -6315    -6031    -6022    -6217 
   -6230    -6243    -6416    -6447    -6309    -6294    -6315    -6154 
   -5931    -5855    -5953    -6096    -6169    -6150    -6042    -5983 
   -6149    -6404    -6487    -6456    -6445    -6310    -6073    -6069 
   -6256    -6278    -6181    -6121    -5981    -5808    -5864    -6076 
   -6070    -5945    -6210    -6664    -6597    -6271    -6414    -6650 
   -6431    -6268    -6458    -6530    -6448    -6483    -6436    -6217 
   -6172    -6408    -6646    -6670    -6504    -6328    -6265    -6296 
   -6366    -6388    -6304    -6231    -6236    -6214    -6226    -6358 
   -6350    -6021    -5710    -5696    -5765    -5730    -5731    -5879 
   -6007    -5984    -5943    -5966    -5948    -5860    -5859    -5949 
   -5931    -5988    -6296    -6363    -6006    -5728    -5727    -5844 
   -6008    -6249    -6490    -6471    -6191    -5939    -5936    -6296 
   -6827    -7190    -7273    -6993    -6467    -6204    -6372    -6607 
   -6720    -6781    -6796    -6765    -6702    -6445    -5998    -5860 
   -6119    -6201    -6149    -6389    -6583    -6365    -6080    -6039 
   -6100    -6099    -6076    -6078    -6068    -6052    -6086    -6129 
   -6148    -6245    -6382    -6348    -6306    -6544    -6698    -6546 
   -6660    -7014    -6895    -6462    -6349    -6427    -6312    -6182 
   -6279    -6394    -6337    -6263    -6346    -6446    -6342    -6220 
   -6361    -6534    -6424    -6177    -6059    -6176    -6432    -6557 
   -6473    -6336    -6152    -5944    -5919    -6064    -6141    -6084 
   -6101    -6341    -6548    -6430    -6140    -5904    -5671    -5482 
   -5550    -5742    -5813    -5951    -6184    -6155    -5969    -5968 
   -5976    -5877    -5903    -5917    -5778    -5856    -6161    -6203 
   -5927    -5718    -5766    -5869    -5782    -5593    -5570    -5705 
   -5653    -5333    -5236    -5497    -5559    -5405    -5618    -5971 
   -5867    -5671    -5704    -5511    -5145    -5162    -5485    -5629 
   -5528    -5516    -5687    -5887    -6007    -5888    -5681    -5789 
   -6025    -6055    -6169    -6528    -6657    -6375    -6250    -6487 
   -6625    -6567    -6493    -6310    -6148    -6259    -6376    -6194 
   -6031    -6215    -6423    -6359    -6266    -6306    -6324    -6276 
   -6143    -5855    -5672    -5940    -6448    -6730    -6745    -6618 
   -6347    -6215    -6444    -6580    -6301    -6062    -6138    -6133 
   -5908    -5765    -5662    -5524    -5658    -5970    -6001    -5806 
   -5729    -5790    -5875    -5979    -6097    -6183    -6181    -6037 
   -5920    -6110    -6429    -6472    -6357    -6355    -6379    -6412 
   -6562    -6575    -6317    -6238    -6515    -6659    -6470    -6310 
   -6336    -6341    -6289    -6344    -6483    -6606    -6751    -6861 
   -6732    -6415    -6250    -6303    -6336    -6310    -6344    -6433 
   -6517    -6490    -6264    -6017    -6007    -6193    -6363    -6403 
   -6318    -6254    -6338    -6451    -6432    -6355    -6309    -6180 
   -6037    -6115    -6255    -6231    -6221    -6256    -6089    -5734 
   -5433    -5313    -5395    -5687    -5979    -6005    -5918    -5890 
   -5697    -5313    -5108    -5244    -5482    -5702    -6094    -6541 
   -6666    -6527    -6376    -6184    -6000    -6060    -6368    -6677 
   -6807    -6806    -6762    -6600    -6384    -6345    -6493    -6756 
   -7066    -7099    -6770    -6580    -6724    -6782    -6673    -6665 
   -6641    -6527    -6514    -6419    -6075    -5813    -5772    -5734 
   -5720    -5873    -6044    -6016    -5786    -5516    -5352    -5302 
   -5346    -5463    -5551    -5578    -5674    -5844    -5839    -5548 
   -5262    -5238    -5451    -5791    -6100    -6272    -6321    -6202 
   -5948    -5753    -5703    -5781    -5970    -6200    -6422    -6574 
   -6527    -6274    -6078    -6109    -6104    -5981    -6108    -6439 
   -6530    -6354    -6223    -6245    -6246    -6141    -5990    -5820 
   -5811    -6026    -6077    -5869    -5881    -6213    -6465    -6548 
   -6567    -6390    -6082    -5976    -6099    -6269    -6443    -6661 
