Origin Time       2025/01/13 21:19:00
Lat.              31.8
Long.             131.6
Depth. (km)       30
Mag.              6.9
Station Code      KGS029
Station Lat.      30.2363
Station Long.     130.5553
Station Height(m) 60
Record Time       2025/01/13 21:20:39
Sampling Freq(Hz) 100Hz
Duration Time(s)  60
Dir.              E-W
Scale Factor      3920(gal)/6182761
Max. Acc. (gal)   2.543
Last Correction   2025/01/13 21:20:39
Memo.             
[...]
   18155    18388    18829    19037    18654    17851    17523    18111 
   18773    18892    18894    18904    18581    18264    18527    19059 
   19205    18925    18507    18191    18108    18031    17853    18071 
   18750    19052    18617    18079    17879    17862    17965    18249 
   18528    18570    18506    18508    18245    17618    17493    18337 
   19226    19308    18954    18802    18672    18280    18076    18369 
   18666    18437    17799    17474    17874    18390    18448    18377 
   18486    18480    18312    18465    18934    19188    19183    19087 
   18666    18037    17937    18447    18799    18786    18821    18902 
   18721    18331    18079    18084    18260    18731    19317    19239 
   18427    17790    17668    17696    17932    18531    18923    18620 
   18084    17833    17766    17991    18750    19428    19307    18674 
   18148    17975    18178    18659    19232    19472    19025    18401 
   18353    18684    18923    19173    19489    19618    19561    19494 
   19404    19187    18912    18805    18820    18710    18456    18076 
   17609    17433    17775    18297    18689    18956    19006    18682 
   18182    17956    18177    18448    18247    17581    16925    16578 
   16495    16828    17795    18838    19038    18395    17677    17306 
   17348    17916    18696    19005    18738    18346    18055    17946 
   18252    18794    18861    18419    18279    18535    18437    17924 
   17684    17939    18222    18202    18082    17989    17797    17774 
   18199    18661    18771    18723    18675    18636    18754    18835 
   18551    18303    18445    18602    18594    18548    18392    18179 
   18038    17988    18224    18748    19070    18990    18831    18798 
   18876    18987    19042    19070    18975    18576    18142    18101 
   18362    18442    18208    18219    18757    19145    19043    19144 
   19619    19714    19326    19172    19460    19606    19177    18631 
   18682    19087    19042    18662    18627    18718    18312    17610 
   17250    17578    18376    18868    18714    18552    18706    18540 
   17770    17112    17183    17685    17946    17885    17896    17931 
   17695    17490    17767    18257    18452    18522    18883    19170 
   18756    18015    17746    17903    18132    18504    18936    19037 
   18677    18162    18030    18443    18873    18955    18900    18822 
   18618    18373    18306    18449    18599    18695    18860    18966 
   18869    18736    18525    18122    18032    18639    19294    19240 
   18718    18431    18492    18484    18407    18740    19364    19486 
   18959    18445    18210    17962    17690    17608    17526    17218 
   17145    17657    18140    18079    17867    17910    18037    18109 
   18374    18725    18591    18150    18086    18233    18261    18435 
   18615    18463    18387    18631    18724    18533    18511    18866 
   19205    19145    18933    18815    18502    18057    18028    18349 
   18492    18458    18501    18598    18770    18956    18832    18510 
   18557    19013    19224    18809    18296    18283    18466    18281 
   17820    17597    17812    18015    17871    17804    18053    18293 
   18539    18871    18823    18236    17707    17758    18256    18564 
   18361    18173    18427    18691    18582    18484    18819    19261 
   19296    19121    19118    19075    18805    18723    19067    19272 
   18938    18544    18448    18445    18490    18504    18184    17742 
   17745    18226    18673    18607    18170    18047    18470    18825 
   18627    18193    17978    17961    18150    18671    19051    18762 
   18155    17786    17677    17618    17466    17338    17466    17602 
   17443    17320    17489    17798    18306    18928    19093    18719 
   18367    18235    18229    18430    18674    18577    18224    18031 
   18077    18099    17987    17973    18240    18612    18753    18464 
   17945    17733    17937    18177    18387    18708    18981    18964 
   18672    18469    18581    18594    18164    17647    17482    17755 
   18267    18612    18592    18408    18341    18583    19082    19506 
   19664    19622    19460    19294    19288    19442    19540    19454 
   19402    19461    19412    19311    19281    19212    19246    19531 
   19697    19392    18800    18368    18400    18777    19011    18922 
   18773    18620    18337    17995    17738    17750    18191    18770 
   18962    18680    18204    17861    17821    17860    17886    18110 
   18267    17974    17623    17750    18173    18294    18083    18335 
   19184    19564    19173    18908    18978    18797    18483    18716 
   19241    19015    18217    18085    18598    18944    19167    19251 
   18800    18248    18283    18636    18706    18442    18079    17788 
   17725    17872    18039    18201    18327    18082    17469    17114 
   17123    17031    17085    17663    18143    18060    17955    18094 
   18042    17867    18011    18265    18339    18582    19117    19429 
   19347    19172    18913    18594    18588    18891    19120    19264 
   19515    19606    19185    18700    18786    19125    19195    19180 
   19090    18499    17717    17632    18124    18249    18058    18320 
   18795    18789    18511    18492    18696    18764    18542    18286 
   18357    18708    18959    18971    18890    18702    18321    18051 
   18325    18957    19188    18750    18236    17984    17671    17351 
   17455    17887    18311    18562    18450    18243    18547    19126 
   19316    19193    18993    18567    18152    18314    18877    19030 
   18537    18055    18072    18246    18347    18708    19133    19061 
   18817    18948    19181    19099    18686    18093    17743    18016 
   18546    18868    19164    19397    19182    18881    18984    19045 
   18626    18079    17849    18001    18409    18816    18801    18218 
   17621    17705    18398    18863    18471    17572    17026    17080 
   17281    17474    17909    18465    18663    18337    17897    17790 
   17945    18105    18193    18182    18156    18330    18835    19437 
   19521    18784    17801    17465    18022    18877    19323    19208 
   18795    18388    18308    18686    19126    19161    18934    18773 
   18601    18428    18514    18666    18563    18456    18517    18522 
   18435    18373    18416    18605    18807    18844    18733    18677 
   18759    18744    18563    18519    18694    18878    19133    19561 
   19734    19320    18769    18622    18728    18666    18532    18644 
   18718    18376    17944    17829    17919    17985    17915    17645 
   17379    17505    17995    18450    18738    18895    18796    18524 
   18557    19000    19199    18843    18570    18802    18973    18500 
   17785    17604    18014    18508    18752    18629    18095    17417 
   17082    17258    17763    18246    18171    17415    16851    17262 
   17892    17639    17134    17428    17891    17659    17325    17606 
   18134    18429    18717    19136    19244    18873    18603    18912 
   19425    19630    19681    19871    19996    19665    19076    18895 
   19107    19142    19082    19322    19605    19322    18495    18071 
   18630    19287    19118    18734    18978    19390    19304    18880 
   18382    18056    18171    18458    18722    19181    19419    18886 
   18193    18055    18177    18342    18853    19497    19639    19107 
   18192    17519    17629    18180    18464    18416    18389    18402 
   18150    17728    17571    17570    17504    17762    18363    18551 
   18066    17291    16520    16221    16724    17514    18016    18280 
   18375    18172    17917    18179    18785    18905    18647    18831 
   19253    19174    18820    18682    18620    18579    18708    18799 
   18617    18386    18423    18627    18747    18815    18883    18818 
   18615    18377    18112    17840    17572    17302    17200    17270 
   17236    17303    17849    18483    18769    18931    19021    18782 
   18453    18451    18511    18136    17707    18028    18942    19451 
   19014    18132    17716    18012    18446    18720    19152    19609 
   19403    18600    18164    18461    18728    18450    18066    17981 
   18086    18190    18181    18131    18238    18252    17839    17545 
   18036    18867    19123    18684    18324    18518    18762    18716 
   18742    18654    17979    17368    17591    18147    18295    18064 
   17700    17247    16823    16778    17321    18060    18490    18736 
   18891    18588    17931    17468    17440    17799    18308    18668 
   18727    18493    18158    17878    17783    18084    18578    18891 
   19137    19390    19424    19271    19192    19375    19783    20056 
   19975    19746    19395    18671    17856    17821    18819    19910 
   20194    19770    19172    18809    19000    19682    20177    20025 
   19688    19709    19888    19861    19673    19453    19088    18461 
   17898    17970    18648    19220    19155    18600    18097    17981 
   17972    17689    17450    17578    17552    17189    17146    17398 
   17320    17122    17296    17612    17794    17939    18032    18095 
   18336    18582    18378    17874    17754    18137    18411    18262 
   18014    17880    17779    17851    18336    19092    19648    19531 
   18778    18069    17891    18178    18738    19341    19785    20001 
   19733    18902    18323    18621    19031    18878    18807    19196 
   19232    18570    18066    18096    18075    17945    18004    17882 
   17486    17478    17887    18043    17974    18029    17939    17791 
   18217    18794    18616    18220    18467    18817    18842    19142 
   19638    19627    19301    19114    18849    18417    18262    18500 
   18673    18546    18193    17588    16982    16947    17411    17737 
   17796    17762    17506    17157    17221    17731    18233    18475 
   18681    19119    19466    19272    18801    18555    18589    18682 
   18585    18334    18245    18236    17990    17759    17847    17975 
   17941    17890    17889    18040    18408    18625    18433    18253 
   18466    18767    18882    19062    19366    19422    19072    18569 
   18347    18533    18687    18527    18281    18229    18526    18947 
   19003    18740    18564    18624    18960    19469    19634    18955 
   17790    17238    17659    18255    18486    18503    18448    18359 
   18253    18126    18074    18254    18738    19264    19345    18935 
   18456    18125    17885    17834    18099    18493    18782    19022 
   19297    19445    19326    19120    19124    19392    19665    19600 
   19219    18848    18554    18338    18422    18708    18794    18581 
   18256    17914    17606    17519    17637    17698    17741    17937 
   18076    17814    17333    17334    17940    18372    18242    18132 
   18573    19314    19674    19230    18394    18091    18486    18878 
   18952    18894    18696    18419    18534    19159    19558    19293 
   18961    18970    19048    19245    19576    19497    19125    19148 
   19296    18816    17865    17251    17293    17634    18021    18376 
   18432    18250    18252    18288    17964    17774    18404    19286 
   19464    19105    18805    18636    18551    18581    18592    18414 
   18112    17933    18007    18213    18376    18403    18278    18175 
   18287    18400    18187    17836    17794    18029    18087    17884 
   17842    18024    18020    17763    17623    17780    18017    18122 
   18119    18109    18158    18291    18602    19193    19747    19781 
   19476    19256    19025    18728    18552    18489    18577    18780 
   18839    18863    18997    18930    18627    18344    17968    17632 
   17959    18708    18870    18341    17735    17362    17350    17606 
   17787    17725    17481    17270    17187    17061    17103    17684 
   18411    18790    18825    18447    17829    17518    17478    17509 
   17938    18679    18978    18446    17521    16972    17152    17734 
   18030    17589    16718    16187    16306    16804    17409    17916 
   18171    18353    18528    18280    17654    17463    18091    19072 
   19851    20187    20064    19682    19530    19796    19832    19493 
   19593    19923    19562    18832    18477    18581    19061    19625 
   19721    19165    18193    17270    16980    17333    17737    18156 
   18954    19675    19539    18742    18069    17883    18049    18238 
   18331    18717    19597    20331    20211    19493    18997    18938 
   18861    18629    18616    18961    19340    19571    19784    19815 
   19430    18974    18814    18802    18616    18328    18399    18846 
   19238    19494    19545    19050    18244    17958    18464    19105 
   19250    19095    19166    19453    19458    18846    17915    17499 
   18005    18725    18722    17995    17246    16861    16718    16733 
   16871    16728    16030    15391    15752    16973    17731    17515 
   17290    17524    17647    17428    17282    17577    18035    17981 
   17463    17311    17978    19162    20219    20571    20064    19090 
   18338    18233    18485    18666    18902    19311    19450    19117 
   18867    18975    19037    19053    19460    20180    20709    20682 
   20099    19495    19478    19798    19764    19440    19245    19089 
   18955    19244    19969    20503    20383    19847    19373    19236 
   19527    19896    19848    19633    19691    19737    19539    19443 
   19533    19332    18728    18441    18983    19768    20066    20058 
   20062    19633    18387    16803    15517    14725    14438    14722 
   15641    16833    17594    17775    17621    16973    15956    15521 
   16098    17018    17711    18181    18533    18751    18642    18219 
   17971    18124    18248    18014    17889    18484    19243    19245 
   18909    18895    18775    18341    17997    17682    17274    17149 
   17472    17936    18380    18997    19679    19684    18672    17542 
   17265    17623    17988    18182    18054    17659    17704    18442 
   19037    18946    18649    18636    18800    18956    19208    19667 
   20105    20081    19453    18647    18287    18573    19266    20171 
   21084    21590    21557    21160    20464    19665    18999    18473 
   18274    18490    18681    18707    18969    19431    19358    18315 
   16888    16019    16025    16664    17607    18546    19149    19161 
   18753    18293    17661    16694    15960    16060    16731    17396 
   18017    18613    18770    18400    18045    18160    18650    18952 
   18610    17836    17334    17524    17889    17813    17691    17772 
   17476    16972    17300    18707    20298    21169    21238    20826 
   20013    18914    18044    18013    18664    19018    18854    19009 
   19476    19335    18644    18382    18784    19230    19343    19240 
   19164    19325    19687    19946    19845    19342    18743    18551 
   18824    19218    19571    19940    20386    20731    20630    20254 
   20043    19729    19078    18780    19118    19282    18852    18314 
   17956    17572    17086    16716    16660    16855    17047    17134 
   17218    17382    17613    17702    17365    16751    16362    16406 
   16816    17537    18228    18292    17705    17058    16617    16200 
   15964    16320    17028    17425    17501    17638    17730    17603 
   17502    17545    17644    17972    18568    19005    19150    19395 
   19828    20026    19833    19537    19205    18700    18249    18012 
   17604    17007    16912    17444    17887    17854    17483    16960 
   16708    17087    17584    17491    16979    16598    16597    17015 
   17653    18167    18530    18964    19316    19038    18061    17166 
   17016    17371    17652    17708    17788    18052    18303    18393 
   18583    18950    19047    18770    18669    18828    18828    18883 
   19310    19588    19393    19223    19348    19438    19316    19148 
   19043    18918    18608    18119    17822    18067    18683    19244 
   19594    19807    19718    18960    17650    16457    15919    16228 
   17179    18215    19062    19770    20121    19831    19041    18241 
   18018    18533    19215    19602    19939    20331    20295    19763 
   19437    19502    19336    18943    19016    19597    20030    20027 
   19882    19662    19165    18446    17635    17049    17228    17898 
   18152    18076    18433    18959    18854    18352    18181    18300 
   18251    18105    18343    18974    19267    18682    17739    17281 
   17326    17421    17564    17964    18281    18116    18024    18587 
   19132    19007    18730    18570    17934    16908    16467    16981 
   17814    18221    18056    17758    17772    18045    18355    18724 
   19053    19030    18723    18552    18674    18908    19129    19200 
   18978    18724    18727    18652    18159    17587    17434    17828 
   18658    19749    20841    21384    21026    20349    20044    20065 
   20154    19935    19014    17900    17613    18201    18918    19391 
   19647    19741    19699    19488    19269    19394    19889    20290 
   20115    19438    18784    18422    18197    17925    17574    17207 
   16810    16345    16083    16246    16536    16772    17257    18030 
   18733    19202    19301    18916    18464    18338    18182    17778 
   17703    18238    18657    18333    17641    17138    16772    16599 
   17094    18138    18856    18648    17787    17035    16768    16729 
   16743    16927    17286    17743    18151    18268    18195    18255 
   18425    18468    18247    17827    17621    17879    18244    18449 
   18691    19070    19424    19546    19341    19025    18834    18648 
   18602    19221    20265    20820    20757    20519    20062    19296 
   18626    18484    18866    19310    19348    19053    18734    18385 
   17932    17583    17513    17542    17485    17613    18138    18534 
   18370    18131    18335    18737    18793    18366    17784    17442 
   17464    17662    17758    17774    18025    18419    18363    17972 
   18083    18614    18666    18169    17891    18095    18238    18076 
   18133    18568    18738    18337    17836    17766    18062    18144 
   17930    17954    18135    18038    17873    17808    17564    17185 
   17033    17146    17315    17445    17365    16935    16536    16586 
   16879    16997    16886    16863    17215    17765    18169    18451 
   18652    18522    18130    18058    18514    18775    18311    17884 
   18275    18905    18852    18269    18104    18636    19044    18897 
   18795    19044    19237    19234    19233    19278    19411    19655 
   19749    19541    19239    19069    19079    19131    19015    18702 
   18248    17662    17286    17664    18607    19213    19083    18748 
   18759    18934    18781    18323    18089    18288    18425    18132 
   17815    17915    18192    18228    18131    18333    18886    19369 
   19480    19353    19307    19323    19092    18667    18546    18948 
   19483    19738    19796    19723    19253    18467    17899    17817 
   18108    18599    19131    19496    19424    18810    18050    17705 
   17729    17705    17707    18014    18421    18608    18633    18697 
   18684    18387    18201    18529    18847    18680    18465    18534 
   18592    18452    18305    18400    18613    18405    17726    17378 
   17756    18292    18532    18598    18548    18222    17692    17316 
