Origin Time       2025/01/13 21:19:00
Lat.              31.8
Long.             131.6
Depth. (km)       30
Mag.              6.9
Station Code      KGS001
Station Lat.      32.1947
Station Long.     130.1763
Station Height(m) 77
Record Time       2025/01/13 21:19:57
Sampling Freq(Hz) 100Hz
Duration Time(s)  111
Dir.              U-D
Scale Factor      3920(gal)/6182761
Max. Acc. (gal)   2.165
Last Correction   2025/01/13 21:19:58
Memo.             
[...]
  -21503   -21506   -21576   -21727   -21934   -22095   -22159   -22169 
  -22157   -22112   -22018   -21906   -21818   -21732   -21611   -21490 
  -21429   -21454   -21565   -21754   -21990   -22217   -22360   -22386 
  -22330   -22233   -22113   -21994   -21896   -21817   -21763   -21735 
  -21693   -21626   -21587   -21628   -21755   -21927   -22078   -22188 
  -22278   -22369   -22459   -22538   -22591   -22598   -22512   -22305 
  -22022   -21731   -21455   -21190   -20916   -20625   -20356   -20171 
  -20150   -20380   -20847   -21401   -21876   -22174   -22286   -22280 
  -22216   -22134   -22090   -22084   -22080   -22103   -22161   -22226 
  -22331   -22495   -22653   -22762   -22808   -22763   -22621   -22382 
  -22060   -21713   -21438   -21277   -21167   -21051   -20951   -20900 
  -20923   -21036   -21232   -21463   -21660   -21810   -21996   -22261 
  -22536   -22736   -22819   -22787   -22692   -22566   -22399   -22202 
  -21983   -21717   -21434   -21208   -21086   -21084   -21188   -21349 
  -21513   -21656   -21780   -21891   -21955   -21961   -21934   -21881 
  -21814   -21737   -21610   -21422   -21260   -21220   -21306   -21453 
  -21587   -21682   -21745   -21784   -21835   -21933   -22049   -22162 
  -22281   -22370   -22360   -22219   -21997   -21798   -21679   -21607 
  -21526   -21451   -21477   -21657   -21924   -22165   -22328   -22467 
  -22651   -22897   -23187   -23455   -23597   -23583   -23454   -23233 
  -22942   -22638   -22431   -22398   -22488   -22582   -22587   -22476 
  -22269   -21974   -21623   -21318   -21134   -21103   -21259   -21558 
  -21858   -22056   -22154   -22198   -22209   -22194   -22152   -22113 
  -22118   -22121   -22032   -21858   -21688   -21569   -21523   -21571 
  -21661   -21759   -21870   -21925   -21833   -21590   -21239   -20837 
  -20495   -20352   -20468   -20793   -21211   -21586   -21838   -21971 
  -22034   -22082   -22155   -22224   -22217   -22120   -21958   -21756 
  -21584   -21525   -21531   -21481   -21351   -21173   -20978   -20819 
  -20704   -20595   -20486   -20381   -20293   -20254   -20296   -20465 
  -20728   -20954   -21103   -21214   -21248   -21198   -21155   -21175 
  -21279   -21470   -21695   -21939   -22245   -22595   -22920   -23159 
  -23298   -23382   -23433   -23454   -23440   -23351   -23214   -23099 
  -23018   -22995   -23074   -23241   -23489   -23787   -24023   -24084 
  -23963   -23715   -23361   -22913   -22415   -21946   -21583   -21353 
  -21269   -21349   -21568   -21839   -22073   -22234   -22344   -22430 
  -22471   -22426   -22300   -22149   -22024   -21930   -21842   -21734 
  -21616   -21530   -21521   -21608   -21814   -22142   -22508   -22802 
  -22997   -23089   -23065   -22966   -22829   -22659   -22495   -22382 
  -22328   -22340   -22376   -22343   -22203   -21994   -21759   -21556 
  -21434   -21372   -21343   -21351   -21378   -21428   -21524   -21634 
  -21681   -21599   -21377   -21083   -20795   -20580   -20486   -20495 
  -20533   -20556   -20560   -20573   -20622   -20686   -20740   -20801 
  -20891   -20990   -21062   -21124   -21221   -21350   -21490   -21617 
  -21740   -21901   -22085   -22185   -22113   -21879   -21561   -21238 
  -20968   -20783   -20700   -20742   -20912   -21181   -21478   -21701 
  -21780   -21739   -21633   -21493   -21355   -21277   -21258   -21277 
  -21355   -21497   -21654   -21795   -21928   -22068   -22222   -22360 
  -22441   -22462   -22421   -22305   -22129   -21927   -21740   -21594 
  -21487   -21421   -21412   -21468   -21594   -21794   -22049   -22312 
  -22516   -22638   -22710   -22757   -22772   -22758   -22741   -22747 
  -22775   -22807   -22821   -22756   -22547   -22230   -21916   -21675 
  -21553   -21594   -21757   -21954   -22100   -22135   -22072   -22014 
  -22077   -22273   -22485   -22606   -22636   -22611   -22543   -22433 
  -22272   -22061   -21859   -21765   -21790   -21845   -21858   -21833 
  -21839   -21948   -22167   -22485   -22876   -23234   -23437   -23415 
  -23143   -22678   -22130   -21615   -21245   -21049   -20971   -20938 
  -20879   -20773   -20638   -20502   -20446   -20549   -20795   -21111 
  -21424   -21688   -21896   -22067   -22198   -22272   -22332   -22460 
  -22682   -22968   -23248   -23395   -23308   -22999   -22549   -22086 
  -21738   -21540   -21460   -21439   -21387   -21226   -20938   -20571 
  -20213   -19923   -19716   -19615   -19663   -19866   -20199   -20590 
  -20937   -21175   -21299   -21350   -21406   -21550   -21799   -22108 
  -22413   -22648   -22757   -22728   -22626   -22524   -22417   -22288 
  -22126   -21901   -21605   -21272   -20925   -20575   -20283   -20154 
  -20229   -20462   -20801   -21208   -21681   -22197   -22636   -22902 
  -23040   -23099   -23079   -23000   -22884   -22751   -22674   -22711 
  -22847   -23036   -23205   -23307   -23358   -23352   -23275   -23161 
  -23044   -22897   -22681   -22408   -22147   -21953   -21823   -21764 
  -21811   -21957   -22130   -22274   -22397   -22510   -22595   -22664 
  -22740   -22825   -22899   -22926   -22887   -22821   -22791   -22810 
  -22832   -22824   -22780   -22712   -22654   -22656   -22744   -22892 
  -23002   -22963   -22773   -22512   -22223   -21936   -21701   -21553 
  -21487   -21472   -21477   -21463   -21410   -21321   -21192   -20999 
  -20754   -20484   -20229   -20047   -19964   -19961   -20031   -20168 
  -20316   -20409   -20454   -20490   -20562   -20732   -21016   -21352 
  -21685   -21981   -22218   -22398   -22528   -22601   -22583   -22473 
  -22322   -22187   -22123   -22131   -22123   -22053   -21970   -21946 
  -22016   -22145   -22251   -22289   -22286   -22268   -22201   -22055 
  -21882   -21785   -21826   -21943   -22001   -21956   -21808   -21485 
  -20960   -20357   -19858   -19598   -19595   -19786   -20132   -20615 
  -21182   -21747   -22243   -22664   -23051   -23379   -23549   -23465 
  -23090   -22479   -21781   -21216   -20992   -21125   -21432   -21750 
  -22005   -22181   -22324   -22476   -22599   -22637   -22583   -22475 
  -22370   -22298   -22253   -22238   -22219   -22157   -22111   -22129 
  -22200   -22360   -22639   -22982   -23284   -23440   -23400   -23192 
  -22852   -22389   -21846   -21334   -20968   -20796   -20760   -20694 
  -20465   -20101   -19742   -19519   -19505   -19703   -20051   -20489 
  -20995   -21518   -21941   -22128   -22012   -21676   -21284   -20980 
  -20878   -21006   -21246   -21439   -21486   -21409   -21347   -21395 
  -21544   -21798   -22141   -22428   -22483   -22246   -21841   -21506 
  -21372   -21407   -21565   -21820   -22149   -22490   -22736   -22845 
  -22875   -22854   -22787   -22713   -22696   -22769   -22892   -22972 
  -22954   -22802   -22479   -22065   -21745   -21608   -21613   -21704 
  -21827   -21961   -22107   -22227   -22328   -22438   -22510   -22480 
  -22345   -22139   -21909   -21673   -21446   -21223   -20968   -20699 
  -20446   -20181   -19950   -19891   -20082   -20490   -21009   -21489 
  -21821   -21968   -21918   -21731   -21541   -21447   -21511   -21728 
  -21981   -22191   -22366   -22520   -22701   -22955   -23245   -23480 
  -23603   -23630   -23655   -23754   -23843   -23812   -23747   -23798 
  -23948   -24085   -24164   -24189   -24124   -23912   -23572   -23181 
  -22774   -22395   -22191   -22276   -22598   -23004   -23313   -23381 
  -23200   -22848   -22393   -21886   -21377   -20946   -20658   -20497 
  -20494   -20736   -21204   -21788   -22383   -22893   -23229   -23278 
  -23003   -22546   -22102   -21775   -21578   -21471   -21378   -21235 
  -21028   -20804   -20655   -20609   -20607   -20630   -20743   -20975 
  -21272   -21539   -21693   -21737   -21762   -21800   -21767   -21590 
  -21305   -21034   -20876   -20824   -20815   -20837   -20938   -21143 
  -21424   -21731   -21979   -22107   -22167   -22248   -22358   -22457 
  -22507   -22498   -22528   -22670   -22836   -22984   -23187   -23454 
  -23680   -23700   -23432   -22962   -22386   -21772   -21218   -20826 
  -20694   -20822   -21040   -21185   -21290   -21488   -21809   -22175 
  -22517   -22818   -23040   -23087   -22896   -22508   -21981   -21393 
  -20886   -20621   -20667   -20938   -21257   -21500   -21698   -21965 
  -22301   -22557   -22649   -22648   -22683   -22792   -22890   -22898 
  -22828   -22707   -22562   -22384   -22153   -21952   -21877   -21906 
  -21962   -22002   -22060   -22216   -22498   -22852   -23172   -23386 
  -23450   -23306   -22945   -22422   -21811   -21196   -20715   -20501 
  -20515   -20570   -20551   -20487   -20446   -20498   -20746   -21201 
  -21674   -21973   -22082   -22082   -21988   -21756   -21429   -21142 
  -20973   -20891   -20847   -20808   -20769   -20790   -20939   -21172 
  -21383   -21536   -21626   -21609   -21471   -21275   -21079   -20880 
  -20671   -20494   -20467   -20664   -20986   -21294   -21567   -21835 
  -22169   -22601   -23055   -23435   -23656   -23664   -23485   -23199 
  -22930   -22757   -22637   -22511   -22345   -22153   -21992   -21894 
  -21886   -21963   -22091   -22291   -22558   -22804   -23012   -23206 
  -23319   -23310   -23290   -23393   -23659   -24006   -24219   -24138 
  -23839   -23512   -23258   -23101   -23063   -23125   -23164   -23016 
  -22596   -21932   -21112   -20261   -19591   -19287   -19381   -19811 
  -20436   -21018   -21373   -21494   -21444   -21300   -21187   -21197 
  -21305   -21441   -21532   -21575   -21651   -21795   -21957   -22111 
  -22333   -22695   -23095   -23331   -23286   -22991   -22620   -22402 
  -22446   -22738   -23214   -23800   -24401   -24860   -25037   -24922 
  -24565   -24060   -23571   -23198   -22921   -22682   -22445   -22230 
  -22071   -21942   -21764   -21488   -21162   -20843   -20569   -20399 
  -20361   -20427   -20561   -20775   -21114   -21509   -21794   -21912 
  -21938   -21925   -21881   -21853   -21890   -21990   -22140   -22317 
  -22478   -22597   -22667   -22662   -22506   -22145   -21705   -21364 
  -21136   -20908   -20639   -20425   -20392   -20584   -20939   -21296 
  -21449   -21293   -20885   -20397   -20035   -19901   -19943   -20070 
  -20232   -20427   -20697   -21029   -21312   -21462   -21505   -21536 
  -21685   -22032   -22508   -22987   -23365   -23546   -23499   -23334 
  -23224   -23186   -23078   -22832   -22500   -22117   -21654   -21050 
  -20319   -19610   -19121   -18938   -18999   -19205   -19513   -19914 
  -20402   -20938   -21472   -21975   -22362   -22512   -22384   -22068 
  -21723   -21457   -21320   -21331   -21415   -21471   -21499   -21561 
  -21686   -21829   -21925   -21989   -22048   -22030   -21893   -21759 
  -21809   -22108   -22589   -23120   -23556   -23776   -23764   -23603 
  -23374   -23143   -22997   -22954   -22964   -23011   -23075   -23096 
  -23039   -22904   -22724   -22541   -22353   -22145   -21935   -21702 
  -21415   -21082   -20703   -20302   -19960   -19745   -19693   -19804 
  -20039   -20357   -20662   -20819   -20823   -20802   -20854   -21021 
  -21299   -21598   -21770   -21704   -21399   -20982   -20589   -20277 
  -20084   -20082   -20305   -20657   -20956   -21114   -21211   -21330 
  -21468   -21626   -21811   -22020   -22302   -22702   -23169   -23587 
  -23818   -23817   -23692   -23546   -23379   -23180   -22999   -22884 
  -22827   -22761   -22621   -22451   -22368   -22370   -22337   -22194 
  -21960   -21692   -21422   -21175   -20986   -20851   -20761   -20778 
  -20935   -21161   -21398   -21634   -21875   -22157   -22481   -22791 
  -23017   -23140   -23195   -23191   -23127   -23048   -22968   -22871 
  -22772   -22675   -22546   -22319   -21948   -21465   -21003   -20711 
  -20599   -20558   -20520   -20525   -20638   -20842   -21013   -21096 
  -21186   -21334   -21465   -21498   -21420   -21277   -21146   -21081 
  -21028   -20869   -20601   -20347   -20211   -20197   -20282   -20493 
  -20850   -21266   -21608   -21826   -21940   -21975   -21950   -21895 
  -21870   -21915   -22009   -22097   -22144   -22172   -22207   -22238 
  -22250   -22258   -22297   -22355   -22354   -22243   -22043   -21823 
  -21670   -21656   -21804   -22061   -22299   -22418   -22442   -22453 
  -22489   -22566   -22717   -22926   -23091   -23119   -23042   -22976 
  -22995   -23094   -23261   -23497   -23751   -23947   -24050   -24055 
  -23952   -23753   -23523   -23318   -23151   -23039   -22997   -23017 
  -23103   -23277   -23487   -23621   -23657   -23665   -23656   -23596 
  -23498   -23370   -23187   -22974   -22807   -22721   -22683   -22623 
  -22473   -22218   -21911   -21609   -21327   -21114   -21052   -21117 
  -21199   -21233   -21215   -21207   -21266   -21364   -21483   -21599 
  -21616   -21495   -21297   -21099   -21008   -21048   -21109   -21118 
  -21068   -20929   -20712   -20461   -20204   -19985   -19839   -19780 
  -19805   -19849   -19821   -19700   -19547   -19475   -19578   -19830 
  -20155   -20509   -20861   -21198   -21526   -21829   -22104   -22382 
  -22686   -23024   -23381   -23724   -23995   -24111   -24031   -23802 
  -23521   -23309   -23230   -23239   -23250   -23213   -23132   -23034 
  -22960   -22916   -22877   -22813   -22698   -22541   -22402   -22328 
  -22292   -22264   -22296   -22479   -22811   -23180   -23427   -23451 
  -23294   -23091   -22925   -22809   -22756   -22793   -22909   -23053 
  -23160   -23200   -23219   -23251   -23243   -23139   -22969   -22812 
  -22652   -22389   -22020   -21647   -21331   -21046   -20766   -20510 
  -20298   -20141   -20057   -20005   -19905   -19733   -19502   -19196 
  -18845   -18567   -18488   -18664   -19065   -19627   -20254   -20794 
  -21141   -21299   -21335   -21310   -21276   -21261   -21273   -21340 
  -21491   -21711   -21957   -22191   -22394   -22561   -22718   -22911 
  -23143   -23385   -23615   -23758   -23767   -23672   -23491   -23234 
  -22949   -22662   -22364   -22041   -21711   -21390   -21027   -20581 
  -20112   -19719   -19491   -19472   -19608   -19794   -19972   -20132 
  -20269   -20376   -20463   -20523   -20527   -20489   -20439   -20389 
  -20384   -20490   -20713   -21011   -21345   -21685   -22034   -22404 
  -22776   -23150   -23530   -23874   -24145   -24341   -24470   -24541 
  -24551   -24484   -24339   -24178   -24067   -24028   -24040   -24007 
  -23856   -23612   -23321   -23018   -22727   -22446   -22166   -21872 
  -21567   -21276   -20995   -20708   -20367   -19945   -19539   -19283 
  -19204   -19267   -19456   -19713   -19951   -20149   -20341   -20565 
  -20852   -21220   -21663   -22142   -22605   -22987   -23235   -23329 
  -23247   -23015   -22754   -22534   -22316   -22081   -21872   -21771 
  -21796   -21849   -21828   -21734   -21637   -21596   -21648   -21789 
  -21939   -21994   -21963   -21923   -21877   -21815   -21799   -21844 
  -21864   -21785   -21609   -21406   -21303   -21362   -21530   -21762 
  -22032   -22297   -22539   -22735   -22821   -22773   -22658   -22518 
  -22332   -22094   -21845   -21608   -21360   -21091   -20858   -20721 
  -20649   -20570   -20457   -20336   -20264   -20300   -20448   -20648 
  -20842   -21010   -21120   -21151   -21147   -21160   -21213   -21311 
  -21444   -21610   -21811   -22005   -22116   -22127   -22113   -22166 
  -22306   -22510   -22739   -22955   -23099   -23090   -22921   -22689 
  -22468   -22270   -22102   -21979   -21900   -21857   -21846   -21862 
  -21869   -21827   -21761   -21740   -21809   -21958   -22142   -22315 
  -22424   -22416   -22306   -22182   -22132   -22183   -22297   -22429 
  -22567   -22670   -22673   -22554   -22338   -22060   -21758   -21461 
  -21192   -20950   -20728   -20552   -20452   -20413   -20417   -20461 
  -20568   -20747   -20967   -21231   -21590   -22022   -22420   -22699 
  -22846   -22913   -22963   -23007   -23059   -23169   -23357   -23590 
  -23817   -24008   -24169   -24311   -24429   -24466   -24318   -23979 
  -23582   -23243   -22955   -22663   -22363   -22104   -21935   -21852 
  -21810   -21771   -21699   -21572   -21420   -21295   -21208   -21099 
  -20938   -20761   -20560   -20312   -20047   -19825   -19730   -19802 
  -19960   -20086   -20142   -20118   -20016   -19933   -19991   -20218 
  -20552   -20878   -21134   -21390   -21712   -22077   -22427   -22681 
  -22764   -22682   -22511   -22325   -22201   -22222   -22393   -22625 
  -22789   -22800   -22659   -22395   -22060   -21753   -21565   -21518 
  -21575   -21681   -21770   -21758   -21614   -21400   -21161   -20889 
  -20609   -20371   -20248   -20335   -20643   -21034   -21339   -21493 
  -21529   -21516   -21521   -21584   -21718   -21898   -22081   -22243 
  -22386   -22550   -22769   -23046   -23365   -23684   -23928   -24040 
  -23986   -23789   -23550   -23368   -23305   -23356   -23433   -23495 
  -23571   -23651   -23682   -23631   -23528   -23422   -23320   -23229 
  -23171   -23156   -23185   -23236   -23263   -23253   -23219   -23157 
  -23034   -22798   -22473   -22198   -22058   -21970   -21820   -21591 
  -21337   -21151   -21136   -21303   -21547   -21766   -21932   -22033 
  -22025   -21927   -21822   -21741   -21663   -21604   -21577   -21593 
  -21684   -21829   -21977   -22115   -22234   -22302   -22320   -22305 
  -22263   -22204   -22136   -22053   -21953   -21853   -21770   -21694 
  -21622   -21582   -21594   -21657   -21748   -21829   -21907   -22043 
  -22265   -22543   -22807   -22985   -23055   -23044   -22981   -22881 
  -22785   -22754   -22777   -22759   -22649   -22482   -22322   -22216 
  -22150   -22108   -22106   -22128   -22110   -21989   -21763   -21500 
  -21306   -21258   -21319   -21398   -21430   -21385   -21269   -21143 
  -21079   -21089   -21120   -21129   -21136   -21227   -21479   -21837 
  -22205   -22530   -22749   -22813   -22710   -22428   -22012   -21577 
  -21188   -20824   -20515   -20348   -20331   -20399   -20517   -20682 
  -20880   -21093   -21300   -21480   -21656   -21858   -22039   -22132 
  -22133   -22052   -21863   -21535   -21081   -20581   -20141   -19801 
  -19563   -19467   -19547   -19774   -20077   -20384   -20660   -20915 
  -21182   -21500   -21848   -22142   -22331   -22410   -22360   -22180 
  -21919   -21644   -21422   -21305   -21295   -21385   -21576   -21838 
  -22116   -22391   -22643   -22818   -22882   -22840   -22717   -22549 
  -22372   -22197   -22024   -21871   -21743   -21621   -21519   -21480 
  -21494   -21548   -21684   -21901   -22134   -22321   -22419   -22394 
  -22241   -21965   -21577   -21111   -20642   -20270   -20066   -20009 
  -19999   -19941   -19835   -19750   -19761   -19938   -20281   -20711 
  -21140   -21458   -21589   -21582   -21505   -21385   -21242   -21080 
  -20885   -20668   -20478   -20361   -20331   -20381   -20493   -20615 
  -20698   -20752   -20794   -20792   -20737   -20673   -20667   -20778 
  -20990   -21221   -21425   -21602   -21779   -21977   -22198   -22446 
  -22719   -23017   -23312   -23561   -23791   -24018   -24198   -24330 
  -24425   -24479   -24494   -24444   -24343   -24241   -24132   -23985 
  -23800   -23584   -23332   -23055   -22784   -22542   -22313   -22070 
  -21827   -21616   -21469   -21412   -21431   -21468   -21494   -21552 
  -21709   -21986   -22328   -22624   -22786   -22805   -22719   -22593 
  -22527   -22572   -22670   -22748   -22763   -22659   -22421   -22120 
  -21853   -21688   -21644   -21710   -21853   -22022   -22177   -22289 
  -22320   -22288   -22246   -22197   -22111   -21998   -21899   -21850 
