Origin Time       2025/01/13 21:19:00
Lat.              31.8
Long.             131.6
Depth. (km)       30
Mag.              6.9
Station Code      KGS002
Station Lat.      32.0916
Station Long.     130.3519
Station Height(m) 12
Record Time       2025/01/13 21:19:54
Sampling Freq(Hz) 100Hz
Duration Time(s)  108
Dir.              U-D
Scale Factor      7845(gal)/8223790
Max. Acc. (gal)   3.976
Last Correction   2025/01/13 21:19:54
Memo.             
[...]
   12451    12449    12455    12457    12451    12452    12456    12452 
   12449    12451    12451    12453    12460    12456    12447    12447 
   12451    12449    12449    12453    12453    12455    12457    12449 
   12447    12453    12451    12447    12453    12456    12452    12453 
   12457    12453    12448    12447    12451    12453    12453    12453 
   12453    12453    12455    12451    12448    12451    12451    12452 
   12455    12451    12447    12455    12457    12452    12451    12456 
   12453    12445    12448    12453    12451    12451    12456    12455 
   12451    12453    12451    12444    12449    12460    12456    12441 
   12449    12463    12453    12448    12456    12452    12442    12448 
   12455    12455    12452    12449    12449    12449    12453    12456 
   12451    12449    12452    12451    12447    12447    12451    12451 
   12451    12451    12451    12452    12451    12447    12452    12453 
   12440    12441    12453    12451    12449    12452    12447    12447 
   12453    12448    12436    12441    12456    12451    12438    12444 
   12447    12441    12448    12452    12442    12438    12445    12442 
   12432    12430    12437    12434    12428    12429    12430    12433 
   12436    12432    12436    12456    12460    12459    12474    12475 
   12468    12486    12494    12483    12487    12492    12492    12495 
   12490    12483    12488    12490    12487    12484    12490    12501 
   12503    12501    12498    12491    12482    12476    12476    12476 
   12476    12475    12467    12459    12463    12472    12474    12474 
   12469    12451    12429    12413    12393    12359    12322    12282 
   12241    12208    12186    12177    12175    12177    12164    12143 
   12117    12082    12052    12046    12051    12056    12060    12064 
   12069    12082    12109    12145    12181    12209    12221    12213 
   12208    12222    12260    12337    12447    12553    12648    12729 
   12798    12868    12934    12969    12955    12900    12829    12750 
   12685    12649    12621    12567    12495    12425    12355    12297 
   12274    12301    12361    12432    12506    12590    12692    12833 
   12972    13053    13059    12999    12910    12849    12826    12829 
   12850    12862    12842    12796    12734    12660    12575    12501 
   12449    12388    12313    12280    12330    12441    12586    12721 
   12814    12892    12966    13019    13049    13074    13105    13132 
   13130    13077    12984    12876    12773    12683    12591    12483 
   12355    12212    12062    11948    11943    12082    12344    12640 
   12857    12934    12881    12745    12546    12283    11988    11722 
   11515    11349    11195    11047    10903    10779    10692    10639 
   10620    10667    10754    10808    10848    10926    11060    11259 
   11489    11696    11908    12160    12406    12629    12869    13134 
   13385    13549    13564    13459    13348    13329    13379    13386 
   13300    13178    13086    13026    12973    12920    12857    12792 
   12754    12715    12646    12595    12613    12658    12679    12669 
   12630    12590    12600    12645    12656    12606    12530    12501 
   12544    12579    12540    12461    12415    12418    12434    12434 
   12424    12445    12501    12506    12451    12429    12480    12550 
   12606    12646    12649    12606    12529    12432    12348    12307 
   12306    12356    12486    12667    12861    13068    13254    13367 
   13408    13397    13346    13267    13196    13167    13189    13221 
   13200    13076    12865    12637    12437    12247    12024    11758 
   11518    11391    11375    11395    11422    11477    11569    11685 
   11794    11873    11932    11978    11956    11850    11734    11684 
   11712    11784    11851    11902    11943    11955    11934    11923 
   11981    12150    12410    12679    12918    13171    13447    13706 
   13917    14026    14007    13910    13801    13687    13548    13383 
   13219    13089    13027    13020    13000    12953    12924    12912 
   12864    12750    12606    12495    12444    12441    12480    12576 
   12694    12715    12564    12313    12096    11962    11830    11584 
   11246    10952    10770    10689    10678    10719    10785    10825 
   10790    10720    10706    10798    10987    11232    11472    11708 
   11959    12208    12436    12631    12791    12960    13162    13327 
   13375    13342    13328    13385    13516    13686    13825    13894 
   13902    13861    13784    13728    13744    13834    13963    14072 
   14123    14085    13917    13630    13308    13047    12907    12860 
   12845    12789    12595    12226    11758    11300    10986    10894 
   10922    10902    10813    10739    10755    10917    11223    11591 
   11967    12361    12729    12964    13028    12970    12854    12741 
   12654    12599    12590    12634    12706    12717    12614    12474 
   12364    12263    12206    12285    12487    12733    12933    13008 
   12918    12683    12374    12062    11819    11732    11789    11871 
   11940    12040    12178    12339    12546    12768    12910    12941 
   12883    12719    12494    12309    12183    12113    12118    12140 
   12124    12118    12145    12170    12209    12313    12513    12799 
   13078    13240    13275    13234    13122    12926    12645    12330 
   12077    11988    12104    12368    12685    12969    13155    13208 
   13113    12880    12611    12432    12349    12283    12186    12060 
   11932    11851    11817    11784    11777    11826    11862    11828 
   11708    11442    11052    10678    10428    10319    10362    10578 
   10952    11453    12006    12469    12733    12823    12820    12730 
   12536    12314    12241    12442    12838    13235    13521    13709 
   13886    14083    14192    14154    14085    14114    14235    14373 
   14463    14480    14423    14354    14323    14251    14029    13722 
   13464    13271    13119    12991    12846    12711    12649    12590 
   12421    12198    12066    12071    12170    12310    12409    12415 
   12374    12318    12193    11958    11646    11294    10898    10517 
   10242    10081    10030    10085    10172    10235    10295    10363 
   10444    10531    10585    10613    10681    10835    11047    11261 
   11502    11848    12279    12684    12991    13219    13440    13667 
   13844    13930    13932    13905    13918    13941    13861    13660 
   13439    13284    13213    13208    13220    13207    13138    13039 
   12922    12729    12455    12131    11742    11322    10963    10712 
   10582    10578    10673    10837    11103    11454    11750    11866 
   11811    11689    11588    11516    11457    11437    11519    11753 
   12109    12467    12765    13007    13158    13185    13085    12868 
   12641    12580    12733    13003    13282    13501    13614    13620 
   13585    13602    13680    13779    13878    13937    13914    13832 
   13751    13736    13815    13977    14176    14362    14469    14435 
   14261    13998    13701    13397    13095    12833    12677    12660 
   12726    12752    12631    12370    12071    11839    11684    11583 
   11542    11605    11808    12087    12339    12517    12607    12606 
   12557    12513    12461    12397    12336    12263    12187    12124 
   12040    11920    11811    11736    11692    11685    11701    11711 
   11750    11870    12031    12163    12252    12289    12244    12152 
   12090    12056    12029    12035    12071    12127    12240    12448 
   12708    12958    13180    13360    13460    13482    13464    13406 
   13306    13204    13113    13001    12874    12793    12788    12838 
   12874    12841    12727    12575    12436    12409    12526    12667 
   12696    12599    12413    12243    12217    12313    12387    12341 
   12143    11826    11465    11122    10836    10655    10656    10908 
   11358    11875    12345    12710    12977    13181    13297    13302 
   13244    13184    13122    13034    12895    12685    12472    12352 
   12325    12347    12397    12459    12530    12594    12622    12630 
   12629    12580    12449    12241    11989    11747    11604    11610 
   11719    11897    12128    12322    12407    12410    12370    12307 
   12232    12137    12055    12055    12214    12522    12879    13182 
   13392    13504    13532    13516    13512    13555    13605    13589 
   13479    13284    13055    12846    12660    12479    12298    12093 
   11875    11704    11592    11514    11434    11314    11134    10925 
   10754    10679    10723    10874    11107    11361    11587    11784 
   11974    12160    12322    12453    12546    12582    12550    12455 
   12271    12029    11819    11711    11732    11828    11902    11897 
   11813    11719    11708    11819    12021    12301    12652    13023 
   13331    13531    13628    13645    13590    13467    13305    13163 
   13096    13111    13173    13248    13313    13369    13406    13392 
   13308    13180    13038    12915    12845    12849    12900    12945 
   12966    12957    12881    12734    12549    12334    12110    11913 
   11727    11537    11356    11219    11142    11110    11106    11101 
   11055    11018    11088    11308    11678    12139    12565    12877 
   13085    13207    13234    13166    13043    12955    12987    13134 
   13327    13467    13460    13273    12972    12663    12395    12172 
   11998    11869    11824    11897    12033    12156    12253    12359 
   12538    12825    13170    13482    13679    13747    13682    13494 
   13274    13136    13116    13224    13412    13551    13539    13381 
   13161    12993    12946    13011    13128    13240    13356    13506 
   13655    13749    13783    13757    13670    13533    13350    13072 
   12660    12171    11716    11380    11188    11099    11056    11047 
   11052    11053    11036    10993    10955    10947    10921    10797 
   10562    10293    10057     9846     9684     9630     9718     9937 
   10188    10351    10430    10484    10511    10503    10488    10528 
   10724    11064    11408    11684    11919    12152    12453    12834 
   13158    13294    13269    13185    13157    13247    13427    13628 
   13833    14084    14415    14769    15029    15118    15057    14925 
   14802    14740    14758    14820    14871    14866    14782    14608 
   14354    14071    13797    13536    13306    13135    13031    12997 
   13045    13107    13081    12945    12748    12529    12295    12046 
   11778    11531    11367    11317    11367    11469    11588    11685 
   11691    11570    11418    11314    11254    11264    11406    11661 
   11952    12225    12426    12506    12463    12357    12247    12148 
   12096    12144    12306    12518    12683    12748    12760    12810 
   12947    13165    13383    13536    13622    13637    13564    13401 
   13135    12754    12312    11900    11557    11265    11055    10971 
   10995    11083    11226    11407    11618    11880    12177    12424 
   12557    12611    12650    12648    12545    12348    12106    11916 
   11835    11811    11790    11793    11832    11890    11978    12105 
   12247    12375    12488    12588    12694    12818    12927    13001 
   13090    13190    13247    13265    13273    13288    13327    13367 
   13347    13277    13220    13220    13288    13382    13451    13479 
   13477    13440    13378    13324    13298    13266    13190    13077 
   12954    12866    12856    12911    12972    12981    12901    12754 
   12604    12495    12438    12422    12441    12488    12498    12405 
   12241    12056    11873    11711    11550    11367    11200    11122 
   11171    11287    11392    11489    11572    11576    11483    11354 
   11261    11238    11283    11364    11429    11464    11510    11583 
   11670    11765    11858    11909    11900    11854    11840    11923 
   12102    12339    12604    12884    13161    13405    13545    13520 
   13356    13166    13019    12934    12930    13008    13147    13298 
   13363    13267    13049    12800    12586    12445    12402    12463 
   12613    12810    13024    13224    13336    13298    13128    12907 
   12717    12604    12571    12568    12572    12603    12640    12615 
   12507    12341    12168    12040    11989    12037    12171    12329 
   12463    12523    12468    12314    12108    11893    11746    11728 
   11828    12012    12259    12567    12897    13170    13354    13458 
   13470    13389    13225    12989    12733    12502    12279    12063 
   11881    11753    11703    11769    11950    12152    12302    12421 
   12536    12673    12872    13069    13180    13232    13267    13238 
   13078    12825    12552    12280    12028    11854    11793    11801 
   11834    11861    11834    11745    11620    11479    11319    11178 
   11124    11169    11273    11430    11623    11801    11963    12127 
   12285    12436    12613    12823    13026    13174    13246    13208 
   13042    12799    12556    12316    12104    12052    12225    12495 
   12725    12873    12951    13026    13169    13294    13296    13281 
   13392    13598    13792    13887    13879    13853    13867    13856 
   13743    13540    13332    13201    13178    13250    13396    13598 
   13834    14031    14071    13888    13544    13107    12618    12144 
   11765    11534    11487    11581    11693    11730    11707    11680 
   11672    11666    11637    11573    11456    11232    10858    10330 
    9715     9112     8599     8284     8293     8654     9296    10119 
   11043    11961    12760    13342    13643    13635    13350    12860 
   12267    11715    11318    11102    11067    11214    11484    11789 
   12075    12307    12498    12702    12931    13165    13433    13782 
   14081    14129    13899    13516    13119    12823    12622    12405 
   12194    12147    12340    12691    13065    13379    13625    13764 
   13760    13662    13517    13352    13193    13045    12923    12856 
   12788    12636    12453    12383    12463    12611    12773    12955 
   13208    13567    13969    14330    14592    14681    14524    14079 
   13358    12537    11847    11406    11264    11425    11765    12123 
   12390    12511    12517    12509    12568    12704    12910    13132 
   13267    13265    13155    12978    12779    12607    12442    12263 
   12101    11950    11780    11638    11569    11566    11603    11646 
   11655    11645    11662    11691    11680    11650    11692    11885 
   12221    12604    12904    13018    12941    12768    12613    12559 
   12610    12641    12544    12384    12295    12355    12557    12762 
   12815    12677    12409    12097    11809    11580    11437    11396 
   11496    11804    12287    12803    13235    13518    13599    13485 
   13216    12831    12411    12064    11821    11607    11372    11194 
   11145    11214    11352    11500    11645    11819    12058    12390 
   12812    13289    13774    14191    14439    14473    14334    14084 
   13738    13323    12957    12727    12618    12586    12559    12488 
   12444    12495    12592    12649    12626    12525    12348    12137 
   12025    12090    12264    12472    12698    12874    12945    12966 
   13003    13035    13035    12970    12808    12653    12717    13001 
   13251    13328    13315    13204    12924    12505    12000    11508 
   11199    11105    11098    11107    11169    11308    11499    11735 
   12039    12348    12564    12715    12861    12931    12783    12391 
   11892    11452    11152    10960    10801    10700    10763    11009 
   11357    11739    12133    12513    12819    12996    13034    12930 
   12692    12429    12252    12147    12027    11815    11481    11121 
   10881    10790    10806    10925    11124    11302    11377    11394 
   11479    11716    12029    12247    12247    12040    11778    11597 
   11431    11134    10770    10525    10432    10408    10411    10409 
   10442    10670    11132    11627    11997    12229    12283    12063 
   11589    11043    10642    10536    10741    11119    11475    11735 
   11959    12125    12116    11975    11866    11854    11969    12199 
   12424    12571    12742    13019    13328    13560    13690    13771 
   13882    14103    14440    14813    15148    15392    15461    15275 
   14894    14459    14027    13589    13192    12918    12833    12973 
   13269    13535    13640    13586    13424    13169    12783    12298 
   11877    11661    11647    11766    11921    12009    12005    11973 
   11935    11861    11766    11730    11781    11890    12000    12000 
   11807    11481    11118    10713    10332    10126    10110    10181 
   10288    10465    10773    11257    11844    12407    12862    13134 
   13171    13015    12744    12414    12093    11873    11803    11848 
   11947    12077    12260    12498    12749    13008    13371    13899 
   14499    15039    15435    15615    15607    15573    15616    15714 
   15812    15850    15774    15618    15491    15415    15337    15295 
   15398    15657    15979    16200    16129    15761    15282    14832 
   14393    13882    13289    12694    12233    11992    11947    12081 
   12393    12807    13155    13289    13194    12992    12800    12683 
   12629    12548    12378    12209    12154    12154    12112    12016 
   11867    11680    11499    11346    11234    11195    11236    11368 
   11634    12029    12464    12903    13385    13841    14172    14386 
   14492    14476    14388    14276    14126    13918    13618    13193 
   12611    11909    11210    10635    10251    10084    10138    10403 
   10839    11376    11896    12253    12383    12349    12233    12063 
   11835    11543    11190    10828    10538    10296    10039     9782 
    9547     9339     9154     8945     8683     8457     8386     8463 
    8625     8818     8997     9177     9429     9802    10291    10841 
   11388    11873    12276    12636    12973    13242    13406    13493 
   13489    13405    13324    13270    13232    13240    13262    13248 
   13235    13221    13107    12892    12723    12708    12839    13003 
   13046    12973    12928    12962    12966    12826    12576    12411 
   12529    12923    13414    13871    14300    14681    14937    15068 
   15121    15105    15025    14883    14708    14538    14339    14049 
   13652    13228    12931    12825    12814    12825    12899    13086 
   13369    13667    13838    13771    13528    13281    13100    12879 
   12507    12020    11520    11072    10706    10381    10049     9776 
    9648     9656     9756     9942    10228    10554    10836    11032 
   11101    11060    11001    10926    10763    10521    10277    10098 
   10007     9983    10029    10158    10322    10496    10652    10737 
   10794    10922    11156    11496    11917    12313    12615    12865 
   13059    13134    13123    13109    13055    12916    12772    12672 
   12604    12626    12762    12904    12982    13001    12946    12802 
   12599    12372    12150    11997    11988    12104    12279    12478 
   12640    12661    12502    12189    11772    11337    11018    10935 
   11080    11318    11485    11510    11439    11396    11443    11547 
   11670    11843    12109    12448    12802    13123    13398    13699 
   14085    14499    14889    15265    15587    15805    15923    15940 
