Origin Time       2025/01/13 21:19:00
Lat.              31.8
Long.             131.6
Depth. (km)       30
Mag.              6.9
Station Code      KGS018
Station Lat.      31.3757
Station Long.     130.5449
Station Height(m) 51
Record Time       2025/01/13 21:19:50
Sampling Freq(Hz) 100Hz
Duration Time(s)  151
Dir.              U-D
Scale Factor      3920(gal)/6182761
Max. Acc. (gal)   33.641
Last Correction   2025/01/13 21:19:51
Memo.             
[...]
   36866    37380    37797    37822    37229    36245    34939    33162 
   31284    29985    29411    29243    29339    29807    30673    31817 
   33109    34512    36203    38127    39342    39106    38211    37624 
   36859    35128    32738    30568    29297    29158    29576    29589 
   29142    29020    29608    30895    33002    35599    37677    38429 
   37672    35817    34008    33312    33471    33464    32903    32081 
   31418    31391    32278    33573    34264    33973    33230    32876 
   33825    36523    39952    42158    42171    40631    38594    36765 
   35482    34320    32551    30358    28298    26512    25344    25027 
   25102    25554    27244    30682    35344    39876    42608    42791 
   41386    39856    38648    37534    36376    34947    32969    30608 
   28397    26755    25942    26186    27316    28795    30712    33606 
   36946    39131    39170    37582    35821    35176    35937    37270 
   38053    37843    36988    35952    34707    33015    31161    29857 
   29600    30506    32298    34357    35981    36445    35379    33382 
   31585    30922    31913    33963    35240    34523    32582    31038 
   30660    31310    32565    33768    34512    35103    35571    35413 
   34840    34394    33783    32780    32115    32615    34404    36813 
   38588    38735    37490    36085    35593    36229    37277    37639 
   37035    35996    34630    32637    30257    28242    27056    26541 
   26463    26874    27913    30059    33780    38059    40918    41774 
   41424    40314    38642    36742    34317    31129    28308    27176 
   27673    28935    30454    32239    34281    36237    37583    37847 
   36977    35394    33526    31841    30935    31222    32776    34800 
   35554    34236    32053    30196    28523    27084    26565    26751 
   26923    27633    30037    34083    38768    43196    46458    47463 
   45548    41264    36373    32394    29429    27025    25181    24370 
   25547    29342    34751    39648    42326    42156    39869    37008 
   34648    33266    33091    33797    34767    35745    36656    37247 
   37277    36509    34390    30942    27730    26288    26451    27242 
   28042    28850    30250    32760    35979    38877    40890    41758 
   40781    37828    34136    31081    29283    28795    29211    29986 
   30915    32073    33190    33687    33682    34074    35330    36949 
   38017    37886    36685    35276    34359    33716    32949    32532 
   33010    33834    34180    34098    33987    33823    33346    32445 
   31564    31628    32903    34812    36963    38798    39231    37893 
   35260    31767    28253    26090    25733    26225    27011    29122 
   33199    37676    40314    40300    38568    36925    36402    36498 
   36251    35226    33607    31929    30912    31260    33201    36061 
   38184    37824    34919    31409    29614    30452    32648    33960 
   33496    32352    32111    33029    34077    34397    33750    32378 
   31033    30463    31110    33165    36195    39062    40416    39510 
   36914    33791    30784    28568    28189    29691    31685    32940 
   33469    33857    34148    34036    34132    35654    38139    39055 
   36678    32072    27918    26546    28617    32511    35673    37044 
   37143    36404    35110    33927    33282    32954    32172    30263 
   27874    26754    28018    31100    34196    35838    36023    35913 
   36857    39056    41122    41706    40882    39473    37904    36051 
   33934    32181    31338    31221    31387    31596    31681    31417 
   30841    30484    30799    31665    32913    34641    36435    37232 
   36581    35028    33188    31635    31210    32348    34688    37488 
   39573    39585    37307    33797    30080    27119    26174    27437 
   29720    32217    34775    36798    37564    36862    34602    30981 
   27286    25435    26572    30250    34568    37585    38966    39644 
   40291    40642    39724    36884    32997    29917    28580    28555 
   29287    30767    33084    35858    38256    39665    39959    38828 
   35874    31566    27055    23776    23270    25572    28723    31311 
   33849    36963    39761    40741    39455    36772    34404    33995 
   35636    38071    40237    41463    41232    39640    37396    35097 
   32732    29915    26270    22151    19285    19569    23301    29179 
   35419    40679    44285    46218    47053    47154    46224    43574 
   38302    30801    23962    20679    20974    22865    24716    26033 
   27208    28950    31080    32427    32837    33677    35862    39103 
   42296    43878    43306    41665    39708    36861    33084    29530 
   26533    23290    19870    17679    18318    22509    28976    34851 
   38313    40133    42043    44455    46612    47835    47498    45196 
   41369    36696    31906    28335    26995    27441    28459    29595 
   31383    34020    36841    39009    39998    40077    39909    39133 
   36779    32987    28911    25766    24695    25984    28283    30114 
   31475    32945    34688    36843    39160    40243    38913    35828 
   32499    30111    29869    32190    35220    36446    35556    34048 
   32941    32032    30524    28124    26072    26398    29712    34599 
   39167    42157    42900    41730    40038    38765    37617    35790 
   32529    28217    25307    26134    29956    34081    36955    38383 
   38389    37426    36124    34626    33268    32712    32872    33229 
   34195    36557    39665    41693    41472    38984    34959    30685 
   27269    24988    23768    23669    24600    26519    29778    34015 
   37558    39063    38641    37241    35998    35517    35085    33317 
   29950    26289    23889    23625    25551    28702    31746    34318 
   37022    40012    42367    42906    40975    37029    32967    30800 
   30816    31923    33195    34080    33989    32993    32177    32396 
   33480    34703    35264    34920    34429    34534    34832    34517 
   33608    32797    32758    33898    35755    36867    36602    36077 
   36092    36052    35414    34296    32960    31750    30897    30205 
   29619    29803    31198    33100    34797    36520    38341    39492 
   39174    37188    34030    30721    28094    26248    25132    25159 
   26525    28733    31310    33865    35773    36944    38085    39517 
   40578    40602    39794    38712    37673    36704    35408    33680 
   32385    32109    32433    33056    33982    34568    33943    32155 
   30009    28476    28456    29989    32125    34300    36762    39310 
   41011    41271    39975    37111    33205    29384    26573    25116 
   25074    26315    28238    30084    31572    32764    33713    34434 
   35010    35746    36832    37943    38624    38637    38050    37306 
   36900    36924    36650    34697    30533    25284    20725    18463 
   19656    24389    31084    37365    42043    45381    47775    49319 
   49662    47982    44124    39281    34888    31385    28678    27195 
   27321    28475    29639    30103    29711    28790    27657    26803 
   27405    30478    35768    41984    47695    51798    53543    52704 
   49323    43105    34090    23775    14551     8347     6089     7856 
   12938    19989    27821    35810    43289    49309    53195    54726 
   53850    50779    46032    40217    34231    29057    24892    21481 
   19160    18585    20025    23273    27239    29936    30115    28545 
   27126    27518    30483    35188    39604    42501    44124    44920 
   44679    42522    37646    30662    23921    20087    20071    22480 
   25303    27718    30236    33556    37448    40886    43139    44372 
   44940    44620    43232    41272    39177    36709    33535    30346 
   29060    31133    35751    40272    42568    42606    41253    38578 
   34569    30192    26761    25273    26151    28699    31375    33127 
   33966    34244    34073    33520    32923    32574    31956    30095 
   27250    25361    26418    30842    37338    43887    48750    50763 
   49243    44057    36196    27934    21454    17591    16130    16754 
   19854    26028    34148    41115    44292    43482    40503    37306 
   34541    31813    29066    27066    26569    27862    30821    34780 
   38722    41584    42527    41492    39328    37115    35151    32632 
   29107    25687    23886    24169    25872    27928    29784    31389 
   32791    34229    35711    36644    36790    36933    37884    39585 
   41483    42559    41507    38384    35086    33429    33472    33576 
   32138    29300    26423    24644    24386    25541    27624    29895 
   32032    34536    37746    41157    43887    44995    43765    40307 
   35719    31526    28932    28358    29525    32104    35866    40004 
   43188    44601    44289    42383    38761    33861    28891    24770 
   21898    21007    22975    27857    34523    41012    45600    47717 
   47684    46049    42839    37711    31607    26869    25207    26508 
   29122    31266    32516    33255    33581    33727    34229    35254 
   36511    37166    35774    31814    26951    23353    21713    21834 
   23406    25628    27875    30579    34289    38688    42746    44911 
   43613    38687    32057    26475    23846    24359    26855    30396 
   34700    39036    42261    43575    42628    39658    35439    30865 
   26839    24303    24000    25933    29287    33309    37809    42483 
   46216    47580    45906    41614    36122    31391    28356    26369 
   24998    25050    27198    30830    34735    37992    40057    40849 
   40703    39766    37911    35291    32448    30088    28783    28726 
   30152    33297    37260    40156    40924    40011    38176    35567 
   32340    29460    28042    28278    29793    32293    35142    37440 
   38837    39255    38497    36937    35288    33581    31624    29743 
   28223    26896    25548    24096    22604    21712    22385    24690 
   27775    31085    34602    38379    42109    44764    45363    43943 
   41125    37327    32806    28301    25152    24135    24872    26929 
   30048    33344    36051    38163    39260    38639    36824    35086 
   34184    34456    35818    37578    39377    41591    43862    44306 
   41158    34511    26228    18994    15196    15764    20066    26603 
   33487    39249    43565    46612    48157    47748    45200    40598 
   34699    29590    27604    29047    31890    33709    33523    32228 
   31680    33132    36264    39561    41542    41485    39423    36315 
   33627    31877    30497    29386    29239    30455    33009    36705 
   40368    41917    40291    36385    32009    28784    27293    26868 
   26913    27499    28043    27879    28012    29345    30779    31688 
   33192    35578    37984    39945    40468    38495    35214    32544 
   30763    29939    30809    32975    34706    34977    34151    33070 
   32596    33039    33641    33668    33381    33256    33526    34593 
   36481    38108    38502    38108    37627    37014    36269    35488 
   34308    32295    29444    26300    23960    23703    25932    29475 
   32827    35714    38428    40602    41653    41427    39679    36026 
   31075    26243    22342    19861    19689    22305    27408    34419 
   42174    48800    52879    54062    52492    49074    45573    42882 
   40534    38194    35671    32457    28788    25709    23724    22899 
   23471    24918    26098    27015    28167    29013    29267    29698 
   30685    32141    34297    37080    39585    40756    40160    37813 
   33659    28004    22177    17938    16514    18286    22694    28259 
   33384    37454    40733    43489    45518    46150    44997    42430 
   38722    33897    28753    24605    22166    21649    23382    27668 
   34224    41761    47978    50524    48716    44177    39071    34184 
   29627    26256    25251    27309    32127    37621    40783    40239 
   36935    32339    27234    22041    17350    14403    14930    19543 
   27014    35552    43324    48392    49964    48816    46032    42630 
   39608    37230    35010    32621    30637    29960    30231    30186 
   29500    28668    28256    29056    31210    33525    34886    35579 
   36545    37926    39095    39649    39676    39469    38881    37004 
   33329    28646    24384    22012    22423    24795    27494    30559 
   35009    40199    44213    45731    44436    41094    37163    33529 
   30164    27354    26341    27847    31047    34837    38337    40169 
   39145    35368    30531    27434    28135    32440    38485    43997 
   47227    47701    45796    41322    33989    25123    17410    13409 
   14165    18425    23954    29387    34565    40325    47409    54476 
   58449    57575    52667    44993    35344    25574    17930    13401 
   12655    15758    21133    27438    34115    39740    42645    42498 
   40353    38261    38488    41857    47309    53357    58182    59259 
   55595    48372    38707    27816    18058    11602     9618    12387 
   18580    25774    32432    38318    43475    47672    50324    50663 
   48309    43667    37563    30763    24234    19373    17194    17458 
   18823    19532    18784    18124    19678    22809    25138    26098 
   26964    29210    33593    39042    43224    44549    42891    39038 
   33855    28108    22664    18217    15280    14340    15746    19634 
   25638    33054    41117    48505    53794    56483    56576    54253 
   50039    44673    39624    36431    34695    32733    29603    25263 
   20377    16050    12576     9234     6135     5422     9809    20331 
   35796    53484    69938    81826    86820    84125    74423    59880 
   43977    29891    18971    11389     7645     8728    14484    22435 
   29114    32297    31831    29002    25383    22549    22422    26317 
   33600    42100    49367    53721    54724    52310    46207    36682 
   24700    11992     1289    -5175    -6251     -580    11932    27895 
   43125    55920    65744    71660    73451    71622    66060    56970 
   46452    36823    28211    19683    11718     6122     4035     5038 
    8697    16089    27868    41441    52391    58302    59324    56555 
   52277    49264    47818    46225    44010    41637    38499    33857 
   28108    21821    15227     9397     6482     7747    12438    19109 
   26379    32623    36662    38546    39425    40535    41892    43015 
   44520    46737    47652    44701    38228    31219    26105    23570 
   23203    24155    26034    28779    31596    33593    35265    37662 
   40541    42535    42665    41319    39758    38240    35868    32539 
   28886    25150    22041    21158    23774    29884    38079    46102 
   52000    54890    54325    50124    43523    36698    31286    27955 
   25669    22201    16596     9711     3556     1203     4963    14249 
   26174    37929    48296    56748    62074    62846    58658    50907 
   42256    34793    29309    25926    24302    23586    22853    21704 
   20816    21922    26407    33678    41075    45398    45392    42400 
   37710    31143    23016    14931     8571     5763     8246    15810 
   26189    36511    43824    45994    43393    38938    36014    36539 
   40381    45500    49698    52875    56041    58889    59730    56982 
   50612    42050    32585    23065    15051    10576    10464    14011 
   20084    27655    35978    44551    52183    56780    56663    51916 
   44612    37268    31227    27374    26556    28102    30016    30912 
   30243    27605    22969    17316    12666    10927    13067    19124 
   27943    37695    46615    52687    54285    51390    45068    36646 
   28198    22162    19371    18855    19680    21264    22809    24152 
   26002    28746    32139    35749    38822    40770    42489    45701 
   50131    53485    54433    53261    50890    48573    46401    42434 
   35015    25119    16161    11796    13271    18643    24310    27295 
   27299    26782    28088    31212    34629    37158    39121    41299 
   42840    42214    39184    33904    26490    18247    11162     6692 
    5775     8999    15804    23788    30632    36479    42608    48996 
   54414    57381    56977    54064    50702    47408    43135    38106 
   33809    30855    29087    28632    30054    33884    39060    42773 
   43654    43229    43129    43490    44355    46075    48199    49856 
   50610    49820    46607    40951    33620    25165    16060     7748 
    2216      308     1472     4934    10339    17548    26359    36201 
   45765    53263    57346    57639    54546    48694    40643    31564 
   23608    18429    15765    14674    15410    18421    23066    28773 
   35074    40659    44825    48197    50858    52107    51848    50328 
   47681    44169    39531    33436    27245    23255    22306    23695 
   26360    29039    30874    32596    35515    39222    41942    42909 
   43017    43304    43726    43326    41225    37452    32721    28120 
   25220    24964    26555    28572    30254    31461    32464    33494 
   34407    35016    35074    34395    33438    32663    31838    30901 
   29935    28144    24925    21573    20114    21245    24224    27498 
   29532    30243    30728    31369    31994    33254    35864    39351 
   42591    44822    45880    46112    46027    45290    42554    37307 
   30960    25702    23276    23896    25980    28230    30857    34097 
   37204    39268    40143    40030    38892    37040    35081    33313 
   32278    32537    33761    35345    37003    38348    38889    38693 
   38533    38883    39167    38510    36630    33831    30890    28658 
   27238    26222    25697    26009    26958    28267    29959    31529 
   31955    30881    28826    26573    25071    25264    27309    30512 
   34205    37804    40394    41477    41249    39625    36450    32487 
   29165    27966    29972    34864    40604    45026    47405    47987 
   46879    44177    40429    36419    33148    31685    32049    32999 
   33458    33336    32988    32375    30643    27188    23420    21878 
   23306    26316    29383    31693    33015    33494    32983    30993 
   27703    24598    23586    25041    27648    30501    33769    37527 
   41323    44429    46487    48066    49614    50286    48683    44647 
   39901    36360    34348    32756    30061    25914    21864    19303 
   18103    18258    20539    24761    29579    34402    39470    44458 
   48531    50468    48701    43106    35764    28830    23361    20186 
   20007    22789    27844    33838    38932    42065    43510    43703 
   42674    40690    38564    37405    38030    39799    40667    39464 
   37047    34900    33750    33466    33688    34206    34616    34366 
   33389    32188    31533    31923    32773    33084    33288    34769 
   37466    39555    39276    36091    30818    25121    20474    17708 
   17124    18373    20673    23203    25240    26752    28536    31102 
   34076    36581    37688    36919    34450    30874    26899    23115 
   20277    19536    21447    25282    30032    35046    39531    42498 
   43120    41135    37434    33813    31762    31831    33926    37547 
   41799    45564    47623    46893    43346    38289    32911    27726 
   23856    22954    25547    30708    36866    42242    45713    47649 
   49042    50170    50343    48436    43707    36547    28812    22761 
   19339    18635    20928    25868    32265    38787    44185    47831 
   49628    48971    45026    38153    30278    23650    19472    17739 
