Origin Time       2025/01/13 21:19:00
Lat.              31.8
Long.             131.6
Depth. (km)       30
Mag.              6.9
Station Code      KGS023
Station Lat.      31.1990
Station Long.     130.8490
Station Height(m) 179
Record Time       2025/01/13 21:19:49
Sampling Freq(Hz) 100Hz
Duration Time(s)  120
Dir.              N-S
Scale Factor      3920(gal)/6182761
Max. Acc. (gal)   29.405
Last Correction   2025/01/13 21:19:50
Memo.             
[...]
  -19339   -21944   -24765   -27404   -29242   -30486   -31385   -31523 
  -30460   -28021   -24360   -19895   -15116   -10734    -7388    -5232 
   -4080    -3721    -4055    -4934    -6085    -7163    -7980    -8722 
   -9694   -11208   -13427   -15999   -18550   -20751   -21694   -20945 
  -19541   -18423   -16929   -13892    -9478    -5105    -1892      225 
    1920     3332     3930     3368     1716     -975    -4539    -8364 
  -11950   -15496   -19199   -22449   -24375   -24926   -24777   -24322 
  -23579   -22869   -22603   -22690   -22624   -21878   -20547   -19344 
  -18597   -18189   -18321   -19064   -19759   -19756   -18995   -17694 
  -16163   -14562   -12728   -10576    -8204    -5395    -1796     2182 
    5508     7693     9026     9814    10036     9479     7795     4629 
    -105    -6124   -12722   -18807   -23560   -27116   -29909   -31810 
  -32563   -32139   -30441   -27562   -24000   -20208   -16350   -12795 
  -10393    -9603    -9713    -9723    -9439    -9189    -8969    -8153 
   -6487    -4700    -3346    -2527    -2699    -4125    -6374    -9146 
  -12611   -16656   -20364   -22704   -23526   -23263   -22336   -21363 
  -20982   -21191   -21422   -21060   -19834   -18170   -16910   -16235 
  -15429   -13664   -10606    -6866    -3704    -1939    -1481    -1699 
   -2016    -2067    -1695    -1340    -1846    -3561    -6207    -9268 
  -12521   -16358   -20848   -24966   -27679   -28923   -28801   -27279 
  -25294   -24208   -24027   -23939   -23664   -23028   -21746   -20068 
  -18253   -16029   -13410   -10860    -8476    -5929    -3088     -216 
    2253     3738     3590     1597    -1802    -6021   -10670   -15279 
  -19122   -21554   -22547   -22686   -22170   -20450   -17443   -14194 
  -11880   -10849   -10690   -10654   -10278   -10016   -10410   -10948 
  -11125   -11344   -11713   -11614   -10815    -9848    -8952    -7621 
   -5782    -4169    -3335    -3175    -3404    -4323    -6438    -9402 
  -12543   -15558   -17923   -18993   -18873   -18356   -18066   -17903 
  -17459   -16670   -15855   -15579   -16299   -18110   -20491   -22159 
  -22333   -21756   -21606   -22026   -22159   -21194   -18883   -15690 
  -12673   -10842   -10779   -12402   -15096   -18261   -21439   -24393 
  -26989   -28970   -30113   -30224   -29133   -26897   -23579   -19035 
  -13505    -7934    -3210      242     2298     3336     3997     4718 
    5713     6622     6703     5743     3962     1578    -1308    -4620 
   -7873   -10658   -13369   -16404   -19446   -22050   -23844   -24199 
  -22876   -20214   -16416   -12013    -7984    -4792    -2307     -347 
     833      532    -1593    -4860    -8028   -10767   -13895   -17833 
  -22033   -25891   -29122   -31462   -32799   -33409   -33710   -33775 
  -33155   -31292   -28100   -24156   -19903   -15057    -9837    -5395 
   -2390     -777     -521    -1511    -3284    -5247    -7159    -9104 
  -11150   -13129   -14516   -14985   -14823   -14605   -15012   -16491 
  -18845   -21379   -23124   -22953   -20402   -16393   -12112    -7666 
   -2841     1932     6000     8875    10269    10320     9452     7714 
    4819      908    -3577    -8384   -13262   -17804   -21413   -23521 
  -24136   -23683   -22569   -20988   -18724   -15719   -12397    -9090 
   -6111    -3937    -2843    -2974    -4180    -5840    -7785   -10277 
  -12955   -15326   -17421   -19321   -20872   -21736   -21828   -21514 
  -21132   -20724   -19987   -18590   -16704   -14912   -13956   -14289 
  -15481   -16714   -17805   -19068   -20541   -22133   -24026   -26053 
  -27378   -27604   -27326   -27045   -26513   -25289   -23407   -21289 
  -18829   -15584   -11784    -7865    -3802      587     5208     9440 
   12396    13488    12741    10545     7188     3059    -1305    -5657 
   -9760   -13287   -16353   -19165   -21621   -23713   -25440   -26607 
  -27208   -27480   -27607   -27437   -26462   -24482   -21892   -19090 
  -16186   -13135    -9863    -6430    -3162     -589     1278     3184 
    5416     7141     7393     6018     3578      694    -2452    -6023 
  -10072   -14422   -18838   -22859   -25782   -27165   -27186   -26402 
  -25320   -24324   -23564   -22784   -21612   -19946   -18035   -16329 
  -15364   -15460   -16448   -18105   -20286   -22374   -23481   -23288 
  -22192   -20732   -19198   -17692   -16190   -14842   -14199   -14577 
  -15548   -16331   -16377   -15656   -14315   -12388   -10167    -8039 
   -5917    -3574    -1184      803     2128     2926     3423     3650 
    3661     3655     3578     2916     1100    -1832    -5219    -8726 
  -12568   -16829   -21188   -24996   -27749   -29517   -30314   -29868 
  -28492   -27095   -26166   -25467   -24603   -23515   -22474   -21669 
  -21030   -20521   -20194   -19968   -19567   -18850   -18253   -18224 
  -18445   -18425   -18180   -17741   -16898   -15621   -14020   -12028 
   -9642    -7106    -4737    -2779    -1136      535     2215     3529 
    4341     4726     4496     3470     2061      917       60    -1078 
   -2832    -5062    -7424    -9592   -11311   -12187   -12017   -11279 
  -10745   -10916   -11767   -12866   -13827   -14412   -14484   -14263 
  -14264   -14990   -16514   -18149   -19468   -21039   -23148   -25301 
  -27170   -28742   -29988   -30775   -30816   -29867   -27896   -25071 
  -21678   -17937   -13899    -9653    -5397    -1482     1377     2558 
    2152      717    -1240    -3576    -6362    -9378   -11987   -13818 
  -15255   -16609   -17522   -17846   -18278   -19553   -21406   -22825 
  -23086   -22106   -20062   -17024   -12999    -8403    -4089     -752 
    1336     2094     1346    -1132    -5166   -10025   -14664   -18291 
  -20704   -21705   -21007   -19306   -18013   -17703   -18143   -19208 
  -20773   -22661   -24689   -26276   -26941   -26858   -26133   -24607 
  -22545   -20393   -18226   -16172   -14618   -13631   -12721   -11302 
   -9200    -6838    -4780    -3031    -1233      605     2088     2878 
    2787     1739     -261    -3312    -7366   -11855   -16054   -19696 
  -23076   -26343   -28837   -29814   -29295   -27862   -26072   -23847 
  -20794   -17283   -14166   -11781    -9996    -8512    -6898    -5003 
   -3145    -1550      -83     1328     2707     4173     5438     5893 
    5392     4216     2692     1174     -284    -2104    -4483    -7120 
   -9806   -12560   -15161   -16912   -16995   -15199   -12154    -8668 
   -5291    -2513     -867     -800    -2383    -5170    -8924   -13869 
  -19473   -24501   -28393   -31105   -32441   -32339   -31143   -29554 
  -28150   -26880   -25295   -23400   -22053   -21994   -22962   -24210 
  -25223   -25906   -26502   -27193   -27991   -28872   -29699   -30336 
  -30683   -30508   -29721   -28436   -26478   -23312   -18815   -13673 
   -8727    -4381     -667     2438     4869     6423     6690     5419 
    3148      905     -727    -1777    -2299    -2330    -2291    -2358 
   -1822     -122     2242     4240     5047     4613     3698     2959 
    2491     2159     1689      696    -1048    -3770    -7696   -12564 
  -18076   -24454   -31615   -38584   -44264   -48302   -50852   -51801 
  -51004   -48986   -46583   -43949   -40633   -36518   -31737   -26045 
  -19383   -12512    -6362    -1292     2925     6562     9418    11107 
   11467    10534     8654     6400     4127     1929     -145    -2187 
   -4433    -6971    -9626   -12052   -14021   -15658   -17210   -18731 
  -20102   -21060   -21061   -19528   -16404   -12143    -7443    -3129 
      32     1549     1338     -191    -2319    -4511    -6682    -8836 
  -10714   -12008   -12643   -12487   -11089    -8377    -5130    -2403 
   -1019    -1247    -2758    -5197    -8400   -12191   -16390   -20963 
  -25870   -30764   -34903   -37352   -37818   -36959   -35442   -33257 
  -30190   -26797   -24134   -22434   -21201   -20012   -18597   -16981 
  -15458   -14151   -13083   -12467   -12462   -12857   -13358   -13861 
  -14077   -13483   -11936    -9833    -7681    -5862    -4506    -3437 
   -2432    -1320       -1     1101     1215      295     -872    -1721 
   -2367    -3062    -3923    -4978    -6029    -6806    -7257    -7408 
   -7431    -7603    -7600    -6853    -5698    -4935    -4995    -6003 
   -7775   -10048   -12628   -15166   -17432   -19518   -21495   -23234 
  -24622   -25695   -26390   -26547   -26468   -26742   -27384   -28011 
  -28457   -28659   -28310   -26871   -24198   -20783   -17468   -15197 
  -14153   -13745   -13772   -14266   -14870   -15131   -14884   -14459 
  -14367   -14467   -14065   -12872   -11125    -9017    -6802    -5051 
   -4166    -3832    -3261    -2116     -984     -610    -1163    -2183 
   -2792    -2271     -497     1839     3539     3944     3073      849 
   -2855    -7612   -12748   -18060   -23400   -28055   -31398   -33612 
  -35145   -35937   -35719   -34544   -32561   -29771   -26379   -22950 
  -19813   -16703   -13430   -10420    -8332    -7499    -7848    -9115 
  -10901   -12709   -14060   -14540   -14154   -13313   -11985    -9688 
   -6644    -3820    -1754     -316      553      671       -2    -1191 
   -2545    -3953    -5292    -6229    -6728    -7112    -7637    -8384 
   -9267   -10183   -11281   -12945   -15480   -18751   -22087   -24693 
  -26474   -27989   -29252   -29691   -29292   -28513   -27512   -26303 
  -25024   -23956   -23391   -22958   -21924   -20255   -18128   -15415 
  -12246    -9041    -6153    -3740    -1928    -1117    -1677    -3444 
   -5729    -7592    -8432    -8521    -8588    -8793    -8726    -8189 
   -7126    -5487    -3394     -989     1276     2576     2530     1451 
     -39    -1397    -2412    -3157    -3980    -5374    -7595   -10569 
  -13780   -16555   -18875   -21005   -22668   -23630   -24128   -24229 
  -23891   -23468   -23499   -24314   -25769   -27244   -28123   -28389 
  -28653   -29395   -30496   -31480   -31606   -30256   -27584   -24066 
  -19878   -15348   -10973    -6776    -2709      692     2868     3701 
    3311     1983      118    -1902    -3830    -5619    -7212    -8443 
   -9289    -9990   -10844   -11753   -12012   -11157    -9736    -8595 
   -8127    -8412    -9181   -10023   -10941   -12038   -13037   -13637 
  -13946   -14379   -15242   -16525   -18123   -20032   -22071   -23829 
  -25201   -26323   -27031   -27044   -26203   -24310   -21310   -17629 
  -14054   -11303    -9530    -8414    -7935    -8507   -10082   -11925 
  -13461   -14584   -15169   -15075   -14603   -14210   -13759   -12881 
  -11661   -10248    -8598    -6855    -5166    -3296     -860     2177 
    5319     7805     9033     8876     7642     5626     2787    -1156 
   -6244   -11597   -15796   -18171   -18914   -18329   -16821   -15027 
  -13504   -12432   -11745   -11816   -13418   -16656   -20685   -24479 
  -27435   -29352   -30128   -29648   -28089   -26088   -24197   -22441 
  -20726   -19124   -17592   -16059   -14616   -13465   -12998   -13498 
  -14780   -16275   -17231   -17288   -16716   -16086   -16031   -16786 
  -17954   -19048   -19978   -21004   -22305   -23671   -24641   -24834 
  -24075   -22153   -19036   -15399   -12224   -10252    -9744   -10178 
  -10853   -11609   -12484   -13460   -14416   -14943   -14896   -14532 
  -13689   -11958    -9426    -6481    -3475     -749     1414     2809 
    3375     3234     2433      871    -1340    -3665    -5348    -5841 
   -5385    -4942    -5183    -6118    -7531    -9145   -10635   -11621 
  -11871   -11528   -10893   -10252    -9882   -10294   -12371   -16472 
  -21998   -28139   -34044   -38727   -41599   -42653   -41929   -39095 
  -33937   -27017   -19279   -11356    -3534     3680     9448    13402 
   15942    17722    19056    19588    18807    16834    14376    12016 
    9870     7995     6599     5645     4615     2698     -618    -5009 
   -9663   -14068   -18316   -22821   -27632   -32255   -36254   -39561 
  -42155   -43870   -44777   -45379   -46020   -46542   -46727   -46536 
  -45942   -45018   -44012   -42979   -41637   -39662   -36821   -33021 
  -28354   -22828   -16537   -10011    -3799     1677     5830     8329 
    9276     8650     6422     3040     -709    -3967    -6115    -7056 
   -7080    -6666    -6254    -5893    -5253    -4149    -2848    -1731 
   -1129    -1273    -2047    -3338    -5364    -8270   -12024   -16538 
  -21256   -25057   -26832   -25909   -22494   -17771   -13045    -9212 
   -6751    -5612    -5436    -5873    -6500    -6818    -6499    -5472 
   -3862    -1826      417     2359     3470     3514     2137    -1047 
   -5385    -9415   -12481   -14930   -16954   -17984   -17772   -17071 
  -16251   -15071   -13796   -12933   -12549   -12436   -12701   -13639 
  -15147   -16587   -17059   -16055   -13652   -10186    -6333    -3202 
   -1554    -1275    -2135    -4131    -7322   -11653   -16297   -20165 
  -22740   -23893   -23889   -23354   -23094   -23817   -25708   -28488 
  -31538   -34056   -35430   -35537   -34974   -34428   -33784   -32617 
  -30938   -28790   -25954   -22680   -19843   -17996   -17126   -16940 
  -16868   -16497   -15544   -13571   -10511    -6980    -3692     -742 
    1773     3186     2884      383    -4147    -9290   -13741   -17235 
  -19623   -20411   -19415   -16871   -13224    -9320    -6115    -4014 
   -2894    -2454    -2225    -1662     -380     1905     4906     7383 
    7893     5629      381    -7593   -16719   -24545   -29982   -33435 
  -35638   -37412   -39109   -40302   -40251   -38623   -35953   -32933 
  -29722   -26115   -21745   -16202    -9248    -1220     7134    15168 
   22151    27445    30964    32888    33274    31829    27939    21509 
   13394     4510    -4329   -12189   -18725   -23877   -27527   -30149 
  -32236   -33567   -33757   -32590   -30223   -27199   -23890   -20488 
  -17313   -14634   -12613   -11546   -11469   -11755   -11879   -11705 
  -10994    -9715    -8499    -8360    -9698   -11895   -14307   -16623 
  -18550   -19939   -20832   -21582   -22811   -24831   -27331   -29777 
  -32023   -33937   -34941   -34673   -33192   -30645   -27324   -23671 
  -19966   -16203   -12469    -9168    -6752    -5433    -5197    -5858 
   -6926    -7765    -7774    -6802    -5493    -4396    -3475    -2682 
   -2168    -2171    -2809    -4124    -6205    -8939   -11954   -14564 
  -15944   -15724   -13933   -10750    -6748    -2688      923     3841 
    5830     6495     5741     4136     2402      879     -576    -2286 
   -4324    -6621    -9246   -12308   -15814   -19634   -23525   -27140 
  -30280   -33123   -35471   -36338   -35180   -32491   -28843   -24476 
  -19638   -14776   -10570    -7516    -5485    -4114    -3289    -3017 
   -3450    -5094    -8382   -13080   -18335   -23245   -27465   -31002 
  -33553   -34585   -33698   -30750   -26393   -22078   -18793   -16435 
  -14704   -13623   -13047   -12389   -11156    -9572    -8414    -8294 
   -9205   -10674   -12285   -13956   -15748   -17448   -18462   -18329 
  -17064   -15030   -12761   -10708    -8925    -7195    -5592    -4476 
   -3922    -3730    -3840    -4424    -5799    -8191   -11328   -14441 
  -16832   -18184   -18579   -18420   -17845   -16771   -15528   -14330 
  -12877   -11132    -9342    -7928    -7617    -8504    -9856   -10879 
  -11065   -10378    -8759    -6116    -2958      248     3586     7077 
   10269    12272    12345    10494     7051     2413    -2447    -6305 
   -8660    -9834   -10345   -10634   -11162   -12182   -13572   -15121 
  -16794   -18847   -21339   -23888   -26187   -27933   -28715   -28412 
  -26920   -24074   -20222   -16105   -12333    -9151    -6537    -4760 
   -4416    -5501    -7194    -8551    -9274    -9950   -11154   -12989 
  -15646   -19243   -23446   -27981   -32713   -37137   -40823   -43666 
  -45462   -46211   -46166   -45445   -44065   -41759   -38183   -33395 
  -27506   -20830   -14113    -7772    -2147     2042     4341     4779 
    3724     1459    -1875    -5398    -7923    -8941    -8493    -7295 
   -6298    -5763    -5695    -6213    -7245    -8598   -10083   -11737 
  -13725   -15822   -17562   -18588   -18592   -17305   -14854   -11768 
   -8294    -4417     -465     2704     4301     4473     3859     2854 
    1876     1388     1609     2408     3298     3957     4452     4433 
    3234     1021    -1644    -4778    -8433   -12221   -15769   -18888 
  -21446   -23454   -25000   -26114   -26957   -27717   -28188   -27947 
  -26858   -25074   -22873   -20548   -18233   -15957   -13895   -12261 
  -11017   -10264   -10448   -11558   -12952   -14067   -14660   -14820 
  -14902   -15139   -15629   -16551   -17829   -19097   -20341   -21816 
  -23515   -25192   -26595   -27568   -27968   -27701   -26833   -25351 
  -23042   -19886   -16194   -12305    -8506    -5029    -1790     1286 
    3801     5297     5596     4797     3479     2285     1245      227 
    -630    -1382    -2260    -3419    -5103    -7597   -11051   -15179 
  -19347   -23189   -26429   -28644   -29828   -30300   -30308   -30034 
  -29387   -28265   -27043   -26032   -24947   -23375   -21237   -18594 
  -15489   -12113    -8752    -5599    -2835     -697      719     1437 
    1383      519    -1054    -3177    -5552    -7951   -10395   -12814 
  -14864   -16267   -17022   -17160   -16672   -15664   -14315   -12845 
  -11542   -10682   -10305   -10199   -10217   -10299   -10447   -10928 
  -11936   -13212   -14448   -15532   -16363   -16912   -17274   -17465 
  -17353   -16803   -15771   -14300   -12574   -10786    -8995    -7274 
   -5755    -4533    -3811    -3893    -4947    -6857    -9077   -10932 
  -12232   -12936   -12849   -12201   -11410   -10401    -9147    -8319 
   -8741   -10584   -13322   -16353   -19433   -22382   -24897   -26859 
  -28396   -29658   -30624   -31116   -31047   -30595   -30160   -29966 
  -29681   -29027   -28366   -27744   -26754   -25602   -24397   -22709 
  -20458   -17454   -13308    -8242    -2891     2091     6311     9643 
   11997    13443    14022    13678    12738    11566    10208     8894 
    7956     7411     6943     6023     4248     1539    -2046    -6338 
  -10986   -15492   -19308   -22099   -23830   -24642   -24734   -24218 
  -23216   -21996   -20920   -20395   -20758   -21868   -23152   -24270 
  -25214   -26078   -26779   -26963   -26455   -25430   -24241   -23164 
  -22200   -21401   -20778   -19975   -18919   -18096   -17757   -17641 
  -17322   -16587   -15740   -15132   -14536   -13591   -12396   -11189 
   -9908    -8472    -7130    -6166    -5498    -4988    -4779    -4925 
   -5210    -5508    -5839    -6101    -6004    -5292    -3968    -2219 
    -402     1096     2119     2521     2207     1389      235    -1222 
   -2823    -4404    -5889    -7280    -8587    -9893   -11446   -13369 
  -15799   -18944   -22514   -25825   -28344   -29879   -30417   -29821 
  -28070   -25529   -22858   -20668   -19147   -18377   -18459   -19020 
  -19603   -20216   -20879   -21268   -21121   -20574   -19792   -18816 
  -17980   -17717   -17919   -18127   -18181   -18338   -18736   -19056 
  -18901   -18234   -17238   -15937   -14169   -11935    -9547    -7318 
   -5361    -3727    -2457    -1638    -1419    -1910    -3187    -5245 
   -7803   -10397   -12741   -14784   -16551   -18081   -19417   -20498 
  -21038   -20635   -19032   -16356   -13119    -9741    -6230    -2610 
     837     3855     6275     7889     8451     7751     5882     3328 
     493    -2474    -5349    -7993   -10707   -13759   -16855   -19616 
