Origin Time       2025/01/13 21:19:00
Lat.              31.8
Long.             131.6
Depth. (km)       30
Mag.              6.9
Station Code      KGS014
Station Lat.      31.4963
Station Long.     130.6994
Station Height(m) 4
Record Time       2025/01/13 21:19:50
Sampling Freq(Hz) 100Hz
Duration Time(s)  147
Dir.              U-D
Scale Factor      7845(gal)/8223790
Max. Acc. (gal)   13.035
Last Correction   2025/01/13 21:19:51
Memo.             
[...]
    4801     5215     5038     4513     3971     3349     2485     1559 
     958      768      760      735      579      329      191      206 
     295      548     1001     1452     1579     1162      472      171 
     538     1285     2073     2631     2677     2239     1682     1179 
     695      429      650     1096     1267     1123      843      310 
    -610    -1651    -2411    -2841    -3091    -3094    -2727    -2205 
   -1826    -1555    -1321    -1316    -1690    -2359    -3117    -3719 
   -4151    -4576    -4909    -4916    -4600    -4118    -3631    -3258 
   -2928    -2506    -2137    -2076    -2241    -2412    -2560    -2662 
   -2698    -2801    -2938    -2889    -2741    -2790    -2895    -2727 
   -2407    -2124    -1690    -1082     -602     -311      -90       21 
     -59     -314     -592     -669     -579     -625     -927    -1320 
   -1611    -1721    -1657    -1476    -1220    -1001    -1077    -1506 
   -1969    -2247    -2475    -2754    -2930    -2847    -2529    -2038 
   -1435     -905     -487       76      886     1737     2452     2901 
    3057     3168     3438     3770     3970     3981     3855     3565 
    3073     2504     2023     1713     1514     1246      789      283 
     -45     -233     -359     -228      211      750     1325     1887 
    2265     2455     2566     2675     2791     2836     2809     2720 
    2471     2153     1937     1764     1521     1206      909      743 
     658      480      234       59       -6       16      113      342 
     762     1246     1726     2273     2698     2748     2473     1887 
     884     -291    -1281    -2176    -3176    -4131    -4803    -5169 
   -5368    -5476    -5471    -5420    -5404    -5379    -5379    -5443 
   -5510    -5599    -5683    -5630    -5503    -5435    -5393    -5320 
   -5131    -4703    -4143    -3736    -3584    -3605    -3766    -3928 
   -3759    -3249    -2778    -2505    -2320    -2359    -2808    -3375 
   -3503    -3001    -2216    -1580    -1282    -1331    -1505    -1459 
   -1233    -1109     -945     -459      130      513      711      816 
     855      760      400      -44     -305     -310      101      832 
    1356     1578     1765     1823     1594     1289     1202     1448 
    1985     2600     2918     2732     2220     1629      912       -4 
    -827    -1313    -1714    -2308    -2995    -3549    -3838    -3902 
   -3904    -3883    -3825    -3869    -4105    -4394    -4564    -4563 
   -4488    -4518    -4631    -4606    -4364    -4070    -3852    -3615 
   -3222    -2781    -2477    -2311    -2268    -2386    -2627    -2856 
   -2860    -2597    -2281    -1953    -1621    -1448    -1347    -1129 
    -880     -677     -467     -160      206      394      334      275 
     390      743     1298     1702     1686     1472     1444     1746 
    2320     3056     3885     4679     5162     5192     5019     5030 
    5344     5794     6157     6389     6527     6496     6238     5802 
    5337     5013     4758     4325     3684     3011     2373     1815 
    1435     1121      777      507      325      168       51      -82 
    -276     -467     -669     -931    -1147    -1162     -947     -685 
    -650     -843     -949     -791     -483     -174       70      213 
     237       86     -315     -807    -1081    -1167    -1449    -2178 
   -3127    -3805    -4095    -4303    -4580    -4915    -5412    -6050 
   -6671    -7225    -7623    -7726    -7553    -7179    -6714    -6407 
   -6262    -5857    -5017    -4083    -3261    -2485    -1826    -1409 
   -1221    -1186    -1209    -1274    -1479    -1858    -2276    -2587 
   -2816    -2945    -2801    -2382    -1987    -1869    -2101    -2643 
   -3264    -3639    -3750    -3838    -3978    -4185    -4558    -4897 
   -4696    -3846    -2754    -1682     -629      264      870     1239 
    1429     1638     2052     2459     2682     2882     3019     2880 
    2567     2313     2128     1960     1880     1900     1846     1594 
    1205      785      363      -95     -665    -1495    -2623    -3774 
   -4669    -5223    -5348    -5005    -4438    -3956    -3616    -3396 
   -3269    -3181    -3115    -2997    -2721    -2247    -1513     -594 
     313     1250     2317     3326     4089     4700     5177     5262 
    4869     4340     4002     3834     3723     3680     3613     3424 
    3311     3403     3446     3271     2945     2484     1768      672 
    -662    -1950    -3235    -4484    -5278    -5493    -5323    -4731 
   -3817    -2949    -2220    -1655    -1416    -1486    -1757    -2053 
   -2107    -2023    -2120    -2381    -2664    -2951    -3156    -3191 
   -3080    -2756    -2162    -1545    -1246    -1251    -1323    -1525 
   -2126    -2963    -3645    -4089    -4280    -4147    -3786    -3269 
   -2635    -2095    -1800    -1679    -1570    -1252     -622      193 
    1077     2022     2987     3815     4376     4749     5061     5269 
    5377     5521     5634     5557     5375     5124     4677     4091 
    3593     3261     2984     2782     2813     3032     3230     3276 
    3142     2893     2590     2274     2020     1811     1524     1193 
     962      711      207     -441    -1058    -1729    -2531    -3288 
   -3815    -4213    -4618    -4961    -5328    -5880    -6446    -6817 
   -6986    -7022    -7072    -7107    -6945    -6669    -6419    -6123 
   -5818    -5571    -5165    -4421    -3464    -2597    -2211    -2407 
   -2833    -3184    -3402    -3415    -3187    -2855    -2590    -2411 
   -2265    -2277    -2525    -2785    -2887    -2914    -2859    -2651 
   -2400    -2141    -1792    -1487    -1374    -1328    -1231    -1115 
   -1000     -927     -911     -936    -1047    -1264    -1595    -1998 
   -2320    -2512    -2646    -2637    -2346    -1823    -1161     -372 
     390      854      986     1012     1088     1182     1243     1266 
    1296     1362     1355     1263     1112      710       36     -565 
    -800     -677     -552     -769    -1227    -1611    -1698    -1399 
    -885     -306      382     1062     1556     1969     2334     2528 
    2608     2614     2523     2573     2921     3373     3736     3925 
    3987     4093     4176     4067     3890     3778     3578     3227 
    2914     2744     2490     1875      957      -43    -1031    -1984 
   -2880    -3694    -4351    -4765    -4970    -5067    -5093    -5125 
   -5190    -5105    -4789    -4413    -4097    -3789    -3457    -3132 
   -2841    -2652    -2620    -2678    -2766    -2863    -2860    -2689 
   -2408    -2079    -1804    -1679    -1691    -1879    -2220    -2447 
   -2436    -2435    -2600    -2828    -3145    -3635    -4203    -4791 
   -5424    -6084    -6752    -7284    -7427    -7153    -6750    -6511 
   -6448    -6454    -6575    -6770    -6871    -6853    -6700    -6331 
   -5741    -4923    -3927    -2933    -2118    -1486     -959     -545 
    -210      186      629     1035     1506     2128     2849     3615 
    4345     4901     5290     5607     5729     5544     5275     5125 
    5015     4891     4899     5076     5266     5382     5447     5489 
    5493     5404     5248     5178     5263     5414     5497     5414 
    5105     4525     3785     3102     2563     2124     1740     1381 
    1003      503     -199    -1059    -1917    -2641    -3195    -3653 
   -4139    -4568    -4768    -4865    -4989    -4904    -4494    -4029 
   -3703    -3424    -3187    -3109    -3073    -2857    -2610    -2609 
   -2789    -2965    -3141    -3338    -3451    -3495    -3703    -4156 
   -4587    -4796    -4934    -5152    -5333    -5393    -5359    -5061 
   -4338    -3418    -2624    -2037    -1713    -1728    -1869    -1867 
   -1777    -1738    -1750    -1803    -1891    -2004    -2168    -2378 
   -2600    -2747    -2695    -2465    -2246    -2199    -2344    -2575 
   -2799    -3038    -3206    -3087    -2736    -2354    -1894    -1267 
    -517      421     1490     2386     3033     3607     4213     4926 
    5694     6300     6671     6818     6696     6413     6116     5815 
    5524     5316     5184     5001     4692     4266     3686     2933 
    2033     1089      363       54       54      174      379      684 
    1082     1502     1863     2176     2479     2763     3052     3369 
    3562     3372     2803     2115     1489     1050      973     1269 
    1699     2031     2232     2320     2227     1931     1493      918 
     284     -218     -650    -1212    -1788    -2224    -2650    -3144 
   -3650    -4221    -4996    -5961    -6982    -8005    -8962    -9718 
  -10278   -10687   -10885   -10920   -10901   -10783   -10532   -10126 
   -9390    -8247    -6871    -5451    -4131    -3019    -2165    -1640 
   -1470    -1474    -1467    -1424    -1416    -1563    -1837    -2095 
   -2323    -2455    -2382    -2299    -2380    -2446    -2353    -2138 
   -1714     -972      -74      751     1529     2370     3175     3713 
    3921     3936     3913     3943     4126     4498     4893     5071 
    4965     4685     4270     3663     2991     2381     1746     1102 
     606      270        2     -378    -1042    -1877    -2728    -3593 
   -4388    -4963    -5296    -5397    -5267    -4982    -4665    -4410 
   -4255    -4233    -4399    -4657    -4851    -5070    -5350    -5475 
   -5341    -5086    -4800    -4433    -4001    -3612    -3206    -2655 
   -2069    -1618    -1262     -854     -361      114      475      568 
     222     -473    -1246    -1984    -2770    -3586    -4233    -4618 
   -4843    -4938    -4882    -4784    -4737    -4783    -4949    -5161 
   -5289    -5192    -4785    -4190    -3541    -2745    -1744     -702 
     213      922     1422     1802     2083     2278     2482     2759 
    3103     3464     3790     4058     4168     4043     3746     3348 
    2878     2405     1988     1633     1339     1115      934      747 
     594      548      548      523      589      788      976     1142 
    1372     1622     1861     2158     2543     2955     3206     3190 
    3105     3149     3329     3684     4210     4627     4743     4731 
    4738     4660     4401     4082     3898     3825     3738     3694 
    3738     3690     3458     3165     2884     2523     2089     1671 
    1173      486     -207     -691     -966    -1075    -1058     -969 
    -808     -626     -465     -270       -6      244      322      149 
    -135     -425     -787    -1260    -1804    -2403    -3114    -3970 
   -4835    -5572    -6224    -6828    -7334    -7753    -8113    -8343 
   -8336    -8139    -7905    -7643    -7230    -6656    -6029    -5404 
   -4861    -4490    -4170    -3748    -3271    -2814    -2384    -1949 
   -1543    -1212     -842     -373      -16      136      218      243 
     140      -63     -322     -600     -893    -1143    -1243    -1239 
   -1278    -1458    -1777    -2110    -2270    -2212    -2127    -2165 
   -2220    -2299    -2489    -2594    -2439    -2111    -1683    -1132 
    -506      102      657     1146     1583     1938     2103     2169 
    2361     2733     3187     3562     3815     4082     4429     4696 
    4715     4502     4164     3788     3400     3025     2629     2135 
    1597     1115      666      236     -114     -341     -442     -454 
    -417     -411     -508     -646     -843    -1247    -1854    -2631 
   -3599    -4627    -5567    -6451    -7342    -8117    -8633    -8938 
   -9090    -9027    -8729    -8236    -7634    -7040    -6543    -6180 
   -5891    -5638    -5487    -5406    -5292    -5169    -5032    -4749 
   -4374    -4145    -4037    -3839    -3604    -3510    -3470    -3316 
   -3061    -2779    -2465    -2091    -1676    -1231     -822     -548 
    -337     -125      -21      -24        2       43      106      355 
     776     1217     1726     2465     3437     4465     5364     6039 
    6459     6714     6999     7360     7646     7789     7835     7731 
    7422     7003     6619     6384     6404     6662     7015     7349 
    7595     7696     7662     7537     7258     6683     5854     4959 
    4001     2909     1814      800     -202    -1240    -2343    -3450 
   -4433    -5275    -5958    -6405    -6577    -6388    -5768    -4850 
   -3936    -3329    -3130    -3165    -3288    -3507    -3786    -3978 
   -3993    -3900    -3856    -3916    -4036    -4313    -4893    -5667 
   -6430    -7169    -7963    -8797    -9613   -10393   -11176   -11969 
  -12672   -13178   -13419   -13358   -13026   -12455   -11678   -10766 
   -9751    -8626    -7443    -6362    -5493    -4725    -3979    -3387 
   -3005    -2700    -2385    -2084    -1749    -1333     -849     -267 
     418     1144     1984     3057     4317     5645     6929     8031 
    8874     9406     9594     9525     9242     8715     8021     7177 
    6118     4938     3759     2563     1467      652       93     -210 
    -110      349      940     1647     2594     3724     4849     5873 
    6774     7554     8272     8950     9522     9891    10017     9981 
    9825     9483     8981     8402     7812     7244     6650     5908 
    4984     4035     3179     2349     1456      460     -603    -1583 
   -2384    -3040    -3586    -4044    -4425    -4814    -5281    -5638 
   -5713    -5645    -5556    -5455    -5417    -5414    -5359    -5329 
   -5409    -5556    -5698    -5767    -5817    -5938    -6031    -5989 
   -5859    -5725    -5614    -5429    -5127    -4789    -4417    -3971 
   -3584    -3442    -3595    -4016    -4703    -5578    -6511    -7514 
   -8641    -9815   -10970   -12077   -13034   -13783   -14305   -14512 
  -14368   -13921   -13194   -12264   -11261   -10170    -8910    -7604 
   -6442    -5435    -4571    -3842    -3149    -2481    -1926    -1460 
   -1032     -680     -395     -108      184      475      789     1144 
    1502     1775     1918     1965     1925     1863     1921     2074 
    2257     2609     3244     4021     4807     5564     6235     6789 
    7186     7364     7441     7622     7902     8213     8579     9012 
    9493     9984    10404    10731    10974    11078    11040    10968 
   10968    10999    10898    10601    10195     9678     8910     7834 
    6558     5216     3942     2849     1912      984       18     -907 
   -1776    -2602    -3358    -4055    -4698    -5240    -5616    -5794 
   -5807    -5670    -5360    -4916    -4445    -4066    -3753    -3348 
   -2856    -2404    -1975    -1547    -1219    -1069    -1102    -1331 
   -1734    -2257    -2801    -3249    -3565    -3738    -3775    -3774 
   -3765    -3730    -3765    -3908    -4031    -4075    -4098    -4089 
   -4010    -3893    -3825    -3901    -4101    -4329    -4568    -4810 
   -4978    -5090    -5250    -5445    -5684    -6038    -6416    -6693 
   -6932    -7186    -7433    -7655    -7789    -7807    -7684    -7411 
   -7117    -6786    -6313    -5826    -5445    -5096    -4711    -4326 
   -3960    -3566    -3103    -2565    -1961    -1331     -715     -118 
     436      866     1147     1390     1691     2058     2478     2945 
    3497     4148     4841     5516     6157     6772     7349     7843 
    8247     8522     8617     8618     8617     8569     8495     8495 
    8536     8498     8370     8145     7776     7279     6708     6088 
    5424     4665     3855     3145     2509     1813     1112      498 
     -47     -545    -1054    -1587    -2057    -2401    -2650    -2886 
   -3148    -3430    -3798    -4321    -4916    -5472    -6025    -6608 
   -7105    -7419    -7592    -7655    -7574    -7392    -7188    -6901 
   -6471    -5942    -5335    -4650    -3892    -3094    -2328    -1611 
    -957     -473     -195      -33       40       25       17       43 
      95      207      313      336      317      284      248      243 
     234      168       67      -37     -136     -230     -333     -425 
    -511     -660     -912    -1277    -1713    -2110    -2420    -2644 
   -2720    -2666    -2586    -2502    -2421    -2389    -2413    -2489 
   -2613    -2772    -2974    -3207    -3396    -3546    -3721    -3844 
   -3844    -3831    -3859    -3873    -3819    -3667    -3453    -3250 
   -3048    -2778    -2463    -2150    -1814    -1439    -1062     -689 
    -280      170      579      943     1372     1873     2316     2662 
    2991     3304     3492     3543     3522     3441     3277     3034 
    2756     2506     2304     2184     2218     2363     2485     2555 
    2597     2574     2506     2393     2158     1849     1588     1364 
    1113      858      631      402       98     -309     -788    -1312 
   -1906    -2531    -3084    -3549    -3942    -4256    -4533    -4818 
   -5090    -5356    -5643    -5877    -5969    -5946    -5846    -5656 
   -5417    -5165    -4908    -4684    -4477    -4206    -3873    -3547 
   -3237    -2898    -2470    -1948    -1381     -808     -260      255 
     758     1208     1547     1815     2050     2239     2424     2682 
    2971     3207     3408     3631     3866     4121     4387     4587 
    4683     4691     4599     4388     4067     3673     3240     2745 
    2195     1633     1105      681      371      141       -2     -121 
    -301     -538     -820    -1120    -1391    -1669    -1962    -2218 
   -2455    -2685    -2876    -3063    -3235    -3357    -3461    -3568 
   -3650    -3667    -3596    -3430    -3217    -3040    -2909    -2808 
   -2760    -2755    -2790    -2937    -3192    -3470    -3727    -3940 
   -4126    -4332    -4521    -4669    -4803    -4850    -4718    -4464 
   -4145    -3743    -3248    -2702    -2166    -1640    -1098     -594 
    -179      171      484      746      915      951      869      727 
     556      360      145      -97     -360     -581     -772     -973 
   -1131    -1217    -1286    -1362    -1420    -1460    -1505    -1568 
   -1648    -1746    -1869    -2011    -2192    -2409    -2608    -2754 
   -2856    -2928    -2957    -2947    -2941    -2965    -2992    -3025 
   -3053    -3055    -3068    -3109    -3125    -3079    -2972    -2822 
   -2610    -2290    -1896    -1502    -1101     -670     -252      152 
     591     1062     1524     1976     2411     2799     3153     3477 
    3730     3912     4082     4267     4422     4473     4426     4344 
    4220     4036     3854     3704     3550     3379     3219     3110 
    3049     3034     3078     3118     3080     2991     2841     2582 
    2284     2000     1672     1316     1026      781      529      290 
      68     -152     -360     -565     -772     -950    -1081    -1169 
   -1221    -1217    -1128     -990     -878     -845     -854     -835 
    -810     -853     -950    -1042    -1116    -1182    -1251    -1320 
   -1401    -1526    -1707    -1899    -2069    -2235    -2401    -2554 
   -2721    -2930    -3171    -3441    -3726    -4004    -4274    -4521 
   -4725    -4885    -4974    -4989    -4974    -4919    -4811    -4700 
   -4621    -4540    -4484    -4519    -4571    -4561    -4534    -4502 
   -4459    -4437    -4434    -4442    -4455    -4460    -4483    -4565 
   -4675    -4757    -4800    -4797    -4753    -4716    -4695    -4645 
   -4533    -4332    -4060    -3765    -3451    -3109    -2760    -2435 
   -2118    -1810    -1564    -1372    -1161     -932     -737     -538 
    -286       28      384      766     1208     1711     2197     2628 
    3029     3406     3765     4108     4387     4571     4693     4776 
