Origin Time       2025/01/13 21:19:00
Lat.              31.8
Long.             131.6
Depth. (km)       30
Mag.              6.9
Station Code      KGS021
Station Lat.      31.2535
Station Long.     130.6324
Station Height(m) 8
Record Time       2025/01/13 21:19:53
Sampling Freq(Hz) 100Hz
Duration Time(s)  147
Dir.              U-D
Scale Factor      3920(gal)/6182761
Max. Acc. (gal)   7.318
Last Correction   2025/01/13 21:19:54
Memo.             
[...]
   15483    15204    14851    14659    14536    14375    14157    13848 
   13430    13090    13188    13738    14305    14612    14800    15198 
   15977    16881    17456    17588    17517    17428    17155    16389 
   15205    14101    13409    12994    12735    12805    13304    14043 
   14689    15053    15267    15587    16164    16917    17519    17745 
   17693    17484    17127    16580    15706    14513    13340    12462 
   11785    11216    10983    11294    11985    12815    13634    14321 
   15032    15943    16734    17105    17313    17611    17808    17715 
   17580    17750    18066    18191    18306    18692    19267    19935 
   20585    20959    20784    19875    18485    17201    16220    15336 
   14434    13527    12554    11431    10227     9207     8594     8349 
    8387     8802     9487     9993    10144    10215    10543    11248 
   12130    13051    14234    15902    17861    19667    21112    22218 
   22860    22883    22431    21862    21334    20721    19923    18981 
   17966    17029    16429    16241    16244    16353    16793    17586 
   18331    18749    18974    19088    18862    18159    17250    16394 
   15521    14721    14241    13914    13346    12511    11818    11569 
   11666    11994    12516    13118    13856    14955    16412    17838 
   18751    18997    18732    18284    18060    18085    18051    17985 
   18014    17833    17168    16127    15021    14241    13853    13626 
   13633    13928    14193    14366    14737    15410    16182    16770 
   17115    17341    17276    16717    15956    15319    14823    14545 
   14595    14919    15333    15663    15914    16218    16638    17038 
   17260    17436    17687    17914    18209    18636    18942    18996 
   18833    18395    17725    17070    16703    16747    17090    17406 
   17440    17287    17118    16907    16584    16118    15567    14991 
   14303    13598    13250    13368    13692    13994    14130    14012 
   13858    13987    14237    14097    13455    12720    12149    11640 
   11160    10779    10514    10458    10688    11088    11609    12349 
   13264    14285    15595    17273    19093    20844    22326    23337 
   23920    24129    23728    22575    20975    19456    18331    17499 
   16743    15966    14961    13526    11768     9992     8726     8487 
    9136    10095    10964    11614    12109    12530    12944    13375 
   13533    13095    12322    11896    12113    12658    13338    14289 
   15414    16518    17666    18886    20002    20782    21098    21152 
   21244    21300    21182    20964    20463    19372    17893    16460 
   15333    14650    14101    13144    11903    10941    10461    10407 
   10846    11839    13042    13863    14109    13908    13321    12532 
   11838    11315    10971    10959    11343    12010    12896    13933 
   14990    16047    17049    17811    18300    18648    18984    19496 
   20308    21253    22080    22682    22937    22812    22658    22780 
   22962    22751    21784    19938    17568    15259    13404    12155 
   11419    11028    10844    10684    10701    11289    12484    14084 
   15812    17176    17932    18370    18843    19361    19748    19915 
   19790    19387    19034    19005    19078    18958    18639    18138 
   17466    16651    15629    14526    13598    12888    12468    12542 
   12998    13332    13202    12737    12255    11906    11703    11701 
   11800    11700    11429    11391    11773    12415    13116    13716 
   14112    14331    14477    14695    14973    14942    14382    13574 
   12745    12039    11840    12247    12775    12980    12915    12924 
   13221    13707    14165    14571    15109    15897    16841    17749 
   18451    18755    18505    17890    17467    17617    18111    18460 
   18531    18473    18311    18083    17981    18044    17959    17450 
   16780    16459    16457    16328    16007    15721    15452    15114 
   14808    14654    14729    15072    15559    15904    16001    16020 
   16091    16223    16401    16571    16812    17301    18003    18721 
   19348    19897    20314    20395    20108    19678    19144    18329 
   17331    16520    16147    16135    16167    16134    16239    16575 
   17016    17455    17908    18385    18662    18484    17971    17398 
   16753    15913    14968    14042    13054    11950    10947    10326 
   10137    10306    10960    12211    13655    14743    15434    15825 
   15729    15098    14267    13661    13481    13568    13614    13567 
   13685    14170    14859    15508    16140    16761    17113    17032 
   16741    16523    16256    15768    15340    15272    15355    15302 
   15314    15678    16187    16447    16373    16084    15648    15107 
   14511    13966    13672    13648    13601    13414    13220    12915 
   12332    11615    11044    10865    11198    11946    12916    13839 
   14456    14708    14747    14774    14827    14797    14638    14416 
   14175    13930    13804    13886    14021    14035    13924    13705 
   13429    13233    13115    12915    12645    12441    12339    12399 
   12700    13229    13949    14717    15308    15697    15961    15965 
   15591    15170    15049    15026    14859    14772    15056    15667 
   16271    16747    17353    18155    18946    19622    20064    20256 
   20528    21104    21808    22435    22851    22952    22911    23106 
   23612    24158    24577    24950    25287    25460    25369    24905 
   24085    23109    21972    20670    19484    18446    17313    16123 
   15104    14348    13791    13338    12969    12732    12646    12628 
   12596    12571    12646    12898    13222    13423    13486    13599 
   13907    14305    14595    14693    14526    14068    13484    12967 
   12592    12427    12447    12498    12593    12824    13084    13286 
   13477    13627    13604    13328    12977    12986    13615    14619 
   15560    16256    16597    16351    15583    14660    13741    12979 
   12838    13467    14430    15397    16297    17003    17499    17926 
   18359    18876    19551    20260    20744    20815    20491    19866 
   19015    18134    17413    16838    16299    15636    14722    13681 
   12792    12199    11870    11793    12019    12417    12721    12970 
   13397    13971    14488    14895    15167    15170    14951    14649 
   14193    13586    12994    12504    12174    12036    12062    12354 
   12952    13494    13703    13782    13846    13640    13096    12503 
   12011    11504    11029    10843    11080    11628    12246    12944 
   13945    15091    16003    16684    17369    18026    18480    18748 
   18906    18969    18933    18675    18082    17288    16516    15915 
   15542    15247    14765    14089    13443    12935    12629    12555 
   12521    12462    12691    13307    13955    14533    15217    15835 
   16061    15945    15912    16216    16635    16969    17241    17328 
   17133    16829    16586    16419    16277    16188    16368    16987 
   17830    18528    19015    19462    19951    20471    21021    21566 
   21884    21769    21317    20648    19682    18388    16849    15166 
   13637    12661    12293    12254    12316    12478    12875    13533 
   14312    15089    15776    16232    16318    16059    15571    14935 
   14371    14134    14314    14809    15340    15822    16324    16639 
   16613    16383    15984    15361    14666    14076    13572    13118 
   12759    12601    12788    13333    14044    14655    15035    15233 
   15342    15551    16068    16875    17860    18903    19785    20368 
   20638    20536    20096    19555    19121    18822    18667    18703 
   18788    18647    18272    17916    17697    17528    17293    17021 
   16928    17063    17133    16955    16732    16684    16673    16377 
   15685    14794    13956    13243    12623    12107    11837    11993 
   12407    12713    12843    12931    13143    13584    14039    14212 
   14102    13835    13490    13230    13116    12888    12371    11779 
   11312    10968    10882    11224    11809    12416    13162    14136 
   15205    16242    17081    17609    17953    18154    18093    17868 
   17735    17850    18123    18284    18194    17849    17219    16286 
   15029    13505    12040    10919    10001     9103     8434     8315 
    8803     9690    10706    11674    12552    13317    13762    13686 
   13295    13037    13133    13488    13959    14558    15306    16088 
   16879    17819    18849    19837    20813    21633    22077    22206 
   22159    22002    21731    21213    20421    19534    18567    17374 
   16118    15139    14564    14374    14480    14792    15281    15801 
   16180    16357    16308    16133    16018    16059    16257    16546 
   16847    17113    17250    17177    16997    16813    16490    15874 
   15049    14257    13674    13325    13275    13580    14071    14568 
   15005    15380    15791    16263    16665    16955    17226    17425 
   17292    16773    16154    15747    15668    15743    15680    15458 
   15267    15208    15263    15316    15252    15047    14689    14226 
   13745    13280    12850    12499    12277    12154    12170    12569 
   13298    13898    14242    14610    15089    15531    15796    15844 
   15762    15709    15871    16348    17028    17671    18160    18547 
   18845    19030    19178    19341    19527    19812    20198    20562 
   20792    20830    20742    20709    20726    20586    20189    19576 
   18820    17947    16891    15696    14574    13596    12699    11943 
   11437    11099    10697    10164     9695     9498     9661    10106 
   10684    11431    12452    13553    14334    14659    14762    14813 
   14717    14484    14342    14418    14548    14442    14124    13932 
   13927    13864    13689    13634    13837    14166    14493    14801 
   15047    15229    15471    15926    16632    17482    18415    19426 
   20519    21724    22881    23739    24307    24646    24741    24632 
   24252    23518    22596    21673    20692    19577    18452    17481 
   16730    16221    15876    15523    15187    15023    14928    14742 
   14575    14523    14506    14497    14469    14268    13883    13514 
   13164    12622    11852    10979    10087     9285     8753     8576 
    8652     8863     9103     9265     9385     9548     9748    10103 
   10792    11706    12573    13208    13460    13316    12955    12554 
   12238    12084    12058    12060    12133    12470    13088    13774 
   14455    15136    15620    15719    15549    15351    15243    15226 
   15312    15569    16038    16656    17229    17622    17994    18580 
   19394    20331    21214    21821    22069    22000    21636    21061 
   20481    20080    19986    20274    20797    21251    21530    21695 
   21682    21423    21030    20650    20347    20125    19897    19534 
   18897    17920    16679    15302    14031    13160    12695    12471 
   12470    12716    13096    13340    13183    12634    12001    11566 
   11368    11404    11747    12345    13023    13682    14321    15007 
   15860    16943    18135    19264    20242    20851    20819    20226 
   19399    18596    17965    17618    17647    17987    18435    18824 
   19090    19319    19658    20077    20372    20335    19770    18640 
   17234    15923    14887    14227    13930    13763    13551    13311 
   13022    12550    11895    11280    10958    11067    11561    12303 
   13264    14397    15483    16271    16605    16475    15999    15296 
   14502    13743    12987    12132    11166    10157     9282     8785 
    8800     9240     9899    10686    11543    12214    12538    12676 
   12729    12665    12650    12804    12877    12638    12212    11870 
   11799    12014    12314    12530    12743    13126    13762    14603 
   15529    16485    17373    17901    17951    17777    17524    17065 
   16390    15707    15199    14838    14593    14658    15135    15746 
   16154    16242    16067    15740    15258    14624    14043    13582 
   13114    12735    12634    12761    12956    13160    13391    13695 
   14186    14906    15736    16539    17168    17528    17707    17824 
   17877    17846    17745    17629    17655    18000    18626    19225 
   19523    19581    19617    19629    19460    19029    18316    17314 
   16096    14897    13935    13333    13172    13375    13912    14835 
   15903    16853    17671    18211    18345    18307    18271    18258 
   18406    18737    19178    19671    20000    19996    19732    19408 
   19233    19315    19674    20261    20868    21223    21312    21360 
   21431    21441    21380    21272    21240    21428    21800    22292 
   22871    23384    23605    23317    22460    21215    19798    18279 
   16665    15054    13671    12722    12257    12197    12357    12519 
   12599    12693    12891    13197    13569    13894    14099    14223 
   14315    14428    14647    15091    15774    16466    16958    17285 
   17556    17759    17793    17591    17115    16377    15520    14670 
   13865    13162    12546    11927    11263    10547     9848     9317 
    8987     8767     8742     9087     9632    10175    10786    11286 
   11349    11057    10702    10479    10479    10677    10966    11266 
   11609    12032    12482    12895    13283    13679    14057    14446 
   15038    15987    17294    18871    20446    21695    22513    22899 
   22818    22320    21418    19974    18031    15872    13682    11606 
    9796     8324     7212     6380     5748     5275     4816     4351 
    4089     4079     4175     4357     4731     5388     6368     7615 
    9098    10742    12171    13154    13906    14535    14910    15002 
   14967    15023    15241    15532    15821    16054    16164    16214 
   16426    16938    17757    18853    20058    21156    22026    22524 
   22605    22362    21844    21093    20073    18863    17803    16977 
   16354    16197    16605    17438    18585    19804    20709    21091 
   21058    20748    20144    19348    18660    18233    17958    17718 
   17490    17283    17145    17080    17094    17259    17460    17507 
   17449    17354    17150    16783    16285    15744    15264    14928 
   14783    14783    14831    14789    14616    14458    14377    14362 
   14511    14791    15023    15179    15316    15470    15712    16094 
   16591    17093    17461    17656    17708    17584    17263    16795 
   16284    15911    15764    15809    16126    16761    17530    18352 
   19309    20327    21181    21713    21886    21786    21553    21246 
   20916    20689    20580    20458    20233    19935    19679    19548 
   19473    19307    18999    18562    17972    17157    16025    14596 
   13045    11499    10035     8880     8189     7833     7661     7620 
    7770     8181     8693     9209     9830    10450    10970    11499 
   11970    12246    12469    12834    13298    13700    13979    14248 
   14681    15325    16167    17139    18083    18933    19731    20482 
   21135    21647    22008    22165    22010    21439    20439    19156 
   17780    16380    14948    13573    12463    11698    11176    10846 
   10643    10464    10440    10719    11196    11785    12510    13338 
   14223    15107    15943    16731    17390    17750    17765    17592 
   17378    17163    16838    16263    15524    14797    14124    13482 
   12829    12184    11649    11259    11082    11233    11653    12271 
   13158    14258    15374    16376    17081    17291    17061    16571 
   15945    15364    14992    14786    14656    14656    14849    15259 
   15841    16374    16741    17052    17321    17460    17472    17480 
   17629    17958    18384    18711    18819    18898    19084    19233 
   19284    19293    19193    18982    18880    18981    19120    19171 
   19100    18821    18249    17459    16589    15698    14895    14273 
   13839    13597    13380    12947    12301    11531    10722    10033 
    9518     9144     8994     9065     9250     9529     9863    10271 
   10860    11617    12464    13365    14213    14876    15401    15895 
   16326    16673    17037    17551    18331    19283    20159    20868 
   21478    22037    22470    22717    22804    22654    22207    21629 
   21015    20254    19290    18202    17071    15920    14820    13911 
   13237    12745    12355    12032    11820    11703    11581    11422 
   11298    11343    11611    11995    12414    12890    13366    13782 
   14246    14813    15371    15824    16067    15966    15607    15174 
   14695    14197    13803    13609    13592    13647    13754    13898 
   13961    13921    13840    13649    13276    12781    12306    12066 
   12160    12434    12699    12936    13280    13859    14627    15449 
   16240    16898    17386    17915    18709    19743    20841    21752 
   22294    22497    22423    22092    21573    20968    20295    19431 
   18289    16949    15506    13994    12533    11328    10502    10095 
   10126    10554    11216    11962    12777    13594    14346    15073 
   15733    16232    16614    16957    17272    17563    17819    18038 
   18238    18360    18346    18227    18092    18107    18355    18743 
   19166    19455    19464    19309    19086    18784    18478    18113 
   17570    16899    16142    15326    14572    13986    13581    13352 
   13305    13401    13624    14045    14681    15420    16172    16884 
   17377    17460    17224    16906    16584    16237    15846    15423 
   15053    14776    14623    14656    14856    15213    15758    16394 
   17029    17679    18223    18472    18445    18225    17878    17519 
   17169    16763    16312    15904    15611    15360    14996    14464 
   13776    12975    12197    11573    11111    10791    10679    10830 
   11185    11700    12390    13254    14267    15325    16257    17000 
   17645    18299    18978    19560    19945    20178    20291    20287 
   20217    20090    19843    19527    19300    19217    19171    19024 
   18724    18327    17891    17426    16937    16443    15950    15438 
   14911    14435    14068    13810    13657    13612    13672    13833 
   14017    14104    14078    13967    13773    13520    13249    12940 
   12505    11951    11421    10963    10509    10139    10040    10279 
   10786    11481    12322    13243    14147    14971    15673    16236 
   16682    17022    17243    17291    17114    16736    16200    15603 
   15101    14738    14513    14453    14494    14620    14940    15464 
   16091    16783    17558    18370    19091    19663    20118    20443 
   20579    20521    20252    19797    19282    18746    18154    17561 
   17030    16583    16221    15938    15772    15692    15605    15522 
   15499    15519    15534    15573    15694    15881    16046    16121 
   16105    15993    15730    15345    14991    14799    14806    14997 
   15349    15800    16243    16629    17018    17441    17817    18042 
   18067    17866    17427    16751    15904    14981    14061    13207 
   12447    11851    11541    11514    11686    12003    12372    12729 
   13041    13241    13355    13470    13517    13450    13395    13446 
   13569    13724    13893    14034    14192    14481    14870    15270 
   15710    16160    16536    16882    17278    17708    18136    18570 
   18991    19293    19372    19216    18904    18476    17885    17124 
   16237    15244    14171    13068    12029    11117    10334     9796 
