Origin Time       2025/01/13 21:19:00
Lat.              31.8
Long.             131.6
Depth. (km)       30
Mag.              6.9
Station Code      KGS024
Station Lat.      31.0888
Station Long.     130.6982
Station Height(m) 75
Record Time       2025/01/13 21:20:00
Sampling Freq(Hz) 100Hz
Duration Time(s)  88
Dir.              U-D
Scale Factor      7845(gal)/8223790
Max. Acc. (gal)   5.463
Last Correction   2025/01/13 21:20:00
Memo.             
[...]
   -1845    -2733    -3172    -2891    -2110    -1377    -1194    -1656 
   -2439    -3110    -3427    -3348    -3068    -2972    -2960    -2509 
   -1734    -1254    -1374    -2014    -2570    -2373    -1664    -1240 
   -1545    -2581    -3789    -4315    -4052    -3491    -2694    -1732 
   -1324    -1894    -2911    -3558    -3446    -2863    -2408    -2178 
   -1676     -762      -99     -244     -951    -1664    -2026    -2083 
   -2215    -2631    -3051    -3092    -2864    -2725    -2660    -2555 
   -2531    -2532    -2448    -2556    -2964    -3218    -3106    -2917 
   -2600    -1860    -1001     -595     -826    -1621    -2521    -2817 
   -2628    -2791    -3389    -3705    -3470    -3022    -2764    -2907 
   -3160    -3069    -2840    -2949    -3279    -3326    -2905    -2362 
   -2054    -1956    -1977    -1991    -1804    -1522    -1321    -1108 
    -895    -1034    -1653    -2276    -2427    -2201    -1938    -1919 
   -2246    -2666    -2868    -2782    -2513    -2269    -2172    -2262 
   -2498    -2650    -2490    -1879     -980     -572    -1102    -1879 
   -2164    -2128    -2257    -2614    -2856    -2687    -2162    -1756 
   -2130    -3187    -3932    -3820    -3186    -2509    -2301    -2713 
   -3053    -2725    -2046    -1690    -1979    -2589    -2868    -2627 
   -2300    -2386    -2847    -3046    -2655    -2133    -1965    -2178 
   -2602    -2878    -2643    -2026    -1541    -1528    -1962    -2617 
   -3175    -3443    -3321    -2845    -2517    -2710    -3052    -3055 
   -2550    -1678    -1078    -1177    -1544    -1613    -1239     -675 
    -444     -831    -1672    -2551    -2890    -2385    -1389     -727 
   -1102    -2323    -3422    -3730    -3368    -2859    -2486    -2188 
   -2083    -2371    -2878    -3269    -3341    -3018    -2397    -1734 
   -1479    -1952    -2751    -3109    -2797    -2209    -1809    -1709 
   -1663    -1547    -1578    -1811    -2099    -2520    -2953    -2952 
   -2559    -2168    -1879    -1682    -1475    -1084     -799    -1150 
   -1942    -2474    -2604    -2613    -2509    -2289    -2053    -1682 
   -1270    -1129    -1335    -2023    -3257    -4436    -4816    -4344 
   -3535    -2801    -2250    -1906    -1642    -1381    -1393    -1703 
   -1871    -1833    -1879    -2092    -2488    -2949    -3115    -2934 
   -2671    -2454    -2443    -2735    -3136    -3512    -3685    -3307 
   -2389    -1363     -808    -1170    -2074    -2570    -2454    -2309 
   -2304    -2215    -2224    -2582    -3078    -3462    -3657    -3493 
   -2936    -2320    -1993    -1931    -2003    -2181    -2300    -2128 
   -1732    -1404    -1412    -1667    -1791    -1836    -2127    -2559 
   -2933    -3164    -2956    -2342    -1944    -2142    -2732    -3323 
   -3545    -3240    -2629    -2145    -2052    -2157    -2164    -2130 
   -2033    -1750    -1657    -1876    -1721     -962     -244     -170 
    -951    -2182    -2947    -2845    -2403    -2339    -2794    -3291 
   -3406    -3132    -2678    -2351    -2359    -2551    -2574    -2469 
   -2647    -2997    -2991    -2594    -2070    -1628    -1327    -1090 
   -1294    -2393    -3812    -4484    -3985    -2793    -1895    -1744 
   -1883    -1867    -1665    -1410    -1287    -1390    -1728    -2301 
   -2929    -3298    -3273    -2975    -2532    -1983    -1570    -1678 
   -2133    -2303    -2091    -1993    -2286    -2659    -2562    -1933 
   -1420    -1490    -1760    -1756    -1707    -1890    -2092    -2269 
   -2606    -2902    -2868    -2601    -2349    -2280    -2394    -2447 
   -2155    -1502     -846     -699    -1233    -1984    -2347    -2232 
   -2018    -2219    -2944    -3445    -3096    -2417    -2273    -2907 
   -3865    -4294    -3943    -3451    -3179    -2874    -2528    -2498 
   -3022    -3766    -4024    -3591    -2841    -2196    -1996    -2245 
   -2477    -2432    -2160    -1629    -1039     -796     -895    -1093 
   -1262    -1321    -1420    -1814    -2349    -2837    -3383    -3832 
   -3873    -3592    -3280    -3064    -2860    -2492    -2008    -1667 
   -1543    -1603    -1877    -2366    -2991    -3435    -3226    -2346 
   -1402    -1146    -1938    -3241    -3936    -3507    -2419    -1537 
   -1475    -2029    -2276    -1657     -774     -573     -927    -1013 
    -700     -446     -534    -1055    -1888    -2798    -3726    -4475 
   -4626    -4077    -3121    -2164    -1556    -1453    -1707    -1980 
   -2103    -2084    -1819    -1350    -1135    -1579    -2486    -3291 
   -3542    -3063    -2209    -1784    -1927    -1980    -1817    -1977 
   -2704    -3511    -3596    -2789    -1863    -1692    -2308    -2949 
   -3146    -3144    -3025    -2685    -2235    -1570     -765     -591 
   -1405    -2600    -3397    -3329    -2408    -1251     -627     -827 
   -1582    -2490    -3238    -3487    -3150    -2652    -2575    -3132 
   -3824    -3909    -3447    -3034    -2832    -2752    -2667    -2274 
   -1663    -1359    -1503    -1888    -2393    -2764    -2733    -2359 
   -1857    -1598    -2006    -2791    -3294    -3447    -3316    -2903 
   -2620    -2467    -1984    -1405    -1181    -1210    -1296    -1378 
   -1561    -1923    -2266    -2598    -2889    -2704    -2261    -2242 
   -2508    -2673    -2763    -2911    -3268    -3604    -3464    -3029 
   -2677    -2354    -1912    -1327     -895     -980    -1358    -1556 
   -1567    -1809    -2492    -2997    -2598    -1575     -850    -1108 
   -1927    -2050    -1441    -1343    -2128    -3163    -3813    -3827 
   -3601    -3469    -3009    -2122    -1571    -1984    -3246    -4596 
   -5063    -4270    -2812    -1598     -976     -877    -1354    -2151 
   -2478    -1993    -1156     -413      -91     -538    -1572    -2540 
   -2909    -2610    -2047    -1593    -1405    -1698    -2330    -2859 
   -3335    -3816    -3817    -3138    -2093    -1124     -873    -1625 
   -2635    -3092    -3125    -3005    -2727    -2552    -2520    -2292 
   -1945    -1695    -1568    -1749    -2236    -2633    -2727    -2698 
   -2767    -2920    -2968    -2717    -2228    -1950    -2084    -2246 
   -2343    -2786    -3528    -4131    -4409    -4029    -2771    -1459 
    -815     -364      105       10     -849    -2176    -3388    -3738 
   -3215    -2539    -2081    -1786    -1644    -1709    -2089    -2673 
   -2897    -2581    -2230    -2096    -1972    -1645    -1196    -1189 
   -1965    -2781    -2678    -1896    -1536    -2030    -2898    -3585 
   -3734    -3337    -2670    -1825    -1124    -1178    -1957    -2798 
   -2987    -2257    -1259     -819     -985    -1375    -1746    -2223 
   -2990    -3588    -3429    -2690    -1991    -1825    -2317    -3034 
   -3292    -2897    -2231    -1660    -1405    -1723    -2452    -2836 
   -2474    -1976    -2046    -2569    -3229    -3871    -4002    -3531 
   -3134    -2992    -2666    -1975    -1112     -641    -1028    -1791 
   -2162    -2164    -2022    -1858    -1992    -2212    -2014    -1746 
   -1782    -1861    -2100    -2666    -3215    -3694    -4162    -4241 
   -3758    -2918    -1981    -1464    -1703    -2097    -1981    -1715 
   -1877    -2304    -2598    -2693    -2644    -2431    -2042    -1537 
   -1132    -1128    -1557    -2238    -2970    -3415    -3457    -3441 
   -3424    -3042    -2228    -1340     -791     -611     -521     -634 
   -1283    -2327    -3252    -3516    -2899    -1910    -1458    -1723 
   -2011    -2074    -2448    -3096    -3298    -3033    -2889    -2982 
   -3098    -2937    -2181    -1298    -1015    -1024     -966    -1246 
   -1841    -2373    -2917    -3307    -3100    -2571    -2452    -2936 
   -3562    -3785    -3387    -2629    -2089    -1995    -1946    -1536 
    -904     -472     -506    -1030    -1966    -3063    -3765    -3613 
   -2783    -1964    -1730    -2050    -2349    -2226    -2006    -2176 
   -2581    -2802    -2905    -3200    -3620    -3762    -3325    -2405 
   -1629    -1544    -1760    -1549    -1131    -1219    -1721    -2047 
   -2043    -1706    -1065     -719    -1277    -2475    -3515    -3886 
   -3654    -3150    -2749    -2636    -2524    -2277    -2112    -1969 
   -1904    -2158    -2440    -2623    -2914    -2952    -2533    -2241 
   -2477    -2978    -3242    -2968    -2251    -1526    -1263    -1470 
   -1960    -2737    -3410    -3357    -2671    -1799    -1067     -978 
   -1811    -2929    -3291    -2693    -1802    -1148    -1051    -1680 
   -2486    -2685    -2209    -1526    -1146    -1452    -2404    -3489 
   -4116    -4051    -3661    -3434    -3303    -2882    -2155    -1486 
   -1178    -1347    -2004    -2766    -2871    -2249    -1759    -1800 
   -2077    -2334    -2154    -1528    -1228    -1456    -1779    -2073 
   -2347    -2749    -3488    -4294    -4652    -4222    -3198    -2334 
   -1993    -1884    -1968    -2421    -2876    -2659    -1834    -1247 
   -1198    -1102     -664     -324     -518    -1166    -1983    -2743 
   -3250    -3669    -4129    -3921    -2658    -1215     -355     -222 
    -923    -2047    -2708    -2803    -3010    -3557    -3943    -3577 
   -2565    -1809    -1768    -1942    -2104    -2457    -2864    -3187 
   -3223    -2535    -1691    -1780    -2147    -1641     -791     -363 
    -436    -1264    -2390    -2637    -2011    -1371    -1094    -1131 
   -1221    -1220    -1385    -1983    -2913    -3800    -4514    -5173 
   -5445    -4924    -3925    -3015    -2532    -2597    -2945    -3288 
   -3611    -3731    -3426    -2911    -2466    -2245    -2519    -3146 
   -3473    -3453    -3623    -3985    -4290    -4522    -4197    -3092 
   -2087    -1410     -317      818      849     -373    -2008    -2925 
   -2647    -1933    -1725    -2053    -2176    -1404     -283     -314 
   -1849    -3596    -4399    -4268    -3789    -3469    -3526    -3574 
   -3055    -2305    -1999    -2023    -2428    -3496    -4348    -4426 
   -4471    -4432    -3848    -3144    -2274     -784      658      938 
     -91    -1552    -2640    -3339    -3700    -3523    -2887    -1969 
   -1100     -967    -1672    -2413    -2798    -3392    -4448    -4990 
   -3851    -1336      793     1441     1252      943      337     -560 
   -1491    -2385    -2701    -2047    -1333    -1331    -1406     -978 
    -684    -1471    -3289    -4999    -5479    -4606    -3194    -2266 
   -2139    -2220    -2064    -2097    -2763    -3646    -3808    -2805 
   -1390     -893    -1579    -2320    -2093    -1162     -560     -718 
   -1328    -2250    -3213    -3786    -4013    -3542    -1888      -82 
     614      144    -1528    -4117    -6126    -6367    -4922    -2686 
    -951     -329     -318     -275     -194     -679    -2058    -3461 
   -3406    -1718     -233     -572    -2119    -3397    -3717    -2855 
   -1370     -665    -1096    -1885    -2829    -3684    -3354    -1653 
     206     1468     2039     1547      -48    -1782    -2512    -2162 
   -1683    -1788    -2492    -3624    -4908    -5632    -5035    -3599 
   -3010    -4136    -5886    -6474    -5414    -3815    -2749    -2247 
   -1621     -363      826      642     -918    -2378    -2558    -1869 
   -1476    -1814    -2552    -3086    -2793    -1698     -611     -595 
   -2015    -3935    -5130    -5049    -3676    -1657      -91      276 
    -571    -2169    -3902    -4752    -3827    -1980     -976    -1232 
   -2239    -3327    -3543    -2675    -1435     -378     -118    -1313 
   -3438    -5082    -5341    -4356    -3121    -2506    -2489    -2737 
   -3211    -4143    -5556    -6615    -6293    -4652    -2536     -653 
     342       -1    -1170    -2322    -3269    -3790    -3504    -2856 
   -2367    -1902    -1672    -2003    -2434    -2579    -2652    -2766 
   -2867    -2916    -2640    -1877    -1075     -711     -643     -623 
    -799    -1345    -2153    -2889    -3079    -2590    -2101    -2293 
   -2609    -1975     -741     -463    -1786    -3701    -4691    -4322 
   -3730    -3840    -3991    -3348    -2076     -785     -268     -911 
   -1906    -2224    -1888    -1694    -2158    -2990    -3464    -3184 
   -2471    -2029    -1925    -1501     -691     -141      -41     -156 
    -346     -610    -1232    -2397    -3627    -4110    -3426    -2061 
    -904     -315     -303     -847    -1642    -2262    -2400    -1968 
   -1140     -216      198     -484    -1884    -3073    -3522    -3242 
   -2880    -3032    -3524    -4086    -4742    -5364    -5659    -5466 
   -4958    -4374    -3674    -2818    -1856     -931     -530     -830 
   -1227    -1225     -922     -654     -750    -1063    -1151    -1347 
   -2062    -2589    -2434    -2087    -1715    -1305    -1304    -1788 
   -2583    -3688    -4278    -3298    -1304       83      -87    -1570 
   -3489    -5080    -5767    -5395    -4573    -3855    -3295    -3136 
   -3372    -3264    -2640    -2087    -1715    -1493    -1683    -2027 
   -1953    -1472    -1019    -1009    -1649    -2667    -3603    -4328 
   -4869    -5174    -5097    -4442    -3485    -2948    -3207    -3923 
   -4106    -3011    -1327     -378     -479    -1061    -1528    -1692 
   -1710    -1580    -1125     -483     -147     -553    -1671    -2916 
   -3688    -3893    -3508    -2243     -305     1179     1065     -648 
   -2705    -3889    -3932    -3223    -2509    -2520    -3252    -4009 
   -4307    -4401    -4695    -4965    -4644    -3553    -2208    -1480 
   -1568    -1617     -924       60      407     -163    -1246    -2461 
   -3576    -4357    -4734    -4576    -3820    -2762    -1266      909 
    2810     3415     2870     1590      -44    -1557    -2994    -4513 
   -5778    -6544    -6727    -6207    -5260    -4256    -3404    -3001 
   -3129    -3395    -3238    -2515    -1591     -805     -423     -687 
   -1429    -2131    -2400    -2295    -2247    -2447    -2635    -2671 
   -2608    -2350    -1939    -1501     -858     -106      118     -495 
   -1563    -2439    -2660    -2242    -1729    -1725    -2295    -2998 
   -3451    -3472    -2907    -2023    -1601    -1880    -2344    -2743 
   -3078    -3183    -3084    -2721    -1945    -1205     -903     -882 
   -1024    -1119     -953     -715     -631     -997    -2112    -3342 
   -3665    -3064    -2189    -1775    -2328    -3339    -3920    -4063 
   -4043    -3713    -3022    -2265    -1871    -2234    -3280    -4294 
   -4675    -4571    -4379    -4216    -4128    -3987    -3426    -2494 
   -1755    -1582    -1796    -1989    -2181    -2621    -3099    -3231 
   -2949    -2479    -2184    -2108    -2031    -1884    -1453     -562 
     259      471      170     -541    -1467    -2034    -2123    -2288 
   -2871    -3442    -3283    -2353    -1165     -172      283      167 
    -284     -924    -1587    -2220    -3100    -4167    -4889    -4869 
   -3955    -2586    -1655    -1606    -2328    -3072    -2830    -1691 
    -594     -140     -585    -1683    -2536    -2546    -2031    -1637 
   -1436    -1209    -1300    -1898    -2397    -2565    -2841    -3446 
   -4155    -4538    -4517    -4433    -4214    -3561    -2613    -1447 
     -85      837      904      575      160     -346     -724     -870 
    -780     -388     -179     -743    -1915    -3138    -3862    -3831 
   -3392    -2929    -2551    -2346    -2359    -2635    -2961    -2862 
   -2393    -2155    -2313    -2539    -2813    -3311    -3742    -3685 
   -3114    -2146    -1070     -369     -194     -372     -683     -870 
   -1034    -1524    -2354    -3319    -4095    -4438    -4761    -5487 
   -6164    -6192    -5487    -4241    -2990    -2511    -2970    -3584 
   -3627    -3064    -2002     -850     -537    -1171    -1719    -1621 
   -1221     -993    -1269    -2081    -2976    -3704    -4675    -5717 
   -5660    -4153    -2150     -490      486      576       29     -515 
    -903    -1493    -2297    -3005    -3584    -3917    -3586    -2654 
   -1699    -1255    -1648    -2675    -3592    -4024    -4167    -3985 
   -3339    -2602    -2168    -2079    -2328    -2493    -1961    -1082 
    -567     -557    -1185    -2134    -2478    -2231    -2069    -1966 
   -1887    -2165    -2613    -2821    -3055    -3781    -4741    -5163 
   -4457    -2681     -877     -276     -908    -1780    -2074    -1956 
   -2261    -3099    -3568    -2990    -1532     -106      384       94 
    -352     -733     -747     -234      405      797      641     -450 
   -2376    -4363    -5508    -5479    -4693    -3770    -3222    -3407 
   -4207    -5238    -5961    -5439    -3457    -1162      425      946 
     264    -1038    -1988    -2335    -2193    -1497     -530       45 
      17     -426    -1293    -2427    -3356    -3969    -4320    -4306 
   -4079    -3711    -2930    -1912    -1273    -1209    -1494    -1729 
   -1539    -1287    -1777    -2974    -4070    -4480    -4158    -3456 
   -2716    -1958    -1331    -1201    -1668    -2578    -3381    -3303 
   -2470    -1709    -1460    -1741    -2185    -2393    -2519    -2613 
   -2197    -1040      367     1162      868     -137    -1004    -1169 
   -1003    -1414    -2556    -3815    -4703    -5008    -4770    -4325 
   -4072    -4234    -4468    -4125    -3258    -2370    -1474     -587 
    -166     -387    -1081    -2070    -2805    -2789    -2293    -1803 
   -1480    -1337    -1351    -1452    -1449    -1174     -947    -1273 
   -2176    -3265    -3967    -3882    -3265    -2619    -2025    -1440 
   -1165    -1468    -2147    -2768    -2883    -2261    -1482    -1366 
   -1817    -2196    -2263    -2289    -2527    -2901    -3321    -3674 
   -3688    -3488    -3516    -3676    -3447    -2596    -1501     -805 
    -519     -113      589     1255     1143     -217    -2085    -3146 
   -2907    -2049    -1609    -1948    -2710    -3264    -3041    -2315 
   -1948    -1998    -2010    -2199    -2694    -2922    -2778    -2706 
   -2628    -2419    -2446    -2766    -3059    -3229    -3265    -3057 
   -2489    -1678    -1232    -1601    -2309    -2741    -2967    -3221 
   -3499    -3897    -4356    -4484    -4329    -4324    -4441    -4401 
   -3982    -3127    -2327    -2022    -2084    -2346    -2521    -2324 
   -1945    -1559    -1354    -1782    -2708    -3450    -3613    -3114 
   -2173    -1331    -1146    -1761    -2511    -2594    -2089    -1723 
   -2010    -2521    -2466    -2006    -1746    -1833    -2182    -2389 
   -1980    -1188     -699     -981    -1780    -2285    -2222    -1911 
   -1534    -1445    -2149    -3389    -4360    -4598    -4027    -2903 
   -1949    -1709    -2041    -2600    -3048    -3068    -2810    -2500 
   -2056    -1811    -2093    -2363    -2199    -1833    -1494    -1462 
   -1830    -2083    -1956    -1914    -2293    -2743    -2641    -1717 
    -444      183     -229     -869     -803      -29      757      672 
    -635    -2512    -4074    -5042    -5549    -5769    -5715    -5185 
   -4093    -2832    -2020    -1917    -2137    -1961    -1156     -372 
    -317     -893    -1456    -1470     -837      -86     -105    -1047 
   -2168    -3025    -3527    -3493    -3345    -3711    -4378    -4749 
   -4518    -3885    -3559    -4116    -5290    -5931    -5158    -3697 
   -2853    -2794    -2821    -2278    -1075      139      544      -93 
   -1301    -2354    -2867    -2890    -2610    -2192    -1837    -1911 
   -2542    -3011    -2597    -1912    -2061    -2897    -3461    -3339 
   -2617    -1760    -1657    -2324    -2743    -2581    -2258    -1966 
