Origin Time       2025/01/13 21:19:00
Lat.              31.8
Long.             131.6
Depth. (km)       30
Mag.              6.9
Station Code      KGS028
Station Lat.      30.4204
Station Long.     130.5771
Station Height(m) 41
Record Time       2025/01/13 21:20:35
Sampling Freq(Hz) 100Hz
Duration Time(s)  60
Dir.              E-W
Scale Factor      3920(gal)/6182761
Max. Acc. (gal)   1.562
Last Correction   2025/01/13 21:20:36
Memo.             
[...]
    -844     -748     -712     -920    -1087     -813     -328     -145 
    -250     -353     -435     -592     -725     -706     -729    -1020 
   -1290    -1216    -1148    -1430    -1766    -1825    -1605    -1270 
   -1162    -1358    -1395    -1029     -662     -655     -804     -706 
    -252      241      346      128       32       98       16     -162 
    -173      -96     -157     -355     -537     -567     -454     -380 
    -431     -599     -882    -1020     -804     -676     -982    -1199 
    -941     -664     -716     -861     -809     -554     -421     -679 
   -1083    -1346    -1545    -1606    -1314     -936     -880     -971 
    -831     -496     -264     -256     -244      -48       81      -12 
     -31       40     -172     -528     -591     -548     -817    -1251 
   -1451    -1323    -1069     -981    -1164    -1343    -1289    -1197 
   -1355    -1695    -1827    -1604    -1421    -1510    -1559    -1357 
   -1084     -953    -1035    -1200    -1170     -937     -843    -1002 
   -1110     -953     -756     -821     -930     -697     -345     -289 
    -372     -266       -8      194      214       68     -104     -163 
     -76       86      236      337      412      495      415      -70 
    -733    -1063     -986     -831     -815     -968    -1178    -1149 
    -789     -567     -834    -1137     -925     -413     -198     -452 
    -721     -591     -347     -417     -652     -724     -556     -267 
    -207     -543     -911     -987     -890     -851     -942    -1094 
   -1151     -953     -529     -208     -307     -725     -949     -600 
     -74     -135     -739    -1058     -854     -821    -1178    -1346 
   -1255    -1215    -1107    -1048    -1388    -1720    -1545    -1142 
    -916     -921     -933     -664     -278     -208     -449     -670 
    -731     -791     -964    -1131    -1162    -1028     -808     -636 
    -557     -492     -460     -546     -519     -172      104      -74 
    -375     -348     -197     -345     -622     -575     -270     -117 
    -187     -318     -475     -626     -602     -314      -63     -273 
    -757     -935     -699     -389     -353     -768    -1328    -1373 
    -805     -301     -324     -534     -483     -367     -569     -830 
    -635     -166      -17     -186     -272     -256     -200       61 
     308       80     -434     -677     -604     -430     -132      166 
     184       33      -90     -305     -643     -864     -776     -478 
    -379     -737    -1086     -805     -161      169       59     -253 
    -554     -605     -306      -28     -284     -949    -1307    -1040 
    -672     -755    -1130    -1265     -956     -641     -787     -991 
    -682     -194     -123     -457     -798     -779     -349       91 
     127      -78     -114      -98     -326     -581     -583     -565 
    -772    -1006    -1056     -964     -824     -773     -869    -1027 
   -1318    -1686    -1534     -839     -617    -1132    -1502    -1447 
   -1500    -1805    -1997    -1768    -1264     -961     -911     -805 
    -762     -869     -680     -215     -202     -827    -1375    -1297 
    -820     -538     -692     -917     -853     -732     -807     -788 
    -435     -171     -473    -1092    -1461    -1459    -1372    -1374 
   -1347    -1312    -1362    -1252     -938     -904    -1212    -1319 
   -1100     -895     -807     -817     -977    -1154    -1199    -1141 
    -931     -562     -210       54      145     -120     -594     -909 
    -913     -644     -268      -72     -192     -482     -696     -704 
    -580     -549     -750     -981     -956     -895    -1177    -1488 
   -1393    -1206    -1306    -1422    -1230     -809     -414     -338 
    -652    -1004    -1181    -1267    -1121     -799     -734     -837 
    -856     -959     -960     -652     -535     -766     -810     -612 
    -639     -931    -1163    -1200    -1118    -1123    -1311    -1452 
   -1351    -1028     -681     -795    -1392    -1593    -1040     -561 
    -771    -1304    -1516    -1198     -739     -578     -647     -635 
    -410     -114      -64     -284     -362     -132       55       27 
     -21      -36      -92     -185     -208       -1      215       69 
    -179     -118       54       32     -203     -592     -859     -753 
    -573     -655     -838     -966    -1061    -1036     -927     -984 
   -1263    -1433    -1117     -470     -116     -363     -795     -898 
    -810     -884     -959     -863     -914    -1253    -1506    -1341 
    -828     -453     -673    -1154    -1203     -876     -670     -683 
    -775     -875     -910     -858     -744     -617     -621     -748 
    -724     -468     -178      -73     -286     -570     -521     -321 
    -383     -556     -626     -769     -860     -584     -260     -315 
    -557     -692     -743     -797     -892    -1052    -1180    -1105 
    -695     -143      -28     -403     -572     -348     -221     -321 
    -413     -481     -523     -380     -123        7       18       -4 
     -48       -2       97       96      211      545      500     -230 
    -951    -1112    -1089    -1337    -1678    -1721    -1480    -1362 
   -1503    -1568    -1490    -1505    -1433    -1122     -929     -840 
    -422      213      701      925      646      -87     -517     -383 
    -254     -269     -181      -58      150      616      992      866 
     384     -171     -604     -615     -321     -366     -864    -1238 
   -1122     -574      -54     -241     -978    -1275     -910     -619 
    -726     -889     -895     -871    -1026    -1312    -1326    -1044 
    -958     -936     -400      273      274     -228     -633     -855 
    -957     -998    -1084    -1043     -677     -197       72       -5 
    -378     -740     -814     -833    -1031    -1150    -1097    -1117 
   -1135     -945     -714     -802    -1284    -1745    -1730    -1382 
   -1206    -1254    -1173    -1052    -1280    -1706    -1933    -1993 
   -1987    -1815    -1590    -1550    -1563    -1280     -730     -415 
    -648    -1079    -1179     -935     -694     -659     -954    -1580 
   -2070    -2065    -1922    -1983    -2048    -1874    -1458    -1035 
    -975    -1227    -1306    -1216    -1430    -1844    -1848    -1393 
   -1011     -911     -858     -728     -660     -734     -728     -495 
    -380     -729    -1209    -1181     -653     -315     -572    -1041 
   -1114     -804     -661     -846     -924     -649     -312     -305 
    -623     -781     -441      -16      -40     -330     -501     -528 
    -436     -248     -192     -412     -604     -474     -262     -153 
     118      517      589      279        9      -43      -46       24 
     330      728      841      466     -135     -386      -14      482 
     431      -33     -277     -269     -513    -1102    -1512    -1303 
    -764     -593     -847     -956     -824     -835     -970     -915 
    -737     -617     -467     -350     -498     -812     -995    -1059 
   -1197    -1302    -1028     -430      -90     -214     -321     -276 
    -458     -739     -577      -91       50     -294     -605     -516 
    -202      -32      -47     -102     -292     -626     -746     -456 
     -21      250      262       60     -286     -697     -955     -885 
    -772    -1004    -1324    -1196     -740     -548     -757    -1009 
   -1087    -1041     -948     -785     -430       53      355      364 
     294      252      -29     -643     -933     -439       87     -157 
    -626     -535     -318     -621     -990     -734      -67      370 
     285     -210     -690     -720     -511     -770    -1571    -2037 
   -1636    -1081    -1089    -1329    -1362    -1289    -1189    -1008 
    -848     -748     -602     -421     -183      171      231     -263 
    -602     -267      185      179     -303     -934    -1066     -571 
    -206     -286     -304      -82      100      107      -57     -370 
    -754    -1080    -1174    -1032     -942     -992     -997    -1002 
   -1073    -1066    -1102    -1449    -1901    -2110    -2211    -2447 
   -2600    -2405    -2082    -1918    -1866    -1741    -1531    -1395 
   -1314    -1179    -1041     -934     -977    -1244    -1350    -1007 
    -567     -367     -344     -447     -633     -634     -433     -526 
   -1074    -1453    -1219     -824     -895    -1254    -1192     -718 
    -595     -912     -896     -461     -402     -909    -1441    -1723 
   -1661    -1157     -718     -988    -1564    -1562     -991     -600 
    -797    -1186    -1151     -869    -1028    -1579    -1907    -1841 
   -1581    -1343    -1390    -1648    -1641    -1271     -928     -797 
    -780     -879    -1182    -1472    -1349    -1045    -1219    -1688 
   -1646    -1042     -602     -659     -771     -545     -216     -141 
    -220     -267     -440     -747     -854     -684     -529     -523 
    -546     -628     -916    -1273    -1491    -1684    -1947    -2098 
   -2038    -1862    -1585    -1207     -874     -717     -750     -896 
    -917     -653     -341     -201     -144     -187     -396     -564 
    -635     -834    -1001     -735     -354     -628    -1415    -1729 
   -1296     -896    -1124    -1630    -1713    -1383    -1305    -1616 
   -1724    -1318     -821     -810    -1216    -1311     -779     -217 
     -60      -46       35      163      295      229     -108     -453 
    -655     -808     -802     -478     -123      -76     -276     -536 
    -740     -754     -425      154      581      653      626      694 
     695      534      388      311       59     -428     -647     -240 
     280      318      -42     -398     -317      186      433      304 
     541     1184     1363      845      344      402      818      968 
     648      423      668      899      616      169      141      348 
     186     -496    -1200    -1294     -873     -657     -777     -828 
    -837     -842     -505       34      111     -377     -816     -884 
    -905    -1120    -1218     -842     -224      145      154      -25 
    -194     -236     -343     -789    -1406    -1737    -1547     -984 
    -567     -669     -984    -1104    -1032     -829     -566     -415 
    -367     -396     -624    -1003    -1333    -1465    -1318    -1099 
   -1062     -962     -506      -29      -40     -423     -575     -371 
    -325     -633     -971    -1172    -1260    -1129     -666       -9 
     490      593      340      -65     -236      104      616      787 
     589      293      113      -72     -512    -1024    -1196     -990 
    -709     -543     -515     -588     -521      -88      332      107 
    -624    -1173    -1282    -1188    -1217    -1426    -1519    -1404 
   -1274    -1108     -851     -787    -1167    -1743    -2110    -2257 
   -2392    -2484    -2201    -1393     -534     -157     -157     -132 
      46      139      -72     -406     -728    -1188    -1619    -1661 
   -1429    -1315    -1429    -1652    -1851    -1879    -1621    -1067 
    -417      -56     -163     -559     -961    -1144    -1186    -1400 
   -1674    -1490     -939     -768    -1110    -1269    -1011     -945 
   -1507    -2286    -2603    -2397    -2180    -2263    -2505    -2700 
   -2622    -2105    -1460    -1145    -1076     -851     -301      462 
    1135     1283      808      282      195      312      258      -85 
    -733    -1354    -1448    -1101     -786     -646     -574     -585 
    -865    -1456    -1943    -1895    -1442    -1002     -745     -554 
    -368     -302     -315     -218      -38       79       94      -20 
    -206     -282     -216     -167     -269     -447     -514     -525 
    -669     -898    -1110    -1303    -1449    -1513    -1411    -1183 
   -1102    -1093     -679       94      543      439      323      509 
     684      640      534      392      101     -151      -20      410 
     690      652      483      205     -270     -726     -949     -924 
    -598     -212     -212     -378     -216      -61     -461    -1101 
   -1471    -1521    -1199     -740     -811    -1317    -1433    -1105 
   -1013    -1383    -1695    -1278     -369      -64     -639    -1237 
   -1333    -1155    -1068    -1293    -1607    -1432     -911     -874 
   -1378    -1776    -1851    -1751    -1655    -1714    -1679    -1318 
    -977     -771     -334       73     -196     -862    -1191    -1159 
   -1092    -1069    -1124    -1238    -1229    -1087    -1083    -1284 
   -1358    -1031     -278      724     1430     1336      666       71 
    -124     -128     -301     -617     -713     -475     -265     -416 
    -651     -423      218      680      633      246     -219     -531 
    -419      -73     -241    -1064    -1709    -1673    -1325    -1051 
    -746     -285      -40     -275     -397       47      223     -595 
   -1516    -1508     -957     -666     -792    -1006     -882     -569 
    -695    -1256    -1609    -1528    -1314    -1107     -810     -522 
    -453     -533     -590     -630     -621     -328      181      353 
      69     -197     -220     -125     -188     -644    -1165    -1196 
    -850     -671     -804    -1110    -1547    -1828    -1608    -1237 
   -1301    -1608    -1535     -997     -485     -420     -730    -1068 
   -1333    -1546    -1400     -822     -573    -1017    -1264     -842 
    -666    -1304    -1938    -1786    -1243    -1136    -1644    -2252 
   -2442    -2142    -1618    -1119     -785     -775    -1030    -1189 
   -1163    -1274    -1568    -1641    -1348    -1040     -906     -722 
    -326       33     -184    -1233    -2555    -3178    -2777    -2023 
   -1640    -1513    -1242    -1057    -1332    -1709    -1694    -1557 
   -1549    -1281     -868     -952    -1208     -828     -101       99 
    -452    -1222    -1454     -983     -406     -215     -475    -1057 
   -1489    -1382    -1053     -815     -416      174      516      463 
     255       -1     -390     -925    -1439    -1602    -1265     -827 
    -658     -514     -269     -287     -618     -998    -1324    -1318 
    -768     -203     -120     -290     -500     -783     -971     -997 
   -1087    -1275    -1302     -985     -485     -218     -201       91 
     727     1068      698      -38     -326      136      570      189 
    -649    -1052     -838     -574     -637     -794     -612     -102 
     228      196      143      119      -62     -187       -2      204 
      15     -388     -452      -73      221      -91     -855    -1473 
   -1626    -1366     -845     -311      -53     -163     -334     -245 
     -86      -73       68      484      760      485     -143     -411 
      52      629      515     -153     -633     -566     -131      233 
     131     -252     -369     -228     -197     -312     -492     -657 
    -759    -1140    -1999    -2741    -2792    -2281    -1544     -962 
    -885    -1038     -966     -885    -1010    -1063    -1030    -1059 
    -872     -435     -186     -268     -667    -1351    -1830    -1791 
   -1538    -1202     -733     -405     -408     -637     -909    -1011 
    -948    -1002    -1305    -1657    -1747    -1430     -977     -912 
   -1379    -1905    -1997    -1753    -1605    -1646    -1646    -1473 
   -1120     -763     -673     -754     -774     -864    -1130    -1284 
   -1051     -499      100      453      408      166       45      -13 
    -157     -231     -307     -653     -971     -843     -495     -264 
    -220     -440     -923    -1438    -1647    -1391     -967     -678 
    -386      -10      169     -100     -687    -1152    -1218     -947 
    -391      211      309      -82     -311     -233     -402    -1067 
   -1651    -1465     -714     -164      111      553      858      295 
    -894    -1677    -1596    -1101     -797     -788     -815     -805 
    -842     -817     -715     -942    -1713    -2433    -2502    -2203 
   -2068    -2048    -1897    -1675    -1491    -1301    -1165    -1189 
   -1284    -1259    -1030     -800     -970    -1431    -1446     -937 
    -839    -1492    -1971    -1479     -483     -105     -580    -1024 
    -980    -1009    -1439    -1787    -1662    -1317    -1111     -960 
    -608     -201     -167     -537     -880     -919     -786     -701 
    -768     -931     -995     -834     -500     -200      -35      209 
     586      778      727      777     1106     1458     1436      960 
     349      -35      -48      152      283      276      298      513 
     909     1337     1600     1487      985      298     -405     -951 
   -1182    -1207    -1185    -1150    -1274    -1588    -1689    -1361 
    -905     -730     -983    -1278    -1088     -731     -940    -1491 
   -1599    -1278    -1114    -1257    -1389    -1247     -893     -646 
    -700     -901    -1002     -882     -597     -348     -294     -423 
    -618     -766     -826     -847     -906     -954     -890     -840 
   -1042    -1454    -1791    -1842    -1690    -1741    -2187    -2494 
   -2052    -1107     -551     -754    -1013     -600      100      191 
    -423    -1039    -1054     -591     -412     -789     -930     -355 
     335      476       11     -740    -1230    -1111     -693     -384 
    -282     -458     -842    -1186    -1386    -1445    -1419    -1461 
   -1591    -1615    -1449    -1218    -1032    -1000    -1192    -1462 
   -1681    -1708    -1285     -718     -646     -838     -763     -723 
   -1041    -1314    -1169     -864     -860    -1160    -1302     -978 
    -394       68      154     -237     -819    -1081    -1003    -1020 
   -1153    -1065     -954    -1228    -1588    -1479    -1055     -905 
   -1078    -1122     -899     -565     -168      151      200       22 
    -124       14      277      198     -208     -442     -376     -376 
    -536     -550     -319      -33      158      281      531     1012 
    1401     1302      937      806      864      766      492      211 
      83      196      318      217       66       20      -13     -140 
    -499     -947    -1017     -805     -849     -965     -699     -436 
    -652     -963     -927     -677     -472     -557     -976    -1323 
   -1441    -1663    -2032    -2230    -2061    -1621    -1268    -1270 
   -1376    -1144     -742     -787    -1267    -1429     -916     -306 
    -325     -908    -1357    -1291     -974     -707     -460     -179 
      64      193       65     -351     -635     -460     -171     -161 
    -366     -668     -947     -999     -964    -1084    -1167    -1092 
   -1036     -992     -913     -848     -739     -740    -1194    -1837 
   -1940    -1504    -1234    -1385    -1642    -1774    -1626    -1201 
    -900     -943    -1121    -1291    -1349    -1289    -1332    -1576 
   -1812    -1773    -1667    -1737    -1540     -894     -446     -564 
    -726     -456     -167     -291     -501     -507     -424     -367 
    -381     -457     -593     -826     -962     -794     -641     -789 
    -947     -976    -1085    -1229    -1246    -1206    -1255    -1331 
   -1276    -1077     -805     -534     -438     -638     -866     -871 
    -838     -947    -1159    -1427    -1585    -1449    -1088     -734 
    -597     -613     -416       58      388      310       28     -152 
     -79      167      187     -209     -429      -40      318       -3 
    -589     -682     -197      331      395      -65     -715    -1086 
    -908     -429     -250     -564     -817     -581     -246     -292 
