Origin Time       2025/01/13 21:19:00
Lat.              31.8
Long.             131.6
Depth. (km)       30
Mag.              6.9
Station Code      KGS036
Station Lat.      31.8360
Station Long.     129.8678
Station Height(m) 6
Record Time       2025/01/13 21:20:02
Sampling Freq(Hz) 100Hz
Duration Time(s)  103
Dir.              N-S
Scale Factor      3920(gal)/6182761
Max. Acc. (gal)   4.608
Last Correction   2025/01/13 21:20:02
Memo.             
[...]
   -6361    -6083    -5711    -5228    -4696    -4123    -3557    -3099 
   -2761    -2500    -2353    -2408    -2657    -2982    -3356    -3853 
   -4434    -5001    -5547    -6080    -6562    -6979    -7341    -7668 
   -7961    -8177    -8291    -8334    -8318    -8214    -8019    -7723 
   -7306    -6821    -6339    -5877    -5443    -5041    -4679    -4412 
   -4279    -4246    -4212    -4059    -3810    -3602    -3439    -3221 
   -3015    -2968    -3073    -3232    -3413    -3630    -3919    -4342 
   -4954    -5718    -6520    -7299    -8078    -8843    -9503   -10023 
  -10413   -10564   -10341    -9777    -8999    -8090    -7129    -6251 
   -5562    -5052    -4635    -4237    -3799    -3327    -2943    -2718 
   -2545    -2336    -2172    -2167    -2284    -2423    -2591    -2874 
   -3291    -3765    -4257    -4765    -5230    -5685    -6261    -6929 
   -7552    -8057    -8420    -8652    -8780    -8830    -8772    -8541 
   -8197    -7869    -7513    -6984    -6315    -5678    -5183    -4867 
   -4707    -4628    -4542    -4393    -4201    -4030    -3879    -3777 
   -3829    -4027    -4202    -4265    -4283    -4321    -4429    -4644 
   -4931    -5189    -5318    -5315    -5266    -5210    -5203    -5322 
   -5485    -5570    -5616    -5735    -5956    -6256    -6612    -6983 
   -7308    -7524    -7601    -7562    -7407    -7168    -6952    -6769 
   -6496    -6114    -5746    -5470    -5333    -5395    -5601    -5795 
   -5890    -5916    -5865    -5659    -5342    -5060    -4826    -4574 
   -4316    -4064    -3789    -3541    -3472    -3666    -4024    -4397 
   -4789    -5264    -5733    -6052    -6206    -6214    -6088    -5951 
   -5930    -6015    -6202    -6510    -6846    -7070    -7159    -7245 
   -7428    -7603    -7610    -7422    -7038    -6457    -5806    -5231 
   -4723    -4213    -3700    -3213    -2788    -2504    -2456    -2658 
   -3028    -3483    -4006    -4593    -5195    -5770    -6315    -6824 
   -7293    -7706    -8013    -8158    -8126    -7993    -7877    -7810 
   -7754    -7629    -7315    -6784    -6179    -5641    -5193    -4837 
   -4599    -4472    -4373    -4176    -3813    -3325    -2794    -2335 
   -2131    -2246    -2559    -2978    -3465    -3921    -4309    -4714 
   -5194    -5740    -6351    -6999    -7569    -7932    -8102    -8223 
   -8378    -8546    -8689    -8749    -8614    -8234    -7705    -7152 
   -6619    -6118    -5678    -5297    -4916    -4517    -4162    -3881 
   -3662    -3522    -3464    -3403    -3293    -3206    -3206    -3281 
   -3416    -3636    -3904    -4118    -4319    -4683    -5227    -5826 
   -6446    -7102    -7723    -8225    -8606    -8887    -9045    -9014 
   -8807    -8548    -8287    -7968    -7543    -6957    -6216    -5504 
   -5016    -4718    -4431    -4066    -3645    -3196    -2759    -2438 
   -2313    -2331    -2440    -2667    -2950    -3182    -3446    -3896 
   -4524    -5269    -6109    -6972    -7736    -8306    -8685    -8926 
   -8984    -8805    -8460    -8021    -7477    -6885    -6360    -5931 
   -5596    -5409    -5371    -5380    -5352    -5314    -5306    -5224 
   -4991    -4712    -4442    -4105    -3770    -3599    -3578    -3607 
   -3707    -3950    -4321    -4713    -5056    -5402    -5797    -6214 
   -6618    -6975    -7244    -7430    -7577    -7622    -7467    -7176 
   -6896    -6655    -6410    -6165    -5944    -5684    -5336    -4976 
   -4686    -4446    -4222    -4007    -3798    -3615    -3523    -3606 
   -3885    -4280    -4720    -5211    -5736    -6211    -6569    -6744 
   -6686    -6493    -6316    -6141    -5916    -5721    -5652    -5673 
   -5681    -5636    -5571    -5470    -5326    -5215    -5167    -5131 
   -5098    -5078    -5018    -4881    -4723    -4622    -4630    -4777 
   -5043    -5333    -5536    -5682    -5913    -6249    -6548    -6719 
   -6772    -6693    -6483    -6244    -6033    -5796    -5482    -5152 
   -4904    -4743    -4660    -4727    -4936    -5189    -5472    -5797 
   -6075    -6204    -6169    -6007    -5753    -5450    -5218    -5150 
   -5151    -5132    -5196    -5375    -5505    -5539    -5634    -5825 
   -5992    -6108    -6218    -6300    -6311    -6280    -6254    -6202 
   -6106    -6057    -6106    -6161    -6125    -5999    -5802    -5542 
   -5269    -5064    -4954    -4893    -4852    -4834    -4799    -4720 
   -4692    -4807    -4981    -5104    -5219    -5400    -5641    -5917 
   -6191    -6395    -6497    -6577    -6727    -6874    -6901    -6852 
   -6776    -6633    -6414    -6182    -5969    -5765    -5561    -5361 
   -5161    -4939    -4708    -4530    -4409    -4283    -4153    -4065 
   -4030    -4074    -4221    -4399    -4509    -4530    -4518    -4550 
   -4686    -4936    -5240    -5477    -5614    -5749    -5928    -6128 
   -6381    -6704    -7001    -7174    -7240    -7284    -7346    -7364 
   -7291    -7165    -6968    -6665    -6345    -6083    -5820    -5556 
   -5349    -5150    -4925    -4765    -4705    -4635    -4471    -4285 
   -4188    -4185    -4265    -4487    -4786    -4976    -5017    -5036 
   -5092    -5143    -5157    -5136    -5124    -5200    -5447    -5869 
   -6316    -6601    -6697    -6683    -6593    -6491    -6463    -6427 
   -6246    -5970    -5751    -5636    -5597    -5645    -5776    -5909 
   -5995    -6070    -6119    -6040    -5798    -5420    -4947    -4512 
   -4274    -4256    -4377    -4516    -4591    -4632    -4691    -4762 
   -4856    -4988    -5119    -5261    -5503    -5851    -6224    -6581 
   -6867    -7010    -7006    -6906    -6776    -6658    -6538    -6351 
   -6017    -5580    -5231    -5067    -4977    -4839    -4679    -4580 
   -4586    -4707    -4962    -5333    -5721    -6031    -6219    -6229 
   -6018    -5703    -5440    -5213    -5007    -4966    -5116    -5290 
   -5389    -5454    -5543    -5650    -5730    -5774    -5750    -5608 
   -5487    -5611    -5915    -6165    -6324    -6473    -6575    -6561 
   -6474    -6420    -6432    -6491    -6606    -6762    -6845    -6798 
   -6689    -6506    -6152    -5654    -5109    -4547    -4027    -3732 
   -3769    -3978    -4149    -4267    -4382    -4453    -4447    -4390 
   -4310    -4244    -4244    -4369    -4649    -5015    -5355    -5644 
   -5885    -6048    -6172    -6348    -6578    -6797    -6961    -7027 
   -6993    -6953    -7024    -7244    -7504    -7637    -7564    -7250 
   -6696    -6051    -5462    -4933    -4483    -4178    -3998    -3912 
   -3932    -4010    -4086    -4196    -4393    -4673    -4942    -5043 
   -4932    -4732    -4562    -4484    -4551    -4736    -4986    -5361 
   -5897    -6458    -6905    -7203    -7321    -7203    -6864    -6411 
   -5939    -5471    -5040    -4726    -4551    -4473    -4488    -4598 
   -4775    -4994    -5201    -5322    -5334    -5261    -5160    -5093 
   -5093    -5166    -5333    -5598    -5898    -6180    -6464    -6741 
   -6955    -7157    -7443    -7736    -7884    -7886    -7808    -7672 
   -7501    -7275    -6893    -6362    -5825    -5377    -5007    -4675 
   -4340    -4011    -3734    -3560    -3535    -3632    -3720    -3732 
   -3702    -3615    -3467    -3363    -3375    -3459    -3545    -3625 
   -3775    -4028    -4378    -4904    -5631    -6427    -7225    -8039 
   -8780    -9343    -9697    -9827    -9745    -9470    -9026    -8452 
   -7727    -6841    -5953    -5282    -4867    -4626    -4496    -4373 
   -4177    -3967    -3807    -3694    -3585    -3470    -3392    -3330 
   -3245    -3255    -3511    -4027    -4716    -5435    -6033    -6469 
   -6804    -7081    -7287    -7395    -7403    -7335    -7186    -6961 
   -6756    -6638    -6543    -6400    -6216    -5966    -5591    -5117 
   -4627    -4199    -3900    -3765    -3758    -3797    -3870    -4051 
   -4351    -4695    -5033    -5374    -5680    -5848    -5794    -5533 
   -5161    -4830    -4745    -5015    -5517    -6067    -6627    -7169 
   -7571    -7765    -7772    -7594    -7262    -6899    -6591    -6349 
   -6155    -5989    -5855    -5716    -5541    -5427    -5444    -5444 
   -5293    -5062    -4853    -4660    -4434    -4182    -3976    -3852 
   -3800    -3844    -4006    -4254    -4542    -4849    -5134    -5390 
   -5712    -6106    -6424    -6595    -6653    -6605    -6455    -6271 
   -6170    -6190    -6268    -6363    -6459    -6499    -6506    -6587 
   -6700    -6705    -6587    -6405    -6193    -5928    -5600    -5290 
   -5065    -4869    -4668    -4479    -4278    -4086    -4025    -4097 
   -4205    -4341    -4525    -4708    -4826    -4879    -4935    -5012 
   -5132    -5378    -5754    -6156    -6529    -6852    -7063    -7200 
   -7435    -7803    -8102    -8141    -7908    -7537    -7127    -6684 
   -6265    -5971    -5822    -5826    -5956    -6017    -5827    -5482 
   -5183    -4974    -4743    -4348    -3745    -3008    -2303    -1846 
   -1708    -1809    -2139    -2751    -3559    -4372    -5120    -5878 
   -6665    -7382    -7923    -8267    -8480    -8660    -8807    -8807 
   -8645    -8448    -8251    -7957    -7536    -7007    -6325    -5447 
   -4441    -3485    -2731    -2164    -1776    -1677    -1874    -2260 
   -2823    -3524    -4159    -4603    -4934    -5266    -5632    -5996 
   -6324    -6670    -7041    -7347    -7604    -7895    -8188    -8437 
   -8640    -8668    -8292    -7486    -6429    -5315    -4318    -3605 
   -3233    -3124    -3203    -3450    -3823    -4279    -4792    -5318 
   -5779    -6090    -6213    -6194    -6053    -5709    -5117    -4426 
   -3865    -3559    -3541    -3745    -4033    -4394    -4913    -5542 
   -6134    -6657    -7151    -7587    -7899    -8047    -7980    -7644 
   -7075    -6430    -5833    -5319    -4927    -4656    -4400    -4128 
   -3948    -3918    -4006    -4152    -4331    -4563    -4849    -5157 
   -5496    -5854    -6142    -6324    -6483    -6655    -6813    -7001 
   -7242    -7444    -7518    -7523    -7583    -7656    -7626    -7546 
   -7490    -7390    -7160    -6787    -6287    -5730    -5248    -4930 
   -4765    -4655    -4451    -4074    -3572    -3098    -2808    -2741 
   -2808    -2925    -3102    -3356    -3641    -3937    -4262    -4600 
   -4928    -5287    -5688    -6007    -6128    -6152    -6223    -6350 
   -6553    -6921    -7410    -7860    -8158    -8281    -8288    -8244 
   -8146    -7968    -7664    -7183    -6605    -6102    -5732    -5468 
   -5334    -5298    -5255    -5192    -5139    -5053    -4880    -4679 
   -4590    -4622    -4668    -4715    -4776    -4781    -4737    -4740 
   -4761    -4691    -4527    -4365    -4287    -4256    -4194    -4182 
   -4300    -4476    -4693    -5030    -5458    -5868    -6245    -6610 
   -6958    -7314    -7682    -7963    -8068    -8030    -7940    -7808 
   -7593    -7329    -7024    -6603    -6095    -5622    -5201    -4774 
   -4301    -3790    -3326    -2972    -2745    -2677    -2730    -2813 
   -2951    -3243    -3692    -4259    -4904    -5494    -5911    -6207 
   -6441    -6568    -6576    -6569    -6632    -6710    -6731    -6727 
   -6757    -6798    -6809    -6797    -6766    -6700    -6625    -6589 
   -6576    -6520    -6380    -6155    -5802    -5286    -4706    -4148 
   -3555    -2894    -2283    -1810    -1508    -1456    -1668    -2031 
   -2436    -2869    -3361    -3866    -4320    -4798    -5357    -5914 
   -6438    -6966    -7514    -8118    -8844    -9681   -10477   -11016 
  -11220   -11215   -11112   -10863   -10411    -9760    -8858    -7730 
   -6601    -5599    -4645    -3728    -2956    -2374    -1935    -1616 
   -1467    -1521    -1757    -2198    -2852    -3593    -4295    -4961 
   -5567    -6009    -6236    -6302    -6325    -6362    -6371    -6330 
   -6278    -6270    -6359    -6542    -6723    -6845    -6942    -6997 
   -6934    -6753    -6496    -6184    -5828    -5461    -5106    -4739 
   -4408    -4301    -4492    -4842    -5254    -5730    -6180    -6465 
   -6604    -6675    -6675    -6590    -6480    -6396    -6300    -6157 
   -6040    -6059    -6247    -6565    -6940    -7249    -7371    -7318 
   -7198    -7030    -6732    -6281    -5723    -5058    -4299    -3579 
   -3007    -2519    -2035    -1613    -1327    -1158    -1085    -1139 
   -1384    -1866    -2538    -3267    -3894    -4360    -4760    -5192 
   -5655    -6151    -6729    -7373    -7981    -8474    -8833    -9060 
   -9159    -9129    -8957    -8614    -8140    -7643    -7132    -6507 
   -5757    -5024    -4455    -4122    -4047    -4125    -4169    -4079 
   -3935    -3924    -4116    -4414    -4732    -5036    -5257    -5376 
   -5484    -5596    -5638    -5628    -5655    -5746    -5875    -6033 
   -6247    -6494    -6725    -6992    -7344    -7678    -7850    -7778 
   -7441    -6884    -6230    -5605    -5080    -4653    -4284    -3965 
   -3702    -3489    -3364    -3371    -3481    -3687    -4023    -4393 
   -4681    -4944    -5279    -5682    -6111    -6581    -7124    -7637 
   -7951    -8084    -8185    -8297    -8365    -8334    -8142    -7755 
   -7225    -6636    -6040    -5437    -4778    -4020    -3157    -2255 
   -1464     -877     -441     -120      -37     -242     -610    -1044 
   -1544    -2143    -2819    -3465    -4022    -4510    -4959    -5490 
   -6246    -7177    -8164    -9154   -10081   -10869   -11479   -11888 
  -12103   -12124   -11949   -11641   -11256   -10744   -10098    -9432 
   -8796    -8153    -7525    -6909    -6236    -5474    -4624    -3718 
   -2809    -1916    -1060     -263      468     1055     1411     1597 
    1692     1585     1095      205     -954    -2270    -3682    -5108 
   -6455    -7700    -8871    -9928   -10849   -11642   -12194   -12401 
  -12318   -11985   -11381   -10556    -9594    -8534    -7384    -6176 
   -5025    -4041    -3230    -2595    -2159    -1839    -1524    -1283 
   -1212    -1270    -1411    -1643    -1954    -2292    -2612    -2956 
   -3390    -3908    -4477    -5096    -5774    -6542    -7428    -8359 
   -9195    -9892   -10487   -11004   -11442   -11767   -11955   -11974 
  -11742   -11252   -10602    -9800    -8787    -7640    -6527    -5523 
   -4635    -3889    -3272    -2727    -2266    -1924    -1633    -1329 
   -1086     -985     -961     -919     -912    -1077    -1453    -2015 
   -2714    -3453    -4108    -4609    -5067    -5636    -6273    -6874 
   -7443    -7976    -8456    -8939    -9454    -9912   -10176   -10190 
  -10024    -9737    -9331    -8827    -8223    -7484    -6662    -5864 
   -5105    -4316    -3512    -2775    -2110    -1538    -1165    -1042 
   -1109    -1294    -1624    -2095    -2531    -2831    -3107    -3465 
   -3880    -4296    -4696    -5068    -5397    -5766    -6324    -7088 
   -7994    -9012   -10015   -10777   -11195   -11321   -11209   -10841 
  -10251    -9507    -8615    -7626    -6636    -5678    -4741    -3851 
   -3105    -2541    -2091    -1778    -1665    -1660    -1667    -1726 
   -1870    -2077    -2367    -2794    -3401    -4173    -5061    -6052 
   -7104    -8110    -9054    -9982   -10783   -11304   -11548   -11527 
  -11157   -10418    -9429    -8343    -7167    -5867    -4577    -3454 
   -2488    -1683    -1121     -822     -728     -793     -991    -1296 
   -1710    -2229    -2800    -3313    -3700    -4022    -4327    -4599 
   -4884    -5279    -5808    -6406    -7029    -7677    -8309    -8866 
   -9355    -9790   -10084   -10092    -9800    -9301    -8610    -7758 
   -6874    -6007    -5104    -4238    -3577    -3147    -2852    -2648 
   -2520    -2413    -2276    -2112    -1973    -1889    -1855    -1894 
   -2004    -2122    -2276    -2571    -2994    -3438    -3901    -4454 
   -5079    -5713    -6391    -7133    -7865    -8552    -9214    -9837 
  -10381   -10827   -11155   -11307   -11216   -10864   -10270    -9484 
   -8586    -7696    -6887    -6130    -5388    -4651    -3898    -3134 
   -2413    -1785    -1278     -897     -606     -390     -270     -278 
    -500     -998    -1696    -2524    -3502    -4604    -5732    -6788 
   -7695    -8407    -8938    -9314    -9517    -9492    -9242    -8880 
   -8522    -8164    -7788    -7484    -7295    -7152    -7043    -7020 
   -7068    -7118    -7091    -6913    -6572    -6145    -5761    -5478 
   -5231    -4974    -4755    -4591    -4476    -4435    -4462    -4519 
   -4590    -4668    -4726    -4725    -4664    -4619    -4612    -4573 
   -4505    -4483    -4485    -4424    -4311    -4212    -4141    -4145 
   -4294    -4568    -4893    -5237    -5654    -6174    -6690    -7106 
   -7440    -7708    -7850    -7811    -7572    -7153    -6617    -6042 
   -5498    -4985    -4452    -3952    -3568    -3304    -3196    -3308 
   -3593    -3928    -4261    -4619    -4996    -5356    -5716    -6134 
   -6611    -7079    -7529    -7947    -8242    -8417    -8550    -8583 
   -8422    -8111    -7725    -7263    -6734    -6196    -5708    -5290 
   -4944    -4702    -4553    -4432    -4347    -4378    -4517    -4662 
   -4779    -4893    -4971    -4981    -4987    -5063    -5203    -5332 
   -5423    -5507    -5547    -5532    -5558    -5653    -5731    -5729 
   -5625    -5417    -5161    -4942    -4817    -4767    -4739    -4777 
   -4947    -5183    -5416    -5687    -5999    -6268    -6488    -6682 
   -6798    -6799    -6695    -6520    -6332    -6177    -6109    -6126 
   -6122    -6058    -6021    -6014    -5967    -5887    -5808    -5721 
   -5617    -5498    -5348    -5123    -4825    -4562    -4386    -4232 
   -4107    -4092    -4169    -4243    -4323    -4501    -4757    -5015 
   -5283    -5579    -5847    -6028    -6170    -6341    -6480    -6537 
   -6569    -6611    -6658    -6728    -6813    -6870    -6905    -6943 
   -6948    -6819    -6529    -6193    -5894    -5578    -5207    -4821 
   -4454    -4091    -3732    -3403    -3102    -2829    -2606    -2414 
   -2225    -2062    -1983    -1989    -2017    -2101    -2390    -2927 
   -3626    -4430    -5313    -6223    -7110    -7940    -8672    -9248 
   -9625    -9828    -9877    -9707    -9310    -8799    -8251    -7653 
   -7040    -6519    -6129    -5832    -5615    -5486    -5399    -5316 
   -5306    -5420    -5584    -5739    -5899    -6059    -6195    -6333 
   -6497    -6642    -6729    -6746    -6679    -6540    -6385    -6279 
   -6206    -6018    -5633    -5165    -4737    -4346    -3969    -3665 
   -3486    -3437    -3534    -3776    -4080    -4352    -4583    -4795 
   -4953    -5072    -5229    -5410    -5541    -5634    -5725    -5808 
   -5926    -6147    -6467    -6824    -7140    -7402    -7619    -7720 
   -7688    -7595    -7427    -7112    -6710    -6340    -6025    -5749 
   -5531    -5354    -5145    -4888    -4712    -4724    -4833    -4914 
   -4957    -4945    -4840    -4682    -4524    -4395    -4338    -4381 
   -4520    -4725    -4951    -5216    -5561    -5945    -6354    -6848 
   -7371    -7758    -7975    -8101    -8138    -8032    -7775    -7396 
   -6928    -6413    -5927    -5508    -5095    -4670    -4330    -4087 
   -3857    -3631    -3443    -3241    -2976    -2706    -2527    -2453 
   -2445    -2525    -2725    -2989    -3273    -3630    -4094    -4582 
   -5023    -5450    -5877    -6253    -6588    -6921    -7229    -7476 
   -7689    -7854    -7889    -7811    -7743    -7728    -7719    -7707 
   -7707    -7687    -7625    -7535    -7418    -7260    -7047    -6788 
   -6499    -6155    -5730    -5294    -4916    -4589    -4330    -4167 
