Origin Time       2025/01/13 21:19:00
Lat.              31.8
Long.             131.6
Depth. (km)       30
Mag.              6.9
Station Code      KGS026
Station Lat.      30.5199
Station Long.     130.9553
Station Height(m) 114
Record Time       2025/01/13 21:20:29
Sampling Freq(Hz) 100Hz
Duration Time(s)  60
Dir.              E-W
Scale Factor      7845(gal)/8223790
Max. Acc. (gal)   3.826
Last Correction   2025/01/13 21:20:29
Memo.             
[...]
    7784     8046     8190     8210     8109     7967     7878     7862 
    7898     7938     7921     7847     7766     7755     7865     8055 
    8229     8340     8387     8388     8359     8274     8097     7859 
    7600     7348     7226     7379     7722     8043     8256     8367 
    8406     8456     8569     8642     8557     8309     7908     7450 
    7155     7129     7314     7651     8081     8479     8789     9054 
    9229     9220     8953     8430     7870     7515     7396     7430 
    7554     7728     7919     8116     8336     8561     8738     8792 
    8675     8455     8237     8071     8004     8074     8218     8344 
    8414     8444     8460     8467     8472     8490     8486     8395 
    8174     7896     7717     7711     7820     7982     8183     8380 
    8496     8557     8579     8526     8453     8370     8212     8035 
    7924     7871     7838     7839     7863     7885     7946     8046 
    8086     8063     8052     8078     8166     8316     8429     8475 
    8533     8607     8635     8568     8403     8181     7925     7688 
    7523     7419     7366     7360     7414     7578     7834     8114 
    8376     8622     8811     8818     8629     8379     8172     8055 
    8083     8252     8436     8540     8556     8469     8332     8257 
    8294     8380     8432     8410     8307     8122     7939     7857 
    7832     7808     7824     7897     8004     8139     8249     8274 
    8212     8112     8059     8108     8236     8355     8370     8267 
    8121     8032     8024     8051     8060     7998     7863     7746 
    7742     7846     7955     7983     7931     7851     7812     7825 
    7842     7832     7812     7739     7618     7576     7622     7600 
    7477     7346     7254     7203     7244     7449     7855     8407 
    8914     9207     9271     9147     8891     8594     8309     8046 
    7796     7554     7345     7199     7156     7253     7469     7754 
    8066     8355     8617     8797     8769     8600     8456     8322 
    8122     7840     7491     7187     7053     7084     7225     7457 
    7739     8010     8310     8673     9015     9235     9308     9193 
    8880     8475     8104     7784     7547     7429     7376     7380 
    7497     7685     7917     8224     8507     8621     8600     8577 
    8622     8695     8684     8563     8411     8244     8010     7732 
    7469     7276     7209     7272     7422     7647     7928     8203 
    8468     8768     9039     9170     9175     9086     8880     8595 
    8289     7993     7758     7611     7476     7300     7165     7160 
    7269     7510     7925     8422     8869     9148     9154     8969 
    8762     8541     8245     7912     7611     7384     7275     7308 
    7476     7770     8125     8442     8729     8977     9113     9089 
    8872     8526     8172     7863     7639     7550     7628     7863 
    8127     8302     8433     8613     8838     9032     9066     8860 
    8505     8129     7825     7676     7632     7604     7603     7635 
    7663     7715     7852     8033     8154     8226     8298     8364 
    8449     8571     8681     8733     8733     8675     8518     8299 
    8071     7863     7711     7573     7384     7165     7017     7033 
    7223     7539     7902     8208     8411     8576     8770     8964 
    9027     8915     8684     8402     8155     7985     7900     7948 
    8129     8347     8545     8776     9074     9364     9521     9459 
    9194     8802     8361     7913     7501     7234     7169     7244 
    7408     7647     7911     8147     8336     8464     8498     8372 
    8086     7753     7472     7292     7261     7369     7558     7804 
    8037     8160     8194     8210     8213     8198     8160     8100 
    8073     8121     8244     8407     8486     8467     8459     8394 
    8199     7994     7809     7569     7391     7434     7636     7898 
    8190     8444     8610     8664     8559     8279     7885     7419 
    6906     6459     6220     6192     6293     6475     6752     7183 
    7763     8372     8831     9032     8973     8707     8348     8036 
    7812     7634     7501     7412     7321     7281     7334     7388 
    7454     7607     7800     7992     8181     8320     8407     8492 
    8544     8540     8496     8349     8083     7798     7546     7333 
    7187     7118     7165     7361     7618     7803     7866     7855 
    7838     7781     7690     7662     7672     7672     7762     7928 
    8044     8109     8127     8052     7915     7754     7578     7434 
    7384     7449     7620     7900     8306     8811     9270     9555 
    9722     9786     9634     9285     8781     8141     7501     6995 
    6660     6542     6670     6999     7434     7994     8671     9283 
    9706     9968    10054     9877     9463     8926     8341     7839 
    7539     7387     7315     7411     7709     8101     8519     8932 
    9273     9540     9710     9671     9450     9158     8792     8359 
    7948     7619     7427     7427     7573     7815     8139     8490 
    8808     9077     9278     9340     9204     8911     8560     8212 
    7850     7479     7161     6929     6843     6967     7267     7684 
    8175     8648     9009     9224     9300     9302     9265     9150 
    8966     8739     8465     8152     7739     7231     6868     6747 
    6706     6760     7057     7543     8064     8546     8937     9208 
    9379     9451     9343     9026     8615     8230     7863     7504 
    7221     7036     6936     6993     7248     7623     8032     8405 
    8642     8731     8746     8721     8591     8318     7966     7601 
    7269     7018     6879     6893     7079     7412     7817     8181 
    8417     8473     8332     8077     7847     7678     7545     7488 
    7570     7773     8089     8513     8916     9215     9420     9460 
    9279     8955     8530     7993     7446     7083     7020     7241 
    7672     8198     8723     9194     9548     9698     9606     9366 
    9116     8924     8776     8638     8468     8247     8089     8132 
    8333     8571     8792     8934     8911     8743     8518     8248 
    7933     7626     7398     7327     7447     7726     8120     8565 
    8953     9235     9454     9679     9911    10052    10019     9778 
    9351     8847     8386     8048     7852     7720     7609     7600 
    7763     8064     8428     8796     9124     9375     9498     9451 
    9248     8950     8657     8426     8239     8067     7893     7743 
    7638     7547     7476     7433     7379     7254     7053     6825 
    6609     6443     6328     6239     6192     6170     6122     6073 
    6108     6262     6502     6747     6959     7192     7491     7848 
    8232     8594     8892     9073     9128     9148     9181     9163 
    9043     8777     8348     7882     7485     7156     6917     6741 
    6517     6286     6201     6291     6501     6821     7210     7597 
    7904     8035     8006     7944     7905     7884     7855     7808 
    7767     7727     7716     7789     7893     8037     8270     8480 
    8581     8603     8546     8460     8422     8391     8322     8321 
    8473     8750     9099     9402     9485     9275     8873     8414 
    7989     7666     7523     7577     7793     8117     8499     8892 
    9244     9501     9609     9529     9265     8835     8272     7657 
    7117     6763     6669     6882     7379     7993     8506     8851 
    9143     9428     9594     9551     9335     9089     8918     8768 
    8567     8403     8380     8468     8596     8696     8719     8735 
    8799     8858     8885     8899     8916     8950     9030     9154 
    9242     9248     9198     9074     8839     8521     8141     7709 
    7311     7013     6812     6744     6864     7210     7771     8403 
    8954     9398     9666     9626     9304     8807     8235     7746 
    7435     7276     7294     7541     7944     8348     8665     8883 
    8958     8853     8545     8027     7375     6725     6126     5590 
    5238     5190     5421     5881     6559     7335     8020     8492 
    8700     8622     8275     7782     7275     6785     6347     6007 
    5782     5761     6022     6470     6986     7476     7840     8047 
    8098     7960     7686     7357     7052     6924     7064     7403 
    7828     8274     8708     9127     9539     9890    10116    10235 
   10218    10068     9890     9661     9343     9063     8901     8814 
    8823     8989     9216     9366     9439     9467     9478     9518 
    9633     9832    10041    10204    10273    10199    10029     9818 
    9555     9296     9066     8733     8239     7686     7176     6774 
    6496     6342     6342     6438     6532     6608     6660     6685 
    6724     6840     7053     7329     7596     7769     7813     7738 
    7516     7119     6673     6389     6300     6351     6536     6801 
    7103     7480     7917     8326     8677     8930     9008     8930 
    8787     8660     8596     8598     8640     8667     8689     8777 
    8907     8976     8931     8753     8418     7997     7584     7186 
    6828     6573     6461     6554     6859     7269     7638     7871 
    8004     8102     8106     7960     7723     7480     7361     7542 
    8008     8515     8870     9030     9023     8901     8742     8630 
    8573     8540     8571     8727     9070     9610    10253    10829 
   11215    11380    11259    10760     9983     9151     8360     7612 
    7021     6691     6539     6543     6822     7317     7827     8232 
    8425     8337     8023     7587     7149     6782     6517     6385 
    6366     6471     6754     7188     7734     8353     8884     9144 
    9161     8978     8583     8110     7638     7130     6723     6519 
    6496     6731     7241     7842     8367     8781     9034     9007 
    8673     8151     7561     6913     6269     5809     5636     5765 
    6161     6713     7348     7966     8403     8611     8642     8544 
    8384     8168     7870     7568     7329     7194     7275     7599 
    8004     8364     8685     8931     9043     9054     8981     8792 
    8602     8584     8664     8729     8865     9081     9274     9441 
    9568     9578     9495     9369     9189     9011     8862     8691 
    8505     8313     8140     8035     7982     7986     8008     7952 
    7870     7794     7618     7339     7036     6764     6648     6693 
    6802     7006     7310     7600     7825     7962     7971     7897 
    7789     7666     7654     7842     8155     8505     8803     9008 
    9170     9261     9227     9093     8837     8436     7979     7615 
    7485     7592     7809     8074     8391     8769     9159     9454 
    9609     9668     9609     9356     8932     8452     7990     7531 
    7083     6752     6636     6789     7229     7867     8608     9400 
   10066    10500    10778    10841    10636    10299     9836     9258 
    8730     8320     8062     8000     8068     8248     8532     8781 
    8861     8699     8334     7954     7623     7296     7098     7105 
    7163     7227     7391     7609     7823     7965     7886     7601 
    7191     6644     6081     5618     5223     4965     4978     5305 
    5918     6740     7700     8695     9493     9879     9780     9269 
    8542     7780     7020     6318     5757     5394     5350     5699 
    6330     7136     8001     8746     9262     9459     9289     8884 
    8333     7627     6929     6439     6164     6111     6335     6790 
    7430     8143     8715     9099     9343     9390     9186     8731 
    8110     7527     7126     6994     7241     7834     8567     9266 
    9857    10319    10643    10773    10659    10339     9788     9019 
    8274     7769     7545     7585     7785     8036     8372     8811 
    9279     9718    10002     9994     9721     9228     8567     7861 
    7203     6702     6443     6426     6623     6976     7430     7924 
    8316     8476     8456     8376     8272     8140     7994     7834 
    7722     7724     7828     8063     8383     8603     8649     8548 
    8278     7870     7420     6948     6486     6154     6079     6345 
    6906     7608     8275     8758     9032     9174     9189     9024 
    8714     8305     7839     7402     7098     7024     7227     7674 
    8290     8981     9602    10071    10349    10404    10357    10270 
   10026     9695     9406     9062     8688     8437     8326     8345 
    8517     8791     9076     9274     9343     9316     9186     8937 
    8591     8167     7751     7431     7137     6849     6627     6419 
    6203     6008     5811     5660     5668     5879     6259     6724 
    7186     7573     7800     7882     7861     7682     7366     6974 
    6520     6079     5719     5470     5418     5637     6069     6721 
    7657     8815    10049    11146    11867    12071    11704    10856 
    9768     8635     7589     6745     6133     5796     5871     6392 
    7299     8509     9792    10894    11676    11981    11718    10912 
    9645     8203     6934     5980     5447     5462     5979     6930 
    8244     9645    10837    11635    11862    11508    10717     9535 
    8127     6826     5836     5282     5285     5827     6794     7990 
    9121    10045    10752    11094    10928    10323     9450     8523 
    7690     7013     6635     6697     7177     7942     8745     9327 
    9597     9536     9096     8353     7457     6436     5406     4603 
    4132     4091     4608     5582     6775     7969     8950     9667 
   10161    10347    10215     9796     8986     7861     6725     5751 
    5049     4777     4966     5551     6438     7504     8623     9609 
   10255    10507    10331     9710     8839     7940     7107     6497 
    6264     6431     6948     7713     8572     9408    10093    10419 
   10368    10099     9593     8877     8127     7400     6786     6432 
    6340     6459     6789     7276     7890     8600     9279     9829 
   10174    10253    10153     9965     9695     9370     8981     8518 
    8023     7565     7236     7096     7145     7383     7820     8384 
    8981     9547     9930    10029     9880     9508     8932     8293 
    7736     7326     7084     7020     7065     7111     7160     7257 
    7353     7434     7527     7646     7851     8175     8510     8752 
    8903     8916     8796     8684     8637     8623     8621     8513 
    8182     7680     7157     6766     6636     6825     7284     7893 
    8523     9112     9656    10116    10389    10407    10152     9629 
    8932     8226     7624     7223     7155     7412     7875     8518 
    9327    10153    10829    11242    11296    10957    10309     9514 
    8734     8066     7539     7163     6999     7119     7474     7952 
    8502     9090     9594     9904    10022     9946     9651     9207 
    8775     8500     8437     8545     8702     8764     8630     8282 
    7817     7395     7080     6799     6509     6270     6176     6282 
    6566     6920     7263     7565     7839     8078     8152     7924 
    7403     6635     5719     4919     4503     4526     4903     5498 
    6120     6642     7055     7341     7468     7462     7368     7196 
    6963     6750     6610     6539     6566     6720     6988     7362 
    7842     8356     8748     8942     8981     8862     8615     8365 
    8174     8025     7867     7645     7388     7177     7074     7113 
    7280     7483     7662     7835     7955     7989     7970     7855 
    7680     7619     7711     7908     8174     8374     8376     8232 
    8027     7801     7589     7358     7053     6767     6664     6778 
    7082     7561     8127     8652     9051     9320     9456     9379 
    9070     8621     8064     7470     6984     6637     6466     6551 
    6797     7102     7524     8109     8791     9494    10134    10571 
   10725    10567    10095     9423     8652     7836     7160     6783 
    6690     6839     7155     7533     7962     8480     9066     9676 
   10282    10773    11025    11047    10874    10500     9999     9518 
    9065     8572     8074     7626     7290     7195     7381     7730 
    8147     8646     9181     9660    10080    10431    10629    10625 
   10426    10057     9544     8955     8397     7916     7592     7511 
    7635     7878     8224     8653     9067     9356     9487     9428 
    9178     8829     8448     7998     7476     6983     6567     6216 
    6000     5989     6143     6454     6948     7569     8190     8702 
    9067     9262     9273     9130     8835     8437     7994     7528 
    7160     7026     7167     7557     8062     8523     8878     9128 
    9278     9354     9413     9481     9524     9535     9521     9462 
    9350     9202     9018     8802     8613     8483     8403     8374 
    8387     8414     8426     8452     8507     8595     8710     8766 
    8706     8567     8336     8005     7662     7410     7280     7241 
    7240     7206     7099     6951     6836     6809     6859     6974 
    7146     7353     7615     7942     8260     8490     8638     8711 
    8622     8359     8012     7624     7202     6831     6582     6457 
    6512     6812     7271     7750     8168     8419     8410     8194 
    7852     7375     6837     6388     6035     5776     5722     5935 
    6335     6816     7304     7734     8093     8360     8472     8441 
    8349     8235     8109     8040     8089     8186     8224     8190 
    8132     8074     7982     7804     7577     7393     7314     7322 
    7368     7427     7495     7562     7651     7780     7900     7973 
    7965     7805     7550     7345     7192     7038     6837     6539 
    6218     6003     5968     6153     6505     6928     7388     7888 
    8388     8845     9185     9247     9001     8604     8135     7663 
    7389     7377     7546     7835     8172     8436     8561     8599 
    8536     8274     7847     7395     7051     6948     7105     7384 
    7696     8082     8563     9045     9462     9798     9941     9817 
    9524     9177     8830     8495     8190     7966     7862     7885 
    8024     8248     8495     8696     8868     9024     9134     9248 
    9414     9580     9734     9873     9869     9595     9126     8559 
    7933     7457     7303     7381     7647     8131     8743     9373 
    9934    10285    10346    10173     9815     9308     8752     8249 
    7838     7553     7447     7506     7591     7672     7846     8079 
    8291     8475     8550     8414     8105     7722     7295     6875 
    6536     6239     5946     5753     5736     5849     6031     6264 
    6524     6786     7075     7414     7726     7927     7998     7928 
    7755     7628     7603     7551     7426     7334     7304     7296 
    7400     7712     8136     8544     8835     8885     8673     8322 
    7970     7681     7472     7381     7398     7497     7742     8155 
    8646     9113     9499     9798     9995    10042     9952     9782 
    9516     9151     8758     8430     8233     8183     8222     8241 
    8168     7979     7689     7373     7099     6889     6781     6820 
    6993     7237     7504     7728     7840     7857     7816     7724 
    7593     7430     7241     7028     6794     6615     6550     6624 
    6895     7399     8054     8761     9429     9923    10162    10195 
