Origin Time       2025/01/13 21:19:00
Lat.              31.8
Long.             131.6
Depth. (km)       30
Mag.              6.9
Station Code      KGS013
Station Lat.      31.5973
Station Long.     130.9938
Station Height(m) 118
Record Time       2025/01/13 21:19:44
Sampling Freq(Hz) 100Hz
Duration Time(s)  118
Dir.              N-S
Scale Factor      3920(gal)/6182761
Max. Acc. (gal)   23.596
Last Correction   2025/01/13 21:19:44
Memo.             
[...]
   -4078    -4140    -4277    -4459    -4586    -4553    -4353    -4070 
   -3849    -3839    -4023    -4222    -4294    -4259    -4250    -4402 
   -4723    -5017    -5063    -4842    -4457    -4015    -3662    -3505 
   -3526    -3644    -3792    -3967    -4227    -4588    -4934    -5040 
   -4797    -4429    -4313    -4500    -4578    -4188    -3550    -3208 
   -3414    -3940    -4306    -4203    -3826    -3676    -4008    -4569 
   -4941    -5078    -5267    -5550    -5618    -5261    -4615    -4048 
   -3844    -3952    -4151    -4338    -4518    -4506    -3981    -2987 
   -2158    -2217    -3252    -4601    -5563    -5910    -5673    -4970 
   -4112    -3544    -3556    -4079    -4883    -5644    -5860    -5465 
   -5088    -5014    -4819    -4277    -3682    -3431    -3667    -3964 
   -3670    -2791    -1862    -1322    -1504    -2350    -3158    -3365 
   -3292    -3804    -5407    -7694    -9480    -9647    -8223    -6328 
   -5010    -4591    -4466    -3426    -1233      709      797    -1303 
   -4360    -6462    -6644    -5727    -5455    -6621    -7980    -7466 
   -4782    -2106    -1698    -3521    -5493    -5592    -3706    -1547 
   -1063    -2988    -5945    -7171    -5337    -2111     -544    -2379 
   -6647   -10626   -12049   -10713    -8133    -5515    -3009     -858 
     158     -313    -1656    -3222    -4889    -6422    -7311    -7160 
   -5942    -4304    -3080    -2627    -2901    -3328    -3417    -3328 
   -3115    -2882    -2934    -3031    -2854    -2558    -2616    -3847 
   -6716   -10276   -12406   -11426    -7772    -3597     -585     1067 
    1994     2831     3310     2060    -1903    -7728   -13046   -15506 
  -14370   -10984    -7364    -4374    -1502     1937     5411     7057 
    5404     1280    -2639    -4675    -5538    -6633    -8150    -9080 
   -8905    -8450    -8554    -8705    -7523    -4695    -1763     -301 
    -373     -881     -830     -555    -1293    -3486    -6503    -9371 
  -10818    -9957    -7398    -4655    -2929    -2442    -2265    -1552 
    -814    -1068    -2398    -4004    -5175    -5745    -5898    -5888 
   -5752    -5283    -4419    -3495    -3059    -3545    -5111    -7149 
   -8075    -6920    -4679    -3012    -2342    -1655      -66     1542 
    1186    -1652    -5391    -8410   -10256   -11140   -11507   -11361 
   -9688    -5835     -982     2877     4721     5056     4790     3824 
    1422    -2844    -8399   -13514   -16697   -17463   -16149   -13981 
  -11892    -9524    -5997     -954     4406     7918     8809     7941 
    6075     3283     -344    -4239    -7717   -10414   -12185   -12859 
  -12156    -9906    -6544    -3003     -302      582     -451    -2262 
   -3791    -4650    -4585    -3759    -2968    -2978    -4068    -5827 
   -7442    -8720   -10052   -11137   -10862    -8685    -5480    -2731 
   -1201     -555     -167      265      840     1189      307    -2489 
   -6744   -10697   -11989    -9792    -5665    -1730      708     1235 
     246    -1462    -3368    -5441    -7483    -9037   -10110   -10779 
  -10722    -9773    -7872    -4915     -994     3531     7534     9325 
    7997     3880    -1834    -7430   -11588   -14051   -15039   -14784 
  -13805   -12637   -11246    -9378    -6865    -3369      984     5090 
    7965     9305     8971     6957     3361    -1451    -6096    -8691 
   -8626    -7282    -6600    -7210    -8374    -8969    -8173    -6116 
   -3802    -2063    -1101     -613      -77      452      212    -1068 
   -2661    -4269    -6689   -10300   -14186   -16811   -17142   -15103 
  -11151    -6137     -895     3791     6301     5450     2291    -1184 
   -3892    -5830    -7251    -7989    -7831    -7121    -6457    -5840 
   -4949    -4150    -3867    -3747    -3345    -2547    -1618    -1318 
   -2055    -2987    -2590     -466     1612     1286    -1977    -6316 
   -9075    -9323    -8662    -8992   -10030    -9766    -7499    -5408 
   -5564    -6758    -6542    -4648    -2520    -1146     -623     -817 
   -1507    -2069    -1863     -998       89     1070     1127     -695 
   -4083    -7312    -8954    -9235    -9116    -9037    -9144    -9368 
   -9123    -8071    -6485    -4350    -1501     1483     3465     3415 
    1394     -950    -1991    -1962    -2415    -4256    -6907    -9158 
  -10379   -11223   -12577   -13526   -12175    -8149    -2730     2189 
    4665     3877      945    -2168    -4108    -4435    -3718    -3197 
   -3258    -3128    -2768    -3119    -4234    -5538    -7178    -9138 
  -10247    -9123    -5754    -2053      -75      223      302      615 
      96    -2103    -5379    -8567   -11169   -12749   -12265    -9496 
   -5857    -2545      569     3495     5024     3623     -732    -5724 
   -8419    -8121    -6660    -5876    -6376    -8174   -10637   -12570 
  -13217   -12470   -10452    -7622    -4525     -980     3402     8056 
   11730    13097    11213     6354     -256    -7272   -13196   -16748 
  -17580   -16102   -13077    -9410    -5965    -3195     -984      378 
     -76    -2287    -4490    -4973    -3793    -2367    -1621    -1576 
   -2471    -4449    -6666    -8125    -8597    -8134    -6616    -4220 
   -1741       13      977     1579     1979     1738      102    -2843 
   -5592    -6590    -6054    -5886    -7145    -8521    -8282    -6451 
   -4362    -3124    -3124    -3981    -4544    -4044    -3145    -3166 
   -4251    -4686    -2999     -416       12    -3204    -8228   -11766 
  -11894    -9220    -6360    -5498    -6519    -8105    -8982    -8482 
   -7100    -5615    -4304    -3260    -2072       15     2612     4086 
    3352     1076     -905    -1583    -1807    -2777    -4513    -6475 
   -8737   -11611   -14226   -14669   -12154    -7996    -4094    -1605 
    -622     -153      952     2961     4912     4745     1110    -4903 
  -10749   -14476   -16052   -16602   -16188   -13655    -8344    -1430 
    4323     6914     6441     3922      583    -2394    -4589    -6060 
   -6676    -6155    -4206    -1433      184     -996    -4577    -8261 
   -9872    -9310    -7587    -5489    -3725    -2313     -883     -134 
    -966    -3416    -7203   -11430   -14337   -14028    -9498    -2150 
    4727     8704     8953     5388    -1081    -8171   -13272   -15072 
  -14005   -11394    -8388    -5435    -2628     -224     1218      994 
    -709    -2098    -1621       50     1286     1577     1408      952 
    -674    -3949    -7352    -9572   -11543   -14026   -15783   -15537 
  -13248    -9097    -3902      116     2038     3550     5430     6320 
    5408     3216      458    -2619    -6311   -10360   -13185   -13865 
  -13280   -12119   -10229    -8062    -6467    -5172    -3436    -1573 
     100     1864     3011     2504      602    -1909    -4397    -6545 
   -8409    -9426    -8686    -6639    -4824    -3694    -2287     -455 
     722     1028     1321     1660      524    -3499    -9435   -14421 
  -16311   -15001   -11844    -8349    -5712    -4525    -3760    -1810 
    1209     3994     5703     6220     5641     3618     -312    -5763 
  -11702   -16885   -19827   -19334   -15430   -10122    -6330    -4674 
   -2915      814     5716     8830     7890     4003       75    -2600 
   -4732    -7534   -11418   -14922   -15601   -12932    -8941    -5885 
   -4707    -5037    -5635    -5151    -3432    -2182    -3269    -6413 
   -9304    -9824    -7817    -4445     -753     2225     3381     2458 
     273    -2044    -3605    -4123    -3927    -3143    -1595       91 
     627     -694    -3550    -6711    -9008   -10552   -12122   -13524 
  -13142    -9555    -3449     2923     7561     9563     9145     6885 
    2882    -2551    -8244   -12975   -15814   -16273   -14633   -11245 
   -6689    -2362     1106     4544     7972     9936     9533     7017 
    3080    -1280    -5470    -9518   -12941   -15058   -15832   -15352 
  -13678   -10987    -7379    -3221      743     4181     7047     8592 
    7528     2947    -4262   -10871   -14609   -16426   -17723   -18620 
  -18642   -16857   -13118    -8928    -5439    -2037     2028     5653 
    6896     5088      926    -3975    -8343   -12096   -14834   -16231 
  -17018   -17531   -17298   -15738   -12580    -8198    -3659     -540 
     215     -754    -2350    -4438    -7519   -11385   -14643   -15968 
  -15381   -13611   -11029    -7850    -4682    -2371    -1016      229 
    1497     1911     1484     1119     1170     1224      257    -2095 
   -4623    -6307    -7112    -6683    -4435     -865     2782     5977 
    8545     9919     9855     8741     6941     4445     1625     -449 
   -1008     -180      869     1082      899      539     -704    -2254 
   -2813    -2142     -838      334     1171     1437      272    -2466 
   -6066    -9385   -11145   -11244   -10136    -7869    -5008    -2361 
    -391      192     -887    -2409    -2908    -2569    -3389    -7191 
  -13322   -19403   -23720   -25639   -25624   -25373   -25900   -26000 
  -23701   -18428   -11656    -5903    -2669    -1245       29     1639 
    2468     1051    -2922    -7636   -10314   -10064    -8421    -7255 
   -6971    -6362    -4489    -1915      281      870     -957    -4026 
   -6170    -6690    -6775    -7767    -9318    -9850    -8400    -5232 
   -1362     2187     4970     6984     8542    10285    12254    13476 
   13211    11414     8158     4072      563    -1524    -2341    -2029 
    -726      997     2325     2438     1276      -37     -385      357 
    1633     2426     1542    -1054    -3600    -4730    -5184    -5990 
   -6882    -6608    -4172    -1021     -159    -2304    -5712    -8888 
  -11256   -12359   -11575    -8587    -3847     1544     6139     8602 
    8337     5796     2107    -1967    -6337   -10672   -14246   -16649 
  -17673   -17050   -14755   -11098    -6773    -3097    -1627    -3173 
   -6905   -10524   -12374   -13226   -14908   -18046   -21535   -23645 
  -23689   -22008   -18748   -13867    -7816    -1545     3892     7296 
    7773     5885     3131      332    -2455    -4987    -6448    -6342 
   -5379    -4271    -2284     1713     7408    13057    17188    19320 
   18843    14966     8277     1040    -4569    -7821    -9115    -9435 
   -9582    -9140    -7274    -4229     -999     1783     3904     4685 
    2988    -1214    -6182   -10029   -12345   -13531   -13718   -13604 
  -14818   -17776   -20436   -20394   -17264   -12468    -7568    -3129 
     720     3070     2706     -494    -5189    -9459   -12379   -14541 
  -16863   -19729   -22847   -25127   -25381   -23364   -19576   -14385 
   -8065    -1479     3887     6608     6200     3576      224    -3268 
   -7044   -10746   -13897   -16520   -18321   -18474   -16412   -12168 
   -6402     -332     4905     9029    12351    14774    15756    15278 
   13491     9734     3965    -2063    -6959   -10965   -14446   -16781 
  -17216   -16110   -14211   -11217    -6265      391     6702    10832 
   13138    14531    14284    11081     5445      -95    -3240    -3991 
   -4349    -5978    -8784   -11539   -13115   -12926   -10901    -8037 
   -5951    -5103    -4324    -2196     1052     3092     2033     -971 
   -2953    -2491     -923     -376    -1690    -4578    -8318   -11619 
  -13019   -12129   -10553   -10518   -11771   -11769    -9206    -5120 
   -1226     1606     3836     6313     8681     9225     6527     1059 
   -4862    -9075   -10957   -10613    -8414    -5358    -2683     -791 
     865     2425     3145     2173     -876    -5324    -9483   -11925 
  -12257   -11251   -10620   -10955   -10681    -8882    -6919    -6174 
   -6661    -7976    -9420    -9627    -7481    -3256     1065     2936 
    1485    -1686    -4265    -5567    -6790    -8988   -11482   -12491 
  -10975    -7727    -4642    -2888    -2032    -1112     -350     -864 
   -2821    -5265    -7099    -7369    -5652    -2469     1154     4222 
    6113     7051     7368     6410     3939     1436      369      772 
    1825     2784     3487     3885     3376     1158    -2938    -7981 
  -12498   -15404   -16236   -15355   -13779   -11693    -8119    -2939 
    2176     5420     6145     4484     1195    -2468    -5874    -9298 
  -13069   -16877   -19436   -19545   -17828   -15967   -14094   -10679 
   -4834     2438     8764    11932    11614     9459     7471     6489 
    5711     3421    -1485    -8386   -15360   -20526   -23212   -24349 
  -25009   -24166   -19438   -10491     -283     7215     9953     9303 
    8362     7735     4636    -2980   -13513   -23253   -29161   -30666 
  -29393   -26480   -21163   -12981    -3555     4799    10715    13780 
   14132    12523    10217     8184     6477     4319      945    -3047 
   -5652    -5334    -2360     1537     4479     6186     7852     9791 
   10576     8816     4923      664    -2402    -3891    -5007    -6829 
   -8748   -10265   -11365   -11524   -11060   -10819   -10482    -9343 
   -7495    -5837    -5428    -6486    -8494   -11142   -14292   -17343 
  -19099   -18647   -16616   -14901   -14954   -16272   -16597   -14548 
  -11220    -8520    -7840    -9447   -11887   -13773   -15121   -16345 
  -18003   -19814   -20018   -17837   -14158    -9673    -4484     1478 
    7770    12833    14986    14167    12331    11746    12669    12781 
    9769     4493      180     -577     2567     7629    12388    16309 
   19742    22411    23199    21673    18379    13054     5412    -3551 
  -12674   -20735   -26183   -27798   -25359   -20038   -13570    -7516 
   -2866       58      140    -4140   -12557   -23200   -33232   -39867 
  -41577   -38166   -31091   -22909   -15726   -10920    -8522    -7274 
   -6528    -6373    -6581    -6302    -4486    -1594      661     1799 
    2029     1302      890     2078     3786     4410     3888     3568 
    5237     9484    14758    18104    17628    14224    10148     6511 
    2051    -3960    -8807    -9872    -7355    -2825     1621     4687 
    5958     4802     1980     -295    -1180    -1361    -1289     -729 
     248      777      420    -1152    -4685    -9226   -12947   -15821 
  -18200   -19656   -19579   -16077    -7759     2453     9620    11112 
    6689    -2227   -12474   -20812   -26241   -29511   -30900   -29365 
  -23174   -12540    -1271     7123    12540    15567    15883    13789 
   10177     5379     -391    -5641    -8379    -8754    -8711    -9155 
   -9289    -7900    -4821    -1252     1681     4165     6997    10212 
   13146    14809    13768     9435     3239    -2577    -6879    -9946 
  -12238   -13637   -13364   -10564    -5687     -267     4693     8965 
   11871    11596     7411     1870    -2100    -4518    -6934   -10143 
  -13609   -15927   -16294   -15275   -13684   -11219    -6735     -341 
    5577     8708     8646     5784     1217    -3379    -7784   -12573 
  -17206   -20821   -22858   -22928   -21132   -18333   -16210   -15865 
  -16465   -16579   -15789   -13813    -9547    -3092     2368     3126 
    -882    -5988    -9169   -10942   -13039   -15065   -14556    -9688 
   -1604     5807     8893     7061     2259    -3007    -7071   -10375 
  -14283   -18115   -19377   -16390    -9864    -2034     5412    11588 
   15955    18340    18207    15190    10310     4814     -510    -4649 
   -7517   -10390   -13924   -17383   -19310   -18085   -13339    -7449 
   -3914    -3568    -4125    -3697    -2420     -844      782     1740 
     678    -3285    -8892   -13340   -15648   -17491   -19715   -20510 
  -17664   -11524    -5331    -1666      -43      885     1596     1684 
    -214    -4916   -11502   -18086   -22687   -24197   -22729   -18734 
  -12974    -7043    -2759     -775      338     2348     5095     7836 
   10334    12195    13398    13100     9731     4128    -1964    -7734 
  -12129   -15164   -17408   -17850   -15255   -10134    -5086    -1965 
     259     2829     5356     7112     8891    11658    13191    10419 
    3695    -4400   -12653   -20458   -24587   -22616   -16926   -11070 
   -6453    -2327     2257     6492     9928    12993    15062    15286 
   12434     5844    -1948    -8017   -10918    -9637    -5659    -2179 
   -1068    -2219    -3476    -3365    -2258     -625      -83    -1008 
    -585     1164      884    -2133    -5812    -8222    -9112    -9656 
  -10024    -8721    -4766      603     4604     5724     4735     2733 
     603     -693    -1263    -1982    -2889    -3516    -3918    -4541 
   -6075    -8895   -11902   -12637    -9122    -2060     5373    10475 
   12810    13163    11974     9197     4596    -1668    -8111   -13029 
  -15554   -15373   -13947   -13677   -14168   -12095    -4931     6036 
   16090    21192    21380    19342    17063    14534    10335     3377 
   -5365   -13341   -18737   -21628   -22608   -21146   -16609   -10097 
   -3574     1838     5467     6138     3717      458    -2247    -5894 
  -11326   -16731   -19885   -20514   -20470   -21200   -21609   -19895 
  -16230   -12006    -7804    -3146     2769     9523    14197    13702 
    8098      -59    -8172   -14708   -19353   -22807   -26263   -30554 
  -35242   -38762   -40031   -38945   -35226   -28889   -20995   -12391 
   -3425     5120    11753    14606    13031     8528     3315     -835 
   -3259    -4763    -6375    -8360   -10256   -11003    -9632    -6171 
   -1915     1539     3632     4586     4829     5358     6880     8415 
    8178     5437      906    -4224    -8908   -12058   -12915   -11842 
   -9907    -7785    -5423    -2328     1757     5924     8430     8445 
    6508     2979    -2521   -10022   -18393   -25535   -29559   -29784 
  -26237   -19384   -11056    -3491     2789     8224    12212    12916 
    9118     2319    -4389    -9394   -12973   -15624   -17770   -19804 
  -20898   -19508   -15254    -8929    -1883     4345     8947    11852 
   12647    10658     6055     -159    -6861   -12999   -17570   -19875 
  -20233   -19703   -18637   -16366   -11661    -3693     5761    12970 
   16622    18679    20939    22806    21438    14719     4423    -5416 
  -11811   -14398   -15055   -14862   -12565    -6583     2679    12434 
   20225    25450    27149    24572    19588    14458     9428     3464 
   -5070   -16153   -26346   -31947   -31557   -25486   -16120    -7443 
   -1486     3008     7621    11856    13367    10703     5524      199 
   -4727    -9641   -15073   -21240   -26804   -29441   -28149   -23961 
  -18651   -13389    -8598    -4409    -1022     1167     2064     1613 
    -626    -4479    -9101   -13659   -17188   -18630   -17284   -13763 
   -9953    -7029    -4454    -1001     3692     8501    11926    13517 
   13650    12540    10375     7292     2732    -3501    -9850   -13840 
  -13579    -9085    -2829     2689     7627    13311    19272    23277 
   23243    18637    10653     1416    -6966   -13598   -19106   -23513 
  -25276   -23325   -18538   -13215    -9073    -5640    -1604     2973 
    6872     9048     9111     7276     4181      303    -4781   -11708 
  -19591   -26303   -30393   -31639   -30459   -27587   -23586   -18488 
  -12470    -5938     1114     8198    13805    16695    16248    12320 
    5815    -1904   -10078   -17792   -23367   -25731   -24911   -20855 
  -13877    -5544     2731    10406    16807    21160    22823    20698 
   14021     4098    -6163   -14616   -20787   -24967   -27573   -28938 
  -28922   -27226   -23794   -18451   -11564    -4815     -133     1554 
     425    -3275    -9768   -18224   -26294   -32139   -35329   -35889 
