Origin Time       2025/01/13 21:19:00
Lat.              31.8
Long.             131.6
Depth. (km)       30
Mag.              6.9
Station Code      KGW003
Station Lat.      34.2644
Station Long.     133.7896
Station Height(m) 13
Record Time       2025/01/13 21:21:14
Sampling Freq(Hz) 100Hz
Duration Time(s)  62
Dir.              N-S
Scale Factor      7845(gal)/8223790
Max. Acc. (gal)   1.778
Last Correction   2025/01/13 21:21:13
Memo.             
[...]
   -3086    -2984    -2646    -2216    -1922    -1877    -2100    -2515 
   -2917    -3145    -3222    -3218    -3165    -3142    -3226    -3379 
   -3488    -3505    -3453    -3326    -3110    -2882    -2801    -2936 
   -3184    -3437    -3627    -3670    -3604    -3551    -3549    -3561 
   -3577    -3573    -3487    -3314    -3172    -3125    -3125    -3150 
   -3186    -3208    -3267    -3396    -3514    -3493    -3385    -3312 
   -3258    -3214    -3138    -2906    -2581    -2357    -2299    -2363 
   -2452    -2523    -2563    -2527    -2516    -2646    -2837    -3015 
   -3149    -3148    -2964    -2678    -2439    -2378    -2548    -2863 
   -3148    -3300    -3302    -3194    -3099    -3102    -3172    -3257 
   -3304    -3253    -3149    -3125    -3168    -3160    -3130    -3213 
   -3404    -3600    -3705    -3657    -3497    -3369    -3349    -3411 
   -3487    -3500    -3461    -3450    -3511    -3599    -3631    -3600 
   -3557    -3530    -3535    -3532    -3445    -3234    -2940    -2643 
   -2404    -2308    -2417    -2664    -2906    -3015    -2968    -2866 
   -2790    -2781    -2859    -2956    -2994    -2960    -2841    -2675 
   -2574    -2644    -2897    -3134    -3225    -3272    -3319    -3335 
   -3370    -3364    -3227    -3118    -3173    -3256    -3208    -3048 
   -2883    -2844    -3001    -3272    -3500    -3613    -3631    -3591 
   -3515    -3422    -3377    -3396    -3381    -3279    -3121    -2948 
   -2809    -2763    -2874    -3095    -3295    -3457    -3585    -3623 
   -3578    -3449    -3227    -3019    -2893    -2776    -2596    -2397 
   -2270    -2265    -2393    -2574    -2662    -2597    -2455    -2377 
   -2425    -2533    -2647    -2714    -2647    -2461    -2257    -2123 
   -2134    -2320    -2617    -2862    -2918    -2826    -2710    -2682 
   -2821    -3063    -3221    -3211    -3130    -3086    -3105    -3218 
   -3399    -3507    -3512    -3481    -3393    -3256    -3138    -3107 
   -3156    -3249    -3419    -3669    -3873    -3942    -3900    -3820 
   -3743    -3662    -3586    -3477    -3338    -3322    -3474    -3612 
   -3603    -3462    -3300    -3254    -3337    -3429    -3449    -3383 
   -3218    -3037    -2992    -3051    -3072    -3057    -3042    -3046 
   -3132    -3267    -3339    -3298    -3175    -3044    -2905    -2751 
   -2670    -2683    -2709    -2743    -2824    -2944    -3075    -3175 
   -3177    -3036    -2791    -2639    -2725    -2948    -3121    -3096 
   -2874    -2683    -2718    -2913    -3138    -3322    -3422    -3396 
   -3226    -2998    -2824    -2727    -2698    -2708    -2708    -2717 
   -2795    -2960    -3187    -3430    -3605    -3589    -3354    -3033 
   -2779    -2660    -2690    -2805    -2887    -2910    -2916    -2866 
   -2749    -2682    -2745    -2911    -3103    -3208    -3192    -3176 
   -3265    -3415    -3492    -3400    -3161    -2871    -2651    -2623 
   -2791    -3029    -3252    -3437    -3519    -3449    -3302    -3211 
   -3229    -3289    -3312    -3272    -3210    -3210    -3275    -3316 
   -3280    -3218    -3211    -3279    -3362    -3399    -3362    -3294 
   -3264    -3262    -3210    -3076    -2901    -2749    -2685    -2704 
   -2763    -2836    -2918    -2968    -2947    -2914    -2960    -3051 
   -3109    -3145    -3191    -3221    -3225    -3196    -3098    -2956 
   -2848    -2832    -2937    -3114    -3237    -3252    -3196    -3103 
   -2986    -2878    -2824    -2860    -2988    -3126    -3134    -2988 
   -2849    -2880    -3073    -3327    -3550    -3690    -3747    -3686 
   -3474    -3260    -3221    -3338    -3526    -3680    -3653    -3424 
   -3129    -2918    -2924    -3125    -3335    -3406    -3346    -3244 
   -3159    -3118    -3072    -2947    -2820    -2797    -2836    -2903 
   -3019    -3142    -3229    -3275    -3241    -3127    -2982    -2820 
   -2664    -2558    -2513    -2542    -2624    -2705    -2794    -2936 
   -3082    -3167    -3173    -3094    -2960    -2866    -2863    -2937 
   -3042    -3117    -3100    -2983    -2847    -2802    -2851    -2922 
   -2997    -3083    -3194    -3362    -3538    -3609    -3623    -3693 
   -3800    -3855    -3873    -3874    -3828    -3748    -3665    -3574 
   -3473    -3399    -3415    -3511    -3601    -3626    -3561    -3411 
   -3226    -3123    -3199    -3389    -3543    -3566    -3431    -3204 
   -2999    -2876    -2855    -2961    -3188    -3408    -3477    -3387 
   -3227    -3091    -3046    -3073    -3075    -3015    -2921    -2783 
   -2605    -2454    -2405    -2435    -2463    -2459    -2425    -2394 
   -2419    -2471    -2477    -2438    -2419    -2434    -2467    -2529 
   -2614    -2679    -2736    -2816    -2891    -2938    -2964    -2963 
   -2951    -2968    -3025    -3080    -3078    -3003    -2928    -2952 
   -3123    -3396    -3649    -3753    -3636    -3334    -3002    -2810 
   -2840    -3076    -3389    -3601    -3630    -3580    -3603    -3697 
   -3757    -3753    -3711    -3647    -3592    -3534    -3441    -3357 
   -3376    -3514    -3661    -3661    -3483    -3252    -3086    -3005 
   -3003    -3072    -3140    -3110    -2991    -2894    -2849    -2812 
   -2806    -2853    -2879    -2868    -2864    -2853    -2832    -2806 
   -2772    -2748    -2721    -2677    -2627    -2586    -2565    -2548 
   -2542    -2597    -2698    -2764    -2799    -2840    -2859    -2826 
   -2795    -2813    -2868    -2957    -3072    -3153    -3180    -3173 
   -3141    -3125    -3154    -3211    -3256    -3269    -3292    -3352 
   -3381    -3325    -3222    -3129    -3056    -3019    -3051    -3150 
   -3271    -3379    -3422    -3361    -3276    -3254    -3272    -3302 
   -3350    -3381    -3365    -3350    -3384    -3433    -3435    -3411 
   -3392    -3361    -3296    -3221    -3177    -3195    -3237    -3267 
   -3277    -3229    -3148    -3137    -3192    -3233    -3227    -3184 
   -3154    -3144    -3065    -2955    -2960    -3064    -3163    -3265 
   -3368    -3379    -3253    -3056    -2895    -2821    -2813    -2835 
   -2859    -2890    -2975    -3095    -3153    -3129    -3090    -3041 
   -2963    -2880    -2808    -2721    -2610    -2521    -2502    -2540 
   -2639    -2820    -3029    -3194    -3288    -3314    -3300    -3295 
   -3348    -3445    -3510    -3551    -3622    -3649    -3577    -3465 
   -3342    -3222    -3144    -3130    -3140    -3084    -2956    -2860 
   -2864    -2917    -2943    -2921    -2871    -2845    -2874    -2955 
   -3061    -3152    -3223    -3264    -3249    -3229    -3245    -3223 
   -3114    -2980    -2887    -2837    -2812    -2809    -2849    -2936 
   -3003    -2978    -2899    -2856    -2871    -2924    -2987    -3041 
   -3105    -3207    -3341    -3460    -3526    -3518    -3446    -3361 
   -3315    -3338    -3395    -3419    -3412    -3434    -3503    -3570 
   -3601    -3607    -3596    -3550    -3441    -3277    -3126    -3064 
   -3106    -3217    -3335    -3419    -3458    -3446    -3380    -3287 
   -3203    -3138    -3078    -3017    -2959    -2887    -2808    -2774 
   -2803    -2847    -2849    -2786    -2686    -2609    -2583    -2602 
   -2627    -2606    -2552    -2497    -2423    -2336    -2292    -2326 
   -2447    -2609    -2716    -2737    -2716    -2690    -2678    -2702 
   -2775    -2883    -3006    -3138    -3229    -3244    -3217    -3190 
   -3176    -3164    -3118    -3029    -2975    -3011    -3083    -3111 
   -3094    -3080    -3095    -3130    -3152    -3132    -3098    -3118 
   -3219    -3380    -3541    -3618    -3595    -3545    -3531    -3539 
   -3531    -3505    -3484    -3491    -3524    -3554    -3524    -3423 
   -3315    -3238    -3169    -3117    -3133    -3208    -3279    -3318 
   -3343    -3350    -3354    -3385    -3414    -3403    -3358    -3303 
   -3269    -3280    -3325    -3368    -3383    -3353    -3285    -3198 
   -3148    -3176    -3225    -3237    -3218    -3118    -2910    -2690 
   -2554    -2500    -2470    -2419    -2374    -2382    -2421    -2470 
   -2532    -2582    -2633    -2724    -2818    -2844    -2793    -2697 
   -2604    -2565    -2616    -2718    -2793    -2790    -2732    -2681 
   -2700    -2778    -2853    -2893    -2895    -2890    -2933    -3033 
   -3115    -3149    -3181    -3231    -3265    -3267    -3249    -3254 
   -3302    -3365    -3450    -3588    -3750    -3877    -3927    -3893 
   -3800    -3700    -3651    -3636    -3582    -3446    -3257    -3115 
   -3090    -3129    -3154    -3106    -2961    -2810    -2748    -2783 
   -2874    -2964    -3019    -3038    -3019    -2964    -2889    -2799 
   -2689    -2565    -2458    -2405    -2409    -2447    -2458    -2401 
   -2335    -2349    -2432    -2496    -2482    -2401    -2301    -2231 
   -2220    -2261    -2365    -2517    -2637    -2677    -2671    -2694 
   -2803    -2994    -3188    -3316    -3377    -3435    -3520    -3592 
   -3603    -3546    -3487    -3503    -3588    -3662    -3697    -3740 
   -3820    -3912    -3962    -3933    -3852    -3790    -3777    -3777 
   -3739    -3658    -3572    -3505    -3437    -3342    -3256    -3208 
   -3172    -3137    -3150    -3242    -3343    -3357    -3262    -3105 
   -2947    -2828    -2766    -2748    -2710    -2625    -2536    -2474 
   -2459    -2492    -2512    -2500    -2496    -2511    -2528    -2538 
   -2535    -2528    -2544    -2575    -2577    -2540    -2497    -2477 
   -2494    -2544    -2601    -2655    -2741    -2874    -3005    -3109 
   -3207    -3299    -3358    -3385    -3414    -3453    -3483    -3495 
   -3489    -3464    -3447    -3481    -3558    -3612    -3601    -3559 
   -3542    -3551    -3568    -3585    -3593    -3569    -3510    -3415 
   -3300    -3233    -3262    -3329    -3379    -3412    -3422    -3408 
   -3366    -3277    -3175    -3109    -3076    -3051    -3045    -3072 
   -3107    -3091    -3007    -2907    -2841    -2820    -2809    -2770 
   -2728    -2759    -2880    -3075    -3326    -3566    -3697    -3700 
   -3626    -3496    -3329    -3191    -3111    -3056    -3030    -3052 
   -3095    -3148    -3218    -3283    -3310    -3304    -3249    -3150 
   -3073    -3048    -3025    -2976    -2926    -2901    -2887    -2870 
   -2871    -2895    -2932    -3014    -3132    -3195    -3173    -3100 
   -2980    -2826    -2673    -2554    -2481    -2447    -2430    -2416 
   -2420    -2451    -2494    -2548    -2612    -2640    -2605    -2531 
   -2451    -2400    -2373    -2315    -2235    -2207    -2259    -2374 
   -2498    -2587    -2650    -2732    -2866    -3055    -3231    -3310 
   -3308    -3287    -3246    -3217    -3260    -3380    -3526    -3651 
   -3735    -3788    -3809    -3788    -3750    -3727    -3705    -3669 
   -3613    -3530    -3406    -3276    -3195    -3156    -3105    -3033 
   -2979    -2956    -2956    -2971    -2990    -2984    -2965    -2987 
   -3073    -3149    -3153    -3087    -2972    -2851    -2752    -2652 
   -2543    -2481    -2504    -2547    -2520    -2442    -2386    -2380 
   -2454    -2614    -2798    -2951    -3080    -3195    -3289    -3372 
   -3433    -3456    -3458    -3477    -3522    -3578    -3658    -3781 
   -3920    -4014    -4055    -4081    -4101    -4093    -4064    -4012 
   -3928    -3871    -3854    -3804    -3723    -3669    -3628    -3565 
   -3465    -3329    -3150    -2929    -2714    -2573    -2511    -2481 
   -2428    -2340    -2235    -2135    -2068    -2042    -2056    -2077 
   -2084    -2108    -2138    -2126    -2110    -2124    -2130    -2123 
   -2130    -2150    -2180    -2211    -2251    -2317    -2409    -2520 
   -2658    -2818    -2980    -3130    -3249    -3302    -3322    -3388 
   -3526    -3704    -3878    -3990    -4031    -4029    -4018    -4002 
   -3954    -3874    -3825    -3844    -3879    -3888    -3888    -3881 
   -3842    -3774    -3703    -3651    -3623    -3585    -3505    -3389 
   -3265    -3175    -3145    -3171    -3225    -3260    -3235    -3168 
   -3129    -3132    -3121    -3046    -2917    -2791    -2718    -2685 
   -2654    -2646    -2702    -2793    -2848    -2839    -2768    -2686 
   -2652    -2675    -2705    -2687    -2605    -2511    -2488    -2542 
   -2609    -2640    -2625    -2596    -2605    -2673    -2779    -2906 
   -3045    -3167    -3230    -3234    -3234    -3260    -3321    -3418 
   -3523    -3612    -3680    -3726    -3750    -3766    -3802    -3842 
   -3850    -3852    -3893    -3960    -4043    -4120    -4141    -4105 
   -4062    -4051    -4090    -4175    -4303    -4464    -4617    -4708 
   -4731    -4691    -4588    -4452    -4310    -4149    -3940    -3700 
   -3492    -3345    -3234    -3126    -3014    -2903    -2810    -2731 
   -2631    -2485    -2315    -2162    -2056    -1996    -1962    -1934 
   -1890    -1833    -1787    -1757    -1744    -1764    -1803    -1829 
   -1822    -1790    -1769    -1772    -1753    -1696    -1642    -1651 
   -1752    -1910    -2060    -2169    -2235    -2288    -2361    -2461 
   -2583    -2694    -2752    -2772    -2822    -2925    -3065    -3225 
   -3383    -3553    -3747    -3940    -4105    -4221    -4298    -4363 
   -4426    -4468    -4486    -4490    -4476    -4437    -4383    -4347 
   -4356    -4390    -4406    -4406    -4405    -4383    -4334    -4282 
   -4266    -4298    -4333    -4305    -4195    -4055    -3940    -3858 
   -3775    -3655    -3516    -3415    -3364    -3329    -3285    -3215 
   -3127    -3053    -2972    -2857    -2728    -2598    -2462    -2320 
   -2182    -2056    -1939    -1837    -1744    -1633    -1505    -1406 
   -1356    -1317    -1271    -1232    -1223    -1255    -1318    -1399 
   -1476    -1539    -1594    -1649    -1694    -1734    -1787    -1844 
   -1895    -1952    -2004    -2043    -2093    -2157    -2197    -2205 
   -2209    -2247    -2320    -2394    -2440    -2465    -2493    -2556 
   -2681    -2864    -3073    -3277    -3454    -3605    -3747    -3889 
   -4012    -4093    -4144    -4202    -4280    -4369    -4457    -4529 
   -4580    -4614    -4622    -4581    -4480    -4333    -4171    -4039 
   -3969    -3931    -3869    -3758    -3634    -3539    -3474    -3412 
   -3341    -3257    -3171    -3109    -3082    -3078    -3086    -3086 
   -3051    -2998    -2968    -2957    -2940    -2911    -2878    -2841 
   -2799    -2741    -2651    -2540    -2442    -2370    -2326    -2327 
   -2351    -2362    -2373    -2407    -2465    -2524    -2565    -2593 
   -2619    -2625    -2613    -2602    -2631    -2706    -2794    -2868 
   -2936    -2999    -3046    -3049    -2997    -2921    -2856    -2805 
   -2776    -2783    -2820    -2880    -2964    -3056    -3156    -3257 
   -3335    -3393    -3447    -3499    -3546    -3580    -3593    -3601 
   -3600    -3580    -3555    -3546    -3541    -3519    -3487    -3465 
   -3458    -3476    -3522    -3569    -3585    -3570    -3532    -3472 
   -3373    -3225    -3036    -2867    -2770    -2747    -2755    -2760 
   -2759    -2762    -2770    -2786    -2793    -2760    -2708    -2673 
   -2637    -2574    -2498    -2444    -2439    -2463    -2475    -2485 
   -2508    -2521    -2535    -2554    -2551    -2528    -2527    -2578 
   -2671    -2766    -2832    -2880    -2937    -2994    -3036    -3087 
   -3180    -3315    -3456    -3582    -3684    -3739    -3759    -3763 
   -3750    -3719    -3673    -3593    -3472    -3342    -3246    -3211 
   -3245    -3335    -3449    -3539    -3608    -3677    -3735    -3759 
   -3755    -3723    -3658    -3592    -3541    -3491    -3457    -3454 
   -3438    -3391    -3343    -3322    -3335    -3358    -3350    -3284 
   -3169    -3045    -2930    -2816    -2700    -2587    -2496    -2448 
   -2447    -2477    -2527    -2585    -2651    -2725    -2789    -2829 
   -2839    -2836    -2860    -2922    -3005    -3095    -3145    -3091 
   -2967    -2862    -2828    -2886    -3015    -3157    -3252    -3284 
   -3271    -3240    -3225    -3235    -3261    -3283    -3311    -3357 
   -3420    -3495    -3559    -3588    -3584    -3589    -3646    -3763 
   -3931    -4108    -4248    -4333    -4368    -4379    -4387    -4378 
   -4328    -4256    -4194    -4152    -4108    -4032    -3920    -3812 
   -3759    -3767    -3794    -3781    -3721    -3657    -3622    -3618 
   -3620    -3566    -3433    -3258    -3076    -2898    -2743    -2619 
   -2509    -2407    -2312    -2208    -2080    -1961    -1871    -1796 
   -1717    -1618    -1505    -1418    -1383    -1386    -1401    -1429 
   -1471    -1516    -1552    -1575    -1594    -1598    -1566    -1516 
   -1497    -1539    -1653    -1814    -1975    -2122    -2263    -2407 
   -2556    -2718    -2890    -3071    -3240    -3370    -3468    -3572 
   -3705    -3834    -3924    -3982    -4035    -4087    -4133    -4178 
   -4221    -4244    -4244    -4239    -4221    -4171    -4104    -4056 
   -4036    -4032    -4028    -3993    -3933    -3897    -3902    -3928 
   -3955    -3962    -3923    -3840    -3721    -3569    -3393    -3223 
   -3078    -2956    -2843    -2725    -2600    -2471    -2373    -2322 
   -2281    -2216    -2126    -1993    -1827    -1695    -1648    -1678 
   -1753    -1826    -1846    -1818    -1795    -1826    -1914    -2029 
   -2157    -2297    -2447    -2590    -2717    -2837    -2964    -3088 
   -3223    -3399    -3592    -3744    -3816    -3827    -3828    -3854 
   -3893    -3943    -3991    -4009    -3983    -3931    -3875    -3835 
   -3820    -3825    -3832    -3821    -3798    -3789    -3794    -3813 
   -3843    -3856    -3851    -3866    -3910    -3956    -3964    -3913 
   -3843    -3796    -3755    -3704    -3649    -3597    -3553    -3484 
   -3377    -3280    -3234    -3238    -3271    -3294    -3264    -3160 
   -3006    -2866    -2755    -2648    -2528    -2419    -2366    -2388 
   -2455    -2542    -2640    -2744    -2862    -2975    -3055    -3099 
   -3117    -3098    -3059    -3036    -3059    -3132    -3229    -3323 
   -3392    -3435    -3474    -3511    -3522    -3508    -3473    -3423 
   -3370    -3314    -3241    -3160    -3091    -3040    -3011    -3001 
   -2992    -2997    -3033    -3094    -3164    -3237    -3300    -3357 
   -3416    -3473    -3504    -3493    -3442    -3385    -3364    -3385 
   -3416    -3424    -3403    -3362    -3299    -3214    -3127    -3055 
   -2978    -2880    -2767    -2662    -2579    -2542    -2548    -2585 
   -2650    -2720    -2752    -2747    -2741    -2754    -2772    -2787 
   -2790    -2774    -2735    -2679    -2609    -2517    -2420    -2354 
   -2328    -2316    -2281    -2191    -2057    -1922    -1811    -1734 
   -1694    -1694    -1730    -1795    -1864    -1917    -1960    -2018 
   -2093    -2182    -2297    -2434    -2575    -2720    -2857    -2957 
   -3014    -3056    -3114    -3175    -3204    -3203    -3179    -3142 
   -3106    -3080    -3080    -3126    -3204    -3276    -3329    -3400 
   -3518    -3647    -3758    -3852    -3943    -4036    -4124    -4187 
   -4218    -4233    -4264    -4322    -4379    -4415    -4428    -4415 
   -4387    -4345    -4295    -4239    -4164    -4074    -3970    -3851 
   -3739    -3649    -3565    -3489    -3426    -3370    -3341    -3342 
   -3352    -3345    -3302    -3195    -3026    -2829    -2656    -2542 
   -2489    -2474    -2448    -2384    -2293    -2203    -2126    -2076 
   -2053    -2045    -2047    -2066    -2089    -2108    -2131    -2158 
   -2181    -2219    -2295    -2397    -2478    -2528    -2586    -2667 
