Origin Time       2025/01/13 21:19:00
Lat.              31.8
Long.             131.6
Depth. (km)       30
Mag.              6.9
Station Code      KGW005
Station Lat.      34.1139
Station Long.     133.6353
Station Height(m) 1
Record Time       2025/01/13 21:20:53
Sampling Freq(Hz) 100Hz
Duration Time(s)  115
Dir.              E-W
Scale Factor      7845(gal)/8223790
Max. Acc. (gal)   4.361
Last Correction   2025/01/13 21:20:54
Memo.             
[...]
    4781     4604     4444     4322     4239     4091     3890     3657 
    3353     3057     2791     2520     2388     2424     2469     2524 
    2613     2619     2608     2691     2744     2720     2755     2816 
    2790     2766     2795     2828     2936     3164     3415     3670 
    3963     4237     4434     4612     4797     4932     5039     5165 
    5283     5389     5478     5513     5530     5541     5493     5456 
    5456     5340     5136     4957     4727     4453     4272     4140 
    3940     3723     3519     3254     2983     2812     2685     2552 
    2465     2425     2421     2479     2563     2635     2758     2914 
    3034     3168     3299     3366     3485     3677     3825     4004 
    4287     4533     4680     4826     4996     5208     5478     5713 
    5910     6187     6498     6723     6933     7196     7414     7577 
    7738     7840     7923     8054     8133     8128     8121     8091 
    7985     7889     7873     7886     7916     7967     7960     7877 
    7804     7722     7551     7312     7017     6704     6404     6046 
    5680     5443     5259     5009     4806     4703     4600     4522 
    4488     4413     4305     4191     4029     3850     3743     3682 
    3639     3662     3719     3758     3794     3815     3798     3813 
    3867     3894     4002     4251     4482     4687     4936     5100 
    5170     5275     5337     5289     5254     5279     5354     5483 
    5597     5679     5772     5849     5892     5937     5940     5857 
    5767     5684     5490     5170     4874     4673     4536     4492 
    4487     4365     4172     3998     3781     3550     3385     3217 
    3072     3052     3024     2928     2890     2882     2830     2812 
    2856     2844     2749     2636     2501     2427     2423     2373 
    2317     2280     2215     2165     2188     2232     2258     2386 
    2612     2813     3055     3376     3674     3973     4333     4693 
    5004     5309     5564     5741     5953     6162     6277     6400 
    6589     6782     6968     7146     7246     7299     7333     7258 
    7125     7018     6833     6605     6477     6338     6089     5883 
    5751     5593     5463     5402     5321     5223     5167     5103 
    5001     4924     4868     4827     4841     4870     4891     4962 
    5057     5113     5201     5308     5316     5275     5258     5192 
    5111     5084     5038     4949     4889     4823     4693     4588 
    4510     4401     4341     4353     4360     4394     4495     4612 
    4699     4777     4849     4911     4985     5026     5076     5250 
    5452     5590     5736     5806     5683     5536     5460     5367 
    5297     5267     5143     4953     4833     4733     4614     4542 
    4471     4359     4243     4074     3843     3650     3535     3497 
    3537     3596     3622     3682     3839     4005     4147     4332 
    4513     4656     4861     5067     5170     5300     5485     5603 
    5706     5841     5926     5995     6064     6037     5968     5934 
    5863     5752     5668     5578     5454     5323     5158     5000 
    4976     5007     4989     4996     5016     4942     4824     4781 
    4787     4792     4839     4858     4800     4773     4760     4700 
    4704     4780     4811     4849     4909     4884     4847     4869 
    4876     4922     5058     5173     5242     5370     5544     5715 
    5925     6149     6303     6401     6466     6473     6474     6488 
    6451     6358     6226     6089     6015     5931     5722     5495 
    5382     5306     5179     5026     4854     4625     4372     4140 
    3851     3538     3321     3149     3011     2976     2943     2859 
    2841     2890     2944     3099     3349     3530     3634     3712 
    3748     3800     3908     4017     4151     4336     4457     4499 
    4540     4558     4548     4618     4776     4928     5143     5445 
    5656     5790     5952     6043     6092     6228     6394     6544 
    6766     6957     6971     6936     6910     6798     6663     6528 
    6339     6201     6146     6073     5962     5844     5699     5559 
    5483     5416     5331     5314     5296     5196     5146     5123 
    5001     4914     4946     4969     5023     5186     5310     5356 
    5413     5409     5317     5212     5043     4818     4665     4571 
    4484     4476     4450     4283     4094     3950     3784     3657 
    3588     3473     3354     3299     3249     3231     3303     3373 
    3372     3369     3310     3094     2862     2716     2513     2227 
    1991     1777     1532     1333     1142      930      823      822 
     814      811      845      855      865      930     1063     1290 
    1571     1854     2177     2539     2866     3141     3423     3726 
    4036     4405     4795     5157     5544     5944     6264     6517 
    6763     6937     7036     7184     7319     7346     7393     7457 
    7443     7483     7604     7680     7778     7939     8016     8012 
    7962     7788     7549     7348     7129     6914     6768     6590 
    6343     6115     5871     5621     5501     5498     5518     5580 
    5656     5634     5570     5560     5526     5476     5517     5568 
    5603     5718     5840     5880     5931     6011     6039     6075 
    6151     6189     6230     6355     6513     6662     6824     6961 
    7049     7122     7182     7272     7427     7508     7466     7388 
    7256     7011     6725     6477     6239     6053     5967     5871 
    5691     5522     5371     5163     4958     4757     4506     4314 
    4209     4095     4036     4085     4152     4210     4286     4328 
    4328     4314     4278     4248     4225     4133     4012     3947 
    3865     3750     3744     3817     3840     3882     4008     4102 
    4139     4194     4214     4151     4137     4162     4087     4035 
    4056     3973     3809     3659     3466     3250     3098     2961 
    2822     2755     2714     2650     2555     2392     2211     2079 
    1941     1790     1709     1620     1443     1327     1289     1201 
    1147     1186     1171     1120     1185     1285     1356     1548 
    1837     2072     2245     2411     2550     2666     2786     2867 
    2936     3033     3098     3165     3287     3389     3501     3705 
    3900     4000     4105     4259     4396     4553     4757     4946 
    5163     5444     5679     5868     6092     6309     6482     6693 
    6920     7067     7190     7356     7497     7608     7728     7801 
    7824     7890     7971     8014     8056     8058     8010     7994 
    7932     7792     7744     7770     7724     7673     7659     7636 
    7616     7576     7487     7442     7474     7496     7516     7573 
    7604     7609     7646     7658     7620     7614     7631     7576 
    7474     7404     7291     7121     7015     6926     6779     6644 
    6489     6232     5923     5575     5170     4768     4338     3861 
    3462     3165     2874     2620     2452     2307     2174     2076 
    1960     1869     1872     1900     1922     2014     2127     2218 
    2381     2592     2745     2903     3113     3261     3335     3451 
    3604     3727     3854     3993     4097     4206     4352     4479 
    4590     4693     4758     4824     4897     4903     4862     4812 
    4696     4571     4507     4378     4180     4083     4012     3890 
    3854     3881     3865     3910     4043     4140     4236     4390 
    4502     4554     4612     4642     4634     4679     4784     4932 
    5169     5422     5611     5784     5968     6089     6142     6169 
    6133     6107     6168     6166     6119     6133     6103     5989 
    5899     5836     5767     5769     5842     5907     5985     6092 
    6193     6318     6482     6625     6743     6867     6914     6853 
    6785     6728     6635     6561     6485     6300     6070     5837 
    5513     5193     5000     4853     4687     4568     4421     4153 
    3910     3730     3510     3307     3156     2999     2841     2722 
    2639     2605     2629     2662     2720     2832     2949     3094 
    3288     3454     3599     3812     4041     4234     4480     4762 
    4969     5109     5228     5255     5196     5167     5125     5053 
    5039     4997     4903     4911     4965     4938     4955     5069 
    5152     5224     5282     5251     5225     5248     5255     5298 
    5414     5564     5761     6002     6170     6223     6243     6216 
    6100     5971     5842     5680     5525     5393     5232     5074 
    4996     4907     4716     4558     4467     4368     4333     4342 
    4321     4340     4384     4391     4459     4602     4725     4861 
    5015     5096     5157     5274     5337     5367     5485     5593 
    5607     5603     5606     5603     5657     5778     5881     5981 
    6091     6157     6184     6176     6120     6031     5950     5902 
    5877     5898     5933     5926     5918     5906     5814     5702 
    5648     5549     5405     5331     5255     5147     5117     5142 
    5135     5130     5119     5027     4911     4826     4729     4645 
    4595     4509     4383     4274     4140     3966     3794     3596 
    3383     3221     3083     2917     2751     2633     2520     2412 
    2336     2230     2118     2025     1875     1688     1521     1327 
    1119      976      895      845      853      893      924      984 
    1071     1142     1228     1367     1526     1719     1976     2284 
    2643     3067     3458     3724     3966     4244     4473     4676 
    4892     5039     5117     5202     5270     5317     5417     5541 
    5676     5864     6022     6127     6288     6455     6577     6764 
    6995     7144     7256     7395     7506     7615     7786     7952 
    8054     8148     8260     8348     8446     8564     8613     8615 
    8617     8568     8514     8518     8494     8453     8490     8534 
    8572     8646     8673     8644     8638     8607     8517     8429 
    8332     8221     8172     8168     8120     8051     7997     7884 
    7689     7469     7202     6875     6555     6223     5840     5495 
    5208     4915     4666     4457     4201     3944     3751     3554 
    3356     3214     3068     2937     2925     2944     2932     2990 
    3040     2976     2899     2822     2681     2578     2560     2515 
    2443     2394     2281     2103     1965     1838     1706     1649 
    1615     1533     1485     1497     1507     1571     1732     1921 
    2145     2400     2602     2763     2948     3122     3271     3474 
    3693     3867     4087     4329     4495     4660     4838     4931 
    4963     4972     4915     4884     4928     4911     4853     4897 
    4970     5017     5121     5205     5198     5220     5265     5228 
    5211     5271     5306     5377     5540     5657     5728     5830 
    5894     5888     5881     5849     5773     5765     5841     5887 
    5910     5952     5948     5918     5933     5930     5917     5935 
    5894     5830     5818     5755     5674     5691     5724     5691 
    5676     5675     5597     5514     5467     5363     5271     5262 
    5232     5157     5092     5003     4903     4873     4860     4800 
    4795     4792     4698     4645     4668     4685     4780     4980 
    5139     5262     5444     5586     5611     5632     5698     5776 
    5846     5879     5829     5715     5574     5402     5244     5112 
    4954     4799     4677     4515     4326     4183     4043     3892 
    3801     3739     3650     3630     3680     3661     3665     3771 
    3805     3773     3836     3897     3886     3939     4020     4018 
    4028     4067     4077     4114     4156     4153     4180     4220 
    4186     4149     4163     4131     4045     3985     3923     3851 
    3842     3854     3816     3811     3874     3908     3917     3960 
    3993     4052     4203     4342     4429     4548     4675     4772 
    4909     5059     5159     5292     5449     5539     5626     5728 
    5755     5784     5854     5859     5848     5911     5984     6023 
    6065     6061     5975     5900     5841     5737     5660     5630 
    5547     5436     5359     5223     5038     4936     4845     4707 
    4614     4509     4342     4232     4217     4240     4303     4398 
    4453     4510     4608     4689     4765     4903     5057     5184 
    5337     5498     5628     5796     5992     6139     6281     6438 
    6531     6585     6659     6681     6650     6658     6679     6704 
    6748     6740     6690     6690     6651     6547     6534     6559 
    6513     6512     6567     6559     6550     6597     6561     6447 
    6370     6272     6130     6014     5907     5773     5644     5521 
    5405     5337     5232     5038     4865     4711     4492     4297 
    4203     4112     4005     3969     3909     3755     3619     3473 
    3234     3014     2866     2714     2605     2550     2492     2482 
    2490     2409     2307     2250     2151     2043     2008     1946 
    1844     1822     1822     1804     1865     1944     1941     1944 
    1981     1961     1925     1958     2002     2031     2160     2328 
    2434     2546     2664     2691     2697     2741     2751     2776 
    2889     3005     3145     3358     3568     3773     4029     4299 
    4619     5054     5481     5834     6212     6569     6870     7230 
    7619     7929     8236     8549     8762     8916     9104     9270 
    9362     9421     9445     9412     9378     9352     9309     9296 
    9288     9215     9134     9086     8995     8881     8818     8726 
    8603     8514     8399     8226     8071     7935     7747     7546 
    7344     7084     6836     6659     6473     6270     6126     5969 
    5751     5551     5358     5132     4939     4772     4600     4492 
    4415     4247     4091     4018     3874     3699     3604     3478 
    3296     3183     3115     3044     3038     3056     3026     3021 
    3028     3014     3059     3126     3117     3090     3106     3073 
    2992     2987     3033     3068     3140     3241     3314     3368 
    3407     3414     3403     3383     3308     3207     3111     2961 
    2843     2841     2847     2844     2894     2920     2894     2936 
    3029     3057     3102     3208     3291     3373     3476     3554 
    3646     3788     3901     3971     4047     4077     4058     4059 
    4048     3997     3971     3954     3886     3831     3793     3723 
    3688     3721     3738     3744     3813     3886     3960     4095 
    4197     4243     4336     4446     4533     4669     4869     5065 
    5289     5576     5867     6134     6396     6610     6781     6957 
    7074     7084     7096     7144     7146     7121     7121     7092 
    7045     7036     6978     6832     6714     6609     6465     6354 
    6265     6187     6183     6181     6130     6110     6096     6012 
    5929     5864     5725     5582     5544     5522     5475     5490 
    5539     5557     5599     5659     5636     5572     5541     5482 
    5414     5387     5310     5201     5163     5123     5055     5034 
    4972     4861     4833     4831     4783     4768     4734     4664 
    4714     4800     4785     4816     4897     4872     4823     4804 
    4696     4567     4533     4496     4417     4382     4349     4263 
    4194     4176     4183     4197     4180     4120     4099     4183 
    4274     4328     4399     4429     4411     4426     4414     4371 
    4432     4531     4540     4536     4526     4425     4340     4347 
    4314     4245     4259     4294     4310     4392     4502     4569 
    4635     4685     4685     4681     4696     4684     4665     4688 
    4719     4776     4884     4980     5071     5200     5278     5278 
    5285     5267     5224     5269     5320     5287     5282     5302 
    5238     5169     5198     5197     5139     5124     5089     5004 
    4958     4947     4914     4908     4961     5003     5032     5054 
    5027     4996     4981     4912     4847     4878     4880     4827 
    4847     4866     4849     4909     4982     4982     5007     5073 
    5094     5113     5135     5094     5071     5111     5104     5076 
    5089     5085     5054     5043     5000     4900     4823     4797 
    4777     4772     4793     4800     4787     4770     4702     4614 
    4581     4552     4522     4549     4565     4553     4606     4648 
    4594     4577     4606     4567     4569     4629     4602     4561 
    4590     4567     4517     4563     4607     4610     4665     4712 
    4685     4661     4658     4639     4629     4648     4658     4650 
    4666     4680     4671     4677     4665     4642     4666     4664 
    4604     4594     4594     4545     4549     4608     4610     4618 
    4699     4738     4758     4874     4990     5061     5182     5306 
    5344     5363     5401     5427     5486     5590     5674     5756 
    5856     5917     5941     5956     5933     5899     5931     5998 
    6057     6143     6214     6226     6286     6396     6385     6326 
    6336     6270     6154     6143     6111     6006     5945     5869 
    5713     5599     5553     5478     5400     5360     5298     5205 
    5135     5078     5012     4936     4833     4702     4576     4418 
    4244     4118     3975     3778     3654     3572     3389     3240 
    3172     3003     2841     2820     2762     2666     2667     2656 
    2590     2613     2678     2714     2826     2975     3051     3119 
    3227     3310     3388     3520     3659     3794     3973     4129 
    4252     4407     4527     4575     4665     4785     4864     4993 
    5166     5233     5269     5366     5421     5421     5464     5509 
    5502     5541     5568     5485     5433     5447     5418     5404 
    5410     5347     5305     5347     5351     5356     5439     5458 
    5428     5464     5459     5391     5400     5449     5478     5568 
    5718     5848     5971     6102     6195     6255     6331     6404 
    6459     6521     6547     6559     6621     6637     6571     6538 
    6497     6385     6315     6242     6062     5892     5753     5553 
    5367     5244     5088     4927     4841     4746     4600     4472 
    4356     4179     3985     3842     3727     3651     3619     3554 
    3483     3476     3454     3427     3460     3443     3380     3404 
    3438     3418     3462     3510     3453     3423     3470     3477 
    3503     3622     3717     3761     3807     3812     3797     3846 
    3913     3964     4066     4191     4268     4329     4387     4425 
    4480     4563     4603     4635     4735     4816     4823     4839 
    4831     4785     4803     4853     4838     4842     4895     4911 
    4945     4989     4954     4926     4936     4896     4893     4965 
    4966     4969     5055     5067     5011     5017     5044     5046 
    5069     5108     5085     5023     4992     4969     4957     4977 
    4969     4919     4887     4857     4796     4770     4750     4681 
    4662     4702     4679     4645     4668     4679     4725     4831 
    4882     4896     4951     5005     5042     5113     5184     5197 
    5223     5274     5292     5324     5378     5414     5458     5533 
    5605     5645     5692     5734     5756     5817     5918     6004 
