Origin Time       2025/01/13 21:19:00
Lat.              31.8
Long.             131.6
Depth. (km)       30
Mag.              6.9
Station Code      KGW006
Station Lat.      34.2499
Station Long.     134.1856
Station Height(m) 71
Record Time       2025/01/13 21:21:27
Sampling Freq(Hz) 100Hz
Duration Time(s)  60
Dir.              U-D
Scale Factor      7845(gal)/8223790
Max. Acc. (gal)   0.809
Last Correction   2025/01/13 21:21:27
Memo.             
[...]
   14897    14922    14952    14968    14955    14944    14951    14962 
   14971    14971    14956    14931    14899    14883    14891    14912 
   14932    14952    14972    14975    14968    14980    15005    15013 
   15013    15026    15034    15005    14955    14921    14918    14943 
   14974    14994    14999    14994    14982    14966    14945    14917 
   14868    14804    14751    14719    14705    14704    14698    14681 
   14665    14666    14683    14702    14720    14742    14767    14789 
   14801    14802    14796    14783    14758    14720    14689    14679 
   14682    14688    14697    14720    14752    14786    14812    14829 
   14836    14831    14816    14800    14778    14766    14786    14825 
   14856    14875    14895    14922    14951    14980    15012    15045 
   15072    15075    15059    15044    15040    15060    15105    15155 
   15190    15207    15206    15191    15171    15137    15090    15034 
   14974    14918    14874    14832    14794    14778    14789    14805 
   14808    14798    14785    14787    14827    14878    14910    14914 
   14905    14908    14932    14968    14994    14998    14989    14976 
   14970    14978    14989    14994    14999    15002    15001    15003 
   15010    15020    15028    15032    15030    15025    15025    15041 
   15055    15044    15006    14964    14940    14925    14902    14877 
   14850    14813    14787    14790    14805    14798    14767    14743 
   14743    14750    14758    14770    14774    14767    14769    14785 
   14808    14827    14841    14852    14858    14854    14839    14829 
   14843    14867    14882    14881    14889    14902    14897    14879 
   14870    14872    14885    14894    14881    14852    14845    14882 
   14935    14978    15005    15018    15024    15025    15033    15057 
   15083    15091    15080    15067    15067    15066    15056    15044 
   15026    15005    15001    15006    14994    14964    14936    14914 
   14882    14836    14802    14798    14804    14808    14829    14866 
   14899    14935    14972    15001    15014    15013    14995    14966 
   14941    14924    14909    14898    14891    14893    14898    14905 
   14908    14905    14904    14912    14924    14936    14947    14953 
   14960    14967    14978    14986    14985    14983    14979    14968 
   14966    14982    15005    15020    15017    15006    14999    15002 
   15005    15001    14990    14986    15005    15040    15078    15105 
   15117    15117    15109    15105    15094    15063    15014    14964 
   14933    14922    14928    14937    14929    14912    14917    14944 
   14959    14953    14932    14894    14862    14870    14904    14925 
   14941    14968    15006    15043    15071    15095    15110    15102 
   15084    15079    15079    15061    15014    14949    14898    14868 
   14854    14843    14814    14773    14747    14744    14747    14750 
   14771    14808    14839    14858    14866    14863    14862    14874 
   14897    14918    14921    14906    14889    14859    14816    14782 
   14769    14755    14736    14719    14715    14724    14747    14781 
   14808    14820    14833    14858    14878    14883    14877    14854 
   14827    14814    14820    14835    14859    14882    14894    14901 
   14908    14904    14898    14898    14891    14875    14864    14868 
   14875    14877    14878    14874    14863    14864    14870    14859 
   14840    14824    14805    14789    14783    14801    14836    14871 
   14898    14912    14905    14891    14885    14883    14867    14831 
   14800    14794    14800    14801    14808    14827    14850    14870 
   14894    14925    14952    14971    14982    14994    15003    15003 
   14997    14983    14963    14941    14933    14935    14931    14914 
   14898    14889    14890    14899    14910    14910    14905    14912 
   14940    14980    15021    15055    15072    15068    15051    15022 
   14987    14955    14920    14887    14864    14848    14825    14808 
   14804    14800    14800    14821    14859    14898    14929    14944 
   14960    14987    15012    15029    15040    15039    15043    15067 
   15095    15105    15091    15067    15036    15006    14993    14990 
   14982    14975    14975    14972    14971    14978    14974    14960 
   14958    14960    14949    14928    14901    14872    14863    14868 
   14863    14847    14823    14798    14782    14771    14763    14756 
   14742    14715    14686    14661    14652    14656    14648    14632 
   14638    14670    14705    14735    14763    14785    14790    14790 
   14812    14839    14839    14823    14809    14790    14769    14762 
   14770    14777    14778    14774    14770    14775    14789    14804 
   14825    14852    14877    14899    14925    14948    14963    14972 
   14982    14987    14982    14967    14956    14947    14925    14894 
   14870    14847    14818    14808    14816    14817    14809    14808 
   14813    14823    14844    14877    14898    14909    14922    14943 
   14970    15006    15025    15024    15026    15049    15082    15125 
   15163    15182    15201    15222    15234    15234    15229    15219 
   15207    15190    15165    15134    15102    15066    15022    14982 
   14951    14928    14912    14904    14899    14890    14872    14862 
   14859    14859    14870    14887    14890    14875    14858    14836 
   14818    14813    14812    14805    14800    14793    14778    14760 
   14747    14737    14739    14763    14804    14844    14878    14904 
   14918    14914    14901    14891    14885    14875    14878    14885 
   14879    14875    14875    14870    14862    14850    14823    14787 
   14764    14752    14729    14693    14671    14661    14655    14663 
   14674    14661    14629    14600    14577    14565    14569    14580 
   14582    14580    14584    14597    14623    14671    14735    14790 
   14832    14882    14936    14967    14978    14982    14982    14983 
   15005    15043    15083    15113    15132    15149    15168    15198 
   15233    15252    15255    15252    15238    15221    15207    15188 
   15160    15134    15111    15093    15080    15075    15070    15068 
   15072    15067    15048    15028    15003    14975    14959    14951 
   14933    14914    14895    14875    14855    14832    14800    14764 
   14736    14723    14723    14731    14754    14779    14800    14821 
   14854    14898    14947    14993    15025    15047    15070    15094 
   15107    15120    15133    15130    15111    15090    15067    15053 
   15056    15061    15056    15041    15025    15010    14990    14971 
   14947    14906    14856    14817    14798    14787    14769    14746 
   14727    14700    14673    14656    14646    14642    14640    14634 
   14624    14632    14666    14712    14758    14793    14814    14832 
   14854    14877    14899    14918    14935    14939    14935    14935 
   14944    14952    14958    14962    14975    14998    15018    15032 
   15041    15036    15021    15013    15006    14995    14982    14967 
   14948    14933    14932    14941    14949    14949    14939    14928 
   14931    14944    14966    14993    15020    15051    15072    15070 
   15056    15056    15060    15063    15063    15057    15039    15009 
   14985    14975    14976    14972    14967    14974    14980    14976 
   14976    14993    15010    15017    15025    15040    15048    15041 
   15028    15024    15021    15007    15001    15007    15013    15017 
   15021    15014    14989    14960    14937    14912    14883    14859 
   14835    14804    14775    14756    14743    14725    14706    14692 
   14683    14688    14696    14689    14679    14675    14669    14663 
   14655    14632    14609    14596    14589    14589    14588    14585 
   14585    14585    14580    14585    14601    14624    14654    14682 
   14700    14719    14748    14789    14835    14881    14925    14963 
   14998    15043    15090    15134    15172    15196    15209    15213 
   15210    15198    15178    15157    15148    15156    15165    15160 
   15152    15142    15128    15111    15101    15090    15074    15055 
   15045    15052    15060    15060    15057    15059    15056    15051 
   15051    15049    15051    15061    15070    15067    15055    15043 
   15033    15026    15016    14999    14995    15010    15025    15025 
   15012    14991    14968    14948    14935    14922    14905    14890 
   14886    14894    14898    14885    14860    14850    14852    14864 
   14897    14940    14979    15012    15043    15072    15099    15117 
   15118    15103    15093    15086    15076    15067    15048    15017 
   14987    14968    14943    14898    14855    14828    14808    14785 
   14763    14751    14743    14736    14736    14744    14759    14781 
   14801    14816    14832    14851    14870    14899    14935    14956 
   14962    14958    14949    14939    14913    14870    14832    14805 
   14787    14781    14785    14794    14801    14802    14805    14817 
   14841    14874    14909    14945    14979    14995    15007    15014 
   15002    14972    14940    14904    14863    14820    14771    14723 
   14683    14659    14643    14635    14635    14640    14655    14675 
   14693    14708    14724    14736    14747    14762    14781    14793 
   14793    14785    14771    14758    14747    14733    14724    14731 
   14750    14766    14778    14794    14801    14794    14800    14818 
   14836    14852    14866    14878    14886    14895    14910    14928 
   14933    14936    14944    14962    14993    15029    15052    15064 
   15080    15098    15102    15098    15087    15071    15056    15029 
   14983    14937    14899    14862    14837    14845    14860    14867 
   14875    14886    14891    14895    14909    14944    14979    14995 
   15003    15013    15014    14998    14976    14956    14936    14918 
   14913    14925    14936    14933    14925    14932    14955    14982 
   15009    15037    15056    15063    15075    15103    15130    15142 
   15140    15121    15088    15049    15006    14956    14910    14867 
   14823    14774    14729    14694    14674    14665    14655    14647 
   14650    14663    14673    14677    14682    14698    14723    14748 
   14769    14783    14794    14810    14835    14858    14877    14891 
   14905    14922    14940    14956    14966    14975    14990    15009 
   15025    15036    15039    15033    15014    14990    14967    14956 
   14958    14948    14922    14897    14878    14866    14866    14881 
   14897    14904    14909    14926    14951    14976    15002    15028 
   15051    15066    15072    15082    15093    15090    15078    15057 
   15030    14993    14940    14887    14850    14818    14789    14766 
   14747    14728    14712    14705    14717    14742    14759    14773 
   14789    14794    14779    14764    14760    14760    14758    14747 
   14717    14682    14661    14650    14650    14652    14650    14659 
   14693    14744    14809    14878    14939    14987    15034    15090 
   15142    15188    15225    15249    15267    15284    15296    15298 
   15299    15304    15306    15307    15314    15323    15322    15309 
   15280    15244    15213    15187    15155    15122    15098    15079 
   15059    15045    15043    15029    15003    14982    14964    14941 
   14921    14909    14895    14879    14864    14854    14841    14817 
   14778    14733    14693    14658    14629    14616    14611    14607 
   14604    14611    14629    14659    14702    14758    14818    14875 
   14926    14970    15005    15033    15057    15076    15082    15068 
   15040    15010    14975    14929    14889    14859    14831    14808 
   14793    14771    14750    14736    14724    14712    14713    14728 
   14747    14770    14797    14818    14841    14874    14912    14941 
   14962    14978    14991    14993    14982    14972    14967    14966 
   14978    15010    15044    15075    15106    15130    15144    15153 
   15155    15144    15129    15118    15110    15110    15118    15114 
   15098    15084    15083    15088    15098    15107    15105    15086 
   15078    15083    15083    15078    15084    15097    15107    15121 
   15132    15129    15124    15136    15160    15176    15179    15182 
   15187    15180    15161    15140    15124    15110    15091    15072 
   15056    15043    15036    15029    15014    14991    14966    14932 
   14897    14868    14843    14816    14791    14767    14742    14723 
   14705    14690    14675    14655    14638    14635    14643    14648 
   14656    14682    14715    14740    14767    14793    14813    14832 
   14859    14895    14925    14945    14963    14972    14972    14970 
   14959    14935    14908    14881    14851    14817    14789    14773 
   14763    14747    14727    14713    14716    14729    14744    14752 
   14756    14755    14752    14750    14743    14728    14708    14688 
   14674    14671    14671    14663    14646    14629    14615    14602 
   14594    14588    14575    14555    14528    14497    14462    14424 
   14391    14364    14341    14319    14299    14278    14260    14249 
   14249    14246    14239    14246    14261    14270    14277    14280 
   14288    14307    14331    14361    14399    14442    14486    14535 
   14581    14628    14678    14727    14775    14825    14878    14926 
   14963    14989    15025    15076    15132    15195    15268    15336 
   15392    15441    15487    15542    15604    15661    15712    15746 
   15757    15753    15739    15718    15689    15646    15588    15538 
   15506    15458    15394    15342    15299    15252    15211    15183 
   15159    15129    15101    15072    15051    15047    15057    15071 
   15082    15083    15074    15063    15049    15028    15009    14989 
   14953    14914    14886    14870    14868    14872    14879    14890 
   14894    14887    14886    14894    14910    14936    14964    14983 
   14998    15010    15018    15018    15013    15005    14997    14986 
   14968    14941    14908    14874    14841    14809    14775    14739 
   14704    14671    14638    14604    14578    14553    14523    14494 
   14459    14413    14368    14334    14304    14272    14247    14235 
   14231    14235    14251    14274    14297    14323    14357    14399 
   14447    14497    14546    14596    14648    14697    14743    14794 
   14845    14887    14910    14922    14936    14941    14929    14913 
   14897    14879    14867    14862    14858    14852    14843    14831 
   14824    14820    14809    14798    14790    14779    14773    14775 
   14789    14802    14810    14817    14840    14870    14898    14925 
   14948    14959    14962    14962    14962    14972    14994    15014 
   15037    15066    15091    15113    15136    15167    15205    15241 
   15284    15337    15384    15423    15457    15480    15491    15493 
   15492    15489    15477    15453    15423    15390    15350    15314 
   15284    15252    15210    15169    15136    15106    15082    15066 
   15055    15059    15074    15084    15086    15087    15093    15102 
   15113    15126    15141    15155    15163    15165    15164    15163 
   15161    15156    15147    15141    15142    15134    15118    15102 
   15083    15061    15041    15016    14982    14939    14895    14863 
   14832    14796    14759    14725    14698    14678    14659    14646 
   14635    14625    14619    14621    14625    14625    14623    14617 
   14607    14600    14609    14623    14632    14655    14694    14728 
   14758    14787    14812    14827    14837    14850    14856    14850 
   14829    14804    14778    14750    14715    14679    14651    14624 
   14602    14593    14586    14573    14565    14570    14584    14607 
   14634    14659    14686    14716    14736    14746    14756    14769 
   14775    14781    14793    14809    14821    14828    14839    14856 
   14881    14909    14947    14995    15049    15093    15122    15151 
   15174    15179    15178    15180    15178    15165    15156    15141 
   15109    15074    15044    15007    14967    14936    14921    14906 
   14887    14864    14843    14831    14821    14813    14809    14810 
   14816    14832    14852    14868    14879    14889    14902    14920 
   14933    14944    14959    14972    14990    15013    15040    15076 
   15114    15147    15180    15210    15230    15249    15267    15284 
   15304    15329    15349    15361    15364    15360    15349    15338 
   15327    15310    15292    15272    15250    15237    15236    15237 
   15237    15242    15250    15248    15241    15240    15238    15221 
   15192    15168    15147    15118    15084    15057    15026    14986 
   14951    14929    14916    14906    14895    14877    14854    14837 
   14829    14829    14832    14833    14836    14848    14867    14893 
   14918    14936    14944    14956    14972    14989    15012    15033 
   15044    15043    15041    15041    15039    15033    15025    15010 
   14998    14993    14986    14979    14985    14990    14994    15005 
   15021    15033    15043    15057    15075    15095    15122    15140 
   15141    15134    15129    15117    15098    15074    15033    14985 
   14936    14883    14828    14775    14731    14688    14644    14604 
   14569    14547    14539    14532    14527    14523    14517    14519 
   14530    14535    14534    14535    14532    14517    14505    14499 
   14492    14492    14489    14478    14470    14473    14472    14465 
   14469    14480    14489    14507    14534    14563    14602    14640 
   14670    14705    14748    14798    14862    14925    14986    15052 
   15115    15175    15242    15302    15348    15383    15404    15415 
   15419    15415    15403    15384    15361    15338    15314    15291 
   15271    15249    15234    15226    15219    15228    15242    15257 
   15276    15286    15283    15276    15264    15255    15246    15236 
   15215    15187    15157    15126    15091    15057    15025    14989 
   14944    14898    14856    14820    14781    14732    14685    14643 
   14598    14559    14527    14485    14438    14399    14370    14361 
   14361    14366    14376    14386    14392    14399    14407    14411 
   14415    14422    14430    14442    14454    14454    14449    14458 
   14482    14508    14538    14567    14594    14619    14638    14648 
   14659    14667    14675    14681    14683    14686    14690    14693 
   14700    14713    14731    14755    14786    14813    14832    14848 
   14864    14878    14886    14889    14890    14899    14912    14929 
   14955    14979    15003    15034    15068    15098    15129    15157 
   15178    15195    15213    15225    15236    15241    15244    15244 
   15245    15249    15248    15228    15198    15174    15153    15130 
   15109    15091    15068    15040    15014    14991    14971    14956 
   14948    14940    14928    14918    14921    14926    14932    14944 
   14955    14963    14978    14995    15007    15014    15032    15060 
   15088    15115    15137    15151    15159    15161    15168    15190 
   15214    15232    15241    15241    15234    15225    15214    15198 
   15178    15161    15149    15136    15124    15110    15094    15072 
   15051    15026    15001    14979    14960    14933    14904    14881 
   14863    14845    14825    14802    14767    14723    14677    14636 
