Origin Time       2025/01/13 21:19:00
Lat.              31.8
Long.             131.6
Depth. (km)       30
Mag.              6.9
Station Code      KGW005
Station Lat.      34.1139
Station Long.     133.6353
Station Height(m) 1
Record Time       2025/01/13 21:20:53
Sampling Freq(Hz) 100Hz
Duration Time(s)  115
Dir.              N-S
Scale Factor      7845(gal)/8223790
Max. Acc. (gal)   4.740
Last Correction   2025/01/13 21:20:54
Memo.             
[...]
   -2054    -1881    -1772    -1745    -1710    -1732    -1871    -2065 
   -2319    -2581    -2668    -2601    -2544    -2493    -2412    -2340 
   -2284    -2266    -2366    -2531    -2654    -2752    -2795    -2702 
   -2551    -2403    -2247    -2166    -2142    -2046    -1973    -2050 
   -2095    -2073    -2254    -2596    -2848    -2987    -2982    -2779 
   -2529    -2299    -1957    -1583    -1422    -1458    -1551    -1659 
   -1680    -1582    -1502    -1470    -1414    -1337    -1219    -1043 
    -891     -738     -550     -529     -746     -986    -1143    -1264 
   -1345    -1479    -1710    -1810    -1726    -1695    -1701    -1652 
   -1669    -1734    -1707    -1683    -1767    -1786    -1663    -1570 
   -1533    -1466    -1409    -1352    -1262    -1277    -1399    -1478 
   -1528    -1601    -1686    -1837    -2019    -2138    -2266    -2409 
   -2405    -2255    -2042    -1769    -1563    -1548    -1602    -1647 
   -1764    -1887    -1929    -2014    -2169    -2280    -2392    -2524 
   -2550    -2560    -2673    -2662    -2459    -2361    -2404    -2420 
   -2390    -2295    -2166    -2133    -2126    -2034    -1973    -2069 
   -2224    -2309    -2369    -2416    -2349    -2187    -2015    -1890 
   -1922    -2106    -2249    -2340    -2451    -2463    -2369    -2340 
   -2328    -2212    -2130    -2169    -2266    -2409    -2489    -2403 
   -2288    -2208    -2091    -2012    -1991    -1926    -1841    -1777 
   -1725    -1711    -1707    -1678    -1733    -1895    -2008    -2092 
   -2246    -2350    -2353    -2369    -2343    -2209    -2106    -2015 
   -1837    -1759    -1872    -1987    -2108    -2281    -2327    -2236 
   -2211    -2228    -2130    -1922    -1644    -1251     -827     -519 
    -278      -74      -39     -176     -418     -702     -920    -1093 
   -1248    -1232    -1053     -934     -864     -729     -666     -688 
    -703     -881    -1223    -1463    -1624    -1867    -2092    -2185 
   -2214    -2193    -2110    -2029    -1948    -1867    -1885    -1966 
   -1976    -2012    -2199    -2409    -2585    -2756    -2809    -2720 
   -2579    -2408    -2251    -2127    -1988    -1858    -1823    -1877 
   -1949    -2053    -2157    -2150    -2130    -2211    -2249    -2184 
   -2158    -2134    -1991    -1827    -1746    -1779    -1984    -2242 
   -2357    -2388    -2428    -2434    -2413    -2362    -2197    -2007 
   -1948    -1944    -1883    -1806    -1729    -1682    -1668    -1593 
   -1498    -1512    -1559    -1478    -1250     -996     -872     -965 
   -1242    -1586    -1906    -2160    -2315    -2421    -2536    -2535 
   -2367    -2235    -2164    -1980    -1749    -1611    -1518    -1464 
   -1513    -1578    -1603    -1648    -1667    -1615    -1586    -1540 
   -1413    -1337    -1355    -1389    -1499    -1696    -1833    -1903 
   -1941    -1908    -1885    -1918    -1900    -1871    -1871    -1752 
   -1582    -1539    -1487    -1355    -1358    -1514    -1615    -1669 
   -1773    -1795    -1694    -1611    -1507    -1348    -1310    -1426 
   -1605    -1865    -2151    -2353    -2519    -2650    -2601    -2390 
   -2104    -1752    -1460    -1294    -1161    -1111    -1235    -1486 
   -1807    -2126    -2344    -2478    -2613    -2766    -2899    -3015 
   -3055    -2956    -2829    -2747    -2673    -2670    -2752    -2752 
   -2625    -2511    -2400    -2199    -2025    -1956    -1933    -1984 
   -2079    -2161    -2317    -2432    -2241    -1838    -1476    -1177 
   -1013    -1119    -1318    -1459    -1653    -1844    -1838    -1678 
   -1439    -1186    -1123    -1301    -1566    -1895    -2257    -2446 
   -2457    -2423    -2334    -2236    -2170    -2020    -1809    -1664 
   -1548    -1452    -1553    -1877    -2249    -2575    -2781    -2754 
   -2570    -2322    -1930    -1462    -1112     -903     -805     -831 
    -949    -1144    -1405    -1624    -1723    -1764    -1726    -1549 
   -1386    -1368    -1452    -1620    -1823    -1937    -2030    -2243 
   -2380    -2246    -2077    -2079    -2108    -2146    -2317    -2511 
   -2620    -2673    -2577    -2412    -2347    -2243    -2053    -1965 
   -1921    -1764    -1603    -1478    -1283    -1128    -1129    -1169 
   -1200    -1251    -1225    -1117    -1016     -963    -1077    -1402 
   -1776    -2068    -2301    -2497    -2593    -2593    -2600    -2589 
   -2523    -2479    -2454    -2389    -2297    -2222    -2245    -2404 
   -2587    -2685    -2731    -2745    -2728    -2702    -2565    -2266 
   -1981    -1779    -1628    -1630    -1771    -1841    -1842    -1922 
   -2019    -2054    -2108    -2165    -2142    -2088    -1989    -1753 
   -1475    -1294    -1244    -1387    -1661    -1887    -2025    -2091 
   -2026    -1910    -1891    -1896    -1845    -1810    -1748    -1603 
   -1547    -1651    -1769    -1853    -1904    -1840    -1671    -1433 
   -1061     -630     -325     -113       58       83      -99     -487 
    -993    -1440    -1777    -2014    -2083    -1983    -1821    -1669 
   -1487    -1254    -1132    -1206    -1383    -1706    -2196    -2616 
   -2852    -2978    -2995    -2967    -2945    -2813    -2602    -2448 
   -2226    -1908    -1694    -1563    -1487    -1583    -1763    -1957 
   -2273    -2600    -2721    -2690    -2536    -2177    -1834    -1738 
   -1784    -1885    -2034    -2127    -2199    -2365    -2535    -2620 
   -2639    -2535    -2315    -2093    -1876    -1721    -1782    -1952 
   -2014    -2033    -2088    -2050    -1887    -1686    -1507    -1436 
   -1468    -1483    -1516    -1725    -2047    -2290    -2452    -2608 
   -2689    -2637    -2533    -2416    -2286    -2192    -2100    -2085 
   -2296    -2536    -2589    -2585    -2551    -2324    -1991    -1664 
   -1343    -1162    -1140    -1163    -1285    -1532    -1779    -2016 
   -2277    -2398    -2297    -2146    -1952    -1640    -1389    -1260 
   -1142    -1057    -1012     -961     -959    -1040    -1151    -1305 
   -1516    -1653    -1641    -1590    -1601    -1668    -1780    -1896 
   -1923    -1800    -1549    -1258    -1082    -1084    -1128    -1154 
   -1269    -1501    -1771    -2052    -2323    -2529    -2636    -2585 
   -2358    -2042    -1741    -1575    -1599    -1659    -1633    -1649 
   -1733    -1718    -1647    -1636    -1609    -1578    -1701    -1881 
   -1952    -1983    -2007    -1992    -2064    -2204    -2184    -2066 
   -2073    -2145    -2178    -2235    -2285    -2257    -2234    -2282 
   -2350    -2417    -2490    -2556    -2621    -2687    -2720    -2698 
   -2640    -2569    -2475    -2370    -2324    -2396    -2560    -2704 
   -2728    -2691    -2725    -2891    -3140    -3308    -3311    -3253 
   -3198    -3061    -2882    -2816    -2810    -2771    -2754    -2724 
   -2637    -2601    -2605    -2544    -2486    -2430    -2247    -2069 
   -2025    -1976    -1949    -2062    -2176    -2181    -2161    -2076 
   -1899    -1796    -1730    -1529    -1344    -1320    -1301    -1233 
   -1209    -1201    -1178    -1171    -1156    -1143    -1182    -1206 
   -1186    -1224    -1286    -1270    -1208    -1098     -901     -631 
    -319      -89      -82     -198     -268     -390     -673     -947 
   -1123    -1329    -1551    -1714    -1861    -1899    -1705    -1420 
   -1201    -1007     -911    -1032    -1228    -1406    -1629    -1800 
   -1819    -1732    -1570    -1387    -1271    -1192    -1136    -1233 
   -1462    -1644    -1761    -1888    -2003    -2162    -2411    -2577 
   -2600    -2614    -2601    -2551    -2587    -2668    -2718    -2855 
   -3038    -3046    -2930    -2817    -2621    -2384    -2245    -2149 
   -2118    -2258    -2408    -2444    -2536    -2694    -2717    -2614 
   -2511    -2404    -2313    -2254    -2147    -2027    -2015    -2077 
   -2155    -2236    -2205    -2074    -2045    -2123    -2143    -2035 
   -1852    -1696    -1605    -1486    -1317    -1215    -1181    -1104 
   -1016    -1011    -1055    -1090    -1129    -1174    -1223    -1274 
   -1209    -1001     -843     -747     -606     -579     -780    -1019 
   -1190    -1356    -1502    -1622    -1760    -1854    -1846    -1780 
   -1629    -1453    -1487    -1701    -1880    -2042    -2219    -2319 
   -2398    -2523    -2617    -2716    -2805    -2702    -2527    -2516 
   -2594    -2678    -2803    -2867    -2797    -2660    -2486    -2295 
   -2177    -2153    -2147    -2110    -2068    -2081    -2147    -2214 
   -2239    -2228    -2195    -2116    -2043    -2120    -2309    -2463 
   -2612    -2728    -2662    -2525    -2540    -2650    -2724    -2736 
   -2637    -2421    -2214    -2076    -1989    -2026    -2195    -2369 
   -2512    -2574    -2447    -2297    -2324    -2371    -2323    -2351 
   -2444    -2432    -2363    -2255    -2060    -1888    -1813    -1745 
   -1606    -1368    -1089     -904     -861     -872     -884     -954 
   -1090    -1177    -1158    -1078    -1009     -999    -1015    -1051 
   -1201    -1439    -1599    -1660    -1690    -1652    -1564    -1506 
   -1432    -1370    -1412    -1478    -1548    -1672    -1729    -1707 
   -1776    -1891    -1919    -1915    -1873    -1733    -1665    -1734 
   -1755    -1773    -1895    -1950    -1879    -1830    -1830    -1853 
   -1958    -2065    -2050    -2041    -2135    -2180    -2180    -2319 
   -2516    -2616    -2651    -2573    -2355    -2164    -2033    -1895 
   -1786    -1668    -1517    -1471    -1526    -1572    -1680    -1829 
   -1864    -1836    -1845    -1842    -1786    -1688    -1553    -1467 
   -1540    -1738    -1964    -2219    -2500    -2693    -2817    -2951 
   -2944    -2747    -2519    -2297    -2095    -1980    -1914    -1860 
   -1838    -1786    -1705    -1767    -1946    -2045    -2080    -2118 
   -2092    -2029    -1953    -1791    -1659    -1701    -1748    -1719 
   -1779    -1890    -1950    -2089    -2278    -2326    -2265    -2220 
   -2196    -2176    -2139    -2056    -2037    -2160    -2276    -2371 
   -2592    -2839    -2984    -3094    -3132    -3032    -2911    -2817 
   -2635    -2448    -2400    -2378    -2343    -2354    -2357    -2366 
   -2394    -2293    -2072    -1888    -1738    -1597    -1559    -1601 
   -1598    -1560    -1490    -1332    -1173    -1073     -966     -881 
    -881     -913     -939    -1024    -1165    -1317    -1537    -1764 
   -1849    -1880    -1944    -1899    -1779    -1749    -1726    -1632 
   -1516    -1335    -1163    -1150    -1198    -1242    -1387    -1591 
   -1748    -1871    -1899    -1823    -1815    -1904    -1925    -1838 
   -1656    -1340    -1046     -916     -772     -496     -298     -275 
    -297     -357     -471     -511     -496     -508     -442     -294 
    -255     -351     -465     -594     -706     -679     -553     -472 
    -503     -646     -799     -872     -954    -1090    -1165    -1159 
   -1190    -1270    -1341    -1378    -1377    -1368    -1366    -1314 
   -1248    -1246    -1232    -1169    -1243    -1493    -1759    -2034 
   -2315    -2515    -2675    -2863    -3078    -3358    -3666    -3877 
   -4004    -4125    -4207    -4255    -4341    -4407    -4396    -4382 
   -4359    -4255    -4133    -4095    -4063    -4018    -4045    -3991 
   -3784    -3639    -3582    -3458    -3312    -3230    -3121    -2970 
   -2853    -2736    -2631    -2583    -2493    -2346    -2280    -2319 
   -2376    -2425    -2450    -2412    -2380    -2357    -2250    -2096 
   -1966    -1860    -1822    -1833    -1771    -1718    -1815    -1957 
   -2077    -2220    -2304    -2273    -2230    -2187    -2074    -1973 
   -1937    -1871    -1796    -1771    -1699    -1543    -1375    -1242 
   -1169    -1171    -1179    -1121    -1050    -1038    -1034     -981 
    -888     -780     -704     -643     -550     -495     -471     -383 
    -271     -139      129      461      665      747      797      814 
     827      869      868      843      853      819      706      638 
     672      676      606      526      418      298      207       97 
     -43     -126     -172     -253     -338     -422     -513     -554 
    -622     -781     -926    -1059    -1283    -1485    -1582    -1663 
   -1701    -1698    -1810    -2004    -2119    -2212    -2377    -2520 
   -2621    -2755    -2868    -2926    -3028    -3203    -3418    -3717 
   -4064    -4336    -4557    -4774    -4927    -4993    -4996    -4922 
   -4795    -4700    -4630    -4594    -4668    -4799    -4946    -5150 
   -5329    -5418    -5463    -5429    -5306    -5177    -5028    -4841 
   -4693    -4581    -4436    -4236    -3985    -3716    -3493    -3303 
   -3080    -2844    -2671    -2558    -2523    -2609    -2710    -2724 
   -2751    -2798    -2701    -2501    -2336    -2188    -2089    -2128 
   -2207    -2222    -2227    -2238    -2218    -2195    -2158    -2056 
   -1935    -1826    -1657    -1452    -1277    -1152    -1129    -1146 
   -1061     -919     -804     -649     -456     -333     -202       10 
     184      294      430      565      680      849     1031     1139 
    1236     1347     1414     1521     1717     1896     1998     2046 
    2052     2010     1939     1845     1723     1621     1561     1479 
    1366     1243     1053      799      500      149     -148     -306 
    -442     -635     -774     -865    -1004    -1144    -1281    -1463 
   -1615    -1729    -1885    -2052    -2193    -2390    -2660    -2957 
   -3260    -3534    -3778    -4037    -4279    -4484    -4733    -5035 
   -5317    -5607    -5915    -6150    -6319    -6501    -6669    -6777 
   -6843    -6848    -6818    -6837    -6859    -6786    -6656    -6524 
   -6326    -6062    -5826    -5564    -5250    -5000    -4796    -4577 
   -4406    -4240    -3983    -3711    -3451    -3142    -2871    -2662 
   -2381    -2072    -1846    -1636    -1404    -1246    -1152    -1019 
    -858     -735     -589     -379     -183      -33       71       94 
      68       82      113      106       95      110      153      217 
     245      244      272      321      410      540      604      606 
     639      677      664      692      753      712      649      652 
     637      623      662      683      650      579      440      243 
      21     -225     -476     -680     -841     -969    -1043    -1142 
   -1327    -1501    -1595    -1668    -1744    -1814    -1939    -2143 
   -2362    -2548    -2629    -2555    -2417    -2243    -1998    -1775 
   -1656    -1582    -1533    -1518    -1462    -1374    -1352    -1341 
   -1321    -1412    -1548    -1601    -1679    -1864    -2043    -2214 
   -2462    -2712    -2917    -3154    -3396    -3582    -3771    -3986 
   -4206    -4459    -4747    -5005    -5215    -5385    -5490    -5556 
   -5624    -5672    -5682    -5633    -5541    -5447    -5336    -5135 
   -4847    -4568    -4275    -3910    -3585    -3326    -2991    -2612 
   -2301    -1968    -1586    -1317    -1142     -928     -722     -561 
    -390     -222      -90       22       87       58      -16      -68 
     -98     -118     -157     -194     -187     -166     -144      -90 
     -63     -128     -221     -272     -337     -411     -433     -465 
    -554     -657     -765     -903    -1034    -1120    -1170    -1193 
   -1192    -1165    -1086     -977     -916     -893     -868     -908 
   -1030    -1154    -1279    -1408    -1467    -1482    -1517    -1536 
   -1555    -1656    -1760    -1782    -1771    -1738    -1687    -1675 
   -1644    -1539    -1455    -1398    -1270    -1134    -1062     -978 
    -899     -927    -1001    -1039    -1075    -1112    -1117    -1169 
   -1267    -1302    -1327    -1432    -1547    -1686    -1898    -2085 
   -2266    -2552    -2837    -3018    -3183    -3354    -3473    -3582 
   -3716    -3794    -3802    -3802    -3823    -3854    -3892    -3937 
   -3985    -4020    -4039    -4047    -4040    -4005    -3935    -3848 
   -3728    -3580    -3437    -3254    -3042    -2894    -2772    -2609 
   -2482    -2442    -2408    -2396    -2455    -2489    -2479    -2546 
   -2658    -2735    -2829    -2971    -3086    -3145    -3132    -2990 
   -2803    -2678    -2558    -2459    -2465    -2512    -2511    -2479 
   -2434    -2340    -2191    -1969    -1680    -1426    -1235    -1012 
    -793     -649     -476     -248      -79       48      175      256 
     353      515      650      731      804      842      831      814 
     807      827      909     1039     1142     1185     1166     1067 
     924      805      716      641      560      450      361      379 
     464      504      521      530      456      309      120     -155 
    -446     -658     -858    -1035    -1117    -1182    -1258    -1297 
   -1363    -1512    -1694    -1910    -2191    -2481    -2767    -3083 
   -3376    -3611    -3801    -3952    -4089    -4237    -4369    -4448 
   -4525    -4656    -4792    -4920    -5042    -5097    -5100    -5113 
   -5108    -5059    -5044    -5055    -5035    -5062    -5131    -5136 
   -5146    -5223    -5269    -5277    -5289    -5186    -4980    -4822 
   -4687    -4514    -4382    -4295    -4183    -4070    -3963    -3788 
   -3578    -3362    -3100    -2822    -2486    -2047    -1628    -1302 
    -988     -672     -454     -318     -221     -232     -306     -351 
    -432     -537     -576     -608     -669     -665     -658     -772 
    -911     -978    -1051    -1129    -1161    -1202    -1267    -1313 
   -1354    -1404    -1451    -1479    -1455    -1387    -1337    -1294 
   -1198    -1094    -1040     -984     -911     -855     -774     -638 
    -500     -333     -103       79      174      259      314      310 
     314      322      306      334      410      484      571      645 
     626      541      468      365      206       41     -180     -469 
    -702     -922    -1206    -1431    -1544    -1647    -1740    -1817 
   -2000    -2292    -2539    -2749    -3002    -3208    -3368    -3561 
   -3719    -3844    -4002    -4117    -4207    -4390    -4558    -4649 
   -4799    -4968    -5044    -5094    -5143    -5127    -5051    -4972 
   -4918    -4860    -4708    -4411    -4067    -3765    -3470    -3157 
   -2845    -2529    -2205    -1891    -1564    -1204     -872     -626 
    -450     -337     -271     -213     -216     -294     -349     -423 
    -596     -766     -913    -1123    -1328    -1459    -1576    -1687 
   -1749    -1813    -1941    -2081    -2227    -2424    -2590    -2714 
   -2880    -2979    -2991    -3065    -3126    -3082    -3040    -2986 
   -2829    -2679    -2609    -2515    -2417    -2354    -2176    -1902 
   -1641    -1354    -1101     -992     -922     -800     -722     -716 
    -691     -666     -668     -679     -764     -885     -954    -1038 
   -1134    -1136    -1100    -1086    -1019     -946     -974     -990 
    -943     -936     -897     -764     -702     -746     -765     -805 
    -949    -1102    -1219    -1350    -1494    -1628    -1791    -1973 
   -2134    -2312    -2500    -2648    -2786    -2955    -3118    -3245 
   -3352    -3430    -3461    -3469    -3426    -3279    -3082    -2880 
   -2671    -2505    -2393    -2285    -2236    -2262    -2243    -2172 
   -2088    -1931    -1709    -1472    -1193     -927     -772     -666 
    -581     -576     -592     -571     -583     -635     -676     -785 
    -959    -1069    -1131    -1185    -1159    -1063     -989     -924 
    -810     -681     -553     -403     -295     -259     -194     -139 
