Origin Time       2025/01/13 21:19:00
Lat.              31.8
Long.             131.6
Depth. (km)       30
Mag.              6.9
Station Code      KGW006
Station Lat.      34.2499
Station Long.     134.1856
Station Height(m) 71
Record Time       2025/01/13 21:21:27
Sampling Freq(Hz) 100Hz
Duration Time(s)  60
Dir.              E-W
Scale Factor      7845(gal)/8223790
Max. Acc. (gal)   1.636
Last Correction   2025/01/13 21:21:27
Memo.             
[...]
    4785     4781     4791     4801     4818     4850     4889     4911 
    4901     4872     4831     4776     4715     4668     4630     4595 
    4568     4553     4556     4571     4568     4540     4502     4464 
    4426     4388     4367     4395     4473     4577     4688     4783 
    4851     4905     4955     5009     5061     5084     5077     5067 
    5066     5076     5103     5148     5211     5262     5282     5287 
    5285     5265     5236     5213     5192     5146     5065     4962 
    4873     4814     4793     4814     4860     4907     4938     4947 
    4932     4892     4837     4784     4747     4725     4700     4661 
    4625     4617     4627     4637     4649     4660     4668     4665 
    4650     4630     4606     4581     4573     4581     4599     4615 
    4625     4623     4622     4637     4665     4679     4657     4627 
    4629     4664     4719     4773     4810     4818     4803     4774 
    4749     4731     4723     4749     4830     4949     5071     5170 
    5228     5256     5287     5331     5366     5373     5350     5308 
    5262     5219     5182     5157     5136     5103     5055     5013 
    4984     4959     4932     4903     4874     4850     4837     4845 
    4865     4870     4847     4806     4764     4739     4737     4734 
    4722     4706     4681     4646     4621     4619     4650     4712 
    4784     4845     4891     4926     4947     4951     4942     4935 
    4943     4953     4955     4959     4969     4986     5007     5024 
    5042     5067     5096     5109     5108     5117     5136     5134 
    5111     5084     5051     5007     4963     4935     4918     4897 
    4864     4830     4826     4855     4901     4945     4974     4988 
    4982     4947     4881     4801     4723     4660     4606     4538 
    4461     4396     4359     4351     4372     4436     4533     4637 
    4714     4761     4788     4803     4814     4827     4847     4855 
    4838     4799     4743     4687     4650     4645     4672     4738 
    4834     4928     4985     4993     4968     4923     4866     4807 
    4756     4725     4706     4698     4707     4733     4769     4811 
    4847     4876     4893     4903     4908     4907     4900     4901 
    4909     4909     4900     4889     4892     4909     4932     4943 
    4942     4947     4976     5008     5020     5017     5007     4990 
    4981     4977     4970     4968     4976     4990     4999     5000 
    5011     5027     5030     5022     5019     5022     5026     5019 
    4993     4958     4924     4896     4881     4884     4896     4901 
    4889     4864     4834     4806     4769     4720     4681     4664 
    4654     4646     4637     4622     4611     4604     4598     4591 
    4584     4564     4526     4494     4499     4534     4576     4625 
    4687     4752     4819     4887     4941     4978     5000     5009 
    5019     5030     5035     5053     5084     5120     5152     5166 
    5150     5119     5085     5051     5012     4972     4935     4889 
    4835     4787     4746     4707     4673     4664     4695     4761 
    4847     4945     5039     5123     5189     5227     5235     5216 
    5169     5104     5030     4942     4847     4764     4692     4630 
    4575     4529     4491     4455     4418     4382     4353     4342 
    4356     4376     4396     4433     4482     4517     4540     4579 
    4650     4737     4815     4878     4941     5003     5047     5069 
    5082     5094     5109     5136     5177     5211     5208     5167 
    5113     5059     5011     4969     4926     4880     4846     4843 
    4855     4870     4897     4939     4977     4999     4999     4996 
    4996     4986     4966     4947     4934     4922     4908     4897 
    4881     4850     4819     4804     4806     4812     4814     4816 
    4826     4833     4826     4807     4784     4772     4773     4783 
    4792     4789     4787     4796     4803     4812     4837     4872 
    4923     4996     5081     5157     5212     5243     5255     5255 
    5239     5206     5157     5078     4976     4876     4791     4725 
    4673     4635     4606     4580     4560     4550     4556     4580 
    4617     4657     4703     4735     4741     4722     4685     4642 
    4611     4603     4600     4596     4608     4652     4716     4796 
    4885     4968     5038     5098     5128     5112     5061     5003 
    4953     4908     4872     4853     4857     4869     4882     4905 
    4942     5000     5077     5150     5196     5220     5233     5243 
    5244     5225     5196     5162     5117     5058     4996     4942 
    4896     4855     4822     4789     4742     4679     4618     4573 
    4541     4527     4541     4558     4558     4545     4523     4488 
    4452     4426     4411     4407     4422     4452     4494     4542 
    4585     4614     4627     4634     4637     4635     4637     4642 
    4649     4661     4679     4702     4725     4754     4801     4862 
    4924     4978     5026     5057     5061     5049     5027     4992 
    4947     4897     4843     4804     4792     4796     4803     4811 
    4812     4801     4780     4747     4712     4680     4660     4654 
    4658     4662     4661     4661     4677     4707     4741     4773 
    4811     4851     4882     4899     4912     4919     4916     4909 
    4907     4911     4924     4947     4976     5007     5027     5035 
    5051     5086     5121     5146     5158     5150     5116     5062 
    5000     4934     4866     4810     4772     4761     4770     4785 
    4799     4816     4841     4860     4866     4862     4849     4830 
    4818     4815     4824     4838     4857     4881     4908     4935 
    4959     4981     4995     4988     4957     4914     4878     4862 
    4846     4827     4826     4842     4865     4900     4936     4972 
    5007     5036     5057     5062     5044     5005     4961     4930 
    4914     4911     4912     4900     4877     4842     4789     4727 
    4658     4579     4496     4426     4367     4302     4233     4166 
    4112     4090     4112     4170     4245     4326     4401     4461 
    4522     4590     4646     4698     4754     4804     4845     4885 
    4931     4981     5043     5125     5211     5283     5343     5389 
    5428     5475     5525     5560     5564     5547     5520     5478 
    5416     5343     5281     5232     5192     5150     5104     5046 
    4970     4884     4806     4753     4715     4673     4627     4576 
    4513     4436     4360     4288     4229     4198     4199     4234 
    4297     4367     4434     4506     4588     4679     4769     4853 
    4931     4992     5032     5066     5109     5171     5250     5328 
    5393     5436     5466     5485     5491     5494     5494     5476 
    5431     5366     5294     5215     5132     5054     4989     4947 
    4916     4888     4865     4851     4855     4869     4874     4870 
    4868     4864     4845     4818     4799     4801     4812     4819 
    4819     4820     4839     4869     4892     4908     4926     4945 
    4950     4935     4916     4914     4932     4962     4995     5030 
    5058     5073     5071     5055     5034     5009     4986     4961 
    4936     4916     4896     4861     4818     4792     4800     4839 
    4885     4919     4932     4927     4908     4885     4862     4838 
    4811     4779     4741     4702     4662     4630     4614     4607 
    4604     4612     4631     4645     4652     4666     4692     4726 
    4765     4803     4841     4877     4909     4935     4959     4988 
    5022     5054     5077     5084     5065     5031     4989     4943 
    4907     4888     4880     4866     4846     4827     4823     4833 
    4841     4841     4838     4839     4834     4818     4803     4787 
    4772     4768     4773     4780     4780     4772     4758     4756 
    4773     4818     4874     4930     4986     5040     5069     5054 
    5015     4977     4947     4927     4922     4926     4930     4922 
    4889     4846     4803     4758     4722     4693     4673     4662 
    4662     4669     4681     4704     4737     4772     4811     4853 
    4889     4916     4936     4946     4930     4888     4838     4791 
    4752     4725     4715     4727     4766     4826     4893     4954 
    5004     5050     5090     5109     5105     5090     5074     5070 
    5074     5080     5093     5116     5136     5157     5179     5202 
    5224     5246     5258     5251     5223     5177     5121     5071 
    5026     4974     4928     4895     4861     4827     4791     4746 
    4700     4666     4649     4639     4639     4653     4681     4712 
    4738     4756     4762     4753     4731     4706     4691     4685 
    4677     4662     4648     4634     4612     4573     4522     4472 
    4421     4365     4318     4278     4251     4237     4245     4282 
    4342     4407     4469     4533     4590     4625     4644     4662 
    4691     4731     4781     4833     4881     4915     4922     4915 
    4914     4914     4911     4911     4908     4907     4907     4914 
    4927     4947     4957     4951     4946     4938     4924     4911 
    4899     4895     4896     4905     4927     4963     4997     5005 
    4988     4947     4881     4803     4720     4637     4558     4483 
    4414     4356     4310     4288     4294     4320     4361     4415 
    4465     4499     4514     4526     4540     4556     4573     4583 
    4585     4588     4588     4588     4600     4625     4644     4653 
    4654     4656     4652     4631     4600     4563     4513     4459 
    4411     4365     4329     4317     4340     4390     4461     4552 
    4646     4737     4815     4876     4922     4957     4986     5023 
    5061     5090     5117     5139     5144     5136     5123     5112 
    5097     5086     5081     5081     5088     5096     5107     5123 
    5143     5163     5175     5175     5167     5155     5132     5100 
    5062     5017     4962     4895     4814     4722     4635     4572 
    4526     4495     4492     4518     4553     4591     4631     4673 
    4719     4776     4837     4900     4972     5049     5121     5184 
    5223     5240     5238     5220     5198     5175     5147     5112 
    5076     5040     5004     4969     4935     4905     4891     4893 
    4899     4901     4904     4909     4916     4923     4942     4980 
    5038     5119     5221     5333     5435     5514     5572     5611 
    5633     5634     5622     5603     5570     5520     5460     5394 
    5314     5225     5128     5027     4932     4857     4797     4754 
    4727     4712     4703     4695     4696     4710     4735     4758 
    4780     4800     4826     4862     4908     4950     4982     5003 
    5005     4999     4989     4977     4950     4907     4854     4793 
    4726     4665     4622     4595     4581     4576     4585     4606 
    4629     4656     4680     4693     4704     4712     4720     4722 
    4711     4687     4657     4621     4569     4509     4452     4401 
    4351     4303     4256     4207     4167     4137     4116     4106 
    4110     4116     4114     4109     4112     4131     4171     4234 
    4311     4391     4459     4509     4544     4568     4588     4608 
    4639     4684     4737     4799     4878     4969     5050     5121 
    5186     5246     5306     5367     5421     5467     5499     5516 
    5509     5471     5408     5331     5246     5157     5066     4976 
    4888     4803     4726     4656     4576     4479     4365     4252 
    4152     4077     4023     3985     3963     3963     3983     4023 
    4082     4158     4240     4330     4425     4519     4617     4712 
    4807     4897     4978     5049     5107     5152     5185     5188 
    5165     5124     5061     4978     4888     4796     4716     4660 
    4626     4614     4625     4656     4698     4749     4804     4851 
    4885     4900     4893     4878     4866     4861     4869     4893 
    4927     4974     5036     5108     5177     5227     5256     5270 
    5275     5275     5265     5232     5174     5090     4988     4887 
    4793     4714     4650     4606     4572     4544     4523     4515 
    4510     4509     4511     4511     4510     4514     4529     4552 
    4583     4621     4666     4714     4745     4766     4797     4838 
    4893     4976     5074     5171     5259     5333     5386     5410 
    5405     5375     5332     5286     5244     5208     5171     5135 
    5100     5065     5028     4995     4958     4912     4862     4811 
    4761     4716     4679     4654     4652     4653     4658     4675 
    4699     4725     4756     4800     4854     4918     4996     5076 
    5139     5189     5231     5262     5296     5341     5386     5431 
    5479     5518     5548     5568     5575     5576     5564     5532 
    5494     5455     5406     5347     5292     5246     5211     5177 
    5142     5105     5065     5019     4970     4926     4892     4872 
    4868     4876     4897     4932     4978     5035     5103     5184 
    5270     5350     5418     5479     5525     5556     5580     5606 
    5629     5643     5647     5652     5659     5668     5690     5717 
    5740     5755     5748     5715     5660     5590     5510     5421 
    5324     5229     5142     5050     4951     4845     4722     4576 
    4415     4252     4089     3932     3788     3658     3551     3470 
    3408     3352     3295     3240     3191     3156     3145     3176 
    3237     3302     3366     3439     3526     3622     3724     3829 
    3940     4059     4178     4294     4407     4517     4619     4707 
    4785     4869     4946     5005     5058     5108     5150     5179 
    5201     5223     5243     5256     5259     5254     5240     5221 
    5197     5165     5125     5092     5070     5053     5034     5017 
    5000     4981     4961     4928     4878     4816     4747     4669 
    4581     4494     4414     4353     4321     4315     4328     4353 
    4383     4423     4487     4569     4665     4772     4893     5026 
    5151     5269     5381     5498     5630     5773     5914     6041 
    6150     6238     6301     6336     6338     6308     6254     6177 
    6072     5948     5818     5691     5566     5439     5306     5163 
    5023     4892     4772     4657     4554     4464     4392     4344 
    4322     4330     4363     4410     4461     4514     4567     4608 
    4631     4637     4622     4590     4550     4511     4475     4441 
    4413     4398     4405     4441     4494     4549     4599     4638 
    4668     4699     4726     4749     4776     4803     4824     4841 
    4847     4847     4851     4860     4869     4876     4870     4853 
    4828     4810     4795     4776     4752     4727     4699     4668 
    4631     4584     4533     4488     4456     4438     4438     4455 
    4487     4526     4564     4596     4615     4631     4654     4680 
    4702     4727     4769     4830     4897     4972     5051     5128 
    5192     5225     5227     5208     5174     5130     5078     5022 
    4972     4927     4888     4866     4869     4896     4938     4982 
    5022     5053     5082     5113     5148     5192     5235     5275 
    5319     5366     5406     5432     5444     5451     5459     5459 
    5452     5448     5443     5429     5412     5393     5375     5355 
    5336     5325     5314     5293     5260     5216     5161     5098 
    5036     4985     4946     4909     4872     4830     4784     4737 
    4691     4645     4604     4575     4552     4529     4511     4498 
    4484     4472     4472     4494     4533     4580     4630     4683 
    4743     4811     4878     4945     5007     5069     5125     5162 
    5174     5162     5128     5076     5009     4928     4831     4716 
    4598     4483     4375     4280     4203     4137     4078     4024 
    3982     3955     3946     3954     3969     3985     3998     4014 
    4044     4093     4155     4232     4321     4415     4515     4622 
    4738     4870     5016     5167     5331     5502     5670     5821 
    5946     6038     6095     6124     6138     6137     6122     6091 
    6042     5973     5888     5799     5711     5622     5530     5448 
    5373     5293     5209     5115     5009     4901     4789     4673 
    4565     4476     4401     4334     4283     4239     4195     4152 
    4106     4070     4044     4031     4036     4058     4086     4116 
    4135     4143     4145     4148     4148     4155     4176     4212 
    4261     4337     4434     4542     4650     4752     4849     4946 
    5035     5124     5216     5298     5367     5427     5466     5482 
    5472     5436     5381     5321     5269     5231     5200     5161 
    5103     5030     4942     4847     4750     4648     4538     4432 
    4329     4210     4071     3931     3802     3692     3612     3573 
    3561     3566     3588     3627     3688     3769     3871     3993 
    4124     4259     4391     4523     4656     4785     4912     5032 
    5128     5204     5259     5290     5306     5316     5325     5335 
    5347     5356     5354     5346     5339     5328     5321     5320 
    5316     5306     5304     5308     5319     5339     5368     5397 
    5425     5458     5485     5510     5544     5583     5621     5655 
    5679     5698     5706     5701     5680     5651     5613     5575 
    5544     5514     5486     5464     5451     5441     5437     5440 
    5441     5433     5416     5382     5327     5256     5174     5080 
    4982     4882     4776     4666     4563     4465     4384     4320 
    4260     4210     4171     4137     4106     4079     4063     4055 
    4054     4058     4064     4062     4054     4044     4043     4055 
    4075     4104     4131     4149     4166     4187     4206     4228 
    4260     4297     4336     4372     4396     4415     4436     4464 
    4510     4568     4641     4727     4814     4896     4974     5049 
    5124     5202     5287     5378     5472     5560     5633     5697 
    5748     5778     5782     5764     5736     5702     5665     5622 
    5567     5498     5422     5346     5275     5219     5171     5128 
    5085     5043     5005     4972     4939     4911     4899     4901 
    4907     4914     4928     4943     4951     4963     4988     5015 
    5046     5076     5108     5143     5167     5179     5181     5171 
    5157     5140     5124     5101     5076     5043     5007     4974 
    4947     4923     4900     4876     4847     4815     4773     4720 
    4664     4603     4541     4482     4422     4369     4336     4314 
    4294     4274     4256     4239     4212     4174     4135     4095 
    4058     4025     4005     4000     4005     4017     4031     4048 
    4077     4116     4159     4205     4259     4315     4367     4405 
    4425     4440     4461     4496     4548     4600     4644     4671 
    4676     4660     4637     4621     4602     4580     4567     4563 
    4565     4584     4618     4662     4711     4766     4824     4873 
    4918     4966     5011     5047     5082     5107     5111     5101 
    5088     5070     5050     5034     5031     5043     5058     5071 
    5092     5113     5128     5147     5166     5173     5173     5173 
