Origin Time       2025/01/13 21:19:00
Lat.              31.8
Long.             131.6
Depth. (km)       30
Mag.              6.9
Station Code      KGW006
Station Lat.      34.2499
Station Long.     134.1856
Station Height(m) 71
Record Time       2025/01/13 21:21:27
Sampling Freq(Hz) 100Hz
Duration Time(s)  60
Dir.              N-S
Scale Factor      7845(gal)/8223790
Max. Acc. (gal)   1.106
Last Correction   2025/01/13 21:21:27
Memo.             
[...]
    2816     2879     2957     3051     3148     3227     3288     3331 
    3357     3365     3356     3325     3283     3250     3231     3215 
    3191     3165     3152     3157     3184     3226     3269     3302 
    3311     3295     3256     3204     3148     3084     3017     2955 
    2907     2879     2863     2859     2870     2903     2968     3040 
    3082     3095     3096     3086     3071     3063     3056     3048 
    3044     3046     3063     3079     3087     3100     3114     3114 
    3096     3059     3005     2948     2894     2845     2808     2779 
    2751     2731     2727     2720     2695     2658     2612     2550 
    2475     2403     2353     2338     2358     2393     2425     2455 
    2490     2531     2581     2644     2727     2830     2943     3056 
    3168     3260     3327     3376     3411     3438     3460     3469 
    3470     3478     3491     3507     3523     3526     3515     3496 
    3461     3411     3356     3314     3289     3267     3235     3192 
    3152     3119     3091     3065     3048     3034     3022     3014 
    3013     3001     2968     2926     2886     2852     2828     2821 
    2830     2851     2886     2932     2978     3014     3048     3084 
    3122     3149     3163     3167     3168     3171     3181     3202 
    3217     3230     3256     3291     3331     3370     3397     3406 
    3391     3364     3327     3276     3208     3126     3040     2963 
    2895     2851     2833     2828     2828     2837     2860     2890 
    2918     2938     2944     2938     2922     2886     2826     2764 
    2717     2689     2677     2679     2695     2717     2740     2771 
    2810     2847     2878     2895     2905     2914     2917     2920 
    2937     2961     2987     3013     3045     3090     3152     3219 
    3277     3314     3325     3315     3299     3281     3258     3217 
    3146     3061     2994     2947     2907     2868     2832     2813 
    2816     2830     2853     2891     2943     2982     3003     3022 
    3040     3048     3045     3045     3046     3051     3055     3045 
    3019     2992     2963     2928     2894     2868     2857     2859 
    2871     2891     2920     2945     2965     2975     2979     2983 
    2978     2938     2874     2801     2735     2681     2639     2614 
    2612     2637     2689     2752     2826     2920     3032     3145 
    3250     3339     3414     3472     3520     3550     3559     3549 
    3523     3493     3472     3465     3472     3476     3468     3447 
    3411     3357     3289     3214     3134     3057     2991     2933 
    2875     2816     2760     2709     2660     2616     2573     2527 
    2478     2431     2396     2386     2392     2407     2442     2501 
    2562     2608     2640     2671     2718     2785     2871     2960 
    3038     3105     3154     3186     3203     3213     3213     3207 
    3198     3187     3181     3180     3186     3192     3195     3199 
    3213     3230     3235     3225     3207     3194     3180     3167 
    3161     3154     3145     3142     3140     3132     3118     3102 
    3084     3065     3044     3033     3030     3026     3019     3014 
    3006     3003     3009     3018     3026     3034     3052     3080 
    3109     3125     3121     3103     3088     3078     3072     3086 
    3113     3134     3159     3196     3238     3277     3318     3357 
    3381     3381     3357     3329     3294     3248     3199     3152 
    3111     3090     3087     3092     3095     3095     3096     3088 
    3064     3029     2990     2951     2926     2916     2913     2911 
    2902     2880     2851     2826     2806     2776     2733     2683 
    2633     2587     2544     2505     2471     2443     2427     2427 
    2439     2457     2470     2485     2508     2536     2577     2631 
    2695     2772     2870     2984     3109     3229     3339     3447 
    3554     3642     3701     3742     3777     3807     3832     3858 
    3877     3882     3879     3862     3825     3780     3732     3688 
    3642     3591     3531     3451     3352     3246     3144     3041 
    2945     2870     2816     2764     2709     2658     2616     2586 
    2577     2590     2624     2663     2698     2735     2776     2825 
    2880     2934     2994     3059     3125     3195     3250     3287 
    3310     3327     3348     3373     3402     3430     3445     3439 
    3423     3389     3338     3277     3214     3153     3107     3073 
    3034     2986     2926     2857     2791     2737     2691     2640 
    2585     2536     2509     2511     2536     2575     2614     2647 
    2681     2716     2745     2767     2778     2791     2813     2840 
    2882     2941     3015     3095     3171     3246     3319     3379 
    3427     3477     3526     3573     3623     3666     3689     3700 
    3703     3696     3676     3651     3631     3607     3576     3531 
    3473     3411     3348     3285     3233     3186     3133     3082 
    3033     2983     2940     2910     2887     2875     2879     2891 
    2914     2948     2984     3011     3021     3009     2976     2924 
    2862     2801     2737     2674     2617     2574     2556     2567 
    2600     2636     2670     2708     2754     2791     2806     2817 
    2840     2868     2894     2914     2934     2955     2970     2978 
    2986     3006     3040     3069     3090     3107     3126     3152 
    3183     3213     3242     3265     3280     3295     3308     3319 
    3319     3310     3300     3303     3315     3319     3319     3316 
    3308     3302     3299     3288     3268     3240     3215     3208 
    3211     3215     3221     3218     3206     3184     3156     3121 
    3079     3025     2949     2857     2758     2663     2586     2520 
    2451     2378     2315     2276     2257     2249     2251     2259 
    2270     2293     2336     2392     2459     2543     2631     2716 
    2791     2855     2917     2979     3037     3092     3150     3213 
    3267     3310     3345     3377     3407     3434     3465     3493 
    3501     3495     3477     3446     3407     3365     3327     3296 
    3265     3222     3176     3140     3115     3105     3100     3103 
    3118     3136     3136     3119     3102     3084     3067     3055 
    3041     3019     2997     2972     2947     2925     2895     2864 
    2840     2813     2794     2794     2808     2835     2878     2933 
    2997     3060     3114     3154     3180     3191     3186     3169 
    3149     3137     3134     3136     3140     3140     3138     3148 
    3161     3165     3163     3160     3159     3152     3133     3088 
    3024     2953     2883     2820     2768     2736     2717     2716 
    2737     2781     2847     2936     3029     3121     3207     3285 
    3358     3418     3449     3450     3437     3411     3375     3339 
    3299     3253     3213     3186     3173     3173     3192     3235 
    3295     3357     3416     3465     3501     3532     3572     3612 
    3650     3685     3711     3719     3716     3713     3719     3723 
    3719     3715     3715     3724     3736     3742     3735     3712 
    3676     3628     3572     3510     3438     3349     3245     3140 
    3048     2971     2910     2862     2822     2783     2743     2695 
    2628     2555     2485     2417     2361     2305     2243     2192 
    2166     2168     2189     2231     2297     2396     2536     2705 
    2870     3026     3188     3353     3497     3615     3713     3793 
    3851     3881     3890     3888     3878     3862     3836     3797 
    3750     3700     3636     3555     3457     3345     3218     3092 
    2984     2887     2794     2706     2632     2570     2512     2454 
    2398     2343     2281     2219     2170     2146     2143     2157 
    2196     2254     2322     2396     2485     2587     2694     2794 
    2887     2959     3002     3024     3021     2990     2945     2898 
    2840     2772     2704     2635     2569     2513     2473     2438 
    2405     2382     2354     2309     2268     2238     2218     2205 
    2184     2160     2154     2172     2208     2261     2334     2425 
    2529     2646     2767     2890     3007     3127     3253     3369 
    3473     3562     3630     3680     3712     3730     3734     3719 
    3688     3647     3592     3518     3426     3326     3226     3126 
    3029     2940     2857     2789     2739     2714     2709     2710 
    2722     2745     2778     2816     2853     2884     2910     2932 
    2955     2976     2994     2999     2980     2949     2918     2880 
    2832     2778     2731     2697     2677     2675     2689     2713 
    2749     2798     2860     2943     3037     3136     3240     3342 
    3441     3537     3626     3699     3742     3761     3770     3769 
    3750     3711     3650     3564     3465     3369     3283     3206 
    3137     3069     2997     2917     2839     2763     2691     2625 
    2563     2504     2451     2408     2369     2330     2297     2274 
    2259     2245     2227     2220     2227     2257     2312     2381 
    2452     2536     2633     2739     2845     2955     3067     3186 
    3300     3404     3503     3593     3672     3736     3790     3840 
    3889     3928     3959     3990     4024     4054     4072     4078 
    4075     4060     4028     3990     3946     3892     3835     3773 
    3708     3645     3582     3511     3424     3335     3254     3180 
    3113     3059     3009     2955     2894     2832     2770     2717 
    2674     2633     2597     2562     2529     2500     2474     2459 
    2455     2455     2459     2466     2466     2457     2442     2417 
    2389     2365     2344     2324     2304     2290     2278     2269 
    2270     2282     2305     2332     2358     2384     2420     2457 
    2493     2533     2579     2627     2681     2740     2808     2875 
    2929     2970     2995     3010     3021     3024     3019     3013 
    3007     2995     2978     2957     2941     2930     2926     2928 
    2937     2959     2990     3029     3071     3107     3144     3187 
    3226     3257     3283     3303     3319     3333     3337     3341 
    3348     3349     3353     3361     3369     3375     3379     3380 
    3380     3379     3375     3360     3341     3322     3307     3299 
    3292     3285     3289     3300     3322     3360     3408     3464 
    3524     3581     3626     3654     3673     3684     3685     3666 
    3635     3595     3542     3477     3404     3323     3240     3167 
    3099     3041     2994     2959     2933     2911     2884     2860 
    2837     2812     2785     2755     2716     2664     2616     2585 
    2573     2579     2600     2635     2693     2766     2837     2902 
    2964     3021     3071     3110     3137     3152     3153     3146 
    3140     3137     3145     3154     3159     3172     3202     3240 
    3288     3346     3408     3465     3515     3557     3585     3600 
    3603     3578     3532     3477     3404     3315     3214     3107 
    3011     2933     2867     2797     2720     2644     2573     2512 
    2463     2428     2413     2420     2442     2470     2497     2513 
    2528     2554     2586     2617     2644     2675     2713     2754 
    2805     2867     2933     2999     3064     3123     3184     3249 
    3315     3375     3416     3434     3431     3420     3406     3384 
    3356     3327     3300     3277     3272     3288     3322     3360 
    3393     3419     3430     3424     3400     3354     3295     3225 
    3146     3056     2953     2845     2737     2636     2548     2479 
    2430     2408     2415     2451     2511     2585     2674     2772 
    2868     2960     3044     3111     3179     3254     3329     3404 
    3477     3542     3597     3639     3670     3700     3727     3748 
    3770     3790     3809     3825     3829     3811     3765     3705 
    3638     3565     3493     3419     3335     3254     3184     3117 
    3044     2967     2898     2833     2779     2745     2731     2709 
    2686     2675     2675     2686     2717     2762     2812     2853 
    2891     2933     2972     3013     3060     3103     3129     3156 
    3187     3207     3217     3223     3225     3219     3221     3233 
    3222     3180     3138     3095     3036     2995     2978     2959 
    2944     2948     2957     2982     3022     3052     3063     3064 
    3059     3045     3029     3013     2987     2947     2907     2879 
    2849     2818     2795     2781     2762     2737     2713     2689 
    2664     2637     2600     2544     2486     2440     2407     2390 
    2389     2397     2420     2461     2513     2573     2641     2727 
    2812     2889     2957     3007     3045     3088     3125     3148 
    3165     3179     3188     3199     3211     3222     3233     3242 
    3261     3289     3307     3312     3323     3331     3337     3346 
    3346     3337     3327     3314     3306     3314     3326     3343 
    3364     3387     3410     3420     3433     3442     3438     3437 
    3434     3422     3393     3356     3333     3322     3321     3334 
    3348     3365     3391     3420     3461     3507     3557     3600 
    3628     3654     3665     3667     3662     3634     3597     3545 
    3472     3395     3315     3223     3118     3007     2894     2782 
    2675     2565     2450     2336     2227     2137     2062     1999 
    1950     1911     1885     1873     1876     1885     1895     1910 
    1933     1964     2002     2034     2065     2097     2128     2160 
    2195     2231     2259     2282     2311     2331     2343     2347 
    2335     2316     2301     2295     2301     2319     2354     2404 
    2462     2525     2596     2668     2739     2809     2876     2937 
    2999     3061     3127     3198     3272     3345     3407     3468 
    3534     3596     3654     3699     3727     3750     3769     3785 
    3800     3811     3815     3811     3797     3782     3763     3731 
    3685     3631     3576     3522     3470     3415     3364     3321 
    3288     3265     3245     3230     3222     3218     3217     3215 
    3211     3200     3183     3156     3123     3092     3063     3034 
    3002     2970     2936     2895     2855     2818     2783     2758 
    2737     2720     2708     2704     2704     2701     2697     2694 
    2695     2704     2720     2751     2791     2822     2849     2883 
    2918     2953     2987     3017     3045     3064     3067     3053 
    3032     3006     2978     2951     2929     2910     2899     2907 
    2930     2955     2976     3003     3021     3018     3001     2972 
    2930     2880     2835     2785     2728     2675     2636     2609 
    2594     2586     2583     2593     2614     2637     2654     2664 
    2668     2666     2664     2659     2647     2640     2644     2652 
    2674     2714     2764     2822     2886     2956     3036     3127 
    3226     3312     3376     3427     3469     3497     3514     3520 
    3511     3488     3458     3427     3400     3380     3364     3354 
    3348     3345     3345     3349     3357     3358     3345     3330 
    3316     3295     3265     3231     3200     3181     3165     3148 
    3133     3123     3118     3114     3117     3123     3132     3141 
    3145     3141     3144     3154     3167     3179     3198     3234 
    3283     3331     3380     3422     3446     3458     3462     3453 
    3433     3402     3364     3326     3285     3233     3175     3130 
    3100     3065     3018     2972     2932     2895     2866     2836 
    2808     2783     2767     2758     2748     2739     2735     2741 
    2760     2783     2809     2841     2880     2926     2971     3007 
    3032     3046     3060     3071     3069     3060     3048     3037 
    3032     3029     3028     3026     3025     3028     3032     3033 
    3032     3028     3028     3033     3046     3065     3078     3088 
    3103     3122     3148     3169     3184     3192     3191     3180 
    3168     3152     3123     3087     3046     2997     2937     2871 
    2805     2737     2674     2627     2602     2594     2598     2613 
    2631     2650     2677     2712     2749     2790     2828     2859 
    2882     2895     2902     2903     2891     2863     2833     2808 
    2790     2779     2779     2787     2801     2829     2870     2905 
    2928     2948     2974     3010     3052     3094     3138     3180 
    3207     3227     3249     3264     3271     3284     3308     3337 
    3376     3426     3470     3505     3545     3574     3577     3565 
    3555     3532     3478     3410     3338     3265     3199     3141 
    3092     3055     3021     2991     2959     2926     2906     2887 
    2864     2849     2839     2830     2821     2812     2802     2797 
    2801     2805     2814     2836     2862     2875     2880     2891 
    2902     2911     2941     2972     2992     3017     3044     3059 
    3061     3055     3037     3007     2976     2944     2906     2874 
    2852     2841     2836     2835     2830     2826     2829     2839 
    2843     2840     2837     2839     2843     2851     2862     2871 
    2878     2886     2897     2906     2920     2941     2970     3003 
    3037     3071     3110     3156     3199     3233     3250     3250 
    3246     3245     3241     3231     3221     3214     3218     3225 
    3229     3237     3241     3245     3254     3267     3277     3289 
    3298     3300     3296     3281     3265     3262     3268     3281 
    3298     3312     3331     3343     3341     3330     3307     3280 
    3252     3211     3153     3095     3036     2975     2925     2884 
    2853     2830     2806     2775     2736     2695     2662     2641 
    2635     2640     2659     2689     2721     2751     2783     2810 
    2833     2857     2876     2882     2884     2895     2914     2933 
    2949     2960     2963     2961     2959     2959     2967     2980 
    2995     3014     3029     3029     3026     3029     3032     3032 
    3025     3014     3009     3006     2995     2967     2937     2914 
    2890     2866     2840     2802     2749     2691     2647     2612 
    2573     2535     2502     2473     2455     2446     2455     2481 
    2517     2558     2597     2636     2679     2724     2775     2839 
    2907     2986     3072     3156     3233     3306     3384     3468 
    3550     3628     3699     3754     3790     3811     3813     3808 
    3800     3785     3769     3757     3743     3726     3704     3674 
    3638     3596     3547     3497     3446     3388     3319     3244 
    3165     3096     3041     2995     2959     2930     2905     2886 
    2870     2851     2828     2799     2766     2731     2706     2687 
    2667     2644     2632     2632     2629     2621     2617     2610 
    2605     2612     2621     2621     2614     2597     2571     2544 
    2515     2494     2492     2494     2502     2519     2536     2558 
    2594     2647     2709     2764     2814     2866     2910     2943 
    2978     3018     3052     3076     3098     3111     3110     3102 
    3092     3076     3060     3051     3042     3025     2994     2960 
    2938     2918     2891     2867     2847     2826     2814     2805 
