Origin Time       2025/01/13 21:19:00
Lat.              31.8
Long.             131.6
Depth. (km)       30
Mag.              6.9
Station Code      KGW003
Station Lat.      34.2644
Station Long.     133.7896
Station Height(m) 13
Record Time       2025/01/13 21:21:14
Sampling Freq(Hz) 100Hz
Duration Time(s)  62
Dir.              E-W
Scale Factor      7845(gal)/8223790
Max. Acc. (gal)   2.118
Last Correction   2025/01/13 21:21:13
Memo.             
[...]
  -11371   -11433   -11480   -11416   -11264   -11144   -11097   -11091 
  -11117   -11164   -11192   -11172   -11097   -10970   -10827   -10766 
  -10825   -10925   -11002   -11061   -11052   -10935   -10829   -10858 
  -10978   -11064   -11061   -10972   -10824   -10698   -10700   -10829 
  -10976   -11034   -10989   -10894   -10789   -10670   -10547   -10474 
  -10513   -10635   -10740   -10731   -10571   -10369   -10289   -10372 
  -10543   -10690   -10751   -10778   -10859   -10964   -11001   -10953 
  -10876   -10806   -10785   -10844   -10912   -10906   -10847   -10766 
  -10687   -10669   -10723   -10818   -10944   -11071   -11148   -11163 
  -11178   -11252   -11368   -11461   -11448   -11300   -11110   -10980 
  -10955   -11070   -11292   -11488   -11570   -11551   -11473   -11381 
  -11308   -11256   -11209   -11196   -11252   -11335   -11379   -11373 
  -11329   -11263   -11215   -11178   -11106   -11005   -10905   -10822 
  -10783   -10791   -10824   -10868   -10891   -10851   -10760   -10665 
  -10590   -10561   -10562   -10546   -10534   -10561   -10566   -10493 
  -10407   -10370   -10343   -10278   -10208   -10172   -10203   -10332 
  -10476   -10494   -10403   -10331   -10366   -10507   -10698   -10893 
  -11037   -11072   -10984   -10825   -10681   -10642   -10748   -10943 
  -11118   -11205   -11183   -11087   -11003   -11002   -11067   -11141 
  -11184   -11168   -11103   -11055   -11076   -11138   -11164   -11121 
  -11013   -10887   -10836   -10886   -10960   -11009   -11055   -11129 
  -11207   -11246   -11226   -11153   -11051   -10972   -10978   -11036 
  -11074   -11094   -11114   -11125   -11145   -11219   -11325   -11402 
  -11422   -11375   -11267   -11141   -11041   -10984   -11001   -11094 
  -11206   -11291   -11342   -11371   -11383   -11360   -11304   -11257 
  -11223   -11153   -11040   -10940   -10862   -10747   -10615   -10532 
  -10501   -10476   -10449   -10426   -10384   -10326   -10309   -10373 
  -10504   -10694   -10917   -11106   -11227   -11288   -11308   -11306 
  -11310   -11350   -11395   -11398   -11365   -11321   -11284   -11295 
  -11365   -11448   -11489   -11485   -11483   -11493   -11497   -11504 
  -11516   -11553   -11646   -11774   -11880   -11919   -11886   -11813 
  -11735   -11676   -11635   -11631   -11647   -11616   -11535   -11475 
  -11448   -11408   -11368   -11367   -11364   -11313   -11227   -11136 
  -11074   -11068   -11095   -11098   -11030   -10901   -10737   -10558 
  -10399   -10287   -10195   -10103   -10029    -9972    -9913    -9890 
   -9944   -10023   -10066   -10103   -10154   -10177   -10181   -10193 
  -10176   -10107   -10066   -10131   -10277   -10470   -10671   -10793 
  -10800   -10766   -10755   -10793   -10891   -11009   -11065   -11057 
  -11059   -11132   -11269   -11418   -11512   -11507   -11423   -11353 
  -11369   -11461   -11574   -11658   -11674   -11631   -11580   -11551 
  -11572   -11672   -11828   -11943   -11951   -11886   -11809   -11746 
  -11672   -11569   -11449   -11277   -11020   -10717   -10455   -10312 
  -10296   -10349   -10407   -10434   -10434   -10443   -10447   -10411 
  -10336   -10249   -10179   -10152   -10162   -10191   -10212   -10181 
  -10102   -10048   -10062   -10134   -10220   -10297   -10363   -10417 
  -10440   -10430   -10396   -10374   -10392   -10435   -10492   -10558 
  -10636   -10724   -10809   -10897   -11011   -11152   -11298   -11416 
  -11503   -11557   -11580   -11592   -11614   -11655   -11703   -11705 
  -11642   -11554   -11502   -11502   -11538   -11605   -11695   -11749 
  -11731   -11685   -11646   -11568   -11439   -11335   -11315   -11362 
  -11433   -11504   -11562   -11596   -11600   -11558   -11466   -11352 
  -11233   -11140   -11109   -11099   -11048   -10970   -10905   -10855 
  -10824   -10824   -10828   -10798   -10754   -10731   -10706   -10673 
  -10696   -10800   -10921   -10997   -11014   -10986   -10928   -10878 
  -10868   -10902   -10982   -11109   -11246   -11358   -11435   -11480 
  -11496   -11483   -11453   -11423   -11400   -11396   -11414   -11452 
  -11512   -11576   -11584   -11506   -11375   -11269   -11232   -11236 
  -11233   -11209   -11168   -11122   -11072   -11051   -11105   -11234 
  -11398   -11550   -11651   -11682   -11659   -11620   -11562   -11442 
  -11257   -11045   -10829   -10617   -10431   -10303   -10237   -10211 
  -10195   -10164   -10107   -10019    -9936    -9918    -9996   -10127 
  -10223   -10203   -10066    -9896    -9782    -9769    -9848    -9957 
  -10052   -10139   -10250   -10388   -10538   -10690   -10818   -10893 
  -10898   -10875   -10913   -11026   -11138   -11194   -11194   -11186 
  -11245   -11442   -11758   -12055   -12222   -12259   -12216   -12135 
  -12058   -12009   -11975   -11938   -11908   -11885   -11831   -11738 
  -11645   -11589   -11577   -11584   -11591   -11570   -11479   -11338 
  -11215   -11088   -10930   -10755   -10571   -10395   -10238   -10116 
  -10081   -10138   -10204   -10207   -10143   -10054    -9973    -9914 
   -9869    -9836    -9811    -9811    -9864    -9942    -9990   -10008 
  -10044   -10126   -10257   -10396   -10511   -10623   -10768   -10933 
  -11048   -11106   -11155   -11215   -11269   -11314   -11319   -11246 
  -11124   -11053   -11061   -11083   -11103   -11140   -11175   -11190 
  -11165   -11106   -11055   -11034   -11037   -11063   -11087   -11061 
  -10989   -10917   -10895   -10941   -11006   -11030   -11018   -10990 
  -10953   -10930   -10953   -11001   -11006   -10974   -10980   -11038 
  -11107   -11180   -11268   -11345   -11385   -11394   -11383   -11354 
  -11325   -11322   -11326   -11287   -11214   -11155   -11140   -11165 
  -11206   -11250   -11298   -11341   -11364   -11335   -11233   -11095 
  -10995   -10924   -10824   -10670   -10490   -10331   -10241   -10222 
  -10204   -10118   -10003    -9940    -9948    -9998   -10058   -10107 
  -10107   -10037    -9938    -9883    -9923   -10075   -10297   -10521 
  -10687   -10752   -10710   -10601   -10494   -10444   -10439   -10409 
  -10319   -10208   -10138   -10123   -10160   -10234   -10342   -10465 
  -10575   -10674   -10767   -10848   -10914   -10957   -10963   -10930 
  -10882   -10871   -10925   -11032   -11160   -11259   -11298   -11300 
  -11298   -11322   -11380   -11443   -11511   -11592   -11672   -11747 
  -11835   -11929   -12029   -12151   -12260   -12318   -12347   -12390 
  -12461   -12534   -12565   -12571   -12598   -12652   -12726   -12781 
  -12764   -12684   -12586   -12474   -12360   -12260   -12179   -12133 
  -12125   -12098   -12001   -11843   -11666   -11495   -11330   -11161 
  -10955   -10678   -10345   -10015    -9737    -9518    -9351    -9224 
   -9143    -9112    -9089    -9035    -8958    -8901    -8878    -8874 
   -8883    -8881    -8858    -8860    -8931    -9073    -9262    -9470 
   -9672    -9864   -10079   -10336   -10606   -10841   -11005   -11092 
  -11142   -11203   -11298   -11427   -11595   -11785   -11975   -12164 
  -12345   -12488   -12609   -12730   -12827   -12881   -12910   -12943 
  -12997   -13057   -13115   -13151   -13111   -13012   -12935   -12883 
  -12814   -12711   -12579   -12413   -12233   -12094   -11978   -11801 
  -11558   -11304   -11061   -10835   -10655   -10515   -10372   -10230 
  -10134   -10088   -10056    -9998    -9888    -9741    -9599    -9506 
   -9481    -9506    -9562    -9630    -9682    -9706    -9717    -9729 
   -9769    -9856    -9975   -10099   -10204   -10295   -10395   -10496 
  -10563   -10600   -10658   -10758   -10889   -11052   -11225   -11337 
  -11381   -11434   -11520   -11615   -11719   -11831   -11944   -12054 
  -12133   -12160   -12154   -12154   -12189   -12256   -12314   -12320 
  -12255   -12147   -12056   -12006   -11986   -11975   -11948   -11885 
  -11800   -11699   -11576   -11439   -11326   -11244   -11182   -11128 
  -11082   -11017   -10901   -10755   -10612   -10494   -10417   -10386 
  -10361   -10289   -10164   -10029    -9923    -9846    -9792    -9751 
   -9699    -9621    -9522    -9414    -9297    -9173    -9066    -9004 
   -8993    -9028    -9104    -9227    -9370    -9483    -9574    -9688 
   -9842   -10011   -10189   -10361   -10494   -10592   -10702   -10845 
  -11016   -11207   -11410   -11607   -11790   -11950   -12077   -12182 
  -12272   -12357   -12436   -12501   -12567   -12626   -12646   -12627 
  -12568   -12459   -12340   -12249   -12162   -12060   -11940   -11801 
  -11669   -11558   -11468   -11394   -11327   -11257   -11168   -11044 
  -10862   -10640   -10428   -10257   -10143   -10089   -10049    -9988 
   -9937    -9953   -10044   -10141   -10180   -10164   -10110   -10044 
   -9992    -9954    -9925    -9917    -9934    -9979   -10052   -10153 
  -10285   -10432   -10577   -10736   -10908   -11055   -11172   -11268 
  -11331   -11385   -11475   -11597   -11711   -11793   -11858   -11917 
  -11973   -12048   -12140   -12239   -12343   -12441   -12541   -12631 
  -12676   -12668   -12619   -12521   -12378   -12205   -12029   -11896 
  -11797   -11708   -11645   -11574   -11439   -11268   -11103   -10966 
  -10870   -10791   -10713   -10633   -10548   -10447   -10315   -10165 
  -10058   -10010    -9987    -9961    -9927    -9914    -9934    -9961 
   -9964    -9940    -9903    -9886    -9891    -9880    -9842    -9806 
   -9787    -9786    -9798    -9821    -9860    -9925   -10021   -10147 
  -10299   -10451   -10582   -10675   -10717   -10727   -10756   -10828 
  -10903   -10975   -11092   -11264   -11449   -11608   -11735   -11819 
  -11855   -11878   -11929   -11981   -11986   -11959   -11901   -11788 
  -11642   -11507   -11394   -11323   -11323   -11358   -11368   -11340 
  -11272   -11171   -11060   -10976   -10929   -10910   -10912   -10943 
  -10982   -10972   -10894   -10789   -10694   -10642   -10659   -10721 
  -10760   -10746   -10698   -10666   -10667   -10689   -10725   -10770 
  -10804   -10827   -10849   -10887   -10936   -10962   -10962   -10956 
  -10952   -10966   -11033   -11149   -11281   -11407   -11520   -11627 
  -11722   -11792   -11846   -11893   -11916   -11901   -11866   -11828 
  -11797   -11805   -11842   -11853   -11826   -11788   -11751   -11718 
  -11684   -11634   -11551   -11443   -11350   -11281   -11223   -11180 
  -11163   -11148   -11113   -11065   -11001   -10885   -10723   -10567 
  -10447   -10369   -10345   -10363   -10390   -10395   -10358   -10287 
  -10197   -10098   -10022    -9992    -9988    -9981    -9969    -9964 
   -9960    -9936    -9907    -9910    -9942    -9995   -10071   -10152 
  -10242   -10365   -10525   -10683   -10797   -10870   -10928   -11007 
  -11132   -11263   -11349   -11389   -11414   -11446   -11500   -11574 
  -11651   -11718   -11759   -11776   -11790   -11823   -11859   -11870 
  -11853   -11835   -11826   -11820   -11838   -11875   -11924   -11962 
  -11956   -11912   -11866   -11831   -11790   -11734   -11662   -11611 
  -11593   -11569   -11526   -11461   -11349   -11209   -11074   -10935 
  -10771   -10598   -10436   -10287   -10134    -9985    -9849    -9741 
   -9675    -9644    -9612    -9574    -9544    -9524    -9501    -9467 
   -9420    -9366    -9347    -9379    -9445    -9524    -9598    -9664 
   -9736    -9818    -9907   -10002   -10099   -10191   -10265   -10349 
  -10482   -10652   -10817   -10960   -11080   -11172   -11225   -11242 
  -11236   -11229   -11263   -11362   -11485   -11583   -11655   -11701 
  -11718   -11738   -11776   -11799   -11767   -11696   -11624   -11580 
  -11580   -11616   -11627   -11583   -11522   -11492   -11511   -11583 
  -11689   -11784   -11797   -11704   -11541   -11362   -11207   -11086 
  -10983   -10898   -10845   -10812   -10762   -10690   -10611   -10519 
  -10412   -10328   -10289   -10257   -10206   -10174   -10166   -10131 
  -10060    -9998    -9969    -9969    -9998   -10054   -10127   -10200 
  -10281   -10380   -10489   -10598   -10686   -10723   -10736   -10771 
  -10833   -10924   -11030   -11121   -11180   -11222   -11268   -11331 
  -11403   -11456   -11470   -11466   -11483   -11547   -11642   -11713 
  -11753   -11792   -11831   -11869   -11912   -11955   -12000   -12047 
  -12086   -12101   -12089   -12064   -12040   -12010   -11947   -11832 
  -11697   -11560   -11412   -11268   -11141   -11057   -11025   -10995 
  -10926   -10824   -10704   -10620   -10619   -10671   -10731   -10768 
  -10768   -10736   -10674   -10609   -10578   -10575   -10574   -10569 
  -10566   -10567   -10552   -10512   -10474   -10459   -10471   -10524 
  -10613   -10697   -10762   -10829   -10916   -11020   -11121   -11215 
  -11322   -11421   -11468   -11489   -11526   -11561   -11573   -11568 
  -11554   -11542   -11535   -11523   -11483   -11385   -11268   -11200 
  -11192   -11223   -11275   -11291   -11233   -11113   -10967   -10856 
  -10800   -10770   -10741   -10689   -10581   -10453   -10374   -10369 
  -10404   -10434   -10436   -10413   -10376   -10370   -10423   -10490 
  -10542   -10590   -10633   -10663   -10700   -10759   -10844   -10943 
  -11036   -11109   -11151   -11190   -11281   -11423   -11565   -11677 
  -11757   -11823   -11898   -11983   -12087   -12194   -12260   -12264 
  -12212   -12124   -12051   -12037   -12087   -12145   -12147   -12081 
  -11978   -11862   -11755   -11689   -11670   -11670   -11668   -11655 
  -11607   -11511   -11391   -11277   -11186   -11099   -10991   -10855 
  -10709   -10581   -10481   -10386   -10274   -10146   -10023    -9923 
   -9836    -9757    -9693    -9614    -9520    -9429    -9350    -9273 
   -9175    -9050    -8928    -8826    -8760    -8749    -8779    -8831 
   -8901    -8970    -9020    -9072    -9151    -9275    -9445    -9652 
   -9896   -10172   -10438   -10670   -10899   -11136   -11330   -11468 
  -11626   -11819   -11959   -12058   -12181   -12305   -12417   -12519 
  -12587   -12626   -12661   -12714   -12800   -12873   -12899   -12911 
  -12910   -12885   -12854   -12792   -12683   -12563   -12476   -12428 
  -12378   -12290   -12174   -12039   -11881   -11742   -11643   -11562 
  -11485   -11388   -11246   -11098   -10964   -10841   -10721   -10593 
  -10439   -10262   -10081    -9918    -9755    -9570    -9386    -9239 
   -9115    -8985    -8860    -8772    -8748    -8773    -8820    -8874 
   -8931    -8985    -9067    -9190    -9347    -9524    -9690    -9815 
   -9909    -9977   -10034   -10092   -10143   -10189   -10243   -10300 
  -10357   -10423   -10498   -10585   -10679   -10755   -10800   -10849 
  -10951   -11094   -11238   -11361   -11450   -11510   -11542   -11573 
  -11623   -11677   -11723   -11784   -11847   -11885   -11897   -11916 
  -11948   -11979   -12016   -12051   -12060   -12048   -12024   -11998 
  -11990   -11979   -11950   -11928   -11904   -11858   -11811   -11781 
  -11774   -11766   -11728   -11650   -11546   -11454   -11385   -11321 
  -11260   -11211   -11180   -11172   -11187   -11218   -11248   -11252 
  -11207   -11113   -11010   -10929   -10886   -10872   -10856   -10829 
  -10798   -10778   -10785   -10806   -10816   -10801   -10770   -10759 
  -10810   -10890   -10933   -10928   -10889   -10836   -10777   -10701 
  -10624   -10569   -10542   -10544   -10575   -10598   -10582   -10516 
  -10420   -10350   -10347   -10405   -10492   -10563   -10584   -10563 
  -10534   -10523   -10538   -10557   -10566   -10578   -10589   -10597 
  -10619   -10669   -10733   -10785   -10802   -10804   -10825   -10868 
  -10932   -11001   -11049   -11082   -11114   -11152   -11192   -11232 
  -11268   -11306   -11334   -11344   -11345   -11340   -11323   -11292 
  -11233   -11151   -11084   -11049   -11030   -11022   -11040   -11082 
  -11114   -11101   -11053   -11003   -10990   -11032   -11083   -11087 
  -11034   -10945   -10860   -10808   -10777   -10750   -10717   -10659 
  -10574   -10488   -10415   -10366   -10354   -10373   -10397   -10405 
  -10403   -10423   -10480   -10561   -10642   -10694   -10724   -10778 
  -10856   -10917   -10949   -10962   -10968   -10980   -10994   -11020 
  -11064   -11126   -11196   -11248   -11268   -11296   -11350   -11407 
  -11437   -11450   -11488   -11569   -11681   -11805   -11908   -11963 
  -11978   -11983   -11989   -11983   -11967   -11935   -11881   -11813 
  -11736   -11654   -11573   -11507   -11458   -11408   -11358   -11318 
  -11275   -11227   -11172   -11091   -11010   -10956   -10920   -10883 
  -10833   -10777   -10721   -10659   -10608   -10598   -10604   -10593 
  -10555   -10486   -10408   -10365   -10378   -10428   -10455   -10430 
  -10378   -10328   -10281   -10238   -10197   -10174   -10177   -10180 
  -10183   -10200   -10222   -10243   -10278   -10308   -10320   -10328 
  -10327   -10304   -10299   -10339   -10420   -10500   -10542   -10565 
  -10608   -10681   -10775   -10864   -10920   -10949   -10984   -11065 
  -11200   -11353   -11483   -11573   -11641   -11707   -11788   -11881 
  -11975   -12042   -12052   -12037   -12024   -11994   -11940   -11871 
  -11792   -11720   -11645   -11562   -11496   -11443   -11392   -11338 
  -11279   -11211   -11146   -11091   -11056   -11037   -10999   -10910 
  -10777   -10616   -10465   -10359   -10300   -10247   -10170   -10083 
   -9999    -9914    -9850    -9823    -9821    -9819    -9801    -9759 
   -9734    -9749    -9799    -9886    -9990   -10079   -10160   -10262 
  -10400   -10565   -10737   -10903   -11049   -11173   -11283   -11377 
  -11468   -11566   -11669   -11761   -11842   -11916   -12000   -12089 
  -12148   -12160   -12145   -12114   -12062   -12004   -11958   -11925 
  -11902   -11892   -11905   -11905   -11854   -11793   -11757   -11720 
  -11680   -11622   -11519   -11399   -11298   -11218   -11163   -11113 
  -11041   -10941   -10824   -10713   -10629   -10569   -10527   -10497 
  -10466   -10428   -10382   -10334   -10315   -10349   -10417   -10485 
  -10511   -10492   -10454   -10413   -10372   -10343   -10331   -10338 
  -10354   -10365   -10363   -10362   -10365   -10374   -10388   -10388 
  -10376   -10357   -10327   -10300   -10301   -10327   -10349   -10351 
  -10345   -10351   -10365   -10359   -10328   -10281   -10243   -10241 
  -10274   -10345   -10434   -10511   -10554   -10575   -10606   -10669 
  -10755   -10843   -10910   -10936   -10939   -10957   -11005   -11080 
  -11176   -11261   -11314   -11344   -11375   -11429   -11492   -11530 
  -11546   -11553   -11549   -11542   -11542   -11558   -11611   -11692 
  -11754   -11763   -11719   -11649   -11578   -11508   -11442   -11376 
  -11294   -11210   -11137   -11064   -11005   -10959   -10912   -10867 
  -10825   -10785   -10744   -10700   -10654   -10615   -10584   -10565 
  -10552   -10540   -10542   -10569   -10593   -10600   -10609   -10636 
  -10681   -10728   -10766   -10802   -10844   -10893   -10952   -10997 
  -10998   -10976   -10959   -10970   -11010   -11057   -11084   -11071 
  -11028   -11002   -11010   -11036   -11072   -11097   -11102   -11105 
  -11097   -11070   -11059   -11084   -11137   -11194   -11223   -11215 
  -11171   -11114   -11087   -11106   -11141   -11149   -11111   -11034 
  -10937   -10835   -10755   -10716   -10712   -10721   -10735   -10728 
  -10690   -10646   -10617   -10586   -10552   -10543   -10566   -10604 
  -10642   -10674   -10692   -10674   -10633   -10601   -10608   -10665 
  -10762   -10858   -10909   -10905   -10864   -10833   -10848   -10899 
  -10953   -10982   -10971   -10926   -10870   -10835   -10829   -10843 
