Origin Time       2025/01/13 21:19:00
Lat.              31.8
Long.             131.6
Depth. (km)       30
Mag.              6.9
Station Code      KGW003
Station Lat.      34.2644
Station Long.     133.7896
Station Height(m) 13
Record Time       2025/01/13 21:21:14
Sampling Freq(Hz) 100Hz
Duration Time(s)  62
Dir.              U-D
Scale Factor      7845(gal)/8223790
Max. Acc. (gal)   0.886
Last Correction   2025/01/13 21:21:13
Memo.             
[...]
   17907    17905    17909    17917    17895    17825    17752    17752 
   17764    17725    17693    17722    17786    17830    17863    17915 
   17967    17979    17942    17888    17875    17906    17929    17910 
   17891    17911    17937    17937    17945    17963    17975    17975 
   17982    18023    18040    18023    18064    18131    18158    18161 
   18122    18056    18027    18052    18108    18165    18168    18134 
   18164    18203    18169    18160    18184    18148    18102    18096 
   18073    18050    18049    18004    17918    17855    17828    17851 
   17905    17930    17919    17899    17887    17914    17940    17887 
   17807    17778    17783    17802    17811    17793    17780    17815 
   17891    17946    17953    17946    17941    17918    17890    17868 
   17875    17901    17901    17888    17917    17969    17979    17948 
   17945    17983    18014    18029    18042    18025    17977    17948 
   17952    17980    18027    18079    18107    18081    18021    18000 
   18007    17967    17917    17923    17932    17905    17876    17871 
   17905    17982    18077    18135    18150    18165    18169    18166 
   18171    18152    18134    18145    18134    18102    18084    18084 
   18107    18158    18195    18185    18141    18079    18017    17967 
   17906    17851    17838    17836    17810    17764    17697    17628 
   17601    17632    17713    17801    17842    17869    17913    17913 
   17891    17919    17937    17899    17888    17922    17932    17915 
   17944    18022    18092    18146    18198    18218    18173    18065 
   17961    17925    17917    17869    17798    17741    17717    17737 
   17778    17817    17879    17956    17988    17965    17946    17941 
   17875    17759    17728    17788    17833    17845    17867    17863 
   17817    17802    17847    17905    17960    18002    17996    17937 
   17880    17879    17921    17956    17952    17930    17949    18010 
   18045    18069    18091    18025    17925    17922    17963    17967 
   17959    17952    17944    17949    17967    17990    18056    18165 
   18247    18269    18233    18157    18125    18169    18207    18165 
   18091    18052    18045    18038    18029    18026    18025    18018 
   17994    17937    17887    17892    17932    17940    17868    17779 
   17759    17802    17851    17871    17903    17971    18003    17972 
   17926    17883    17864    17855    17829    17824    17829    17809 
   17799    17815    17829    17844    17888    17922    17898    17853 
   17825    17806    17775    17729    17709    17703    17663    17622 
   17633    17682    17729    17741    17757    17844    17963    18023 
   18029    18044    18064    18068    18080    18114    18137    18129 
   18108    18071    18042    18061    18090    18114    18142    18125 
   18083    18046    17999    17964    17928    17895    17891    17895 
   17934    18027    18075    18053    18033    18014    17982    17936 
   17896    17882    17876    17857    17817    17772    17776    17820 
   17851    17887    17925    17926    17926    17957    18013    18090 
   18141    18100    18003    17938    17901    17837    17761    17748 
   17830    17923    17938    17901    17884    17910    17905    17844 
   17787    17756    17717    17706    17759    17811    17820    17818 
   17811    17803    17825    17874    17948    18013    18037    18048 
   18058    18049    18023    18017    18054    18119    18165    18179 
   18172    18145    18130    18153    18158    18115    18071    18040 
   17999    17967    17963    17953    17903    17869    17925    18011 
   18034    18015    18029    18075    18084    18058    18040    18019 
   18006    17998    17986    17995    18004    17999    18014    18026 
   18019    18029    18060    18096    18112    18099    18090    18088 
   18068    18031    17995    17956    17921    17929    17977    18013 
   18036    18071    18121    18173    18216    18252    18247    18189 
   18125    18091    18079    18087    18099    18071    18014    17968 
   17942    17946    17946    17942    17991    18046    18083    18144 
   18166    18141    18119    18091    18072    18076    18069    18075 
   18106    18133    18161    18187    18187    18179    18177    18165 
   18157    18154    18119    18056    18003    17983    17976    17964 
   17987    18037    18025    17963    17933    17941    17923    17836 
   17761    17786    17817    17802    17795    17795    17793    17813 
   17853    17903    17944    17959    17959    17936    17932    17972 
   17984    17956    17928    17886    17852    17836    17806    17794 
   17817    17848    17879    17902    17902    17898    17909    17919 
   17933    17950    17949    17936    17945    18017    18111    18148 
   18169    18230    18270    18242    18200    18196    18164    18060 
   17964    17903    17842    17809    17840    17919    17973    17964 
   17960    17982    17991    18015    18075    18131    18166    18199 
   18237    18253    18216    18146    18079    18021    17971    17953 
   17969    17980    18003    18077    18166    18216    18199    18127 
   18071    18021    17925    17836    17821    17857    17896    17910 
   17872    17786    17721    17736    17802    17853    17871    17861 
   17840    17836    17840    17845    17894    17959    17967    17923 
   17874    17836    17802    17753    17699    17674    17689    17725 
   17774    17829    17882    17944    17988    18002    18009    18013 
   17999    17979    17959    17955    17988    18021    18010    17984 
   17971    17991    18038    18069    18095    18141    18164    18133 
   18075    18046    18080    18122    18106    18046    18003    17990 
   17982    17984    18010    18058    18079    18037    18010    18034 
   18033    17994    17949    17919    17929    17936    17913    17894 
   17886    17865    17836    17814    17814    17841    17867    17829 
   17748    17701    17659    17605    17594    17613    17621    17624 
   17640    17660    17678    17697    17737    17766    17763    17770 
   17788    17798    17810    17821    17840    17861    17838    17801 
   17799    17828    17876    17914    17937    17971    17980    17972 
   18007    18046    18049    18064    18081    18073    18076    18072 
   18067    18103    18149    18177    18188    18173    18138    18096 
   18080    18108    18148    18168    18154    18117    18084    18061 
   18046    18040    18025    17995    17963    17913    17852    17832 
   17849    17849    17848    17857    17869    17898    17915    17915 
   17956    17999    17995    17964    17925    17906    17915    17929 
   17940    17952    17990    18041    18049    18025    18030    18052 
   18037    17983    17919    17865    17840    17859    17907    17940 
   17922    17880    17883    17937    17991    18022    18056    18108 
   18156    18185    18203    18210    18191    18154    18149    18172 
   18181    18177    18161    18135    18111    18100    18098    18050 
   17955    17890    17884    17891    17882    17883    17918    17932 
   17890    17867    17892    17910    17906    17918    17961    18009 
   18057    18117    18154    18153    18122    18072    18014    17979 
   17976    17967    17937    17906    17872    17826    17776    17726 
   17699    17694    17695    17732    17829    17929    17987    18034 
   18071    18056    18013    17988    17980    17953    17915    17903 
   17917    17917    17917    17934    17952    17950    17906    17825 
   17764    17756    17784    17838    17918    17998    18041    18064 
   18095    18110    18107    18119    18134    18122    18087    18046 
   18007    17982    17971    17957    17923    17874    17841    17840 
   17852    17856    17864    17896    17934    17932    17898    17872 
   17863    17856    17852    17868    17913    17956    17976    17992 
   18007    18011    18003    17991    17977    17967    17963    17957 
   17940    17925    17936    17956    17955    17934    17917    17903 
   17882    17868    17879    17896    17896    17891    17902    17918 
   17915    17925    17959    17988    17986    17959    17953    17965 
   17948    17922    17923    17913    17879    17868    17903    17937 
   17940    17948    17967    17955    17921    17898    17894    17898 
   17896    17890    17876    17868    17860    17829    17817    17855 
   17867    17820    17790    17814    17864    17918    17960    17968 
   17960    17968    17991    18011    18019    18010    17988    17957 
   17907    17840    17783    17749    17725    17707    17680    17655 
   17662    17703    17749    17780    17801    17832    17876    17914 
   17928    17936    17961    17996    18015    18026    18053    18079 
   18080    18072    18073    18081    18091    18096    18104    18138 
   18204    18258    18257    18226    18204    18181    18139    18098 
   18072    18076    18100    18100    18077    18081    18121    18150 
   18183    18239    18277    18272    18252    18222    18185    18153 
   18145    18161    18166    18161    18168    18183    18191    18179 
   18162    18154    18138    18146    18188    18191    18158    18131 
   18110    18107    18119    18107    18050    17986    17956    17955 
   17957    17938    17884    17830    17803    17771    17730    17701 
   17662    17617    17610    17635    17671    17712    17740    17744 
   17741    17772    17821    17855    17909    17972    17976    17936 
   17907    17903    17919    17937    17933    17914    17899    17902 
   17918    17928    17941    17976    18023    18068    18096    18133 
   18207    18272    18287    18303    18347    18377    18380    18374 
   18381    18396    18404    18412    18415    18407    18416    18432 
   18405    18341    18262    18199    18145    18054    17942    17869 
   17809    17722    17640    17589    17562    17550    17537    17544 
   17577    17602    17628    17670    17679    17622    17545    17498 
   17479    17477    17469    17459    17473    17504    17543    17591 
   17631    17655    17685    17739    17801    17817    17798    17797 
   17806    17810    17824    17821    17807    17820    17842    17853 
   17855    17844    17852    17895    17919    17907    17903    17932 
   17973    18010    18049    18087    18099    18100    18107    18115 
   18111    18103    18104    18094    18057    18027    17992    17944 
   17919    17918    17898    17863    17836    17829    17845    17872 
   17898    17923    17936    17942    17955    17959    17965    17972 
   17955    17929    17914    17905    17899    17892    17910    17956 
   17984    17983    17983    17994    18003    17991    17979    17998 
   18013    18013    18038    18091    18135    18172    18214    18253 
   18264    18256    18249    18252    18279    18319    18347    18350 
   18324    18287    18260    18238    18206    18166    18135    18117 
   18088    18049    18019    17998    17968    17938    17918    17922 
   17961    18022    18076    18112    18135    18142    18139    18131 
   18110    18079    18048    18018    17991    17955    17899    17853 
   17813    17743    17651    17572    17491    17406    17358    17351 
   17343    17320    17311    17321    17328    17343    17388    17448 
   17510    17572    17647    17725    17780    17826    17883    17938 
   17977    18003    18030    18054    18060    18057    18058    18057 
   18052    18044    18027    18004    17992    17983    17965    17936 
   17919    17942    17956    17937    17936    17957    17960    17944 
   17938    17948    17949    17944    17952    17955    17928    17896 
   17890    17894    17884    17860    17847    17842    17832    17842 
   17882    17913    17945    18000    18060    18094    18112    18150 
   18203    18231    18226    18218    18220    18231    18254    18289 
   18318    18345    18368    18357    18338    18342    18343    18337 
   18333    18324    18326    18345    18360    18360    18339    18301 
   18261    18229    18206    18179    18134    18073    18002    17918 
   17842    17780    17716    17648    17586    17533    17486    17444 
   17409    17397    17412    17442    17469    17497    17540    17590 
   17649    17726    17795    17834    17849    17876    17915    17937 
   17944    17952    17963    17972    17987    18009    18023    18029 
   18036    18042    18042    18033    18022    18010    17987    17965 
   17965    17991    18031    18077    18139    18216    18269    18270 
   18241    18208    18164    18107    18052    18007    17982    17950 
   17898    17842    17799    17761    17739    17744    17775    17803 
   17793    17768    17790    17838    17867    17878    17887    17902 
   17933    17975    18018    18072    18123    18153    18172    18208 
   18250    18266    18256    18254    18260    18242    18219    18237 
   18285    18322    18343    18370    18385    18368    18338    18326 
   18320    18299    18266    18252    18252    18254    18265    18289 
   18327    18368    18385    18381    18355    18289    18210    18137 
   18061    17979    17903    17860    17849    17852    17878    17928 
   17976    18023    18081    18164    18250    18307    18360    18422 
   18462    18490    18523    18549    18571    18589    18582    18554 
   18536    18536    18526    18481    18399    18293    18183    18080 
   17991    17899    17795    17702    17621    17552    17502    17447 
   17362    17275    17213    17161    17107    17065    17039    17031 
   17046    17074    17100    17124    17172    17247    17317    17351 
   17358    17369    17398    17436    17464    17479    17489    17500 
   17514    17537    17570    17589    17602    17640    17695    17743 
   17767    17776    17795    17832    17867    17899    17934    17964 
   18000    18037    18052    18060    18087    18133    18160    18156 
   18152    18149    18126    18099    18088    18075    18038    17995 
   17948    17915    17921    17928    17906    17875    17840    17809 
   17780    17733    17689    17662    17620    17558    17508    17496 
   17505    17517    17540    17578    17612    17633    17674    17743 
   17797    17833    17880    17919    17928    17923    17919    17914 
   17907    17919    17957    17995    18027    18079    18138    18177 
   18188    18183    18172    18172    18184    18192    18183    18172 
   18183    18214    18257    18299    18339    18374    18393    18405 
   18428    18459    18481    18488    18495    18504    18493    18466 
   18461    18478    18480    18462    18446    18430    18423    18431 
   18427    18395    18334    18266    18225    18192    18129    18056 
   17996    17936    17884    17857    17832    17786    17739    17710 
   17676    17625    17571    17524    17482    17450    17421    17389 
   17350    17308    17261    17201    17146    17112    17088    17066 
   17057    17065    17085    17111    17139    17181    17243    17317 
   17402    17494    17582    17662    17732    17798    17861    17915 
   17955    17990    18031    18065    18079    18098    18123    18150 
   18187    18225    18243    18253    18277    18307    18322    18326 
   18315    18287    18260    18234    18199    18165    18139    18126 
   18125    18131    18144    18161    18187    18212    18225    18230 
   18243    18268    18293    18318    18342    18350    18337    18322 
   18318    18308    18285    18245    18202    18169    18141    18110 
   18080    18050    18026    18021    18025    18022    18025    18030 
   18038    18065    18100    18118    18117    18095    18080    18088 
   18087    18076    18072    18068    18069    18096    18138    18171 
   18181    18189    18199    18187    18154    18126    18102    18065 
   18013    17949    17895    17855    17807    17755    17698    17644 
   17608    17574    17547    17535    17512    17481    17471    17469 
   17463    17487    17529    17568    17617    17670    17706    17748 
   17794    17836    17883    17937    17992    18049    18111    18179 
   18233    18261    18277    18280    18258    18220    18176    18130 
   18091    18061    18037    18026    18031    18041    18054    18072 
   18087    18094    18094    18104    18114    18114    18123    18145 
   18157    18160    18162    18162    18166    18185    18199    18198 
   18187    18169    18142    18119    18104    18075    18040    18023 
   18006    17964    17923    17914    17928    17941    17968    18004 
   18006    17982    17969    17956    17944    17959    17991    18019 
   18033    18037    18046    18053    18040    18023    18018    17996 
   17968    17959    17953    17942    17948    17960    17949    17937 
   17956    17979    17975    17967    17988    18023    18040    18040 
   18061    18085    18085    18092    18125    18161    18188    18208 
   18231    18241    18234    18226    18204    18154    18079    18014 
   17976    17936    17880    17837    17805    17768    17736    17707 
   17680    17679    17716    17770    17821    17864    17907    17955 
   17987    18003    18021    18042    18057    18071    18083    18094 
   18098    18083    18058    18041    18029    18015    17986    17946 
   17911    17880    17840    17794    17751    17716    17679    17645 
   17633    17635    17637    17651    17682    17724    17768    17810 
   17848    17882    17922    17972    18023    18056    18065    18061 
   18034    17995    17967    17948    17926    17898    17868    17852 
   17840    17822    17813    17803    17764    17701    17653    17639 
   17643    17649    17664    17683    17697    17712    17736    17775 
   17825    17876    17928    17975    18009    18034    18061    18087 
   18102    18100    18098    18099    18095    18071    18033    18002 
   17980    17953    17918    17888    17882    17888    17911    17956 
   18010    18068    18133    18199    18264    18314    18334    18341 
   18355    18373    18380    18384    18395    18400    18393    18388 
   18382    18358    18314    18274    18250    18216    18161    18096 
   18026    17967    17932    17913    17896    17882    17861    17859 
   17874    17883    17890    17915    17949    17971    17980    17994 
   18010    18015    18017    18027    18049    18084    18125    18162 
   18184    18183    18169    18146    18112    18087    18067    18045 
   18021    17984    17940    17902    17871    17838    17806    17775 
   17739    17707    17682    17653    17621    17599    17589    17590 
   17605    17624    17658    17703    17741    17771    17806    17842 
   17867    17883    17890    17882    17861    17857    17882    17910 
   17928    17953    17982    17988    17979    17972    17961    17933 
   17888    17849    17828    17809    17782    17776    17784    17775 
   17767    17767    17767    17776    17790    17805    17829    17849 
   17868    17892    17913    17930    17950    17975    17991    18004 
   18027    18060    18081    18087    18077    18053    18013    17973 
   17952    17929    17895    17859    17826    17793    17753    17718 
   17702    17694    17671    17644    17637    17645    17648    17645 
   17637    17635    17643    17658    17680    17718    17751    17775 
   17811    17857    17906    17963    18014    18068    18127    18171 
