Origin Time       2025/01/13 21:19:00
Lat.              31.8
Long.             131.6
Depth. (km)       30
Mag.              6.9
Station Code      KGW005
Station Lat.      34.1139
Station Long.     133.6353
Station Height(m) 1
Record Time       2025/01/13 21:20:53
Sampling Freq(Hz) 100Hz
Duration Time(s)  115
Dir.              U-D
Scale Factor      7845(gal)/8223790
Max. Acc. (gal)   1.686
Last Correction   2025/01/13 21:20:54
Memo.             
[...]
   25840    25822    25805    25764    25756    25724    25659    25660 
   25720    25793    25856    25834    25760    25695    25601    25524 
   25560    25639    25666    25677    25724    25766    25770    25801 
   25878    25891    25837    25805    25763    25721    25770    25849 
   25890    25945    26036    26157    26304    26420    26518    26639 
   26725    26748    26762    26731    26650    26609    26611    26646 
   26711    26731    26716    26719    26700    26657    26651    26655 
   26582    26450    26346    26276    26234    26246    26296    26331 
   26311    26233    26158    26134    26154    26191    26204    26200 
   26226    26284    26323    26316    26311    26360    26393    26370 
   26387    26443    26442    26389    26368    26366    26370    26430 
   26523    26590    26626    26631    26599    26524    26443    26392 
   26342    26272    26214    26177    26138    26083    26026    25991 
   25971    25948    25932    25948    25976    25967    25911    25874 
   25886    25899    25897    25907    25918    25894    25856    25851 
   25879    25930    26002    26056    26073    26110    26167    26184 
   26190    26211    26179    26087    26029    25998    25925    25824 
   25721    25627    25564    25524    25509    25539    25548    25512 
   25490    25469    25432    25458    25523    25555    25602    25662 
   25677    25716    25805    25866    25932    26029    26087    26125 
   26190    26248    26318    26424    26496    26535    26593    26613 
   26557    26516    26532    26550    26550    26549    26558    26562 
   26534    26507    26504    26495    26468    26443    26419    26353 
   26219    26071    25945    25813    25698    25633    25589    25547 
   25504    25448    25444    25523    25587    25625    25683    25709 
   25709    25745    25774    25778    25812    25848    25864    25930 
   26048    26117    26140    26158    26152    26123    26131    26188 
   26253    26283    26279    26252    26210    26163    26131    26153 
   26191    26198    26245    26338    26377    26404    26512    26608 
   26627    26661    26717    26730    26709    26681    26663    26704 
   26779    26833    26859    26836    26750    26642    26539    26439 
   26338    26287    26262    26185    26098    26025    25925    25849 
   25839    25856    25920    26010    26018    25963    25940    25872 
   25726    25644    25624    25578    25564    25593    25597    25632 
   25710    25755    25782    25829    25857    25872    25933    26034 
   26144    26245    26310    26350    26433    26515    26528    26549 
   26612    26613    26599    26673    26739    26711    26658    26604 
   26532    26464    26395    26334    26310    26289    26256    26256 
   26272    26265    26287    26341    26352    26331    26311    26258 
   26207    26202    26204    26191    26164    26110    26067    26079 
   26086    26061    26072    26115    26115    26084    26094    26131 
   26131    26099    26079    26068    26052    26045    26044    26019 
   25940    25795    25652    25552    25462    25412    25466    25571 
   25674    25774    25852    25913    26003    26111    26208    26312 
   26410    26477    26546    26616    26661    26738    26862    26951 
   27010    27090    27118    27093    27125    27182    27155    27098 
   27058    26989    26905    26835    26759    26692    26651    26609 
   26559    26515    26438    26337    26258    26161    26050    26019 
   26003    25921    25878    25925    25961    25964    25964    25936 
   25868    25803    25780    25825    25899    25944    25956    25968 
   25987    26007    26079    26171    26176    26136    26114    26079 
   26041    26029    26003    25983    26014    26045    26064    26096 
   26100    26072    26055    26041    26037    26057    26079    26100 
   26110    26111    26157    26229    26275    26339    26450    26522 
   26516    26515    26547    26559    26568    26628    26663    26617 
   26566    26515    26401    26273    26175    26049    25893    25759 
   25612    25451    25343    25249    25143    25089    25080    25081 
   25087    25073    25027    24989    24987    24979    24984    25054 
   25119    25146    25207    25292    25366    25450    25531    25575 
   25614    25666    25678    25686    25767    25874    25942    25980 
   25983    25974    25999    26048    26122    26225    26314    26388 
   26458    26470    26428    26418    26433    26438    26492    26596 
   26649    26617    26593    26627    26646    26619    26596    26558 
   26474    26372    26293    26283    26333    26381    26424    26474 
   26477    26428    26385    26345    26300    26293    26311    26310 
   26298    26275    26244    26215    26194    26195    26202    26171 
   26137    26157    26215    26271    26326    26387    26410    26385 
   26392    26442    26469    26481    26489    26465    26457    26492 
   26523    26565    26642    26693    26724    26774    26812    26829 
   26844    26819    26763    26736    26732    26725    26703    26653 
   26599    26615    26715    26802    26831    26840    26840    26819 
   26794    26788    26778    26731    26635    26515    26403    26287 
   26156    26064    26022    25983    25948    25929    25872    25797 
   25789    25783    25710    25635    25536    25400    25339    25351 
   25346    25365    25416    25442    25505    25625    25708    25795 
   25930    25999    26001    26015    26013    25984    25980    26001 
   26019    26064    26148    26212    26250    26316    26387    26423 
   26461    26464    26383    26288    26210    26104    26040    26055 
   26053    26019    25972    25876    25764    25664    25555    25469 
   25419    25375    25370    25424    25486    25547    25621    25658 
   25658    25677    25681    25643    25613    25612    25616    25651 
   25737    25836    25915    25978    26002    26017    26056    26071 
   26055    26050    26005    25890    25817    25810    25774    25736 
   25733    25701    25652    25629    25594    25551    25515    25467 
   25455    25492    25515    25537    25613    25686    25712    25737 
   25803    25884    25978    26099    26194    26244    26288    26304 
   26296    26329    26360    26338    26304    26252    26172    26106 
   26040    25968    25949    25967    25969    25975    26006    26025 
   26017    26003    25995    25982    25987    26037    26100    26167 
   26262    26362    26453    26576    26711    26808    26897    27006 
   27090    27147    27205    27249    27303    27384    27422    27430 
   27465    27461    27403    27357    27311    27256    27224    27205 
   27187    27168    27118    27036    26977    26962    26968    26971 
   26950    26860    26704    26578    26501    26416    26353    26337 
   26314    26288    26292    26303    26279    26241    26265    26333 
   26333    26285    26261    26227    26184    26187    26200    26181 
   26190    26231    26226    26231    26303    26339    26308    26310 
   26329    26303    26288    26281    26233    26218    26257    26285 
   26343    26451    26534    26561    26561    26535    26492    26461 
   26430    26384    26369    26368    26320    26269    26218    26122 
   26041    25974    25848    25712    25614    25496    25380    25312 
   25231    25158    25159    25157    25115    25087    25057    25045 
   25084    25114    25104    25093    25092    25066    25038    25099 
   25245    25378    25496    25598    25660    25706    25737    25762 
   25812    25864    25866    25826    25787    25725    25667    25667 
   25674    25658    25664    25705    25767    25841    25907    25961 
   26034    26133    26211    26280    26399    26531    26642    26751 
   26850    26928    27021    27112    27171    27244    27338    27395 
   27421    27417    27380    27376    27382    27351    27341    27334 
   27245    27120    27048    26985    26890    26800    26708    26590 
   26460    26307    26157    26045    25922    25766    25636    25533 
   25439    25380    25353    25336    25327    25336    25355    25357 
   25361    25393    25396    25373    25392    25419    25432    25485 
   25529    25532    25556    25593    25614    25654    25705    25755 
   25812    25840    25863    25948    26046    26125    26258    26410 
   26491    26561    26624    26632    26650    26708    26747    26779 
   26824    26832    26788    26731    26708    26693    26646    26613 
   26619    26651    26717    26769    26759    26754    26766    26750 
   26748    26786    26792    26744    26684    26607    26534    26487 
   26445    26403    26354    26266    26146    26023    25901    25790 
   25689    25571    25458    25367    25274    25177    25107    25065 
   25038    25018    24996    24964    24927    24918    24950    24992 
   25049    25112    25137    25177    25301    25458    25635    25843 
   26029    26187    26306    26381    26499    26646    26742    26831 
   26920    26948    26950    26948    26928    26927    26958    26975 
   26979    26985    26978    26970    26989    27012    27004    26968 
   26908    26808    26713    26642    26561    26480    26422    26334 
   26221    26165    26149    26083    26025    26015    25971    25907 
   25863    25801    25774    25818    25837    25816    25822    25843 
   25836    25810    25786    25779    25825    25906    25978    26048 
   26115    26144    26163    26211    26248    26250    26272    26311 
   26302    26253    26212    26167    26114    26094    26090    26071 
   26030    25976    25930    25902    25848    25758    25691    25644 
   25560    25493    25463    25427    25423    25450    25438    25431 
   25467    25473    25459    25504    25583    25635    25677    25729 
   25764    25809    25875    25914    25933    25969    26009    26041 
   26090    26148    26194    26254    26326    26388    26464    26501 
   26507    26565    26634    26696    26815    26919    26955    27004 
   27079    27129    27162    27195    27221    27222    27194    27124 
   27020    26920    26833    26744    26670    26607    26512    26412 
   26341    26283    26249    26234    26198    26122    26041    25963 
   25876    25821    25803    25766    25725    25717    25691    25650 
   25636    25612    25577    25579    25594    25587    25590    25590 
   25542    25470    25434    25417    25398    25404    25432    25462 
   25494    25529    25569    25621    25675    25713    25747    25783 
   25810    25859    25945    26009    26022    26060    26129    26168 
   26195    26231    26279    26322    26343    26376    26445    26484 
   26491    26522    26557    26547    26532    26526    26474    26404 
   26374    26358    26345    26343    26310    26238    26163    26096 
   26071    26064    26001    25890    25802    25712    25583    25492 
   25429    25336    25270    25257    25238    25267    25335    25331 
   25312    25348    25390    25442    25525    25585    25623    25677 
   25708    25718    25790    25879    25911    25960    26055    26131 
   26188    26235    26257    26266    26295    26338    26395    26468 
   26516    26526    26557    26581    26553    26555    26611    26636 
   26654    26694    26703    26700    26736    26743    26704    26704 
   26721    26739    26793    26847    26870    26894    26932    26958 
   26986    27036    27052    27008    26944    26870    26798    26770 
   26746    26677    26617    26568    26495    26446    26420    26372 
   26341    26338    26319    26327    26399    26442    26426    26416 
   26397    26339    26307    26308    26293    26291    26302    26287 
   26264    26250    26237    26234    26235    26234    26230    26207 
   26161    26122    26119    26150    26184    26198    26191    26154 
   26122    26130    26127    26102    26126    26168    26167    26177 
   26192    26167    26168    26180    26136    26103    26114    26082 
   26005    25936    25872    25818    25783    25739    25681    25628 
   25560    25479    25417    25377    25339    25304    25290    25273 
   25255    25284    25323    25347    25398    25452    25473    25486 
   25524    25609    25740    25872    25992    26144    26288    26361 
   26441    26565    26654    26721    26801    26855    26897    26958 
   27017    27097    27205    27279    27303    27338    27368    27352 
   27337    27337    27313    27267    27206    27135    27056    26960 
   26843    26731    26631    26511    26388    26299    26200    26072 
   25969    25884    25790    25740    25736    25698    25658    25655 
   25639    25628    25664    25706    25741    25771    25760    25759 
   25824    25880    25914    25984    26050    26077    26088    26114 
   26177    26257    26310    26345    26372    26362    26310    26254 
   26252    26292    26318    26337    26369    26362    26323    26306 
   26284    26242    26227    26212    26172    26150    26123    26076 
   26042    26002    25937    25882    25814    25698    25590    25508 
   25398    25297    25245    25182    25105    25041    24960    24861 
   24796    24765    24725    24687    24661    24619    24601    24622 
   24629    24657    24745    24811    24838    24898    24962    24995 
   25039    25105    25161    25209    25254    25315    25435    25581 
   25733    25914    26086    26207    26306    26430    26585    26738 
   26882    27021    27136    27237    27349    27456    27552    27648 
   27733    27797    27850    27877    27886    27911    27919    27888 
   27884    27903    27878    27828    27769    27684    27594    27507 
   27411    27334    27268    27166    27054    26936    26771    26622 
   26542    26484    26431    26395    26346    26277    26218    26184 
   26165    26156    26145    26113    26073    26041    25996    25959 
   25944    25893    25817    25791    25776    25726    25697    25685 
   25643    25620    25632    25635    25658    25702    25699    25697 
   25740    25760    25762    25787    25794    25785    25782    25749 
   25694    25674    25679    25677    25683    25724    25762    25789 
   25849    25920    25969    26009    26021    26032    26100    26180 
   26222    26280    26333    26335    26365    26428    26454    26474 
   26493    26458    26437    26454    26435    26396    26380    26342 
   26279    26233    26165    26068    26003    25956    25882    25821 
   25785    25745    25714    25699    25654    25573    25519    25492 
   25452    25448    25477    25496    25550    25598    25564    25527 
   25516    25488    25489    25516    25490    25452    25458    25451 
   25439    25473    25510    25547    25610    25616    25587    25643 
   25699    25712    25793    25901    25960    26038    26152    26238 
   26322    26427    26523    26605    26697    26793    26875    26946 
   27014    27072    27130    27190    27229    27263    27282    27261 
   27256    27284    27275    27237    27233    27214    27143    27072 
   27010    26951    26933    26924    26858    26766    26677    26576 
   26477    26408    26350    26291    26237    26172    26087    26021 
   25974    25920    25875    25832    25764    25732    25745    25725 
   25698    25712    25702    25664    25654    25627    25586    25589 
   25586    25552    25566    25604    25598    25590    25608    25609 
   25601    25620    25633    25617    25583    25532    25512    25532 
   25525    25492    25493    25517    25519    25540    25593    25612 
   25627    25682    25716    25728    25772    25809    25822    25848 
   25875    25893    25937    25994    26022    26049    26083    26096 
   26117    26154    26192    26250    26327    26385    26420    26455 
   26484    26500    26528    26547    26535    26550    26601    26620 
   26623    26659    26678    26651    26638    26628    26581    26557 
   26553    26499    26454    26460    26453    26428    26400    26337 
   26276    26249    26206    26148    26122    26091    26021    25951 
   25911    25911    25938    25959    25968    25990    26009    25998 
   25987    26013    26022    25983    25976    25990    25975    25983 
   25995    25957    25934    25928    25897    25888    25911    25930 
   25957    25988    26002    26028    26072    26109    26164    26249 
   26326    26400    26492    26578    26647    26717    26801    26870 
   26925    26981    27000    26995    27029    27063    27075    27097 
   27093    27060    27049    27018    26958    26927    26896    26840 
   26801    26751    26665    26604    26551    26462    26392    26331 
   26217    26111    26030    25920    25820    25755    25691    25643 
   25606    25550    25489    25443    25393    25340    25305    25285 
   25246    25184    25151    25158    25159    25166    25192    25204 
   25236    25303    25350    25411    25508    25570    25601    25631 
   25641    25674    25732    25753    25779    25840    25871    25886 
   25945    26014    26067    26144    26246    26331    26412    26497 
   26576    26665    26777    26863    26910    26979    27064    27114 
   27170    27241    27267    27284    27333    27345    27336    27364 
   27378    27365    27356    27303    27211    27137    27070    26997 
   26955    26940    26897    26827    26757    26674    26572    26474 
   26383    26295    26235    26179    26110    26057    26002    25934 
   25920    25934    25894    25855    25861    25822    25776    25812 
   25843    25832    25841    25851    25833    25828    25834    25844 
   25853    25826    25775    25751    25756    25762    25780    25805 
   25801    25786    25770    25735    25698    25666    25645    25641 
   25632    25617    25596    25569    25556    25562    25575    25587 
   25583    25569    25552    25533    25525    25527    25524    25528 
   25540    25550    25563    25577    25573    25598    25660    25671 
   25645    25666    25689    25670    25678    25718    25728    25749 
   25807    25820    25799    25826    25874    25901    25953    26015 
   26032    26042    26067    26087    26131    26195    26215    26222 
   26258    26287    26325    26406    26457    26468    26507    26542 
   26546    26590    26665    26712    26770    26842    26874    26898 
   26944    26986    27031    27083    27124    27153    27160    27113 
   27037    26982    26935    26863    26815    26784    26694    26581 
   26501    26393    26265    26181    26092    25963    25871    25818 
   25763    25733    25716    25659    25602    25583    25566    25547 
   25543    25543    25543    25570    25620    25662    25717    25793 
   25853    25917    26007    26088    26137    26169    26188    26225 
   26302    26380    26437    26487    26519    26536    26549    26523 
   26504    26522    26509    26485    26507    26515    26472    26442 
   26433    26422    26423    26400    26369    26384    26391    26365 
   26384    26420    26414    26416    26443    26446    26443    26474 
   26522    26549    26561    26578    26596    26607    26619    26592 
   26515    26473    26461    26416    26368    26307    26181    26071 
   26009    25925    25849    25806    25737    25659    25620    25569 
   25498    25467    25448    25408    25402    25425    25415    25388 
   25384    25380    25404    25481    25543    25573    25614    25664 
