Origin Time       2025/01/13 21:19:00
Lat.              31.8
Long.             131.6
Depth. (km)       30
Mag.              6.9
Station Code      KMM005
Station Lat.      32.8761
Station Long.     130.8771
Station Height(m) 125
Record Time       2025/01/13 21:20:03
Sampling Freq(Hz) 100Hz
Duration Time(s)  93
Dir.              E-W
Scale Factor      7845(gal)/8223790
Max. Acc. (gal)   12.097
Last Correction   2025/01/13 21:20:03
Memo.             
[...]
  -17544   -17658   -17672   -17450   -16973   -16276   -15329   -14210 
  -13136   -12216   -11533   -11307   -11638   -12476   -13760   -15314 
  -16796   -17888   -18543   -18835   -18758   -18474   -18157   -17689 
  -17077   -16518   -15975   -15325   -14661   -14139   -13734   -13387 
  -13177   -13104   -13173   -13545   -14149   -14686   -15121   -15583 
  -16050   -16475   -16937   -17393   -17602   -17571   -17525   -17464 
  -17278   -17072   -16997   -17065   -17200   -17248   -16983   -16378 
  -15669   -15006   -14459   -14210   -14304   -14503   -14578   -14519 
  -14407   -14359   -14609   -15219   -15911   -16456   -16837   -17035 
  -17080   -17089   -17070   -16916   -16679   -16565   -16600   -16673 
  -16752   -16742   -16532   -16156   -15657   -14958   -14061   -13262 
  -12839   -12750   -12924   -13327   -13764   -14156   -14598   -15087 
  -15500   -15813   -16087   -16249   -16233   -16147   -16019   -15861 
  -15882   -16174   -16614   -17128   -17624   -17903   -17865   -17586 
  -17139   -16632   -16287   -16197   -16148   -15979   -15808   -15730 
  -15719   -15862   -16148   -16276   -16108   -15884   -15797   -15907 
  -16310   -16924   -17371   -17419   -17159   -16708   -16179   -15769 
  -15510   -15326   -15357   -15757   -16348   -16787   -16935   -16931 
  -16919   -16954   -17027   -16964   -16634   -16201   -15769   -15219 
  -14558   -13872   -13186   -12688   -12698   -13294   -14319   -15572 
  -16734   -17404   -17523   -17389   -17150   -16810   -16511   -16355 
  -16222   -16032   -15882   -15776   -15612   -15454   -15338   -15129 
  -14877   -14773   -14777   -14759   -14769   -14852   -14909   -14890 
  -14832   -14686   -14428   -14218   -14193   -14364   -14756   -15322 
  -15865   -16314   -16714   -16949   -16910   -16690   -16393   -16054 
  -15786   -15672   -15546   -15259   -14939   -14650   -14278   -13977 
  -13996   -14245   -14539   -14891   -15287   -15589   -15738   -15776 
  -15670   -15430   -15167   -14821   -14265   -13703   -13521   -13792 
  -14320   -14929   -15377   -15460   -15311   -15156   -15013   -14933 
  -15018   -15168   -15195   -15102   -14960   -14760   -14632   -14720 
  -14909   -15095   -15395   -15800   -16106   -16251   -16301   -16256 
  -16119   -15982   -15869   -15665   -15418   -15271   -15122   -14848 
  -14496   -14081   -13649   -13351   -13246   -13244   -13340   -13697 
  -14339   -15126   -16071   -17154   -18061   -18590   -18752   -18493 
  -17934   -17442   -17166   -17049   -17082   -17227   -17362   -17451 
  -17587   -17786   -17918   -17992   -18079   -18021   -17739   -17440 
  -17216   -16997   -16802   -16652   -16483   -16293   -16231   -16352 
  -16603   -17113   -17932   -18725   -19267   -19568   -19576   -19302 
  -18906   -18465   -17891   -17158   -16376   -15622   -14924   -14392 
  -14034   -13737   -13595   -13765   -14152   -14557   -14898   -15087 
  -15033   -14891   -14987   -15394   -15950   -16622   -17324   -17821 
  -18131   -18327   -18229   -17824   -17301   -16652   -15823   -15018 
  -14480   -14214   -14207   -14558   -15222   -16065   -17061   -18144 
  -19141   -19965   -20622   -21122   -21485   -21786   -21994   -21961 
  -21716   -21375   -20935   -20443   -19989   -19477   -18847   -18304 
  -18006   -17810   -17610   -17485   -17317   -16856   -16151   -15415 
  -14758   -14377   -14458   -14858   -15368   -15966   -16519   -16835 
  -16989   -17161   -17278   -17165   -16846   -16403   -15780   -15039 
  -14350   -13765   -13362   -13296   -13510   -13745   -13811   -13632 
  -13216   -12761   -12583   -12768   -13157   -13670   -14262   -14773 
  -15151   -15493   -15770   -15904   -15996   -16100   -16039   -15716 
  -15230   -14612   -13914   -13275   -12746   -12320   -12044   -11983 
  -12089   -12233   -12490   -12965   -13500   -13948   -14381   -14804 
  -15128   -15300   -15226   -14860   -14347   -13761   -12953   -11928 
  -10952   -10189    -9664    -9347    -9090    -8792    -8581    -8653 
   -8954    -9328    -9803   -10440   -11188   -12051   -13047   -14035 
  -14883   -15572   -16006   -16094   -15992   -15877   -15676   -15291 
  -14841   -14481   -14157   -13824   -13555   -13279   -12914   -12603 
  -12424   -12278   -12220   -12353   -12623   -13066   -13869   -14990 
  -16143   -17173   -18029   -18628   -19071   -19545   -19993   -20299 
  -20488   -20464   -20019   -19299   -18696   -18283   -17946   -17724 
  -17609   -17473   -17311   -17192   -17061   -16924   -17004   -17338 
  -17680   -17945   -18195   -18347   -18349   -18315   -18295   -18243 
  -18176   -18106   -17953   -17689   -17381   -17057   -16726   -16467 
  -16256   -15934   -15479   -14975   -14372   -13635   -12914   -12394 
  -12191   -12407   -13077   -14041   -15138   -16398   -17690   -18770 
  -19735   -20687   -21405   -21794   -21956   -21870   -21444   -20695 
  -19739   -18675   -17641   -16870   -16455   -16317   -16461   -16885 
  -17486   -18262   -19241   -20297   -21298   -22246   -23036   -23450 
  -23546   -23483   -23209   -22767   -22280   -21672   -20904   -20154 
  -19539   -18948   -18292   -17721   -17273   -16787   -16289   -15830 
  -15249   -14567   -14022   -13663   -13396   -13304   -13494   -13886 
  -14453   -15295   -16293   -17203   -17934   -18324   -18092   -17216 
  -15963   -14609   -13315   -12145   -11091   -10119    -9309    -8784 
   -8502    -8345    -8295    -8264    -8174    -8159    -8286    -8437 
   -8573    -8731    -8880    -9005    -9173    -9418    -9678    -9960 
  -10411   -11013   -11624   -12260   -12872   -13275   -13516   -13722 
  -13860   -13896   -13878   -13776   -13535   -13355   -13587   -14247 
  -15147   -16209   -17311   -18323   -19311   -20325   -21247   -21988 
  -22574   -22971   -23117   -23074   -22923   -22588   -22002   -21234 
  -20283   -19095   -17799   -16537   -15313   -14258   -13491   -12864 
  -12332   -12120   -12347   -12927   -13814   -14970   -16208   -17401 
  -18692   -20120   -21482   -22648   -23587   -24187   -24379   -24232 
  -23807   -23121   -22349   -21672   -21034   -20386   -19886   -19525 
  -19132   -18736   -18403   -18018   -17590   -17282   -16993   -16491 
  -15898   -15464   -15198   -15051   -15033   -15068   -15072   -15151 
  -15394   -15680   -15890   -15876   -15375   -14381   -13177   -11919 
  -10635    -9437    -8403    -7503    -6791    -6334    -6029    -5848 
   -5988    -6542    -7283    -7938    -8494    -9059    -9703   -10597 
  -11782   -13053   -14381   -15778   -16981   -17793   -18223   -18295 
  -17949   -17240   -16455   -15739   -15064   -14526   -14118   -13802 
  -13767   -14077   -14507   -14836   -15032   -15180   -15329   -15546 
  -15782   -15853   -15876   -16075   -16344   -16536   -16646   -16723 
  -16834   -17023   -17363   -17840   -18293   -18662   -18897   -18875 
  -18697   -18507   -18149   -17551   -16904   -16299   -15678   -15090 
  -14608   -14185   -13899   -14000   -14459   -14937   -15248   -15372 
  -15241   -14841   -14226   -13321   -12074   -10729    -9571    -8677 
   -8174    -8259    -8857    -9757   -10893   -12193   -13491   -14764 
  -16059   -17184   -17824   -17946   -17721   -17293   -16864   -16548 
  -16243   -15943   -15817   -15907   -16105   -16326   -16497   -16536 
  -16480   -16480   -16596   -16785   -17023   -17227   -17301   -17319 
  -17356   -17281   -16991   -16586   -16144   -15677   -15377   -15464 
  -15850   -16430   -17212   -18058   -18801   -19442   -19988   -20345 
  -20529   -20746   -21060   -21404   -21849   -22383   -22816   -23120 
  -23427   -23722   -23890   -24012   -24186   -24263   -24143   -23946 
  -23692   -23340   -23035   -22909   -22902   -22983   -23218   -23487 
  -23517   -23225   -22630   -21693   -20557   -19450   -18403   -17382 
  -16484   -15846   -15496   -15392   -15468   -15553   -15502   -15337 
  -15055   -14638   -14208   -13805   -13352   -12899   -12564   -12278 
  -11938   -11631   -11377   -11091   -10883   -10852   -10875   -10872 
  -10925   -11090   -11306   -11635   -12190   -12749   -13136   -13543 
  -13949   -14143   -14264   -14489   -14675   -14746   -14802   -14759 
  -14446   -13956   -13447   -12858   -12155   -11524   -11076   -10797 
  -10768   -10976   -11203   -11433   -11816   -12255   -12579   -12831 
  -13031   -13031   -12820   -12546   -12167   -11541   -10760    -9968 
   -9154    -8414    -7989    -7952    -8257    -8965   -10012   -11118 
  -12143   -13090   -13886   -14558   -15264   -15963   -16514   -16916 
  -17138   -17065   -16752   -16401   -16093   -15840   -15700   -15628 
  -15473   -15222   -14947   -14574   -14049   -13558   -13254   -13100 
  -13124   -13386   -13797   -14297   -14890   -15448   -15811   -15988 
  -16062   -16023   -15951   -16105   -16556   -17211   -18094   -19126 
  -20077   -20879   -21570   -22036   -22172   -22080   -21848   -21384 
  -20672   -19832   -18854   -17753   -16762   -15969   -15223   -14567 
  -14135   -13821   -13521   -13338   -13342   -13471   -13707   -14119 
  -14748   -15616   -16692   -17793   -18775   -19724   -20709   -21578 
  -22198   -22640   -22931   -23029   -23039   -23059   -23052   -23009 
  -23013   -23056   -23058   -23120   -23355   -23679   -24084   -24548 
  -24826   -24819   -24678   -24489   -24262   -24050   -23878   -23652 
  -23376   -23207   -23130   -22960   -22657   -22265   -21751   -21118 
  -20457   -19754   -18943   -18145   -17416   -16614   -15738   -14945 
  -14311   -13864   -13659   -13585   -13443   -13243   -13084   -12900 
  -12634   -12367   -12137   -11855   -11462   -11001   -10459    -9875 
   -9420    -9115    -8818    -8519    -8247    -7909    -7527    -7246 
   -7083    -7001    -7084    -7325    -7507    -7554    -7634    -7809 
   -8017    -8333    -8820    -9390   -10017   -10758   -11539   -12244 
  -12923   -13586   -14077   -14427   -14766   -15030   -15126   -15061 
  -14856   -14553   -14262   -14073   -13876   -13536   -13149   -12798 
  -12465   -12285   -12324   -12402   -12463   -12667   -13085   -13713 
  -14593   -15714   -16949   -18168   -19298   -20193   -20698   -20845 
  -20680   -20158   -19435   -18733   -18050   -17417   -16995   -16810 
  -16772   -16892   -17189   -17482   -17591   -17509   -17158   -16482 
  -15684   -14937   -14191   -13468   -12915   -12565   -12378   -12406 
  -12646   -12926   -13171   -13463   -13764   -14018   -14322   -14679 
  -14928   -15013   -14975   -14743   -14297   -13851   -13547   -13302 
  -13117   -13024   -12892   -12677   -12523   -12479   -12498   -12654 
  -12989   -13332   -13601   -13896   -14161   -14257   -14281   -14378 
  -14532   -14789   -15256   -15822   -16337   -16875   -17440   -17856 
  -18040   -17983   -17622   -17047   -16517   -16217   -16150   -16237 
  -16401   -16524   -16632   -16897   -17334   -17799   -18281   -18797 
  -19182   -19322   -19284   -19045   -18562   -18021   -17620   -17393 
  -17389   -17648   -18064   -18535   -19098   -19711   -20181   -20461 
  -20641   -20672   -20526   -20355   -20243   -20109   -19946   -19808 
  -19619   -19306   -18968   -18628   -18191   -17726   -17356   -17045 
  -16842   -16889   -17138   -17463   -17902   -18459   -18990   -19430 
  -19832   -20135   -20248   -20263   -20194   -19872   -19310   -18700 
  -18019   -17212   -16467   -15920   -15533   -15334   -15358   -15475 
  -15628   -15920   -16301   -16594   -16785   -16914   -16831   -16457 
  -15969   -15477   -14921   -14364   -13941   -13667   -13552   -13651 
  -13919   -14287   -14858   -15712   -16613   -17328   -17860   -18144 
  -18099   -17863   -17518   -17014   -16464   -16055   -15773   -15574 
  -15580   -15792   -16047   -16348   -16713   -16961   -17023   -17014 
  -16977   -16889   -16856   -16984   -17166   -17294   -17436   -17587 
  -17662   -17729   -17833   -17807   -17590   -17297   -16897   -16320 
  -15627   -14798   -13794   -12814   -12066   -11531   -11168   -11038 
  -11090   -11076   -10926   -10746   -10424    -9877    -9304    -8854 
   -8554    -8465    -8586    -8784    -8986    -9252    -9556    -9815 
  -10170   -10717   -11276   -11722   -12075   -12299   -12332   -12248 
  -12133   -11925   -11623   -11349   -11102   -10887   -10856   -11014 
  -11168   -11260   -11367   -11433   -11372   -11252   -11076   -10794 
  -10501   -10280   -10057    -9792    -9566    -9410    -9274    -9285 
   -9645   -10280   -11030   -11865   -12667   -13327   -13917   -14503 
  -15020   -15421   -15732   -15944   -16077   -16290   -16714   -17270 
  -17952   -18879   -19989   -21151   -22391   -23641   -24723   -25598 
  -26231   -26449   -26199   -25682   -25031   -24223   -23341   -22523 
  -21735   -21050   -20723   -20790   -21185   -21988   -23095   -24152 
  -24966   -25552   -25861   -25888   -25814   -25747   -25633   -25515 
  -25490   -25492   -25459   -25536   -25794   -26099   -26401   -26703 
  -26836   -26681   -26296   -25682   -24754   -23591   -22299   -20856 
  -19388   -18215   -17397   -16811   -16515   -16544   -16726   -16997 
  -17458   -18067   -18640   -19120   -19519   -19684   -19537   -19184 
  -18636   -17923   -17282   -16852   -16606   -16596   -16842   -17184 
  -17529   -17907   -18189   -18137   -17690   -16911   -15803   -14478 
  -13188   -11989   -10814    -9783    -9046    -8598    -8456    -8681 
   -9186    -9772   -10343   -10825   -11102   -11172   -11090   -10785 
  -10254    -9671    -9103    -8479    -7827    -7230    -6637    -6010 
   -5495    -5152    -4839    -4553    -4365    -4195    -4004    -3850 
   -3669    -3384    -3154    -3138    -3276    -3520    -3912    -4315 
   -4548    -4664    -4762    -4773    -4708    -4687    -4689    -4718 
   -4953    -5440    -5998    -6555    -7172    -7825    -8536    -9467 
  -10675   -11997   -13317   -14627   -15815   -16772   -17560   -18204 
  -18631   -18901   -19110   -19213   -19186   -19086   -18863   -18442 
  -17933   -17485   -17140   -17012   -17221   -17687   -18303   -19067 
  -19948   -20834   -21671   -22488   -23191   -23681   -24065   -24376 
  -24501   -24429   -24189   -23747   -23168   -22576   -21911   -20958 
  -19710   -18377   -17019   -15651   -14431   -13447   -12711   -12328 
  -12312   -12499   -12780   -13178   -13614   -13965   -14354   -14889 
  -15456   -16060   -16794   -17524   -18158   -18836   -19591   -20302 
  -21030   -21863   -22630   -23205   -23619   -23773   -23571   -23122 
  -22466   -21440   -20009   -18399   -16762   -15175   -13884   -13069 
  -12669   -12696   -13257   -14297   -15601   -17012   -18486   -19897 
  -21162   -22351   -23319   -23886   -24205   -24417   -24509   -24498 
  -24445   -24397   -24329   -24267   -24244   -24178   -24021   -23766 
  -23257   -22430   -21444   -20362   -19167   -17977   -16881   -15894 
  -15165   -14812   -14759   -14904   -15228   -15715   -16247   -16730 
  -17192   -17567   -17713   -17680   -17510   -17127   -16667   -16313 
  -15954   -15542   -15228   -14989   -14748   -14598   -14621   -14764 
  -14932   -15101   -15196   -15083   -14821   -14536   -14173   -13775 
  -13522   -13385   -13232   -13173   -13308   -13497   -13686   -13977 
  -14266   -14408   -14470   -14392   -13953   -13215   -12376   -11445 
  -10466    -9641    -8989    -8395    -7927    -7736    -7769    -7913 
   -8263    -8822    -9398    -9944   -10439   -10663   -10540   -10281 
   -9975    -9509    -8873    -8152    -7391    -6731    -6350    -6216 
   -6215    -6331    -6520    -6697    -6897    -7234    -7717    -8311 
   -9104   -10134   -11223   -12241   -13219   -14114   -14862   -15520 
  -16094   -16521   -16949   -17540   -18211   -18944   -19870   -20943 
  -21980   -22932   -23799   -24472   -24910   -25197   -25300   -25128 
  -24808   -24463   -24001   -23453   -22956   -22435   -21847   -21385 
  -21122   -20873   -20560   -20231   -19785   -19121   -18299   -17316 
  -16125   -14851   -13640   -12519   -11581   -11048   -10989   -11314 
  -12043   -13171   -14474   -15811   -17154   -18373   -19342   -20067 
  -20555   -20698   -20479   -20085   -19577   -18979   -18522   -18320 
  -18261   -18354   -18671   -19103   -19552   -20029   -20471   -20699 
  -20657   -20420   -20000   -19395   -18756   -18234   -17849   -17706 
  -17874   -18181   -18565   -19107   -19637   -19944   -20096   -20159 
  -20085   -19897   -19692   -19458   -19106   -18669   -18199   -17643 
  -17089   -16636   -16110   -15419   -14697   -14017   -13363   -12787 
  -12368   -12093   -11952   -12052   -12349   -12656   -12961   -13315 
  -13559   -13555   -13356   -12969   -12347   -11641   -10991   -10339 
   -9753    -9441    -9432    -9625   -10042   -10727   -11556   -12442 
  -13386   -14250   -14939   -15514   -15940   -16163   -16290   -16434 
  -16552   -16584   -16627   -16725   -16729   -16677   -16691   -16646 
  -16495   -16374   -16279   -16156   -16079   -16090   -16050   -15888 
  -15711   -15508   -15147   -14683   -14260   -13875   -13572   -13441 
  -13412   -13437   -13629   -13967   -14303   -14651   -15099   -15558 
  -15919   -16214   -16397   -16294   -15909   -15354   -14651   -13913 
  -13360   -13068   -12988   -13126   -13455   -13855   -14258   -14704 
  -15084   -15225   -15225   -15269   -15368   -15552   -15840   -16104 
  -16325   -16683   -17216   -17824   -18517   -19352   -20194   -20881 
  -21381   -21600   -21400   -20858   -20123   -19153   -17946   -16686 
  -15483   -14327   -13270   -12361   -11547   -10827   -10258    -9845 
   -9544    -9373    -9374    -9435    -9448    -9549    -9810   -10103 
  -10405   -10825   -11362   -11958   -12730   -13726   -14739   -15662 
  -16475   -17034   -17250   -17178   -16857   -16347   -15822   -15392 
  -15067   -14924   -15067   -15480   -16078   -16838   -17699   -18588 
  -19570   -20667   -21747   -22671   -23332   -23692   -23791   -23750 
  -23706   -23589   -23317   -22981   -22573   -22053   -21500   -20939 
  -20378   -19900   -19494   -19008   -18372   -17717   -17159   -16641 
  -16166   -15786   -15368   -14868   -14426   -14002   -13478   -12958 
  -12607   -12391   -12259   -12267   -12312   -12266   -12221   -12139 
  -11859   -11481   -11194   -10956   -10625   -10230    -9882    -9580 
   -9367    -9323    -9304    -9155    -8961    -8800    -8631    -8483 
   -8437    -8471    -8541    -8684    -8901    -9170    -9567   -10091 
  -10588   -11111   -11874   -12864   -13936   -15032   -16070   -16876 
  -17424   -17826   -18063   -18100   -18104   -18218   -18439   -18796 
  -19327   -19934   -20498   -21055   -21583   -21949   -22177   -22434 
  -22727   -22968   -23187   -23437   -23707   -24021   -24389   -24702 
  -24950   -25262   -25602   -25851   -26006   -26049   -25883   -25475 
  -24845   -24005   -22999   -21949   -20945   -20013   -19240   -18689 
  -18296   -18033   -17923   -17864   -17716   -17513   -17344   -17173 
  -16914   -16544   -16029   -15349   -14655   -14102   -13635   -13257 
  -13086   -13108   -13212   -13360   -13525   -13605   -13525   -13329 
  -12997   -12447   -11730   -10897    -9879    -8753    -7743    -6941 
   -6331    -6021    -6150    -6690    -7570    -8741    -9995   -11137 
  -12179   -13099   -13794   -14311   -14721   -14922   -14824   -14508 
  -14045   -13470   -12987   -12773   -12784   -12995   -13485   -14165 
  -14856   -15579   -16335   -16987   -17563   -18100   -18415   -18478 
  -18458   -18388   -18243   -18121   -18118   -18204   -18345   -18636 
