Origin Time       2025/01/13 21:19:00
Lat.              31.8
Long.             131.6
Depth. (km)       30
Mag.              6.9
Station Code      KMM017
Station Lat.      32.2567
Station Long.     130.9245
Station Height(m) 153
Record Time       2025/01/13 21:19:46
Sampling Freq(Hz) 100Hz
Duration Time(s)  150
Dir.              U-D
Scale Factor      7845(gal)/8223790
Max. Acc. (gal)   17.641
Last Correction   2025/01/13 21:19:46
Memo.             
[...]
  -14083   -13730   -13630   -13498   -13090   -12519   -11932   -11375 
  -11165   -11685   -12672   -13446   -13649   -13505   -13567   -14121 
  -15087   -16347   -17517   -18192   -18488   -18550   -18488   -18755 
  -19292   -19484   -19314   -18972   -18152   -16910   -16054   -15768 
  -15190   -14053   -13235   -13436   -14499   -15838   -17093   -18431 
  -20021   -21401   -21822   -21323   -20673   -20206   -19678   -18921 
  -18010   -17377   -17443   -17779   -17775   -17703   -17880   -17950 
  -17678   -17217   -16772   -16511   -16414   -16279   -15904   -15115 
  -14207   -13950   -14486   -15106   -15311   -15276   -15525   -16364 
  -17965   -20605   -23849   -26492   -27826   -27924   -27094   -25803 
  -24818   -24854   -25805   -26833   -27432   -27477   -26809   -25813 
  -25218   -24781   -23708   -22316   -21629   -21582   -21263   -20691 
  -20765   -21452   -21539   -20599   -19840   -20239   -21177   -21871 
  -22570   -23357   -23441   -22693   -22195   -22557   -23233   -23633 
  -23556   -22756   -21159   -19384   -18104   -17269   -16897   -17361 
  -18291   -18952   -19469   -20225   -20826   -20575   -19244   -17047 
  -14651   -13053   -12726   -13196   -13486   -13047   -12460   -12357 
  -12055   -10928   -10282   -11880   -15182   -18211   -20495   -22592 
  -24136   -24822   -25343   -26211   -27325   -28551   -29689   -30304 
  -29984   -28703   -27037   -25605   -24120   -22162   -20394   -19303 
  -18196   -16704   -15315   -14440   -14355   -14994   -15834   -16907 
  -18558   -20154   -20791   -20606   -20248   -20062   -20372   -21381 
  -22252   -21620   -19500   -17369   -16139   -15442   -14928   -15083 
  -16370   -18318   -20056   -21365   -22505   -23557   -24228   -23811 
  -22152   -20671   -20686   -21698   -22810   -24047   -25466   -26538 
  -26744   -25866   -24015   -21929   -20376   -19394   -18805   -18782 
  -19592   -21028   -22453   -23642   -24475   -24139   -22464   -20633 
  -19481   -18994   -18995   -18941   -18372   -17613   -16939   -16152 
  -15395   -15095   -15344   -16110   -17323   -18469   -19147   -19623 
  -19928   -19712   -19495   -19961   -20486   -20263   -19649   -19398 
  -19631   -19959   -20007   -19662   -19163   -18698   -18314   -18346 
  -18581   -18134   -17579   -18439   -20424   -22141   -23383   -24849 
  -26736   -28453   -29245   -28601   -26536   -24062   -22551   -22118 
  -21651   -20804   -20466   -20788   -20606   -19364   -17837   -16781 
  -15954   -14652   -13089   -12474   -13231   -14565   -16117   -18073 
  -19882   -20910   -21489   -22202   -23105   -23634   -23156   -22135 
  -21381   -20360   -18472   -16887   -17234   -19237   -20644   -19909 
  -18121   -17004   -16615   -16281   -16090   -16657   -18176   -19863 
  -20714   -20817   -20866   -20621   -19334   -17313   -15749   -15357 
  -15827   -16537   -17332   -18387   -19615   -20559   -21042   -21415 
  -21861   -22235   -22538   -22912   -23365   -23850   -24564   -25589 
  -26316   -26364   -26457   -27160   -28109   -28918   -29326   -29120 
  -28674   -28321   -27704   -26763   -26229   -26580   -27295   -27507 
  -27237   -27268   -27557   -27008   -25259   -23076   -20853   -18520 
  -16677   -16051   -16424   -17342   -18709   -20216   -21289   -21562 
  -21236   -21041   -21350   -21945   -22743   -23800   -25020   -26295 
  -27338   -27743   -27391   -26524   -25635   -25057   -24549   -23808 
  -22873   -21838   -21141   -21406   -22144   -22054   -20961   -19835 
  -19197   -18881   -18736   -18528   -17826   -16583   -15395   -14743 
  -14470   -14521   -15099   -15607   -15178   -14168   -13548   -13501 
  -13809   -14709   -16335   -18052   -19102   -19464   -19576   -19668 
  -19746   -19911   -20340   -20806   -20761   -20177   -19275   -18002 
  -16711   -16078   -16031   -15934   -15552   -15074   -14509   -13752 
  -13066   -12730   -12478   -11923   -11124   -10562   -10854   -12069 
  -13347   -13872   -14022   -14521   -14987   -14744   -14260   -14175 
  -14143   -13846   -13795   -14296   -14863   -15240   -15858   -16794 
  -17379   -17290   -17194   -17906   -19194   -20048   -20237   -20690 
  -21872   -23075   -23778   -24154   -24116   -23483   -22374   -20686 
  -18639   -17560   -18121   -19053   -19284   -19444   -20085   -20451 
  -19890   -18889   -18110   -17486   -16703   -16027   -15954   -16528 
  -17640   -19110   -20416   -21311   -22007   -22558   -23002   -23552 
  -24186   -24815   -25685   -26850   -27820   -28336   -28707   -28998 
  -28784   -27815   -26287   -24829   -24247   -24715   -25516   -25991 
  -26131   -26041   -25574   -24632   -23441   -22547   -22331   -22639 
  -23188   -23820   -24306   -24493   -24516   -24503   -24183   -23371 
  -22561   -22304   -22632   -23479   -24686   -25724   -26234   -26361 
  -26053   -24953   -23280   -21901   -21305   -21220   -21320   -21713 
  -22423   -23047   -23226   -22916   -22239   -21304   -20163   -19022 
  -18254   -18100   -18450   -18886   -19083   -19028   -18954   -19148 
  -19525   -19726   -19774   -20002   -20538   -21093   -21115   -20572 
  -20070   -19678   -18860   -17641   -16621   -15996   -15439   -14609 
  -13404   -12152   -11295   -10751   -10318   -10210   -10535   -11059 
  -11655   -12372   -13181   -13868   -14156   -14061   -13774   -13406 
  -13285   -13875   -15190   -16633   -17695   -18621   -19697   -20488 
  -20602   -20202   -19511   -18590   -17648   -17085   -17057   -17334 
  -17782   -18576   -19819   -21169   -22121   -22796   -23739   -24915 
  -25821   -26258   -26303   -26121   -25942   -25752   -25369   -25039 
  -25247   -25791   -25976   -25829   -25929   -26291   -26539   -26698 
  -27145   -28119   -29355   -30042   -29598   -28475   -27330   -26094 
  -24825   -24109   -23992   -23885   -23746   -24125   -25004   -25809 
  -26407   -26923   -27103   -26727   -26019   -25200   -24266   -23430 
  -22900   -22322   -21398   -20476   -19889   -19654   -19759   -20105 
  -20569   -21311   -22535   -24128   -25547   -26153   -25936   -25398 
  -24661   -23430   -21702   -20009   -18898   -18268   -17679   -17084 
  -16607   -16279   -16290   -16688   -17066   -17122   -16954   -16594 
  -15900   -15006   -14216   -13479   -12766   -12505   -12649   -12498 
  -12082   -12054   -12397   -12744   -13271   -14154   -14918   -15241 
  -15566   -16310   -17242   -17934   -18198   -18137   -17944   -17676 
  -17447   -17437   -17643   -17965   -18287   -18423   -18284   -17980 
  -17712   -17548   -17577   -18056   -18781   -19052   -18887   -18916 
  -19029   -18778   -18457   -18473   -18731   -19101   -19481   -19660 
  -19616   -19430   -18989   -18385   -18053   -18006   -17767   -17332 
  -17215   -17419   -17420   -17153   -16970   -16818   -16397   -15870 
  -15696   -15961   -16409   -16964   -17825   -19072   -20456   -21597 
  -22357   -22928   -23446   -23785   -23928   -24128   -24493   -24918 
  -25303   -25585   -25870   -26389   -27075   -27653   -28152   -28776 
  -29412   -29785   -29928   -29995   -29825   -29327   -28875   -28661 
  -28221   -27191   -26019   -25374   -25191   -24880   -24210   -23344 
  -22297   -21051   -19919   -19253   -19044   -19045   -19021   -18728 
  -18017   -17185   -16731   -16725   -17065   -17786   -18524   -18715 
  -18438   -18119   -17815   -17452   -17246   -17386   -17612   -17662 
  -17716   -17903   -18063   -18189   -18450   -18843   -19236   -19580 
  -19924   -20225   -20266   -19822   -18982   -18057   -17207   -16428 
  -15727   -15101   -14605   -14386   -14526   -15001   -15705   -16525 
  -17452   -18409   -19198   -19846   -20663   -21678   -22343   -22234 
  -21618   -20893   -20137   -19383   -18731   -18242   -17952   -17972 
  -18403   -19003   -19361   -19534   -19939   -20680   -21366   -21590 
  -21443   -21359   -21550   -21747   -21478   -20675   -19939   -19830 
  -20133   -20287   -20135   -19955   -19958   -19977   -19880   -19897 
  -20175   -20623   -21266   -22027   -22628   -23149   -23901   -24769 
  -25389   -25663   -25731   -25674   -25401   -24841   -24240   -23993 
  -24062   -23958   -23521   -23233   -23352   -23368   -22894   -22285 
  -21940   -21735   -21543   -21629   -22153   -22945   -23908   -24939 
  -25776   -26329   -26684   -26775   -26443   -25766   -25038   -24375 
  -23631   -22721   -21828   -21257   -21119   -21269   -21514   -21806 
  -22110   -22200   -21949   -21612   -21471   -21458   -21357   -21145 
  -20907   -20621   -20363   -20366   -20672   -21089   -21371   -21257 
  -20603   -19606   -18654   -17921   -17381   -17069   -16941   -16838 
  -16800   -17001   -17383   -17626   -17514   -17051   -16317   -15493 
  -14820   -14404   -14242   -14211   -14091   -13846   -13679   -13653 
  -13616   -13489   -13363   -13398   -13664   -14079   -14563   -15034 
  -15404   -15708   -15978   -16229   -16529   -16838   -16995   -16860 
  -16353   -15503   -14557   -13846   -13490   -13320   -13205   -13153 
  -13197   -13427   -13837   -14220   -14530   -14875   -15155   -15228 
  -15206   -15246   -15240   -14949   -14519   -14385   -14547   -14629 
  -14632   -14855   -15272   -15589   -15769   -16046   -16537   -17134 
  -17687   -18131   -18472   -18740   -19047   -19548   -20162   -20587 
  -20630   -20305   -19805   -19481   -19642   -20413   -21710   -23220 
  -24563   -25543   -26176   -26604   -26977   -27306   -27550   -27757 
  -27926   -27997   -28034   -28183   -28513   -29041   -29779   -30654 
  -31500   -32178   -32661   -33035   -33358   -33531   -33423   -33052 
  -32537   -31957   -31224   -30268   -29326   -28665   -28169   -27665 
  -27301   -27147   -26983   -26763   -26721   -26881   -26946   -26680 
  -26082   -25375   -24906   -24768   -24741   -24679   -24563   -24355 
  -24181   -24297   -24638   -24856   -24914   -25069   -25373   -25654 
  -25893   -26196   -26457   -26376   -25843   -25014   -24117   -23349 
  -22763   -22262   -21832   -21582   -21479   -21271   -20799   -20024 
  -18821   -17208   -15549   -14208   -13225   -12544   -12275   -12460 
  -12810   -13047   -13166   -13177   -13082   -12964   -12773   -12447 
  -12091   -11749   -11408   -11263   -11423   -11657   -11743   -11738 
  -11754   -11794   -11832   -11924   -12231   -12852   -13720   -14679 
  -15564   -16282   -16822   -17178   -17451   -17853   -18473   -19170 
  -19751   -20100   -20186   -20121   -20021   -19912   -19803   -19653 
  -19504   -19593   -19917   -20204   -20266   -20005   -19408   -18657 
  -17952   -17369   -16853   -16371   -16060   -16131   -16556   -17150 
  -17896   -18767   -19492   -19897   -19985   -19699   -19093   -18447 
  -17973   -17729   -17720   -17967   -18447   -18993   -19483   -20034 
  -20682   -21222   -21556   -21690   -21590   -21369   -21161   -20953 
  -20804   -20785   -20775   -20687   -20599   -20530   -20332   -19882 
  -19341   -19021   -18918   -18721   -18388   -18215   -18338   -18679 
  -19282   -20132   -20984   -21675   -22260   -22848   -23566   -24430 
  -25292   -25952   -26191   -25929   -25307   -24480   -23625   -22898 
  -22275   -21737   -21478   -21558   -21774   -22013   -22324   -22724 
  -23193   -23715   -24150   -24279   -24154   -24067   -24085   -23920 
  -23379   -22658   -21980   -21238   -20335   -19492   -18931   -18646 
  -18613   -18909   -19552   -20382   -21270   -22218   -23082   -23589 
  -23751   -23843   -24019   -24293   -24661   -24975   -25029   -24799 
  -24328   -23565   -22447   -21073   -19685   -18472   -17463   -16627 
  -15830   -14886   -13856   -12930   -12069   -11227   -10594   -10342 
  -10474   -10929   -11655   -12594   -13575   -14345   -14677   -14515 
  -14062   -13602   -13165   -12634   -12044   -11526   -11122   -10893 
  -11102   -11940   -13182   -14524   -15855   -17119   -18364   -19696 
  -21049   -22326   -23544   -24700   -25780   -26844   -27958   -29122 
  -30284   -31333   -32136   -32695   -33193   -33752   -34310   -34846 
  -35320   -35537   -35521   -35509   -35463   -35118   -34496   -33778 
  -32935   -31970   -31156   -30592   -30005   -29227   -28453   -27854 
  -27298   -26689   -26223   -26052   -26037   -26017   -26028   -26082 
  -26117   -26222   -26491   -26747   -26817   -26828   -26940   -27016 
  -26878   -26576   -26103   -25324   -24339   -23356   -22341   -21253 
  -20281   -19523   -18808   -18083   -17539   -17209   -16945   -16713 
  -16568   -16568   -16714   -16870   -16976   -17053   -16949   -16470 
  -15643   -14659   -13629   -12600   -11678   -10890   -10235    -9914 
  -10085   -10508   -10887   -11338   -11939   -12428   -12808   -13343 
  -13987   -14569   -15126   -15670   -16081   -16295   -16248   -15805 
  -15003   -14057   -13016   -11788   -10442    -9119    -7820    -6637 
   -5811    -5351    -5023    -4718    -4533    -4581    -4749    -4793 
   -4725    -4785    -5108    -5649    -6357    -7171    -7905    -8502 
   -9200   -10080   -10901   -11572   -12290   -13155   -13980   -14548 
  -14941   -15360   -15741   -15984   -16313   -16888   -17469   -17837 
  -18094   -18388   -18690   -18851   -18796   -18631   -18546   -18567 
  -18625   -18801   -19179   -19618   -20000   -20401   -20885   -21365 
  -21733   -22052   -22462   -22983   -23456   -23625   -23372   -22851 
  -22242   -21550   -20787   -20132   -19715   -19446   -19219   -19021 
  -18862   -18785   -18843   -19060   -19514   -20349   -21628   -23280 
  -25092   -26723   -27990   -29079   -30217   -31392   -32548   -33712 
  -34823   -35752   -36478   -37027   -37386   -37604   -37813   -38101 
  -38418   -38649   -38763   -38735   -38458   -37951   -37322   -36471 
  -35244   -33828   -32494   -31272   -30234   -29625   -29388   -29068 
  -28528   -28081   -27762   -27313   -26716   -26176   -25799   -25539 
  -25358   -25290   -25276   -25193   -25027   -24783   -24406   -23919 
  -23427   -22947   -22476   -22122   -21961   -21906   -21805   -21664 
  -21616   -21629   -21528   -21292   -21073   -20929   -20800   -20784 
  -21010   -21278   -21358   -21331   -21227   -20912   -20447   -20016 
  -19654   -19323   -19026   -18744   -18544   -18657   -19125   -19734 
  -20344   -20919   -21352   -21608   -21766   -21919   -22098   -22254 
  -22358   -22387   -22258   -21919   -21335   -20412   -19138   -17815 
  -16785   -16056   -15522   -15240   -15257   -15496   -15801   -15943 
  -15790   -15475   -15194   -15024   -15010   -15217   -15614   -16073 
  -16494   -16866   -17246   -17595   -17739   -17667   -17571   -17497 
  -17350   -17163   -17084   -17155   -17219   -17119   -16902   -16653 
  -16367   -16060   -15823   -15682   -15530   -15265   -14916   -14557 
  -14175   -13772   -13413   -13090   -12733   -12343   -11983   -11743 
  -11751   -12083   -12630   -13192   -13647   -13926   -13926   -13667 
  -13378   -13178   -12892   -12506   -12307   -12364   -12555   -12939 
  -13527   -14141   -14655   -15078   -15426   -15681   -15820   -15897 
  -16054   -16344   -16634   -16758   -16676   -16472   -16200   -15800 
  -15338   -15107   -15223   -15419   -15446   -15381   -15354   -15294 
  -15090   -14833   -14683   -14512   -14004   -13108   -12028   -10912 
   -9842    -8976    -8386    -8025    -7954    -8225    -8653    -9093 
   -9653   -10409   -11257   -12132   -13099   -14206   -15433   -16777 
  -18177   -19492   -20673   -21749   -22673   -23396   -24007   -24637 
  -25218   -25523   -25654   -26002   -26698   -27568   -28530   -29686 
  -30981   -32116   -33022   -33886   -34666   -35139   -35325   -35419 
  -35505   -35503   -35332   -34973   -34520   -34136   -33833   -33485 
  -33114   -32871   -32753   -32622   -32404   -32135   -31887   -31753 
  -31812   -31988   -32065   -31947   -31742   -31573   -31419   -31276 
  -31266   -31417   -31662   -32024   -32545   -33195   -33833   -34186 
  -34121   -33790   -33361   -32869   -32279   -31579   -30867   -30184 
  -29416   -28559   -27762   -27024   -26152   -25019   -23695   -22356 
  -21147   -20148   -19381   -18850   -18559   -18463   -18488   -18620 
  -18837   -19045   -19211   -19309   -19282   -19263   -19506   -20058 
  -20784   -21520   -22103   -22442   -22581   -22607   -22569   -22501 
  -22447   -22408   -22322   -22098   -21771   -21489   -21196   -20660 
  -19818   -18827   -17887   -17126   -16492   -15782   -14890   -13936 
  -13022   -12044   -10917    -9796    -8919    -8303    -7839    -7565 
   -7501    -7519    -7609    -7839    -8097    -8303    -8575    -9020 
   -9606   -10251   -10975   -11785   -12528   -13045   -13359   -13595 
  -13794   -13880   -13803   -13621   -13397   -13100   -12671   -12140 
  -11585   -11029   -10436    -9740    -8939    -8193    -7612    -7194 
   -6993    -7011    -7138    -7334    -7638    -8002    -8332    -8681 
   -9252   -10098   -11060   -12046   -13036   -13871   -14422   -14813 
  -15147   -15334   -15375   -15412   -15464   -15491   -15646   -16028 
  -16544   -17172   -17998   -18941   -19765   -20444   -21185   -22067 
  -22960   -23699   -24159   -24364   -24468   -24548   -24591   -24610 
  -24668   -24861   -25205   -25575   -25879   -26229   -26765   -27394 
  -27934   -28413   -28948   -29461   -29837   -30125   -30338   -30364 
  -30160   -29797   -29369   -28993   -28732   -28563   -28389   -28100 
  -27676   -27171   -26720   -26503   -26527   -26674   -26973   -27510 
  -28166   -28713   -29065   -29278   -29403   -29428   -29384   -29332 
  -29259   -29157   -29085   -29004   -28807   -28528   -28216   -27800 
  -27232   -26595   -26050   -25705   -25505   -25285   -24923   -24398 
  -23716   -22887   -21953   -20981   -20083   -19394   -18940   -18580 
  -18148   -17629   -17146   -16827   -16733   -16848   -17081   -17346 
  -17593   -17807   -18002   -18246   -18563   -18870   -19126   -19342 
  -19440   -19326   -19066   -18827   -18735   -18762   -18829   -18932 
  -19080   -19240   -19364   -19471   -19596   -19683   -19643   -19477 
  -19203   -18773   -18176   -17545   -16995   -16487   -15986   -15512 
  -15066   -14721   -14631   -14797   -15040   -15246   -15441   -15589 
  -15523   -15153   -14601   -14084   -13702   -13410   -13180   -13095 
  -13239   -13605   -14153   -14825   -15493   -16108   -16758   -17483 
  -18104   -18377   -18293   -18058   -17791   -17506   -17263   -17146 
  -17181   -17334   -17593   -17994   -18458   -18833   -19106   -19310 
  -19377   -19337   -19386   -19627   -20023   -20583   -21325   -22142 
  -22916   -23649   -24362   -25012   -25535   -25910   -26210   -26507 
  -26794   -27098   -27453   -27843   -28291   -28804   -29311   -29826 
  -30380   -30811   -30919   -30755   -30429   -29910   -29289   -28772 
  -28339   -27861   -27365   -26941   -26596   -26221   -25710   -25091 
  -24381   -23491   -22453   -21473   -20677   -19988   -19248   -18411 
  -17556   -16777   -16141   -15724   -15527   -15480   -15588   -15815 
  -15954   -15885   -15728   -15568   -15319   -14958   -14612   -14377 
  -14239   -14214   -14314   -14462   -14619   -14805   -14958   -15022 
  -15039   -15001   -14917   -14886   -14926   -14976   -15020   -14978 
  -14755   -14463   -14260   -14085   -13848   -13617   -13529   -13637 
  -13868   -14127   -14438   -14837   -15265   -15643   -15958   -16191 
  -16305   -16301   -16249   -16222   -16251   -16363   -16576   -16853 
  -17182   -17604   -18069   -18520   -19037   -19711   -20526   -21393 
  -22189   -22817   -23240   -23441   -23404   -23145   -22750   -22319 
