Origin Time       2025/01/13 21:19:00
Lat.              31.8
Long.             131.6
Depth. (km)       30
Mag.              6.9
Station Code      KMM009
Station Lat.      32.6864
Station Long.     130.9886
Station Height(m) 466
Record Time       2025/01/13 21:19:51
Sampling Freq(Hz) 100Hz
Duration Time(s)  105
Dir.              U-D
Scale Factor      7845(gal)/8223790
Max. Acc. (gal)   12.271
Last Correction   2025/01/13 21:19:51
Memo.             
[...]
   -4970    -4966    -4969    -4966    -4963    -4970    -4970    -4966 
   -4968    -4965    -4966    -4970    -4966    -4965    -4968    -4969 
   -4970    -4968    -4963    -4965    -4966    -4966    -4966    -4965 
   -4968    -4968    -4965    -4968    -4969    -4965    -4966    -4970 
   -4968    -4968    -4970    -4965    -4959    -4965    -4970    -4969 
   -4970    -4972    -4965    -4961    -4963    -4965    -4969    -4969 
   -4965    -4965    -4969    -4965    -4963    -4969    -4968    -4965 
   -4968    -4968    -4969    -4970    -4968    -4966    -4965    -4963 
   -4963    -4968    -4970    -4966    -4965    -4969    -4968    -4963 
   -4966    -4968    -4965    -4965    -4965    -4963    -4965    -4968 
   -4968    -4969    -4969    -4966    -4965    -4966    -4966    -4965 
   -4968    -4968    -4961    -4962    -4969    -4968    -4968    -4969 
   -4965    -4963    -4965    -4962    -4965    -4968    -4965    -4965 
   -4968    -4968    -4968    -4968    -4969    -4968    -4965    -4965 
   -4966    -4965    -4968    -4969    -4966    -4965    -4965    -4968 
   -4966    -4966    -4969    -4968    -4965    -4968    -4969    -4966 
   -4963    -4965    -4966    -4965    -4968    -4970    -4968    -4966 
   -4969    -4963    -4962    -4966    -4966    -4970    -4970    -4966 
   -4966    -4968    -4966    -4969    -4969    -4968    -4970    -4972 
   -4970    -4969    -4966    -4966    -4968    -4968    -4968    -4968 
   -4966    -4968    -4970    -4968    -4965    -4966    -4965    -4968 
   -4966    -4968    -4972    -4966    -4965    -4966    -4963    -4968 
   -4970    -4970    -4969    -4963    -4959    -4965    -4969    -4972 
   -4970    -4966    -4965    -4968    -4968    -4965    -4965    -4966 
   -4968    -4968    -4968    -4969    -4969    -4968    -4965    -4965 
   -4968    -4969    -4965    -4966    -4969    -4968    -4968    -4970 
   -4969    -4965    -4963    -4965    -4966    -4968    -4968    -4969 
   -4969    -4968    -4970    -4972    -4966    -4965    -4968    -4972 
   -4972    -4972    -4973    -4972    -4970    -4970    -4968    -4968 
   -4970    -4972    -4972    -4969    -4970    -4976    -4976    -4976 
   -4980    -4980    -4982    -4988    -4988    -4986    -4982    -4973 
   -4966    -4959    -4950    -4942    -4934    -4922    -4912    -4901 
   -4892    -4905    -4935    -4969    -5016    -5063    -5105    -5134 
   -5146    -5148    -5138    -5108    -5066    -4997    -4899    -4787 
   -4666    -4569    -4533    -4572    -4687    -4851    -5022    -5166 
   -5262    -5312    -5332    -5327    -5300    -5246    -5157    -5036 
   -4897    -4749    -4626    -4568    -4584    -4671    -4801    -4943 
   -5069    -5159    -5228    -5289    -5337    -5359    -5328    -5236 
   -5111    -4965    -4815    -4695    -4629    -4639    -4733    -4843 
   -4872    -4796    -4693    -4683    -4828    -5105    -5427    -5686 
   -5805    -5753    -5541    -5229    -4901    -4649    -4540    -4581 
   -4714    -4881    -5054    -5208    -5305    -5309    -5219    -5071 
   -4914    -4781    -4730    -4824    -5066    -5383    -5682    -5853 
   -5806    -5543    -5142    -4702    -4347    -4203    -4313    -4625 
   -5027    -5378    -5556    -5530    -5385    -5236    -5132    -5062 
   -4993    -4888    -4750    -4618    -4514    -4423    -4317    -4220 
   -4234    -4448    -4866    -5385    -5854    -6205    -6411    -6407 
   -6138    -5591    -4841    -4104    -3634    -3543    -3794    -4291 
   -4895    -5443    -5760    -5640    -4957    -3882    -2803    -2092 
   -2058    -2899    -4542    -6590    -8437    -9468    -9324    -8059 
   -6066    -3873    -2053    -1171    -1525    -2867    -4556    -5921 
   -6525    -6308    -5529    -4549    -3692    -3211    -3315    -4126 
   -5441    -6748    -7608    -7870    -7472    -6359    -4688    -2878 
   -1455     -900    -1398    -2744    -4583    -6509    -7992    -8523 
   -7966    -6610    -4988    -3651    -2932    -2818    -3187    -3974 
   -4984    -5784    -5967    -5455    -4525    -3708    -3496    -3964 
   -4896    -6070    -7211    -7870    -7584    -6203    -4121    -2095 
    -837     -729    -1775    -3709    -6106    -8428   -10143   -10878 
  -10455    -8880    -6419    -3549     -862      924     1138     -432 
   -3365    -6747    -9436   -10542    -9805    -7641    -4932    -2609 
   -1271    -1173    -2289    -4271    -6459    -8175    -9031    -8869 
   -7732    -6016    -4253    -2760    -1736    -1391    -1804    -2925 
   -4648    -6558    -7812    -7716    -6340    -4429    -2921    -2528 
   -3360    -4812    -6037    -6561    -6390    -5660    -4523    -3321 
   -2582    -2752    -3782    -5105    -6176    -6820    -7091    -7119 
   -7030    -6833    -6324    -5240    -3657    -2101    -1206    -1368 
   -2577    -4342    -5976    -6991    -7207    -6655    -5595    -4417 
   -3391    -2720    -2756    -3734    -5300    -6821    -7939    -8372 
   -7754    -6095    -3862    -1782     -753    -1418    -3654    -6609 
   -9161   -10357    -9832    -8040    -5809    -3742    -2272    -1707 
   -2027    -2965    -4124    -4928    -4943    -4294    -3541    -3235 
   -3508    -4039    -4525    -5022    -5822    -7094    -8608    -9840 
  -10235    -9359    -7088    -3875     -707     1335     1568     -224 
   -3677    -7460    -9860   -10103    -8564    -6087    -3585    -1760 
    -994    -1383    -2554    -3774    -4533    -4895    -5213    -5691 
   -6199    -6312    -5671    -4467    -3307    -2695    -2812    -3626 
   -4993    -6569    -7677    -7569    -6096    -4036    -2500    -2158 
   -3019    -4584    -6332    -8054    -9374    -9494    -7985    -5374 
   -2716    -1096    -1185    -2716    -4726    -6480    -7564    -7592 
   -6583    -5111    -3758    -3014    -3454    -5213    -7408    -8679 
   -8347    -6739    -4634    -2668    -1084       67      411     -606 
   -2862    -5240    -6498    -6331    -5479    -4985    -5367    -6153 
   -6435    -6073    -5725    -5742    -5830    -5725    -5589    -5676 
   -5930    -5896    -5049    -3570    -2382    -1976    -2050    -2400 
   -3203    -4569    -6289    -7731    -8224    -7882    -7416    -7186 
   -7079    -6845    -6264    -5495    -4959    -4642    -4176    -3580 
   -3295    -3562    -4132    -4384    -3771    -2579    -1945    -2744 
   -4808    -7284    -9151    -9489    -7970    -5192    -2350     -683 
   -1050    -3418    -6721    -9537   -10727    -9834    -7388    -4450 
   -1919     -495     -588    -1844    -3387    -4765    -6049    -7180 
   -8032    -8764    -9302    -8969    -7269    -4401     -989     1854 
    2779     1266    -2007    -5788    -8947   -10920   -11511   -10461 
   -7782    -4328    -1480     -265     -955    -3188    -5956    -8043 
   -8957    -8746    -7341    -4820    -1679     1224     2781     2180 
    -549    -4558    -8398   -10624   -10669    -8985    -6517    -4286 
   -3107    -3190    -4249    -5942    -7628    -8353    -7689    -5840 
   -3088      -98     1906     2079      422    -2601    -6103    -8984 
  -10660   -11078   -10293    -8679    -7053    -6018    -5543    -5324 
   -5058    -4529    -3960    -3828    -4102    -4185    -3597    -2408 
   -1213     -830    -1686    -3551    -5791    -7681    -8635    -8347 
   -6956    -5081    -3383    -2448    -2732    -4152    -6108    -7738 
   -8214    -7400    -5888    -4395    -3361    -2816    -2570    -2555 
   -2960    -4104    -5722    -6852    -6833    -5711    -3929    -2219 
   -1297    -1624    -3375    -6284    -9560   -11971   -12370   -10558 
   -7365    -3786     -494     1910     2943     2404      220    -3196 
   -6636    -8928    -9813    -9616    -8530    -6643    -4367    -2394 
   -1505    -2245    -4255    -6323    -7384    -7241    -6394    -5302 
   -4064    -2909    -2439    -3133    -4816    -6581    -7226    -6116 
   -3852    -1845    -1016    -1267    -2180    -3492    -5076    -6841 
   -8314    -8807    -8352    -7699    -7272    -6782    -5921    -4918 
   -4288    -4479    -5567    -6961    -7771    -7488    -6027    -3653 
    -988     1215     2088      801    -2643    -7149   -11153   -13373 
  -13178   -10643    -6677    -2760      -48      857     -310    -3138 
   -6385    -8657    -9201    -8078    -5832    -3343    -1530     -777 
    -976    -1830    -2906    -3856    -4676    -5684    -7141    -8797 
  -10018   -10181    -8941    -6497    -3626    -1175      379      841 
      90    -1792    -4260    -6291    -7001    -6362    -5134    -4163 
   -3847    -4197    -5112    -6340    -7430    -7994    -7956    -7520 
   -6907    -6291    -5695    -4837    -3568    -2250    -1321     -897 
    -768     -799    -1406    -3172    -5818    -7965    -8360    -7141 
   -5521    -4715    -5209    -6509    -7663    -8163    -8086    -7527 
   -6297    -4301    -1989     -251      191     -765    -2647    -4838 
   -6902    -8329    -8536    -7466    -5649    -3780    -2393    -1706 
   -1993    -3694    -6671    -9780   -11473   -10767    -7824    -3817 
    -329     1422     1024    -1298    -4788    -8182   -10319   -10821 
   -9999    -8355    -6404    -4623    -3325    -2648    -2628    -3083 
   -3750    -4642    -5883    -7241    -8170    -8081    -6686    -4391 
   -2118     -630     -240    -1043    -2768    -4577    -5748    -6188 
   -6072    -5691    -5371    -5152    -4837    -4263    -3526    -3011 
   -3086    -3713    -4611    -5551    -6315    -6675    -6600    -6212 
   -5621    -4958    -4492    -4437    -4542    -4283    -3576    -2972 
   -3237    -4719    -7042    -9416   -11159   -11865   -11133    -8644 
   -4926    -1394      681      834     -541    -2494    -4180    -5136 
   -5196    -4588    -3948    -4104    -5391    -7155    -8357    -8490 
   -7794    -6855    -5975    -5208    -4684    -4572    -4993    -5636 
   -5526    -4031    -1854     -467     -858    -3017    -6114    -9043 
  -11030   -11662   -10605    -8019    -4889    -2284     -648       83 
      66     -621    -1871    -3504    -5223    -6764    -8179    -9459 
  -10087    -9387    -7142    -3709       82     3007     3851     2096 
   -1773    -6404   -10080   -11634   -11099    -9364    -7222    -4954 
   -2809    -1248     -554     -803    -2119    -4386    -6984    -8891 
   -9154    -7538    -4699    -1858     -141      -63    -1610    -4187 
   -6747    -8460    -8814    -7576    -5398    -3709    -3499    -4549 
   -5904    -6644    -6334    -5215    -3973    -3191    -3122    -3628 
   -4213    -4530    -4726    -5078    -5717    -6654    -7740    -8592 
   -8576    -7111    -4317    -1359      263     -157    -2413    -5836 
   -9393   -11812   -12190   -10289    -6490    -1953     1606     2886 
    1746     -961    -4126    -6898    -8708    -9354    -8939    -7435 
   -4822    -1667     1020     2327     1706     -866    -4803    -9073 
  -12545   -14331   -13980   -11473    -7356    -2929      384     1946 
    1903      776     -961    -3138    -5579    -7983   -10033   -11121 
  -10623    -8453    -5101    -1588      820     1333      -74    -2847 
   -6196    -9355   -11610   -12538   -12264   -11072    -9146    -6701 
   -3956    -1152     1371     3276     3987     2663     -951    -5899 
  -10530   -13301   -13350   -10933    -7202    -3469     -692      589 
     147    -1667    -3758    -5252    -6289    -7501    -9151   -10844 
  -11668   -10598    -7353    -2828     1529     4460     5155     3393 
    -352    -4977    -9165   -11900   -12673   -11612    -9509    -7312 
   -5464    -3738    -1606      911     2820     2911      560    -3858 
   -8696   -11907   -12343   -10169    -6484    -2516      869     2978 
    3119     1131    -2232    -5838    -8883   -11007   -12208   -12533 
  -11719    -9543    -6444    -3289     -832      546      924      498 
    -739    -2666    -4796    -6613    -7762    -8186    -8221    -8156 
   -7819    -6974    -5822    -4741    -3775    -2774    -1860    -1617 
   -2744    -5270    -8189   -10147   -10281    -8626    -6006    -3372 
   -1377     -411     -653    -2079    -4517    -7569   -10262   -11145 
   -9447    -5721    -1216     2559     4233     3298       71    -4866 
  -10451   -14825   -16353   -14650   -10316    -4635      583     3865 
    4662     2889    -1323    -6964   -12013   -14540   -13822   -10482 
   -6192    -2829    -1220    -1158    -2122    -3254    -3785    -3551 
   -2778    -2037    -2089    -3032    -4199    -5092    -5617    -5548 
   -4689    -3528    -3179    -4341    -6450    -8291    -9008    -8378 
   -6939    -5737    -5404    -5632    -5822    -5830    -5648    -4885 
   -3330    -1539     -376     -383    -1626    -3738    -6023    -7771 
   -8494    -7985    -6604    -5216    -4334    -3879    -3797    -4182 
   -5117    -6679    -8626   -10138   -10318    -8954    -6498    -3495 
    -468     1971     3179     2700      745    -1792    -4149    -6195 
   -8133    -9949   -11114   -10832    -8638    -5031    -1467      673 
     859     -658    -2891    -4581    -5138    -4924    -4931    -5921 
   -7537    -8756    -9121    -8793    -7761    -6060    -4305    -3063 
   -2493    -2704    -3577    -4507    -4908    -4947    -5445    -6845 
   -8641    -9861    -9760    -8062    -4799     -415     3856     6338 
    5846     2293    -3061    -8056   -10993   -11603   -10755    -9393 
   -7877    -6498    -5887    -6285    -7086    -7411    -6752    -5159 
   -3096    -1152      149      549       47    -1459    -4087    -7277 
   -9811   -10596    -9030    -5363     -962     2393     3456     1761 
   -2457    -8094   -13413   -16961   -17830   -15754   -11720    -7381 
   -3742    -1151      253      631      222     -950    -2733    -4537 
   -5852    -6396    -5674    -3561     -927     1159     1944      853 
   -2138    -6440   -11055   -14519   -15580   -13851    -9634    -4062 
    1001     4085     4704     2965     -526    -4437    -7442    -9366 
  -10675   -11400   -11329   -10270    -8020    -5131    -2829    -1759 
   -1822    -2647    -3827    -5030    -5787    -5833    -5255    -3925 
   -2007     -508     -402    -1891    -4488    -7084    -8472    -8351 
   -7465    -6814    -7003    -7927    -8870    -9216    -8727    -7148 
   -4305     -830     2103     3823     4185     3322     1883      314 
   -1642    -4036    -6446    -8700   -10681   -11743   -11341    -9900 
   -8387    -7465    -7365    -7654    -7468    -6489    -5057    -3534 
   -1949     -108     1753     2871     2727     1332     -993    -3685 
   -6023    -7584    -8526    -9161    -9562    -9713    -9481    -8715 
   -7627    -6731    -6399    -6620    -7173    -7662    -7431    -6251 
   -4761    -3686    -3180    -2907    -2320    -1067      526     1536 
    1144     -603    -2916    -5225    -7638   -10060   -11477   -10806 
   -8154    -4816    -2315    -1471    -2101    -3595    -5726    -8467 
  -11230   -12901   -12621   -10370    -6794    -2793      615     2749 
    3497     2740      526    -2181    -4259    -5752    -7291    -8788 
   -9774   -10139    -9915    -9242    -8371    -7078    -5035    -2832 
   -1362     -689     -398     -480    -1363    -3261    -5597    -7291 
   -7727    -7186    -6311    -5512    -4882    -4233    -3569    -3539 
   -4580    -6251    -8091    -9892   -10898   -10023    -7072    -3028 
     592     2232     1092    -2249    -6567   -10773   -13576   -13730 
  -11048    -6566    -2034      807     1344      291    -1591    -4126 
   -6987    -9445   -10821   -10743    -9387    -7506    -5776    -4275 
   -2825    -1649    -1308    -2242    -4341    -6754    -8268    -8035 
   -6073    -3342    -1183     -648    -2174    -5215    -8398   -10551 
  -11041    -9603    -6820    -4180    -2905    -3079    -4179    -5679 
   -6937    -7484    -7542    -7622    -7792    -7838    -7554    -6486 
   -4282    -1595      288      643     -625    -3392    -7034   -10370 
  -12251   -11844    -8752    -3866      452     2061      338    -3923 
   -8969   -12973   -14779   -13759   -10054    -5023     -666     1336 
     464    -2504    -6173    -8984    -9652    -7933    -4743    -1686 
    -136     -384    -1938    -4199    -6682    -9262   -11796   -13468 
  -13432   -11545    -8040    -3555      739     3821     5256     4953 
    2902     -702    -4735    -7280    -7391    -5871    -4283    -3873 
   -4698    -5710    -6135    -6068    -5960    -6204    -6718    -7051 
   -7142    -7325    -7534    -7362    -6691    -5715    -4579    -3523 
   -3013    -3253    -4032    -5055    -5971    -6350    -5979    -5035 
   -3900    -2797    -1674     -508      167     -515    -2905    -6408 
   -9791   -11890   -12279   -11182    -8756    -4872      -25     4047 
    5524     4082      949    -2470    -5597    -8260    -9915    -9904 
   -8185    -5401    -2586     -604      650     1863     2967     3064 
    1439    -1692    -5321    -8257    -9556    -9062    -7597    -6108 
   -5058    -4567    -4356    -3611    -1598     1227     3275     3210 
     554    -4450   -10358   -14794   -15909   -13123    -7217     -325 
    5061     7523     6629     2326    -4197   -10534   -14798   -16002 
  -14003    -9968    -5452    -1572      737     1032     -205    -2050 
   -3939    -5351    -5532    -4761    -4317    -4471    -4515    -4415 
   -4675    -5529    -7095    -9344   -11854   -13778   -13964   -11655 
   -7142    -1522     3657     6791     6991     4433      101    -4716 
   -8638   -10243    -8970    -5795    -2521     -807    -1595    -4666 
   -8644   -12004   -14060   -14454   -12823    -9664    -6149    -2948 
    -388     1016      839     -965    -3809    -6627    -8564    -9323 
   -9061    -8091    -6710    -5163    -3731    -3030    -3558    -5181 
   -7561    -9984   -11074    -9995    -7416    -4484    -1926     -444 
    -480    -1750    -3721    -5884    -7627    -8357    -7705    -5759 
   -3111     -565     1125     1344     -108    -3065    -7192   -11701 
  -15341   -17070   -16399   -13132    -7823    -2297     1579     3244 
    2999     1285    -1476    -4644    -7385    -9418   -10714   -10775 
   -9412    -7357    -5530    -4379    -3929    -4131    -5115    -6910 
   -8760    -9402    -8212    -5552    -2587     -495      461      422 
    -573    -2004    -2995    -3038    -2057     -492      549       87 
   -1896    -4866    -8289   -11348   -13031   -12847   -10889    -7738 
   -4558    -2546    -2188    -3115    -4706    -6686    -8896   -10902 
  -12152   -12252   -11122    -8935    -6000    -2785       82     1883 
    2052      526    -2195    -5177    -7410    -8460    -8583    -8171 
   -7437    -6566    -5899    -5691    -5879    -6091    -5745    -4469 
   -2524     -712      210      -40    -1332    -3211    -5155    -6841 
   -7912    -7847    -6365    -3811    -1165      490      622     -796 
   -3488    -6440    -8233    -8237    -6754    -4413    -1759      940 
    3134     3748     2245     -743    -4024    -6423    -7167    -6405 
   -5027    -3800    -2991    -2528    -2281    -2344    -3134    -4918 
   -7271    -9351   -10431   -10073    -8446    -6177    -3812    -1915 
    -919     -835    -1513    -2675    -3836    -4695    -5271    -5373 
   -4536    -2836     -972      429      820     -349    -3051    -6554 
  -10041   -12895   -14320   -13686   -11443    -8657    -6022    -4014 
   -3172    -3728    -5355    -7538    -9740   -11385   -12145   -11651 
   -9558    -6274    -2600      807     3146     3892     3338     1823 
