Origin Time       2025/01/13 21:19:00
Lat.              31.8
Long.             131.6
Depth. (km)       30
Mag.              6.9
Station Code      KMM021
Station Lat.      32.3793
Station Long.     129.9996
Station Height(m) 7
Record Time       2025/01/13 21:20:03
Sampling Freq(Hz) 100Hz
Duration Time(s)  113
Dir.              E-W
Scale Factor      7845(gal)/8223790
Max. Acc. (gal)   4.869
Last Correction   2025/01/13 21:20:03
Memo.             
[...]
   -1061    -1449    -1821    -2169    -2496    -2797    -3048    -3233 
   -3345    -3377    -3323    -3186    -2970    -2679    -2353    -2039 
   -1760    -1517    -1316    -1143     -970     -772     -535     -274 
      -1      271      548      847     1169     1474     1749     2000 
    2201     2303     2280     2130     1863     1507     1088      614 
     105     -400     -881    -1327    -1745    -2151    -2547    -2884 
   -3114    -3221    -3241    -3221    -3175    -3098    -2980    -2824 
   -2644    -2459    -2262    -2026    -1738    -1416    -1082     -731 
    -349       54      465      877     1271     1625     1927     2158 
    2292     2313     2243     2103     1890     1593     1224      824 
     444      105     -191     -454     -689     -905    -1113    -1306 
   -1486    -1669    -1834    -1939    -1971    -1942    -1877    -1788 
   -1667    -1498    -1287    -1048     -807     -583     -383     -211 
     -72       33      114      178      224      237      226      210 
     190      153      116      102      132      194      256      290 
     278      213      110       -6     -136     -280     -433     -600 
    -793    -1008    -1228    -1433    -1597    -1698    -1741    -1737 
   -1702    -1644    -1557    -1433    -1270    -1082     -893     -716 
    -565     -446     -367     -340     -369     -442     -535     -607 
    -642     -657     -679     -712     -754     -780     -760     -680 
    -554     -413     -271     -143      -43       10       14      -32 
    -112     -174     -201     -218     -232     -210     -122       41 
     267      517      760      974     1140     1248     1282     1219 
    1055      832      588      348      120      -87     -259     -388 
    -471     -507     -498     -448     -379     -314     -261     -234 
    -255     -305     -356     -403     -450     -495     -544     -594 
    -608     -564     -449     -270      -36      244      552      846 
    1082     1224     1277     1264     1217     1150     1067      969 
     843      679      484      276       67     -116     -263     -387 
    -500     -599     -681     -758     -842     -932    -1036    -1170 
   -1325    -1489    -1652    -1799    -1919    -1984    -1966    -1867 
   -1699    -1479    -1242    -1016     -830     -693     -588     -488 
    -384     -278     -170      -64       40      156      287      429 
     580      747      930     1116     1290     1433     1520     1526 
    1448     1293     1062      762      425       99     -176     -413 
    -642     -882    -1140    -1429    -1760    -2133    -2538    -2949 
   -3342    -3681    -3939    -4114    -4216    -4252    -4218    -4122 
   -3966    -3738    -3431    -3059    -2640    -2199    -1745    -1294 
    -854     -423      -24      311      581      807     1013     1208 
    1389     1551     1692     1814     1907     1969     2003     2004 
    1960     1861     1718     1528     1298     1050      795      546 
     315       85     -152     -378     -584     -772     -939    -1088 
   -1215    -1324    -1414    -1466    -1480    -1483    -1475    -1441 
   -1383    -1305    -1186    -1011     -793     -564     -319      -56 
     210      472      722      943     1117     1258     1389     1513 
    1613     1682     1714     1719     1698     1641     1553     1456 
    1358     1254     1117      928      687      402       90     -237 
    -591     -973    -1362    -1725    -2037    -2286    -2465    -2573 
   -2620    -2605    -2524    -2388    -2222    -2064    -1937    -1831 
   -1723    -1586    -1408    -1206    -1003     -803     -607     -410 
    -210      -18      166      349      537      733      931     1120 
    1287     1429     1548     1649     1736     1811     1872     1907 
    1914     1894     1838     1756     1659     1552     1431     1273 
    1069      826      561      299       44     -214     -492     -788 
   -1084    -1366    -1624    -1856    -2058    -2218    -2328    -2396 
   -2438    -2471    -2501    -2520    -2520    -2493    -2438    -2362 
   -2257    -2107    -1899    -1630    -1309     -961     -622     -311 
     -27      238      480      685      847      969     1054     1107 
    1132     1129     1101     1051      984      905      815      689 
     504      255      -54     -398     -743    -1074    -1360    -1575 
   -1729    -1836    -1892    -1907    -1891    -1857    -1807    -1718 
   -1575    -1394    -1202    -1019     -854     -718     -610     -523 
    -444     -364     -278     -172      -48       95      259      425 
     576      704      792      812      757      638      469      261 
      22     -240     -518     -793    -1040    -1243    -1401    -1529 
   -1636    -1721    -1764    -1748    -1669    -1547    -1402    -1259 
   -1132    -1028     -950     -884     -805     -706     -588     -461 
    -340     -236     -145      -62       17       86      159      249 
     359      475      571      614      591      496      337      137 
     -90     -346     -604     -828    -1005    -1136    -1228    -1293 
   -1328    -1335    -1333    -1345    -1383    -1439    -1497    -1544 
   -1576    -1594    -1601    -1606    -1605    -1583    -1525    -1431 
   -1305    -1151     -980     -805     -629     -444     -251      -59 
     116      267      402      521      621      708      783      846 
     918     1024     1179     1360     1537     1699     1842     1954 
    2029     2056     2027     1950     1838     1698     1539     1368 
    1192     1019      861      722      589      442      278       98 
    -105     -338     -592     -857    -1119    -1362    -1575    -1748 
   -1867    -1929    -1925    -1842    -1692    -1490    -1232     -932 
    -621     -310       -6      283      556      803     1028     1233 
    1413     1576     1726     1848     1935     2002     2056     2104 
    2150     2184     2200     2184     2123     2012     1842     1614 
    1337     1008      619      189     -259     -693    -1078    -1395 
   -1652    -1865    -2056    -2235    -2400    -2547    -2674    -2775 
   -2832    -2833    -2782    -2694    -2566    -2388    -2142    -1818 
   -1426     -980     -486       40      575     1100     1593     2026 
    2382     2655     2845     2957     2983     2916     2776     2577 
    2322     2038     1749     1455     1151      820      449       44 
    -386     -826    -1243    -1621    -1966    -2300    -2625    -2947 
   -3277    -3612    -3939    -4234    -4471    -4618    -4653    -4567 
   -4372    -4093    -3754    -3387    -3007    -2614    -2209    -1803 
   -1401    -1017     -656     -306       33      352      642      891 
    1086     1220     1279     1260     1178     1061      932      807 
     677      530      367      189      -14     -253     -533     -846 
   -1169    -1472    -1733    -1949    -2127    -2269    -2363    -2396 
   -2362    -2270    -2123    -1937    -1719    -1482    -1227     -966 
    -720     -508     -342     -207      -79       51      168      257 
     303      295      238      152       31     -125     -318     -548 
    -795    -1028    -1225    -1382    -1499    -1578    -1629    -1663 
   -1687    -1699    -1703    -1694    -1659    -1587    -1474    -1314 
   -1113     -885     -650     -425     -211       -8      183      363 
     519      661      801      951     1119     1316     1540     1783 
    2030     2253     2435     2571     2644     2641     2571     2451 
    2300     2139     1989     1863     1761     1680     1603     1530 
    1463     1395     1329     1267     1198     1111     1004      882 
     757      629      488      345      216      110       36      -12 
     -39      -33        1       68      167      280      387      473 
     534      561      557      522      449      338      187       -2 
    -221     -454     -697     -942    -1173    -1381    -1557    -1698 
   -1813    -1919    -2030    -2143    -2254    -2350    -2432    -2506 
   -2571    -2628    -2674    -2690    -2662    -2587    -2469    -2311 
   -2112    -1877    -1611    -1314     -997     -676     -373     -108 
     113      284      395      449      454      413      337      267 
     225      221      255      319      417      546      700      870 
    1040     1197     1323     1398     1421     1408     1372     1310 
    1224     1109      970      823      670      495      288       41 
    -233     -508     -758     -966    -1140    -1298    -1458    -1621 
   -1777    -1912    -2011    -2070    -2089    -2077    -2053    -2035 
   -2023    -2015    -2007    -1993    -1962    -1904    -1810    -1664 
   -1471    -1243     -990     -712     -403      -62      301      658 
     972     1209     1350     1395     1347     1209      997      739 
     464      193      -59     -290     -504     -703     -881    -1047 
   -1216    -1398    -1603    -1834    -2087    -2349    -2596    -2795 
   -2911    -2929    -2855    -2700    -2478    -2188    -1830    -1421 
    -961     -454       67      564     1004     1374     1656     1833 
    1914     1923     1879     1784     1642     1471     1279     1074 
     870      676      492      322      151      -49     -305     -612 
    -947    -1283    -1613    -1934    -2243    -2515    -2716    -2825 
   -2822    -2704    -2470    -2127    -1695    -1206     -692     -183 
     290      689      986     1174     1263     1286     1282     1271 
    1262     1277     1339     1453     1617     1825     2056     2285 
    2489     2652     2766     2822     2801     2689     2497     2235 
    1911     1518     1058      557       47     -444     -895    -1279 
   -1578    -1783    -1894    -1925    -1904    -1853    -1771    -1668 
   -1556    -1436    -1314    -1204    -1100    -1004     -918     -841 
    -766     -684     -577     -436     -260      -66      124      295 
     449      580      677      719      688      577      402      167 
    -109     -402     -692     -970    -1223    -1451    -1655    -1822 
   -1949    -2046    -2119    -2165    -2184    -2172    -2127    -2064 
   -1993    -1927    -1867    -1804    -1726    -1628    -1505    -1356 
   -1181     -970     -735     -499     -260      -17      207      390 
     519      595      615      584      510      392      233       43 
    -153     -341     -523     -703     -878    -1048    -1209    -1336 
   -1408    -1428    -1421    -1393    -1331    -1219    -1062     -876 
    -649     -382      -82      237      556      866     1173     1449 
    1671     1836     1949     2004     2000     1950     1858     1713 
    1507     1254      977      697      419      141     -141     -432 
    -738    -1065    -1406    -1744    -2056    -2313    -2502    -2623 
   -2694    -2739    -2749    -2708    -2624    -2509    -2346    -2114 
   -1830    -1533    -1242     -973     -743     -568     -464     -436 
    -483     -606     -801    -1059    -1350    -1624    -1836    -1945 
   -1937    -1826    -1630    -1385    -1121     -864     -630     -430 
    -260     -117        4      116      220      309      376      429 
     492      596      760      981     1244     1516     1757     1942 
    2054     2085     2033     1885     1640     1297      861      348 
    -207     -762    -1274    -1723    -2092    -2377    -2586    -2727 
   -2816    -2874    -2917    -2953    -2972    -2953    -2883    -2749 
   -2552    -2307    -2022    -1684    -1286     -835     -344      172 
     696     1208     1694     2143     2538     2840     3019     3078 
    3025     2871     2624     2300     1921     1499     1050      595 
     152     -276     -697    -1096    -1452    -1755    -2007    -2214 
   -2386    -2527    -2632    -2705    -2756    -2794    -2814    -2806 
   -2756    -2647    -2459    -2187    -1817    -1362     -845     -298 
     256      805     1333     1822     2261     2647     2980     3253 
    3447     3551     3555     3458     3273     3030     2760     2490 
    2226     1962     1705     1453     1206      962      712      460 
     214      -14     -221     -392     -529     -634     -711     -766 
    -795     -789     -745     -661     -548     -421     -294     -172 
     -64       31      126      228      340      467      596      714 
     807      850      828      734      562      311      -24     -444 
    -923    -1433    -1942    -2417    -2832    -3163    -3399    -3537 
   -3593    -3588    -3553    -3518    -3493    -3481    -3474    -3453 
   -3404    -3331    -3244    -3130    -2980    -2795    -2566    -2284 
   -1944    -1540    -1070     -533       60      685     1314     1927 
    2500     3011     3454     3817     4087     4261     4341     4324 
    4218     4044     3811     3516     3177     2801     2389     1954 
    1506     1035      527      -20     -615    -1256    -1927    -2610 
   -3276    -3883    -4395    -4785    -5035    -5132    -5077    -4885 
   -4581    -4194    -3769    -3356    -2982    -2662    -2390    -2166 
   -1976    -1807    -1645    -1474    -1286    -1080     -845     -571 
    -263       70      418      766     1094     1381     1603     1745 
    1782     1694     1487     1177      787      342     -129     -611 
   -1078    -1506    -1873    -2178    -2428    -2628    -2779    -2883 
   -2944    -2968    -2970    -2967    -2965    -2956    -2922    -2847 
   -2708    -2484    -2168    -1753    -1231     -606       97      846 
    1598     2307     2937     3476     3915     4257     4511     4680 
    4753     4742     4665     4538     4379     4201     4001     3784 
    3555     3329     3099     2855     2579     2274     1935     1564 
    1166      754      338      -86     -525     -966    -1399    -1809 
   -2165    -2461    -2683    -2817    -2849    -2783    -2639    -2436 
   -2203    -1969    -1755    -1556    -1371    -1215    -1102    -1032 
    -986     -953     -919     -874     -808     -718     -621     -530 
    -449     -386     -342     -315     -305     -314     -349     -417 
    -521     -661     -839    -1057    -1302    -1553    -1794    -2011 
   -2195    -2328    -2394    -2382    -2292    -2139    -1948    -1741 
   -1537    -1340    -1161    -1009     -885     -780     -687     -599 
    -517     -444     -371     -298     -220     -135      -49       29 
      98      152      195      228      251      272      301      336 
     372      406      430      441      449      461      469      476 
     486      487      477      454      417      367      314      260 
     198      122       28      -85     -228     -391     -557     -716 
    -866    -1000    -1125    -1250    -1364    -1453    -1507    -1520 
   -1494    -1436    -1347    -1229    -1086     -923     -750     -579 
    -409     -240      -81       66      202      332      459      594 
     735      874     1005     1113     1189     1225     1219     1169 
    1073      928      742      534      322      118      -78     -268 
    -440     -595     -743     -881    -1013    -1142    -1260    -1355 
   -1414    -1426    -1386    -1301    -1181    -1044     -895     -723 
    -531     -337     -164      -29       64      118      135      109 
      40      -75     -229     -411     -618     -847    -1100    -1366 
   -1637    -1898    -2135    -2343    -2516    -2654    -2759    -2828 
   -2859    -2856    -2818    -2741    -2620    -2448    -2223    -1945 
   -1617    -1243     -842     -433      -31      361      742     1102 
    1435     1728     1971     2157     2281     2340     2322     2205 
    1993     1698     1328      884      378     -175     -756    -1337 
   -1892    -2396    -2828    -3172    -3411    -3537    -3546    -3449 
   -3258    -2992    -2667    -2295    -1887    -1453    -1001     -541 
     -70      419      930     1447     1952     2419     2825     3160 
    3419     3601     3696     3694     3599     3414     3145     2816 
    2447     2046     1609     1148      689      240     -194     -618 
   -1042    -1466    -1883    -2285    -2658    -2979    -3246    -3462 
   -3615    -3707    -3736    -3699    -3596    -3433    -3208    -2929 
   -2601    -2231    -1838    -1436    -1032     -634     -234      174 
     584      993     1393     1765     2099     2385     2621     2817 
    2970     3071     3121     3115     3044     2905     2702     2442 
    2123     1755     1351      922      469        2     -472     -955 
   -1433    -1896    -2339    -2748    -3113    -3433    -3705    -3917 
   -4059    -4137    -4159    -4114    -4004    -3828    -3588    -3289 
   -2941    -2554    -2153    -1755    -1370    -1007     -664     -338 
     -18      301      621      935     1240     1533     1807     2056 
    2272     2458     2609     2708     2743     2709     2601     2430 
    2215     1969     1701     1421     1140      858      576      299 
      35     -206     -421     -614     -804    -1003    -1205    -1405 
   -1597    -1771    -1904    -1980    -1992    -1946    -1848    -1706 
   -1526    -1309    -1063     -793     -504     -206       95      403 
     704      988     1243     1462     1645     1791     1904     1988 
    2043     2074     2089     2088     2068     2019     1923     1771 
    1556     1275      934      545      129     -302     -735    -1159 
   -1568    -1950    -2300    -2619    -2903    -3153    -3372    -3551 
   -3686    -3769    -3790    -3754    -3655    -3496    -3287    -3036 
   -2741    -2417    -2079    -1738    -1405    -1081     -765     -454 
    -153      130      394      642      878     1108     1324     1525 
    1699     1833     1923     1961     1938     1845     1679     1445 
    1158      831      477      109     -251     -588     -909    -1219 
   -1518    -1814    -2093    -2349    -2579    -2783    -2957    -3090 
   -3168    -3187    -3152    -3065    -2936    -2766    -2558    -2313 
   -2030    -1721    -1399    -1080     -781     -517     -280      -70 
     120      298      468      633      788      931     1062     1186 
    1304     1416     1518     1609     1683     1736     1763     1761 
    1733     1684     1617     1528     1420     1294     1152      999 
     835      662      479      288       99      -94     -298     -500 
    -689     -874    -1050    -1201    -1331    -1440    -1530    -1602 
   -1645    -1651    -1625    -1568    -1472    -1335    -1158     -943 
    -692     -406     -101      207      511      803     1071     1305 
    1490     1617     1683     1686     1628     1513     1352     1150 
     915      662      402      130     -141     -406     -662     -922 
   -1181    -1437    -1692    -1944    -2184    -2405    -2598    -2752 
   -2845    -2866    -2814    -2691    -2509    -2280    -2014    -1730 
   -1445    -1161     -874     -585     -295       -1      290      567 
     812     1019     1188     1327     1439     1530     1602     1645 
    1652     1614     1525     1375     1170      920      633      314 
     -20     -361     -696    -1015    -1308    -1567    -1786    -1957 
   -2083    -2166    -2214    -2228    -2209    -2150    -2045    -1891 
   -1691    -1451    -1183     -901     -610     -317      -33      233 
     494      745      985     1216     1431     1617     1763     1861 
    1910     1918     1894     1831     1728     1580     1382     1124 
     804      436       33     -386     -811    -1224    -1622    -1999 
