Origin Time       2025/01/13 21:19:00
Lat.              31.8
Long.             131.6
Depth. (km)       30
Mag.              6.9
Station Code      KMM003
Station Lat.      32.9335
Station Long.     130.5477
Station Height(m) 13
Record Time       2025/01/13 21:20:01
Sampling Freq(Hz) 100Hz
Duration Time(s)  109
Dir.              N-S
Scale Factor      7845(gal)/8223790
Max. Acc. (gal)   9.491
Last Correction   2025/01/13 21:20:01
Memo.             
[...]
   -1480    -1371    -1208    -1013     -812     -621     -459     -359 
    -344     -391     -436     -399     -247       13      364      770 
    1179     1548     1845     2066     2222     2320     2361     2322 
    2187     1972     1706     1414     1101      780      491      255 
      79      -35     -103     -136     -118      -37       91      226 
     329      376      360      278      133      -66     -311     -583 
    -846    -1074    -1262    -1421    -1571    -1691    -1730    -1659 
   -1483    -1206     -822     -356      126      564      919     1163 
    1264     1206     1026      765      446       97     -259     -598 
    -899    -1152    -1358    -1510    -1609    -1638    -1566    -1364 
   -1035     -592      -70      498     1104     1733     2340     2872 
    3298     3607     3792     3854     3805     3661     3442     3176 
    2894     2623     2380     2181     2031     1894     1733     1536 
    1282      955      557      106     -359     -796    -1174    -1485 
   -1725    -1900    -2006    -2029    -1968    -1821    -1572    -1224 
    -792     -282      288      877     1428     1914     2307     2578 
    2722     2736     2639     2479     2309     2147     1985     1803 
    1599     1389     1182      986      795      614      449      301 
     157        4     -171     -375     -604     -830    -1036    -1243 
   -1459    -1672    -1881    -2099    -2330    -2585    -2852    -3094 
   -3250    -3265    -3133    -2883    -2538    -2118    -1645    -1147 
    -645     -153      306      727     1113     1478     1810     2070 
    2242     2335     2354     2280     2112     1892     1672     1483 
    1316     1148      982      800      583      319       -9     -399 
    -818    -1236    -1647    -2049    -2428    -2778    -3125    -3489 
   -3871    -4279    -4698    -5090    -5420    -5660    -5805    -5853 
   -5802    -5645    -5391    -5063    -4675    -4222    -3717    -3167 
   -2583    -1996    -1429     -896     -402       56      486      872 
    1212     1522     1829     2143     2450     2716     2926     3083 
    3186     3226     3191     3083     2924     2729     2500     2218 
    1877     1487     1074      683      342       62     -141     -241 
    -228     -103       87      278      419      492      494      436 
     330      205      102       58       71      106      133      129 
      79      -40     -248     -538     -878    -1202    -1453    -1655 
   -1811    -1898    -1929    -1937    -1918    -1858    -1748    -1575 
   -1356    -1123     -895     -657     -396     -120      148      399 
     645      907     1188     1468     1734     1987     2227     2439 
    2590     2667     2677     2629     2533     2382     2165     1880 
    1543     1166      756      319     -103     -465     -734     -901 
    -966     -930     -804     -596     -310       12      310      546 
     714      823      886      892      839      751      652      564 
     496      453      442      480      581      741      931     1123 
    1287     1394     1417     1343     1189      993      788      603 
     468      403      415      507      669      877     1088     1258 
    1363     1410     1405     1363     1323     1314     1347     1418 
    1516     1611     1672     1672     1618     1530     1417     1283 
    1135      981      847      749      684      654      660      677 
     715      807      970     1194     1455     1744     2060     2389 
    2705     2965     3134     3179     3078     2832     2457     1954 
    1335      622     -151     -953    -1757    -2531    -3221    -3794 
   -4251    -4600    -4851    -5008    -5085    -5094    -5039    -4893 
   -4626    -4253    -3807    -3315    -2812    -2335    -1918    -1582 
   -1343    -1196    -1112    -1058    -1011     -951     -858     -692 
    -414       -5      540     1213     1991     2824     3647     4396 
    5028     5508     5802     5896     5782     5448     4903     4160 
    3245     2191     1028     -202    -1452    -2675    -3829    -4889 
   -5825    -6590    -7144    -7454    -7507    -7315    -6880    -6200 
   -5301    -4234    -3076    -1898     -735      386     1424     2328 
    3067     3619     3986     4180     4226     4167     4028     3820 
    3550     3227     2875     2513     2142     1765     1399     1078 
     841      692      596      508      400      261       97      -90 
    -292     -502     -703     -877     -999    -1050    -1034     -967 
    -857     -714     -562     -414     -284     -182      -98      -27 
       6      -44     -205     -457     -768    -1102    -1433    -1741 
   -1995    -2151    -2182    -2069    -1823    -1486    -1092     -661 
    -226      163      473      700      847      911      886      774 
     581      322       21     -294     -619     -957    -1289    -1580 
   -1788    -1883    -1872    -1790    -1675    -1572    -1529    -1588 
   -1790    -2137    -2575    -3024    -3422    -3717    -3870    -3855 
   -3674    -3372    -3001    -2586    -2141    -1679    -1198     -702 
    -209      270      735     1182     1588     1937     2228     2473 
    2671     2822     2936     3007     3021     2972     2872     2736 
    2563     2357     2123     1861     1572     1271      950      616 
     290      -33     -379     -758    -1156    -1534    -1840    -2023 
   -2061    -1942    -1671    -1269     -774     -240      283      754 
    1134     1391     1522     1559     1556     1559     1574     1574 
    1533     1456     1348     1217     1086      972      892      877 
     932     1026     1140     1286     1462     1633     1760     1827 
    1848     1853     1868     1902     1964     2047     2133     2197 
    2230     2222     2173     2091     1968     1787     1522     1169 
     753      297     -198     -712    -1204    -1628    -1954    -2184 
   -2316    -2350    -2285    -2138    -1941    -1728    -1517    -1306 
   -1074     -808     -522     -237       21      226      355      387 
     319      170      -40     -261     -444     -558     -576     -479 
    -284      -12      319      681     1047     1390     1709     2011 
    2288     2527     2714     2828     2853     2787     2635     2411 
    2108     1725     1282      810      361       -1     -265     -421 
    -469     -446     -391     -349     -361     -440     -592     -845 
   -1205    -1669    -2207    -2774    -3343    -3878    -4330    -4649 
   -4800    -4772    -4565    -4198    -3686    -3042    -2304    -1528 
    -760      -25      666     1317     1923     2474     2961     3357 
    3654     3869     3996     4018     3917     3677     3306     2843 
    2351     1895     1507     1190      951      772      595      371 
      87     -257     -662    -1128    -1665    -2276    -2924    -3566 
   -4174    -4719    -5177    -5516    -5699    -5691    -5460    -4976 
   -4243    -3302    -2200     -996      233     1420     2505     3445 
    4216     4793     5185     5420     5525     5521     5425     5247 
    4993     4688     4359     4031     3735     3493     3318     3195 
    3103     3005     2848     2593     2234     1779     1233      607 
     -68     -761    -1451    -2143    -2864    -3620    -4403    -5202 
   -5987    -6714    -7337    -7788    -8002    -7942    -7591    -6972 
   -6119    -5071    -3883    -2600    -1270       39     1262     2349 
    3261     3981     4492     4774     4818     4631     4252     3736 
    3132     2477     1829     1242      743      357       99      -52 
    -145     -202     -240     -295     -400     -581     -846    -1155 
   -1474    -1786    -2088    -2371    -2619    -2786    -2836    -2749 
   -2512    -2099    -1494     -718      189     1185     2219     3222 
    4132     4892     5456     5790     5861     5655     5170     4426 
    3469     2346     1115     -135    -1323    -2367    -3169    -3662 
   -3825    -3680    -3288    -2701    -1944    -1077     -202      583 
    1216     1656     1868     1833     1576     1144      600       21 
    -533    -1023    -1405    -1652    -1760    -1729    -1563    -1279 
    -911     -486      -20      461      932     1360     1718     1979 
    2110     2084     1881     1502      967      310     -411    -1116 
   -1729    -2192    -2475    -2585    -2538    -2355    -2060    -1667 
   -1197     -697     -221      194      511      700      735      611 
     333      -66     -557    -1134    -1764    -2385    -2941    -3392 
   -3712    -3894    -3955    -3905    -3738    -3447    -3040    -2538 
   -1968    -1350     -723     -128      390      788     1042     1169 
    1205     1179     1115     1024      912      792      675      562 
     449      341      263      232      260      364      541      766 
    1011     1254     1462     1586     1603     1505     1289      984 
     639      303       -9     -305     -577     -808     -969    -1036 
   -1003     -876     -656     -342       49      503      988     1482 
    1973     2442     2857     3187     3388     3437     3333     3082 
    2679     2120     1433      670     -110     -855    -1518    -2056 
   -2428    -2627    -2683    -2644    -2555    -2463    -2393    -2362 
   -2386    -2444    -2488    -2486    -2442    -2361    -2241    -2091 
   -1929    -1757    -1564    -1335    -1055     -706     -279      218 
     784     1393     1992     2517     2920     3176     3287     3267 
    3133     2903     2598     2241     1848     1437     1020      614 
     229     -117     -384     -541     -592     -562     -477     -367 
    -255     -164     -114     -125     -209     -351     -537     -762 
   -1017    -1293    -1578    -1846    -2076    -2245    -2331    -2311 
   -2172    -1906    -1499     -938     -230      606     1553     2590 
    3680     4766     5784     6678     7411     7958     8320     8510 
    8534     8398     8090     7620     7018     6293     5425     4403 
    3225     1908      484     -989    -2432    -3773    -4954    -5919 
   -6635    -7101    -7337    -7373    -7233    -6952    -6562    -6095 
   -5576    -5020    -4438    -3838    -3208    -2547    -1873    -1202 
    -542      102      723     1308     1864     2393     2895     3389 
    3896     4419     4947     5447     5880     6214     6411     6446 
    6320     6034     5580     4958     4164     3215     2158     1035 
    -109    -1220    -2246    -3145    -3883    -4411    -4706    -4779 
   -4641    -4291    -3769    -3145    -2479    -1815    -1196     -665 
    -255       18      137       89     -108     -414     -791    -1204 
   -1618    -1989    -2268    -2423    -2434    -2288    -1993    -1568 
   -1043     -477       58      510      845     1032     1055      912 
     610      153     -456    -1190    -1981    -2781    -3551    -4278 
   -4949    -5553    -6073    -6470    -6704    -6750    -6594    -6243 
   -5721    -5057    -4295    -3489    -2673    -1871    -1098     -364 
     328      974     1571     2112     2598     3022     3384     3688 
    3917     4058     4117     4118     4104     4116     4164     4239 
    4318     4378     4380     4291     4078     3731     3262     2689 
    2030     1313      575     -136     -784    -1335    -1771    -2100 
   -2331    -2469    -2519    -2489    -2378    -2182    -1902    -1543 
   -1131     -693     -256      168      595     1038     1510     2015 
    2528     3010     3423     3738     3937     4008     3947     3761 
    3465     3096     2690     2263     1823     1390      978      606 
     290       40     -139     -244     -268     -209      -64      155 
     432      726     1009     1256     1433     1532     1560     1532 
    1449     1308     1112      855      525      117     -359     -893 
   -1467    -2053    -2621    -3152    -3632    -4045    -4392    -4665 
   -4849    -4920    -4851    -4635    -4282    -3802    -3217    -2543 
   -1800    -1030     -286      380      947     1408     1764     2018 
    2165     2208     2174     2081     1937     1749     1526     1275 
    1009      745      481      229       14     -149     -268     -342 
    -395     -448     -506     -579     -668     -773     -896    -1039 
   -1201    -1393    -1624    -1892    -2187    -2486    -2789    -3091 
   -3388    -3678    -3948    -4170    -4299    -4298    -4148    -3847 
   -3399    -2806    -2076    -1232     -307      653     1599     2484 
    3250     3852     4261     4476     4517     4413     4183     3842 
    3403     2891     2340     1768     1183      608       70     -409 
    -811    -1121    -1340    -1490    -1621    -1767    -1930    -2106 
   -2282    -2438    -2550    -2594    -2558    -2439    -2242    -1973 
   -1637    -1244     -819     -391       36      467      888     1282 
    1632     1915     2114     2222     2230     2122     1892     1548 
    1104      572      -28     -676    -1356    -2043    -2705    -3322 
   -3893    -4411    -4862    -5235    -5524    -5707    -5767    -5679 
   -5432    -5024    -4455    -3720    -2824    -1790     -646      575 
    1825     3046     4187     5204     6068     6785     7364     7808 
    8113     8270     8278     8148     7878     7465     6934     6334 
    5701     5051     4387     3719     3063     2417     1790     1174 
     550      -94     -760    -1440    -2112    -2756    -3368    -3936 
   -4436    -4835    -5097    -5179    -5065    -4747    -4245    -3562 
   -2691    -1647     -465      819     2173     3543     4865     6096 
    7195     8120     8865     9433     9805     9969     9914     9645 
    9192     8569     7774     6813     5706     4473     3146     1761 
     346    -1055    -2394    -3624    -4698    -5556    -6176    -6567 
   -6745    -6737    -6567    -6266    -5875    -5432    -4980    -4554 
   -4175    -3838    -3535    -3262    -3009    -2763    -2524    -2286 
   -2062    -1864    -1701    -1545    -1375    -1190     -974     -730 
    -477     -228       14      233      388      461      461      392 
     265       95      -99     -299     -486     -654     -810     -958 
   -1105    -1251    -1418    -1628    -1864    -2108    -2349    -2569 
   -2756    -2889    -2959    -2965    -2921    -2849    -2758    -2614 
   -2397    -2119    -1787    -1416    -1017     -598     -174      240 
     639     1023     1389     1732     2047     2326     2555     2737 
    2875     2970     3036     3084     3125     3173     3235     3310 
    3391     3469     3524     3530     3449     3254     2930     2484 
    1931     1274      504     -364    -1309    -2280    -3223    -4102 
   -4872    -5487    -5910    -6102    -6049    -5759    -5223    -4446 
   -3470    -2334    -1085      205     1479     2683     3763     4677 
    5401     5918     6219     6315     6218     5953     5567     5096 
    4557     3969     3346     2709     2081     1486      934      436 
      -5     -411     -808    -1194    -1572    -1953    -2342    -2737 
   -3121    -3465    -3740    -3913    -3940    -3789    -3450    -2925 
   -2241    -1436     -545      409     1393     2369     3292     4110 
    4774     5250     5512     5549     5366     4986     4441     3758 
    2961     2073     1132      191     -718    -1582    -2407    -3181 
   -3869    -4452    -4918    -5251    -5460    -5582    -5647    -5645 
   -5576    -5472    -5346    -5202    -5046    -4866    -4657    -4418 
   -4155    -3881    -3605    -3312    -2986    -2627    -2253    -1865 
   -1475    -1090     -714     -344       17      376      747     1147 
    1582     2049     2540     3051     3582     4118     4634     5097 
    5472     5722     5813     5714     5397     4850     4098     3186 
    2160     1063      -52    -1131    -2133    -3018    -3751    -4325 
   -4739    -4990    -5088    -5053    -4896    -4630    -4275    -3842 
   -3350    -2835    -2330    -1856    -1422    -1023     -645     -274 
     105      525     1016     1590     2242     2953     3696     4448 
    5170     5827     6376     6771     6980     6995     6821     6475 
    5984     5378     4687     3940     3157     2350     1547      787 
     109     -450     -869    -1161    -1337    -1399    -1352    -1210 
   -1001     -768     -545     -353     -199      -68       44      129 
     195      255      306      355      398      426      430      410 
     371      324      283      241      191      147      108       51 
     -37     -175     -359     -579     -823    -1069    -1297    -1490 
   -1628    -1692    -1692    -1642    -1557    -1451    -1333    -1215 
   -1093     -973     -850     -708     -550     -383     -224     -102 
     -44      -62     -162     -344     -592     -888    -1212    -1529 
   -1807    -2020    -2162    -2239    -2258    -2242    -2218    -2193 
   -2184    -2214    -2284    -2388    -2525    -2685    -2848    -2990 
   -3072    -3069    -2957    -2718    -2338    -1795    -1084     -225 
     733     1730     2708     3612     4392     5026     5481     5729 
    5772     5618     5274     4761     4104     3322     2427     1448 
     433     -564    -1493    -2303    -2945    -3388    -3618    -3642 
   -3481    -3163    -2722    -2204    -1648    -1097     -589     -153 
     194      459      645      754      799      788      735      666 
     614      604      653      764      939     1169     1441     1749 
    2066     2378     2673     2925     3119     3250     3307     3287 
    3203     3068     2883     2637     2326     1948     1512     1031 
     525       10     -496     -989    -1472    -1952    -2432    -2907 
   -3356    -3761    -4097    -4349    -4502    -4534    -4438    -4224 
   -3906    -3499    -2997    -2405    -1745    -1030     -272      502 
    1293     2097     2899     3677     4394     5022     5532     5891 
    6076     6076     5892     5541     5069     4507     3881     3219 
    2554     1922     1350      845      399        6     -318     -560 
    -731     -843     -893     -888     -841     -762     -675     -591 
    -515     -465     -452     -465     -504     -558     -616     -669 
    -715     -757     -797     -847     -911     -996    -1097    -1205 
   -1312    -1409    -1482    -1521    -1536    -1544    -1556    -1571 
   -1587    -1605    -1618    -1620    -1601    -1548    -1444    -1298 
   -1120     -903     -652     -371      -64      255      569      872 
    1150     1387     1572     1707     1790     1817     1809     1780 
    1734     1687     1647     1625     1624     1632     1625     1590 
    1506     1358     1135      837      460       14     -481    -1020 
   -1586    -2164    -2739    -3291    -3802    -4253    -4630    -4927 
   -5128    -5219    -5194    -5057    -4812    -4473    -4056    -3578 
   -3065    -2543    -2025    -1524    -1058     -622     -206      190 
     569      934     1285     1626     1958     2285     2606     2914 
    3207     3481     3727     3936     4097     4199     4239     4202 
    4085     3893     3635     3325     2976     2609     2247     1894 
    1560     1262      999      756      514      265       13     -225 
    -437     -612     -757     -880     -970    -1023    -1044    -1042 
   -1023    -1000     -974     -949     -926     -907     -901     -913 
    -943     -993    -1065    -1161    -1274    -1394    -1499    -1574 
   -1613    -1610    -1563    -1476    -1348    -1189    -1003     -791 
