Origin Time       2025/01/13 21:19:00
Lat.              31.8
Long.             131.6
Depth. (km)       30
Mag.              6.9
Station Code      KMM020
Station Lat.      32.3636
Station Long.     130.1807
Station Height(m) 10
Record Time       2025/01/13 21:20:12
Sampling Freq(Hz) 100Hz
Duration Time(s)  81
Dir.              E-W
Scale Factor      7845(gal)/8223790
Max. Acc. (gal)   2.843
Last Correction   2025/01/13 21:20:13
Memo.             
[...]
     745      849      909      901      862      793      677      561 
     429      251       91      -28     -132     -168     -147     -143 
    -140     -144     -190     -274     -378     -461     -510     -541 
    -557     -568     -564     -542     -530     -498     -454     -491 
    -592     -697     -832     -966    -1042    -1107    -1185    -1229 
   -1220    -1139    -1009     -922     -874     -837     -824     -819 
    -812     -811     -835     -926    -1088    -1302    -1512    -1640 
   -1698    -1699    -1602    -1453    -1321    -1186    -1044     -878 
    -649     -399     -163       79      251      342      469      639 
     803      953     1070     1117     1125     1135     1124     1143 
    1205     1246     1300     1379     1433     1499     1590     1675 
    1796     1937     2026     2068     2077     2057     2016     1971 
    1927     1860     1772     1659     1502     1333     1138      943 
     832      804      876     1038     1182     1277     1320     1279 
    1183     1093     1042     1057     1115     1150     1148     1129 
    1061      924      754      589      436      284      182      151 
     156      160      148      120       54      -66     -197     -310 
    -430     -541     -581     -557     -530     -496     -425     -364 
    -330     -278     -209     -140      -70      -44      -62      -87 
    -171     -294     -361     -410     -467     -491     -514     -553 
    -558     -510     -440     -380     -324     -310     -345     -318 
    -220     -102       49      217      351      422      433      430 
     433      430      429      417      361      274      171       62 
      -9      -25      -48     -102     -163     -248     -388     -558 
    -743     -963    -1186    -1352    -1428    -1395    -1244    -1023 
    -831     -679     -519     -353     -197      -55       32       63 
      43      -76     -225     -317     -405     -450     -407     -361 
    -326     -280     -275     -287     -279     -279     -286     -295 
    -301     -288     -299     -360     -407     -403     -402     -413 
    -386     -351     -334     -297     -229     -128       31      184 
     310      460      576      612      610      562      483      410 
     345      326      369      440      517      575      607      658 
     747      885     1053     1181     1271     1333     1347     1336 
    1320     1298     1302     1317     1313     1337     1402     1475 
    1568     1690     1815     1903     1929     1912     1868     1777 
    1653     1512     1325     1094      884      700      487      247 
      20     -189     -376     -484     -457     -319     -125       94 
     286      402      463      475      426      313      137      -76 
    -290     -495     -677     -787     -861     -932     -949     -947 
    -963     -962     -961     -978    -1003    -1065    -1173    -1287 
   -1337    -1297    -1229    -1136    -1020     -939     -865     -804 
    -754     -650     -500     -288      -10      230      410      557 
     630      653      657      633      600      575      575      594 
     595      591      565      514      507      519      477      419 
     369      322      288      237      166       79      -18     -112 
    -172     -144      -44       93      282      444      515      542 
     521      464      445      437      421      417      388      309 
     191       74      -36     -153     -245     -286     -313     -365 
    -399     -413     -469     -545     -577     -558     -481     -325 
     -97      118      286      434      514      488      442      421 
     414      426      414      356      274      136      -63     -287 
    -514     -699     -820     -924    -1012    -1050    -1051    -1039 
   -1015     -981     -951     -939     -950     -982     -990     -939 
    -873     -827     -784     -768     -805     -903    -1034    -1107 
   -1078     -986     -828     -595     -349     -121      125      375 
     592      789      965     1108     1221     1316     1386     1401 
    1377     1336     1269     1201     1188     1216     1256     1323 
    1416     1480     1498     1506     1506     1490     1501     1586 
    1729     1868     1971     2043     2062     2023     1965     1912 
    1844     1765     1675     1530     1336     1123      912      733 
     595      492      427      388      355      321      283      240 
     225      230      210      167      116       44      -12        0 
      44      108      205      306      415      541      657      801 
     961     1062     1136     1210     1240     1228     1170     1067 
     935      769      612      473      309      163       59      -28 
     -67      -59      -47      -32      -41      -81     -114     -145 
    -162     -137      -68       47      172      288      383      390 
     318      245      164       63       -9      -48      -91     -135 
    -152     -149     -114      -48        4       39       47        0 
     -49      -86     -151     -249     -363     -514     -722     -936 
   -1108    -1250    -1375    -1455    -1494    -1525    -1517    -1466 
   -1405    -1337    -1302    -1290    -1252    -1256    -1304    -1325 
   -1362    -1401    -1359    -1251    -1135     -967     -741     -548 
    -391     -234     -118      -27       79      182      283      388 
     467      530      635      758      908     1147     1409     1629 
    1848     1992     2034     2049     2033     2010     2047     2106 
    2120     2064     1926     1717     1472     1239     1028      837 
     650      465      292      130      -39     -216     -357     -472 
    -560     -549     -456     -361     -218       -8      225      506 
     789     1027     1236     1366     1453     1580     1686     1757 
    1830     1863     1863     1867     1869     1863     1830     1780 
    1729     1659     1582     1517     1444     1366     1274     1146 
    1021      936      868      792      693      577      469      352 
     233      118        2      -98     -174     -238     -314     -396 
    -477     -568     -670     -769     -880    -1001    -1075    -1112 
   -1147    -1156    -1170    -1183    -1140    -1067     -974     -855 
    -773     -773     -814     -843     -895     -958     -962     -931 
    -916     -892     -830     -768     -742     -727     -712     -708 
    -712     -715     -688     -661     -685     -750     -845     -934 
    -950     -903     -816     -711     -646     -614     -594     -589 
    -550     -467     -384     -309     -228     -170     -155     -171 
    -213     -264     -317     -395     -487     -580     -665     -710 
    -716     -699     -680     -669     -648     -635     -641     -630 
    -599     -541     -445     -317     -163        6      198      400 
     580      749      919     1059     1181     1291     1358     1385 
    1406     1420     1399     1339     1250     1124      949      783 
     653      526      398      295      263      290      368      508 
     676      843      993     1081     1125     1142     1138     1154 
    1200     1283     1387     1489     1609     1701     1728     1755 
    1760     1711     1648     1572     1480     1406     1368     1382 
    1475     1605     1710     1813     1914     1954     1944     1930 
    1907     1879     1858     1811     1719     1598     1459     1320 
    1220     1196     1215     1240     1273     1316     1351     1336 
    1259     1111      928      773      635      510      413      337 
     282      252      264      337      434      523      610      661 
     660      630      585      490      363      274      186       39 
    -133     -311     -515     -750     -988    -1194    -1375    -1516 
   -1595    -1620    -1588    -1539    -1509    -1466    -1418    -1413 
   -1406    -1382    -1374    -1363    -1343    -1324    -1271    -1202 
   -1174    -1192    -1260    -1362    -1449    -1510    -1517    -1472 
   -1397    -1297    -1213    -1162    -1143    -1185    -1270    -1372 
   -1505    -1609    -1617    -1549    -1437    -1269    -1070     -912 
    -812     -780     -845     -954    -1093    -1290    -1472    -1579 
   -1644    -1656    -1625    -1615    -1618    -1601    -1586    -1555 
   -1474    -1394    -1321    -1159     -905     -648     -391     -152 
      17      143      247      295      303      297      256      243 
     287      309      346      445      515      546      585      606 
     611      618      603      569      515      456      432      473 
     598      772      946     1119     1298     1459     1582     1676 
    1733     1728     1667     1602     1555     1495     1478     1553 
    1659     1775     1922     2060     2168     2251     2295     2315 
    2322     2308     2304     2304     2296     2285     2255     2215 
    2199     2197     2189     2157     2070     1939     1771     1566 
    1345     1093      800      523      278       36     -182     -346 
    -433     -448     -418     -334     -201      -64       76      222 
     318      359      390      421      410      382      384      378 
     336      298      237      147       54      -54     -167     -257 
    -313     -342     -367     -365     -314     -202      -55       94 
     284      525      778     1081     1420     1694     1877     1987 
    2014     1995     1939     1856     1775     1679     1583     1528 
    1489     1471     1476     1478     1475     1445     1348     1198 
    1015      804      553      286       51     -170     -375     -491 
    -517     -508     -498     -508     -558     -643     -734     -801 
    -835     -873     -943    -1044    -1181    -1333    -1433    -1475 
   -1495    -1489    -1482    -1467    -1409    -1331    -1229    -1109 
    -994     -855     -689     -521     -325     -114       82      287 
     460      537      513      407      234       10     -238     -476 
    -693     -904    -1092    -1239    -1374    -1498    -1579    -1625 
   -1655    -1674    -1695    -1698    -1667    -1624    -1563    -1472 
   -1379    -1264    -1096     -905     -706     -521     -383     -275 
    -205     -176     -128      -28      136      363      606      801 
     912      953      935      857      760      665      554      442 
     340      226      149      147      180      263      382      480 
     575      681      791      872      892      880      865      826 
     776      733      710      702      684      665      635      572 
     513      471      436      413      388      353      338      337 
     321      309      324      360      423      510      599      684 
     777      877      981     1070     1128     1182     1235     1262 
    1259     1229     1181     1107     1001      918      862      780 
     684      577      438      286      151       35      -71     -148 
    -179     -216     -255     -276     -301     -318     -319     -315 
    -275     -209     -175     -149     -139     -187     -249     -287 
    -329     -369     -364     -313     -276     -234     -168     -151 
    -175     -194     -253     -338     -406     -492     -583     -639 
    -665     -642     -579     -481     -326     -139       47      216 
     325      364      356      305      248      217      211      234 
     251      225      171      114       63       17      -44     -113 
    -167     -238     -303     -302     -259     -174      -21      135 
     264      405      517      581      652      720      784      865 
     932      997     1071     1125     1173     1228     1289     1366 
    1443     1495     1521     1530     1529     1524     1536     1553 
    1563     1548     1478     1366     1247     1125     1026      955 
     896      870      877      851      792      724      612      444 
     271      117      -33     -147     -174     -180     -194     -152 
     -68       35      168      291      400      504      548      537 
     503      442      382      319      234      136       31      -67 
    -144     -191     -213     -232     -255     -288     -359     -441 
    -498     -542     -549     -506     -459     -368     -230     -132 
     -45       66      157      224      260      238      162       14 
    -176     -367     -577     -793     -963    -1089    -1163    -1174 
   -1119     -999     -861     -729     -606     -542     -549     -600 
    -702     -823     -935    -1062    -1185    -1274    -1345    -1395 
   -1416    -1441    -1468    -1479    -1505    -1561    -1610    -1644 
   -1687    -1696    -1622    -1516    -1406    -1246    -1066     -895 
    -675     -432     -207       14      213      359      475      579 
     685      799      876      874      807      711      588      454 
     356      314      280      205      110       10     -152     -348 
    -491     -634     -812     -939    -1032    -1155    -1269    -1324 
   -1343    -1325    -1228    -1034     -781     -500     -217        4 
     137      218      256      240      191      118        6     -130 
    -260     -368     -427     -400     -279      -91      145      405 
     638      831      978     1093     1196     1285     1367     1428 
    1449     1478     1520     1559     1610     1655     1692     1737 
    1768     1829     1931     2022     2107     2201     2290     2351 
    2373     2380     2373     2340     2330     2349     2373     2425 
    2501     2589     2691     2758     2787     2825     2862     2864 
    2867     2903     2948     3007     3091     3146     3150     3111 
    3033     2922     2786     2637     2490     2335     2153     1949 
    1722     1448     1142      857      596      340       97     -166 
    -496     -854    -1179    -1491    -1767    -1926    -1998    -2029 
   -1980    -1887    -1800    -1699    -1602    -1526    -1447    -1362 
   -1240    -1089     -963     -853     -731     -621     -550     -499 
    -452     -461     -540     -653     -815    -1035    -1282    -1505 
   -1669    -1769    -1817    -1825    -1796    -1765    -1734    -1674 
   -1625    -1607    -1522    -1385    -1246    -1067     -869     -677 
    -475     -279      -90       81      232      379      499      599 
     715      835      966     1123     1277     1401     1476     1510 
    1502     1410     1251     1080      874      642      449      295 
     149       54       31       49       87      141      187      205 
     176      105       -9     -183     -369     -508     -634     -769 
    -912    -1069    -1250    -1443    -1586    -1651    -1691    -1709 
   -1659    -1593    -1552    -1521    -1509    -1502    -1479    -1451 
   -1422    -1395    -1372    -1368    -1393    -1414    -1425    -1422 
   -1368    -1293    -1243    -1205    -1171    -1146    -1151    -1177 
   -1189    -1200    -1205    -1175    -1120    -1057     -963     -839 
    -719     -606     -500     -425     -356     -287     -218     -141 
     -71        4      106      233      360      490      622      745 
     891     1077     1244     1397     1579     1738     1875     2039 
    2185     2290     2398     2482     2474     2398     2323     2207 
    2041     1919     1825     1694     1588     1506     1391     1285 
    1181     1063      972      901      831      776      730      679 
     639      630      648      689      754      850      970     1096 
    1217     1355     1512     1648     1750     1821     1837     1806 
    1745     1687     1659     1652     1659     1688     1710     1694 
    1625     1503     1368     1221     1078     1003      973      970 
    1008     1039     1038     1039     1027      986      928      828 
     702      562      382      199       54      -89     -213     -287 
    -368     -484     -608     -764     -951    -1125    -1294    -1449 
   -1556    -1653    -1755    -1794    -1791    -1768    -1692    -1593 
   -1510    -1447    -1402    -1360    -1312    -1264    -1217    -1169 
   -1121    -1084    -1054     -992     -915     -837     -700     -527 
    -375     -243     -143      -75      -31        0       17        1 
     -47      -90     -122     -159     -182     -175     -139      -90 
     -33       62      168      253      375      502      561      594 
     595      540      484      437      369      319      283      249 
     243      244      232      225      233      248      267      290 
     313      328      326      328      353      373      364      368 
     395      403      394      399      417      429      444      477 
     511      527      531      513      442      325      178       10 
    -144     -272     -403     -521     -591     -653     -724     -780 
    -803     -774     -722     -646     -523     -419     -357     -286 
    -245     -259     -248     -194     -125       -9      130      251 
     341      378      396      442      469      486      534      560 
     538      514      479      419      344      294      260      180 
      91        2     -147     -307     -440     -571     -687     -783 
    -854     -889     -927     -962     -962     -950     -916     -859 
    -784     -657     -483     -288      -81      113      298      473 
     604      715      789      784      769      754      702      661 
     668      720      796      873      959     1023     1055     1100 
    1139     1151     1148     1142     1162     1215     1271     1345 
    1422     1456     1466     1483     1503     1525     1563     1609 
    1648     1669     1675     1679     1644     1521     1352     1179 
     959      734      584      467      363      290      234      210 
     216      243      307      376      419      468      510      500 
     473      463      454      441      411      360      303      241 
     180      116       20      -81     -180     -302     -419     -522 
    -604     -638     -637     -631     -607     -537     -442     -355 
    -280     -214     -162     -120      -72       -6       63      117 
     151      159      137       79      -29     -168     -317     -471 
    -596     -685     -750     -792     -808     -800     -764     -724 
    -687     -627     -584     -584     -594     -608     -641     -666 
    -679     -668     -637     -602     -554     -511     -476     -409 
    -317     -211      -86       64      217      333      457      580 
     646      688      704      669      629      568      463      372 
     292      201      145      137      148      170      217      286 
     315      303      301      299      292      301      337      387 
     415      444      495      526      540      579      630      662 
     697      733      757      799      828      850      880      873 
     841      811      785      765      734      711      718      716 
     695      646      569      496      432      384      382      379 
     367      400      427      406      391      375      319      237 
     133       14     -108     -233     -345     -427     -502     -589 
    -653     -680     -735     -823     -891     -947    -1012    -1043 
   -1032    -1023    -1015     -972     -922     -880     -808     -729 
    -669     -599     -519     -453     -390     -318     -211      -86 
      12      113      238      332      392      472      535      556 
     579      616      657      707      780      850      881      892 
