Origin Time       2025/01/13 21:19:00
Lat.              31.8
Long.             131.6
Depth. (km)       30
Mag.              6.9
Station Code      KMM015
Station Lat.      32.2161
Station Long.     130.4059
Station Height(m) 8
Record Time       2025/01/13 21:19:55
Sampling Freq(Hz) 100Hz
Duration Time(s)  118
Dir.              E-W
Scale Factor      7845(gal)/8223790
Max. Acc. (gal)   13.191
Last Correction   2025/01/13 21:19:55
Memo.             
[...]
   -8783    -8298    -7719    -7117    -6490    -5876    -5341    -4903 
   -4561    -4326    -4151    -3967    -3751    -3474    -3109    -2697 
   -2301    -1929    -1549    -1129     -648      -94      517     1093 
    1549     1873     2022     1942     1665     1271      826      355 
    -167     -783    -1505    -2303    -3127    -3916    -4588    -5090 
   -5441    -5705    -5913    -6072    -6180    -6211    -6147    -5977 
   -5679    -5301    -4923    -4561    -4186    -3781    -3358    -2940 
   -2556    -2235    -1965    -1748    -1609    -1566    -1618    -1771 
   -2031    -2350    -2660    -2943    -3187    -3366    -3505    -3684 
   -3948    -4270    -4610    -4972    -5363    -5765    -6130    -6434 
   -6723    -7042    -7380    -7695    -7942    -8083    -8093    -7940 
   -7615    -7179    -6706    -6191    -5587    -4888    -4091    -3229 
   -2350    -1474     -618      162      784     1192     1394     1431 
    1301     1007      567      -33     -838    -1837    -2936    -4033 
   -5113    -6184    -7215    -8144    -8904    -9452    -9759    -9778 
   -9493    -8962    -8287    -7569    -6882    -6261    -5709    -5233 
   -4849    -4548    -4320    -4132    -3932    -3723    -3600    -3638 
   -3790    -4010    -4309    -4623    -4901    -5193    -5540    -5950 
   -6447    -7011    -7560    -7996    -8311    -8560    -8764    -8908 
   -8965    -8915    -8772    -8546    -8232    -7854    -7476    -7130 
   -6848    -6693    -6664    -6650    -6559    -6401    -6214    -6004 
   -5741    -5366    -4892    -4398    -3948    -3565    -3215    -2874 
   -2583    -2385    -2258    -2162    -2110    -2165    -2389    -2810 
   -3400    -4066    -4688    -5206    -5597    -5806    -5834    -5724 
   -5463    -4995    -4278    -3308    -2146     -873      423     1594 
    2505     3142     3553     3754     3712     3418     2909     2200 
    1302      288     -746    -1753    -2695    -3495    -4079    -4457 
   -4684    -4747    -4617    -4342    -4010    -3636    -3207    -2760 
   -2357    -2020    -1772    -1649    -1672    -1853    -2218    -2728 
   -3265    -3771    -4284    -4838    -5379    -5861    -6293    -6635 
   -6805    -6791    -6633    -6362    -6030    -5684    -5312    -4920 
   -4550    -4220    -3917    -3624    -3339    -3082    -2828    -2556 
   -2338    -2270    -2346    -2508    -2749    -3083    -3499    -3967 
   -4437    -4853    -5216    -5564    -5876    -6122    -6288    -6343 
   -6311    -6268    -6274    -6361    -6502    -6663    -6880    -7169 
   -7438    -7582    -7595    -7507    -7329    -7057    -6724    -6382 
   -6073    -5809    -5579    -5362    -5146    -4938    -4788    -4749 
   -4816    -4970    -5206    -5505    -5842    -6210    -6565    -6849 
   -7038    -7153    -7202    -7186    -7096    -6868    -6443    -5848 
   -5112    -4282    -3446    -2662    -1935    -1267     -660     -124 
     310      619      760      666      352     -125     -724    -1385 
   -2053    -2727    -3364    -3888    -4291    -4618    -4899    -5157 
   -5409    -5626    -5769    -5798    -5686    -5479    -5242    -4978 
   -4704    -4448    -4195    -3919    -3638    -3372    -3125    -2947 
   -2897    -2963    -3114    -3350    -3628    -3900    -4171    -4442 
   -4675    -4858    -4973    -5001    -5004    -5036    -5080    -5105 
   -5076    -4970    -4841    -4788    -4874    -5071    -5300    -5493 
   -5605    -5630    -5622    -5626    -5640    -5670    -5702    -5661 
   -5510    -5278    -4981    -4621    -4243    -3909    -3645    -3419 
   -3203    -2974    -2679    -2323    -2002    -1803    -1710    -1690 
   -1764    -1933    -2142    -2370    -2627    -2920    -3262    -3657 
   -4059    -4398    -4595    -4633    -4548    -4364    -4081    -3696 
   -3187    -2563    -1903    -1296     -760     -253      209      572 
     811      916      880      737      515      214     -174     -616 
   -1061    -1501    -1980    -2531    -3163    -3855    -4558    -5225 
   -5833    -6363    -6805    -7167    -7433    -7578    -7645    -7712 
   -7835    -8028    -8295    -8635    -9024    -9394    -9671    -9867 
  -10041   -10193   -10287   -10288   -10191   -10006    -9742    -9427 
   -9058    -8615    -8127    -7655    -7241    -6883    -6567    -6270 
   -5942    -5576    -5205    -4847    -4502    -4137    -3735    -3318 
   -2902    -2479    -2043    -1613    -1225     -907     -691     -629 
    -751    -1059    -1503    -1971    -2378    -2749    -3157    -3599 
   -3978    -4203    -4256    -4143    -3871    -3462    -2932    -2342 
   -1780    -1297     -909     -626     -460     -405     -438     -583 
    -892    -1366    -1954    -2621    -3343    -4105    -4905    -5732 
   -6535    -7242    -7800    -8208    -8503    -8669    -8641    -8382 
   -7901    -7198    -6301    -5319    -4365    -3495    -2705    -2018 
   -1490    -1151    -1007    -1062    -1321    -1768    -2392    -3168 
   -4043    -4974    -5915    -6797    -7568    -8195    -8641    -8862 
   -8834    -8591    -8198    -7673    -7030    -6292    -5439    -4484 
   -3523    -2637    -1829    -1082     -394      245      801     1221 
    1489     1557     1379      996      476     -160     -873    -1609 
   -2331    -2971    -3460    -3808    -4033    -4114    -4036    -3823 
   -3530    -3223    -2968    -2783    -2635    -2511    -2471    -2571 
   -2818    -3202    -3690    -4251    -4854    -5417    -5846    -6126 
   -6270    -6237    -6007    -5637    -5202    -4716    -4167    -3576 
   -2979    -2413    -1960    -1718    -1711    -1906    -2268    -2716 
   -3144    -3553    -3987    -4440    -4877    -5265    -5547    -5668 
   -5594    -5317    -4882    -4374    -3854    -3370    -2979    -2690 
   -2488    -2350    -2263    -2295    -2517    -2933    -3512    -4218 
   -4996    -5763    -6434    -6960    -7353    -7639    -7828    -7915 
   -7909    -7831    -7708    -7589    -7506    -7441    -7377    -7344 
   -7342    -7364    -7396    -7400    -7339    -7177    -6870    -6409 
   -5840    -5220    -4600    -4000    -3465    -3067    -2825    -2702 
   -2658    -2689    -2830    -3090    -3416    -3767    -4136    -4531 
   -4932    -5301    -5638    -5967    -6264    -6511    -6732    -6937 
   -7086    -7125    -7047    -6917    -6778    -6608    -6390    -6143 
   -5873    -5593    -5335    -5096    -4862    -4675    -4561    -4506 
   -4499    -4523    -4549    -4550    -4521    -4459    -4345    -4149 
   -3839    -3392    -2817    -2142    -1401     -629      130      843 
    1480     2037     2512     2897     3176     3335     3364     3264 
    3005     2536     1853      977      -85    -1296    -2559    -3785 
   -4919    -5914    -6729    -7341    -7723    -7848    -7731    -7415 
   -6913    -6228    -5400    -4494    -3576    -2666    -1746     -823 
      74      931     1718     2349     2735     2860     2755     2447 
    1981     1405      753       45     -695    -1459    -2214    -2914 
   -3539    -4081    -4533    -4882    -5130    -5331    -5556    -5815 
   -6080    -6328    -6561    -6786    -6991    -7145    -7231    -7245 
   -7165    -6995    -6789    -6574    -6327    -6054    -5814    -5634 
   -5530    -5536    -5652    -5859    -6126    -6412    -6682    -6940 
   -7191    -7406    -7545    -7565    -7474    -7322    -7133    -6928 
   -6759    -6685    -6701    -6771    -6858    -6941    -7042    -7206 
   -7457    -7798    -8213    -8667    -9124    -9582   -10042   -10489 
  -10887   -11196   -11365   -11354   -11137   -10701   -10065    -9259 
   -8337    -7387    -6482    -5663    -4931    -4270    -3715    -3325 
   -3136    -3161    -3377    -3713    -4102    -4490    -4853    -5196 
   -5522    -5815    -6052    -6227    -6345    -6388    -6328    -6156 
   -5860    -5443    -4932    -4384    -3805    -3169    -2511    -1879 
   -1273     -687     -122      430      958     1449     1883     2192 
    2335     2307     2135     1879     1593     1287      943      527 
      59     -406     -849    -1262    -1630    -1957    -2231    -2423 
   -2528    -2573    -2571    -2538    -2439    -2259    -2068    -1934 
   -1834    -1705    -1529    -1335    -1094     -747     -322       94 
     457      741      899      922      846      684      410       20 
    -476    -1080    -1798    -2635    -3599    -4677    -5825    -6984 
   -8095    -9112   -10004   -10739   -11294   -11651   -11782   -11684 
  -11383   -10886   -10210    -9389    -8434    -7356    -6173    -4900 
   -3561    -2158     -692      754     2084     3280     4325     5136 
    5622     5763     5618     5204     4473     3476     2322     1066 
    -255    -1636    -3122    -4687    -6254    -7823    -9375   -10836 
  -12136   -13232   -14077   -14615   -14801   -14642   -14164   -13356 
  -12235   -10876    -9354    -7749    -6122    -4463    -2798    -1210 
     253     1540     2550     3206     3503     3457     3092     2425 
    1441      167    -1294    -2840    -4382    -5840    -7184    -8406 
   -9468   -10299   -10868   -11230   -11442   -11551   -11576   -11476 
  -11236   -10855   -10293    -9531    -8623    -7700    -6863    -6141 
   -5510    -4915    -4322    -3738    -3153    -2613    -2184    -1846 
   -1594    -1466    -1483    -1659    -2015    -2517    -3080    -3654 
   -4261    -4909    -5607    -6399    -7237    -7997    -8618    -9107 
   -9443    -9574    -9471    -9128    -8553    -7777    -6849    -5795 
   -4637    -3434    -2238    -1105     -109      723     1345     1717 
    1884     1887     1715     1359      835      191     -545    -1358 
   -2216    -3102    -3990    -4865    -5737    -6583    -7338    -7993 
   -8559    -8982    -9201    -9196    -8973    -8602    -8140    -7554 
   -6845    -6103    -5410    -4816    -4337    -3925    -3559    -3246 
   -2932    -2574    -2243    -1954    -1656    -1352    -1038     -661 
    -245      156      542      886     1169     1421     1644     1777 
    1760     1518     1004      247     -689    -1756    -2882    -4001 
   -5085    -6122    -7037    -7719    -8144    -8371    -8411    -8255 
   -7924    -7425    -6739    -5931    -5067    -4152    -3261    -2517 
   -1923    -1445    -1098     -869     -749     -751     -855    -1024 
   -1225    -1416    -1613    -1831    -2014    -2124    -2169    -2169 
   -2203    -2336    -2563    -2837    -3121    -3407    -3713    -4043 
   -4356    -4638    -4950    -5324    -5676    -5933    -6139    -6338 
   -6497    -6625    -6762    -6864    -6902    -6930    -6976    -7005 
   -7024    -7053    -7087    -7137    -7188    -7161    -7022    -6847 
   -6724    -6666    -6643    -6639    -6686    -6831    -7065    -7308 
   -7473    -7557    -7587    -7524    -7338    -7078    -6804    -6492 
   -6116    -5713    -5300    -4866    -4436    -4028    -3686    -3464 
   -3316    -3210    -3198    -3285    -3424    -3630    -3940    -4329 
   -4752    -5216    -5713    -6204    -6667    -7044    -7276    -7442 
   -7623    -7755    -7800    -7828    -7812    -7661    -7384    -7034 
   -6617    -6134    -5648    -5198    -4747    -4279    -3842    -3461 
   -3088    -2682    -2223    -1683    -1123     -630     -156      367 
     842     1144     1309     1452     1564     1485     1132      633 
     125     -417    -1053    -1755    -2448    -3113    -3793    -4518 
   -5181    -5594    -5710    -5668    -5539    -5235    -4719    -4110 
   -3543    -3018    -2452    -1842    -1293     -907     -643     -396 
    -198     -176     -390     -808    -1390    -2172    -3215    -4448 
   -5705    -6882    -7985    -9072   -10102   -10926   -11452   -11689 
  -11734   -11604   -11195   -10470    -9505    -8384    -7211    -6054 
   -4880    -3655    -2443    -1320     -313      591     1413     2138 
    2709     3055     3122     2902     2403     1653      766     -172 
   -1173    -2216    -3215    -4125    -4980    -5811    -6637    -7437 
   -8168    -8829    -9413    -9907   -10347   -10732   -10937   -10876 
  -10584   -10080    -9339    -8383    -7292    -6145    -4981    -3854 
   -2860    -2019    -1217     -433      209      652      935     1086 
    1112     1013      824      580      249     -236     -892    -1555 
   -2070    -2532    -3107    -3767    -4375    -4874    -5310    -5749 
   -6172    -6424    -6507    -6628    -6864    -7083    -7167    -7134 
   -7079    -6984    -6778    -6489    -6196    -5917    -5605    -5224 
   -4776    -4311    -3866    -3408    -2867    -2215    -1514     -843 
    -226      318      764     1085     1298     1456     1540     1448 
    1131      656       97     -535    -1223    -1941    -2745    -3638 
   -4486    -5209    -5898    -6508    -6828    -6903    -6906    -6754 
   -6403    -5937    -5313    -4498    -3630    -2840    -2166    -1640 
   -1282    -1082    -1138    -1571    -2261    -3032    -3948    -5067 
   -6257    -7388    -8391    -9252   -10034   -10690   -11084   -11217 
  -11129   -10754   -10039    -9078    -8070    -7164    -6291    -5278 
   -4185    -3267    -2581    -1946    -1314     -804     -498     -422 
    -508     -627     -854    -1443    -2380    -3271    -3917    -4537 
   -5266    -6057    -6808    -7288    -7466    -7542    -7511    -7323 
   -7082    -6813    -6478    -6050    -5544    -5142    -4985    -4887 
   -4710    -4661    -4922    -5444    -6093    -6755    -7477    -8406 
   -9555   -10696   -11539   -12096   -12555   -12793   -12556   -11844 
  -10752    -9367    -7821    -6045    -3882    -1563      550     2500 
    4441     6230     7668     8739     9405     9590     9342     8665 
    7469     5880     4187     2378      299    -1842    -3862    -5904 
   -8021   -10050   -11782   -13104   -14076   -14763   -15199   -15338 
  -15049   -14389   -13504   -12378   -10998    -9478    -8001    -6623 
   -5255    -3948    -2824    -1879    -1136     -652     -383     -329 
    -585    -1162    -1935    -2782    -3717    -4768    -5711    -6400 
   -6936    -7353    -7645    -7817    -7781    -7607    -7466    -7241 
   -6752    -6041    -5219    -4434    -3743    -2952    -2045    -1325 
    -853     -409       89      579      997     1246     1232     1057 
     880      652      214     -427     -994    -1240    -1337    -1566 
   -1921    -2270    -2519    -2609    -2562    -2473    -2439    -2452 
   -2388    -2143    -1738    -1293     -943     -635     -189      391 
     909     1131     1074     1057     1058      676      -31     -675 
   -1278    -2037    -2899    -3811    -4807    -5798    -6592    -7123 
   -7607    -8256    -8930    -9373    -9668   -10064   -10594   -11094 
  -11391   -11507   -11612   -11664   -11493   -11175   -10837   -10412 
   -9825    -9078    -8172    -7203    -6338    -5472    -4313    -2930 
   -1792    -1092     -506      180      724      978     1117     1113 
     859      553      282     -116     -729    -1440    -2014    -2567 
   -3406    -4185    -4513    -4853    -5562    -6162    -6362    -6448 
   -6488    -6372    -6268    -6228    -6097    -5778    -5321    -5128 
   -5343    -5443    -5313    -5435    -5895    -6393    -6739    -6979 
   -7207    -7271    -7138    -7156    -7279    -7007    -6376    -5868 
   -5547    -5169    -4681    -4097    -3362    -2577    -2016    -1864 
   -1902    -1694    -1229     -954    -1046    -1314    -1537    -1547 
   -1440    -1571    -2099    -2847    -3564    -4132    -4668    -5429 
   -6447    -7443    -8247    -8943    -9626   -10300   -10916   -11310 
  -11294   -10941   -10581   -10351    -9953    -9197    -8298    -7319 
   -6196    -5051    -3865    -2581    -1428     -553      191      993 
    1811     2389     2581     2486     2307     2203     2211     2138 
    1756     1173      619      106     -426     -935    -1389    -1853 
   -2351    -2816    -3223    -3568    -3867    -4311    -5015    -5683 
   -6003    -6137    -6357    -6631    -6879    -7088    -7094    -6705 
   -6185    -6002    -5917    -5451    -4791    -4282    -3981    -3865 
   -3732    -3399    -3125    -3179    -3235    -3024    -2940    -3179 
   -3314    -3226    -3117    -2982    -2940    -3130    -3272    -3242 
   -3264    -3345    -3414    -3476    -3445    -3418    -3545    -3647 
   -3631    -3682    -3721    -3565    -3454    -3431    -3065    -2504 
   -2380    -2589    -2673    -2718    -2856    -3127    -3739    -4507 
   -5151    -5821    -6605    -7460    -8325    -8982    -9344    -9598 
   -9907   -10176   -10116    -9589    -8756    -7924    -7159    -6143 
   -4857    -3843    -3222    -2605    -2045    -1676    -1281    -1017 
   -1159    -1401    -1510    -1607    -1769    -2149    -2772    -3287 
   -3647    -4183    -4889    -5574    -6166    -6575    -6810    -7091 
   -7454    -7628    -7572    -7429    -7064    -6450    -5752    -4947 
   -4166    -3628    -3072    -2164    -1107     -356      -36       16 
     -99     -318     -635    -1270    -2224    -3126    -3836    -4476 
   -5128    -5994    -6926    -7299    -7169    -7078    -6924    -6625 
   -6405    -6006    -5251    -4523    -3996    -3565    -3194    -2743 
   -2155    -1644    -1359    -1273    -1287    -1256    -1139    -1167 
   -1521    -1991    -2440    -3013    -3640    -4225    -4943    -5761 
   -6405    -6866    -7314    -7726    -7971    -8172    -8399    -8348 
   -7942    -7512    -7138    -6682    -6126    -5494    -4930    -4487 
   -4033    -3631    -3237    -2643    -2251    -2513    -2974    -3051 
   -2835    -2679    -2749    -3026    -3348    -3352    -2909    -2479 
   -2404    -2435    -2326    -2045    -1590    -1231    -1304    -1649 
   -1885    -1964    -2106    -2515    -3190    -3931    -4564    -5061 
   -5466    -5868    -6338    -6835    -7268    -7589    -7847    -8098 
   -8345    -8544    -8608    -8591    -8653    -8748    -8726    -8630 
   -8496    -8293    -8071    -7882    -7663    -7295    -6760    -6227 
   -5788    -5351    -4855    -4357    -3986    -3882    -3990    -4048 
   -3935    -3834    -3951    -4245    -4527    -4735    -4905    -5026 
   -5103    -5163    -5127    -4923    -4603    -4199    -3712    -3217 
   -2760    -2308    -1857    -1436    -1016     -589     -252      -74 
      28      130      166       68     -156     -529    -1035    -1607 
   -2187    -2731    -3289    -3955    -4653    -5223    -5645    -5994 
   -6299    -6550    -6709    -6720    -6590    -6374    -6030    -5498 
   -4815    -4062    -3300    -2585    -1952    -1374     -793     -294 
     -27       29        0      -79     -206     -375     -634     -992 
   -1323    -1491    -1551    -1675    -1899    -2170    -2496    -2822 
   -3051    -3230    -3472    -3763    -4036    -4299    -4588    -4878 
   -5108    -5262    -5351    -5359    -5282    -5157    -5015    -4903 
   -4878    -4911    -4893    -4854    -4942    -5221    -5653    -6153 
   -6686    -7299    -7996    -8714    -9385    -9936   -10339   -10620 
  -10762   -10700   -10415    -9950    -9317    -8490    -7496    -6404 
   -5251    -4087    -2972    -1894     -808      233     1116     1807 
    2367     2814     3102     3195     3049     2605     1892     1038 
     112     -919    -2064    -3235    -4357    -5408    -6372    -7240 
   -7993    -8600    -9054    -9333    -9390    -9242    -8941    -8432 
   -7677    -6798    -5902    -4977    -4025    -3091    -2236    -1528 
    -958     -477     -129        5      -41     -197     -453     -787 
