Origin Time       2025/01/13 21:19:00
Lat.              31.8
Long.             131.6
Depth. (km)       30
Mag.              6.9
Station Code      KMM013
Station Lat.      32.3644
Station Long.     130.5089
Station Height(m) 6
Record Time       2025/01/13 21:20:00
Sampling Freq(Hz) 100Hz
Duration Time(s)  96
Dir.              E-W
Scale Factor      7845(gal)/8223790
Max. Acc. (gal)   7.114
Last Correction   2025/01/13 21:20:00
Memo.             
[...]
   -4766    -4808    -4903    -5024    -5173    -5328    -5440    -5495 
   -5532    -5580    -5624    -5633    -5603    -5549    -5497    -5468 
   -5462    -5482    -5539    -5629    -5742    -5861    -5961    -6000 
   -5956    -5873    -5810    -5779    -5746    -5649    -5444    -5158 
   -4874    -4654    -4509    -4441    -4440    -4488    -4584    -4729 
   -4915    -5131    -5366    -5594    -5806    -5996    -6156    -6257 
   -6272    -6193    -6048    -5876    -5722    -5614    -5547    -5501 
   -5476    -5475    -5485    -5499    -5524    -5552    -5617    -5757 
   -5957    -6146    -6268    -6311    -6297    -6245    -6166    -6080 
   -6011    -5964    -5927    -5894    -5859    -5819    -5772    -5726 
   -5694    -5663    -5597    -5490    -5363    -5235    -5143    -5135 
   -5216    -5362    -5548    -5732    -5873    -5964    -5989    -5941 
   -5848    -5761    -5711    -5711    -5753    -5778    -5718    -5572 
   -5401    -5275    -5219    -5197    -5169    -5119    -5055    -4982 
   -4888    -4776    -4673    -4599    -4573    -4608    -4679    -4734 
   -4760    -4773    -4808    -4899    -5035    -5169    -5273    -5370 
   -5472    -5571    -5661    -5752    -5825    -5857    -5848    -5802 
   -5715    -5609    -5505    -5413    -5350    -5354    -5440    -5572 
   -5688    -5748    -5733    -5667    -5611    -5589    -5591    -5638 
   -5728    -5800    -5840    -5869    -5891    -5906    -5922    -5915 
   -5873    -5826    -5791    -5752    -5698    -5625    -5535    -5432 
   -5344    -5301    -5287    -5275    -5262    -5242    -5227    -5246 
   -5283    -5308    -5337    -5401    -5505    -5659    -5863    -6077 
   -6250    -6362    -6427    -6438    -6400    -6355    -6326    -6328 
   -6380    -6453    -6492    -6469    -6355    -6138    -5871    -5637 
   -5463    -5352    -5337    -5416    -5528    -5626    -5710    -5786 
   -5837    -5841    -5795    -5710    -5622    -5564    -5530    -5497 
   -5451    -5391    -5336    -5317    -5336    -5341    -5304    -5240 
   -5169    -5113    -5104    -5134    -5167    -5211    -5283    -5363 
   -5420    -5459    -5486    -5505    -5548    -5638    -5759    -5894 
   -6039    -6169    -6235    -6239    -6220    -6197    -6176    -6168 
   -6173    -6181    -6166    -6089    -5942    -5756    -5572    -5393 
   -5202    -5023    -4882    -4796    -4779    -4814    -4858    -4923 
   -5046    -5209    -5358    -5471    -5557    -5620    -5655    -5655 
   -5620    -5568    -5506    -5429    -5352    -5339    -5432    -5602 
   -5784    -5927    -6002    -6025    -6045    -6070    -6068    -6027 
   -5957    -5856    -5737    -5629    -5555    -5486    -5413    -5386 
   -5449    -5590    -5773    -5935    -6011    -6003    -5953    -5863 
   -5726    -5572    -5428    -5294    -5178    -5094    -5032    -4978 
   -4936    -4916    -4920    -4973    -5074    -5197    -5344    -5529 
   -5738    -5942    -6116    -6239    -6289    -6274    -6211    -6102 
   -5960    -5818    -5688    -5575    -5483    -5393    -5286    -5185 
   -5098    -4992    -4846    -4696    -4581    -4511    -4495    -4545 
   -4644    -4765    -4896    -5008    -5092    -5170    -5270    -5389 
   -5521    -5670    -5819    -5960    -6100    -6212    -6259    -6249 
   -6215    -6187    -6188    -6224    -6272    -6303    -6327    -6353 
   -6346    -6305    -6277    -6274    -6270    -6251    -6222    -6181 
   -6134    -6062    -5958    -5846    -5760    -5690    -5617    -5559 
   -5522    -5489    -5454    -5425    -5402    -5364    -5293    -5185 
   -5028    -4824    -4614    -4440    -4337    -4330    -4407    -4538 
   -4719    -4930    -5112    -5215    -5227    -5152    -5030    -4945 
   -4943    -5007    -5117    -5258    -5373    -5437    -5491    -5571 
   -5655    -5719    -5765    -5782    -5756    -5686    -5570    -5418 
   -5255    -5109    -4981    -4877    -4811    -4781    -4818    -4947 
   -5121    -5270    -5362    -5366    -5274    -5131    -5019    -4988 
   -5043    -5170    -5332    -5495    -5664    -5833    -5977    -6096 
   -6204    -6319    -6454    -6605    -6756    -6887    -6978    -7032 
   -7037    -6993    -6901    -6739    -6511    -6257    -6025    -5841 
   -5680    -5513    -5336    -5146    -4962    -4831    -4760    -4752 
   -4838    -5013    -5227    -5440    -5632    -5783    -5868    -5864 
   -5783    -5668    -5566    -5476    -5370    -5233    -5069    -4895 
   -4765    -4734    -4823    -5015    -5239    -5435    -5609    -5788 
   -5987    -6176    -6273    -6216    -5994    -5665    -5343    -5094 
   -4941    -4889    -4924    -5011    -5115    -5217    -5298    -5325 
   -5289    -5228    -5184    -5173    -5194    -5250    -5331    -5422 
   -5522    -5629    -5752    -5895    -6034    -6142    -6214    -6241 
   -6222    -6184    -6156    -6147    -6147    -6141    -6106    -6031 
   -5917    -5765    -5576    -5360    -5150    -4976    -4846    -4752 
   -4707    -4715    -4743    -4760    -4745    -4692    -4627    -4584 
   -4584    -4656    -4822    -5062    -5343    -5643    -5930    -6164 
   -6307    -6347    -6276    -6111    -5913    -5741    -5632    -5610 
   -5671    -5790    -5954    -6160    -6366    -6521    -6606    -6605 
   -6504    -6324    -6087    -5814    -5539    -5296    -5123    -5042 
   -5043    -5104    -5197    -5308    -5427    -5503    -5497    -5436 
   -5370    -5332    -5351    -5435    -5566    -5710    -5825    -5888 
   -5908    -5894    -5836    -5748    -5684    -5678    -5714    -5778 
   -5854    -5917    -5948    -5961    -5965    -5944    -5884    -5821 
   -5794    -5792    -5799    -5813    -5840    -5877    -5918    -5962 
   -6008    -6037    -6022    -5948    -5837    -5746    -5706    -5733 
   -5859    -6060    -6264    -6411    -6469    -6438    -6361    -6276 
   -6174    -6038    -5872    -5684    -5481    -5290    -5148    -5065 
   -5043    -5078    -5138    -5178    -5173    -5101    -4953    -4739 
   -4504    -4290    -4132    -4060    -4068    -4135    -4257    -4422 
   -4608    -4814    -5038    -5275    -5506    -5699    -5845    -5965 
   -6072    -6153    -6192    -6183    -6111    -5965    -5748    -5489 
   -5228    -4995    -4810    -4700    -4704    -4835    -5073    -5378 
   -5698    -5973    -6168    -6250    -6214    -6110    -5992    -5879 
   -5790    -5745    -5733    -5729    -5734    -5755    -5767    -5761 
   -5772    -5845    -5992    -6185    -6393    -6583    -6743    -6851 
   -6870    -6772    -6588    -6355    -6119    -5937    -5819    -5729 
   -5638    -5556    -5479    -5404    -5352    -5344    -5364    -5381 
   -5358    -5282    -5170    -5049    -4931    -4837    -4808    -4878 
   -5054    -5302    -5552    -5728    -5799    -5798    -5765    -5715 
   -5665    -5645    -5649    -5663    -5691    -5717    -5717    -5697 
   -5684    -5698    -5725    -5745    -5729    -5655    -5532    -5391 
   -5250    -5140    -5103    -5136    -5201    -5267    -5327    -5398 
   -5497    -5629    -5783    -5945    -6106    -6216    -6242    -6219 
   -6172    -6091    -5988    -5875    -5764    -5701    -5697    -5699 
   -5657    -5567    -5459    -5385    -5400    -5517    -5679    -5821 
   -5906    -5887    -5746    -5540    -5336    -5151    -5016    -4990 
   -5053    -5134    -5190    -5182    -5074    -4901    -4730    -4623 
   -4621    -4716    -4869    -5008    -5069    -5022    -4862    -4658 
   -4534    -4544    -4673    -4897    -5161    -5377    -5503    -5548 
   -5516    -5418    -5305    -5208    -5128    -5086    -5119    -5213 
   -5333    -5452    -5543    -5601    -5680    -5815    -5981    -6158 
   -6327    -6461    -6548    -6598    -6621    -6616    -6573    -6492 
   -6396    -6338    -6347    -6388    -6419    -6423    -6382    -6299 
   -6192    -6095    -6031    -5972    -5913    -5879    -5861    -5850 
   -5861    -5865    -5842    -5825    -5840    -5880    -5949    -6056 
   -6212    -6400    -6555    -6623    -6589    -6484    -6358    -6234 
   -6091    -5921    -5718    -5495    -5282    -5117    -5022    -4951 
   -4874    -4801    -4722    -4641    -4591    -4581    -4627    -4750 
   -4916    -5059    -5132    -5111    -5015    -4927    -4919    -5003 
   -5150    -5321    -5475    -5557    -5537    -5467    -5428    -5486 
   -5675    -5953    -6222    -6436    -6592    -6674    -6674    -6593 
   -6446    -6293    -6174    -6073    -5945    -5765    -5551    -5332 
   -5162    -5100    -5142    -5224    -5297    -5343    -5364    -5414 
   -5533    -5687    -5825    -5933    -5992    -5969    -5869    -5730 
   -5553    -5319    -5030    -4703    -4359    -4066    -3901    -3881 
   -3986    -4194    -4465    -4749    -4999    -5165    -5228    -5243 
   -5259    -5274    -5283    -5305    -5343    -5382    -5413    -5420 
   -5379    -5320    -5321    -5418    -5584    -5782    -5962    -6072 
   -6096    -6070    -6021    -5953    -5875    -5795    -5719    -5664 
   -5645    -5657    -5688    -5740    -5809    -5872    -5900    -5845 
   -5688    -5478    -5262    -5046    -4866    -4792    -4828    -4942 
   -5138    -5408    -5688    -5930    -6110    -6200    -6183    -6096 
   -5994    -5898    -5826    -5826    -5913    -6057    -6234    -6419 
   -6578    -6709    -6818    -6885    -6879    -6824    -6725    -6554 
   -6295    -5977    -5632    -5297    -5044    -4922    -4903    -4972 
   -5138    -5374    -5609    -5779    -5822    -5721    -5509    -5247 
   -5016    -4918    -4977    -5125    -5293    -5462    -5628    -5767 
   -5867    -5919    -5922    -5895    -5891    -5946    -6061    -6201 
   -6349    -6485    -6583    -6625    -6604    -6555    -6536    -6593 
   -6729    -6910    -7063    -7117    -7049    -6867    -6585    -6249 
   -5929    -5653    -5416    -5232    -5111    -4995    -4820    -4580 
   -4294    -3997    -3732    -3543    -3469    -3527    -3692    -3909 
   -4113    -4278    -4407    -4492    -4529    -4542    -4522    -4442 
   -4353    -4314    -4298    -4259    -4183    -4056    -3877    -3713 
   -3647    -3697    -3867    -4171    -4552    -4939    -5333    -5730 
   -6085    -6407    -6712    -6979    -7218    -7443    -7618    -7708 
   -7686    -7534    -7296    -7026    -6747    -6448    -6104    -5757 
   -5514    -5386    -5308    -5258    -5224    -5148    -5039    -4974 
   -4993    -5054    -5112    -5175    -5252    -5312    -5337    -5321 
   -5258    -5194    -5189    -5254    -5382    -5566    -5792    -6043 
   -6284    -6467    -6574    -6623    -6625    -6562    -6417    -6201 
   -5964    -5792    -5752    -5863    -6089    -6355    -6609    -6814 
   -6928    -6991    -7063    -7125    -7172    -7200    -7192    -7152 
   -7032    -6764    -6397    -6010    -5624    -5265    -4935    -4596 
   -4266    -3990    -3727    -3431    -3171    -2964    -2775    -2619 
   -2486    -2340    -2158    -1900    -1602    -1341    -1131     -977 
    -922    -1026    -1320    -1760    -2251    -2717    -3125    -3462 
   -3705    -3873    -4050    -4288    -4568    -4855    -5134    -5381 
   -5597    -5842    -6170    -6569    -7007    -7422    -7695    -7746 
   -7578    -7225    -6745    -6251    -5856    -5621    -5521    -5476 
   -5408    -5310    -5271    -5324    -5390    -5449    -5530    -5640 
   -5767    -5845    -5829    -5787    -5786    -5834    -5958    -6212 
   -6582    -6939    -7171    -7268    -7279    -7295    -7381    -7511 
   -7646    -7765    -7813    -7755    -7649    -7570    -7546    -7595 
   -7734    -7942    -8193    -8441    -8613    -8650    -8568    -8411 
   -8225    -8041    -7850    -7612    -7327    -7026    -6760    -6615 
   -6664    -6866    -7079    -7176    -7074    -6713    -6100    -5324 
   -4517    -3812    -3308    -3026    -2902    -2853    -2839    -2824 
   -2797    -2797    -2878    -3041    -3261    -3515    -3738    -3866 
   -3925    -4000    -4155    -4417    -4772    -5170    -5580    -6016 
   -6473    -6895    -7246    -7495    -7603    -7577    -7454    -7248 
   -6999    -6824    -6813    -6912    -7001    -7024    -6964    -6799 
   -6520    -6139    -5705    -5306    -5022    -4861    -4795    -4779 
   -4773    -4760    -4749    -4731    -4677    -4577    -4467    -4429 
   -4531    -4770    -5116    -5526    -5934    -6250    -6443    -6525 
   -6528    -6498    -6507    -6601    -6806    -7121    -7495    -7839 
   -8048    -8075    -7958    -7753    -7477    -7133    -6744    -6346 
   -5956    -5597    -5296    -5044    -4788    -4499    -4193    -3929 
   -3781    -3761    -3823    -3919    -4035    -4137    -4167    -4097 
   -3966    -3859    -3854    -3993    -4247    -4511    -4698    -4785 
   -4803    -4792    -4761    -4702    -4611    -4468    -4267    -4064 
   -3929    -3865    -3844    -3873    -3978    -4153    -4380    -4665 
   -5020    -5431    -5879    -6353    -6806    -7175    -7406    -7469 
   -7379    -7209    -7033    -6867    -6717    -6604    -6517    -6412 
   -6255    -6042    -5787    -5541    -5358    -5224    -5123    -5116 
   -5256    -5452    -5589    -5676    -5759    -5838    -5923    -5998 
   -6031    -6043    -6038    -5992    -5944    -5934    -5925    -5859 
   -5755    -5661    -5555    -5398    -5224    -5059    -4897    -4735 
   -4567    -4379    -4170    -3963    -3817    -3739    -3672    -3592 
   -3515    -3450    -3411    -3403    -3420    -3470    -3561    -3719 
   -3963    -4253    -4567    -4926    -5297    -5603    -5796    -5861 
   -5846    -5853    -5952    -6162    -6508    -7018    -7680    -8402 
   -9139    -9915   -10714   -11480   -12163   -12700   -13000   -13019 
  -12803   -12406   -11857   -11221   -10573    -9926    -9281    -8653 
   -8060    -7520    -7040    -6620    -6266    -5977    -5740    -5549 
   -5421    -5328    -5197    -4985    -4718    -4436    -4152    -3873 
   -3607    -3358    -3152    -3026    -2986    -3006    -3063    -3148 
   -3246    -3316    -3337    -3292    -3176    -3033    -2898    -2774 
   -2677    -2621    -2587    -2566    -2563    -2567    -2558    -2570 
   -2646    -2737    -2783    -2808    -2870    -3021    -3276    -3603 
   -3969    -4396    -4876    -5335    -5718    -6019    -6250    -6428 
   -6577    -6739    -6979    -7317    -7717    -8135    -8492    -8710 
   -8768    -8679    -8471    -8195    -7854    -7433    -6963    -6438 
   -5814    -5077    -4248    -3404    -2644    -2018    -1549    -1250 
   -1097    -1019     -936     -846     -787     -785     -924    -1294 
   -1894    -2675    -3569    -4445    -5202    -5856    -6435    -6898 
   -7210    -7387    -7470    -7511    -7539    -7584    -7705    -7936 
   -8209    -8421    -8548    -8638    -8765    -8964    -9178    -9374 
   -9566    -9720    -9823    -9871    -9814    -9647    -9383    -9003 
   -8505    -7906    -7226    -6470    -5661    -4896    -4298    -3923 
   -3738    -3689    -3771    -3970    -4220    -4486    -4737    -4915 
   -5004    -5032    -5032    -5049    -5107    -5200    -5320    -5433 
   -5479    -5432    -5287    -5046    -4760    -4515    -4320    -4159 
   -4059    -4028    -4072    -4224    -4464    -4695    -4820    -4830 
   -4765    -4618    -4402    -4212    -4097    -4048    -4082    -4189 
   -4333    -4557    -4882    -5229    -5474    -5528    -5395    -5188 
   -4992    -4789    -4531    -4189    -3775    -3325    -2847    -2392 
   -2076    -1944    -1972    -2155    -2471    -2864    -3302    -3786 
   -4320    -4932    -5671    -6493    -7294    -8021    -8637    -9142 
   -9606   -10045   -10434   -10794   -11134   -11425   -11641   -11753 
  -11742   -11597   -11358   -11084   -10793   -10463   -10089    -9644 
   -9082    -8409    -7719    -7092    -6489    -5856    -5244    -4746 
   -4361    -4036    -3767    -3603    -3578    -3667    -3815    -4009 
   -4226    -4398    -4480    -4468    -4376    -4240    -4090    -3973 
   -3913    -3858    -3797    -3846    -4020    -4224    -4434    -4652 
   -4837    -4966    -5054    -5098    -5089    -5059    -5026    -4963 
   -4873    -4785    -4716    -4672    -4634    -4577    -4523    -4472 
   -4365    -4166    -3885    -3545    -3172    -2801    -2455    -2189 
   -2066    -2114    -2361    -2820    -3454    -4213    -5053    -5907 
   -6702    -7383    -7906    -8240    -8368    -8325    -8140    -7830 
   -7466    -7088    -6623    -6114    -5740    -5545    -5458    -5452 
   -5559    -5775    -6035    -6276    -6481    -6670    -6816    -6852 
   -6737    -6475    -6119    -5737    -5391    -5148    -5057    -5107 
   -5287    -5579    -5913    -6250    -6570    -6814    -6947    -6997 
   -6972    -6859    -6656    -6367    -6015    -5645    -5265    -4909 
   -4660    -4552    -4571    -4666    -4776    -4885    -5001    -5109 
   -5232    -5412    -5679    -6057    -6501    -6914    -7237    -7445 
   -7554    -7582    -7523    -7388    -7195    -6957    -6693    -6423 
   -6180    -5985    -5837    -5742    -5692    -5647    -5563    -5408 
   -5220    -5055    -4901    -4754    -4627    -4507    -4395    -4306 
   -4267    -4330    -4519    -4831    -5250    -5729    -6210    -6600 
   -6781    -6744    -6542    -6212    -5806    -5370    -4973    -4707 
   -4585    -4583    -4707    -4941    -5238    -5591    -5975    -6355 
   -6733    -7074    -7327    -7491    -7558    -7543    -7469    -7315 
   -7045    -6667    -6201    -5670    -5125    -4654    -4341    -4221 
   -4290    -4521    -4849    -5232    -5625    -5919    -6034    -5984 
   -5842    -5707    -5637    -5628    -5638    -5645    -5691    -5784 
   -5842    -5842    -5811    -5692    -5459    -5165    -4830    -4467 
   -4099    -3755    -3487    -3334    -3295    -3323    -3364    -3411 
   -3476    -3554    -3703    -3966    -4328    -4784    -5314    -5863 
   -6373    -6805    -7128    -7317    -7360    -7299    -7183    -7001 
   -6729    -6399    -6077    -5796    -5543    -5297    -5100    -4993 
   -4954    -4958    -4993    -5016    -4996    -4924    -4792    -4596 
   -4360    -4133    -3981    -3928    -3963    -4047    -4124    -4172 
   -4241    -4383    -4641    -5036    -5517    -5996    -6409    -6708 
   -6883    -6970    -7009    -7021    -7036    -7103    -7226    -7346 
   -7457    -7642    -7947    -8294    -8583    -8758    -8784    -8648 
   -8372    -8013    -7655    -7345    -7084    -6876    -6704    -6512 
   -6253    -5950    -5649    -5323    -4963    -4621    -4293    -3974 
   -3704    -3496    -3343    -3227    -3130    -3061    -3038    -3067 
   -3156    -3300    -3458    -3573    -3635    -3662    -3673    -3681 
   -3676    -3642    -3611    -3596    -3601    -3655    -3748    -3859 
   -3990    -4151    -4391    -4731    -5127    -5510    -5838    -6129 
   -6447    -6794    -7146    -7501    -7825    -8078    -8239    -8286 
   -8235    -8118    -7951    -7731    -7431    -7026    -6543    -6046 
   -5594    -5212    -4919    -4729    -4634    -4611    -4623    -4639 
   -4652    -4679    -4723    -4783    -4854    -4927    -5005    -5101 
   -5219    -5373    -5567    -5765    -5935    -6062    -6126    -6122 
   -6060    -5937    -5779    -5647    -5548    -5512    -5616    -5837 
   -6075    -6313    -6563    -6774    -6922    -7014    -7026    -6939 
   -6751    -6492    -6178    -5803    -5409    -5027    -4648    -4294 
   -3981    -3688    -3392    -3106    -2841    -2606    -2424    -2312 
   -2261    -2296    -2457    -2754    -3177    -3685    -4229    -4812 
