Origin Time       2025/01/13 21:19:00
Lat.              31.8
Long.             131.6
Depth. (km)       30
Mag.              6.9
Station Code      KMM020
Station Lat.      32.3636
Station Long.     130.1807
Station Height(m) 10
Record Time       2025/01/13 21:20:12
Sampling Freq(Hz) 100Hz
Duration Time(s)  81
Dir.              U-D
Scale Factor      7845(gal)/8223790
Max. Acc. (gal)   2.100
Last Correction   2025/01/13 21:20:13
Memo.             
[...]
    4873     4892     4942     5027     5143     5262     5354     5416 
    5440     5416     5379     5358     5340     5331     5364     5445 
    5535     5603     5651     5661     5655     5651     5621     5562 
    5489     5391     5308     5271     5248     5229     5235     5269 
    5323     5394     5456     5472     5439     5360     5256     5157 
    5070     5015     4976     4911     4839     4784     4722     4679 
    4654     4619     4595     4581     4569     4575     4599     4645 
    4688     4696     4687     4679     4677     4691     4707     4726 
    4773     4855     4970     5090     5170     5228     5309     5386 
    5444     5509     5566     5586     5564     5508     5437     5390 
    5362     5336     5321     5301     5278     5275     5279     5287 
    5328     5408     5512     5636     5760     5852     5888     5876 
    5832     5772     5703     5634     5584     5560     5555     5537 
    5466     5352     5232     5116     4988     4851     4719     4619 
    4569     4548     4550     4580     4623     4671     4720     4774 
    4850     4931     4992     5049     5115     5190     5262     5306 
    5317     5297     5250     5221     5260     5337     5406     5470 
    5520     5556     5605     5638     5652     5692     5748     5775 
    5800     5846     5887     5900     5881     5814     5691     5553 
    5421     5282     5170     5112     5059     4989     4915     4812 
    4698     4614     4541     4486     4465     4464     4488     4534 
    4572     4607     4644     4698     4781     4860     4889     4884 
    4857     4810     4765     4742     4741     4784     4851     4899 
    4932     4969     5027     5125     5233     5335     5448     5544 
    5578     5555     5483     5387     5297     5229     5190     5165 
    5146     5166     5211     5232     5269     5329     5371     5428 
    5508     5544     5547     5537     5489     5414     5341     5262 
    5181     5100     5009     4930     4869     4808     4747     4695 
    4641     4600     4591     4607     4638     4698     4788     4908 
    5038     5144     5224     5286     5333     5382     5416     5413 
    5389     5354     5316     5286     5255     5223     5193     5171 
    5170     5192     5258     5390     5512     5582     5638     5680 
    5707     5745     5795     5840     5844     5799     5740     5683 
    5645     5629     5610     5568     5501     5435     5404     5417 
    5482     5557     5625     5721     5815     5871     5907     5919 
    5884     5814     5726     5630     5533     5463     5421     5367 
    5290     5162     4966     4784     4668     4588     4538     4537 
    4567     4600     4654     4720     4769     4803     4822     4834 
    4877     4934     4976     5000     4970     4888     4806     4745 
    4696     4666     4649     4614     4554     4475     4375     4306 
    4326     4419     4546     4685     4842     5027     5208     5359 
    5467     5516     5539     5564     5572     5566     5562     5570 
    5567     5539     5508     5460     5366     5248     5105     4935 
    4788     4658     4519     4391     4282     4186     4158     4210 
    4302     4436     4622     4815     4980     5130     5297     5464 
    5570     5633     5684     5709     5709     5709     5733     5753 
    5728     5683     5645     5617     5594     5530     5413     5285 
    5193     5152     5154     5170     5189     5217     5252     5297 
    5346     5404     5498     5613     5699     5768     5817     5814 
    5775     5722     5660     5593     5509     5420     5359     5328 
    5350     5436     5510     5537     5537     5502     5451     5409 
    5381     5350     5289     5220     5185     5171     5138     5077 
    5000     4892     4733     4534     4336     4193     4114     4070 
    4018     3929     3823     3754     3766     3889     4094     4306 
    4531     4806     5074     5337     5617     5846     6018     6137 
    6160     6100     5992     5863     5756     5649     5540     5489 
    5476     5478     5510     5544     5551     5536     5476     5366 
    5244     5119     4980     4843     4719     4611     4531     4483 
    4455     4410     4341     4301     4324     4401     4521     4675 
    4831     4919     4907     4866     4834     4816     4837     4872 
    4941     5086     5247     5350     5393     5401     5401     5420 
    5462     5506     5563     5649     5751     5850     5956     6041 
    6092     6108     6080     6042     6030     6023     6000     5930 
    5806     5672     5559     5463     5364     5232     5074     4939 
    4865     4811     4766     4761     4769     4747     4702     4661 
    4679     4762     4878     4986     5057     5086     5078     5039 
    4992     4949     4922     4941     5024     5150     5282     5367 
    5354     5255     5121     5005     4934     4889     4853     4795 
    4706     4646     4619     4556     4469     4407     4379     4364 
    4353     4347     4345     4384     4482     4615     4803     5044 
    5270     5435     5529     5544     5503     5462     5436     5404 
    5363     5358     5401     5475     5560     5628     5674     5729 
    5794     5830     5811     5768     5780     5846     5890     5915 
    5944     5938     5884     5823     5791     5783     5803     5875 
    5954     5983     5956     5860     5738     5664     5644     5660 
    5679     5665     5634     5603     5576     5595     5656     5707 
    5732     5744     5751     5756     5749     5732     5738     5773 
    5773     5717     5656     5595     5512     5394     5238     5062 
    4909     4804     4758     4750     4750     4725     4649     4554 
    4496     4482     4480     4482     4465     4422     4402     4432 
    4498     4572     4611     4629     4671     4727     4800     4881 
    4942     4999     5046     5057     5030     4984     4950     4959 
    4985     4958     4864     4780     4761     4804     4899     5020 
    5142     5265     5377     5449     5474     5483     5512     5556 
    5614     5657     5653     5617     5563     5512     5472     5414 
    5314     5194     5096     5049     5032     5024     5024     5039 
    5096     5216     5370     5503     5597     5638     5607     5541 
    5482     5386     5225     5028     4801     4567     4357     4202 
    4121     4106     4129     4135     4081     4018     3966     3877 
    3794     3763     3748     3777     3879     3985     4074     4195 
    4384     4671     5003     5304     5552     5706     5773     5811 
    5830     5832     5829     5818     5776     5678     5549     5428 
    5317     5238     5204     5193     5194     5221     5266     5294 
    5290     5255     5216     5174     5112     5050     5003     4949 
    4873     4801     4779     4765     4699     4618     4584     4588 
    4581     4568     4608     4699     4776     4819     4800     4722 
    4658     4627     4577     4519     4467     4403     4347     4310 
    4326     4434     4627     4864     5111     5359     5584     5759 
    5861     5877     5856     5842     5840     5821     5737     5589 
    5417     5236     5053     4869     4704     4618     4622     4706 
    4880     5096     5312     5530     5710     5845     5958     5991 
    5944     5902     5894     5918     5958     5979     5987     5979 
    5927     5846     5733     5602     5493     5395     5306     5246 
    5202     5184     5192     5224     5287     5367     5443     5470 
    5433     5389     5351     5297     5266     5250     5212     5189 
    5181     5138     5050     4916     4753     4607     4507     4450 
    4395     4318     4268     4267     4303     4363     4445     4587 
    4787     4996     5198     5394     5584     5755     5879     5965 
    6034     6054     5980     5814     5610     5420     5270     5188 
    5181     5220     5281     5327     5319     5260     5179     5112 
    5070     5027     5024     5117     5248     5359     5408     5386 
    5370     5390     5418     5483     5621     5821     6049     6242 
    6370     6457     6496     6490     6469     6394     6265     6153 
    6046     5906     5768     5672     5609     5549     5476     5389 
    5297     5251     5278     5325     5352     5346     5310     5250 
    5148     5005     4834     4660     4529     4415     4284     4179 
    4097     3971     3816     3681     3619     3657     3750     3852 
    3962     4081     4213     4353     4480     4604     4720     4761 
    4714     4662     4672     4723     4788     4864     4936     4986 
    5007     5001     4985     4985     4969     4868     4698     4533 
    4415     4390     4453     4523     4540     4549     4614     4704 
    4777     4862     4966     5070     5194     5305     5355     5373 
    5360     5298     5212     5096     4938     4769     4608     4482 
    4409     4378     4386     4418     4471     4557     4675     4814 
    4912     4903     4808     4702     4633     4606     4607     4623 
    4652     4683     4706     4722     4749     4774     4757     4693 
    4622     4552     4496     4471     4487     4549     4607     4603 
    4538     4482     4449     4423     4418     4448     4521     4649 
    4830     5035     5238     5410     5526     5578     5597     5606 
    5582     5535     5535     5618     5749     5852     5903     5948 
    6000     6043     6052     6000     5917     5846     5768     5626 
    5448     5290     5140     4999     4889     4773     4630     4504 
    4407     4342     4333     4338     4314     4298     4342     4445 
    4575     4706     4835     4950     5053     5146     5201     5217 
    5251     5327     5437     5572     5713     5852     5984     6088 
    6135     6103     6021     5968     5937     5871     5792     5734 
    5705     5729     5763     5755     5756     5792     5830     5868 
    5906     5945     6007     6064     6116     6208     6343     6509 
    6642     6667     6624     6562     6486     6394     6281     6173 
    6103     6043     5989     5977     6018     6081     6147     6201 
    6214     6203     6193     6177     6160     6133     6093     6065 
    6056     6077     6133     6177     6168     6112     6041     5981 
    5930     5869     5810     5759     5682     5533     5346     5193 
    5088     5022     4993     4959     4915     4922     5003     5138 
    5313     5517     5713     5880     6033     6164     6264     6346 
    6396     6416     6408     6338     6212     6064     5922     5811 
    5683     5493     5285     5089     4899     4743     4635     4561 
    4529     4519     4486     4426     4365     4280     4126     3950 
    3825     3743     3697     3692     3678     3619     3531     3454 
    3422     3437     3472     3518     3573     3635     3685     3715 
    3754     3821     3908     3979     4016     4048     4093     4128 
    4160     4187     4222     4311     4432     4536     4638     4733 
    4795     4833     4847     4835     4823     4819     4814     4811 
    4811     4835     4897     4946     4966     4989     4992     4970 
    4947     4947     4976     5016     5092     5192     5248     5290 
    5360     5420     5478     5552     5624     5694     5773     5818 
    5784     5703     5620     5555     5529     5551     5587     5626 
    5668     5670     5614     5536     5456     5424     5440     5460 
    5487     5526     5555     5566     5568     5555     5495     5400 
    5302     5204     5084     4963     4888     4841     4800     4780 
    4779     4756     4684     4553     4364     4156     3986     3855 
    3771     3757     3797     3866     3935     3986     4027     4060 
    4078     4072     4071     4110     4153     4163     4168     4172 
    4148     4101     4055     4062     4159     4310     4461     4626 
    4820     5012     5188     5356     5499     5626     5756     5873 
    5961     6025     6057     6038     5983     5915     5837     5768 
    5714     5651     5584     5537     5514     5487     5439     5406 
    5435     5506     5574     5618     5636     5624     5564     5459 
    5333     5186     5031     4907     4827     4776     4766     4822 
    4926     5035     5127     5219     5328     5460     5609     5753 
    5891     6003     6069     6124     6185     6235     6277     6303 
    6289     6245     6195     6104     5958     5832     5733     5614 
    5460     5246     4990     4772     4610     4507     4473     4488 
    4527     4583     4639     4696     4765     4850     4972     5103 
    5208     5308     5398     5479     5568     5638     5676     5711 
    5729     5721     5736     5794     5883     6004     6118     6185 
    6218     6222     6215     6222     6216     6188     6126     5995 
    5799     5580     5379     5217     5097     5008     4923     4835 
    4757     4666     4556     4438     4317     4207     4145     4148 
    4202     4264     4311     4360     4423     4514     4606     4683 
    4762     4822     4835     4834     4820     4810     4834     4870 
    4882     4872     4858     4855     4842     4807     4742     4645 
    4546     4484     4460     4456     4475     4534     4618     4696 
    4753     4804     4888     4980     5031     5038     5036     5063 
    5124     5200     5252     5269     5293     5337     5382     5460 
    5580     5692     5787     5892     6018     6172     6335     6500 
    6667     6817     6949     7080     7203     7304     7360     7366 
    7331     7271     7221     7141     6993     6821     6624     6381 
    6166     6038     5937     5834     5757     5655     5516     5405 
    5329     5270     5217     5152     5057     4924     4806     4750 
    4734     4730     4746     4783     4810     4834     4876     4928 
    4985     5031     5036     5009     4970     4938     4943     4947 
    4892     4806     4733     4688     4668     4665     4699     4760 
    4806     4849     4903     4957     5030     5111     5167     5205 
    5240     5277     5317     5362     5417     5478     5524     5563 
    5610     5643     5667     5699     5717     5710     5695     5674 
    5634     5557     5429     5255     5057     4843     4607     4367 
    4152     3943     3761     3653     3597     3569     3566     3570 
    3584     3601     3616     3646     3676     3681     3657     3630 
    3635     3690     3775     3878     3989     4099     4195     4251 
    4290     4348     4445     4585     4716     4827     4969     5113 
    5236     5360     5454     5524     5595     5653     5705     5742 
    5753     5749     5714     5660     5649     5679     5711     5767 
    5846     5915     5976     6033     6054     6068     6126     6216 
    6308     6396     6443     6444     6430     6419     6431     6443 
    6408     6340     6241     6108     6004     5910     5775     5614 
    5416     5193     4981     4776     4568     4368     4199     4055 
    3910     3817     3797     3782     3777     3819     3871     3921 
    4009     4101     4160     4218     4282     4341     4407     4482 
    4584     4695     4735     4745     4760     4743     4718     4691 
    4637     4567     4509     4496     4526     4587     4687     4785 
    4872     4985     5113     5225     5309     5343     5323     5269 
    5197     5127     5061     5011     4969     4923     4899     4912 
    4965     5062     5189     5314     5432     5553     5695     5840 
    5944     5999     6045     6108     6170     6193     6199     6235 
    6285     6346     6423     6438     6386     6340     6258     6130 
    6041     5989     5941     5898     5863     5803     5697     5591 
    5508     5412     5350     5337     5310     5266     5211     5131 
    5027     4932     4876     4816     4750     4737     4752     4758 
    4764     4733     4645     4531     4411     4315     4261     4216 
    4175     4162     4163     4190     4247     4298     4347     4411 
    4487     4558     4618     4657     4671     4683     4725     4791 
    4878     4970     5019     5042     5070     5081     5065     5024 
    4985     4978     4966     4918     4870     4841     4830     4873 
    4941     5011     5130     5283     5435     5602     5765     5927 
    6100     6238     6357     6458     6502     6497     6451     6362 
    6284     6235     6184     6127     6075     6021     5967     5913 
    5836     5710     5575     5445     5282     5127     5011     4900 
    4819     4780     4730     4660     4587     4554     4571     4602 
    4648     4714     4770     4807     4845     4892     4934     4946 
    4926     4899     4860     4792     4722     4626     4479     4336 
    4194     3990     3786     3642     3511     3418     3377     3337 
    3325     3376     3441     3511     3615     3728     3828     3928 
    4041     4171     4297     4401     4486     4573     4677     4772 
    4858     4957     5050     5150     5265     5368     5474     5606 
    5740     5868     6000     6131     6272     6419     6554     6675 
    6762     6801     6820     6816     6785     6741     6677     6600 
    6529     6459     6386     6342     6323     6312     6322     6334 
    6332     6330     6308     6291     6313     6335     6343     6332 
    6292     6288     6316     6313     6318     6312     6262     6214 
    6156     6075     6016     5971     5914     5856     5782     5703 
    5657     5610     5548     5505     5458     5409     5395     5402 
    5398     5374     5355     5333     5298     5263     5216     5146 
    5074     4990     4909     4837     4746     4683     4671     4657 
    4645     4638     4594     4517     4429     4334     4247     4176 
    4105     4031     3943     3847     3775     3730     3709     3730 
    3777     3842     3913     3973     4052     4179     4315     4421 
    4506     4585     4639     4683     4729     4779     4878     5007 
    5127     5263     5397     5524     5649     5733     5783     5834 
    5869     5884     5925     5976     6000     6007     5994     5956 
    5913     5853     5775     5701     5641     5591     5543     5486 
    5421     5356     5304     5233     5138     5077     5062     5058 
    5069     5088     5090     5089     5071     5038     5003     4966 
    4922     4873     4831     4804     4787     4801     4860     4928 
    4984     5028     5081     5125     5139     5136     5116     5071 
    5046     5053     5047     5020     4992     4963     4953     4963 
    4965     4963     4981     5008     5039     5069     5104     5158 
    5209     5235     5269     5340     5427     5512     5606     5697 
    5764     5822     5876     5919     5948     5949     5925     5880 
    5825     5771     5713     5657     5618     5582     5536     5483 
    5443     5421     5401     5383     5368     5335     5286     5224 
    5135     5028     4930     4814     4664     4527     4419     4341 
    4298     4256     4222     4225     4247     4272     4293     4301 
    4303     4295     4268     4237     4209     4158     4081     4032 
    4020     4000     3994     4016     4047     4110     4193     4261 
    4328     4355     4330     4306     4305     4324     4369     4434 
    4507     4595     4695     4783     4854     4939     5043     5138 
