Origin Time       2025/01/13 21:19:00
Lat.              31.8
Long.             131.6
Depth. (km)       30
Mag.              6.9
Station Code      KMM012
Station Lat.      32.5099
Station Long.     130.5908
Station Height(m) 2
Record Time       2025/01/13 21:19:54
Sampling Freq(Hz) 100Hz
Duration Time(s)  151
Dir.              U-D
Scale Factor      7845(gal)/8223790
Max. Acc. (gal)   7.613
Last Correction   2025/01/13 21:19:54
Memo.             
[...]
  -36436   -36661   -36761   -36684   -36450   -36246   -36155   -36043 
  -35784   -35468   -35297   -35297   -35316   -35266   -35212   -35228 
  -35271   -35220   -35024   -34780   -34599   -34453   -34258   -34075 
  -34040   -34126   -34132   -33983   -33863   -33924   -34160   -34476 
  -34705   -34703   -34520   -34357   -34337   -34402   -34404   -34268 
  -34076   -33917   -33762   -33547   -33276   -33093   -33131   -33292 
  -33428   -33559   -33710   -33795   -33763   -33660   -33605   -33648 
  -33666   -33582   -33512   -33480   -33365   -33196   -33158   -33278 
  -33388   -33405   -33471   -33735   -34107   -34399   -34616   -34896 
  -35243   -35533   -35650   -35529   -35213   -34821   -34506   -34402 
  -34515   -34685   -34747   -34684   -34580   -34483   -34415   -34399 
  -34442   -34492   -34454   -34330   -34236   -34237   -34291   -34323 
  -34306   -34250   -34184   -34090   -33930   -33790   -33779   -33909 
  -34133   -34331   -34358   -34190   -33901   -33574   -33308   -33162 
  -33126   -33139   -33072   -32811   -32431   -32120   -31989   -32071 
  -32337   -32682   -32992   -33192   -33243   -33183   -33077   -32987 
  -32961   -33026   -33230   -33601   -34060   -34526   -35005   -35488 
  -35870   -36066   -36109   -36107   -36132   -36207   -36328   -36475 
  -36543   -36393   -36018   -35577   -35212   -34959   -34819   -34801 
  -34901   -35059   -35197   -35322   -35488   -35631   -35649   -35564 
  -35480   -35410   -35251   -34992   -34784   -34688   -34596   -34476 
  -34414   -34430   -34470   -34538   -34662   -34862   -35129   -35375 
  -35469   -35390   -35186   -34854   -34384   -33833   -33288   -32775 
  -32286   -31869   -31549   -31268   -30990   -30754   -30601   -30555 
  -30597   -30686   -30834   -31050   -31298   -31590   -31950   -32366 
  -32856   -33401   -33901   -34319   -34709   -35091   -35472   -35856 
  -36200   -36495   -36771   -37006   -37160   -37261   -37370   -37509 
  -37623   -37635   -37559   -37498   -37520   -37600   -37646   -37581 
  -37489   -37512   -37606   -37625   -37577   -37557   -37562   -37558 
  -37507   -37314   -36926   -36420   -35873   -35333   -34884   -34550 
  -34240   -33909   -33648   -33512   -33415   -33278   -33120   -32968 
  -32867   -32881   -32984   -33122   -33340   -33655   -33978   -34272 
  -34550   -34798   -34971   -35037   -35021   -34981   -34982   -35058 
  -35193   -35380   -35613   -35788   -35822   -35764   -35708   -35646 
  -35509   -35317   -35135   -34975   -34825   -34692   -34641   -34762 
  -35014   -35251   -35413   -35476   -35379   -35095   -34688   -34288 
  -34013   -33870   -33755   -33563   -33226   -32790   -32379   -32034 
  -31746   -31537   -31407   -31349   -31357   -31403   -31456   -31444 
  -31314   -31135   -30989   -30875   -30831   -30929   -31136   -31353 
  -31471   -31360   -30983   -30491   -30086   -29859   -29808   -29964 
  -30384   -31017   -31692   -32252   -32652   -32957   -33237   -33485 
  -33669   -33775   -33848   -34001   -34339   -34803   -35214   -35514 
  -35768   -36042   -36340   -36566   -36676   -36790   -37004   -37235 
  -37361   -37355   -37261   -37122   -36999   -36944   -36927   -36898 
  -36842   -36749   -36582   -36315   -36005   -35757   -35561   -35361 
  -35147   -34948   -34827   -34777   -34700   -34500   -34176   -33816 
  -33536   -33353   -33176   -32972   -32827   -32814   -32907   -33042 
  -33147   -33214   -33295   -33430   -33627   -33874   -34132   -34348 
  -34492   -34546   -34533   -34526   -34618   -34820   -35020   -35114 
  -35139   -35168   -35217   -35282   -35344   -35368   -35356   -35330 
  -35301   -35266   -35189   -35029   -34858   -34797   -34881   -35043 
  -35162   -35195   -35206   -35206   -35098   -34877   -34677   -34547 
  -34393   -34148   -33851   -33589   -33362   -33127   -32973   -33023 
  -33222   -33426   -33570   -33655   -33674   -33606   -33434   -33149 
  -32767   -32317   -31846   -31436   -31167   -31052   -31079   -31225 
  -31433   -31645   -31838   -31974   -32023   -32077   -32239   -32466 
  -32664   -32783   -32833   -32879   -32935   -32961   -32962   -33010 
  -33149   -33327   -33467   -33579   -33712   -33875   -34029   -34118 
  -34145   -34190   -34334   -34568   -34809   -35010   -35210   -35478 
  -35846   -36288   -36752   -37183   -37508   -37708   -37801   -37808 
  -37724   -37559   -37388   -37235   -37045   -36823   -36630   -36464 
  -36279   -36051   -35789   -35499   -35193   -34865   -34493   -34118 
  -33820   -33642   -33542   -33454   -33370   -33300   -33211   -33062 
  -32872   -32740   -32741   -32827   -32935   -33058   -33183   -33277 
  -33311   -33276   -33216   -33201   -33289   -33462   -33615   -33709 
  -33791   -33890   -33979   -34018   -33980   -33921   -33967   -34167 
  -34425   -34612   -34682   -34688   -34692   -34651   -34514   -34357 
  -34273   -34287   -34356   -34372   -34277   -34129   -33976   -33835 
  -33709   -33556   -33336   -33062   -32765   -32478   -32221   -32024 
  -31949   -32022   -32186   -32379   -32622   -32988   -33473   -33970 
  -34419   -34815   -35100   -35228   -35240   -35206   -35191   -35185 
  -35118   -35047   -35077   -35178   -35283   -35398   -35536   -35664 
  -35735   -35769   -35845   -35989   -36146   -36274   -36418   -36597 
  -36714   -36672   -36504   -36293   -36070   -35857   -35725   -35769 
  -35985   -36220   -36335   -36327   -36266   -36165   -35995   -35758 
  -35452   -35082   -34774   -34632   -34595   -34555   -34476   -34402 
  -34430   -34555   -34699   -34897   -35205   -35565   -35896   -36120 
  -36177   -36073   -35865   -35642   -35484   -35405   -35365   -35334 
  -35311   -35341   -35441   -35544   -35622   -35749   -35931   -36062 
  -36085   -36069   -36050   -35953   -35750   -35464   -35109   -34723 
  -34318   -33899   -33501   -33154   -32895   -32742   -32687   -32661 
  -32601   -32530   -32467   -32362   -32248   -32185   -32152   -32146 
  -32209   -32316   -32390   -32409   -32391   -32412   -32514   -32636 
  -32726   -32796   -32856   -32895   -32910   -32907   -32938   -33048 
  -33180   -33231   -33173   -33126   -33170   -33246   -33309   -33384 
  -33453   -33484   -33477   -33450   -33459   -33567   -33778   -34038 
  -34298   -34534   -34713   -34793   -34803   -34823   -34836   -34742 
  -34554   -34408   -34369   -34407   -34493   -34595   -34693   -34824 
  -35039   -35333   -35630   -35892   -36108   -36254   -36347   -36394 
  -36355   -36224   -36067   -35930   -35762   -35525   -35268   -35054 
  -34890   -34808   -34820   -34844   -34792   -34649   -34443   -34211 
  -33976   -33723   -33461   -33228   -33027   -32840   -32682   -32622 
  -32698   -32898   -33158   -33353   -33426   -33455   -33485   -33498 
  -33508   -33543   -33612   -33701   -33797   -33914   -34060   -34194 
  -34298   -34393   -34487   -34535   -34534   -34528   -34520   -34464 
  -34352   -34223   -34087   -33909   -33670   -33421   -33228   -33043 
  -32802   -32607   -32589   -32741   -32995   -33269   -33547   -33856 
  -34153   -34376   -34533   -34672   -34836   -35043   -35255   -35432 
  -35557   -35604   -35526   -35337   -35128   -34931   -34719   -34528 
  -34391   -34258   -34125   -34018   -33939   -33891   -33887   -33937 
  -34024   -34148   -34339   -34568   -34739   -34788   -34728   -34623 
  -34500   -34373   -34304   -34323   -34381   -34430   -34466   -34493 
  -34488   -34476   -34549   -34700   -34815   -34870   -34905   -34924 
  -34967   -35048   -35109   -35133   -35166   -35239   -35363   -35529 
  -35723   -35946   -36175   -36416   -36701   -37003   -37287   -37527 
  -37617   -37449   -37050   -36539   -35997   -35449   -34902   -34376 
  -33916   -33563   -33305   -33119   -33049   -33146   -33386   -33698 
  -34021   -34280   -34366   -34219   -33875   -33439   -33023   -32679 
  -32368   -32053   -31777   -31556   -31371   -31274   -31275   -31337 
  -31467   -31642   -31855   -32154   -32520   -32871   -33118   -33241 
  -33304   -33349   -33357   -33331   -33338   -33447   -33671   -34003 
  -34425   -34851   -35179   -35386   -35488   -35491   -35413   -35324 
  -35279   -35333   -35514   -35785   -36088   -36360   -36567   -36702 
  -36778   -36814   -36850   -36910   -36964   -36964   -36891   -36772 
  -36633   -36450   -36232   -36053   -35930   -35800   -35619   -35392 
  -35152   -34956   -34819   -34693   -34561   -34423   -34290   -34188 
  -34145   -34125   -34088   -34083   -34128   -34157   -34110   -33972 
  -33810   -33706   -33647   -33575   -33500   -33448   -33407   -33373 
  -33359   -33346   -33332   -33331   -33312   -33254   -33158   -33025 
  -32890   -32791   -32718   -32694   -32776   -32968   -33242   -33585 
  -33966   -34348   -34735   -35095   -35378   -35575   -35680   -35715 
  -35770   -35872   -35937   -35864   -35679   -35484   -35297   -35070 
  -34842   -34668   -34519   -34388   -34311   -34277   -34223   -34079 
  -33804   -33403   -32910   -32383   -31861   -31359   -30940   -30646 
  -30441   -30334   -30361   -30524   -30781   -31037   -31232   -31382 
  -31488   -31530   -31533   -31538   -31594   -31752   -32019   -32352 
  -32702   -33023   -33301   -33556   -33804   -34041   -34272   -34465 
  -34578   -34623   -34651   -34686   -34722   -34736   -34728   -34722 
  -34717   -34749   -34863   -35014   -35151   -35287   -35428   -35549 
  -35645   -35704   -35706   -35625   -35509   -35494   -35635   -35847 
  -36013   -36100   -36084   -35934   -35716   -35514   -35341   -35212 
  -35166   -35226   -35384   -35608   -35835   -36020   -36181   -36346 
  -36531   -36721   -36860   -36937   -36996   -37054   -37091   -37111 
  -37098   -36973   -36753   -36506   -36262   -36065   -35958   -35903 
  -35823   -35702   -35590   -35552   -35606   -35726   -35880   -36040 
  -36150   -36131   -35969   -35726   -35434   -35087   -34739   -34483 
  -34379   -34395   -34491   -34685   -34956   -35235   -35511   -35775 
  -35981   -36131   -36219   -36223   -36217   -36274   -36331   -36305 
  -36213   -36116   -36035   -35939   -35796   -35631   -35455   -35233 
  -34983   -34731   -34423   -34007   -33544   -33111   -32740   -32413 
  -32092   -31828   -31710   -31681   -31649   -31610   -31625   -31719 
  -31839   -31942   -32050   -32192   -32347   -32482   -32559   -32606 
  -32678   -32737   -32694   -32602   -32579   -32629   -32717   -32879 
  -33192   -33670   -34225   -34757   -35240   -35658   -36016   -36355 
  -36648   -36825   -36925   -37027   -37139   -37235   -37299   -37338 
  -37392   -37458   -37477   -37415   -37269   -37044   -36763   -36459 
  -36116   -35714   -35295   -34938   -34673   -34473   -34264   -34013 
  -33771   -33590   -33457   -33324   -33177   -33023   -32890   -32796 
  -32718   -32645   -32606   -32602   -32614   -32595   -32516   -32420 
  -32360   -32373   -32482   -32674   -32918   -33161   -33315   -33350 
  -33308   -33261   -33261   -33308   -33358   -33400   -33440   -33467 
  -33489   -33512   -33508   -33471   -33399   -33268   -33066   -32809 
  -32553   -32346   -32185   -32039   -31872   -31702   -31577   -31537 
  -31577   -31687   -31880   -32151   -32456   -32780   -33089   -33315 
  -33421   -33435   -33396   -33328   -33272   -33273   -33340   -33485 
  -33720   -34024   -34360   -34688   -34975   -35212   -35418   -35625 
  -35784   -35847   -35847   -35810   -35739   -35657   -35560   -35429 
  -35253   -35033   -34790   -34542   -34307   -34105   -33980   -33952 
  -33970   -33960   -33895   -33829   -33849   -33959   -34109   -34287 
  -34446   -34545   -34580   -34527   -34372   -34160   -33936   -33759 
  -33686   -33709   -33833   -34088   -34420   -34728   -34978   -35170 
  -35284   -35324   -35291   -35190   -35078   -35023   -35051   -35145 
  -35271   -35421   -35587   -35748   -35920   -36109   -36300   -36532 
  -36833   -37156   -37426   -37631   -37813   -37979   -38129   -38261 
  -38368   -38449   -38492   -38448   -38280   -37994   -37620   -37203 
  -36780   -36389   -36034   -35696   -35380   -35141   -35016   -34932 
  -34815   -34686   -34592   -34551   -34549   -34553   -34547   -34522 
  -34457   -34353   -34198   -33983   -33720   -33389   -32977   -32567 
  -32219   -31891   -31571   -31320   -31171   -31121   -31172   -31305 
  -31477   -31676   -31918   -32220   -32576   -32952   -33303   -33589 
  -33799   -33951   -34048   -34113   -34182   -34234   -34227   -34196 
  -34172   -34133   -34078   -34022   -33970   -33895   -33790   -33677 
  -33569   -33440   -33261   -33043   -32852   -32736   -32683   -32629 
  -32510   -32317   -32080   -31823   -31569   -31325   -31136   -31033 
  -30974   -30908   -30828   -30747   -30724   -30805   -30933   -31012 
  -30993   -30915   -30831   -30761   -30672   -30569   -30518   -30543 
  -30620   -30758   -30985   -31320   -31769   -32292   -32841   -33427 
  -34047   -34662   -35241   -35758   -36205   -36594   -36911   -37154 
  -37363   -37575   -37805   -38053   -38315   -38572   -38790   -38962 
  -39118   -39274   -39422   -39577   -39760   -39942   -40090   -40215 
  -40306   -40346   -40333   -40227   -40003   -39706   -39379   -39039 
  -38680   -38299   -37921   -37569   -37231   -36873   -36467   -36009 
  -35554   -35166   -34861   -34638   -34469   -34315   -34172   -34040 
  -33928   -33833   -33696   -33470   -33164   -32836   -32551   -32300 
  -32028   -31729   -31407   -31052   -30674   -30289   -29902   -29513 
  -29100   -28641   -28163   -27714   -27319   -26985   -26709   -26497 
  -26374   -26366   -26478   -26693   -26985   -27357   -27826   -28344 
  -28860   -29376   -29899   -30438   -31010   -31599   -32182   -32738 
  -33218   -33636   -34032   -34388   -34739   -35128   -35532   -35961 
  -36452   -36942   -37345   -37648   -37858   -37982   -38041   -38070 
  -38119   -38199   -38317   -38470   -38637   -38827   -39028   -39170 
  -39212   -39181   -39133   -39112   -39108   -39063   -38963   -38831 
  -38651   -38431   -38167   -37832   -37451   -37084   -36753   -36452 
  -36163   -35881   -35581   -35221   -34788   -34290   -33737   -33197 
  -32756   -32444   -32285   -32287   -32389   -32520   -32659   -32800 
  -32931   -33042   -33150   -33257   -33351   -33459   -33585   -33690 
  -33756   -33785   -33794   -33816   -33871   -33998   -34192   -34415 
  -34649   -34896   -35132   -35357   -35608   -35900   -36208   -36502 
  -36768   -37042   -37354   -37650   -37879   -38013   -38047   -38017 
  -37910   -37716   -37504   -37278   -36983   -36648   -36317   -36009 
  -35756   -35540   -35344   -35189   -35091   -35051   -35052   -35073 
  -35101   -35124   -35104   -35019   -34906   -34798   -34705   -34673 
  -34731   -34828   -34892   -34898   -34842   -34711   -34551   -34410 
  -34257   -34105   -34009   -33978   -34009   -34106   -34252   -34398 
  -34466   -34442   -34361   -34200   -33953   -33669   -33380   -33080 
  -32780   -32494   -32220   -31966   -31742   -31530   -31309   -31055 
  -30784   -30562   -30410   -30304   -30248   -30231   -30227   -30237 
  -30260   -30307   -30414   -30609   -30885   -31199   -31515   -31814 
  -32093   -32327   -32517   -32676   -32776   -32832   -32886   -32944 
  -33034   -33197   -33405   -33588   -33737   -33885   -34026   -34171 
  -34350   -34585   -34857   -35121   -35357   -35590   -35837   -36073 
  -36274   -36444   -36576   -36660   -36687   -36640   -36517   -36360 
  -36194   -36034   -35924   -35877   -35842   -35787   -35708   -35645 
  -35610   -35557   -35482   -35432   -35415   -35384   -35299   -35168 
  -35052   -34971   -34892   -34788   -34655   -34507   -34368   -34238 
  -34126   -34080   -34096   -34130   -34173   -34199   -34175   -34136 
  -34092   -34017   -33912   -33810   -33745   -33709   -33690   -33670 
  -33608   -33485   -33330   -33192   -33089   -32998   -32926   -32884 
  -32857   -32829   -32792   -32736   -32643   -32521   -32391   -32242 
  -32071   -31932   -31874   -31888   -31928   -31939   -31897   -31841 
  -31815   -31841   -31927   -32049   -32163   -32279   -32425   -32597 
  -32769   -32929   -33095   -33326   -33647   -34014   -34384   -34757 
  -35133   -35507   -35869   -36189   -36463   -36714   -36933   -37115 
  -37269   -37374   -37395   -37322   -37188   -36999   -36748   -36485 
  -36250   -36058   -35943   -35931   -36015   -36192   -36428   -36676 
  -36938   -37185   -37363   -37473   -37532   -37562   -37562   -37513 
  -37466   -37446   -37413   -37362   -37287   -37165   -37026   -36867 
  -36690   -36522   -36378   -36240   -36077   -35897   -35741   -35587 
  -35414   -35243   -35078   -34915   -34774   -34680   -34626   -34605 
  -34627   -34670   -34711   -34746   -34774   -34774   -34762   -34759 
  -34740   -34678   -34585   -34469   -34334   -34186   -34040   -33909 
  -33774   -33629   -33512   -33450   -33443   -33481   -33544   -33617 
  -33673   -33674   -33605   -33475   -33300   -33089   -32845   -32575 
  -32298   -32005   -31696   -31401   -31126   -30897   -30732   -30612 
  -30515   -30424   -30365   -30375   -30438   -30539   -30667   -30816 
  -30986   -31174   -31365   -31568   -31797   -32053   -32290   -32481 
  -32632   -32761   -32879   -32980   -33060   -33138   -33223   -33304 
  -33388   -33477   -33559   -33648   -33764   -33906   -34068   -34238 
  -34400   -34557   -34713   -34881   -35074   -35305   -35579   -35880 
  -36175   -36443   -36691   -36927   -37137   -37335   -37535   -37712 
  -37851   -37974   -38097   -38214   -38329   -38438   -38518   -38553 
  -38553   -38545   -38551   -38572   -38557   -38461   -38296   -38098 
  -37889   -37683   -37500   -37351   -37235   -37135   -37037   -36918 
  -36771   -36603   -36416   -36212   -36008   -35830   -35681   -35522 
  -35338   -35151   -34974   -34808   -34638   -34433   -34171   -33862 
  -33535   -33210   -32883   -32560   -32240   -31930   -31650   -31409 
  -31209   -31068   -30971   -30913   -30901   -30915   -30927   -30913 
  -30874   -30843   -30842   -30870   -30923   -30987   -31050   -31095 
  -31122   -31141   -31152   -31144   -31101   -31041   -31047   -31149 
  -31347   -31633   -31954   -32281   -32614   -32925   -33204   -33474 
  -33713   -33898   -34034   -34141   -34229   -34302   -34342   -34331 
  -34276   -34194   -34119   -34064   -34001   -33926   -33870   -33858 
  -33916   -34029   -34167   -34315   -34457   -34574   -34662   -34723 
  -34762   -34784   -34790   -34780   -34750   -34673   -34547   -34415 
  -34285   -34144   -34036   -34007   -34040   -34080   -34136   -34238 
  -34381   -34535   -34693   -34862   -35027   -35178   -35294   -35336 
  -35297   -35176   -34982   -34758   -34560   -34406   -34288   -34210 
  -34167   -34153   -34161   -34184   -34225   -34284   -34334   -34364 
  -34395   -34431   -34484   -34569   -34677   -34796   -34929   -35100 
  -35318   -35567   -35814   -36040   -36235   -36405   -36547   -36656 
  -36730   -36767   -36796   -36848   -36913   -36975   -37022   -37038 
  -37017   -36946   -36819   -36652   -36460   -36250   -36019   -35787 
  -35573   -35388   -35214   -35033   -34847   -34655   -34464   -34291 
  -34132   -33966   -33801   -33658   -33543   -33448   -33350   -33234 
  -33124   -33046   -32973   -32891   -32830   -32791   -32738   -32671 
  -32638   -32655   -32686   -32718   -32742   -32736   -32706   -32660 
  -32589   -32505   -32424   -32352   -32300   -32271   -32270   -32281 
