Origin Time       2025/01/13 21:19:00
Lat.              31.8
Long.             131.6
Depth. (km)       30
Mag.              6.9
Station Code      KMM022
Station Lat.      32.1945
Station Long.     130.0270
Station Height(m) 3
Record Time       2025/01/13 21:20:10
Sampling Freq(Hz) 100Hz
Duration Time(s)  89
Dir.              N-S
Scale Factor      7845(gal)/8223790
Max. Acc. (gal)   4.621
Last Correction   2025/01/13 21:20:10
Memo.             
[...]
     924      896      892      897      877      787      621      418 
     217       54      -44     -117     -234     -413     -615     -826 
   -1035    -1192    -1228    -1132     -958     -769     -565     -318 
     -63      145      313      469      591      656      715      816 
     940     1042     1073     1003      841      607      329       31 
    -237     -414     -483     -475     -410     -319     -221      -97 
      67      249      419      561      665      727      761      754 
     692      602      514      409      248       31     -203     -406 
    -550     -612     -584     -495     -379     -226      -22      202 
     391      503      523      446      263      -18     -359     -692 
    -959    -1140    -1236    -1274    -1278    -1239    -1124     -935 
    -703     -469     -264      -90       51      126      121       43 
     -86     -241     -410     -585     -730     -805     -834     -837 
    -797     -715     -612     -490     -346     -201      -70       39 
     113      164      234      330      421      480      525      576 
     619      641      650      634      565      449      318      220 
     170      126       44      -81     -240     -419     -560     -596 
    -514     -328      -67      226      515      757      940     1102 
    1250     1341     1340     1258     1129      984      838      710 
     592      469      329      186       81       47       76      141 
     234      348      464      573      689      807      903      958 
     962      918      843      758      666      565      461      352 
     209       29     -145     -270     -337     -378     -407     -415 
    -395     -368     -351     -359     -407     -507     -664     -842 
    -993    -1111    -1239    -1385    -1499    -1567    -1607    -1633 
   -1633    -1598    -1529    -1413    -1225     -939     -592     -283 
     -59      103      217      275      315      399      548      712 
     823      869      893      913      911      866      777      627 
     403      128     -129     -306     -407     -459     -446     -372 
    -268     -152      -12      164      376      591      772      893 
     942      918      808      603      318      -21     -405     -807 
   -1178    -1471    -1664    -1757    -1738    -1602    -1378    -1109 
    -823     -531     -244       22      251      444      600      697 
     724      715      708      699      681      668      670      689 
     720      765      851      980     1105     1205     1282     1333 
    1356     1364     1383     1429     1487     1530     1560     1584 
    1602     1618     1641     1669     1692     1696     1682     1647 
    1590     1514     1405     1244     1046      841      654      488 
     322      147      -41     -237     -430     -621     -788     -900 
    -945     -930     -859     -743     -576     -364     -139       55 
     178      206      159       89       29      -14      -45      -67 
     -90     -114     -130     -160     -232     -353     -508     -666 
    -805     -927    -1026    -1075    -1073    -1061    -1069    -1085 
   -1098    -1093    -1061     -999     -896     -766     -619     -449 
    -244       17      321      614      869     1081     1229     1294 
    1287     1251     1197     1100      946      737      471      164 
    -171     -553     -954    -1312    -1611    -1860    -2041    -2116 
   -2062    -1898    -1630    -1258     -816     -357       86      496 
     832     1046     1128     1105      996      819      607      415 
     279      186      132      135      175      218      249      291 
     373      510      673      816      919      988     1021     1020 
     980      915      835      726      575      411      267      145 
      45      -21      -49      -29        6       25       31       36 
      14      -58     -172     -286     -371     -423     -441     -413 
    -345     -267     -190     -118      -67      -51      -94     -211 
    -369     -514     -619     -685     -729     -772     -826     -885 
    -938     -949     -886     -773     -635     -465     -263      -54 
     147      322      438      471      413      264       54     -187 
    -437     -653     -810     -911     -976    -1013    -1011     -951 
    -820     -607     -333      -31      275      557      784      967 
    1131     1264     1336     1340     1304     1215     1046      804 
     503      155     -217     -604    -1004    -1378    -1698    -1953 
   -2122    -2160    -2056    -1838    -1530    -1140     -680     -184 
     313      788     1205     1536     1767     1912     1998     2018 
    1950     1795     1568     1281      954      614      280      -35 
    -319     -550     -703     -783     -799     -762     -684     -594 
    -527     -502     -507     -529     -557     -580     -580     -545 
    -479     -387     -278     -157      -62      -32      -74     -164 
    -309     -517     -749     -954    -1116    -1232    -1308    -1335 
   -1296    -1193    -1036     -834     -598     -334      -35      291 
     629      954     1250     1505     1722     1907     2062     2178 
    2249     2258     2204     2091     1904     1644     1350     1044 
     727      417      130     -136     -369     -552     -693     -797 
    -857     -861     -811     -708     -557     -380     -183       48 
     321      615      904     1173     1405     1578     1682     1714 
    1680     1601     1483     1318     1104      866      631      409 
     203       33      -79     -149     -197     -213     -191     -125 
     -28       56      101      126      160      205      247      287 
     322      355      378      382      382      406      460      534 
     629      743      861      954      997      996      966      904 
     793      639      454      251       35     -163     -319     -429 
    -487     -487     -432     -336     -201      -48       85      174 
     199      156       58      -90     -283     -494     -679     -816 
    -912     -959     -951     -918     -873     -822     -757     -664 
    -542     -407     -272     -160      -79       -2       67      101 
     103       91       68       12      -83     -203     -322     -426 
    -514     -587     -638     -673     -720     -781     -850     -922 
    -985    -1035    -1055     -999     -851     -635     -367      -60 
     247      521      737      895     1000     1043     1005      899 
     764      623      475      319      163        6     -152     -302 
    -411     -456     -429     -332     -191      -47       87      216 
     332      430      517      587      623      611      565      504 
     432      340      221      101      -12     -135     -257     -367 
    -472     -585     -679     -715     -689     -607     -471     -286 
     -64      171      399      612      803      947     1024     1032 
     974      857      706      560      445      360      282      198 
     122       60        5      -28       -6       76      210      365 
     507      627      724      783      792      768      712      600 
     430      230       12     -230     -475     -684     -850     -993 
   -1132    -1259    -1341    -1356    -1317    -1242    -1134    -1009 
    -895     -796     -702     -615     -544     -484     -436     -387 
    -326     -244     -141      -55      -16      -25      -64     -130 
    -225     -318     -378     -396     -388     -357     -306     -243 
    -168      -79       -1       54       99      147      201      282 
     388      500      585      618      583      480      333      170 
      20      -89     -148     -149      -95        4      140      313 
     513      726      946     1186     1452     1718     1930     2065 
    2123     2095     1962     1722     1414     1089      769      459 
     172      -72     -274     -432     -540     -591     -592     -567 
    -529     -481     -434     -406     -402     -417     -438     -457 
    -465     -473     -499     -535     -556     -545     -490     -387 
    -252      -97       75      263      467      693      922     1115 
    1262     1344     1332     1246     1105      922      716      484 
     199     -137     -508     -886    -1227    -1491    -1668    -1749 
   -1736    -1640    -1478    -1270    -1051     -864     -730     -657 
    -627     -614     -591     -535     -453     -361     -278     -203 
    -139     -114     -153     -230     -311     -375     -386     -326 
    -209      -60       99      264      440      599      727      831 
     919      990     1066     1156     1250     1335     1428     1530 
    1628     1702     1742     1756     1726     1629     1483     1324 
    1161     1015      905      843      820      814      811      814 
     816      808      796      787      777      743      681      616 
     580      572      576      575      556      515      460      396 
     336      287      233      163       81       -6     -106     -214 
    -321     -398     -423     -414     -379     -302     -182      -33 
     121      260      365      421      418      352      225       56 
    -143     -349     -529     -672     -788     -880     -947     -992 
   -1027    -1066    -1115    -1181    -1259    -1318    -1339    -1312 
   -1236    -1123    -1000     -901     -842     -820     -839     -885 
    -936     -977    -1007    -1050    -1119    -1185    -1235    -1281 
   -1321    -1347    -1360    -1360    -1337    -1279    -1162     -985 
    -760     -490     -191      117      426      723      986     1200 
    1331     1337     1221     1009      727      395       33     -330 
    -653     -889    -1027    -1055     -958     -760     -514     -244 
      43      332      623      908     1177     1444     1710     1946 
    2143     2288     2344     2289     2123     1863     1522     1128 
     715      309      -62     -364     -577     -688     -665     -492 
    -190      209      679     1189     1688     2120     2457     2700 
    2840     2845     2713     2489     2203     1858     1470     1053 
     626      207     -187     -549     -849    -1065    -1206    -1285 
   -1302    -1271    -1208    -1125    -1028     -913     -774     -604 
    -418     -241      -74       79      193      249      271      279 
     275      256      225      186      136       60      -48     -156 
    -251     -363     -486     -584     -642     -650     -603     -494 
    -329     -133       63      238      375      464      502      487 
     427      342      232       79     -108     -301     -486     -646 
    -760     -822     -855     -900     -974    -1063    -1156    -1254 
   -1362    -1485    -1613    -1725    -1803    -1817    -1738    -1580 
   -1368    -1128     -874     -621     -391     -187        5      172 
     292      371      425      456      469      483      507      531 
     537      507      449      371      271      156       49      -27 
     -75      -87      -58        0       76      179      302      440 
     592      778     1008     1271     1555     1846     2120     2351 
    2528     2629     2636     2536     2324     2015     1628     1179 
     695      205     -256     -670    -1020    -1285    -1455    -1521 
   -1483    -1351    -1144     -896     -625     -336      -41      245 
     522      773      974     1102     1136     1086      977      818 
     629      437      249       94        1      -41      -44        9 
     105      207      305      394      473      562      670      801 
     959     1135     1298     1433     1526     1564     1524     1391 
    1177      897      557      183     -184     -542     -888    -1190 
   -1422    -1583    -1667    -1667    -1584    -1437    -1236     -994 
    -733     -463     -197       52      276      452      545      538 
     445      279       48     -221     -499     -772    -1020    -1219 
   -1352    -1424    -1436    -1404    -1333    -1235    -1123     -992 
    -846     -703     -572     -445     -324     -211      -86       66 
     238      429      638      849     1046     1220     1372     1485 
    1532     1506     1410     1242     1013      770      548      376 
     278      252      290      388      529      692      872     1051 
    1196     1291     1339     1323     1221     1038      785      469 
     109     -268     -641     -984    -1283    -1528    -1707    -1821 
   -1881    -1900    -1875    -1802    -1688    -1559    -1429    -1300 
   -1179    -1086    -1020     -974     -946     -916     -865     -769 
    -621     -429     -218      -24      133      245      305      298 
     222       83     -105     -336     -587     -803     -950    -1028 
   -1012     -892     -700     -449     -143      187      511      805 
    1057     1255     1402     1502     1559     1579     1574     1534 
    1456     1341     1185      984      753      515      291       93 
     -67     -171     -199     -155      -63       70      228      394 
     552      670      730      724      666      571      459      352 
     278      244      252      301      382      490      615      734 
     830      908      963      985      985      982      965      919 
     841      707      500      232      -82     -421     -747    -1017 
   -1198    -1273    -1232    -1088     -859     -560     -193      224 
     654     1075     1460     1777     2007     2128     2127     1998 
    1740     1350      828      198     -515    -1283    -2069    -2824 
   -3503    -4075    -4507    -4753    -4788    -4600    -4185    -3547 
   -2722    -1761     -722      322     1290     2128     2802     3271 
    3514     3526     3316     2909     2335     1642      870       43 
    -785    -1549    -2203    -2717    -3078    -3284    -3334    -3234 
   -3017    -2708    -2339    -1930    -1485    -1015     -546      -89 
     346      747     1108     1426     1691     1912     2104     2243 
    2307     2282     2160     1930     1590     1166      704      253 
    -155     -499     -765     -950    -1061    -1102    -1063     -939 
    -743     -483     -155      210      568      878     1124     1285 
    1341     1308     1204     1040      854      672      495      324 
     174       55      -36     -102     -139     -136      -85       10 
     144      311      495      670      812      891      872      745 
     519      217     -140     -534     -946    -1339    -1678    -1939 
   -2096    -2114    -1999    -1783    -1482    -1101     -676     -247 
     175      576      923     1196     1378     1458     1428     1279 
    1019      677      299      -70     -392     -627     -754     -766 
    -664     -442     -122      249      653     1084     1517     1908 
    2241     2509     2683     2752     2718     2579     2339     2019 
    1652     1260      858      472      124     -182     -448     -662 
    -808     -893     -934     -940     -918     -865     -774     -656 
    -521     -387     -276     -213     -193     -198     -228     -268 
    -290     -283     -245     -156       -9      198      444      692 
     912     1084     1185     1206     1156     1054      909      739 
     558      382      217       72      -35     -103     -130     -120 
     -76      -16       44       89      108       98       58      -13 
    -120     -257     -425     -587     -710     -799     -849     -850 
    -811     -753     -685     -616     -556     -511     -484     -471 
    -476     -494     -507     -515     -525     -525     -508     -480 
    -418     -299     -117      128      421      734     1044     1321 
    1536     1665     1706     1678     1601     1491     1370     1254 
    1158     1092     1062     1058     1073     1096     1112     1101 
    1032      893      692      441      157     -143     -440     -710 
    -928    -1084    -1158    -1159    -1123    -1088    -1057    -1017 
    -969     -908     -837     -762     -689     -621     -554     -481 
    -418     -368     -328     -309     -321     -342     -364     -384 
    -398     -403     -413     -433     -461     -498     -550     -615 
    -683     -745     -793     -816     -800     -749     -670     -577 
    -490     -444     -460     -534     -661     -811     -955    -1075 
   -1162    -1196    -1161    -1058     -904     -703     -469     -222 
      31      299      575      837     1066     1256     1389     1448 
    1444     1389     1289     1162     1011      838      645      433 
     210      -13     -228     -421     -576     -668     -693     -673 
    -608     -508     -414     -352     -325     -338     -395     -479 
    -558     -619     -648     -619     -531     -387     -187       47 
     302      565      835     1105     1348     1543     1672     1722 
    1688     1582     1412     1188      930      650      342       10 
    -330     -677    -1032    -1378    -1701    -1984    -2204    -2346 
   -2401    -2380    -2295    -2155    -1973    -1763    -1529    -1271 
    -977     -645     -287       85      457      799     1082     1285 
    1387     1381     1273     1078      814      491      132     -225 
    -550     -837    -1070    -1231    -1327    -1363    -1325    -1225 
   -1077     -884     -653     -398     -135      124      380      618 
     819      981     1101     1175     1201     1171     1078      919 
     704      441      137     -176     -475     -750     -976    -1129 
   -1209    -1208    -1102     -888     -576     -175      291      765 
    1197     1567     1856     2046     2153     2204     2223     2234 
    2253     2278     2307     2324     2309     2257     2182     2100 
    2025     1972     1946     1941     1937     1918     1875     1791 
    1664     1509     1337     1162      997      851      741      668 
     612      565      522      467      394      324      261      203 
     144       87       31      -43     -129     -211     -279     -332 
    -356     -334     -259     -126       47      241      426      575 
     666      676      584      392      117     -218     -589     -963 
   -1300    -1578    -1792    -1942    -2039    -2103    -2142    -2176 
   -2216    -2263    -2307    -2323    -2297    -2232    -2127    -1981 
   -1807    -1618    -1437    -1279    -1144    -1031     -953     -924 
    -930     -967    -1035    -1107    -1171    -1224    -1252    -1256 
   -1232    -1171    -1090    -1017     -955     -903     -872     -853 
    -819     -760     -665     -515     -307      -64      198      477 
     747      994     1215     1398     1544     1667     1773     1873 
    1971     2056     2103     2096     2030     1903     1728     1525 
    1305     1074      855      673      538      459      445      494 
     584      693      799      891      955      970      928      838 
     704      554      429      346      318      353      442      568 
     714      857      997     1146     1308     1483     1660     1822 
    1946     2004     1992     1914     1776     1583     1354     1113 
     886      696      556      459      383      313      238      145 
      25     -105     -218     -299     -348     -356     -321     -267 
    -214     -168     -140     -129     -130     -139     -141     -126 
    -101      -75      -67     -105     -202     -352     -549     -777 
   -1030    -1300    -1567    -1806    -1991    -2092    -2097    -2008 
