Origin Time       2025/01/13 21:19:00
Lat.              31.8
Long.             131.6
Depth. (km)       30
Mag.              6.9
Station Code      KMM004
Station Lat.      32.9318
Station Long.     131.1203
Station Height(m) 554
Record Time       2025/01/13 21:19:55
Sampling Freq(Hz) 100Hz
Duration Time(s)  150
Dir.              E-W
Scale Factor      7845(gal)/8223790
Max. Acc. (gal)   24.434
Last Correction   2025/01/13 21:19:54
Memo.             
[...]
   -3061    -2527    -1952    -1235     -427      175      479      795 
    1501     2644     3881     4819     5297     5335     5016     4367 
    3329     2043      793     -357    -1374    -2165    -2938    -4044 
   -5502    -7003    -8217    -8976    -9150    -8748    -8155    -7557 
   -6613    -5287    -4055    -3123    -2385    -1933    -1921    -2278 
   -2820    -3258    -3218    -2650    -1923    -1321     -837     -465 
    -236      -13      495     1459     2585     3248     3122     2374 
    1301      243     -486     -787     -641     -152      313      548 
     650      723      849      982      855      409     -117     -560 
    -908    -1219    -1479    -1502    -1269    -1071     -996     -854 
    -564      -37      707     1310     1547     1422      872      -39 
   -1231    -2644    -3960    -4932    -5547    -5830    -6016    -6286 
   -6457    -6500    -6712    -7146    -7632    -8055    -8345    -8494 
   -8475    -8181    -7619    -7002    -6548    -6257    -5971    -5564 
   -5015    -4446    -3986    -3620    -3327    -3118    -2867    -2407 
   -1768    -1181     -949    -1190    -1737    -2376    -2995    -3558 
   -4006    -4170    -4071    -4037    -4139    -4064    -3603    -2771 
   -1715     -796     -363     -407     -769    -1316    -1873    -2342 
   -2720    -3080    -3649    -4540    -5584    -6525    -7069    -7041 
   -6751    -6713    -7036    -7481    -7762    -7692    -7321    -6907 
   -6644    -6420    -6058    -5663    -5355    -4986    -4374    -3537 
   -2706    -2169    -1946    -1867    -1823    -1810    -2027    -2637 
   -3410    -4074    -4638    -5252    -6002    -6686    -6995    -6886 
   -6558    -6178    -5744    -5215    -4768    -4641    -4792    -4919 
   -4652    -3782    -2579    -1501     -627       70      457      567 
     621      760      940      990      762      178     -700    -1567 
   -2122    -2430    -2637    -2677    -2625    -2631    -2516    -2135 
   -1544     -714      284     1248     2174     3353     5003     6814 
    8293     9391    10214    10593    10471    10045     9409     8730 
    8266     7776     6812     5552     4552     4044     3894     3765 
    3366     2741     2168     1777     1507     1455     1895     2793 
    3711     4407     4901     5028     4660     3848     2701     1536 
     602     -175     -895    -1464    -1788    -2084    -2540    -3037 
   -3551    -4132    -4722    -5378    -6131    -6774    -7225    -7707 
   -8347    -8992    -9502    -9965   -10538   -11250   -12059   -12897 
  -13620   -14164   -14577   -14758   -14559   -14004   -13100   -11803 
  -10181    -8437    -6837    -5536    -4484    -3584    -2835    -2323 
   -2079    -2018    -2178    -2667    -3462    -4468    -5463    -6157 
   -6577    -6922    -7186    -7322    -7483    -7742    -7986    -8163 
   -8320    -8406    -8220    -7647    -6781    -5695    -4436    -3080 
   -1611      -71     1298     2349     3086     3484     3470     3082 
    2470     1709      758     -399    -1827    -3545    -5320    -6845 
   -7929    -8478    -8618    -8587    -8334    -7601    -6230    -4284 
   -1975      479     2785     4737     6388     7695     8432     8509 
    7944     6801     5281     3562     1622     -542    -2712    -4568 
   -6014    -7326    -8722    -9953   -10743   -11070   -10933   -10430 
   -9790    -9166    -8588    -7978    -7207    -6111    -4672    -3275 
   -2315    -1760    -1391    -1054     -589      174     1186     2143 
    2802     3065     2890     2413     1831      994     -284    -1795 
   -3314    -4810    -6214    -7349    -7893    -7614    -6644    -5290 
   -3836    -2443    -1071      201     1020     1210      920      278 
    -669    -1880    -3331    -4912    -6361    -7468    -8260    -8812 
   -9097    -9144    -8965    -8394    -7395    -6212    -5034    -3974 
   -3219    -2884    -2952    -3164    -3175    -3063    -3179    -3618 
   -4340    -5290    -6276    -7076    -7460    -7142    -6037    -4375 
   -2486     -592     1227     2964     4548     5854     6853     7550 
    7811     7515     6685     5344     3682     2020      484     -858 
   -1800    -2286    -2412    -2200    -1671     -864      243     1597 
    3069     4554     6018     7501     8930    10127    11061    11730 
   12120    12374    12599    12692    12480    11859    10963     9977 
    8835     7410     5687     3720     1674     -299    -2154    -3792 
   -5007    -5628    -5628    -5113    -4121    -2489     -341     1863 
    3954     5853     7279     8090     8183     7464     6050     4121 
    1848     -650    -3441    -6505    -9487   -12096   -14365   -16175 
  -17334   -18017   -18301   -17965   -17012   -15626   -13914   -12124 
  -10504    -9015    -7595    -6303    -5136    -4121    -3454    -3195 
   -3134    -3207    -3370    -3342    -3069    -2772    -2500    -2189 
   -1860    -1570    -1243     -773     -333     -125      -78     -193 
    -602    -1235    -1917    -2521    -2975    -3391    -3954    -4719 
   -5640    -6601    -7447    -8124    -8748    -9440   -10099   -10543 
  -10818   -11007   -10994   -10685   -10027    -8877    -7337    -5844 
   -4668    -3816    -3322    -3149    -3046    -2797    -2428    -2096 
   -2030    -2444    -3252    -4101    -4708    -5093    -5395    -5563 
   -5513    -5406    -5244    -4671    -3578    -2187     -548     1264 
    3021     4607     5899     6718     7091     7071     6583     5687 
    4440     2797      878    -1224    -3519    -5765    -7592    -8789 
   -9301    -9211    -8584    -7414    -5984    -4858    -4272    -3975 
   -3757    -3616    -3599    -3775    -4105    -4433    -4733    -5103 
   -5584    -5977    -5961    -5448    -4656    -3815    -2987    -2077 
    -943      260     1119     1444     1367     1148      957      735 
     405      -78     -760    -1556    -2376    -3238    -4074    -4710 
   -5124    -5393    -5551    -5679    -5829    -5925    -5927    -5980 
   -6216    -6513    -6681    -6600    -5980    -4661    -2988    -1372 
      99     1420     2388     2682     2297     1557      708     -114 
    -893    -1804    -2857    -3736    -4244    -4525    -4780    -5054 
   -5250    -5263    -5211    -5327    -5594    -5802    -5852    -5800 
   -5715    -5640    -5649    -5799    -6015    -6180    -6230    -5987 
   -5306    -4374    -3416    -2381    -1162      109     1242     2185 
    2951     3647     4430     5211     5711     5880     5854     5640 
    5173     4536     3869     3210     2617     2142     1705     1302 
     957      550      126     -139     -136      172      631     1023 
    1367     1814     2365     2820     2934     2809     2797     2895 
    2833     2567     2185     1763     1345      832      110     -670 
   -1343    -1972    -2633    -3315    -3981    -4487    -4695    -4635 
   -4455    -4297    -4314    -4621    -5049    -5244    -5177    -4977 
   -4604    -4225    -4153    -4433    -5034    -5838    -6577    -7102 
   -7462    -7823    -8341    -8991    -9583    -9963   -10081    -9904 
   -9432    -8775    -8021    -7200    -6361    -5375    -3921    -2033 
    -132     1551     2862     3578     3805     3747     3485     3196 
    3001     2862     2758     2682     2656     2770     3049     3418 
    3711     3832     3854     3792     3577     3234     2814     2330 
    1817     1332      908      577      278     -137     -792    -1802 
   -3219    -4986    -7082    -9375   -11611   -13694   -15542   -16903 
  -17664   -17976   -18036   -17926   -17643   -17122   -16309   -15277 
  -14114   -12719   -10978    -9100    -7406    -5906    -4585    -3553 
   -2682    -1863    -1235     -819     -565     -556     -724     -808 
    -639     -226      390     1183     2054     2929     3827     4641 
    5224     5645     5929     5984     5868     5665     5277     4595 
    3689     2733     1846     1004      175     -661    -1637    -2818 
   -4187    -5763    -7371    -8685    -9597   -10077   -10064    -9510 
   -8433    -7021    -5513    -4029    -2667    -1555     -796     -334 
      33      441      920     1436     1985     2674     3481     4264 
    4919     5336     5485     5316     4687     3638     2261      630 
   -1031    -2651    -4270    -5682    -6741    -7504    -7973    -8100 
   -7817    -7176    -6438    -5746    -5020    -4189    -3271    -2436 
   -1942    -1873    -2192    -2856    -3767    -4810    -5813    -6589 
   -7105    -7430    -7596    -7624    -7554    -7376    -7074    -6627 
   -6043    -5455    -5013    -4729    -4565    -4554    -4723    -5085 
   -5724    -6635    -7647    -8569    -9273    -9764   -10100   -10215 
  -10091    -9809    -9373    -8746    -7897    -6647    -4949    -3072 
   -1132      930     2952     4733     6154     7034     7295     7071 
    6480     5547     4383     3245     2259     1381      726      411 
     297      207       59     -167     -392     -453     -380     -473 
    -781    -1061    -1235    -1390    -1610    -1933    -2276    -2554 
   -2797    -2972    -2866    -2282    -1264        5     1308     2566 
    3858     5101     6110     6782     7110     7202     7111     6813 
    6309     5626     4901     4264     3711     3257     2959     2801 
    2679     2523     2281     1806     1001      -22    -1112    -2134 
   -2902    -3306    -3312    -2872    -2045     -953      324     1613 
    2729     3603     4171     4453     4500     4315     4017     3696 
    3298     2855     2354     1665      905      305     -108     -349 
    -386     -205      133      414      365      -64     -722    -1475 
   -2358    -3472    -4843    -6372    -7865    -9154   -10260   -11288 
  -12178   -12793   -13123   -13162   -12843   -12164   -11200   -10060 
   -8830    -7481    -6004    -4581    -3318    -2193    -1273     -548 
     -27       91     -253     -839    -1472    -2134    -2839    -3607 
   -4449    -5269    -6027    -6782    -7412    -7769    -7869    -7744 
   -7454    -7074    -6652    -6238    -5844    -5607    -5661    -5876 
   -6172    -6642    -7244    -7866    -8452    -8892    -9096    -9121 
   -9031    -8750    -8264    -7753    -7341    -6986    -6706    -6581 
   -6625    -6826    -7152    -7547    -7962    -8378    -8878    -9497 
  -10053   -10415   -10570   -10450   -10150    -9883    -9594    -9185 
   -8700    -8189    -7742    -7446    -7258    -7064    -6787    -6423 
   -6077    -5883    -5788    -5732    -5867    -6176    -6392    -6376 
   -6062    -5331    -4194    -2878    -1651     -569      499     1614 
    2716     3682     4409     4912     5174     5050     4533     3828 
    3067     2241     1441      903      758      905     1231     1841 
    2778     3875     4969     5914     6620     7132     7388     7103 
    6145     4693     2882      743    -1597    -3939    -6019    -7605 
   -8657    -9220    -9351    -9089    -8417    -7391    -6170    -4907 
   -3732    -2659    -1737    -1175     -934     -773     -626     -407 
     -22      409      803     1143     1264     1080      827      838 
    1197     1722     2235     2616     2658     2262     1533      519 
    -702    -1769    -2462    -2951    -3322    -3487    -3406    -3022 
   -2327    -1451     -436      837     2419     4186     5992     7789 
    9517    11020    12212    13208    14025    14431    14334    13846 
   12950    11637    10072     8307     6374     4392     2363      287 
   -1696    -3445    -4826    -5796    -6428    -6748    -6767    -6627 
   -6515    -6448    -6438    -6529    -6617    -6632    -6636    -6597 
   -6543    -6548    -6442    -6183    -5927    -5499    -4677    -3577 
   -2378    -1270     -490     -151     -190     -556    -1277    -2258 
   -3217    -4020    -4704    -5240    -5560    -5545    -5034    -3960 
   -2331     -216     2112     4357     6427     8248     9674    10698 
   11326    11348    10582     9080     7029     4637     1996     -766 
   -3400    -5780    -7911    -9763   -11430   -13089   -14661   -15850 
  -16424   -16240   -15273   -13640   -11470    -8849    -5890    -2849 
       5     2574     4684     6092     6767     6748     6114     5082 
    3831     2358      568    -1518    -3704    -5814    -7744    -9342 
  -10542   -11439   -12048   -12240   -12043   -11770   -11537   -11183 
  -10754   -10392   -10123    -9958    -9857    -9817    -9925   -10110 
  -10227   -10243   -10219   -10407   -11002   -11948   -13225   -14817 
  -16578   -18253   -19510   -20232   -20557   -20426   -19687   -18457 
  -16852   -14813   -12384    -9729    -7021    -4442    -2170     -278 
    1231     2278     2871     3029     2631     1788      734     -491 
   -1784    -2999    -4072    -4946    -5522    -5672    -5417    -4927 
   -4421    -4185    -4340    -4710    -5111    -5499    -5741    -5637 
   -5200    -4587    -3921    -3288    -2651    -1877    -1050     -436 
     -45      346      832     1404     2093     2918     3920     5135 
    6467     7682     8633     9370     9917    10187    10106     9725 
    9184     8468     7501     6380     5163     3861     2697     1919 
    1486     1258     1208     1337     1741     2558     3717     5105 
    6647     8145     9363    10125    10484    10670    10712    10548 
   10269     9952     9591     9215     8887     8617     8409     8361 
    8488     8554     8415     8160     7798     7223     6500     5807 
    5219     4764     4560     4600     4719     4811     4774     4432 
    3680     2489      878    -1109    -3489    -6241    -9275   -12540 
  -15939   -19249   -22239   -24715   -26539   -27666   -28015   -27507 
  -26307   -24692   -22837   -20784   -18573   -16254   -13884   -11574 
   -9385    -7469    -6107    -5413    -5323    -5656    -6133    -6651 
   -7302    -8129    -9162   -10326   -11395   -12302   -13061   -13545 
  -13675   -13454   -12877   -11973   -10666    -8870    -6766    -4545 
   -2270      -48     2062     4014     5649     6717     7079     6833 
    6099     5011     3848     2832     1957     1115      303     -400 
   -1019    -1597    -2219    -3086    -4270    -5634    -6966    -8066 
   -8860    -9312    -9444    -9416    -9282    -8962    -8438    -7724 
   -6821    -5782    -4718    -3750    -2978    -2384    -1776     -994 
     -21     1155     2517     4035     5742     7684     9871    12145 
   14207    15858    16973    17412    17140    16299    15070    13594 
   12043    10579     9227     7962     6952     6345     5992     5719 
    5482     5184     4729     4233     3823     3370     2759     1980 
    1038       16    -1043    -2038    -2736    -3127    -3385    -3612 
   -3959    -4467    -4955    -5468    -6146    -6809    -7294    -7649 
   -7878    -7909    -7727    -7333    -6777    -6137    -5424    -4604 
   -3717    -2868    -2118    -1475    -1031     -946    -1275    -1984 
   -3118    -4715    -6669    -8891   -11318   -13689   -15727   -17412 
  -18634   -19161   -19037   -18443   -17497   -16313   -14979   -13572 
  -12204   -10979    -9898    -8901    -8060    -7456    -7052    -6782 
   -6625    -6693    -7074    -7692    -8445    -9205    -9814   -10222 
  -10480   -10598   -10486   -10102    -9436    -8437    -7294    -6323 
   -5539    -4833    -4234    -3735    -3287    -2911    -2683    -2678 
   -2906    -3298    -3697    -4012    -4349    -4711    -4882    -4671 
   -4004    -2925    -1555      -31     1485     2790     3766     4402 
    4722     4908     5162     5431     5670     6006     6498     7038 
    7506     7963     8581     9508    10638    11583    12128    12313 
   12079    11376    10222     8623     6690     4602     2469      344 
   -1652    -3341    -4743    -5937    -6847    -7472    -7807    -7761 
   -7317    -6471    -5302    -4005    -2739    -1514     -225     1186 
    2635     4004     5220     6195     6887     7358     7564     7373 
    6798     5838     4473     2839     1042     -861    -2698    -4386 
   -5931    -7190    -8132    -8903    -9379    -9367    -8977    -8287 
   -7253    -6000    -4669    -3200    -1544      248     2165     4271 
    6515     8599    10277    11518    12244    12413    12245    11888 
   11335    10733    10181     9574     8858     8078     7246     6393 
    5562     4685     3603     2184      504    -1206    -2929    -4696 
   -6300    -7720    -9111   -10300   -11118   -11757   -12333   -12785 
  -13171   -13554   -13838   -13892   -13652   -13143   -12478   -11728 
  -10918   -10123    -9360    -8564    -7871    -7450    -7244    -7217 
   -7379    -7689    -8203    -8959    -9849   -10723   -11503   -12231 
  -12881   -13339   -13645   -13915   -14224   -14592   -14874   -14945 
  -14808   -14401   -13625   -12509   -11115    -9506    -7751    -5910 
   -4178    -2760    -1638     -781      -95      607     1312     1964 
    2664     3419     4105     4599     4845     4934     4943     4797 
    4450     3902     3146     2232     1175      -35    -1275    -2442 
   -3561    -4685    -5807    -6859    -7758    -8402    -8742    -8746 
   -8384    -7842    -7387    -7018    -6621    -6158    -5589    -4845 
   -3856    -2601    -1116      500     2145     3757     5309     6748 
    7973     8937     9643    10002     9848     9103     7847     6257 
    4550     2890     1237     -529    -2428    -4392    -6264    -7892 
   -9234   -10211   -10736   -10894   -10894   -10936   -11122   -11448 
  -11902   -12456   -13036   -13664   -14332   -14916   -15379   -15700 
  -15727   -15354   -14635   -13722   -12764   -11788   -10743    -9597 
   -8326    -6901    -5323    -3715    -2228     -876      375     1464 
    2400     3222     3874     4351     4774     5225     5703     6245 
    6970     7960     9190    10592    12087    13560    14789    15645 
   16189    16438    16440    16289    15888    15102    13929    12357 
   10490     8665     7136     5918     4981     4333     3913     3569 
    3202     2820     2403     1884     1208      360     -643    -1798 
   -3053    -4357    -5641    -6745    -7588    -8199    -8580    -8762 
   -8853    -9016    -9382    -9914   -10474   -10975   -11419   -11916 
  -12576   -13387   -14179   -14652   -14558   -13855   -12629   -11005 
   -9196    -7404    -5719    -4183    -2748    -1381     -179      830 
    1678     2303     2666     2863     3068     3397     3730     3859 
    3736     3387     2897     2285     1448      433     -554    -1383 
   -2018    -2474    -2837    -3275    -3909    -4715    -5711    -6880 
   -7969    -8746    -9135    -9074    -8672    -8176    -7636    -7003 
   -6323    -5537    -4552    -3449    -2388    -1518     -913     -619 
    -703    -1156    -1973    -3187    -4660    -6120    -7422    -8527 
   -9348    -9834   -10000    -9801    -9216    -8343    -7303    -6237 
   -5293    -4518    -3809    -3056    -2201    -1246     -314      418 
     913     1193     1281     1352     1555     1809     2014     2124 
    2131     2072     1895     1563     1232     1075     1075     1104 
    1066      901      598      238     -103     -444     -749     -935 
   -1046    -1242    -1587    -2037    -2554    -3096    -3554    -3850 
   -4040    -4189    -4369    -4693    -5163    -5684    -6157    -6480 
   -6582    -6463    -6154    -5656    -4930    -4008    -2963    -1784 
    -537      554     1337     1827     2073     2139     2130     2080 
    1929     1645     1221      633     -124     -936    -1636    -2228 
