Origin Time       2025/01/13 21:19:00
Lat.              31.8
Long.             131.6
Depth. (km)       30
Mag.              6.9
Station Code      KMM013
Station Lat.      32.3644
Station Long.     130.5089
Station Height(m) 6
Record Time       2025/01/13 21:20:00
Sampling Freq(Hz) 100Hz
Duration Time(s)  96
Dir.              U-D
Scale Factor      7845(gal)/8223790
Max. Acc. (gal)   4.828
Last Correction   2025/01/13 21:20:00
Memo.             
[...]
   -4117    -3786    -3468    -3194    -3032    -3060    -3237    -3407 
   -3510    -3591    -3689    -3838    -4020    -4178    -4286    -4349 
   -4378    -4374    -4345    -4337    -4401    -4502    -4517    -4338 
   -3982    -3578    -3248    -2974    -2666    -2286    -1911    -1686 
   -1696    -1881    -2135    -2400    -2616    -2737    -2781    -2825 
   -2943    -3133    -3361    -3639    -4014    -4510    -5062    -5555 
   -5945    -6300    -6671    -6982    -7080    -6871    -6412    -5881 
   -5382    -4880    -4348    -3840    -3489    -3358    -3357    -3343 
   -3257    -3145    -3132    -3288    -3541    -3759    -3870    -3869 
   -3823    -3839    -3969    -4155    -4320    -4428    -4472    -4494 
   -4568    -4689    -4758    -4706    -4517    -4202    -3808    -3418 
   -3119    -2965    -2965    -3084    -3230    -3314    -3310    -3219 
   -3056    -2905    -2866    -2976    -3208    -3505    -3777    -3921 
   -3910    -3805    -3712    -3724    -3840    -3955    -3928    -3681 
   -3262    -2829    -2562    -2539    -2667    -2813    -2925    -2997 
   -3024    -3040    -3094    -3144    -3084    -2857    -2492    -2111 
   -1907    -1984    -2277    -2624    -2863    -2905    -2786    -2627 
   -2498    -2415    -2378    -2392    -2466    -2617    -2830    -3067 
   -3284    -3511    -3827    -4206    -4523    -4714    -4776    -4726 
   -4637    -4599    -4627    -4722    -4900    -5132    -5337    -5451 
   -5406    -5132    -4652    -4072    -3477    -2930    -2543    -2386 
   -2392    -2435    -2471    -2542    -2673    -2820    -2910    -2955 
   -3048    -3244    -3492    -3716    -3915    -4148    -4465    -4876 
   -5341    -5815    -6264    -6654    -6960    -7177    -7292    -7275 
   -7129    -6910    -6656    -6345    -5964    -5584    -5254    -4936 
   -4596    -4274    -4048    -3958    -3955    -3963    -3971    -4024 
   -4112    -4148    -4071    -3905    -3734    -3646    -3707    -3928 
   -4248    -4580    -4864    -5109    -5381    -5701    -6018    -6276 
   -6453    -6546    -6565    -6534    -6477    -6412    -6361    -6346 
   -6351    -6308    -6143    -5832    -5412    -5007    -4752    -4671 
   -4676    -4634    -4469    -4239    -4055    -3928    -3767    -3499 
   -3107    -2648    -2262    -2074    -2088    -2228    -2416    -2567 
   -2625    -2613    -2631    -2762    -2987    -3204    -3348    -3411 
   -3456    -3561    -3770    -4062    -4361    -4588    -4656    -4540 
   -4311    -4066    -3858    -3732    -3676    -3595    -3404    -3083 
   -2701    -2425    -2358    -2431    -2475    -2388    -2205    -2047 
   -2047    -2281    -2714    -3242    -3763    -4201    -4561    -4892 
   -5196    -5435    -5537    -5459    -5239    -4984    -4811    -4753 
   -4762    -4777    -4741    -4633    -4491    -4368    -4261    -4114 
   -3900    -3662    -3450    -3292    -3242    -3364    -3666    -4055 
   -4383    -4572    -4672    -4760    -4830    -4853    -4838    -4812 
   -4796    -4781    -4735    -4669    -4608    -4549    -4488    -4446 
   -4461    -4567    -4750    -5000    -5305    -5575    -5724    -5730 
   -5603    -5395    -5189    -5003    -4803    -4538    -4172    -3765 
   -3454    -3346    -3422    -3588    -3773    -3947    -4106    -4271 
   -4429    -4550    -4615    -4622    -4584    -4519    -4453    -4438 
   -4477    -4503    -4453    -4324    -4159    -4052    -4060    -4136 
   -4193    -4183    -4059    -3790    -3453    -3190    -3078    -3105 
   -3191    -3196    -3028    -2731    -2415    -2197    -2180    -2367 
   -2635    -2839    -2932    -2940    -2920    -2947    -3024    -3063 
   -3003    -2891    -2822    -2863    -3046    -3345    -3659    -3920 
   -4105    -4187    -4167    -4102    -4027    -3956    -3944    -4033 
   -4183    -4305    -4361    -4378    -4394    -4433    -4455    -4356 
   -4078    -3697    -3365    -3204    -3234    -3356    -3446    -3460 
   -3466    -3553    -3712    -3896    -4051    -4104    -4024    -3858 
   -3669    -3497    -3364    -3248    -3141    -3082    -3080    -3118 
   -3196    -3312    -3456    -3619    -3773    -3912    -4035    -4101 
   -4052    -3865    -3595    -3353    -3176    -2999    -2770    -2496 
   -2236    -2073    -2025    -2030    -2020    -1968    -1908    -1856 
   -1798    -1771    -1833    -2004    -2266    -2569    -2883    -3253 
   -3717    -4234    -4729    -5142    -5428    -5566    -5563    -5464 
   -5368    -5360    -5427    -5479    -5428    -5260    -5051    -4873 
   -4761    -4756    -4881    -5125    -5422    -5678    -5825    -5863 
   -5822    -5745    -5668    -5594    -5468    -5271    -5022    -4735 
   -4438    -4199    -4090    -4124    -4237    -4352    -4383    -4276 
   -4083    -3901    -3750    -3609    -3483    -3376    -3294    -3240 
   -3213    -3203    -3187    -3118    -2961    -2729    -2492    -2335 
   -2263    -2192    -2054    -1879    -1744    -1772    -2042    -2467 
   -2863    -3133    -3284    -3365    -3427    -3499    -3584    -3661 
   -3719    -3755    -3751    -3705    -3654    -3632    -3639    -3659 
   -3699    -3774    -3873    -3933    -3879    -3726    -3595    -3612 
   -3820    -4135    -4407    -4556    -4603    -4603    -4599    -4604 
   -4602    -4572    -4534    -4513    -4494    -4446    -4383    -4329 
   -4290    -4278    -4314    -4413    -4581    -4800    -5012    -5174 
   -5290    -5398    -5494    -5545    -5556    -5560    -5587    -5624 
   -5607    -5458    -5157    -4766    -4386    -4087    -3900    -3808 
   -3759    -3681    -3523    -3292    -3072    -2978    -3052    -3237 
   -3418    -3474    -3395    -3260    -3156    -3142    -3264    -3511 
   -3805    -4062    -4268    -4433    -4522    -4504    -4430    -4410 
   -4540    -4804    -5069    -5205    -5189    -5059    -4842    -4556 
   -4230    -3897    -3561    -3223    -2926    -2752    -2755    -2901 
   -3090    -3248    -3357    -3446    -3570    -3775    -4048    -4307 
   -4499    -4677    -4916    -5229    -5590    -5910    -6080    -6056 
   -5869    -5598    -5348    -5209    -5193    -5233    -5278    -5304 
   -5300    -5279    -5255    -5211    -5148    -5105    -5093    -5086 
   -5089    -5092    -5054    -4969    -4843    -4660    -4421    -4178 
   -3952    -3735    -3510    -3264    -3001    -2763    -2639    -2695 
   -2899    -3134    -3306    -3397    -3446    -3496    -3569    -3686 
   -3900    -4193    -4459    -4621    -4692    -4727    -4762    -4784 
   -4779    -4738    -4629    -4448    -4244    -4081    -3993    -3935 
   -3869    -3820    -3785    -3712    -3589    -3451    -3366    -3373 
   -3426    -3454    -3420    -3350    -3334    -3427    -3605    -3856 
   -4174    -4495    -4737    -4853    -4866    -4861    -4900    -4958 
   -4973    -4927    -4841    -4712    -4530    -4313    -4067    -3798 
   -3558    -3412    -3396    -3512    -3738    -4006    -4251    -4434 
   -4523    -4515    -4456    -4365    -4233    -4077    -3910    -3717 
   -3504    -3338    -3281    -3330    -3434    -3543    -3628    -3685 
   -3692    -3618    -3489    -3370    -3315    -3342    -3411    -3465 
   -3480    -3472    -3493    -3593    -3774    -4016    -4287    -4500 
   -4588    -4568    -4488    -4406    -4347    -4279    -4151    -3960 
   -3778    -3657    -3581    -3508    -3404    -3284    -3221    -3254 
   -3337    -3373    -3321    -3202    -3071    -2983    -2947    -2914 
   -2890    -2926    -3057    -3291    -3622    -3998    -4357    -4645 
   -4814    -4854    -4803    -4704    -4568    -4390    -4206    -4063 
   -3986    -3989    -4079    -4230    -4360    -4388    -4325    -4252 
   -4252    -4374    -4572    -4746    -4835    -4814    -4696    -4571 
   -4534    -4614    -4762    -4905    -4954    -4858    -4661    -4441 
   -4220    -3969    -3682    -3364    -3044    -2799    -2695    -2698 
   -2718    -2700    -2659    -2671    -2778    -2934    -3092    -3253 
   -3443    -3682    -3958    -4232    -4463    -4619    -4688    -4672 
   -4579    -4415    -4213    -4010    -3821    -3639    -3478    -3362 
   -3302    -3307    -3361    -3414    -3430    -3377    -3258    -3141 
   -3091    -3137    -3265    -3446    -3673    -3952    -4298    -4706 
   -5139    -5552    -5884    -6053    -6043    -5930    -5817    -5778 
   -5817    -5863    -5838    -5726    -5570    -5413    -5296    -5235 
   -5215    -5217    -5258    -5341    -5436    -5501    -5514    -5489 
   -5475    -5543    -5706    -5913    -6079    -6158    -6161    -6106 
   -5998    -5834    -5594    -5298    -5046    -4907    -4849    -4799 
   -4689    -4498    -4286    -4148    -4117    -4158    -4213    -4224 
   -4168    -4097    -4085    -4174    -4338    -4495    -4567    -4540 
   -4479    -4460    -4517    -4665    -4897    -5150    -5352    -5490 
   -5575    -5620    -5617    -5514    -5269    -4908    -4494    -4059 
   -3609    -3159    -2736    -2389    -2158    -2015    -1899    -1806 
   -1760    -1763    -1795    -1844    -1890    -1884    -1794    -1651 
   -1514    -1443    -1460    -1520    -1553    -1547    -1521    -1478 
   -1417    -1367    -1345    -1339    -1327    -1275    -1179    -1089 
   -1055    -1058    -1067    -1082    -1109    -1140    -1174    -1217 
   -1271    -1348    -1474    -1664    -1902    -2151    -2365    -2515 
   -2601    -2651    -2687    -2710    -2731    -2752    -2771    -2793 
   -2845    -2945    -3098    -3319    -3568    -3747    -3823    -3847 
   -3882    -3948    -4021    -4062    -4056    -4041    -4055    -4113 
   -4224    -4391    -4583    -4737    -4800    -4780    -4737    -4725 
   -4758    -4838    -4962    -5147    -5432    -5838    -6349    -6924 
   -7481    -7928    -8203    -8297    -8247    -8118    -7974    -7879 
   -7850    -7817    -7724    -7584    -7435    -7295    -7155    -6993 
   -6771    -6448    -6012    -5498    -4969    -4515    -4214    -4081 
   -4060    -4098    -4175    -4301    -4499    -4762    -5049    -5358 
   -5732    -6145    -6493    -6698    -6781    -6791    -6731    -6586 
   -6355    -6048    -5721    -5445    -5250    -5128    -5038    -4928 
   -4785    -4618    -4445    -4255    -3991    -3645    -3264    -2874 
   -2484    -2095    -1699    -1325    -1012     -769     -598     -513 
    -511     -561     -649     -776     -931    -1132    -1399    -1734 
   -2151    -2620    -3051    -3397    -3650    -3809    -3896    -3937 
   -3950    -3913    -3790    -3609    -3469    -3445    -3543    -3721 
   -3933    -4148    -4336    -4473    -4558    -4563    -4467    -4310 
   -4149    -4008    -3888    -3797    -3770    -3812    -3871    -3890 
   -3863    -3847    -3874    -3942    -4082    -4303    -4558    -4831 
   -5134    -5413    -5618    -5782    -5960    -6173    -6393    -6567 
   -6652    -6646    -6570    -6455    -6315    -6158    -5995    -5845 
   -5734    -5665    -5603    -5498    -5305    -5012    -4635    -4245 
   -3946    -3769    -3646    -3516    -3387    -3300    -3303    -3414 
   -3599    -3798    -3971    -4097    -4156    -4180    -4210    -4276 
   -4396    -4514    -4541    -4453    -4313    -4249    -4340    -4529 
   -4689    -4710    -4518    -4104    -3515    -2849    -2185    -1574 
   -1069     -708     -496     -421     -484     -675     -958    -1327 
   -1780    -2289    -2824    -3366    -3883    -4342    -4716    -5009 
   -5240    -5413    -5530    -5597    -5614    -5599    -5572    -5537 
   -5475    -5371    -5251    -5155    -5082    -4990    -4853    -4673 
   -4471    -4251    -4020    -3788    -3565    -3375    -3261    -3246 
   -3289    -3316    -3292    -3237    -3196    -3195    -3256    -3393 
   -3608    -3867    -4122    -4322    -4468    -4575    -4637    -4661 
   -4671    -4666    -4654    -4650    -4617    -4513    -4368    -4229 
   -4118    -4045    -3994    -3947    -3902    -3859    -3835    -3852 
   -3906    -3985    -4060    -4102    -4093    -4025    -3923    -3836 
   -3817    -3874    -3969    -4063    -4124    -4126    -4077    -3998 
   -3909    -3820    -3746    -3708    -3730    -3800    -3856    -3870 
   -3893    -3966    -4094    -4260    -4423    -4557    -4637    -4635 
   -4564    -4452    -4325    -4202    -4058    -3846    -3570    -3275 
   -3019    -2855    -2817    -2891    -3028    -3188    -3349    -3503 
   -3685    -3944    -4252    -4553    -4824    -5088    -5406    -5809 
   -6204    -6453    -6493    -6359    -6111    -5814    -5503    -5189 
   -4895    -4618    -4321    -3981    -3604    -3221    -2886    -2648 
   -2528    -2506    -2543    -2605    -2675    -2733    -2771    -2801 
   -2843    -2914    -3028    -3183    -3341    -3469    -3573    -3638 
   -3643    -3627    -3627    -3619    -3573    -3489    -3368    -3233 
   -3113    -3018    -2953    -2905    -2821    -2655    -2405    -2104 
   -1800    -1524    -1298    -1154    -1124    -1221    -1440    -1773 
   -2207    -2714    -3275    -3850    -4396    -4907    -5377    -5787 
   -6130    -6420    -6689    -6974    -7300    -7634    -7894    -8050 
   -8144    -8226    -8297    -8305    -8199    -7990    -7755    -7558 
   -7381    -7179    -6925    -6606    -6223    -5796    -5348    -4915 
   -4525    -4159    -3804    -3476    -3169    -2857    -2559    -2308 
   -2138    -2106    -2246    -2515    -2852    -3202    -3519    -3794 
   -4035    -4239    -4402    -4502    -4515    -4433    -4270    -4048 
   -3798    -3526    -3210    -2860    -2515    -2173    -1821    -1452 
   -1051     -631     -251       60      288      422      517      641 
     787      918     1005     1024      972      849      657      391 
      40     -390     -885    -1429    -2002    -2597    -3218    -3838 
   -4425    -4953    -5393    -5703    -5842    -5834    -5748    -5611 
   -5428    -5200    -4934    -4653    -4382    -4132    -3902    -3694 
   -3497    -3279    -3053    -2875    -2783    -2801    -2906    -3041 
   -3168    -3302    -3473    -3677    -3888    -4122    -4418    -4780 
   -5190    -5614    -6019    -6400    -6782    -7159    -7506    -7811 
   -8041    -8145    -8085    -7873    -7596    -7323    -7024    -6683 
   -6332    -6004    -5741    -5563    -5466    -5441    -5431    -5359 
   -5217    -5049    -4901    -4837    -4903    -5086    -5325    -5553 
   -5737    -5865    -5941    -5961    -5903    -5780    -5644    -5530 
   -5429    -5297    -5127    -4953    -4806    -4684    -4580    -4480 
   -4359    -4197    -4000    -3778    -3538    -3288    -3036    -2798 
   -2571    -2324    -2034    -1698    -1321     -931     -567     -252 
      -4      153      216      202      110      -71     -330     -635 
    -949    -1232    -1474    -1691    -1890    -2079    -2289    -2532 
   -2778    -2984    -3144    -3260    -3322    -3337    -3308    -3221 
   -3110    -3042    -3022    -3051    -3165    -3381    -3670    -4002 
   -4344    -4665    -4955    -5225    -5493    -5755    -5995    -6207 
   -6393    -6556    -6682    -6737    -6716    -6644    -6555    -6447 
   -6281    -6048    -5783    -5524    -5297    -5121    -4989    -4880 
   -4764    -4611    -4449    -4318    -4225    -4159    -4102    -4043 
   -3998    -4004    -4098    -4261    -4411    -4511    -4575    -4633 
   -4729    -4884    -5049    -5159    -5200    -5181    -5113    -5030 
   -4955    -4905    -4916    -5001    -5117    -5225    -5316    -5393 
   -5454    -5478    -5468    -5456    -5479    -5547    -5652    -5761 
   -5841    -5845    -5734    -5522    -5269    -5000    -4702    -4372 
   -4021    -3646    -3268    -2934    -2664    -2484    -2408    -2416 
   -2479    -2589    -2736    -2895    -3041    -3179    -3325    -3476 
   -3624    -3765    -3889    -3997    -4105    -4221    -4313    -4353 
   -4351    -4333    -4328    -4329    -4314    -4284    -4271    -4266 
   -4230    -4144    -4032    -3939    -3893    -3882    -3862    -3801 
   -3712    -3627    -3561    -3526    -3543    -3603    -3669    -3716 
   -3739    -3746    -3775    -3843    -3929    -4008    -4064    -4098 
   -4128    -4193    -4321    -4509    -4733    -4961    -5167    -5332 
   -5458    -5548    -5587    -5556    -5443    -5255    -5016    -4752 
   -4487    -4237    -4005    -3773    -3520    -3272    -3065    -2907 
   -2778    -2666    -2577    -2523    -2523    -2597    -2728    -2901 
   -3136    -3449    -3809    -4179    -4517    -4780    -4965    -5105 
   -5212    -5286    -5332    -5351    -5347    -5337    -5355    -5406 
   -5440    -5382    -5193    -4880    -4484    -4059    -3643    -3262 
   -2944    -2694    -2509    -2409    -2401    -2447    -2493    -2531 
   -2575    -2651    -2751    -2829    -2870    -2930    -3071    -3285 
   -3547    -3828    -4105    -4352    -4556    -4725    -4877    -5022 
   -5158    -5266    -5320    -5333    -5321    -5286    -5211    -5066 
   -4823    -4473    -4044    -3582    -3113    -2683    -2343    -2096 
   -1923    -1823    -1788    -1791    -1794    -1798    -1841    -1960 
   -2161    -2415    -2662    -2898    -3196    -3593    -4066    -4576 
   -5057    -5449    -5748    -5973    -6161    -6351    -6542    -6682 
   -6694    -6546    -6273    -5941    -5614    -5340    -5121    -4927 
   -4729    -4504    -4253    -4001    -3786    -3631    -3532    -3474 
   -3423    -3369    -3345    -3358    -3383    -3414    -3441    -3460 
   -3512    -3616    -3748    -3896    -4052    -4214    -4405    -4621 
   -4810    -4927    -4976    -4972    -4931    -4874    -4814    -4756 
   -4702    -4648    -4572    -4472    -4386    -4338    -4324    -4334 
   -4365    -4419    -4480    -4526    -4546    -4531    -4479    -4394 
   -4276    -4135    -3994    -3879    -3819    -3815    -3842    -3851 
   -3809    -3720    -3608    -3488    -3354    -3208    -3057    -2895 
   -2722    -2551    -2388    -2246    -2134    -2056    -2038    -2101 
   -2227    -2390    -2578    -2778    -2964    -3125    -3273    -3422 
   -3561    -3680    -3773    -3840    -3906    -4002    -4122    -4248 
   -4363    -4452    -4514    -4548    -4552    -4523    -4446    -4337 
   -4255    -4233    -4261    -4297    -4266    -4143    -3959    -3757 
   -3564    -3408    -3303    -3238    -3213    -3245    -3338    -3484 
   -3676    -3906    -4152    -4382    -4564    -4687    -4762    -4819 
   -4861    -4872    -4853    -4818    -4766    -4718    -4710    -4730 
   -4746    -4756    -4747    -4696    -4600    -4457    -4249    -3979 
   -3680    -3379    -3109    -2910    -2797    -2744    -2718    -2708 
   -2704    -2687    -2652    -2594    -2500    -2398    -2336    -2344 
   -2436    -2609    -2852    -3152    -3487    -3836    -4187    -4538 
   -4889    -5215    -5483    -5702    -5886    -6033    -6157    -6259 
   -6313    -6300    -6231    -6131    -6026    -5917    -5799    -5668 
   -5544    -5433    -5308    -5140    -4922    -4652    -4340    -4024 
   -3742    -3491    -3246    -3014    -2808    -2632    -2506    -2438 
   -2394    -2358    -2327    -2312    -2328    -2385    -2467    -2563 
   -2664    -2768    -2857    -2921    -2971    -3024    -3067    -3073 
   -3045    -3006    -3002    -3064    -3176    -3302    -3412    -3496 
   -3555    -3605    -3653    -3678    -3663    -3619    -3559    -3489 
   -3408    -3323    -3235    -3146    -3060    -2976    -2914    -2890 
   -2874    -2822    -2744    -2670    -2644    -2708    -2866    -3079 
   -3310    -3543    -3771    -3974    -4144    -4288    -4401    -4477 
