Origin Time       2025/01/13 21:19:00
Lat.              31.8
Long.             131.6
Depth. (km)       30
Mag.              6.9
Station Code      KMM020
Station Lat.      32.3636
Station Long.     130.1807
Station Height(m) 10
Record Time       2025/01/13 21:20:12
Sampling Freq(Hz) 100Hz
Duration Time(s)  81
Dir.              N-S
Scale Factor      7845(gal)/8223790
Max. Acc. (gal)   2.389
Last Correction   2025/01/13 21:20:13
Memo.             
[...]
   -4321    -4272    -4187    -4156    -4149    -4098    -4060    -4033 
   -3951    -3850    -3778    -3751    -3746    -3724    -3746    -3816 
   -3866    -3925    -3990    -3958    -3861    -3816    -3804    -3781 
   -3767    -3746    -3730    -3720    -3678    -3612    -3519    -3391 
   -3264    -3167    -3099    -3018    -2905    -2820    -2776    -2722 
   -2643    -2554    -2485    -2481    -2540    -2617    -2675    -2663 
   -2575    -2511    -2479    -2394    -2307    -2299    -2357    -2450 
   -2570    -2724    -2880    -3025    -3221    -3435    -3576    -3601 
   -3501    -3302    -3088    -2930    -2853    -2825    -2752    -2647 
   -2578    -2489    -2408    -2397    -2380    -2332    -2301    -2347 
   -2470    -2586    -2721    -2889    -2980    -3038    -3140    -3219 
   -3241    -3260    -3319    -3375    -3380    -3391    -3391    -3276 
   -3136    -3053    -2928    -2809    -2781    -2725    -2724    -2883 
   -3037    -3199    -3422    -3546    -3603    -3669    -3666    -3653 
   -3678    -3653    -3624    -3636    -3593    -3534    -3524    -3489 
   -3431    -3426    -3422    -3322    -3136    -2943    -2771    -2624 
   -2538    -2515    -2498    -2505    -2575    -2664    -2743    -2812 
   -2805    -2736    -2697    -2663    -2633    -2639    -2577    -2475 
   -2431    -2323    -2124    -1939    -1730    -1543    -1486    -1486 
   -1487    -1516    -1559    -1626    -1760    -1981    -2305    -2702 
   -3111    -3473    -3726    -3855    -3927    -3929    -3855    -3794 
   -3738    -3662    -3670    -3746    -3808    -3862    -3889    -3908 
   -3937    -3937    -3906    -3885    -3894    -3898    -3854    -3789 
   -3726    -3651    -3573    -3501    -3407    -3291    -3198    -3117 
   -3026    -2955    -2917    -2894    -2883    -2891    -2848    -2739 
   -2621    -2502    -2403    -2305    -2168    -2035    -1950    -1953 
   -2060    -2169    -2238    -2308    -2382    -2469    -2581    -2704 
   -2795    -2832    -2821    -2737    -2589    -2467    -2409    -2380 
   -2396    -2439    -2416    -2324    -2219    -2112    -2012    -1925 
   -1836    -1757    -1760    -1869    -1973    -1989    -1992    -1960 
   -1881    -1857    -1807    -1738    -1782    -1858    -1946    -2099 
   -2249    -2408    -2620    -2832    -3019    -3159    -3215    -3211 
   -3210    -3260    -3307    -3318    -3346    -3372    -3358    -3353 
   -3358    -3389    -3477    -3572    -3677    -3782    -3804    -3821 
   -3905    -3966    -4033    -4131    -4162    -4152    -4151    -4124 
   -4054    -3958    -3923    -3983    -4081    -4251    -4456    -4581 
   -4685    -4789    -4826    -4849    -4866    -4854    -4851    -4851 
   -4868    -4919    -4977    -5001    -4959    -4860    -4749    -4662 
   -4604    -4534    -4449    -4351    -4190    -3982    -3757    -3487 
   -3208    -2952    -2693    -2442    -2180    -1850    -1532    -1294 
   -1120    -1065    -1158    -1325    -1507    -1690    -1844    -1923 
   -1949    -1991    -2062    -2150    -2297    -2494    -2656    -2760 
   -2798    -2733    -2621    -2556    -2577    -2667    -2814    -2986 
   -3094    -3126    -3123    -3056    -2932    -2852    -2848    -2845 
   -2801    -2756    -2725    -2722    -2803    -2945    -3063    -3148 
   -3221    -3260    -3267    -3267    -3211    -3073    -2953    -2874 
   -2789    -2755    -2790    -2855    -2982    -3171    -3342    -3429 
   -3435    -3418    -3383    -3366    -3447    -3566    -3665    -3811 
   -3967    -4037    -4056    -4098    -4132    -4139    -4139    -4094 
   -4012    -3923    -3774    -3588    -3404    -3207    -3068    -3005 
   -2937    -2878    -2855    -2826    -2764    -2705    -2678    -2639 
   -2621    -2640    -2602    -2536    -2500    -2430    -2358    -2340 
   -2305    -2239    -2176    -2106    -2049    -1992    -1925    -1869 
   -1798    -1726    -1680    -1624    -1572    -1559    -1590    -1648 
   -1696    -1750    -1811    -1849    -1925    -2045    -2126    -2195 
   -2274    -2313    -2362    -2436    -2474    -2521    -2608    -2685 
   -2722    -2689    -2623    -2558    -2486    -2447    -2447    -2454 
   -2474    -2570    -2758    -2957    -3184    -3446    -3607    -3659 
   -3700    -3719    -3748    -3850    -3978    -4108    -4225    -4278 
   -4270    -4176    -4004    -3885    -3798    -3711    -3742    -3812 
   -3832    -3870    -3863    -3812    -3780    -3755    -3788    -3869 
   -3971    -4110    -4229    -4341    -4433    -4417    -4353    -4284 
   -4166    -4024    -3893    -3770    -3654    -3493    -3268    -3056 
   -2878    -2731    -2683    -2744    -2839    -2914    -2976    -3057 
   -3121    -3126    -3113    -3068    -2991    -2957    -2943    -2878 
   -2830    -2848    -2856    -2887    -2984    -3033    -3051    -3134 
   -3173    -3152    -3196    -3250    -3273    -3383    -3559    -3669 
   -3732    -3834    -3915    -3924    -3935    -3979    -3962    -3858 
   -3715    -3512    -3242    -2980    -2770    -2574    -2371    -2216 
   -2124    -2034    -1949    -1884    -1791    -1728    -1710    -1661 
   -1615    -1563    -1437    -1313    -1239    -1165    -1096    -1104 
   -1167    -1220    -1306    -1417    -1444    -1453    -1547    -1630 
   -1678    -1764    -1831    -1873    -1952    -2038    -2111    -2165 
   -2196    -2270    -2425    -2643    -2886    -3080    -3218    -3337 
   -3423    -3501    -3627    -3774    -3933    -4114    -4221    -4257 
   -4309    -4298    -4202    -4121    -4093    -4110    -4164    -4210 
   -4209    -4152    -4048    -3937    -3844    -3717    -3580    -3492 
   -3431    -3377    -3339    -3322    -3291    -3218    -3188    -3242 
   -3295    -3346    -3377    -3312    -3198    -3086    -2943    -2828 
   -2759    -2678    -2620    -2551    -2466    -2501    -2610    -2720 
   -2890    -3042    -3157    -3311    -3445    -3547    -3624    -3615 
   -3568    -3516    -3427    -3330    -3230    -3114    -3044    -3022 
   -3005    -2972    -2909    -2812    -2721    -2637    -2525    -2424 
   -2380    -2331    -2245    -2188    -2166    -2107    -2023    -1973 
   -1910    -1811    -1779    -1865    -2014    -2146    -2228    -2285 
   -2300    -2265    -2269    -2334    -2377    -2438    -2567    -2650 
   -2677    -2736    -2818    -2926    -3073    -3250    -3410    -3489 
   -3524    -3547    -3487    -3352    -3249    -3188    -3159    -3208 
   -3295    -3354    -3433    -3555    -3716    -3859    -3916    -3987 
   -4077    -4099    -4166    -4286    -4352    -4433    -4523    -4545 
   -4544    -4488    -4355    -4259    -4205    -4158    -4186    -4272 
   -4322    -4326    -4302    -4224    -4113    -4028    -3943    -3843 
   -3763    -3650    -3515    -3458    -3399    -3241    -3110    -3029 
   -2911    -2816    -2749    -2589    -2344    -2122    -1912    -1699 
   -1506    -1364    -1293    -1255    -1209    -1177    -1147    -1123 
   -1152    -1243    -1359    -1487    -1671    -1903    -2122    -2338 
   -2535    -2651    -2747    -2898    -3068    -3198    -3279    -3343 
   -3377    -3373    -3379    -3396    -3415    -3457    -3511    -3553 
   -3555    -3530    -3547    -3593    -3615    -3680    -3758    -3734 
   -3701    -3720    -3684    -3611    -3565    -3524    -3497    -3496 
   -3504    -3519    -3543    -3568    -3585    -3581    -3520    -3416 
   -3314    -3188    -3003    -2809    -2658    -2531    -2454    -2415 
   -2349    -2304    -2297    -2326    -2423    -2529    -2613    -2690 
   -2706    -2693    -2693    -2687    -2710    -2797    -2909    -2975 
   -3024    -3114    -3218    -3375    -3604    -3758    -3809    -3908 
   -4050    -4135    -4224    -4367    -4455    -4483    -4548    -4587 
   -4510    -4391    -4299    -4156    -3969    -3831    -3711    -3572 
   -3462    -3357    -3218    -3052    -2891    -2793    -2764    -2756 
   -2729    -2698    -2617    -2451    -2311    -2236    -2146    -2088 
   -2095    -2076    -2030    -1995    -1945    -1921    -1950    -1988 
   -2049    -2128    -2178    -2212    -2228    -2227    -2270    -2342 
   -2370    -2347    -2289    -2230    -2212    -2249    -2332    -2427 
   -2511    -2609    -2720    -2805    -2875    -2952    -2998    -3029 
   -3095    -3171    -3215    -3273    -3379    -3487    -3600    -3735 
   -3861    -3974    -4044    -4039    -3986    -3877    -3762    -3730 
   -3748    -3784    -3825    -3817    -3759    -3716    -3716    -3738 
   -3757    -3723    -3607    -3456    -3314    -3200    -3141    -3122 
   -3103    -3046    -2934    -2795    -2655    -2566    -2502    -2378 
   -2269    -2220    -2155    -2128    -2147    -2106    -2047    -2039 
   -2076    -2153    -2207    -2239    -2301    -2357    -2442    -2575 
   -2656    -2709    -2771    -2795    -2785    -2747    -2706    -2712 
   -2732    -2762    -2821    -2832    -2775    -2787    -2859    -2914 
   -3034    -3191    -3241    -3208    -3195    -3168    -3118    -3140 
   -3222    -3284    -3349    -3429    -3488    -3543    -3639    -3742 
   -3790    -3798    -3821    -3848    -3834    -3801    -3767    -3738 
   -3739    -3734    -3707    -3662    -3572    -3454    -3306    -3157 
   -3072    -3010    -2957    -2952    -2910    -2787    -2693    -2616 
   -2511    -2478    -2498    -2511    -2601    -2741    -2866    -2968 
   -3007    -3006    -2991    -2980    -3009    -3037    -3080    -3154 
   -3196    -3203    -3188    -3142    -3111    -3119    -3146    -3165 
   -3157    -3111    -3060    -3037    -2999    -2937    -2856    -2751 
   -2677    -2623    -2554    -2527    -2536    -2554    -2589    -2650 
   -2764    -2916    -3069    -3181    -3159    -3024    -2853    -2689 
   -2585    -2500    -2398    -2330    -2265    -2228    -2274    -2334 
   -2388    -2473    -2575    -2690    -2829    -2956    -3029    -3073 
   -3132    -3159    -3161    -3234    -3327    -3361    -3416    -3500 
   -3549    -3604    -3701    -3817    -3923    -4002    -4068    -4093 
   -4095    -4125    -4162    -4212    -4311    -4421    -4479    -4507 
   -4533    -4500    -4437    -4415    -4371    -4301    -4271    -4252 
   -4239    -4240    -4230    -4222    -4259    -4344    -4409    -4418 
   -4396    -4297    -4162    -4104    -4016    -3842    -3712    -3581 
   -3384    -3244    -3146    -3018    -2932    -2880    -2785    -2673 
   -2574    -2439    -2290    -2188    -2101    -1984    -1861    -1728 
   -1533    -1308    -1119     -985     -950    -1030    -1165    -1323 
   -1491    -1645    -1814    -1980    -2097    -2242    -2447    -2632 
   -2799    -2965    -2995    -2905    -2871    -2824    -2714    -2668 
   -2654    -2623    -2624    -2641    -2682    -2733    -2767    -2802 
   -2867    -2963    -3071    -3188    -3280    -3307    -3319    -3323 
   -3268    -3234    -3256    -3227    -3187    -3198    -3172    -3167 
   -3252    -3310    -3352    -3412    -3379    -3303    -3244    -3127 
   -3011    -2897    -2732    -2602    -2517    -2478    -2542    -2641 
   -2710    -2747    -2687    -2520    -2330    -2154    -1977    -1844 
   -1764    -1710    -1707    -1703    -1634    -1548    -1445    -1328 
   -1247    -1192    -1150    -1146    -1181    -1242    -1359    -1570 
   -1790    -1973    -2209    -2473    -2681    -2863    -3019    -3115 
   -3183    -3233    -3240    -3226    -3231    -3234    -3245    -3271 
   -3241    -3187    -3191    -3215    -3256    -3391    -3568    -3701 
   -3848    -4012    -4072    -4050    -4023    -3933    -3800    -3758 
   -3790    -3763    -3681    -3616    -3550    -3472    -3456    -3551 
   -3684    -3774    -3900    -4085    -4207    -4291    -4407    -4473 
   -4488    -4569    -4704    -4793    -4849    -4885    -4816    -4644 
   -4490    -4390    -4291    -4226    -4226    -4195    -4087    -3967 
   -3836    -3686    -3564    -3466    -3360    -3229    -3107    -3061 
   -3034    -2967    -2926    -2902    -2848    -2813    -2814    -2839 
   -2876    -2921    -3002    -3119    -3246    -3395    -3574    -3765 
   -3900    -3982    -4060    -4052    -3947    -3865    -3763    -3573 
   -3396    -3265    -3118    -2990    -2936    -2902    -2895    -2983 
   -3084    -3136    -3222    -3343    -3462    -3611    -3747    -3863 
   -3977    -4016    -4012    -4029    -4005    -3974    -4020    -4085 
   -4101    -4083    -4036    -3917    -3740    -3619    -3539    -3426 
   -3348    -3291    -3172    -3025    -2855    -2643    -2432    -2255 
   -2133    -2056    -2019    -2050    -2112    -2165    -2243    -2332 
   -2396    -2432    -2438    -2419    -2343    -2238    -2169    -2110 
   -2049    -2031    -2019    -1972    -1929    -1867    -1732    -1598 
   -1491    -1408    -1467    -1637    -1837    -2157    -2527    -2833 
   -3164    -3503    -3774    -4027    -4266    -4415    -4461    -4419 
   -4278    -4071    -3823    -3520    -3198    -2899    -2656    -2473 
   -2334    -2242    -2181    -2137    -2087    -2012    -1954    -1915 
   -1872    -1860    -1894    -1935    -1973    -2049    -2157    -2247 
   -2362    -2492    -2569    -2647    -2708    -2667    -2555    -2390 
   -2166    -1939    -1759    -1630    -1536    -1493    -1536    -1637 
   -1761    -1900    -2016    -2110    -2181    -2239    -2323    -2373 
   -2355    -2385    -2428    -2377    -2319    -2273    -2182    -2118 
   -2079    -2049    -2057    -2072    -2131    -2258    -2353    -2436 
   -2570    -2708    -2817    -2909    -2992    -3022    -3018    -3094 
   -3211    -3292    -3454    -3743    -4028    -4329    -4691    -4974 
   -5169    -5325    -5383    -5420    -5478    -5487    -5499    -5537 
   -5486    -5381    -5305    -5202    -5032    -4830    -4606    -4382 
   -4183    -4059    -4006    -3927    -3844    -3807    -3742    -3646 
   -3561    -3470    -3384    -3358    -3410    -3450    -3466    -3489 
   -3480    -3458    -3466    -3456    -3437    -3433    -3393    -3337 
   -3281    -3171    -3024    -2895    -2744    -2575    -2447    -2316 
   -2128    -1969    -1829    -1624    -1458    -1368    -1258    -1151 
   -1097    -1078    -1097    -1216    -1429    -1653    -1875    -2091 
   -2268    -2411    -2560    -2717    -2808    -2868    -2960    -3005 
   -3021    -3092    -3156    -3177    -3171    -3121    -3049    -2953 
   -2857    -2836    -2860    -2907    -3009    -3107    -3199    -3314 
   -3400    -3497    -3662    -3836    -4021    -4202    -4268    -4240 
   -4221    -4166    -4041    -3929    -3817    -3674    -3526    -3369 
   -3240    -3126    -2995    -2922    -2905    -2868    -2839    -2822 
   -2770    -2701    -2695    -2748    -2822    -2956    -3141    -3279 
   -3349    -3380    -3353    -3306    -3308    -3339    -3335    -3287 
   -3223    -3126    -2976    -2843    -2754    -2681    -2670    -2720 
   -2767    -2793    -2782    -2774    -2817    -2884    -2997    -3175 
   -3366    -3542    -3709    -3851    -3939    -4016    -4116    -4189 
   -4244    -4306    -4324    -4311    -4330    -4355    -4330    -4282 
   -4217    -4075    -3890    -3711    -3520    -3346    -3235    -3164 
   -3095    -3069    -3107    -3156    -3219    -3275    -3267    -3241 
   -3199    -3141    -3100    -2998    -2849    -2729    -2559    -2392 
   -2330    -2272    -2204    -2197    -2214    -2214    -2227    -2289 
   -2367    -2411    -2462    -2559    -2656    -2791    -2984    -3156 
   -3311    -3483    -3639    -3801    -3964    -4054    -4075    -4101 
   -4099    -4035    -3944    -3832    -3676    -3522    -3393    -3237 
   -3024    -2779    -2493    -2192    -1957    -1769    -1601    -1486 
   -1387    -1269    -1132     -969     -820     -727     -692     -706 
    -734     -796     -916    -1048    -1208    -1406    -1547    -1609 
   -1676    -1729    -1713    -1682    -1664    -1595    -1498    -1455 
   -1424    -1358    -1354    -1431    -1472    -1499    -1609    -1749 
   -1879    -2065    -2265    -2376    -2450    -2569    -2693    -2790 
   -2921    -3099    -3229    -3311    -3456    -3585    -3603    -3665 
   -3794    -3855    -3919    -4002    -4005    -4000    -4041    -4082 
   -4147    -4225    -4311    -4444    -4579    -4708    -4839    -4927 
   -5000    -5055    -5055    -5039    -5009    -4970    -4938    -4851 
   -4706    -4546    -4360    -4185    -4060    -3928    -3784    -3651 
   -3501    -3331    -3161    -3003    -2870    -2779    -2709    -2640 
   -2604    -2578    -2547    -2563    -2578    -2539    -2516    -2524 
   -2536    -2563    -2592    -2596    -2577    -2562    -2551    -2551 
   -2546    -2527    -2538    -2573    -2555    -2484    -2424    -2339 
   -2172    -2031    -1966    -1876    -1813    -1891    -2034    -2161 
   -2344    -2573    -2733    -2855    -3009    -3137    -3199    -3257 
   -3333    -3377    -3391    -3404    -3414    -3418    -3447    -3489 
   -3535    -3620    -3742    -3906    -4094    -4198    -4214    -4232 
   -4234    -4198    -4214    -4295    -4334    -4314    -4283    -4205 
   -4040    -3870    -3736    -3580    -3389    -3230    -3113    -2951 
   -2766    -2641    -2494    -2320    -2205    -2131    -2114    -2124 
   -2126    -2212    -2323    -2407    -2554    -2656    -2648    -2658 
   -2660    -2616    -2598    -2605    -2639    -2758    -2920    -3114 
   -3338    -3501    -3646    -3825    -3948    -4039    -4148    -4194 
   -4202    -4239    -4255    -4270    -4318    -4376    -4460    -4526 
   -4544    -4549    -4504    -4421    -4337    -4190    -4002    -3851 
   -3688    -3465    -3233    -3017    -2791    -2592    -2446    -2336 
   -2250    -2184    -2154    -2155    -2141    -2133    -2157    -2133 
   -2079    -2110    -2146    -2120    -2173    -2290    -2358    -2413 
   -2469    -2473    -2461    -2457    -2421    -2346    -2288    -2253 
   -2214    -2192    -2207    -2246    -2301    -2397    -2513    -2570 
   -2575    -2569    -2548    -2511    -2488    -2527    -2581    -2628 
   -2735    -2843    -2889    -2914    -2913    -2855    -2783    -2735 
   -2693    -2663    -2679    -2718    -2775    -2887    -3038    -3213 
   -3406    -3589    -3761    -3900    -3991    -4093    -4153    -4105 
   -4016    -3877    -3646    -3414    -3183    -2918    -2720    -2620 
   -2558    -2532    -2519    -2466    -2396    -2355    -2365    -2386 
   -2405    -2461    -2502    -2494    -2501    -2497    -2444    -2400 
   -2371    -2342    -2344    -2371    -2423    -2525    -2643    -2745 
   -2862    -2959    -3029    -3141    -3249    -3268    -3267    -3267 
   -3222    -3200    -3208    -3206    -3223    -3245    -3256    -3257 
   -3218    -3169    -3149    -3110    -3033    -2956    -2878    -2812 
   -2768    -2740    -2733    -2704    -2631    -2542    -2416    -2242 
   -2058    -1899    -1765    -1664    -1624    -1617    -1611    -1663 
   -1775    -1877    -1950    -2025    -2099    -2173    -2251    -2344 
   -2461    -2571    -2656    -2747    -2855    -2943    -3042    -3227 
   -3431    -3603    -3820    -4062    -4268    -4456    -4612    -4718 
   -4754    -4743    -4754    -4739    -4668    -4606    -4523    -4433 
   -4423    -4421    -4360    -4306    -4230    -4106    -3979    -3873 
   -3816    -3780    -3719    -3739    -3802    -3782    -3797    -3888 
   -3905    -3917    -4012    -4068    -4082    -4136    -4166    -4128 
   -4095    -4101    -4101    -4079    -4078    -4075    -4008    -3933 
   -3901    -3804    -3680    -3646    -3600    -3515    -3472    -3379 
