Origin Time       2025/01/13 21:19:00
Lat.              31.8
Long.             131.6
Depth. (km)       30
Mag.              6.9
Station Code      KMM011
Station Lat.      32.6166
Station Long.     130.8635
Station Height(m) 142
Record Time       2025/01/13 21:19:52
Sampling Freq(Hz) 100Hz
Duration Time(s)  119
Dir.              E-W
Scale Factor      7845(gal)/8223790
Max. Acc. (gal)   26.247
Last Correction   2025/01/13 21:19:52
Memo.             
[...]
   11997    10264     8604     7042     5618     4423     3562     3013 
    2628     2347     2235     2357     2758     3504     4626     6096 
    7944    10173    12394    14121    15314    16092    16447    16441 
   16092    15360    14316    13028    11533     9937     8397     7036 
    6019     5520     5444     5572     5915     6551     7408     8378 
    9362    10363    11469    12576    13501    14260    14891    15182 
   14908    14208    13460    12861    12424    12197    12132    12021 
   11747    11415    11092    10625     9902     9038     8190     7479 
    6987     6781     6906     7299     7875     8633     9640    10964 
   12573    14476    16619    18543    19854    20737    21300    21354 
   20904    20062    18901    17539    16044    14490    13103    12160 
   11709    11550    11539    11545    11265    10507     9441     8368 
    7380     6400     5386     4450     3873     3875     4321     4947 
    5657     6444     7250     7967     8625     9325     9976    10466 
   10822    10945    10643    10130     9888    10027    10242    10237 
    9984     9676     9445     9251     9099     9283    10227    11838 
   13381    14301    14650    14654    14462    14307    14373    14486 
   14388    14179    14084    14026    13892    14042    14848    16048 
   17224    18177    18670    18601    18165    17664    17315    17084 
   16912    16816    16629    16191    15533    14662    13594    12441 
   11310    10247     9235     8326     7677     7155     6411     5346 
    4175     3229     2763     2886     3635     4932     6544     8202 
    9612    10628    11384    12097    12899    13814    14821    15951 
   17143    18102    18573    18594    18430    18380    18562    18852 
   18997    18750    18023    16845    15210    13184    11047     9173 
    7780     6778     5987     5375     4993     4847     4857     4966 
    5275     5922     6906     8017     8895     9232     8916     8046 
    6897     5819     5120     4889     4977     5282     5881     6770 
    7767     8706     9535    10422    11661    13248    14897    16464 
   17944    19152    19840    20093    20198    20213    20052    19739 
   19373    19086    18890    18571    17905    16806    15245    13290 
   11261     9594     8421     7535     6804     6259     5880     5564 
    5271     5050     4918     4773     4488     4013     3373     2646 
    1969     1513     1489     2114     3300     4700     6147     7643 
    9038    10138    10972    11719    12567    13568    14519    15210 
   15622    15732    15557    15304    15256    15556    16171    16891 
   17405    17543    17431    17244    17019    16725    16262    15508 
   14473    13228    11742     9949     7986     6191     4806     3865 
    3485     3952     5374     7566    10300    13386    16498    19257 
   21536    23360    24749    25780    26523    26920    26809    25992 
   24413    22233    19565    16453    13350    10917     9219     7821 
    6351     4531     2324       18    -2373    -5188    -8128   -10320 
  -11453   -11587   -10590    -8530    -5738    -2484     1179     5243 
    9436    13506    17486    21293    24598    27183    28941    29652 
   29286    28065    26010    23242    20335    17809    15851    14254 
   12704    11475    10793    10156     9261     8343     7524     6886 
    6558     6435     6461     6855     7816     9250    10859    12414 
   13656    14330    14507    14424    14274    14268    14500    14931 
   15421    15708    15533    14786    13554    12017    10262     8334 
    6328     4369     2690     1529      940      804      980     1449 
    2168     2903     3464     3990     4791     5896     7113     8379 
    9641    10669    11292    11519    11453    11307    11250    11244 
   11290    11604    12228    12873    13325    13695    14207    14864 
   15527    16143    16688    17135    17471    17597    17371    16740 
   15670    14065    11951     9755     7979     6725     5823     5030 
    4077     2959     1918     1102      642      857     1895     3497 
    5431     7735    10350    13000    15493    17732    19743    21751 
   23692    25172    26149    26873    27342    27346    26775    25710 
   24318    22642    20636    18369    15912    13294    10709     8383 
    6291     4283     2351      634     -739    -1815    -2677    -3169 
   -3033    -2214     -745     1355     3890     6571     9217    11776 
   14343    17031    19696    22013    23828    25232    26234    26690 
   26535    25876    24807    23272    21255    18933    16606    14524 
   12771    11306    10139     9333     8885     8765     8907     9131 
    9308     9499     9745     9946    10027     9963     9722     9305 
    8772     8253     7832     7491     7196     6841     6191     5101 
    3775     2685     2178     2377     3360     4969     6708     8307 
    9918    11585    13170    14701    16233    17585    18557    19059 
   18997    18306    17176    16062    15249    14683    14334    14135 
   13778    13041    12033    10976    10072     9526     9347     9248 
    9065     9011     9185     9324     9294     9148     8830     8230 
    7325     6385     5825     5718     5894     6228     6655     7244 
    8105     9216    10486    11734    12793    13711    14517    15020 
   14972    14308    13178    11793    10342     9119     8444     8324 
    8530     9054     9923    10866    11704    12617    13779    15180 
   16746    18442    20167    21676    22775    23433    23642    23372 
   22632    21523    20182    18700    17095    15473    14017    12760 
   11608    10484     9344     8205     7064     5765     4160     2357 
     654     -724    -1659    -1991    -1683     -942      153     1738 
    3797     6123     8532    10963    13408    15755    17851    19592 
   20926    21834    22258    22141    21501    20339    18705    16803 
   14797    12600    10029     7156     4297     1602     -945    -3119 
   -4518    -5043    -4903    -4295    -3326    -2131     -853      522 
    2084     4039     6723    10045    13406    16335    18809    21023 
   23022    24765    26280    27548    28593    29408    29740    29288 
   27993    26041    23666    20877    17660    14296    11057     8056 
    5420     3110      942    -1101    -2925    -4448    -5456    -5629 
   -4803    -2984     -232     3186     6841    10415    13579    16090 
   18034    19658    21207    22792    24254    25458    26361    26739 
   26346    25193    23398    21039    18262    15279    12287     9567 
    7369     5682     4387     3439     2820     2481     2308     2276 
    2575     3341     4518     6107     8127    10439    12845    15221 
   17424    19203    20341    20803    20700    20247    19637    18897 
   18015    17104    16275    15557    14914    14284    13544    12519 
   11109     9429     7585     5464     3051      560    -1803    -3809 
   -5167    -5768    -5817    -5630    -5221    -4398    -3115    -1347 
     972     3726     6625     9390    11958    14451    16852    19033 
   20892    22223    22912    23072    22794    22027    20826    19480 
   18208    16966    15676    14285    12745    11129     9528     7879 
    6116     4382     2922     1822     1077      820     1279     2612 
    4665     7024     9383    11670    13852    15790    17327    18470 
   19299    19923    20538    21190    21784    22319    22778    23060 
   23099    22867    22392    21768    21031    20260    19607    18928 
   17925    16645    15264    13779    12046    10002     7724     5193 
    2505      133    -1614    -2852    -3757    -4338    -4492    -4276 
   -3879    -3230    -2138     -583     1329     3600     6305     9229 
   12040    14740    17428    20009    22177    23596    24219    24354 
   24358    24216    23658    22654    21242    19327    17037    14600 
   12056     9468     7014     4861     3080     1663      604      -78 
    -292       82      966     2211     3775     5532     7362     9262 
   11130    12995    15033    17116    18917    20355    21405    21822 
   21496    20775    19880    18582    16908    15164    13423    11642 
    9837     8116     6710     5756     5314     5475     6199     7285 
    8464     9563    10579    11572    12741    14296    16213    18382 
   20601    22515    23849    24514    24625    24371    23737    22663 
   21277    19626    17577    15107    12318     9271     6087     2932 
    -106    -2905    -5212    -6760    -7468    -7446    -6771    -5422 
   -3406     -780     2326     5741     9313    12815    16033    19013 
   21861    24389    26352    27837    28998    29758    29901    29215 
   27710    25686    23456    21184    18952    16841    14936    13166 
   11333     9501     7812     6216     4766     3630     2911     2677 
    2910     3505     4299     5116     5863     6467     6922     7438 
    8205     9101     9919    10563    10867    10644     9991     9227 
    8545     8043     7896     8117     8553     9211    10115    11118 
   12160    13309    14486    15489    16275    16912    17323    17447 
   17437    17308    16810    15803    14393    12750    10986     9121 
    7217     5425     3796     2286     1011       75     -560     -911 
   -1000     -907     -595       75     1162     2612     4344     6342 
    8564    10744    12598    14203    15676    16862    17651    18081 
   18162    17953    17613    17236    16804    16383    16155    16189 
   16391    16609    16713    16602    16276    15849    15352    14674 
   13698    12386    10787     9101     7612     6493     5695     5121 
    4725     4463     4329     4357     4548     4878     5364     6029 
    6885     7925     9046    10127    11172    12190    13099    13895 
   14651    15311    15796    16167    16483    16637    16542    16193 
   15491    14407    13192    12046    11045    10380    10149    10201 
   10401    10833    11599    12479    13097    13320    13176    12769 
   12382    12218    12328    12708    13159    13424    13406    13055 
   12421    11735    11153    10642    10156     9729     9352     8941 
    8492     8113     7936     8012     8197     8330     8437     8584 
    8793     9123     9693    10624    11897    13281    14459    15263 
   15704    15807    15603    15225    14779    14307    13872    13564 
   13460    13568    13872    14338    14866    15368    15741    15773 
   15418    14852    14187    13481    12849    12363    12055    11970 
   12108    12421    12862    13359    13763    13937    13891    13713 
   13510    13358    13163    12753    12047    11051     9868     8673 
    7561     6535     5601     4781     4153     3852     3979     4511 
    5359     6488     7894     9570    11476    13462    15342    17020 
   18450    19620    20544    21169    21519    21871    22391    22758 
   22486    21492    20051    18196    15817    13198    10558     7862 
    5329     3221     1539      290     -372     -326      214      891 
    1680     2728     3982     5373     6964     8734    10577    12425 
   14103    15345    16023    16205    16124    15935    15426    14466 
   13346    12213    11013     9892     9032     8437     8012     7549 
    6782     5594     4190     2976     2145     1688     1726     2344 
    3427     4854     6467     8086     9691    11292    12861    14350 
   15577    16428    17126    17875    18489    18652    18285    17478 
   16306    14918    13498    12091    10656     9162     7578     5927 
    4283     2710     1344      400      -16      -22      245      803 
    1705     2857     4170     5699     7512     9599    11904    14343 
   16864    19419    21992    24570    27013    29089    30616    31522 
   31919    32015    31899    31530    30762    29461    27672    25456 
   22843    19985    17058    14135    11248     8434     5705     3026 
     479    -1732    -3445    -4531    -4980    -4953    -4567    -3788 
   -2536     -810     1274     3570     5976     8390    10744    13011 
   15141    17122    19029    20904    22627    24020    25105    25978 
   26514    26578    26331    25934    25230    24001    22246    20017 
   17363    14478    11564     8750     6246     4202     2589     1350 
     421     -317     -928    -1336    -1366     -930     -102     1030 
    2438     4035     5726     7500     9325    11115    12926    14889 
   16957    18970    20765    22123    22881    23033    22731    22246 
   21709    21050    20294    19477    18489    17246    15672    13621 
   10948     7651     4050      603    -2299    -4367    -5520    -5792 
   -5225    -4139    -2976    -1838     -607      834     2656     4951 
    7762    11091    14465    17192    19264    21118    22732    23743 
   24170    24293    24225    24182    24289    24335    24278    24074 
   23288    21666    19280    16206    12717     9278     6065     3105 
     800     -654    -1744    -2682    -3165    -3277    -3510    -4050 
   -4561    -4527    -3751    -2458     -811     1209     3380     5373 
    7057     8340     9184     9802    10404    10986    11578    12353 
   13455    14967    16779    18612    20399    22264    24150    25917 
   27614    29296    30758    31711    32058    31820    30842    28871 
   25953    22381    18384    14195    10100     6188     2389    -1293 
   -4707    -7704   -10228   -12164   -13359   -13829   -13657   -12825 
  -11407    -9701    -7735    -5132    -1784     1931     5805     9965 
   14273    18320    22025    25416    28436    31222    33837    36099 
   37816    38772    38956    38599    37704    36099    33781    30896 
   27511    23538    19012    14253     9518     4870      467    -3485 
   -6894    -9643   -11610   -12860   -13543   -13644   -13045   -11740 
  -10057    -8256    -6070    -3379     -475     2681     6173     9649 
   12995    16356    19602    22520    25024    26941    28136    28714 
   28804    28378    27371    25851    23971    21809    19380    16746 
   14021    11356     8843     6419     4197     2539     1598     1298 
    1609     2569     4110     5979     8108    10650    13539    16540 
   19452    21992    23971    25537    26924    28194    29343    30242 
   30693    30678    30149    28907    26904    24208    20934    17275 
   13281     8996     4930     1587    -1347    -4356    -6994    -8681 
   -9732   -10579   -11269   -11828   -12019   -11504   -10511    -9196 
   -7308    -4922    -2245      656     3597     6493     9332    12141 
   15151    18391    21567    24456    27032    29323    31132    32078 
   31989    30909    28867    25905    22179    17972    13576     9269 
    5229     1482    -1907    -4761    -6983    -8607    -9676   -10206 
  -10127    -9217    -7300    -4325     -280     4525     9435    14014 
   18214    22038    25417    28323    30747    32602    33791    34241 
   33858    32572    30524    28084    25631    23423    21546    19957 
   18504    16900    15034    13034    10872     8496     6025     3615 
    1417     -434    -1864    -2817    -3260    -3179    -2582    -1513 
    -128     1375     3009     4907     7029     9163    11134    12881 
   14322    15302    15853    16101    16054    15840    15708    15695 
   15761    15975    16344    16752    17101    17355    17402    17069 
   16339    15317    14054    12606    10999     9258     7555     6165 
    5233     4715     4437     4280     4386     4973     6015     7365 
    8953    10679    12434    14092    15461    16398    16877    16897 
   16499    15834    15072    14258    13285    12009    10396     8533 
    6619     4934     3697     3034     2999     3495     4403     5675 
    7227     9000    10963    13053    15156    17163    18960    20353 
   21189    21452    21220    20537    19323    17564    15496    13396 
   11392     9533     7875     6493     5375     4382     3375     2273 
    1121       47     -935    -1861    -2666    -3214    -3338    -2947 
   -2015     -610     1121     3142     5552     8383    11457    14451 
   17158    19674    22169    24617    26883    28773    30088    30771 
   30889    30491    29554    28124    26412    24588    22671    20665 
   18646    16665    14712    12780    10827     8791     6775     4880 
    3042     1287     -171    -1077    -1204     -480      942     2891 
    5258     7893    10620    13252    15638    17772    19654    21147 
   22161    22709    22744    22230    21290    20109    18790    17335 
   15662    13711    11551     9414     7555     6046     4874     4048 
    3518     3214     3134     3268     3612     4171     4822     5363 
    5768     6216     6821     7528     8241     8829     9148     9154 
    8826     8199     7427     6647     5972     5535     5386     5568 
    6191     7184     8386     9818    11458    13112    14692    16210 
   17629    18893    19946    20745    21273    21517    21509    21234 
   20671    19897    18976    17919    16756    15485    14064    12475 
   10831     9265     7776     6362     5124     4145     3437     2951 
    2650     2567     2798     3407     4352     5587     7159     9040 
   11082    13066    14775    16168    17366    18408    19188    19624 
   19747    19581    19225    18862    18484    18004    17444    16810 
   16173    15631    15110    14466    13720    13034    12557    12318 
   12233    12210    12239    12340    12437    12370    12132    11850 
   11531    11121    10652    10131     9483     8669     7715     6619 
    5356     4029     2830     1871     1094      386     -194     -585 
    -891    -1074     -951     -449      407     1568     3017     4797 
    6849     8977    11021    12931    14793    16802    19095    21643 
   24233    26622    28663    30221    31118    31199    30478    29130 
   27236    24792    21936    18868    15742    12669     9784     7184 
    4864     2812     1017     -530    -1717    -2411    -2600    -2255 
   -1398     -216     1081     2413     3807     5220     6551     7797 
    9072    10509    12029    13387    14625    15832    16807    17417 
   17641    17516    17258    16947    16490    15993    15588    15128 
   14445    13582    12576    11358     9981     8664     7576     6685 
    5915     5267     4743     4333     4066     4048     4367     4990 
    5921     7207     8761    10461    12258    14150    16125    18053 
   19747    21022    21766    21971    21652    20943    20021    18848 
   17335    15538    13560    11497     9436     7506     5865     4637 
    3904     3636     3700     3989     4446     5101     6027     7204 
    8511     9829    11148    12468    13651    14562    15192    15553 
   15692    15751    15797    15773    15593    15226    14802    14434 
   14023    13473    12796    12052    11400    10906    10408     9849 
    9387     9116     9013     9146     9583    10266    11107    12128 
   13456    15107    16783    18153    19203    20089    20696    20682 
   20106    19263    18004    16187    14038    11662     9031     6228 
    3338      518    -1906    -3715    -4923    -5603    -5784    -5462 
   -4587    -3040     -758     2138     5424     8893    12356    15588 
   18476    21007    23126    24804    26094    27033    27585    27630 
   27190    26457    25531    24452    23294    22021    20560    18895 
   17031    14912    12491     9929     7422     4961     2544      259 
   -1836    -3659    -5104    -6138    -6793    -7059    -6883    -6237 
