Origin Time       2025/01/13 21:19:00
Lat.              31.8
Long.             131.6
Depth. (km)       30
Mag.              6.9
Station Code      KMM014
Station Lat.      32.3961
Station Long.     130.8273
Station Height(m) 306
Record Time       2025/01/13 21:19:49
Sampling Freq(Hz) 100Hz
Duration Time(s)  102
Dir.              N-S
Scale Factor      7845(gal)/8223790
Max. Acc. (gal)   16.790
Last Correction   2025/01/13 21:19:49
Memo.             
[...]
   -2116    -1583    -1240    -1089    -1395    -2477    -4145    -5692 
   -6470    -6417    -5845    -4966    -3812    -2523    -1599    -1522 
   -2112    -2600    -2489    -2142    -2122    -2265    -2008    -1462 
   -1540    -2770    -4563    -5805    -5707    -4361    -2459     -541 
     985     1563      688    -1664    -4475    -6033    -5580    -3982 
   -2551    -1958    -1844    -1242       45     1030      611    -1337 
   -3699    -5097    -5111    -4280    -3516    -3387    -3693    -3843 
   -3553    -3110    -2963    -3114    -3152    -2814    -2336    -2187 
   -2604    -3434    -4199    -4419    -3870    -2687    -1485     -935 
   -1077    -1485    -1918    -2563    -3697    -5042    -5606    -4621 
   -2562     -931     -822    -1782    -2447    -2134    -1316     -810 
   -1003    -1880    -3215    -4432    -4823    -4276    -3323    -2477 
   -1907    -1447     -854     -301     -402    -1584    -3335    -4465 
   -4418    -3809    -3604    -3843    -3343    -1297     1216     2092 
     513    -2249    -4315    -4896    -4588    -4360    -4425    -4158 
   -2903    -1003      306      356     -535    -1823    -2936    -3589 
   -4071    -4664    -5421    -6318    -7123    -7322    -6370    -4168 
   -1321      843     1058     -606    -2867    -4480    -4984    -4576 
   -3622    -2396    -1088      -27      144     -766    -1954    -2621 
   -2713    -2404    -1777    -1233    -1479    -2852    -5034    -7092 
   -7831    -6527    -3399      191     2331     2016      -25    -2123 
   -3381    -4151    -4772    -4968    -4583    -4182    -4410    -4762 
   -3929    -1588      803     1331     -315    -2629    -3966    -3919 
   -3547    -4066    -5059    -4970    -3064      -54     2502     3076 
    1143    -2254    -5112    -6123    -5483    -4062    -2775    -2458 
   -3381    -4891    -5502    -3820       16     3940     5373     3181 
   -1533    -6054    -7916    -6898    -4754    -3287    -2970    -2934 
   -2369    -1574    -1246    -1617    -2560    -3639    -4153    -3901 
   -3673    -4363    -5741    -6636    -5940    -3217      749     4267 
    5969     5069     1424    -3550    -7418    -8865    -8395    -7223 
   -6085    -4824    -3092    -1171      309      888      518     -519 
   -2309    -4818    -6810    -6824    -4679    -1976    -1084    -2546 
   -4283    -3847    -1051     1637     1706    -1000    -4538    -6679 
   -6747    -5730    -4833    -4506    -4612    -4811    -4425    -2388 
    1660     6139     8136     5540     -783    -7092   -10183    -9848 
   -7898    -6134    -4839    -3289    -1424      182     1088     1071 
     274     -861    -2093    -3381    -4429    -4720    -4187    -3441 
   -2933    -2579    -2128    -1204       87      731     -144    -2346 
   -4661    -5651    -4747    -2494     -148      696     -909    -4149 
   -6755    -6853    -4495    -1702     -734    -1682    -2853    -3279 
   -3318    -3511    -3743    -3616    -3288    -3346    -4014    -4527 
   -3688    -1460      772     1607      689    -1202    -2983    -4345 
   -5447    -5791    -4591    -2138      -18      321    -1024    -2702 
   -3484    -3242    -2806    -2874    -3352    -3879    -4237    -4202 
   -3767    -3223    -2775    -2524    -2489    -2701    -3404    -4629 
   -5719    -6065    -5786    -5151    -4293    -3483    -2663    -1478 
       0     1059      762    -1044    -3203    -4282    -3829    -2444 
   -1216    -1169    -2459    -4048    -4633    -3676    -1819     -419 
    -314    -1229    -2192    -2450    -2255    -2162    -2014    -1617 
   -1426    -1869    -2821    -3562    -3129    -1458      264      542 
   -1202    -3850    -5582    -5710    -4766    -3337    -1811     -812 
    -834    -1669    -2836    -4070    -5154    -5910    -6092    -5301 
   -3618    -1939    -1293    -1892    -2856    -2933    -1777     -610 
    -986    -2902    -4801    -5240    -4023    -2007     -282      395 
    -267    -1911    -3728    -5151    -5980    -6075    -5464    -4321 
   -2828    -1436     -616     -554    -1356    -2832    -4364    -5034 
   -4054    -1850      162      847     -175    -2281    -4018    -4176 
   -2814    -1440    -1598    -3226    -4934    -5512    -4904    -3959 
   -3306    -2685    -1730     -891    -1031    -2363    -3874    -4121 
   -2739     -908     -307    -1610    -3960    -5895    -6666    -6504 
   -5941    -5116    -3626    -1366      789     1633      881     -392 
   -1003     -835     -364      -56     -356    -1555    -3574    -5564 
   -6168    -4932    -2747     -637      949     1748     1502      328 
   -1192    -2473    -3123    -2884    -2108    -1721    -2276    -3532 
   -4854    -5509    -4942    -3518    -2268    -1549    -1101     -930 
   -1177    -1826    -2745    -3813    -4938    -5522    -4938    -3881 
   -3808    -5043    -6500    -6975    -6210    -4837    -3518    -2407 
   -1593    -1408    -1827    -2189    -2011    -1607    -1691    -2448 
   -3237    -3468    -3295    -3237    -3612    -4209    -4324    -3391 
   -1629     -213     -427    -2269    -4315    -5113    -4484    -3373 
   -2604    -2184    -1833    -1737    -2161    -2598    -2340    -1372 
    -321     -175    -1478    -3392    -4409    -3889    -2523    -1555 
   -1593    -2151    -2527    -2755    -3307    -4058    -4122    -2906 
    -843      893     1258      217    -1221    -1956    -1715    -1197 
   -1335    -2303    -3303    -3488    -2907    -2452    -2872    -3920 
   -4714    -4747    -4364    -4266    -4673    -5159    -5028    -3893 
   -2227    -1077     -984    -1408    -1282     -270      611       13 
   -2192    -4747    -6187    -6223    -5852    -5763    -5640    -5054 
   -3736    -1675      274      792     -650    -3057    -4541    -4079 
   -2285     -438      436     -153    -2019    -4440    -6543    -7688 
   -7595    -6215    -3890    -1501     -120     -484    -2504    -4990 
   -6237    -5343    -2986     -662      685     1173     1309     1075 
    -209    -2828    -5520    -6269    -4684    -2538    -1406    -1134 
   -1054    -1237    -2166    -3839    -5331    -5609    -4522    -2596 
    -585      900     1736     1823      777    -1630    -4865    -7595 
   -8758    -8545    -7487    -5553    -2952     -571      648      345 
    -943    -2355    -3570    -4610    -5289    -5108    -3572    -1042 
     934      861    -1428    -4569    -6327    -5262    -2012     1408 
    3075     2119     -727    -3789    -5823    -6318    -5436    -4005 
   -2818    -2351    -2606    -2839    -2324    -1372    -1030    -1848 
   -3265    -4338    -4660    -4315    -3601    -2986    -2821    -2975 
   -2937    -2411    -1578     -738     -112       35     -427    -1125 
   -1475    -1359    -1298    -2072    -3865    -5880    -6978    -6328 
   -4232    -2442    -2556    -4280    -5896    -5950    -4206    -1611 
     257      159    -1879    -4445    -5725    -4847    -2506     -395 
     152     -870    -2438    -3534    -3905    -3912    -3966    -4056 
   -3701    -2701    -1671    -1351    -1628    -1660     -861      361 
     899      -48    -2146    -4156    -5098    -5044    -4627    -4087 
   -3295    -2452    -2169    -2787    -3721    -4018    -3574    -2895 
   -2474    -2729    -3484    -3991    -3789    -3078    -2343    -1725 
   -1273    -1482    -2601    -4128    -5266    -5278    -3877    -1563 
     707     2014     1894      460    -1933    -4579    -6254    -6288 
   -5235    -3924    -2828    -2193    -1875    -1625    -1641    -2149 
   -2718    -2627    -1958    -1638    -2255    -3474    -4517    -4928 
   -4619    -3607    -2363    -1468     -993    -1026    -1803    -3227 
   -4777    -5611    -5166    -3786    -2227    -1120    -1170    -2623 
   -4541    -5549    -4916    -2799     -187     1474     1233     -477 
   -2053    -2312    -1728    -1435    -1512    -1208     -491     -249 
   -1142    -2902    -4649    -5973    -7292    -8683    -9323    -8324 
   -5746    -2835     -907     -410    -1090    -2381    -3724    -4606 
   -4364    -2826     -954      108       10    -1030    -2196    -2295 
   -1169     -207     -837    -2852    -4585    -4603    -3028    -1302 
    -720    -1368    -2594    -3838    -4760    -5082    -4398    -2502 
    -189      877     -413    -3334    -5722    -5876    -4113    -2290 
   -1667    -1714    -1314     -373      245     -103    -1152    -2101 
   -2567    -2799    -3183    -3650    -3720    -3275    -2632    -1985 
   -1359     -926    -1094    -2034    -3126    -3604    -3298    -2300 
    -994     -222     -506    -1652    -3161    -4668    -6037    -6883 
   -6372    -4237    -1796    -1078    -2894    -5996    -7986    -7238 
   -4332    -1482     -522    -1656    -3518    -4309    -3655    -2675 
   -1944     -891      657     1503      248    -2698    -5142    -5212 
   -2895       52     1437      425    -1906    -3946    -4873    -4784 
   -4264    -3723    -3316    -3410    -4166    -4931    -4685    -3092 
    -972      414      598      255      112     -125    -1255    -3252 
   -4824    -4684    -3246    -2142    -2010    -2034    -1459     -344 
     760     1422     1834     2242     2228     1248     -608    -2515 
   -3364    -2698    -1205        8      515      562      355      145 
     299      945     1910     2371     1108    -2037    -5636    -7816 
   -7566    -5036    -1252     1907     2577      425    -3176    -6471 
   -8648    -9902   -10498   -10388    -9463    -8094    -7254    -7176 
   -6778    -5470    -3893    -2795    -2859    -4549    -7257    -9737 
  -11133   -11082    -9331    -5533     -346     3858     4899     2466 
   -1726    -4576    -4426    -2631    -1183    -1192    -3025    -5930 
   -8552    -9892    -9266    -6714    -3692    -2309    -3636    -6377 
   -7580    -5363     -749     3113     3916     2145     -589    -3102 
   -4168    -3211     -841     2496     6258     8812     8889     6647 
    2947     -877    -2968    -2494     -810      303       35    -2014 
   -5815   -10134   -12474   -10870    -6069     -764     3068     5005 
    5212     3653      444    -2925    -4198    -3048    -1721    -2342 
   -4491    -6448    -7678    -8156    -7433    -5786    -4272    -4032 
   -5950    -9412   -12047   -11662    -7798    -1995     3051     5557 
    5520     3861     2151     1655     1807     1328       43    -1552 
   -3511    -6235    -9381   -12066   -13670   -13192    -9417    -3137 
    2579     4982     3461     -216    -3414    -5173    -5925    -5520 
   -3847    -1902    -1081    -2303    -5166    -7699    -7657    -4801 
   -1674     -600    -1561    -3874    -6732    -8834    -9616    -9574 
   -9243    -8680    -7750    -6326    -4220    -1760      191     1795 
    4213     7484    10080    10489     8279     4411     1129      251 
    1219     2307     2833     3022     3530     4653     4807     2344 
   -1364    -3794    -4355    -3905    -3580    -3906    -4095    -3343 
   -2219    -1649    -1559    -1729    -2695    -4433    -5871    -6439 
   -6453    -6189    -5638    -4857    -4307    -4422    -5070    -5779 
   -5386    -2990     -318     -175    -2856    -6069    -7528    -7078 
   -6355    -6625    -7258    -6450    -3491      226     2624     3009 
    2452     1966     1305      -99    -2088    -3717    -4099    -3451 
   -2853    -2961    -3919    -5836    -8089    -9412    -8868    -5967 
   -1528     2069     3230     2326      515    -1101    -2034    -2473 
   -2582    -2330    -1694     -646      589     1441     1556      766 
    -912    -2501    -3127    -3280    -3874    -5552    -8085   -10089 
  -10547    -9864    -8796    -7033    -3728      630     3700     3383 
     197    -2961    -3333     -896     1737     2386      915    -1749 
   -4367    -5508    -4371    -1717      685     1661     1074     -603 
   -2466    -3879    -5035    -5973    -6305    -6415    -7292    -9236 
  -11514   -12868   -12459   -10450    -7821    -5499    -3458    -1568 
    -542     -845    -1950    -2936    -3242    -3252    -3747    -4396 
   -3846    -1698      984     3118     4456     5263     5498     4440 
    1259    -4051   -10003   -14172   -15198   -13977   -11928    -9447 
   -6875    -4468    -1891      166      402     -569     -742      918 
    3626     5717     6397     5860     4108     1352    -1309    -2974 
   -3910    -5121    -7040    -8397    -7497    -4977    -3358    -3793 
   -5233    -6485    -7067    -6675    -5271    -2799     1021     5240 
    7450     6230     2562    -1328    -3400    -2972    -1782    -2354 
   -4591    -6220    -6065    -4517    -2440     -762      683     2758 
    4965     6115     6056     5082     3485     1786       -2    -2000 
   -3450    -3731    -3303    -3192    -3990    -4993    -5225    -5065 
   -5290    -5653    -5653    -5232    -4509    -4052    -4403    -5132 
   -5628    -5902    -6347    -7157    -7757    -7091    -4606    -1490 
    -275    -1822    -4180    -4914    -3303    -1054     -672    -2415 
   -4050    -3800    -2257    -1404    -2438    -4747    -6849    -7612 
   -6596    -4099    -1221      290    -1305    -6210   -11843   -14320 
  -12066    -6748     -773     3970     6191     6183     4984     2729 
    -205    -2301    -2801    -2891    -4056    -5917    -6627    -5146 
   -2281     -213     -579    -1984    -1572      897     3172     3564 
    2004     -828    -4395    -8352   -11948   -14131   -14300   -12584 
   -9764    -6299    -1571     4500    10303    13990    14493    11580 
    6551     1827    -1093    -2724    -4228    -5972    -7905    -9366 
   -9119    -6515    -1340     5752    12214    14891    12322     5779 
   -2195    -9613   -15034   -17649   -17760   -16222   -13787   -11349 
   -9548    -7911    -6230    -5177    -4645    -4405    -4170    -2543 
     363     2704     3694     3287     2095      951     -899    -4098 
   -7528    -9690    -9583    -7194    -3808     -889     1003     2204 
    3453     4664     4666     3032      857     -199      631     1755 
     943    -1493    -3836    -5123    -5175    -4905    -5660    -7360 
   -8529    -7909    -5738    -3599    -3169    -5132    -7878    -8392 
   -6118    -2805      845     4163     5177     3395      240    -3015 
   -4896    -4276    -2215     -708     -348     -140      959     3208 
    5958     7527     7593     7932     8595     7732     4806      464 
   -4371    -8291    -9828    -8398    -4966    -1636     -233     -936 
   -2115    -2153    -1264     -553     -355     -648    -1858    -4459 
   -7662    -9263    -8050    -5393    -3709    -4203    -6066    -7942 
   -9342    -9579    -7851    -4882    -2201     -988    -1885    -4468 
   -8009   -12113   -15184   -14953   -11318    -6305    -2008      622 
    1952     2359     1819     1020      827     1093      977     -247 
   -2324    -4010    -4220    -2713      -75     2430     3277     1842 
    -842    -3473    -5769    -7939    -9776   -10130    -7960    -3955 
      79     2728     3424     2253      144    -1142     -487     1494 
    2893     1968    -1196    -4939    -7708    -8757    -7925    -5800 
   -3805    -2833    -2119     -649     1073     1661      464    -2085 
   -5107    -7770    -9146    -8538    -6604    -4828    -3620    -2231 
    -579      267     -344    -1706    -2654    -2581    -1705    -1154 
   -1991    -3724    -4841    -4460    -3294    -2978    -3588    -3794 
   -3774    -4433    -5283    -5795    -6168    -6467    -7007    -7958 
   -8509    -8025    -6797    -5586    -4876    -3905    -1591     1691 
    4374     5182     4368     3307     2547     1437      -18     -757 
    -418      230      325     -843    -3361    -5849    -6336    -4140 
    -442     2768     4102     3306      776    -2886    -6525    -8533 
   -8012    -5643    -3029    -1381    -1026    -1406    -1420     -730 
    -612    -2427    -5270    -6571    -5177    -2289      230      997 
    -422    -3051    -5363    -6673    -7071    -6918    -6794    -7045 
   -7400    -7321    -6361    -4615    -2758    -1494    -1250    -1557 
   -1304     -436     -147    -1572    -4607    -7215    -7227    -5034 
   -2744    -1501    -1084    -1116    -1336    -1202     -337      706 
     734     -761    -2978    -4838    -5865    -6111    -6154    -6430 
   -6543    -5918    -4415    -2590    -1595    -1975    -3013    -3842 
   -4336    -4680    -4877    -4801    -4122    -2290      702     3831 
    5910     6523     5753     3771      928    -2300    -5337    -7418 
   -7921    -6936    -5410    -4467    -4500    -5157    -5710    -5362 
   -3817    -1629       99      332    -1210    -3638    -5290    -5157 
   -3886    -2893    -2884    -3451    -3597    -2594     -820      522 
    1021     1232     1131       86    -2128    -5184    -8082    -9482 
   -8827    -6735    -4588    -3688    -4306    -5702    -6648    -6274 
   -4992    -3985    -3804    -4000    -3910    -3335    -2579    -2115 
   -2014    -1728     -777      449     1053      427    -1362    -3342 
   -4008    -2705     -426     1147     1178     -112    -2006    -3526 
   -3987    -3352    -1809       36      992      518     -619    -1587 
   -2324    -2947    -3277    -3154    -2443    -1034      511     1094 
     384     -931    -2255    -3157    -2820    -1198      151     -148 
   -2034    -4519    -6126    -5805    -4153    -2875    -3046    -4283 
   -5165    -4279    -1513     1425     2297      521    -2309    -4396 
   -5128    -4899    -4828    -5729    -7064    -7693    -6967    -4907 
   -2168       60      832      328     -627    -1548    -2290    -2754 
   -2857    -2592    -2143    -2142    -3211    -4901    -5869    -5421 
   -4078    -2677    -1806    -1811    -2455    -3061    -3086    -2257 
    -634     1077     1753      927     -812    -2606    -3838    -4205 
   -3958    -3785    -3950    -3915    -3187    -1911     -514      571 
     978      743      257     -406    -1489    -2830    -3983    -4672 
   -4734    -4072    -2695     -720     1305     2377     1895      348 
   -1333    -2782    -3994    -4668    -4407    -3519    -2903    -3071 
   -4040    -5499    -6772    -7433    -7304    -6498    -5895    -6011 
   -6280    -6095    -5286    -4008    -2582    -1264     -581    -1024 
   -2000    -2390    -1980    -1328    -1135    -2135    -4094    -5304 
   -4623    -2839    -1237     -295      357     1275     2110     1617 
   -1104    -5575    -9848   -11917   -11506    -9942    -8561    -7705 
   -6712    -4716    -2120     -271      665     1382     1564      703 
    -927    -3226    -6004    -8244    -9251    -9378    -8992    -8017 
   -6635    -5279    -4021    -2687    -1178      788     3361     5744 
    6756     6092     4344     2388     1050      749     1158     1566 
    1579      986     -446    -2313    -3622    -3782    -2978    -1985 
   -1863    -3013    -4548    -5294    -4924    -3901    -2979    -2579 
   -2697    -3331    -4353    -5474    -6542    -7483    -8152    -8286 
   -7554    -5956    -4131    -2845    -2304    -2141    -1777     -843 
     379     1347     1914     2104     1918     1591     1468     1609 
    1580      796     -738    -2377    -3559    -4075    -4102    -4347 
   -5259    -6412    -7385    -8293    -9018    -9055    -8203    -6536 
   -4189    -1719       85      962     1044      382     -805    -1989 
   -2866    -3345    -3067    -2011    -1048     -669     -264      438 
     859      665     -101    -1363    -2803    -4020    -4984    -5838 
