Origin Time       2025/01/13 21:19:00
Lat.              31.8
Long.             131.6
Depth. (km)       30
Mag.              6.9
Station Code      KMM015
Station Lat.      32.2161
Station Long.     130.4059
Station Height(m) 8
Record Time       2025/01/13 21:19:55
Sampling Freq(Hz) 100Hz
Duration Time(s)  118
Dir.              U-D
Scale Factor      7845(gal)/8223790
Max. Acc. (gal)   4.218
Last Correction   2025/01/13 21:19:55
Memo.             
[...]
  -15213   -15012   -14841   -14644   -14503   -14561   -14825   -15187 
  -15570   -15943   -16247   -16432   -16506   -16498   -16449   -16430 
  -16445   -16433   -16383   -16332   -16249   -16069   -15808   -15531 
  -15280   -15120   -15137   -15340   -15641   -15924   -16101   -16133 
  -16058   -15936   -15793   -15628   -15450   -15232   -14947   -14683 
  -14547   -14503   -14465   -14482   -14642   -14859   -14968   -14956 
  -14944   -14972   -14947   -14818   -14669   -14543   -14403   -14272 
  -14242   -14316   -14415   -14534   -14709   -14925   -15142   -15357 
  -15541   -15633   -15653   -15719   -15896   -16121   -16287   -16325 
  -16225   -16035   -15819   -15607   -15371   -15133   -14995   -14994 
  -15067   -15175   -15325   -15484   -15634   -15831   -16109   -16379 
  -16503   -16459   -16308   -16054   -15699   -15371   -15198   -15120 
  -15014   -14902   -14860   -14841   -14763   -14675   -14715   -14922 
  -15215   -15498   -15751   -16005   -16218   -16272   -16128   -15900 
  -15735   -15647   -15527   -15296   -15003   -14737   -14527   -14381 
  -14341   -14434   -14639   -14904   -15168   -15392   -15606   -15865 
  -16140   -16343   -16463   -16552   -16618   -16633   -16572   -16410 
  -16144   -15842   -15608   -15493   -15472   -15506   -15587   -15695 
  -15778   -15781   -15699   -15595   -15569   -15662   -15843   -16063 
  -16264   -16364   -16291   -16036   -15647   -15202   -14800   -14539 
  -14449   -14459   -14499   -14567   -14689   -14827   -14943   -15063 
  -15244   -15484   -15680   -15738   -15685   -15595   -15473   -15276 
  -15002   -14705   -14432   -14233   -14148   -14125   -14084   -14056 
  -14127   -14284   -14430   -14513   -14563   -14620   -14681   -14727 
  -14778   -14872   -15007   -15134   -15232   -15337   -15479   -15606 
  -15664   -15672   -15662   -15619   -15543   -15483   -15464   -15476 
  -15495   -15508   -15523   -15554   -15615   -15680   -15697   -15649 
  -15543   -15377   -15157   -14975   -14948   -15055   -15151   -15160 
  -15126   -15113   -15130   -15161   -15188   -15196   -15188   -15196 
  -15248   -15336   -15434   -15516   -15583   -15645   -15691   -15669 
  -15569   -15438   -15307   -15149   -14962   -14798   -14717   -14729 
  -14809   -14910   -14980   -15002   -15024   -15099   -15215   -15334 
  -15465   -15626   -15780   -15884   -15942   -15963   -15954   -15921 
  -15851   -15711   -15523   -15392   -15398   -15508   -15664   -15846 
  -16031   -16174   -16254   -16264   -16191   -16025   -15824   -15695 
  -15668   -15668   -15627   -15570   -15526   -15453   -15310   -15129 
  -14980   -14898   -14874   -14917   -15006   -15039   -14925   -14708 
  -14521   -14477   -14588   -14812   -15093   -15360   -15564   -15712 
  -15799   -15778   -15665   -15560   -15537   -15569   -15615   -15658 
  -15657   -15549   -15352   -15168   -15060   -15036   -15132   -15367 
  -15658   -15878   -15988   -16032   -16054   -16055   -16042   -15996 
  -15901   -15790   -15707   -15631   -15500   -15294   -15060   -14878 
  -14787   -14785   -14837   -14931   -15071   -15229   -15380   -15525 
  -15645   -15709   -15703   -15615   -15417   -15110   -14791   -14584 
  -14524   -14612   -14850   -15194   -15553   -15861   -16090   -16224 
  -16266   -16236   -16174   -16117   -16069   -16002   -15931   -15880 
  -15826   -15716   -15546   -15368   -15233   -15163   -15168   -15218 
  -15249   -15226   -15147   -15034   -14962   -14968   -15039   -15163 
  -15319   -15452   -15515   -15502   -15431   -15317   -15187   -15091 
  -15064   -15093   -15125   -15110   -15044   -14959   -14901   -14922 
  -15036   -15194   -15334   -15444   -15554   -15681   -15773   -15776 
  -15682   -15514   -15327   -15210   -15190   -15194   -15125   -14967 
  -14810   -14729   -14708   -14712   -14750   -14848   -15022   -15288 
  -15645   -16051   -16417   -16648   -16706   -16634   -16518   -16438 
  -16436   -16492   -16521   -16443   -16281   -16139   -16071   -16040 
  -15996   -15942   -15888   -15781   -15580   -15349   -15187   -15098 
  -15025   -14979   -15025   -15175   -15361   -15488   -15516   -15477 
  -15410   -15330   -15244   -15161   -15109   -15111   -15163   -15210 
  -15201   -15115   -14989   -14885   -14825   -14774   -14708   -14647 
  -14601   -14539   -14463   -14412   -14384   -14342   -14301   -14343 
  -14527   -14831   -15191   -15542   -15793   -15871   -15784   -15610 
  -15442   -15313   -15215   -15147   -15090   -15045   -15034   -15067 
  -15160   -15325   -15523   -15696   -15846   -16021   -16224   -16416 
  -16587   -16745   -16848   -16823   -16667   -16475   -16362   -16322 
  -16281   -16206   -16109   -15990   -15880   -15815   -15782   -15734 
  -15676   -15626   -15546   -15383   -15128   -14813   -14499   -14250 
  -14116   -14104   -14177   -14315   -14513   -14729   -14890   -14952 
  -14945   -14931   -14937   -14941   -14929   -14928   -14959   -14999 
  -15012   -14998   -15005   -15033   -15039   -14989   -14914   -14885 
  -14936   -15043   -15140   -15188   -15188   -15142   -15045   -14931 
  -14877   -14931   -15076   -15265   -15449   -15568   -15569   -15453 
  -15276   -15118   -15029   -15017   -15070   -15176   -15306   -15403 
  -15454   -15492   -15534   -15552   -15541   -15565   -15666   -15803 
  -15884   -15876   -15804   -15691   -15564   -15445   -15325   -15168 
  -14968   -14802   -14752   -14824   -14971   -15153   -15337   -15477 
  -15579   -15678   -15807   -15936   -15993   -15936   -15826   -15758 
  -15749   -15743   -15739   -15785   -15861   -15894   -15890   -15925 
  -16029   -16141   -16201   -16220   -16227   -16213   -16154   -16032 
  -15853   -15650   -15471   -15360   -15350   -15430   -15539   -15614 
  -15591   -15448   -15244   -15049   -14875   -14758   -14748   -14816 
  -14899   -14983   -15061   -15118   -15168   -15228   -15282   -15336 
  -15426   -15556   -15682   -15780   -15846   -15889   -15892   -15834 
  -15758   -15709   -15682   -15664   -15626   -15552   -15479   -15472 
  -15543   -15658   -15749   -15749   -15661   -15566   -15508   -15448 
  -15327   -15138   -14935   -14793   -14724   -14667   -14555   -14366 
  -14154   -14015   -14013   -14107   -14249   -14442   -14667   -14864 
  -15009   -15130   -15286   -15519   -15827   -16129   -16341   -16441 
  -16452   -16370   -16179   -15885   -15527   -15190   -14971   -14917 
  -14975   -15063   -15153   -15271   -15404   -15506   -15558   -15595 
  -15630   -15647   -15630   -15572   -15476   -15340   -15159   -14964 
  -14825   -14786   -14858   -15009   -15205   -15403   -15558   -15681 
  -15838   -16025   -16144   -16133   -16032   -15892   -15696   -15427 
  -15114   -14824   -14594   -14397   -14237   -14149   -14111   -14068 
  -14029   -14025   -14048   -14099   -14214   -14380   -14524   -14612 
  -14679   -14762   -14860   -14976   -15130   -15314   -15471   -15541 
  -15508   -15390   -15234   -15138   -15165   -15304   -15496   -15669 
  -15782   -15853   -15904   -15935   -15946   -15950   -15955   -15940 
  -15880   -15768   -15618   -15431   -15187   -14889   -14605   -14431 
  -14397   -14481   -14675   -14997   -15437   -15943   -16426   -16788 
  -16997   -17069   -17014   -16843   -16618   -16426   -16313   -16232 
  -16135   -16040   -15988   -15996   -16051   -16125   -16208   -16290 
  -16343   -16310   -16166   -15921   -15612   -15286   -14986   -14782 
  -14747   -14891   -15147   -15425   -15674   -15889   -16063   -16108 
  -15896   -15442   -14937   -14567   -14386   -14386   -14553   -14824 
  -15071   -15180   -15157   -15090   -15033   -14968   -14875   -14808 
  -14813   -14791   -14621   -14328   -14056   -13900   -13872   -14003 
  -14335   -14820   -15360   -15839   -16112   -16120   -15969   -15795 
  -15633   -15483   -15380   -15333   -15303   -15271   -15244   -15250 
  -15338   -15547   -15867   -16264   -16686   -17043   -17239   -17238 
  -17061   -16742   -16312   -15843   -15468   -15283   -15286   -15444 
  -15724   -16060   -16368   -16627   -16827   -16914   -16839   -16619 
  -16267   -15792   -15267   -14841   -14597   -14485   -14423   -14404 
  -14431   -14480   -14536   -14627   -14737   -14808   -14790   -14702 
  -14612   -14580   -14598   -14642   -14713   -14824   -14953   -15075 
  -15215   -15385   -15531   -15576   -15477   -15261   -14995   -14739 
  -14562   -14548   -14697   -14895   -15029   -15026   -14885   -14715 
  -14648   -14727   -14902   -15134   -15375   -15526   -15529   -15422 
  -15256   -15048   -14843   -14689   -14590   -14561   -14612   -14652 
  -14578   -14461   -14453   -14604   -14881   -15264   -15687   -16032 
  -16305   -16633   -17035   -17356   -17486   -17459   -17335   -17127 
  -16856   -16557   -16229   -15893   -15673   -15699   -15970   -16360 
  -16703   -16910   -16976   -16907   -16684   -16306   -15850   -15446 
  -15198   -15101   -15101   -15159   -15234   -15296   -15323   -15265 
  -15103   -14894   -14686   -14480   -14301   -14204   -14141   -14003 
  -13814   -13745   -13907   -14199   -14435   -14565   -14663   -14777 
  -14898   -15007   -15067   -15043   -14976   -14955   -14987   -15016 
  -15010   -15010   -15082   -15275   -15600   -15970   -16251   -16387 
  -16416   -16356   -16225   -16104   -16055   -16047   -16046   -16065 
  -16089   -16047   -15907   -15724   -15565   -15454   -15411   -15421 
  -15408   -15334   -15241   -15184   -15148   -15086   -15016   -14985 
  -14964   -14901   -14793   -14659   -14511   -14382   -14273   -14137 
  -13980   -13887   -13900   -13986   -14108   -14289   -14501   -14638 
  -14673   -14685   -14715   -14733   -14758   -14845   -15028   -15280 
  -15574   -15892   -16193   -16414   -16479   -16389   -16267   -16237 
  -16295   -16374   -16430   -16414   -16274   -16040   -15835   -15711 
  -15577   -15337   -15044   -14856   -14840   -14906   -14979   -15080 
  -15242   -15469   -15778   -16113   -16289   -16189   -15863   -15468 
  -15176   -15078   -15134   -15253   -15345   -15387   -15438   -15531 
  -15603   -15592   -15547   -15557   -15639   -15765   -15886   -15932 
  -15855   -15701   -15577   -15545   -15565   -15561   -15526   -15489 
  -15471   -15468   -15477   -15510   -15583   -15677   -15769   -15880 
  -16048   -16264   -16506   -16787   -17072   -17250   -17236   -17064 
  -16858   -16752   -16808   -17034   -17369   -17693   -17921   -18050 
  -18119   -18141   -18072   -17902   -17713   -17558   -17393   -17162 
  -16866   -16542   -16236   -16033   -15975   -15931   -15741   -15444 
  -15183   -14970   -14720   -14442   -14261   -14278   -14503   -14874 
  -15314   -15763   -16195   -16588   -16872   -16988   -16966   -16837 
  -16590   -16276   -15990   -15734   -15448   -15168   -15034   -15099 
  -15271   -15465   -15678   -15851   -15896   -15870   -15928   -16087 
  -16237   -16308   -16275   -16113   -15858   -15619   -15427   -15207 
  -14914   -14584   -14287   -14141   -14235   -14504   -14739   -14787 
  -14659   -14470   -14331   -14314   -14461   -14744   -15016   -15137 
  -15136   -15163   -15342   -15638   -15842   -15789   -15510   -15140 
  -14774   -14477   -14303   -14261   -14281   -14257   -14116   -13896 
  -13711   -13613   -13560   -13544   -13590   -13671   -13733   -13771 
  -13806   -13859   -13954   -14052   -14068   -14023   -14022   -14075 
  -14112   -14089   -13987   -13828   -13691   -13637   -13594   -13458 
  -13234   -13030   -12976   -13127   -13432   -13776   -14053   -14220 
  -14276   -14223   -14077   -13846   -13494   -12997   -12502   -12262 
  -12312   -12434   -12490   -12538   -12631   -12711   -12780   -12962 
  -13285   -13629   -13922   -14192   -14485   -14817   -15160   -15456 
  -15634   -15668   -15635   -15677   -15869   -16179   -16524   -16834 
  -17082   -17254   -17354   -17477   -17753   -18168   -18607   -19002 
  -19319   -19519   -19616   -19656   -19624   -19489   -19213   -18802 
  -18361   -17996   -17729   -17500   -17263   -17050   -16879   -16668 
  -16353   -16028   -15832   -15781   -15768   -15696   -15597   -15591 
  -15718   -15920   -16100   -16195   -16243   -16321   -16453   -16634 
  -16870   -17077   -17074   -16775   -16314   -15880   -15519   -15213 
  -14993   -14893   -14936   -15213   -15782   -16525   -17246   -17826 
  -18208   -18395   -18455   -18432   -18253   -17848   -17273   -16627 
  -15916   -15103   -14261   -13520   -12937   -12486   -12154   -11985 
  -11983   -12064   -12162   -12275   -12441   -12726   -13142   -13590 
  -13975   -14278   -14488   -14565   -14536   -14557   -14689   -14806 
  -14841   -14872   -14904   -14870   -14774   -14647   -14494   -14349 
  -14287   -14361   -14532   -14715   -14871   -15001   -15063   -15025 
  -14899   -14705   -14521   -14467   -14563   -14742   -14944   -15114 
  -15187   -15133   -15002   -14912   -14909   -14906   -14862   -14877 
  -15034   -15304   -15587   -15816   -15971   -16019   -15890   -15512 
  -14918   -14289   -13790   -13479   -13392   -13548   -13899   -14312 
  -14651   -14894   -15145   -15476   -15890   -16372   -16864   -17266 
  -17539   -17720   -17817   -17774   -17617   -17462   -17369   -17255 
  -17030   -16734   -16490   -16395   -16522   -16892   -17413   -17917 
  -18308   -18589   -18765   -18804   -18689   -18492   -18318   -18189 
  -18041   -17826   -17541   -17169   -16700   -16217   -15792   -15426 
  -15174   -15122   -15232   -15357   -15410   -15419   -15449   -15495 
  -15506   -15438   -15295   -15105   -14874   -14571   -14169   -13656 
  -13063   -12472   -11950   -11507   -11161   -10968   -10966   -11122 
  -11384   -11726   -12163   -12711   -13328   -13975   -14659   -15329 
  -15873   -16227   -16376   -16359   -16271   -16190   -16133   -16098 
  -16048   -15965   -15909   -15938   -16027   -16166   -16384   -16684 
  -17022   -17323   -17556   -17725   -17799   -17772   -17662   -17428 
  -17064   -16627   -16141   -15612   -15118   -14762   -14563   -14462 
  -14399   -14347   -14305   -14273   -14214   -14079   -13898   -13764 
  -13737   -13799   -13879   -13921   -13925   -13925   -13945   -13990 
  -14029   -14076   -14220   -14470   -14715   -14889   -15014   -15080 
  -15032   -14837   -14573   -14355   -14234   -14230   -14405   -14779 
  -15288   -15866   -16430   -16864   -17085   -17113   -17000   -16761 
  -16457   -16240   -16227   -16379   -16596   -16842   -17064   -17178 
  -17163   -17099   -17026   -16912   -16777   -16727   -16767   -16792 
  -16776   -16745   -16672   -16494   -16170   -15728   -15286   -14970 
  -14840   -14864   -14952   -15049   -15155   -15280   -15407   -15519 
  -15642   -15789   -15893   -15863   -15697   -15438   -15098   -14709 
  -14335   -13975   -13591   -13209   -12880   -12604   -12367   -12208 
  -12214   -12390   -12649   -12955   -13312   -13641   -13838   -13868 
  -13741   -13495   -13228   -13057   -13045   -13144   -13274   -13419 
  -13574   -13680   -13722   -13751   -13768   -13734   -13671   -13630 
  -13633   -13652   -13686   -13787   -13996   -14268   -14528   -14789 
  -15079   -15352   -15527   -15634   -15755   -15898   -16025   -16152 
  -16299   -16445   -16572   -16718   -16926   -17196   -17521   -17895 
  -18284   -18613   -18828   -18922   -18904   -18747   -18495   -18285 
  -18164   -18067   -17972   -17914   -17865   -17797   -17752   -17775 
  -17815   -17802   -17718   -17583   -17417   -17251   -17128   -17046 
  -16949   -16771   -16497   -16162   -15812   -15458   -15106   -14820 
  -14673   -14644   -14632   -14573   -14482   -14420   -14428   -14490 
  -14557   -14575   -14543   -14515   -14534   -14604   -14720   -14852 
  -14956   -15026   -15107   -15215   -15314   -15368   -15396   -15439 
  -15519   -15628   -15723   -15759   -15738   -15687   -15639   -15626 
  -15649   -15701   -15796   -15913   -16008   -16035   -15954   -15777 
  -15573   -15396   -15265   -15223   -15294   -15414   -15488   -15475 
  -15395   -15290   -15191   -15106   -15036   -15021   -15115   -15315 
  -15552   -15749   -15844   -15815   -15687   -15523   -15372   -15245 
  -15094   -14827   -14413   -13959   -13574   -13288   -13084   -12947 
  -12868   -12834   -12830   -12854   -12927   -13072   -13269   -13470 
  -13656   -13849   -14030   -14150   -14211   -14253   -14284   -14277 
  -14218   -14119   -13994   -13859   -13744   -13653   -13595   -13614 
  -13752   -14010   -14308   -14532   -14650   -14692   -14713   -14771 
  -14883   -15029   -15211   -15452   -15715   -15919   -16019   -16017 
  -15925   -15769   -15580   -15421   -15390   -15547   -15838   -16116 
  -16297   -16413   -16522   -16640   -16746   -16810   -16825   -16841 
  -16926   -17099   -17331   -17567   -17736   -17778   -17686   -17490 
  -17242   -16993   -16807   -16715   -16704   -16721   -16737   -16769 
  -16829   -16879   -16864   -16760   -16605   -16506   -16556   -16713 
  -16877   -17026   -17163   -17247   -17230   -17107   -16904   -16653 
  -16384   -16109   -15838   -15630   -15541   -15558   -15633   -15720 
  -15800   -15835   -15758   -15565   -15337   -15137   -14960   -14794 
  -14644   -14508   -14369   -14229   -14121   -14033   -13930   -13861 
  -13952   -14230   -14575   -14875   -15148   -15418   -15627   -15758 
  -15863   -15954   -15970   -15874   -15716   -15580   -15485   -15419 
  -15385   -15391   -15456   -15606   -15785   -15888   -15921   -15992 
  -16121   -16231   -16281   -16293   -16256   -16125   -15903   -15641 
  -15391   -15187   -15043   -14953   -14905   -14909   -14990   -15101 
  -15153   -15117   -15007   -14852   -14719   -14655   -14642   -14629 
  -14632   -14710   -14864   -15017   -15110   -15163   -15209   -15249 
  -15260   -15241   -15205   -15113   -14913   -14628   -14339   -14087 
  -13840   -13564   -13282   -13055   -12893   -12775   -12722   -12768 
  -12891   -13035   -13142   -13180   -13184   -13224   -13343   -13537 
  -13767   -13967   -14123   -14284   -14490   -14763   -15080   -15385 
  -15634   -15811   -15934   -16060   -16221   -16397   -16569   -16722 
  -16831   -16872   -16846   -16800   -16761   -16711   -16642   -16555 
  -16445   -16321   -16217   -16202   -16289   -16378   -16375   -16283 
  -16162   -16047   -15935   -15793   -15604   -15373   -15114   -14829 
  -14540   -14326   -14251   -14318   -14473   -14675   -14882   -15024 
  -15043   -14982   -14943   -14997   -15182   -15506   -15942   -16403 
  -16808   -17120   -17305   -17319   -17185   -17018   -16889   -16803 
  -16757   -16710   -16598   -16403   -16129   -15796   -15441   -15090 
  -14747   -14454   -14291   -14266   -14303   -14323   -14296   -14218 
  -14126   -14065   -14067   -14112   -14131   -14107   -14100   -14116 
  -14157   -14291   -14534   -14767   -14889   -14932   -14986   -15076 
  -15164   -15248   -15354   -15445   -15454   -15395   -15294   -15152 
  -15014   -14949   -14948   -14909   -14762   -14548   -14319   -14075 
  -13849   -13689   -13589   -13547   -13587   -13718   -13922   -14179 
  -14473   -14782   -15030   -15155   -15187   -15194   -15194   -15191 
  -15184   -15114   -14939   -14704   -14486   -14316   -14203   -14141 
  -14087   -14011   -13967   -14035   -14253   -14602   -15043   -15531 
  -16047   -16563   -17041   -17433   -17691   -17790   -17771   -17710 
  -17637   -17528   -17398   -17309   -17278   -17270   -17270   -17289 
  -17300   -17247   -17092   -16848   -16560   -16264   -15979   -15722 
