Origin Time       2025/01/13 21:19:00
Lat.              31.8
Long.             131.6
Depth. (km)       30
Mag.              6.9
Station Code      KMM022
Station Lat.      32.1945
Station Long.     130.0270
Station Height(m) 3
Record Time       2025/01/13 21:20:10
Sampling Freq(Hz) 100Hz
Duration Time(s)  89
Dir.              U-D
Scale Factor      7845(gal)/8223790
Max. Acc. (gal)   1.848
Last Correction   2025/01/13 21:20:10
Memo.             
[...]
  -19788   -19853   -19982   -20155   -20316   -20439   -20561   -20742 
  -20979   -21195   -21321   -21347   -21312   -21242   -21145   -21064 
  -21046   -21076   -21095   -21085   -21074   -21093   -21116   -21087 
  -20993   -20875   -20741   -20623   -20583   -20649   -20775   -20904 
  -21033   -21173   -21312   -21408   -21420   -21346   -21232   -21124 
  -21028   -20916   -20794   -20733   -20784   -20893   -20938   -20857 
  -20706   -20559   -20424   -20272   -20100   -19931   -19791   -19680 
  -19580   -19503   -19469   -19461   -19448   -19427   -19426   -19477 
  -19599   -19768   -19942   -20100   -20235   -20356   -20472   -20599 
  -20749   -20898   -21010   -21078   -21135   -21203   -21293   -21412 
  -21573   -21784   -22010   -22173   -22254   -22311   -22385   -22438 
  -22411   -22312   -22204   -22119   -22023   -21901   -21801   -21767 
  -21743   -21624   -21381   -21111   -20910   -20761   -20601   -20422 
  -20281   -20208   -20183   -20163   -20137   -20155   -20289   -20532 
  -20808   -21065   -21317   -21564   -21744   -21806   -21740   -21547 
  -21267   -20962   -20657   -20343   -20042   -19843   -19773   -19747 
  -19700   -19668   -19673   -19680   -19693   -19766   -19905   -20058 
  -20194   -20313   -20397   -20414   -20380   -20348   -20328   -20275 
  -20159   -20027   -19957   -19978   -20065   -20194   -20367   -20579 
  -20812   -21022   -21174   -21296   -21415   -21514   -21544   -21478 
  -21359   -21249   -21147   -21049   -20958   -20892   -20868   -20895 
  -20960   -21027   -21023   -20888   -20628   -20322   -20054   -19858 
  -19737   -19701   -19755   -19866   -19984   -20086   -20171   -20225 
  -20228   -20171   -20082   -20024   -20071   -20220   -20417   -20613 
  -20748   -20776   -20694   -20515   -20290   -20082   -19931   -19849 
  -19843   -19893   -19948   -20012   -20131   -20316   -20536   -20768 
  -20988   -21159   -21244   -21244   -21207   -21153   -21073   -20961 
  -20814   -20640   -20478   -20351   -20256   -20223   -20285   -20417 
  -20547   -20630   -20687   -20731   -20729   -20649   -20521   -20390 
  -20275   -20160   -20034   -19928   -19924   -20048   -20236   -20414 
  -20561   -20680   -20784   -20910   -21039   -21104   -21089   -21050 
  -21012   -20942   -20812   -20650   -20480   -20317   -20173   -20066 
  -20008   -20002   -20025   -20056   -20098   -20119   -20059   -19943 
  -19812   -19649   -19442   -19219   -19018   -18866   -18766   -18732 
  -18787   -18902   -19044   -19237   -19475   -19685   -19835   -19959 
  -20083   -20190   -20235   -20205   -20170   -20201   -20290   -20366 
  -20375   -20360   -20391   -20451   -20484   -20503   -20542   -20609 
  -20702   -20802   -20857   -20849   -20826   -20814   -20775   -20703 
  -20641   -20599   -20560   -20515   -20479   -20456   -20433   -20387 
  -20306   -20177   -20002   -19801   -19585   -19373   -19201   -19093 
  -19039   -19017   -19028   -19103   -19275   -19512   -19739   -19904 
  -20012   -20074   -20093   -20081   -20073   -20090   -20136   -20198 
  -20270   -20356   -20453   -20540   -20579   -20559   -20515   -20464 
  -20362   -20202   -20036   -19917   -19881   -19928   -20004   -20075 
  -20183   -20362   -20575   -20763   -20916   -21043   -21111   -21104 
  -21037   -20935   -20837   -20765   -20717   -20683   -20687   -20727 
  -20746   -20714   -20656   -20602   -20544   -20453   -20322   -20179 
  -20065   -19998   -19982   -20027   -20128   -20254   -20371   -20475 
  -20591   -20734   -20908   -21119   -21325   -21469   -21552   -21590 
  -21528   -21331   -21037   -20711   -20414   -20187   -20040   -19967 
  -19955   -20005   -20125   -20305   -20520   -20748   -20953   -21107 
  -21209   -21290   -21377   -21471   -21544   -21574   -21556   -21509 
  -21440   -21323   -21145   -20965   -20837   -20760   -20730   -20756 
  -20823   -20900   -20960   -21007   -21060   -21116   -21159   -21173 
  -21169   -21165   -21154   -21114   -21039   -20934   -20814   -20713 
  -20663   -20650   -20634   -20591   -20528   -20472   -20456   -20457 
  -20445   -20437   -20448   -20429   -20340   -20227   -20174   -20223 
  -20349   -20506   -20657   -20795   -20922   -21058   -21207   -21330 
  -21400   -21411   -21373   -21315   -21255   -21204   -21155   -21078 
  -20985   -20930   -20933   -20966   -21014   -21076   -21141   -21188 
  -21228   -21288   -21344   -21357   -21328   -21301   -21303   -21338 
  -21398   -21467   -21521   -21516   -21423   -21249   -21008   -20740 
  -20507   -20347   -20236   -20148   -20097   -20106   -20171   -20272 
  -20390   -20514   -20652   -20785   -20871   -20885   -20849   -20792 
  -20714   -20590   -20436   -20295   -20177   -20061   -19948   -19855 
  -19778   -19726   -19718   -19741   -19761   -19759   -19757   -19782 
  -19812   -19804   -19757   -19699   -19641   -19561   -19460   -19402 
  -19433   -19512   -19570   -19607   -19665   -19773   -19903   -19994 
  -20034   -20074   -20158   -20270   -20360   -20424   -20503   -20641 
  -20821   -20962   -21026   -21060   -21118   -21170   -21162   -21095 
  -21026   -20984   -20939   -20871   -20807   -20804   -20880   -20983 
  -21034   -21022   -21000   -20997   -20985   -20923   -20806   -20656 
  -20513   -20416   -20385   -20393   -20424   -20479   -20534   -20544 
  -20525   -20518   -20503   -20443   -20348   -20248   -20169   -20110 
  -20052   -20001   -19996   -20052   -20136   -20229   -20353   -20517 
  -20684   -20831   -20961   -21068   -21142   -21181   -21200   -21201 
  -21178   -21116   -21007   -20866   -20722   -20569   -20378   -20144 
  -19916   -19739   -19643   -19643   -19704   -19774   -19838   -19899 
  -19953   -20002   -20066   -20171   -20308   -20445   -20578   -20703 
  -20802   -20857   -20883   -20910   -20935   -20931   -20875   -20771 
  -20655   -20551   -20459   -20375   -20289   -20193   -20105   -20039 
  -20009   -20042   -20146   -20294   -20455   -20615   -20781   -20945 
  -21088   -21180   -21204   -21185   -21157   -21142   -21139   -21136 
  -21149   -21199   -21273   -21336   -21379   -21415   -21435   -21420 
  -21373   -21313   -21242   -21143   -20996   -20810   -20636   -20486 
  -20352   -20274   -20283   -20366   -20494   -20648   -20799   -20929 
  -21030   -21087   -21050   -20908   -20731   -20569   -20399   -20206 
  -20025   -19892   -19801   -19732   -19668   -19589   -19492   -19381 
  -19290   -19219   -19114   -18963   -18847   -18831   -18898   -18997 
  -19097   -19210   -19360   -19523   -19650   -19743   -19831   -19923 
  -20017   -20121   -20233   -20324   -20376   -20421   -20484   -20552 
  -20607   -20641   -20644   -20633   -20611   -20548   -20441   -20333 
  -20278   -20287   -20341   -20421   -20507   -20582   -20634   -20657 
  -20629   -20542   -20405   -20255   -20142   -20096   -20102   -20123 
  -20144   -20196   -20282   -20379   -20474   -20553   -20606   -20637 
  -20637   -20590   -20507   -20407   -20310   -20240   -20196   -20167 
  -20160   -20178   -20201   -20224   -20252   -20282   -20313   -20352 
  -20395   -20425   -20455   -20509   -20588   -20669   -20734   -20799 
  -20876   -20945   -20973   -20952   -20891   -20777   -20584   -20331 
  -20069   -19840   -19665   -19550   -19507   -19564   -19726   -19961 
  -20240   -20549   -20845   -21074   -21227   -21339   -21442   -21525 
  -21573   -21571   -21529   -21473   -21411   -21327   -21208   -21078 
  -20949   -20802   -20634   -20468   -20332   -20235   -20174   -20147 
  -20142   -20162   -20237   -20390   -20576   -20733   -20827   -20868 
  -20857   -20799   -20692   -20545   -20398   -20287   -20212   -20156 
  -20115   -20088   -20071   -20035   -19957   -19862   -19786   -19755 
  -19795   -19931   -20148   -20391   -20629   -20884   -21157   -21384 
  -21510   -21559   -21566   -21552   -21506   -21405   -21255   -21124 
  -21064   -21049   -21045   -21047   -21060   -21096   -21150   -21165 
  -21105   -20987   -20850   -20714   -20587   -20499   -20471   -20483 
  -20538   -20665   -20839   -21014   -21165   -21285   -21358   -21355 
  -21286   -21203   -21136   -21058   -20953   -20861   -20812   -20808 
  -20839   -20883   -20918   -20968   -21061   -21189   -21319   -21412 
  -21440   -21420   -21397   -21385   -21373   -21350   -21307   -21249 
  -21173   -21061   -20919   -20781   -20657   -20522   -20353   -20167 
  -20009   -19905   -19851   -19836   -19839   -19834   -19818   -19808 
  -19815   -19831   -19838   -19839   -19857   -19890   -19911   -19916 
  -19932   -19970   -20017   -20055   -20081   -20090   -20078   -20058 
  -20055   -20077   -20096   -20096   -20081   -20067   -20065   -20069 
  -20071   -20070   -20069   -20066   -20059   -20073   -20113   -20150 
  -20150   -20108   -20036   -19935   -19819   -19715   -19637   -19596 
  -19589   -19588   -19579   -19569   -19568   -19592   -19660   -19770 
  -19928   -20121   -20314   -20482   -20607   -20680   -20703   -20673 
  -20583   -20449   -20304   -20170   -20051   -19942   -19853   -19811 
  -19822   -19873   -19940   -20002   -20061   -20135   -20237   -20360 
  -20482   -20574   -20621   -20633   -20621   -20599   -20583   -20565 
  -20533   -20511   -20522   -20541   -20529   -20486   -20430   -20375 
  -20333   -20309   -20305   -20310   -20313   -20314   -20309   -20278 
  -20231   -20216   -20259   -20347   -20453   -20579   -20740   -20925 
  -21093   -21211   -21270   -21266   -21201   -21096   -20970   -20829 
  -20684   -20565   -20490   -20456   -20474   -20542   -20648   -20761 
  -20860   -20923   -20947   -20937   -20893   -20815   -20719   -20641 
  -20588   -20547   -20520   -20521   -20540   -20551   -20552   -20549 
  -20556   -20582   -20623   -20682   -20758   -20854   -20957   -21051 
  -21120   -21157   -21180   -21199   -21197   -21159   -21082   -20964 
  -20837   -20729   -20632   -20551   -20505   -20494   -20506   -20537 
  -20580   -20598   -20567   -20498   -20395   -20268   -20137   -20008 
  -19888   -19799   -19761   -19784   -19876   -20034   -20221   -20399 
  -20538   -20605   -20574   -20457   -20283   -20074   -19835   -19588 
  -19368   -19205   -19098   -19039   -19024   -19072   -19186   -19349 
  -19549   -19768   -19977   -20159   -20305   -20425   -20526   -20611 
  -20682   -20744   -20798   -20842   -20877   -20892   -20866   -20794 
  -20698   -20606   -20529   -20479   -20467   -20495   -20549   -20605 
  -20646   -20664   -20660   -20644   -20626   -20596   -20547   -20498 
  -20472   -20468   -20498   -20580   -20702   -20861   -21055   -21262 
  -21447   -21581   -21649   -21647   -21558   -21385   -21155   -20912 
  -20690   -20505   -20358   -20258   -20221   -20237   -20247   -20210 
  -20125   -20007   -19878   -19776   -19705   -19674   -19703   -19805 
  -19977   -20187   -20410   -20637   -20844   -20988   -21050   -21026 
  -20939   -20826   -20706   -20602   -20547   -20552   -20602   -20692 
  -20811   -20934   -21053   -21166   -21251   -21281   -21249   -21151 
  -20983   -20748   -20478   -20225   -20023   -19888   -19818   -19785 
  -19781   -19812   -19863   -19894   -19899   -19900   -19931   -20016 
  -20156   -20341   -20568   -20838   -21126   -21394   -21622   -21805 
  -21921   -21959   -21924   -21825   -21670   -21479   -21277   -21070 
  -20852   -20619   -20383   -20146   -19908   -19701   -19562   -19489 
  -19476   -19529   -19650   -19836   -20081   -20340   -20571   -20764 
  -20929   -21057   -21126   -21138   -21109   -21051   -20965   -20845 
  -20694   -20522   -20367   -20262   -20210   -20205   -20258   -20366 
  -20497   -20619   -20711   -20745   -20709   -20605   -20432   -20218 
  -20000   -19801   -19647   -19565   -19556   -19596   -19658   -19741 
  -19845   -19953   -20047   -20110   -20125   -20105   -20067   -20009 
  -19931   -19838   -19745   -19672   -19635   -19646   -19711   -19824 
  -19981   -20164   -20340   -20476   -20568   -20610   -20595   -20545 
  -20494   -20455   -20421   -20397   -20382   -20383   -20416   -20483 
  -20576   -20703   -20856   -21006   -21134   -21227   -21288   -21327 
  -21338   -21324   -21316   -21342   -21390   -21450   -21521   -21598 
  -21664   -21693   -21662   -21575   -21444   -21269   -21060   -20869 
  -20721   -20602   -20513   -20474   -20493   -20560   -20671   -20806 
  -20937   -21049   -21136   -21182   -21169   -21095   -20962   -20772 
  -20515   -20214   -19916   -19658   -19457   -19315   -19233   -19222 
  -19272   -19356   -19456   -19572   -19704   -19843   -19965   -20047 
  -20092   -20105   -20106   -20105   -20093   -20066   -20029   -19986 
  -19938   -19880   -19832   -19830   -19876   -19942   -20011   -20079 
  -20137   -20178   -20204   -20223   -20232   -20231   -20224   -20224 
  -20224   -20220   -20228   -20258   -20301   -20345   -20378   -20410 
  -20451   -20480   -20483   -20463   -20439   -20429   -20451   -20509 
  -20609   -20752   -20933   -21119   -21258   -21312   -21276   -21169 
  -21003   -20777   -20514   -20262   -20070   -19961   -19935   -19989 
  -20117   -20304   -20526   -20754   -20952   -21093   -21169   -21174 
  -21107   -20973   -20794   -20598   -20412   -20254   -20154   -20127 
  -20166   -20262   -20399   -20555   -20692   -20785   -20819   -20796 
  -20734   -20642   -20533   -20440   -20398   -20428   -20532   -20694 
  -20888   -21091   -21292   -21469   -21575   -21591   -21532   -21429 
  -21297   -21146   -20993   -20860   -20749   -20675   -20660   -20706 
  -20807   -20957   -21141   -21362   -21622   -21891   -22129   -22304 
  -22412   -22447   -22407   -22303   -22145   -21937   -21702   -21452 
  -21178   -20895   -20634   -20422   -20287   -20236   -20251   -20301 
  -20372   -20452   -20515   -20548   -20559   -20563   -20572   -20595 
  -20642   -20715   -20811   -20933   -21074   -21201   -21269   -21251 
  -21145   -20970   -20750   -20507   -20270   -20067   -19928   -19870 
  -19878   -19939   -20052   -20196   -20333   -20461   -20575   -20667 
  -20737   -20788   -20823   -20841   -20849   -20846   -20814   -20752 
  -20672   -20574   -20463   -20362   -20291   -20270   -20305   -20387 
  -20506   -20665   -20864   -21073   -21259   -21393   -21473   -21501 
  -21485   -21428   -21335   -21215   -21084   -20962   -20858   -20775 
  -20714   -20671   -20641   -20619   -20594   -20552   -20498   -20443 
  -20387   -20326   -20275   -20255   -20272   -20328   -20416   -20522 
  -20626   -20711   -20764   -20764   -20722   -20671   -20630   -20606 
  -20606   -20634   -20680   -20745   -20821   -20880   -20898   -20865 
  -20769   -20617   -20428   -20223   -20023   -19847   -19718   -19634 
  -19588   -19581   -19616   -19678   -19745   -19805   -19850   -19869 
  -19870   -19862   -19851   -19850   -19867   -19919   -20009   -20133 
  -20279   -20421   -20536   -20615   -20650   -20622   -20532   -20398 
  -20237   -20078   -19958   -19890   -19866   -19863   -19865   -19855 
  -19828   -19773   -19695   -19618   -19560   -19521   -19503   -19510 
  -19538   -19588   -19651   -19704   -19737   -19761   -19778   -19788 
  -19805   -19843   -19889   -19931   -19958   -19967   -19963   -19955 
  -19953   -19970   -20013   -20070   -20124   -20156   -20166   -20156 
  -20140   -20139   -20164   -20224   -20328   -20468   -20615   -20737 
  -20802   -20798   -20730   -20622   -20502   -20389   -20275   -20164 
  -20062   -19962   -19872   -19819   -19831   -19926   -20100   -20329 
  -20569   -20776   -20926   -20996   -20972   -20862   -20691   -20476 
  -20248   -20040   -19878   -19778   -19746   -19778   -19858   -19969 
  -20105   -20258   -20406   -20537   -20637   -20690   -20688   -20638 
  -20561   -20484   -20425   -20391   -20397   -20453   -20563   -20699 
  -20839   -20980   -21112   -21235   -21352   -21447   -21498   -21508 
  -21489   -21448   -21385   -21303   -21208   -21103   -20968   -20810 
  -20646   -20494   -20360   -20252   -20171   -20125   -20144   -20243 
  -20389   -20555   -20745   -20946   -21127   -21259   -21340   -21371 
  -21344   -21280   -21219   -21178   -21176   -21217   -21292   -21377 
  -21462   -21523   -21537   -21502   -21412   -21277   -21116   -20953 
  -20795   -20636   -20493   -20379   -20302   -20254   -20217   -20173 
  -20113   -20040   -19947   -19828   -19681   -19527   -19395   -19299 
  -19263   -19314   -19468   -19712   -20025   -20364   -20679   -20929 
  -21099   -21176   -21165   -21092   -20988   -20880   -20792   -20727 
  -20686   -20673   -20686   -20710   -20741   -20777   -20825   -20888 
  -20964   -21051   -21155   -21263   -21359   -21432   -21475   -21489 
  -21483   -21469   -21439   -21375   -21270   -21141   -21006   -20879 
  -20779   -20717   -20698   -20726   -20779   -20817   -20822   -20787 
  -20690   -20544   -20378   -20205   -20029   -19876   -19765   -19714 
  -19734   -19809   -19905   -20009   -20128   -20268   -20413   -20545 
  -20667   -20783   -20895   -20992   -21039   -21016   -20925   -20784 
  -20630   -20495   -20403   -20379   -20430   -20536   -20648   -20721 
  -20738   -20714   -20673   -20632   -20601   -20584   -20590   -20613 
  -20638   -20659   -20677   -20707   -20748   -20792   -20830   -20850 
  -20845   -20812   -20752   -20671   -20584   -20499   -20433   -20406 
  -20409   -20432   -20468   -20501   -20513   -20505   -20490   -20470 
  -20447   -20424   -20403   -20393   -20390   -20386   -20362   -20317 
  -20267   -20221   -20166   -20090   -19997   -19905   -19834   -19795 
  -19803   -19858   -19951   -20066   -20174   -20239   -20235   -20150 
  -19981   -19758   -19530   -19327   -19172   -19089   -19090   -19178 
  -19332   -19519   -19718   -19921   -20119   -20282   -20387   -20429 
  -20422   -20382   -20322   -20260   -20204   -20159   -20140   -20151 
  -20174   -20200   -20220   -20221   -20198   -20156   -20110   -20086 
  -20105   -20181   -20321   -20520   -20758   -21011   -21251   -21452 
  -21600   -21689   -21712   -21670   -21571   -21444   -21319   -21217 
  -21139   -21074   -21030   -21018   -21028   -21046   -21065   -21085 
  -21103   -21116   -21134   -21153   -21170   -21195   -21223   -21236 
  -21238   -21234   -21222   -21199   -21163   -21127   -21107   -21116 
  -21153   -21211   -21289   -21377   -21463   -21532   -21568   -21563 
  -21519   -21444   -21350   -21247   -21157   -21087   -21041   -21019 
  -21024   -21049   -21081   -21123   -21186   -21274   -21388   -21520 
  -21662   -21799   -21909   -21973   -21988   -21949   -21832   -21632 
  -21370   -21073   -20773   -20493   -20247   -20056   -19944   -19916 
  -19965   -20067   -20209   -20375   -20536   -20668   -20767   -20822 
  -20839   -20829   -20781   -20684   -20545   -20395   -20259   -20162 
  -20124   -20136   -20177   -20227   -20266   -20278   -20256   -20198 
  -20106   -19996   -19873   -19746   -19629   -19522   -19441   -19408 
  -19434   -19516   -19654   -19831   -20028   -20227   -20390   -20478 
  -20487   -20425   -20298   -20129   -19959   -19805   -19674   -19583 
  -19542   -19541   -19572   -19623   -19676   -19726   -19781   -19835 
  -19882   -19928   -19961   -19959   -19920   -19859   -19792   -19731 
  -19695   -19693   -19728   -19799   -19896   -19998   -20075   -20112 
  -20109   -20071   -20008   -19940   -19897   -19889   -19920   -19985 
  -20063   -20148   -20244   -20343   -20439   -20538   -20645   -20752 
  -20854   -20949   -21034   -21096   -21115   -21091   -21023   -20920 
