Origin Time       2025/01/13 21:19:00
Lat.              31.8
Long.             131.6
Depth. (km)       30
Mag.              6.9
Station Code      KMM013
Station Lat.      32.3644
Station Long.     130.5089
Station Height(m) 6
Record Time       2025/01/13 21:20:00
Sampling Freq(Hz) 100Hz
Duration Time(s)  96
Dir.              N-S
Scale Factor      7845(gal)/8223790
Max. Acc. (gal)   5.437
Last Correction   2025/01/13 21:20:00
Memo.             
[...]
    -338     -257     -153     -174     -367     -639     -886    -1116 
   -1390    -1741    -2120    -2461    -2766    -3051    -3262    -3366 
   -3397    -3383    -3315    -3210    -3080    -2937    -2814    -2693 
   -2494    -2160    -1722    -1324    -1117    -1085    -1100    -1104 
   -1123    -1215    -1363    -1410    -1220     -849     -436      -89 
     126      217      186      -14     -421     -953    -1432    -1744 
   -1945    -2100    -2162    -2073    -1831    -1495    -1167     -901 
    -700     -614     -669     -831    -1098    -1459    -1827    -2099 
   -2218    -2216    -2188    -2168    -2068    -1849    -1611    -1485 
   -1486    -1566    -1721    -2038    -2542    -3103    -3561    -3858 
   -4056    -4275    -4507    -4606    -4479    -4216    -4014    -3978 
   -4012    -3971    -3859    -3744    -3578    -3229    -2631    -1914 
   -1302     -874     -492      -28      492      976     1371     1717 
    2066     2390     2639     2813     2898     2884     2787     2598 
    2320     2014     1728     1444     1121      742      326     -101 
    -557    -1042    -1525    -2004    -2500    -3006    -3507    -3944 
   -4224    -4345    -4376    -4348    -4213    -3881    -3360    -2849 
   -2528    -2367    -2243    -2037    -1742    -1536    -1564    -1695 
   -1686    -1478    -1220    -1053     -963     -873     -765     -720 
    -843    -1123    -1452    -1741    -1966    -2133    -2247    -2311 
   -2330    -2369    -2479    -2613    -2708    -2778    -2847    -2883 
   -2847    -2710    -2452    -2104    -1772    -1559    -1490    -1539 
   -1657    -1780    -1830    -1806    -1776    -1764    -1746    -1728 
   -1741    -1788    -1876    -2042    -2265    -2508    -2795    -3126 
   -3402    -3510    -3454    -3357    -3318    -3333    -3337    -3323 
   -3362    -3466    -3562    -3604    -3589    -3495    -3331    -3132 
   -2905    -2698    -2614    -2690    -2851    -3021    -3191    -3397 
   -3609    -3738    -3747    -3701    -3655    -3580    -3419    -3187 
   -2963    -2798    -2677    -2566    -2454    -2357    -2274    -2135 
   -1885    -1561    -1216     -881     -573     -297      -40      226 
     534      850     1135     1420     1745     2096     2419     2648 
    2756     2776     2716     2525     2211     1849     1551     1389 
    1321     1248     1105      842      456      -16     -561    -1174 
   -1783    -2268    -2577    -2767    -2886    -2867    -2648    -2276 
   -1873    -1540    -1332    -1219    -1112    -1007     -935     -846 
    -625     -206      340      828     1111     1158     1024      777 
     421      -99     -764    -1410    -1894    -2236    -2550    -2802 
   -2894    -2893    -2930    -3044    -3195    -3339    -3510    -3790 
   -4171    -4531    -4783    -4877    -4796    -4527    -4036    -3338 
   -2596    -1979    -1525    -1183     -866     -583     -445     -483 
    -585     -629     -549     -413     -332     -299     -202       45 
     380      603      633      561      454      326      168      -51 
    -299     -511     -693     -872    -1035    -1193    -1394    -1701 
   -2133    -2678    -3333    -4058    -4789    -5445    -5914    -6114 
   -6088    -5956    -5798    -5613    -5427    -5281    -5146    -4996 
   -4843    -4645    -4355    -3989    -3562    -3053    -2431    -1669 
    -816       -1      649     1061     1209     1152     1013      908 
     899     1000     1208     1533     1927     2295     2596     2797 
    2783     2438     1741      789     -217    -1108    -1813    -2317 
   -2652    -2886    -3084    -3292    -3558    -3908    -4361    -4945 
   -5621    -6292    -6856    -7230    -7372    -7299    -7007    -6511 
   -5952    -5491    -5151    -4882    -4666    -4457    -4178    -3763 
   -3152    -2334    -1362     -319      683     1551     2251     2767 
    3057     3134     3096     3013     2847     2543     2087     1552 
    1075      704      348      -86     -576    -1048    -1486    -1957 
   -2490    -2984    -3300    -3399    -3352    -3254    -3161    -3091 
   -3033    -2959    -2903    -2901    -2845    -2612    -2220    -1775 
   -1381    -1077     -827     -612     -507     -595     -849    -1121 
   -1313    -1459    -1609    -1749    -1858    -1939    -2019    -2135 
   -2313    -2513    -2664    -2763    -2845    -2918    -3017    -3184 
   -3352    -3397    -3300    -3129    -2955    -2812    -2720    -2686 
   -2679    -2647    -2565    -2416    -2164    -1822    -1490    -1250 
   -1094     -962     -797     -568     -271       71      421      738 
    1032     1294     1414     1327     1038      575       31     -469 
    -907    -1308    -1674    -1976    -2212    -2419    -2631    -2840 
   -3032    -3206    -3376    -3558    -3743    -3871    -3861    -3667 
   -3315    -2856    -2380    -1981    -1692    -1505    -1395    -1321 
   -1242    -1158    -1094    -1039     -950     -799     -545     -211 
      36       56     -174     -599    -1107    -1606    -2054    -2417 
   -2709    -2957    -3146    -3268    -3342    -3387    -3399    -3387 
   -3387    -3376    -3285    -3106    -2894    -2694    -2488    -2273 
   -2101    -1976    -1876    -1834    -1875    -2012    -2268    -2621 
   -3002    -3287    -3343    -3175    -2928    -2724    -2544    -2319 
   -2038    -1745    -1487    -1262    -1027     -793     -634     -573 
    -573     -600     -683     -857    -1081    -1298    -1466    -1512 
   -1410    -1208     -950     -646     -313        2      244      379 
     400      271      -54     -568    -1186    -1776    -2282    -2756 
   -3227    -3645    -3955    -4118    -4153    -4145    -4132    -4105 
   -4056    -3964    -3843    -3720    -3558    -3339    -3099    -2882 
   -2679    -2404    -2003    -1532    -1073     -660     -275       72 
     340      541      724      886     1023     1109     1078      943 
     749      507      271       44     -218     -510     -810    -1085 
   -1331    -1583    -1818    -2037    -2319    -2648    -2943    -3156 
   -3253    -3241    -3146    -2974    -2766    -2600    -2501    -2439 
   -2365    -2261    -2124    -1917    -1615    -1283     -959     -637 
    -302       49      375      631      792      791      643      480 
     344      178      -67     -376     -645     -784     -811     -796 
    -797     -839     -896     -967    -1094    -1285    -1553    -1900 
   -2269    -2643    -3034    -3420    -3763    -3977    -3997    -3867 
   -3604    -3175    -2614    -1991    -1371     -826     -376      -36 
     180      276      217       35     -153     -291     -382     -440 
    -531     -662     -777     -876    -1012    -1231    -1541    -1892 
   -2228    -2563    -2895    -3172    -3329    -3327    -3213    -3065 
   -2894    -2671    -2448    -2284    -2178    -2106    -2038    -1996 
   -2034    -2173    -2386    -2613    -2816    -3037    -3295    -3497 
   -3585    -3586    -3532    -3458    -3389    -3279    -3102    -2883 
   -2678    -2571    -2565    -2571    -2554    -2486    -2331    -2101 
   -1844    -1590    -1364    -1189    -1077    -1019     -969     -918 
    -873     -799     -684     -562     -457     -367     -297     -263 
    -297     -421     -639     -918    -1198    -1480    -1807    -2170 
   -2528    -2833    -3015    -3048    -3007    -2995    -2998    -2938 
   -2814    -2667    -2498    -2312    -2131    -1979    -1867    -1786 
   -1686    -1518    -1306    -1119    -1000     -909     -793     -702 
    -714     -812     -904     -907     -827     -747     -758     -888 
   -1071    -1206    -1267    -1312    -1375    -1458    -1530    -1547 
   -1540    -1614    -1768    -1930    -2064    -2158    -2232    -2315 
   -2366    -2354    -2311    -2261    -2187    -2064    -1885    -1671 
   -1459    -1252    -1020     -753     -460     -183       -2       59 
      66       58       17      -94     -282     -500     -731     -981 
   -1219    -1408    -1526    -1584    -1642    -1759    -1945    -2182 
   -2443    -2702    -2921    -3059    -3121    -3160    -3188    -3183 
   -3154    -3140    -3130    -3038    -2782    -2367    -1877    -1393 
    -940     -517     -143      140      325      445      530      584 
     584      514      391      255      101     -122     -427     -805 
   -1266    -1771    -2262    -2747    -3196    -3478    -3492    -3272 
   -2921    -2517    -2099    -1713    -1422    -1256    -1202    -1200 
   -1189    -1175    -1163    -1131    -1073    -1000     -924     -882 
    -904     -961    -1030    -1139    -1282    -1408    -1482    -1489 
   -1458    -1472    -1567    -1687    -1788    -1926    -2192    -2586 
   -3032    -3454    -3828    -4114    -4267    -4315    -4328    -4345 
   -4396    -4475    -4542    -4573    -4531    -4361    -4081    -3761 
   -3426    -3032    -2539    -1981    -1462    -1078     -854     -777 
    -828     -940    -1040    -1107    -1119    -1071    -1005     -980 
   -1048    -1212    -1398    -1582    -1786    -2030    -2342    -2685 
   -2941    -3063    -3100    -3082    -2998    -2868    -2759    -2743 
   -2829    -2922    -2906    -2768    -2556    -2305    -2035    -1771 
   -1545    -1383    -1286    -1262    -1291    -1331    -1367    -1386 
   -1354    -1293    -1219    -1104     -958     -831     -754     -738 
    -791     -900    -1044    -1239    -1480    -1721    -1904    -1975 
   -1933    -1863    -1798    -1717    -1618    -1532    -1489    -1474 
   -1409    -1244    -1026     -851     -815     -957    -1217    -1478 
   -1680    -1813    -1867    -1868    -1841    -1767    -1629    -1422 
   -1144     -841     -599     -491     -545     -715     -962    -1252 
   -1501    -1642    -1699    -1696    -1663    -1644    -1668    -1748 
   -1908    -2165    -2520    -2970    -3468    -3944    -4355    -4679 
   -4891    -4949    -4816    -4507    -4113    -3723    -3391    -3145 
   -2979    -2882    -2845    -2816    -2739    -2596    -2401    -2172 
   -1931    -1725    -1571    -1422    -1221     -955     -660     -392 
    -179        6      207      445      718     1028     1375     1729 
    2033     2200     2157     1939     1652     1344     1001      584 
      87     -433     -920    -1375    -1845    -2369    -2933    -3464 
   -3923    -4353    -4792    -5185    -5454    -5559    -5508    -5358 
   -5162    -4907    -4576    -4197    -3808    -3468    -3214    -3026 
   -2883    -2781    -2708    -2666    -2623    -2535    -2398    -2232 
   -2070    -1969    -1979    -2111    -2335    -2597    -2855    -3096 
   -3294    -3369    -3296    -3119    -2880    -2604    -2313    -2050 
   -1841    -1672    -1513    -1340    -1158     -994     -878     -800 
    -726     -652     -569     -456     -334     -255     -234     -287 
    -429     -639     -873    -1061    -1125    -1054     -882     -630 
    -318        2      284      477      554      522      403      228 
      41     -109     -226     -344     -472     -602     -727     -854 
    -982    -1107    -1236    -1371    -1499    -1615    -1710    -1729 
   -1645    -1505    -1381    -1327    -1364    -1447    -1534    -1611 
   -1638    -1606    -1537    -1416    -1210     -911     -523      -91 
     313      635      868     1015     1067     1035      935      808 
     708      630      534      419      318      265      238      176 
      67      -66     -245     -499     -801    -1112    -1394    -1626 
   -1818    -1992    -2128    -2199    -2238    -2285    -2334    -2390 
   -2471    -2613    -2825    -3046    -3215    -3323    -3380    -3407 
   -3416    -3404    -3406    -3445    -3499    -3528    -3500    -3388 
   -3195    -2956    -2689    -2394    -2073    -1737    -1414    -1142 
    -946     -834     -800     -830     -903     -999    -1063    -1028 
    -880     -685     -518     -395     -280     -137        4       58 
     -14     -152     -259     -317     -371     -442     -522     -627 
    -808    -1111    -1576    -2218    -2983    -3805    -4635    -5410 
   -6038    -6459    -6644    -6574    -6289    -5884    -5466    -5109 
   -4842    -4676    -4581    -4496    -4388    -4263    -4108    -3893 
   -3578    -3161    -2664    -2122    -1590    -1129     -778     -580 
    -576     -778    -1134    -1559    -2041    -2606    -3186    -3666 
   -4028    -4280    -4411    -4441    -4396    -4228    -3902    -3483 
   -3003    -2467    -1952    -1564    -1317    -1189    -1128    -1074 
   -1012     -931     -768     -475      -99      291      681     1046 
    1345     1572     1699     1688     1559     1336     1013      611 
     190     -228     -670    -1138    -1620    -2107    -2573    -3010 
   -3427    -3817    -4149    -4359    -4413    -4347    -4182    -3909 
   -3555    -3188    -2902    -2754    -2693    -2659    -2660    -2727 
   -2825    -2829    -2614    -2201    -1719    -1235     -743     -264 
     151      465      616      564      346       63     -190     -425 
    -649     -805     -904    -1000    -1097    -1159    -1181    -1189 
   -1177    -1134    -1152    -1335    -1656    -2033    -2401    -2714 
   -2945    -3111    -3206    -3204    -3127    -3022    -2929    -2867 
   -2808    -2724    -2620    -2481    -2286    -2056    -1829    -1625 
   -1475    -1418    -1493    -1710    -2034    -2421    -2845    -3268 
   -3658    -3990    -4240    -4403    -4456    -4367    -4159    -3838 
   -3384    -2847    -2281    -1661     -973     -275      361      886 
    1266     1544     1849     2253     2701     3117     3488     3773 
    3931     3982     3920     3700     3302     2744     2077     1339 
     540     -286    -1089    -1849    -2590    -3321    -3989    -4531 
   -4943    -5269    -5544    -5769    -5919    -5964    -5915    -5810 
   -5676    -5524    -5312    -5016    -4696    -4437    -4249    -4043 
   -3758    -3430    -3114    -2805    -2469    -2123    -1817    -1530 
   -1223     -932     -695     -508     -392     -363     -434     -594 
    -787     -977    -1144    -1251    -1274    -1205    -1057     -884 
    -712     -533     -364     -241     -160     -101      -36       36 
      97      144      174      203      264      333      353      303 
     184        9     -211     -457     -696     -892    -1021    -1098 
   -1165    -1248    -1352    -1467    -1598    -1757    -1935    -2096 
   -2204    -2266    -2319    -2349    -2295    -2155    -1985    -1829 
   -1742    -1752    -1846    -2004    -2160    -2222    -2168    -2029 
   -1814    -1512    -1128     -708     -306       55      361      568 
     633      535      238     -283     -962    -1678    -2342    -2938 
   -3512    -4079    -4630    -5163    -5661    -6087    -6424    -6666 
   -6786    -6755    -6540    -6119    -5532    -4881    -4248    -3649 
   -3049    -2420    -1779    -1182     -664     -241       71      267 
     313      171      -82     -340     -594     -859    -1124    -1393 
   -1645    -1841    -2025    -2253    -2479    -2646    -2758    -2816 
   -2797    -2710    -2554    -2320    -2062    -1842    -1659    -1486 
   -1296    -1065     -792     -456      -43      446     1034     1686 
    2313     2852     3250     3461     3483     3338     3028     2542 
    1877     1062      162     -720    -1513    -2209    -2806    -3267 
   -3557    -3696    -3753    -3804    -3916    -4085    -4249    -4367 
   -4445    -4486    -4457    -4341    -4122    -3798    -3397    -2947 
   -2444    -1925    -1421     -924     -437       -1      357      658 
     932     1174     1345     1437     1474     1466     1402     1267 
    1042      703      248     -287     -866    -1478    -2087    -2639 
   -3122    -3528    -3847    -4126    -4413    -4685    -4876    -4920 
   -4834    -4675    -4433    -4078    -3665    -3269    -2884    -2492 
   -2119    -1772    -1417    -1082     -801     -546     -298      -68 
     156      411      702      986     1200     1266     1128      793 
     324     -228     -828    -1445    -2025    -2488    -2809    -3017 
   -3146    -3200    -3129    -2910    -2609    -2311    -2052    -1834 
   -1651    -1472    -1305    -1161    -1000     -768     -492     -238 
     -40       60       22     -135     -400     -788    -1274    -1802 
   -2290    -2697    -3037    -3323    -3581    -3846    -4102    -4342 
   -4594    -4837    -5024    -5147    -5223    -5265    -5259    -5192 
   -5043    -4800    -4496    -4155    -3744    -3285    -2840    -2458 
   -2174    -1969    -1813    -1698    -1611    -1537    -1432    -1248 
   -1004     -746     -540     -444     -486     -638     -862    -1128 
   -1379    -1557    -1641    -1649    -1614    -1572    -1533    -1497 
   -1482    -1495    -1539    -1595    -1617    -1586    -1526    -1412 
   -1197     -881     -523     -201       22      133      135       45 
     -90     -238     -372     -448     -448     -415     -388     -388 
    -450     -615     -905    -1294    -1738    -2232    -2776    -3334 
   -3855    -4293    -4592    -4737    -4784    -4788    -4756    -4687 
   -4587    -4459    -4297    -4091    -3824    -3505    -3164    -2806 
   -2454    -2139    -1873    -1684    -1591    -1556    -1556    -1587 
   -1626    -1656    -1676    -1706    -1755    -1806    -1834    -1818 
   -1748    -1648    -1547    -1449    -1331    -1155     -928     -689 
    -471     -298     -164      -49       27       52       44       29 
      31       44       41       25        8      -16      -39      -54 
     -85     -153     -278     -477     -756    -1093    -1460    -1833 
   -2208    -2582    -2910    -3160    -3327    -3404    -3395    -3350 
   -3307    -3276    -3275    -3299    -3346    -3414    -3477    -3507 
   -3503    -3473    -3420    -3330    -3190    -3014    -2821    -2605 
   -2340    -2019    -1664    -1301     -928     -542     -155      228 
     615     1021     1437     1807     2066     2195     2193     2057 
    1787     1420     1012      599      179     -240     -635     -982 
   -1278    -1541    -1810    -2085    -2346    -2596    -2825    -3021 
   -3198    -3342    -3427    -3460    -3426    -3289    -3061    -2781 
   -2494    -2242    -2014    -1787    -1552    -1339    -1177    -1054 
    -930     -812     -737     -733     -810     -942    -1104    -1304 
   -1543    -1786    -2041    -2327    -2623    -2917    -3210    -3476 
   -3699    -3881    -4051    -4239    -4430    -4581    -4671    -4683 
   -4600    -4401    -4082    -3653    -3117    -2493    -1818    -1131 
    -483       64      506      850     1107     1312     1509     1691 
    1810     1826     1736     1533     1186      675        1     -791 
   -1625    -2438    -3199    -3878    -4425    -4795    -5005    -5086 
   -5063    -4974    -4870    -4773    -4641    -4423    -4126    -3767 
   -3319    -2751    -2058    -1267     -423      409     1151     1746 
    2178     2440     2529     2467     2284     1998     1621     1163 
     656      133     -379     -884    -1398    -1946    -2527    -3136 
   -3784    -4437    -5004    -5440    -5732    -5876    -5915    -5914 
   -5887    -5807    -5659    -5443    -5179    -4881    -4533    -4094 
   -3492    -2702    -1819     -913      -13      765     1324     1672 
    1850     1865     1705     1433     1171      913      592      241 
     -87     -409     -749    -1109    -1524    -2006    -2506    -3014 
   -3535    -4009    -4367    -4592    -4699    -4704    -4595    -4356 
