Origin Time       2025/01/13 21:19:00
Lat.              31.8
Long.             131.6
Depth. (km)       30
Mag.              6.9
Station Code      KMM003
Station Lat.      32.9335
Station Long.     130.5477
Station Height(m) 13
Record Time       2025/01/13 21:20:01
Sampling Freq(Hz) 100Hz
Duration Time(s)  109
Dir.              E-W
Scale Factor      7845(gal)/8223790
Max. Acc. (gal)   8.049
Last Correction   2025/01/13 21:20:01
Memo.             
[...]
    5448     5529     5556     5481     5269     4924     4465     3900 
    3264     2631     2081     1686     1485     1486     1671     2003 
    2442     2924     3339     3608     3746     3817     3863     3909 
    3986     4116     4282     4444     4583     4726     4905     5105 
    5279     5408     5495     5536     5517     5432     5267     5036 
    4768     4490     4214     3921     3593     3240     2872     2506 
    2165     1846     1548     1285     1080      926      776      576 
     328      105        8      101      390      820     1336     1915 
    2539     3145     3685     4172     4637     5076     5463     5776 
    5996     6110     6093     5930     5644     5285     4869     4407 
    3936     3500     3114     2786     2527     2320     2143     2030 
    2042     2185     2396     2633     2886     3119     3304     3441 
    3508     3470     3338     3180     3067     3003     2990     3055 
    3204     3433     3717     4044     4437     4905     5404     5880 
    6291     6558     6629     6509     6218     5757     5146     4463 
    3789     3163     2604     2126     1730     1418     1192     1050 
     999     1031     1150     1360     1651     2004     2407     2829 
    3229     3549     3774     3944     4104     4257     4392     4492 
    4542     4525     4437     4276     4047     3792     3595     3518 
    3569     3740     4010     4320     4600     4815     4919     4850 
    4577     4135     3589     2986     2353     1740     1219      859 
     716      807     1098     1507     1954     2403     2844     3268 
    3669     4036     4349     4590     4753     4858     4922     4941 
    4916     4874     4838     4824     4873     5009     5217     5466 
    5701     5881     6003     6081     6153     6257     6400     6583 
    6797     6991     7125     7179     7115     6895     6524     6050 
    5532     4986     4414     3865     3420     3132     2984     2945 
    3009     3171     3388     3591     3705     3682     3539     3330 
    3092     2828     2547     2305     2173     2181     2336     2623 
    2979     3326     3622     3865     4078     4271     4425     4534 
    4614     4687     4758     4846     4978     5163     5381     5602 
    5810     6010     6208     6388     6507     6520     6409     6178 
    5840     5418     4978     4575     4217     3893     3623     3419 
    3262     3136     2992     2785     2532     2286     2057     1848 
    1671     1561     1548     1630     1779     1966     2187     2443 
    2721     2986     3202     3333     3352     3268     3114     2926 
    2744     2619     2592     2674     2853     3106     3376     3596 
    3730     3757     3655     3431     3134     2826     2563     2365 
    2212     2092     2026     2031     2106     2243     2435     2666 
    2922     3214     3545     3917     4325     4738     5130     5495 
    5853     6197     6507     6777     7009     7207     7349     7364 
    7191     6839     6349     5778     5181     4591     4027     3516 
    3079     2690     2305     1896     1459      999      540      117 
    -237     -507     -692     -758     -662     -423      -56      453 
    1081     1777     2502     3207     3842     4403     4918     5386 
    5763     6023     6193     6301     6367     6420     6493     6594 
    6666     6644     6532     6362     6151     5919     5683     5443 
    5206     4997     4830     4693     4553     4382     4170     3897 
    3543     3134     2710     2290     1871     1464     1098      818 
     660      660      823     1112     1463     1811     2120     2374 
    2560     2681     2754     2789     2798     2787     2759     2729 
    2725     2762     2839     2956     3107     3285     3481     3676 
    3848     3983     4067     4071     3993     3893     3817     3757 
    3700     3661     3662     3716     3844     4062     4328     4556 
    4695     4720     4615     4388     4082     3777     3551     3435 
    3435     3565     3815     4143     4479     4752     4909     4938 
    4854     4676     4410     4090     3766     3468     3196     2951 
    2745     2616     2594     2691     2879     3106     3342     3568 
    3755     3900     4023     4159     4341     4594     4922     5300 
    5676     6022     6305     6467     6447     6238     5891     5489 
    5108     4804     4602     4504     4503     4553     4573     4488 
    4290     4014     3717     3457     3269     3173     3176     3260 
    3388     3514     3585     3570     3439     3183     2843     2478 
    2131     1817     1533     1274     1051      905      864      920 
    1081     1355     1709     2096     2498     2911     3325     3731 
    4148     4612     5138     5710     6315     6920     7491     7986 
    8341     8518     8506     8326     8024     7630     7148     6601 
    6031     5470     4922     4382     3850     3329     2814     2307 
    1827     1399     1050      820      749      832     1044     1370 
    1813     2353     2944     3531     4062     4491     4783     4931 
    4962     4920     4853     4801     4803     4887     5053     5298 
    5598     5884     6095     6214     6235     6157     5998     5783 
    5520     5223     4934     4683     4468     4280     4108     3929 
    3739     3547     3338     3095     2829     2578     2398     2316 
    2327     2415     2548     2695     2829     2938     3021     3083 
    3148     3248     3406     3624     3883     4158     4434     4703 
    4949     5147     5260     5293     5296     5271     5200     5098 
    4995     4900     4796     4652     4453     4186     3856     3516 
    3206     2933     2725     2610     2606     2718     2926     3225 
    3620     4091     4567     4972     5259     5414     5443     5344 
    5097     4679     4125     3485     2776     2025     1289      626 
      79     -336     -625     -808     -899     -878     -731     -468 
    -106      338      842     1378     1910     2409     2883     3365 
    3874     4382     4869     5344     5806     6234     6617     6956 
    7254     7507     7695     7796     7794     7661     7358     6848 
    6088     5086     3913     2651     1368      137     -950    -1779 
   -2265    -2384    -2176    -1699    -1003     -155      745     1611 
    2400     3098     3703     4212     4614     4908     5115     5278 
    5433     5584     5705     5760     5736     5637     5487     5319 
    5159     5028     4930     4842     4757     4668     4575     4490 
    4429     4386     4340     4288     4257     4260     4290     4334 
    4395     4471     4540     4563     4519     4405     4203     3901 
    3503     3033     2533     2065     1669     1360     1155     1073 
    1098     1186     1285     1359     1375     1312     1183     1023 
     884      828      900     1115     1482     2000     2648     3384 
    4162     4941     5691     6373     6937     7348     7596     7705 
    7711     7631     7446     7137     6718     6235     5721     5197 
    4702     4272     3933     3703     3585     3600     3748     4004 
    4337     4727     5140     5526     5825     6003     6052     5979 
    5765     5395     4880     4247     3519     2724     1887     1039 
     228     -477    -1009    -1333    -1474    -1451    -1281     -999 
    -618     -126      479     1185     1964     2818     3769     4787 
    5787     6689     7420     7928     8195     8248     8149     7973 
    7788     7647     7551     7472     7392     7307     7195     7018 
    6762     6428     6012     5514     4947     4320     3636     2916 
    2188     1471      783      149     -396     -822    -1086    -1155 
   -1015     -677     -172      463     1182     1952     2751     3568 
    4372     5127     5805     6389     6875     7271     7577     7781 
    7867     7828     7672     7412     7078     6690     6254     5784 
    5310     4857     4442     4093     3827     3639     3520     3445 
    3372     3279     3171     3048     2889     2666     2394     2118 
    1867     1668     1547     1491     1483     1525     1609     1713 
    1829     1991     2243     2606     3072     3619     4216     4822 
    5374     5799     6045     6072     5871     5475     4945     4359 
    3801     3330     2980     2756     2648     2639     2712     2867 
    3109     3407     3712     3971     4151     4239     4239     4152 
    4002     3807     3592     3407     3289     3248     3272     3350 
    3470     3607     3754     3932     4145     4371     4583     4769 
    4938     5088     5209     5298     5341     5327     5242     5065 
    4783     4409     3974     3508     3045     2635     2324     2139 
    2083     2149     2307     2525     2790     3094     3434     3805 
    4179     4526     4839     5116     5320     5431     5466     5447 
    5414     5410     5466     5580     5722     5849     5923     5898 
    5726     5391     4907     4301     3628     2963     2361     1869 
    1520     1321     1259     1300     1404     1532     1648     1721 
    1742     1719     1686     1674     1696     1765     1911     2166 
    2528     2965     3451     3959     4437     4837     5135     5316 
    5371     5297     5093     4760     4341     3901     3491     3122 
    2797     2517     2265     2014     1734     1418     1086      773 
     504      292      143       75      121      298      612     1053 
    1575     2127     2646     3102     3503     3866     4182     4441 
    4635     4772     4889     5024     5197     5412     5634     5826 
    5961     6011     5949     5752     5429     5011     4517     3966 
    3429     2990     2708     2606     2650     2767     2909     3067 
    3227     3349     3416     3474     3561     3677     3844     4077 
    4341     4604     4839     5020     5120     5112     5005     4834 
    4641     4445     4236     3998     3721     3414     3088     2748 
    2389     2015     1651     1332     1093      972     1013     1239 
    1642     2203     2880     3619     4345     4984     5486     5850 
    6076     6157     6107     5967     5771     5548     5324     5117 
    4935     4774     4648     4590     4625     4750     4962     5252 
    5598     5976     6354     6687     6953     7141     7231     7196 
    7017     6677     6187     5587     4932     4244     3537     2843 
    2205     1660     1233      924      702      553      496      527 
     629      787      992     1233     1485     1706     1864     1954 
    1981     1971     1968     2012     2127     2346     2694     3148 
    3669     4244     4850     5451     6011     6500     6898     7209 
    7437     7551     7510     7292     6907     6381     5753     5080 
    4415     3823     3349     3011     2816     2749     2785     2890 
    3059     3285     3562     3910     4371     4953     5647     6417 
    7202     7936     8556     8997     9229     9244     9053     8661 
    8082     7344     6512     5686     4965     4415     4064     3915 
    3963     4176     4507     4888     5232     5456     5497     5331 
    4973     4471     3885     3275     2674     2116     1605     1107 
     603       97     -422     -934    -1399    -1765    -1975    -1996 
   -1817    -1447     -932     -325      315      920     1437     1827 
    2077     2200     2220     2181     2146     2166     2272     2486 
    2808     3207     3672     4187     4727     5260     5742     6137 
    6426     6601     6673     6675     6644     6589     6489     6312 
    6025     5598     5027     4326     3516     2636     1753      935 
     244     -271     -580     -681     -587     -334       12      395 
     760     1046     1204     1217     1105      895      633      380 
     197      116      152      311      589      950     1336     1703 
    2035     2344     2652     2970     3302     3657     4039     4452 
    4884     5301     5676     5989     6223     6374     6463     6511 
    6525     6504     6447     6374     6299     6230     6170     6111 
    6045     5987     5948     5938     5957     5987     6030     6096 
    6193     6326     6480     6631     6767     6879     6955     6991 
    6990     6979     6995     7036     7078     7092     7037     6879 
    6594     6177     5638     4997     4275     3523     2790     2104 
    1485      946      488      108     -207     -459     -646     -788 
    -901     -978    -1007     -978     -884     -723     -503     -230 
      82      419      776     1178     1659     2227     2872     3561 
    4267     4980     5675     6315     6864     7303     7623     7824 
    7906     7858     7670     7341     6867     6246     5494     4641 
    3723     2799     1939     1204      664      386      402      703 
    1250     1975     2791     3628     4432     5154     5756     6227 
    6594     6913     7236     7593     7983     8384     8777     9135 
    9420     9628     9806    10004    10249    10566    10949    11358 
   11740    12005    12064    11878    11437    10747     9842     8762 
    7542     6220     4854     3491     2164      903     -274    -1360 
   -2335    -3157    -3781    -4168    -4293    -4129    -3674    -2949 
   -2012     -932      222     1381     2463     3418     4220     4865 
    5355     5710     5969     6176     6372     6585     6860     7237 
    7712     8243     8762     9198     9497     9602     9463     9070 
    8437     7600     6619     5524     4344     3119     1888      676 
    -491    -1586    -2574    -3412    -4051    -4460    -4649    -4638 
   -4464    -4166    -3770    -3304    -2806    -2300    -1800    -1348 
    -980     -712     -546     -486     -510     -583     -679     -749 
    -718     -541     -202      291      903     1603     2357     3117 
    3850     4527     5127     5648     6096     6466     6750     6949 
    7056     7056     6959     6785     6569     6357     6177     6049 
    5995     6018     6118     6304     6558     6825     7055     7202 
    7215     7061     6731     6257     5695     5104     4540     4055 
    3672     3392     3226     3165     3167     3171     3153     3111 
    3069     3065     3123     3256     3484     3843     4336     4943 
    5617     6301     6951     7528     8006     8370     8610     8727 
    8741     8684     8594     8511     8461     8444     8434     8394 
    8271     8017     7619     7080     6407     5602     4683     3685 
    2663     1667      746      -56     -739    -1306    -1757    -2103 
   -2370    -2577    -2736    -2835    -2840    -2722    -2459    -2047 
   -1510     -876     -179      552     1293     2019     2717     3369 
    3958     4483     4935     5302     5595     5817     5962     6018 
    5965     5805     5551     5196     4742     4209     3593     2901 
    2150     1381      653       20     -495     -881    -1131    -1229 
   -1158     -924     -568     -129      365      896     1441     1972 
    2465     2918     3329     3680     3960     4168     4301     4374 
    4428     4503     4626     4803     5015     5238     5435     5559 
    5584     5502     5317     5065     4797     4554     4386     4342 
    4453     4706     5047     5412     5751     6034     6258     6446 
    6600     6744     6918     7159     7487     7894     8364     8874 
    9390     9877    10304    10611    10752    10701    10434     9938 
    9201     8232     7072     5768     4380     2978     1609      328 
    -805    -1768    -2551    -3137    -3523    -3724    -3751    -3624 
   -3356    -2929    -2326    -1553     -643      382     1499     2677 
    3888     5089     6228     7277     8198     8946     9483     9782 
    9863     9783     9575     9248     8822     8334     7817     7275 
    6685     6034     5327     4557     3713     2817     1904      989 
      85     -758    -1498    -2116    -2597    -2936    -3159    -3269 
   -3240    -3046    -2697    -2216    -1633     -974     -274      440 
    1159     1869     2555     3213     3848     4461     5061     5664 
    6278     6886     7453     7940     8303     8523     8623     8633 
    8575     8490     8422     8388     8398     8453     8536     8608 
    8638     8584     8406     8094     7663     7145     6558     5926 
    5294     4688     4113     3574     3090     2674     2332     2064 
    1873     1764     1742     1810     1957     2180     2485     2867 
    3304     3758     4190     4568     4866     5067     5165     5146 
    5008     4760     4429     4060     3690     3343     3032     2767 
    2571     2451     2384     2330     2234     2057     1783     1416 
     969      460      -75     -595    -1059    -1433    -1703    -1842 
   -1837    -1718    -1503    -1185     -780     -311      237      880 
    1579     2293     2984     3612     4153     4594     4915     5127 
    5258     5335     5374     5379     5351     5283     5171     5004 
    4781     4518     4244     3990     3802     3723     3765     3921 
    4160     4430     4700     4943     5125     5239     5301     5317 
    5296     5252     5190     5112     5022     4911     4779     4657 
    4590     4603     4702     4889     5150     5433     5688     5890 
    6011     6019     5906     5680     5352     4931     4413     3797 
    3113     2413     1733     1092      523       76     -199     -280 
    -149      205      762     1478     2319     3250     4220     5179 
    6099     6949     7722     8397     8951     9358     9576     9574 
    9347     8895     8225     7375     6397     5360     4321     3322 
    2416     1645     1007      486       72     -234     -444     -546 
    -519     -348      -28      441     1034     1705     2420     3138 
    3807     4369     4804     5119     5332     5475     5579     5671 
    5779     5921     6096     6307     6535     6745     6928     7059 
    7113     7069     6921     6682     6372     5983     5502     4930 
    4280     3576     2821     2015     1178      330     -495    -1259 
   -1921    -2439    -2783    -2934    -2880    -2637    -2228    -1672 
    -999     -244      556     1347     2089     2775     3389     3924 
    4382     4764     5096     5404     5680     5919     6112     6245 
    6320     6365     6382     6373     6361     6376     6440     6552 
    6679     6786     6848     6851     6785     6642     6435     6184 
    5906     5633     5382     5147     4907     4657     4401     4131 
    3832     3491     3091     2631     2126     1594     1050      507 
     -28     -550    -1044    -1494    -1869    -2150    -2327    -2384 
   -2315    -2107    -1732    -1173     -429      479     1520     2664 
    3862     5042     6145     7121     7956     8660     9262     9782 
   10228    10625    10989    11304    11558    11724    11767    11666 
   11418    11024    10505     9873     9130     8286     7366     6400 
    5421     4469     3577     2759     2022     1362      770      229 
    -280     -760    -1179    -1521    -1765    -1891    -1887    -1740 
   -1445    -1036     -565      -70      425      889     1305     1672 
    1987     2238     2431     2573     2668     2724     2755     2789 
    2836     2884     2934     2983     3022     3061     3117     3195 
    3306     3457     3645     3861     4089     4313     4522     4703 
    4846     4953     5024     5063     5094     5152     5250     5387 
