Origin Time       2025/01/13 21:19:00
Lat.              31.8
Long.             131.6
Depth. (km)       30
Mag.              6.9
Station Code      KMM007
Station Lat.      32.8268
Station Long.     131.1224
Station Height(m) 547
Record Time       2025/01/13 21:19:54
Sampling Freq(Hz) 100Hz
Duration Time(s)  117
Dir.              N-S
Scale Factor      7845(gal)/8223790
Max. Acc. (gal)   31.697
Last Correction   2025/01/13 21:19:54
Memo.             
[...]
   -8491    -8081    -7441    -6708    -6027    -5541    -5360    -5296 
   -5039    -4592    -3997    -2914     -857     2253     5744     8496 
    9707     9339     7969     6363     5019     3956     2856     1273 
    -985    -3565    -5877    -7555    -8599    -9219    -9553    -9617 
   -9267    -8145    -5945    -2825      612     3804     6447     8206 
    8640     7659     5805     4077     3415     3885     4626     4806 
    4278     3319     2145      803     -612    -2002    -3362    -4594 
   -5470    -5929    -6054    -5911    -5548    -5062    -4625    -4455 
   -4656    -4995    -5086    -4880    -4511    -3897    -2926    -1613 
      13     1803     3450     4660     5285     5402     5211     4860 
    4403     3871     3342     2895     2416     1557       71    -1961 
   -4114    -5719    -6349    -6156    -5672    -5505    -5798    -5946 
   -5286    -3774    -1872     -133     1178     2087     2538     2330 
    1362     -129    -1540    -2284    -2154    -1278      -13     1213 
    2077     2434     2397     2084     1275     -193    -1895    -3072 
   -3310    -2883    -2425    -2257    -2227    -2131    -1917    -1599 
   -1163     -611      -39      430      614      284     -418     -965 
   -1007     -526      365     1429     2272     2407     1557       14 
   -1561    -2585    -2794    -2347    -1566     -641      364     1557 
    3059     4633     5742     5894     5003     3555     2124      881 
    -345    -1881    -3894    -6079    -7832    -8715    -8748    -8233 
   -7337    -6135    -4768    -3284    -1769     -441      727     1998 
    3457     4811     5482     5194     4368     3724     3743     4384 
    5205     5798     5827     4980     3276     1082    -1229    -3446 
   -5464    -7196    -8496    -9240    -9385    -8976    -8235    -7400 
   -6561    -5734    -4833    -3689    -2280     -712      872     2328 
    3532     4357     4770     4980     5255     5713     6324     6852 
    6872     6049     4284     1761    -1115    -3901    -6309    -8352 
  -10134   -11365   -11524   -10488    -8748    -7125    -6149    -5688 
   -5323    -4738    -3731    -2285     -664      777     1910     2990 
    4328     5773     6791     7025     6656     6173     5736     5094 
    4087     2847     1718      986      535      141     -144     -286 
    -410     -610     -967    -1541    -2343    -3315    -4182    -4527 
   -4114    -3129    -2045    -1155     -349      599     1742     2899 
    3813     4345     4475     4283     3935     3627     3478     3380 
    2899     1675      -82    -1709    -2663    -2934    -3006    -3433 
   -4353    -5393    -5981    -5818    -5127    -4283    -3427    -2609 
   -1792     -812      286     1136     1360      938      299      -86 
     -99      137      365      233     -434    -1525    -2860    -4388 
   -6096    -7823    -9273   -10110   -10071    -9180    -7655    -5563 
   -2914      -24     2600     4741     6578     8172     9229     9612 
    9547     9161     8363     7222     6072     5269     4801     4214 
    3079     1254    -1235    -4105    -6772    -8602    -9274    -9053 
   -8529    -8160    -8143    -8460    -8884    -9080    -8777    -8036 
   -7225    -6497    -5562    -4068    -2050      -97     1036     1192 
     818      315     -191     -653     -908     -855     -669     -459 
     -28      635     1183     1333     1123      801      487       56 
    -500     -865     -645      253     1460     2492     3195     3640 
    3944     4365     5220     6551     7965     8876     9050     8641 
    7762     6370     4519     2473      464    -1532    -3554    -5327 
   -6463    -6755    -6231    -4993    -2997     -297     2571     4806 
    5794     5449     4270     2821     1323      -22     -745     -556 
     238     1008     1236      648     -803    -2841    -4965    -6751 
   -7867    -8040    -7245    -5741    -3886    -2022     -550       93 
    -124     -580     -515      498     2550     5406     8509    11199 
   13154    14420    14963    14571    13155    11048     9084     7979 
    7658     7449     6778     5568     3963     1917     -708    -3935 
   -7599   -11344   -14787   -17609   -19553   -20506   -20538   -19750 
  -18185   -15909   -12941    -9205    -4857     -517     2907     4781 
    5310     5159     4766     4402     4114     3523     2236      236 
   -2226    -4841    -7411    -9786   -11796   -13333   -14176   -14013 
  -12865   -11141    -9240    -7223    -4880    -2107      996     4168 
    7028     9337    10957    11524    10844     9375     7898     7014 
    6879     7102     6986     6058     4288     1818    -1175    -4423 
   -7816   -11458   -15280   -18846   -21447   -22512   -22202   -21328 
  -20580   -20124   -19822   -19376   -18453   -16845   -14505   -11558 
   -8221    -4585     -589     3686     7723    10804    12569    13047 
   12349    10710     8623     6737     5584     5286     5564     6029 
    6378     6432     6126     5427     4302     2806     1081     -648 
   -1991    -2367    -1298     1235     4691     8145    10696    11932 
   11946    11153    10238     9726     9625     9753     9999    10303 
   10710    11091    11049    10308     8754     6384     3522      818 
   -1098    -2091    -2546    -2768    -2720    -2320    -1582     -610 
     459     1696     3354     5549     8139    10750    12997    14789 
   16221    17278    17725    17196    15499    12877     9865     6955 
    4357     1925     -529    -2843    -4754    -6324    -7843    -9437 
  -10995   -12410   -13583   -14281   -14056   -12370    -9139    -4966 
    -695     3005     5877     8090     9818    10951    11175    10160 
    7789     4230     -271    -5395   -10698   -15759   -20193   -23576 
  -25556   -26084   -25505   -24268   -22653   -20869   -19144   -17743 
  -16888   -16448   -15969   -15087   -13632   -11634    -9371    -7163 
   -5337    -4295    -4133    -4510    -4926    -5011    -4718    -4066 
   -2905    -1171      916     2906     4375     5098     4789     3173 
     437    -2770    -5628    -7545    -8469    -8758    -8900    -9158 
   -9292    -8816    -7419    -5115    -2280      576     3098     5044 
    6149     6150     5050     3206     1070    -1048    -3009    -4810 
   -6492    -8059    -9537   -10925   -12028   -12430   -11662    -9470 
   -5964    -1514     3435     8468    13165    17000    19612    21074 
   21582    21404    21045    20854    20831    20702    19958    18245 
   15665    12681     9886     7688     6216     5459     5394     6096 
    7485     9003     9853     9375     7331     4248     1148    -1194 
   -2573    -3179    -3234    -2813    -1989     -986     -106      442 
     606      256     -670    -1730    -2261    -1946     -773     1017 
    2980     4693     5772     6073     5931     5694     5324     4608 
    3491     2251     1237      398     -550    -1702    -2938    -4110 
   -5233    -6373    -7392    -8027    -8102    -7605    -6693    -5688 
   -4997    -4860    -5163    -5601    -5941    -6227    -6818    -7935 
   -9229   -10093   -10079    -9143    -7830    -6871    -6539    -6640 
   -6860    -6957    -6795    -6161    -4788    -2670     -136     2315 
    4284     5568     5913     5011     2799     -357    -3677    -6469 
   -8637   -10427   -12056   -13508   -14499   -14829   -14478   -13613 
  -12784   -12586   -13108   -13888   -14169   -13328   -11222    -8120 
   -4519     -831     2839     6381     9524    12017    13687    14507 
   14659    14427    14049    13647    13263    12918    12434    11452 
    9767     7452     4826     2327      113    -1939    -3928    -5787 
   -7198    -7740    -7234    -5868    -4284    -3256    -3011    -3275 
   -3696    -3975    -3939    -3491    -2490     -972      743     2384 
    3888     5308     6579     7372     7426     6891     6274     6160 
    6890     8411    10326    12032    13109    13383    12792    11543 
    9929     8002     5788     3543     1686      496     -164     -722 
   -1578    -2880    -4390    -5701    -6554    -6756    -6112    -4569 
   -2378     -164     1486     2413     2727     2579     2119     1493 
     799      108     -334     -182      554     1305     1348      334 
   -1611    -3987    -6193    -7870    -8973    -9686   -10135   -10262 
  -10089    -9756    -9304    -8661    -7785    -6700    -5490    -4226 
   -2728     -669     1899     4553     6894     8671     9679     9768 
    8870     6999     4311     1159    -2110    -5192    -7761    -9674 
  -11025   -11954   -12510   -12665   -12248   -11052    -9247    -7308 
   -5574    -4139    -2907    -1931    -1613    -2018    -2479    -2270 
   -1208      128      679     -210    -2295    -4545    -5823    -5826 
   -4947    -3639    -2371    -1575    -1541    -2351    -3661    -4972 
   -6054    -6925    -7722    -8549    -9347    -9877    -9756    -8841 
   -7537    -6363    -5589    -5103    -4355    -2791     -379     2542 
    5590     8405    10617    11916    12260    11929    11288    10636 
   10102     9540     8943     8491     7927     6644     4379     1328 
   -1993    -5013    -7365    -8812    -9315    -9169    -8587    -7485 
   -5873    -3915    -1759      383     2272     3912     5512     6999 
    8024     8500     8625     8625     8645     8580     8255     7593 
    6577     5405     4310     3219     2016      658     -873    -2461 
   -4002    -5533    -7024    -8295    -9165    -9494    -9130    -7901 
   -5841    -3350     -947     1017     2322     2947     3060     2840 
    2539     2317     2203     2353     2991     4248     6085     8135 
    9737    10258     9525     7888     5788     3604     1695      222 
    -832    -1560    -2103    -2559    -3055    -3798    -4792    -5674 
   -5896    -5043    -3087     -275     3142     6856    10474    13738 
   16538    18736    19998    19845    18044    14974    11504     8469 
    5937     3172     -378    -4569    -8858   -12746   -16209   -19402 
  -22111   -24061   -25142   -25193   -24186   -22380   -20183   -17972 
  -15869   -13795   -11695    -9594    -7480    -5224    -2743     -125 
    2473     4830     6592     7480     7460     6737     5598     4135 
    2255      -25    -2546    -5081    -7385    -9298   -10800   -11884 
  -12491   -12584   -12177   -11283    -9825    -7688    -4941    -1775 
    1647     5127     8448    11477    14122    16194    17327    17205 
   15843    13495    10484     7184     3917      869    -1867    -4274 
   -6451    -8519   -10396   -11803   -12523   -12617   -12433   -12293 
  -12074   -11438   -10258    -8648    -6812    -4887    -2860     -760 
    1274     3083     4472     5251     5472     5479     5672     6247 
    7176     8355     9621    10728    11399    11400    10681     9402 
    7730     5803     3821     1961      259    -1404    -3083    -4587 
   -5694    -6477    -7253    -8278    -9562   -10936   -12124   -12733 
  -12337   -10690    -7740    -3581     1571     7420    13428    18819 
   22950    25409    26019    24968    22796    20116    17211    13984 
   10372     6517     2560    -1448    -5367    -8923   -11881   -14046 
  -15118   -14839   -13279   -10737    -7537    -3958     -257     3195 
    6041     8019     8907     8723     7746     6343     4866     3415 
    1966      645     -483    -1539    -2581    -3576    -4519    -5451 
   -6413    -7308    -7933    -8149    -7852    -7079    -6172    -5541 
   -5401    -5744    -6431    -7383    -8492    -9494   -10168   -10461 
  -10334    -9753    -8827    -7711    -6525    -5510    -4935    -4739 
   -4473    -3677    -2281     -522     1324     3002     4234     4723 
    4256     2806      469    -2494    -5536    -8055    -9668   -10200 
   -9697    -8440    -6875    -5462    -4441    -3804    -3368    -2799 
   -1775     -108     2241     5086     8024    10534    12129    12544 
   11840    10374     8623     6878     5139     3287     1209    -1003 
   -2956    -4342    -5256    -6027    -6891    -7763    -8252    -7870 
   -6372    -3979    -1162     1737     4579     7333     9910    12043 
   13385    13576    12351     9890     6755     3400       82    -3014 
   -5752    -8058   -10066   -12062   -14191   -16314   -18068   -19198 
  -19654   -19282   -17851   -15276   -11583    -7021    -2211     2128 
    5536     7954     9551    10471    10932    11144    11022    10345 
    8961     6791     3898      406    -3654    -8245   -13215   -18189 
  -22708   -26500   -29374   -31078   -31387   -30230   -27831   -24486 
  -20297   -15472   -10416    -5493     -903     3516     7967    12135 
   15514    17798    18802    18504    17105    15025    12699    10345 
    8100     6151     4596     3470     2659     1887      958     -210 
   -1494    -2598    -3397    -3766    -3385    -2184     -508     1328 
    3385     5881     8799    11884    14893    17590    19684    20919 
   21262    21084    20787    20279    19276    17693    15585    13100 
   10369     7457     4455     1456    -1413    -3835    -5336    -5670 
   -5097    -4105    -3065    -2308    -2033    -1960    -1462      -48 
    2371     5448     8637    11670    14462    16848    18720    20005 
   20625    20614    19990    18782    17113    14972    12262     8985 
    5192     1013    -3397    -7885   -12067   -15542   -18204   -20186 
  -21725   -22947   -23681   -23537   -22114   -19371   -15714   -11647 
   -7507    -3353      945     5300     9174    11909    13086    12707 
   11206     9165     6987     4741     2191     -965    -4919    -9629 
  -14841   -20245   -25355   -29583   -32509   -33863   -33579   -31857 
  -29010   -25497   -21724   -17734   -13536    -9344    -5408    -1939 
     972     3415     5471     7160     8401     8865     8166     6080 
    2714    -1391    -5621    -9593   -12977   -15547   -17270   -18117 
  -18131   -17541   -16652   -15707   -14763   -13840   -13054   -12383 
  -11604   -10558    -9254    -7866    -6704    -5981    -5545    -5005 
   -4189    -3311    -2644    -2232    -1953    -1620    -1044     -108 
    1213     2824     4502     5977     7115     8091     9337    11121 
   13267    15321    16799    17392    17124    16301    15245    14076 
   12819    11619    10723    10423    10926    12110    13598    14979 
   15870    16074    15689    14910    13937    12965    12155    11580 
   11099    10359     9094     7302     5144     2898      846     -827 
   -2007    -2701    -3007    -2997    -2783    -2501    -2131    -1468 
    -360     1074     2574     3923     4931     5529     5775     5718 
    5467     5127     4661     4016     3073     1686      -83    -2025 
   -3943    -5638    -7010    -8031    -8718    -9161    -9360    -9201 
   -8615    -7669    -6578    -5544    -4688    -4143    -3854    -3549 
   -3028    -2197     -982      580     2347     4101     5509     6349 
    6708     6774     6642     6349     5937     5432     4699     3449 
    1336    -1890    -6076   -10652   -15006   -18636   -21159   -22374 
  -22380   -21643   -20648   -19480   -17929   -15762   -12887    -9425 
   -5667    -1965     1306     3852     5553     6403     6469     5956 
    5097     4077     3052     2133     1282      363     -679    -1871 
   -3404    -5486    -8083   -10972   -13942   -16881   -19561   -21560 
  -22551   -22354   -20845   -18152   -14669   -10763    -6656    -2465 
    1709     5613     8943    11661    13925    15700    16618    16443 
   15298    13294    10493     7065     3082    -1354    -5813    -9705 
  -12660   -14743   -16220   -17041   -16993   -16183   -14820   -13005 
  -10895    -8565    -5906    -2778      892     5078     9666    14366 
   18671    22150    24552    25698    25544    24070    21378    17936 
   14366    11168     8492     6053     3522      741    -2411    -5848 
   -9227   -12209   -14419   -15457   -15048   -13131   -10034    -6381 
   -2614     1097     4629     7839    10675    13255    15682    17855 
   19688    21203    22373    23074    23053    22069    20113    17347 
   13977    10165     6006     1748    -2165    -5402    -7869    -9609 
  -10747   -11502   -12117   -12696   -13176   -13498   -13497   -12862 
  -11419    -9085    -5767    -1617     2902     7214    10876    13707 
   15606    16428    16183    15179    13905    12644    11245     9472 
    7215     4332      716    -3547    -8298   -13254   -17933   -21751 
  -24239   -25216   -24742   -23029   -20422   -17340   -14075   -10717 
   -7308    -3935     -662     2474     5364     7789     9585    10627 
   10724     9732     7701     4872     1456    -2458    -6655   -10724 
  -14226   -16877   -18752   -20150   -21286   -22269   -22985   -23147 
  -22580   -21157   -18721   -15292   -11033    -6154     -943     4256 
    8976    12672    14993    15915    15789    15133    14266    13269 
   12074    10470     8181     5022     1146    -2894    -6486    -9223 
  -10993   -12059   -12825   -13522   -14108   -14222   -13393   -11426 
   -8505    -4978    -1221     2443     5775     8635    10979    12791 
   14107    15080    15870    16428    16460    15757    14391    12602 
   10692     8945     7429     5968     4380     2644      882     -745 
   -2214    -3639    -5162    -6810    -8214    -8827    -8472    -7321 
   -5674    -3904    -2230     -734      496     1493     2371     3198 
    4008     4800     5422     5603     5267     4588     3618     2259 
     486    -1709    -4170    -6436    -7973    -8411    -7699    -6214 
   -4503    -2893    -1537     -622     -302     -492     -843     -967 
    -612      287     1603     3072     4361     5243     5827     6324 
    6720     6994     7206     7314     7214     6696     5591     3935 
    1625    -1536    -5408    -9562   -13470   -16591   -18607   -19550 
  -19687   -19345   -18868   -18501   -18067   -17116   -15498   -13354 
  -10747    -7686    -4305     -857     2419     5389     7900     9863 
   11358    12448    13116    13346    13138    12622    12002    11330 
   10532     9471     8021     6227     4247     2266      476    -1155 
   -2894    -4841    -6804    -8363    -8988    -8392    -6639    -4001 
    -861     2401     5406     7874     9736    10878    11134    10601 
    9617     8608     7897     7430     6960     6264     5092     3395 
    1355     -881    -3261    -5849    -8695   -11576   -14180   -16325 
  -17914   -18879   -19151   -18738   -17780   -16402   -14706   -12865 
  -10980    -9101    -7240    -5371    -3474    -1425      918     3507 
    6145     8538    10230    10802    10133     8388     5886     2933 
    -129    -2841    -4911    -6339    -7215    -7823    -8534    -9274 
   -9626    -9360    -8588    -7542    -6239    -4590    -2728     -857 
     924     2498     3790     4908     6049     7271     8411     9197 
    9440     9151     8446     7470     6428     5483     4626     3726 
    2673     1359     -318    -2276    -4349    -6488    -8703   -11057 
  -13518   -15809   -17598   -18550   -18346   -16934   -14466   -11122 
   -7169    -2994      892     3950     5922     6945     7435     7836 
    8321     8814     9113     8945     8170     6793     4784     2288 
    -297    -2558    -4275    -5436    -6065    -6170    -5892    -5389 
   -4676    -3645    -2058      282     3345     6878    10368    13180 
   15006    15993    16559    17134    17799    18312    18404    17815 
   16383    14177    11356     8132     4747     1404    -1594    -3874 
