Origin Time       2025/01/13 21:19:00
Lat.              31.8
Long.             131.6
Depth. (km)       30
Mag.              6.9
Station Code      KMM002
Station Lat.      33.0189
Station Long.     130.6846
Station Height(m) 33
Record Time       2025/01/13 21:20:00
Sampling Freq(Hz) 100Hz
Duration Time(s)  123
Dir.              N-S
Scale Factor      7845(gal)/8223790
Max. Acc. (gal)   12.572
Last Correction   2025/01/13 21:20:00
Memo.             
[...]
    4244     4588     4939     5239     5547     5930     6340     6671 
    6856     6843     6600     6112     5359     4395     3402     2596 
    2131     2052     2312     2821     3438     3983     4347     4540 
    4581     4433     4093     3686     3415     3400     3628     3982 
    4305     4452     4360     4124     3932     3858     3859     3883 
    3877     3839     3848     3920     3979     3975     3886     3728 
    3605     3649     3929     4394     4826     4932     4615     4051 
    3507     3161     3092     3295     3634     3958     4255     4612 
    5116     5799     6546     7134     7418     7412     7203     6860 
    6481     6168     5945     5798     5724     5740     5886     6134 
    6336     6366     6247     6064     5852     5706     5787     6115 
    6546     6907     7049     6909     6598     6277     5977     5597 
    5030     4286     3516     2956     2754     2853     3071     3287 
    3501     3712     3850     3896     3863     3726     3495     3246 
    3073     3041     3168     3415     3717     4055     4445     4892 
    5378     5836     6185     6409     6485     6366     6062     5594 
    5017     4510     4264     4353     4680     5011     5138     4999 
    4669     4293     3970     3766     3726     3838     4039     4255 
    4413     4453     4372     4249     4160     4097     4041     4029 
    4074     4109     4052     3921     3827     3871     4058     4307 
    4531     4685     4774     4835     4854     4780     4622     4507 
    4588     4888     5260     5494     5462     5186     4783     4413 
    4225     4268     4483     4761     5047     5397     5842     6313 
    6667     6772     6631     6376     6188     6172     6313     6536 
    6756     6895     6934     6912     6856     6739     6542     6316 
    6104     5922     5802     5773     5880     6147     6457     6620 
    6536     6201     5726     5304     5049     4965     5015     5101 
    5101     5011     4924     4887     4865     4796     4649     4444 
    4253     4191     4315     4581     4912     5213     5344     5232 
    4949     4602     4251     3951     3753     3650     3624     3672 
    3759     3823     3808     3662     3392     3110     2937     2914 
    3032     3296     3661     3986     4162     4162     4036     3866 
    3726     3667     3677     3665     3585     3500     3488     3576 
    3726     3862     3966     4052     4113     4162     4202     4171 
    4035     3808     3484     3106     2821     2739     2805     2902 
    2974     3067     3277     3655     4168     4681     5009     5069 
    4903     4579     4210     3944     3854     3894     4001     4147 
    4334     4563     4834     5093     5243     5252     5142     4936 
    4654     4325     4010     3784     3676     3676     3789     4052 
    4432     4804     5089     5298     5475     5640     5790     5910 
    5948     5840     5583     5248     4941     4791     4861     5136 
    5568     6097     6647     7163     7639     8090     8494     8807 
    9007     9077     8984     8716     8332     7916     7504     7084 
    6642     6170     5690     5250     4901     4672     4568     4537 
    4472     4305     4063     3804     3550     3285     2978     2621 
    2266     1985     1837     1827     1927     2081     2222     2309 
    2376     2465     2567     2652     2708     2733     2737     2728 
    2735     2798     2920     3067     3218     3372     3524     3723 
    4044     4521     5112     5749     6367     6905     7302     7515 
    7554     7468     7315     7172     7105     7118     7186     7281 
    7376     7493     7688     7920     8064     8052     7913     7722 
    7497     7173     6679     6039     5358     4735     4226     3873 
    3684     3628     3673     3801     4025     4345     4692     4965 
    5098     5080     4923     4656     4333     4047     3906     3960 
    4152     4411     4734     5103     5447     5714     5927     6122 
    6276     6312     6162     5842     5445     5017     4568     4176 
    3921     3804     3780     3802     3850     3924     3998     4051 
    4105     4191     4329     4530     4734     4862     4882     4796 
    4661     4558     4517     4537     4625     4784     5024     5316 
    5605     5850     5992     5998     5895     5683     5339     4909 
    4484     4120     3834     3646     3578     3607     3661     3673 
    3624     3549     3501     3516     3586     3692     3843     4035 
    4207     4274     4178     3919     3566     3250     3125     3258 
    3569     3946     4347     4738     5086     5377     5539     5499 
    5252     4816     4294     3842     3546     3418     3403     3451 
    3574     3819     4225     4772     5351     5845     6170     6311 
    6311     6227     6108     5967     5776     5547     5320     5119 
    4954     4849     4791     4739     4672     4590     4488     4369 
    4245     4171     4247     4531     5004     5579     6168     6697 
    7098     7345     7488     7523     7373     6990     6413     5773 
    5235     4884     4711     4645     4598     4534     4487     4495 
    4604     4826     5055     5186     5213     5197     5227     5363 
    5595     5863     6088     6226     6345     6525     6791     7161 
    7578     7877     7973     7933     7823     7651     7418     7122 
    6747     6241     5553     4725     3905     3269     2875     2627 
    2421     2236     2054     1846     1615     1406     1271     1228 
    1266     1351     1460     1610     1818     2052     2239     2330 
    2327     2305     2365     2528     2712     2824     2866     2879 
    2882     2851     2774     2681     2609     2551     2451     2223 
    1807     1233      598       -1     -465     -708     -742     -666 
    -533     -305       98      766     1729     2886     4074     5090 
    5771     6143     6355     6498     6633     6812     7011     7214 
    7477     7852     8343     8934     9548    10010    10195    10103 
    9814     9445     9092     8776     8479     8181     7862     7539 
    7298     7200     7210     7256     7291     7273     7192     7094 
    7034     7024     7013     6937     6786     6616     6498     6463 
    6515     6660     6912     7210     7485     7738     7950     8039 
    7924     7557     6928     6081     5120     4195     3430     2871 
    2525     2363     2324     2370     2478     2627     2770     2859 
    2937     3117     3418     3811     4271     4733     5151     5548 
    5908     6197     6400     6494     6484     6394     6257     6126 
    6039     5984     5945     5923     5938     6029     6238     6594 
    7068     7545     7916     8151     8264     8283     8240     8133 
    7908     7531     7064     6601     6238     6037     5976     6011 
    6114     6210     6204     6075     5886     5691     5476     5223 
    4969     4749     4531     4299     4045     3738     3383     3009 
    2635     2301     2046     1857     1691     1514     1324     1113 
     845      522      214       -9     -106      -70       79      275 
     430      508      514      452      318       54     -399    -1005 
   -1636    -2160    -2486    -2616    -2604    -2473    -2234    -1891 
   -1397     -699      160     1066     1931     2768     3616     4469 
    5305     6104     6795     7317     7684     7960     8253     8669 
    9228     9860    10458    10960    11353    11620    11730    11631 
   11242    10542     9629     8677     7855     7250     6831     6546 
    6419     6502     6829     7368     8031     8725     9339     9782 
   10027    10064     9896     9566     9099     8532     7924     7339 
    6856     6515     6293     6189     6214     6373     6663     7015 
    7329     7518     7496     7233     6774     6196     5601     5040 
    4445     3767     3046     2351     1790     1485     1483     1744 
    2204     2822     3562     4372     5165     5868     6407     6667 
    6596     6228     5644     4928     4159     3384     2659     2019 
    1505     1221     1216     1379     1561     1653     1575     1331 
     986      598      263       86       75      162      348      706 
    1274     2023     2829     3524     3996     4205     4176     3971 
    3634     3196     2691     2166     1657     1209      846      561 
     386      391      600      986     1503     2114     2774     3410 
    3948     4375     4698     4945     5123     5193     5111     4882 
    4585     4306     4094     4010     4105     4367     4757     5246 
    5805     6370     6867     7254     7512     7599     7489     7200 
    6790     6320     5823     5313     4830     4415     4112     3958 
    3970     4129     4394     4749     5154     5503     5751     5930 
    6060     6168     6277     6376     6486     6671     6933     7207 
    7418     7524     7539     7489     7393     7261     7103     6926 
    6721     6489     6264     6089     6041     6164     6377     6561 
    6670     6697     6647     6540     6405     6251     6072     5898 
    5787     5761     5807     5892     5979     6057     6123     6126 
    6033     5887     5782     5821     6049     6446     6957     7496 
    7942     8235     8397     8453     8433     8348     8179     7947 
    7674     7353     7005     6655     6280     5869     5417     4903 
    4348     3778     3172     2546     1962     1458     1059      768 
     522      279       51     -145     -282     -321     -257     -135 
       0      117      197      256      326      382      363      224 
       1     -207     -307     -268     -128       32      159      257 
     368      513      662      765      822      885      985     1147 
    1385     1659     1948     2266     2609     2983     3427     3966 
    4604     5313     6033     6720     7312     7754     8068     8295 
    8445     8519     8518     8502     8580     8799     9175     9706 
   10312    10905    11400    11727    11893    11952    11951    11932 
   11902    11835    11715    11572    11468    11430    11416    11391 
   11311    11115    10785    10326     9784     9248     8746     8255 
    7777     7315     6883     6507     6188     5923     5672     5331 
    4833     4241     3650     3109     2639     2262     2000     1896 
    2016     2386     2913     3424     3788     3959     3979     3904 
    3762     3570     3331     3025     2664     2304     2002     1787 
    1701     1740     1836     1927     1999     2056     2130     2250 
    2450     2774     3192     3608     3946     4175     4302     4353 
    4376     4398     4401     4352     4239     4059     3844     3654 
    3557     3618     3843     4155     4477     4779     5034     5242 
    5398     5463     5408     5256     5055     4868     4747     4710 
    4734     4773     4796     4847     5009     5324     5759     6201 
    6502     6585     6480     6249     5930     5518     4978     4320 
    3603     2893     2235     1653     1143      684      282      -40 
    -257     -337     -263      -60      224      507      750     1000 
    1302     1634     1935     2141     2277     2413     2590     2863 
    3256     3713     4216     4738     5225     5687     6119     6465 
    6690     6754     6664     6505     6330     6203     6189     6282 
    6461     6660     6799     6876     6947     7037     7128     7225 
    7385     7622     7889     8159     8415     8618     8737     8766 
    8699     8542     8325     8075     7828     7623     7497     7453 
    7447     7447     7422     7357     7249     7079     6855     6635 
    6473     6415     6466     6581     6691     6720     6597     6309 
    5886     5377     4823     4253     3732     3329     3064     2922 
    2864     2844     2844     2867     2906     2982     3113     3258 
    3356     3329     3119     2735     2219     1610      989      446 
      40     -202     -288     -247     -102      118      384      649 
     874     1046     1140     1116      961      726      499      351 
     314      415      646      963     1333     1786     2358     3029 
    3730     4374     4882     5219     5389     5425     5340     5116 
    4758     4305     3829     3431     3163     2987     2878     2868 
    2988     3211     3503     3839     4191     4538     4870     5198 
    5553     5976     6462     6925     7281     7534     7711     7840 
    7938     8016     8110     8233     8364     8478     8534     8536 
    8519     8523     8586     8726     8907     9101     9335     9625 
    9969    10346    10713    11044    11313    11481    11529    11450 
   11284    11088    10910    10778    10671    10543    10354    10085 
    9741     9348     8924     8494     8082     7707     7364     7026 
    6718     6490     6340     6245     6166     6052     5868     5601 
    5260     4899     4569     4278     4018     3786     3558     3327 
    3076     2767     2382     1908     1341      688      -40     -826 
   -1664    -2550    -3445    -4297    -5044    -5602    -5914    -5994 
   -5900    -5714    -5485    -5263    -5092    -5000    -5000    -5085 
   -5212    -5313    -5316    -5178    -4887    -4438    -3844    -3105 
   -2228    -1277     -332      548     1318     1957     2490     2952 
    3352     3685     3958     4199     4461     4773     5173     5699 
    6359     7128     7969     8837     9674    10438    11094    11631 
   12070    12441    12807    13238    13755    14334    14953    15577 
   16159    16677    17123    17501    17772    17911    17976    17983 
   17901    17751    17551    17273    16887    16356    15722    15083 
   14472    13900    13397    12937    12517    12141    11762    11356 
   10901    10327     9633     8893     8147     7399     6650     5956 
    5408     5024     4772     4614     4519     4506     4561     4635 
    4710     4758     4746     4675     4542     4325     4000     3543 
    2887     1976      846     -413    -1736    -3060    -4287    -5327 
   -6110    -6624    -6909    -6988    -6890    -6697    -6521    -6416 
   -6385    -6438    -6602    -6858    -7140    -7403    -7573    -7557 
   -7308    -6801    -6008    -4949    -3700    -2359    -1031      183 
    1212     2026     2624     3006     3154     3076     2830     2475 
    2027     1529     1112      912      962     1174     1439     1740 
    2064     2363     2658     2976     3325     3685     4040     4437 
    4947     5602     6384     7191     7927     8548     9046     9387 
    9549     9559     9387     9038     8627     8240     7909     7682 
    7612     7703     7867     8019     8122     8186     8240     8266 
    8194     8039     7890     7851     7936     8013     8037     8086 
    8089     7867     7364     6639     5753     4727     3593     2413 
    1286      299     -527    -1186    -1629    -1809    -1723    -1414 
    -916     -272      448     1181     1872     2458     2907     3303 
    3746     4247     4784     5337     5895     6477     7091     7732 
    8380     8969     9428     9730     9931    10165    10512    10959 
   11484    12050    12607    13130    13571    13888    14048    13983 
   13695    13286    12858    12487    12202    11952    11696    11445 
   11194    10941    10702    10473    10258    10089     9999     9930 
    9780     9544     9261     8916     8511     8036     7447     6748 
    5972     5152     4349     3601     2914     2246     1528      749 
     -39     -800    -1498    -2101    -2640    -3146    -3581    -3856 
   -3913    -3758    -3468    -3103    -2683    -2215    -1694    -1136 
    -552       70      699     1294     1856     2359     2778     3096 
    3296     3395     3445     3483     3481     3387     3204     3001 
    2852     2833     2970     3244     3636     4085     4517     4927 
    5348     5764     6115     6347     6427     6339     6088     5691 
    5184     4581     3894     3161     2465     1840     1271      776 
     373       12     -332     -610     -764     -770     -697     -611 
    -508     -410     -326     -217     -105      -35       10       28 
     -22     -117     -186     -201     -135       66      411      911 
    1599     2459     3451     4529     5579     6463     7107     7497 
    7645     7600     7438     7204     6914     6600     6347     6265 
    6413     6767     7256     7808     8401     9039     9690    10311 
   10876    11331    11668    11909    12048    12129    12191    12235 
   12325    12529    12847    13248    13632    13899    14007    13911 
   13599    13123    12503    11763    10994    10261     9602     9049 
    8560     8112     7686     7257     6841     6448     6052     5633 
    5212     4860     4633     4521     4506     4567     4693     4912 
    5233     5625     6079     6615     7219     7817     8317     8689 
    8964     9123     9104     8878     8480     7943     7269     6484 
    5645     4833     4139     3613     3241     2961     2752     2605 
    2489     2404     2369     2339     2254     2106     1858     1472 
     988      446     -151     -757    -1282    -1655    -1830    -1810 
   -1645    -1358     -973     -567     -179      184      487      662 
     643      411       17     -477    -1044    -1642    -2227    -2744 
   -3115    -3277    -3194    -2843    -2245    -1410     -357      801 
    1941     2999     3927     4660     5182     5513     5663     5671 
    5591     5476     5401     5435     5614     5944     6380     6887 
    7452     8009     8513     8931     9219     9352     9282     8976 
    8529     8019     7487     7029     6713     6556     6552     6654 
    6836     7072     7269     7364     7380     7356     7306     7188 
    6944     6569     6088     5547     5013     4513     4044     3593 
    3103     2527     1858     1113      338     -440    -1239    -2049 
   -2837    -3546    -4112    -4483    -4595    -4413    -3956    -3265 
   -2401    -1439     -396      724     1912     3146     4396     5637 
    6852     8036     9186    10266    11217    11997    12606    13078 
   13454    13751    13977    14162    14350    14559    14787    15061 
   15390    15709    15959    16101    16113    15998    15766    15410 
   14933    14388    13878    13485    13200    12962    12745    12546 
   12351    12150    11944    11707    11402    10994    10484     9904 
    9201     8266     7107     5795     4426     3105     1852      634 
    -521    -1575    -2505    -3267    -3825    -4213    -4464    -4573 
   -4536    -4347    -4010    -3546    -2956    -2266    -1540     -812 
    -116      502      994     1305     1379     1224      901      461 
     -25     -472     -861    -1217    -1510    -1745    -1965    -2151 
   -2270    -2332    -2339    -2289    -2197    -2068    -1950    -1937 
   -2050    -2205    -2323    -2398    -2392    -2222    -1910    -1514 
   -1027     -459      178      895     1630     2330     2967     3478 
    3854     4147     4348     4464     4572     4725     4924     5161 
    5401     5630     5864     6080     6262     6450     6691     7009 
    7369     7751     8167     8579     8928     9239     9539     9807 
   10031    10230    10436    10700    11028    11395    11800    12236 
   12649    12995    13254    13373    13270    12947    12468    11904 
   11307    10694    10058     9406     8814     8363     8041     7830 
