Origin Time       2025/01/13 21:19:00
Lat.              31.8
Long.             131.6
Depth. (km)       30
Mag.              6.9
Station Code      KMM006
Station Lat.      32.7934
Station Long.     130.7772
Station Height(m) 35
Record Time       2025/01/13 21:19:57
Sampling Freq(Hz) 100Hz
Duration Time(s)  105
Dir.              N-S
Scale Factor      7845(gal)/8223790
Max. Acc. (gal)   14.685
Last Correction   2025/01/13 21:19:57
Memo.             
[...]
   14893    14602    14116    13393    12511    11597    10755    10089 
    9614     9301     9170     9192     9313     9555     9879    10153 
   10295    10234     9936     9467     8862     8139     7376     6625 
    5927     5387     5062     4980     5150     5486     5883     6304 
    6696     7003     7187     7204     7072     6866     6606     6319 
    6096     5953     5856     5809     5771     5776     5949     6309 
    6812     7398     7966     8515     9123     9783    10463    11102 
   11632    12060    12383    12559    12617    12587    12448    12222 
   11950    11637    11340    11090    10795    10423    10019     9613 
    9215     8803     8384     8031     7769     7591     7524     7572 
    7715     7982     8378     8854     9344     9775    10161    10574 
   10979    11277    11380    11191    10723    10106     9367     8494 
    7588     6774     6134     5705     5486     5510     5848     6488 
    7388     8507     9765    11088    12366    13419    14138    14532 
   14635    14492    14160    13709    13284    12930    12523    12006 
   11418    10764    10112     9540     9022     8546     8141     7804 
    7551     7393     7290     7233     7246     7322     7472     7762 
    8210     8725     9173     9462     9582     9548     9464     9472 
    9590     9844    10326    10933    11470    11862    12144    12411 
   12744    13134    13570    14081    14631    15099    15406    15491 
   15348    15063    14667    14143    13529    12822    12028    11217 
   10386     9558     8795     8112     7584     7304     7196     7190 
    7299     7488     7699     7893     8001     8025     8056     8143 
    8284     8455     8588     8704     8872     9039     9096     8996 
    8761     8499     8309     8247     8363     8603     8831     8986 
    9062     9105     9239     9509     9850    10246    10686    11132 
   11578    11981    12275    12478    12614    12691    12726    12642 
   12339    11854    11273    10654    10015     9319     8573     7865 
    7249     6760     6416     6173     6048     6087     6242     6467 
    6774     7136     7535     7996     8451     8858     9270     9705 
   10139    10557    10905    11213    11553    11913    12237    12478 
   12572    12541    12414    12136    11668    11053    10390     9810 
    9346     8893     8409     7927     7476     7119     6890     6728 
    6605     6507     6409     6355     6351     6349     6358     6382 
    6363     6297     6207     6100     6029     6018     6026     6053 
    6139     6303     6558     6866     7119     7268     7249     7028 
    6691     6340     6031     5837     5775     5806     5929     6153 
    6489     6963     7576     8293     9039     9711    10262    10698 
   11016    11242    11431    11584    11724    11905    12120    12367 
   12661    12960    13221    13427    13527    13543    13531    13423 
   13154    12772    12298    11731    11090    10420     9842     9443 
    9147     8880     8648     8461     8355     8337     8371     8490 
    8706     8955     9194     9381     9513     9655     9786     9842 
    9864     9931    10100    10426    10856    11304    11784    12320 
   12874    13446    14017    14539    14970    15264    15456    15654 
   15882    16114    16348    16542    16664    16680    16529    16204 
   15701    14967    14040    13050    12028    10966     9896     8843 
    7901     7163     6582     6172     5985     5961     6060     6297 
    6628     7032     7535     8097     8700     9383    10095    10733 
   11254    11635    11901    12089    12150    12060    11826    11406 
   10812    10069     9150     8101     7015     5964     5023     4229 
    3599     3199     3010     2907     2805     2702     2691     2855 
    3122     3396     3667     3933     4197     4522     4968     5580 
    6427     7474     8619     9776    10828    11666    12272    12609 
   12637    12360    11766    10913     9963     9018     8154     7445 
    6898     6512     6277     6142     6091     6108     6108     6045 
    5954     5906     5976     6165     6386     6642     6980     7362 
    7758     8163     8532     8835     9061     9192     9308     9493 
    9786    10220    10748    11249    11685    12066    12372    12580 
   12656    12613    12533    12429    12279    12143    12043    11990 
   12051    12229    12503    12888    13375    14000    14769    15527 
   16179    16700    17007    17111    17095    16957    16704    16368 
   15920    15336    14632    13822    12945    12077    11223    10415 
    9736     9124     8469     7763     7049     6373     5745     5189 
    4812     4692     4787     5016     5323     5657     5994     6282 
    6431     6412     6268     6023     5722     5386     5003     4627 
    4330     4155     4197     4500     5034     5802     6766     7844 
    9038    10316    11566    12717    13736    14615    15375    15970 
   16335    16468    16359    16015    15503    14831    14017    13163 
   12326    11542    10851    10234     9695     9288     9026     8954 
    9112     9460     9950    10546    11110    11518    11692    11522 
   10993    10224     9290     8301     7435     6778     6346     6150 
    6158     6342     6650     6971     7234     7389     7385     7279 
    7163     7078     7038     7007     6982     7101     7411     7794 
    8159     8418     8494     8397     8116     7639     7042     6392 
    5744     5196     4762     4417     4220     4205     4392     4869 
    5660     6741     8060     9494    10940    12357    13683    14858 
   15840    16522    16773    16571    15986    15120    14114    13078 
   12078    11153    10284     9439     8629     7889     7292     6918 
    6810     6998     7476     8172     9028    10011    11068    12154 
   13216    14168    14968    15599    16019    16263    16366    16294 
   16097    15850    15545    15161    14678    14065    13354    12591 
   11801    11072    10497    10118     9934     9904    10004    10266 
   10675    11167    11719    12317    12945    13555    14029    14277 
   14319    14149    13761    13238    12637    11966    11240    10457 
    9633     8814     7974     7114     6320     5598     4907     4266 
    3635     2971     2327     1740     1251      961      901     1077 
    1471     1987     2586     3281     4010     4735     5459     6150 
    6840     7570     8316     9096     9925    10748    11533    12268 
   12927    13531    14094    14566    14913    15083    14989    14634 
   14045    13219    12221    11136    10029     9000     8060     7142 
    6266     5471     4774     4247     3978     3991     4295     4869 
    5626     6496     7369     8114     8673     9046     9256     9378 
    9435     9396     9319     9254     9204     9216     9302     9406 
    9498     9579     9674     9795     9891     9923     9915     9904 
    9953    10098    10301    10548    10832    11068    11151    11021 
   10671    10174     9609     8973     8278     7584     6941     6439 
    6131     5987     5992     6157     6463     6922     7542     8279 
    9089     9907    10662    11375    12060    12637    13058    13298 
   13302    13065    12575    11813    10868     9834     8760     7762 
    6907     6199     5687     5377     5242     5312     5583     6004 
    6551     7160     7753     8311     8814     9225     9552     9755 
    9796     9715     9526     9235     8876     8465     8074     7828 
    7759     7861     8135     8554     9117     9826    10608    11396 
   12156    12830    13406    13915    14328    14617    14766    14731 
   14508    14123    13589    12946    12264    11622    11125    10833 
   10689    10606    10516    10388    10231    10010     9680     9309 
    8962     8637     8387     8275     8305     8503     8869     9333 
    9822    10241    10530    10678    10615    10295     9792     9204 
    8606     8047     7511     7029     6669     6459     6477     6806 
    7422     8280     9371    10616    11916    13203    14364    15294 
   15977    16406    16583    16564    16364    15982    15425    14706 
   13918    13170    12483    11867    11368    11005    10801    10733 
   10698    10650    10582    10426    10169     9865     9536     9240 
    9009     8811     8698     8726     8842     8995     9138     9229 
    9297     9317     9229     9055     8849     8645     8495     8387 
    8294     8239     8214     8179     8135     8066     7966     7890 
    7821     7747     7761     7869     8044     8344     8748     9201 
    9697    10206    10736    11331    11919    12444    12969    13483 
   13900    14187    14339    14397    14397    14304    14103    13802 
   13362    12777    12085    11288    10455     9684     9005     8495 
    8221     8128     8172     8316     8476     8641     8799     8847 
    8764     8622     8467     8363     8352     8395     8468     8541 
    8549     8480     8352     8159     7947     7744     7546     7406 
    7325     7248     7203     7225     7306     7443     7581     7672 
    7717     7690     7569     7411     7263     7134     7053     6990 
    6897     6778     6644     6535     6475     6448     6489     6654 
    6940     7361     7931     8584     9255     9915    10478    10867 
   11067    11033    10759    10315     9738     9077     8395     7700 
    7049     6544     6203     6029     6019     6112     6309     6615 
    6949     7269     7557     7790     8028     8328     8680     9101 
    9603    10137    10670    11133    11421    11524    11465    11229 
   10840    10342     9782     9220     8671     8129     7665     7322 
    7126     7092     7155     7272     7481     7759     8059     8390 
    8715     8942     9057     9080     9016     8888     8722     8553 
    8442     8395     8382     8349     8232     8073     7970     7952 
    8047     8260     8538     8874     9289     9732    10139    10453 
   10609    10588    10420    10119     9697     9189     8618     8013 
    7385     6729     6110     5566     5081     4714     4509     4418 
    4450     4623     4907     5310     5832     6386     6934     7474 
    7996     8527     9086     9643    10223    10849    11492    12168 
   12893    13652    14457    15287    16089    16841    17470    17876 
   18053    18022    17815    17486    17035    16487    15928    15381 
   14825    14308    13883    13579    13435    13410    13447    13549 
   13675    13745    13759    13729    13657    13582    13508    13431 
   13396    13382    13336    13235    13051    12788    12467    12056 
   11556    10989    10332     9599     8856     8124     7411     6766 
    6218     5788     5487     5304     5294     5510     5891     6358 
    6862     7373     7928     8537     9151     9768    10374    10909 
   11354    11692    11859    11835    11637    11302    10943    10611 
   10282     9984     9728     9504     9354     9279     9229     9184 
    9104     8973     8820     8652     8421     8086     7603     6944 
    6143     5242     4321     3473     2705     2014     1432      931 
     499      174      -49     -153     -103       62      330      741 
    1333     2146     3157     4290     5506     6835     8256     9729 
   11202    12595    13856    14914    15641    15971    15925    15519 
   14835    13994    13066    12144    11303    10528     9829     9224 
    8680     8222     7894     7705     7695     7874     8201     8649 
    9153     9626    10052    10439    10805    11153    11404    11481 
   11373    11047    10486     9748     8868     7892     6898     5935 
    5093     4464     4032     3793     3817     4114     4676     5518 
    6605     7886     9331    10831    12263    13576    14728    15720 
   16594    17313    17868    18324    18671    18871    18948    18910 
   18767    18509    18095    17560    16992    16403    15778    15126 
   14446    13753    13097    12475    11882    11380    10991    10683 
   10423    10211    10112    10139    10211    10338    10577    10941 
   11446    12070    12717    13356    13999    14598    15122    15554 
   15881    16163    16449    16748    17104    17471    17702    17713 
   17509    17122    16575    15844    14910    13805    12541    11160 
    9772     8438     7149     5911     4743     3693     2802     2069 
    1506     1156     1015     1053     1269     1655     2222     2956 
    3755     4537     5297     6000     6620     7199     7774     8365 
    8962     9512     9991    10382    10621    10663    10503    10118 
    9512     8703     7686     6509     5273     4014     2772     1613 
     554     -390    -1212    -1933    -2546    -3076    -3573    -4029 
   -4433    -4792    -5047    -5144    -5071    -4801    -4340    -3747 
   -3041    -2228    -1314     -294      801     1956     3161     4348 
    5482     6609     7720     8753     9675    10447    11049    11484 
   11693    11631    11392    11076    10709    10331     9956     9563 
    9200     8916     8714     8576     8492     8487     8625     8914 
    9339     9890    10548    11334    12229    13167    14156    15176 
   16155    17074    17907    18565    19018    19299    19421    19423 
   19344    19168    18914    18627    18300    17937    17558    17151 
   16731    16335    15981    15697    15525    15464    15525    15670 
   15812    15943    16096    16244    16445    16787    17282    17921 
   18682    19533    20460    21421    22354    23229    23977    24518 
   24852    24970    24846    24480    23820    22843    21652    20302 
   18739    16960    15013    12904    10679     8436     6259     4255 
    2474      939     -310    -1289    -1991    -2365    -2431    -2193 
   -1613     -729      415     1802     3341     4915     6405     7676 
    8626     9239     9533     9540     9292     8826     8176     7377 
    6475     5549     4680     3935     3373     3015     2856     2895 
    3091     3339     3624     3970     4330     4683     5034     5346 
    5601     5737     5661     5386     4928     4284     3534     2762 
    2016     1320      664       63     -436     -843    -1116    -1135 
    -864     -353      388     1333     2430     3634     4877     6081 
    7202     8228     9162     9931    10390    10517    10395    10053 
    9524     8864     8114     7396     6828     6436     6315     6556 
    7083     7830     8793     9899    11074    12276    13464    14605 
   15664    16590    17356    17941    18303    18453    18441    18283 
   18009    17629    17142    16586    15938    15082    13991    12698 
   11217     9607     7951     6340     4934     3842     3094     2706 
    2673     2999     3703     4685     5834     7094     8340     9428 
   10339    11110    11781    12425    13085    13770    14512    15288 
   16029    16718    17336    17855    18252    18490    18554    18443 
   18114    17563    16875    16112    15310    14517    13770    13095 
   12507    12008    11622    11369    11245    11252    11349    11479 
   11631    11781    11894    12012    12123    12144    12074    11939 
   11761    11607    11520    11527    11680    11934    12177    12370 
   12468    12391    12118    11666    11057    10380     9687     8988 
    8314     7673     7083     6615     6243     5877     5510     5162 
    4804     4394     3897     3304     2644     1933     1197      506 
     -86     -535     -769     -731     -386      275     1197     2324 
    3646     5150     6802     8523    10235    11923    13554    15013 
   16206    17082    17587    17679    17375    16725    15782    14638 
   13342    11924    10436     8910     7368     5875     4514     3383 
    2581     2142     2081     2373     2929     3690     4637     5709 
    6867     8095     9348    10588    11778    12864    13805    14565 
   15086    15345    15353    15122    14685    14030    13135    12060 
   10845     9522     8194     6930     5809     4945     4380     4104 
    4143     4482     5074     5908     6940     8075     9258    10434 
   11546    12529    13313    13896    14314    14577    14728    14813 
   14762    14531    14183    13755    13270    12756    12212    11692 
   11244    10839    10489    10224    10029     9904     9871     9875 
    9895     9937     9961     9984    10075    10218    10399    10598 
   10777    10972    11226    11530    11880    12241    12541    12745 
   12820    12737    12528    12237    11916    11610    11306    11002 
   10735    10455    10126     9814     9547     9316     9143     8997 
    8842     8702     8556     8390     8251     8185     8230     8419 
    8737     9170     9722    10328    10898    11372    11701    11880 
   11954    11892    11643    11223    10656     9981     9258     8465 
    7628     6793     5910     4997     4159     3423     2776     2220 
    1757     1394     1075      712      295     -152     -638    -1107 
   -1482    -1742    -1841    -1736    -1447     -954     -256      569 
    1451     2316     3080     3754     4361     4897     5385     5849 
    6323     6871     7508     8221     9012     9821    10562    11261 
   11940    12530    13001    13348    13570    13706    13761    13744 
   13716    13675    13630    13630    13637    13628    13653    13705 
   13774    13899    14075    14299    14597    14906    15160    15358 
   15477    15508    15483    15402    15277    15132    14936    14678 
   14357    13926    13387    12779    12093    11344    10552     9747 
    8980     8255     7574     6998     6548     6208     5983     5867 
    5857     6002     6316     6771     7356     8027     8727     9483 
   10282    11059    11835    12646    13447    14191    14827    15303 
   15638    15862    16005    16112    16201    16298    16443    16584 
   16672    16691    16582    16318    15954    15500    14966    14403 
   13838    13293    12793    12321    11865    11431    10990    10561 
   10154     9710     9216     8691     8120     7541     6999     6485 
    6029     5687     5435     5262     5194     5194     5244     5336 
    5418     5499     5610     5722     5827     5925     5983     6031 
    6081     6097     6085     6039     5945     5848     5769     5699 
    5638     5566     5470     5402     5379     5390     5454     5545 
    5622     5705     5786     5853     5935     6026     6107     6204 
    6334     6489     6646     6762     6836     6875     6839     6701 
    6474     6162     5811     5490     5211     4997     4914     4968 
    5151     5481     5921     6447     7056     7704     8378     9077 
    9730    10322    10886    11379    11781    12172    12598    13081 
   13645    14235    14787    15284    15688    15982    16175    16274 
   16345    16417    16443    16449    16480    16514    16549    16583 
   16565    16519    16501    16511    16548    16613    16680    16738 
   16785    16799    16780    16729    16641    16537    16399    16204 
   15967    15678    15311    14912    14486    13992    13446    12826 
   12081    11230    10316     9366     8433     7557     6783     6153 
    5637     5216     4903     4669     4494     4395     4375     4440 
    4637     4959     5375     5900     6542     7265     8035     8807 
    9531    10179    10720    11128    11400    11523    11489    11321 
   11028    10631    10164     9621     9001     8325     7589     6822 
