Origin Time       2025/01/13 21:19:00
Lat.              31.8
Long.             131.6
Depth. (km)       30
Mag.              6.9
Station Code      KMM017
Station Lat.      32.2567
Station Long.     130.9245
Station Height(m) 153
Record Time       2025/01/13 21:19:46
Sampling Freq(Hz) 100Hz
Duration Time(s)  150
Dir.              N-S
Scale Factor      7845(gal)/8223790
Max. Acc. (gal)   20.490
Last Correction   2025/01/13 21:19:46
Memo.             
[...]
   -1705    -2046    -2277    -2478    -2459    -2088    -1399     -672 
    -298     -405     -923    -1861    -3129    -4365    -5184    -5433 
   -5113    -4274    -3188    -2162    -1138       75     1485     3086 
    4884     6642     7993     8812     9220     9447     9687     9931 
   10077    10065     9919     9832     9991    10338    10689    10995 
   11244    11284    11005    10496     9815     8938     7962     6988 
    5962     4739     3199     1428     -224    -1395    -1944    -1923 
   -1448     -729      -56      429      714      774      689      600 
     519      498      814     1648     2797     3981     5086     5927 
    6288     6320     6373     6509     6628     6733     6728     6355 
    5514     4340     2992     1659      669      324      712     1807 
    3408     5063     6311     6944     7063     6899     6574     6197 
    5975     6058     6415     6833     7110     7210     7119     6878 
    6704     6737     6894     7003     6964     6890     6993     7177 
    7071     6524     5749     4974     4270     3681     3285     3153 
    3261     3303     2705     1221     -692    -2419    -3674    -4337 
   -4261    -3399    -1908     -136     1364     2015     1715      915 
     179      -74      324     1237     2344     3441     4418     4950 
    4704     3838     2783     1829     1147     1017     1749     3271 
    5023     6300     6548     5710     4291     2879     1795     1152 
    1016     1463     2400     3469     4334     4881     5134     5242 
    5512     6169     7136     8237     9335    10222    10829    11352 
   11901    12297    12372    12168    11639    10701     9705     9067 
    8796     8896     9305     9559     9271     8540     7742     7230 
    6976     6511     5343     3550     1875     1055     1270     2224 
    3342     4108     4367     3964     2686      669    -1649    -3735 
   -5131    -5779    -5861    -5498    -4899    -4612    -5391    -7480 
  -10204   -12548   -13721   -13383   -11842    -9740    -7492    -5346 
   -3570    -2157     -762      950     3122     5601     7940     9666 
   10702    11441    12001    12101    11758    11388    11395    11982 
   13165    14963    17355    19943    21984    22794    22022    19840 
   16848    13674    10690     8074     5975     4569     3952     4001 
    4401     4810     4843     4027     2053     -950    -4455    -7666 
   -9771   -10447    -9909    -8313    -5837    -3156     -988      670 
    2182     3507     4450     5042     5320     5383     5424     5385 
    5085     4768     5111     6583     9050    11929    14613    16888 
   18890    20677    22013    22630    22457    21451    19691    17558 
   15485    13772    12571    11881    11693    11917    12275    12407 
   12062    11261    10208     9043     7854     6673     5528     4496 
    3630     3150     3419     4352     5432     6181     6319     5699 
    4368     2693     1105     -315    -1691    -3045    -4340    -5506 
   -6517    -7437    -8322    -9259   -10372   -11489   -12124   -12086 
  -11601   -10813    -9803    -8764    -7630    -6138    -4378    -2666 
   -1065      450     1695     2593     3422     4364     5219     5690 
    5688     5387     5202     5587     6593     7958     9629    11658 
   13763    15394    16029    15512    14278    12985    11988    11333 
   11014    11011    11194    11406    11515    11349    10786     9798 
    8432     6766     4865     2918     1186     -238    -1286    -1759 
   -1710    -1449    -1181    -1077    -1335    -1864    -2196    -1864 
    -831      612     2033     2887     2967     2459     1532      301 
    -951    -1917    -2473    -2501    -1775     -279     1714     3916 
    6064     7932     9286     9780     9286     8279     7399     6876 
    6552     6151     5644     5393     5779     6822     8083     8969 
    9216     8814     7861     6862     6498     6953     7870     8757 
    9273     9306     8827     7846     6443     4607     2417      263 
   -1420    -2535    -3408    -4444    -5740    -7210    -8700    -9892 
  -10578   -10762   -10430    -9722    -9178    -9346   -10212   -11319 
  -12310   -13036   -13359   -13198   -12631   -11808   -10812    -9571 
   -8032    -6361    -4770    -3338    -2143    -1254     -365     1038 
    3072     5427     7788     9834    11163    11746    12226    13186 
   14404    15330    15708    15445    14648    13834    13502    13635 
   14046    14760    15620    16286    16617    16495    15799    14624 
   13024    11022     8955     7291     6268     5900     6053     6413 
    6789     7349     8163     8969     9560     9698     9001     7474 
    5775     4719     4712     5695     7303     8969    10253    11078 
   11572    11939    12316    12764    13320    13810    13923    13541 
   12691    11412     9813     8040     6282     4820     3874     3397 
    3144     3029     3302     4081     5024     5759     6158     6208 
    6004     5778     5649     5567     5597     5957     6679     7437 
    7920     8141     8182     8135     8178     8283     8280     8209 
    8221     8216     7848     6984     5836     4585     3238     1838 
     580     -318     -658     -253      855     2420     4318     6268 
    7655     8236     8154     7445     6327     5293     4631     4437 
    4787     5544     6331     6917     7356     7595     7312     6277 
    4523     2340      297    -1151    -2076    -2764    -3407    -4106 
   -4828    -5352    -5541    -5688    -6308    -7585    -9324   -11159 
  -12735   -13787   -14106   -13759   -13089   -12214   -10899    -9015 
   -6778    -4557    -2635    -1228     -378      251      949     1661 
    2558     4140     6462     8985    11287    13350    15199    16680 
   17668    18164    18215    17929    17442    16810    15917    14573 
   12896    11379    10285     9381     8452     7565     6681     5643 
    4371     2836     1293      322      306     1074     2153     3365 
    4797     6142     6890     6871     6130     4869     3510     2455 
    2056     2628     4218     6492     8888    10829    11793    11462 
    9990     7989     6145     4974     4838     5759     7446     9601 
   11842    13678    14781    15005    14354    13081    11576    10104 
    8715     7418     6357     5663     5323     5197     5040     4688 
    4217     3755     3322     2975     2932     3339     4047     4691 
    4920     4571     3717     2533     1162     -141    -1003    -1190 
    -716      265     1524     2767     3619     3723     2968     1436 
    -769    -3427    -6184    -8733   -10936   -12640   -13471   -13149 
  -11854   -10023    -8033    -6184    -4752    -4081    -4407    -5498 
   -6759    -7676    -8012    -7859    -7555    -7272    -6770    -5780 
   -4367    -2801    -1336      -94     1071     2484     4167     5702 
    6786     7588     8284     8787     9104     9437     9853    10276 
   10713    11094    11196    11106    11218    11615    11947    11932 
   11577    10859     9734     8426     7307     6678     6674     7253 
    8287     9501    10482    11043    11344    11591    11793    11847 
   11716    11449    11086    10612     9856     8571     6774     4857 
    3273     2296     1976     2170     2671     3414     4375     5314 
    5934     6178     6058     5456     4333     2848     1213     -303 
   -1355    -1826    -1972    -2066    -2270    -2768    -3539    -4252 
   -4683    -4792    -4457    -3597    -2390    -1080      110      972 
    1583     2295     3222     4175     5032     5821     6500     7002 
    7349     7503     7389     7191     7140     7167     7099     6944 
    6747     6390     5668     4529     3257     2351     2211     2951 
    4430     6319     8236     9787    10546    10345     9373     7911 
    6286     4864     3836     3322     3349     3649     3865     3867 
    3612     2991     1983      758     -341     -918     -750      118 
    1479     2952     4128     4807     4907     4430     3676     3094 
    2991     3445     4365     5625     7122     8758    10330    11433 
   11754    11403    10828    10457    10470    10930    11919    13355 
   14909    16266    17281    17886    18098    17957    17410    16403 
   15012    13490    12158    11226    10766    10666    10635    10384 
    9737     8646     7221     5598     3879     2143      471     -957 
   -1931    -2413    -2448    -2053    -1302     -353      592     1304 
    1597     1530     1379     1378     1622     2176     3045     4077 
    4990     5617     5994     6181     6282     6411     6399     5964 
    5125     4175     3495     3424     4094     5321     6606     7353 
    7223     6199     4513     2582      729     -961    -2408    -3422 
   -3844    -3771    -3476    -3122    -2814    -2708    -2874    -3299 
   -3906    -4522    -4938    -5001    -4704    -4190    -3611    -3119 
   -2902    -3065    -3531    -4132    -4800    -5516    -6048    -6099 
   -5537    -4345    -2581     -558     1163     2230     2648     2565 
    2286     2232     2566     3229     4163     5238     6219     7056 
    7913     8727     9090     8640     7250     5097     2758      954 
      17     -120      492     1771     3302     4668     5794     6705 
    7352     7682     7665     7308     6701     5981     5316     4835 
    4568     4507     4648     4919     5266     5672     6122     6659 
    7381     8325     9339    10127    10543    10728    10930    11218 
   11454    11523    11348    10783     9763     8523     7426     6700 
    6450     6490     6454     6250     6034     5894     5740     5435 
    4807     3585     1777      -67    -1459    -2319    -2677    -2555 
   -2088    -1471     -819     -172      371      742      974     1136 
    1314     1547     1760     1911     1904     1637     1255      985 
     958     1439     2521     3807     4939     5921     6768     7511 
    8267     8977     9385     9391     9153     8881     8838     9308 
   10293    11493    12630    13582    14284    14762    15198    15754 
   16403    16906    16951    16379    15236    13690    12016    10616 
    9776     9398     9107     8541     7551     6235     4870     3870 
    3578     4027     5050     6415     7794     8850     9313     8976 
    7804     6045     4109     2346     1013      418      793     1965 
    3389     4565     5294     5613     5705     5846     6224     6812 
    7489     8163     8758     9200     9381     9131     8280     6789 
    4820     2674      661     -984    -2099    -2687    -2959    -3113 
   -3226    -3375    -3676    -4210    -4990    -5962    -7049    -8124 
   -9036    -9695    -9991    -9838    -9271    -8397    -7453    -6762 
   -6424    -6309    -6220    -5926    -5328    -4573    -3942    -3658 
   -3735    -3994    -4178    -4035    -3457    -2528    -1412     -249 
     820     1682     2274     2631     2897     3252     3734     4203 
    4477     4444     4120     3645     3196     2937     2987     3362 
    3904     4293     4298     3897     3118     1992      635     -741 
   -1853    -2473    -2539    -2108    -1335     -311      967     2307 
    3326     3921     4361     4969     5888     7067     8316     9414 
   10173    10519    10535    10403    10323    10470    10883    11414 
   11871    12224    12559    12930    13265    13392    13167    12595 
   11758    10723     9594     8587     7821     7277     6961     6852 
    6882     7018     7240     7468     7564     7464     7238     6953 
    6673     6534     6542     6554     6527     6529     6619     6794 
    7014     7194     7246     7192     7095     6933     6621     6164 
    5742     5624     5960     6737     7816     8958     9892    10368 
   10243     9568     8580     7551     6640     5908     5340     4877 
    4564     4529     4707     4733     4233     3137     1687      272 
    -796    -1445    -1764    -1819    -1548     -865      151     1355 
    2612     3696     4371     4546     4240     3591     2840     2200 
    1790     1607     1560     1529     1364      951      286     -567 
   -1447    -2145    -2585    -2779    -2712    -2442    -2139    -1946 
   -1966    -2239    -2623    -2863    -2766    -2261    -1406     -380 
     611     1524     2477     3565     4816     6218     7631     8842 
    9799    10708    11821    13216    14729    15979    16582    16468 
   15931    15387    15169    15468    16310    17516    18786    19855 
   20525    20642    20160    19163    17784    16173    14540    13144 
   12166    11611    11334    11129    10802    10224     9317     8068 
    6534     4827     3211     2070     1686     2115     3268     4946 
    6843     8586     9841    10368    10049     8962     7366     5576 
    3877     2502     1566     1026      765      633      452      117 
    -319     -660     -676     -282      446     1340     2122     2624 
    2932     3186     3495     3923     4372     4673     4727     4560 
    4313     4128     4001     3762     3227     2370     1287       67 
   -1215    -2439    -3433    -4039    -4185    -3966    -3612    -3333 
   -3235    -3420    -4001    -4981    -6230    -7492    -8410    -8699 
   -8343    -7520    -6396    -5038    -3476    -1799     -157     1333 
    2643     3812     4916     5954     6847     7520     7960     8179 
    8226     8217     8237     8264     8244     8128     7867     7562 
    7392     7337     7165     6589     5347     3392      986    -1424 
   -3469    -5023    -6147    -6961    -7585    -8122    -8660    -9336 
  -10327   -11693   -13309   -14913   -16205   -16991   -17228   -17022 
  -16575   -16071   -15569   -14962   -14041   -12650   -10768    -8514 
   -6042    -3441     -776     1891     4488     6852     8823    10369 
   11577    12600    13541    14458    15369    16171    16683    16780 
   16425    15637    14492    13153    11754    10328     8946     7762 
    6979     6863     7584     9023    10818    12596    14172    15515 
   16614    17460    18050    18343    18299    17972    17421    16622 
   15588    14420    13246    12164    11164    10168     9185     8318 
    7601     6903     6073     5169     4426     4009     3915     4078 
    4445     4930     5387     5759     6075     6327     6505     6615 
    6604     6386     5859     4969     3829     2633     1543      720 
     387      800     2127     4217     6675     9127    11273    12888 
   13837    14075    13616    12526    11055     9614     8467     7604 
    6886     6142     5320     4561     4081     3975     4194     4595 
    4958     5051     4726     3964     2803     1302     -402    -2052 
   -3391    -4249    -4533    -4251    -3532    -2551    -1440     -247 
     988     2201     3418     4741     6227     7915     9825    11843 
   13711    15187    16170    16605    16482    15938    15160    14200 
   12989    11449     9591     7493     5127     2417     -589    -3717 
   -6602    -8746    -9832    -9875    -9096    -7820    -6376    -5011 
   -3832    -2762    -1633     -334     1081     2423     3528     4276 
    4583     4499     4162     3726     3362     3244     3511     4239 
    5387     6862     8532    10197    11699    13023    14203    15236 
   16060    16549    16653    16464    16100    15734    15615    15928 
   16672    17636    18508    18947    18638    17424    15388    12785 
    9949     7238     4914     3017     1466      216     -838    -1946 
   -3337    -5107    -7246    -9552   -11607   -12984   -13439   -12976 
  -11723    -9809    -7429    -4873    -2462     -548      538      658 
    -109    -1630    -3796    -6347    -8897   -11191   -13084   -14443 
  -15304   -15768   -15826   -15483   -14669   -13197   -11159    -8976 
   -6987    -5343    -3963    -2555    -1078      356     1926     3735 
    5661     7693     9782    11641    12941    13428    12980    11777 
   10224     8810     7993     7985     8691     9988    11736    13544 
   14953    15746    15843    15207    13984    12476    10922     9493 
    8289     7238     6282     5479     4815     4153     3370     2444 
    1354       41    -1440    -2897    -4064    -4673    -4540    -3613 
   -1985       78     2219     4152     5733     6907     7611     7777 
    7446     6764     5903     5088     4536     4291     4321     4614 
    5116     5737     6485     7431     8588     9923    11380    12771 
   13856    14459    14477    13905    12869    11573    10227     9000 
    8064     7646     7843     8545     9504    10376    10828    10708 
   10104     9266     8509     8129     8298     8996    10073    11335 
   12530    13374    13621    13111    11867    10133     8271     6656 
    5487     4672     4014     3377     2627     1588      159    -1647 
   -3720    -5810    -7533    -8513    -8503    -7422    -5393    -2756 
     -12     2361     4105     5103     5328     4982     4380     3828 
    3719     4411     5953     8087    10438    12582    14104    14764 
   14538    13501    11830     9872     8024     6540     5482     4777 
    4288     3854     3279     2419     1246     -180    -1721    -3175 
   -4429    -5545    -6608    -7622    -8625    -9659   -10644   -11475 
  -12069   -12326   -12128   -11367   -10017    -8098    -5617    -2697 
     419     3559     6606     9427    11858    13787    15195    16050 
   16291    15963    15205    14176    12987    11666    10218     8642 
    6983     5347     3854     2581     1568      800      261      -16 
     -63       35      236      494      724      878     1043     1428 
    2147     3136     4263     5387     6353     7071     7557     7861 
    8019     8089     8171     8316     8483     8640     8827     9116 
    9543    10137    10893    11728    12569    13344    13948    14274 
   14272    13902    13167    12179    11076     9958     8910     7970 
    7117     6261     5325     4295     3123     1763      311    -1062 
   -2192    -2947    -3330    -3438    -3357    -3222    -3226    -3423 
   -3716    -3979    -4048    -3811    -3314    -2709    -2185    -1867 
   -1796    -1999    -2465    -3130    -3889    -4618    -5175    -5422 
   -5279    -4773    -4052    -3330    -2833    -2745    -3121    -3825 
   -4633    -5333    -5779    -5971    -6029    -6023    -5931    -5710 
   -5228    -4329    -3017    -1404      403     2309     4255     6249 
    8317    10477    12702    14895    16973    18897    20611    22091 
   23344    24273    24699    24532    23820    22650    21097    19275 
   17324    15353    13427    11554     9734     7970     6237     4619 
    3284     2297     1668     1393     1324     1255     1098      889 
     662      421      153     -197     -675    -1206    -1594    -1605 
   -1121     -209      994     2338     3712     5177     6825     8546 
   10131    11419    12251    12519    12301    11804    11226    10693 
   10238     9809     9351     8866     8465     8278     8328     8564 
    8928     9321     9643     9873     9983     9880     9562     9151 
    8833     8780     9070     9624    10166    10401    10189     9490 
    8398     7199     6181     5520     5325     5647     6376     7186 
    7739     7896     7597     6825     5645     4182     2596     1088 
    -125     -899    -1223    -1193     -963     -724     -680     -972 
   -1599    -2430    -3254    -3896    -4241    -4190    -3730    -2978 
   -2093    -1227     -500        6      317      527      754     1140 
