Origin Time       2025/01/13 21:19:00
Lat.              31.8
Long.             131.6
Depth. (km)       30
Mag.              6.9
Station Code      KMM002
Station Lat.      33.0189
Station Long.     130.6846
Station Height(m) 33
Record Time       2025/01/13 21:20:00
Sampling Freq(Hz) 100Hz
Duration Time(s)  123
Dir.              U-D
Scale Factor      7845(gal)/8223790
Max. Acc. (gal)   4.333
Last Correction   2025/01/13 21:20:00
Memo.             
[...]
   -7319    -7319    -7322    -7321    -7318    -7318    -7323    -7326 
   -7321    -7315    -7317    -7318    -7321    -7321    -7319    -7322 
   -7323    -7318    -7312    -7314    -7319    -7321    -7321    -7323 
   -7325    -7322    -7322    -7322    -7321    -7318    -7317    -7318 
   -7321    -7322    -7323    -7321    -7319    -7319    -7317    -7317 
   -7318    -7317    -7319    -7321    -7318    -7318    -7321    -7323 
   -7321    -7319    -7322    -7322    -7319    -7319    -7322    -7322 
   -7322    -7322    -7322    -7321    -7321    -7319    -7317    -7315 
   -7322    -7323    -7321    -7322    -7323    -7319    -7318    -7319 
   -7319    -7321    -7319    -7315    -7318    -7325    -7325    -7322 
   -7322    -7319    -7315    -7318    -7319    -7318    -7319    -7321 
   -7321    -7322    -7325    -7323    -7318    -7315    -7315    -7318 
   -7321    -7322    -7319    -7319    -7322    -7322    -7322    -7322 
   -7319    -7317    -7317    -7318    -7321    -7321    -7318    -7319 
   -7321    -7321    -7322    -7321    -7318    -7319    -7318    -7318 
   -7318    -7321    -7321    -7318    -7318    -7318    -7317    -7317 
   -7319    -7321    -7321    -7321    -7322    -7322    -7319    -7317 
   -7321    -7323    -7322    -7323    -7323    -7322    -7321    -7317 
   -7314    -7317    -7319    -7323    -7325    -7322    -7319    -7318 
   -7321    -7322    -7317    -7317    -7319    -7322    -7325    -7322 
   -7315    -7317    -7321    -7321    -7318    -7319    -7322    -7321 
   -7318    -7318    -7318    -7319    -7319    -7318    -7319    -7319 
   -7317    -7315    -7315    -7318    -7322    -7323    -7318    -7317 
   -7318    -7319    -7319    -7317    -7315    -7318    -7317    -7317 
   -7319    -7317    -7308    -7308    -7312    -7312    -7312    -7311 
   -7308    -7312    -7315    -7310    -7310    -7312    -7312    -7314 
   -7317    -7314    -7312    -7315    -7315    -7312    -7307    -7307 
   -7306    -7300    -7300    -7302    -7300    -7300    -7299    -7298 
   -7298    -7299    -7299    -7304    -7312    -7317    -7321    -7323 
   -7326    -7325    -7319    -7318    -7321    -7317    -7310    -7304 
   -7298    -7288    -7284    -7283    -7285    -7295    -7302    -7310 
   -7323    -7341    -7353    -7362    -7375    -7385    -7388    -7388 
   -7384    -7371    -7350    -7327    -7306    -7292    -7287    -7287 
   -7287    -7280    -7269    -7260    -7260    -7268    -7284    -7304 
   -7322    -7327    -7321    -7303    -7290    -7292    -7308    -7337 
   -7373    -7402    -7416    -7422    -7419    -7422    -7438    -7449 
   -7446    -7429    -7388    -7327    -7261    -7204    -7165    -7155 
   -7164    -7182    -7206    -7227    -7237    -7241    -7256    -7287 
   -7339    -7403    -7447    -7458    -7426    -7352    -7273    -7231 
   -7234    -7275    -7333    -7376    -7379    -7335    -7272    -7219 
   -7192    -7191    -7202    -7211    -7217    -7204    -7167    -7125 
   -7096    -7086    -7106    -7167    -7261    -7371    -7465    -7523 
   -7553    -7568    -7581    -7604    -7634    -7654    -7653    -7623 
   -7569    -7501    -7423    -7335    -7240    -7142    -7051    -6987 
   -6968    -6999    -7059    -7122    -7177    -7225    -7269    -7321 
   -7391    -7472    -7528    -7533    -7514    -7520    -7570    -7654 
   -7758    -7859    -7925    -7936    -7878    -7747    -7547    -7321 
   -7136    -7057    -7101    -7221    -7338    -7387    -7360    -7306 
   -7298    -7385    -7553    -7731    -7859    -7919    -7908    -7823 
   -7672    -7492    -7358    -7358    -7527    -7820    -8118    -8275 
   -8195    -7896    -7480    -7090    -6833    -6744    -6772    -6837 
   -6880    -6889    -6894    -6934    -7009    -7087    -7138    -7136 
   -7067    -6948    -6832    -6790    -6864    -7034    -7223    -7361 
   -7404    -7333    -7140    -6855    -6552    -6312    -6196    -6242 
   -6442    -6751    -7087    -7337    -7418    -7344    -7223    -7173 
   -7246    -7427    -7647    -7815    -7850    -7728    -7508    -7308 
   -7237    -7303    -7431    -7533    -7560    -7511    -7398    -7240 
   -7078    -6968    -6945    -6975    -6991    -6971    -6930    -6889 
   -6871    -6910    -7048    -7304    -7609    -7831    -7893    -7847 
   -7793    -7781    -7808    -7875    -7975    -8075    -8129    -8105 
   -8028    -7954    -7881    -7763    -7588    -7385    -7207    -7061 
   -6912    -6732    -6559    -6451    -6434    -6511    -6679    -6933 
   -7238    -7512    -7682    -7735    -7719    -7709    -7743    -7805 
   -7865    -7866    -7755    -7515    -7226    -7037    -7041    -7199 
   -7383    -7449    -7333    -7053    -6685    -6359    -6214    -6288 
   -6470    -6581    -6543    -6431    -6361    -6389    -6521    -6772 
   -7137    -7501    -7685    -7611    -7349    -7033    -6781    -6670 
   -6783    -7177    -7769    -8330    -8654    -8694    -8537    -8287 
   -8006    -7736    -7533    -7443    -7456    -7499    -7531    -7558 
   -7574    -7539    -7431    -7317    -7319    -7518    -7817    -8001 
   -7904    -7549    -7102    -6775    -6725    -6979    -7388    -7678 
   -7593    -7059    -6226    -5401    -4891    -4807    -5086    -5603 
   -6205    -6721    -7051    -7206    -7277    -7377    -7566    -7866 
   -8237    -8568    -8734    -8700    -8549    -8397    -8283    -8185 
   -8082    -7962    -7798    -7588    -7366    -7157    -6956    -6748 
   -6544    -6412    -6434    -6658    -7059    -7518    -7881    -8056 
   -8073    -8014    -7948    -7951    -8117    -8468    -8885    -9175 
   -9235    -9119    -8946    -8792    -8685    -8662    -8702    -8644 
   -8293    -7636    -6867    -6230    -5904    -5950    -6262    -6592 
   -6712    -6542    -6170    -5791    -5591    -5659    -5919    -6191 
   -6323    -6319    -6296    -6342    -6450    -6590    -6760    -6939 
   -7082    -7167    -7248    -7420    -7690    -7971    -8208    -8398 
   -8513    -8536    -8552    -8679    -8904    -9090    -9116    -8934 
   -8576    -8166    -7861    -7777    -7904    -8047    -7912    -7341 
   -6447    -5567    -5071    -5151    -5692    -6376    -6866    -6966 
   -6714    -6339    -6112    -6192    -6528    -6929    -7223    -7358 
   -7399    -7388    -7321    -7280    -7400    -7690    -8021    -8275 
   -8421    -8463    -8413    -8302    -8154    -7967    -7781    -7651 
   -7603    -7634    -7716    -7803    -7815    -7646    -7240    -6710 
   -6285    -6137    -6309    -6713    -7152    -7393    -7287    -6893 
   -6500    -6438    -6774    -7242    -7518    -7479    -7218    -6916 
   -6735    -6794    -7102    -7493    -7740    -7739    -7566    -7372 
   -7245    -7203    -7248    -7418    -7767    -8266    -8735    -8959 
   -8861    -8575    -8274    -7993    -7685    -7318    -6903    -6485 
   -6156    -6033    -6150    -6404    -6593    -6556    -6316    -6057 
   -5940    -6000    -6161    -6323    -6507    -6844    -7389    -7985 
   -8399    -8548    -8527    -8467    -8392    -8289    -8189    -8131 
   -8077    -7947    -7736    -7547    -7446    -7344    -7134    -6867 
   -6679    -6624    -6624    -6563    -6394    -6146    -5844    -5518 
   -5244    -5097    -5108    -5254    -5489    -5822    -6273    -6775 
   -7209    -7518    -7700    -7763    -7758    -7771    -7811    -7770 
   -7568    -7264    -7005    -6939    -7123    -7445    -7696    -7749 
   -7584    -7285    -7036    -7026    -7308    -7766    -8199    -8448 
   -8459    -8303    -8094    -7932    -7879    -7919    -7965    -7938 
   -7817    -7669    -7580    -7564    -7570    -7581    -7624    -7684 
   -7672    -7545    -7377    -7285    -7333    -7497    -7707    -7902 
   -8052    -8109    -8009    -7731    -7352    -7034    -6901    -6930 
   -7052    -7277    -7642    -8071    -8413    -8571    -8538    -8316 
   -7888    -7335    -6828    -6496    -6353    -6350    -6432    -6546 
   -6637    -6691    -6768    -6963    -7261    -7492    -7542    -7481 
   -7406    -7322    -7230    -7225    -7406    -7717    -7960    -7979 
   -7813    -7605    -7419    -7256    -7145    -7113    -7134    -7145 
   -7065    -6845    -6550    -6334    -6299    -6423    -6624    -6870 
   -7164    -7446    -7589    -7570    -7524    -7585    -7753    -7943 
   -8097    -8206    -8270    -8226    -8021    -7751    -7597    -7592 
   -7608    -7558    -7454    -7306    -7061    -6706    -6303    -5918 
   -5605    -5454    -5572    -5953    -6442    -6852    -7075    -7107 
   -7005    -6855    -6798    -6967    -7338    -7689    -7807    -7688 
   -7506    -7431    -7574    -7966    -8509    -8989    -9200    -9034 
   -8527    -7871    -7330    -7091    -7161    -7418    -7732    -8017 
   -8195    -8208    -8087    -7974    -7989    -8078    -8087    -7947 
   -7703    -7395    -7014    -6601    -6254    -6031    -5883    -5706 
   -5483    -5355    -5475    -5869    -6454    -7129    -7792    -8329 
   -8633    -8652    -8425    -8050    -7587    -7060    -6559    -6264 
   -6367    -6918    -7758    -8614    -9211    -9333    -8919    -8095 
   -7130    -6358    -6025    -6134    -6505    -6945    -7318    -7495 
   -7381    -7018    -6582    -6277    -6207    -6343    -6581    -6805 
   -6921    -6885    -6747    -6669    -6775    -7018    -7242    -7360 
   -7368    -7288    -7184    -7145    -7241    -7497    -7881    -8279 
   -8554    -8599    -8365    -7915    -7400    -6998    -6859    -7065 
   -7541    -8052    -8380    -8473    -8405    -8233    -7987    -7726 
   -7538    -7495    -7582    -7704    -7785    -7813    -7784    -7668 
   -7492    -7383    -7420    -7528    -7550    -7389    -7096    -6820 
   -6686    -6705    -6812    -6939    -7042    -7106    -7099    -7021 
   -6947    -6951    -7010    -7053    -7071    -7098    -7128    -7072 
   -6889    -6659    -6525    -6556    -6698    -6851    -6939    -6906 
   -6741    -6535    -6439    -6544    -6793    -7029    -7133    -7083 
   -6943    -6817    -6810    -6979    -7321    -7793    -8317    -8750 
   -8907    -8703    -8280    -7911    -7773    -7836    -7960    -8051 
   -8071    -8013    -7943    -7928    -7932    -7836    -7591    -7287 
   -7051    -6943    -6979    -7105    -7172    -7078    -6878    -6729 
   -6747    -6930    -7169    -7302    -7206    -6853    -6343    -5913 
   -5822    -6189    -6945    -7882    -8714    -9167    -9085    -8511 
   -7673    -6880    -6403    -6380    -6813    -7512    -8172    -8532 
   -8505    -8183    -7762    -7404    -7184    -7072    -6930    -6616 
   -6161    -5759    -5562    -5593    -5783    -6049    -6297    -6411 
   -6327    -6134    -6042    -6220    -6636    -7119    -7569    -7965 
   -8229    -8237    -7973    -7597    -7333    -7290    -7446    -7695 
   -7879    -7927    -7824    -7515    -6978    -6382    -5996    -5999 
   -6427    -7199    -8154    -9061    -9656    -9755    -9401    -8847 
   -8357    -8056    -7971    -8112    -8437    -8796    -8958    -8760 
   -8225    -7534    -6866    -6377    -6201    -6335    -6585    -6733 
   -6732    -6701    -6783    -7069    -7538    -8036    -8357    -8394 
   -8226    -8063    -8081    -8325    -8716    -9113    -9408    -9518 
   -9354    -8850    -8051    -7140    -6380    -5954    -5886    -6037 
   -6187    -6164    -5910    -5514    -5181    -5100    -5313    -5680 
   -6016    -6269    -6494    -6673    -6678    -6465    -6161    -5965 
   -6015    -6326    -6787    -7237    -7534    -7604    -7442    -7107 
   -6754    -6579    -6635    -6836    -7121    -7469    -7827    -8079 
   -8127    -7996    -7811    -7643    -7489    -7318    -7110    -6890 
   -6716    -6704    -6937    -7329    -7636    -7681    -7456    -7067 
   -6666    -6434    -6527    -6953    -7537    -8059    -8382    -8444 
   -8240    -7832    -7365    -7037    -7013    -7338    -7925    -8590 
   -9099    -9251    -9008    -8484    -7863    -7329    -7014    -6972 
   -7168    -7465    -7701    -7785    -7727    -7603    -7495    -7438 
   -7450    -7508    -7508    -7345    -7009    -6569    -6173    -6029 
   -6243    -6735    -7273    -7659    -7830    -7809    -7665    -7534 
   -7555    -7755    -8020    -8137    -7969    -7582    -7141    -6735 
   -6444    -6396    -6640    -7025    -7304    -7341    -7186    -6979 
   -6848    -6855    -6988    -7183    -7365    -7506    -7604    -7639 
   -7577    -7465    -7379    -7291    -7117    -6895    -6785    -6859 
   -7056    -7311    -7636    -7981    -8164    -8044    -7692    -7304 
   -7020    -6845    -6786    -6926    -7285    -7727    -8085    -8263 
   -8209    -7916    -7491    -7142    -7037    -7175    -7423    -7669 
   -7865    -7985    -7978    -7797    -7456    -7024    -6586    -6230 
   -6062    -6170    -6555    -7140    -7815    -8461    -8934    -9104 
   -8980    -8691    -8353    -8008    -7680    -7429    -7260    -7099 
   -6953    -6917    -7015    -7163    -7311    -7499    -7746    -7981 
   -8128    -8182    -8172    -8095    -7954    -7819    -7805    -7975 
   -8291    -8641    -8910    -8972    -8691    -8019    -7056    -6019 
   -5170    -4706    -4666    -4885    -5076    -5077    -4936    -4760 
   -4629    -4638    -4904    -5439    -6061    -6565    -6898    -7069 
   -7051    -6918    -6901    -7219    -7940    -8938    -9921   -10571 
  -10665   -10118    -9003    -7568    -6169    -5136    -4666    -4718 
   -5012    -5205    -5115    -4796    -4490    -4446    -4769    -5395 
   -6180    -6901    -7377    -7666    -8054    -8781    -9814   -10868 
  -11630   -11861   -11450   -10459    -9155    -7958    -7276    -7294 
   -7831    -8432    -8675    -8415    -7759    -6875    -5940    -5173 
   -4793    -4880    -5331    -5996    -6747    -7376    -7655    -7527 
   -7109    -6586    -6195    -6097    -6241    -6435    -6555    -6574 
   -6513    -6444    -6475    -6712    -7207    -7908    -8607    -9004 
   -8883    -8301    -7561    -7034    -7025    -7630    -8649    -9701 
  -10396   -10488    -9977    -9132    -8359    -7940    -7888    -8032 
   -8145    -8044    -7659    -7044    -6365    -5822    -5464    -5163 
   -4807    -4446    -4212    -4174    -4338    -4665    -5017    -5263 
   -5436    -5676    -6043    -6492    -6995    -7514    -7892    -7986 
   -7866    -7716    -7631    -7636    -7796    -8121    -8537    -8946 
   -9286    -9506    -9509    -9212    -8625    -7820    -6917    -6114 
   -5606    -5502    -5802    -6404    -7086    -7580    -7724    -7534 
   -7153    -6782    -6637    -6894    -7518    -8275    -8911    -9239 
   -9240    -9072    -8905    -8807    -8718    -8496    -8033    -7377 
   -6694    -6169    -5957    -6168    -6783    -7632    -8425    -8847 
   -8708    -8102    -7379    -6901    -6826    -7103    -7554    -7974 
   -8221    -8293    -8256    -8189    -8208    -8347    -8444    -8309 
   -7920    -7395    -6855    -6330    -5823    -5499    -5576    -6004 
   -6467    -6693    -6613    -6328    -6000    -5773    -5764    -6035 
   -6516    -7021    -7400    -7630    -7709    -7599    -7348    -7159 
   -7237    -7615    -8152    -8665    -8996    -9015    -8694    -8172 
   -7695    -7418    -7362    -7481    -7681    -7874    -7981    -7909 
   -7600    -7117    -6687    -6582    -6903    -7543    -8272    -8839 
   -9099    -9028    -8660    -8081    -7514    -7253    -7422    -7857 
   -8266    -8448    -8290    -7762    -7040    -6440    -6191    -6327 
   -6725    -7156    -7380    -7296    -6939    -6432    -6004    -5857 
   -5964    -6162    -6340    -6446    -6471    -6492    -6635    -6997 
   -7543    -8129    -8607    -8864    -8834    -8499    -7929    -7323 
   -6893    -6709    -6741    -6922    -7159    -7341    -7400    -7333 
   -7133    -6751    -6257    -5908    -5946    -6335    -6836    -7230 
   -7431    -7468    -7437    -7510    -7881    -8525    -9089    -9205 
   -8814    -8104    -7314    -6643    -6245    -6201    -6458    -6808 
   -7049    -7118    -7064    -6932    -6717    -6424    -6139    -5962 
   -5942    -6068    -6272    -6492    -6751    -7111    -7566    -8009 
   -8328    -8468    -8463    -8401    -8347    -8306    -8217    -8010 
   -7695    -7327    -6959    -6639    -6380    -6177    -6054    -6003 
   -5992    -6076    -6367    -6847    -7275    -7361    -7024    -6412 
   -5767    -5370    -5506    -6214    -7214    -8124    -8634    -8630 
   -8263    -7850    -7676    -7897    -8498    -9244    -9819   -10056 
   -9963    -9607    -9127    -8726    -8514    -8409    -8256    -8005 
   -7699    -7356    -6953    -6573    -6421    -6601    -7005    -7464 
   -7819    -7940    -7796    -7435    -6957    -6480    -6164    -6223 
   -6751    -7557    -8239    -8422    -8017    -7195    -6218    -5363 
   -4904    -4978    -5460    -6080    -6655    -7136    -7493    -7685 
   -7734    -7707    -7670    -7661    -7609    -7352    -6855    -6332 
   -6088    -6345    -7133    -8263    -9369   -10060   -10106    -9556 
   -8685    -7847    -7269    -6979    -6918    -6991    -7049    -7002 
   -6851    -6617    -6361    -6226    -6309    -6585    -6951    -7315 
   -7649    -7974    -8256    -8397    -8386    -8357    -8384    -8320 
   -7942    -7269    -6589    -6184    -6120    -6269    -6465    -6600 
   -6604    -6415    -6068    -5759    -5657    -5711    -5778    -5849 
   -6065    -6539    -7233    -7950    -8434    -8502    -8116    -7439 
   -6799    -6519    -6731    -7333    -8025    -8456    -8452    -8106 
   -7666    -7349    -7225    -7245    -7365    -7549    -7693    -7670 
   -7461    -7184    -7001    -7021    -7250    -7543    -7665    -7461 
   -6960    -6367    -6007    -6131    -6716    -7501    -8158    -8453 
   -8394    -8139    -7878    -7776    -7890    -8189    -8577    -8914 
   -9082    -9100    -9030    -8907    -8780    -8702    -8654    -8568 
   -8383    -8079    -7685    -7298    -7068    -7102    -7331    -7564 
   -7666    -7642    -7503    -7172    -6629    -6031    -5584    -5374 
   -5435    -5836    -6579    -7469    -8171    -8405    -8089    -7403 
   -6716    -6384    -6619    -7396    -8409    -9173    -9348    -8950 
   -8228    -7456    -6867    -6604    -6681    -7026    -7481    -7804 
   -7820    -7481    -6826    -6022    -5310    -4903    -4914    -5300 
   -5841    -6286    -6529    -6586    -6507    -6359    -6239    -6218 
   -6322    -6502    -6681    -6831    -6980    -7196    -7557    -8079 
   -8714    -9298    -9629    -9602    -9197    -8465    -7619    -6940 
   -6596    -6620    -6959    -7485    -8001    -8301    -8235    -7781 
   -7076    -6377    -5945    -5930    -6274    -6714    -6959    -6903 
   -6664    -6458    -6439    -6642    -7049    -7591    -8112    -8479 
   -8640    -8572    -8286    -7866    -7449    -7169    -7072    -7091 
   -7136    -7153    -7126    -7087    -7068    -7057    -7028    -6979 
   -6964    -7030    -7186    -7415    -7672    -7885    -8024    -8070 
   -8020    -7924    -7786    -7488    -6953    -6326    -5860    -5703 
   -5845    -6185    -6563    -6809    -6828    -6643    -6335    -6023 
   -5872    -6023    -6473    -7064    -7593    -7929    -8070    -8071 
   -8009    -8009    -8152    -8351    -8434    -8355    -8212    -8148 
   -8280    -8630    -9043    -9300    -9335    -9244    -9140    -9055 
   -8984    -8919    -8815    -8611    -8306    -7960    -7658    -7508 
   -7573    -7789    -8035    -8214    -8278    -8202    -7998    -7713 
