Origin Time       2025/01/13 21:19:00
Lat.              31.8
Long.             131.6
Depth. (km)       30
Mag.              6.9
Station Code      KMM004
Station Lat.      32.9318
Station Long.     131.1203
Station Height(m) 554
Record Time       2025/01/13 21:19:55
Sampling Freq(Hz) 100Hz
Duration Time(s)  150
Dir.              N-S
Scale Factor      7845(gal)/8223790
Max. Acc. (gal)   15.303
Last Correction   2025/01/13 21:19:54
Memo.             
[...]
   -3311    -3195    -3206    -3215    -3231    -3360    -3549    -3739 
   -3858    -3715    -3240    -2600    -2093    -1968    -2261    -2853 
   -3546    -4037    -4029    -3487    -2710    -2066    -1734    -1688 
   -1844    -2134    -2452    -2740    -3049    -3352    -3460    -3281 
   -3001    -2986    -3379    -3985    -4569    -4927    -4934    -4723 
   -4550    -4530    -4680    -4950    -5109    -4936    -4522    -4062 
   -3638    -3308    -3045    -2682    -2141    -1579    -1170     -961 
    -986    -1175    -1372    -1594    -1890    -2184    -2411    -2492 
   -2407    -2209    -1895    -1497    -1189    -1097    -1125    -1026 
    -688     -217      241      533      548      346       68     -170 
    -353     -631    -1182    -2000    -2917    -3709    -4160    -4267 
   -4205    -3982    -3535    -3046    -2897    -3223    -3685    -3924 
   -3883    -3578    -3079    -2498    -1904    -1485    -1398    -1425 
   -1359    -1348    -1462    -1568    -1729    -2114    -2675    -3172 
   -3466    -3680    -3925    -4152    -4371    -4629    -4914    -5240 
   -5580    -5871    -6056    -6006    -5559    -4671    -3523    -2489 
   -1911    -1830    -1900    -1804    -1605    -1436    -1266    -1108 
   -1004     -920     -897     -965     -953     -785     -684     -729 
    -670     -413     -162      -47     -145     -611    -1445    -2388 
   -3092    -3365    -3395    -3512    -3732    -3923    -4041    -3989 
   -3723    -3500    -3518    -3635    -3770    -3955    -4006    -3854 
   -3647    -3437    -3272    -3173    -2949    -2494    -1979    -1588 
   -1374    -1279    -1166    -1050    -1204    -1656    -2138    -2602 
   -3172    -3820    -4402    -4943    -5547    -6022    -6110    -5867 
   -5509    -5263    -5273    -5431    -5552    -5553    -5356    -4881 
   -4131    -3333    -2926    -3065    -3406    -3559    -3414    -3015 
   -2497    -2122    -2133    -2550    -3207    -3820    -4074    -3932 
   -3647    -3434    -3437    -3616    -3642    -3306    -2818    -2509 
   -2430    -2377    -2128    -1676    -1316    -1343    -1898    -2949 
   -4067    -4687    -4781    -4789    -4869    -4702    -4077    -3233 
   -2467    -1904    -1568    -1344    -1105     -872     -696     -654 
    -851    -1339    -2097    -2867    -3233    -3075    -2563    -1888 
   -1328    -1194    -1522    -2093    -2722    -3300    -3707    -3936 
   -4174    -4491    -4760    -4934    -5022    -4907    -4595    -4320 
   -4232    -4217    -4010    -3512    -2868    -2227    -1750    -1548 
   -1470    -1440    -1653    -2153    -2689    -3005    -3009    -2768 
   -2419    -2133    -2099    -2396    -2798    -2922    -2651    -2110 
   -1584    -1487    -1993    -2901    -3904    -4796    -5416    -5576 
   -5220    -4500    -3692    -3028    -2570    -2231    -1771     -927 
     176     1193     1961     2457     2667     2554     2060     1212 
     229     -630    -1405    -2227    -2974    -3472    -3612    -3334 
   -2720    -1989    -1394    -1027     -773     -595     -558     -724 
   -1104    -1540    -1858    -2084    -2312    -2651    -3217    -3986 
   -4739    -5171    -5086    -4503    -3686    -3069    -2902    -3021 
   -3150    -3262    -3391    -3326    -2824    -1998    -1197     -665 
    -599    -1062    -1721    -2147    -2228    -2100    -2034    -2262 
   -2740    -3310    -3958    -4742    -5632    -6481    -7033    -7183 
   -7149    -7096    -6891    -6448    -5869    -5204    -4484    -3778 
   -3069    -2428    -2126    -2313    -2810    -3311    -3655    -3842 
   -3927    -3963    -3981    -4004    -4186    -4608    -4955    -4939 
   -4687    -4334    -3904    -3514    -3198    -2855    -2542    -2447 
   -2582    -2774    -2830    -2641    -2369    -2317    -2488    -2729 
   -2990    -3034    -2679    -2133    -1609    -1100     -611     -298 
    -298     -603    -1086    -1587    -2089    -2639    -3122    -3480 
   -3846    -4260    -4617    -4818    -4822    -4631    -4263    -3792 
   -3393    -3244    -3407    -3761    -4067    -4311    -4568    -4706 
   -4783    -5063    -5436    -5559    -5312    -4696    -3761    -2677 
   -1733    -1206    -1148    -1410    -1822    -2281    -2736    -3133 
   -3404    -3535    -3519    -3315    -2953    -2604    -2467    -2532 
   -2524    -2227    -1710    -1135     -643     -441     -521     -557 
    -452     -422     -481     -413     -148       35     -149     -506 
    -711     -819     -911     -935     -927     -980    -1094    -1220 
   -1310    -1343    -1255    -1062     -990    -1181    -1499    -1784 
   -1944    -1903    -1723    -1575    -1536    -1698    -2201    -2771 
   -2978    -2816    -2382    -1806    -1387    -1248    -1409    -1879 
   -2462    -3026    -3604    -4178    -4684    -5053    -5282    -5420 
   -5358    -4965    -4260    -3330    -2290    -1318     -629     -284 
     -64      144      225      117     -226     -831    -1439    -1756 
   -1694    -1275     -773     -494     -436     -541     -792    -1102 
   -1435    -1742    -1957    -2114    -2354    -2816    -3426    -3950 
   -4326    -4611    -4687    -4356    -3631    -2759    -1984    -1517 
   -1464    -1620    -1815    -2008    -1962    -1696    -1618    -1921 
   -2501    -3119    -3565    -3865    -4120    -4387    -4801    -5414 
   -6083    -6606    -6885    -6982    -6912    -6643    -6412    -6428 
   -6586    -6778    -6948    -7034    -7006    -6829    -6574    -6332 
   -6046    -5660    -5152    -4523    -3867    -3325    -3129    -3442 
   -4045    -4585    -4903    -5034    -5158    -5391    -5634    -5778 
   -5807    -5675    -5373    -5071    -4958    -5104    -5444    -5883 
   -6430    -7048    -7522    -7692    -7649    -7535    -7372    -7128 
   -6732    -6145    -5377    -4398    -3346    -2540    -2008    -1628 
   -1459    -1564    -1980    -2662    -3334    -3777    -3971    -3921 
   -3692    -3406    -3024    -2397    -1493     -386      819     1973 
    2862     3314     3456     3581     3774     3916     3947     3928 
    3923     3886     3655     3091     2308     1675     1401     1321 
    1188      900      499      152      -45     -174     -190       41 
     406      629      643      608      602      492      130     -454 
   -1104    -1656    -2119    -2594    -3013    -3246    -3366    -3412 
   -3214    -2848    -2612    -2470    -2251    -1952    -1552    -1074 
    -637     -222      248      649      687      271     -338     -865 
   -1185    -1239    -1161    -1215    -1490    -1850    -2118    -2251 
   -2270    -2160    -2029    -1996    -1996    -1993    -2015    -2081 
   -2250    -2457    -2548    -2543    -2573    -2698    -2953    -3376 
   -3824    -4099    -4151    -3937    -3465    -2909    -2392    -1858 
   -1306     -866     -588     -346      -72      145      221       90 
    -253     -743    -1323    -1973    -2712    -3519    -4297    -5004 
   -5640    -6134    -6451    -6615    -6637    -6643    -6710    -6801 
   -6886    -6825    -6544    -6291    -6230    -6323    -6574    -7013 
   -7677    -8538    -9425   -10219   -10908   -11365   -11438   -11198 
  -10864   -10670   -10658   -10582   -10320   -10018    -9784    -9609 
   -9495    -9491    -9626    -9850   -10107   -10361   -10532   -10655 
  -10831   -10990   -11101   -11241   -11337   -11217   -10736    -9867 
   -8783    -7681    -6667    -5756    -4878    -4021    -3196    -2420 
   -1838    -1462    -1120     -895     -909     -982     -959     -932 
    -965    -1057    -1202    -1271    -1200    -1040     -742     -311 
      82      434      888     1399     1896     2519     3318     4214 
    5173     6052     6735     7387     8000     8198     7940     7549 
    7119     6717     6550     6648     6831     6862     6570     6011 
    5416     4927     4592     4475     4548     4688     4793     4872 
    5043     5358     5826     6509     7335     8093     8607     8725 
    8341     7488     6234     4654     2879      985     -999    -2922 
   -4648    -6211    -7622    -8829    -9836   -10654   -11338   -12021 
  -12690   -13159   -13362   -13373   -13255   -13020   -12638   -12150 
  -11601   -10894   -10087    -9274    -8402    -7711    -7488    -7638 
   -8133    -9042   -10224   -11523   -12703   -13435   -13728   -13761 
  -13482   -12920   -12256   -11605   -11009   -10358    -9517    -8484 
   -7260    -5867    -4374    -2781    -1209      101     1062     1629 
    1826     1906     1914     1576      834     -176    -1371    -2620 
   -3726    -4504    -4868    -4884    -4672    -4225    -3416    -2285 
   -1062      190     1524     2710     3419     3591     3254     2517 
    1779     1341     1210     1417     1856     2261     2551     2759 
    2880     2920     2817     2516     2133     1769     1354      892 
     631      708     1024     1482     1966     2400     2822     3184 
    3361     3379     3322     3150     2809     2465     2393     2597 
    2805     2867     2848     2787     2675     2592     2646     2828 
    2999     3036     2986     2934     2747     2339     1894     1422 
     707     -299    -1417    -2435    -3184    -3613    -3821    -3975 
   -4225    -4695    -5404    -6145    -6713    -7150    -7504    -7645 
   -7530    -7283    -7042    -6932    -6943    -6974    -7079    -7358 
   -7807    -8432    -9232   -10183   -11281   -12382   -13266   -13903 
  -14257   -14257   -13999   -13660   -13468   -13711   -14446   -15414 
  -16272   -16632   -16217   -15140   -13714   -12132   -10413    -8502 
   -6442    -4356    -2342     -615      567     1213     1398     1151 
     683      176     -345     -824    -1227    -1624    -2118    -2779 
   -3634    -4746    -6119    -7562    -8908   -10066   -10874   -11210 
  -11110   -10694   -10053    -9234    -8356    -7624    -7048    -6423 
   -5701    -4961    -4213    -3446    -2533    -1358       14     1528 
    3087     4509     5706     6621     7219     7570     7794     8043 
    8324     8449     8375     8159     7746     7194     6586     5840 
    4966     4072     3153     2164     1174      415      130      384 
    1061     1952     2820     3468     3858     4047     4068     4077 
    4380     5049     5773     6246     6403     6276     5898     5410 
    5039     4882     4850     4857     4823     4519     3832     2872 
    1718      494     -565    -1364    -1999    -2585    -3230    -3955 
   -4557    -4882    -5013    -5100    -5219    -5302    -5250    -4990 
   -4477    -3769    -3049    -2567    -2467    -2647    -2817    -2839 
   -2864    -2916    -2949    -3241    -4010    -5223    -6725    -8189 
   -9396   -10351   -11014   -11368   -11507   -11500   -11399   -11276 
  -11182   -11160   -11210   -11179   -10901   -10269    -9221    -7815 
   -6208    -4715    -3715    -3343    -3558    -4317    -5462    -6782 
   -8203    -9666   -11060   -12291   -13224   -13695   -13711   -13335 
  -12487   -11335   -10242    -9169    -7896    -6412    -4801    -3271 
   -2092    -1314     -961    -1148    -1737    -2508    -3443    -4507 
   -5624    -6701    -7634    -8406    -8932    -9081    -8823    -8190 
   -7335    -6374    -5252    -4043    -2894    -1706     -351     1028 
    2326     3667     5101     6480     7611     8330     8505     8071 
    7060     5584     3862     2204      850     -143     -801    -1167 
   -1332    -1345    -1248    -1154    -1136    -1215    -1344    -1370 
   -1202     -904     -541     -117      334      780     1190     1391 
    1121      206    -1304    -3056    -4799    -6497    -7993    -9132 
   -9882   -10165   -10054    -9737    -9240    -8554    -7742    -6867 
   -5976    -5005    -3974    -3083    -2380    -1898    -1756    -1775 
   -1694    -1489    -1159     -832     -773     -857     -839     -797 
    -731     -484      -94      268      449      400      263      139 
       6      -28       39       78      145      220      184      159 
     176      202      378      585      538      218     -344    -1156 
   -2192    -3442    -4718    -5796    -6781    -7789    -8712    -9417 
   -9840   -10017    -9983    -9668    -9117    -8433    -7528    -6376 
   -5080    -3765    -2633    -1809    -1232     -819     -541     -429 
    -484     -668     -973    -1374    -1759    -2052    -2246    -2308 
   -2250    -2174    -2089    -1910    -1632    -1255     -708       31 
     915     1837     2627     3229     3753     4193     4338     4102 
    3599     2848     1784      495     -812    -2060    -3285    -4502 
   -5702    -6879    -8027    -9173   -10234   -11022   -11441   -11515 
  -11315   -10852   -10108    -9162    -8095    -6988    -5938    -4957 
   -3994    -3076    -2200    -1316     -450      383     1189     1834 
    2270     2629     2947     3136     3190     3123     2808     2173 
    1429      792      288      -68     -376     -764    -1142    -1390 
   -1526    -1476    -1204     -865     -589     -378     -226     -112 
     145      715     1471     2173     2739     3100     3198     3098 
    2817     2297     1598      785     -183    -1316    -2539    -3747 
   -4780    -5497    -5886    -6057    -6118    -6095    -6027    -5886 
   -5536    -5076    -4711    -4438    -4326    -4480    -4757    -5090 
   -5502    -5836    -6064    -6323    -6594    -6825    -6995    -7024 
   -6829    -6389    -5755    -5000    -4129    -3095    -1904     -727 
     244      884     1073      788       24    -1197    -2737    -4534 
   -6551    -8642   -10674   -12580   -14354   -15950   -17278   -18280 
  -18851   -18819   -18154   -16935   -15229   -13155   -10833    -8383 
   -5981    -3645    -1370      583     2037     3076     3657     3732 
    3510     3095     2448     1698     1008      449       56     -187 
    -379     -577     -789     -978    -1050     -954     -724     -450 
    -160      222      749     1429     2181     2832     3361     3871 
    4306     4544     4635     4631     4406     3846     2963     1861 
     653     -591    -1791    -2901    -3946    -4901    -5684    -6262 
   -6729    -7157    -7437    -7506    -7368    -6898    -6045    -5026 
   -4145    -3562    -3299    -3244    -3248    -3227    -3119    -2917 
   -2706    -2512    -2277    -1971    -1576    -1017     -306      405 
    1055     1599     1857     1694     1036     -148    -1710    -3460 
   -5339    -7277    -9093   -10608   -11750   -12594   -13294   -14019 
  -14814   -15541   -16059   -16359   -16505   -16652   -16822   -16837 
  -16703   -16553   -16328   -15940   -15423   -14770   -13927   -12868 
  -11542   -10008    -8440    -6870    -5170    -3258    -1179      907 
    2853     4600     6110     7392     8410     9042     9331     9356 
    9063     8584     8120     7641     7173     6844     6698     6770 
    7017     7338     7677     7917     8048     8199     8357     8448 
    8467     8356     8121     7843     7474     6907     6185     5495 
    5008     4708     4495     4402     4375     4163     3701     3060 
    2204     1232      322     -476    -1175    -1888    -2724    -3618 
   -4622    -5825    -7022    -8014    -8746    -9076    -8903    -8305 
   -7392    -6254    -5022    -3865    -2907    -2245    -1983    -2143 
   -2633    -3289    -3973    -4731    -5660    -6689    -7759    -8833 
   -9784   -10552   -11021   -10978   -10474    -9671    -8608    -7453 
   -6323    -5058    -3689    -2501    -1466     -417      637     1648 
    2408     2747     2868     2853     2501     1788      832     -279 
   -1503    -2874    -4352    -5853    -7422    -8974   -10270   -11226 
  -11866   -12251   -12391   -12174   -11574   -10685    -9563    -8349 
   -7231    -6255    -5377    -4592    -3881    -3203    -2508    -1694 
    -753      140      908     1622     2135     2192     1848     1321 
     587     -454    -1665    -2837    -3867    -4729    -5445    -5981 
   -6369    -6725    -6956    -6921    -6669    -6323    -6089    -6145 
   -6470    -7030    -7805    -8613    -9275    -9753    -9976    -9838 
   -9274    -8391    -7456    -6548    -5586    -4596    -3600    -2579 
   -1559     -476      650     1642     2490     3281     3971     4525 
    4963     5279     5368     5078     4492     3878     3194     2228 
    1088      -33    -1112    -2128    -3037    -3817    -4503    -5073 
   -5381    -5377    -5184    -4920    -4708    -4635    -4580    -4438 
   -4314    -4253    -4164    -3960    -3639    -3383    -3381    -3580 
   -3912    -4423    -4963    -5259    -5238    -4955    -4523    -4148 
   -3962    -3946    -4012    -4033    -3902    -3580    -3136    -2644 
   -2134    -1826    -1906    -2232    -2646    -3024    -3211    -3173 
   -2867    -2332    -1822    -1413    -1058     -874     -940    -1220 
   -1633    -2052    -2376    -2540    -2486    -2153    -1514     -649 
     357     1470     2556     3407     3885     3947     3622     3072 
    2524     2135     2000     2069     2184     2269     2340     2447 
    2673     3061     3516     3877     4033     3852     3206     2165 
     922     -378    -1656    -2945    -4299    -5606    -6679    -7447 
   -7927    -8144    -8133    -8002    -7960    -8236    -8892    -9788 
  -10808   -11861   -12675   -13053   -13022   -12573   -11746   -10667 
   -9393    -8009    -6628    -5200    -3628    -1973     -418      846 
    1728     2265     2587     2847     3025     3046     2933     2624 
    2003     1050     -122    -1291    -2344    -3234    -3846    -4160 
   -4302    -4349    -4290    -4106    -3790    -3360    -2872    -2405 
   -2081    -2070    -2481    -3165    -3923    -4706    -5312    -5497 
   -5341    -5069    -4865    -4839    -4931    -5057    -5173    -5119 
   -4784    -4336    -3902    -3414    -2909    -2438    -1933    -1422 
    -970     -568     -247      -55       -1     -112     -434     -869 
   -1221    -1440    -1667    -2089    -2694    -3302    -3821    -4240 
   -4464    -4410    -4171    -3967    -3963    -4189    -4575    -4992 
   -5310    -5414    -5152    -4548    -3829    -3105    -2336    -1502 
    -650       22      346      355       60     -522    -1246    -2025 
   -2790    -3461    -4063    -4602    -5070    -5555    -6056    -6462 
   -6798    -7196    -7699    -8232    -8671    -8881    -8806    -8515 
   -8058    -7342    -6350    -5200    -3967    -2689    -1578     -857 
    -480     -353     -378     -382     -319     -206      -12      202 
     315      311      207       85      157      378      437      240 
    -149     -595     -896    -1011     -953     -625      -62      550 
    1139     1687     2160     2569     2978     3416     3815     4098 
    4193     3986     3528     2963     2268     1475      738      103 
    -388     -714     -920    -1038    -1144    -1301    -1424    -1387 
   -1124     -697     -288      -74     -205     -742    -1607    -2721 
   -4027    -5381    -6679    -7967    -9213   -10351   -11461   -12484 
  -13232   -13738   -14129   -14426   -14581   -14517   -14233   -13803 
  -13315   -12938   -12769   -12673   -12490   -12195   -11789   -11230 
  -10527    -9776    -9081    -8468    -7870    -7230    -6605    -6068 
   -5678    -5466    -5333    -5224    -5233    -5323    -5378    -5344 
   -5115    -4660    -4059    -3352    -2566    -1730     -951     -330 
     249      876     1489     2139     2882     3700     4544     5259 
    5830     6365     6848     7290     7646     7807     7797     7620 
