Origin Time       2025/01/13 21:19:00
Lat.              31.8
Long.             131.6
Depth. (km)       30
Mag.              6.9
Station Code      KMM021
Station Lat.      32.3793
Station Long.     129.9996
Station Height(m) 7
Record Time       2025/01/13 21:20:03
Sampling Freq(Hz) 100Hz
Duration Time(s)  113
Dir.              N-S
Scale Factor      7845(gal)/8223790
Max. Acc. (gal)   3.924
Last Correction   2025/01/13 21:20:03
Memo.             
[...]
    2674     2274     1948     1686     1475     1291     1097      877 
     662      506      437      442      522      692      943     1227 
    1497     1732     1918     2047     2153     2270     2389     2471 
    2516     2528     2520     2508     2504     2521     2550     2560 
    2552     2536     2525     2524     2532     2552     2579     2579 
    2536     2465     2388     2322     2295     2334     2427     2535 
    2627     2675     2668     2625     2575     2544     2540     2562 
    2601     2644     2667     2646     2574     2462     2328     2193 
    2065     1922     1748     1559     1389     1266     1189     1131 
    1080     1050     1061     1140     1301     1507     1745     2027 
    2353     2695     3032     3339     3632     3933     4225     4472 
    4652     4760     4812     4822     4788     4725     4650     4557 
    4436     4288     4114     3906     3678     3433     3149     2820 
    2463     2097     1734     1374     1011      654      340      103 
     -39     -103     -130     -133      -97       -9      128      311 
     545      839     1209     1653     2147     2651     3117     3538 
    3931     4291     4591     4804     4927     4984     4984     4907 
    4743     4502     4194     3838     3477     3160     2902     2705 
    2578     2519     2511     2521     2509     2435     2304     2143 
    1975     1813     1657     1501     1343     1215     1155     1192 
    1328     1545     1804     2072     2319     2535     2729     2913 
    3069     3175     3237     3261     3225     3114     2956     2775 
    2594     2451     2378     2388     2469     2585     2706     2826 
    2928     2990     3011     2988     2901     2744     2536     2297 
    2046     1790     1533     1291     1092      955      874      834 
     831      866      943     1084     1304     1580     1858     2091 
    2281     2454     2608     2722     2794     2833     2862     2883 
    2882     2860     2851     2879     2924     2955     2956     2929 
    2894     2884     2901     2924     2920     2872     2801     2720 
    2627     2546     2532     2590     2690     2816     2971     3163 
    3380     3616     3875     4141     4367     4526     4621     4657 
    4623     4517     4356     4160     3919     3628     3318     3005 
    2670     2305     1937     1587     1263      966      695      440 
     210       17     -151     -313     -483     -677     -862     -967 
    -970     -885     -718     -456     -109      306      777     1278 
    1773     2250     2702     3129     3539     3923     4249     4514 
    4742     4926     5028     5032     4962     4846     4698     4525 
    4330     4113     3879     3628     3330     2992     2668     2390 
    2133     1869     1602     1332     1066      837      666      540 
     438      379      398      502      656      838     1065     1359 
    1715     2095     2457     2785     3075     3341     3603     3869 
    4129     4369     4577     4746     4881     4965     4980     4936 
    4876     4796     4672     4507     4314     4093     3843     3576 
    3314     3060     2781     2455     2110     1772     1451     1155 
     892      642      373      101     -129     -295     -384     -388 
    -301     -125      129      442      784     1129     1463     1777 
    2084     2382     2650     2894     3142     3384     3588     3753 
    3897     4018     4110     4179     4232     4276     4322     4387 
    4464     4522     4556     4556     4511     4401     4210     3946 
    3627     3276     2905     2509     2099     1694     1324     1019 
     777      568      384      243      155      145      240      421 
     656      936     1258     1595     1934     2276     2639     3025 
    3412     3802     4201     4576     4885     5116     5281     5371 
    5377     5317     5215     5076     4874     4603     4272     3888 
    3462     3036     2641     2284     1942     1606     1302     1075 
     934      855      826      838      884      946     1023     1113 
    1200     1285     1406     1584     1796     1983     2116     2214 
    2282     2327     2381     2479     2637     2836     3040     3221 
    3368     3480     3561     3609     3616     3592     3555     3530 
    3534     3566     3609     3654     3708     3763     3790     3765 
    3682     3564     3429     3277     3100     2883     2600     2242 
    1836     1426     1043      693      387      137      -39     -141 
    -186     -186     -156     -108      -40       74      251      484 
     776     1127     1512     1912     2328     2751     3164     3545 
    3855     4075     4209     4288     4357     4423     4477     4527 
    4577     4612     4596     4502     4341     4131     3873     3577 
    3260     2936     2620     2316     2019     1742     1507     1335 
    1223     1170     1181     1237     1309     1390     1497     1647 
    1836     2043     2238     2400     2512     2567     2577     2558 
    2519     2465     2401     2328     2253     2193     2157     2158 
    2218     2330     2467     2605     2739     2879     3030     3176 
    3300     3402     3466     3470     3408     3291     3125     2918 
    2694     2489     2317     2154     1971     1776     1595     1436 
    1291     1155     1027      913      818      730      634      545 
     495      498      538      600      684      803      970     1183 
    1431     1694     1960     2234     2513     2782     3009     3168 
    3267     3325     3356     3383     3418     3438     3442     3431 
    3397     3356     3333     3337     3357     3369     3358     3315 
    3223     3087     2925     2752     2583     2434     2313     2236 
    2218     2255     2340     2458     2589     2717     2836     2941 
    3030     3100     3156     3198     3221     3218     3187     3129 
    3053     2967     2875     2779     2685     2608     2562     2558 
    2590     2655     2747     2844     2920     2965     2995     3029 
    3082     3168     3283     3407     3520     3605     3654     3646 
    3557     3387     3160     2914     2686     2490     2317     2160 
    2010     1842     1640     1412     1194     1012      862      746 
     680      665      680      716      793      939     1162     1445 
    1772     2127     2492     2852     3194     3505     3775     3982 
    4112     4174     4185     4153     4079     3979     3866     3743 
    3616     3484     3348     3225     3107     2974     2814     2623 
    2394     2166     1976     1834     1722     1614     1499     1387 
    1289     1201     1124     1062     1032     1059     1147     1274 
    1413     1557     1698     1823     1949     2073     2173     2246 
    2293     2308     2301     2286     2293     2350     2443     2544 
    2651     2748     2816     2856     2882     2909     2941     2979 
    3017     3032     3002     2925     2814     2682     2542     2407 
    2289     2197     2139     2104     2074     2038     1996     1948 
    1883     1803     1719     1641     1583     1560     1572     1620 
    1717     1879     2101     2374     2693     3052     3430     3801 
    4140     4437     4693     4914     5092     5213     5270     5265 
    5200     5085     4934     4757     4575     4402     4248     4097 
    3919     3682     3376     3007     2601     2187     1791     1432 
    1100      778      456      120     -222     -542     -801     -963 
   -1005     -912     -693     -376        2      410      831     1258 
    1690     2133     2570     2978     3345     3670     3948     4193 
    4413     4611     4784     4919     4990     4986     4903     4742 
    4515     4228     3890     3523     3138     2722     2263     1761 
    1232      710      232     -172     -494     -747     -938    -1057 
   -1098    -1067     -984     -853     -650     -364        2      445 
     942     1466     1996     2528     3065     3596     4101     4557 
    4957     5293     5551     5726     5823     5829     5732     5548 
    5304     5012     4685     4345     4010     3688     3377     3076 
    2774     2458     2122     1782     1471     1210     1008      869 
     781      726      703      723      788      897     1050     1243 
    1464     1692     1904     2089     2241     2359     2455     2519 
    2538     2524     2509     2531     2601     2717     2875     3068 
    3289     3518     3732     3910     4039     4117     4149     4153 
    4163     4195     4234     4263     4268     4244     4180     4082 
    3962     3828     3694     3570     3462     3365     3256     3123 
    2968     2786     2569     2322     2041     1711     1337      950 
     565      195     -147     -442     -669     -818     -891     -876 
    -751     -514     -184      214      653     1089     1501     1892 
    2272     2648     3032     3419     3812     4198     4560     4903 
    5239     5570     5875     6120     6282     6350     6327     6216 
    6004     5683     5273     4806     4314     3821     3334     2845 
    2361     1887     1440     1032      666      342       72     -132 
    -270     -352     -394     -396     -342     -218      -25      220 
     503      815     1144     1476     1796     2093     2365     2619 
    2849     3046     3207     3334     3424     3492     3551     3586 
    3586     3564     3524     3476     3430     3372     3279     3154 
    3001     2817     2625     2442     2284     2170     2111     2092 
    2092     2093     2100     2106     2106     2112     2128     2157 
    2203     2241     2235     2180     2085     1969     1858     1769 
    1710     1686     1714     1796     1921     2066     2211     2347 
    2484     2620     2748     2866     2967     3049     3121     3188 
    3258     3323     3380     3431     3472     3495     3497     3468 
    3414     3356     3291     3207     3105     2972     2808     2613 
    2397     2151     1873     1582     1305     1053      814      585 
     364      155      -39     -207     -325     -369     -328     -189 
      40      342      691     1059     1425     1767     2057     2292 
    2490     2678     2868     3051     3207     3331     3407     3422 
    3399     3365     3341     3342     3379     3451     3558     3682 
    3796     3879     3921     3916     3871     3800     3715     3626 
    3526     3407     3272     3129     2980     2826     2663     2496 
    2327     2150     1966     1779     1605     1466     1364     1309 
    1296     1316     1363     1440     1540     1647     1760     1884 
    2016     2146     2259     2336     2367     2363     2347     2335 
    2335     2358     2416     2504     2602     2701     2791     2870 
    2930     2982     3041     3118     3219     3346     3488     3634 
    3766     3867     3929     3944     3896     3771     3584     3354 
    3094     2810     2511     2209     1925     1679     1497     1390 
    1374     1452     1628     1885     2197     2542     2902     3254 
    3573     3859     4110     4309     4448     4534     4579     4580 
    4525     4399     4202     3950     3653     3329     3009     2714 
    2450     2209     1981     1764     1571     1412     1283     1178 
    1094     1032      982      926      847      750      643      541 
     453      394      365      359      378      444      577      769 
     999     1255     1524     1786     2026     2228     2392     2506 
    2559     2552     2486     2365     2208     2062     1961     1919 
    1939     2023     2169     2363     2597     2864     3138     3389 
    3600     3751     3842     3885     3882     3832     3757     3696 
    3661     3640     3635     3640     3640     3638     3638     3630 
    3603     3550     3474     3388     3284     3154     3002     2818 
    2586     2303     1996     1699     1432     1210     1039      926 
     869      865      911      996     1094     1189     1274     1352 
    1428     1507     1597     1705     1838     1995     2176     2397 
    2662     2972     3322     3694     4058     4383     4657     4869 
    5000     5036     4977     4815     4549     4194     3780     3323 
    2840     2354     1888     1458     1061      697      364       60 
    -209     -436     -608     -712     -747     -723     -631     -476 
    -267      -10      271      548      808     1058     1316     1590 
    1871     2147     2424     2710     3017     3352     3713     4106 
    4525     4953     5364     5722     5989     6141     6170     6083 
    5894     5625     5306     4972     4641     4332     4055     3815 
    3595     3385     3188     2991     2783     2575     2361     2133 
    1890     1641     1409     1198     1012      858      743      679 
     668      710      795      928     1117     1359     1642     1949 
    2262     2589     2929     3273     3619     3977     4344     4699 
    5022     5300     5505     5616     5628     5540     5362     5104 
    4777     4415     4059     3719     3407     3129     2871     2621 
    2373     2114     1833     1514     1155      773      394       41 
    -272     -530     -692     -735     -672     -511     -249      110 
     549     1032     1532     2027     2500     2937     3335     3701 
    4033     4325     4569     4766     4934     5082     5212     5336 
    5462     5583     5678     5707     5640     5472     5206     4843 
    4395     3878     3302     2670     1998     1306      623       -8 
    -553     -989    -1305    -1503    -1602    -1621    -1583    -1494 
   -1351    -1150     -884     -567     -207      194      618     1027 
    1404     1745     2056     2349     2639     2918     3172     3408 
    3630     3832     4024     4225     4428     4610     4753     4841 
    4861     4808     4680     4477     4209     3889     3541     3198 
    2884     2602     2355     2147     1979     1852     1760     1687 
    1625     1567     1510     1453     1394     1324     1247     1177 
    1129     1125     1194     1337     1541     1791     2065     2344 
    2605     2839     3053     3258     3450     3623     3784     3948 
    4106     4244     4359     4433     4449     4402     4293     4128 
    3906     3624     3285     2897     2482     2070     1687     1354 
    1069      824      615      427      245       58     -128     -301 
    -441     -533     -569     -549     -452     -283      -56      224 
     552      922     1341     1795     2246     2668     3060     3414 
    3726     3998     4236     4429     4581     4706     4812     4904 
    4966     4992     4981     4931     4846     4727     4571     4376 
    4140     3862     3543     3190     2821     2461     2122     1809 
    1514     1240     1000      803      662      579      548      576 
     680      864     1115     1426     1787     2176     2570     2952 
    3302     3604     3847     4040     4187     4290     4352     4383 
    4390     4372     4333     4282     4216     4133     4033     3910 
    3763     3585     3358     3076     2752     2393     2004     1601 
    1209      851      549      324      190      145      186      307 
     510      778     1089     1421     1753     2062     2330     2546 
    2709     2826     2916     2994     3075     3168     3283     3418 
    3576     3751     3929     4091     4214     4288     4309     4271 
    4175     4025     3829     3608     3376     3146     2930     2731 
    2555     2417     2316     2246     2192     2127     2041     1921 
    1756     1544     1289      993      685      406      180       21 
     -60      -41       79      295      585      915     1259     1597 
    1917     2220     2501     2752     2975     3179     3368     3543 
    3700     3844     3985     4108     4197     4240     4237     4198 
    4129     4033     3908     3755     3577     3372     3141     2893 
    2633     2366     2093     1821     1552     1302     1075      891 
     765      700      684      722      820      985     1210     1495 
    1829     2197     2579     2957     3315     3634     3897     4106 
    4268     4392     4483     4525     4514     4453     4347     4201 
    4009     3778     3535     3289     3055     2844     2648     2463 
    2296     2145     2015     1926     1885     1892     1931     1995 
    2073     2145     2192     2218     2234     2241     2245     2253 
    2259     2259     2262     2269     2273     2276     2282     2286 
    2280     2268     2268     2292     2347     2434     2547     2690 
    2852     3018     3186     3346     3495     3622     3719     3777 
    3788     3744     3653     3527     3380     3223     3073     2947 
    2843     2759     2705     2670     2633     2598     2562     2502 
    2417     2308     2173     2015     1838     1648     1456     1271 
    1100      945      801      669      564      498      483      526 
     626      777      985     1251     1553     1875     2189     2479 
    2733     2936     3084     3180     3226     3222     3171     3065 
    2909     2720     2509     2293     2099     1950     1854     1810 
    1819     1873     1952     2033     2107     2164     2193     2193 
    2172     2131     2056     1952     1841     1746     1687     1674 
    1710     1798     1935     2107     2299     2500     2693     2874 
    3032     3157     3248     3302     3319     3300     3240     3138 
    3001     2835     2648     2442     2228     2020     1823     1645 
    1494     1372     1283     1227     1201     1201     1220     1262 
    1323     1399     1495     1607     1725     1856     2004     2157 
    2312     2479     2670     2878     3096     3314     3527     3732 
    3916     4068     4190     4268     4293     4266     4195     4099 
    3989     3870     3761     3666     3572     3481     3392     3300 
    3211     3129     3052     2980     2897     2793     2667     2521 
    2366     2216     2081     1977     1906     1861     1849     1873 
    1923     2002     2110     2241     2389     2543     2686     2808 
    2906     2972     3009     3026     3045     3068     3096     3117 
    3122     3117     3106     3090     3073     3068     3071     3079 
    3098     3133     3171     3192     3187     3150     3084     2988 
    2872     2733     2566     2370     2146     1902     1651     1410 
    1197     1017      870      749      643      557      500      486 
     508      565      657      784      942     1135     1364     1622 
    1910     2227     2566     2917     3264     3591     3889     4156 
    4384     4571     4707     4787     4789     4708     4550     4334 
    4072     3782     3476     3153     2822     2492     2165     1848 
    1536     1228      922      625      351      116      -55     -151 
    -167     -109        9      174      379      621      886     1170 
    1471     1792     2127     2462     2794     3121     3438     3746 
    4043     4324     4583     4818     5016     5161     5240     5251 
    5200     5108     4995     4873     4742     4598     4440     4272 
    4094     3894     3672     3429     3159     2866     2542     2188 
    1818     1441     1075      743      467      265      141       89 
     106      190      332      517      734      966     1206     1451 
    1698     1950     2208     2467     2717     2938     3118     3256 
