Origin Time       2025/01/13 21:19:00
Lat.              31.8
Long.             131.6
Depth. (km)       30
Mag.              6.9
Station Code      KMM001
Station Lat.      33.1211
Station Long.     131.0689
Station Height(m) 430
Record Time       2025/01/13 21:19:58
Sampling Freq(Hz) 100Hz
Duration Time(s)  122
Dir.              E-W
Scale Factor      7845(gal)/8223790
Max. Acc. (gal)   9.229
Last Correction   2025/01/13 21:19:58
Memo.             
[...]
    4575     4536     4572     4777     5151     5595     5957     6060 
    5836     5408     4957     4607     4465     4607     4959     5320 
    5571     5721     5764     5697     5613     5616     5648     5564 
    5332     5049     4796     4569     4413     4425     4584     4745 
    4808     4752     4619     4487     4367     4243     4137     4078 
    4040     3971     3881     3875     4033     4348     4772     5201 
    5489     5547     5377     5088     4818     4585     4376     4249 
    4267     4445     4742     5100     5455     5645     5544     5235 
    4861     4518     4325     4344     4557     4865     5049     4985 
    4757     4467     4190     3996     3979     4202     4577     4919 
    5049     4849     4351     3739     3222     2990     3087     3370 
    3685     3905     3944     3865     3828     3919     4116     4291 
    4287     4102     3861     3677     3645     3773     3981     4144 
    4145     3985     3778     3589     3449     3446     3640     3981 
    4311     4498     4540     4504     4407     4264     4147     4126 
    4189     4278     4429     4618     4738     4779     4757     4634 
    4421     4155     3850     3532     3234     2987     2828     2759 
    2781     2874     2956     2971     2898     2720     2473     2232 
    2054     2043     2278     2685     3118     3443     3588     3547 
    3362     3106     2876     2740     2739     2837     2911     2916 
    2897     2872     2859     2917     3072     3262     3346     3221 
    2982     2785     2693     2775     3087     3542     3962     4135 
    3964     3576     3127     2740     2563     2614     2736     2752 
    2646     2539     2519     2596     2817     3198     3651     4071 
    4396     4649     4862     5030     5200     5437     5702     5907 
    5996     5958     5887     5829     5742     5656     5643     5709 
    5854     6091     6415     6793     7152     7407     7542     7585 
    7591     7599     7627     7689     7758     7767     7700     7608 
    7558     7620     7782     7940     8037     8051     7939     7709 
    7427     7165     6968     6856     6867     7049     7362     7750 
    8202     8633     8931     9077     9090     9027     8965     8895 
    8781     8596     8298     7906     7507     7233     7171     7283 
    7522     7813     7989     7966     7804     7503     7117     6804 
    6655     6702     6893     7082     7134     6970     6554     5980 
    5437     5115     5096     5305     5632     5953     6069     5856 
    5381     4774     4141     3584     3179     2936     2790     2721 
    2772     2893     2992     3046     2990     2771     2448     2070 
    1675     1337     1051      783      558      396      341      438 
     626      818      974     1061     1096     1097     1036      909 
     718      494      294      140       27      -18        8       89 
     184      252      314      448      687     1026     1440     1825 
    1993     1826     1389      885      483      294      363      615 
     930     1215     1424     1584     1768     2012     2322     2700 
    3105     3465     3717     3828     3800     3699     3624     3659 
    3834     4095     4341     4434     4237     3680     2793     1757 
     866      298       45       18      124      314      533      766 
    1097     1510     1923     2330     2673     2899     3036     3088 
    3046     2945     2783     2550     2309     2184     2295     2643 
    3148     3728     4297     4823     5356     5910     6415     6766 
    6847     6642     6230     5778     5518     5524     5706     6004 
    6319     6532     6679     6852     7033     7188     7321     7474 
    7678     7894     8066     8166     8158     8033     7848     7663 
    7523     7480     7557     7758     8113     8602     9112     9558 
    9883    10072    10165    10242    10368    10473    10465    10342 
   10106     9801     9520     9319     9204     9094     8820     8338 
    7792     7339     7080     7021     7072     7121     7022     6678 
    6149     5557     4982     4460     4012     3697     3581     3692 
    4014     4449     4882     5246     5476     5552     5549     5514 
    5432     5351     5316     5323     5346     5344     5327     5319 
    5259     5081     4810     4487     4158     3840     3551     3304 
    3068     2813     2583     2461     2493     2685     2971     3261 
    3468     3441     3086     2461     1649      762       -9     -518 
    -692     -529     -144      322      753     1003     1000      793 
     490      225      125      264      654     1169     1582     1726 
    1561     1174      708      301       82      136      436      911 
    1483     2100     2735     3318     3802     4217     4563     4777 
    4806     4683     4488     4275     4090     4024     4125     4367 
    4737     5184     5591     5829     5811     5540     5144     4834 
    4788     5090     5668     6349     6999     7507     7811     7986 
    8121     8247     8411     8627     8827     8923     8849     8579 
    8098     7447     6725     5991     5300     4696     4156     3689 
    3365     3214     3195     3214     3200     3200     3308     3581 
    4001     4488     4955     5374     5724     5958     6116     6291 
    6532     6794     6972     6997     6841     6520     6119     5778 
    5583     5545     5572     5518     5325     5019     4639     4218 
    3773     3299     2801     2266     1711     1259     1003      924 
     973     1074     1169     1240     1325     1507     1846     2331 
    2976     3761     4533     5158     5607     5876     5931     5749 
    5417     5071     4773     4583     4610     4849     5174     5395 
    5368     5082     4612     4104     3742     3630     3709     3851 
    3987     4129     4303     4567     4953     5378     5682     5778 
    5698     5513     5251     4965     4735     4603     4533     4499 
    4529     4637     4797     4980     5170     5352     5495     5557 
    5541     5513     5495     5471     5409     5304     5208     5193 
    5281     5470     5761     6108     6448     6739     6971     7172 
    7354     7535     7726     7911     8073     8203     8233     8091 
    7800     7412     6956     6427     5845     5244     4631     4086 
    3731     3581     3524     3446     3273     3011     2704     2376 
    2084     1883     1771     1711     1682     1701     1788     1934 
    2115     2326     2536     2737     3001     3356     3699     3937 
    4090     4197     4279     4321     4329     4328     4310     4286 
    4290     4313     4307     4218     4014     3721     3393     3092 
    2893     2802     2735     2633     2484     2282     2064     1873 
    1736     1694     1736     1802     1823     1726     1499     1233 
    1043     1062     1399     2007     2727     3400     3937     4321 
    4576     4807     5120     5491     5829     6077     6235     6350 
    6454     6515     6488     6335     6023     5567     5030     4503 
    4070     3747     3505     3302     3068     2783     2516     2317 
    2218     2232     2373     2681     3132     3572     3855     3916 
    3786     3562     3303     3075     2980     3042     3248     3577 
    3948     4294     4614     4865     5003     5036     4919     4614 
    4185     3746     3399     3179     3044     2937     2856     2835 
    2928     3168     3542     3978     4351     4560     4517     4164 
    3582     2979     2608     2655     3144     3971     4958     5850 
    6443     6666     6551     6242     5957     5873     6054     6475 
    6984     7393     7622     7678     7670     7727     7915     8228 
    8545     8707     8635     8272     7631     6871     6168     5659 
    5395     5294     5258     5278     5309     5267     5132     4932 
    4757     4700     4833     5246     5906     6624     7218     7530 
    7496     7217     6883     6669     6625     6666     6693     6650 
    6494     6245     5988     5802     5744     5819     5950     6027 
    5984     5834     5657     5483     5350     5306     5297     5243 
    5120     4915     4629     4266     3809     3314     2860     2482 
    2218     2138     2263     2470     2567     2481     2246     1910 
    1551     1312     1260     1324     1382     1364     1287     1208 
    1177     1229     1379     1570     1782     2037     2297     2520 
    2652     2656     2574     2474     2454     2628     2994     3474 
    3978     4379     4646     4814     4882     4936     5057     5213 
    5374     5533     5655     5710     5671     5524     5266     4854 
    4301     3686     3076     2527     2084     1777     1610     1544 
    1518     1506     1485     1467     1486     1537     1637     1771 
    1840     1830     1825     1850     1934     2111     2363     2706 
    3136     3535     3785     3863     3771     3581     3433     3445 
    3677     4099     4596     5034     5304     5373     5258     5016 
    4779     4695     4781     5000     5292     5540     5684     5692 
    5560     5402     5321     5347     5513     5768     6035     6304 
    6488     6482     6355     6204     6062     5965     5961     6118 
    6470     6926     7342     7630     7708     7551     7230     6889 
    6637     6501     6444     6390     6257     6048     5802     5541 
    5317     5151     4992     4793     4515     4174     3874     3709 
    3728     3950     4302     4675     5000     5224     5347     5397 
    5364     5286     5231     5196     5167     5154     5113     5007 
    4853     4704     4623     4622     4666     4707     4658     4440 
    4097     3757     3523     3456     3531     3707     3939     4164 
    4357     4530     4704     4920     5171     5389     5529     5524 
    5329     5024     4704     4433     4245     4132     4098     4176 
    4337     4503     4606     4583     4452     4301     4207     4206 
    4263     4294     4252     4174     4131     4236     4534     4950 
    5398     5759     5922     5904     5738     5412     4966     4428 
    3812     3184     2590     2084     1719     1437     1155      889 
     661      502      496      680     1027     1462     1871     2200 
    2454     2598     2609     2548     2501     2513     2559     2609 
    2658     2673     2647     2616     2646     2776     2978     3226 
    3550     3925     4291     4645     4993     5309     5613     5930 
    6232     6469     6590     6540     6313     5942     5481     5008 
    4580     4237     3987     3815     3727     3711     3735     3780 
    3813     3881     4087     4445     4897     5378     5817     6226 
    6608     6932     7250     7604     7971     8382     8887     9497 
   10233    11056    11871    12580    13109    13443    13590    13566 
   13423    13223    12984    12706    12340    11846    11252    10566 
    9825     9142     8606     8270     8129     8122     8198     8295 
    8328     8244     8036     7728     7392     7128     7002     7011 
    7099     7229     7372     7497     7642     7882     8222     8590 
    8889     9038     8988     8687     8101     7307     6448     5630 
    4922     4306     3715     3119     2454     1664      803      -22 
    -745    -1323    -1728    -2000    -2220    -2448    -2705    -2971 
   -3227    -3464    -3665    -3811    -3893    -3919    -3932    -3908 
   -3789    -3519    -3024    -2311    -1464     -606      105      592 
     862      918      776      457      -13     -573    -1139    -1632 
   -1995    -2187    -2220    -2173    -2116    -2107    -2150    -2224 
   -2324    -2432    -2531    -2592    -2575    -2475    -2292    -2000 
   -1629    -1260     -912     -533     -116      307      761     1298 
    1923     2542     3030     3354     3524     3573     3564     3553 
    3542     3480     3380     3303     3323     3537     3947     4457 
    5019     5621     6201     6712     7115     7393     7578     7743 
    7971     8307     8698     9019     9167     9138     9046     9005 
    9108     9435     9917    10373    10690    10841    10866    10839 
   10800    10759    10758    10786    10774    10686    10512    10260 
    9994     9803     9734     9765     9807     9763     9547     9093 
    8432     7686     6970     6386     6026     5902     5971     6160 
    6392     6613     6762     6817     6808     6735     6621     6498 
    6376     6261     6123     5925     5709     5483     5246     5089 
    5077     5220     5501     5814     5994     5902     5454     4683 
    3762     2879     2137     1533     1001      448     -205     -939 
   -1655    -2263    -2673    -2789    -2596    -2145    -1533     -885 
    -291      189      531      774      985     1206     1471     1813 
    2199     2583     2918     3088     3018     2725     2305     1944 
    1799     1879     2141     2502     2828     3021     3033     2864 
    2569     2218     1922     1764     1729     1750     1722     1618 
    1501     1398     1433     1741     2232     2770     3276     3649 
    3835     3865     3777     3662     3589     3546     3503     3406 
    3218     2953     2632     2273     1968     1853     1980     2301 
    2731     3188     3572     3808     3913     3963     4021     4135 
    4357     4702     5109     5497     5802     6029     6262     6563 
    6920     7291     7607     7815     7917     7981     8128     8449 
    8974     9663    10415    11107    11666    12078    12341    12495 
   12640    12870    13209    13603    13954    14134    14048    13684 
   13109    12465    11951    11682    11626    11659    11631    11434 
   11010    10365     9624     8903     8253     7747     7399     7115 
    6802     6407     5923     5433     5007     4708     4615     4702 
    4866     5009     5034     4901     4626     4232     3782     3352 
    3007     2791     2697     2700     2763     2859     3018     3256 
    3519     3769     3977     4089     4089     3982     3753     3391 
    2972     2610     2419     2463     2654     2876     3113     3292 
    3348     3353     3410     3499     3591     3704     3811     3835 
    3750     3546     3275     3072     2941     2849     2844     2883 
    2880     2787     2550     2246     2007     1858     1807     1826 
    1810     1660     1301      751      151     -371     -747     -947 
   -1003    -1008    -1051    -1190    -1413    -1633    -1760    -1756 
   -1629    -1433    -1208     -970     -746     -503     -198      145 
     469      719      904     1085     1320     1687     2282     3126 
    4124     5128     6000     6656     7071     7263     7348     7470 
    7692     7977     8251     8442     8503     8426     8262     8078 
    7924     7821     7723     7557     7291     6910     6440     5942 
    5449     4950     4446     3977     3564     3192     2883     2660 
    2535     2543     2685     2937     3285     3717     4233     4796 
    5319     5740     6000     6052     5935     5726     5466     5208 
    4978     4753     4531     4344     4229     4226     4325     4460 
    4552     4533     4359     4012     3546     3082     2704     2471 
    2421     2531     2774     3125     3507     3877     4230     4533 
    4780     4973     5086     5121     5093     5038     5023     5073 
    5155     5221     5186     4984     4623     4170     3717     3338 
    3056     2829     2582     2301     2016     1729     1417     1080 
     723      365       71      -98     -110       31      303      677 
    1102     1534     1965     2421     2934     3530     4212     4931 
    5634     6300     6897     7392     7792     8093     8286     8382 
    8399     8371     8326     8278     8201     8041     7754     7337 
    6837     6342     5921     5610     5417     5266     5078     4891 
    4733     4599     4522     4471     4347     4131     3834     3473 
    3113     2781     2439     2069     1706     1405     1217     1190 
    1348     1661     2049     2398     2617     2701     2714     2698 
    2667     2667     2771     2988     3260     3522     3743     3906 
    4004     4087     4205     4375     4626     4935     5215     5437 
    5616     5715     5713     5634     5590     5649     5771     5949 
    6184     6373     6443     6415     6324     6250     6246     6288 
    6370     6484     6601     6685     6700     6669     6633     6581 
    6489     6358     6162     5876     5503     5057     4599     4216 
    3939     3773     3666     3528     3381     3283     3258     3381 
    3696     4172     4733     5300     5859     6367     6795     7194 
    7596     7993     8356     8626     8776     8843     8858     8858 
    8901     9012     9170     9350     9524     9656     9699     9603 
    9385     9111     8861     8694     8606     8572     8532     8392 
    8118     7769     7391     7041     6790     6642     6582     6596 
    6628     6619     6504     6232     5852     5483     5215     5117 
    5163     5221     5181     4988     4661     4272     3892     3600 
    3419     3279     3133     2975     2759     2479     2158     1817 
    1474     1125      769      426      128      -75     -101      114 
     599     1304     2074     2768     3306     3649     3812     3847 
    3785     3643     3446     3206     2976     2805     2698     2674 
    2744     2884     3076     3280     3424     3447     3303     2982 
    2552     2107     1691     1344     1127     1075     1202     1490 
    1852     2169     2365     2417     2323     2153     1998     1887 
    1852     1895     1966     2039     2118     2207     2349     2558 
    2779     2955     3051     3044     2953     2844     2797     2880 
    3094     3387     3696     3940     4086     4109     4002     3798 
    3553     3331     3202     3175     3206     3237     3202     3069 
    2886     2693     2538     2484     2543     2701     2940     3194 
    3400     3573     3736     3920     4109     4228     4226     4098 
    3863     3604     3410     3326     3366     3500     3686     3906 
    4164     4469     4808     5157     5520     5884     6211     6535 
    6909     7314     7754     8224     8658     8984     9148     9151 
    9039     8869     8695     8598     8591     8614     8611     8525 
    8340     8074     7778     7562     7487     7514     7596     7636 
    7511     7146     6534     5773     5019     4382     3958     3767 
    3713     3672     3558     3308     2952     2589     2273     2025 
    1838     1683     1537     1391     1271     1246     1372     1679 
    2124     2559     2866     3022     3024     2951     2925     3005 
    3187     3420     3640     3838     3985     4066     4128     4217 
    4361     4565     4770     4912     4978     4955     4808     4544 
    4210     3881     3612     3424     3316     3242     3138     2974 
    2741     2450     2170     1931     1684     1412     1109      816 
     616      567      675      905     1162     1364     1489     1534 
    1561     1653     1849     2135     2438     2694     2882     3013 
    3154     3387     3742     4198     4711     5205     5628     5964 
    6193     6349     6471     6538     6550     6538     6520     6539 
    6613     6732     6867     6970     7029     7060     7091     7186 
    7364     7580     7777     7886     7861     7757     7646     7604 
