Origin Time       2025/01/13 21:19:00
Lat.              31.8
Long.             131.6
Depth. (km)       30
Mag.              6.9
Station Code      KMM010
Station Lat.      32.6134
Station Long.     130.4873
Station Height(m) 6
Record Time       2025/01/13 21:19:56
Sampling Freq(Hz) 100Hz
Duration Time(s)  127
Dir.              U-D
Scale Factor      7845(gal)/8223790
Max. Acc. (gal)   5.405
Last Correction   2025/01/13 21:19:57
Memo.             
[...]
  -10106   -10285   -10376   -10432   -10501   -10578   -10660   -10759 
  -10835   -10833   -10785   -10747   -10710   -10677   -10696   -10743 
  -10747   -10724   -10797   -11029   -11338   -11647   -11921   -12083 
  -12091   -11998   -11832   -11595   -11350   -11142   -10945   -10768 
  -10646   -10584   -10619   -10779   -10998   -11215   -11434   -11630 
  -11745   -11772   -11773   -11770   -11709   -11566   -11414   -11362 
  -11485   -11731   -11966   -12098   -12089   -11940   -11713   -11383 
  -10875   -10231    -9603    -9189    -9074    -9198    -9509    -9944 
  -10335   -10575   -10705   -10774   -10789   -10755   -10662   -10507 
  -10359   -10296   -10357   -10571   -10887   -11184   -11376   -11423 
  -11322   -11155   -11036   -10968   -10879   -10810   -10833   -10876 
  -10875   -10871   -10854   -10724   -10524   -10417   -10438   -10534 
  -10719   -10983   -11229   -11337   -11279   -11138   -10976   -10773 
  -10557   -10376   -10157    -9867    -9670    -9668    -9760    -9859 
   -9968   -10084   -10162   -10179   -10196   -10234   -10185   -10066 
  -10041   -10137   -10270   -10409   -10544   -10685   -10876   -11106 
  -11277   -11349   -11427   -11554   -11608   -11543   -11441   -11357 
  -11315   -11281   -11165   -10937   -10697   -10555   -10512   -10463 
  -10341   -10173    -9998    -9796    -9594    -9451    -9396    -9406 
   -9460    -9562    -9680    -9751    -9764    -9798    -9845    -9822 
   -9768    -9776    -9817    -9840    -9869    -9921    -9980   -10000 
   -9936    -9850    -9853    -9945   -10075   -10231   -10403   -10574 
  -10773   -11021   -11300   -11612   -11958   -12301   -12599   -12826 
  -12930   -12865   -12636   -12328   -12020   -11707   -11383   -11083 
  -10817   -10588   -10449   -10403   -10424   -10543   -10773   -11022 
  -11190   -11232   -11182   -11107   -11024   -10935   -10882   -10859 
  -10816   -10759   -10735   -10759   -10813   -10908   -11064   -11237 
  -11379   -11512   -11651   -11766   -11820   -11804   -11743   -11665 
  -11600   -11562   -11497   -11333   -11141   -11076   -11122   -11113 
  -11047   -11018   -10984   -10930   -10913   -10899   -10808   -10638 
  -10427   -10166    -9852    -9528    -9223    -8958    -8775    -8675 
   -8626    -8646    -8776    -8992    -9251    -9582    -9973   -10332 
  -10655   -11003   -11373   -11723   -12056   -12360   -12592   -12715 
  -12729   -12677   -12584   -12430   -12245   -12098   -12015   -11983 
  -12010   -12114   -12249   -12376   -12537   -12750   -12985   -13236 
  -13458   -13574   -13602   -13601   -13547   -13425   -13302   -13190 
  -13028   -12808   -12533   -12160   -11709   -11263   -10820   -10342 
   -9903    -9598    -9428    -9377    -9456    -9634    -9846   -10060 
  -10280   -10490   -10647   -10766   -10893   -10989   -11006   -10947 
  -10817   -10666   -10523   -10355   -10158    -9950    -9732    -9518 
   -9352    -9309    -9462    -9813   -10276   -10712   -11055   -11306 
  -11477   -11619   -11763   -11875   -11909   -11873   -11799   -11662 
  -11402   -11038   -10666   -10372   -10220   -10245   -10397   -10601 
  -10829   -11052   -11252   -11458   -11688   -11915   -12109   -12256 
  -12313   -12208   -11929   -11565   -11178   -10766   -10351    -9964 
   -9587    -9224    -8915    -8681    -8534    -8510    -8654    -8978 
   -9466   -10061   -10660   -11196   -11693   -12172   -12623   -13055 
  -13431   -13662   -13699   -13529   -13149   -12633   -12096   -11610 
  -11196   -10845   -10552   -10314   -10127   -10033   -10081   -10228 
  -10385   -10554   -10735   -10858   -10876   -10816   -10719   -10633 
  -10559   -10494   -10497   -10600   -10759   -10939   -11102   -11188 
  -11194   -11186   -11221   -11291   -11360   -11416   -11454   -11446 
  -11408   -11387   -11400   -11464   -11612   -11816   -12005   -12136 
  -12168   -12063   -11831   -11506   -11083   -10604   -10129    -9667 
   -9255    -8950    -8769    -8702    -8712    -8746    -8789    -8843 
   -8880    -8883    -8880    -8922    -9012    -9117    -9227    -9367 
   -9524    -9641    -9720    -9796    -9861    -9891    -9895    -9896 
   -9952   -10107   -10378   -10777   -11269   -11774   -12259   -12727 
  -13099   -13300   -13347   -13274   -13090   -12803   -12444   -12055 
  -11657   -11249   -10859   -10538   -10315   -10152   -10010    -9853 
   -9618    -9317    -9046    -8854    -8733    -8658    -8621    -8599 
   -8573    -8548    -8514    -8457    -8409    -8419    -8525    -8715 
   -8946    -9175    -9406    -9682    -9995   -10247   -10366   -10385 
  -10384   -10403   -10446   -10494   -10521   -10509   -10525   -10644 
  -10845   -11075   -11302   -11523   -11723   -11830   -11827   -11776 
  -11681   -11522   -11365   -11264   -11207   -11175   -11145   -11087 
  -10986   -10881   -10851   -10957   -11225   -11618   -12046   -12456 
  -12874   -13327   -13779   -14181   -14509   -14710   -14748   -14697 
  -14611   -14413   -14107   -13807   -13540   -13266   -12995   -12768 
  -12599   -12447   -12279   -12105   -11929   -11765   -11637   -11527 
  -11376   -11136   -10841   -10563   -10334   -10180   -10107   -10037 
   -9946    -9890    -9883    -9902    -9930    -9945    -9944    -9987 
  -10102   -10238   -10363   -10527   -10731   -10885   -10936   -10910 
  -10841   -10743   -10604   -10436   -10335   -10335   -10357   -10363 
  -10366   -10351   -10314   -10253   -10137    -9977    -9813    -9645 
   -9494    -9408    -9358    -9300    -9239    -9184    -9119    -9045 
   -8953    -8849    -8750    -8652    -8552    -8472    -8437    -8445 
   -8483    -8522    -8548    -8564    -8608    -8721    -8904    -9150 
   -9466    -9826   -10218   -10667   -11169   -11630   -11966   -12231 
  -12488   -12699   -12847   -13004   -13186   -13363   -13516   -13618 
  -13635   -13586   -13512   -13409   -13300   -13221   -13176   -13186 
  -13279   -13440   -13632   -13826   -13999   -14116   -14152   -14104 
  -13952   -13639   -13189   -12704   -12224   -11720   -11188   -10687 
  -10285   -10008    -9875    -9902   -10069   -10322   -10625   -10949 
  -11249   -11511   -11743   -11952   -12162   -12380   -12577   -12764 
  -12968   -13144   -13235   -13259   -13225   -13104   -12910   -12692 
  -12467   -12218   -11952   -11681   -11368   -10994   -10635   -10335 
  -10077    -9877    -9748    -9632    -9498    -9366    -9239    -9117 
   -8997    -8860    -8727    -8657    -8637    -8607    -8573    -8595 
   -8684    -8811    -8989    -9221    -9427    -9548    -9624    -9688 
   -9732    -9769    -9846    -9952   -10015   -10004    -9968    -9957 
   -9940    -9917    -9963   -10076   -10150   -10165   -10180   -10191 
  -10172   -10147   -10126   -10108   -10114   -10118   -10077    -9964 
   -9769    -9551    -9359    -9180    -9030    -8949    -8926    -8950 
   -9028    -9142    -9278    -9420    -9552    -9701    -9911   -10200 
  -10534   -10879   -11232   -11572   -11859   -12083   -12270   -12418 
  -12495   -12505   -12509   -12515   -12469   -12355   -12217   -12102 
  -12046   -12029   -12015   -12004   -11996   -11955   -11888   -11793 
  -11661   -11542   -11488   -11487   -11531   -11605   -11654   -11672 
  -11739   -11880   -12028   -12162   -12282   -12343   -12348   -12378 
  -12420   -12394   -12293   -12133   -11913   -11646   -11367   -11092 
  -10829   -10611   -10449   -10307   -10179   -10111   -10112   -10172 
  -10291   -10427   -10520   -10544   -10482   -10351   -10215   -10080 
   -9944    -9825    -9698    -9544    -9387    -9244    -9126    -9061 
   -9051    -9090    -9185    -9328    -9487    -9649    -9837   -10079 
  -10388   -10766   -11176   -11560   -11885   -12154   -12353   -12469 
  -12499   -12456   -12351   -12174   -11934   -11658   -11345   -11005 
  -10674   -10377   -10139    -9991    -9942    -9990   -10115   -10243 
  -10301   -10305   -10289   -10268   -10251   -10239   -10253   -10326 
  -10449   -10606   -10766   -10864   -10914   -10943   -10899   -10768 
  -10578   -10314   -10002    -9742    -9564    -9432    -9337    -9306 
   -9351    -9433    -9509    -9589    -9709    -9876   -10092   -10362 
  -10660   -10972   -11302   -11623   -11892   -12102   -12232   -12268 
  -12267   -12280   -12264   -12159   -11985   -11790   -11593   -11358 
  -11070   -10763   -10482   -10255   -10114   -10035    -9977    -9945 
   -9914    -9810    -9624    -9417    -9239    -9093    -8959    -8849 
   -8796    -8803    -8853    -8958    -9136    -9386    -9710   -10100 
  -10504   -10852   -11133   -11399   -11678   -11956   -12214   -12452 
  -12707   -12993   -13248   -13405   -13463   -13475   -13468   -13408 
  -13284   -13139   -12977   -12768   -12517   -12245   -11948   -11622 
  -11310   -11025   -10737   -10461   -10249   -10129   -10084   -10083 
  -10077   -10042   -10007    -9977    -9931    -9896    -9918   -10006 
  -10154   -10292   -10355   -10372   -10369   -10368   -10416   -10488 
  -10513   -10528   -10554   -10561   -10563   -10584   -10604   -10627 
  -10675   -10739   -10778   -10770   -10713   -10644   -10594   -10538 
  -10459   -10409   -10416   -10476   -10588   -10719   -10821   -10898 
  -10970   -11020   -11022   -10983   -10885   -10739   -10602   -10486 
  -10380   -10297   -10231   -10165   -10134   -10176   -10272   -10389 
  -10532   -10713   -10935   -11205   -11524   -11859   -12150   -12378 
  -12564   -12723   -12854   -12962   -13059   -13138   -13188   -13180 
  -13105   -12989   -12815   -12586   -12364   -12160   -11938   -11677 
  -11391   -11115   -10874   -10677   -10550   -10480   -10424   -10395 
  -10397   -10397   -10413   -10494   -10631   -10783   -10940   -11098 
  -11237   -11334   -11388   -11375   -11252   -11028   -10743   -10412 
  -10050    -9718    -9441    -9180    -8930    -8746    -8645    -8622 
   -8700    -8872    -9130    -9489    -9891   -10262   -10620   -10971 
  -11267   -11497   -11676   -11800   -11888   -11962   -12012   -12043 
  -12060   -12070   -12075   -12071   -12067   -12074   -12083   -12112 
  -12194   -12312   -12434   -12559   -12677   -12781   -12888   -12980 
  -13009   -12961   -12829   -12622   -12371   -12052   -11677   -11341 
  -11086   -10891   -10760   -10652   -10538   -10431   -10349   -10297 
  -10305   -10380   -10480   -10555   -10600   -10625   -10611   -10544 
  -10444   -10308   -10111    -9875    -9668    -9501    -9328    -9142 
   -8992    -8901    -8835    -8766    -8684    -8576    -8456    -8345 
   -8244    -8155    -8093    -8071    -8104    -8206    -8375    -8575 
   -8768    -8939    -9084    -9196    -9289    -9371    -9436    -9472 
   -9490    -9512    -9547    -9570    -9563    -9531    -9483    -9467 
   -9513    -9559    -9574    -9602    -9666    -9772    -9949   -10208 
  -10528   -10856   -11145   -11400   -11655   -11913   -12140   -12312 
  -12414   -12469   -12517   -12571   -12645   -12756   -12872   -12977 
  -13113   -13284   -13437   -13579   -13717   -13815   -13844   -13809 
  -13743   -13643   -13495   -13309   -13077   -12787   -12472   -12178 
  -11893   -11616   -11368   -11165   -11033   -10982   -10998   -11059 
  -11124   -11186   -11267   -11337   -11372   -11380   -11376   -11333 
  -11218   -11068   -10928   -10793   -10667   -10554   -10443   -10359 
  -10346   -10399   -10507   -10686   -10937   -11248   -11603   -11950 
  -12222   -12399   -12474   -12457   -12384   -12280   -12145   -11973 
  -11749   -11473   -11148   -10795   -10494   -10296   -10197   -10195 
  -10266   -10369   -10509   -10682   -10856   -11016   -11146   -11242 
  -11344   -11454   -11539   -11604   -11646   -11657   -11673   -11708 
  -11726   -11728   -11753   -11769   -11739   -11666   -11562   -11453 
  -11356   -11283   -11268   -11299   -11327   -11329   -11306   -11272 
  -11252   -11249   -11249   -11248   -11259   -11286   -11317   -11340 
  -11372   -11412   -11408   -11326   -11168   -10917   -10590   -10234 
   -9853    -9466    -9103    -8760    -8499    -8363    -8293    -8284 
   -8361    -8465    -8564    -8672    -8781    -8877    -8959    -9034 
   -9097    -9112    -9066    -8996    -8919    -8854    -8810    -8785 
   -8791    -8815    -8831    -8858    -8901    -8938    -8955    -8943 
   -8912    -8865    -8792    -8730    -8746    -8858    -9040    -9304 
   -9682   -10181   -10789   -11489   -12256   -13023   -13744   -14397 
  -14962   -15431   -15803   -16063   -16216   -16271   -16227   -16071 
  -15770   -15317   -14770   -14179   -13566   -12972   -12442   -11963 
  -11496   -11043   -10605   -10160    -9705    -9265    -8854    -8469 
   -8093    -7705    -7318    -6979    -6713    -6524    -6434    -6448 
   -6529    -6648    -6822    -7061    -7357    -7688    -8035    -8360 
   -8607    -8748    -8769    -8673    -8494    -8280    -8062    -7870 
   -7743    -7690    -7723    -7842    -8039    -8321    -8687    -9112 
   -9583   -10102   -10646   -11168   -11659   -12112   -12507   -12835 
  -13084   -13244   -13332   -13363   -13356   -13332   -13285   -13193 
  -13081   -12991   -12938   -12928   -12939   -12949   -12980   -13039 
  -13101   -13142   -13144   -13119   -13059   -12957   -12835   -12681 
  -12455   -12181   -11863   -11479   -11067   -10683   -10324    -9987 
   -9706    -9512    -9382    -9273    -9188    -9151    -9166    -9224 
   -9329    -9479    -9645    -9791    -9914   -10014   -10068   -10066 
  -10029    -9981    -9949    -9948    -9990   -10080   -10242   -10507 
  -10887   -11348   -11870   -12474   -13116   -13751   -14368   -14935 
  -15418   -15824   -16151   -16386   -16528   -16559   -16465   -16274 
  -16002   -15643   -15232   -14825   -14439   -14046   -13648   -13265 
  -12910   -12583   -12272   -11983   -11740   -11556   -11421   -11331 
  -11269   -11223   -11199   -11186   -11176   -11159   -11105   -11011 
  -10909   -10794   -10666   -10573   -10573   -10674   -10859   -11115 
  -11425   -11765   -12145   -12569   -13016   -13448   -13837   -14168 
  -14419   -14555   -14548   -14374   -14027   -13537   -12943   -12289 
  -11639   -11059   -10581   -10211    -9961    -9860    -9909   -10093 
  -10381   -10721   -11087   -11438   -11724   -11923   -12002   -11950 
  -11796   -11551   -11202   -10777   -10323    -9861    -9439    -9132 
   -8974    -8961    -9081    -9308    -9606    -9946   -10308   -10652 
  -10935   -11142   -11288   -11368   -11376   -11335   -11275   -11206 
  -11110   -10967   -10801   -10644   -10504   -10396   -10328   -10273 
  -10207   -10130   -10046    -9950    -9848    -9726    -9540    -9298 
   -9039    -8749    -8407    -8036    -7677    -7350    -7064    -6855 
   -6754    -6760    -6874    -7111    -7481    -7950    -8473    -9000 
   -9478    -9879   -10188   -10401   -10511   -10511   -10438   -10327 
  -10153    -9880    -9520    -9105    -8677    -8259    -7852    -7485 
   -7186    -6951    -6779    -6683    -6673    -6744    -6876    -7049 
   -7248    -7457    -7674    -7913    -8179    -8478    -8814    -9171 
   -9522    -9865   -10216   -10594   -11016   -11475   -11958   -12451 
  -12938   -13402   -13851   -14289   -14696   -15052   -15346   -15565 
  -15689   -15726   -15699   -15619   -15491   -15300   -15056   -14782 
  -14488   -14189   -13905   -13614   -13317   -13028   -12761   -12540 
  -12386   -12305   -12295   -12351   -12453   -12602   -12800   -13032 
  -13273   -13505   -13710   -13864   -13923   -13878   -13776   -13653 
  -13512   -13366   -13240   -13143   -13057   -12953   -12811   -12633 
  -12417   -12166   -11908   -11631   -11308   -10968   -10638   -10320 
  -10019    -9728    -9435    -9140    -8862    -8621    -8430    -8305 
   -8248    -8243    -8272    -8320    -8372    -8425    -8451    -8436 
   -8399    -8347    -8271    -8189    -8129    -8110    -8129    -8182 
   -8262    -8348    -8419    -8460    -8479    -8502    -8549    -8634 
   -8770    -8951    -9144    -9331    -9510    -9672    -9802    -9913 
   -9991   -10027   -10060   -10100   -10106   -10052    -9956    -9840 
   -9698    -9536    -9377    -9235    -9103    -9001    -8955    -8961 
   -9007    -9121    -9306    -9525    -9757   -10017   -10318   -10655 
  -11017   -11395   -11774   -12128   -12465   -12795   -13095   -13354 
  -13593   -13830   -14065   -14277   -14449   -14580   -14674   -14732 
  -14744   -14720   -14669   -14590   -14489   -14378   -14265   -14143 
  -14004   -13818   -13568   -13263   -12907   -12507   -12101   -11711 
  -11337   -10982   -10650   -10350   -10084    -9855    -9678    -9582 
   -9570    -9605    -9641    -9683    -9720    -9703    -9645    -9594 
   -9524    -9398    -9244    -9085    -8934    -8795    -8679    -8594 
   -8526    -8473    -8442    -8440    -8475    -8529    -8568    -8588 
   -8604    -8615    -8608    -8594    -8584    -8565    -8541    -8529 
   -8530    -8542    -8572    -8614    -8669    -8752    -8853    -8954 
   -9066    -9207    -9378    -9580    -9811   -10064   -10320   -10555 
  -10751   -10903   -11024   -11129   -11221   -11291   -11323   -11307 
  -11246   -11163   -11083   -11040   -11051   -11122   -11249   -11414 
  -11612   -11834   -12048   -12233   -12380   -12461   -12455   -12383 
  -12263   -12094   -11889   -11646   -11377   -11121   -10898   -10697 
  -10498   -10289   -10062    -9829    -9594    -9367    -9178    -9024 
   -8903    -8827    -8773    -8746    -8800    -8931    -9100    -9331 
   -9653   -10037   -10471   -10957   -11461   -11963   -12442   -12873 
  -13265   -13625   -13948   -14243   -14519   -14759   -14955   -15105 
  -15176   -15183   -15176   -15171   -15145   -15107   -15067   -15020 
  -14964   -14897   -14810   -14692   -14534   -14366   -14222   -14102 
  -14008   -13973   -13998   -14056   -14126   -14184   -14188   -14126 
  -14000   -13798   -13532   -13217   -12852   -12457   -12069   -11678 
  -11284   -10906   -10543   -10204    -9892    -9593    -9301    -9026 
   -8757    -8510    -8279    -8047    -7838    -7676    -7555    -7472 
   -7410    -7356    -7323    -7308    -7300    -7308    -7342    -7414 
   -7539    -7722    -7952    -8230    -8533    -8845    -9194    -9582 
   -9968   -10336   -10675   -10959   -11178   -11327   -11404   -11427 
  -11402   -11348   -11307   -11306   -11341   -11431   -11589   -11796 
  -12016   -12222   -12397   -12534   -12619   -12645   -12625   -12573 
  -12482   -12340   -12172   -11982   -11765   -11545   -11335   -11142 
  -10990   -10885   -10817   -10781   -10751   -10714   -10689   -10677 
  -10670   -10693   -10756   -10837   -10922   -11001   -11072   -11140 
  -11205   -11263   -11314   -11345   -11346   -11329   -11298   -11222 
  -11103   -10974   -10822   -10640   -10442   -10241   -10042    -9848 
   -9668    -9522    -9387    -9248    -9124    -9018    -8926    -8865 
   -8822    -8765    -8685    -8575    -8459    -8365    -8289    -8233 
   -8230    -8286    -8399    -8579    -8810    -9080    -9375    -9678 
   -9973   -10250   -10517   -10782   -11029   -11250   -11441   -11584 
  -11668   -11691   -11655   -11574   -11475   -11375   -11291   -11226 
  -11176   -11140   -11124   -11124   -11128   -11128   -11117   -11087 
  -11047   -11025   -11043   -11086   -11133   -11178   -11226   -11279 
  -11338   -11406   -11458   -11485   -11483   -11437   -11357   -11286 
  -11233   -11195   -11184   -11203   -11245   -11306   -11377   -11448 
  -11508   -11564   -11605   -11620   -11614   -11587   -11537   -11491 
