Origin Time       2025/01/13 21:19:00
Lat.              31.8
Long.             131.6
Depth. (km)       30
Mag.              6.9
Station Code      KMM005
Station Lat.      32.8761
Station Long.     130.8771
Station Height(m) 125
Record Time       2025/01/13 21:20:03
Sampling Freq(Hz) 100Hz
Duration Time(s)  93
Dir.              U-D
Scale Factor      7845(gal)/8223790
Max. Acc. (gal)   5.282
Last Correction   2025/01/13 21:20:03
Memo.             
[...]
  -11280   -10924   -10628   -10485   -10458   -10488   -10519   -10520 
  -10519   -10563   -10633   -10652   -10600   -10492   -10299   -10053 
   -9886    -9883   -10033   -10278   -10513   -10651   -10679   -10559 
  -10297   -10062   -10033   -10238   -10654   -11221   -11773   -12150 
  -12353   -12452   -12430   -12263   -12000   -11703   -11426   -11241 
  -11219   -11311   -11414   -11577   -11853   -12124   -12293   -12406 
  -12474   -12413   -12206   -11882   -11422   -10914   -10606   -10605 
  -10783   -11047   -11341   -11527   -11539   -11427   -11183   -10791 
  -10328    -9869    -9495    -9297    -9333    -9649   -10249   -10966 
  -11535   -11801   -11757   -11430   -10870   -10230    -9730    -9502 
   -9586   -10034   -10828   -11734   -12509   -13038   -13281   -13281 
  -13149   -12977   -12842   -12814   -12942   -13165   -13365   -13502 
  -13547   -13379   -12941   -12278   -11504   -10814   -10409   -10424 
  -10866   -11545   -12240   -12866   -13394   -13753   -13856   -13713 
  -13428   -13096   -12796   -12599   -12468   -12302   -12073   -11809 
  -11514   -11173   -10835   -10596   -10513   -10635   -10986   -11476 
  -11965   -12382   -12694   -12837   -12788   -12614   -12387   -12106 
  -11801   -11573   -11453   -11391   -11404   -11511   -11612   -11630 
  -11556   -11329   -10917   -10458   -10139   -10042   -10150   -10426 
  -10802   -11172   -11497   -11788   -11989   -11988   -11749   -11381 
  -11043   -10813   -10689   -10624   -10543   -10390   -10242   -10222 
  -10297   -10339   -10284   -10119    -9834    -9502    -9281    -9244 
   -9317    -9410    -9475    -9444    -9310    -9189    -9189    -9283 
   -9393    -9468    -9505    -9524    -9587    -9730    -9876    -9923 
   -9863    -9720    -9535    -9383    -9344    -9417    -9528    -9645 
   -9782    -9918   -10030   -10102   -10115   -10108   -10133   -10224 
  -10431   -10759   -11115   -11399   -11605   -11738   -11807   -11880 
  -11996   -12091   -12127   -12166   -12251   -12291   -12187   -11889 
  -11327   -10501    -9563    -8668    -7974    -7697    -7894    -8395 
   -8989    -9533    -9913   -10057   -10052   -10019   -10006   -10072 
  -10268   -10578   -10975   -11457   -11978   -12383   -12526   -12434 
  -12225   -11963   -11713   -11573   -11577   -11724   -12062   -12536 
  -12965   -13204   -13173   -12900   -12548   -12247   -12059   -12043 
  -12202   -12471   -12783   -13061   -13180   -13062   -12796   -12532 
  -12337   -12275   -12413   -12672   -12919   -13132   -13275   -13211 
  -12892   -12410   -11835   -11203   -10625   -10243   -10076   -10092 
  -10326   -10687   -10953   -11103   -11260   -11427   -11569   -11712 
  -11785   -11674   -11458   -11295   -11206   -11165   -11168   -11151 
  -11040   -10882   -10770   -10660   -10476   -10284   -10164   -10087 
  -10079   -10189   -10376   -10558   -10675   -10658   -10446   -10054 
   -9636    -9367    -9319    -9524   -10000   -10596   -11071   -11322 
  -11365   -11214   -10914   -10584   -10339   -10266   -10395   -10677 
  -11010   -11264   -11348   -11269   -11097   -10908   -10800   -10806 
  -10847   -10847   -10832   -10836   -10825   -10802   -10836   -10940 
  -11032   -11088   -11109   -11018   -10816   -10620   -10467   -10309 
  -10197   -10208   -10336   -10558   -10871   -11238   -11572   -11821 
  -12019   -12160   -12240   -12341   -12509   -12673   -12804   -12915 
  -12987   -13019   -13053   -13149   -13297   -13413   -13473   -13491 
  -13460   -13404   -13348   -13304   -13302   -13313   -13289   -13254 
  -13228   -13193   -13138   -13030   -12850   -12609   -12299   -11925 
  -11554   -11296   -11194   -11165   -11152   -11223   -11396   -11570 
  -11731   -11905   -12037   -12114   -12174   -12159   -11966   -11600 
  -11203   -10864   -10613   -10542   -10693   -10999   -11431   -11978 
  -12502   -12819   -12896   -12807   -12587   -12309   -12070   -11862 
  -11682   -11604   -11593   -11465   -11169   -10832   -10497   -10176 
   -9975    -9909    -9861    -9801    -9730    -9552    -9198    -8745 
   -8283    -7858    -7550    -7420    -7376    -7310    -7225    -7130 
   -6988    -6814    -6759    -6959    -7391    -7996    -8684    -9293 
   -9730   -10012   -10139   -10083    -9880    -9653    -9529    -9575 
   -9814   -10231   -10698   -11082   -11341   -11477   -11526   -11535 
  -11535   -11614   -11819   -12059   -12252   -12374   -12332   -12056 
  -11635   -11187   -10763   -10426   -10246   -10187   -10157   -10158 
  -10183   -10146   -10025    -9864    -9683    -9539    -9533    -9666 
   -9871   -10143   -10440   -10650   -10729   -10717   -10667   -10646 
  -10741   -11011   -11414   -11859   -12297   -12692   -13038   -13378 
  -13734   -14015   -14125   -14081   -13902   -13626   -13410   -13358 
  -13444   -13625   -13834   -13984   -14031   -13957   -13729   -13336 
  -12872   -12464   -12160   -12004   -12060   -12279   -12550   -12868 
  -13221   -13527   -13720   -13757   -13620   -13400   -13235   -13197 
  -13247   -13298   -13333   -13336   -13252   -13089   -12874   -12591 
  -12264   -11958   -11681   -11438   -11249   -11065   -10839   -10596 
  -10362   -10119    -9872    -9663    -9541    -9516    -9556    -9595 
   -9533    -9329    -9022    -8633    -8230    -7975    -7952    -8081 
   -8267    -8487    -8704    -8893    -9097    -9339    -9582    -9794 
   -9972   -10081   -10073    -9956    -9740    -9437    -9153    -8968 
   -8880    -8912    -9096    -9404    -9776   -10141   -10411   -10489 
  -10320    -9937    -9424    -8900    -8526    -8383    -8397    -8463 
   -8506    -8473    -8361    -8164    -7900    -7657    -7566    -7730 
   -8116    -8594    -9066    -9470    -9741    -9895    -9996   -10066 
  -10153   -10373   -10760   -11250   -11790   -12322   -12749   -13035 
  -13216   -13300   -13284   -13209   -13138   -13092   -13057   -13026 
  -13001   -12950   -12850   -12706   -12513   -12333   -12248   -12213 
  -12147   -12056   -11981   -11989   -12170   -12510   -12877   -13158 
  -13348   -13524   -13729   -13956   -14166   -14272   -14189   -13964 
  -13694   -13406   -13124   -12876   -12658   -12460   -12316   -12240 
  -12201   -12154   -12059   -11909   -11759   -11668   -11620   -11578 
  -11538   -11480   -11362   -11191   -10979   -10697   -10372   -10111 
   -9980    -9988   -10131   -10365   -10597   -10773   -10891   -10930 
  -10879   -10809   -10779   -10779   -10817   -10899   -10937   -10854 
  -10692   -10517   -10336   -10161   -10038    -9969    -9933    -9973 
  -10126   -10307   -10447   -10547   -10586   -10596   -10678   -10852 
  -11088   -11384   -11709   -11996   -12206   -12352   -12432   -12409 
  -12307   -12212   -12160   -12172   -12274   -12410   -12505   -12556 
  -12564   -12464   -12222   -11871   -11457   -11022   -10655   -10434 
  -10349   -10389   -10551   -10766   -10947   -11086   -11171   -11161 
  -11079   -10963   -10806   -10624   -10511   -10566   -10808   -11196 
  -11647   -12048   -12375   -12652   -12841   -12895   -12864   -12804 
  -12739   -12722   -12761   -12791   -12781   -12757   -12702   -12576 
  -12371   -12108   -11863   -11734   -11750   -11885   -12097   -12352 
  -12627   -12870   -13007   -12992   -12829   -12552   -12220   -11884 
  -11520   -11106   -10686   -10296    -9923    -9585    -9296    -9027 
   -8750    -8456    -8116    -7726    -7380    -7167    -7087    -7188 
   -7530    -8033    -8583    -9109    -9537    -9830    -9976    -9968 
   -9863    -9742    -9661    -9663    -9767    -9973   -10247   -10473 
  -10520   -10368   -10114    -9859    -9652    -9533    -9497    -9528 
   -9663    -9922   -10233   -10521   -10737   -10828   -10805   -10736 
  -10621   -10439   -10247   -10092    -9958    -9821    -9679    -9543 
   -9441    -9454    -9587    -9702    -9736    -9745    -9675    -9486 
   -9240    -8932    -8622    -8483    -8587    -8865    -9244    -9672 
  -10083   -10440   -10791   -11159   -11493   -11794   -12090   -12316 
  -12429   -12453   -12394   -12244   -12040   -11819   -11589   -11385 
  -11275   -11292   -11411   -11622   -11931   -12268   -12583   -12899 
  -13184   -13389   -13544   -13689   -13825   -13965   -14149   -14403 
  -14683   -14933   -15102   -15118   -14951   -14627   -14165   -13624 
  -13128   -12745   -12452   -12209   -11951   -11630   -11253   -10858 
  -10466   -10104    -9815    -9655    -9648    -9796   -10102   -10511 
  -10941   -11381   -11839   -12245   -12526   -12667   -12688   -12653 
  -12617   -12591   -12534   -12390   -12143   -11790   -11348   -10879 
  -10432   -10033    -9710    -9424    -9099    -8737    -8394    -8128 
   -7977    -7947    -8005    -8091    -8197    -8395    -8727    -9154 
   -9640   -10162   -10629   -10971   -11194   -11311   -11334   -11300 
  -11215   -11057   -10863   -10701   -10588   -10530   -10552   -10631 
  -10673   -10646   -10598   -10512   -10346   -10173   -10079   -10064 
  -10153   -10363   -10639   -10941   -11271   -11591   -11846   -12025 
  -12162   -12278   -12424   -12690   -13095   -13544   -13959   -14312 
  -14581   -14723   -14716   -14546   -14200   -13737   -13225   -12715 
  -12290   -12028   -11940   -11989   -12124   -12248   -12276   -12225 
  -12160   -12105   -12094   -12204   -12440   -12725   -13034   -13343 
  -13543   -13590   -13521   -13327   -13050   -12808   -12646   -12555 
  -12576   -12710   -12879   -13053   -13248   -13441   -13554   -13532 
  -13383   -13100   -12652   -12086   -11497   -10936   -10426    -9979 
   -9589    -9271    -9069    -8993    -8976    -8961    -8934    -8833 
   -8619    -8370    -8114    -7840    -7636    -7570    -7597    -7688 
   -7823    -7924    -7950    -7920    -7835    -7699    -7566    -7515 
   -7601    -7847    -8229    -8679    -9074    -9323    -9435    -9452 
   -9398    -9323    -9266    -9234    -9234    -9243    -9217    -9177 
   -9144    -9082    -8977    -8880    -8810    -8765    -8783    -8911 
   -9155    -9477    -9883   -10365   -10793   -11057   -11128   -10945 
  -10511    -9953    -9417    -8997    -8772    -8765    -8915    -9150 
   -9420    -9660    -9815    -9879    -9883    -9929   -10149   -10596 
  -11236   -12017   -12879   -13720   -14445   -15034   -15516   -15867 
  -16035   -16046   -15998   -15917   -15786   -15647   -15526   -15394 
  -15222   -14959   -14574   -14112   -13648   -13242   -12951   -12818 
  -12838   -12945   -13084   -13275   -13473   -13594   -13714   -13905 
  -14103   -14326   -14629   -14943   -15202   -15419   -15557   -15570 
  -15502   -15404   -15302   -15221   -15199   -15241   -15292   -15303 
  -15242   -15059   -14742   -14384   -14044   -13717   -13427   -13190 
  -12997   -12856   -12768   -12698   -12604   -12449   -12170   -11732 
  -11202   -10694   -10297   -10052    -9965   -10039   -10210   -10384 
  -10512   -10547   -10471   -10303   -10054    -9809    -9714    -9784 
   -9915   -10045   -10143   -10184   -10191   -10195   -10183   -10115 
  -10014    -9964    -9998   -10115   -10343   -10642   -10901   -11036 
  -10998   -10725   -10238    -9653    -9076    -8564    -8182    -7960 
   -7882    -7894    -7946    -7978    -7935    -7844    -7758    -7646 
   -7499    -7384    -7302    -7214    -7132    -7032    -6851    -6616 
   -6408    -6276    -6277    -6455    -6799    -7319    -7986    -8685 
   -9286    -9698    -9926   -10053   -10120   -10166   -10253   -10368 
  -10470   -10559   -10606   -10574   -10465   -10269    -9968    -9601 
   -9263    -9051    -9020    -9182    -9495    -9894   -10324   -10747 
  -11124   -11434   -11668   -11855   -12012   -12141   -12289   -12448 
  -12568   -12634   -12636   -12555   -12413   -12222   -12023   -11915 
  -11962   -12141   -12422   -12815   -13327   -13856   -14257   -14489 
  -14538   -14401   -14229   -14168   -14199   -14303   -14482   -14662 
  -14767   -14756   -14585   -14272   -13906   -13595   -13410   -13394 
  -13563   -13851   -14122   -14327   -14470   -14463   -14274   -14004 
  -13729   -13504   -13420   -13475   -13559   -13613   -13632   -13558 
  -13335   -12997   -12623   -12253   -11924   -11677   -11511   -11406 
  -11364   -11361   -11333   -11225   -11025   -10770   -10520   -10342 
  -10254   -10197   -10164   -10193   -10273   -10358   -10408   -10372 
  -10235   -10035    -9780    -9458    -9109    -8833    -8669    -8573 
   -8522    -8500    -8455    -8365    -8235    -8037    -7792    -7543 
   -7317    -7149    -7096    -7165    -7249    -7226    -7099    -6918 
   -6723    -6594    -6604    -6754    -7026    -7380    -7754    -8109 
   -8433    -8699    -8870    -8950    -9028    -9217    -9580   -10114 
  -10700   -11178   -11507   -11723   -11830   -11827   -11747   -11643 
  -11535   -11429   -11330   -11210   -11038   -10858   -10686   -10490 
  -10322   -10282   -10386   -10608   -10937   -11318   -11661   -11935 
  -12162   -12363   -12564   -12816   -13115   -13406   -13716   -14104 
  -14540   -14964   -15342   -15612   -15749   -15811   -15822   -15708 
  -15488   -15226   -14894   -14497   -14145   -13887   -13741   -13741 
  -13798   -13810   -13826   -13919   -14045   -14131   -14175   -14238 
  -14359   -14505   -14679   -14906   -15080   -15088   -14904   -14508 
  -13980   -13467   -13046   -12735   -12525   -12374   -12231   -12078 
  -11900   -11631   -11288   -10976   -10713   -10474   -10296   -10191 
  -10077    -9867    -9560    -9205    -8804    -8410    -8087    -7793 
   -7499    -7261    -7044    -6768    -6463    -6188    -5941    -5729 
   -5616    -5625    -5725    -5888    -6122    -6388    -6632    -6874 
   -7096    -7211    -7246    -7299    -7364    -7406    -7452    -7500 
   -7528    -7599    -7762    -7946    -8112    -8302    -8521    -8748 
   -8980    -9181    -9324    -9451    -9629    -9857   -10075   -10247 
  -10378   -10486   -10616   -10808   -11052   -11331   -11649   -11994 
  -12334   -12656   -12973   -13257   -13452   -13583   -13691   -13791 
  -13910   -14077   -14272   -14494   -14746   -14909   -14885   -14729 
  -14500   -14223   -13995   -13849   -13701   -13518   -13343   -13180 
  -12987   -12721   -12406   -12078   -11751   -11514   -11461   -11556 
  -11772   -12108   -12460   -12710   -12856   -12974   -13111   -13250 
  -13381   -13521   -13645   -13699   -13657   -13466   -13072   -12545 
  -12008   -11492   -11044   -10762   -10650   -10636   -10701   -10822 
  -10926   -10999   -11071   -11118   -11117   -11101   -11059   -10948 
  -10766   -10548   -10311   -10081    -9953    -9972   -10068   -10204 
  -10378   -10536   -10693   -10918   -11180   -11404   -11593   -11777 
  -11911   -11970   -12008   -12052   -12077   -12097   -12156   -12217 
  -12247   -12278   -12280   -12195   -12037   -11863   -11715   -11627 
  -11622   -11704   -11823   -11940   -12096   -12275   -12413   -12514 
  -12617   -12664   -12587   -12409   -12167   -11836   -11458   -11142 
  -10889   -10647   -10451   -10311   -10142    -9926    -9755    -9653 
   -9575    -9559    -9653    -9778    -9914   -10158   -10477   -10736 
  -10924   -11034   -10990   -10812   -10598   -10376   -10146    -9972 
   -9886    -9838    -9786    -9763    -9737    -9637    -9558    -9593 
   -9643    -9678    -9790    -9972   -10146   -10301   -10457   -10557 
  -10578   -10609   -10655   -10642   -10605   -10609   -10612   -10644 
  -10795   -11010   -11205   -11433   -11723   -11967   -12110   -12183 
  -12162   -12020   -11859   -11759   -11699   -11682   -11788   -11979 
  -12131   -12245   -12379   -12433   -12382   -12349   -12333   -12267 
  -12210   -12214   -12218   -12209   -12224   -12252   -12268   -12301 
  -12353   -12333   -12190   -11988   -11758   -11495   -11248   -11037 
  -10805   -10536   -10280   -10048    -9828    -9652    -9560    -9521 
   -9444    -9340    -9274    -9274    -9397    -9663    -9968   -10238 
  -10478   -10690   -10903   -11128   -11344   -11557   -11762   -11954 
  -12159   -12356   -12495   -12579   -12591   -12483   -12294   -12104 
  -11940   -11839   -11871   -12035   -12244   -12430   -12582   -12656 
  -12613   -12490   -12344   -12177   -12005   -11900   -11886   -11943 
  -12056   -12189   -12259   -12249   -12244   -12287   -12322   -12337 
  -12380   -12463   -12575   -12726   -12872   -12910   -12816   -12676 
  -12525   -12368   -12310   -12383   -12474   -12536   -12587   -12532 
  -12272   -11904   -11551   -11203   -10864   -10598   -10357   -10081 
   -9850    -9690    -9477    -9180    -8884    -8583    -8230    -7923 
   -7759    -7665    -7587    -7576    -7570    -7437    -7203    -6949 
   -6644    -6313    -6073    -5934    -5865    -5938    -6177    -6444 
   -6640    -6790    -6878    -6858    -6828    -6914    -7082    -7314 
   -7688    -8171    -8631    -9045    -9417    -9676    -9845   -10031 
  -10228   -10369   -10527   -10778   -11055   -11290   -11492   -11653 
  -11740   -11770   -11804   -11834   -11844   -11917   -12097   -12330 
  -12636   -13058   -13505   -13903   -14288   -14639   -14902   -15076 
  -15153   -15142   -15086   -14986   -14852   -14727   -14596   -14436 
  -14297   -14175   -14041   -13942   -13859   -13733   -13605   -13548 
  -13575   -13647   -13722   -13760   -13710   -13568   -13390   -13198 
  -12951   -12668   -12424   -12199   -11951   -11735   -11561   -11352 
  -11114   -10910   -10705   -10493   -10397   -10453   -10584   -10798 
  -11128   -11458   -11712   -11939   -12100   -12082   -11954   -11843 
  -11727   -11587   -11499   -11450   -11373   -11337   -11389   -11434 
  -11419   -11411   -11442   -11484   -11565   -11722   -11888   -12016 
  -12175   -12371   -12514   -12625   -12766   -12858   -12842   -12799 
  -12739   -12606   -12445   -12307   -12135   -11936   -11835   -11850 
  -11870   -11905   -12042   -12226   -12394   -12609   -12854   -13019 
  -13130   -13224   -13192   -13007   -12772   -12502   -12163   -11821 
  -11527   -11221   -10881   -10569   -10280    -9945    -9578    -9263 
   -9011    -8784    -8604    -8480    -8343    -8185    -8047    -7894 
   -7682    -7469    -7294    -7141    -7047    -7033    -7082    -7186 
   -7337    -7518    -7693    -7823    -7948    -8116    -8306    -8526 
   -8804    -9096    -9335    -9508    -9614    -9649    -9628    -9602 
   -9630    -9699    -9786    -9911   -10060   -10168   -10243   -10305 
  -10320   -10305   -10347   -10484   -10678   -10914   -11207   -11503 
  -11724   -11885   -11996   -12005   -11971   -12006   -12073   -12124 
  -12247   -12445   -12600   -12699   -12803   -12876   -12868   -12837 
  -12830   -12819   -12820   -12908   -13073   -13217   -13335   -13497 
  -13662   -13763   -13833   -13851   -13749   -13608   -13547   -13547 
  -13549   -13559   -13547   -13463   -13343   -13242   -13107   -12895 
  -12663   -12425   -12171   -11917   -11677   -11461   -11276   -11094 
  -10889   -10673   -10444   -10228   -10060    -9936    -9844    -9788 
   -9755    -9694    -9583    -9450    -9352    -9302    -9255    -9216 
   -9227    -9267    -9325    -9445    -9606    -9753    -9903   -10083 
  -10251   -10372   -10461   -10511   -10484   -10419   -10363   -10282 
  -10170   -10114   -10135   -10180   -10231   -10278   -10287   -10242 
  -10149   -10035    -9930    -9838    -9784    -9791    -9813    -9834 
   -9886    -9950   -10000   -10033   -10048   -10089   -10179   -10250 
  -10319   -10434   -10548   -10642   -10754   -10867   -10957   -11038 
