Origin Time       2025/01/13 21:19:00
Lat.              31.8
Long.             131.6
Depth. (km)       30
Mag.              6.9
Station Code      KMM022
Station Lat.      32.1945
Station Long.     130.0270
Station Height(m) 3
Record Time       2025/01/13 21:20:10
Sampling Freq(Hz) 100Hz
Duration Time(s)  89
Dir.              E-W
Scale Factor      7845(gal)/8223790
Max. Acc. (gal)   3.470
Last Correction   2025/01/13 21:20:10
Memo.             
[...]
    5902     5827     5745     5660     5545     5400     5269     5175 
    5107     5040     4973     4914     4878     4857     4831     4808 
    4803     4834     4884     4927     4966     5000     5007     4985 
    4951     4901     4814     4673     4504     4342     4239     4217 
    4263     4364     4534     4754     4972     5143     5267     5363 
    5448     5541     5655     5782     5914     6046     6146     6201 
    6232     6254     6269     6273     6255     6212     6139     6033 
    5896     5742     5575     5394     5197     5009     4881     4837 
    4847     4880     4931     5019     5147     5294     5429     5521 
    5560     5566     5559     5539     5513     5520     5579     5659 
    5725     5769     5780     5719     5594     5464     5378     5323 
    5278     5263     5289     5337     5367     5344     5273     5185 
    5090     4988     4881     4781     4698     4645     4634     4656 
    4703     4784     4909     5054     5175     5267     5337     5354 
    5271     5098     4899     4718     4556     4407     4287     4209 
    4187     4210     4252     4307     4375     4430     4472     4527 
    4617     4754     4922     5080     5201     5286     5337     5366 
    5395     5451     5533     5610     5647     5655     5656     5618 
    5481     5267     5059     4895     4768     4692     4722     4873 
    5089     5302     5503     5728     5984     6251     6484     6644 
    6732     6770     6775     6740     6671     6594     6507     6393 
    6266     6127     5958     5760     5556     5397     5336     5385 
    5510     5665     5830     6004     6169     6299     6377     6384 
    6313     6216     6149     6102     6043     5987     5952     5883 
    5721     5481     5243     5084     5013     4990     4985     4993 
    5016     5047     5084     5140     5256     5437     5647     5860 
    6062     6227     6354     6457     6565     6713     6921     7153 
    7348     7479     7558     7589     7555     7441     7257     7034 
    6804     6577     6332     6054     5756     5455     5171     4936 
    4788     4757     4827     4947     5081     5208     5312     5381 
    5406     5408     5445     5533     5610     5629     5602     5551 
    5487     5410     5329     5271     5271     5336     5429     5506 
    5557     5597     5643     5706     5773     5813     5814     5775 
    5670     5483     5238     4968     4693     4428     4199     4040 
    3948     3904     3896     3904     3915     3951     4017     4101 
    4206     4347     4525     4747     5038     5401     5795     6156 
    6450     6682     6853     6956     6978     6912     6768     6561 
    6300     6031     5784     5559     5335     5107     4887     4711 
    4592     4513     4473     4496     4594     4750     4951     5216 
    5545     5886     6173     6382     6517     6577     6540     6420 
    6268     6097     5902     5711     5557     5418     5250     5061 
    4905     4828     4826     4877     4984     5159     5389     5628 
    5836     6016     6187     6327     6408     6424     6388     6311 
    6207     6099     6012     5948     5871     5749     5605     5467 
    5340     5201     5034     4839     4623     4402     4197     4018 
    3851     3689     3539     3415     3348     3349     3375     3385 
    3388     3383     3348     3279     3194     3107     3024     2948 
    2902     2906     2967     3065     3154     3213     3256     3304 
    3380     3499     3645     3801     3963     4141     4329     4494 
    4617     4702     4756     4776     4781     4810     4874     4953 
    5013     5065     5139     5254     5400     5586     5822     6095 
    6382     6663     6929     7180     7389     7526     7600     7626 
    7604     7533     7404     7233     7071     6956     6887     6843 
    6804     6759     6686     6558     6366     6141     5925     5745 
    5603     5498     5418     5336     5227     5085     4926     4769 
    4617     4455     4293     4156     4056     3970     3867     3734 
    3597     3520     3528     3609     3755     3973     4249     4552 
    4854     5152     5458     5769     6077     6377     6677     6967 
    7213     7385     7504     7618     7742     7839     7865     7821 
    7720     7543     7257     6858     6381     5887     5397     4918 
    4494     4183     3991     3889     3867     3946     4120     4352 
    4584     4773     4911     5032     5158     5256     5320     5378 
    5427     5439     5421     5405     5398     5386     5362     5341 
    5335     5328     5312     5285     5246     5196     5154     5127 
    5092     5023     4912     4766     4590     4388     4194     4039 
    3925     3856     3829     3850     3947     4136     4403     4723 
    5078     5455     5829     6191     6546     6913     7281     7612 
    7879     8093     8267     8388     8422     8353     8191     7944 
    7627     7277     6948     6677     6465     6292     6170     6107 
    6069     6029     5984     5967     6012     6111     6241     6396 
    6562     6712     6821     6883     6910     6924     6924     6897 
    6839     6750     6628     6470     6276     6073     5881     5707 
    5560     5452     5391     5371     5379     5412     5460     5520 
    5575     5618     5653     5679     5697     5719     5761     5829 
    5908     5989     6056     6093     6097     6064     5981     5853 
    5684     5470     5219     4968     4754     4580     4425     4284 
    4168     4094     4097     4168     4271     4411     4591     4750 
    4862     4959     5059     5151     5239     5347     5481     5620 
    5753     5875     5948     5956     5911     5829     5717     5594 
    5478     5370     5274     5198     5140     5085     5019     4919 
    4777     4626     4492     4391     4328     4299     4320     4395 
    4499     4615     4738     4849     4954     5055     5119     5123 
    5084     5024     4951     4854     4729     4577     4406     4226 
    4033     3817     3605     3434     3312     3254     3292     3453 
    3719     4059     4449     4872     5279     5647     5958     6195 
    6349     6439     6471     6446     6367     6253     6103     5906 
    5679     5470     5310     5202     5120     5051     5019     5032 
    5080     5143     5227     5339     5486     5672     5873     6062 
    6232     6396     6562     6721     6851     6941     6979     6948 
    6844     6662     6400     6062     5651     5178     4676     4201 
    3792     3451     3191     3040     3036     3188     3460     3809 
    4214     4658     5119     5563     5956     6274     6523     6698 
    6751     6694     6577     6404     6180     5913     5603     5274 
    4931     4575     4205     3836     3496     3192     2918     2690 
    2547     2519     2610     2820     3148     3584     4095     4642 
    5182     5686     6120     6447     6648     6739     6725     6608 
    6381     6054     5652     5215     4777     4371     4028     3792 
    3686     3724     3909     4212     4584     4978     5358     5713 
    6037     6318     6555     6758     6909     6991     7005     6959 
    6853     6697     6492     6245     5998     5796     5653     5570 
    5560     5637     5787     5977     6203     6465     6732     6970 
    7150     7279     7365     7391     7329     7183     6984     6764 
    6544     6338     6146     5968     5800     5640     5489     5350 
    5198     5023     4842     4680     4544     4423     4314     4240 
    4229     4268     4340     4452     4608     4788     4969     5131 
    5255     5332     5352     5305     5208     5084     4946     4806 
    4677     4572     4504     4467     4444     4440     4473     4560 
    4693     4868     5077     5305     5522     5705     5857     5987 
    6075     6108     6096     6045     5954     5825     5663     5501 
    5371     5279     5224     5206     5235     5313     5432     5557 
    5667     5759     5832     5886     5934     5967     5967     5941 
    5904     5860     5798     5719     5638     5568     5508     5460 
    5448     5466     5476     5460     5425     5382     5329     5250 
    5136     4993     4833     4660     4503     4402     4371     4410 
    4519     4702     4931     5162     5374     5555     5684     5756 
    5778     5776     5780     5800     5825     5827     5806     5788 
    5783     5765     5710     5618     5501     5358     5184     4978 
    4777     4621     4515     4445     4410     4432     4529     4685 
    4874     5088     5331     5591     5841     6052     6214     6336 
    6423     6455     6434     6399     6377     6365     6362     6355 
    6336     6319     6307     6273     6218     6153     6092     6048 
    6015     5988     5991     6048     6158     6296     6428     6552 
    6678     6802     6902     6957     6963     6910     6777     6558 
    6274     5941     5568     5179     4791     4422     4097     3802 
    3531     3316     3190     3152     3206     3354     3581     3878 
    4222     4588     4959     5328     5695     6070     6447     6812 
    7149     7429     7612     7677     7631     7483     7234     6899 
    6519     6145     5809     5502     5220     4962     4735     4541 
    4384     4283     4249     4264     4306     4357     4407     4463 
    4536     4627     4723     4810     4881     4938     4988     5036 
    5084     5123     5152     5174     5171     5128     5036     4899 
    4720     4522     4330     4164     4036     3959     3948     4035 
    4240     4549     4939     5397     5908     6432     6921     7354 
    7719     7994     8172     8256     8248     8170     8067     7956 
    7821     7646     7442     7223     6968     6679     6392     6129 
    5898     5697     5521     5374     5247     5139     5063     5007 
    4954     4904     4855     4808     4764     4706     4622     4529 
    4455     4387     4302     4217     4140     4048     3944     3859 
    3797     3748     3704     3666     3646     3670     3739     3824 
    3927     4062     4222     4391     4557     4730     4909     5082 
    5233     5355     5441     5498     5521     5521     5530     5563 
    5606     5659     5732     5830     5950     6072     6180     6270 
    6340     6372     6343     6254     6123     5960     5778     5594 
    5427     5292     5200     5162     5188     5267     5393     5557 
    5749     5961     6176     6372     6532     6652     6733     6779 
    6778     6727     6640     6521     6355     6146     5908     5636 
    5337     5059     4842     4695     4622     4614     4657     4750 
    4873     4988     5080     5143     5157     5100     5001     4884 
    4741     4585     4422     4264     4148     4079     4037     4014 
    4006     4005     4001     3996     4001     4028     4072     4118 
    4164     4233     4337     4449     4558     4666     4760     4828 
    4870     4881     4861     4818     4745     4645     4521     4376 
    4212     4054     3921     3828     3789     3807     3892     4048 
    4255     4483     4727     4982     5215     5391     5508     5562 
    5544     5456     5304     5116     4920     4720     4525     4356 
    4245     4214     4263     4374     4542     4770     5040     5329 
    5625     5918     6191     6438     6654     6833     6982     7103 
    7182     7207     7192     7132     6999     6781     6490     6151 
    5799     5476     5212     5019     4912     4884     4926     5057 
    5275     5564     5904     6273     6632     6956     7215     7377 
    7445     7435     7354     7219     7061     6899     6743     6600 
    6475     6381     6315     6277     6274     6301     6326     6318 
    6276     6208     6129     6054     5987     5937     5910     5913 
    5957     6052     6193     6369     6536     6648     6687     6631 
    6475     6243     5962     5678     5421     5212     5061     4962 
    4899     4876     4893     4941     5008     5096     5206     5331 
    5460     5574     5645     5671     5659     5606     5509     5379 
    5209     4990     4734     4461     4201     3979     3824     3755 
    3788     3916     4113     4345     4595     4853     5116     5379 
    5625     5859     6092     6318     6523     6690     6804     6858 
    6851     6779     6667     6542     6404     6254     6100     5946 
    5810     5694     5589     5497     5432     5406     5425     5474 
    5544     5638     5742     5849     5965     6087     6208     6315 
    6385     6411     6419     6417     6388     6307     6180     6029 
    5880     5753     5660     5605     5590     5609     5656     5721 
    5776     5811     5842     5864     5884     5914     5945     5979 
    6012     6034     6038     6018     5975     5910     5822     5718 
    5602     5482     5364     5254     5155     5078     5016     4969 
    4928     4889     4851     4807     4752     4700     4658     4618 
    4588     4568     4531     4473     4411     4352     4302     4272 
    4268     4299     4372     4486     4629     4784     4932     5061 
    5161     5231     5283     5323     5337     5331     5312     5292 
    5281     5292     5328     5377     5425     5476     5525     5564 
    5599     5643     5701     5783     5907     6068     6251     6443 
    6613     6727     6766     6725     6605     6408     6157     5852 
    5490     5090     4675     4240     3788     3325     2871     2461 
    2120     1885     1780     1800     1925     2128     2393     2712 
    3086     3512     3991     4527     5103     5674     6208     6689 
    7082     7354     7491     7485     7341     7078     6713     6265 
    5755     5211     4665     4152     3705     3354     3118     2987 
    2951     3011     3165     3396     3689     4017     4365     4720 
    5061     5379     5679     5954     6200     6419     6610     6778 
    6920     7034     7118     7148     7102     6971     6748     6448 
    6112     5764     5428     5132     4891     4711     4599     4548 
    4545     4590     4676     4797     4936     5080     5232     5398 
    5560     5711     5852     5981     6110     6237     6363     6485 
    6598     6720     6847     6976     7122     7287     7473     7670 
    7867     8059     8237     8387     8482     8490     8401     8205 
    7900     7493     6995     6432     5842     5250     4671     4129 
    3650     3254     2953     2747     2629     2594     2643     2782 
    3017     3350     3785     4297     4854     5418     5937     6374 
    6702     6905     6978     6934     6805     6624     6411     6181 
    5960     5757     5575     5405     5233     5061     4891     4731 
    4587     4456     4352     4297     4301     4349     4433     4540 
    4661     4793     4918     5024     5136     5275     5459     5686 
    5940     6201     6443     6659     6867     7068     7245     7403 
    7547     7665     7730     7744     7711     7608     7418     7140 
    6783     6374     5956     5557     5215     4973     4831     4774 
    4807     4927     5115     5351     5624     5927     6257     6604 
    6943     7229     7441     7572     7599     7504     7296     6998 
    6636     6238     5832     5444     5088     4770     4504     4278 
    4085     3940     3847     3785     3736     3704     3712     3767 
    3858     3998     4185     4392     4618     4847     5058     5243 
    5389     5482     5509     5479     5413     5312     5197     5093 
    5011     4955     4914     4857     4779     4679     4552     4410 
    4295     4245     4270     4359     4502     4688     4895     5093 
    5263     5389     5463     5494     5472     5391     5258     5080 
    4866     4627     4384     4170     4010     3920     3902     3966 
    4109     4320     4579     4858     5147     5448     5757     6050 
    6293     6466     6547     6519     6396     6196     5937     5648 
    5352     5057     4756     4455     4185     3962     3789     3678 
    3639     3659     3713     3784     3863     3946     4025     4104 
    4194     4317     4473     4646     4816     4972     5103     5216 
    5324     5428     5530     5638     5740     5827     5919     6018 
    6118     6227     6358     6509     6671     6826     6949     7026 
    7059     7041     6982     6897     6808     6740     6705     6696 
    6710     6747     6786     6802     6785     6720     6596     6417 
    6189     5906     5587     5263     4942     4635     4365     4148 
    3996     3919     3915     3985     4141     4378     4673     5017 
    5410     5842     6284     6693     7032     7271     7388     7383 
    7263     7045     6762     6440     6100     5744     5379     5028 
    4715     4453     4260     4167     4199     4365     4652     5043 
    5516     6033     6566     7094     7582     7998     8310     8484 
    8498     8356     8085     7708     7268     6809     6362     5929 
    5524     5165     4846     4580     4387     4268     4225     4270 
    4401     4598     4854     5167     5514     5864     6205     6502 
    6721     6859     6906     6852     6712     6497     6220     5898 
    5535     5150     4770     4428     4145     3944     3848     3869 
    3985     4178     4423     4695     4962     5196     5375     5487 
    5521     5471     5343     5155     4931     4699     4476     4276 
    4112     3996     3932     3916     3951     4040     4180     4374 
    4629     4943     5308     5705     6099     6461     6767     7005 
    7172     7275     7321     7323     7300     7257     7172     7028 
    6812     6520     6176     5814     5464     5155     4895     4693 
    4558     4488     4484     4542     4660     4834     5057     5320 
    5616     5919     6210     6461     6637     6731     6764     6759 
    6723     6673     6620     6563     6498     6421     6320     6184 
    6016     5822     5609     5401     5224     5089     4995     4934 
    4904     4900     4908     4924     4936     4930     4905     4873 
    4828     4757     4665     4563     4442     4314     4193     4075 
    3966     3874     3792     3713     3642     3582     3538     3518 
    3527     3574     3669     3819     4027     4290     4588     4895 
    5200     5483     5721     5906     6025     6076     6068     6003 
    5892     5742     5562     5362     5150     4945     4772     4631 
    4525     4449     4387     4347     4332     4329     4341     4383 
    4471     4608     4799     5042     5323     5610     5868     6069 
    6200     6251     6224     6135     6018     5892     5753     5594 
    5410     5200     4958     4707     4476     4307     4236     4271 
    4402     4618     4882     5162     5440     5713     5981     6246 
    6502     6745     6963     7133     7236     7252     7179     7032 
    6825     6583     6336     6112     5925     5775     5657     5564 
    5495     5449     5412     5356     5274     5165     5023     4860 
    4707     4588     4522     4530     4626     4811     5076     5386 
    5706     6010     6274     6490     6658     6777     6859     6930 
    7003     7075     7142     7191     7199     7165     7099     6999 
    6856     6675     6462     6214     5935     5638     5341     5059 
    4810     4604     4448     4348     4306     4301     4302     4302 
