Origin Time       2025/01/13 21:19:00
Lat.              31.8
Long.             131.6
Depth. (km)       30
Mag.              6.9
Station Code      KMM012
Station Lat.      32.5099
Station Long.     130.5908
Station Height(m) 2
Record Time       2025/01/13 21:19:54
Sampling Freq(Hz) 100Hz
Duration Time(s)  151
Dir.              N-S
Scale Factor      7845(gal)/8223790
Max. Acc. (gal)   14.616
Last Correction   2025/01/13 21:19:54
Memo.             
[...]
    3372     3318     3235     3194     3294     3620     4194     4914 
    5586     6079     6382     6532     6588     6670     6913     7360 
    7923     8415     8629     8469     8051     7549     7056     6605 
    6200     5864     5694     5744     5911     6046     6072     6008 
    5873     5643     5348     5090     4868     4553     4122     3712 
    3426     3225     2963     2546     2118     1902     1925     2047 
    2168     2301     2504     2776     3071     3365     3680     4006 
    4291     4546     4870     5317     5822     6277     6617     6845 
    6994     7018     6814     6372     5857     5432     5112     4872 
    4735     4725     4841     5074     5379     5668     5890     6054 
    6207     6396     6642     6890     7068     7182     7281     7358 
    7323     7146     6925     6756     6682     6724     6840     6928 
    6956     6955     6880     6678     6359     5975     5659     5576 
    5725     5918     5989     5877     5579     5128     4585     4067 
    3721     3651     3840     4109     4251     4237     4167     4050 
    3790     3375     2891     2424     2065     1917     2003     2245 
    2506     2682     2732     2656     2438     2061     1572     1104 
     760      557      488      531      569      460      155     -297 
    -812    -1278    -1675    -2087    -2521    -2871    -3029    -2921 
   -2512    -1860    -1120     -490     -109       20       35       60 
     117      164      167      157      244      507      972     1636 
    2481     3454     4519     5678     6944     8330     9809    11308 
   12725    13957    14974    15817    16533    17112    17513    17717 
   17774    17752    17672    17536    17302    16893    16279    15533 
   14733    13899    13012    12054    10956     9616     8020     6253 
    4411     2620     1054     -118     -885    -1354    -1602    -1680 
   -1634    -1443    -1101     -697     -346      -64      184      413 
     670     1028     1486     2004     2554     3152     3862     4676 
    5502     6305     7123     7990     8932     9971    11072    12148 
   13122    13975    14700    15213    15429    15337    14901    14096 
   13011    11782    10501     9239     8029     6849     5659     4434 
    3177     1912      677     -480    -1468    -2223    -2754    -3092 
   -3291    -3384    -3357    -3219    -3002    -2689    -2269    -1777 
   -1237     -634       39      768     1512     2262     3046     3879 
    4792     5807     6875     7879     8742     9451     9975    10269 
   10378    10442    10578    10804    11034    11115    10903    10374 
    9603     8667     7585     6397     5235     4229     3418     2764 
    2170     1560      896      149     -650    -1444    -2242    -3055 
   -3847    -4533    -4965    -5003    -4635    -3987    -3148    -2111 
    -897      400     1665     2805     3771     4511     5004     5339 
    5644     6007     6443     6940     7551     8289     9004     9589 
   10087    10577    11060    11473    11711    11726    11576    11334 
   11038    10719    10365     9909     9312     8579     7701     6727 
    5771     4958     4368     3952     3565     3105     2573     2042 
    1613     1301     1015      712      449      290      291      448 
     646      797      939     1181     1566     1998     2397     2835 
    3369     3897     4264     4355     4132     3713     3318     3118 
    3161     3426     3862     4371     4824     5142     5335     5464 
    5525     5485     5368     5193     4949     4692     4561     4653 
    4978     5495     6110     6725     7290     7759     8098     8263 
    8212     7987     7658     7331     7195     7341     7724     8320 
    9069     9829    10509    11088    11529    11809    11920    11839 
   11577    11198    10773    10343     9911     9450     8926     8344 
    7782     7306     6860     6345     5751     5173     4738     4482 
    4288     4048     3735     3335     2901     2582     2455     2486 
    2658     2963     3397     3950     4569     5198     5798     6303 
    6643     6771     6670     6338     5790     5070     4239     3403 
    2736     2378     2363     2658     3206     3940     4777     5528 
    5934     5861     5367     4645     3921     3343     2965     2806 
    2820     2866     2763     2386     1752     1011      334     -216 
    -669    -1047    -1383    -1722    -2049    -2354    -2609    -2720 
   -2569    -2104    -1389     -534      413     1512     2812     4244 
    5641     6853     7777     8353     8656     8847     9040     9301 
    9643     9998    10276    10395    10308    10073     9784     9472 
    9093     8541     7793     6918     5941     4884     3858     2933 
    2143     1526     1015      496       14     -309     -438     -430 
    -378     -371     -464     -650     -855     -978     -951     -746 
    -342      275     1121     2177     3411     4765     6112     7352 
    8460     9383    10066    10540    10831    10935    10912    10859 
   10827    10777    10593    10150     9389     8368     7236     6114 
    5082     4240     3672     3407     3415     3642     4087     4804 
    5787     6910     7996     8922     9626    10064    10233    10154 
    9834     9333     8787     8266     7776     7371     7122     7080 
    7241     7531     7813     7962     7932     7770     7561     7412 
    7422     7611     7913     8197     8344     8332     8221     8089 
    7993     7942     7904     7859     7800     7697     7518     7210 
    6725     6057     5243     4347     3439     2559     1703      835 
     -44     -849    -1458    -1823    -1993    -2023    -1888    -1485 
    -751      265     1448     2628     3666     4552     5355     6143 
    6966     7838     8688     9366     9749     9815     9607     9192 
    8640     8051     7531     7156     6939     6801     6597     6251 
    5746     5090     4357     3677     3160     2867     2770     2783 
    2868     3060     3365     3703     3977     4158     4266     4317 
    4291     4171     3971     3708     3396     3071     2762     2486 
    2266     2103     1983     1868     1653     1225      527     -410 
   -1451    -2427    -3222    -3765    -4008    -3960    -3697    -3316 
   -2886    -2405    -1796    -1017     -160      633     1306     1876 
    2376     2848     3330     3873     4523     5289     6169     7159 
    8194     9219    10223    11145    11943    12648    13267    13791 
   14196    14432    14480    14327    13975    13470    12881    12232 
   11508    10737    10042     9548     9293     9202     9121     8877 
    8334     7433     6184     4635     2917     1254     -156    -1262 
   -2088    -2685    -3118    -3419    -3545    -3437    -3129    -2728 
   -2327    -1991    -1755    -1588    -1443    -1254     -945     -463 
     191      986     1860     2754     3642     4523     5389     6204 
    6951     7636     8248     8779     9248     9687    10120    10559 
   10978    11308    11464    11402    11190    10941    10719    10494 
   10224     9876     9437     8931     8374     7771     7159     6577 
    6050     5603     5274     5117     5161     5389     5784     6340 
    7059     7912     8829     9733    10581    11342    11977    12487 
   12908    13243    13475    13590    13560    13397    13138    12795 
   12383    11934    11483    11026    10489     9780     8869     7769 
    6523     5169     3715     2195      679     -753    -2046    -3149 
   -4040    -4725    -5178    -5329    -5131    -4654    -4098    -3638 
   -3337    -3229    -3295    -3435    -3558    -3591    -3464    -3183 
   -2810    -2369    -1841    -1204     -422      450     1231     1733 
    1910     1838     1624     1417     1347     1408     1525     1690 
    1958     2365     2889     3492     4145     4804     5431     5983 
    6419     6713     6844     6802     6608     6282     5838     5275 
    4637     4021     3520     3191     3037     3002     2968     2806 
    2463     1981     1459     1030      780      749      969     1413 
    2000     2695     3500     4401     5413     6539     7708     8851 
    9944    10929    11745    12367    12792    13008    13019    12876 
   12629    12297    11909    11535    11238    11045    10926    10862 
   10818    10725    10555    10350    10100     9776     9363     8831 
    8167     7408     6623     5898     5346     5044     4990     5121 
    5333     5495     5526     5422     5202     4907     4588     4276 
    3964     3630     3256     2833     2381     1931     1497     1105 
     788      541      341      203      147      163      257      454 
     762     1155     1621     2182     2820     3476     4129     4780 
    5412     6014     6570     7083     7574     8037     8407     8584 
    8500     8194     7771     7317     6868     6457     6116     5896 
    5845     5929     6025     6003     5829     5563     5296     5086 
    4954     4891     4892     4954     5038     5073     5044     4978 
    4907     4893     4984     5139     5297     5443     5551     5539 
    5319     4880     4298     3655     3019     2459     1996     1610 
    1325     1197     1220     1323     1445     1552     1597     1555 
    1433     1266     1125     1105     1254     1582     2070     2675 
    3356     4112     4982     6019     7223     8492     9679    10689 
   11502    12147    12658    13047    13297    13383    13308    13059 
   12590    11880    10978     9976     9008     8181     7528     7053 
    6771     6710     6806     6929     7001     6982     6835     6588 
    6293     5971     5648     5356     5131     4997     4916     4812 
    4614     4286     3816     3202     2496     1800     1161      546 
     -85     -734    -1367    -1944    -2465    -2921    -3279    -3541 
   -3743    -3892    -3990    -4040    -4006    -3823    -3411    -2756 
   -1890     -842      301     1441     2544     3607     4634     5628 
    6552     7398     8205     8995     9752    10430    10935    11183 
   11145    10854    10400     9888     9412     9024     8710     8409 
    8079     7746     7454     7211     6998     6799     6636     6523 
    6427     6312     6157     5933     5626     5263     4905     4649 
    4579     4729     5058     5449     5805     6068     6234     6358 
    6477     6596     6716     6785     6733     6539     6177     5633 
    4953     4195     3418     2708     2076     1467      895      390 
     -79     -502     -838    -1057    -1128    -1107    -1094    -1111 
   -1124    -1107     -988     -695     -232      367     1075     1879 
    2797     3850     5011     6205     7357     8376     9190     9791 
   10215    10494    10655    10746    10836    10964    11107    11207 
   11223    11156    11010    10791    10513    10188     9790     9308 
    8783     8245     7708     7188     6682     6176     5683     5188 
    4685     4214     3801     3478     3294     3237     3283     3383 
    3453     3445     3369     3252     3121     2980     2803     2601 
    2443     2398     2481     2674     2960     3306     3649     3927 
    4118     4236     4274     4253     4245     4310     4467     4691 
    4968     5296     5668     6114     6666     7257     7765     8121 
    8322     8374     8287     8097     7888     7786     7859     8085 
    8367     8552     8517     8222     7692     6982     6168     5347 
    4630     4093     3762     3596     3519     3507     3554     3646 
    3813     4054     4320     4600     4884     5161     5444     5721 
    5967     6174     6308     6346     6318     6262     6183     6056 
    5850     5553     5147     4653     4148     3692     3292     2952 
    2678     2465     2290     2112     1906     1665     1378     1057 
     741      413       63     -260     -535     -745     -876     -977 
   -1094    -1210    -1298    -1354    -1339    -1243    -1146    -1098 
   -1120    -1256    -1533    -1942    -2431    -2917    -3326    -3564 
   -3562    -3322    -2859    -2212    -1435     -557      392     1402 
    2478     3582     4665     5721     6756     7796     8853     9887 
   10878    11811    12644    13397    14108    14760    15333    15843 
   16298    16681    16973    17146    17167    17055    16842    16509 
   16028    15422    14696    13872    13024    12187    11376    10624 
    9919     9212     8476     7735     7045     6428     5891     5462 
    5131     4851     4565     4257     3948     3627     3326     3114 
    2956     2817     2709     2601     2497     2439     2382     2297 
    2214     2118     1979     1819     1679     1591     1640     1918 
    2430     3146     4060     5105     6158     7132     7954     8522 
    8770     8714     8421     7967     7441     6933     6465     6026 
    5624     5231     4818     4414     4056     3753     3523     3387 
    3318     3234     3049     2744     2338     1854     1323      758 
     194     -290     -626     -785     -754     -564     -303      -48 
     179      372      502      529      417      144     -290     -874 
   -1578    -2339    -3088    -3789    -4411    -4892    -5178    -5254 
   -5128    -4845    -4511    -4217    -3943    -3663    -3418    -3157 
   -2813    -2417    -1996    -1556    -1154     -842     -610     -411 
    -195       59      378      801     1385     2123     2992     4016 
    5178     6435     7771     9126    10431    11680    12847    13873 
   14756    15496    16055    16484    16910    17373    17863    18376 
   18889    19348    19732    20031    20221    20291    20241    20094 
   19874    19580    19240    18898    18551    18169    17740    17265 
   16761    16258    15755    15248    14750    14289    13883    13512 
   13126    12673    12118    11465    10763    10084     9486     8985 
    8548     8098     7592     7049     6471     5807     5054     4217 
    3275     2270     1304      429     -338     -963    -1406    -1663 
   -1745    -1686    -1551    -1370    -1138     -850     -488      -37 
     495     1093     1715     2290     2768     3064     3087     2830 
    2308     1587      822      110     -522    -1070    -1537    -1910 
   -2146    -2200    -2039    -1694    -1264     -797     -282      257 
     776     1224     1548     1734     1800     1764     1663     1533 
    1364     1139      872      526       40     -565    -1227    -1898 
   -2543    -3102    -3527    -3812    -3987    -4056    -4000    -3793 
   -3404    -2778    -1899     -832      346     1580     2791     3920 
    4951     5877     6697     7414     8001     8413     8607     8532 
    8201     7703     7092     6396     5663     4955     4325     3802 
    3379     3034     2793     2667     2614     2631     2740     2917 
    3159     3499     3893     4297     4738     5219     5683     6106 
    6497     6847     7157     7466     7770     8051     8334     8627 
    8954     9336     9698     9988    10233    10422    10573    10768 
   11003    11222    11433    11595    11654    11643    11570    11348 
   10970    10489     9877     9103     8203     7280     6416     5628 
    4941     4394     3932     3442     2880     2305     1804     1449 
    1296     1372     1686     2196     2830     3507     4148     4715 
    5211     5655     6077     6485     6862     7229     7622     8013 
    8390     8758     9094     9398     9725    10103    10539    11057 
   11666    12332    13007    13621    14085    14331    14365    14216 
   13894    13408    12781    12017    11136    10189     9229     8262 
    7273     6315     5451     4683     4006     3423     2870     2272 
    1642     1028      475       13     -388     -758    -1046    -1217 
   -1279    -1225    -1048     -751     -346      145      747     1478 
    2293     3161     4081     4981     5792     6485     7014     7341 
    7452     7323     6979     6482     5876     5217     4568     3946 
    3335     2725     2150     1618     1074      514       -5     -456 
    -859    -1244    -1607    -1917    -2133    -2215    -2135    -1860 
   -1327     -510      534     1682     2772     3681     4344     4693 
    4681     4355     3782     3017     2142     1228      319     -537 
   -1302    -1931    -2365    -2575    -2574    -2378    -2039    -1610 
   -1084     -472      168      788     1343     1845     2323     2749 
    3088     3342     3539     3715     3897     4104     4355     4650 
    4958     5263     5572     5868     6124     6349     6542     6724 
    6930     7156     7380     7618     7886     8160     8461     8829 
    9220     9612    10021    10423    10820    11203    11508    11711 
   11840    11917    11947    11943    11888    11747    11510    11132 
   10589     9949     9297     8704     8262     7983     7807     7701 
    7651     7604     7530     7437     7302     7082     6790     6462 
    6120     5815     5566     5359     5224     5202     5278     5437 
    5695     6029     6430     6930     7495     8063     8604     9076 
    9440     9656     9668     9486     9157     8683     8083     7420 
    6766     6181     5687     5283     4973     4734     4550     4410 
    4309     4230     4163     4091     3967     3730     3373     2922 
    2427     1952     1539     1215     1003      905      934     1098 
    1360     1661     1969     2251     2486     2713     2986     3312 
    3685     4081     4467     4837     5179     5517     5919     6411 
    6982     7632     8309     8934     9455     9802     9931     9845 
    9533     8997     8295     7465     6470     5309     4052     2781 
    1563      491     -359     -980    -1410    -1696    -1856    -1883 
   -1788    -1584    -1277     -907     -510     -112      252      585 
     918     1259     1620     2010     2401     2770     3107     3410 
    3681     3920     4143     4388     4665     4954     5259     5560 
    5822     6048     6251     6438     6600     6696     6686     6593 
    6444     6245     5988     5665     5289     4889     4499     4141 
    3811     3483     3132     2740     2311     1827     1282      704 
     140     -356     -695     -795     -626     -232      301      918 
    1599     2304     2971     3582     4171     4742     5296     5895 
    6550     7213     7854     8434     8922     9328     9674    10007 
   10377    10744    11083    11425    11734    11975    12186    12387 
   12569    12731    12846    12853    12704    12386    11886    11210 
   10366     9383     8324     7244     6192     5211     4303     3453 
    2660     1911     1223      664      251      -37     -214     -309 
    -340     -325     -275     -198     -117      -81     -125     -234 
    -348     -418     -386     -201      144      638     1278     2056 
    2907     3730     4465     5113     5668     6147     6581     7021 
    7504     8014     8538     9074     9571     9965    10268    10501 
   10665    10777    10872    10971    11074    11157    11191    11157 
   11037    10841    10617    10412    10242    10098     9954     9772 
    9506     9155     8748     8284     7786     7271     6747     6274 
    5864     5491     5175     4874     4550     4252     3981     3708 
    3470     3315     3230     3190     3188     3222     3279     3311 
    3298     3308     3376     3483     3662     3964     4357     4772 
    5170     5548     5918     6282     6659     7084     7535     7935 
