Origin Time       2025/01/13 21:19:00
Lat.              31.8
Long.             131.6
Depth. (km)       30
Mag.              6.9
Station Code      KMM001
Station Lat.      33.1211
Station Long.     131.0689
Station Height(m) 430
Record Time       2025/01/13 21:19:58
Sampling Freq(Hz) 100Hz
Duration Time(s)  122
Dir.              U-D
Scale Factor      7845(gal)/8223790
Max. Acc. (gal)   6.940
Last Correction   2025/01/13 21:19:58
Memo.             
[...]
  -11367   -11504   -11730   -11902   -12002   -12147   -12386   -12600 
  -12723   -12834   -12974   -13063   -13022   -12918   -12889   -12877 
  -12676   -12295   -11939   -11662   -11318   -10929   -10731   -10781 
  -10890   -10932   -11049   -11376   -11682   -11695   -11587   -11635 
  -11751   -11696   -11457   -11253   -11237   -11306   -11375   -11561 
  -11911   -12318   -12673   -12918   -13057   -13150   -13178   -13065 
  -12869   -12708   -12575   -12428   -12279   -12177   -12147   -12158 
  -12158   -12135   -12120   -12135   -12124   -12086   -12131   -12272 
  -12349   -12233   -12059   -11955   -11746   -11388   -11094   -10908 
  -10833   -10836   -10805   -10863   -11021   -11053   -11009   -11061 
  -11194   -11342   -11450   -11538   -11654   -11716   -11666   -11565 
  -11461   -11388   -11383   -11429   -11468   -11464   -11433   -11346 
  -11196   -11030   -10840   -10628   -10481   -10399   -10304   -10131 
   -9914    -9799    -9772    -9714    -9688    -9832   -10147   -10542 
  -10945   -11352   -11715   -11932   -11981   -11952   -11958   -12025 
  -12116   -12243   -12447   -12650   -12756   -12788   -12802   -12822 
  -12827   -12796   -12787   -12839   -12914   -12989   -13073   -13088 
  -12926   -12641   -12390   -12190   -11909   -11489   -11047   -10712 
  -10451   -10189    -9998    -9976   -10077   -10176   -10233   -10326 
  -10490   -10621   -10655   -10731   -10951   -11175   -11299   -11476 
  -11788   -12073   -12236   -12376   -12559   -12694   -12715   -12710 
  -12777   -12879   -12951   -13000   -13038   -13070   -13080   -13030 
  -12943   -12892   -12887   -12874   -12823   -12766   -12729   -12663 
  -12542   -12429   -12357   -12307   -12255   -12228   -12280   -12371 
  -12421   -12448   -12442   -12314   -12087   -11900   -11811   -11734 
  -11580   -11419   -11389   -11458   -11470   -11412   -11434   -11553 
  -11604   -11527   -11485   -11614   -11799   -11853   -11820   -11898 
  -12145   -12418   -12560   -12599   -12649   -12692   -12621   -12376 
  -12037   -11762   -11618   -11535   -11456   -11395   -11414   -11530 
  -11678   -11788   -11840   -11900   -12008   -12079   -12100   -12195 
  -12387   -12560   -12660   -12726   -12834   -12989   -13058   -12982 
  -12892   -12873   -12849   -12762   -12677   -12654   -12622   -12463 
  -12186   -11924   -11731   -11550   -11383   -11307   -11354   -11497 
  -11664   -11769   -11815   -11857   -11850   -11720   -11480   -11207 
  -10999   -10925   -10990   -11188   -11515   -11919   -12309   -12630 
  -12864   -13009   -13053   -13004   -12927   -12888   -12879   -12835 
  -12739   -12611   -12429   -12140   -11736   -11299   -10905   -10567 
  -10273   -10019    -9845    -9763    -9678    -9558    -9528    -9641 
   -9749    -9718    -9636    -9682    -9849    -9999   -10131   -10338 
  -10566   -10705   -10774   -10839   -10845   -10725   -10600   -10613 
  -10716   -10768   -10781   -10901   -11153   -11368   -11473   -11620 
  -11877   -12074   -12123   -12193   -12406   -12627   -12690   -12622 
  -12587   -12637   -12649   -12557   -12449   -12351   -12193   -11989 
  -11826   -11730   -11685   -11689   -11767   -11939   -12150   -12290 
  -12314   -12294   -12285   -12243   -12117   -11901   -11662   -11476 
  -11321   -11144   -10952   -10774   -10639   -10577   -10588   -10631 
  -10647   -10631   -10648   -10725   -10801   -10831   -10851   -10905 
  -10974   -11045   -11155   -11306   -11434   -11516   -11601   -11678 
  -11693   -11661   -11608   -11558   -11523   -11499   -11504   -11568 
  -11678   -11813   -11939   -12004   -11982   -11905   -11812   -11708 
  -11597   -11539   -11601   -11738   -11834   -11816   -11704   -11593 
  -11502   -11333   -11122   -11011   -10976   -10921   -10897   -10984 
  -11121   -11195   -11264   -11431   -11635   -11784   -11861   -11827 
  -11680   -11511   -11354   -11152   -10897   -10685   -10598   -10623 
  -10706   -10839   -10986   -11141   -11318   -11497   -11649   -11757 
  -11839   -11935   -12010   -12010   -11962   -11897   -11803   -11691 
  -11558   -11380   -11176   -10991   -10824   -10683   -10612   -10629 
  -10771   -11029   -11317   -11592   -11854   -12055   -12151   -12156 
  -12128   -12112   -12077   -11981   -11907   -11942   -12073   -12252 
  -12453   -12679   -12873   -12942   -12880   -12748   -12614   -12530 
  -12494   -12482   -12475   -12460   -12472   -12501   -12467   -12413 
  -12444   -12513   -12529   -12525   -12576   -12691   -12845   -13007 
  -13092   -13063   -13042   -13126   -13251   -13346   -13410   -13441 
  -13401   -13240   -12974   -12718   -12526   -12356   -12213   -12175 
  -12225   -12291   -12341   -12370   -12371   -12317   -12185   -12017 
  -11880   -11774   -11692   -11628   -11593   -11562   -11497   -11439 
  -11414   -11364   -11314   -11330   -11396   -11458   -11493   -11542 
  -11601   -11622   -11627   -11615   -11533   -11446   -11384   -11264 
  -11075   -10874   -10714   -10602   -10517   -10528   -10659   -10841 
  -11049   -11277   -11493   -11704   -11889   -11985   -12013   -12015 
  -11979   -11924   -11869   -11755   -11565   -11410   -11368   -11377 
  -11360   -11308   -11288   -11365   -11483   -11585   -11745   -11992 
  -12201   -12307   -12345   -12287   -12090   -11777   -11399   -11007 
  -10675   -10446   -10341   -10381   -10561   -10813   -11041   -11196 
  -11307   -11387   -11383   -11291   -11191   -11097   -10944   -10747 
  -10632   -10643   -10679   -10677   -10709   -10821   -10939   -11006 
  -11063   -11148   -11296   -11514   -11746   -11959   -12116   -12147 
  -12032   -11813   -11549   -11254   -10902   -10550   -10285   -10096 
   -9969    -9914    -9887    -9860    -9852    -9845    -9798    -9717 
   -9660    -9693    -9826    -9988   -10125   -10297   -10558   -10821 
  -10995   -11117   -11263   -11425   -11535   -11580   -11651   -11804 
  -11946   -12019   -12081   -12144   -12141   -12050   -11898   -11769 
  -11728   -11708   -11620   -11537   -11541   -11578   -11584   -11601 
  -11692   -11780   -11769   -11697   -11657   -11650   -11627   -11611 
  -11670   -11789   -11923   -12066   -12208   -12321   -12429   -12550 
  -12631   -12649   -12631   -12598   -12595   -12677   -12833   -13018 
  -13225   -13450   -13667   -13834   -13938   -14025   -14138   -14238 
  -14293   -14341   -14397   -14418   -14339   -14173   -13994   -13840 
  -13713   -13586   -13437   -13285   -13150   -13014   -12872   -12758 
  -12708   -12727   -12772   -12788   -12765   -12754   -12765   -12708 
  -12544   -12351   -12162   -11940   -11680   -11415   -11206   -11072 
  -10944   -10787   -10667   -10612   -10586   -10550   -10494   -10455 
  -10439   -10399   -10336   -10326   -10403   -10550   -10750   -10987 
  -11213   -11364   -11441   -11466   -11421   -11317   -11221   -11146 
  -11032   -10872   -10760   -10751   -10790   -10833   -10929   -11113 
  -11308   -11445   -11560   -11738   -11975   -12183   -12370   -12644 
  -13003   -13346   -13644   -13948   -14253   -14462   -14512   -14465 
  -14376   -14210   -13961   -13657   -13261   -12798   -12409   -12125 
  -11832   -11507   -11268   -11168   -11110   -11018   -10935   -10906 
  -10874   -10739   -10524   -10351   -10253   -10150   -10011    -9919 
   -9929    -9945    -9865    -9749    -9732    -9806    -9880    -9971 
  -10191   -10532   -10844   -11030   -11144   -11248   -11329   -11353 
  -11319   -11273   -11303   -11435   -11553   -11588   -11642   -11773 
  -11898   -11946   -11959   -12033   -12186   -12334   -12437   -12525 
  -12621   -12722   -12837   -12949   -12992   -12937   -12876   -12906 
  -13020   -13159   -13297   -13460   -13640   -13741   -13737   -13694 
  -13639   -13582   -13559   -13555   -13514   -13451   -13459   -13560 
  -13653   -13671   -13668   -13694   -13680   -13556   -13350   -13142 
  -12970   -12815   -12677   -12591   -12561   -12565   -12609   -12714 
  -12870   -13034   -13203   -13400   -13579   -13693   -13749   -13741 
  -13625   -13387   -13066   -12725   -12413   -12133   -11862   -11601 
  -11399   -11265   -11149   -11007   -10849   -10669   -10415   -10068 
   -9675    -9288    -8904    -8542    -8243    -8019    -7852    -7709 
   -7623    -7634    -7726    -7890    -8151    -8486    -8835    -9155 
   -9424    -9680    -9940   -10164   -10351   -10527   -10643   -10629 
  -10525   -10424   -10327   -10188   -10017    -9869    -9776    -9682 
   -9490    -9204    -8910    -8627    -8322    -8000    -7728    -7595 
   -7609    -7715    -7889    -8129    -8411    -8746    -9153    -9598 
  -10042   -10484   -10903   -11272   -11592   -11888   -12189   -12511 
  -12806   -13022   -13198   -13408   -13651   -13892   -14153   -14438 
  -14697   -14854   -14833   -14663   -14428   -14100   -13629   -13086 
  -12548   -12027   -11531   -11086   -10702   -10404   -10199   -10023 
   -9806    -9606    -9526    -9543    -9579    -9644    -9768    -9941 
  -10150   -10396   -10670   -10962   -11275   -11622   -11962   -12243 
  -12472   -12667   -12819   -12934   -13049   -13177   -13263   -13247 
  -13161   -13084   -13023   -12910   -12715   -12487   -12297   -12177 
  -12132   -12156   -12214   -12280   -12390   -12546   -12700   -12820 
  -12915   -12996   -13082   -13173   -13242   -13273   -13279   -13275 
  -13235   -13154   -13078   -13057   -13092   -13130   -13147   -13184 
  -13227   -13198   -13084   -12937   -12773   -12586   -12409   -12298 
  -12270   -12249   -12183   -12131   -12118   -12055   -11924   -11830 
  -11840   -11924   -12009   -12093   -12286   -12626   -12995   -13298 
  -13560   -13802   -14008   -14148   -14179   -14088   -13929   -13743 
  -13509   -13207   -12852   -12501   -12201   -11951   -11738   -11574 
  -11491   -11473   -11491   -11529   -11549   -11512   -11418   -11292 
  -11157   -11016   -10851   -10681   -10527   -10378   -10234   -10134 
  -10083   -10049   -10031   -10053   -10111   -10164   -10195   -10251 
  -10346   -10469   -10629   -10822   -11057   -11334   -11578   -11745 
  -11854   -11905   -11863   -11736   -11583   -11439   -11268   -11026 
  -10751   -10521   -10381   -10278   -10160   -10060   -10000    -9961 
   -9956    -9981   -10018   -10095   -10212   -10339   -10496   -10724 
  -11010   -11303   -11584   -11901   -12268   -12630   -12973   -13352 
  -13783   -14215   -14570   -14821   -15021   -15228   -15391   -15437 
  -15411   -15392   -15345   -15198   -14971   -14732   -14477   -14143 
  -13724   -13284   -12873   -12471   -12024   -11556   -11136   -10770 
  -10419   -10075    -9752    -9460    -9190    -8935    -8731    -8629 
   -8634    -8696    -8769    -8860    -8972    -9067    -9131    -9189 
   -9288    -9459    -9679    -9900   -10111   -10296   -10427   -10504 
  -10542   -10579   -10660   -10767   -10862   -10906   -10897   -10878 
  -10872   -10847   -10794   -10731   -10656   -10566   -10484   -10443 
  -10444   -10444   -10428   -10446   -10515   -10584   -10594   -10566 
  -10565   -10628   -10741   -10889   -11087   -11348   -11653   -11973 
  -12262   -12492   -12657   -12769   -12872   -13005   -13178   -13370 
  -13543   -13663   -13756   -13845   -13913   -13937   -13917   -13856 
  -13744   -13587   -13414   -13215   -12958   -12675   -12376   -12059 
  -11755   -11469   -11184   -10921   -10682   -10449   -10246   -10075 
   -9923    -9809    -9718    -9612    -9502    -9421    -9337    -9204 
   -9050    -8943    -8907    -8891    -8860    -8860    -8937    -9047 
   -9143    -9252    -9428    -9626    -9757    -9838    -9981   -10185 
  -10343   -10420   -10484   -10579   -10666   -10710   -10737   -10762 
  -10794   -10867   -10967   -11071   -11202   -11379   -11554   -11709 
  -11871   -12047   -12251   -12480   -12673   -12814   -12951   -13080 
  -13147   -13142   -13089   -13018   -12916   -12754   -12545   -12371 
  -12285   -12224   -12132   -12060   -12079   -12195   -12324   -12371 
  -12376   -12434   -12506   -12510   -12468   -12445   -12463   -12488 
  -12474   -12432   -12428   -12471   -12502   -12499   -12498   -12561 
  -12700   -12854   -12965   -13099   -13336   -13595   -13767   -13871 
  -13976   -14091   -14170   -14188   -14170   -14154   -14123   -14056 
  -13953   -13838   -13725   -13626   -13554   -13477   -13396   -13331 
  -13234   -13047   -12820   -12625   -12442   -12221   -11942   -11664 
  -11469   -11337   -11194   -11052   -10984   -10967   -10933   -10883 
  -10845   -10821   -10794   -10767   -10764   -10779   -10789   -10798 
  -10814   -10851   -10914   -10971   -10999   -11010   -11021   -11036 
  -11055   -11097   -11144   -11144   -11095   -11044   -11001   -10930 
  -10827   -10720   -10636   -10565   -10496   -10467   -10535   -10677 
  -10847   -11070   -11356   -11659   -11947   -12217   -12459   -12664 
  -12850   -13038   -13209   -13365   -13494   -13556   -13528   -13417 
  -13257   -13086   -12914   -12733   -12573   -12461   -12344   -12139 
  -11882   -11649   -11426   -11190   -10976   -10835   -10724   -10557 
  -10307   -10025    -9753    -9495    -9269    -9099    -8986    -8938 
   -8932    -8924    -8928    -8962    -8996    -9024    -9066    -9126 
   -9184    -9217    -9232    -9274    -9389    -9548    -9722    -9967 
  -10300   -10654   -10968   -11240   -11453   -11574   -11614   -11627 
  -11631   -11612   -11614   -11705   -11908   -12156   -12405   -12685 
  -13005   -13327   -13656   -14014   -14391   -14779   -15174   -15570 
  -15959   -16330   -16686   -17020   -17346   -17685   -18031   -18365 
  -18648   -18833   -18932   -18974   -18927   -18758   -18463   -18044 
  -17540   -16997   -16413   -15789   -15163   -14589   -14079   -13568 
  -13020   -12486   -12006   -11551   -11082   -10600   -10146    -9749 
   -9375    -9027    -8760    -8572    -8451    -8406    -8436    -8510 
   -8614    -8756    -8955    -9189    -9397    -9574    -9744    -9882 
   -9984   -10080   -10156   -10219   -10305   -10396   -10469   -10530 
  -10573   -10605   -10638   -10662   -10694   -10771   -10866   -10930 
  -10978   -11049   -11129   -11194   -11259   -11313   -11335   -11327 
  -11292   -11252   -11207   -11130   -11048   -11016   -11030   -11070 
  -11113   -11146   -11178   -11206   -11196   -11148   -11101   -11070 
  -11037   -11002   -10987   -10951   -10789   -10558   -10342   -10056 
   -9729    -9464    -9225    -9023    -8864    -8704    -8599    -8530 
   -8432    -8334    -8272    -8263    -8291    -8272    -8203    -8199 
   -8278    -8352    -8429    -8598    -8892    -9263    -9667   -10098 
  -10581   -11113   -11651   -12164   -12653   -13112   -13505   -13834 
  -14131   -14408   -14656   -14854   -14991   -15087   -15151   -15165 
  -15121   -15026   -14906   -14755   -14548   -14304   -14052   -13795 
  -13551   -13305   -13024   -12750   -12538   -12372   -12209   -12032 
  -11858   -11726   -11634   -11545   -11457   -11395   -11371   -11400 
  -11488   -11614   -11757   -11912   -12059   -12156   -12181   -12164 
  -12150   -12136   -12082   -11993   -11935   -11915   -11874   -11778 
  -11666   -11577   -11493   -11399   -11300   -11192   -11071   -10951 
  -10836   -10724   -10617   -10527   -10492   -10530   -10628   -10787 
  -10990   -11179   -11318   -11426   -11533   -11635   -11716   -11800 
  -11913   -12046   -12148   -12205   -12253   -12282   -12247   -12168 
  -12100   -12020   -11884   -11716   -11587   -11499   -11396   -11294 
  -11248   -11271   -11349   -11443   -11522   -11605   -11664   -11630 
  -11569   -11573   -11630   -11689   -11736   -11796   -11889   -11977 
  -11978   -11901   -11809   -11707   -11554   -11362   -11194   -11083 
  -11003   -10924   -10871   -10863   -10862   -10828   -10750   -10655 
  -10598   -10557   -10486   -10431   -10423   -10413   -10382   -10335 
  -10288   -10288   -10324   -10335   -10318   -10318   -10330   -10326 
  -10314   -10346   -10465   -10648   -10859   -11103   -11395   -11703 
  -12015   -12337   -12630   -12837   -12988   -13119   -13217   -13302 
  -13396   -13498   -13632   -13784   -13914   -14018   -14106   -14154 
  -14150   -14123   -14073   -13972   -13836   -13697   -13583   -13518 
  -13489   -13448   -13363   -13234   -13085   -12949   -12820   -12699 
  -12610   -12559   -12526   -12491   -12444   -12378   -12283   -12159 
  -12017   -11869   -11742   -11651   -11588   -11547   -11556   -11635 
  -11755   -11855   -11908   -11936   -11929   -11873   -11796   -11739 
  -11684   -11597   -11506   -11431   -11341   -11223   -11103   -10959 
  -10766   -10548   -10341   -10183   -10103   -10084   -10110   -10197 
  -10351   -10548   -10774   -11003   -11229   -11472   -11728   -11979 
  -12239   -12523   -12811   -13054   -13232   -13358   -13459   -13537 
  -13562   -13533   -13490   -13421   -13294   -13138   -12996   -12866 
  -12731   -12576   -12403   -12241   -12094   -11927   -11713   -11489 
  -11291   -11102   -10918   -10750   -10612   -10498   -10378   -10251 
  -10141   -10038    -9927    -9821    -9745    -9724    -9764    -9844 
   -9945   -10068   -10214   -10382   -10567   -10743   -10895   -11056 
  -11226   -11381   -11542   -11712   -11857   -11981   -12108   -12214 
  -12297   -12370   -12432   -12482   -12494   -12456   -12393   -12305 
  -12183   -12031   -11848   -11669   -11529   -11380   -11196   -11014 
  -10878   -10789   -10708   -10602   -10508   -10443   -10357   -10215 
  -10052    -9919    -9825    -9740    -9639    -9572    -9593    -9652 
   -9710    -9802    -9973   -10219   -10508   -10827   -11164   -11514 
  -11842   -12082   -12275   -12484   -12650   -12773   -12893   -12993 
  -13119   -13311   -13501   -13664   -13848   -14040   -14181   -14301 
  -14453   -14608   -14721   -14770   -14750   -14693   -14607   -14439 
  -14188   -13926   -13683   -13447   -13231   -13050   -12915   -12850 
  -12825   -12799   -12811   -12870   -12896   -12854   -12789   -12704 
  -12555   -12324   -12064   -11821   -11569   -11279   -10975   -10679 
  -10390   -10103    -9833    -9603    -9416    -9285    -9247    -9290 
   -9394    -9566    -9791   -10042   -10276   -10467   -10620   -10740 
  -10841   -10935   -11011   -11087   -11167   -11238   -11323   -11438 
  -11539   -11593   -11608   -11601   -11585   -11572   -11561   -11523 
  -11456   -11388   -11318   -11217   -11095   -10994   -10921   -10837 
  -10741   -10666   -10586   -10477   -10374   -10309   -10297   -10343 
  -10444   -10600   -10804   -11029   -11253   -11450   -11610   -11732 
  -11840   -11948   -12054   -12156   -12258   -12336   -12398   -12467 
  -12506   -12498   -12503   -12536   -12567   -12586   -12598   -12617 
  -12654   -12695   -12737   -12806   -12881   -12943   -13011   -13069 
  -13072   -13009   -12918   -12819   -12730   -12645   -12556   -12475 
  -12424   -12411   -12430   -12474   -12511   -12522   -12515   -12469 
  -12370   -12236   -12078   -11905   -11765   -11680   -11623   -11603 
  -11646   -11734   -11808   -11838   -11842   -11808   -11691   -11508 
  -11331   -11202   -11128   -11079   -11033   -11011   -11013   -11009 
  -11007   -11016   -11029   -11061   -11115   -11203   -11349   -11530 
  -11718   -11905   -12086   -12264   -12433   -12572   -12664   -12710 
  -12739   -12796   -12879   -12966   -13039   -13103   -13174   -13217 
  -13213   -13209   -13197   -13132   -13028   -12916   -12800   -12675 
  -12542   -12415   -12317   -12232   -12123   -11990   -11851   -11699 
