Origin Time       2025/01/13 21:19:00
Lat.              31.8
Long.             131.6
Depth. (km)       30
Mag.              6.9
Station Code      KMM007
Station Lat.      32.8268
Station Long.     131.1224
Station Height(m) 547
Record Time       2025/01/13 21:19:54
Sampling Freq(Hz) 100Hz
Duration Time(s)  117
Dir.              E-W
Scale Factor      7845(gal)/8223790
Max. Acc. (gal)   36.943
Last Correction   2025/01/13 21:19:54
Memo.             
[...]
   13115    14351    15057    14744    13290    11249     9248     7596 
    6507     6068     6173     6609     7099     7439     7573     7526 
    7381     7130     6637     5910     5161     4642     4515     4807 
    5491     6500     7634     8679     9477     9913     9999     9846 
    9624     9606    10050    11103    12725    14530    16059    17115 
   17587    17367    16551    15383    14030    12560    11090     9818 
    8858     8175     7623     6949     5962     4747     3570     2660 
    2081     1760     1584     1321      719      -52     -506     -286 
     773     2625     5011     7608     9921    11242    11007     9135 
    5967     1937    -2500    -6717   -10057   -12218   -13346   -13821 
  -14068   -14419   -15083   -16105   -17282   -18260   -18636   -18214 
  -17131   -15565   -13662   -11576    -9333    -7056    -5028    -3387 
   -2178    -1493    -1343    -1672    -2284    -2849    -3161    -3160 
   -2920    -2668    -2629    -3045    -4091    -5587    -7294    -9142 
  -10862   -12028   -12387   -11843   -10573    -8951    -7051    -4639 
   -1652     1729     5152     8114    10254    11712    13004    14450 
   15838    16595    16113    14193    11245     8006     5309     3854 
    3917     5231     7036     8584     9668    10305    10266     9294 
    7261     4202      553    -2916    -5432    -6538    -6274    -4946 
   -2916     -534     1850     3852     5292     6346     7277     8222 
    9096     9675     9819     9454     8614     7620     6813     6259 
    5795     5196     4452     3834     3584     3740     4203     4868 
    5694     6615     7526     8340     8768     8270     6413     3092 
   -1213    -5633    -9585   -12683   -14584   -15326   -15201   -14447 
  -13200   -11473    -9379    -7118    -4760    -2462     -481     1073 
    2110     2636     2914     3114     3260     3458     3829     4545 
    5857     7774     9903    11641    12414    11939    10207     7391 
    4016      838    -1553    -2959    -3565    -3670    -3534    -3488 
   -3873    -4878    -6370    -7898    -9051    -9537    -9119    -7794 
   -5706    -2995       51     3080     5759     7846     9454    10972 
   12718    14796    17018    18982    20264    20587    19924    18341 
   15948    13038     9736     5911     1659    -2808    -7476   -12333 
  -17155   -21398   -24360   -25612   -25120   -23091   -19815   -15558 
  -10629    -5302      226     5618    10523    14816    18362    21049 
   22923    23881    23661    22063    18949    14422     8950     3215 
   -2137    -6820   -10849   -14349   -17622   -20916   -24166   -27130 
  -29365   -30403   -30127   -28624   -25918   -22081   -17346   -12120 
   -6826    -1656     3365     8256    13134    18025    22740    26940 
   30100    31720    31658    30160    27584    24085    19664    14393 
    8382     1798    -5032   -11620   -17416   -22131   -25825   -28471 
  -29948   -30171   -28922   -26148   -22293   -17928   -13420    -8914 
   -4369      352     5448    10952    16572    21910    26557    30056 
   32167    33046    32969    31959    29806    26528    22464    17787 
   12590     7267     2135    -2882    -7996   -13262   -18346   -22534 
  -25062   -25465   -23905   -21064   -17609   -13934   -10112    -6127 
   -2182     1509     4896     7885    10377    12398    14238    16440 
   19259    22360    25083    26642    26465    24424    20823    16363 
   11688     7034     2470    -2010    -6426   -10551   -14091   -16966 
  -19365   -21706   -24214   -26465   -27603   -26889   -24104   -19716 
  -14489    -8969    -3402     2160     7641    12681    16858    20050 
   22345    23787    24367    24035    22516    19462    15084    10126 
    5154      247    -4865   -10308   -15681   -20433   -24170   -26651 
  -27932   -28202   -27527   -25852   -22958   -18650   -13072    -6783 
    -689     4514     8610    11481    13234    14262    14841    15021 
   14578    13234    11163     8772     6322     3851     1096    -2157 
   -5617    -8664   -10771   -11998   -12943   -14030   -15340   -16779 
  -17892   -18068   -16938   -14442   -10953    -7111    -3157     1235 
    6197    11119    15114    17712    18843    18593    17346    15761 
   14355    13344    12672    12097    11321    10169     8847     7658 
    6548     5420     4398     3720     3703     4494     5880     7465 
    8802     9693    10374    11033    11608    12020    12168    12050 
   11816    11593    11396    11036    10196     8880     7524     6623 
    6335     6401     6382     5956     4934     3321     1447     -191 
   -1220    -1476    -1048     -243      639     1568     2670     3989 
    5479     6953     8017     8264     7554     5975     3726     1134 
   -1445    -3785    -5795    -7479    -8816    -9779   -10455   -11106 
  -12021   -13262   -14643   -15871   -16552   -16418   -15485   -13786 
  -11385    -8410    -4828     -669     3805     8306    12644    16698 
   20183    22577    23531    23024    21222    18443    15063    11377 
    7519     3576     -195    -3577    -6724    -9859   -12893   -15542 
  -17458   -18226   -17547   -15323   -11647    -6956    -1950     2758 
    6798     9975    12145    13381    14058    14447    14557    14238 
   13269    11637     9441     6574     3024     -870    -4707    -8247 
  -11371   -13967   -15874   -17022   -17451   -17203   -16382   -15101 
  -13355   -11060    -8108    -4495     -442     3753     7834    11523 
   14466    16240    16610    15695    13749    11017     7819     4399 
     873    -2586    -5877    -9055   -12182   -15384   -18677   -21722 
  -24051   -25409   -25848   -25461   -24227   -22198   -19306   -15295 
  -10245    -4660      940     6156    10642    14139    16598    18184 
   19045    19299    19013    18122    16657    14670    12063     8818 
    5096     1058    -3103    -7056   -10451   -13093   -14926   -15911 
  -15985   -15279   -14045   -12394   -10431    -8289    -5823    -2776 
     842     4716     8405    11615    14258    16244    17494    18042 
   17950    17196    15716    13547    10837     7825     4780     1825 
   -1034    -3819    -6600    -9288   -11569   -13059   -13320   -12116 
   -9663    -6353    -2484     1736     6083    10210    13791    16667 
   18760    20159    21157    21979    22611    22823    22370    21161 
   19228    16757    13963    10957     7989     5414     3472     2282 
    1637     1161      880     1080     1815     2835     3628     3804 
    3561     3464     4014     5460     7539     9657    11379    12514 
   13085    13138    12568    11313     9409     7036     4669     2829 
    1563      522     -603    -1937    -3450    -4976    -6242    -6970 
   -7025    -6382    -5104    -3557    -2214    -1325     -923     -837 
    -847     -984    -1441    -2293    -3325    -4178    -4720    -5067 
   -5333    -5483    -5341    -4803    -3956    -2974    -2112    -1669 
   -1732    -2278    -3356    -4946    -6891    -8885   -10615   -11990 
  -13005   -13722   -14393   -15171   -16020   -16845   -17466   -17712 
  -17539   -16946   -15943   -14543   -12852   -11138    -9636    -8402 
   -7361    -6297    -4884    -2906     -515     1817     3719     5040 
    5710     5894     5853     5587     4920     3661     1809     -241 
   -2062    -3470    -4380    -4772    -4749    -4421    -3789    -2722 
   -1023     1339     4078     6712     8834    10307    11192    11762 
   12424    13329    14206    14620    14316    13344    11929    10270 
    8440     6320     3807     1166    -1121    -2743    -3558    -3582 
   -3006    -2143    -1286     -481      454     1749     3669     6334 
    9471    12629    15406    17562    18999    19588    19203    17875 
   15719    12908     9694     6339     3056     -162    -3503    -7084 
  -10746   -13981   -16275   -17435   -17416   -16232   -14062   -11205 
   -8106    -5282    -2994    -1279      -62      926     2027     3414 
    5082     6924     8650     9787    10011     9340     7904     5961 
    3977     2250      724     -778    -2326    -3790    -5043    -6043 
   -6782    -7207    -7141    -6570    -5917    -5514    -5310    -5097 
   -4575    -3462    -1613     1075     4492     8248    11851    14775 
   16607    17219    16727    15429    13682    11697     9559     7271 
    4772     2216      -70    -1892    -3109    -3650    -3568    -2913 
   -1749     -105     2018     4453     7020     9720    12413    14663 
   16141    16833    16869    16281    14982    13043    10617     7781 
    4727     1672    -1324    -4233    -7040    -9630   -11689   -12978 
  -13311   -12468   -10546    -7962    -5167    -2550     -317     1507 
    3042     4558     6319     8398    10708    12927    14594    15296 
   14686    12646     9305     4850     -311    -5617   -10565   -14635 
  -17500   -19279   -20279   -20641   -20331   -19271   -17340   -14450 
  -10804    -6741    -2443     1861     5888     9491    12455    14542 
   15762    16228    16114    15619    14764    13500    11735     9316 
    6139     2157    -2421    -7078   -11476   -15526   -19120   -22254 
  -24918   -26825   -27666   -27346   -25975   -23755   -20706   -16656 
  -11599    -5771      405     6345    11546    15762    18998    21444 
   23182    24071    23912    22531    19866    16083    11492     6502 
    1566    -3029    -7091   -10403   -12857   -14472   -15290   -15371 
  -14813   -13743   -12297   -10596    -8591    -6008    -2787      751 
    4270     7601    10760    13906    17124    20401    23554    26046 
   27283    26995    25208    22148    18114    13327     7987     2371 
   -3154    -8106   -12067   -14874   -16583   -17523   -18050   -18241 
  -18033   -17285   -15784   -13517   -10582    -7130    -3438      314 
    4087     7754    11040    13583    15232    16162    16526    16343 
   15619    14303    12329     9706     6531     3150       86    -2317 
   -3962    -4904    -5227    -4930    -4098    -2930    -1567      -94 
    1559     3460     5421     7264     8907    10289    11460    12363 
   12726    12357    11294     9764     8062     6389     4776     3037 
     872    -1768    -4588    -7173    -9250   -10783   -11820   -12361 
  -12410   -11948   -10987    -9544    -7496    -4816    -1825     1225 
    4374     7618    10751    13344    14959    15458    14906    13471 
   11394     8800     5846     2710     -625    -4078    -7299    -9973 
  -11885   -12876   -12934   -12168   -10677    -8561    -6042    -3429 
    -923     1399     3497     5385     7164     8870    10332    11217 
   11209    10111     7875     4819     1641    -1175    -3715    -6251 
   -8851   -11286   -13157   -14098   -13898   -12650   -10687    -8233 
   -5367    -2195     1162     4557     7820    10741    12977    14145 
   13945    12330     9752     6862     4036     1395    -1090    -3474 
   -5602    -7281    -8392    -8714    -8164    -6867    -4927    -2647 
    -480     1304     2687     3802     4700     5323     5628     5499 
    4892     3948     2714     1161     -652    -2608    -4546    -6354 
   -7927    -9027    -9485    -9343    -8746    -7931    -7064    -6102 
   -4907    -3318    -1231     1271     4050     6837     9167    10621 
   10968    10214     8637     6474     3856     1015    -1742    -4051 
   -5579    -6281    -6397    -6331    -6500    -7040    -7686    -7928 
   -7346    -5894    -3797    -1340     1128     3312     5093     6354 
    7024     7231     7156     6961     6816     6825     7083     7607 
    8248     8853     9391     9991    10770    11631    12457    13104 
   13316    12981    12100    10646     8688     6342     3767     1197 
   -1167    -3015    -3946    -3782    -2704    -1138      491     1931 
    2979     3480     3454     3100     2789     2894     3439     4152 
    4741     4995     4897     4484     3623     2168      144    -2201 
   -4432    -6278    -7842    -9329   -10937   -12665   -14195   -15211 
  -15565   -15126   -13884   -11971    -9510    -6606    -3395      -35 
    3315     6563     9684    12792    16141    19747    23221    25948 
   27193    26497    24035    20193    15322     9864     4294     -958 
   -5601    -9408   -12166   -13936   -14991   -15557   -15649   -15036 
  -13575   -11360    -8425    -4819     -714     3661     7915    11738 
   15043    17667    19434    20263    19954    18306    15365    11340 
    6636     1867    -2423    -5838    -8217    -9715   -10651   -11267 
  -11578   -11507   -11065   -10376    -9516    -8419    -7006    -5382 
   -3673    -1896     -172     1359     2759     4113     5451     6826 
    8232     9568    10635    11070    10546     8988     6604     3821 
    1034    -1451    -3299    -4322    -4615    -4561    -4714    -5503 
   -7133    -9560   -12428   -15236   -17440   -18543   -18341   -16784 
  -13848    -9736    -4922       37     4649     8611    11865    14404 
   16104    16821    16551    15358    13328    10609     7446     4212 
    1333    -1016    -2984    -4664    -6073    -7291    -8282    -8941 
   -9339    -9583    -9591    -9057    -7631    -5266    -2231     1154 
    4538     7632    10315    12509    14229    15596    16698    17577 
   18108    18068    17385    16089    14241    12005     9518     6740 
    3604      183    -3227    -6264    -8766   -10660   -11715   -11711 
  -10612    -8542    -5742    -2500      986     4722     8704    12775 
   16798    20644    24090    26960    28995    29770    28942    26362 
   22183    16862    10943     5000     -513    -5580   -10382   -14955 
  -19182   -22990   -26509   -29862   -32911   -35429   -37154   -37789 
  -37176   -35240   -31843   -27013   -21068   -14474    -7778    -1483 
    4108     8992    13335    17108    20036    21911    22704    22528 
   21483    19332    15815    11223     6231     1509    -2512    -5918 
   -8996   -11646   -13419   -13949   -13107   -10970    -7965    -4638 
   -1270     1852     4484     6763     8679     9896    10354    10214 
    9545     8438     6956     5103     2911      392    -2454    -5498 
   -8378   -10540   -11608   -11616   -10837    -9572    -8032    -6245 
   -4190    -1942      334     2520     4635     6669     8438     9765 
   10477    10324     9258     7514     5351     3033      868     -872 
   -1863    -1854     -885      801     2866     5062     7281     9352 
   11106    12486    13533    14496    15557    16530    17107    17019 
   16052    14197    11692     8907     6216     3834     1771     -101 
   -1895    -3539    -4837    -5563    -5545    -4873    -3804    -2378 
    -579     1406     3387     5300     7109     8727     9987    10721 
   10839    10270     9076     7437     5498     3311      785    -2049 
   -4838    -7326    -9501   -11335   -12850   -13996   -14575   -14490 
  -13717   -12241   -10210    -7809    -5238    -2700     -175     2450 
    5057     7389     9236    10458    10983    10840    10239     9435 
    8463     7238     5683     3603      839    -2539    -6354   -10262 
  -13791   -16611   -18559   -19573   -19697   -19043   -17775   -16051 
  -13948   -11549    -8918    -6076    -3084       27     3194     6192 
    8779    10700    11758    11950    11295     9734     7308     4202 
     692    -2905    -6315    -9370   -12093   -14658   -17061   -19035 
  -20258   -20447   -19469   -17402   -14388   -10659    -6540    -2343 
    1609     5115     8163    10804    13184    15492    17678    19450 
   20498    20641    19877    18351    16299    13934    11411     8877 
    6489     4436     2910     1968     1452     1173     1155     1552 
    2481     3917     5648     7558     9630    11431    12479    12780 
   12375    11268     9717     8058     6577     5439     4621     3997 
    3478     2956     2122      820     -712    -2389    -4195    -5805 
   -7042    -7959    -8425    -8388    -8044    -7541    -6922    -6199 
   -5329    -4218    -2809    -1154      737     2957     5443     7969 
   10381    12521    14102    14916    15001    14569    13828    12908 
   11951    11122    10516    10087     9564     8548     6885     4753 
    2349     -155    -2554    -4737    -6658    -8248    -9445   -10235 
  -10719   -11076   -11416   -11693   -11638   -10822    -8874    -5702 
   -1571     3013     7438    11070    13497    14661    14690    13867 
   12502    10755     8707     6453     4051     1525    -1247    -4438 
   -7982   -11637   -15105   -17982   -19946   -20961   -21088   -20310 
  -18586   -15915   -12432    -8401    -4078      284     4506     8494 
   12128    15356    18175    20409    21780    22064    21188    19288 
   16503    12916     8688     4024     -715    -5039    -8634   -11406 
  -13477   -15028   -15952   -16046   -15219   -13495   -11059    -8009 
   -4302       -9     4671     9386    13632    16927    18875    19211 
   17867    15002    10999     6408     1792    -2454    -6195    -9535 
  -12617   -15406   -17879   -20088   -21967   -23373   -24101   -23877 
  -22486   -19811   -15855   -10839    -5146      714     6129    10575 
   13705    15348    15658    15078    14104    13135    12255    11205 
    9667     7484     4642     1223    -2490    -5946    -8723   -10771 
  -12043   -12472   -12185   -11387   -10257    -8838    -7024    -4855 
   -2463      159     3052     6168     9305    12205    14752    16902 
   18640    19975    20731    20640    19558    17572    15126    12750 
   10675     8926     7400     5898     4291     2555      834     -545 
   -1441    -2010    -2255    -1941     -908      723     2720     4961 
    7260     9254    10763    11858    12614    13113    13377    13359 
   13066    12432    11263     9429     6967     4087     1081    -1750 
   -4094    -5796    -6889    -7400    -7384    -6988    -6399    -5764 
   -5116    -4401    -3539    -2409     -922      913     3021     5185 
    7109     8565     9371     9429     8772     7480     5730     3771 
    1763     -241    -2227    -4159    -5949    -7596    -9130   -10435 
  -11400   -12013   -12182   -11886   -11254   -10361    -9205    -7820 
   -6331    -4946    -3748    -2724    -1898    -1225     -693     -402 
    -409     -757    -1371    -1965    -2293    -2226    -1799    -1235 
    -629       59      849     1802     2936     4094     5057     5620 
    5678     5302     4644     3817     2893     1876      734     -618 
   -2212    -3924    -5655    -7349    -8826    -9998   -10905   -11402 
  -11356   -10841    -9938    -8745    -7395    -5983    -4583    -3172 
   -1711     -274     1088     2340     3434     4380     5142     5660 
    5999     6196     6278     6331     6385     6469     6616     6755 
    6777     6558     6004     5196     4280     3383     2565     1733 
     822      -62     -797    -1246    -1262     -877     -272      324 
     801     1232     1676     2166     2745     3348     3927     4584 
    5373     6218     7003     7654     8145     8344     8102     7587 
    7068     6577     5989     5174     4093     2889     1861     1363 
    1530     2128     2902     3699     4367     4955     5629     6401 
    7198     7846     8156     8058     7541     6710     5711     4571 
    3337     2088      858     -203     -969    -1516    -1972    -2338 
   -2486    -2349    -2035    -1621    -1115     -521      244     1163 
    2107     3011     3740     4194     4436     4476     4302     3952 
    3441     2763     1922      993      139     -550    -1011    -1109 
