Origin Time       2025/01/13 21:19:00
Lat.              31.8
Long.             131.6
Depth. (km)       30
Mag.              6.9
Station Code      KMM010
Station Lat.      32.6134
Station Long.     130.4873
Station Height(m) 6
Record Time       2025/01/13 21:19:56
Sampling Freq(Hz) 100Hz
Duration Time(s)  127
Dir.              N-S
Scale Factor      7845(gal)/8223790
Max. Acc. (gal)   15.594
Last Correction   2025/01/13 21:19:57
Memo.             
[...]
   10021     9921     9778     9614     9410     9186     8958     8719 
    8465     8171     7824     7431     6974     6443     5849     5190 
    4502     3831     3172     2542     1971     1462     1000      588 
     241      -32     -240     -368     -433     -457     -440     -400 
    -365     -322     -279     -253     -245     -243     -244     -267 
    -317     -375     -417     -407     -303      -82      261      704 
    1219     1769     2346     2956     3597     4248     4891     5528 
    6157     6763     7319     7797     8212     8581     8897     9150 
    9320     9404     9464     9551     9661     9795     9931    10041 
   10107    10116    10057     9923     9690     9328     8827     8198 
    7473     6683     5857     5034     4268     3592     3024     2583 
    2266     2035     1852     1710     1617     1564     1532     1501 
    1444     1368     1306     1271     1266     1286     1328     1391 
    1467     1567     1722     1939     2227     2583     2987     3414 
    3817     4174     4507     4828     5150     5493     5859     6239 
    6617     6961     7275     7565     7815     8016     8175     8280 
    8324     8314     8267     8155     7960     7720     7438     7053 
    6550     5946     5267     4538     3793     3094     2501     2030 
    1656     1356     1125      984      965     1092     1355     1737 
    2220     2740     3202     3568     3858     4102     4307     4492 
    4677     4880     5105     5341     5556     5733     5884     6031 
    6164     6253     6291     6268     6158     5952     5655     5290 
    4861     4379     3881     3402     2960     2582     2308     2176 
    2164     2242     2413     2666     2959     3287     3667     4116 
    4615     5119     5590     6004     6339     6616     6860     7072 
    7256     7416     7546     7659     7744     7767     7728     7651 
    7569     7527     7533     7577     7647     7704     7703     7615 
    7419     7103     6662     6097     5427     4671     3863     3040 
    2227     1448      724       74     -498     -999    -1414    -1711 
   -1899    -2006    -2031    -1987    -1881    -1726    -1551    -1367 
   -1175     -996     -843     -714     -589     -453     -287      -70 
     245      696     1279     1989     2835     3815     4880     5971 
    7049     8087     9080    10046    10944    11708    12334    12834 
   13217    13501    13678    13755    13759    13702    13601    13443 
   13203    12891    12523    12101    11616    11047    10396     9670 
    8854     7977     7065     6123     5170     4214     3244     2273 
    1336      476     -282     -938    -1491    -1931    -2261    -2484 
   -2597    -2578    -2388    -2030    -1553    -1004     -429      133 
     662     1136     1559     1960     2351     2756     3191     3643 
    4128     4658     5211     5771     6343     6913     7454     7931 
    8336     8692     8980     9167     9250     9231     9117     8905 
    8596     8210     7758     7265     6752     6227     5711     5204 
    4700     4234     3817     3461     3181     2957     2774     2625 
    2494     2366     2246     2154     2107     2114     2182     2311 
    2508     2762     3042     3354     3694     4039     4367     4687 
    5023     5359     5672     5971     6235     6448     6612     6728 
    6821     6886     6924     6970     7017     7052     7075     7067 
    7029     6978     6932     6944     7064     7299     7616     7973 
    8326     8631     8838     8904     8842     8665     8379     8021 
    7618     7171     6686     6174     5671     5208     4785     4407 
    4078     3801     3589     3447     3375     3338     3308     3298 
    3289     3254     3210     3167     3099     2992     2840     2641 
    2405     2141     1863     1568     1264      985      776      654 
     641      756      982     1285     1626     1981     2309     2573 
    2778     2944     3064     3145     3198     3211     3198     3159 
    3100     3048     3009     3001     3075     3237     3461     3751 
    4098     4477     4896     5350     5826     6300     6732     7118 
    7464     7730     7908     8023     8087     8109     8083     7987 
    7813     7578     7308     7033     6785     6578     6417     6312 
    6227     6104     5906     5590     5144     4585     3935     3222 
    2486     1748     1017      319     -329     -909    -1391    -1755 
   -1989    -2087    -2052    -1883    -1603    -1283     -953     -606 
    -257       89      441      804     1217     1701     2245     2870 
    3568     4301     5058     5846     6677     7537     8397     9247 
   10077    10862    11561    12129    12548    12833    12996    13059 
   13069    13045    12982    12868    12683    12413    12067    11655 
   11182    10650    10077     9477     8822     8112     7375     6597 
    5776     4951     4129     3312     2516     1729      959      222 
    -492    -1202    -1895    -2543    -3111    -3573    -3905    -4104 
   -4166    -4071    -3824    -3456    -2982    -2427    -1827    -1189 
    -514      189      926     1694     2485     3271     4023     4738 
    5417     6066     6702     7333     7940     8506     9007     9432 
    9787    10075    10296    10454    10535    10536    10458    10287 
   10035     9722     9336     8883     8371     7817     7264     6723 
    6192     5690     5189     4679     4176     3661     3145     2667 
    2230     1856     1571     1348     1181     1067      993      972 
    1021     1135     1310     1524     1750     1996     2243     2471 
    2702     2955     3231     3519     3794     4056     4284     4453 
    4585     4715     4841     4982     5167     5390     5668     6011 
    6401     6831     7285     7753     8213     8654     9061     9394 
    9637     9799     9857     9796     9620     9306     8860     8307 
    7673     6997     6316     5651     5005     4357     3689     3018 
    2362     1745     1183      661      170     -283     -704    -1093 
   -1440    -1746    -2010    -2216    -2342    -2362    -2282    -2104 
   -1838    -1516    -1166     -815     -480     -164      132      415 
     702     1001     1323     1683     2099     2585     3130     3720 
    4359     5044     5772     6547     7345     8113     8834     9513 
   10139    10693    11160    11541    11830    12006    12067    12027 
   11896    11699    11466    11210    10932    10625    10260     9828 
    9333     8768     8148     7510     6862     6208     5571     4961 
    4361     3770     3196     2651     2130     1620     1119      648 
     224     -156     -469     -700     -882    -1012    -1073    -1105 
   -1121    -1092    -1004     -841     -581     -222      255      857 
    1561     2357     3234     4176     5165     6172     7180     8168 
    9094     9913    10621    11234    11755    12168    12465    12652 
   12727    12685    12553    12367    12150    11904    11623    11311 
   10970    10559    10048     9439     8748     7982     7150     6270 
    5360     4433     3512     2624     1777      999      329     -226 
    -675    -1011    -1242    -1363    -1402    -1416    -1409    -1374 
   -1325    -1271    -1200    -1104     -962     -751     -459      -66 
     419      970     1572     2208     2851     3477     4086     4687 
    5270     5800     6266     6664     6983     7222     7396     7515 
    7565     7519     7368     7106     6733     6281     5775     5223 
    4654     4091     3542     3034     2574     2138     1726     1314 
     866      394      -90     -585    -1066    -1495    -1834    -2049 
   -2142    -2116    -1972    -1729    -1404     -997     -527       -8 
     565     1188     1830     2473     3122     3778     4446     5144 
    5883     6656     7461     8268     9053     9799    10494    11137 
   11739    12322    12888    13414    13907    14369    14760    15075 
   15331    15495    15539    15461    15242    14879    14392    13794 
   13089    12267    11325    10281     9148     7943     6717     5514 
    4345     3225     2161     1151      216     -654    -1478    -2246 
   -2951    -3580    -4113    -4537    -4827    -4963    -4945    -4758 
   -4413    -3924    -3294    -2544    -1722     -851       36      900 
    1715     2475     3184     3854     4487     5076     5609     6062 
    6427     6721     6937     7045     7044     6952     6790     6582 
    6355     6161     6018     5906     5829     5791     5788     5834 
    5938     6102     6328     6613     6941     7292     7642     7975 
    8289     8577     8853     9140     9463     9825    10203    10585 
   10945    11225    11375    11372    11203    10870    10381     9772 
    9092     8372     7627     6860     6085     5325     4600     3916 
    3284     2727     2247     1863     1598     1440     1394     1445 
    1529     1610     1672     1669     1582     1425     1217      986 
     768      577      411      264      121      -18     -147     -255 
    -328     -337     -261      -89      187      560     1015     1541 
    2118     2721     3343     3981     4642     5336     6061     6821 
    7620     8442     9278    10112    10906    11630    12275    12804 
   13203    13474    13586    13512    13267    12841    12208    11371 
   10353     9202     7978     6736     5551     4482     3546     2764 
    2141     1642     1244      920      637      375      125     -135 
    -406     -683     -965    -1262    -1567    -1861    -2131    -2365 
   -2533    -2604    -2538    -2312    -1934    -1413     -776      -99 
     553     1147     1624     1935     2089     2088     1937     1680 
    1363     1012      661      353      121      -22      -56       58 
     329      730     1237     1834     2492     3167     3816     4395 
    4843     5125     5247     5224     5120     5023     4976     5016 
    5175     5433     5795     6268     6799     7383     8023     8685 
    9373    10075    10743    11371    11917    12321    12586    12717 
   12725    12652    12519    12329    12079    11750    11358    10937 
   10488    10052     9657     9289     8954     8664     8394     8112 
    7770     7325     6750     6025     5157     4179     3122     2023 
     911     -191    -1279    -2347    -3358    -4274    -5070    -5702 
   -6111    -6278    -6212    -5929    -5467    -4878    -4197    -3465 
   -2709    -1934    -1150     -352      464     1294     2154     3073 
    4050     5069     6139     7269     8457     9698    10979    12286 
   13585    14841    16029    17118    18073    18866    19469    19861 
   20027    19977    19718    19251    18582    17725    16692    15506 
   14200    12808    11364     9894     8418     6957     5526     4143 
    2828     1588      433     -627    -1605    -2509    -3348    -4120 
   -4827    -5449    -5960    -6365    -6660    -6821    -6837    -6708 
   -6436    -6039    -5520    -4882    -4140    -3303    -2388    -1440 
    -508      372     1188     1925     2571     3126     3591     3987 
    4345     4681     5012     5359     5705     6035     6347     6613 
    6839     7044     7226     7389     7546     7701     7855     7998 
    8151     8313     8478     8672     8895     9131     9370     9578 
    9724     9798     9783     9655     9428     9113     8707     8232 
    7704     7142     6582     6027     5494     5011     4576     4207 
    3905     3654     3449     3277     3136     3036     2965     2941 
    2965     3028     3157     3360     3600     3888     4217     4553 
    4885     5197     5454     5652     5802     5881     5900     5883 
    5809     5672     5485     5229     4922     4567     4158     3705 
    3202     2632     2016     1372      726      116     -426     -874 
   -1206    -1398    -1455    -1391    -1217     -954     -629     -260 
     149      606     1098     1622     2166     2728     3287     3816 
    4317     4776     5159     5483     5749     5922     5995     5954 
    5786     5495     5086     4557     3943     3298     2678     2123 
    1655     1298     1086     1030     1111     1305     1587     1950 
    2400     2937     3550     4210     4889     5568     6218     6828 
    7393     7898     8353     8760     9123     9459     9748     9964 
   10125    10224    10246    10196    10062     9852     9610     9371 
    9158     8985     8841     8710     8584     8449     8289     8091 
    7855     7573     7252     6898     6502     6058     5576     5061 
    4498     3885     3235     2570     1911     1264      654      130 
    -297     -633     -859     -985    -1021     -958     -822     -629 
    -367      -60      278      670     1135     1691     2334     3046 
    3821     4649     5521     6459     7464     8536     9670    10821 
   11948    13009    13905    14563    14951    15026    14789    14276 
   13516    12567    11469    10251     8973     7676     6382     5127 
    3931     2809     1764      801      -59     -787    -1368    -1819 
   -2149    -2366    -2485    -2525    -2511    -2446    -2317    -2133 
   -1890    -1588    -1232     -804     -297      301     1003     1822 
    2782     3873     5063     6323     7603     8862    10061    11165 
   12156    13016    13737    14345    14851    15237    15562    15878 
   16090    16216    16343    16378    16302    16152    15863    15444 
   14895    14173    13285    12201    10912     9463     7882     6210 
    4514     2824     1143     -510    -2120    -3674    -5147    -6511 
   -7744    -8833    -9764   -10521   -11098   -11487   -11680   -11669 
  -11445   -11002   -10357    -9529    -8536    -7410    -6174    -4862 
   -3510    -2124     -707      745     2220     3709     5223     6739 
    8230     9687    11051    12251    13235    13965    14427    14635 
   14607    14369    13975    13470    12872    12213    11507    10751 
    9968     9144     8270     7362     6440     5514     4572     3601 
    2632     1680      760      -98     -895    -1613    -2224    -2744 
   -3168    -3501    -3770    -3971    -4128    -4274    -4414    -4542 
   -4652    -4726    -4729    -4622    -4376    -3974    -3411    -2685 
   -1825     -872      163     1269     2438     3678     4988     6359 
    7774     9184    10536    11799    12961    14029    14978    15789 
   16461    16983    17344    17551    17605    17508    17267    16899 
   16430    15881    15256    14569    13825    13026    12194    11327 
   10404     9429     8421     7392     6376     5398     4480     3634 
    2864     2181     1593     1071      591      147     -263     -622 
    -896    -1074    -1183    -1231    -1204    -1104     -939     -708 
    -427     -112      230      580      918     1237     1530     1795 
    2046     2295     2540     2810     3115     3457     3856     4302 
    4754     5209     5663     6096     6500     6880     7248     7584 
    7863     8101     8314     8487     8641     8806     8982     9185 
    9420     9674     9944    10200    10408    10551    10616    10586 
   10474    10293    10027     9678     9252     8752     8170     7492 
    6735     5944     5142     4333     3535     2751     1984     1246 
     531     -145     -760    -1304    -1796    -2241    -2617    -2936 
   -3219    -3458    -3650    -3788    -3846    -3827    -3719    -3484 
   -3117    -2621    -1996    -1258     -407      540     1534     2562 
    3608     4633     5606     6511     7314     7993     8540     8946 
    9229     9437     9603     9742     9871    10007    10166    10345 
   10521    10662    10764    10831    10829    10754    10619    10419 
   10147     9810     9402     8935     8417     7843     7230     6593 
    5930     5243     4541     3836     3149     2492     1881     1339 
     854      429       70     -232     -480     -676     -839     -954 
    -993     -954     -823     -595     -270      139      606     1129 
    1711     2332     2987     3670     4352     5026     5687     6304 
    6870     7380     7808     8145     8398     8561     8644     8649 
    8580     8459     8283     8047     7766     7461     7149     6848 
    6565     6308     6064     5798     5505     5182     4799     4368 
    3940     3539     3173     2853     2596     2417     2313     2288 
    2359     2521     2763     3063     3396     3755     4117     4440 
    4723     4973     5165     5297     5389     5459     5533     5622 
    5742     5903     6073     6235     6393     6517     6597     6640 
    6628     6551     6407     6187     5900     5537     5081     4558 
    3993     3395     2787     2192     1622     1088      592      152 
    -220     -522     -743     -881     -939     -904     -784     -610 
    -375      -63      311      726     1158     1588     2018     2439 
    2826     3186     3546     3909     4274     4657     5073     5521 
    6006     6523     7053     7578     8073     8498     8826     9046 
    9159     9165     9063     8874     8626     8329     7985     7597 
    7182     6759     6354     5980     5657     5405     5208     5042 
    4892     4754     4635     4525     4419     4340     4293     4263 
    4261     4282     4318     4380     4459     4546     4662     4806 
    4973     5171     5389     5624     5881     6142     6376     6577 
    6745     6868     6941     6970     6963     6910     6793     6616 
    6396     6129     5826     5508     5184     4864     4557     4272 
    4013     3781     3576     3387     3206     3026     2839     2631 
    2392     2107     1773     1390      959      506       49     -392 
    -799    -1136    -1368    -1482    -1471    -1325    -1042     -650 
    -175      359      924     1499     2065     2612     3160     3712 
    4261     4819     5397     5998     6632     7296     7982     8699 
    9433    10152    10835    11466    12033    12526    12923    13211 
   13385    13443    13381    13201    12923    12563    12112    11580 
   11007    10403     9757     9082     8390     7678     6945     6191 
    5425     4645     3831     2988     2131     1256      382     -448 
   -1201    -1852    -2380    -2778    -3046    -3186    -3204    -3098 
   -2863    -2501    -2011    -1398     -683      109      935     1775 
    2609     3396     4120     4791     5412     5981     6513     7014 
    7479     7893     8249     8546     8776     8950     9078     9155 
    9190     9194     9158     9069     8904     8642     8299     7889 
    7430     6956     6488     6049     5667     5333     5053     4834 
    4653     4492     4348     4218     4104     4010     3935     3867 
    3801     3719     3611     3468     3277     3056     2817     2563 
    2316     2100     1923     1791     1696     1633     1597     1579 
    1572     1576     1599     1659     1756     1906     2114     2361 
    2639     2937     3244     3558     3867     4168     4459     4725 
    4961     5166     5328     5443     5510     5533     5520     5489 
    5452     5425     5431     5444     5437     5440     5439     5402 
    5343     5262     5157     5049     4939     4830     4735     4645 
    4552     4465     4384     4309     4248     4207     4185     4179 
    4190     4199     4198     4186     4162     4113     4037     3937 
    3827     3719     3609     3501     3406     3311     3215     3134 
    3067     3013     2975     2953     2953     2963     2976     3021 
