Origin Time       2025/01/13 21:19:00
Lat.              31.8
Long.             131.6
Depth. (km)       30
Mag.              6.9
Station Code      KMM017
Station Lat.      32.2567
Station Long.     130.9245
Station Height(m) 153
Record Time       2025/01/13 21:19:46
Sampling Freq(Hz) 100Hz
Duration Time(s)  150
Dir.              E-W
Scale Factor      7845(gal)/8223790
Max. Acc. (gal)   28.611
Last Correction   2025/01/13 21:19:46
Memo.             
[...]
    4378     3690     2775     1900      962     -180    -1269    -1984 
   -2282    -2209    -1863    -1493    -1352    -1626    -2484    -3878 
   -5381    -6431    -6615    -5813    -4322    -2659    -1216     -157 
     432      538      356      225      442     1233     2675     4696 
    7121     9591    11796    13697    15314    16561    17439    18094 
   18557    18789    19124    19967    21054    21760    21867    21427 
   20326    18532    16422    14536    13301    13057    13903    15438 
   16880    17560    17309    16325    14748    12602    10073     7533 
    5136     2745      306    -2104    -4434    -6497    -8017    -8984 
   -9525    -9629    -9367    -9130    -9324   -10011   -11043   -12301 
  -13643   -14855   -15718   -15984   -15510   -14438   -13063   -11604 
  -10269    -9292    -8775    -8704    -9081    -9707    -9984    -9321 
   -7705    -5512    -3118     -892     1017     2679     3962     4664 
    4861     4780     4726     5058     5861     6895     8023     9321 
   10810    12322    13597    14337    14312    13531    12152    10345 
    8386     6779     5894     5621     5652     5806     5803     5239 
    4036     2392      341    -2072    -4610    -7026    -9078   -10574 
  -11485   -11821   -11588   -10852    -9657    -8175    -6785    -5682 
   -4752    -3989    -3501    -3130    -2485    -1366       63     1452 
    2397     2581     2004      970     -124     -955    -1432    -1575 
   -1254     -274     1451     3906     6804     9408    11041    11599 
   11362    10702    10019     9590     9444     9601    10264    11574 
   13238    14801    16117    17099    17516    17388    16972    16391 
   15727    15267    15238    15419    15400    15076    14565    13956 
   13378    12928    12495    11777    10501     8757     7018     5757 
    5236     5475     6222     7028     7493     7473     7025     6201 
    5148     4135     3242     2469     2070     2228     2817     3712 
    4769     5610     5968     5950     5590     4750     3557     2242 
     743     -962    -2542    -3689    -4469    -5017    -5265    -5212 
   -5035    -4772    -4415    -4187    -4284    -4564    -4731    -4525 
   -3711    -2191      -89     2272     4456     6131     7252     7927 
    8287     8622     9181     9751     9985    10003    10008     9705 
    8756     7306     5657     4004     2501     1248      167     -969 
   -2330    -3960    -5823    -7690    -9220   -10262   -10889   -11221 
  -11353   -11375   -11317   -11047   -10428    -9629    -8908    -8260 
   -7562    -6656    -5321    -3538    -1510      629     2758     4590 
    5933     6906     7697     8383     9032     9626     9958     9907 
    9693     9694    10091    10728    11259    11380    10984    10195 
    9262     8378     7657     7225     7092     7028     6828     6679 
    6894     7431     7998     8426     8695     8797     8808     8873 
    8926     8710     8275     8055     8306     8853     9390     9718 
    9817     9763     9532     8989     8108     7052     6053     5316 
    4955     4915     5063     5323     5659     5981     6035     5478 
    4174     2330      386    -1179    -2007    -2022    -1530     -904 
    -255      429     1201     2169     3164     3658     3272     2066 
     454     -973    -1701    -1602     -954      -82      726     1169 
    1098      568     -256    -1136    -1861    -2274    -2350    -2261 
   -2096    -1674     -872      116     1011     1638     1767     1220 
     288     -417     -471      203     1428     2859     4133     5027 
    5491     5514     5031     4128     3149     2511     2461     3003 
    4002     5170     6093     6512     6396     5818     4965     4147 
    3616     3349     3105     2754     2338     1958     1833     2111 
    2663     3303     3947     4456     4707     4764     4683     4399 
    4072     4044     4349     4780     5266     5665     5572     4818 
    3697     2528     1470      734      480      596      922     1487 
    2295     3136     3800     4244     4521     4761     5096     5516 
    5925     6211     6273     6149     6033     6014     6000     5850 
    5456     4842     4212     3808     3766     4062     4538     4938 
    5073     5078     5220     5479     5636     5698     5861     6116 
    6319     6462     6496     6181     5427     4426     3268     1989 
     896      253      -49     -240     -469     -842    -1337    -1790 
   -2104    -2424    -2995    -3852    -4692    -5182    -5216    -4833 
   -4118    -3194    -2119     -907      268     1109     1540     1714 
    1655     1331      958      864     1197     1991     3303     4941 
    6420     7457     8046     8235     8191     8125     8039     7834 
    7528     7078     6351     5472     4785     4536     4869     5833 
    7213     8553     9445     9733     9466     8800     7923     6956 
    5967     5066     4409     4062     3958     3991     4020     3831 
    3295     2509     1719     1147      787      309     -634    -2097 
   -3867    -5624    -7003    -7732    -7820    -7493    -6914    -6110 
   -5157    -4221    -3326    -2263     -872      819     2685     4487 
    5919     6863     7437     7828     8172     8490     8698     8729 
    8602     8388     8159     7939     7747     7641     7553     7273 
    6737     6106     5529     5069     4845     4908     5020     4881 
    4452     3819     2972     1891      614     -684    -1690    -2097 
   -1802     -892      444     1954     3343     4379     5013     5287 
    5175     4645     3758     2717     1853     1483     1715     2424 
    3337     4156     4758     5301     6064     7190     8611    10165 
   11757    13244    14376    15028    15290    15260    14945    14378 
   13663    12889    12087    11260    10396     9386     8079     6407 
    4399     2146     -153    -2238    -3935    -5275    -6415    -7434 
   -8321    -9055    -9601    -9945   -10138   -10216   -10162    -9898 
   -9356    -8567    -7561    -6377    -5121    -3919    -2841    -1873 
    -931      108     1277     2403     3341     4225     5317     6678 
    8087     9192     9729     9753     9579     9383     9081     8536 
    7685     6606     5563     4833     4410     3989     3291     2168 
     550    -1405    -3307    -4880    -6087    -6961    -7572    -8100 
   -8723    -9416   -10000   -10357   -10482   -10408   -10170    -9772 
   -9132    -8081    -6435    -4125    -1341     1526     4174     6542 
    8672    10493    11900    12928    13683    14214    14540    14674 
   14605    14388    14175    14029    13787    13242    12321    11087 
    9776     8734     8151     7901     7782     7717     7744     7994 
    8648     9763    11114    12330    13107    13281    12908    12232 
   11442    10600     9782     9092     8530     7987     7369     6612 
    5726     4892     4279     3874     3578     3319     3083     2866 
    2605     2147     1354      278     -851    -1836    -2521    -2833 
   -2809    -2471    -1765     -642      859     2548     4077     5130 
    5551     5359     4781     4167     3878     4171     5023     6147 
    7200     7882     7992     7469     6384     4896     3190     1480 
      59     -853    -1231    -1215     -969     -611     -278     -101 
     -95     -267     -675    -1350    -2251    -3303    -4434    -5582 
   -6619    -7445    -8063    -8456    -8495    -8079    -7246    -6115 
   -4865    -3765    -3067    -2884    -3164    -3711    -4234    -4459 
   -4261    -3713    -2879    -1755     -427      913     2085     2918 
    3318     3304     2975     2440     1818     1266      920      797 
     812      842      746      486      163     -170     -583    -1161 
   -1896    -2617    -3053    -3078    -2778    -2347    -2002    -1885 
   -1996    -2157    -2069    -1499     -348     1410     3639     6034 
    8337    10370    11939    12893    13266    13246    13076    13030 
   13335    14069    15152    16456    17884    19284    20380    20875 
   20495    19072    16767    14038    11334     8903     6855     5270 
    4222     3817     4101     4934     6038     7172     8167     8918 
    9444     9918    10532    11371    12394    13405    14044    14038 
   13432    12492    11529    10835    10643    11086    12216    13969 
   16098    18253    20119    21433    21969    21594    20333    18360 
   15900    13201    10474     7894     5644     3883     2725     2145 
    1925     1749     1277      229    -1410    -3373    -5206    -6388 
   -6528    -5556    -3728    -1512      584     2184     3117     3342 
    2910     1896      297    -1853    -4334    -6843    -9096   -10917 
  -12270   -13225   -13952   -14627   -15313   -15981   -16534   -16725 
  -16332   -15368   -13915   -11986    -9670    -7234    -5012    -3318 
   -2377    -2116    -2160    -2074    -1552     -521      764     1881 
    2563     2795     2609     1991     1030      -27     -880    -1267 
    -923      333     2439     5080     7900    10683    13244    15303 
   16653    17280    17328    17070    16756    16444    16055    15495 
   14629    13285    11394     9055     6416     3616      838    -1719 
   -3896    -5562    -6654    -7268    -7612    -7924    -8418    -9271 
  -10504   -11940   -13367   -14612   -15407   -15439   -14551   -12791 
  -10266    -7052    -3273      823     4932     8684    11685    13717 
   14813    15101    14677    13741    12762    12278    12528    13444 
   14862    16494    17960    19002    19438    19084    17940    16236 
   14227    12082     9977     8160     6906     6369     6435     6783 
    7038     6870     6045     4452     2124     -727    -3782    -6747 
   -9360   -11408   -12816   -13605   -13748   -13271   -12326   -11090 
   -9671    -8124    -6534    -5016    -3677    -2623    -1965    -1769 
   -2002    -2538    -3122    -3404    -3105    -2220     -984      291 
    1343     2047     2394     2385     2053     1506      916      569 
     746     1498     2714     4301     6091     7846     9494    11118 
   12760    14474    16286    17990    19229    19705    19288    18049 
   16232    14202    12343    10897     9926     9352     9000     8573 
    7689     6077     3686      595    -3010    -6799   -10351   -13244 
  -15156   -15888   -15421   -14038   -12206   -10311    -8622    -7248 
   -6104    -5011    -3769    -2280     -599     1248     3300     5517 
    7827    10091    12004    13344    14143    14563    14868    15360 
   16152    16992    17537    17915    18384    18712    18746    18617 
   18229    17548    16733    15804    14762    13724    12964    12669 
   12646    12509    11967    11006     9775     8422     7172     6137 
    5206     4423     3937     3673     3468     3221     2733     1834 
     660     -463    -1277    -1602    -1328     -521      460     1111 
    1055       95    -1796    -4351    -7074    -9545   -11483   -12629 
  -12837   -12178   -10887    -9224    -7450    -5838    -4545    -3528 
   -2616    -1556     -159     1634     3883     6569     9393    11962 
   14018    15429    16112    16039    15284    14038    12575    11229 
   10239     9587     9059     8456     7653     6492     4801     2478 
    -480    -3855    -7196   -10076   -12185   -13350   -13601   -13142 
  -12314   -11543   -11171   -11277   -11734   -12340   -12838   -12900 
  -12297   -10970    -9030    -6731    -4360    -2177     -398      832 
    1429     1374      706     -452    -1813    -3018    -3780    -3951 
   -3572    -2841    -2015    -1240     -522      226     1146     2307 
    3682     5233     6930     8800    10872    13069    15296    17437 
   19257    20528    21182    21297    20964    20304    19429    18339 
   17031    15626    14277    13132    12299    11730    11218    10543 
    9634     8521     7133     5364     3191      680    -2092    -4993 
   -7771   -10160   -12004   -13252   -13933   -14126   -13934   -13367 
  -12341   -10878    -9171    -7398    -5632    -3973    -2497    -1161 
     110     1296     2343     3308     4379     5697     7258     8959 
   10602    11912    12731    13103    13107    12781    12155    11233 
   10017     8600     7134     5717     4407     3226     2066      796 
    -567    -1869    -2960    -3731    -4075    -3943    -3411    -2519 
   -1240      344     2042     3631     4919     5794     6266     6473 
    6601     6790     7172     7884     8980    10409    12037    13666 
   15041    15935    16279    16128    15543    14662    13659    12681 
   11888    11433    11353    11554    11850    12025    11911    11430 
   10577     9417     8121     6893     5860     5085     4573     4240 
    3960     3684     3372     2907     2176     1155      -70    -1356 
   -2544    -3499    -4167    -4560    -4664    -4426    -3809    -2851 
   -1655     -332      938     1939     2606     3036     3366     3789 
    4496     5528     6794     8221     9686    10957    11813    12191 
   12143    11784    11319    10984    10937    11221    11799    12577 
   13412    14121    14499    14384    13738    12657    11299     9844 
    8490     7408     6702     6384     6346     6480     6701     6933 
    7222     7690     8343     9051     9676    10087    10166     9913 
    9466     8978     8559     8313     8336     8683     9274     9915 
   10457    10797    10871    10725    10449    10048     9435     8513 
    7241     5638     3788     1802     -234    -2276    -4229    -5983 
   -7526    -8869    -9950   -10729   -11358   -12136   -13297   -14935 
  -17031   -19435   -21830   -23869   -25384   -26362   -26800   -26678 
  -26026   -24938   -23606   -22326   -21402   -20949   -20804   -20583 
  -19824   -18183   -15618   -12386    -8908    -5659    -3007    -1094 
     183     1031     1551     1771     1698     1302      576     -373 
   -1325    -2016    -2307    -2188    -1773    -1269     -785     -298 
     137      423      579      576      297     -238     -827    -1213 
   -1201     -654      448     1908     3422     4730     5686     6276 
    6540     6523     6297     5948     5568     5335     5472     6124 
    7237     8565     9759    10463    10450     9706     8437     7002 
    5848     5331     5552     6350     7400     8392     9108     9424 
    9321     8915     8459     8264     8563     9444    10847    12663 
   14770    16939    18870    20267    20891    20579    19340    17501 
   15589    13948    12660    11713    11020    10419     9767     8978 
    7971     6717     5273     3678     1887     -120    -2239    -4325 
   -6239    -7898    -9310   -10550   -11692   -12727   -13544   -13975 
  -13857   -13128   -11826   -10064    -8020    -5881    -3775    -1800 
      -6     1688     3429     5281     7250     9308    11322    13140 
   14732    16092    17115    17714    17907    17725    17217    16517 
   15766    14974    14081    13097    12050    10953     9927     9159 
    8696     8448     8357     8390     8460     8564     8776     9043 
    9232     9316     9300     9185     9081     9148     9486    10081 
   10837    11578    12081    12240    12163    12021    11932    11898 
   11786    11445    10847    10062     9235     8517     8016     7717 
    7535     7420     7354     7321     7357     7504     7699     7831 
    7890     7956     8091     8338     8707     9131     9529     9867 
   10134    10287    10280    10091     9678     8999     8085     6948 
    5528     3812     1842     -310    -2519    -4626    -6515    -8171 
   -9625   -10879   -11901   -12708   -13362   -13875   -14237   -14466 
  -14580   -14557   -14386   -14084   -13703   -13315   -12923   -12444 
  -11826   -11020    -9949    -8622    -7129    -5595    -4195    -3098 
   -2361    -1927    -1695    -1590    -1570    -1659    -1912    -2336 
   -2891    -3546    -4284    -5074    -5865    -6594    -7176    -7565 
   -7767    -7780    -7588    -7269    -6937    -6608    -6232    -5746 
   -5042    -4131    -3188    -2300    -1394     -433      575     1664 
    2909     4376     6085     7981     9917    11689    13161    14292 
   15051    15365    15175    14461    13294    11885    10509     9398 
    8661     8305     8278     8428     8561     8561     8379     8019 
    7576     7172     6912     6833     6895     7049     7277     7535 
    7770     7958     8139     8415     8839     9378    10015    10748 
   11537    12312    13012    13593    14031    14380    14739    15120 
   15419    15530    15381    14955    14323    13671    13157    12793 
   12495    12206    11923    11627    11327    11084    10864    10511 
    9882     8904     7592     6139     4810     3726     2882     2243 
    1736     1254      795      513      517      747     1069     1318 
    1335     1073      646      168     -324     -850    -1491    -2274 
   -3088    -3796    -4351    -4799    -5243    -5764    -6358    -6957 
   -7485    -7904    -8209    -8417    -8608    -8873    -9178    -9440 
   -9651    -9802    -9859    -9848    -9830    -9840    -9876    -9888 
   -9715    -9186    -8224    -6882    -5317    -3761    -2424    -1431 
    -787     -436     -287     -205      -78      126      441      872 
    1402     1996     2582     3071     3441     3754     4072     4403 
    4708     4945     5097     5186     5266     5360     5391     5188 
    4642     3816     2870     1983     1335     1024     1013     1189 
    1455     1726     1876     1829     1590     1163      623      157 
     -79       -1      436     1158     2004     2874     3761     4654 
    5540     6469     7495     8569     9599    10557    11481    12370 
   13204    13990    14682    15214    15535    15628    15503    15160 
   14604    13868    13001    12070    11132    10193     9235     8251 
    7215     6075     4839     3591     2407     1356      554      121 
      60      247      525      739      803      758      693      652 
     668      760      907     1100     1336     1615     1933     2257 
    2562     2880     3261     3680     4041     4307     4526     4791 
    5185     5705     6315     6975     7565     8044     8499     9009 
    9637    10411    11261    12069    12725    13109    13100    12642 
   11789    10689     9516     8407     7476     6747     6126     5509 
    4853     4159     3466     2810     2195     1607     1051      529 
      51     -346     -648     -888    -1105    -1313    -1517    -1687 
   -1783    -1811    -1802    -1791    -1815    -1885    -2006    -2187 
   -2404    -2632    -2879    -3109    -3225    -3191    -3006    -2639 
   -2093    -1433     -708       -5      540      891     1152     1448 
    1853     2405     3061     3681     4135     4379     4415     4256 
    3939     3527     3071     2613     2170     1718     1250      749 
     197     -375     -897    -1293    -1495    -1507    -1432    -1394 
   -1439    -1513    -1490    -1228     -676      122     1107     2238 
    3450     4619     5643     6478     7123     7658     8209     8820 
    9479    10179    10883    11500    11942    12166    12182    12035 
   11784    11461    11051    10531     9910     9207     8473     7776 
    7159     6628     6153     5687     5186     4622     4001     3339 
    2650     1960     1290      638      -12     -666    -1297    -1853 
   -2293    -2565    -2633    -2587    -2581    -2701    -2961    -3306 
   -3595    -3712    -3613    -3264    -2679    -2002    -1395     -949 
