Origin Time       2025/01/13 21:19:00
Lat.              31.8
Long.             131.6
Depth. (km)       30
Mag.              6.9
Station Code      KMM010
Station Lat.      32.6134
Station Long.     130.4873
Station Height(m) 6
Record Time       2025/01/13 21:19:56
Sampling Freq(Hz) 100Hz
Duration Time(s)  127
Dir.              E-W
Scale Factor      7845(gal)/8223790
Max. Acc. (gal)   21.335
Last Correction   2025/01/13 21:19:57
Memo.             
[...]
   -1760    -1989    -2339    -2853    -3564    -4426    -5341    -6262 
   -7168    -7996    -8689    -9209    -9539    -9686    -9671    -9532 
   -9306    -9023    -8710    -8372    -8023    -7662    -7252    -6783 
   -6255    -5661    -5031    -4403    -3793    -3214    -2647    -2061 
   -1470     -888     -321      211      741     1302     1891     2494 
    3103     3654     4105     4471     4747     4889     4889     4816 
    4747     4708     4725     4816     5004     5316     5737     6214 
    6721     7218     7643     7974     8172     8209     8093     7842 
    7473     7017     6520     6042     5611     5227     4885     4599 
    4386     4201     3979     3697     3330     2867     2350     1796 
    1192      517     -264    -1148    -2058    -2911    -3663    -4297 
   -4804    -5178    -5413    -5536    -5590    -5580    -5491    -5308 
   -5019    -4641    -4244    -3889    -3559    -3268    -3067    -2960 
   -2943    -3010    -3110    -3192    -3213    -3114    -2899    -2582 
   -2146    -1626    -1053     -405      302      993     1586     2026 
    2320     2486     2516     2401     2151     1815     1439     1027 
     585      128     -348     -842    -1327    -1757    -2123    -2469 
   -2833    -3217    -3634    -4063    -4433    -4696    -4858    -4954 
   -4986    -4926    -4777    -4548    -4206    -3730    -3109    -2346 
   -1459     -483      515     1452     2254     2849     3191     3316 
    3298     3152     2866     2439     1911     1340      783      297 
     -59     -257     -297     -183       58      368      664      878 
     992     1007      938      816      670      515      359      184 
     -18     -245     -500     -797    -1116    -1393    -1578    -1652 
   -1605    -1425    -1128     -749     -357       -5      276      438 
     448      303        4     -432     -961    -1556    -2168    -2725 
   -3169    -3429    -3453    -3235    -2802    -2220    -1551     -834 
    -116      549     1090     1432     1541     1429     1123      679 
     182     -288     -681     -947    -1034     -938     -693     -315 
     198      853     1641     2521     3454     4428     5395     6299 
    7118     7821     8370     8729     8854     8726     8343     7703 
    6862     5918     4953     4050     3281     2666     2209     1922 
    1765     1682     1606     1466     1205      810      280     -406 
   -1281    -2336    -3562    -4936    -6405    -7893    -9309   -10562 
  -11566   -12252   -12592   -12592   -12251   -11578   -10643    -9499 
   -8166    -6685    -5120    -3514    -1910     -369     1047     2311 
    3442     4464     5383     6211     6980     7709     8388     9016 
    9620    10183    10677    11087    11346    11402    11253    10885 
   10296     9504     8469     7202     5756     4112     2257      261 
   -1803    -3894    -5968    -7928    -9709   -11302   -12688   -13859 
  -14832   -15610   -16189   -16541   -16623   -16456   -16058   -15429 
  -14623   -13718   -12757   -11751   -10687    -9593    -8500    -7383 
   -6211    -4999    -3769    -2532    -1300      -74     1158     2416 
    3689     4930     6107     7203     8195     9073     9832    10443 
   10887    11152    11268    11304    11272    11159    10974    10709 
   10377     9985     9516     9000     8453     7859     7265     6694 
    6124     5548     4949     4351     3771     3179     2586     1995 
    1354      656      -78     -838    -1618    -2434    -3283    -4152 
   -5023    -5854    -6593    -7169    -7510    -7577    -7398    -7032 
   -6544    -5992    -5412    -4820    -4226    -3630    -3060    -2563 
   -2155    -1823    -1540    -1285    -1048     -805     -538     -244 
      68      371      662      955     1243     1512     1744     1941 
    2107     2219     2277     2285     2242     2146     1999     1819 
    1647     1509     1443     1487     1656     1931     2293     2744 
    3260     3816     4396     4941     5386     5690     5805     5705 
    5400     4927     4342     3667     2918     2134     1345      577 
    -132     -743    -1221    -1551    -1759    -1860    -1880    -1844 
   -1759    -1657    -1570    -1485    -1431    -1433    -1478    -1579 
   -1765    -2046    -2409    -2813    -3233    -3663    -4063    -4399 
   -4644    -4743    -4660    -4411    -4043    -3605    -3133    -2671 
   -2257    -1884    -1570    -1339    -1170    -1053     -997     -978 
    -966     -932     -853     -726     -569     -382     -148      128 
     410      660      878     1074     1243     1367     1444     1478 
    1456     1363     1225     1053      839      606      386      193 
      27     -108     -205     -275     -336     -368     -353     -307 
    -230     -130      -54      -35      -75     -148     -217     -280 
    -340     -382     -419     -463     -499     -518     -472     -324 
     -83      222      553      864     1134     1352     1530     1687 
    1830     1975     2126     2262     2369     2458     2536     2579 
    2558     2481     2377     2238     2053     1837     1588     1287 
     951      565       99     -437    -1027    -1652    -2276    -2871 
   -3406    -3904    -4398    -4880    -5339    -5755    -6100    -6354 
   -6478    -6442    -6246    -5894    -5416    -4866    -4276    -3653 
   -3021    -2434    -1915    -1466    -1100     -828     -619     -459 
    -365     -315     -272     -220     -137        2      240      612 
    1102     1660     2239     2791     3289     3716     4035     4224 
    4283     4224     4071     3827     3492     3102     2694     2293 
    1926     1625     1447     1431     1539     1748     2062     2434 
    2813     3173     3477     3690     3796     3782     3666     3449 
    3102     2612     1995     1273      481     -318    -1092    -1819 
   -2469    -2997    -3392    -3680    -3867    -3936    -3901    -3789 
   -3623    -3429    -3231    -3075    -2992    -2994    -3095    -3299 
   -3572    -3881    -4199    -4468    -4617    -4600    -4401    -4009 
   -3422    -2674    -1811     -837      207     1255     2272     3218 
    4044     4723     5250     5655     5954     6135     6212     6211 
    6138     6021     5881     5740     5624     5537     5470     5405 
    5328     5239     5116     4916     4642     4326     3969     3559 
    3076     2511     1904     1282      643        0     -648    -1297 
   -1919    -2498    -3030    -3491    -3851    -4108    -4271    -4324 
   -4253    -4081    -3838    -3534    -3190    -2820    -2436    -2056 
   -1694    -1358    -1044     -737     -452     -237     -101      -54 
    -126     -297     -527     -808    -1115    -1426    -1732    -1998 
   -2192    -2315    -2377    -2394    -2384    -2340    -2253    -2120 
   -1958    -1763    -1520    -1244     -950     -641     -341      -76 
     135      280      405      541      680      832     1013     1229 
    1499     1833     2207     2592     2975     3345     3672     3936 
    4120     4202     4189     4104     3959     3770     3535     3241 
    2914     2625     2416     2307     2277     2285     2307     2347 
    2409     2505     2644     2805     2934     3024     3087     3107 
    3059     2933     2709     2377     1979     1545     1080      594 
      87     -425     -913    -1366    -1753    -2057    -2299    -2498 
   -2662    -2794    -2890    -2951    -3018    -3141    -3333    -3588 
   -3902    -4264    -4662    -5088    -5524    -5960    -6390    -6812 
   -7211    -7570    -7869    -8082    -8210    -8236    -8114    -7839 
   -7437    -6925    -6324    -5648    -4916    -4172    -3449    -2778 
   -2193    -1713    -1340    -1061     -841     -649     -483     -337 
    -184       -2      206      415      637      895     1181     1487 
    1826     2174     2497     2752     2884     2889     2781     2556 
    2246     1873     1437      969      527      162      -82     -168 
     -68      240      739     1393     2158     2957     3726     4432 
    5024     5456     5713     5796     5722     5501     5166     4760 
    4303     3843     3419     3024     2685     2421     2196     2008 
    1850     1676     1468     1181      738      122     -649    -1570 
   -2619    -3742    -4877    -5976    -6988    -7847    -8521    -8989 
   -9204    -9162    -8873    -8337    -7609    -6733    -5724    -4644 
   -3541    -2421    -1324     -274      727     1668     2539     3360 
    4167     5004     5890     6816     7774     8777     9833    10925 
   12036    13173    14307    15376    16344    17194    17891    18391 
   18675    18746    18570    18114    17385    16421    15248    13914 
   12482    10980     9406     7800     6215     4679     3200     1783 
     414     -949    -2328    -3715    -5107    -6500    -7859    -9177 
  -10455   -11685   -12860   -13968   -14994   -15930   -16742   -17394 
  -17883   -18207   -18361   -18355   -18203   -17909   -17475   -16896 
  -16175   -15333   -14391   -13396   -12399   -11439   -10554    -9737 
   -8965    -8220    -7476    -6705    -5894    -5017    -4054    -3002 
   -1879     -684      587     1918     3272     4607     5877     7044 
    8094     9007     9767    10385    10856    11157    11291    11264 
   11064    10687    10137     9417     8546     7547     6475     5412 
    4415     3515     2722     2029     1404      843      352      -87 
    -507     -931    -1371    -1858    -2439    -3123    -3905    -4770 
   -5649    -6478    -7222    -7830    -8263    -8517    -8565    -8386 
   -7973    -7327    -6481    -5482    -4388    -3264    -2166    -1148 
    -260      480     1071     1516     1818     1979     2019     1988 
    1930     1895     1938     2097     2409     2884     3491     4194 
    4972     5776     6555     7269     7871     8303     8519     8515 
    8293     7851     7226     6469     5624     4750     3916     3175 
    2569     2123     1845     1745     1807     2023     2397     2899 
    3472     4035     4510     4842     4973     4839     4423     3743 
    2828     1746      587     -606    -1800    -2941    -3969    -4834 
   -5516    -5992    -6278    -6430    -6485    -6480    -6480    -6520 
   -6627    -6821    -7086    -7414    -7798    -8185    -8523    -8758 
   -8814    -8695    -8413    -7954    -7331    -6551    -5625    -4604 
   -3501    -2317    -1070      220     1486     2662     3727     4648 
    5404     6014     6459     6732     6841     6779     6556     6192 
    5711     5169     4577     3946     3338     2782     2261     1787 
    1375     1021      720      469      270      126       40       12 
      31       91      193      313      436      568      712      880 
    1097     1366     1683     2042     2421     2816     3210     3566 
    3871     4129     4298     4325     4199     3906     3434     2794 
    1991     1046       -4    -1132    -2300    -3458    -4558    -5571 
   -6485    -7277    -7942    -8483    -8899    -9201    -9405    -9498 
   -9491    -9405    -9239    -8999    -8689    -8294    -7821    -7283 
   -6654    -5942    -5165    -4317    -3397    -2413    -1381     -325 
     760     1865     2963     4044     5101     6119     7102     8044 
    8923     9734    10470    11122    11686    12125    12426    12600 
   12598    12379    11959    11352    10586     9717     8785     7828 
    6890     5989     5116     4266     3442     2640     1838     1030 
     224     -598    -1441    -2282    -3118    -3928    -4688    -5390 
   -6021    -6602    -7145    -7607    -7982    -8284    -8486    -8579 
   -8581    -8505    -8365    -8179    -7970    -7780    -7614    -7473 
   -7384    -7337    -7296    -7284    -7307    -7346    -7395    -7442 
   -7476    -7476    -7399    -7238    -6987    -6637    -6211    -5715 
   -5120    -4413    -3597    -2683    -1667     -548      645     1869 
    3072     4202     5239     6165     6967     7669     8283     8804 
    9258     9656     9984    10228    10366    10389    10300    10079 
    9722     9270     8729     8098     7418     6712     5980     5231 
    4455     3657     2848     2010     1144      288     -535    -1324 
   -2070    -2775    -3446    -4097    -4741    -5387    -6029    -6632 
   -7175    -7653    -8039    -8338    -8600    -8810    -8949    -9058 
   -9134    -9147    -9103    -8999    -8850    -8672    -8459    -8217 
   -7954    -7657    -7314    -6891    -6365    -5740    -5019    -4217 
   -3353    -2416    -1409     -342      796     1995     3234     4534 
    5876     7230     8576     9860    11041    12110    13051    13868 
   14569    15144    15616    16013    16324    16564    16727    16795 
   16780    16665    16432    16093    15634    15040    14293    13352 
   12213    10891     9421     7851     6219     4553     2894     1254 
    -363    -1941    -3481    -4980    -6423    -7823    -9213   -10602 
  -11963   -13274   -14542   -15747   -16842   -17803   -18616   -19255 
  -19684   -19861   -19761   -19391   -18754   -17847   -16692   -15330 
  -13792   -12109   -10305    -8417    -6486    -4521    -2529     -568 
    1321     3121     4795     6315     7678     8904    10011    11002 
   11897    12737    13525    14251    14916    15496    15965    16266 
   16347    16195    15809    15182    14350    13356    12232    11007 
    9701     8317     6852     5321     3759     2201      675     -795 
   -2197    -3520    -4789    -6054    -7337    -8630    -9948   -11284 
  -12625   -13977   -15331   -16660   -17945   -19129   -20169   -21045 
  -21721   -22176   -22397   -22350   -22044   -21540   -20849   -19943 
  -18837   -17550   -16089   -14493   -12785   -10976    -9089    -7136 
   -5128    -3075     -989     1097     3181     5246     7246     9159 
   10957    12622    14161    15564    16827    17930    18835    19548 
   20075    20394    20503    20426    20191    19812    19294    18658 
   17932    17104    16148    15080    13936    12738    11502    10243 
    8969     7688     6400     5121     3842     2529     1185     -201 
   -1640    -3111    -4594    -6004    -7250    -8309    -9170    -9813 
  -10222   -10388   -10332   -10106    -9717    -9184    -8557    -7843 
   -7057    -6261    -5481    -4722    -4020    -3373    -2758    -2166 
   -1590    -1035     -513       -4      492      966     1417     1857 
    2299     2735     3161     3577     3948     4255     4507     4695 
    4789     4762     4603     4302     3848     3268     2587     1829 
    1030      217     -581    -1329    -2002    -2602    -3125    -3541 
   -3866    -4135    -4363    -4596    -4874    -5189    -5530    -5902 
   -6291    -6679    -7057    -7425    -7774    -8070    -8316    -8527 
   -8680    -8764    -8787    -8727    -8579    -8330    -7958    -7476 
   -6887    -6199    -5447    -4634    -3766    -2880    -2014    -1175 
    -363      426     1179     1921     2667     3389     4098     4793 
    5440     6048     6643     7191     7678     8118     8513     8857 
    9138     9350     9505     9590     9585     9502     9340     9089 
    8760     8368     7908     7357     6716     6016     5266     4473 
    3707     3005     2354     1732     1120      518      -85     -723 
   -1375    -2003    -2605    -3169    -3666    -4099    -4471    -4776 
   -5008    -5154    -5221    -5224    -5150    -5007    -4831    -4618 
   -4348    -4016    -3613    -3146    -2631    -2066    -1485     -931 
    -396      108      548      909     1190     1393     1521     1575 
    1570     1521     1440     1354     1271     1194     1123     1048 
     970      901      857      855      897      954     1026     1102 
    1159     1201     1248     1296     1335     1340     1308     1248 
    1142     1011      895      795      746      781      881     1031 
    1206     1387     1580     1761     1907     2004     2037     2011 
    1925     1779     1602     1394     1148      876      567      218 
    -140     -506     -882    -1260    -1638    -2012    -2373    -2735 
   -3106    -3474    -3844    -4191    -4484    -4741    -4970    -5173 
   -5378    -5617    -5887    -6162    -6411    -6612    -6737    -6755 
   -6664    -6471    -6173    -5771    -5282    -4718    -4089    -3414 
   -2714    -2018    -1341     -693      -70      545     1154     1759 
    2370     2982     3577     4128     4614     5034     5366     5583 
    5678     5649     5494     5228     4873     4445     3971     3476 
    2986     2532     2096     1655     1225      800      357      -93 
    -525     -916    -1277    -1629    -1949    -2215    -2439    -2592 
   -2635    -2583    -2443    -2220    -1927    -1561    -1134     -637 
     -67      548     1183     1814     2407     2938     3385     3715 
    3921     3998     3942     3751     3423     2968     2421     1806 
    1146      481     -156     -749    -1282    -1767    -2197    -2550 
   -2821    -3005    -3117    -3176    -3191    -3194    -3210    -3222 
   -3217    -3192    -3145    -3076    -2987    -2878    -2752    -2598 
   -2415    -2189    -1891    -1534    -1124     -614       -8      664 
    1398     2166     2933     3670     4341     4934     5441     5856 
    6189     6440     6574     6590     6502     6318     6065     5773 
    5475     5200     4949     4725     4545     4409     4320     4267 
    4228     4202     4158     4048     3858     3570     3152     2598 
    1921     1135      276     -630    -1543    -2390    -3138    -3771 
   -4279    -4675    -4985    -5227    -5421    -5590    -5742    -5883 
   -6021    -6187    -6382    -6581    -6787    -7006    -7192    -7321 
   -7373    -7322    -7157    -6864    -6434    -5881    -5200    -4405 
   -3535    -2590    -1574     -522      538     1576     2556     3451 
    4222     4846     5317     5637     5826     5914     5917     5857 
    5746     5606     5471     5339     5204     5071     4923     4741 
    4519     4232     3871     3423     2871     2235     1524      734 
     -97     -927    -1737    -2496    -3176    -3757    -4228    -4602 
   -4876    -5034    -5094    -5085    -5001    -4850    -4666    -4484 
   -4315    -4186    -4121    -4108    -4121    -4153    -4194    -4218 
   -4210    -4179    -4132    -4052    -3917    -3738    -3541    -3308 
   -3026    -2727    -2408    -2041    -1630    -1181     -672     -102 
     514     1155     1811     2475     3123     3754     4371     4950 
    5466     5930     6351     6743     7117     7460     7765     8017 
    8170     8201     8105     7871     7519     7059     6507     5900 
    5255     4571     3851     3099     2309     1490      656     -197 
   -1067    -1935    -2793    -3658    -4534    -5409    -6281    -7130 
   -7913    -8614    -9211    -9680   -10012   -10196   -10241   -10172 
   -9983    -9670    -9246    -8708    -8079    -7362    -6558    -5703 
   -4814    -3885    -2955    -2057    -1201     -405      315      970 
    1571     2124     2646     3148     3647     4155     4681     5233 
    5798     6354     6886     7353     7712     7950     8043     7970 
    7736     7352     6832     6212     5517     4789     4070     3388 
    2756     2172     1648     1190      760      346      -60     -484 
    -920    -1375    -1865    -2367    -2867    -3358    -3834    -4293 
   -4727    -5123    -5468    -5755    -5985    -6166    -6291    -6349 
   -6338    -6258    -6108    -5895    -5606    -5238    -4810    -4322 
