Origin Time       2025/01/13 21:19:00
Lat.              31.8
Long.             131.6
Depth. (km)       30
Mag.              6.9
Station Code      KMM012
Station Lat.      32.5099
Station Long.     130.5908
Station Height(m) 2
Record Time       2025/01/13 21:19:54
Sampling Freq(Hz) 100Hz
Duration Time(s)  151
Dir.              E-W
Scale Factor      7845(gal)/8223790
Max. Acc. (gal)   18.993
Last Correction   2025/01/13 21:19:54
Memo.             
[...]
    -360      535     1321     1892     2160     2106     1856     1572 
    1327     1148     1036      918      735      459       55     -484 
   -1177    -2054    -3095    -4187    -5219    -6124    -6878    -7485 
   -7942    -8190    -8212    -8039    -7704    -7273    -6839    -6426 
   -6026    -5624    -5151    -4596    -4014    -3442    -2937    -2519 
   -2083    -1549     -954     -360      163      542      797     1001 
    1150     1219     1255     1339     1510     1756     2029     2323 
    2668     3051     3414     3727     3987     4171     4187     3962 
    3501     2872     2187     1572     1098      738      452      253 
     184      315      683     1271     2052     2955     3861     4654 
    5243     5560     5570     5302     4885     4483     4147     3785 
    3300     2695     2010     1235      317     -796    -2087    -3474 
   -4884    -6238    -7438    -8422    -9147    -9552    -9599    -9323 
   -8823    -8221    -7560    -6833    -6087    -5387    -4810    -4434 
   -4284    -4330    -4536    -4824    -5115    -5366    -5548    -5665 
   -5787    -5958    -6156    -6328    -6451    -6554    -6701    -6936 
   -7240    -7543    -7809    -8002    -8112    -8140    -8052    -7842 
   -7535    -7138    -6675    -6189    -5728    -5319    -4928    -4523 
   -4139    -3809    -3537    -3299    -3088    -2930    -2839    -2825 
   -2916    -3107    -3345    -3585    -3767    -3770    -3522    -3041 
   -2408    -1737    -1098     -490      121      814     1669     2671 
    3721     4720     5580     6227     6617     6729     6552     6106 
    5468     4730     3954     3179     2385     1563      734     -105 
    -972    -1853    -2732    -3599    -4417    -5181    -5971    -6836 
   -7734    -8607    -9428   -10161   -10748   -11118   -11176   -10863 
  -10215    -9336    -8364    -7434    -6598    -5819    -5055    -4314 
   -3618    -2970    -2377    -1836    -1363     -997     -747     -618 
    -625     -738     -901    -1016     -994     -839     -594     -332 
    -183     -253     -558    -1048    -1629    -2208    -2739    -3206 
   -3600    -3894    -4040    -3983    -3699    -3199    -2528    -1737 
    -885       -9      868     1702     2423     2957     3234     3269 
    3150     2929     2648     2405     2289     2350     2574     2844 
    3019     3005     2756     2311     1738     1094      396     -346 
   -1080    -1773    -2504    -3333    -4217    -5097    -5922    -6658 
   -7331    -7971    -8549    -9040    -9433    -9721    -9937   -10087 
  -10147   -10125   -10057    -9976    -9869    -9697    -9450    -9140 
   -8764    -8305    -7778    -7204    -6581    -5876    -5063    -4155 
   -3240    -2382    -1571     -777       36      874     1674     2374 
    2988     3554     4124     4757     5463     6180     6836     7365 
    7716     7906     7979     7960     7877     7735     7497     7113 
    6570     5903     5144     4301     3364     2342     1239       63 
   -1162    -2413    -3643    -4760    -5667    -6273    -6531    -6463 
   -6131    -5616    -5036    -4486    -4013    -3640    -3319    -2953 
   -2496    -1972    -1406     -795     -175      390      915     1421 
    1869     2212     2421     2444     2241     1852     1356      808 
     237     -368    -1062    -1854    -2709    -3597    -4509    -5420 
   -6293    -7126    -7935    -8710    -9445   -10127   -10686   -11067 
  -11259   -11245   -11034   -10659   -10183    -9680    -9190    -8706 
   -8229    -7790    -7407    -7091    -6855    -6709    -6673    -6756 
   -6924    -7144    -7422    -7744    -8077    -8413    -8757    -9089 
   -9378    -9617    -9798    -9863    -9774    -9562    -9240    -8776 
   -8162    -7472    -6779    -6087    -5373    -4650    -3959    -3321 
   -2727    -2168    -1652    -1194     -795     -425      -55      324 
     729     1165     1632     2137     2697     3318     3964     4583 
    5152     5678     6153     6574     6972     7337     7600     7749 
    7786     7649     7263     6623     5783     4772     3638     2485 
    1393      423     -360     -969    -1474    -1939    -2371    -2764 
   -3133    -3450    -3673    -3819    -3877    -3828    -3743    -3673 
   -3589    -3492    -3439    -3493    -3662    -3894    -4129    -4294 
   -4303    -4126    -3807    -3381    -2852    -2234    -1552     -854 
    -230      255      610      850     1001     1136     1329     1578 
    1863     2192     2565     2967     3397     3835     4221     4496 
    4607     4542     4334     4021     3632     3233     2880     2598 
    2392     2215     1973     1605     1070      342     -537    -1463 
   -2332    -3109    -3798    -4429    -5051    -5663    -6219    -6685 
   -7029    -7249    -7388    -7469    -7496    -7512    -7568    -7669 
   -7780    -7835    -7777    -7573    -7195    -6675    -6091    -5509 
   -4990    -4548    -4152    -3823    -3597    -3434    -3258    -3056 
   -2870    -2740    -2687    -2693    -2743    -2830    -2903    -2928 
   -2943    -2967    -2992    -3018    -3019    -2991    -2937    -2810 
   -2571    -2265    -1927    -1529    -1058     -553      -68      345 
     684      953     1136     1208     1144      954      668      280 
    -206     -788    -1464    -2238    -3125    -4050    -4877    -5598 
   -6226    -6714    -7071    -7329    -7514    -7630    -7665    -7616 
   -7456    -7130    -6660    -6095    -5452    -4761    -4075    -3453 
   -2952    -2598    -2381    -2285    -2301    -2424    -2662    -3005 
   -3418    -3866    -4313    -4712    -4993    -5128    -5198    -5312 
   -5512    -5809    -6188    -6566    -6872    -7106    -7246    -7230 
   -7034    -6670    -6162    -5556    -4860    -4063    -3199    -2311 
   -1417     -554      236      932     1522     1975     2282     2463 
    2501     2335     1972     1513     1054      649      384      334 
     513      878     1350     1856     2373     2856     3241     3500 
    3603     3519     3287     2968     2631     2366     2228     2207 
    2285     2444     2641     2812     2905     2903     2791     2550 
    2205     1791     1304      737       98     -591    -1331    -2116 
   -2945    -3825    -4757    -5719    -6690    -7657    -8576    -9390 
  -10066   -10582   -10893   -10963   -10794   -10423    -9934    -9428 
   -8989    -8672    -8456    -8278    -8058    -7715    -7222    -6573 
   -5714    -4664    -3500    -2273    -1043      126     1219     2189 
    2965     3507     3835     3982     3967     3802     3504     3129 
    2766     2473     2234     1985     1663     1273      866      463 
     105     -163     -365     -540     -704     -878    -1093    -1386 
   -1760    -2205    -2720    -3258    -3716    -3996    -4051    -3889 
   -3581    -3237    -2948    -2786    -2802    -2988    -3310    -3762 
   -4315    -4907    -5478    -5952    -6262    -6416    -6440    -6336 
   -6134    -5875    -5582    -5290    -5031    -4777    -4513    -4251 
   -4005    -3782    -3559    -3299    -2979    -2625    -2299    -2039 
   -1825    -1615    -1378    -1077     -704     -284      175      715 
    1352     2034     2727     3411     4029     4592     5124     5574 
    5908     6137     6289     6404     6486     6538     6583     6615 
    6588     6436     6097     5575     4900     4133     3364     2612 
    1849     1093      344     -409    -1139    -1829    -2482    -3084 
   -3627    -4124    -4584    -5032    -5510    -6027    -6534    -6980 
   -7352    -7661    -7933    -8190    -8434    -8668    -8901    -9080 
   -9117    -9003    -8762    -8434    -8098    -7782    -7461    -7149 
   -6847    -6516    -6165    -5857    -5659    -5594    -5652    -5803 
   -6021    -6277    -6565    -6858    -7101    -7237    -7242    -7119 
   -6876    -6502    -5991    -5379    -4715    -4036    -3383    -2778 
   -2236    -1790    -1418    -1035     -607     -175      252      662 
     993     1165     1124      880      495        5     -560    -1165 
   -1800    -2463    -3150    -3874    -4595    -5250    -5832    -6349 
   -6786    -7105    -7306    -7441    -7527    -7538    -7510    -7503 
   -7514    -7518    -7535    -7562    -7533    -7431    -7288    -7079 
   -6771    -6399    -6018    -5653    -5298    -4947    -4584    -4148 
   -3585    -2926    -2268    -1682    -1163     -693     -252      220 
     784     1472     2284     3164     4004     4704     5193     5406 
    5346     5071     4638     4125     3608     3090     2529     1883 
    1132      272     -689    -1686    -2620    -3418    -4023    -4425 
   -4650    -4730    -4753    -4819    -4923    -5015    -5089    -5130 
   -5070    -4873    -4576    -4212    -3800    -3393    -3003    -2533 
   -1888    -1040       21     1321     2821     4425     6060     7686 
    9217    10569    11743    12723    13450    13923    14175    14216 
   14104    13926    13737    13539    13331    13136    12969    12838 
   12765    12749    12745    12691    12545    12276    11874    11344 
   10675     9842     8829     7636     6308     4889     3383     1765 
      21    -1840    -3766    -5702    -7609    -9462   -11213   -12799 
  -14169   -15272   -16081   -16584   -16798   -16748   -16464   -15994 
  -15392   -14681   -13861   -12947   -11974   -11014   -10157    -9462 
   -8958    -8675    -8614    -8762    -9082    -9463    -9801   -10038 
  -10126   -10056    -9914    -9803    -9725    -9652    -9590    -9493 
   -9317    -9057    -8716    -8330    -7936    -7592    -7358    -7225 
   -7144    -7084    -7026    -6991    -7037    -7169    -7353    -7581 
   -7832    -8054    -8224    -8314    -8272    -8064    -7645    -6972 
   -6103    -5094    -3997    -2916    -1945    -1105     -445      -76 
     -31     -241     -675    -1302    -2052    -2860    -3638    -4330 
   -4930    -5362    -5591    -5683    -5672    -5586    -5505    -5498 
   -5591    -5779    -6026    -6268    -6446    -6536    -6559    -6588 
   -6635    -6650    -6588    -6453    -6262    -6003    -5664    -5296 
   -4928    -4531    -4122    -3763    -3508    -3391    -3423    -3607 
   -3908    -4229    -4469    -4583    -4545    -4272    -3705    -2937 
   -2085    -1201     -348      399     1003     1453     1741     1879 
    1871     1711     1463     1270     1242     1405     1740     2205 
    2745     3321     3877     4317     4580     4691     4618     4271 
    3688     3011     2301     1603      992      486       71     -248 
    -507     -765    -1038    -1340    -1688    -2033    -2335    -2585 
   -2741    -2716    -2444    -1942    -1281     -515      355     1297 
    2238     3132     3954     4665     5235     5637     5856     5891 
    5776     5578     5341     5100     4922     4872     4973     5235 
    5629     6081     6556     7076     7628     8155     8650     9115 
    9481     9693     9729     9547     9170     8671     8104     7535 
    7006     6500     5998     5502     5019     4560     4167     3850 
    3542     3222     2934     2694     2500     2388     2367     2404 
    2420     2331     2089     1694     1129      388     -486    -1474 
   -2573    -3705    -4827    -5902    -6868    -7773    -8664    -9513 
  -10322   -11140   -12032   -13015   -14058   -15136   -16221   -17270 
  -18252   -19132   -19886   -20525   -21051   -21462   -21768   -21963 
  -22021   -21945   -21708   -21271   -20625   -19745   -18663   -17447 
  -16143   -14783   -13377   -11952   -10592    -9333    -8186    -7164 
   -6247    -5443    -4791    -4266    -3838    -3508    -3234    -2995 
   -2791    -2587    -2376    -2162    -1950    -1792    -1750    -1818 
   -1954    -2188    -2542    -2965    -3418    -3920    -4484    -5082 
   -5680    -6295    -6939    -7566    -8121    -8591    -8964    -9251 
   -9510    -9741    -9925   -10091   -10251   -10386   -10471   -10447 
  -10260    -9886    -9289    -8472    -7484    -6345    -5090    -3777 
   -2448    -1177      -21     1028     1981     2835     3607     4313 
    4943     5485     5904     6196     6359     6388     6303     6124 
    5869     5548     5188     4837     4534     4279     4063     3901 
    3807     3777     3813     3913     4070     4293     4591     4947 
    5337     5711     6008     6228     6382     6450     6451     6448 
    6455     6470     6550     6720     6917     7114     7362     7673 
    8025     8457     8984     9556    10161    10797    11404    11925 
   12341    12621    12729    12629    12297    11716    10893     9844 
    8590     7163     5613     4035     2516     1109     -164    -1305 
   -2335    -3264    -4063    -4749    -5401    -6083    -6810    -7595 
   -8425    -9251   -10010   -10662   -11203   -11642   -11981   -12222 
  -12359   -12384   -12317   -12201   -12087   -12024   -12031   -12102 
  -12213   -12360   -12534   -12681   -12744   -12710   -12565   -12268 
  -11815   -11241   -10573    -9821    -8999    -8139    -7300    -6539 
   -5879    -5362    -5027    -4860    -4835    -4927    -5094    -5296 
   -5479    -5632    -5759    -5817    -5748    -5516    -5121    -4610 
   -4028    -3423    -2857    -2346    -1852    -1375     -911     -388 
     233      943     1748     2587     3411     4244     5039     5749 
    6420     7042     7596     8120     8600     8984     9261     9471 
    9612     9656     9613     9479     9258     8946     8514     7943 
    7225     6342     5316     4186     2971     1699      410     -870 
   -2137    -3396    -4661    -5962    -7356    -8912   -10663   -12563 
  -14543   -16507   -18326   -19880   -21073   -21837   -22171   -22115 
  -21693   -20926   -19890   -18639   -17217   -15726   -14246   -12808 
  -11442   -10176    -9019    -7977    -7040    -6166    -5352    -4614 
   -3909    -3227    -2597    -1999    -1441     -955     -564     -324 
    -265     -355     -572     -893    -1256    -1598    -1896    -2185 
   -2479    -2741    -2961    -3129    -3183    -3117    -2943    -2654 
   -2297    -1894    -1439    -1013     -666     -344      -22      249 
     477      734     1044     1356     1636     1899     2149     2366 
    2546     2740     2974     3235     3586     4070     4665     5352 
    6062     6677     7119     7335     7285     6960     6363     5520 
    4471     3280     2012      707     -602    -1868    -3056    -4144 
   -5124    -5975    -6683    -7229    -7585    -7755    -7739    -7547 
   -7231    -6808    -6237    -5532    -4711    -3788    -2809    -1807 
    -827       74      909     1725     2540     3372     4233     5101 
    5923     6646     7231     7681     7997     8175     8228     8170 
    7993     7697     7277     6740     6120     5416     4598     3685 
    2702     1594      299    -1158    -2740    -4432    -6178    -7888 
   -9494   -10994   -12361   -13514   -14458   -15240   -15816   -16186 
  -16443   -16646   -16807   -16956   -17131   -17292   -17367   -17352 
  -17227   -16958   -16556   -16006   -15282   -14424   -13493   -12505 
  -11472   -10416    -9366    -8363    -7427    -6539    -5726    -5024 
   -4369    -3740    -3154    -2529    -1809    -1020     -153      801 
    1814     2852     3896     4923     5875     6682     7350     7894 
    8298     8594     8842     9036     9147     9192     9180     9086 
    8900     8635     8326     8016     7731     7503     7354     7268 
    7233     7256     7308     7342     7333     7292     7242     7199 
    7160     7123     7086     7002     6812     6493     6069     5562 
    4974     4314     3582     2782     1899      886     -276    -1555 
   -2911    -4279    -5570    -6775    -7909    -8927    -9799   -10544 
  -11156   -11615   -11928   -12097   -12132   -12048   -11853   -11566 
  -11215   -10812   -10381    -9954    -9552    -9186    -8876    -8603 
   -8351    -8136    -7927    -7651    -7310    -6933    -6493    -5998 
   -5514    -5081    -4718    -4418    -4160    -3967    -3858    -3817 
   -3839    -3913    -4031    -4131    -4163    -4171    -4220    -4291 
   -4357    -4445    -4560    -4679    -4799    -4911    -4986    -5034 
   -5040    -4959    -4830    -4699    -4553    -4401    -4276    -4159 
   -4021    -3892    -3804    -3727    -3646    -3600    -3578    -3566 
   -3588    -3649    -3724    -3801    -3889    -4005    -4168    -4386 
   -4641    -4900    -5123    -5263    -5304    -5277    -5221    -5151 
   -5100    -5107    -5175    -5265    -5321    -5313    -5198    -4932 
   -4510    -3986    -3416    -2825    -2262    -1772    -1344     -955 
    -595     -268       20      326      693     1107     1547     1993 
    2431     2872     3304     3715     4148     4604     5032     5395 
    5652     5790     5809     5701     5483     5189     4853     4510 
    4176     3858     3542     3225     2897     2528     2150     1815 
    1534     1343     1267     1298     1401     1524     1656     1810 
    1992     2212     2451     2705     2970     3188     3327     3403 
    3361     3187     2938     2617     2218     1780     1336      918 
     534      184      -98     -299     -449     -581     -711     -864 
   -1067    -1324    -1642    -2031    -2475    -2972    -3528    -4152 
   -4874    -5690    -6575    -7519    -8469    -9351   -10130   -10783 
  -11280   -11627   -11848   -11959   -11965   -11892   -11809   -11761 
  -11739   -11762   -11850   -11961   -12036   -12033   -11902   -11587 
  -11053   -10311    -9373    -8239    -6961    -5620    -4272    -2998 
   -1854     -868      -86      467      818      997     1046     1001 
     911      823      743      664      602      545      469      380 
     288      195      109       33      -41     -112     -176     -228 
    -233     -178      -56      125      333      542      746      926 
    1065     1139     1105      945      673      298     -190     -754 
   -1336    -1915    -2500    -3082    -3663    -4276    -4954    -5688 
   -6448    -7200    -7884    -8428    -8777    -8908    -8792    -8386 
   -7680    -6710    -5560    -4337    -3148    -2052    -1081     -267 
     367      800     1030     1063      901      588      189     -251 
    -704    -1127    -1451    -1655    -1760    -1775    -1718    -1609 
   -1443    -1270    -1158    -1112    -1100    -1123    -1198    -1300 
   -1406    -1540    -1692    -1810    -1854    -1815    -1669    -1398 
   -1003     -487       86      612     1059     1402     1598     1657 
    1606     1468     1313     1179     1027      845      634      348 
     -39     -506    -1051    -1678    -2343    -3025    -3690    -4283 
   -4772    -5146    -5395    -5535    -5575    -5520    -5401    -5271 
   -5165    -5063    -4935    -4800    -4668    -4499    -4284    -4058 
   -3832    -3585    -3318    -3072    -2880    -2728    -2617    -2581 
   -2625    -2697    -2790    -2930    -3088    -3218    -3311    -3370 
   -3389    -3361    -3268    -3053    -2686    -2212    -1653    -1005 
    -326      287      819     1308     1757     2146     2450     2632 
    2663     2532     2227     1748     1131      432     -317    -1116 
   -1941    -2755    -3516    -4205    -4803    -5256    -5549    -5733 
   -5819    -5811    -5725    -5570    -5381    -5212    -5066    -4962 
   -4947    -5008    -5116    -5269    -5410    -5474    -5443    -5319 
   -5104    -4857    -4625    -4388    -4185    -4081    -4059    -4064 
   -4131    -4295    -4523    -4792    -5093    -5378    -5613    -5795 
