Origin Time       2025/01/13 21:19:00
Lat.              31.8
Long.             131.6
Depth. (km)       30
Mag.              6.9
Station Code      KMM011
Station Lat.      32.6166
Station Long.     130.8635
Station Height(m) 142
Record Time       2025/01/13 21:19:52
Sampling Freq(Hz) 100Hz
Duration Time(s)  119
Dir.              U-D
Scale Factor      7845(gal)/8223790
Max. Acc. (gal)   6.319
Last Correction   2025/01/13 21:19:52
Memo.             
[...]
   -2747    -2748    -2751    -2749    -2749    -2752    -2752    -2755 
   -2762    -2763    -2759    -2759    -2762    -2759    -2756    -2756 
   -2752    -2743    -2735    -2733    -2731    -2732    -2739    -2741 
   -2751    -2764    -2768    -2770    -2772    -2767    -2763    -2759 
   -2751    -2743    -2731    -2712    -2701    -2698    -2701    -2713 
   -2735    -2766    -2798    -2821    -2832    -2832    -2814    -2783 
   -2758    -2743    -2733    -2724    -2721    -2706    -2677    -2659 
   -2658    -2667    -2713    -2782    -2839    -2887    -2930    -2948 
   -2955    -2959    -2944    -2921    -2891    -2824    -2721    -2621 
   -2546    -2516    -2554    -2637    -2733    -2817    -2867    -2890 
   -2924    -2970    -3014    -3055    -3071    -3037    -2957    -2847 
   -2733    -2654    -2620    -2616    -2627    -2651    -2686    -2752 
   -2857    -2986    -3107    -3190    -3198    -3114    -2952    -2764 
   -2620    -2565    -2597    -2691    -2789    -2832    -2821    -2782 
   -2736    -2718    -2770    -2875    -2987    -3073    -3084    -2997 
   -2849    -2691    -2575    -2536    -2548    -2573    -2601    -2640 
   -2697    -2778    -2878    -2961    -3001    -2974    -2874    -2744 
   -2660    -2644    -2673    -2724    -2747    -2686    -2562    -2435 
   -2363    -2393    -2502    -2628    -2733    -2795    -2799    -2776 
   -2766    -2759    -2764    -2785    -2802    -2813    -2808    -2770 
   -2695    -2600    -2508    -2452    -2448    -2482    -2536    -2593 
   -2629    -2664    -2732    -2840    -2980    -3133    -3240    -3250 
   -3164    -3007    -2828    -2667    -2535    -2435    -2394    -2409 
   -2423    -2393    -2316    -2223    -2155    -2128    -2141    -2211 
   -2370    -2605    -2868    -3123    -3337    -3469    -3492    -3362 
   -3063    -2646    -2208    -1838    -1602    -1548    -1684    -1957 
   -2282    -2569    -2760    -2876    -2986    -3118    -3234    -3291 
   -3285    -3218    -3063    -2810    -2496    -2197    -1999    -1931 
   -1984    -2203    -2629    -3240    -3948    -4600    -4999    -5015 
   -4641    -4005    -3362    -2926    -2697    -2563    -2462    -2336 
   -2173    -2037    -1981    -2026    -2177    -2394    -2654    -2976 
   -3325    -3603    -3727    -3635    -3349    -2997    -2690    -2442 
   -2230    -2008    -1752    -1553    -1541    -1764    -2227    -2890 
   -3627    -4291    -4756    -4930    -4776    -4318    -3616    -2794 
   -2060    -1557    -1275    -1165    -1208    -1374    -1606    -1854 
   -2130    -2494    -2986    -3522    -3925    -4033    -3786    -3242 
   -2544    -1858    -1359    -1159    -1243    -1509    -1853    -2191 
   -2498    -2809    -3123    -3369    -3449    -3292    -2864    -2278 
   -1798    -1620    -1759    -2092    -2475    -2826    -3095    -3245 
   -3296    -3312    -3383    -3551    -3762    -3910    -3951    -3873 
   -3690    -3491    -3373    -3364    -3393    -3366    -3244    -3060 
   -2864    -2671    -2509    -2447    -2517    -2708    -2975    -3187 
   -3154    -2783    -2157    -1514    -1132    -1082    -1235    -1451 
   -1699    -2042    -2539    -3136    -3713    -4182    -4421    -4299 
   -3792    -3003    -2120    -1354     -795     -415     -194     -147 
    -286     -641    -1239    -2053    -2995    -3916    -4577    -4797 
   -4600    -4140    -3613    -3203    -2986    -2938    -3029    -3214 
   -3400    -3508    -3545    -3565    -3619    -3682    -3661    -3476 
   -3105    -2575    -2034    -1680    -1651    -1995    -2664    -3470 
   -4156    -4449    -4136    -3199    -1894     -602      336      673 
     341     -549    -1813    -3211    -4499    -5451    -5841    -5533 
   -4592    -3287    -1988    -1058     -733    -1000    -1642    -2390 
   -2965    -3188    -3040    -2578    -1915    -1263     -868     -904 
   -1399    -2218    -3149    -3962    -4419    -4398    -3970    -3343 
   -2705    -2158    -1787    -1679    -1840    -2176    -2604    -3129 
   -3761    -4410    -4926    -5236    -5367    -5298    -4924    -4174 
   -3161    -2196    -1516    -1085     -754     -502     -476     -801 
   -1401    -2015    -2425    -2605    -2640    -2609    -2586    -2708 
   -3107    -3742    -4364    -4692    -4611    -4156    -3454    -2709 
   -2137    -1921    -2118    -2556    -2975    -3210    -3203    -3011 
   -2736    -2488    -2413    -2596    -2903    -3110    -3099    -2889 
   -2571    -2238    -1941    -1749    -1722    -1817    -1939    -2093 
   -2299    -2488    -2559    -2492    -2394    -2439    -2709    -3168 
   -3763    -4398    -4887    -5107    -5059    -4784    -4278    -3511 
   -2524    -1518     -749     -344     -286     -490     -865    -1316 
   -1713    -1971    -2157    -2400    -2737    -3140    -3622    -4225 
   -4896    -5421    -5535    -5130    -4387    -3584    -2843    -2191 
   -1676    -1341    -1219    -1344    -1765    -2527    -3566    -4638 
   -5410    -5664    -5362    -4564    -3358    -1877     -379      765 
    1273     1104      446     -444    -1404    -2300    -2967    -3287 
   -3325    -3294    -3357    -3507    -3670    -3807    -3912    -3990 
   -3991    -3815    -3389    -2712    -1925    -1310    -1105    -1370 
   -2049    -3013    -4024    -4793    -5104    -4899    -4263    -3358 
   -2376    -1570    -1213    -1414    -2033    -2766    -3292    -3426 
   -3167    -2687    -2258    -2118    -2385    -3036    -3856    -4511 
   -4791    -4637    -4016    -3118    -2327    -1819    -1533    -1340 
   -1198    -1259    -1607    -2042    -2253    -2116    -1764    -1436 
   -1312    -1390    -1548    -1679    -1744    -1830    -2161    -2806 
   -3542    -4128    -4511    -4733    -4792    -4625    -4167    -3476 
   -2744    -2226    -2110    -2377    -2741    -2862    -2571    -1926 
   -1136     -457      -94     -162     -598    -1186    -1723    -2138 
   -2438    -2660    -2875    -3136    -3488    -3970    -4513    -4968 
   -5204    -5138    -4754    -4148    -3439    -2752    -2259    -2058 
   -2085    -2235    -2405    -2479    -2459    -2463    -2556    -2686 
   -2759    -2731    -2690    -2749    -2840    -2829    -2748    -2712 
   -2745    -2808    -2853    -2870    -2871    -2849    -2812    -2817 
   -2944    -3229    -3651    -4131    -4513    -4650    -4511    -4186 
   -3870    -3657    -3426    -3001    -2285    -1318     -310      491 
     919      862      276     -719    -1840    -2812    -3519    -3981 
   -4230    -4264    -4124    -3951    -3889    -3964    -4074    -4036 
   -3750    -3295    -2793    -2303    -1902    -1649    -1497    -1386 
   -1333    -1429    -1748    -2205    -2597    -2774    -2708    -2403 
   -1894    -1305     -851     -745    -1086    -1811    -2718    -3551 
   -4112    -4321    -4229    -3946    -3553    -3110    -2636    -2093 
   -1547    -1216    -1339    -2042    -3160    -4311    -5144    -5443 
   -5162    -4422    -3404    -2290    -1271     -554     -267     -400 
    -880    -1597    -2358    -2979    -3408    -3754    -4128    -4436 
   -4469    -4187    -3759    -3396    -3165    -2949    -2635    -2268 
   -1954    -1714    -1529    -1503    -1749    -2209    -2713    -3129 
   -3407    -3526    -3431    -3165    -2918    -2868    -3018    -3242 
   -3430    -3588    -3820    -4159    -4498    -4764    -4891    -4708 
   -4152    -3375    -2574    -1875    -1289     -795     -511     -604 
   -1058    -1648    -2095    -2263    -2232    -2161    -2173    -2362 
   -2759    -3234    -3549    -3527    -3187    -2731    -2373    -2182 
   -2131    -2272    -2679    -3279    -3851    -4160    -4089    -3720 
   -3214    -2629    -2037    -1597    -1374    -1313    -1381    -1595 
   -2000    -2551    -3029    -3231    -3149    -2921    -2700    -2619 
   -2814    -3352    -4110    -4833    -5265    -5289    -4950    -4329 
   -3523    -2687    -1918    -1197     -483      133      365      -43 
   -1088    -2509    -3948    -5085    -5724    -5741    -5094    -3959 
   -2740    -1857    -1494    -1594    -2022    -2660    -3304    -3682 
   -3647    -3245    -2639    -1980    -1351     -892     -853    -1358 
   -2250    -3173    -3824    -4170    -4333    -4332    -4098    -3674 
   -3238    -2875    -2458    -1876    -1232     -764     -700    -1129 
   -1954    -2951    -3819    -4253    -4109    -3528    -2799    -2199 
   -1942    -2066    -2447    -2905    -3233    -3300    -3161    -2929 
   -2698    -2589    -2637    -2748    -2852    -2940    -3019    -3164 
   -3434    -3759    -3971    -3870    -3329    -2497    -1728    -1310 
   -1374    -1837    -2443    -2917    -3059    -2790    -2214    -1622 
   -1321    -1385    -1686    -2106    -2577    -3040    -3434    -3674 
   -3658    -3327    -2697    -1922    -1243     -783     -557     -599 
    -942    -1578    -2412    -3279    -4070    -4758    -5332    -5759 
   -5989    -5972    -5665    -5032    -4004    -2646    -1282     -271 
     187      109     -313     -901    -1548    -2146    -2673    -3183 
   -3732    -4378    -5088    -5679    -5925    -5738    -5197    -4461 
   -3703    -3059    -2569    -2143    -1640     -970     -245      268 
     369        1     -754    -1696    -2590    -3222    -3462    -3326 
   -2972    -2627    -2467    -2544    -2802    -3117    -3370    -3542 
   -3615    -3495    -3134    -2646    -2227    -2047    -2212    -2739 
   -3520    -4342    -4915    -4942    -4291    -3140    -1868     -824 
    -175       83       27     -276     -761    -1379    -2134    -3067 
   -4067    -4828    -5171    -5178    -4955    -4510    -3861    -3163 
   -2667    -2520    -2683    -3022    -3376    -3607    -3603    -3291 
   -2714    -1973    -1165     -463      -98     -182     -649    -1308 
   -1915    -2327    -2490    -2367    -2018    -1690    -1656    -2049 
   -2916    -4141    -5354    -6123    -6219    -5663    -4691    -3677 
   -2938    -2614    -2619    -2636    -2385    -1942    -1642    -1750 
   -2263    -2934    -3519    -3913    -4001    -3607    -2744    -1718 
    -882     -437     -411     -715    -1271    -1962    -2548    -2841 
   -2903    -2988    -3307    -3802    -4217    -4360    -4194    -3770 
   -3159    -2404    -1576     -789     -153      225      228     -279 
   -1375    -2938    -4665    -6235    -7380    -7786    -7161    -5544 
   -3441    -1536     -360      -82     -465    -1156    -1941    -2666 
   -3156    -3353    -3433    -3640    -3979    -4168    -3897    -3095 
   -1945     -719      278      724      383     -772    -2466    -4164 
   -5381    -5962    -5976    -5474    -4529    -3345    -2236    -1463 
   -1065     -885     -810     -911    -1370    -2220    -3276    -4287 
   -5042    -5405    -5327    -4788    -3843    -2650    -1437     -426 
     288      662      592       25     -950    -2114    -3142    -3804 
   -4087    -4166    -4248    -4384    -4487    -4536    -4577    -4544 
   -4197    -3338    -2076     -695      561     1464     1773     1364 
     373     -800    -1775    -2446    -2928    -3366    -3778    -4024 
   -3993    -3746    -3414    -3071    -2736    -2434    -2292    -2515 
   -3156    -4036    -4912    -5616    -6085    -6335    -6292    -5852 
   -5081    -4128    -3060    -1992    -1127     -588     -341     -238 
    -229     -527    -1354    -2555    -3635    -4090    -3703    -2651 
   -1420     -529     -257     -623    -1455    -2408    -3063    -3154 
   -2795    -2340    -2033    -1975    -2187    -2577    -3079    -3727 
   -4495    -5220    -5647    -5486    -4683    -3609    -2629    -1655 
    -464      876     2046     2704     2624     1671     -207    -2768 
   -5437    -7561    -8743    -9030    -8623    -7495    -5597    -3213 
    -900      729     1312      800     -714    -2871    -5067    -6831 
   -7855    -7877    -6767    -4689    -2165      -51      872      491 
    -606    -1705    -2427    -2755    -2710    -2250    -1516     -853 
    -492     -450     -697    -1224    -2039    -3137    -4337    -5360 
   -6057    -6335    -6076    -5273    -4066    -2664    -1352     -461 
    -260     -724    -1418    -1792    -1615    -1098     -687     -702 
   -1086    -1506    -1671    -1630    -1710    -2035    -2346    -2434 
   -2419    -2539    -2889    -3414    -4027    -4618    -5124    -5606 
   -6106    -6579    -6922    -6937    -6478    -5625    -4576    -3484 
   -2412    -1383     -461      257      718      884      691      103 
    -757    -1695    -2551    -3235    -3812    -4313    -4545    -4315 
   -3607    -2501    -1202      -49      558      341     -571    -1637 
   -2385    -2697    -2698    -2589    -2532    -2625    -2983    -3709 
   -4708    -5607    -5960    -5522    -4336    -2705    -1119      -18 
     376       71     -791    -2002    -3302    -4390    -5065    -5254 
   -4919    -4137    -3225    -2548    -2266    -2320    -2554    -2810 
   -3006    -3114    -3057    -2760    -2357    -2127    -2326    -3068 
   -4217    -5348    -6000    -5958    -5323    -4391    -3523    -3051 
   -3136    -3704    -4503    -5139    -5186    -4421    -2914    -1069 
     542     1544     1834     1499      827      114     -527    -1125 
   -1715    -2297    -2855    -3388    -3888    -4271    -4387    -4095 
   -3406    -2482    -1553     -859     -596     -843    -1561    -2614 
   -3835    -5088    -6238    -7083    -7377    -6959    -5891    -4442 
   -3011    -2030    -1738    -2080    -2809    -3551    -3890    -3604 
   -2828    -1899    -1185    -1102    -1887    -3361    -5163    -6974 
   -8459    -9316    -9373    -8559    -6916    -4666    -2247     -124 
    1489     2577     3049     2740     1659       39    -1817    -3558 
   -4900    -5759    -6126    -6034    -5552    -4571    -2988    -1138 
     368     1111     1003      157    -1188    -2727    -4179    -5374 
   -6251    -6944    -7566    -7948    -7859    -7287    -6335    -5113 
   -3750    -2376    -1217     -572     -553    -1066    -1911    -2824 
   -3555    -3874    -3631    -2959    -2177    -1582    -1318    -1337 
   -1536    -1877    -2327    -2775    -3026    -2948    -2604    -2155 
   -1813    -1794    -2226    -3117    -4306    -5448    -6235    -6552 
   -6438    -5976    -5270    -4417    -3477    -2516    -1663    -1102 
   -1034    -1545    -2458    -3326    -3673    -3311    -2488    -1715 
   -1405    -1640    -2238    -2891    -3346    -3555    -3589    -3507 
   -3451    -3593    -3993    -4598    -5165    -5229    -4406    -2813 
   -1039      302      859      604     -179    -1039    -1679    -2106 
   -2354    -2288    -1809    -1053     -309      162      271       22 
    -562    -1313    -1942    -2261    -2133    -1524     -594      378 
     916      490     -978    -2992    -4866    -6133    -6713    -6691 
   -6103    -4985    -3508    -2035     -900     -141      403      922 
    1505     2050     2380     2467     2351     1944     1121      -66 
   -1378    -2527    -3306    -3632    -3393    -2512    -1271     -264 
      12     -618    -1948    -3515    -4897    -5821    -6160    -5975 
   -5508    -5103    -5034    -5331    -5780    -6011    -5656    -4608 
   -3164    -1879    -1283    -1522    -2270    -3098    -3744    -4089 
   -4152    -3970    -3501    -2806    -2057    -1340     -738     -340 
     -76      109       74     -342    -1090    -1898    -2519    -3041 
   -3759    -4781    -5911    -6840    -7360    -7410    -6940    -5859 
   -4137    -1906      506     2535     3562     3183     1378    -1354 
   -4082    -5949    -6620    -6301    -5502    -4680    -4043    -3627 
   -3357    -3114    -2820    -2420    -1939    -1543    -1383    -1476 
   -1844    -2600    -3792    -5256    -6637    -7489    -7516    -6662 
   -4996    -2740     -302     1792     3024     3136     2228      537 
   -1595    -3643    -5078    -5530    -4958    -3800    -2664    -1935 
   -1775    -2088    -2613    -3107    -3295    -2999    -2371    -1672 
   -1086     -830     -980    -1355    -1702    -1846    -1826    -1821 
   -1956    -2269    -2728    -3253    -3753    -4098    -4206    -4151 
   -4063    -3952    -3775    -3527    -3231    -2984    -2982    -3338 
   -3910    -4455    -4927    -5413    -5861    -6064    -5899    -5331 
   -4310    -2883    -1156      688     2281     3230     3280     2328 
     562    -1533    -3414    -4698    -5289    -5281    -4884    -4421 
   -4179    -4249    -4526    -4877    -5211    -5441    -5418    -4945 
   -4001    -2790    -1483     -214      764     1221      981     -124 
   -2018    -4237    -6114    -7067    -6871    -5726    -4121    -2600 
   -1615    -1445    -2012    -2817    -3349    -3416    -3095    -2647 
   -2404    -2516    -2901    -3337    -3591    -3611    -3581    -3721 
   -4058    -4365    -4415    -4182    -3726    -3072    -2300    -1668 
   -1485    -1811    -2450    -3173    -3835    -4423    -4966    -5387 
   -5601    -5478    -4870    -3788    -2403    -1001       81      572 
     337     -562    -1872    -3269    -4432    -5054    -4943    -4054 
   -2547     -820      687     1647     1891     1474      573     -742 
   -2532    -4677    -6758    -8324    -9082    -8900    -7840    -6070 
   -3811    -1429      672     2188     2936     2894     2130      731 
   -1143    -3283    -5391    -6999    -7651    -7180    -5763    -3824 
   -1831     -201      670      607     -171    -1179    -1941    -2258 
   -2293    -2338    -2543    -2855    -3184    -3410    -3329    -2847 
   -2119    -1459    -1182    -1412    -1966    -2440    -2516    -2254 
   -1888    -1541    -1308    -1320    -1648    -2245    -2968    -3611 
   -4000    -4120    -4025    -3711    -3230    -2737    -2323    -1938 
   -1453     -876     -411     -209     -216     -305     -372     -368 
    -348     -422     -656    -1074    -1729    -2601    -3473    -4002 
   -3915    -3272    -2538    -2135    -2122    -2319    -2547    -2749 
   -2883    -2848    -2654    -2378    -2038    -1641    -1229     -930 
    -974    -1494    -2357    -3284    -4012    -4322    -4071    -3298 
   -2265    -1314     -739     -704    -1155    -1892    -2713    -3434 
   -3878    -3940    -3620    -3067    -2527    -2209    -2215    -2521 
   -2982    -3343    -3388    -3053    -2381    -1547     -861     -500 
    -407     -554     -962    -1537    -2169    -2805    -3360    -3824 
   -4271    -4689    -4951    -4982    -4847    -4612    -4274    -3888 
   -3593    -3481    -3539    -3635    -3607    -3439    -3242    -3144 
   -3319    -3869    -4664    -5476    -6130    -6442    -6205    -5308 
   -3792    -1907     -144      961     1055      132    -1405    -3038 
   -4405    -5197    -5274    -4764    -3889    -2933    -2223    -1912 
   -2026    -2496    -3150    -3858    -4546    -5086    -5302    -5070 
   -4380    -3353    -2295    -1613    -1505    -1885    -2531    -3214 
   -3786    -4190    -4444    -4600    -4664    -4600    -4388    -3935 
   -3119    -2060    -1063     -418     -268     -571    -1163    -1823 
   -2312    -2477    -2299    -1868    -1337     -882     -760    -1228 
   -2284    -3670    -5125    -6423    -7368    -7830    -7588    -6477 
   -4760    -2925    -1252       98      969     1293     1108      561 
     -59     -534     -872    -1111    -1217    -1178    -1001     -751 
    -556     -481     -518     -708    -1175    -1975    -2972    -3959 
   -4841    -5618    -6285    -6787    -7015    -6883    -6412    -5562 
