Origin Time       2025/01/13 21:19:00
Lat.              31.8
Long.             131.6
Depth. (km)       30
Mag.              6.9
Station Code      KMM005
Station Lat.      32.8761
Station Long.     130.8771
Station Height(m) 125
Record Time       2025/01/13 21:20:03
Sampling Freq(Hz) 100Hz
Duration Time(s)  93
Dir.              N-S
Scale Factor      7845(gal)/8223790
Max. Acc. (gal)   13.636
Last Correction   2025/01/13 21:20:03
Memo.             
[...]
   -1482     -394      635     1651     2675     3558     4043     3946 
    3321     2477     1719     1108      538       12     -334     -382 
    -162      166      453      625      702      784      882      958 
    1078     1275     1441     1487     1480     1587     1823     2066 
    2265     2384     2385     2350     2332     2222     1894     1356 
     724       97     -513    -1169    -1937    -2725    -3321    -3658 
   -3780    -3663    -3264    -2663    -2068    -1595    -1179     -770 
    -459     -379     -562     -882    -1212    -1597    -2178    -2953 
   -3715    -4305    -4734    -5043    -5289    -5584    -5975    -6415 
   -6837    -7196    -7554    -7975    -8390    -8694    -8869    -8988 
   -9109    -9184    -9109    -8820    -8314    -7636    -6752    -5620 
   -4432    -3504    -3005    -2883    -2972    -3175    -3545    -4174 
   -5016    -5846    -6380    -6434    -6035    -5381    -4546    -3399 
   -1918     -367      916     1772     2292     2583     2627     2382 
    1799      880     -183    -1193    -2119    -2907    -3416    -3646 
   -3748    -3788    -3744    -3658    -3574    -3512    -3515    -3572 
   -3585    -3468    -3279    -3164    -3100    -2963    -2745    -2458 
   -2099    -1722    -1404    -1156     -926     -719     -598     -514 
    -400     -270      -95      183      567     1061     1680     2396 
    3176     3950     4596     5063     5355     5497     5481     5262 
    4846     4318     3802     3392     3056     2770     2598     2610 
    2839     3199     3481     3578     3584     3609     3646     3566 
    3233     2655     2035     1598     1374     1270     1301     1583 
    2164     2938     3771     4537     5078     5279     5042     4271 
    3052     1620      198    -1063    -2061    -2655    -2791    -2575 
   -2093    -1444     -801     -248      271      773     1178     1480 
    1829     2277     2728     3218     3821     4495     5186     5832 
    6253     6196     5520     4340     2803      955    -1112    -3252 
   -5290    -7018    -8247    -8849    -8781    -8039    -6685    -4901 
   -2916     -931      893     2393     3330     3542     3061     2076 
     900     -172    -1046    -1788    -2417    -2829    -2992    -3073 
   -3303    -3805    -4581    -5589    -6701    -7701    -8465    -8977 
   -9227    -9263    -9082    -8595    -7843    -6964    -6064    -5158 
   -4203    -3203    -2216    -1291     -526      -16      272      406 
     359      157     -106     -421     -734     -976    -1192    -1401 
   -1606    -1930    -2411    -2914    -3334    -3620    -3692    -3423 
   -2754    -1741     -519      743     1915     2979     3904     4534 
    4741     4567     4174     3701     3241     2864     2520     2141 
    1807     1559     1305     1003      737      591      525      429 
     244      -39     -371     -683     -947    -1156    -1250    -1123 
    -719      -27      993     2209     3262     4012     4561     4874 
    4803     4345     3642     2802     1821      712     -402    -1391 
   -2157    -2700    -3090    -3267    -3134    -2821    -2636    -2786 
   -3149    -3514    -3883    -4352    -4904    -5501    -6138    -6731 
   -7141    -7314    -7218    -6768    -6016    -5131    -4151    -3018 
   -1837     -920     -487     -491     -810    -1333    -1945    -2605 
   -3312    -3952    -4395    -4641    -4765    -4864    -5049    -5368 
   -5683    -5799    -5691    -5429    -4976    -4287    -3447    -2533 
   -1582     -727     -103      302      545      606      496      279 
     -18     -336     -538     -526     -311       49      522     1016 
    1404     1692     1923     2004     1875     1663     1510     1448 
    1485     1606     1773     1950     2101     2158     2031     1691 
    1233      780      406      147       45      137      375      641 
     859     1009     1055     1017      981      896      658      351 
      78     -166     -391     -564     -660     -738     -820     -805 
    -706     -603     -452     -236      -17      183      306      238 
     -49     -433     -772    -1094    -1479    -1902    -2339    -2770 
   -3103    -3358    -3643    -3916    -4064    -4074    -3950    -3670 
   -3146    -2357    -1495     -733     -117      301      544      608 
     387     -105     -680    -1144    -1405    -1462    -1317    -1016 
    -658     -232      325      943     1514     2031     2552     3042 
    3350     3388     3214     2951     2659     2299     1827     1270 
     703      205     -241     -714    -1240    -1840    -2546    -3298 
   -3962    -4487    -4846    -4950    -4761    -4286    -3564    -2685 
   -1725     -780       70      796     1262     1394     1264      858 
     166     -718    -1790    -3002    -4159    -5094    -5718    -5988 
   -5899    -5427    -4548    -3327    -1903     -495      677     1590 
    2293     2736     2860     2724     2417     2083     1927     2084 
    2546     3253     4114     4934     5516     5857     6079     6181 
    6106     5892     5586     5170     4644     3993     3210     2281 
    1179       22     -994    -1772    -2311    -2698    -2895    -2682 
   -2050    -1304     -660     -106      446     1042     1615     2002 
    2107     1995     1692     1156      340     -765    -2014    -3164 
   -4041    -4577    -4808    -4833    -4738    -4569    -4313    -3989 
   -3661    -3348    -3049    -2790    -2574    -2438    -2452    -2582 
   -2685    -2714    -2724    -2736    -2731    -2689    -2583    -2458 
   -2420    -2597    -3051    -3677    -4386    -5262    -6301    -7356 
   -8333    -9139    -9672    -9918    -9846    -9416    -8695    -7816 
   -6870    -5925    -5077    -4387    -3785    -3163    -2536    -1962 
   -1449    -1043     -778     -571     -365     -267     -417     -823 
   -1344    -1814    -2154    -2382    -2585    -2774    -2798    -2610 
   -2361    -2134    -1958    -1904    -1977    -2092    -2192    -2289 
   -2340    -2207    -1861    -1386     -776      -17      824     1659 
    2423     3115     3734     4189     4432     4452     4225     3839 
    3468     3169     2857     2494     2177     2042     2158     2508 
    3015     3601     4221     4855     5413     5741     5772     5541 
    5082     4378     3395     2138      756     -461    -1297    -1718 
   -1769    -1495     -994     -450      -70       12     -220     -684 
   -1235    -1811    -2490    -3225    -3836    -4240    -4359    -4113 
   -3566    -2837    -1993    -1093     -228      488      976     1183 
    1071      679      125     -506    -1161    -1701    -2020    -2135 
   -2073    -1903    -1759    -1676    -1597    -1487    -1358    -1227 
   -1066     -824     -510     -160      195      461      508      336 
      44     -302     -675    -1030    -1359    -1686    -1973    -2166 
   -2305    -2478    -2698    -2956    -3244    -3497    -3661    -3748 
   -3786    -3740    -3523    -3138    -2636    -1981    -1206     -430 
     307      977     1497     1800     1827     1567     1063      406 
    -274     -930    -1567    -2089    -2394    -2524    -2594    -2644 
   -2601    -2438    -2172    -1744    -1139     -446      303     1081 
    1740     2226     2590     2781     2747     2533     2189     1771 
    1352      984      675      395      189      164      340      666 
    1142     1698     2173     2466     2511     2230     1587      633 
    -538    -1830    -3113    -4228    -5085    -5611    -5730    -5499 
   -5116    -4733    -4361    -3982    -3640    -3385    -3161    -2866 
   -2531    -2313    -2250    -2284    -2401    -2567    -2786    -3087 
   -3360    -3476    -3416    -3194    -2818    -2299    -1648     -911 
    -162      495     1054     1613     2174     2608     2813     2772 
    2496     2033     1470      830      110     -596    -1223    -1802 
   -2354    -2841    -3144    -3235    -3264    -3226    -3007    -2636 
   -2107    -1425     -742     -178      195      313      136     -345 
   -1046    -1815    -2570    -3258    -3836    -4290    -4603    -4776 
   -4860    -4888    -4818    -4571    -4135    -3551    -2826    -1991 
   -1159     -411      233      765     1224     1688     2147     2544 
    2929     3434     4122     4881     5528     5953     6103     6027 
    5829     5508     5063     4563     4058     3657     3415     3244 
    3090     2936     2743     2501     2219     1900     1524     1059 
     527      -67     -692    -1229    -1611    -1850    -1964    -1949 
   -1802    -1512    -1116     -727     -449     -324     -364     -614 
   -1150    -1964    -2924    -3866    -4627    -5116    -5405    -5553 
   -5522    -5316    -4992    -4550    -3982    -3345    -2708    -2068 
   -1437     -915     -599     -556     -858    -1502    -2398    -3515 
   -4815    -6091    -7095    -7743    -8071    -8090    -7786    -7249 
   -6621    -5958    -5325    -4849    -4557    -4449    -4523    -4650 
   -4673    -4530    -4207    -3680    -2875    -1783     -515      778 
    1887     2625     2975     2968     2620     1949      977     -198 
   -1398    -2471    -3311    -3892    -4256    -4394    -4268    -3920 
   -3454    -2997    -2637    -2390    -2250    -2200    -2230    -2357 
   -2556    -2717    -2751    -2616    -2284    -1796    -1240     -657 
     -93      378      753     1094     1451     1804     2084     2290 
    2508     2775     3102     3500     3923     4326     4757     5193 
    5528     5748     5903     6019     6122     6228     6370     6555 
    6766     7010     7261     7419     7402     7182     6747     6116 
    5344     4473     3500     2469     1466      521     -328     -949 
   -1205    -1125     -855     -449       94      706     1329     1927 
    2361     2554     2554     2378     1998     1436      737      -64 
    -918    -1768    -2624    -3496    -4357    -5130    -5701    -6049 
   -6230    -6257    -6123    -5829    -5366    -4719    -3885    -2922 
   -1971    -1169     -603     -264     -124     -236     -619    -1215 
   -1934    -2681    -3419    -4086    -4540    -4727    -4660    -4340 
   -3838    -3203    -2481    -1822    -1370    -1154    -1125    -1242 
   -1505    -1919    -2397    -2799    -3019    -3032    -2911    -2790 
   -2682    -2515    -2323    -2205    -2245    -2563    -3176    -3885 
   -4550    -5182    -5724    -6075    -6261    -6372    -6413    -6409 
   -6457    -6592    -6770    -7011    -7400    -7940    -8534    -9045 
   -9301    -9167    -8631    -7812    -6856    -5898    -5088    -4515 
   -4156    -4051    -4326    -4965    -5790    -6636    -7384    -8006 
   -8525    -8802    -8711    -8310    -7688    -6859    -5752    -4325 
   -2694    -1053      477     1877     3088     4014     4687     5229 
    5656     5958     6173     6278     6211     5953     5521     4957 
    4311     3667     3067     2513     2064     1760     1597     1520 
    1472     1561     1865     2254     2652     3041     3383     3736 
    4122     4465     4741     4945     5047     5035     4881     4600 
    4294     4012     3708     3322     2795     2197     1718     1429 
    1309     1410     1740     2178     2636     3041     3237     3111 
    2648     1836      756     -382    -1410    -2209    -2606    -2466 
   -1819     -801      491     1960     3438     4765     5844     6631 
    7102     7227     7026     6650     6258     5918     5656     5455 
    5289     5219     5267     5350     5395     5409     5408     5339 
    5088     4615     3985     3252     2481     1786     1217      745 
     359       56     -198     -432     -627     -746     -746     -577 
    -199      345      990     1713     2454     3051     3352     3314 
    2891     2074     1009     -189    -1474    -2678    -3624    -4266 
   -4606    -4693    -4629    -4486    -4325    -4218    -4303    -4703 
   -5356    -6127    -6960    -7809    -8613    -9275    -9636    -9603 
   -9208    -8564    -7832    -7110    -6463    -5968    -5610    -5412 
   -5452    -5672    -5945    -6210    -6459    -6731    -7052    -7412 
   -7767    -8087    -8428    -8829    -9238    -9625   -10048   -10548 
  -11070   -11523   -11943   -12380   -12783   -13103   -13313   -13417 
  -13489   -13560   -13547   -13392   -13130   -12822   -12509   -12133 
  -11569   -10825   -10042    -9232    -8309    -7284    -6273    -5393 
   -4648    -3971    -3360    -2756    -2042    -1228     -363      540 
    1440     2332     3226     4075     4843     5547     6187     6717 
    7121     7431     7673     7852     7981     8024     7956     7816 
    7653     7439     7179     6917     6636     6315     5984     5661 
    5335     4974     4590     4241     3946     3721     3545     3311 
    3064     2980     3130     3488     3993     4576     5178     5740 
    6245     6647     6839     6798     6593     6282     5931     5556 
    5159     4773     4390     4029     3723     3402     3032     2706 
    2532     2548     2702     2938     3257     3620     3964     4271 
    4509     4614     4638     4677     4684     4534     4156     3542 
    2745     1848      899      -70     -974    -1671    -2097    -2316 
   -2413    -2477    -2551    -2620    -2652    -2627    -2519    -2277 
   -1849    -1275     -637       71      850     1638     2416     3141 
    3700     4037     4189     4168     3933     3481     2863     2084 
    1162      218     -633    -1441    -2307    -3225    -4152    -5103 
   -6077    -7068    -8106    -9173   -10174   -11110   -12082   -13020 
  -13752   -14295   -14732   -15034   -15160   -15051   -14694   -14184 
  -13614   -13000   -12270   -11453   -10767   -10270    -9844    -9404 
   -8822    -8032    -7141    -6210    -5251    -4294    -3416    -2689 
   -2068    -1564    -1273    -1188    -1255    -1404    -1552    -1676 
   -1745    -1695    -1458     -963     -245      611     1557     2488 
    3337     4167     5031     5898     6705     7429     8127     8776 
    9250     9536     9694     9709     9560     9262     8762     8008 
    7049     6018     5015     4029     3065     2257     1682     1309 
    1150     1166     1251     1354     1462     1560     1656     1784 
    1983     2191     2340     2435     2442     2336     2160     1910 
    1576     1228      922      645      396      199       85       13 
    -130     -434     -886    -1410    -1944    -2475    -2948    -3226 
   -3204    -2910    -2489    -2039    -1534     -942     -322      247 
     723     1102     1393     1557     1555     1372     1032      626 
     225     -217     -741    -1291    -1818    -2309    -2787    -3311 
   -3855    -4315    -4630    -4808    -4888    -4843    -4599    -4172 
   -3659    -3123    -2606    -2158    -1776    -1440    -1208    -1113 
   -1086    -1094    -1179    -1345    -1522    -1746    -2141    -2624 
   -3025    -3388    -3780    -4133    -4419    -4641    -4722    -4596 
   -4299    -3852    -3217    -2470    -1757    -1136     -673     -448 
    -454     -642     -988    -1487    -2073    -2643    -3152    -3559 
   -3827    -3983    -4027    -3916    -3676    -3369    -3076    -2887 
   -2893    -3161    -3639    -4174    -4683    -5148    -5536    -5814 
   -5972    -6004    -5949    -5844    -5664    -5391    -5085    -4796 
   -4510    -4203    -3878    -3542    -3195    -2851    -2536    -2236 
   -1934    -1678    -1491    -1336    -1186    -1066     -973     -830 
    -622     -391     -112      201      490      758     1028     1309 
    1594     1821     1976     2150     2392     2685     3033     3445 
    3919     4441     4995     5587     6203     6787     7337     7851 
    8301     8704     9034     9181     9143     8949     8579     7989 
    7126     6046     4865     3647     2479     1426      490     -317 
   -1004    -1632    -2249    -2835    -3330    -3719    -4016    -4212 
   -4282    -4205    -4009    -3731    -3379    -3030    -2754    -2542 
   -2446    -2481    -2563    -2631    -2656    -2639    -2594    -2524 
   -2466    -2462    -2417    -2243    -1971    -1599    -1108     -588 
     -75      461      974     1406     1759     2053     2316     2509 
    2592     2601     2577     2574     2621     2619     2554     2532 
    2552     2523     2408     2184     1861     1490     1082      627 
      97     -507    -1128    -1750    -2335    -2774    -3119    -3487 
   -3777    -3865    -3804    -3640    -3354    -2982    -2609    -2228 
   -1802    -1426    -1213    -1140    -1262    -1721    -2490    -3384 
   -4309    -5251    -6129    -6836    -7352    -7653    -7685    -7470 
   -7079    -6525    -5811    -5035    -4298    -3624    -3053    -2646 
   -2404    -2327    -2482    -2902    -3489    -4121    -4711    -5177 
   -5526    -5786    -5903    -5863    -5742    -5630    -5555    -5498 
   -5472    -5505    -5536    -5499    -5377    -5143    -4791    -4340 
   -3843    -3349    -2871    -2430    -2034    -1668    -1377    -1236 
   -1210    -1233    -1302    -1405    -1483    -1479    -1398    -1243 
    -958     -529      -29      486     1003     1466     1827     2119 
    2363     2581     2853     3207     3597     4013     4445     4864 
    5217     5498     5771     6008     6097     6058     5953     5734 
    5397     5023     4638     4220     3831     3551     3353     3210 
    3156     3179     3275     3488     3813     4166     4469     4753 
    5053     5327     5509     5551     5425     5131     4714     4224 
    3654     3059     2565     2174     1823     1539     1308     1050 
     715      261     -282     -866    -1468    -2026    -2521    -2964 
   -3294    -3483    -3539    -3454    -3299    -3171    -3048    -2860 
   -2667    -2567    -2536    -2533    -2605    -2813    -3156    -3577 
   -3977    -4245    -4320    -4191    -3889    -3443    -2895    -2292 
   -1705    -1232     -940     -812     -797     -873     -993    -1131 
   -1293    -1466    -1582    -1624    -1672    -1804    -2061    -2485 
   -3073    -3809    -4669    -5566    -6373    -7024    -7554    -7998 
   -8251    -8216    -7943    -7497    -6895    -6185    -5445    -4735 
   -4094    -3581    -3257    -3133    -3184    -3393    -3703    -4006 
   -4276    -4506    -4611    -4565    -4403    -4122    -3765    -3420 
   -3134    -2920    -2786    -2718    -2690    -2651    -2559    -2416 
   -2203    -1923    -1622    -1283     -847     -322      216      706 
    1161     1584     1937     2258     2597     2910     3181     3478 
    3851     4290     4762     5243     5661     5940     6111     6212 
    6160     5952     5663     5243     4668     4028     3335     2574 
    1848     1270      870      656      676      943     1351     1804 
    2296     2739     3042     3256     3383     3308     3022     2600 
    2070     1452      823      272     -193     -596     -874     -996 
   -1003     -877     -626     -423     -367     -384     -495     -791 
   -1260    -1817    -2390    -2930    -3338    -3545    -3573    -3461 
   -3223    -2944    -2749    -2675    -2670    -2758    -2986    -3318 
   -3740    -4264    -4783    -5158    -5373    -5474    -5491    -5422 
   -5254    -5013    -4699    -4302    -3856    -3357    -2801    -2292 
   -1939    -1740    -1626    -1588    -1649    -1740    -1794    -1869 
   -2007    -2165    -2340    -2543    -2733    -2941    -3249    -3649 
   -4035    -4352    -4602    -4774    -4857    -4889    -4928    -4936 
