Origin Time       2025/01/13 21:19:00
Lat.              31.8
Long.             131.6
Depth. (km)       30
Mag.              6.9
Station Code      KMM011
Station Lat.      32.6166
Station Long.     130.8635
Station Height(m) 142
Record Time       2025/01/13 21:19:52
Sampling Freq(Hz) 100Hz
Duration Time(s)  119
Dir.              N-S
Scale Factor      7845(gal)/8223790
Max. Acc. (gal)   27.152
Last Correction   2025/01/13 21:19:52
Memo.             
[...]
   -8522    -8968    -9374    -9539    -9432    -9217    -9045    -8961 
   -9049    -9350    -9760   -10147   -10413   -10534   -10602   -10720 
  -10889   -11013   -10959   -10747   -10531   -10386   -10172    -9657 
   -8850    -8000    -7237    -6463    -5634    -4950    -4696    -4919 
   -5395    -5927    -6497    -7149    -7902    -8695    -9337    -9641 
   -9705    -9863   -10292   -10898   -11485   -11894   -12001   -11731 
  -11144   -10498   -10057    -9814    -9601    -9398    -9316    -9339 
   -9412    -9593    -9840    -9867    -9321    -8120    -6648    -5316 
   -4133    -3165    -2710    -2893    -3677    -5004    -6620    -8090 
   -9146    -9973   -10987   -12228   -13471   -14696   -15832   -16524 
  -16417   -15488   -14112   -12694   -11294    -9805    -8181    -6448 
   -4706    -3240    -2416    -2259    -2430    -2668    -3056    -3751 
   -4691    -5714    -6729    -7684    -8633    -9707   -10913   -12106 
  -13116   -13914   -14605   -15237   -15718   -15836   -15345   -14192 
  -12650   -11087    -9671    -8324    -6952    -5603    -4384    -3441 
   -2963    -3048    -3612    -4423    -5360    -6485    -7712    -8834 
   -9833   -10694   -11256   -11435   -11296   -10982   -10588   -10026 
   -9328    -8814    -8630    -8541    -8291    -7901    -7609    -7572 
   -7759    -8073    -8306    -8355    -8473    -8903    -9481    -9973 
  -10358   -10620   -10632   -10353    -9931    -9497    -9020    -8510 
   -8155    -8152    -8522    -9154    -9948   -10813   -11605   -12140 
  -12306   -12139   -11699   -10976   -10014    -8965    -8016    -7280 
   -6694    -6057    -5300    -4626    -4256    -4156    -4155    -4264 
   -4710    -5618    -6867    -8210    -9505   -10782   -12010   -12974 
  -13556   -13810   -13780   -13535   -13134   -12563   -11809   -10855 
   -9675    -8434    -7395    -6620    -6025    -5567    -5201    -4827 
   -4434    -4108    -3890    -3901    -4352    -5247    -6358    -7393 
   -8191    -8937    -9887   -11013   -12150   -13147   -13871   -14366 
  -14797   -15086   -14962   -14305   -13211   -11858   -10386    -8843 
   -7292    -5919    -4928    -4338    -4031    -3901    -3852    -3769 
   -3651    -3703    -4185    -5140    -6316    -7453    -8522    -9605 
  -10720   -11793   -12715   -13456   -14076   -14562   -14797   -14742 
  -14490   -14058   -13315   -12183   -10774    -9262    -7759    -6282 
   -4847    -3663    -3057    -3114    -3680    -4711    -6210    -7878 
   -9366   -10615   -11573   -12113   -12298   -12289   -12209   -12105 
  -11842   -11276   -10469    -9659    -9031    -8459    -7720    -6867 
   -6103    -5524    -5148    -4997    -5093    -5447    -5976    -6519 
   -6984    -7312    -7431    -7388    -7353    -7507    -8008    -8968 
  -10300   -11708   -12996   -14139   -14958   -15205   -14914   -14243 
  -13363   -12483   -11596   -10612    -9605    -8635    -7750    -7033 
   -6507    -6169    -5960    -5680    -5169    -4506    -3917    -3605 
   -3750    -4473    -5692    -7150    -8544    -9580   -10195   -10608 
  -10940   -11153   -11303   -11441   -11530   -11581   -11680   -11913 
  -12272   -12618   -12754   -12468   -11708   -10739    -9856    -9100 
   -8461    -8059    -7916    -7847    -7628    -7175    -6594    -6092 
   -5799    -5713    -5753    -5842    -5971    -6093    -6084    -6002 
   -6119    -6524    -7033    -7596    -8356    -9337   -10382   -11327 
  -12040   -12496   -12856   -13239   -13527   -13540   -13302   -12907 
  -12321   -11522   -10582    -9556    -8505    -7553    -6793    -6250 
   -5888    -5670    -5632    -5665    -5530    -5208    -4889    -4780 
   -5090    -5921    -7134    -8437    -9563   -10357   -10790   -10947 
  -10924   -10812   -10774   -10918   -11137   -11296   -11396   -11470 
  -11569   -11692   -11688   -11394   -10827   -10146    -9481    -8865 
   -8355    -7983    -7684    -7481    -7485    -7608    -7580    -7315 
   -7055    -6970    -6871    -6571    -6189    -5907    -5813    -6037 
   -6687    -7724    -8964   -10084   -10762   -11029   -11229   -11589 
  -12044   -12420   -12594   -12525   -12198   -11583   -10674    -9632 
   -8712    -8041    -7426    -6546    -5416    -4369    -3690    -3561 
   -4086    -5181    -6602    -8166    -9805   -11387   -12696   -13628 
  -14108   -14061   -13648   -13170   -12766   -12438   -12172   -11924 
  -11538   -10866    -9903    -8673    -7202    -5649    -4271    -3275 
   -2745    -2768    -3416    -4550    -5877    -7056    -7796    -8171 
   -8622    -9467   -10632   -11784   -12699   -13392   -13890   -14229 
  -14477   -14558   -14330   -13721   -12630   -10994    -8989    -6932 
   -5119    -3734    -2694    -1821    -1134     -688     -523     -846 
   -1775    -3024    -4180    -5220    -6453    -8054    -9922   -11832 
  -13505   -14700   -15379   -15669   -15704   -15616   -15481   -15276 
  -15003   -14696   -14330   -13826   -13065   -12000   -10713    -9265 
   -7674    -6072    -4649    -3519    -2702    -2112    -1632    -1277 
   -1173    -1468    -2200    -3208    -4305    -5476    -6852    -8511 
  -10354   -12229   -14103   -15943   -17473   -18311   -18370   -17942 
  -17328   -16455   -15034   -13072   -10957    -9089    -7595    -6393 
   -5424    -4761    -4324    -3786    -2979    -2115    -1475    -1152 
   -1170    -1607    -2605    -4180    -6045    -7877    -9589   -11148 
  -12522   -13745   -14782   -15624   -16353   -16873   -16896   -16290 
  -15275   -14119   -12860   -11469    -9983    -8453    -7053    -5918 
   -4920    -3933    -3121    -2735    -2756    -2882    -2955    -3168 
   -3769    -4823    -6187    -7600    -8911   -10107   -11105   -11739 
  -12046   -12328   -12853   -13555   -14207   -14710   -14997   -14920 
  -14386   -13400   -12105   -10831    -9764    -8704    -7435    -6088 
   -4900    -3982    -3339    -2860    -2570    -2767    -3609    -4887 
   -6288    -7547    -8440    -8965    -9386    -9836   -10206   -10550 
  -11074   -11805   -12613   -13363   -13953   -14311   -14391   -14095 
  -13232   -11742    -9969    -8353    -6990    -5778    -4808    -4287 
   -4159    -4179    -4270    -4542    -5008    -5464    -5738    -5810 
   -5678    -5421    -5306    -5566    -6318    -7631    -9471   -11647 
  -13736   -15156   -15620   -15325   -14574   -13498   -12052   -10230 
   -8429    -7221    -6651    -6382    -6270    -6284    -6426    -6737 
   -7055    -7179    -7136    -6961    -6743    -6687    -6821    -7067 
   -7560    -8395    -9444   -10667   -11969   -12865   -12995   -12590 
  -12148   -11986   -12163   -12511   -12823   -12928   -12649   -11863 
  -10547    -8833    -7051    -5539    -4453    -3821    -3507    -3250 
   -3086    -3497    -4737    -6416    -8048    -9393   -10424   -11229 
  -11658   -11441   -10667    -9655    -8887    -8815    -9223    -9713 
  -10409   -11226   -11527   -11003    -9946    -8795    -7970    -7676 
   -7762    -8093    -8540    -8770    -8669    -8506    -8421    -8230 
   -7794    -7308    -7227    -7790    -8626    -9159    -9404    -9930 
  -10908   -11651   -11622   -11179   -10898   -10863   -10887   -10891 
  -10800   -10342    -9413    -8283    -7141    -5971    -4951    -4621 
   -5386    -6887    -8241    -8834    -8775    -8729    -9174    -9844 
  -10095    -9644    -8716    -7686    -6804    -6107    -5459    -4970 
   -5211    -6512    -8356    -9844   -10476   -10258    -9521    -8749 
   -8149    -7562    -6967    -6577    -6458    -6559    -6963    -7805 
   -9066   -10574   -12248   -14071   -15757   -17004   -17884   -18403 
  -18382   -17779   -16588   -14985   -13343   -11776   -10125    -8317 
   -6482    -4812    -3384    -2211    -1347     -818     -622     -707 
    -994    -1549    -2448    -3473    -4379    -5258    -6332    -7582 
   -8614    -9123    -9413   -10079   -11384   -13158   -14886   -16005 
  -16302   -15869   -14905   -13734   -12656   -11766   -11071   -10547 
  -10000    -9100    -7723    -6038    -4282    -2628    -1192     -178 
      76     -599    -2052    -3946    -5944    -7819    -9525   -10998 
  -11948   -12182   -11994   -11929   -12170   -12409   -12360   -12020 
  -11383   -10454    -9504    -8745    -8009    -7059    -5877    -4557 
   -3288    -2340    -1861    -1830    -2104    -2505    -2971    -3518 
   -4179    -5054    -6286    -7832    -9309   -10365   -11126   -12091 
  -13655   -15801   -18075   -19805   -20529   -20299   -19381   -17851 
  -15770   -13414   -11099    -9013    -7307    -6107    -5382    -5011 
   -4830    -4606    -4251    -3991    -4182    -5090    -6814    -9190 
  -11727   -13813   -15105   -15711   -15888   -15682   -15051   -14033 
  -12746   -11427   -10349    -9567    -8988    -8638    -8640    -8911 
   -9165    -9266    -9394    -9738   -10289   -10831   -11020   -10665 
   -9799    -8637    -7595    -6955    -6600    -6373    -6361    -6728 
   -7533    -8835   -10538   -12002   -12731   -12978   -12881   -12172 
  -10817    -9045    -7184    -5485    -4021    -2922    -2342    -2224 
   -2330    -2490    -2862    -3754    -5166    -6741    -8120    -9279 
  -10427   -11504   -12352   -13090   -13815   -14345   -14241   -13230 
  -11703   -10307    -9310    -8689    -8384    -8336    -8463    -8700 
   -8900    -8784    -8280    -7711    -7371    -7138    -6718    -6025 
   -5271    -4823    -4911    -5522    -6376    -7078    -7503    -7753 
   -7996    -8446    -9022    -9498    -9850    -9987    -9864    -9641 
   -9207    -8290    -7015    -5657    -4318    -3245    -2620    -2115 
   -1603    -1634    -2643    -4401    -6372    -8370   -10493   -12618 
  -14858   -17329   -19367   -20556   -21165   -21246   -20767   -19757 
  -18277   -16735   -15514   -14646   -13976   -13070   -11431    -9138 
   -6902    -5390    -4654    -4384    -4338    -4286    -3931    -3150 
   -2161    -1174      -78     1213     2430     3076     2725     1368 
    -589    -2705    -4676    -6504    -8325    -9891   -10895   -11624 
  -12610   -14030   -15606   -16816   -17400   -17687   -18110   -18582 
  -18766   -18550   -18058   -17448   -16637   -15392   -13687   -11677 
   -9459    -7068    -4642    -2417     -577      791     1610     1869 
    1621      866     -386    -1887    -3304    -4504    -5532    -6527 
   -7636    -8955   -10546   -12349   -14150   -15843   -17506   -19037 
  -20036   -20202   -19710   -18975   -18026   -16492   -14207   -11358 
   -8376    -5841    -4094    -3052    -2466    -2147    -2011    -2101 
   -2560    -3391    -4299    -5030    -5790    -6948    -8383    -9714 
  -10912   -12133   -13296   -14164   -14594   -14555   -14003   -12937 
  -11542   -10019    -8341    -6421    -4306    -2119      -99     1561 
    2982     4232     4914     4473     2546     -981    -5688   -10789 
  -15585   -19610   -22603   -24374   -24958   -24912   -24807   -24854 
  -25087   -25201   -24621   -23053   -20623   -17564   -14019   -10126 
   -6169    -2455      938     4056     6744     8762    10056    10671 
   10620     9825     8136     5586     2492     -864    -4440    -8202 
  -11943   -15402   -18374   -20776   -22692   -24298   -25702   -26796 
  -27220   -26613   -24802   -21810   -17847   -13259    -8460    -3869 
     133     3265     5374     6515     6858     6489     5551     4357 
    3073     1576     -294    -2470    -4596    -6466    -8388   -10790 
  -13645   -16541   -19102   -21089   -22225   -22356   -21663   -20179 
  -17686   -14322   -10520    -6691    -3172     -178     2037     3271 
    3524     2953     2038     1121      -79    -1848    -4245    -7288 
  -10687   -14185   -17625   -20283   -21558   -21791   -21277   -19963 
  -18158   -16108   -13805   -11334    -8723    -5961    -3173     -615 
    1364     2540     3029     3146     2914     2019      295    -2261 
   -5638    -9537   -13306   -16386   -18631   -20179   -21211   -21915 
  -22333   -22270   -21664   -20569   -18874   -16372   -13027    -9238 
   -5611    -2344      648     3370     5902     8274    10189    11314 
   11496    10601     8525     5383     1429    -3138    -8139   -13251 
  -18076   -22410   -26165   -29135   -31191   -32305   -32422   -31641 
  -30226   -28393   -26176   -23502   -20441   -17275   -14254   -11335 
   -8309    -5147    -2035      830     3226     4904     5787     5972 
    5406     3928     1613    -1264    -4418    -7449   -10003   -12059 
  -13740   -14974   -15635   -15754   -15300   -14142   -12401   -10461 
   -8622    -6979    -5574    -4423    -3419    -2417    -1458     -787 
    -622     -972    -1714    -2801    -4365    -6516    -9086   -11754 
  -14300   -16696   -18971   -21041   -22742   -23884   -24281   -23745 
  -22111   -19353   -15687   -11611    -7740    -4456    -1690      873 
    3356     5645     7635     9219    10347    11126    11572    11574 
   11057     9806     7539     4260      294    -3863    -7740   -11125 
  -14015   -16330   -17941   -18921   -19506   -19759   -19460   -18404 
  -16702   -14812   -13298   -12386   -11898   -11604   -11430   -11441 
  -11605   -11749   -11861   -12098   -12536   -13073   -13387   -13223 
  -12706   -12091   -11439   -10733   -10077    -9617    -9339    -9028 
   -8444    -7535    -6389    -5101    -3866    -2910    -2284    -1921 
   -1790    -1798    -1802    -1844    -2077    -2384    -2504    -2535 
   -2997    -4428    -7013   -10584   -14733   -18920   -22823   -26411 
  -29501   -31876   -33552   -34470   -34469   -33386   -31067   -27685 
  -23674   -19201   -14241    -8892    -3256     2587     8229    13041 
   16656    18890    19558    18813    17163    14885    11816     7901 
    3512     -943    -5317    -9535   -13610   -17668   -21654   -25369 
  -28641   -31282   -33120   -34009   -33639   -31592   -27777   -22792 
  -17452   -12063    -6706    -1813     2219     5350     7530     8760 
    9323     9470     9336     8932     7928     6025     3375      348 
   -2755    -5841    -9123   -12760   -16465   -19842   -22729   -25030 
  -26635   -27525   -27638   -26827   -25073   -22523   -19383   -15959 
  -12490    -8931    -5181    -1341     2430     6039     9296    11944 
   13848    14921    15072    14347    12933    10897     8294     5418 
    2559     -203    -2857    -5530    -8437   -11566   -14693   -17621 
  -20200   -22401   -24339   -25986   -27186   -27886   -28128   -27990 
  -27503   -26499   -24835   -22532   -19607   -16185   -12603    -9138 
   -5915    -3021     -517     1476     2914     4002     4945     5722 
    6192     6210     5676     4507     2604      -89    -3500    -7330 
  -11099   -14482   -17471   -20044   -22033   -23305   -23753   -23330 
  -22138   -20305   -18134   -16171   -14682   -13617   -12939   -12495 
  -12035   -11464   -10837   -10251    -9752    -9377    -9151    -8969 
   -8692    -8321    -7955    -7645    -7375    -7233    -7453    -8191 
   -9406   -10902   -12403   -13734   -14806   -15511   -15799   -15620 
  -14839   -13371   -11306    -8976    -6791    -4976    -3674    -2913 
   -2351    -1653     -788      259     1583     3096     4517     5533 
    5898     5535     4432     2504     -147    -3237    -6528    -9807 
  -12910   -15716   -18071   -19904   -21313   -22442   -23418   -24337 
  -25219   -25963   -26215   -25516   -23585   -20306   -15762   -10372 
   -4666      905     5961    10200    13410    15543    16694    16892 
   16150    14497    11873     8280     3883    -1084    -6289   -11419 
  -16448   -21365   -25880   -29651   -32447   -34223   -35136   -35233 
  -34380   -32478   -29551   -25770   -21390   -16710   -12037    -7520 
   -3105     1070     4648     7487     9621    11037    11886    12320 
   11988    10400     7564     3871     -240    -4496    -8916   -13460 
  -17749   -21498   -24718   -27487   -29714   -30879   -30389   -28142 
  -24383   -19595   -14357    -8989    -3743     1092     5498     9370 
   12309    14081    14729    14310    12768    10133     6593     2322 
   -2502    -7669   -12856   -17502   -21274   -24332   -26811   -28629 
  -29731   -30053   -29463   -27972   -25724   -22788   -19283   -15539 
  -11874    -8374    -5049    -2081      330     2138     3356     4009 
    4099     3626     2668     1317     -359    -2289    -4471    -6820 
   -8996   -10717   -12159   -13707   -15361   -16757   -17577   -17631 
  -17001   -16082   -15148   -14243   -13446   -12852   -12595   -12708 
  -12808   -12540   -11951   -11014    -9676    -8206    -6728    -5096 
   -3302    -1453      278     1714     2836     3692     4276     4486 
    4218     3507     2382      854     -993    -3109    -5458    -8048 
  -11006   -14233   -17278   -19900   -22192   -24160   -25679   -26651 
  -26936   -26473   -25429   -23926   -21934   -19530   -16787   -13698 
  -10366    -6979    -3613     -311     2878     5907     8607    10727 
   12147    12919    13093    12567    11188     8961     6049     2729 
    -743    -4325    -7969   -11427   -14461   -17035   -19276   -21324 
  -23248   -24954   -26164   -26626   -26304   -25328   -23955   -22438 
  -20868   -19251   -17558   -15707   -13698   -11524    -9112    -6586 
   -4224    -2165     -433      891     1663     1844     1487      649 
    -603    -2234    -4232    -6493    -8899   -11372   -13737   -15792 
  -17456   -18607   -19063   -18837   -18061   -16822   -15211   -13301 
  -11125    -8873    -6924    -5498    -4452    -3539    -2687    -1873 
   -1043     -306       51     -120     -687    -1471    -2457    -3597 
   -4656    -5579    -6664    -8074    -9614   -11030   -12236   -13277 
  -14179   -14899   -15383   -15514   -15187   -14486   -13520   -12299 
  -10882    -9342    -7705    -5996    -4338    -2907    -1798    -1048 
    -685     -729    -1208    -2104    -3329    -4797    -6527    -8619 
  -11067   -13632   -16065   -18215   -19946   -21192   -22026   -22508 
  -22580   -22168   -21238   -19745   -17698   -15180   -12256    -9003 
   -5547    -2119     1012     3647     5594     6666     6840     6226 
    4928     2986      449    -2474    -5487    -8406   -11130   -13610 
  -15996   -18424   -20680   -22538   -23928   -24602   -24302   -23066 
  -20999   -18262   -15256   -12384    -9857    -7796    -6222    -4985 
   -3940    -3154    -2840    -3018    -3341    -3415    -3102    -2538 
   -2085    -2022    -2303    -2843    -3720    -4939    -6323    -7657 
   -8725    -9367    -9633    -9657    -9520    -9332    -9234    -9309 
   -9601   -10081   -10683   -11358   -12023   -12561   -12964   -13230 
  -13257   -13042   -12733   -12478   -12413   -12591   -12852   -12927 
  -12679   -12133   -11264    -9988    -8410    -6710    -4959    -3219 
   -1564      -47     1113     1611     1404      708     -321    -1745 
   -3642    -5925    -8365   -10720   -12802   -14578   -16139   -17531 
  -18697   -19533   -19955   -19989   -19653   -18829   -17362   -15233 
  -12542    -9447    -6164    -2929       10     2389     4023     4820 
    4803     4113     2840     1023    -1138    -3454    -5923    -8415 
  -10588   -12266   -13601   -14854   -16197   -17591   -18758   -19402 
  -19430   -18951   -18094   -16895   -15302   -13209   -10644    -7970 
   -5489    -3029     -486     1760     3427     4552     5108     5157 
    4770     3670     1722     -845    -3859    -6998    -9931   -12779 
  -15672   -18462   -21026   -23157   -24525   -25074   -24898   -23971 
  -22338   -20073   -17169   -13724    -9944    -6018    -2192     1273 
