Origin Time       2025/01/13 21:19:00
Lat.              31.8
Long.             131.6
Depth. (km)       30
Mag.              6.9
Station Code      KMM006
Station Lat.      32.7934
Station Long.     130.7772
Station Height(m) 35
Record Time       2025/01/13 21:19:57
Sampling Freq(Hz) 100Hz
Duration Time(s)  105
Dir.              U-D
Scale Factor      7845(gal)/8223790
Max. Acc. (gal)   6.110
Last Correction   2025/01/13 21:19:57
Memo.             
[...]
  -13647   -13678   -13743   -13698   -13717   -13662   -13497   -13518 
  -13660   -13594   -13568   -13744   -13729   -13671   -13714   -13559 
  -13475   -13657   -13734   -13624   -13535   -13605   -13682   -13630 
  -13672   -13786   -13684   -13414   -13285   -13568   -14056   -14106 
  -13593   -13185   -13387   -13791   -13743   -13541   -13632   -13720 
  -13697   -13714   -13710   -13589   -13448   -13510   -13644   -13671 
  -13672   -13657   -13676   -13748   -13730   -13595   -13446   -13454 
  -13705   -13857   -13699   -13531   -13478   -13570   -13784   -13787 
  -13605   -13490   -13423   -13520   -13868   -14119   -13902   -13329 
  -13068   -13419   -13819   -13921   -13824   -13571   -13456   -13647 
  -13774   -13629   -13475   -13556   -13684   -13670   -13674   -13722 
  -13674   -13613   -13613   -13621   -13616   -13576   -13575   -13635 
  -13666   -13676   -13686   -13666   -13621   -13609   -13663   -13683 
  -13641   -13571   -13504   -13587   -13745   -13763   -13695   -13641 
  -13597   -13605   -13655   -13602   -13477   -13551   -13737   -13711 
  -13595   -13603   -13602   -13531   -13613   -13819   -13829   -13653 
  -13536   -13510   -13528   -13599   -13721   -13794   -13761   -13689 
  -13662   -13662   -13585   -13464   -13421   -13440   -13497   -13586 
  -13624   -13587   -13559   -13562   -13560   -13586   -13674   -13788 
  -13859   -13836   -13736   -13609   -13543   -13614   -13729   -13745 
  -13675   -13587   -13517   -13510   -13554   -13579   -13583   -13595 
  -13599   -13593   -13620   -13697   -13770   -13776   -13757   -13780 
  -13840   -13863   -13760   -13571   -13570   -13878   -14065   -13788 
  -13417   -13327   -13443   -13655   -13813   -13814   -13738   -13549 
  -13378   -13575   -13937   -14006   -13801   -13620   -13717   -13991 
  -14068   -13932   -13857   -13902   -13902   -13802   -13764   -13832 
  -13798   -13659   -13682   -13842   -13853   -13747   -13710   -13663 
  -13547   -13545   -13767   -13911   -13659   -13266   -13063   -12997 
  -13065   -13224   -13289   -13304   -13338   -13366   -13559   -13853 
  -13869   -13591   -13319   -13319   -13620   -13851   -13725   -13500 
  -13489   -13501   -13298   -13157   -13244   -13336   -13347   -13379 
  -13529   -13720   -13682   -13450   -13363   -13468   -13583   -13562 
  -13340   -13120   -13166   -13331   -13417   -13524   -13645   -13644 
  -13527   -13397   -13369   -13479   -13630   -13741   -13861   -13983 
  -14010   -14004   -14075   -14181   -14246   -14242   -14175   -13967 
  -13645   -13428   -13338   -13290   -13385   -13603   -13794   -13948 
  -14089   -14196   -14303   -14416   -14440   -14376   -14328   -14285 
  -14177   -14053   -13979   -13995   -14075   -14058   -13911   -13738 
  -13563   -13431   -13414   -13452   -13452   -13377   -13258   -13224 
  -13354   -13575   -13806   -14067   -14285   -14339   -14316   -14249 
  -14041   -13775   -13498   -13119   -12725   -12460   -12328   -12336 
  -12501   -12757   -13034   -13338   -13652   -13875   -13987   -14044 
  -14037   -13953   -13865   -13845   -13883   -13909   -13860   -13744 
  -13595   -13431   -13277   -13157   -13028   -12911   -12868   -12900 
  -13080   -13443   -13794   -14008   -14181   -14301   -14264   -14092 
  -13886   -13724   -13649   -13614   -13575   -13517   -13389   -13150 
  -12850   -12615   -12552   -12669   -12914   -13248   -13582   -13767 
  -13802   -13774   -13732   -13779   -14015   -14446   -14959   -15279 
  -15222   -14922   -14561   -14184   -13859   -13690   -13674   -13738 
  -13807   -13840   -13855   -13811   -13591   -13221   -12833   -12455 
  -12108   -11934   -12047   -12401   -12816   -13081   -13150   -13165 
  -13216   -13306   -13452   -13645   -13803   -13857   -13842   -13830 
  -13813   -13771   -13738   -13693   -13532   -13227   -12904   -12768 
  -12869   -13096   -13390   -13775   -14189   -14563   -14868   -15051 
  -15113   -15083   -14875   -14492   -14089   -13752   -13506   -13383 
  -13413   -13552   -13525   -13194   -12887   -12808   -12876   -13147 
  -13653   -14219   -14677   -14921   -14920   -14709   -14339   -13948 
  -13655   -13352   -12938   -12499   -12114   -11857   -11867   -12121 
  -12483   -12906   -13312   -13566   -13616   -13590   -13695   -13921 
  -14069   -14057   -13900   -13624   -13321   -13188   -13321   -13508 
  -13487   -13321   -13236   -13312   -13520   -13830   -14218   -14574 
  -14790   -14905   -14975   -14955   -14844   -14720   -14571   -14322 
  -14026   -13779   -13579   -13425   -13355   -13377   -13479   -13660 
  -13841   -13917   -13905   -13892   -13884   -13845   -13743   -13514 
  -13150   -12679   -12147   -11697   -11491   -11545   -11785   -12090 
  -12326   -12506   -12733   -13073   -13532   -14033   -14476   -14829 
  -15083   -15214   -15233   -15151   -14960   -14624   -14116   -13518 
  -13004   -12673   -12517   -12491   -12541   -12653   -12874   -13223 
  -13653   -14135   -14706   -15371   -16048   -16594   -16858   -16796 
  -16447   -15877   -15165   -14357   -13458   -12542   -11720   -11115 
  -10897   -11142   -11757   -12568   -13370   -14004   -14490   -14922 
  -15318   -15646   -15822   -15754   -15464   -14999   -14358   -13613 
  -12946   -12474   -12170   -11938   -11689   -11453   -11381   -11578 
  -12000   -12541   -13062   -13482   -13871   -14342   -14889   -15434 
  -15916   -16231   -16233   -15890   -15286   -14571   -13937   -13409 
  -12870   -12313   -11781   -11280   -10898   -10700   -10644   -10735 
  -10964   -11269   -11674   -12214   -12888   -13737   -14683   -15507 
  -16063   -16264   -16065   -15561   -14860   -14014   -13130   -12325 
  -11705   -11388   -11373   -11507   -11674   -11897   -12264   -12833 
  -13574   -14453   -15450   -16472   -17362   -17991   -18250   -18063 
  -17433   -16478   -15375   -14229   -13113   -12201   -11572   -11119 
  -10824   -10797   -11121   -11782   -12654   -13594   -14558   -15453 
  -16135   -16596   -16873   -16937   -16752   -16282   -15529   -14639 
  -13749   -12908   -12156   -11484   -10897   -10528   -10480   -10713 
  -11117   -11546   -11924   -12307   -12729   -13171   -13648   -14111 
  -14521   -14890   -15117   -15091   -14824   -14364   -13775   -13123 
  -12420   -11746   -11284   -11124   -11167   -11322   -11622   -12101 
  -12667   -13185   -13597   -13954   -14355   -14797   -15196   -15502 
  -15653   -15593   -15334   -14908   -14305   -13582   -12924   -12514 
  -12391   -12505   -12730   -12893   -12946   -12943   -12958   -13128 
  -13443   -13693   -13818   -13899   -13927   -13871   -13736   -13536 
  -13350   -13255   -13292   -13512   -13846   -14102   -14134   -13903 
  -13520   -13178   -12992   -13014   -13173   -13273   -13274   -13317 
  -13454   -13717   -14146   -14597   -14883   -14986   -14948   -14863 
  -14855   -14863   -14758   -14544   -14243   -13886   -13610   -13525 
  -13590   -13687   -13697   -13574   -13379   -13197   -13126   -13246 
  -13527   -13873   -14218   -14494   -14675   -14746   -14685   -14527 
  -14304   -13969   -13548   -13171   -12943   -12888   -12897   -12850 
  -12804   -12868   -13076   -13464   -13999   -14520   -14854   -14893 
  -14659   -14332   -14077   -13915   -13791   -13657   -13493   -13305 
  -13101   -12895   -12737   -12653   -12645   -12717   -12814   -12887 
  -12953   -12995   -12985   -12962   -12910   -12748   -12480   -12217 
  -12139   -12374   -12799   -13181   -13432   -13547   -13528   -13409 
  -13219   -13028   -12945   -12970   -13038   -13093   -13099   -13107 
  -13204   -13402   -13686   -14007   -14292   -14535   -14751   -14912 
  -14994   -14941   -14706   -14415   -14237   -14172   -14133   -14049 
  -13849   -13570   -13329   -13203   -13239   -13454   -13780   -14134 
  -14422   -14566   -14546   -14378   -14152   -13987   -13906   -13855 
  -13778   -13591   -13248   -12846   -12522   -12384   -12522   -12930 
  -13486   -14049   -14490   -14748   -14863   -14871   -14787   -14666 
  -14528   -14389   -14278   -14179   -14049   -13913   -13807   -13757 
  -13774   -13860   -14003   -14116   -14121   -14096   -14202   -14439 
  -14692   -14817   -14723   -14428   -13961   -13346   -12739   -12318 
  -12081   -11905   -11723   -11595   -11638   -11873   -12208   -12568 
  -12912   -13208   -13455   -13587   -13482   -13165   -12810   -12603 
  -12699   -13092   -13606   -14096   -14513   -14859   -15130   -15263 
  -15144   -14743   -14161   -13581   -13181   -13026   -13023   -13041 
  -13030   -13050   -13154   -13285   -13402   -13598   -13953   -14434 
  -14970   -15475   -15878   -16128   -16109   -15741   -15125   -14459 
  -13909   -13547   -13316   -13146   -13045   -12980   -12884   -12745 
  -12538   -12239   -11935   -11751   -11742   -11884   -12093   -12295 
  -12456   -12563   -12621   -12695   -12903   -13325   -13917   -14555 
  -15103   -15448   -15557   -15504   -15375   -15218   -15074   -14917 
  -14679   -14357   -13969   -13505   -12999   -12505   -12046   -11639 
  -11300   -11070   -11021   -11198   -11604   -12243   -13059   -13956 
  -14824   -15538   -16032   -16336   -16452   -16349   -16048   -15585 
  -15040   -14540   -14104   -13614   -13007   -12345   -11755   -11387 
  -11321   -11543   -11982   -12519   -13014   -13369   -13567   -13667 
  -13729   -13797   -13956   -14235   -14531   -14747   -14829   -14739 
  -14528   -14334   -14241   -14266   -14343   -14373   -14361   -14370 
  -14369   -14261   -13984   -13559   -13119   -12827   -12791   -13054 
  -13493   -13849   -13965   -13828   -13514   -13185   -12957   -12843 
  -12830   -12865   -12870   -12827   -12722   -12568   -12437   -12333 
  -12222   -12171   -12252   -12519   -13020   -13622   -14139   -14493 
  -14607   -14436   -14081   -13674   -13319   -13131   -13174   -13421 
  -13725   -13833   -13617   -13235   -12949   -12919   -13139   -13467 
  -13775   -13996   -14057   -13957   -13814   -13729   -13717   -13734 
  -13699   -13605   -13541   -13544   -13589   -13652   -13691   -13698 
  -13724   -13822   -14049   -14436   -14898   -15327   -15691   -15982 
  -16191   -16326   -16376   -16293   -15996   -15430   -14656   -13810 
  -13030   -12440   -12117   -12106   -12418   -12938   -13477   -13878 
  -14088   -14185   -14251   -14296   -14316   -14318   -14242   -14010 
  -13612   -13126   -12675   -12321   -12043   -11859   -11850   -12012 
  -12294   -12657   -13023   -13323   -13529   -13599   -13536   -13429 
  -13329   -13227   -13173   -13219   -13308   -13323   -13178   -12906 
  -12679   -12668   -12887   -13223   -13501   -13608   -13516   -13205 
  -12737   -12297   -12081   -12206   -12592   -12982   -13208   -13309 
  -13431   -13710   -14152   -14646   -15101   -15431   -15569   -15546 
  -15418   -15210   -14968   -14701   -14391   -14067   -13720   -13311 
  -12885   -12532   -12328   -12334   -12538   -12860   -13205   -13487 
  -13675   -13840   -14073   -14411   -14769   -14947   -14818   -14457 
  -13998   -13547   -13177   -12892   -12722   -12752   -12972   -13254 
  -13506   -13702   -13855   -13979   -14065   -14114   -14138   -14129 
  -14083   -14023   -13956   -13894   -13826   -13678   -13397   -12991 
  -12488   -12000   -11686   -11646   -11907   -12407   -12974   -13477 
  -13864   -14127   -14349   -14604   -14895   -15222   -15537   -15770 
  -15944   -16097   -16190   -16150   -15846   -15171   -14173   -12999 
  -11844   -10955   -10470   -10396   -10692   -11232   -11863   -12540 
  -13248   -13922   -14482   -14866   -15063   -15117   -15040   -14820 
  -14492   -14114   -13774   -13597   -13649   -13892   -14215   -14462 
  -14547   -14481   -14283   -13991   -13647   -13266   -12899   -12587 
  -12274   -11881   -11388   -10827   -10335   -10104   -10238   -10729 
  -11460   -12253   -13035   -13857   -14764   -15711   -16555   -17149 
  -17473   -17581   -17490   -17209   -16760   -16160   -15477   -14777 
  -14096   -13525   -13124   -12826   -12528   -12194   -11875   -11665 
  -11620   -11745   -12006   -12376   -12845   -13435   -14135   -14847 
  -15439   -15808   -15888   -15660   -15107   -14242   -13140   -11971 
  -11009   -10554   -10729   -11400   -12285   -13077   -13606   -13899 
  -14017   -13976   -13830   -13664   -13536   -13475   -13451   -13410 
  -13316   -13090   -12700   -12276   -12002   -11985   -12163   -12320 
  -12345   -12374   -12627   -13292   -14377   -15627   -16738   -17493 
  -17722   -17361   -16486   -15264   -13918   -12595   -11319   -10207 
   -9499    -9375    -9864   -10858   -12136   -13479   -14683   -15616 
  -16285   -16708   -16812   -16499   -15749   -14719   -13657   -12745 
  -12089   -11786   -11869   -12275   -12822   -13309   -13725   -14203 
  -14759   -15230   -15464   -15418   -15174   -14847   -14428   -13905 
  -13400   -13038   -12831   -12712   -12615   -12583   -12683   -12876 
  -13162   -13637   -14285   -14970   -15564   -15988   -16213   -16187 
  -15823   -15126   -14207   -13163   -12100   -11211   -10716   -10698 
  -11022   -11429   -11789   -12162   -12623   -13116   -13435   -13367 
  -12885   -12148   -11379   -10813   -10659   -11013   -11812   -12830 
  -13784   -14505   -14963   -15248   -15504   -15784   -16008   -16062 
  -15819   -15264   -14582   -13986   -13556   -13225   -12872   -12478 
  -12112   -11732   -11222   -10633   -10181   -10066   -10401   -11163 
  -12225   -13489   -14794   -15942   -16856   -17559   -18076   -18393 
  -18428   -18130   -17579   -16866   -16052   -15184   -14233   -13124 
  -11826   -10396    -9035    -7981    -7349    -7229    -7753    -8945 
  -10648   -12572   -14408   -15967   -17207   -18191   -19014   -19639 
  -19842   -19357   -18041   -16015   -13709   -11604   -10014    -9124 
   -8970    -9393   -10149   -11020   -11904   -12845   -13815   -14616 
  -15103   -15356   -15595   -16005   -16513   -16816   -16672   -16004 
  -14928   -13753   -12788   -12221   -12117   -12325   -12544   -12594 
  -12511   -12499   -12757   -13302   -13981   -14607   -15007   -15026 
  -14584   -13819   -13100   -12729   -12692   -12789   -12852   -12825 
  -12750   -12683   -12699   -12885   -13246   -13729   -14283   -14814 
  -15206   -15388   -15326   -14972   -14324   -13510   -12771   -12372 
  -12463   -12951   -13621   -14235   -14639   -14867   -15025   -15115 
  -15133   -15153   -15244   -15385   -15456   -15276   -14775   -14065 
  -13382   -12943   -12788   -12856   -13134   -13527   -13819   -13864 
  -13609   -13163   -12837   -12808   -12995   -13304   -13694   -14154 
  -14694   -15210   -15491   -15376   -14812   -13930   -13034   -12371 
  -12039   -12019   -12194   -12444   -12735   -13096   -13535   -14002 
  -14411   -14685   -14775   -14678   -14517   -14509   -14782   -15294 
  -15819   -16033   -15736   -14940   -13803   -12588   -11550   -10839 
  -10557   -10741   -11302   -12100   -12985   -13798   -14415   -14739 
  -14710   -14401   -13961   -13486   -12982   -12386   -11708   -11110 
  -10760   -10702   -10872   -11138   -11388   -11611   -11830   -12043 
  -12253   -12465   -12708   -13042   -13452   -13884   -14345   -14894 
  -15539   -16208   -16761   -17080   -17128   -16912   -16475   -15866 
  -15083   -14183   -13340   -12765   -12603   -12889   -13491   -14210 
  -14839   -15215   -15299   -15156   -14870   -14574   -14420   -14426 
  -14476   -14413   -14145   -13730   -13309   -12924   -12559   -12205 
  -11835   -11466   -11229   -11304   -11801   -12650   -13640   -14528 
  -15142   -15439   -15481   -15326   -15045   -14748   -14477   -14126 
  -13585   -12879   -12201   -11801   -11788   -12074   -12507   -12949 
  -13317   -13587   -13753   -13836   -13834   -13705   -13464   -13231 
  -13070   -12976   -12985   -13126   -13332   -13535   -13697   -13799 
  -13882   -13984   -14108   -14224   -14231   -14062   -13824   -13670 
  -13657   -13724   -13737   -13656   -13560   -13505   -13498   -13548 
  -13664   -13888   -14272   -14787   -15384   -16017   -16567   -16879 
  -16853   -16461   -15804   -15076   -14404   -13784   -13117   -12330 
  -11524   -10928   -10716   -10939   -11515   -12349   -13401   -14557 
  -15635   -16536   -17188   -17482   -17346   -16779   -15851   -14685 
  -13355   -11928   -10557    -9377    -8472    -7962    -7948    -8451 
   -9428   -10751   -12256   -13840   -15377   -16700   -17674   -18195 
  -18249   -17930   -17316   -16455   -15442   -14370   -13338   -12492 
  -11932   -11630   -11497   -11425   -11368   -11376   -11504   -11790 
  -12235   -12745   -13261   -13734   -14068   -14199   -14160   -14022 
  -13927   -13969   -14076   -14116   -14014   -13810   -13667   -13757 
  -14150   -14797   -15475   -15838   -15674   -15071   -14342   -13819 
  -13613   -13603   -13694   -13875   -14107   -14365   -14651   -14955 
  -15273   -15573   -15809   -16001   -16147   -16121   -15781   -15080 
  -14122   -13159   -12441   -12055   -11928   -11867   -11701   -11446 
  -11257   -11294   -11600   -12063   -12564   -13097   -13710   -14412 
  -15134   -15742   -16109   -16167   -15897   -15372   -14758   -14184 
  -13693   -13316   -13112   -13186   -13537   -13905   -13998   -13759 
  -13333   -12980   -12926   -13225   -13809   -14508   -15087   -15411 
  -15518   -15508   -15519   -15623   -15742   -15724   -15460   -14891 
  -14104   -13261   -12514   -12028   -11904   -12052   -12278   -12413 
  -12429   -12474   -12667   -12958   -13244   -13473   -13618   -13663 
  -13585   -13405   -13176   -12865   -12376   -11684   -10878   -10093 
   -9456    -9047    -8934    -9198    -9864   -10825   -11931   -13036 
  -14022   -14785   -15234   -15402   -15450   -15479   -15522   -15607 
  -15684   -15645   -15411   -14987   -14523   -14204   -14089   -14096 
  -14110   -14068   -14042   -14177   -14472   -14769   -14905   -14783 
  -14453   -14050   -13639   -13213   -12758   -12231   -11643   -11137 
  -10881   -10930   -11180   -11483   -11790   -12109   -12460   -12865 
  -13297   -13670   -13894   -13882   -13587   -13093   -12528   -11969 
  -11512   -11233   -11124   -11110   -11065   -10926   -10789   -10797 
  -10999   -11323   -11646   -11963   -12375   -12922   -13572   -14310 
  -15063   -15730   -16213   -16370   -16156   -15696   -15124   -14531 
  -13952   -13333   -12671   -12067   -11628   -11414   -11427   -11600 
  -11893   -12349   -12976   -13721   -14562   -15460   -16316   -16983 
  -17301   -17209   -16788   -16164   -15411   -14551   -13620   -12733 
  -12039   -11587   -11348   -11271   -11295   -11423   -11699   -12147 
  -12772   -13531   -14304   -15044   -15747   -16360   -16814   -17032 
  -16937   -16509   -15800   -14909   -14003   -13242   -12708   -12425 
  -12351   -12407   -12571   -12815   -13142   -13598   -14143   -14650 
  -15026   -15186   -15060   -14683   -14119   -13406   -12602   -11758 
  -10935   -10228    -9736    -9536    -9725   -10312   -11157   -12090 
  -12974   -13748   -14395   -14894   -15282   -15619   -15869   -15944 
  -15820   -15539   -15196   -14841   -14472   -14168   -14044   -14061 
  -14108   -14179   -14364   -14731   -15225   -15712   -16127   -16487 
  -16757   -16848   -16668   -16228   -15678   -15169   -14731   -14396 
  -14212   -14130   -14015   -13732   -13284   -12847   -12610   -12629 
  -12865   -13196   -13489   -13709   -13883   -14071   -14327   -14573 
  -14632   -14434   -14069   -13763   -13713   -13894   -14142   -14335 
