Origin Time       2025/01/13 21:19:00
Lat.              31.8
Long.             131.6
Depth. (km)       30
Mag.              6.9
Station Code      KMM014
Station Lat.      32.3961
Station Long.     130.8273
Station Height(m) 306
Record Time       2025/01/13 21:19:49
Sampling Freq(Hz) 100Hz
Duration Time(s)  102
Dir.              U-D
Scale Factor      7845(gal)/8223790
Max. Acc. (gal)   8.868
Last Correction   2025/01/13 21:19:49
Memo.             
[...]
    6477     7379     7447     6600     5282     4140     3719     4104 
    4911     5738     6423     6868     6858     6372     5811     5530 
    5514     5591     5606     5551     5602     5875     6249     6299 
    5593     4387     3604     4010     5649     7782     9279     9432 
    8334     6548     4824     3732     3335     3588     4426     5327 
    5823     6187     6787     7326     7065     5621     3539     2012 
    1926     3237     5047     6286     6482     6033     5715     5913 
    6373     6574     6192     5325     4352     3825     4116     4785 
    5063     4770     4284     4233     4984     6119     6849     6768 
    6066     5385     5317     5803     6262     6349     6178     6054 
    6216     6606     6913     6870     6426     5807     5263     4665 
    3770     2655     1736     1656     2880     5019     6898     7614 
    7333     6943     7065     7512     7612     7007     6026     5360 
    5425     6076     6952     7835     8630     9070     8577     6875 
    4661     3084     2731     3296     3916     4044     4041     4661 
    6123     7819     8698     8082     6293     4333     2967     2363 
    2246     2215     2188     2436     3318     4920     6708     7825 
    7811     6817     5431     4380     4170     4726     5516     6164 
    6783     7674     8696     9126     8438     6925     5476     4955 
    5481     6214     6073     4673     2629     1038      823     2239 
    4536     6407     6999     6428     5633     5613     6407     7140 
    7111     6300     5135     4395     4739     5900     6968     7429 
    7334     6864     6286     5832     5355     4612     3758     3138 
    2983     3496     4781     6658     8621     9802     9450     7852 
    6170     5246     5142     5410     5421     4784     3727     3057 
    3611     5525     7943     9497     9270     7284     4411     2054 
    1297     2025     3289     4329     4957     5402     6048     7140 
    8424     9022     8163     6141     4072     2871     2632     2758 
    2756     2771     3262     4688     7114     9713    11136    10605 
    8482     5983     4433     4252     4646     4692     4337     4321 
    5417     7454     9146     9055     6778     3538     1169      544 
    1532     3307     4627     4833     4255     3797     4274     5810 
    7782     8982     8306     6019     3643     2593     3281     4811 
    5598     4922     3670     3335     4648     7307    10314    12321 
   12216     9806     6122     2794     1040     1279     3060     5120 
    6353     6829     7408     8448     9192     8691     6921     4637 
    2577     1233      986     1799     3168     4698     6180     7479 
    8392     8372     7141     5259     3601     2921     3488     4714 
    5783     6482     7022     7438     7283     6184     4815     4222 
    4475     5073     5617     5742     5487     5404     5910     6812 
    7439     7248     6312     5196     4375     4160     4874     6358 
    7739     8104     7114     5336     4002     3798     4205     4452 
    4434     4491     4945     5826     6693     6971     6651     6164 
    5643     5019     4417     3790     3110     2898     3472     4347 
    4982     5296     5412     5429     5402     5443     5522     5289 
    4571     3870     3808     4531     5946     7692     9011     9196 
    8002     6045     4486     3997     4595     5752     6531     6438 
    5697     4806     4368     4843     5992     6829     6484     5109 
    3883     4014     5578     7452     8313     7569     5771     4120 
    3485     3946     5019     6277     7376     7734     7079     5896 
    4931     4585     4828     5516     6386     6866     6525     5616 
    4804     4573     4916     5366     5328     4637     3898     4013 
    5213     6783     7844     8112     7809     7222     6363     4986 
    3312     2251     2632     4519     6971     8521     8465     7524 
    6786     6404     5787     4671     3438     2600     2552     3574 
    5188     6215     6092     5209     4152     3437     3410     4039 
    5004     5841     6108     5680     4826     4213     4621     5892 
    6731     6176     4675     3447     3362     4436     5794     6303 
    5753     5027     5035     5782     6447     6469     6180     6265 
    7026     8081     8602     8059     6766     5620     5169     5201 
    5385     5695     6027     6131     5972     5790     5745     5755 
    5802     5949     5930     5397     4607     4255     4662     5594 
    6714     7819     8591     8596     7767     6573     5485     4631 
    4144     4252     4882     5598     6058     6226     6237     6183 
    5980     5509     4882     4437     4374     4579     4974     5628 
    6297     6459     6049     5597     5514     5645     5528     4926 
    4017     3261     3133     3634     4279     4733     5013     5271 
    5578     5841     6039     6212     6316     6412     6501     6254 
    5528     4747     4446     4657     4950     5067     5177     5367 
    5420     5152     4638     4104     3916     4399     5401     6357 
    6777     6636     6467     6794     7411     7688     7339     6492 
    5485     4849     5057     6115     7339     7771     7053     5517 
    3770     2597     2470     3068     3780     4367     4968     5826 
    6957     7857     7978     7434     6748     6226     5859     5408 
    4656     3850     3566     4197     5513     6536     6280     4777 
    3118     2550     3461     4963     5755     5412     4557     4155 
    4761     6168     7627     8378     8035     6656     4850     3532 
    3094     3283     3781     4268     4486     4576     4899     5513 
    6062     6107     5540     4746     4338     4810     6366     8590 
   10374    10694     9317     6821     4293     2844     2959     4176 
    5512     6285     6496     6378     5871     4889     3723     2876 
    2911     4117     5958     7410     7882     7304     5906     4394 
    3555     3539     4005     4753     5806     6959     7681     7527 
    6529     5100     3643     2569     2427     3465     5192     6708 
    7550     7836     7677     6984     5691     3757     1506       72 
     444     2301     4563     6399     7469     7828     7676     7087 
    6110     4899     3796     3438     4360     6331     8248     8851 
    7688     5471     3581     3068     4006     5738     7310     7885 
    7487     6959     6953     7531     8256     8239     7001     5290 
    4261     4336     5134     5864     5834     4901     3549     2598 
    2579     3292     4252     5108     5594     5784     6150     6951 
    7963     8783     9065     8807     8436     8259     8093     7638 
    6858     6033     5522     5405     5355     4980     4209     3221 
    2276     1759     1989     2918     4117     5139     5691     5562 
    4801     3875     3491     4143     5587     6963     7581     7344 
    6689     6292     6515     7061     7157     6250     4658     3280 
    2725     3046     3878     4585     4789     4757     4887     5120 
    5212     5206     5309     5529     5729     5861     6066     6562 
    7408     8330     8730     8145     6756     5152     3740     2694 
    2214     2428     3188     4293     5676     7129     8050     7879 
    6741     5260     4094     3874     4828     6385     7604     7831 
    7128     6142     5310     4581     3866     3208     2820     3102 
    4145     5328     5976     6048     5845     5590     5440     5482 
    5638     5707     5557     5271     5058     5082     5609     6876 
    8391     9138     8779     7731     6415     5166     4391     4236 
    4347     4403     4669     5405     6234     6558     6196     5408 
    4658     4646     5699     6912     7026     5979     4649     3829 
    3967     4999     6328     7312     7678     7654     7704     7859 
    7526     6222     4110     1836      513     1143     3470     6172 
    8052     8560     7854     6714     6087     6336     6763     6366 
    5174     4163     4075     4784     5591     6000     6046     5821 
    5320     4781     4540     4754     5510     6621     7346     6995 
    5728     4378     3827     4432     5802     7141     7669     7094 
    5854     4703     4159     4345     4920     5278     5109     4661 
    4434     4819     5744     6469     6084     4379     2215      928 
    1121     2519     4708     7129     9062    10149    10365     9818 
    8711     7192     5462     3825     2701     2840     4487     6538 
    7609     7246     5934     4595     3851     3844     4469     5306 
    5926     6293     6332     5759     4858     4671     5852     7678 
    8623     7870     5968     4239     3750     4708     6400     7565 
    7372     5989     4230     2998     2810     3512     4610     5560 
    5740     4911     3781     3458     4442     6193     7489     7446 
    6251     4745     3816     4131     5674     7577     8649     8206 
    6629     5177     4978     6015     7196     7484     6637     5105 
    3784     3476     4054     4696     5034     5386     5976     6592 
    6997     7136     6793     5717     4183     2932     2609     3294 
    4384     5071     5046     4739     4957     6204     8197     9996 
   10694    10006     8275     6129     4056     2340     1328     1463 
    2879     5051     6912     7541     6885     5660     4571     3844 
    3303     2632     1912     1645     2251     3819     5856     7697 
    9244    10440    10754     9751     7453     4483     1853      338 
     506     2511     5294     7149     7128     5393     3053     1761 
    2536     4819     6966     7794     7587     7597     8707    10593 
   12259    12820    11522     8264     4419     2020     2191     4552 
    7584     9421     8930     6485     3449      947     -492     -778 
     -45     1684     4101     6168     6913     6178     4592     3215 
    2754     3001     3294     3057     2061      594     -745    -1119 
     243     3026     5922     7743     7969     6961     5647     4603 
    3825     3033     1891      530     -288       82     1705     3973 
    5984     7524     8946    10210    10971    10979    10069     8496 
    7113     6704     7123     7261     6168     4052     1730     -124 
    -807       58     1817     3393     4399     5215     6307     7722 
    9169    10068     9676     8224     7269     7754     9038    10026 
    9720     7720     5030     3218     3025     3942     4731     4596 
    3863     3457     3861     4806     5994     7294     8232     8371 
    7923     7175     6322     5992     6547     7376     7780     7662 
    7172     6609     6539     7087     7537     7310     6567     5645 
    4773     4162     3759     3080     1765      390      101     1370 
    3696     6315     8826    10822    11453    10401     8442     6527 
    5143     4299     4035     4456     5040     5293     5449     5807 
    6332     6561     5931     4761     4033     4205     5067     6273 
    7194     7030     5945     5250     5690     6448     6620     6588 
    6829     6751     6060     5398     4989     4820     5395     6616 
    7441     7330     6940     7007     7192     6768     5695     4333 
    3053     2274     2110     2296     2698     3358     4293     5385 
    6093     5908     5238     4928     5213     5911     6972     7921 
    7730     6111     3975     2519     2466     3680     5314     6502 
    6963     7132     7593     8428     9076     8796     7307     5080 
    3323     3002     3688     4249     4070     3234     2413     2519 
    3732     5231     6295     6791     6655     5875     4680     3558 
    3106     3586     4677     5601     5606     4585     3244     2770 
    3789     5509     6678     6778     5913     4742     4487     5717 
    7470     8390     8224     7638     6971     5952     4357     2444 
     903      387      865     1628     2165     2717     3595     4583 
    5366     5823     5896     5574     4842     3831     3046     2972 
    3638     4621     5204     4949     4189     3512     2948     2158 
    1228      685      932     2047     3786     5760     7609     8893 
    9259     8465     6531     4448     3329     2999     3084     3978 
    5813     7919     9296     9229     7885     6099     4780     4514 
    5269     6631     8286     9957    11109    11236    10292     8633 
    7068     6504     6948     7658     8282     8687     8428     7663 
    7207     7041     6575     5931     5557     5378     5250     5378 
    5773     6243     6647     6606     6134     6107     6898     7805 
    8271     8112     7122     5601     4537     4741     5891     6789 
    6628     5505     4018     2910     2546     2670     2882     2851 
    2430     2095     2744     4567     6519     7573     7765     7533 
    7175     6901     6648     6234     5769     5563     5494     5016 
    4164     3808     4479     5467     5607     4849     4239     4411 
    5073     5674     5790     5316     4943     5792     8194    11169 
   13224    13478    11800     8502     4793     2421     2076     3115 
    4494     5324     5362     5173     5398     5749     5120     3186 
    1167      403     1269     3526     6305     8071     7916     6453 
    4864     3954     4052     4901     5969     7007     7901     8563 
    9101     9478     9022     6907     3435      157    -1456    -1004 
     851     2813     3603     2937     1692      606     -287     -693 
    -275      452      866     1082     1620     2798     4600     6984 
    9849    12769    14806    14739    12363     8991     5999     4070 
    3522     4249     6003     8394    10527    11653    11529    10494 
    9258     7404     4155      526    -1910    -2403     -556     2913 
    6061     7516     7344     6752     6829     7006     6330     5385 
    5190     5744     6513     7102     7398     7807     8880    10507 
   11734    11346     9167     6681     5451     5348     5347     5103 
    4757     4432     4364     4831     5761     6502     6876     7483 
    8021     7709     6677     5239     4064     4409     6021     7273 
    7927     8754     9208     8282     6335     4180     2346     1640 
    2371     3649     4421     4491     4533     5459     7427     9502 
   10712    10694     9244     6782     4623     3400     2691     2451 
    2934     3780     4587     5331     5954     6462     6844     6833 
    6523     6426     6450     6057     5161     4043     3300     3566 
    4785     6455     8048     8924     8910     8519     7955     6999 
    5976     5532     5826     6461     6818     6355     4806     2670 
    1300     1777     3712     5557     6210     5670     4445     3177 
    2560     3141     4635     5724     5455     4108     2771     2643 
    4033     6284     8248     8549     7152     5926     6114     6893 
    6907     5903     4606     3713     3697     4737     6054     6381 
    5333     3717     2874     3616     5325     6624     6793     6099 
    5364     5422     6536     8133     9116     8692     7067     5269 
    4371     4806     6008     6837     6602     5251     3003      672 
    -519     -186      935     2097     3159     4163     4974     5487 
    5877     6308     6809     7528     8407     8823     8091     6424 
    4953     4526     4965     5485     5591     5431     5169     4946 
    5236     6080     6728     6716     6278     5679     5096     5005 
    5805     6943     7354     6945     6598     6822     7180     6890 
    5663     3904     2421     1915     2409     3523     4780     5540 
    5498     4699     3198     1777     1864     3808     6400     8294 
    8838     7886     6046     4507     3827     3642     3584     3767 
    4396     5258     6064     6737     7074     6777     5718     4260 
    3379     3724     4958     6451     7751     8333     7948     7032 
    6416     6710     7514     7852     7709     7638     7632     7564 
    7360     6907     6556     6623     6724     6409     5802     5393 
    5300     5084     4464     3682     3269     3685     4881     6250 
    7060     6941     6141     5355     5256     5717     5863     5494 
    5260     5431     5892     6682     7631     8172     7992     7391 
    6785     6448     6463     6436     5886     4866     3889     3449 
    3746     4631     5756     6663     6984     6798     6515     6228 
    5652     4510     2884     1424      946     1800     3577     5277 
    6014     5660     4882     4509     4799     5470     6100     6249 
    5659     4666     3991     3971     4487     5316     5953     5728 
    4534     2901     1514     1043     1683     2781     3708     4509 
    5238     5674     5729     5468     4965     4469     4429     5094 
    6253     7391     8023     7884     7084     6400     6609     7416 
    7920     7628     6562     5287     4762     5333     6255     6525 
    5887     4947     4387     4307     4549     5004     5385     5532 
    5630     5838     6280     6855     7080     6883     6754     6831 
    6856     6847     6975     7210     7433     7384     6832     6021 
    5400     5166     5331     5753     6106     6079     5632     5074 
    4816     5009     5529     6029     6025     5463     4919     4801 
    4907     5057     5362     5672     5610     5209     4752     4263 
    3650     2891     2065     1417     1215     1497     2114     3065 
    4330     5530     6246     6444     6434     6538     6853     7296 
    7666     7762     7620     7366     7022     6662     6434     6299 
    6139     5915     5444     4646     4058     4342     5505     6899 
    7719     7565     6789     6185     6385     7434     8824     9988 
   10534    10210     9158     7831     6525     5409     4608     3974 
    3235     2467     1979     1884     2246     3040     3840     4305 
    4526     4652     4797     5127     5587     5961     6250     6686 
    7433     8360     9080     9263     8795     7689     6061     4176 
    2467     1397     1371     2405     3831     4978     5719     6124 
    6411     6826     7160     6944     6080     4935     4012     3672 
    3883     4122     3924     3550     3546     4041     4889     5765 
    6180     5934     5294     4588     3951     3611     3850     4513 
    5260     6023     6716     7204     7569     7804     7539     6563 
    5354     4540     4139     3924     3959     4247     4587     4959 
    5427     5821     6091     6417     6608     6208     5350     4611 
    4325     4630     5490     6438     7067     7441     7603     7396 
    6934     6563     6440     6519     6647     6650     6382     5783 
    5090     4714     4818     5294     5856     6096     5818     5235 
    4693     4491     4814     5574     6404     6952     7219     7423 
    7597     7696     7668     7331     6798     6511     6581     6760 
    6924     7005     6921     6801     6839     7014     7229     7388 
    7323     6870     6124     5476     5181     5094     4941     4565 
    4071     3728     3630     3612     3523     3445     3426     3257 
    2910     2776     3145     3947     5093     6407     7410     7722 
    7335     6496     5622     5050     4841     4841     4828     4745 
    4550     4101     3469     2825     2153     1638     1707     2501 
    3844     5432     6786     7457     7423     6982     6419     5923 
    5641     5579     5556     5478     5420     5429     5586     5915 
