Origin Time       2025/01/13 21:19:00
Lat.              31.8
Long.             131.6
Depth. (km)       30
Mag.              6.9
Station Code      KMM009
Station Lat.      32.6864
Station Long.     130.9886
Station Height(m) 466
Record Time       2025/01/13 21:19:51
Sampling Freq(Hz) 100Hz
Duration Time(s)  105
Dir.              E-W
Scale Factor      7845(gal)/8223790
Max. Acc. (gal)   18.977
Last Correction   2025/01/13 21:19:51
Memo.             
[...]
   -5256    -5154    -5767    -6092    -4719    -2431     -926     -661 
   -1244    -2637    -4772    -6551    -6690    -5317    -3794    -2843 
   -1988    -1224    -1290    -2228    -3515    -4884    -6016    -6605 
   -6901    -6897    -5971    -4490    -3449    -2625    -1813    -2020 
   -3516    -4839    -4783    -3635    -1902       64     1340     1470 
     606    -1470    -4205    -6435    -7847    -8340    -8004    -7641 
   -7782    -7824    -6602    -4326    -2762    -2477    -2305    -1998 
   -2542    -4002    -5050    -4703    -3753    -2967    -1557      222 
     729     -334    -2489    -5263    -7234    -7414    -6363    -4954 
   -3815    -3379    -3721    -4602    -5383    -5367    -4293    -2556 
   -1251    -1441    -2700    -3366    -2880    -1975     -984     -363 
   -1181    -3636    -6836    -9641   -10943   -10312    -8509    -6555 
   -4708    -2856    -1152       63      230     -885    -2697    -4608 
   -6577    -8317    -8738    -7495    -6208    -5967    -5684    -4468 
   -2717    -1124     -498     -940    -1331    -1171    -1287    -2038 
   -2705    -3119    -4225    -6127    -7275    -6315    -3896    -2112 
   -2033    -3067    -4521    -6038    -7074    -7310    -7113    -6920 
   -6744    -6092    -4504    -2485    -1063     -741    -1121    -1560 
   -1998    -2245    -1660     -558     -271    -1260    -2548    -3267 
   -3616    -3986    -4318    -4824    -6297    -8461    -9169    -7391 
   -5167    -4548    -5028    -5408    -5636    -5593    -4452    -2178 
      52     1278     1498      930     -211    -1383    -2235    -2812 
   -3227    -3546    -3955    -4584    -4757    -3861    -2637    -1946 
   -1829    -2489    -3755    -4159    -2955    -1248     -113      317 
     179     -684    -2141    -2782    -1625      -72     -114    -1860 
   -3813    -4911    -5321    -5130    -4282    -3557    -3520    -3856 
   -4198    -4126    -3315    -2211    -1528    -1512    -2386    -4288 
   -6304    -7265    -7280    -7011    -6485    -5815    -5730    -6416 
   -7061    -7060    -6756    -6948    -7929    -9030    -9389    -8910 
   -7924    -6627    -5402    -4839    -5174    -6458    -8139    -8618 
   -7291    -5412    -3947    -2945    -2509    -3084    -5042    -7736 
   -9852   -10978   -11383   -11217   -10731    -9826    -7909    -4980 
   -1864      854     3157     4369     3654     2015     1046      580 
    -290    -1296    -1529    -1101     -711     -244      259       -4 
   -1001    -2130    -3429    -4614    -4947    -4769    -5174    -6041 
   -5989    -4625    -3188    -2894    -3793    -5147    -6516    -7762 
   -8043    -6787    -5094    -4471    -5510    -7898   -10633   -12702 
  -13528   -13059   -11684    -9547    -6991    -5341    -5552    -7265 
   -9402   -10696   -10789    -9930    -7585    -3836     -255     2463 
    4899     6690     7011     6178     4804     3488     3134     3915 
    4912     4793     3268     1543       18    -1840    -3268    -3361 
   -2852    -2513    -2338    -2627    -3847    -5914    -8156    -9945 
  -11391   -12775   -13506   -12880   -11419    -9877    -8247    -6728 
   -5616    -4618    -3252    -1298      715     1898     1908      803 
    -884    -2043    -2043    -1463    -1433    -2288    -3434    -4179 
   -4318    -4398    -4364    -3616    -3121    -3786    -4730    -5298 
   -5539    -5424    -4943    -3816    -2241    -1082     -228     1013 
    2365     3242     3322     2149     -156    -2220    -3024    -3487 
   -4496    -5108    -4811    -4683    -5111    -5328    -5065    -4784 
   -4872    -5306    -5880    -6174    -5740    -5166    -5568    -6858 
   -7709    -7416    -6741    -5827    -3802    -1000     1718     4234 
    6021     6115     4125      507    -2870    -3750    -2305    -1007 
   -1721    -4650    -8765   -11958   -13273   -14045   -14160   -12363 
  -10021    -8783    -8183    -7141    -5825    -5467    -5375    -4490 
   -3694    -2602     -479     1719     3360     3920     3146     1497 
    -720    -2555    -3412    -4135    -5455    -7265    -8428    -8141 
   -7315    -6490    -5232    -4068    -4199    -5902    -8807   -12461 
  -15466   -16444   -16036   -15167   -13350   -11151   -10428   -10843 
  -10150    -7387    -3673     -641     1453     3044     3368     1711 
    -869    -3053    -4774    -6002    -6384    -6338    -6297    -6131 
   -5782    -5151    -4445    -3846    -3119    -2886    -3315    -3063 
   -1718      218     2354     3715     3520     2091      523     -218 
    -252     -348    -1059    -2596    -4608    -5989    -5823    -4329 
   -2498    -1387    -1329    -1567    -1597    -2069    -3338    -4733 
   -5821    -7109    -8982   -10409   -10424   -10295   -11169   -11696 
  -10034    -6057    -1225     3159     6772     8877     8290     5108 
     900    -2914    -6091    -8456    -9279    -8158    -5440    -2351 
    -255      612     1044     1822     2685     2913     2404      920 
   -1610    -4000    -5258    -5536    -5140    -4671    -5163    -6743 
   -8559   -10278   -12009   -13220   -13078   -11464    -8999    -6242 
   -3620    -1782     -982     -460      564     1645     2270     2851 
    3307     2872     1213    -1096    -2930    -4066    -5370    -7331 
   -9578   -11334   -12174   -12139   -11256    -9991    -9105    -8540 
   -7955    -7680    -8039    -8630    -8860    -8550    -7794    -6721 
   -5215    -3187    -1304     -531    -1285    -3262    -5813    -8641 
  -11576   -13846   -14831   -14985   -14818   -14015   -12577   -10793 
   -8160    -4463     -171     4156     7423     8630     7680     4689 
     149    -4495    -8006   -10207   -11206   -11099    -9776    -6731 
   -2714      221     1378     1907     2837     3541     2606      180 
   -2745    -5919    -8160    -8037    -6498    -5223    -4723    -4575 
   -3773    -2393    -1375     -762     -585    -1285    -2498    -2983 
   -2223    -1563    -1914    -2272    -2045    -1850    -2226    -3183 
   -4216    -4853    -5201    -5212    -4160    -1845      534     1678 
    1705     1858     2974     4801     6801     8333     8695     7881 
    6269     4274     2637     1648      723     -699    -2235    -3121 
   -3558    -4045    -4391    -4430    -4321    -4195    -4008    -3720 
   -3754    -4553    -5718    -6767    -8352   -10629   -12195   -12559 
  -12172   -10643    -8091    -5701    -4020    -2955    -2812    -3775 
   -5344    -7146    -8837    -9644    -9522    -9545   -10314   -11151 
  -11519   -11485   -10876    -9736    -8209    -5984    -3038      228 
    3061     4770     5962     7061     6862     5186     3318     1053 
   -2455    -6277    -8908   -10423   -12110   -14403   -16043   -16017 
  -14897   -13174   -10384    -6421    -2157     1404     3647     3458 
      95    -4290    -6894    -8100    -9279    -9896    -9606    -9070 
   -8194    -6716    -4691    -2462    -1127    -1402    -2656    -3285 
   -2328     -508     1115     1782      972     -999    -3060    -4394 
   -5321    -6208    -6891    -7940    -9387   -10620   -12035   -13189 
  -13197   -12721   -12148   -11341   -10046    -7180    -2957      830 
    3315     4860     6373     8326    10496    12425    12773    10751 
    7936     5895     4090     1252    -2785    -6648    -8625    -8911 
   -9296   -10513   -12609   -15161   -15358   -12162    -9189    -7464 
   -4318      -87     3372     5467     5880     5861     5852     4372 
    2812     2691     2033       58    -2290    -4718    -6879    -8695 
  -10011   -10536   -10517   -10478   -11321   -12013   -10166    -6689 
   -3626     -993     1071     2072     2278     1996     1059     -610 
   -2548    -3558    -2914    -1966    -2141    -3343    -4968    -6216 
   -6930    -7574    -8186    -8604    -8743    -9111   -10115   -10393 
   -8868    -6978    -6034    -5516    -4922    -4162    -2964    -1578 
    -905    -1224    -1863    -2971    -4830    -6145    -6038    -4916 
   -3651    -3002    -2470    -1548     -672     -199     -556    -1394 
   -1599    -1995    -3900    -6021    -6918    -7155    -7325    -7088 
   -6222    -5132    -4176    -3551    -3381    -2924    -1584      -35 
    1190     1837     1318     -349    -2481    -4351    -5729    -7106 
   -8687   -10154   -11389   -12100   -11653    -9701    -6642    -3613 
   -1163      896     1906     1321     -135    -1854    -3700    -5274 
   -5891    -5432    -4783    -4625    -4714    -4406    -3534    -2488 
    -895     1428     3252     3815     3526     2745     1202    -1351 
   -4448    -7483    -9898   -11218   -11530   -11219   -11063   -12004 
  -13963   -15894   -16964   -16870   -15496   -13178   -10516    -7641 
   -4793    -2535     -841      568     1409     1142      -37    -1032 
   -1460    -2091    -2953    -3106    -2241    -1107     -699    -1318 
   -2678    -4666    -6956    -8614    -9084    -8930    -9012    -9032 
   -8135    -6432    -4440    -2556    -1206     -357     -135     -870 
   -1848    -2054    -1351     -286      591     1020      710      -64 
    -581    -1123    -2312    -4068    -6168    -8274    -9830   -10295 
   -9734    -9012    -8384    -7464    -6172    -4526    -2767    -1105 
     399     1510     2299     2905     3215     2786     1004    -1517 
   -3549    -4685    -4969    -4511    -3527    -2668    -2404    -2432 
   -2752    -3268    -3434    -3389    -3454    -3591    -3738    -3886 
   -4257    -4565    -4214    -3503    -2802    -2101    -1563    -1254 
   -1358    -2108    -3269    -4564    -6052    -7842    -9653   -10948 
  -11240   -10189    -8054    -5398    -2617     -442      650     1232 
    1838     2224     1942      847    -1102    -3847    -6678    -8903 
  -10662   -12033   -12687   -12694   -12290   -11520   -10658    -9821 
   -8621    -6766    -4132     -591     3296     6099     6876     6075 
    4703     3411     2390     1472      394     -804    -2146    -3847 
   -5575    -6613    -6751    -6515    -6228    -5540    -4855    -5046 
   -5726    -6103    -6247    -6617    -7067    -6997    -6525    -6199 
   -6043    -5822    -5267    -4324    -3306    -2512    -2208    -2532 
   -3168    -3457    -2987    -2393    -2643    -3701    -4888    -5533 
   -5027    -3096     -197     2544     4220     4787     4793     4693 
    4468     3947     3048     1572     -861    -4465    -8293   -10822 
  -12044   -12598   -12249   -11267   -10866   -11044    -9996    -7203 
   -4523    -2874    -2038    -2134    -2455    -2851    -3562    -2955 
    -675     1224     1755     1125     -162    -1198    -1718    -2232 
   -2736    -2887    -2860    -3107    -4013    -5240    -6112    -7175 
   -8942   -10524   -11291   -11358   -10849    -9933    -8619    -7091 
   -5625    -3908    -1815       -8      864     1036     1117      869 
    -203    -1973    -4193    -6658    -8776   -10048   -11030   -12256 
  -12784   -11854   -10396    -9055    -7191    -4831    -2845    -1518 
    -603      229     1096     1580     1302      587     -398    -1960 
   -3867    -5634    -7017    -8129    -9282    -9724    -8608    -6848 
   -5900    -6280    -7485    -8464    -8687    -8340    -7334    -5605 
   -4099    -3843    -4575    -5308    -5737    -6239    -6633    -6420 
   -5761    -4789    -3406    -1672      214     1637     2357     2767 
    2648     1674      294     -886    -1618    -1953    -2010    -2011 
   -2401    -3327    -4322    -5084    -5823    -6525    -7061    -7892 
   -9155    -9963    -9691    -8845    -7936    -7040    -6532    -6504 
   -6502    -6245    -5252    -3667    -2656    -2093    -1084     -257 
    -209     -271     -191     -151      203     1051     2076     2994 
    3757     4274     4039     2943     1510      -86    -1767    -3171 
   -4162    -4706    -4884    -5382    -6864    -8541    -8934    -8357 
   -8303    -8598    -8264    -7569    -6729    -5506    -4303    -3487 
   -2952    -2546    -2165    -1676     -919     -190     -209     -967 
   -1557    -1462    -1193    -1783    -3616    -6081    -8413    -9722 
   -9298    -7562    -5418    -3647    -2779    -2451    -2000    -1340 
    -643      -33      851     2199     2872     1948       24    -2108 
   -4336    -6474    -7848    -8122    -7709    -7140    -6924    -7488 
   -8271    -7824    -6124    -4761    -3936    -2859    -2118    -2357 
   -3192    -4340    -5607    -6650    -7504    -8383    -9301   -10114 
  -10231    -9420    -8449    -7326    -5636    -4379    -4055    -3662 
   -3217    -3397    -3480    -2781    -1737     -572      672     1829 
    2893     3638     3964     4191     4282     3673     2088       -4 
   -2189    -4523    -6817    -8726   -10201   -11159   -11449   -11476 
  -11763   -12042   -12168   -12613   -12865   -11890   -10138    -8698 
   -7793    -7330    -7030    -6396    -5283    -3672    -1902     -838 
    -502     -159      189       76     -498    -1552    -3300    -5242 
   -6324    -6220    -5537    -4873    -4486    -4849    -6247    -7954 
   -9171   -10061   -10750   -10887   -10617    -9995    -8607    -6875 
   -5613    -4930    -4637    -4233    -3140    -1410      558     2434 
    3997     5173     5934     6399     6633     6563     6443     6554 
    6556     5823     4054     1389    -1971    -5683    -8893   -11041 
  -12366   -13446   -14389   -14243   -12433    -9478    -5539     -864 
    3559     7219    10102    11998    12675    11857     9394     5996 
    2840      364    -1690    -3585    -5794    -8417   -10503   -11649 
  -12123   -11496    -9344    -5871    -1938     1409     4341     7707 
   11190    13753    15279    15888    15024    12748     9348     4452 
   -1370    -6700   -10987   -13872   -14937   -15199   -15994   -16949 
  -17428   -17485   -16664   -14812   -12754   -11232   -10921   -11938 
  -13085   -13481   -13439   -13147   -12235   -10616    -8437    -5447 
   -1645     2385     6459     9950    11256    10115     7766     5325 
    3466     1038    -3797    -9518   -13905   -17568   -19920   -19970 
  -19334   -18272   -16621   -15053   -12538    -9761    -8554    -7798 
   -6261    -4249    -1764     1000     2992     3906     4066     3110 
     974    -2224    -6258    -9386   -10511   -10393    -9539    -8868 
   -8681    -6874    -3696    -1964    -1460     -747     -494    -2242 
   -6770   -12274   -15464   -16069   -15776   -14364   -11986    -9498 
   -5911    -1532     1688     3555     3377      654    -1086       48 
    1676     3407     4649     2775      113      430     1575     1105 
      13     -842     -533     1317     2254      284    -3157    -5821 
   -7121    -7731    -8868   -11049   -13255   -14785   -15688   -15148 
  -12492    -8588    -4459      -20     4777     9032    11206    10478 
    9316     9983    10255     8415     4854       41    -4229    -7680 
  -11919   -16440   -19468   -20177   -19032   -16760   -13417    -9526 
   -5875    -2884     -957      638     2632     4293     5794     7708 
    9004     8577     6484     3983     1876     -302    -2238    -3549 
   -4095    -3684    -4214    -6762    -8779    -7884    -4712    -1653 
     232      988      564     -176    -1269    -3338    -5120    -5760 
   -5948    -6423    -7350    -8230    -9169   -10338   -11138   -11855 
  -12687   -13089   -13450   -13819   -13722   -13729   -13933   -13068 
  -10183    -5903    -1683     2101     5575     7924     8769     8698 
    7938     6955     6961     7828     7834     6085     2943     -675 
   -3788    -6210    -7927    -8854    -9518   -10250   -11437   -13846 
  -16487   -17415   -16883   -15959   -14669   -13211   -11827   -10022 
   -7620    -5024    -2270      461     2700     4648     5961     5733 
    4517     3285     2099      816     -873    -3019    -5152    -7159 
   -8640    -8706    -7611    -6478    -5715    -4770    -3416    -2353 
   -1510     -117     1458     2373     2424     1813      880     -380 
   -2274    -4737    -7306    -9737   -12156   -14350   -16013   -16822 
  -16177   -14424   -12217    -9485    -6735    -4554    -2648     -913 
     257      766      839      297    -1197    -3273    -5402    -7553 
   -9541   -10698   -10561    -9462    -8100    -6593    -4824    -3038 
   -1278      496     1968     2826     2960     2624     1998      920 
    -378    -1587    -2741    -3835    -4951    -5949    -6334    -5903 
   -4621    -2525     -152     1915     3445     4190     3726     2103 
      99    -1863    -3815    -5594    -7094    -8086    -8421    -8190 
   -7233    -5674    -3836    -1948     -363      961     2054     2543 
    2334     1462       44    -1695    -3649    -5424    -6601    -7252 
   -7825    -8480    -8536    -7489    -5598    -3235     -831     1170 
    2420     2862     2812     2691     2891     3154     2814     1822 
     367    -1506    -3666    -5888    -7867    -9485   -10683   -11327 
  -11529   -11421   -11092   -10547    -9533    -8067    -6409    -4895 
   -3867    -3181    -2727    -2732    -3083    -3424    -3608    -4047 
   -5389    -7549   -10123   -13034   -15773   -17462   -17770   -16730 
  -14752   -12548   -10253    -8055    -6509    -5227    -3842    -3071 
   -2933    -2791    -2597    -2155    -1248     -326      322      915 
    1246     1017      762      881     1174     1399      977     -419 
   -2438    -4951    -7908   -10766   -12525   -12482   -11261    -9639 
   -7771    -6280    -5362    -4419    -3470    -2732    -1884     -648 
     658     1583     2093     2157     1917     1674     1096       12 
   -1316    -3075    -5563    -8648   -11487   -13154   -13547   -12654 
  -10466    -7477    -4230    -1229     1127     2847     4066     4702 
    4517     3807     3242     2860     2320     1443      321     -641 
   -1285    -1742    -2008    -1946    -1537    -1047     -514      191 
     668      453     -388    -1578    -2917    -4174    -5181    -6223 
   -7572    -9046   -10492   -11753   -12525   -12745   -12407   -11524 
  -10276    -8681    -6743    -4561    -2357     -788     -109      144 
      75     -427    -1372    -2732    -4172    -5341    -6012    -6007 
   -5351    -4149    -2613    -1035      221      707      477     -145 
   -1408    -3253    -4698    -4984    -4460    -4148    -4691    -5983 
   -7591    -8856    -9157    -8240    -6528    -4842    -3167    -1216 
     427     1312     1486      966     -174    -1786    -3511    -4880 
   -5969    -7244    -8742   -10183   -11647   -13217   -14364   -14575 
  -13846   -12379   -10164    -6987    -3304       32     2997     5489 
    6709     6616     5976     4918     2909       39    -2953    -5765 
   -8337   -10427   -11882   -12646   -12729   -12282   -11542   -10466 
   -8776    -6694    -4611    -2620     -934      429     1777     3113 
    4222     4932     5038     4441     3208     1804      942      500 
    -415    -2106    -4113    -6311    -8799   -10972   -12287   -13255 
  -14293   -14937   -14652   -13413   -11708   -10071    -8533    -6701 
   -4268    -1447     1366     4016     6034     6859     6883     6733 
    6268     5417     4378     2814      788     -942    -2349    -3597 
   -4189    -4085    -3758    -3538    -3770    -4351    -4853    -5379 
   -5954    -6112    -5738    -5244    -4984    -4923    -5085    -5738 
   -6639    -7214    -7479    -7761    -8195    -8795    -9059    -8338 
   -7163    -6307    -5491    -4660    -4133    -3546    -2535    -1324 
    -391       62      218     -418    -2505    -5216    -7177    -8089 
