Origin Time       2025/01/13 21:19:00
Lat.              31.8
Long.             131.6
Depth. (km)       30
Mag.              6.9
Station Code      KMM006
Station Lat.      32.7934
Station Long.     130.7772
Station Height(m) 35
Record Time       2025/01/13 21:19:57
Sampling Freq(Hz) 100Hz
Duration Time(s)  105
Dir.              E-W
Scale Factor      7845(gal)/8223790
Max. Acc. (gal)   14.045
Last Correction   2025/01/13 21:19:57
Memo.             
[...]
   -4028    -4382    -4676    -4864    -4900    -4708    -4255    -3678 
   -3140    -2664    -2212    -1738    -1254     -830     -479     -184 
      31      118       25     -270     -695    -1151    -1611    -2100 
   -2650    -3271    -3869    -4299    -4509    -4517    -4347    -4004 
   -3504    -2976    -2566    -2300    -2135    -2011    -1888    -1795 
   -1775    -1850    -2069    -2420    -2803    -3154    -3447    -3649 
   -3758    -3820    -3878    -3958    -4036    -4047    -4009    -3979 
   -3947    -3916    -3908    -3896    -3865    -3811    -3719    -3611 
   -3504    -3358    -3134    -2868    -2654    -2550    -2559    -2700 
   -2991    -3391    -3790    -4104    -4288    -4356    -4359    -4333 
   -4288    -4213    -4066    -3879    -3765    -3770    -3839    -3890 
   -3900    -3893    -3856    -3761    -3638    -3557    -3543    -3593 
   -3699    -3846    -4037    -4297    -4594    -4872    -5128    -5366 
   -5557    -5625    -5458    -5057    -4577    -4180    -3966    -3951 
   -4060    -4201    -4364    -4577    -4855    -5251    -5806    -6459 
   -7105    -7627    -7927    -8005    -7944    -7789    -7538    -7209 
   -6880    -6678    -6656    -6733    -6797    -6816    -6806    -6768 
   -6694    -6604    -6566    -6647    -6813    -6948    -6960    -6812 
   -6486    -5984    -5356    -4656    -3944    -3289    -2663    -1980 
   -1210     -355      535     1368     2097     2646     2856     2648 
    2064     1247      421     -229     -654     -866     -900     -861 
    -838     -805     -707     -495     -172      179      507      828 
    1136     1391     1534     1544     1494     1486     1559     1676 
    1761     1740     1582     1332     1073      816      498       25 
    -653    -1505    -2432    -3327    -4149    -4918    -5686    -6484 
   -7227    -7780    -8110    -8245    -8187    -7965    -7574    -7013 
   -6380    -5792    -5296    -4878    -4477    -4032    -3582    -3183 
   -2806    -2407    -1969    -1521    -1170    -1004    -1012    -1166 
   -1404    -1641    -1860    -2053    -2172    -2178    -2035    -1759 
   -1456    -1217    -1069    -1003     -999    -1053    -1178    -1372 
   -1590    -1740    -1710    -1475    -1139     -872     -803     -958 
   -1294    -1783    -2385    -3060    -3812    -4626    -5439    -6235 
   -7001    -7663    -8143    -8374    -8313    -7993    -7483    -6804 
   -5995    -5113    -4193    -3302    -2492    -1800    -1309    -1044 
    -924     -876     -841     -831     -980    -1362    -1888    -2431 
   -2925    -3402    -3942    -4565    -5177    -5690    -6106    -6450 
   -6705    -6831    -6782    -6574    -6285    -5967    -5649    -5332 
   -5005    -4679    -4386    -4144    -3912    -3613    -3254    -2852 
   -2354    -1696     -895      -44      702     1242     1557     1624 
    1432     1057      560      -12     -568    -1093    -1634    -2164 
   -2647    -3110    -3578    -4106    -4730    -5418    -6129    -6843 
   -7534    -8160    -8683    -9050    -9219    -9175    -8931    -8517 
   -7971    -7322    -6652    -6070    -5617    -5287    -5046    -4816 
   -4572    -4337    -4129    -3954    -3809    -3701    -3615    -3507 
   -3358    -3252    -3284    -3443    -3649    -3843    -4032    -4228 
   -4374    -4406    -4336    -4189    -4010    -3844    -3658    -3442 
   -3258    -3146    -3130    -3238    -3443    -3689    -3931    -4139 
   -4294    -4363    -4303    -4089    -3744    -3308    -2787    -2204 
   -1622    -1123     -788     -611     -499     -400     -307     -197 
     -27      233      579      976     1381     1742     2011     2153 
    2127     1911     1460      735     -195    -1179    -2120    -2990 
   -3778    -4482    -5124    -5767    -6462    -7163    -7766    -8194 
   -8382    -8330    -8066    -7558    -6804    -5872    -4774    -3503 
   -2128     -737      589     1767     2790     3688     4421     4931 
    5181     5140     4830     4322     3674     2960     2263     1590 
     884       83     -830    -1773    -2655    -3447    -4152    -4745 
   -5175    -5417    -5510    -5571    -5707    -5913    -6103    -6203 
   -6185    -6091    -6000    -5941    -5890    -5867    -5938    -6139 
   -6447    -6847    -7304    -7739    -8101    -8332    -8386    -8291 
   -8087    -7793    -7472    -7206    -7057    -7071    -7218    -7415 
   -7627    -7855    -8075    -8294    -8495    -8595    -8560    -8410 
   -8121    -7686    -7155    -6590    -6014    -5397    -4743    -4097 
   -3456    -2790    -2127    -1533    -1063     -762     -664     -756 
    -976    -1255    -1561    -1900    -2243    -2505    -2605    -2542 
   -2371    -2146    -1872    -1547    -1165     -760     -395      -87 
     182      423      648      849      988     1009      874      611 
     313       55     -189     -499     -896    -1335    -1714    -1941 
   -2029    -2047    -2015    -1933    -1756    -1398     -851     -203 
     438      996     1449     1831     2166     2438     2635     2790 
    2924     3038     3102     3052     2856     2558     2227     1899 
    1574     1258      947      608      221     -217     -710    -1256 
   -1858    -2496    -3130    -3726    -4245    -4687    -5092    -5490 
   -5868    -6203    -6481    -6678    -6789    -6779    -6577    -6187 
   -5705    -5231    -4877    -4685    -4590    -4523    -4430    -4247 
   -3964    -3623    -3258    -2901    -2578    -2323    -2188    -2200 
   -2327    -2558    -2871    -3194    -3500    -3809    -4099    -4371 
   -4626    -4853    -5092    -5409    -5836    -6339    -6864    -7380 
   -7858    -8263    -8580    -8784    -8868    -8865    -8781    -8592 
   -8306    -7947    -7542    -7156    -6874    -6729    -6745    -6949 
   -7303    -7777    -8326    -8826    -9194    -9448    -9603    -9672 
   -9657    -9517    -9205    -8731    -8154    -7546    -6951    -6370 
   -5827    -5391    -5088    -4884    -4752    -4654    -4588    -4585 
   -4618    -4649    -4652    -4561    -4325    -3925    -3376    -2720 
   -2000    -1255     -531      128      683     1121     1429     1578 
    1591     1524     1432     1381     1395     1448     1524     1625 
    1703     1688     1587     1447     1275     1046      746      441 
     162     -171     -623    -1155    -1709    -2230    -2635    -2874 
   -2967    -2913    -2679    -2286    -1798    -1301     -877     -531 
    -221       64      319      508      581      568      535      504 
     475      452      432      395      317      168      -81     -429 
    -869    -1413    -2065    -2779    -3468    -4077    -4634    -5204 
   -5818    -6444    -7002    -7430    -7708    -7825    -7798    -7680 
   -7542    -7438    -7346    -7260    -7209    -7132    -6920    -6540 
   -5994    -5308    -4614    -4012    -3495    -3056    -2714    -2517 
   -2562    -2870    -3407    -4139    -5008    -5981    -7047    -8102 
   -9026    -9787   -10413   -10937   -11365   -11655   -11728   -11546 
  -11134   -10513    -9684    -8668    -7493    -6228    -4962    -3734 
   -2575    -1533     -610      221      942     1516     1983     2378 
    2667     2817     2830     2716     2494     2160     1710     1210 
     753      386       95     -157     -430     -747    -1080    -1428 
   -1795    -2106    -2301    -2367    -2284    -2081    -1825    -1545 
   -1244     -919     -598     -382     -372     -630    -1185    -1972 
   -2853    -3738    -4588    -5348    -5927    -6247    -6280    -6053 
   -5647    -5165    -4687    -4229    -3771    -3310    -2890    -2556 
   -2286    -2061    -1858    -1637    -1393    -1156     -955     -810 
    -722     -650     -541     -414     -326     -270     -220     -171 
    -139     -217     -496     -970    -1587    -2296    -3055    -3865 
   -4702    -5493    -6181    -6731    -7133    -7412    -7558    -7508 
   -7242    -6810    -6274    -5744    -5333    -5082    -4981    -4992 
   -5080    -5236    -5444    -5665    -5869    -6006    -6056    -6045 
   -5995    -5900    -5740    -5516    -5246    -4955    -4677    -4461 
   -4318    -4224    -4163    -4144    -4171    -4271    -4448    -4662 
   -4864    -5020    -5111    -5132    -5073    -4914    -4704    -4531 
   -4460    -4529    -4730    -4992    -5254    -5505    -5744    -5976 
   -6216    -6440    -6629    -6790    -6898    -6918    -6836    -6596 
   -6114    -5389    -4531    -3655    -2830    -2096    -1463     -959 
    -649     -567     -683     -926    -1208    -1475    -1715    -1931 
   -2133    -2347    -2579    -2822    -3102    -3433    -3788    -4121 
   -4386    -4525    -4513    -4372    -4116    -3753    -3314    -2845 
   -2389    -1961    -1544    -1134     -738     -407     -194      -97 
     -82     -133     -229     -344     -437     -486     -481     -432 
    -357     -257     -151      -79      -59      -94     -162     -199 
    -170      -75       82      305      589      927     1298     1671 
    2035     2392     2709     2980     3231     3492     3777     4070 
    4341     4576     4749     4837     4862     4830     4683     4367 
    3875     3231     2466     1615      708     -253    -1250    -2211 
   -3075    -3847    -4571    -5302    -6077    -6839    -7491    -8019 
   -8432    -8741    -8972    -9113    -9128    -9013    -8791    -8492 
   -8144    -7724    -7214    -6659    -6120    -5632    -5238    -4962 
   -4797    -4743    -4789    -4872    -4973    -5112    -5256    -5368 
   -5474    -5629    -5871    -6173    -6455    -6669    -6804    -6841 
   -6771    -6615    -6393    -6092    -5694    -5209    -4675    -4141 
   -3655    -3246    -2970    -2916    -3126    -3568    -4180    -4878 
   -5582    -6238    -6785    -7183    -7438    -7560    -7574    -7519 
   -7380    -7136    -6774    -6292    -5748    -5255    -4884    -4627 
   -4476    -4452    -4550    -4720    -4899    -5055    -5215    -5395 
   -5562    -5670    -5692    -5621    -5472    -5263    -4988    -4657 
   -4299    -3935    -3565    -3188    -2791    -2354    -1881    -1418 
    -992     -567     -117      346      822     1293     1767     2285 
    2832     3327     3694     3885     3863     3622     3183     2597 
    1926     1201      418     -391    -1225    -2128    -3080    -4017 
   -4896    -5648    -6243    -6693    -6956    -7018    -6913    -6654 
   -6268    -5805    -5285    -4749    -4244    -3812    -3495    -3295 
   -3184    -3137    -3148    -3206    -3308    -3434    -3542    -3615 
   -3659    -3665    -3620    -3512    -3333    -3123    -2941    -2820 
   -2751    -2690    -2635    -2583    -2496    -2373    -2231    -2034 
   -1773    -1478    -1167     -868     -595     -352     -140       29 
     137      163      118       36     -103     -336     -634     -976 
   -1374    -1831    -2351    -2926    -3508    -4072    -4610    -5105 
   -5570    -6003    -6362    -6650    -6903    -7122    -7269    -7339 
   -7348    -7288    -7152    -6959    -6710    -6372    -5911    -5329 
   -4629    -3825    -2964    -2081    -1224     -465      143      581 
     845      934      849      602      238     -193     -645    -1088 
   -1530    -2004    -2508    -3011    -3499    -3952    -4359    -4737 
   -5088    -5414    -5741    -6061    -6361    -6612    -6752    -6772 
   -6708    -6558    -6324    -6021    -5647    -5217    -4777    -4349 
   -3947    -3608    -3353    -3164    -3033    -2951    -2906    -2902 
   -2930    -3002    -3122    -3280    -3487    -3735    -4009    -4313 
   -4656    -5047    -5479    -5913    -6311    -6628    -6808    -6831 
   -6696    -6399    -5981    -5560    -5216    -4955    -4772    -4658 
   -4592    -4545    -4467    -4347    -4248    -4202    -4197    -4233 
   -4298    -4417    -4656    -5013    -5462    -6012    -6637    -7260 
   -7838    -8302    -8575    -8654    -8559    -8310    -7979    -7608 
   -7194    -6774    -6384    -6039    -5752    -5489    -5202    -4889 
   -4568    -4239    -3856    -3358    -2732    -1983    -1115     -156 
     841     1865     2897     3894     4826     5679     6439     7079 
    7576     7923     8108     8105     7912     7551     7051     6459 
    5830     5178     4533     3919     3326     2799     2378     2011 
    1652     1302      927      494       55     -382     -851    -1337 
   -1831    -2323    -2751    -3044    -3173    -3129    -2901    -2470 
   -1868    -1189     -514      133      733     1205     1486     1567 
    1447     1123      594     -105     -901    -1737    -2565    -3334 
   -4005    -4534    -4903    -5109    -5146    -5016    -4753    -4394 
   -3990    -3585    -3206    -2913    -2771    -2820    -3088    -3562 
   -4162    -4795    -5400    -5935    -6440    -6947    -7415    -7832 
   -8208    -8521    -8769    -8950    -9030    -9005    -8899    -8715 
   -8479    -8228    -7970    -7668    -7288    -6812    -6223    -5528 
   -4741    -3883    -2965    -1973     -942       48      924     1615 
    2073     2263     2147     1729     1077      268     -661    -1711 
   -2871    -4140    -5535    -7034    -8552    -9990   -11272   -12348 
  -13207   -13869   -14316   -14517   -14530   -14412   -14161   -13768 
  -13207   -12494   -11703   -10851    -9942    -9043    -8189    -7354 
   -6521    -5687    -4873    -4083    -3334    -2701    -2236    -1944 
   -1814    -1827    -1952    -2200    -2601    -3088    -3596    -4137 
   -4676    -5085    -5267    -5181    -4831    -4233    -3391    -2322 
   -1065      329     1804     3335     4901     6428     7839     9073 
   10084    10841    11311    11473    11345    10963    10361     9555 
    8552     7402     6168     4857     3476     2033      495    -1119 
   -2735    -4286    -5711    -6910    -7821    -8451    -8791    -8843 
   -8680    -8341    -7797    -7137    -6458    -5717    -4885    -4012 
   -3146    -2312    -1509     -774     -166      292      550      571 
     360      -85     -781    -1709    -2810    -4027    -5332    -6713 
   -8139    -9540   -10843   -11990   -12918   -13571   -13923   -13977 
  -13755   -13294   -12675   -11970   -11209   -10399    -9556    -8649 
   -7654    -6660    -5734    -4842    -3975    -3213    -2629    -2234 
   -1998    -1910    -2008    -2338    -2836    -3395    -3947    -4433 
   -4819    -5084    -5139    -4923    -4479    -3832    -2998    -2054 
   -1046        4     1020     1956     2835     3707     4598     5452 
    6176     6723     7075     7214     7160     6944     6566     6015 
    5309     4446     3442     2355     1248      162     -815    -1602 
   -2214    -2721    -3218    -3720    -4174    -4608    -5061    -5467 
   -5821    -6166    -6446    -6605    -6727    -6853    -6906    -6913 
   -6968    -7051    -7164    -7338    -7545    -7794    -8112    -8456 
   -8826    -9259    -9741   -10230   -10692   -11067   -11306   -11384 
  -11238   -10833   -10192    -9336    -8294    -7142    -5960    -4807 
   -3742    -2840    -2160    -1680    -1327    -1034     -778     -556 
    -367     -243     -237     -382     -677    -1131    -1737    -2450 
   -3217    -4028    -4869    -5676    -6370    -6901    -7261    -7446 
   -7453    -7307    -7034    -6651    -6223    -5817    -5448    -5131 
   -4877    -4639    -4361    -4009    -3566    -3086    -2636    -2216 
   -1837    -1529    -1278    -1073     -928     -814     -711     -630 
    -576     -572     -630     -734     -899    -1159    -1517    -1962 
   -2488    -3072    -3688    -4311    -4909    -5449    -5899    -6228 
   -6413    -6424    -6274    -6052    -5787    -5437    -5007    -4545 
   -4097    -3639    -3107    -2512    -1923    -1385     -939     -606 
    -341     -133       17      167      334      453      507      549 
     558      492      349      139     -130     -483     -923    -1397 
   -1880    -2377    -2832    -3203    -3460    -3564    -3531    -3402 
   -3226    -3060    -2890    -2683    -2485    -2326    -2161    -1946 
   -1687    -1375    -1001     -610     -234      143      531      908 
    1247     1522     1695     1717     1576     1293      913      508 
     106     -322     -761    -1162    -1532    -1891    -2254    -2635 
   -2997    -3287    -3478    -3559    -3545    -3472    -3369    -3256 
   -3161    -3094    -3068    -3113    -3222    -3352    -3443    -3461 
   -3408    -3304    -3150    -2949    -2712    -2417    -2084    -1794 
   -1595    -1474    -1405    -1359    -1316    -1286    -1302    -1389 
   -1509    -1629    -1782    -2006    -2295    -2612    -2933    -3281 
   -3677    -4128    -4625    -5107    -5485    -5751    -5927    -6003 
   -5964    -5852    -5711    -5562    -5412    -5220    -4927    -4548 
   -4136    -3740    -3404    -3114    -2864    -2683    -2563    -2486 
   -2481    -2563    -2721    -2956    -3302    -3765    -4299    -4845 
   -5366    -5826    -6208    -6521    -6763    -6918    -7022    -7122 
   -7225    -7346    -7504    -7716    -7981    -8240    -8467    -8681 
   -8865    -8966    -8961    -8869    -8738    -8622    -8549    -8530 
   -8564    -8640    -8731    -8797    -8806    -8754    -8649    -8429 
   -8035    -7483    -6798    -5995    -5090    -4090    -3013    -1923 
    -882       48      841     1510     2099     2606     2995     3237 
    3308     3218     3019     2705     2257     1703     1055      315 
    -468    -1247    -1973    -2623    -3210    -3754    -4232    -4580 
   -4773    -4841    -4791    -4654    -4472    -4203    -3817    -3392 
   -2990    -2577    -2137    -1696    -1255     -854     -577     -441 
    -438     -580     -849    -1224    -1676    -2166    -2673    -3142 
   -3524    -3824    -4051    -4210    -4307    -4326    -4245    -4087 
   -3885    -3636    -3353    -3067    -2779    -2475    -2137    -1733 
   -1264     -751     -191      386      936     1447     1906     2285 
    2555     2706     2741     2663     2488     2242     1991     1809 
    1732     1737     1784     1857     1944     2022     2049     1954 
    1726     1418     1040      581       76     -448     -976    -1467 
   -1911    -2328    -2749    -3206    -3694    -4207    -4738    -5270 
   -5794    -6309    -6783    -7180    -7533    -7886    -8233    -8563 
   -8896    -9223    -9521    -9771    -9942   -10017   -10006    -9921 
   -9752    -9506    -9225    -8935    -8629    -8320    -8052    -7865 
   -7762    -7715    -7732    -7821    -7936    -8032    -8097    -8132 
   -8125    -8073    -7989    -7878    -7751    -7646    -7557    -7464 
   -7375    -7284    -7159    -6967    -6687    -6327    -5896    -5390 
   -4833    -4252    -3639    -2997    -2385    -1848    -1406    -1082 
    -869     -754     -724     -742     -799     -918    -1093    -1328 
   -1651    -2052    -2506    -3029    -3611    -4218    -4830    -5421 
   -5954    -6413    -6781    -7047    -7218    -7287    -7231    -7041 
   -6702    -6205    -5540    -4693    -3694    -2621    -1559     -554 
     360     1154     1817     2376     2832     3150     3316     3346 
    3246     3052     2844     2652     2494     2415     2394     2409 
    2471     2562     2641     2682     2655     2552     2361     2060 
    1671     1220      711      156     -406     -966    -1526    -2050 
   -2542    -3030    -3484    -3889    -4261    -4587    -4831    -4959 
   -4950    -4803    -4537    -4195    -3801    -3348    -2856    -2373 
   -1927    -1557    -1286    -1077     -903     -776     -681     -588 
