Origin Time       2025/01/13 21:19:00
Lat.              31.8
Long.             131.6
Depth. (km)       30
Mag.              6.9
Station Code      KMM021
Station Lat.      32.3793
Station Long.     129.9996
Station Height(m) 7
Record Time       2025/01/13 21:20:03
Sampling Freq(Hz) 100Hz
Duration Time(s)  113
Dir.              U-D
Scale Factor      7845(gal)/8223790
Max. Acc. (gal)   1.891
Last Correction   2025/01/13 21:20:03
Memo.             
[...]
  -38516   -38423   -38371   -38327   -38304   -38354   -38492   -38668 
  -38812   -38880   -38897   -38902   -38886   -38846   -38803   -38778 
  -38770   -38739   -38662   -38587   -38572   -38631   -38739   -38848 
  -38912   -38928   -38942   -38967   -38977   -38938   -38857   -38767 
  -38688   -38616   -38565   -38523   -38450   -38356   -38292   -38277 
  -38290   -38310   -38322   -38318   -38308   -38314   -38329   -38345 
  -38358   -38375   -38411   -38476   -38547   -38611   -38680   -38747 
  -38803   -38854   -38877   -38875   -38894   -38952   -39035   -39106 
  -39110   -39043   -38958   -38878   -38767   -38630   -38503   -38388 
  -38265   -38159   -38122   -38159   -38222   -38283   -38340   -38379 
  -38394   -38411   -38452   -38503   -38539   -38564   -38603   -38681 
  -38785   -38869   -38913   -38944   -38998   -39082   -39198   -39345 
  -39509   -39650   -39730   -39734   -39703   -39698   -39704   -39668 
  -39590   -39506   -39409   -39290   -39171   -39056   -38939   -38835 
  -38724   -38612   -38547   -38527   -38518   -38520   -38541   -38562 
  -38585   -38631   -38727   -38846   -38939   -39000   -39032   -39021 
  -38977   -38921   -38878   -38866   -38869   -38840   -38749   -38599 
  -38425   -38253   -38101   -38005   -37994   -38037   -38088   -38144 
  -38217   -38307   -38402   -38502   -38614   -38728   -38827   -38885 
  -38881   -38828   -38763   -38700   -38623   -38504   -38327   -38121 
  -37968   -37902   -37854   -37767   -37675   -37648   -37716   -37841 
  -37967   -38059   -38128   -38226   -38385   -38573   -38746   -38870 
  -38924   -38911   -38858   -38780   -38684   -38603   -38546   -38516 
  -38522   -38549   -38577   -38620   -38701   -38796   -38886   -38990 
  -39123   -39270   -39405   -39498   -39525   -39498   -39449   -39391 
  -39326   -39229   -39087   -38940   -38831   -38731   -38632   -38553 
  -38495   -38473   -38499   -38545   -38578   -38565   -38507   -38438 
  -38388   -38377   -38394   -38406   -38427   -38514   -38686   -38894 
  -39083   -39232   -39352   -39488   -39663   -39825   -39901   -39883 
  -39818   -39741   -39634   -39505   -39378   -39260   -39163   -39102 
  -39066   -39008   -38919   -38827   -38746   -38681   -38647   -38646 
  -38635   -38591   -38538   -38499   -38465   -38419   -38368   -38340 
  -38344   -38368   -38410   -38466   -38527   -38588   -38641   -38685 
  -38735   -38796   -38878   -38975   -39048   -39075   -39073   -39052 
  -39006   -38927   -38836   -38777   -38758   -38746   -38713   -38676 
  -38668   -38707   -38781   -38855   -38915   -38958   -38994   -39028 
  -39071   -39117   -39131   -39102   -39048   -38959   -38853   -38753 
  -38639   -38503   -38376   -38291   -38276   -38325   -38387   -38434 
  -38483   -38527   -38558   -38584   -38603   -38595   -38565   -38542 
  -38537   -38550   -38584   -38612   -38601   -38549   -38488   -38458 
  -38470   -38522   -38618   -38732   -38836   -38927   -38997   -39035 
  -39043   -39027   -38994   -38974   -38973   -38939   -38840   -38699 
  -38524   -38322   -38156   -38067   -38030   -38040   -38099   -38209 
  -38349   -38489   -38620   -38755   -38889   -39015   -39133   -39248 
  -39339   -39364   -39316   -39243   -39201   -39217   -39276   -39337 
  -39398   -39510   -39671   -39812   -39900   -39945   -39950   -39918 
  -39856   -39766   -39622   -39401   -39141   -38916   -38745   -38619 
  -38545   -38530   -38573   -38658   -38759   -38847   -38898   -38912 
  -38923   -38962   -39033   -39110   -39155   -39145   -39073   -38956 
  -38848   -38769   -38676   -38553   -38429   -38321   -38237   -38175 
  -38144   -38173   -38259   -38361   -38470   -38595   -38718   -38812 
  -38842   -38782   -38643   -38488   -38383   -38317   -38237   -38136 
  -38043   -37999   -38034   -38129   -38221   -38268   -38295   -38342 
  -38434   -38566   -38670   -38673   -38601   -38539   -38511   -38506 
  -38496   -38435   -38356   -38337   -38391   -38484   -38597   -38739 
  -38915   -39117   -39332   -39529   -39644   -39648   -39569   -39444 
  -39290   -39136   -38988   -38812   -38611   -38418   -38256   -38155 
  -38163   -38277   -38434   -38573   -38670   -38735   -38792   -38826 
  -38808   -38753   -38696   -38651   -38611   -38565   -38514   -38466 
  -38445   -38457   -38480   -38499   -38519   -38554   -38612   -38682 
  -38746   -38792   -38834   -38870   -38894   -38912   -38940   -38982 
  -39002   -38961   -38882   -38843   -38865   -38892   -38888   -38859 
  -38813   -38774   -38784   -38843   -38904   -38939   -38981   -39069 
  -39185   -39266   -39253   -39145   -38998   -38873   -38786   -38736 
  -38715   -38705   -38703   -38701   -38693   -38695   -38715   -38735 
  -38750   -38773   -38821   -38907   -38983   -39025   -39066   -39117 
  -39150   -39171   -39193   -39195   -39166   -39108   -39016   -38908 
  -38803   -38697   -38591   -38500   -38445   -38403   -38357   -38335 
  -38360   -38400   -38438   -38470   -38485   -38491   -38519   -38572 
  -38638   -38704   -38758   -38789   -38797   -38792   -38790   -38805 
  -38859   -38954   -39063   -39155   -39224   -39285   -39348   -39413 
  -39445   -39418   -39351   -39266   -39166   -39064   -38963   -38857 
  -38765   -38700   -38641   -38580   -38542   -38520   -38507   -38510 
  -38519   -38551   -38657   -38824   -38985   -39105   -39193   -39252 
  -39307   -39371   -39398   -39360   -39279   -39186   -39108   -39047 
  -38985   -38919   -38871   -38839   -38801   -38781   -38797   -38820 
  -38830   -38820   -38785   -38734   -38684   -38645   -38607   -38556 
  -38495   -38442   -38412   -38437   -38533   -38670   -38805   -38912 
  -38981   -39015   -39015   -38982   -38939   -38900   -38851   -38789 
  -38723   -38641   -38550   -38464   -38377   -38317   -38294   -38284 
  -38275   -38298   -38371   -38466   -38537   -38549   -38514   -38473 
  -38443   -38398   -38300   -38153   -38006   -37898   -37849   -37856 
  -37891   -37947   -38048   -38180   -38307   -38426   -38538   -38624 
  -38670   -38669   -38643   -38622   -38597   -38562   -38500   -38406 
  -38317   -38277   -38291   -38340   -38406   -38479   -38551   -38622 
  -38705   -38812   -38932   -39056   -39167   -39228   -39239   -39228 
  -39208   -39183   -39150   -39090   -38996   -38862   -38696   -38516 
  -38349   -38218   -38148   -38115   -38101   -38121   -38191   -38286 
  -38367   -38430   -38495   -38562   -38620   -38670   -38718   -38758 
  -38793   -38824   -38850   -38857   -38843   -38831   -38850   -38908 
  -38983   -39042   -39059   -39051   -39058   -39098   -39159   -39228 
  -39294   -39337   -39340   -39297   -39228   -39160   -39086   -38986 
  -38873   -38774   -38728   -38767   -38867   -38961   -39017   -39050 
  -39077   -39121   -39179   -39206   -39167   -39067   -38946   -38834 
  -38736   -38647   -38564   -38499   -38464   -38472   -38538   -38639 
  -38732   -38803   -38861   -38921   -39013   -39144   -39278   -39361 
  -39375   -39334   -39280   -39232   -39186   -39140   -39082   -39004 
  -38932   -38884   -38857   -38853   -38862   -38862   -38842   -38801 
  -38742   -38677   -38624   -38570   -38491   -38384   -38279   -38205 
  -38176   -38169   -38163   -38151   -38138   -38133   -38136   -38142 
  -38163   -38211   -38284   -38357   -38415   -38462   -38491   -38488 
  -38460   -38418   -38379   -38360   -38377   -38426   -38500   -38587 
  -38677   -38773   -38867   -38946   -39001   -39025   -39013   -38967 
  -38886   -38782   -38673   -38573   -38491   -38431   -38381   -38329 
  -38284   -38261   -38261   -38295   -38358   -38422   -38475   -38512 
  -38537   -38564   -38588   -38597   -38604   -38600   -38565   -38512 
  -38479   -38481   -38518   -38580   -38661   -38755   -38858   -38969 
  -39078   -39174   -39241   -39266   -39247   -39193   -39110   -39010 
  -38897   -38767   -38627   -38504   -38425   -38389   -38384   -38387 
  -38384   -38388   -38423   -38484   -38545   -38587   -38608   -38623 
  -38631   -38608   -38549   -38465   -38373   -38313   -38314   -38368 
  -38450   -38527   -38577   -38614   -38655   -38716   -38804   -38905 
  -38993   -39046   -39060   -39067   -39091   -39124   -39136   -39113 
  -39058   -38977   -38896   -38831   -38766   -38688   -38618   -38574 
  -38562   -38578   -38610   -38638   -38661   -38685   -38699   -38685 
  -38658   -38622   -38560   -38460   -38349   -38252   -38190   -38168 
  -38169   -38213   -38311   -38443   -38585   -38716   -38824   -38905 
  -38952   -38956   -38932   -38908   -38892   -38900   -38951   -39037 
  -39133   -39221   -39280   -39313   -39336   -39355   -39360   -39349 
  -39330   -39295   -39231   -39135   -39028   -38923   -38813   -38701 
  -38593   -38485   -38384   -38310   -38271   -38265   -38292   -38340 
  -38394   -38443   -38485   -38503   -38489   -38453   -38388   -38304 
  -38236   -38192   -38173   -38191   -38242   -38318   -38414   -38527 
  -38654   -38781   -38908   -39031   -39124   -39177   -39198   -39197 
  -39185   -39177   -39175   -39155   -39100   -39016   -38907   -38780 
  -38655   -38535   -38422   -38333   -38288   -38290   -38329   -38383 
  -38430   -38483   -38558   -38647   -38745   -38844   -38917   -38943 
  -38939   -38916   -38863   -38793   -38716   -38649   -38624   -38657 
  -38711   -38758   -38807   -38873   -38966   -39075   -39182   -39268 
  -39320   -39329   -39299   -39237   -39137   -39013   -38892   -38785 
  -38695   -38639   -38635   -38668   -38705   -38742   -38789   -38858 
  -38955   -39070   -39186   -39286   -39340   -39332   -39266   -39148 
  -38988   -38803   -38624   -38470   -38341   -38238   -38163   -38122 
  -38126   -38184   -38288   -38418   -38557   -38701   -38844   -38981 
  -39098   -39178   -39214   -39217   -39186   -39123   -39019   -38881 
  -38722   -38561   -38419   -38307   -38225   -38179   -38168   -38190 
  -38240   -38311   -38398   -38485   -38570   -38661   -38758   -38853 
  -38932   -38988   -39006   -38979   -38908   -38800   -38661   -38502 
  -38341   -38200   -38111   -38072   -38063   -38072   -38099   -38148 
  -38226   -38330   -38437   -38520   -38574   -38615   -38655   -38691 
  -38696   -38669   -38630   -38607   -38622   -38670   -38745   -38846 
  -38958   -39069   -39182   -39289   -39380   -39451   -39483   -39484 
  -39465   -39421   -39345   -39248   -39131   -39010   -38913   -38834 
  -38751   -38661   -38561   -38464   -38396   -38372   -38362   -38334 
  -38284   -38244   -38236   -38249   -38272   -38299   -38323   -38348 
  -38369   -38381   -38381   -38368   -38353   -38346   -38350   -38361 
  -38388   -38449   -38553   -38685   -38815   -38931   -39043   -39155 
  -39258   -39336   -39380   -39384   -39347   -39286   -39209   -39128 
  -39062   -39024   -39031   -39081   -39147   -39206   -39256   -39293 
  -39307   -39310   -39303   -39268   -39193   -39091   -38982   -38871 
  -38776   -38722   -38713   -38751   -38832   -38947   -39079   -39217 
  -39345   -39456   -39540   -39580   -39577   -39544   -39486   -39405 
  -39302   -39174   -39037   -38927   -38851   -38812   -38803   -38816 
  -38847   -38888   -38923   -38952   -38979   -38996   -39008   -39039 
  -39090   -39144   -39194   -39237   -39272   -39295   -39305   -39310 
  -39299   -39258   -39190   -39100   -39001   -38907   -38824   -38766 
  -38728   -38704   -38695   -38705   -38735   -38776   -38812   -38840 
  -38851   -38834   -38786   -38720   -38647   -38572   -38492   -38410 
  -38331   -38261   -38209   -38182   -38187   -38215   -38260   -38322 
  -38403   -38503   -38618   -38735   -38840   -38924   -38983   -39015 
  -39016   -38985   -38917   -38817   -38703   -38580   -38457   -38358 
  -38300   -38260   -38222   -38187   -38153   -38140   -38164   -38213 
  -38260   -38288   -38294   -38279   -38245   -38202   -38153   -38103 
  -38057   -38017   -37991   -37979   -37978   -38003   -38063   -38153 
  -38267   -38396   -38541   -38697   -38847   -38967   -39036   -39046 
  -38998   -38916   -38820   -38722   -38628   -38551   -38495   -38461 
  -38465   -38511   -38584   -38681   -38799   -38925   -39055   -39171 
  -39267   -39345   -39411   -39456   -39461   -39425   -39343   -39209 
  -39039   -38866   -38716   -38591   -38477   -38377   -38306   -38271 
  -38276   -38326   -38408   -38503   -38595   -38673   -38740   -38804 
  -38850   -38862   -38831   -38762   -38668   -38561   -38450   -38349 
  -38275   -38246   -38259   -38302   -38380   -38493   -38631   -38776 
  -38902   -38997   -39056   -39078   -39058   -39009   -38943   -38865 
  -38781   -38699   -38624   -38560   -38504   -38460   -38416   -38376 
  -38352   -38353   -38389   -38483   -38626   -38800   -38992   -39186 
  -39367   -39513   -39604   -39636   -39614   -39555   -39457   -39329 
  -39197   -39090   -39016   -38977   -38978   -39023   -39116   -39249 
  -39398   -39544   -39679   -39793   -39889   -39970   -40026   -40049 
  -40053   -40039   -40007   -39949   -39861   -39762   -39668   -39571 
  -39472   -39387   -39325   -39299   -39320   -39372   -39438   -39498 
  -39533   -39528   -39471   -39368   -39235   -39077   -38894   -38697 
  -38507   -38353   -38260   -38230   -38253   -38318   -38415   -38533 
  -38661   -38788   -38894   -38967   -39008   -39024   -39005   -38952 
  -38885   -38815   -38742   -38666   -38593   -38538   -38516   -38535 
  -38596   -38705   -38865   -39054   -39245   -39421   -39559   -39640 
  -39654   -39592   -39433   -39172   -38832   -38441   -38029   -37632 
  -37289   -37035   -36873   -36790   -36772   -36817   -36922   -37077 
  -37249   -37397   -37501   -37562   -37588   -37598   -37601   -37592 
  -37573   -37561   -37573   -37628   -37727   -37855   -37999   -38161 
  -38356   -38589   -38848   -39102   -39314   -39474   -39575   -39607 
  -39565   -39461   -39299   -39089   -38848   -38600   -38358   -38144 
  -37990   -37906   -37878   -37909   -38005   -38157   -38345   -38550 
  -38750   -38915   -39017   -39060   -39051   -38982   -38862   -38726 
  -38600   -38500   -38430   -38402   -38423   -38495   -38604   -38740 
  -38888   -39037   -39183   -39321   -39429   -39492   -39509   -39483 
  -39415   -39289   -39100   -38874   -38647   -38449   -38294   -38186 
  -38141   -38176   -38286   -38435   -38600   -38782   -38978   -39171 
  -39360   -39536   -39691   -39822   -39911   -39946   -39935   -39880 
  -39776   -39636   -39471   -39289   -39105   -38938   -38790   -38670 
  -38592   -38562   -38584   -38650   -38751   -38863   -38951   -39010 
  -39050   -39054   -39017   -38934   -38790   -38607   -38410   -38221 
  -38061   -37941   -37863   -37825   -37829   -37882   -37982   -38117 
  -38273   -38448   -38611   -38754   -38885   -38993   -39050   -39052 
  -38994   -38874   -38716   -38545   -38372   -38222   -38115   -38056 
  -38057   -38140   -38304   -38530   -38784   -39033   -39256   -39436 
  -39569   -39654   -39687   -39668   -39595   -39460   -39263   -39031 
  -38786   -38546   -38334   -38165   -38053   -38011   -38055   -38183 
  -38380   -38627   -38907   -39206   -39501   -39752   -39924   -39999 
  -39970   -39852   -39657   -39420   -39174   -38959   -38794   -38684 
  -38624   -38623   -38682   -38790   -38924   -39062   -39195   -39321 
  -39428   -39505   -39538   -39522   -39460   -39368   -39271   -39181 
  -39096   -39010   -38928   -38855   -38797   -38754   -38726   -38707 
  -38692   -38693   -38703   -38704   -38693   -38661   -38601   -38520 
  -38443   -38383   -38340   -38311   -38298   -38311   -38379   -38504 
  -38680   -38890   -39113   -39316   -39476   -39590   -39649   -39653 
  -39611   -39529   -39406   -39262   -39116   -38970   -38819   -38654 
  -38470   -38276   -38082   -37914   -37790   -37710   -37673   -37682 
  -37731   -37804   -37899   -38002   -38090   -38161   -38210   -38217 
  -38183   -38126   -38067   -38026   -38018   -38049   -38122   -38222 
  -38335   -38453   -38562   -38650   -38727   -38789   -38821   -38826 
  -38812   -38794   -38773   -38757   -38747   -38736   -38718   -38695 
  -38653   -38581   -38496   -38407   -38319   -38246   -38188   -38142 
  -38119   -38124   -38155   -38215   -38300   -38391   -38480   -38570 
  -38655   -38726   -38781   -38819   -38828   -38816   -38799   -38781 
  -38759   -38732   -38705   -38682   -38673   -38692   -38743   -38830 
  -38952   -39100   -39260   -39430   -39596   -39744   -39865   -39953 
  -40003   -40019   -40003   -39957   -39887   -39788   -39665   -39530 
  -39386   -39240   -39108   -38998   -38912   -38847   -38815   -38827 
  -38878   -38965   -39086   -39231   -39382   -39533   -39661   -39746 
  -39779   -39756   -39676   -39536   -39341   -39097   -38811   -38511 
  -38219   -37952   -37717   -37531   -37404   -37347   -37366   -37463 
  -37624   -37832   -38065   -38314   -38566   -38809   -39021   -39185 
  -39285   -39318   -39299   -39233   -39112   -38951   -38770   -38595 
  -38450   -38358   -38330   -38384   -38522   -38732   -38996   -39282 
  -39561   -39819   -40041   -40200   -40271   -40236   -40092   -39864 
  -39595   -39314   -39039   -38786   -38566   -38395   -38290   -38263 
  -38314   -38431   -38604   -38824   -39059   -39280   -39465   -39586 
  -39627   -39602   -39509   -39351   -39140   -38909   -38700   -38524 
  -38377   -38259   -38180   -38148   -38167   -38232   -38326   -38433 
  -38542   -38642   -38722   -38776   -38807   -38819   -38809   -38785 
  -38749   -38697   -38641   -38588   -38556   -38541   -38537   -38541 
  -38545   -38541   -38530   -38506   -38452   -38375   -38291   -38213 
  -38156   -38124   -38124   -38160   -38230   -38323   -38435   -38562 
  -38701   -38844   -38988   -39128   -39249   -39339   -39384   -39390 
  -39364   -39302   -39202   -39070   -38913   -38742   -38584   -38456 
  -38353   -38275   -38222   -38199   -38210   -38245   -38304   -38385 
  -38476   -38564   -38641   -38707   -38757   -38793   -38826   -38855 
  -38881   -38905   -38938   -38979   -39033   -39102   -39187   -39283 
  -39386   -39490   -39582   -39653   -39707   -39745   -39757   -39729 
  -39660   -39552   -39406   -39225   -39020   -38804   -38591   -38396 
  -38226   -38084   -37991   -37959   -37982   -38043   -38132   -38238 
  -38353   -38476   -38599   -38713   -38819   -38908   -38971   -38998 
  -38989   -38951   -38898   -38844   -38800   -38767   -38755   -38765 
  -38796   -38848   -38931   -39036   -39148   -39258   -39366   -39460 
  -39530   -39565   -39561   -39514   -39425   -39306   -39166   -39001 
  -38820   -38637   -38464   -38321   -38219   -38168   -38165   -38207 
  -38287   -38388   -38500   -38622   -38735   -38827   -38892   -38935 
  -38959   -38966   -38959   -38939   -38904   -38854   -38788   -38708 
  -38622   -38529   -38427   -38331   -38252   -38191   -38146   -38109 
  -38068   -38033   -38014   -38021   -38061   -38133   -38215   -38300 
  -38388   -38476   -38566   -38662   -38751   -38817   -38848   -38846 
  -38805   -38732   -38628   -38508   -38383   -38264   -38157   -38068 
  -38005   -37964   -37940   -37937   -37968   -38037   -38137   -38259 
  -38384   -38503   -38615   -38715   -38786   -38827   -38840   -38834 
  -38816   -38786   -38745   -38686   -38615   -38545   -38496   -38483 
  -38504   -38565   -38657   -38763   -38870   -38970   -39052   -39104 
  -39118   -39087   -39008   -38890   -38750   -38596   -38445   -38306 
