Origin Time       2025/01/13 21:19:00
Lat.              31.8
Long.             131.6
Depth. (km)       30
Mag.              6.9
Station Code      KMM007
Station Lat.      32.8268
Station Long.     131.1224
Station Height(m) 547
Record Time       2025/01/13 21:19:54
Sampling Freq(Hz) 100Hz
Duration Time(s)  117
Dir.              U-D
Scale Factor      7845(gal)/8223790
Max. Acc. (gal)   13.844
Last Correction   2025/01/13 21:19:54
Memo.             
[...]
   -7442    -7423    -7982    -9254   -10840   -12128   -12749   -12722 
  -12320   -11893   -11776   -12166   -12966   -13913   -14841   -15673 
  -16263   -16459   -16248   -15828   -15512   -15479   -15573   -15508 
  -15217   -14859   -14598   -14384   -13868   -12758   -11275   -10034 
   -9544    -9790   -10373   -11161   -12422   -14103   -15526   -16051 
  -15655   -14793   -13902   -12995   -11735    -9965    -8024    -6496 
   -5761    -5868    -6643    -7830    -9188   -10557   -11884   -13221 
  -14570   -15738   -16468   -16661   -16440   -16033   -15519   -14716 
  -13494   -12056   -10798    -9971    -9571    -9566   -10008   -10910 
  -12098   -13163   -13714   -13788   -13815   -14065   -14269   -13911 
  -12884   -11666   -10717    -9972    -9127    -8240    -7870    -8436 
   -9602   -10648   -11259   -11630   -12037   -12569   -13194   -13802 
  -14169   -14054   -13315   -12155   -11195   -10925   -11284   -11858 
  -12170   -12085   -12147   -13061   -14751   -16355   -17082   -16821 
  -16005   -15156   -14447   -13691   -12804   -12019   -11430   -10793 
   -9987    -9304    -9188    -9829   -10968   -12094   -12837   -13235 
  -13699   -14620   -15967   -17304   -18172   -18364   -17760   -16164 
  -13701   -11155    -9458    -8904    -8993    -8965    -8542    -8128 
   -8309    -9293   -10747   -12185   -13379   -14169   -14241   -13522 
  -12445   -11458   -10611    -9765    -8897    -8052    -7387    -7360 
   -8442   -10478   -12665   -14297   -15238   -15596   -15448   -14953 
  -14254   -13328   -12302   -11518   -11002   -10507   -10137   -10292 
  -11088   -12274   -13477   -14346   -14673   -14478   -13842   -12785 
  -11426   -10054    -8912    -8068    -7510    -7330    -7847    -9315 
  -11502   -13846   -15890   -17429   -18426   -18924   -19045   -18952 
  -18708   -18153   -16899   -14675   -11820    -9167    -7412    -6804 
   -7231    -8401    -9981   -11770   -13736   -15886   -17992   -19529 
  -19978   -19147   -17224   -14638   -11855    -9289    -7265    -5941 
   -5287    -5190    -5630    -6764    -8642   -10910   -13015   -14678 
  -15924   -16671   -16632   -15726   -14251   -12764   -11754   -11233 
  -10743    -9944    -8942    -8129    -7885    -8472    -9961   -12056 
  -14152   -15651   -16218   -15996   -15653   -15711   -15884   -15457 
  -14168   -12417   -10727    -9383    -8583    -8461    -8880    -9405 
   -9610    -9520    -9720   -10797   -12711   -14843   -16576   -17722 
  -18349   -18355   -17504   -15772   -13516   -11244    -9242    -7480 
   -5888    -4631    -4114    -4750    -6656    -9547   -12792   -15633 
  -17540   -18415   -18334   -17354   -15728   -13995   -12540   -11214 
   -9661    -7958    -6739    -6678    -7892    -9871   -11923   -13660 
  -15142   -16633   -18283   -20044   -21560   -22180   -21460   -19477 
  -16596   -13423   -10770    -9076    -8075    -7338    -6804    -6717 
   -7333    -8739   -10764   -12930   -14639   -15484   -15462   -14948 
  -14276   -13440   -12352   -11182   -10261    -9718    -9298    -8788 
   -8399    -8495    -9146   -10084   -10944   -11473   -11589   -11439 
  -11435   -11913   -12750   -13439   -13512   -12856   -11789   -10960 
  -10951   -11828   -13136   -14312   -14966   -14999   -14708   -14553 
  -14696   -14862   -14612   -13737   -12480   -11358   -10860   -11225 
  -12245   -13423   -14365   -14922   -15074   -14858   -14354   -13671 
  -12916   -12160   -11368   -10474    -9687    -9504   -10204   -11446 
  -12452   -12681   -12370   -12189   -12453   -13024   -13686   -14250 
  -14449   -13944   -12668   -11113   -10027    -9844   -10439   -11321 
  -12001   -12206   -11921   -11481   -11423   -11917   -12586   -12972 
  -12915   -12483   -11881   -11418   -11294   -11485   -11846   -12164 
  -12205   -11989   -11896   -12367   -13560   -15245   -16934   -18118 
  -18418   -17683   -16013   -13714   -11317    -9344    -7836    -6481 
   -5371    -5155    -6253    -8343   -10724   -12907   -14693   -15935 
  -16497   -16441   -16071   -15620   -14978   -13819   -12050   -10130 
   -8818    -8486    -8915    -9674   -10459   -11226   -12078   -13016 
  -13873   -14492   -14836   -14872   -14467   -13535   -12253   -11056 
  -10386   -10453   -11095   -11915   -12587   -13089   -13593   -14116 
  -14388   -14216   -13728   -13112   -12364   -11410   -10389    -9628 
   -9325    -9483   -10034   -10887   -11938   -13081   -14154   -14991 
  -15561   -15920   -16055   -15900   -15402   -14505   -13278   -12028 
  -11009   -10189    -9528    -9163    -9207    -9583   -10135   -10791 
  -11645   -12721   -13774   -14423   -14389   -13675   -12690   -11975 
  -11677   -11534   -11303   -10963   -10659   -10643   -11074   -11836 
  -12745   -13726   -14589   -14931   -14500   -13470   -12301   -11389 
  -10882   -10723   -10739   -10887   -11430   -12536   -13913   -15078 
  -15761   -16016   -16083   -16059   -15795   -15210   -14445   -13566 
  -12426   -10932    -9251    -7672    -6466    -5857    -5995    -6924 
   -8534   -10589   -12862   -15130   -17097   -18535   -19387   -19656 
  -19255   -18096   -16348   -14439   -12665   -10953    -9053    -6957 
   -5154    -4244    -4440    -5625    -7607   -10083   -12731   -15353 
  -17766   -19612   -20501   -20250   -18920   -16719   -13981   -11025 
   -8091    -5535    -3850    -3403    -4164    -5709    -7595    -9651 
  -11834   -13999   -15874   -17211   -17998   -18374   -18257   -17428 
  -15931   -14053   -11956    -9694    -7566    -6099    -5587    -5940 
   -6928    -8409   -10318   -12513   -14781   -16884   -18430   -18905 
  -18025   -15954   -13257   -10679    -8838    -8000    -8020    -8511 
   -9273   -10420   -11978   -13668   -15180   -16401   -17282   -17668 
  -17454   -16822   -16139   -15610   -15098   -14359   -13342   -12129 
  -10856    -9796    -9240    -9248    -9701   -10381   -11094   -11799 
  -12452   -12858   -12899   -12789   -12907   -13355   -13925   -14436 
  -14883   -15358   -15923   -16416   -16528   -16077   -15105   -13927 
  -12934   -12229   -11763   -11560   -11442   -10982   -10022    -8953 
   -8332    -8387    -8957    -9755   -10571   -11223   -11446   -11151 
  -10743   -10704   -10986   -11236   -11257   -10949   -10231    -9288 
   -8599    -8483    -8770    -9043    -9001    -8646    -8282    -8217 
   -8529    -9278   -10592   -12232   -13559   -14239   -14558   -14829 
  -15045   -15196   -15391   -15527   -15363   -14914   -14501   -14361 
  -14393   -14368   -14230   -14003   -13648   -13236   -12974   -13023 
  -13427   -14112   -14775   -14947   -14455   -13675   -13078   -12829 
  -12820   -12788   -12445   -11847   -11488   -11873   -13012   -14440 
  -15635   -16232   -16093   -15495   -14948   -14608   -14208   -13545 
  -12663   -11673   -10737   -10083    -9853    -9991   -10282   -10531 
  -10813   -11450   -12560   -13821   -14713   -14901   -14482   -13846 
  -13209   -12438   -11342   -10004    -8804    -8133    -8073    -8464 
   -9113    -9813   -10401   -10913   -11538   -12353   -13058   -13242 
  -12937   -12627   -12657   -12830   -12699   -12202   -11736   -11520 
  -11275   -10696    -9910    -9246    -8835    -8677    -8874    -9624 
  -10963   -12618   -14214   -15560   -16625   -17417   -17906   -17930 
  -17323   -16036   -14150   -11911    -9671    -7605    -5715    -4132 
   -3119    -2844    -3408    -4923    -7380   -10486   -13747   -16788 
  -19539   -21878   -23271   -23198   -21743   -19417   -16590   -13437 
  -10311    -7871    -6632    -6409    -6600    -6976    -7809    -9423 
  -12006   -15453   -19071   -21805   -22968   -22682   -21559   -20019 
  -17998   -15295   -11985    -8523    -5535    -3384    -2172    -2169 
   -3757    -6658    -9891   -12582   -14312   -15079   -15415   -16031 
  -16976   -17589   -17319   -16213   -14701   -13181   -11813   -10669 
   -9836    -9244    -8599    -7649    -6558    -5973    -6610    -8630 
  -11341   -13656   -14864   -14924   -14322   -13701   -13405   -13235 
  -12753   -11821   -10670    -9526    -8576    -8243    -9051   -11187 
  -14166   -16833   -18112   -17977   -17340   -17007   -16872   -16168 
  -14432   -11959    -9387    -7191    -5648    -5051    -5576    -6956 
   -8594   -10010   -11149   -12326   -13859   -15712   -17427   -18373 
  -18237   -17111   -15206   -12842   -10612    -9223    -9121   -10134 
  -11460   -12312   -12600   -12933   -13917   -15367   -16430   -16546 
  -15835   -14770   -13926   -13782   -14431   -15450   -16193   -16187 
  -15292   -13729   -12179   -11458   -11754   -12424   -12591   -11861 
  -10584    -9460    -8783    -8271    -7690    -7364    -7811    -9003 
  -10219   -10728   -10578   -10557   -11244   -12407   -13428   -13969 
  -14127   -14096   -13922   -13652   -13379   -13082   -12749   -12506 
  -12478   -12841   -13828   -15304   -16568   -16789   -15711   -13909 
  -12345   -11740   -12208   -13240   -14108   -14376   -13952   -12970 
  -11790   -10827   -10172    -9645    -9252    -9229    -9518    -9633 
   -9308    -8964    -9279   -10390   -11697   -12447   -12334   -11684 
  -11111   -10920   -10976   -11184   -11595   -12179   -12752   -13132 
  -13419   -14004   -15053   -16205   -16935   -16924   -16104   -14627 
  -12862   -11315   -10362    -9976    -9830    -9616    -9200    -8734 
   -8652    -9382   -10922   -12739   -14266   -15388   -16174   -16499 
  -16345   -16001   -15589   -14793   -13331   -11438    -9761    -8830 
   -8571    -8515    -8548    -9000    -9983   -11240   -12607   -13963 
  -14881   -14891   -14065   -12981   -12113   -11547   -11315   -11677 
  -12771   -14204   -15352   -16017   -16420   -16618   -16357   -15439 
  -14099   -12958   -12424   -12202   -11848   -11511   -11631   -12289 
  -13022   -13115   -12262   -11037   -10381   -10584   -11084   -11276 
  -11153   -11156   -11662   -12583   -13444   -13999   -14346   -14435 
  -14077   -13439   -12976   -12839   -12681   -12174   -11371   -10485 
   -9595    -8729    -8073    -7940    -8449    -9364   -10363   -11302 
  -12236   -13278   -14401   -15425   -16155   -16389   -15965   -14980 
  -13876   -13177   -12996   -12910   -12339   -10963    -9053    -7453 
   -6833    -7167    -8195    -9811   -11867   -14152   -16456   -18488 
  -19940   -20660   -20517   -19376   -17377   -15003   -12680   -10504 
   -8534    -7086    -6434    -6438    -6683    -6920    -7294    -8098 
   -9387   -10912   -12298   -13309   -14004   -14581   -15053   -15245 
  -15055   -14596   -13980   -13193   -12371   -11911   -12143   -12972 
  -13767   -13757   -12739   -11277   -10195    -9941   -10399   -11272 
  -12430   -13776   -15145   -16363   -17181   -17374   -16999   -16287 
  -15402   -14347   -13050   -11599   -10253    -9094    -8073    -7469 
   -7886    -9471   -11377   -12445   -12343   -11676   -11252   -11596 
  -12756   -14251   -15516   -16494   -17416   -18195   -18584   -18682 
  -18644   -18189   -16946   -15009   -12938   -11313   -10287    -9528 
   -8661    -7727    -7061    -6741    -6575    -6736    -7739    -9549 
  -11398   -12680   -13508   -14188   -14600   -14459   -13919   -13412 
  -13003   -12414   -11473   -10377    -9621    -9540    -9938   -10380 
  -10640   -10708   -10670   -10885   -11811   -13371   -15044   -16578 
  -18021   -19252   -20016   -20241   -20105   -19827   -19413   -18657 
  -17467   -16071   -14839   -13952   -13346   -12953   -12911   -13317 
  -13888   -14273   -14613   -15307   -16329   -17273   -17814   -17776 
  -17058   -15793   -14202   -12256    -9907    -7361    -4833    -2382 
    -167     1404     1853      955    -1035    -3511    -6053    -8660 
  -11319   -13660   -15126   -15402   -14670   -13309   -11450    -9144 
   -6868    -5463    -5404    -6320    -7510    -8773   -10365   -12356 
  -14450   -16231   -17435   -18030   -18038   -17437   -16372   -15210 
  -14235   -13474   -12897   -12588   -12677   -13211   -13972   -14508 
  -14543   -14103   -13271   -12162   -10852    -9219    -7233    -5387 
   -4407    -4627    -5927    -8060   -10683   -13289   -15422   -16931 
  -17830   -18023   -17458   -16328   -14882   -13162   -11183    -9304 
   -8102    -7776    -7997    -8397    -8938    -9791   -10989   -12251 
  -13186   -13684   -14050   -14598   -15291   -15704   -15299   -14015 
  -12436   -11125   -10188    -9528    -9050    -8788    -8970    -9815 
  -11419   -13717   -16264   -18316   -19257   -19036   -18211   -17338 
  -16344   -14743   -12298    -9254    -6145    -3657    -2440    -2663 
   -3896    -5540    -7117    -8403    -9664   -11367   -13474   -15346 
  -16308   -16112   -14945   -13150   -11159    -9494    -8500    -8185 
   -8418    -9074   -10002   -11121   -12407   -13737   -14913   -15788 
  -16256   -16337   -16329   -16641   -17339   -18072   -18516   -18597 
  -18307   -17501   -16056   -14326   -13066   -12644   -12776   -13099 
  -13505   -14011   -14694   -15634   -16714   -17575   -17802   -17162 
  -15772   -14123   -12698   -11442   -10104    -8912    -8278    -8172 
   -8286    -8577    -9404   -11020   -13001   -14500   -15018   -14729 
  -14169   -13721   -13277   -12440   -10986    -9066    -7206    -6162 
   -6509    -8260   -10947   -13917   -16557   -18522   -19813   -20536 
  -20634   -19847   -17868   -14775   -11256    -8172    -5988    -4648 
   -3846    -3427    -3636    -4803    -6735    -8803   -10609   -12139 
  -13451   -14553   -15350   -15647   -15306   -14250   -12320    -9467 
   -6164    -3399    -2058    -2246    -3465    -5456    -8365   -12136 
  -16330   -20360   -23664   -25851   -26860   -26886   -26044   -24236 
  -21301   -17275   -12663    -8407    -5363    -3900    -4040    -5652 
   -8360   -11600   -14891   -17922   -20398   -21990   -22461   -21741 
  -19953   -17470   -14779   -12222    -9890    -7734    -5921    -4869 
   -4787    -5479    -6589    -7773    -8765    -9490   -10096   -10783 
  -11551   -12147   -12329   -12112   -11740   -11507   -11404   -11149 
  -10633    -9960    -9221    -8560    -8201    -8379    -9192   -10415 
  -11646   -12591   -13266   -13983   -14951   -15857   -16112   -15426 
  -14025   -12482   -11327   -10721   -10528   -10631   -11121   -12116 
  -13556   -15377   -17586   -19934   -21784   -22513   -21917   -20159 
  -17567   -14567   -11651    -9243    -7620    -6951    -7372    -8887 
  -11152   -13674   -16132   -18270   -19738   -20223   -19623   -18056 
  -15736   -12846    -9501    -5921    -2617     -211      989     1109 
     310    -1544    -4479    -7889   -10920   -13045   -14219   -14775 
  -14982   -14754   -13969   -12803   -11695   -11029   -10806   -10860 
  -11268   -11959   -12361   -12004   -11141   -10601   -11047   -12390 
  -14034   -15430   -16309   -16664   -16613   -16232   -15519   -14436 
  -13047   -11685   -10785   -10570   -11026   -11940   -12927   -13601 
  -13732   -13385   -12896   -12526   -12232   -11893   -11531   -11306 
  -11379   -11684   -11971   -12190   -12506   -12953   -13474   -14154 
  -15101   -16217   -17188   -17624   -17282   -16141   -14268   -11781 
   -9019    -6401    -4170    -2525    -1723    -1911    -3064    -4997 
   -7393    -9926   -12357   -14543   -16349   -17644   -18301   -18103 
  -16997   -15469   -14095   -12960   -11943   -11186   -10995   -11391 
  -11889   -12006   -11850   -11924   -12411   -12996   -13406   -13716 
  -13999   -14060   -13571   -12388   -10775    -9213    -7966    -6943 
   -5964    -5163    -5035    -5892    -7523    -9517   -11612   -13768 
  -16011   -18096   -19615   -20447   -20772   -20713   -20162   -19059 
  -17701   -16529   -15735   -15256   -14929   -14669   -14505   -14455 
  -14453   -14420   -14258   -13872   -13273   -12615   -12195   -12259 
  -12679   -13016   -12966   -12536   -11788   -10744    -9616    -8803 
   -8565    -8725    -8857    -8920    -9394   -10585   -12147   -13404 
  -13887   -13562   -12820   -12110   -11533   -11080   -10905   -11094 
  -11487   -11870   -12258   -12900   -14041   -15687   -17497   -18925 
  -19548   -19271   -18341   -16977   -15053   -12426    -9385    -6501 
   -4241    -2798    -2297    -2968    -4899    -7813   -11149   -14284 
  -16903   -18999   -20555   -21536   -21933   -21591   -20395   -18503 
  -16120   -13296   -10106    -6983    -4575    -3130    -2384    -2116 
   -2581    -4311    -7506   -11511   -15138   -17394   -18023   -17583 
  -16830   -16105   -15418   -14756   -14094   -13343   -12557   -12033 
  -12083   -12906   -14520   -16411   -17620   -17622   -16781   -15753 
  -14851   -14037   -13095   -11851   -10324    -8664    -7111    -5987 
   -5499    -5686    -6520    -7830    -9202   -10413   -11664   -13095 
  -14485   -15523   -16048   -16081   -15784   -15315   -14685   -13861 
  -12961   -12123   -11302   -10320    -9038    -7565    -6416    -6176 
   -6976    -8527   -10412   -12313   -13998   -15080   -15206   -14454 
  -13271   -12048   -10844    -9653    -8730    -8306    -8301    -8567 
   -9101    -9942   -11102   -12622   -14469   -16370   -17882   -18607 
  -18289   -16900   -14785   -12617   -11034   -10336   -10399   -10862 
  -11522   -12432   -13690   -15175   -16443   -17107   -17188   -16916 
  -16474   -15958   -15403   -14813   -14146   -13294   -12239   -11136 
  -10227    -9782    -9894   -10270   -10438   -10176    -9711    -9464 
   -9475    -9347    -8816    -8014    -7233    -6667    -6353    -6338 
   -6732    -7534    -8592    -9632   -10343   -10531   -10130    -9301 
   -8478    -8091    -8293    -8972    -9884   -10748   -11430   -12050 
  -12803   -13848   -15279   -16942   -18295   -18804   -18431   -17520 
  -16433   -15398   -14458   -13589   -12908   -12630   -12798   -13211 
  -13694   -14215   -14673   -14960   -15140   -15295   -15400   -15400 
  -15223   -14854   -14354   -13716   -12712   -11036    -8714    -6227 
   -4121    -2704    -2050    -2045    -2529    -3489    -5019    -7129 
   -9636   -12208   -14534   -16420   -17734   -18415   -18559   -18438 
  -18238   -17890   -17267   -16372   -15344   -14469   -13860   -13273 
  -12491   -11587   -10694    -9875    -9171    -8683    -8540    -8737 
   -9215   -10004   -11024   -12021   -12831   -13389   -13672   -13653 
  -13284   -12627   -11871   -11230   -10855   -10728   -10794   -11167 
  -11959   -13065   -14322   -15685   -17041   -18076   -18557   -18535 
  -18184   -17578   -16802   -16035   -15390   -14793   -14126   -13378 
  -12598   -11745   -10805    -9998    -9583    -9597    -9954   -10569 
  -11361   -12314   -13443   -14632   -15666   -16417   -16848   -16864 
  -16429   -15646   -14631   -13479   -12293   -11141   -10103    -9278 
   -8734    -8641    -9275   -10656   -12418   -14007   -14975   -15248 
  -15009   -14299   -13019   -11298    -9509    -7948    -6790    -6218 
   -6389    -7326    -8927   -11084   -13621   -16119   -18052   -19248 
  -19944   -20297   -20198   -19614   -18554   -16950   -14886   -12706 
  -10854    -9687    -9294    -9531   -10285   -11570   -13323   -15187 
  -16653   -17463   -17749   -17705   -17219   -16074   -14351   -12321 
  -10189    -8041    -5944    -4090    -2812    -2435    -3159    -4785 
   -6701    -8387    -9780   -11022   -12058   -12556   -12306   -11587 
  -10837   -10108    -9088    -7634    -6050    -4742    -3878    -3474 
   -3526    -4162    -5543    -7592   -10110   -12935   -15928   -18898 
  -21450   -23064   -23495   -22831   -21223   -18843   -16008   -13089 
