Origin Time       2025/01/13 21:19:00
Lat.              31.8
Long.             131.6
Depth. (km)       30
Mag.              6.9
Station Code      KMM019
Station Lat.      32.4548
Station Long.     130.1807
Station Height(m) 10
Record Time       2025/01/13 21:20:14
Sampling Freq(Hz) 100Hz
Duration Time(s)  74
Dir.              N-S
Scale Factor      7845(gal)/8223790
Max. Acc. (gal)   2.269
Last Correction   2025/01/13 21:20:15
Memo.             
[...]
    1833     1803     1818     1869     1935     1999     2037     2027 
    1980     1918     1864     1836     1838     1856     1873     1875 
    1848     1803     1753     1715     1705     1722     1759     1798 
    1825     1815     1779     1752     1761     1806     1867     1907 
    1915     1902     1885     1880     1879     1852     1783     1683 
    1586     1526     1520     1553     1602     1630     1630     1617 
    1615     1638     1678     1718     1733     1709     1679     1661 
    1659     1678     1703     1706     1690     1678     1682     1702 
    1738     1790     1837     1875     1910     1935     1945     1945 
    1950     1962     1969     1968     1949     1907     1857     1827 
    1836     1872     1907     1933     1941     1935     1934     1946 
    1966     1981     1973     1938     1883     1811     1718     1617 
    1541     1524     1567     1644     1707     1729     1714     1682 
    1653     1649     1671     1713     1772     1834     1880     1904 
    1896     1861     1822     1783     1746     1718     1713     1734 
    1779     1836     1879     1892     1884     1880     1890     1892 
    1881     1885     1921     1961     1971     1953     1914     1868 
    1840     1837     1842     1854     1875     1880     1854     1806 
    1757     1721     1692     1657     1602     1521     1439     1393 
    1409     1485     1576     1634     1656     1661     1667     1682 
    1722     1779     1825     1857     1892     1919     1930     1948 
    1979     2012     2030     2026     1996     1946     1885     1837 
    1830     1869     1929     1984     2007     1979     1910     1823 
    1745     1699     1702     1756     1840     1915     1964     1998 
    2022     2039     2052     2062     2066     2058     2037     2007 
    1972     1941     1911     1875     1831     1792     1769     1768 
    1787     1830     1891     1954     1999     2019     2023     2020 
    2018     2019     2023     2031     2037     2033     2018     2002 
    1993     1992     1988     1962     1907     1833     1759     1696 
    1653     1638     1663     1715     1756     1760     1715     1634 
    1559     1526     1536     1564     1595     1636     1684     1709 
    1711     1730     1740     1717     1705     1692     1636     1567 
    1513     1462     1429     1443     1489     1548     1625     1711 
    1780     1804     1772     1699     1620     1570     1579     1628 
    1682     1726     1757     1791     1844     1912     1979     2029 
    2045     2029     1977     1885     1796     1757     1749     1769 
    1833     1888     1887     1852     1814     1786     1777     1791 
    1811     1826     1845     1873     1904     1929     1952     1988 
    2027     2053     2066     2069     2052     2016     2000     2025 
    2066     2103     2112     2077     2002     1912     1846     1825 
    1830     1837     1844     1853     1860     1877     1899     1899 
    1875     1834     1783     1740     1728     1750     1804     1880 
    1948     1984     1980     1946     1907     1891     1917     1979 
    2054     2123     2155     2138     2081     2008     1931     1856 
    1777     1705     1651     1618     1601     1614     1669     1734 
    1786     1831     1867     1872     1853     1834     1833     1853 
    1891     1938     1968     1966     1939     1908     1885     1876 
    1892     1938     1995     2043     2069     2052     1975     1864 
    1761     1688     1659     1672     1706     1744     1776     1786 
    1772     1732     1664     1591     1536     1507     1516     1547 
    1572     1574     1555     1524     1499     1505     1549     1626 
    1707     1764     1806     1841     1853     1848     1846     1848 
    1854     1863     1853     1833     1821     1813     1810     1807 
    1790     1764     1737     1740     1786     1853     1910     1933 
    1922     1906     1896     1887     1854     1786     1692     1613 
    1575     1582     1610     1637     1655     1653     1634     1636 
    1680     1746     1814     1869     1898     1907     1917     1919 
    1912     1915     1929     1942     1949     1946     1939     1942 
    1989     2092     2212     2299     2327     2288     2197     2095 
    2012     1957     1910     1846     1765     1668     1549     1432 
    1348     1328     1390     1517     1655     1750     1780     1755 
    1706     1674     1698     1787     1907     2006     2069     2106 
    2127     2143     2151     2137     2095     2039     1993     1980 
    2004     2042     2072     2089     2107     2130     2146     2127 
    2060     1975     1906     1864     1844     1823     1796     1777 
    1769     1772     1790     1796     1769     1711     1636     1571 
    1539     1536     1545     1552     1559     1572     1603     1648 
    1696     1745     1788     1813     1809     1776     1723     1676 
    1660     1659     1653     1659     1659     1648     1672     1746 
    1836     1888     1871     1798     1719     1679     1694     1755 
    1831     1895     1917     1890     1837     1800     1794     1796 
    1790     1769     1744     1725     1715     1713     1709     1695 
    1695     1728     1780     1823     1844     1849     1856     1876 
    1908     1941     1946     1917     1858     1783     1723     1711 
    1738     1782     1813     1821     1815     1826     1860     1904 
    1941     1960     1957     1944     1942     1969     2016     2054 
    2043     1976     1883     1809     1775     1777     1788     1773 
    1722     1637     1529     1433     1377     1372     1410     1467 
    1536     1614     1686     1745     1794     1838     1885     1950 
    2039     2147     2253     2328     2369     2378     2384     2412 
    2461     2506     2502     2415     2254     2066     1911     1841 
    1857     1907     1946     1961     1939     1881     1827     1811 
    1838     1887     1914     1895     1837     1768     1713     1680 
    1680     1715     1772     1821     1826     1775     1678     1579 
    1529     1545     1601     1669     1714     1713     1690     1695 
    1750     1844     1949     2052     2150     2241     2299     2297 
    2220     2070     1894     1752     1686     1691     1752     1849 
    1950     2027     2080     2119     2150     2187     2231     2280 
    2319     2324     2295     2243     2181     2115     2049     1975 
    1883     1769     1644     1520     1410     1331     1304     1328 
    1377     1424     1474     1530     1584     1629     1660     1678 
    1694     1715     1736     1757     1771     1768     1756     1742 
    1722     1686     1632     1571     1536     1545     1602     1676 
    1721     1717     1675     1630     1617     1634     1672     1718 
    1748     1749     1742     1745     1753     1769     1788     1802 
    1813     1821     1825     1829     1830     1838     1864     1898 
    1910     1894     1864     1842     1841     1856     1868     1867 
    1854     1837     1825     1821     1809     1767     1686     1603 
    1566     1578     1622     1680     1722     1740     1764     1813 
    1860     1872     1850     1818     1773     1723     1690     1668 
    1645     1620     1594     1564     1539     1522     1516     1517 
    1537     1579     1637     1714     1804     1894     1971     2027 
    2052     2038     1995     1929     1846     1769     1728     1714 
    1694     1656     1636     1645     1675     1719     1760     1769 
    1745     1715     1713     1748     1800     1838     1848     1822 
    1769     1732     1750     1845     2002     2158     2243     2242 
    2177     2088     2012     1971     1958     1979     2030     2081 
    2103     2095     2068     2038     1999     1923     1796     1633 
    1464     1329     1262     1277     1354     1444     1506     1522 
    1507     1495     1505     1537     1584     1642     1707     1767 
    1802     1806     1783     1755     1750     1788     1852     1888 
    1860     1773     1688     1657     1674     1698     1694     1659 
    1622     1601     1593     1610     1657     1715     1763     1798 
    1830     1875     1934     2000     2047     2057     2042     2026 
    2012     1992     1965     1931     1879     1790     1674     1564 
    1509     1541     1652     1794     1910     1972     1988     1989 
    2011     2057     2119     2169     2184     2176     2168     2161 
    2160     2170     2178     2181     2197     2219     2215     2165 
    2084     1984     1881     1802     1757     1748     1763     1794 
    1841     1885     1910     1939     2002     2093     2182     2235 
    2220     2141     2045     1995     2020     2111     2219     2281 
    2253     2147     2019     1899     1804     1749     1717     1692 
    1690     1717     1767     1837     1914     1972     1995     2007 
    2047     2124     2223     2334     2452     2589     2740     2870 
    2936     2914     2814     2678     2548     2438     2350     2281 
    2227     2200     2192     2180     2161     2135     2093     2037 
    1989     1973     1977     1987     1987     1983     1977     1973 
    1975     1981     1985     1987     1992     1995     1966     1884 
    1748     1564     1344     1123      938      826      799      850 
     949     1047     1105     1123     1125     1134     1154     1200 
    1269     1343     1406     1428     1368     1229     1075      978 
     950      967     1016     1066     1077     1047     1016     1026 
    1081     1161     1224     1248     1251     1254     1274     1318 
    1351     1323     1221     1105     1051     1088     1189     1318 
    1447     1557     1638     1698     1772     1868     1952     2002 
    2025     2038     2077     2151     2215     2220     2174     2120 
    2103     2131     2181     2212     2189     2123     2037     1966 
    1945     1972     2022     2087     2165     2236     2278     2280 
    2246     2205     2182     2174     2157     2112     2034     1933 
    1829     1741     1690     1678     1690     1703     1687     1633 
    1582     1571     1606     1691     1819     1954     2050     2092 
    2080     2033     1988     1972     1976     1987     1993     1976 
    1917     1826     1709     1561     1418     1313     1244     1185 
    1112     1026      955      924      935      976     1015     1026 
    1004      965      927      905      885      838      751      642 
     548      507      531      599      683      766      849      926 
     993     1071     1170     1277     1393     1520     1644     1760 
    1868     1965     2049     2131     2238     2350     2423     2474 
    2535     2608     2675     2720     2722     2663     2533     2363 
    2214     2145     2188     2309     2424     2481     2477     2436 
    2400     2392     2421     2488     2582     2687     2768     2802 
    2795     2770     2744     2733     2741     2758     2760     2737 
    2700     2670     2651     2628     2582     2509     2415     2311 
    2209     2130     2077     2058     2070     2104     2141     2164 
    2157     2127     2100     2112     2189     2322     2462     2562 
    2604     2594     2554     2501     2455     2421     2400     2377 
    2338     2282     2218     2160     2126     2118     2128     2149 
    2153     2120     2047     1944     1841     1782     1790     1844 
    1894     1896     1844     1757     1682     1653     1679     1745 
    1819     1860     1840     1768     1669     1561     1476     1444 
    1453     1460     1436     1383     1309     1217     1128     1058 
    1000      945      900      872      872      904      962     1030 
    1089     1138     1188     1233     1264     1277     1278     1273 
    1260     1239     1231     1263     1340     1466     1636     1826 
    2007     2165     2297     2394     2447     2459     2450     2428 
    2394     2357     2335     2342     2366     2393     2411     2420 
    2413     2373     2289     2184     2100     2058     2046     2045 
    2034     2012     1988     1949     1912     1899     1881     1829 
    1752     1687     1657     1649     1652     1667     1703     1753 
    1796     1815     1806     1783     1763     1760     1777     1809 
    1841     1869     1892     1896     1857     1786     1726     1696 
    1683     1659     1607     1549     1503     1487     1495     1494 
    1459     1386     1281     1162     1061      992      955      951 
     972     1000     1021     1028     1024     1027     1047     1057 
    1028      974      919      885      919     1024     1142     1225 
    1277     1323     1391     1502     1648     1795     1907     1964 
    1976     1962     1941     1931     1937     1953     1976     1985 
    1979     1972     1985     2027     2085     2131     2137     2099 
    2031     1969     1937     1923     1926     1962     2033     2101 
    2135     2123     2085     2068     2101     2196     2331     2465 
    2563     2614     2632     2624     2593     2544     2506     2496 
    2506     2515     2493     2439     2378     2332     2303     2286 
    2285     2297     2313     2328     2340     2346     2347     2336 
    2311     2282     2255     2238     2250     2289     2349     2423 
    2478     2486     2443     2355     2228     2085     1957     1856 
    1761     1657     1541     1402     1223      996      731      440 
     151     -109     -325     -481     -558     -554     -490     -379 
    -232      -76       59      183      307      433      569      712 
     837      918      958      973      980      980      966      943 
     928      931      961     1024     1117     1217     1294     1350 
    1414     1499     1593     1690     1779     1849     1918     1998 
    2092     2201     2320     2434     2532     2609     2671     2728 
    2774     2798     2793     2762     2716     2650     2560     2466 
    2413     2443     2555     2704     2828     2883     2864     2810 
    2762     2725     2712     2725     2749     2768     2785     2794 
    2772     2700     2587     2475     2397     2354     2343     2366 
    2415     2484     2566     2639     2693     2727     2731     2697 
    2621     2512     2396     2293     2204     2114     1995     1841 
    1667     1501     1355     1233     1146     1107     1131     1208 
    1298     1364     1393     1386     1367     1370     1418     1525 
    1676     1857     2045     2211     2332     2412     2465     2516 
    2592     2691     2808     2940     3086     3235     3393     3534 
    3623     3650     3628     3557     3431     3288     3172     3090 
    3028     2953     2843     2712     2604     2542     2515     2511 
    2512     2488     2420     2332     2243     2147     2056     1977 
    1912     1877     1896     1966     2046     2092     2084     2007 
    1879     1740     1601     1462     1350     1274     1215     1169 
    1139     1116     1108     1127     1161     1197     1233     1269 
    1300     1320     1327     1331     1323     1278     1190     1066 
     911      754      630      553      506      473      456      450 
     446      446      449      468      527      630      746      861 
     993     1148     1309     1451     1564     1664     1755     1836 
    1910     1971     2018     2069     2127     2184     2239     2299 
    2358     2415     2471     2523     2567     2601     2612     2596 
    2547     2461     2340     2204     2060     1900     1734     1578 
    1447     1354     1304     1290     1309     1354     1405     1439 
    1453     1464     1489     1522     1541     1528     1478     1383 
    1256     1124      996      870      756      661      594      565 
     580      630      691      754      826      909      989     1050 
    1085     1082     1044     1001      962      918      889      895 
     932     1009     1125     1278     1463     1675     1896     2107 
    2272     2357     2351     2285     2208     2164     2165     2204 
    2261     2312     2340     2357     2384     2424     2470     2502 
    2520     2520     2493     2442     2366     2272     2176     2087 
    2022     2003     2023     2074     2164     2280     2403     2500 
    2543     2520     2443     2334     2223     2158     2168     2245 
    2343     2425     2475     2490     2490     2505     2536     2582 
    2635     2675     2710     2739     2737     2705     2636     2535 
    2438     2370     2332     2312     2292     2266     2242     2220 
    2193     2141     2049     1929     1810     1715     1656     1629 
    1624     1626     1629     1628     1607     1555     1472     1375 
    1285     1219     1186     1178     1183     1201     1240     1301 
    1382     1485     1601     1705     1776     1822     1850     1854 
    1846     1833     1799     1740     1657     1547     1414     1274 
    1135     1005      882      766      657      553      465      406 
     365      341      342      364      395      425      454      491 
     533      575      633      710      791      862      913      951 
     984     1016     1066     1146     1244     1348     1437     1501 
    1553     1617     1696     1787     1892     2035     2220     2423 
    2614     2770     2864     2899     2910     2936     2994     3071 
    3136     3168     3173     3161     3138     3100     3042     2963 
    2870     2776     2691     2608     2516     2421     2327     2231 
    2151     2093     2046     2010     1985     1958     1912     1849 
    1791     1760     1772     1838     1950     2087     2222     2339 
    2423     2473     2496     2513     2543     2606     2695     2783 
    2848     2874     2875     2863     2839     2808     2776     2736 
    2681     2614     2543     2467     2389     2313     2251     2208 
    2184     2168     2145     2111     2060     1989     1917     1868 
    1837     1803     1760     1710     1651     1588     1545     1537 
    1571     1649     1776     1926     2072     2188     2250     2257 
    2231     2188     2131     2077     2031     1993     1966     1941 
    1914     1899     1911     1942     1984     2037     2079     2088 
    2057     1979     1863     1733     1590     1443     1321     1250 
    1232     1274     1341     1390     1413     1402     1352     1289 
    1236     1204     1190     1186     1185     1192     1229     1298 
    1382     1458     1510     1543     1563     1571     1574     1576 
    1579     1583     1586     1578     1559     1529     1491     1463 
    1460     1476     1505     1556     1633     1733     1844     1954 
    2045     2100     2133     2162     2196     2227     2228     2195 
    2150     2118     2111     2130     2153     2166     2173     2182 
    2205     2228     2220     2172     2096     2016     1941     1857 
    1753     1632     1520     1443     1398     1366     1350     1367 
    1431     1545     1688     1819     1903     1934     1903     1822 
    1732     1663     1625     1618     1633     1653     1664     1667 
    1659     1656     1664     1664     1652     1630     1611     1626 
    1692     1787     1879     1948     1972     1957     1919     1860 
    1787     1722     1661     1591     1514     1439     1377     1327 
