Origin Time       2025/01/13 21:19:00
Lat.              31.8
Long.             131.6
Depth. (km)       30
Mag.              6.9
Station Code      KMM015
Station Lat.      32.2161
Station Long.     130.4059
Station Height(m) 8
Record Time       2025/01/13 21:19:55
Sampling Freq(Hz) 100Hz
Duration Time(s)  118
Dir.              N-S
Scale Factor      7845(gal)/8223790
Max. Acc. (gal)   12.494
Last Correction   2025/01/13 21:19:55
Memo.             
[...]
   16318    16173    16005    15711    15276    14736    14153    13558 
   12934    12260    11565    10916    10361     9915     9570     9281 
    8980     8627     8263     7978     7848     7890     8067     8329 
    8617     8904     9235     9680    10289    11064    11920    12721 
   13354    13792    14076    14242    14343    14459    14593    14679 
   14678    14544    14246    13815    13331    12850    12402    12044 
   11893    12027    12415    12970    13598    14193    14683    15056 
   15269    15275    15155    15043    14906    14654    14295    13852 
   13304    12672    12052    11518    11021    10525    10080     9725 
    9501     9406     9343     9200     8973     8729     8476     8164 
    7807     7457     7134     6864     6696     6642     6702     6899 
    7214     7596     8004     8406     8773     9104     9423     9794 
   10295    10912    11600    12367    13212    14102    14976    15720 
   16209    16411    16337    15942    15230    14385    13643    13045 
   12505    12023    11704    11628    11801    12179    12684    13228 
   13736    14119    14299    14297    14212    14068    13824    13531 
   13332    13335    13574    14049    14713    15483    16270    17003 
   17636    18091    18312    18288    17998    17513    17005    16578 
   16208    15844    15523    15296    15098    14850    14573    14256 
   13848    13359    12854    12438    12194    12104    12081    12050 
   12005    11982    11955    11863    11750    11689    11647    11520 
   11296    11040    10705    10212     9609     8920     8118     7258 
    6415     5636     4942     4405     4171     4297     4725     5435 
    6355     7323     8221     8985     9513     9751     9730     9518 
    9219     8957     8806     8733     8672     8622     8645     8784 
    9007     9290     9657    10116    10663    11292    11955    12610 
   13227    13774    14215    14521    14716    14856    14944    14974 
   14995    15044    15126    15265    15442    15599    15689    15692 
   15597    15396    15082    14694    14305    13995    13833    13771 
   13678    13448    13007    12334    11516    10663     9833     9065 
    8475     8218     8325     8750     9448    10374    11470    12622 
   13690    14623    15437    16097    16545    16789    16869    16802 
   16646    16482    16343    16258    16251    16314    16433    16580 
   16744    16931    17113    17204    17138    16956    16719    16391 
   15944    15439    14908    14345    13810    13327    12831    12287 
   11720    11149    10567     9941     9293     8735     8351     8132 
    8059     8136     8348     8603     8762     8743     8553     8278 
    8023     7815     7628     7469     7312     7136     7032     7090 
    7273     7562     7974     8476     8977     9437     9909    10458 
   11151    12039    13080    14187    15287    16283    17062    17541 
   17757    17822    17782    17632    17385    17034    16564    15985 
   15302    14504    13628    12777    12047    11434    10933    10592 
   10459    10558    10836    11209    11631    12062    12366    12424 
   12283    12089    11902    11658    11308    10890    10447    10044 
    9753     9609     9595     9663     9787    10002    10307    10640 
   10949    11227    11488    11726    11932    12113    12262    12388 
   12534    12695    12815    12880    12937    13012    13101    13215 
   13414    13756    14192    14627    15060    15535    16005    16380 
   16580    16549    16282    15827    15241    14562    13869    13296 
   12922    12723    12638    12673    12823    12993    13105    13143 
   13107    13050    13042    13085    13144    13174    13126    12999 
   12814    12595    12370    12154    11954    11759    11535    11295 
   11071    10898    10802    10781    10786    10723    10566    10407 
   10288    10188    10154    10251    10420    10592    10820    11176 
   11632    12141    12714    13332    13878    14258    14459    14497 
   14416    14219    13875    13444    13026    12629    12267    11985 
   11792    11674    11619    11604    11607    11605    11620    11723 
   11917    12124    12280    12363    12341    12187    11927    11587 
   11126    10558    10002     9547     9208     9020     9050     9298 
    9668    10060    10432    10773    11079    11367    11647    11900 
   12105    12275    12451    12667    12915    13132    13263    13275 
   13154    12938    12700    12463    12241    12085    11988    11928 
   11936    12027    12175    12370    12587    12766    12835    12791 
   12672    12511    12372    12295    12248    12247    12328    12433 
   12499    12541    12603    12719    12915    13213    13603    14027 
   14399    14647    14739    14661    14432    14123    13761    13371 
   13019    12741    12525    12387    12303    12198    12036    11828 
   11618    11418    11223    11082    11017    11011    11059    11148 
   11250    11341    11434    11568    11753    11985    12210    12357 
   12399    12336    12197    12024    11816    11531    11161    10732 
   10270     9815     9391     9005     8714     8577     8596     8785 
    9185     9790    10544    11356    12105    12714    13153    13448 
   13705    14011    14361    14693    14948    15048    14952    14670 
   14211    13583    12846    12070    11333    10741    10365    10208 
   10269    10532    10963    11519    12172    12884    13636    14439 
   15253    16047    16852    17595    18177    18565    18675    18434 
   17892    17132    16150    14970    13734    12588    11596    10756 
   10039     9431     8891     8391     7942     7537     7175     6862 
    6617     6467     6404     6436     6604     6895     7238     7546 
    7743     7847     7936     8060     8271     8567     8903     9286 
    9747    10301    10917    11531    12131    12745    13377    14000 
   14607    15174    15606    15828    15835    15610    15214    14770 
   14339    13960    13648    13401    13258    13231    13312    13545 
   13956    14511    15164    15850    16502    17082    17551    17918 
   18200    18365    18408    18376    18300    18185    18025    17794 
   17477    17062    16534    15912    15245    14566    13883    13212 
   12569    11973    11456    11020    10639    10350    10233    10280 
   10407    10570    10797    11119    11510    11912    12312    12688 
   12960    13042    12914    12599    12136    11561    10909    10216 
    9531     8954     8571     8365     8317     8445     8752     9219 
    9829    10546    11296    12002    12615    13139    13563    13837 
   13940    13922    13826    13663    13450    13219    12993    12764 
   12496    12185    11865    11541    11173    10743    10245     9679 
    9067     8438     7808     7215     6701     6276     5976     5853 
    5907     6110     6435     6840     7302     7817     8382     9020 
    9761    10627    11608    12633    13609    14501    15283    15898 
   16321    16553    16596    16475    16229    15874    15450    15024 
   14621    14266    13992    13783    13599    13436    13346    13371 
   13497    13648    13768    13868    13964    14046    14134    14250 
   14393    14523    14554    14422    14141    13791    13408    12988 
   12604    12378    12333    12376    12413    12397    12329    12268 
   12278    12363    12496    12656    12843    13062    13277    13483 
   13686    13825    13868    13845    13752    13545    13215    12780 
   12279    11786    11357    10975    10632    10362    10211    10227 
   10430    10801    11341    12046    12856    13701    14503    15176 
   15697    16094    16332    16325    16075    15653    15067    14280 
   13296    12185    11055     9976     9005     8248     7781     7618 
    7717     7986     8368     8850     9412    10046    10706    11317 
   11865    12359    12773    13126    13446    13672    13757    13726 
   13597    13363    13020    12591    12155    11765    11406    11060 
   10739    10440    10189    10029     9938     9845     9729     9645 
    9678     9888    10281    10804    11360    11866    12306    12657 
   12897    13053    13128    13142    13116    13024    12858    12660 
   12460    12298    12194    12158    12181    12245    12388    12648 
   12978    13352    13772    14218    14681    15136    15520    15827 
   16086    16282    16379    16322    16086    15704    15222    14679 
   14104    13520    12980    12537    12209    11939    11674    11464 
   11308    11192    11169    11234    11327    11426    11519    11595 
   11638    11616    11541    11466    11422    11434    11557    11811 
   12174    12615    13105    13575    13925    14114    14199    14222 
   14145    13900    13478    12915    12241    11473    10685     9964 
    9317     8749     8309     7989     7759     7623     7560     7574 
    7711     7965     8306     8772     9364     9992    10589    11160 
   11705    12170    12503    12690    12748    12702    12538    12252 
   11882    11439    10928    10458    10133     9925     9780     9722 
    9795     9996    10330    10839    11519    12317    13188    14071 
   14899    15647    16295    16821    17217    17520    17714    17714 
   17490    17076    16515    15876    15196    14470    13749    13119 
   12641    12340    12197    12170    12255    12465    12785    13159 
   13522    13841    14121    14316    14349    14206    13926    13541 
   13109    12692    12309    11913    11481    11056    10681    10382 
   10192    10126    10226    10523    10972    11523    12124    12688 
   13132    13444    13652    13779    13814    13687    13325    12753 
   12051    11277    10488     9760     9193     8872     8842     9055 
    9428     9906    10428    10917    11338    11720    12086    12409 
   12652    12802    12857    12849    12785    12640    12428    12179 
   11907    11680    11592    11699    12013    12517    13177    13952 
   14743    15422    15898    16151    16236    16251    16233    16168 
   16077    15939    15708    15398    15022    14565    14067    13632 
   13312    13088    12938    12845    12762    12657    12545    12438 
   12302    12090    11821    11556    11322    11086    10801    10509 
   10305    10234    10293    10457    10710    11079    11566    12116 
   12667    13177    13644    14073    14422    14631    14689    14625 
   14469    14216    13873    13482    13051    12553    11985    11403 
   10849    10303     9737     9169     8591     7982     7387     6899 
    6563     6345     6216     6197     6301     6515     6822     7204 
    7661     8220     8873     9540    10143    10696    11219    11682 
   12036    12258    12303    12140    11811    11402    10962    10532 
   10196    10015     9998    10108    10289    10496    10716    10949 
   11237    11604    12000    12393    12810    13244    13678    14089 
   14445    14712    14885    14990    15048    15049    15026    15044 
   15109    15187    15267    15298    15209    14979    14635    14239 
   13833    13429    13047    12730    12521    12426    12401    12429 
   12528    12667    12792    12879    12949    13020    13109    13235 
   13397    13579    13767    13922    14029    14110    14187    14258 
   14303    14293    14206    14034    13772    13394    12920    12433 
   12002    11662    11442    11348    11340    11381    11454    11529 
   11561    11539    11473    11373    11254    11153    11067    10976 
   10889    10800    10638    10345     9953     9516     9045     8549 
    8116     7840     7769     7912     8270     8806     9458    10168 
   10889    11589    12240    12784    13209    13510    13640    13618 
   13502    13298    13023    12738    12496    12328    12272    12364 
   12600    12988    13522    14166    14891    15687    16506    17309 
   18054    18684    19136    19338    19229    18794    18046    17019 
   15799    14477    13113    11781    10552     9468     8569     7882 
    7434     7254     7295     7481     7781     8174     8608     9009 
    9324     9521     9560     9448     9234     8961     8684     8429 
    8228     8147     8182     8305     8511     8779     9115     9539 
   10064    10712    11412    12051    12609    13074    13397    13558 
   13549    13401    13174    12893    12573    12279    12083    12016 
   12060    12158    12295    12536    12897    13328    13778    14216 
   14615    14948    15195    15358    15464    15519    15498    15414 
   15350    15349    15404    15557    15851    16286    16870    17604 
   18430    19257    20009    20700    21361    21933    22310    22383 
   22129    21622    20862    19777    18405    16893    15364    13836 
   12264    10673     9132     7724     6546     5616     4869     4286 
    3893     3728     3784     3987     4351     4943     5705     6543 
    7437     8314     9080     9772    10457    11141    11793    12328 
   12664    12753    12545    12055    11318    10304     9065     7766 
    6552     5472     4522     3726     3160     2829     2646     2575 
    2689     3051     3657     4464     5386     6328     7311     8383 
    9487    10535    11484    12378    13259    14091    14801    15365 
   15743    15907    15948    16023    16177    16391    16690    17097 
   17599    18127    18594    18910    18981    18778    18381    17913 
   17467    17085    16803    16665    16683    16845    17101    17416 
   17844    18434    19201    20171    21298    22464    23538    24412 
   25039    25377    25292    24736    23845    22727    21347    19727 
   17964    16131    14332    12704    11253     9855     8448     7103 
    5838     4630     3569     2725     2065     1557     1194     1004 
     986     1067     1221     1517     1979     2538     3146     3817 
    4575     5409     6297     7227     8162     9035     9752    10273 
   10681    11016    11240    11396    11566    11716    11797    11858 
   11969    12114    12233    12264    12198    12101    12002    11842 
   11593    11338    11059    10608     9949     9139     8245     7402 
    6709     6153     5729     5471     5466     5859     6709     7884 
    9208    10606    12029    13424    14775    16044    17157    18094 
   18890    19512    19838    19816    19546    19191    18875    18569 
   18210    17890    17714    17682    17775    17969    18249    18588 
   18858    18945    18935    18864    18563    17983    17271    16479 
   15550    14458    13305    12233    11283    10446     9706     9140 
    8908     8969     9143     9425     9902    10497    10974    11202 
   11269    11256    11128    10814    10307     9698     9004     8262 
    7620     7095     6582     6066     5670     5560     5728     6010 
    6346     6809     7487     8352     9254    10092    10910    11821 
   12845    13809    14582    15245    15894    16506    16954    17197 
   17367    17545    17690    17834    17998    18069    17952    17668 
   17251    16668    15867    14893    13882    13000    12322    11753 
   11234    10859    10625    10474    10550    11002    11645    12206 
   12706    13246    13753    14152    14413    14480    14370    14160 
   13845    13381    12807    12263    11847    11546    11330    11172 
   11053    11018    11132    11340    11485    11529    11630    11859 
   12050    12100    12060    11996    11939    11784    11384    10840 
   10338     9849     9289     8785     8572     8652     8819     8980 
    9221     9598    10029    10427    10805    11227    11695    12090 
   12294    12353    12467    12673    12749    12613    12453    12422 
   12550    12776    12984    13236    13726    14461    15269    16036 
   16807    17698    18675    19583    20345    20984    21469    21645 
   21451    21035    20514    19818    18886    17767    16606    15589 
   14733    13815    12725    11595    10590     9825     9283     8795 
    8333     8124     8271     8580     8845     9038     9229     9455 
    9715     9968    10168    10401    10732    11005    11125    11175 
   11165    11051    10870    10673    10469    10253     9987     9618 
    9200     8815     8398     7924     7484     7049     6596     6297 
    6269     6474     6901     7530     8235     8939     9691    10490 
   11198    11668    11988    12347    12668    12711    12478    12132 
   11707    11183    10606    10045     9545     9090     8642     8286 
    8141     8124     8075     8047     8149     8347     8591     8846 
    8981     9089     9420     9882    10234    10516    10849    11161 
   11389    11664    12085    12617    13213    13864    14575    15342 
   16114    16850    17490    17929    18175    18289    18200    17864 
   17362    16744    16028    15283    14609    14083    13714    13479 
   13375    13487    13917    14534    15211    16063    17024    17821 
   18484    19132    19518    19516    19398    19201    18644    17693 
   16502    15138    13670    12263    10994     9761     8599     7755 
    7327     7310     7666     8203     8893     9894    11063    12108 
   12927    13648    14492    15385    16033    16390    16467    16197 
   15642    14901    14062    13227    12340    11399    10640    10197 
    9940     9657     9232     8789     8556     8484     8402     8310 
    8251     8270     8356     8289     8036     7929     8070     8221 
    8210     8051     7865     7838     8050     8307     8433     8488 
    8583     8780     9053     9313     9622    10127    10906    11998 
   13320    14628    15749    16706    17613    18563    19467    20067 
   20286    20272    20190    20011    19504    18601    17409    15984 
   14486    13090    11727    10470     9539     8827     8214     7866 
    7830     7940     8140     8475     8954     9547    10322    11334 
   12356    13248    14241    15388    16484    17521    18457    19063 
   19433    19786    19990    19966    19828    19558    19140    18640 
   18107    17425    16417    15245    14181    13200    12237    11268 
   10288     9394     8722     8341     8143     8047     8143     8395 
    8615     8719     8822     9058     9375     9637     9838     9990 
    9961     9694     9327     8957     8554     8110     7722     7496 
    7380     7353     7538     7874     8186     8511     8947     9482 
   10003    10358    10558    10764    10990    11119    11128    11043 
   10957    10986    11067    11021    10820    10693    10872    11284 
   11681    11929    12132    12464    12926    13436    13898    14138 
   14175    14303    14667    15010    14999    14743    14604    14650 
   14782    14858    14704    14399    14164    14061    14046    13977 
   13771    13599    13640    13861    14038    14002    13930    14025 
   14130    14094    13992    13887    13780    13725    13713    13606 
   13370    13095    12698    12136    11557    10925    10160     9413 
    8756     8124     7531     6980     6446     5991     5744     5726 
    5850     6058     6361     6783     7325     8012     8804     9377 
    9553     9701    10071    10457    10701    10930    11389    12070 
   12744    13494    14377    15003    15384    16024    16804    17176 
   17259    17409    17408    17193    17072    16923    16522    16036 
   15592    15155    14677    14206    13861    13606    13494    13678 
   13977    14295    14767    15272    15691    16183    16688    16920 
