Origin Time       2025/01/13 21:19:00
Lat.              31.8
Long.             131.6
Depth. (km)       30
Mag.              6.9
Station Code      KMM003
Station Lat.      32.9335
Station Long.     130.5477
Station Height(m) 13
Record Time       2025/01/13 21:20:01
Sampling Freq(Hz) 100Hz
Duration Time(s)  109
Dir.              U-D
Scale Factor      7845(gal)/8223790
Max. Acc. (gal)   2.692
Last Correction   2025/01/13 21:20:01
Memo.             
[...]
   -4220    -4212    -4302    -4492    -4693    -4834    -4901    -4878 
   -4784    -4730    -4788    -4892    -4951    -4986    -5053    -5131 
   -5173    -5173    -5134    -5043    -4924    -4827    -4780    -4791 
   -4866    -4984    -5088    -5130    -5074    -4915    -4680    -4422 
   -4190    -4028    -3948    -3951    -4029    -4122    -4168    -4171 
   -4117    -3958    -3703    -3464    -3350    -3373    -3454    -3530 
   -3619    -3777    -3977    -4158    -4290    -4368    -4382    -4321 
   -4252    -4261    -4314    -4315    -4263    -4209    -4158    -4087 
   -4013    -3932    -3828    -3717    -3650    -3631    -3622    -3605 
   -3613    -3654    -3717    -3804    -3908    -4028    -4203    -4437 
   -4664    -4830    -4905    -4854    -4687    -4476    -4270    -4063 
   -3854    -3669    -3569    -3574    -3647    -3762    -3927    -4124 
   -4315    -4486    -4631    -4766    -4868    -4901    -4855    -4750 
   -4630    -4557    -4527    -4487    -4438    -4386    -4276    -4106 
   -3950    -3865    -3867    -3952    -4099    -4245    -4320    -4305 
   -4226    -4102    -3943    -3797    -3721    -3750    -3893    -4112 
   -4310    -4419    -4445    -4388    -4241    -4039    -3839    -3685 
   -3593    -3558    -3616    -3807    -4093    -4401    -4666    -4820 
   -4819    -4685    -4494    -4325    -4213    -4147    -4131    -4168 
   -4225    -4270    -4302    -4306    -4251    -4155    -4085    -4083 
   -4152    -4266    -4386    -4490    -4557    -4573    -4540    -4449 
   -4298    -4132    -4012    -3963    -3979    -4027    -4081    -4137 
   -4213    -4286    -4318    -4321    -4317    -4282    -4194    -4074 
   -3977    -3946    -3955    -3955    -3955    -3994    -4052    -4077 
   -4052    -4006    -3964    -3939    -3929    -3905    -3852    -3813 
   -3817    -3848    -3882    -3923    -3990    -4060    -4068    -4014 
   -3931    -3816    -3663    -3514    -3433    -3462    -3607    -3842 
   -4135    -4421    -4645    -4785    -4868    -4919    -4918    -4830 
   -4695    -4572    -4502    -4504    -4544    -4546    -4488    -4357 
   -4152    -3921    -3738    -3627    -3565    -3519    -3472    -3396 
   -3280    -3176    -3156    -3237    -3416    -3711    -4081    -4437 
   -4708    -4853    -4862    -4784    -4684    -4590    -4495    -4409 
   -4369    -4406    -4521    -4683    -4827    -4909    -4926    -4878 
   -4756    -4567    -4368    -4202    -4082    -4018    -4024    -4094 
   -4197    -4295    -4375    -4448    -4529    -4594    -4631    -4654 
   -4644    -4565    -4425    -4239    -4024    -3805    -3605    -3446 
   -3366    -3362    -3391    -3438    -3523    -3635    -3700    -3694 
   -3701    -3780    -3890    -3962    -3960    -3904    -3820    -3720 
   -3628    -3577    -3580    -3639    -3774    -3979    -4180    -4299 
   -4332    -4318    -4274    -4199    -4117    -4040    -3947    -3819 
   -3693    -3620    -3616    -3684    -3785    -3854    -3882    -3897 
   -3879    -3838    -3834    -3890    -3967    -4016    -4052    -4113 
   -4179    -4217    -4244    -4303    -4402    -4496    -4569    -4657 
   -4758    -4839    -4904    -4972    -5034    -5088    -5150    -5236 
   -5343    -5428    -5456    -5417    -5308    -5161    -5016    -4877 
   -4737    -4596    -4475    -4376    -4278    -4180    -4124    -4144 
   -4220    -4298    -4376    -4476    -4568    -4590    -4506    -4313 
   -4031    -3700    -3375    -3117    -2994    -3037    -3215    -3464 
   -3720    -3955    -4159    -4303    -4342    -4264    -4139    -4032 
   -3974    -4009    -4166    -4399    -4652    -4926    -5229    -5499 
   -5652    -5683    -5634    -5514    -5327    -5103    -4872    -4637 
   -4396    -4175    -3997    -3862    -3759    -3720    -3773    -3890 
   -4016    -4117    -4178    -4180    -4102    -3923    -3680    -3473 
   -3400    -3480    -3694    -4004    -4333    -4626    -4845    -4950 
   -4934    -4812    -4612    -4401    -4221    -4071    -3979    -3967 
   -3993    -4004    -3994    -3981    -3948    -3869    -3753    -3649 
   -3588    -3543    -3495    -3456    -3437    -3464    -3549    -3666 
   -3786    -3898    -3985    -4024    -4024    -4025    -4051    -4091 
   -4140    -4216    -4352    -4567    -4824    -5050    -5185    -5219 
   -5170    -5066    -4934    -4795    -4675    -4577    -4472    -4347 
   -4240    -4187    -4176    -4186    -4207    -4234    -4241    -4214 
   -4174    -4149    -4124    -4060    -3987    -3979    -4064    -4202 
   -4355    -4519    -4699    -4872    -4988    -5023    -4996    -4928 
   -4835    -4738    -4680    -4691    -4760    -4858    -4957    -4996 
   -4914    -4691    -4369    -4025    -3739    -3570    -3527    -3592 
   -3739    -3912    -4029    -4051    -3986    -3850    -3680    -3514 
   -3381    -3311    -3316    -3373    -3434    -3472    -3493    -3532 
   -3627    -3800    -4033    -4295    -4538    -4722    -4824    -4853 
   -4810    -4689    -4515    -4313    -4105    -3924    -3786    -3678 
   -3574    -3465    -3381    -3358    -3400    -3508    -3665    -3835 
   -4000    -4151    -4290    -4411    -4498    -4534    -4529    -4492 
   -4421    -4293    -4113    -3915    -3732    -3589    -3518    -3538 
   -3628    -3750    -3898    -4078    -4274    -4457    -4580    -4607 
   -4567    -4509    -4434    -4330    -4210    -4093    -3987    -3923 
   -3915    -3919    -3898    -3873    -3869    -3865    -3816    -3704 
   -3549    -3397    -3298    -3264    -3288    -3335    -3356    -3331 
   -3292    -3261    -3215    -3140    -3060    -3001    -2975    -2990 
   -3025    -3073    -3163    -3296    -3457    -3632    -3825    -4025 
   -4209    -4365    -4487    -4563    -4598    -4610    -4595    -4556 
   -4515    -4465    -4402    -4344    -4301    -4255    -4198    -4163 
   -4171    -4182    -4156    -4117    -4104    -4106    -4101    -4077 
   -4044    -4020    -4023    -4044    -4059    -4067    -4087    -4136 
   -4193    -4225    -4232    -4249    -4322    -4473    -4684    -4900 
   -5070    -5162    -5163    -5089    -4973    -4824    -4644    -4445 
   -4256    -4104    -3987    -3920    -3925    -3998    -4117    -4267 
   -4425    -4563    -4664    -4734    -4784    -4835    -4897    -4966 
   -5034    -5094    -5146    -5185    -5213    -5221    -5201    -5161 
   -5125    -5124    -5163    -5242    -5354    -5491    -5628    -5737 
   -5830    -5923    -5980    -5967    -5871    -5690    -5444    -5181 
   -4938    -4749    -4646    -4631    -4681    -4768    -4849    -4899 
   -4918    -4884    -4765    -4584    -4411    -4288    -4216    -4180 
   -4158    -4125    -4097    -4093    -4117    -4158    -4217    -4309 
   -4445    -4599    -4726    -4815    -4869    -4884    -4839    -4723 
   -4571    -4433    -4329    -4248    -4186    -4155    -4153    -4153 
   -4155    -4179    -4226    -4280    -4337    -4394    -4450    -4518 
   -4588    -4631    -4627    -4595    -4549    -4491    -4437    -4429 
   -4477    -4549    -4629    -4692    -4695    -4626    -4522    -4402 
   -4234    -4010    -3807    -3700    -3688    -3744    -3848    -3951 
   -4000    -3978    -3912    -3828    -3734    -3624    -3489    -3326 
   -3161    -3028    -2929    -2856    -2821    -2856    -2979    -3160 
   -3360    -3564    -3758    -3916    -4023    -4093    -4149    -4197 
   -4244    -4315    -4376    -4359    -4259    -4129    -4008    -3890 
   -3788    -3748    -3800    -3933    -4129    -4348    -4556    -4743 
   -4892    -4966    -4957    -4887    -4769    -4607    -4426    -4267 
   -4149    -4090    -4102    -4183    -4298    -4391    -4433    -4428 
   -4375    -4274    -4156    -4041    -3942    -3865    -3790    -3689 
   -3566    -3454    -3353    -3241    -3109    -2971    -2849    -2759 
   -2716    -2739    -2839    -2999    -3188    -3387    -3580    -3751 
   -3896    -4017    -4117    -4194    -4251    -4302    -4368    -4437 
   -4468    -4426    -4334    -4241    -4159    -4085    -4023    -3967 
   -3910    -3859    -3843    -3883    -3973    -4089    -4217    -4363 
   -4519    -4679    -4828    -4951    -5030    -5046    -4990    -4876 
   -4720    -4537    -4320    -4090    -3908    -3801    -3774    -3844 
   -4023    -4278    -4556    -4791    -4926    -4935    -4826    -4627 
   -4384    -4141    -3937    -3807    -3778    -3840    -3963    -4120 
   -4282    -4414    -4488    -4504    -4494    -4494    -4527    -4611 
   -4745    -4919    -5109    -5279    -5394    -5441    -5417    -5333 
   -5216    -5078    -4920    -4768    -4637    -4499    -4336    -4158 
   -3964    -3739    -3497    -3269    -3076    -2952    -2916    -2951 
   -3044    -3194    -3373    -3554    -3731    -3888    -3994    -4036 
   -4016    -3940    -3820    -3692    -3580    -3499    -3461    -3474 
   -3541    -3649    -3780    -3917    -4041    -4122    -4139    -4102 
   -4040    -3951    -3852    -3793    -3790    -3831    -3928    -4083 
   -4252    -4394    -4498    -4557    -4571    -4545    -4492    -4413 
   -4321    -4264    -4267    -4324    -4413    -4499    -4537    -4517 
   -4459    -4387    -4317    -4266    -4268    -4356    -4492    -4621 
   -4700    -4719    -4675    -4563    -4395    -4217    -4062    -3939 
   -3854    -3812    -3812    -3834    -3848    -3848    -3842    -3820 
   -3781    -3728    -3659    -3584    -3539    -3545    -3588    -3634 
   -3661    -3690    -3738    -3785    -3824    -3874    -3971    -4126 
   -4303    -4446    -4534    -4591    -4638    -4666    -4687    -4727 
   -4768    -4757    -4676    -4552    -4398    -4199    -3954    -3689 
   -3416    -3172    -3018    -2978    -3038    -3192    -3418    -3676 
   -3923    -4131    -4276    -4356    -4372    -4329    -4241    -4143 
   -4055    -3997    -3975    -3982    -4005    -4045    -4089    -4109 
   -4098    -4056    -3969    -3835    -3674    -3511    -3373    -3289 
   -3288    -3392    -3586    -3834    -4098    -4351    -4565    -4737 
   -4860    -4928    -4936    -4907    -4865    -4831    -4824    -4843 
   -4864    -4842    -4739    -4550    -4306    -4041    -3793    -3608 
   -3537    -3599    -3767    -3993    -4256    -4538    -4807    -5038 
   -5223    -5348    -5404    -5398    -5337    -5223    -5084    -4958 
   -4845    -4716    -4581    -4453    -4333    -4217    -4126    -4081 
   -4071    -4083    -4113    -4137    -4144    -4151    -4172    -4195 
   -4193    -4168    -4149    -4136    -4116    -4089    -4040    -3978 
   -3933    -3910    -3894    -3898    -3948    -4066    -4229    -4401 
   -4563    -4703    -4796    -4818    -4766    -4680    -4596    -4530 
   -4492    -4488    -4530    -4612    -4695    -4747    -4774    -4769 
   -4725    -4650    -4567    -4492    -4438    -4407    -4396    -4392 
   -4390    -4383    -4347    -4274    -4187    -4081    -3940    -3775 
   -3608    -3457    -3330    -3238    -3195    -3229    -3349    -3528 
   -3734    -3952    -4160    -4311    -4390    -4402    -4359    -4288 
   -4218    -4162    -4141    -4170    -4226    -4275    -4290    -4272 
   -4224    -4125    -3962    -3747    -3518    -3318    -3181    -3130 
   -3156    -3208    -3250    -3289    -3337    -3389    -3438    -3491 
   -3555    -3642    -3747    -3850    -3923    -3955    -3946    -3915 
   -3905    -3940    -4010    -4093    -4175    -4245    -4287    -4276 
   -4199    -4059    -3881    -3707    -3562    -3453    -3383    -3356 
   -3361    -3383    -3407    -3414    -3383    -3308    -3199    -3080 
   -2978    -2906    -2874    -2903    -3001    -3152    -3342    -3555 
   -3763    -3951    -4125    -4283    -4438    -4604    -4770    -4915 
   -5032    -5142    -5254    -5351    -5418    -5439    -5389    -5263 
   -5074    -4823    -4538    -4267    -4058    -3942    -3928    -3994 
   -4104    -4225    -4315    -4321    -4232    -4086    -3919    -3740 
   -3582    -3464    -3375    -3311    -3273    -3262    -3288    -3335 
   -3377    -3415    -3466    -3519    -3564    -3632    -3761    -3928 
   -4101    -4271    -4429    -4560    -4658    -4727    -4780    -4815 
   -4822    -4800    -4762    -4716    -4669    -4644    -4661    -4727 
   -4837    -4977    -5128    -5260    -5337    -5341    -5292    -5224 
   -5151    -5066    -4993    -4973    -5004    -5054    -5093    -5120 
   -5138    -5143    -5132    -5098    -5044    -4976    -4909    -4865 
   -4845    -4857    -4912    -5005    -5103    -5181    -5220    -5194 
   -5090    -4915    -4688    -4426    -4160    -3925    -3734    -3585 
   -3491    -3469    -3503    -3562    -3634    -3693    -3716    -3696 
   -3630    -3514    -3362    -3208    -3067    -2941    -2843    -2785 
   -2764    -2774    -2816    -2889    -2978    -3061    -3138    -3214 
   -3284    -3358    -3451    -3574    -3717    -3859    -3975    -4044 
   -4050    -3986    -3867    -3724    -3577    -3431    -3289    -3163 
   -3073    -3036    -3059    -3150    -3291    -3437    -3543    -3589 
   -3569    -3487    -3360    -3211    -3065    -2937    -2832    -2760 
   -2733    -2752    -2816    -2911    -3021    -3134    -3231    -3292 
   -3304    -3264    -3198    -3165    -3217    -3356    -3572    -3838 
   -4104    -4326    -4475    -4542    -4546    -4518    -4486    -4464 
   -4449    -4450    -4475    -4509    -4549    -4612    -4704    -4812 
   -4915    -5011    -5104    -5192    -5259    -5302    -5314    -5294 
   -5238    -5148    -5044    -4953    -4882    -4833    -4793    -4768 
   -4758    -4777    -4830    -4926    -5089    -5332    -5647    -6006 
   -6373    -6700    -6932    -7029    -6986    -6836    -6621    -6389 
   -6180    -6023    -5929    -5884    -5876    -5890    -5892    -5860 
   -5803    -5749    -5715    -5715    -5761    -5852    -5973    -6118 
   -6270    -6394    -6446    -6416    -6311    -6146    -5950    -5752 
   -5571    -5425    -5325    -5274    -5269    -5320    -5431    -5579 
   -5719    -5817    -5875    -5907    -5906    -5872    -5815    -5742 
   -5656    -5559    -5454    -5344    -5231    -5119    -5001    -4876 
   -4745    -4614    -4482    -4356    -4260    -4224    -4270    -4398 
   -4583    -4787    -4977    -5124    -5212    -5228    -5173    -5057 
   -4904    -4747    -4622    -4529    -4450    -4361    -4239    -4075 
   -3871    -3632    -3370    -3098    -2814    -2513    -2208    -1939 
   -1744    -1624    -1566    -1559    -1601    -1696    -1849    -2053 
   -2295    -2544    -2770    -2961    -3122    -3261    -3404    -3550 
   -3684    -3811    -3960    -4141    -4321    -4471    -4568    -4573 
   -4475    -4290    -4047    -3773    -3492    -3238    -3049    -2926 
   -2851    -2806    -2767    -2704    -2601    -2465    -2317    -2168 
   -2020    -1900    -1838    -1848    -1937    -2108    -2342    -2613 
   -2899    -3169    -3395    -3576    -3726    -3859    -3987    -4112 
   -4228    -4320    -4369    -4372    -4313    -4176    -3983    -3784 
   -3609    -3470    -3361    -3298    -3304    -3375    -3483    -3620 
   -3773    -3909    -4016    -4087    -4117    -4108    -4059    -3986 
   -3921    -3882    -3871    -3901    -3966    -4051    -4143    -4233 
   -4309    -4364    -4395    -4379    -4309    -4202    -4086    -3977 
   -3890    -3840    -3831    -3852    -3888    -3917    -3927    -3909 
   -3881    -3840    -3778    -3697    -3622    -3582    -3605    -3692 
   -3828    -4001    -4175    -4329    -4461    -4573    -4672    -4766 
   -4860    -4947    -5034    -5115    -5185    -5238    -5273    -5316 
   -5378    -5449    -5514    -5529    -5466    -5329    -5150    -4961 
   -4781    -4633    -4527    -4472    -4477    -4541    -4630    -4711 
   -4779    -4837    -4869    -4869    -4853    -4824    -4777    -4711 
   -4631    -4540    -4448    -4382    -4352    -4357    -4403    -4490 
   -4600    -4715    -4822    -4922    -5008    -5073    -5116    -5146 
   -5159    -5162    -5169    -5165    -5121    -5043    -4959    -4882 
   -4801    -4700    -4563    -4396    -4232    -4078    -3936    -3825 
   -3761    -3744    -3769    -3831    -3929    -4044    -4151    -4239 
   -4307    -4356    -4392    -4425    -4446    -4450    -4438    -4411 
   -4361    -4278    -4171    -4050    -3921    -3805    -3713    -3662 
   -3654    -3678    -3717    -3766    -3823    -3879    -3944    -4035 
   -4159    -4297    -4437    -4577    -4706    -4804    -4861    -4864 
   -4814    -4715    -4561    -4352    -4095    -3796    -3472    -3160 
   -2889    -2667    -2516    -2452    -2471    -2556    -2682    -2824 
   -2941    -3009    -3026    -3029    -3041    -3064    -3103    -3163 
   -3235    -3322    -3422    -3541    -3676    -3815    -3943    -4047 
   -4137    -4232    -4326    -4419    -4504    -4565    -4595    -4591 
   -4565    -4540    -4507    -4450    -4371    -4284    -4210    -4151 
   -4090    -4018    -3940    -3851    -3753    -3653    -3549    -3431 
   -3307    -3195    -3107    -3064    -3075    -3132    -3221    -3335 
   -3481    -3670    -3888    -4120    -4355    -4576    -4773    -4943 
   -5061    -5107    -5082    -5013    -4918    -4811    -4708    -4633 
   -4611    -4646    -4729    -4845    -4981    -5104    -5184    -5204 
   -5165    -5070    -4916    -4714    -4491    -4284    -4117    -3983 
   -3888    -3843    -3840    -3867    -3921    -3996    -4086    -4194 
   -4324    -4477    -4652    -4827    -4978    -5094    -5169    -5196 
   -5192    -5162    -5108    -5046    -4996    -4955    -4914    -4861 
   -4795    -4718    -4642    -4575    -4515    -4465    -4421    -4375 
   -4324    -4251    -4144    -4016    -3889    -3759    -3630    -3519 
   -3445    -3411    -3415    -3449    -3492    -3520    -3510    -3472 
   -3439    -3430    -3441    -3472    -3530    -3611    -3707    -3812 
   -3925    -4041    -4163    -4288    -4414    -4548    -4696    -4842 
   -4966    -5061    -5109    -5117    -5094    -5053    -4999    -4920 
   -4800    -4650    -4483    -4299    -4104    -3904    -3723    -3586 
   -3507    -3480    -3499    -3559    -3655    -3773    -3910    -4068 
   -4240    -4417    -4587    -4731    -4850    -4946    -5004    -5030 
   -5035    -5031    -5027    -5024    -5011    -4985    -4950    -4907 
   -4872    -4868    -4900    -4966    -5050    -5132    -5193    -5209 
   -5163    -5055    -4908    -4729    -4525    -4320    -4141    -4004 
   -3909    -3870    -3898    -3991    -4139    -4321    -4506    -4664 
   -4791    -4877    -4919    -4936    -4938    -4922    -4876    -4785 
   -4639    -4441    -4190    -3898    -3601    -3346    -3168    -3086 
   -3105    -3211    -3383    -3589    -3793    -3973    -4121    -4226 
   -4275    -4276    -4252    -4221    -4199    -4187    -4185    -4198 
   -4225    -4260    -4309    -4368    -4422    -4465    -4509    -4556 
   -4594    -4614    -4625    -4637    -4656    -4675    -4685    -4684 
   -4671    -4638    -4588    -4529    -4467    -4398    -4328    -4270 
   -4233    -4217    -4212    -4206    -4198    -4197    -4206    -4224 
   -4249    -4284    -4324    -4353    -4357    -4347    -4341    -4352 
   -4380    -4434    -4514    -4596    -4650    -4666    -4650    -4599 
   -4515    -4415    -4333    -4305    -4332    -4383    -4444    -4495 
   -4514    -4486    -4413    -4297    -4153    -4002    -3862    -3769 
   -3750    -3790    -3865    -3977    -4116    -4257    -4378    -4460 
   -4510    -4529    -4511    -4457    -4368    -4244    -4090    -3919 
