Origin Time       2025/01/13 21:19:00
Lat.              31.8
Long.             131.6
Depth. (km)       30
Mag.              6.9
Station Code      KMM008
Station Lat.      32.6875
Station Long.     130.6598
Station Height(m) 3
Record Time       2025/01/13 21:19:57
Sampling Freq(Hz) 100Hz
Duration Time(s)  116
Dir.              N-S
Scale Factor      7845(gal)/8223790
Max. Acc. (gal)   24.918
Last Correction   2025/01/13 21:19:57
Memo.             
[...]
   -1308     -550      -71      174      233      153       -1     -174 
    -311     -360     -282      -48      341      834     1337     1787 
    2139     2386     2575     2771     2999     3262     3569     3958 
    4471     5103     5811     6547     7248     7867     8418     8958 
    9559    10241    10947    11610    12191    12653    12988    13258 
   13509    13707    13824    13840    13711    13447    13134    12841 
   12633    12586    12688    12854    13027    13171    13267    13343 
   13450    13613    13867    14237    14655    15009    15191    15105 
   14731    14096    13193    12062    10791     9462     8156     6917 
    5752     4712     3862     3234     2840     2664     2654     2732 
    2839     2882     2709     2212     1389      280    -1070    -2578 
   -4152    -5732    -7223    -8513    -9559   -10358   -10918   -11298 
  -11565   -11774   -11993   -12224   -12410   -12496   -12413   -12081 
  -11492   -10717    -9849    -8981    -8193    -7523    -6970    -6481 
   -5983    -5404    -4710    -3935    -3144    -2373    -1669    -1075 
    -595     -190      220      704     1301     2052     2963     3979 
    5061     6184     7284     8264     9072     9718    10220    10557 
   10766    10960    11194    11489    11870    12322    12818    13302 
   13674    13852    13799    13520    13032    12371    11574    10666 
    9671     8676     7778     7088     6718     6744     7198     8054 
    9213    10532    11867    13119    14239    15217    16078    16849 
   17491    17960    18226    18261    18075    17741    17331    16908 
   16551    16308    16159    16046    15889    15596    15067    14266 
   13185    11820    10211     8422     6547     4735     3126     1744 
     544     -480    -1316    -2011    -2632    -3207    -3775    -4351 
   -4904    -5429    -5942    -6457    -6968    -7470    -7974    -8498 
   -9020    -9470    -9738    -9774    -9597    -9267    -8868    -8457 
   -8062    -7697    -7362    -7033    -6705    -6359    -5958    -5487 
   -4955    -4355    -3705    -3086    -2548    -2104    -1769    -1583 
   -1547    -1624    -1757    -1860    -1840    -1610    -1088     -268 
     785     2011     3311     4596     5825     6990     8091     9117 
   10048    10837    11441    11843    12025    12000    11821    11573 
   11373    11334    11507    11880    12364    12788    12945    12706 
   12042    10974     9606     8087     6528     5009     3591     2286 
    1093       32     -869    -1578    -2049    -2230    -2076    -1525 
    -519      923     2725     4779     6941     9084    11094    12841 
   14193    15080    15506    15530    15252    14806    14312    13840 
   13423    13027    12590    12079    11500    10851    10116     9248 
    8183     6895     5441     3939     2484     1123     -149    -1363 
   -2524    -3603    -4561    -5341    -5876    -6127    -6088    -5761 
   -5163    -4369    -3489    -2623    -1849    -1235     -807     -531 
    -334     -112      224      710     1325     2004     2668     3257 
    3759     4241     4789     5483     6404     7618     9154    10964 
   12892    14754    16411    17761    18727    19303    19529    19450 
   19095    18472    17606    16532    15238    13697    11901     9887 
    7724     5514     3354     1308     -580    -2273    -3744    -4980 
   -5979    -6764    -7362    -7773    -7975    -7954    -7716    -7280 
   -6686    -6002    -5269    -4492    -3670    -2752    -1667     -332 
    1323     3271     5346     7346     9159    10779    12241    13590 
   14883    16116    17212    18084    18651    18874    18758    18320 
   17581    16565    15334    13948    12442    10843     9166     7423 
    5652     3933     2398     1138      126     -702    -1362    -1864 
   -2235    -2470    -2554    -2477    -2228    -1811    -1262     -646 
     -12      606     1185     1725     2241     2754     3267     3753 
    4171     4484     4668     4722     4714     4750     4873     5061 
    5313     5645     6045     6453     6799     7009     7014     6793 
    6335     5621     4638     3422     2050      629     -733    -1977 
   -3080    -4000    -4708    -5219    -5532    -5671    -5647    -5456 
   -5143    -4700    -4106    -3399    -2597    -1714     -758      264 
    1312     2322     3211     3894     4320     4456     4278     3769 
    2970     1998      993       85     -619    -1057    -1220    -1177 
   -1012     -781     -530     -291      -59      209      560     1008 
    1526     2070     2586     3041     3443     3840     4276     4769 
    5319     5921     6543     7123     7632     8051     8334     8488 
    8507     8359     8036     7553     6932     6226     5498     4800 
    4168     3632     3215     2945     2836     2898     3157     3600 
    4155     4738     5278     5730     6081     6353     6571     6758 
    6937     7114     7283     7449     7619     7786     7973     8218 
    8553     8989     9518    10127    10785    11435    12019    12490 
   12808    12933    12837    12546    12100    11514    10798     9981 
    9119     8284     7558     6968     6513     6185     5968     5841 
    5803     5875     6076     6411     6867     7418     7982     8445 
    8700     8672     8370     7865     7242     6594     5999     5516 
    5198     5076     5139     5339     5605     5849     5979     5911 
    5593     5007     4191     3219     2216     1333      677      311 
     228      369      670     1044     1389     1625     1733     1753 
    1722     1634     1490     1332     1171      993      780      488 
      45     -562    -1225    -1811    -2289    -2664    -2936    -3140 
   -3346    -3645    -4071    -4600    -5201    -5850    -6494    -7056 
   -7474    -7719    -7757    -7584    -7218    -6681    -5953    -4978 
   -3739    -2250     -513     1436     3543     5767     8056    10319 
   12405    14181    15616    16726    17481    17832    17806    17502 
   17041    16521    15997    15466    14883    14197    13373    12394 
   11240     9873     8262     6421     4422     2384      437    -1302 
   -2741    -3777    -4345    -4461    -4185    -3562    -2612    -1363 
     133     1833     3707     5690     7690     9632    11426    12982 
   14237    15145    15684    15870    15720    15240    14463    13468 
   12372    11326    10436     9726     9146     8604     8004     7273 
    6382     5356     4282     3271     2390     1668     1120      731 
     481      360      356      441      598      824     1115     1425 
    1703     1910     2012     2018     1977     1917     1884     1971 
    2247     2767     3539     4536     5695     6909     8059     9046 
    9767    10153    10170     9813     9116     8127     6918     5610 
    4320     3133     2106     1282      688      283       -2     -240 
    -506     -826    -1189    -1590    -1996    -2362    -2671    -2901 
   -3051    -3165    -3302    -3500    -3769    -4101    -4476    -4826 
   -5071    -5138    -4928    -4392    -3538    -2392     -999      562 
    2203     3851     5470     7036     8527     9922    11176    12224 
   13004    13479    13633    13481    13077    12513    11898    11334 
   10858    10471    10166     9903     9656     9402     9082     8645 
    8087     7399     6598     5728     4831     3975     3214     2574 
    2060     1629     1231      835      457      157      -20      -48 
      91      360      683      974     1166     1223     1113      843 
     481      105     -237     -527     -765     -958    -1113    -1200 
   -1166     -969     -603      -83      580     1360     2241     3233 
    4344     5578     6891     8182     9351    10295    10933    11232 
   11171    10766    10068     9158     8100     6949     5792     4706 
    3759     3036     2560     2311     2293     2506     2910     3483 
    4206     5015     5833     6570     7128     7449     7530     7393 
    7096     6720     6326     5952     5643     5439     5344     5329 
    5321     5252     5078     4760     4287     3705     3056     2351 
    1603      853      183     -315     -567     -511     -110      633 
    1663     2870     4097     5196     6073     6679     6971     6948 
    6650     6116     5412     4608     3757     2910     2120     1429 
     886      531      383      406      541      750      977     1166 
    1309     1418     1514     1637     1817     2084     2461     2914 
    3383     3828     4233     4607     4981     5370     5796     6273 
    6766     7241     7665     7990     8167     8137     7867     7377 
    6723     5972     5185     4406     3674     3034     2539     2212 
    2053     2062     2226     2540     3013     3623     4329     5107 
    5906     6625     7195     7593     7819     7863     7728     7430 
    7011     6528     6026     5528     5031     4523     3997     3441 
    2825     2108     1297      467     -292     -919    -1379    -1634 
   -1636    -1383     -928     -346      286      889     1393     1783 
    2068     2277     2457     2667     2995     3503     4182     4973 
    5746     6350     6686     6721     6482     6050     5526     4986 
    4465     3981     3546     3171     2879     2700     2650     2714 
    2897     3234     3748     4437     5269     6176     7122     8058 
    8916     9648    10200    10543    10666    10546    10160     9501 
    8619     7593     6507     5470     4563     3827     3283     2932 
    2772     2810     3046     3470     4071     4827     5682     6575 
    7460     8272     8973     9541     9958    10228    10350    10287 
   10045     9661     9132     8480     7746     6930     6052     5158 
    4328     3649     3161     2889     2835     2953     3177     3446 
    3721     3963     4117     4170     4145     4091     4078     4163 
    4367     4672     5034     5418     5786     6076     6228     6201 
    5983     5597     5103     4583     4102     3690     3356     3063 
    2767     2443     2062     1606     1111      629      218      -72 
    -249     -311     -263     -164      -60       29       83      103 
     121      132      109       20     -191     -589    -1192    -2011 
   -3042    -4218    -5458    -6658    -7686    -8437    -8816    -8743 
   -8210    -7250    -5911    -4302    -2586     -912      611     1919 
    3001     3871     4561     5097     5485     5705     5756     5661 
    5479     5294     5184     5211     5416     5809     6372     7056 
    7793     8519     9182     9742    10176    10463    10617    10650 
   10573    10407    10181     9929     9691     9525     9462     9494 
    9609     9767     9915    10007    10004     9895     9702     9478 
    9319     9296     9445     9813    10404    11190    12132    13174 
   14237    15249    16152    16900    17490    17945    18289    18571 
   18821    19006    19089    19035    18806    18385    17766    16923 
   15863    14590    13082    11329     9347     7165     4833     2462 
     193    -1853    -3616    -5147    -6544    -7842    -9027   -10062 
  -10921   -11649   -12289   -12835   -13309   -13721   -14037   -14283 
  -14512   -14732   -14948   -15163   -15341   -15419   -15363   -15191 
  -14947   -14644   -14224   -13575   -12640   -11416    -9925    -8208 
   -6313    -4303    -2278     -353     1374     2833     3997     4841 
    5347     5524     5374     4904     4172     3250     2228     1256 
     469      -67     -302     -230      120      751     1674     2910 
    4471     6300     8305    10428    12627    14809    16852    18701 
   20310    21608    22588    23294    23727    23905    23869    23611 
   23103    22331    21258    19903    18378    16756    15056    13352 
   11761    10359     9178     8216     7488     7034     6829     6832 
    7101     7720     8684     9941    11412    13004    14604    16044 
   17184    17948    18311    18285    17898    17197    16251    15095 
   13753    12256    10640     8959     7257     5580     3987     2542 
    1270      141     -884    -1848    -2770    -3585    -4220    -4656 
   -4897    -4955    -4866    -4668    -4372    -4017    -3678    -3388 
   -3184    -3142    -3292    -3676    -4353    -5296    -6424    -7668 
   -8953   -10183   -11250   -12105   -12714   -13055   -13147   -13030 
  -12754   -12372   -11909   -11392   -10812   -10146    -9390    -8529 
   -7546    -6432    -5132    -3596    -1846        0     1760     3316 
    4725     6060     7306     8451     9514    10482    11342    12093 
   12683    13082    13327    13425    13373    13194    12964    12725 
   12506    12347    12216    12069    11905    11691    11430    11183 
   10964    10779    10612    10407    10104     9671     9109     8425 
    7651     6872     6181     5641     5274     5032     4866     4758 
    4688     4633     4592     4563     4522     4464     4374     4253 
    4126     4012     3942     3989     4217     4653     5301     6122 
    7064     8102     9181    10223    11132    11755    11958    11673 
   10856     9497     7651     5435     3049      754    -1287    -3026 
   -4415    -5421    -6138    -6740    -7288    -7750    -8121    -8464 
   -8785    -8985    -9058    -9111    -9146    -9140    -9081    -8919 
   -8645    -8282    -7847    -7379    -6898    -6389    -5848    -5287 
   -4662    -3925    -3102    -2182    -1138        2     1219     2482 
    3753     5034     6334     7638     8941    10280    11634    12943 
   14285    15739    17281    18940    20706    22484    24229    25867 
   27298    28478    29401    30038    30357    30341    29947    29138 
   27905    26252    24240    21976    19535    16969    14326    11695 
    9162     6817     4784     3102     1752      783      174     -152 
    -259     -233     -125       18      105       86      -27     -220 
    -437     -567     -534     -326      109      793     1664     2681 
    3796     4884     5841     6608     7105     7279     7129     6639 
    5790     4607     3115     1413     -315    -1949    -3433    -4739 
   -5894    -6921    -7809    -8542    -9105    -9459    -9616    -9625 
   -9491    -9217    -8847    -8410    -7870    -7231    -6521    -5724 
   -4882    -4060    -3258    -2498    -1791    -1128     -510      101 
     722     1345     1957     2525     3055     3570     4108     4706 
    5371     6100     6882     7727     8652     9626    10594    11511 
   12340    13059    13649    14071    14272    14227    13936    13369 
   12506    11377    10062     8630     7128     5632     4207     2890 
    1730      787       93     -333     -507     -492     -367     -174 
      27      207      395      591      803     1055     1339     1624 
    1891     2110     2219     2176     1992     1679     1262      838 
     483      209       36      -22       -2       94      313      692 
    1281     2112     3168     4396     5724     7056     8305     9393 
   10243    10806    11057    11009    10755    10426    10106     9855 
    9706     9617     9539     9459     9356     9239     9146     9090 
    9066     9067     9092     9131     9177     9207     9200     9196 
    9274     9472     9801    10253    10797    11400    12019    12584 
   13015    13239    13193    12829    12128    11124     9895     8525 
    7101     5710     4390     3176     2088     1098      189     -633 
   -1389    -2093    -2766    -3445    -4137    -4842    -5557    -6243 
   -6872    -7449    -7948    -8348    -8629    -8750    -8671    -8384 
   -7912    -7284    -6539    -5722    -4880    -4050    -3254    -2524 
   -1885    -1317     -789     -286      224      796     1498     2358 
    3338     4391     5476     6543     7530     8379     9084     9672 
   10161    10519    10721    10777    10679    10423    10031     9549 
    9027     8548     8202     8035     8091     8433     9067     9950 
   11021    12170    13298    14328    15201    15904    16444    16803 
   16960    16927    16708    16299    15711    14960    14095    13196 
   12353    11623    11055    10681    10492    10467    10596    10841 
   11156    11484    11759    11924    11938    11776    11423    10881 
   10185     9382     8496     7545     6521     5416     4248     3030 
    1771      498     -756    -1983    -3183    -4367    -5563    -6787 
   -8027    -9254   -10423   -11483   -12397   -13135   -13694   -14083 
  -14308   -14393   -14378   -14285   -14103   -13828   -13467   -13019 
  -12488   -11911   -11296   -10644    -9945    -9190    -8390    -7564 
   -6758    -6035    -5444    -5001    -4715    -4568    -4504    -4487 
   -4477    -4372    -4099    -3667    -3082    -2343    -1482     -499 
     600     1784     3038     4348     5665     6968     8229     9416 
   10520    11547    12496    13354    14103    14740    15271    15703 
   16063    16378    16683    17034    17444    17890    18333    18697 
   18912    18940    18769    18401    17868    17203    16417    15526 
   14558    13544    12533    11550    10617     9787     9061     8413 
    7851     7375     6964     6646     6458     6417     6523     6756 
    7067     7398     7693     7879     7936     7886     7742     7549 
    7375     7242     7167     7155     7179     7219     7261     7263 
    7187     7013     6700     6211     5552     4725     3736     2628 
    1440      201    -1073    -2367    -3655    -4893    -6033    -7049 
   -7935    -8681    -9270    -9675    -9888    -9931    -9823    -9559 
   -9147    -8631    -8054    -7425    -6741    -5998    -5211    -4392 
   -3522    -2559    -1485     -326      877     2076     3190     4193 
    5123     6016     6901     7812     8780     9817    10922    12067 
   13177    14161    14936    15437    15624    15488    15034    14308 
   13385    12355    11299    10285     9354     8511     7758     7101 
    6556     6165     5964     5991     6254     6733     7377     8100 
    8780     9327     9663     9720     9485     8996     8311     7511 
    6678     5860     5112     4475     3948     3523     3198     2943 
    2740     2592     2500     2489     2592     2825     3177     3624 
    4135     4658     5135     5505     5728     5791     5688     5418 
    4992     4413     3696     2905     2084     1232      348     -545 
   -1409    -2178    -2790    -3187    -3319    -3188    -2839    -2319 
   -1691    -1032     -400      160      614      943     1146     1248 
    1290     1313     1378     1551     1890     2409     3111     3966 
    4888     5805     6666     7416     8043     8577     9040     9435 
    9771    10048    10226    10277    10211    10012     9702     9335 
    8928     8514     8132     7782     7464     7192     6963     6774 
    6652     6598     6593     6631     6700     6766     6804     6797 
    6745     6690     6655     6637     6671     6764     6893     7060 
    7258     7468     7676     7877     8058     8214     8336     8414 
    8424     8330     8102     7693     7083     6277     5305     4237 
    3152     2101     1132      286     -432    -1040    -1572    -2054 
   -2498    -2922    -3338    -3736    -4095    -4375    -4525    -4502 
   -4286    -3866    -3254    -2505    -1687     -874     -112      592 
    1235     1802     2295     2705     3022     3250     3392     3443 
    3407     3296     3123     2907     2667     2412     2145     1881 
    1611     1309      984      637      263     -105     -457     -801 
