Origin Time       2025/01/13 21:19:00
Lat.              31.8
Long.             131.6
Depth. (km)       30
Mag.              6.9
Station Code      KMM019
Station Lat.      32.4548
Station Long.     130.1807
Station Height(m) 10
Record Time       2025/01/13 21:20:14
Sampling Freq(Hz) 100Hz
Duration Time(s)  74
Dir.              E-W
Scale Factor      7845(gal)/8223790
Max. Acc. (gal)   2.088
Last Correction   2025/01/13 21:20:15
Memo.             
[...]
   -5063    -5163    -5298    -5435    -5516    -5559    -5587    -5591 
   -5583    -5571    -5541    -5486    -5412    -5347    -5309    -5273 
   -5238    -5209    -5185    -5184    -5208    -5236    -5260    -5270 
   -5267    -5273    -5274    -5258    -5236    -5223    -5205    -5167 
   -5132    -5124    -5111    -5082    -5061    -5022    -4941    -4853 
   -4784    -4745    -4753    -4787    -4816    -4842    -4861    -4885 
   -4908    -4905    -4869    -4793    -4704    -4650    -4661    -4743 
   -4881    -5019    -5104    -5131    -5130    -5130    -5157    -5224 
   -5309    -5377    -5412    -5406    -5360    -5300    -5242    -5179 
   -5116    -5054    -4992    -4931    -4877    -4827    -4765    -4689 
   -4617    -4554    -4504    -4482    -4488    -4513    -4545    -4580 
   -4610    -4631    -4642    -4646    -4662    -4700    -4758    -4834 
   -4920    -5003    -5070    -5112    -5119    -5096    -5067    -5062 
   -5094    -5162    -5238    -5278    -5267    -5219    -5151    -5078 
   -5035    -5036    -5059    -5096    -5151    -5213    -5263    -5309 
   -5351    -5364    -5337    -5269    -5177    -5086    -5023    -5016 
   -5073    -5163    -5258    -5328    -5344    -5310    -5243    -5163 
   -5101    -5062    -5055    -5097    -5178    -5265    -5314    -5305 
   -5248    -5173    -5107    -5069    -5063    -5067    -5067    -5066 
   -5067    -5077    -5113    -5178    -5256    -5313    -5306    -5221 
   -5071    -4904    -4785    -4754    -4792    -4843    -4858    -4826 
   -4758    -4706    -4718    -4811    -4953    -5086    -5170    -5201 
   -5200    -5204    -5247    -5328    -5418    -5495    -5528    -5495 
   -5410    -5316    -5255    -5228    -5208    -5165    -5096    -5016 
   -4939    -4885    -4884    -4932    -5001    -5070    -5117    -5134 
   -5147    -5173    -5202    -5211    -5170    -5080    -4981    -4919 
   -4914    -4976    -5101    -5242    -5350    -5410    -5418    -5382 
   -5328    -5283    -5277    -5308    -5367    -5424    -5445    -5420 
   -5364    -5290    -5213    -5139    -5074    -5031    -5004    -4970 
   -4916    -4851    -4797    -4772    -4787    -4841    -4918    -4997 
   -5059    -5105    -5150    -5186    -5208    -5212    -5182    -5109 
   -5013    -4920    -4858    -4851    -4895    -4965    -5038    -5084 
   -5100    -5121    -5159    -5201    -5227    -5223    -5179    -5111 
   -5039    -4989    -4974    -4990    -5040    -5109    -5165    -5200 
   -5209    -5170    -5092    -5019    -4981    -4982    -5017    -5061 
   -5092    -5120    -5147    -5155    -5132    -5080    -5013    -4950 
   -4930    -4981    -5092    -5225    -5331    -5363    -5309    -5194 
   -5074    -5004    -5003    -5058    -5136    -5215    -5259    -5240 
   -5184    -5120    -5046    -4980    -4958    -4981    -5039    -5127 
   -5220    -5289    -5316    -5304    -5273    -5231    -5192    -5170 
   -5152    -5124    -5094    -5076    -5062    -5054    -5057    -5036 
   -4966    -4869    -4765    -4672    -4633    -4672    -4765    -4895 
   -5046    -5171    -5255    -5297    -5301    -5281    -5259    -5255 
   -5263    -5254    -5204    -5119    -5024    -4951    -4912    -4908 
   -4934    -4978    -5027    -5066    -5084    -5080    -5065    -5035 
   -4999    -4968    -4951    -4970    -5044    -5151    -5236    -5273 
   -5240    -5142    -5008    -4887    -4800    -4738    -4676    -4615 
   -4569    -4546    -4557    -4595    -4630    -4648    -4654    -4653 
   -4666    -4725    -4822    -4938    -5044    -5120    -5152    -5154 
   -5158    -5198    -5292    -5420    -5532    -5582    -5552    -5448 
   -5313    -5212    -5175    -5209    -5309    -5440    -5553    -5622 
   -5626    -5568    -5471    -5356    -5242    -5132    -5036    -4976 
   -4968    -4999    -5047    -5082    -5082    -5034    -4947    -4849 
   -4762    -4714    -4715    -4761    -4843    -4946    -5042    -5108 
   -5115    -5043    -4923    -4814    -4739    -4702    -4718    -4774 
   -4846    -4919    -4974    -4993    -4981    -4942    -4889    -4858 
   -4870    -4935    -5049    -5173    -5259    -5287    -5258    -5190 
   -5116    -5051    -5013    -5005    -5008    -5008    -5005    -4999 
   -4988    -4961    -4919    -4847    -4756    -4699    -4702    -4746 
   -4827    -4923    -4997    -5051    -5103    -5140    -5159    -5167 
   -5161    -5142    -5128    -5124    -5120    -5107    -5094    -5101 
   -5117    -5130    -5128    -5113    -5089    -5051    -5013    -4988 
   -4969    -4965    -4993    -5053    -5138    -5227    -5278    -5266 
   -5197    -5101    -5028    -5008    -5039    -5101    -5173    -5224 
   -5250    -5266    -5285    -5309    -5319    -5287    -5213    -5120 
   -5039    -5005    -5026    -5085    -5155    -5209    -5233    -5221 
   -5184    -5150    -5130    -5120    -5136    -5175    -5217    -5255 
   -5281    -5292    -5293    -5293    -5293    -5278    -5239    -5186 
   -5140    -5115    -5124    -5179    -5271    -5364    -5414    -5412 
   -5373    -5320    -5283    -5281    -5304    -5321    -5312    -5260 
   -5178    -5093    -5046    -5036    -5057    -5100    -5135    -5147 
   -5147    -5140    -5130    -5117    -5081    -5007    -4892    -4764 
   -4669    -4642    -4687    -4772    -4855    -4918    -4957    -4974 
   -4997    -5053    -5081    -5035    -4936    -4783    -4572    -4395 
   -4318    -4326    -4410    -4548    -4680    -4780    -4860    -4916 
   -4943    -4959    -4996    -5046    -5086    -5111    -5120    -5111 
   -5089    -5070    -5069    -5077    -5094    -5131    -5166    -5186 
   -5200    -5225    -5273    -5332    -5400    -5464    -5487    -5475 
   -5474    -5471    -5458    -5459    -5460    -5427    -5366    -5285 
   -5174    -5055    -4947    -4835    -4722    -4631    -4583    -4604 
   -4711    -4892    -5109    -5306    -5455    -5540    -5555    -5520 
   -5472    -5433    -5404    -5370    -5321    -5246    -5152    -5077 
   -5036    -5020    -5016    -5016    -5015    -5026    -5058    -5111 
   -5185    -5271    -5336    -5358    -5329    -5255    -5167    -5109 
   -5098    -5130    -5179    -5211    -5197    -5134    -5034    -4939 
   -4884    -4885    -4950    -5059    -5173    -5244    -5228    -5119 
   -4954    -4766    -4611    -4544    -4576    -4696    -4876    -5055 
   -5182    -5223    -5148    -4986    -4803    -4671    -4645    -4739 
   -4919    -5128    -5329    -5509    -5648    -5726    -5718    -5614 
   -5436    -5223    -5028    -4904    -4872    -4914    -4996    -5069 
   -5085    -5030    -4928    -4820    -4746    -4742    -4822    -4963 
   -5148    -5336    -5468    -5513    -5470    -5362    -5239    -5158 
   -5142    -5179    -5251    -5335    -5394    -5394    -5335    -5246 
   -5154    -5082    -5047    -5035    -5007    -4943    -4874    -4855 
   -4922    -5061    -5229    -5370    -5432    -5416    -5364    -5308 
   -5263    -5236    -5197    -5124    -5027    -4932    -4870    -4877 
   -4962    -5093    -5223    -5309    -5320    -5244    -5100    -4912 
   -4729    -4599    -4557    -4600    -4706    -4854    -5016    -5135 
   -5181    -5162    -5090    -4993    -4900    -4820    -4780    -4791 
   -4827    -4870    -4922    -4985    -5057    -5130    -5198    -5252 
   -5279    -5286    -5286    -5270    -5233    -5188    -5132    -5057 
   -4961    -4868    -4803    -4774    -4769    -4784    -4819    -4868 
   -4926    -4984    -5027    -5065    -5121    -5198    -5286    -5381 
   -5472    -5560    -5656    -5748    -5806    -5807    -5729    -5570 
   -5370    -5185    -5043    -4946    -4874    -4812    -4765    -4754 
   -4781    -4846    -4926    -4969    -4946    -4866    -4746    -4633 
   -4583    -4630    -4766    -4949    -5116    -5215    -5209    -5104 
   -4945    -4791    -4691    -4650    -4645    -4662    -4693    -4741 
   -4833    -4976    -5143    -5298    -5414    -5472    -5478    -5452 
   -5416    -5394    -5389    -5382    -5366    -5335    -5270    -5178 
   -5093    -5022    -4954    -4895    -4835    -4781    -4758    -4774 
   -4841    -4936    -5026    -5096    -5147    -5175    -5204    -5263 
   -5356    -5451    -5485    -5410    -5251    -5070    -4915    -4814 
   -4783    -4796    -4810    -4804    -4793    -4808    -4874    -4988 
   -5130    -5270    -5377    -5439    -5466    -5459    -5420    -5373 
   -5337    -5321    -5329    -5358    -5394    -5424    -5428    -5387 
   -5287    -5128    -4930    -4722    -4540    -4429    -4423    -4526 
   -4715    -4939    -5140    -5279    -5346    -5336    -5265    -5166 
   -5105    -5117    -5178    -5232    -5215    -5084    -4869    -4639 
   -4449    -4337    -4330    -4428    -4595    -4776    -4939    -5070 
   -5146    -5163    -5165    -5215    -5348    -5539    -5729    -5869 
   -5927    -5907    -5869    -5876    -5929    -5976    -5957    -5833 
   -5601    -5319    -5069    -4922    -4908    -5003    -5167    -5352 
   -5503    -5589    -5607    -5574    -5509    -5431    -5348    -5258 
   -5154    -5022    -4851    -4666    -4526    -4476    -4536    -4677 
   -4843    -4986    -5100    -5192    -5270    -5346    -5412    -5462 
   -5502    -5522    -5508    -5439    -5310    -5147    -5000    -4905 
   -4882    -4936    -5030    -5116    -5170    -5169    -5124    -5088 
   -5104    -5179    -5297    -5424    -5529    -5607    -5671    -5742 
   -5829    -5908    -5949    -5927    -5849    -5742    -5624    -5490 
   -5348    -5216    -5104    -5020    -4988    -5022    -5115    -5217 
   -5270    -5246    -5150    -5028    -4932    -4884    -4878    -4892 
   -4882    -4830    -4749    -4681    -4665    -4710    -4784    -4843 
   -4869    -4870    -4878    -4928    -5030    -5161    -5285    -5355 
   -5350    -5282    -5197    -5128    -5100    -5115    -5148    -5170 
   -5158    -5096    -4985    -4847    -4726    -4666    -4681    -4749 
   -4841    -4924    -4976    -4992    -4995    -5009    -5032    -5049 
   -5047    -5038    -5038    -5055    -5085    -5096    -5062    -4965 
   -4801    -4617    -4468    -4410    -4473    -4625    -4793    -4947 
   -5069    -5155    -5200    -5170    -5047    -4860    -4646    -4456 
   -4355    -4372    -4476    -4598    -4675    -4703    -4737    -4812 
   -4912    -5001    -5036    -4972    -4830    -4699    -4657    -4733 
   -4919    -5147    -5321    -5377    -5306    -5161    -5030    -4966 
   -4963    -4984    -4990    -4961    -4889    -4792    -4708    -4671 
   -4696    -4761    -4803    -4807    -4803    -4819    -4870    -4947 
   -5024    -5057    -5012    -4914    -4815    -4762    -4768    -4806 
   -4827    -4797    -4722    -4638    -4588    -4583    -4611    -4656 
   -4699    -4746    -4811    -4904    -5027    -5158    -5265    -5336 
   -5370    -5364    -5329    -5274    -5212    -5173    -5169    -5186 
   -5198    -5182    -5130    -5061    -5004    -4962    -4934    -4935 
   -4968    -5001    -5027    -5040    -5035    -5022    -5019    -5042 
   -5101    -5175    -5227    -5248    -5239    -5198    -5150    -5116 
   -5101    -5086    -5047    -4986    -4928    -4889    -4855    -4808 
   -4739    -4649    -4552    -4483    -4468    -4525    -4652    -4793 
   -4884    -4896    -4854    -4799    -4779    -4830    -4924    -5013 
   -5063    -5055    -5003    -4949    -4928    -4965    -5043    -5119 
   -5147    -5101    -4996    -4887    -4841    -4911    -5085    -5297 
   -5460    -5509    -5439    -5297    -5155    -5067    -5063    -5138 
   -5244    -5336    -5364    -5310    -5201    -5093    -5053    -5104 
   -5220    -5352    -5455    -5506    -5526    -5560    -5643    -5761 
   -5867    -5902    -5814    -5607    -5359    -5170    -5100    -5151 
   -5271    -5377    -5404    -5332    -5190    -5050    -4981    -5031 
   -5186    -5360    -5464    -5466    -5378    -5256    -5181    -5193 
   -5267    -5340    -5363    -5341    -5317    -5329    -5404    -5522 
   -5613    -5605    -5494    -5313    -5100    -4907    -4808    -4841 
   -4990    -5208    -5422    -5562    -5580    -5494    -5348    -5170 
   -4961    -4733    -4504    -4307    -4176    -4131    -4160    -4226 
   -4301    -4380    -4472    -4590    -4726    -4853    -4938    -4945 
   -4870    -4769    -4716    -4743    -4819    -4896    -4957    -5008 
   -5057    -5105    -5135    -5125    -5063    -4955    -4831    -4723 
   -4654    -4645    -4692    -4770    -4868    -4962    -4997    -4950 
   -4851    -4768    -4770    -4888    -5082    -5298    -5479    -5603 
   -5684    -5732    -5746    -5726    -5656    -5525    -5356    -5213 
   -5190    -5319    -5543    -5769    -5926    -5983    -5946    -5844 
   -5713    -5566    -5397    -5231    -5107    -5051    -5069    -5116 
   -5124    -5059    -4935    -4806    -4745    -4799    -4941    -5103 
   -5206    -5202    -5120    -5028    -4995    -5054    -5184    -5331 
   -5463    -5568    -5640    -5670    -5657    -5617    -5547    -5451 
   -5355    -5281    -5231    -5213    -5223    -5251    -5300    -5364 
   -5441    -5522    -5586    -5610    -5593    -5540    -5472    -5435 
   -5449    -5495    -5529    -5530    -5512    -5508    -5560    -5670 
   -5764    -5772    -5688    -5543    -5371    -5201    -5054    -4950 
   -4899    -4889    -4905    -4938    -4974    -4997    -4992    -4946 
   -4865    -4795    -4787    -4846    -4939    -5000    -4974    -4853 
   -4666    -4463    -4286    -4159    -4070    -3989    -3894    -3781 
   -3649    -3516    -3404    -3326    -3264    -3198    -3113    -3010 
   -2917    -2890    -2990    -3211    -3478    -3711    -3867    -3942 
   -3944    -3902    -3838    -3786    -3775    -3805    -3854    -3915 
   -3981    -4048    -4129    -4245    -4378    -4503    -4629    -4741 
   -4823    -4888    -4943    -4984    -5008    -5026    -5043    -5061 
   -5076    -5071    -5051    -5031    -5024    -5039    -5071    -5117 
   -5177    -5252    -5352    -5485    -5645    -5815    -5961    -6042 
   -6056    -6034    -6007    -5992    -5996    -6019    -6052    -6085 
   -6110    -6115    -6108    -6087    -6052    -6002    -5941    -5898 
   -5914    -6012    -6169    -6338    -6470    -6540    -6565    -6577 
   -6605    -6651    -6687    -6658    -6528    -6309    -6065    -5868 
   -5768    -5765    -5813    -5875    -5944    -6010    -6069    -6118 
   -6133    -6080    -5948    -5746    -5522    -5337    -5225    -5185 
   -5175    -5165    -5142    -5090    -5009    -4928    -4889    -4916 
   -5020    -5186    -5362    -5497    -5579    -5629    -5674    -5732 
   -5795    -5848    -5879    -5890    -5902    -5953    -6012    -6008 
   -5911    -5753    -5586    -5459    -5382    -5333    -5275    -5182 
   -5069    -4963    -4893    -4873    -4897    -4941    -4986    -5016 
   -5023    -5031    -5053    -5089    -5144    -5217    -5292    -5358 
   -5413    -5443    -5439    -5400    -5359    -5359    -5406    -5459 
   -5478    -5443    -5358    -5250    -5155    -5111    -5124    -5186 
   -5265    -5304    -5255    -5108    -4895    -4664    -4445    -4251 
   -4101    -4012    -3985    -4010    -4081    -4171    -4252    -4302 
   -4298    -4233    -4144    -4072    -4051    -4098    -4203    -4355 
   -4526    -4675    -4769    -4811    -4789    -4680    -4492    -4271 
   -4068    -3933    -3897    -3943    -4037    -4152    -4263    -4357 
   -4413    -4414    -4368    -4309    -4280    -4310    -4392    -4486 
   -4546    -4548    -4487    -4390    -4301    -4241    -4216    -4207 
   -4198    -4176    -4155    -4152    -4185    -4260    -4371    -4469 
   -4510    -4472    -4364    -4237    -4159    -4151    -4199    -4276 
   -4359    -4419    -4452    -4480    -4531    -4599    -4665    -4703 
   -4688    -4633    -4575    -4550    -4587    -4677    -4800    -4945 
   -5088    -5212    -5328    -5441    -5557    -5679    -5794    -5881 
   -5942    -5987    -6021    -6053    -6104    -6176    -6250    -6318 
   -6370    -6409    -6457    -6519    -6567    -6556    -6463    -6313 
   -6166    -6058    -6004    -5987    -5953    -5869    -5737    -5570 
   -5382    -5192    -5030    -4926    -4885    -4897    -4932    -4955 
   -4953    -4923    -4865    -4795    -4734    -4719    -4774    -4900 
   -5069    -5240    -5398    -5547    -5665    -5724    -5706    -5633 
   -5544    -5470    -5429    -5433    -5464    -5485    -5467    -5397 
   -5273    -5111    -4935    -4774    -4652    -4577    -4544    -4504 
   -4440    -4367    -4294    -4240    -4218    -4209    -4193    -4180 
   -4183    -4229    -4353    -4544    -4765    -4978    -5143    -5232 
   -5258    -5273    -5332    -5468    -5678    -5914    -6108    -6212 
   -6226    -6204    -6195    -6207    -6220    -6205    -6143    -6041 
   -5918    -5809    -5763    -5805    -5906    -5998    -6031    -6002 
   -5933    -5860    -5807    -5778    -5755    -5719    -5676    -5637 
   -5595    -5564    -5568    -5606    -5645    -5674    -5682    -5653 
   -5576    -5451    -5293    -5142    -5040    -5001    -5004    -5023 
   -5028    -4985    -4881    -4734    -4579    -4472    -4449    -4487 
   -4548    -4604    -4630    -4627    -4618    -4618    -4627    -4639 
   -4630    -4569    -4449    -4303    -4182    -4125    -4143    -4210 
   -4288    -4345    -4351    -4297    -4209    -4112    -4009    -3909 
   -3824    -3763    -3746    -3793    -3916    -4093    -4275    -4409 
   -4450    -4391    -4268    -4139    -4050    -4020    -4035    -4059 
   -4072    -4060    -4023    -3962    -3890    -3823    -3769    -3736 
   -3753    -3840    -4001    -4202    -4398    -4563    -4708    -4858 
   -5027    -5215    -5418    -5626    -5822    -5999    -6158    -6299 
   -6432    -6561    -6677    -6793    -6899    -6966    -6986    -6976 
   -6955    -6932    -6916    -6902    -6878    -6820    -6714    -6567 
   -6393    -6205    -6018    -5832    -5636    -5436    -5244    -5074 
   -4950    -4903    -4939    -5042    -5178    -5316    -5437    -5540 
   -5633    -5718    -5791    -5832    -5833    -5813    -5784    -5751 
   -5715    -5678    -5643    -5617    -5605    -5594    -5563    -5486 
   -5356    -5193    -5034    -4926    -4911    -4993    -5128    -5252 
   -5314    -5300    -5217    -5096    -4972    -4870    -4797    -4750 
   -4720    -4704    -4695    -4677    -4644    -4606    -4580    -4569 
   -4565    -4568    -4573    -4575    -4575    -4584    -4623    -4706 
   -4822    -4943    -5039    -5093    -5119    -5136    -5165    -5208 
   -5256    -5289    -5282    -5235    -5152    -5050    -4947    -4869 
   -4826    -4824    -4858    -4915    -4966    -4966    -4899    -4784 
   -4642    -4499    -4392    -4342    -4359    -4436    -4558    -4695 
   -4799    -4842    -4822    -4766    -4727    -4750    -4838    -4958 
   -5058    -5098    -5089    -5067    -5061    -5071    -5088    -5092 
   -5067    -5020    -4978    -4958    -4955    -4954    -4939    -4914 
   -4897    -4908    -4950    -4997    -5011    -4969    -4876    -4758 
   -4660    -4608    -4608    -4633    -4634    -4575    -4457    -4328 
   -4244    -4255    -4375    -4573    -4792    -4973    -5088    -5157 
   -5225    -5350    -5545    -5760    -5929    -6019    -6021    -5949 
   -5849    -5760    -5699    -5659    -5626    -5607    -5599    -5602 
   -5620    -5641    -5634    -5576    -5460    -5324    -5229    -5232 
   -5356    -5579    -5823    -6018    -6122    -6131    -6079    -6004 
