Origin Time       2025/01/13 21:19:00
Lat.              31.8
Long.             131.6
Depth. (km)       30
Mag.              6.9
Station Code      KMM004
Station Lat.      32.9318
Station Long.     131.1203
Station Height(m) 554
Record Time       2025/01/13 21:19:55
Sampling Freq(Hz) 100Hz
Duration Time(s)  150
Dir.              U-D
Scale Factor      7845(gal)/8223790
Max. Acc. (gal)   10.580
Last Correction   2025/01/13 21:19:54
Memo.             
[...]
   19450    20167    20719    20906    20839    20788    20861    20939 
   20854    20560    20086    19434    18652    17911    17312    16899 
   16904    17518    18566    19769    21035    22299    23411    24273 
   24842    25073    24985    24660    24116    23375    22489    21520 
   20583    19874    19507    19422    19507    19716    20015    20305 
   20499    20613    20673    20646    20560    20501    20476    20452 
   20359    19973    19032    17622    16247    15352    14966    14939 
   15288    16063    17124    18193    19060    19643    19780    19269 
   18175    16758    15253    13836    12573    11425    10427     9842 
   10011    11009    12583    14466    16482    18401    19986    21043 
   21396    21007    20028    18677    17232    16092    15500    15311 
   15246    15327    15832    16861    18126    19271    20264    21320 
   22428    23413    24340    25330    26113    26345    26050    25447 
   24636    23611    22388    21035    19689    18511    17597    17099 
   17242    18009    19156    20476    21818    23021    23932    24391 
   24241    23523    22488    21238    19761    18295    17134    16362 
   15957    15826    15762    15574    15261    15010    15006    15360 
   16078    16993    17986    19063    20044    20669    20906    20806 
   20344    19537    18585    17763    17185    16916    17196    18222 
   19766    21340    22640    23531    23831    23453    22536    21342 
   20156    19210    18526    18041    17861    18092    18625    19338 
   20275    21555    23141    24678    25758    26326    26541    26412 
   25884    25011    23953    22862    21726    20414    18900    17232 
   15543    14193    13494    13393    13713    14345    15133    15943 
   16722    17371    17828    18134    18326    18342    18114    17709 
   17282    16949    16721    16480    16090    15627    15358    15461 
   15900    16553    17335    18206    19159    20177    21201    22086 
   22611    22740    22719    22763    22777    22426    21413    19795 
   17976    16240    14540    12906    11614    10828    10427    10319 
   10569    11155    11916    12723    13489    14199    14932    15695 
   16345    16742    16935    17194    17766    18554    19272    19839 
   20325    20706    20898    20834    20494    19897    19071    18123 
   17275    16702    16438    16497    16839    17282    17660    17975 
   18202    18229    18030    17675    17340    17261    17362    17313 
   17107    17154    17721    18639    19701    20961    22356    23461 
   23927    23870    23657    23554    23604    23565    23228    22743 
   22330    21937    21454    20930    20541    20424    20480    20495 
   20483    20706    21301    22087    22804    23453    24182    24943 
   25540    25861    25882    25547    24783    23552    21968    20337 
   18945    17869    17154    16924    17201    17748    18242    18603 
   19051    19784    20682    21474    22048    22481    22837    23063 
   23039    22746    22280    21666    20829    19773    18628    17568 
   16780    16362    16316    16640    17300    18165    19028    19708 
   20154    20345    20236    19834    19202    18445    17667    16875 
   16101    15492    15033    14524    13952    13494    13181    12935 
   12788    12804    12935    13189    13666    14370    15263    16314 
   17340    18130    18662    19040    19369    19662    19728    19367 
   18729    18117    17649    17370    17251    17190    17323    17788 
   18241    18301    18077    17895    17867    17864    17790    17722 
   17739    17824    17847    17578    16954    16139    15319    14617 
   14121    13900    13952    14192    14648    15417    16429    17550 
   18763    20046    21292    22449    23492    24255    24642    24845 
   25015    25003    24638    23969    23151    22318    21481    20571 
   19674    19018    18669    18549    18638    18963    19573    20472 
   21510    22609    23849    25080    25897    26044    25581    24611 
   23141    21323    19530    18052    16895    16094    15890    16314 
   17004    17671    18388    19278    20143    20731    21136    21537 
   21929    22289    22653    23071    23546    23950    24106    23984 
   23695    23399    23237    23252    23299    23191    22972    22941 
   23245    23606    23749    23776    23836    23845    23616    23093 
   22357    21470    20451    19431    18627    18123    17842    17720 
   17755    17910    18073    18139    18099    18045    18036    17948 
   17637    17126    16536    15998    15566    15175    14704    14084 
   13400    12888    12619    12325    11808    11252    10966    11030 
   11280    11556    11865    12290    12876    13539    14112    14519 
   14800    15041    15330    15649    15921    16094    16129    16016 
   15850    15727    15600    15403    15210    15180    15484    16186 
   17112    18068    19078    20205    21350    22327    23032    23357 
   23268    22916    22339    21448    20367    19321    18331    17346 
   16475    15977    16036    16579    17347    18179    19074    20004 
   20822    21444    21963    22468    22929    23247    23369    23309 
   23049    22542    21780    20860    19939    19136    18531    18173 
   18060    18268    18956    20147    21672    23286    24683    25633 
   26145    26331    26183    25662    24788    23546    21990    20387 
   19045    18071    17374    16792    16262    15944    15977    16228 
   16514    16777    17076    17582    18382    19307    20070    20502 
   20692    20877    21100    21199    21082    20825    20572    20345 
   20035    19696    19489    19387    19245    19049    18824    18513 
   18171    17948    17933    18216    18835    19647    20457    21128 
   21610    21932    22135    22239    22183    21882    21352    20698 
   19996    19291    18597    17888    17084    16087    14928    13790 
   12810    11978    11329    11032    11214    11862    12866    14052 
   15236    16248    16926    17226    17294    17300    17257    17050 
   16602    16102    15904    16087    16413    16719    17095    17628 
   18288    19018    19743    20339    20750    21033    21278    21539 
   21780    21938    21949    21774    21517    21346    21271    21204 
   21018    20623    20102    19624    19311    19221    19354    19737 
   20441    21474    22704    23822    24476    24578    24314    23854 
   23224    22462    21663    20839    19986    19261    18894    18877 
   19002    19194    19562    20083    20503    20710    20822    20893 
   20914    20907    20906    20939    20962    20885    20692    20378 
   19851    19036    17996    16858    15655    14478    13656    13424 
   13594    13915    14354    14889    15465    16051    16587    16980 
   17194    17282    17207    16889    16472    16144    15881    15655 
   15596    15774    16089    16455    16911    17454    17976    18428 
   18816    19078    19202    19307    19467    19593    19612    19564 
   19549    19693    20034    20437    20775    21120    21632    22231 
   22559    22462    22194    21921    21485    20784    20015    19448 
   19145    18985    18877    18885    19099    19438    19634    19538 
   19309    19172    19163    19244    19491    19982    20619    21231 
   21709    21963    21899    21502    20877    20260    19845    19558 
   19245    18901    18574    18277    18004    17801    17726    17652 
   17455    17351    17545    17865    18080    18268    18669    19345 
   20075    20638    21058    21455    21797    21961    21945    21860 
   21845    22007    22349    22801    23309    23859    24436    24910 
   25104    25019    24734    24205    23350    22237    21134    20267 
   19568    18881    18184    17527    16962    16482    16104    15938 
   16011    16200    16386    16537    16633    16582    16355    16019 
   15579    14975    14223    13471    12868    12363    11896    11596 
   11611    11950    12567    13475    14697    16193    17855    19512 
   21065    22538    23908    25092    26073    26793    27091    26867 
   26131    25027    23716    22241    20646    19091    17845    17142 
   16862    16787    16983    17512    18177    18760    19198    19527 
   19734    19650    19048    17828    16194    14524    12965    11470 
   10139     9127     8482     8232     8395     8838     9418    10223 
   11317    12609    14080    15705    17361    18882    19994    20447 
   20322    19916    19357    18647    17992    17730    17906    18227 
   18520    18902    19535    20409    21428    22599    23940    25301 
   26442    27201    27565    27641    27504    27087    26225    24894 
   23310    21670    20096    18824    18075    17811    17890    18279 
   19026    20054    21035    21644    21855    21816    21566    21072 
   20393    19678    19078    18731    18702    18908    19183    19488 
   19996    20866    21968    23021    23886    24521    24844    24790 
   24359    23637    22732    21620    20268    18760    17126    15363 
   13652    12241    11295    10903    11080    11762    12831    14088 
   15398    16727    18010    19145    20038    20588    20788    20707 
   20412    19986    19593    19406    19510    19832    20200    20536 
   20871    21150    21249    21158    20954    20663    20245    19692 
   18994    18227    17604    17243    17031    16833    16700    16744 
   16870    16931    16980    17123    17327    17470    17486    17410 
   17282    17035    16506    15581    14395    13238    12295    11638 
   11335    11419    11863    12598    13548    14735    16191    17786 
   19263    20433    21212    21512    21274    20583    19670    18800 
   18114    17581    17120    16769    16606    16600    16696    16929 
   17374    18042    18844    19656    20349    20814    21027    21111 
   21193    21298    21416    21563    21710    21763    21640    21338 
   20914    20393    19808    19241    18756    18387    18131    18031 
   18249    18898    19912    21166    22605    24193    25755    26963 
   27546    27514    27122    26566    25875    25132    24417    23676 
   22924    22362    22127    22113    22137    22140    22138    22129 
   22092    22084    22216    22488    22812    23124    23345    23409 
   23342    23190    22958    22671    22266    21559    20494    19201 
   17794    16368    15045    13983    13327    13138    13421    14169 
   15296    16625    17957    19160    20190    20977    21386    21400 
   21201    20925    20515    19909    19122    18210    17199    16056 
   14791    13528    12402    11518    11002    10947    11342    12140 
   13234    14430    15553    16476    17099    17420    17568    17717 
   17936    18152    18208    17969    17479    16973    16584    16237 
   15921    15800    16002    16429    16822    17046    17138    17107 
   16950    16761    16650    16629    16677    16853    17205    17695 
   18320    19111    20043    21076    22119    22944    23332    23269 
   22917    22405    21826    21313    20885    20459    20097    19934 
   19940    19984    19948    19734    19294    18708    18067    17450 
   17007    16779    16649    16563    16596    16835    17255    17747 
   18219    18593    18785    18787    18662    18445    18164    17874 
   17666    17671    17942    18401    18975    19651    20376    21020 
   21528    21938    22246    22361    22188    21732    21136    20578 
   20131    19773    19457    19272    19434    19958    20518    20845 
   20947    20910    20750    20456    20063    19642    19205    18742 
   18318    18046    17955    17932    17925    17952    17999    18077 
   18204    18307    18307    18242    18215    18301    18576    19070 
   19738    20542    21354    21992    22468    22862    23164    23372 
   23544    23728    23839    23724    23295    22513    21493    20461 
   19516    18671    18006    17618    17551    17745    18058    18310 
   18364    18150    17699    17105    16455    15746    14908    14027 
   13401    13221    13478    14098    14972    15971    16942    17729 
   18320    18802    19190    19494    19735    19892    19975    19982 
   19919    19934    20104    20266    20331    20478    20927    21606 
   22242    22671    22906    22975    22779    22227    21425    20561 
   19726    18989    18461    18149    17907    17625    17342    17158 
   17123    17182    17317    17629    18154    18754    19255    19553 
   19657    19654    19604    19488    19268    18949    18534    18010 
   17444    16910    16378    15882    15614    15708    16127    16744 
   17464    18187    18754    19071    19110    18808    18165    17329 
   16506    15840    15357    15033    14878    14878    14948    15036 
   15187    15472    15936    16602    17432    18350    19348    20386 
   21374    22288    23079    23673    24111    24395    24429    24210 
   23863    23504    23188    22948    22777    22644    22547    22468 
   22380    22324    22329    22273    22003    21465    20638    19507 
   18118    16644    15361    14467    13983    13834    13940    14243 
   14690    15152    15554    15940    16285    16505    16600    16615 
   16555    16449    16313    16148    16023    15944    15807    15606 
   15441    15350    15334    15422    15634    15921    16202    16517 
   16961    17497    18057    18620    19107    19430    19610    19623 
   19373    18918    18441    18046    17807    17756    17817    17937 
   18173    18562    19090    19743    20495    21348    22356    23561 
   24902    26229    27423    28451    29281    29840    30099    30061 
   29636    28718    27400    25953    24605    23392    22322    21548 
   21223    21261    21462    21709    21968    22223    22415    22470 
   22342    22002    21486    20823    19962    18912    17748    16540 
   15410    14523    14026    13952    14177    14590    15124    15718 
   16345    16934    17358    17604    17757    17860    17836    17601 
   17200    16690    16066    15371    14747    14332    14141    14150 
   14412    14956    15695    16495    17246    17922    18593    19278 
   19897    20356    20614    20671    20468    19940    19128    18142 
   17085    16004    14945    14046    13444    13154    13127    13410 
   14056    14920    15773    16556    17328    18031    18492    18673 
   18717    18727    18677    18509    18261    18060    17952    17867 
   17788    17741    17668    17419    16935    16335    15763    15349 
   15223    15395    15642    15722    15674    15642    15570    15407 
   15304    15396    15705    16270    17111    18183    19392    20615 
   21762    22816    23755    24532    25097    25405    25432    25230 
   24938    24660    24383    24105    23954    24078    24435    24813 
   25046    25131    25155    25172    25123    24984    24808    24602 
   24343    24011    23612    23191    22729    22156    21440    20659 
   19980    19500    19167    18983    19045    19322    19730    20264 
   20849    21300    21506    21473    21254    20933    20667    20610 
   20768    21016    21261    21439    21485    21332    20973    20520 
   20159    19993    19951    19885    19695    19381    19008    18628 
   18314    18150    18127    18154    18204    18264    18249    18114 
   17933    17844    17969    18300    18648    18781    18658    18400 
   18068    17648    17161    16629    16065    15539    15186    15026 
   14963    14951    15002    15128    15345    15604    15795    15846 
   15734    15445    14987    14392    13690    12922    12152    11519 
   11126    10940    10924    11088    11379    11736    12201    12823 
   13621    14596    15695    16802    17801    18658    19421    20048 
   20410    20486    20362    20117    19809    19475    19153    18866 
   18608    18422    18405    18582    18868    19217    19684    20255 
   20808    21238    21540    21772    21914    21863    21604    21239 
   20848    20457    20137    19985    20058    20266    20424    20424 
   20239    19873    19368    18744    18056    17502    17224    17174 
   17282    17572    18112    18890    19788    20657    21413    22046 
   22569    23001    23355    23627    23857    24057    24165    24128 
   23986    23826    23697    23625    23599    23503    23241    22897 
   22578    22276    21976    21652    21254    20791    20335    19959 
   19685    19468    19325    19337    19539    19892    20348    20877 
   21393    21789    22015    22084    22027    21929    21807    21593 
   21273    20904    20472    19917    19234    18465    17691    16997 
   16456    16143    16060    16114    16197    16299    16510    16861 
   17275    17617    17761    17679    17397    16930    16353    15804 
   15360    15079    15097    15504    16175    16883    17524    18115 
   18663    19084    19259    19182    18954    18607    18130    17570 
   17022    16605    16397    16386    16507    16703    16915    17097 
   17250    17377    17494    17629    17749    17782    17667    17447 
   17261    17166    17112    17072    17078    17163    17284    17354 
   17340    17319    17423    17691    18088    18585    19151    19715 
   20204    20551    20668    20513    20123    19533    18769    17972 
   17359    17053    17018    17208    17666    18447    19477    20551 
   21492    22225    22734    23044    23190    23193    23116    23028 
   22896    22654    22335    21971    21587    21239    20884    20447 
   19975    19556    19198    18873    18586    18409    18353    18320 
   18241    18114    18006    17961    17851    17529    17093    16753 
   16590    16588    16769    17105    17518    18014    18654    19441 
   20237    20893    21419    21856    22125    22176    22065    21848 
   21547    21139    20595    19994    19449    18979    18530    18061 
   17662    17393    17182    17023    17012    17180    17444    17706 
   17965    18265    18563    18792    18906    18890    18821    18862 
   19040    19240    19446    19757    20204    20736    21300    21851 
   22322    22669    22896    23021    23062    22977    22689    22211 
   21640    21034    20421    19838    19323    18949    18738    18624 
   18543    18447    18324    18216    18122    17983    17799    17635 
   17496    17311    17077    16857    16690    16645    16768    17007 
   17271    17510    17751    17980    18108    18168    18274    18462 
   18704    18949    19145    19302    19445    19531    19492    19349 
   19124    18800    18403    17934    17344    16690    16131    15823 
   15823    16043    16347    16694    17091    17478    17755    17874 
   17864    17820    17810    17778    17643    17450    17258    17016 
   16680    16312    15992    15730    15519    15392    15398    15581 
   15955    16495    17147    17818    18401    18844    19171    19419 
   19557    19546    19446    19317    19152    18979    18836    18773 
   18867    19089    19345    19646    20002    20362    20690    21006 
   21350    21686    21946    22135    22276    22360    22404    22430 
   22449    22468    22496    22527    22553    22596    22752    23098 
   23553    23955    24233    24409    24493    24409    24046    23411 
   22643    21849    21045    20237    19457    18723    18079    17591 
   17262    17047    16908    16837    16846    16893    16885    16807 
   16734    16706    16692    16686    16707    16761    16837    16912 
