Origin Time       2025/01/13 21:19:00
Lat.              31.8
Long.             131.6
Depth. (km)       30
Mag.              6.9
Station Code      KMM014
Station Lat.      32.3961
Station Long.     130.8273
Station Height(m) 306
Record Time       2025/01/13 21:19:49
Sampling Freq(Hz) 100Hz
Duration Time(s)  102
Dir.              E-W
Scale Factor      7845(gal)/8223790
Max. Acc. (gal)   11.868
Last Correction   2025/01/13 21:19:49
Memo.             
[...]
    2774     2766     2776     2779     2764     2763     2771     2767 
    2771     2772     2766     2772     2781     2770     2759     2770 
    2771     2762     2772     2779     2766     2770     2778     2760 
    2758     2775     2779     2775     2766     2764     2774     2766 
    2759     2774     2776     2770     2774     2772     2767     2771 
    2768     2758     2768     2779     2766     2770     2785     2772 
    2758     2763     2774     2772     2768     2768     2775     2778 
    2768     2758     2762     2774     2781     2775     2772     2775 
    2766     2755     2767     2781     2779     2775     2764     2760 
    2771     2776     2775     2772     2772     2775     2772     2771 
    2782     2783     2783     2798     2803     2795     2791     2787 
    2781     2775     2762     2748     2733     2727     2740     2752 
    2771     2809     2832     2837     2839     2821     2816     2843 
    2847     2810     2781     2754     2701     2668     2686     2721 
    2748     2771     2783     2771     2755     2764     2801     2845 
    2864     2835     2778     2743     2755     2798     2844     2870 
    2848     2747     2592     2478     2447     2500     2673     2906 
    3075     3157     3153     3038     2891     2778     2671     2608 
    2628     2654     2629     2583     2558     2632     2844     3126 
    3380     3522     3518     3403     3213     2982     2794     2702 
    2704     2795     2905     2894     2725     2462     2218     2173 
    2409     2799     3195     3503     3654     3667     3605     3495 
    3370     3242     3009     2633     2255     2020     1973     2108 
    2419     2882     3389     3758     3889     3789     3477     3041 
    2637     2434     2551     2860     3022     2860     2477     2083 
    1867     1873     2034     2371     2901     3423     3690     3612 
    3299     2987     2816     2759     2814     2965     2997     2671 
    2076     1575     1463     1823     2548     3375     4006     4197 
    3954     3572     3129     2542     2052     1902     1979     2138 
    2300     2249     1810     1258     1254     2120     3449     4514 
    4800     4282     3333     2423     1935     1954     2226     2482 
    2590     2470     2174     1891     1710     1642     1852     2488 
    3331     3908     4008     3824     3487     3107     3049     3419 
    3750     3596     2921     2019     1458     1701     2586     3465 
    3990     4375     4684     4595     4068     3348     2466     1480 
     784      658      850     1020     1275     1807     2666     3863 
    4961     5242     4515     3339     2556     2454     2497     2131 
    1425      842      843     1638     2732     3133     2432     1213 
     386      405     1193     2377     3311     3701     3928     4143 
    4091     3735     3137     2508     2250     2362     2494     2497 
    2532     2891     3549     4252     5019     5759     6023     5690 
    5023     4228     3512     3045     2629     2035     1410      982 
     826      997     1634     2809     4090     4730     4621     4210 
    3673     3001     2378     2076     2223     2527     2432     1890 
    1460     1615     2270     2932     3211     3132     2866     2430 
    1865     1486     1615     2192     2821     3136     2970     2432 
    1896     1692     1922     2560     3458     4239     4564     4459 
    4191     3958     3631     3018     2493     2619     3192     3430 
    2994     2319     1777     1294     1050     1474     2502     3546 
    4180     4639     5213     5467     4931     3842     2535     1252 
     688     1170     1946     2396     2452     1985     1186      649 
     770     1520     2354     2728     2683     2423     1934     1321 
     889     1105     2388     4379     5875     6083     5435     4784 
    4380     3939     3213     2203     1204      716      936     1552 
    2107     2288     2065     1640     1382     1603     2165     2713 
    3029     3014     2856     2867     3111     3474     3920     4536 
    5163     5250     4464     3152     2081     1746     1865     1926 
    1892     2060     2655     3607     4390     4422     3746     2945 
    2432     2085     1586     1124     1190     1771     2527     3252 
    3865     4360     4621     4349     3480     2357     1439      973 
     835      814     1070     1939     3388     4839     5452     4858 
    3697     2911     2833     3231     3639     3746     3673     3640 
    3657     3487     2812     1671      668      332      623     1355 
    2297     3046     3435     3539     3380     2970     2444     2253 
    2721     3622     4542     4970     4484     3198     1651      571 
     346      676     1134     1520     1765     1872     1962     2370 
    3114     3568     3497     3339     3145     2431     1155      130 
     106     1038     2648     4517     5822     6068     5458     4410 
    3210     2115     1549     1686     2103     2459     2797     3075 
    3268     3762     4885     6203     6934     6716     5593     3744 
    1522     -403    -1354    -1243     -499      411     1266     2101 
    2801     2818     1979     1155     1351     2538     3790     4199 
    3808     3395     3307     3333     3276     3134     3161     3554 
    4217     4796     4629     3460     2104     1510     1815     2733 
    3889     4743     5058     4997     4583     3743     2554     1291 
     459      351      842     1564     2064     2292     2660     3377 
    4216     4839     5043     4638     3569     2245     1111      256 
    -303     -429       47      963     1854     2516     3059     3545 
    3908     3975     3790     3618     3296     2547     1763     1591 
    2361     3700     4607     4286     2770     1193      969     2347 
    4311     5544     5651     5300     4934     4594     4463     4216 
    3206     1806      868      423       89     -149       25      843 
    2187     3492     4059     3662     2573     1314      499      507 
     986     1047      573      510     1372     2602     3524     4118 
    4629     4986     4993     4625     4089     3856     4230     4892 
    5341     5445     5157     4364     3211     2014     1159     1028 
    1682     2832     3824     4072     3757     3341     2997     2706 
    2392     2027     1470      630      -98     -290      198     1327 
    2714     4004     5036     5559     5409     4608     3532     2821 
    2614     2623     2577     2359     2195     2312     2628     2785 
    2350     1521     1057     1406     2485     3685     4270     4040 
    3260     2550     2560     3005     2945     2126     1263     1167 
    1838     2619     3152     3609     4090     4522     4977     5317 
    5224     4650     3649     2466     1597     1177     1038     1053 
    1073     1215     1768     2583     3163     3217     2911     2587 
    2254     1665      849      229      459     1853     3711     4953 
    5274     5040     4749     4608     4374     3817     3019     2157 
    1486     1360     1900     2853     3873     4650     4868     4426 
    3627     2774     2046     1827     2344     3176     3766     3990 
    4064     4140     3987     3161     1626       78     -665     -387 
     375      723      355      -75      233     1404     2664     3126 
    2779     2242     2026     2274     2659     2729     2470     2361 
    2803     3395     3302     2438     1615     1584     2259     2948 
    3167     2930     2500     2208     2274     2578     2852     2976 
    2910     2708     2668     2930     3092     2722     1973     1571 
    2135     3449     4733     5401     5337     4961     4891     5227 
    5370     4838     3900     2975     2023      857     -533    -1807 
   -2184    -1102     1128     3601     5525     6616     6917     6450 
    5305     3854     2670     2111     2097     2465     3051     3422 
    3207     2632     2212     2231     2621     3033     3153     2995 
    2786     2612     2371     2118     2101     2455     2994     3287 
    3037     2349     1668     1495     1879     2462     2936     3103 
    3063     3037     2925     2698     2632     2817     2965     2675 
    1966     1314     1035     1080     1358     1941     2817     3667 
    4175     4106     3264     2035     1287     1294     1566     1652 
    1564     1634     2049     2551     2755     2565     2340     2596 
    3225     3501     3137     2614     2500     3026     4023     4909 
    5205     5031     4827     4839     5015     5186     5120     4627 
    3797     2886     2085     1534     1144      741      606     1027 
    1663     2215     2853     3669     4591     5427     5634     4727 
    2906     1081      175      251      737     1246     1599     1672 
    1470     1217     1323     2068     3300     4621     5656     6181 
    5998     4907     3244     2029     1911     2412     2708     2617 
    2451     2506     2847     3176     3046     2342     1642     1849 
    3060     4450     5242     5059     3932     2397     1104      248 
    -238     -272      356     1868     4128     6153     6849     6265 
    5254     4301     3408     2702     2533     3026     3596     3271 
    1921      334     -901    -1383     -826      232     1026     1664 
    2633     3796     4754     5494     5921     5614     4330     2478 
    1127      980     1647     2430     3021     3287     3107     2590 
    1927     1140      633     1198     2978     5258     6956     7134 
    5709     3589     1972     1420     1603     2037     2411     2457 
    2300     2363     2687     2910     2803     2467     2103     1898 
    1934     2073     2084     1948     1813     1848     2127     2488 
    2744     3060     3635     4382     5098     5562     5435     4448 
    2826     1283      492      731     1652     2485     2772     2613 
    2508     2890     3516     3890     3848     3491     3153     3009 
    2851     2613     2322     2053     2232     3042     3963     4368 
    4133     3642     3345     3462     3950     4297     3867     2655 
    1217      -47    -1057    -1487     -891      546     2095     3200 
    3769     4058     4422     4962     5385     5343     4756     3861 
    3095     2575     2030     1517     1395     1807     2577     3354 
    3936     4199     4017     3609     3261     2862     2274     1669 
    1285     1142     1233     1780     2762     3634     3942     3736 
    3157     2226     1300     1001     1594     2870     4507     5902 
    6041     4477     2000     -186    -1262     -885      585     2150 
    2990     3157     3036     2700     2344     2424     3015     3792 
    4515     4806     3986     2081      190     -502      301     1788 
    2913     3501     3998     4557     4891     4666     3843     2812 
    2161     2284     3194     4295     4707     4077     2685     1204 
     546     1050     1942     2461     2876     3694     4704     5182 
    4676     3493     2370     1964     2558     3551     3809     3073 
    2201     1732     1377     1081     1183     1578     1993     2596 
    3596     4729     5286     4788     3522     2126     1067      743 
    1333     2335     2998     3233     3539     4225     5012     5323 
    4706     3119     1318      398      581     1247     1853     2282 
    2659     3015     3192     3090     2764     2392     2065     1502 
     506     -294      -90     1004     2300     3329     3824     3681 
    3150     2751     2856     3195     3391     3622     3665     2793 
    1405      751     1228     2354     3645     4807     5335     4518 
    2457      367     -573      -97     1240     2466     2847     2496 
    2164     2378     2859     2970     2606     2307     2628     3620 
    4869     5856     6173     5687     4681     3866     3763     4004 
    3889     3281     2446     1622      965      714     1348     3013 
    4980     6295     6377     5117     3325     2386     2774     3608 
    3838     3173     1962      889      587     1254     2739     4590 
    6139     6845     6477     5524     5063     5552     6222     6131 
    5265     4081     2814     1687      891      517      737     1364 
    1719     1425      766      314      448     1188     2365     3634 
    4320     3875     2478      815     -437     -951    -1050    -1333 
   -1800    -1844    -1143      -75      827     1516     2315     3380 
    4460     4923     4089     2079     -214    -2207    -3399    -2767 
    -220     2658     4387     4900     5112     5653     6362     7115 
    7932     8336     7743     6238     4340     2218        4    -1691 
   -2562    -2936    -3045    -2951    -2691    -2126    -1271     -157 
    1568     3696     5054     4850     3202      762    -1232    -1674 
    -562     1283     2825     3491     3524     3260     2925     2767 
    2606     2242     1976     2000     2074     1942     1580     1232 
    1243     1618     1845     1690     1452     1235     1166     1607 
    2952     5637     9028    11452    12060    11001     8766     6049 
    3192      503    -1093     -870      724     2527     3661     3898 
    3582     3229     3095     3470     4639     6111     6975     7183 
    7341     7584     7631     7338     6498     5009     3326     1734 
      90    -1208    -1455     -594     1048     3084     5107     6947 
    8679    10629    12569    13351    12573    10848     8611     6265 
    4266     2574      932     -349     -731     -394       12      -72 
   -1216    -3636    -6558    -8727    -9644    -9671    -9386    -9084 
   -8398    -6848    -4749    -2631     -369     2382     5571     8538 
   10188    10003     8711     7555     7276     7651     7879     7387 
    6153     4739     3836     3366     2864     2529     2488     2170 
    1745     2093     3141     4228     5239     6269     7304     8368 
    8815     7564     4989     2648     1252      719     1011     1921 
    3083     4314     5432     6007     5795     5358     5290     5244 
    4650     3299     1242     -743    -1621    -1239     -353      238 
     292     -132     -469      433     2654     4806     6168     6947 
    7194     7157     6956     5952     3900     1572     -149     -886 
    -789     -373       49      675     1675     2587     2775     2536 
    2583     2859     3302     4112     4590     4059     3048     2019 
     901       39      -74      402     1038     1826     2852     3877 
    4731     5267     4949     3662     2214     1138      155     -878 
   -1767    -2481    -2818    -2242     -884      207      552      972 
    2165     3902     5748     6882     6380     4750     3373     2817 
    3105     4099     5024     5255     5386     6188     7160     7076 
    5614     3809     2906     3339     4295     4183     2590      621 
    -830    -1312     -753       81      697     1509     2556     3103 
    2759     1768      315    -1163    -1679     -909      446     1873 
    3226     4228     4818     5602     7109     8580     8642     7179 
    5159     3049     1039     -221     -638     -670     -121     1009 
    1927     2164     1734     1109     1156     2130     3717     5675 
    7469     8260     7901     7290     6934     6081     4217     1985 
     -55    -1769    -2597    -2161    -1112       76     2039     4787 
    6798     7249     6756     5610     3797     1884      464     -405 
    -789     -441      584     1499     1922     2180     2181     1748 
    1615     2505     4152     5841     6814     6439     4758     2686 
    1194      511      677     1675     2875     3699     3943     3208 
    1441     -228     -464      666     2270     3815     4672     4374 
    3703     3483     3262     2782     2725     3465     4768     5914 
    5842     4429     2832     2161     2704     4097     5491     5906 
    4968     3269     1471     -637    -3059    -4685    -4854    -4121 
   -2893    -1116      961     3150     5576     7816     9057     8992 
    7746     5829     3913     2466     2019     2423     2581     2269 
    2309     3225     4749     5593     4594     2768     2278     3473 
    4784     4403     1354    -3181    -6442    -7072    -5894    -4028 
   -1861      263     1776     2945     4534     6141     6573     5513 
    3640     1733      206    -1012    -2428    -4004    -4490    -3036 
    -473     2166     4638     6789     8787    10804    11700    10524 
    8132     5293     2285      290       -8      610     1521     2614 
    3667     4839     6366     7661     8041     7462     6150     4401 
    2813     2332     3109     3738     2980     1510      669       32 
   -1298    -2335    -2308    -1398     1231     5286     7800     7240 
    5204     3261     2007     1375       89    -2485    -5522    -8164 
   -9161    -7520    -4299    -1271     1242     4171     8083    11974 
   13986    13651    12193    10480     8634     6891     5173     3242 
    1975     2478     3817     3973     2768     1405      369      191 
    1553     3052     2647     1119      166     -314     -557     -299 
    -151     -469     -695     -896     -842      832     3844     5884 
    6183     5659     4357     2697     2496     3763     4388     3831 
    3227     2826     2262     1857     1829     1826     2222     3811 
    6126     8118     9494    10215    10129     9300     7855     5857 
    3696     1925      437    -1431    -3755    -5823    -7082    -7204 
   -5946    -3923    -1818      522     2587     3545     4170     5591 
    7655     9828    11708    12540    12087    11191    10145     8463 
    6511     4965     3588     2292     1572     1678     2567     3588 
    3828     3446     2948     2420     2172     1896      487    -1744 
   -3091    -2610     -454     2662     5682     7952     9423    10157 
   10102     9174     7460     5050     2285      105    -1086    -1800 
   -2093    -1595     -471      932     2528     4033     4900     4788 
    3650     1433    -1661    -4310    -5058    -4085    -2184      488 
    3586     6131     7344     7454     7186     6921     6930     7186 
    6866     5212     2575       40    -1358    -1124      199     1345 
    1331      -59    -2232    -4044    -4688    -4419    -3784    -2806 
   -1760    -1065     -287      841     1509     1154      508      519 
     810      519       66      238     1032     2411     4089     4959 
    4464     3464     3152     4017     5532     6401     5755     4056 
    2443     1628     1925     3343     4722     4749     3805     2691 
    1647     1254     1784     2639     3349     3769     3705     2995 
    2016     1961     3392     5331     6897     7823     7582     6049 
    3836     1463     -427     -835      444     2340     3572     3624 
    2826     1849     1202     1169     1775     2756     3990     5424 
    6489     6631     5964     5023     4510     4714     5051     5170 
    5360     5451     5080     4626     4426     4043     3215     2398 
    1922     1741     1883     2377     3029     3646     4321     5065 
    5471     5416     5290     5188     4974     4827     4831     4834 
    4865     4749     3935     2191       22    -1580    -1867     -658 
    1344     2602     2532     2272     2533     2720     2448     2016 
    1617     1464     1975     2694     2423     1078     -226     -610 
     292     2251     4198     4953     4257     2852     1556      521 
