Origin Time       2025/01/13 21:19:00
Lat.              31.8
Long.             131.6
Depth. (km)       30
Mag.              6.9
Station Code      KMM008
Station Lat.      32.6875
Station Long.     130.6598
Station Height(m) 3
Record Time       2025/01/13 21:19:57
Sampling Freq(Hz) 100Hz
Duration Time(s)  116
Dir.              E-W
Scale Factor      7845(gal)/8223790
Max. Acc. (gal)   25.683
Last Correction   2025/01/13 21:19:57
Memo.             
[...]
    2994     2550     2278     2187     2297     2637     3214     4004 
    4934     5922     6932     7901     8723     9300     9586     9598 
    9397     9042     8549     7902     7129     6261     5306     4302 
    3296     2358     1595     1084      845      843      973     1080 
    1046      846      533      205      -33      -90      110      610 
    1387     2358     3391     4375     5246     5949     6438     6697 
    6735     6546     6161     5644     5036     4368     3673     3001 
    2447     2162     2269     2785     3622     4656     5734     6675 
    7373     7815     8000     7894     7476     6798     5968     5090 
    4237     3423     2597     1698      729     -279    -1305    -2286 
   -3125    -3757    -4226    -4618    -5004    -5427    -5890    -6354 
   -6779    -7102    -7225    -7076    -6669    -6060    -5317    -4491 
   -3661    -2960    -2497    -2304    -2315    -2398    -2438    -2374 
   -2180    -1871    -1486    -1017     -427      297     1111     1910 
    2594     3160     3707     4329     5044     5748     6261     6473 
    6394     6124     5813     5618     5649     5919     6358     6853 
    7314     7690     7985     8255     8569     8951     9373     9786 
   10139    10378    10484    10473    10368    10157     9792     9240 
    8529     7734     6976     6397     6076     6010     6126     6299 
    6369     6230     5844     5193     4288     3230     2211     1414 
     951      846     1048     1467     2072     2902     3978     5266 
    6667     7950     8796     8997     8546     7545     6123     4423 
    2624      918     -558    -1771    -2743    -3523    -4148    -4630 
   -4969    -5186    -5356    -5559    -5852    -6254    -6710    -7109 
   -7339    -7354    -7182    -6902    -6617    -6381    -6181    -5952 
   -5591    -4999    -4099    -2890    -1444      118     1705     3265 
    4768     6176     7434     8499     9396    10181    10895    11587 
   12305    13089    13969    14953    15984    16957    17768    18342 
   18624    18592    18281    17744    16995    16039    14883    13500 
   11847     9948     7927     5957     4172     2652     1462      607 
      16     -383     -645     -849    -1081    -1441    -2018    -2812 
   -3761    -4777    -5736    -6497    -6939    -6948    -6457    -5439 
   -3885    -1863      456     2894     5346     7738     9975    11981 
   13680    14936    15634    15780    15402    14520    13230    11672 
    9976     8283     6744     5444     4380     3487     2685     1946 
    1302      774      356       43     -178     -309     -364     -398 
    -444     -531     -745    -1158    -1804    -2683    -3717    -4791 
   -5791    -6566    -6953    -6777    -5891    -4271    -2031      565 
    3206     5661     7835     9742    11434    12954    14328    15537 
   16492    17084    17265    17066    16528    15700    14646    13417 
   12078    10693     9317     7996     6714     5416     4012     2380 
     456    -1744    -4141    -6570    -8850   -10863   -12534   -13829 
  -14779   -15421   -15766   -15843   -15681   -15290   -14665   -13799 
  -12715   -11480   -10184    -8904    -7674    -6493    -5379    -4371 
   -3453    -2570    -1698     -864      -76      730     1613     2547 
    3519     4549     5601     6627     7597     8484     9304    10093 
   10800    11340    11713    11927    11961    11827    11560    11184 
   10744    10282     9795     9256     8694     8160     7723     7437 
    7329     7381     7561     7793     7969     8039     8025     7928 
    7712     7349     6845     6249     5607     4973     4421     4012 
    3792     3804     4067     4617     5491     6682     8113     9655 
   11128    12326    13111    13433    13296    12730    11830    10710 
    9455     8101     6662     5147     3531     1804       13    -1777 
   -3510    -5107    -6502    -7650    -8526    -9158    -9591    -9873 
  -10035   -10115   -10118   -10012    -9791    -9466    -9022    -8426 
   -7680    -6806    -5806    -4673    -3391    -1958     -441     1065 
    2497     3847     5115     6299     7430     8550     9598    10442 
   11009    11294    11350    11283    11186    11126    11119    11115 
   11025    10762    10262     9539     8672     7755     6853     6006 
    5189     4349     3477     2592     1710      868      135     -419 
    -746     -796     -535       29      870     1960     3256     4698 
    6207     7659     8896     9753    10075     9751     8779     7225 
    5204     2914      562    -1688    -3699    -5352    -6623    -7524 
   -8082    -8357    -8401    -8193    -7704    -6914    -5815    -4484 
   -3076    -1707     -454      600     1382     1827     1929     1725 
    1313      808      338       72      156      627     1455     2554 
    3771     4968     6043     6943     7697     8429     9238    10133 
   11044    11838    12394    12636    12528    12109    11462    10667 
    9838     9109     8591     8370     8503     9003     9821    10848 
   11967    13078    14099    14980    15730    16379    16970    17540 
   18094    18578    18897    18940    18605    17826    16598    14986 
   13107    11080     9004     6978     5080     3353     1806      425 
    -797    -1871    -2840    -3755    -4652    -5533    -6349    -7030 
   -7549    -7898    -8124    -8307    -8500    -8745    -9084    -9437 
   -9624    -9486    -8912    -7820    -6215    -4207    -1989      197 
    2088     3469     4225     4353     3937     3122     2115     1121 
     264     -421     -949    -1317    -1506    -1526    -1414    -1196 
    -868     -398      240     1015     1815     2500     2972     3196 
    3215     3122     3025     3009     3087     3265     3558     3927 
    4301     4645     4945     5189     5354     5410     5367     5259 
    5094     4874     4610     4270     3825     3304     2720     2068 
    1410      850      452      283      422      896     1653     2563 
    3453     4152     4549     4638     4510     4263     3986     3770 
    3711     3886     4322     4978     5773     6586     7267     7663 
    7669     7233     6399     5289     4070     2968     2138     1610 
    1362     1286     1231     1121      913      612      291       62 
      74      421     1101     2052     3167     4368     5603     6833 
    8047     9221    10320    11323    12204    12935    13452    13630 
   13381    12657    11446     9813     7896     5864     3869     2004 
     299    -1235    -2573    -3700    -4641    -5416    -6054    -6563 
   -6910    -7063    -7026    -6821    -6463    -6007    -5530    -5101 
   -4757    -4521    -4368    -4230    -4041    -3743    -3287    -2668 
   -1915    -1084     -233      607     1418     2203     2994     3815 
    4653     5463     6201     6822     7246     7400     7265     6876 
    6276     5513     4646     3701     2705     1715      749     -237 
   -1283    -2394    -3534    -4604    -5476    -6050    -6269    -6103 
   -5582    -4820    -3954    -3053    -2104    -1034      256     1861 
    3834     6116     8536    10906    13105    15029    16582    17718 
   18469    18879    18982    18840    18519    18033    17386    16586 
   15639    14602    13552    12564    11705    11006    10471    10093 
    9819     9578     9335     9074     8787     8438     7965     7306 
    6435     5336     4013     2515      909     -706    -2204    -3487 
   -4490    -5184    -5595    -5742    -5648    -5348    -4870    -4239 
   -3500    -2681    -1795     -886      -33      672     1144     1390 
    1487     1486     1395     1269     1188     1246     1559     2200 
    3159     4399     5867     7442     8950    10192    11028    11404 
   11314    10794     9934     8851     7636     6309     4896     3424 
    1888      290    -1351    -2988    -4567    -6043    -7369    -8475 
   -9290    -9792    -9996    -9925    -9644    -9212    -8673    -8063 
   -7362    -6539    -5563    -4368    -2953    -1416      179     1800 
    3408     4989     6531     8009     9424    10763    12001    13101 
   14008    14646    14943    14856    14355    13435    12123    10482 
    8608     6588     4507     2502      739     -654    -1606    -2120 
   -2286    -2212    -1980    -1687    -1428    -1213     -980     -668 
    -267      183      626     1013     1335     1611     1875     2145 
    2481     2976     3707     4676     5810     6999     8168     9252 
   10170    10855    11273    11456    11464    11365    11244    11176 
   11206    11337    11561    11881    12267    12671    13036    13279 
   13311    13028    12344    11219     9667     7766     5676     3589 
    1669        9    -1359    -2432    -3226    -3758    -4036    -4075 
   -3915    -3620    -3249    -2836    -2419    -2062    -1861    -1873 
   -2097    -2511    -3030    -3549    -3993    -4326    -4541    -4662 
   -4703    -4652    -4490    -4225    -3896    -3547    -3254    -3026 
   -2759    -2326    -1620     -611      610     1910     3137     4164 
    4942     5462     5786     6015     6193     6319     6377     6339 
    6214     6039     5841     5645     5474     5336     5235     5173 
    5147     5146     5152     5128     5003     4715     4263     3662 
    2972     2297     1768     1532     1730     2459     3707     5367 
    7284     9267    11137    12798    14215    15360    16227    16810 
   17076    16993    16522    15688    14600    13373    12112    10887 
    9726     8637     7592     6563     5526     4472     3424     2386 
    1337      295     -716    -1691    -2613    -3439    -4104    -4571 
   -4827    -4872    -4730    -4448    -4098    -3778    -3559    -3451 
   -3439    -3484    -3537    -3561    -3534    -3429    -3249    -3002 
   -2664    -2184    -1510     -627      463     1744     3136     4529 
    5846     7042     8033     8714     9059     9084     8784     8229 
    7523     6739     5961     5265     4662     4128     3619     3076 
    2444     1701      849      -71     -999    -1899    -2754    -3545 
   -4274    -4934    -5483    -5863    -6058    -6080    -5911    -5552 
   -5063    -4527    -3977    -3381    -2686    -1852     -861      280 
    1534     2843     4124     5296     6319     7191     7913     8475 
    8851     9026     8986     8765     8421     8001     7534     7047 
    6597     6223     5900     5634     5455     5337     5267     5239 
    5201     5092     4850     4426     3815     3055     2209     1363 
     598      -49     -579     -980    -1255    -1393    -1352    -1092 
    -568      252     1394     2826     4437     6106     7732     9220 
   10493    11504    12258    12792    13150    13393    13574    13732 
   13927    14204    14542    14881    15163    15342    15392    15317 
   15138    14859    14446    13873    13109    12110    10852     9343 
    7649     5880     4137     2489      976     -400    -1647    -2751 
   -3708    -4507    -5103    -5452    -5576    -5557    -5495    -5475 
   -5548    -5736    -6038    -6447    -6936    -7464    -7989    -8471 
   -8854    -9099    -9177    -9053    -8692    -8093    -7268    -6239 
   -5050    -3769    -2467    -1208      -45      992     1914     2740 
    3515     4278     5020     5695     6247     6646     6882     6944 
    6820     6531     6142     5713     5274     4870     4548     4328 
    4182     4060     3925     3701     3314     2763     2091     1385 
     797      502      642     1324     2586     4375     6516     8743 
   10814    12594    14029    15132    15962    16586    17065    17447 
   17737    17899    17863    17568    17010    16221    15248    14134 
   12943    11712    10434     9123     7835     6632     5597     4808 
    4266     3936     3828     3894     4045     4224     4384     4503 
    4585     4631     4657     4665     4584     4320     3786     2914 
    1680      125    -1686    -3704    -5836    -7951    -9948   -11723 
  -13142   -14053   -14311   -13891   -12874   -11333    -9396    -7268 
   -5112    -3069    -1291      128     1109     1611     1683     1405 
     857      124     -700    -1541    -2317    -2971    -3531    -4064 
   -4626    -5279    -6054    -6914    -7793    -8583    -9159    -9439 
   -9386    -8989    -8272    -7300    -6141    -4865    -3551    -2255 
   -1004      194     1320     2340     3234     3991     4598     5043 
    5340     5529     5657     5752     5813     5819     5761     5611 
    5346     4989     4619     4301     4104     4090     4275     4625 
    5094     5652     6277     6945     7636     8349     9062     9737 
   10369    10951    11457    11859    12123    12210    12104    11799 
   11308    10670     9930     9139     8329     7511     6700     5931 
    5274     4781     4484     4414     4576     4935     5459     6103 
    6817     7584     8383     9178     9948    10674    11350    11998 
   12653    13340    14058    14759    15372    15816    16024    15946 
   15569    14924    14050    12999    11817    10547     9252     8012 
    6859     5796     4820     3933     3134     2423     1792     1229 
     739      345      140      268      795     1733     3083     4743 
    6565     8465    10359    12109    13590    14760    15569    15934 
   15876    15525    15002    14408    13815    13230    12615    11925 
   11080     9999     8668     7176     5668     4263     3011     1907 
     901      -70    -1102    -2265    -3566    -5013    -6612    -8347 
  -10220   -12226   -14337   -16476   -18528   -20389   -21940   -23068 
  -23684   -23707   -23118   -21960   -20298   -18246   -15959   -13603 
  -11357    -9391    -7801    -6610    -5803    -5316    -5046    -4904 
   -4769    -4523    -4125    -3573    -2813    -1744     -318     1425 
    3423     5618     7940    10274    12475    14412    15944    16958 
   17412    17286    16586    15350    13644    11583     9321     6988 
    4658     2365      170    -1834    -3538    -4830    -5638    -5946 
   -5755    -5057    -3861    -2200     -155     2141     4548     6898 
    9005    10752    12067    12926    13394    13601    13676    13748 
   13933    14299    14779    15267    15680    15869    15691    15090 
   14067    12661    10925     8897     6651     4303     1993     -178 
   -2173    -3979    -5602    -7040    -8259    -9224    -9934   -10422 
  -10709   -10818   -10764   -10524   -10041    -9266    -8212    -6944 
   -5552    -4132    -2755    -1493     -459      252      595      550 
     148     -567    -1518    -2577    -3581    -4357    -4760    -4758 
   -4399    -3727    -2728    -1377      315     2343     4698     7298 
   10038    12757    15282    17521    19438    21010    22221    23051 
   23461    23372    22744    21610    20008    18022    15790    13410 
   10971     8602     6426     4498     2825     1391      199     -683 
   -1147    -1098     -495      631     2219     4186     6439     8880 
   11385    13822    16092    18104    19755    21001    21825    22237 
   22345    22249    21987    21625    21186    20555    19592    18204 
   16285    13756    10608     6939     3082     -522    -3690    -6492 
   -8947   -11071   -12961   -14665   -16186   -17491   -18428   -18848 
  -18762   -18297   -17639   -16897   -16108   -15352   -14731   -14231 
  -13776   -13292   -12712   -12046   -11364   -10720   -10147    -9671 
   -9277    -8905    -8455    -7823    -6960    -5872    -4573    -3032 
   -1247      715     2826     5017     7188     9296    11246    12969 
   14488    15817    16938    17855    18592    19111    19360    19278 
   18750    17734    16287    14480    12403    10123     7685     5182 
    2745      460    -1607    -3352    -4661    -5481    -5760    -5493 
   -4737    -3568    -2122     -573      946     2332     3483     4365 
    5034     5494     5715     5763     5663     5368     4920     4340 
    3601     2731     1753      695     -361    -1340    -2176    -2787 
   -3156    -3327    -3294    -3056    -2698    -2281    -1794    -1221 
    -542      237     1082     1991     2947     3902     4807     5570 
    6066     6232     6088     5671     5022     4236     3429     2679 
    2045     1582     1310     1235     1314     1514     1880     2473 
    3276     4259     5389     6592     7761     8823     9695    10282 
   10571    10589    10393    10079     9732     9441     9310     9382 
    9625     9923    10142    10207    10050     9655     9063     8334 
    7557     6820     6169     5622     5170     4779     4434     4124 
    3807     3466     3132     2818     2546     2335     2193     2112 
    2081     2033     1867     1534     1035      379     -373    -1166 
   -1935    -2614    -3167    -3535    -3650    -3460    -2953    -2203 
   -1293     -279      777     1825     2844     3831     4807     5792 
    6767     7676     8465     9093     9505     9670     9594     9301 
    8831     8221     7503     6713     5915     5123     4283     3387 
    2448     1494      585     -199     -789    -1112    -1140     -897 
    -434      143      685     1111     1385     1495     1499     1494 
    1560     1799     2262     2940     3811     4788     5711     6477 
    7057     7456     7717     7911     8066     8210     8383     8575 
    8756     8915     9055     9167     9243     9282     9293     9290 
    9294     9304     9310     9321     9301     9166     8846     8318 
    7581     6646     5564     4406     3238     2118     1075      114 
    -746    -1514    -2214    -2855    -3446    -4028    -4618    -5202 
   -5782    -6363    -6925    -7434    -7885    -8253    -8511    -8644 
   -8645    -8490    -8139    -7543    -6675    -5524    -4093    -2447 
    -731      900     2336     3504     4349     4849     5051     5046 
    4908     4666     4348     4001     3635     3233     2790     2282 
    1675      997      309     -342     -869    -1142    -1082     -683 
      24      978     2089     3273     4487     5732     7014     8318 
    9624    10918    12166    13298    14251    14958    15372    15485 
   15315    14866    14138    13127    11844    10361     8781     7202 
    5711     4378     3254     2386     1768     1372     1183     1182 
    1355     1719     2282     3030     3939     4962     6041     7122 
    8128     8964     9547     9802     9687     9196     8334     7119 
    5609     3894     2065      178    -1709    -3527    -5190    -6606 
   -7700    -8419    -8729    -8630    -8167    -7392    -6373    -5189 
   -3912    -2629    -1441     -422      365      901     1202     1274 
    1121      762      222     -449    -1198    -1961    -2671    -3292 
   -3785    -4114    -4318    -4482    -4657    -4874    -5127    -5346 
   -5448    -5378    -5078    -4511    -3692    -2662    -1460     -125 
    1287     2717     4072     5259     6243     7032     7636     8124 
    8571     9045     9622    10334    11175    12133    13188    14281 
   15321    16225    16939    17431    17663    17583    17154    16370 
   15232    13811    12218    10550     8919     7452     6239     5337 
    4801     4641     4808     5248     5908     6723     7636     8553 
    9373    10054    10550    10779    10719    10384     9801     9015 
    8068     6999     5863     4702     3537     2408     1362      427 
    -349     -920    -1271    -1402    -1300     -989     -537        4 
     556     1009     1294     1350     1128      641      -79     -988 
