Origin Time       2025/01/13 21:19:00
Lat.              31.8
Long.             131.6
Depth. (km)       30
Mag.              6.9
Station Code      KMM002
Station Lat.      33.0189
Station Long.     130.6846
Station Height(m) 33
Record Time       2025/01/13 21:20:00
Sampling Freq(Hz) 100Hz
Duration Time(s)  123
Dir.              E-W
Scale Factor      7845(gal)/8223790
Max. Acc. (gal)   12.598
Last Correction   2025/01/13 21:20:00
Memo.             
[...]
    2425     1989     1579     1444     1675     2119     2547     2822 
    2974     3148     3458     3892     4356     4739     4914     4806 
    4506     4240     4163     4217     4243     4159     4036     3964 
    3902     3740     3400     2844     2139     1489     1094      993 
    1059     1182     1383     1772     2404     3258     4284     5364 
    6266     6759     6733     6280     5618     4947     4386     3983 
    3684     3368     2984     2646     2540     2748     3171     3612 
    3897     3906     3607     3076     2490     2087     2061     2407 
    2936     3437     3786     3981     4048     4014     3932     3816 
    3593     3229     2816     2554     2597     2907     3295     3559 
    3595     3460     3318     3299     3426     3581     3589     3387 
    3105     2960     3055     3314     3555     3588     3273     2682 
    2101     1773     1710     1787     1880     1931     1984     2138 
    2452     2863     3167     3204     3014     2809     2810     3009 
    3188     3207     3042     2710     2322     2042     1992     2207 
    2629     3105     3442     3524     3438     3376     3375     3327 
    3214     3063     2857     2693     2771     3171     3757     4280 
    4521     4415     4050     3592     3249     3140     3168     3117 
    2905     2666     2606     2848     3323     3777     3919     3654 
    3125     2590     2254     2197     2386     2713     3084     3456 
    3808     4159     4576     5107     5686     6106     6131     5678 
    4833     3794     2832     2162     1817     1637     1474     1314 
    1220     1298     1674     2362     3183     3844     4174     4241 
    4259     4415     4777     5252     5618     5667     5359     4799 
    4136     3565     3218     3049     2934     2832     2798     2945 
    3376     4072     4889     5597     5940     5802     5298     4693 
    4259     4190     4517     5030     5395     5466     5341     5194 
    5143     5198     5204     4896     4112     2994     1863      992 
     545      483      579      638      612      562      606      799 
    1086     1379     1593     1651     1549     1345     1058      677 
     241     -180     -523     -731     -804     -753     -585     -390 
    -309     -376     -460     -394     -112      344      889     1429 
    1868     2108     2118     1964     1749     1567     1468     1475 
    1594     1800     2034     2258     2470     2664     2849     3084 
    3451     3948     4482     4931     5224     5373     5433     5460 
    5497     5555     5624     5684     5741     5815     5890     5938 
    5984     5989     5834     5471     4969     4449     3997     3597 
    3210     2825     2475     2232     2161     2262     2431     2493 
    2317     1894     1355      899      641      584      680      831 
     974     1144     1447     1981     2737     3546     4152     4352 
    4085     3470     2758     2223     2038     2141     2336     2515 
    2678     2899     3350     4125     5034     5767     6122     6054 
    5647     5082     4558     4172     3906     3700     3511     3369 
    3335     3397     3477     3514     3449     3246     2968     2735 
    2659     2813     3150     3516     3758     3819     3705     3457 
    3138     2806     2497     2236     2066     2053     2246     2662 
    3285     4032     4743     5289     5657     5907     6070     6172 
    6268     6385     6512     6613     6639     6571     6448     6319 
    6200     6065     5915     5771     5638     5557     5541     5524 
    5452     5336     5211     5108     5023     4927     4788     4575 
    4283     3917     3539     3258     3092     2984     2906     2818 
    2718     2656     2637     2621     2582     2498     2311     1969 
    1501     1001      546      184      -27      -40      187      700 
    1463     2307     3056     3639     4058     4299     4369     4324 
    4178     3888     3472     3069     2852     2880     3090     3361 
    3574     3663     3661     3619     3557     3530     3562     3561 
    3439     3221     2949     2640     2362     2223     2278     2509 
    2812     3045     3141     3140     3105     3044     2913     2655 
    2239     1682     1012      240     -584    -1386    -2166    -2955 
   -3689    -4249    -4552    -4580    -4384    -4056    -3696    -3353 
   -2997    -2544    -1927    -1127     -211      700     1537     2281 
    2905     3392     3763     4041     4213     4256     4198     4113 
    4067     4097     4202     4369     4594     4903     5336     5904 
    6577     7265     7828     8121     8037     7561     6810     5995 
    5286     4703     4180     3665     3171     2806     2656     2679 
    2749     2748     2650     2512     2382     2307     2384     2720 
    3314     4024     4716     5347     5869     6204     6305     6178 
    5811     5169     4245     3134     2070     1337     1062     1186 
    1563     2004     2351     2548     2664     2809     3026     3261 
    3395     3335     3109     2820     2600     2566     2720     2938 
    3088     3149     3214     3411     3834     4482     5229     5841 
    6124     6111     5958     5760     5557     5401     5250     4996 
    4631     4256     4037     4114     4509     5123     5771     6227 
    6405     6424     6438     6504     6600     6667     6627     6409 
    6014     5551     5193     5008     4869     4587     4043     3249 
    2390     1740     1491     1652     2079     2585     3018     3348 
    3613     3805     3883     3824     3604     3230     2829     2616 
    2720     3149     3855     4710     5514     6080     6293     6151 
    5751     5161     4396     3492     2533     1640      916      448 
     333      650     1335     2157     2843     3160     2983     2370 
    1509      562     -352    -1163    -1827    -2293    -2504    -2428 
   -2068    -1532    -1000     -633     -544     -769    -1206    -1668 
   -2038    -2292    -2436    -2473    -2349    -1973    -1310     -436 
     477     1259     1803     2047     2003     1798     1533     1240 
     947      638      317       67      -47      -13      152      406 
     685      976     1368     1954     2714     3568     4421     5175 
    5765     6189     6523     6852     7188     7497     7805     8191 
    8718     9414    10269    11184    12000    12567    12823    12784 
   12486    11973    11303    10524     9672     8810     8059     7524 
    7273     7342     7657     8033     8310     8392     8247     7881 
    7260     6328     5112     3746     2431     1348      610      205 
      10      -99     -190     -292     -391     -471     -572     -764 
   -1057    -1345    -1505    -1501    -1320     -915     -309      407 
    1129     1760     2247     2581     2772     2886     3010     3203 
    3465     3770     4098     4386     4568     4584     4376     3983 
    3510     2983     2390     1800     1350     1127     1150     1432 
    1922     2448     2794     2845     2660     2367     2065     1810 
    1606     1408     1235     1174     1263     1533     2033     2706 
    3404     4024     4538     4920     5121     5159     5098     4942 
    4617     4067     3334     2596     2042     1759     1711     1771 
    1799     1761     1728     1821     2108     2511     2921     3276 
    3527     3716     3964     4328     4768     5223     5628     5919 
    6081     6133     6089     5948     5680     5256     4703     4093 
    3481     2921     2498     2268     2189     2172     2143     2058 
    1948     1931     2095     2409     2791     3136     3326     3298 
    3075     2721     2309     1885     1490     1127      772      490 
     400      552      915     1398     1876     2209     2280     2079 
    1690     1206      739      384      175      118      180      322 
     506      675      826      974     1042      940      679      303 
     -75     -267     -121      405     1235     2177     3063     3827 
    4461     4927     5130     5001     4572     3935     3268     2790 
    2623     2789     3275     4016     4891     5756     6531     7165 
    7593     7736     7526     7002     6345     5710     5186     4866 
    4838     5173     5854     6744     7666     8488     9121     9483 
    9493     9132     8460     7562     6544     5525     4591     3804 
    3281     3130     3343     3821     4388     4837     5062     5090 
    4990     4800     4536     4172     3677     3067     2353     1526 
     643     -225    -1034    -1729    -2290    -2743    -3084    -3280 
   -3302    -3168    -2899    -2516    -2041    -1502     -942     -400 
      45      334      510      697     1003     1507     2266     3202 
    4140     4986     5709     6230     6486     6494     6277     5891 
    5493     5300     5471     5995     6718     7501     8255     8896 
    9383     9718     9865     9726     9227     8349     7160     5827 
    4541     3429     2508     1730     1109      627      180     -248 
    -591     -841    -1020    -1152    -1269    -1336    -1283    -1070 
    -669      -97      544     1146     1655     2041     2303     2509 
    2733     2960     3130     3234     3295     3318     3330     3399 
    3551     3765     3983     4135     4180     4153     4032     3728 
    3246     2679     2085     1509     1026      715      607      696 
     923     1185     1404     1518     1470     1229      819      299 
    -253     -770    -1233    -1665    -2062    -2362    -2463    -2268 
   -1750     -972      -37      928     1854     2728     3541     4244 
    4758     5063     5216     5283     5325     5381     5447     5522 
    5629     5787     6018     6349     6762     7187     7545     7749 
    7744     7550     7203     6751     6251     5744     5278     4896 
    4615     4467     4479     4652     4950     5270     5468     5460 
    5223     4762     4144     3497     2914     2450     2161     2070 
    2168     2494     3118     4010     5011     5910     6559     6912 
    7024     6964     6750     6394     5934     5421     4922     4503 
    4198     4005     3900     3838     3782     3763     3855     4070 
    4341     4584     4710     4662     4459     4170     3898     3719 
    3620     3527     3381     3154     2857     2512     2103     1602 
    1012      349     -356    -1024    -1517    -1729    -1657    -1399 
   -1112     -930     -877     -881     -862     -770     -606     -387 
    -137      118      384      680      992     1281     1509     1686 
    1833     1915     1911     1880     1863     1857     1877     1948 
    2083     2277     2505     2709     2782     2674     2413     2046 
    1690     1482     1436     1493     1603     1703     1755     1773 
    1786     1802     1791     1709     1539     1332     1217     1296 
    1606     2164     2860     3528     4098     4550     4853     5020 
    5089     5067     4954     4743     4456     4185     4040     4072 
    4276     4614     4988     5301     5556     5834     6192     6617 
    7033     7348     7520     7604     7713     7925     8241     8603 
    8920     9076     8988     8649     8131     7526     6903     6286 
    5664     5051     4499     4062     3817     3824     4054     4434 
    4874     5277     5597     5821     5922     5849     5553     5053 
    4394     3622     2817     2064     1394      804      263     -256 
    -724    -1101    -1398    -1665    -1939    -2209    -2421    -2500 
   -2380    -2070    -1641    -1196     -815     -492     -171      182 
     561      961     1378     1803     2204     2558     2817     2917 
    2845     2633     2323     1999     1765     1702     1811     2039 
    2301     2532     2731     2945     3200     3481     3777     4066 
    4324     4565     4826     5130     5476     5817     6060     6176 
    6222     6257     6305     6380     6480     6588     6650     6615 
    6450     6166     5817     5463     5147     4895     4706     4553 
    4417     4301     4244     4278     4378     4488     4590     4657 
    4664     4598     4456     4266     4051     3817     3611     3488 
    3460     3519     3658     3852     4064     4267     4423     4484 
    4413     4198     3831     3299     2606     1807     1028      409 
      22     -117      -36      202      548     1009     1605     2296 
    2995     3609     4062     4329     4428     4384     4233     4040 
    3850     3645     3393     3105     2837     2648     2581     2652 
    2832     3028     3114     2990     2651     2222     1838     1568 
    1426     1410     1506     1692     1957     2312     2725     3134 
    3518     3874     4205     4499     4688     4696     4506     4163 
    3761     3327     2821     2192     1440      637     -108     -696 
   -1051    -1178    -1155    -1039     -872     -676     -475     -313 
    -216     -217     -364     -642     -994    -1372    -1709    -1949 
   -2054    -2025    -1906    -1741    -1572    -1458    -1432    -1509 
   -1683    -1884    -2047    -2137    -2120    -2008    -1823    -1586 
   -1336    -1094     -855     -629     -452     -361     -359     -406 
    -469     -561     -708     -909    -1098    -1181    -1069     -727 
    -193      476     1227     2015     2817     3619     4421     5225 
    6018     6798     7589     8365     9088     9761    10393    10983 
   11518    11971    12352    12675    12938    13170    13404    13635 
   13849    14052    14276    14554    14886    15260    15643    15988 
   16254    16389    16376    16276    16119    15876    15499    14971 
   14312    13539    12642    11670    10692     9728     8793     7897 
    7063     6347     5773     5321     4972     4677     4390     4075 
    3686     3223     2718     2226     1849     1609     1471     1435 
    1443     1483     1613     1773     1857     1833     1690     1445 
    1144      850      635      554      652      945     1402     1984 
    2612     3202     3693     4029     4174     4106     3794     3252 
    2525     1674      765     -175    -1147    -2107    -2941    -3539 
   -3866    -3927    -3728    -3316    -2782    -2226    -1706    -1236 
    -854     -604     -494     -488     -521     -545     -540     -449 
    -263      -21      236      434      487      361       36     -484 
   -1151    -1899    -2636    -3261    -3666    -3790    -3649    -3292 
   -2805    -2261    -1687    -1150     -726     -414     -214     -187 
    -375     -804    -1451    -2189    -2891    -3527    -4071    -4410 
   -4488    -4341    -3924    -3173    -2142     -900      477     1904 
    3330     4711     6007     7172     8113     8820     9337     9647 
    9778     9795     9707     9532     9293     8985     8645     8351 
    8186     8194     8344     8569     8779     8889     8865     8692 
    8380     7966     7411     6678     5872     5090     4330     3646 
    3092     2633     2209     1759     1244      672       67     -480 
    -868    -1055    -1047     -854     -506      -22      602     1368 
    2239     3141     3985     4714     5309     5744     5954     5888 
    5528     4930     4214     3457     2727     2120     1687     1474 
    1556     1946     2604     3507     4572     5656     6654     7511 
    8152     8500     8541     8302     7821     7226     6696     6324 
    6108     5995     5953     6019     6208     6442     6582     6543 
    6331     5992     5586     5198     4908     4723     4625     4623 
    4743     4992     5351     5745     6083     6300     6338     6145 
    5738     5190     4576     3952     3387     2978     2767     2744 
    2933     3346     3950     4661     5373     6006     6515     6880 
    7114     7207     7167     7020     6805     6624     6547     6548 
    6588     6609     6570     6454     6228     5888     5458     4977 
    4511     4089     3674     3267     2862     2425     1962     1501 
    1031      529       29     -387     -692     -922    -1105    -1246 
   -1335    -1364    -1354    -1364    -1475    -1702    -2008    -2377 
   -2771    -3127    -3433    -3715    -3962    -4128    -4214    -4287 
   -4355    -4375    -4352    -4267    -4060    -3700    -3199    -2610 
   -1991    -1395     -920     -611     -444     -463     -672    -1017 
   -1487    -2062    -2690    -3330    -3924    -4401    -4741    -4957 
   -5073    -5130    -5154    -5107    -4909    -4517    -3897    -3049 
   -2088    -1140     -230      611     1298     1771     2047     2200 
    2330     2554     2963     3608     4529     5718     7095     8586 
   10135    11664    13062    14208    14982    15287    15098    14478 
   13540    12397    11159     9921     8739     7680     6799     6129 
    5707     5551     5590     5749     5945     6087     6147     6158 
    6160     6164     6166     6142     6056     5929     5833     5813 
    5880     6031     6245     6497     6737     6887     6903     6771 
    6477     6043     5537     5017     4529     4121     3839     3717 
    3781     4025     4418     4893     5350     5691     5857     5802 
    5522     5062     4464     3788     3118     2559     2189     2026 
    2077     2332     2729     3180     3631     4012     4241     4301 
    4217     4014     3730     3389     3006     2623     2309     2093 
    1944     1853     1865     2022     2299     2612     2887     3090 
    3206     3249     3257     3256     3234     3191     3130     3026 
    2853     2617     2334     2031     1732     1371      878      264 
    -384     -985    -1491    -1857    -2079    -2230    -2349    -2444 
   -2583    -2785    -2956    -3036    -3030    -2920    -2639    -2165 
   -1495     -639      378     1541     2787     3973     4982     5753 
    6246     6463     6446     6274     6065     5896     5792     5728 
    5706     5787     5981     6216     6436     6610     6714     6752 
    6741     6694     6609     6493     6359     6228     6142     6153 
    6266     6436     6619     6779     6918     7086     7306     7543 
    7724     7804     7798     7708     7508     7203     6820     6404 
    5995     5591     5190     4831     4572     4442     4422     4471 
    4546     4614     4642     4603     4482     4270     3960     3537 
    3002     2405     1794     1200      689      305       47      -72 
     -36      141      383      584      689      689      546      240 
    -168     -587     -966    -1285    -1518    -1669    -1780    -1854 
   -1819    -1630    -1332     -997     -672     -345       22      477 
    1038     1657     2304     2995     3712     4426     5143     5832 
    6440     6943     7311     7527     7578     7470     7233     6925 
    6569     6135     5647     5140     4614     4051     3468     2902 
    2369     1860     1370      877      368     -113     -494     -773 
    -976    -1082    -1108    -1104    -1074    -1036    -1019     -962 
    -795     -531     -203      157      463      629      639      492 
     203     -170     -571     -927    -1136    -1132     -912     -486 
     112      801     1521     2200     2763     3214     3539     3673 
    3677     3649     3541     3380     3315     3379     3526     3765 
    4074     4376     4646     4873     5004     5043     5059     5049 
    4968     4870     4837     4887     5032     5232     5359     5368 
    5321     5217     5031     4816     4648     4519     4374     4213 
