Origin Time       2025/01/13 21:19:00
Lat.              31.8
Long.             131.6
Depth. (km)       30
Mag.              6.9
Station Code      KMM016
Station Lat.      32.1965
Station Long.     130.7757
Station Height(m) 151
Record Time       2025/01/13 21:19:47
Sampling Freq(Hz) 100Hz
Duration Time(s)  147
Dir.              U-D
Scale Factor      7845(gal)/8223790
Max. Acc. (gal)   12.188
Last Correction   2025/01/13 21:19:47
Memo.             
[...]
   -3642    -3608    -4043    -4735    -5340    -5579    -5391    -4912 
   -4297    -3622    -2998    -2606    -2581    -2943    -3582    -4261 
   -4684    -4630    -4104    -3411    -2997    -3164    -3917    -4950 
   -5811    -6151    -5891    -5240    -4571    -4172    -4116    -4329 
   -4652    -4880    -4884    -4688    -4423    -4213    -4112    -4114 
   -4162    -4159    -4087    -4075    -4320    -4860    -5447    -5767 
   -5710    -5364    -4942    -4757    -5070    -5844    -6691    -7148 
   -7032    -6519    -5895    -5341    -4936    -4734    -4730    -4780 
   -4687    -4426    -4213    -4349    -4892    -5498    -5714    -5375 
   -4665    -3946    -3535    -3595    -4045    -4557    -4747    -4577 
   -4405    -4606    -5197    -5841    -6183    -6110    -5699    -5109 
   -4579    -4294    -4229    -4263    -4336    -4409    -4455    -4521 
   -4681    -4950    -5240    -5421    -5395    -5115    -4579    -3925 
   -3435    -3353    -3697    -4261    -4806    -5220    -5466    -5464 
   -5204    -4850    -4558    -4326    -4158    -4149    -4351    -4675 
   -4911    -4889    -4629    -4288    -4048    -4025    -4216    -4436 
   -4411    -4041    -3470    -2955    -2733    -2986    -3708    -4664 
   -5475    -5834    -5718    -5327    -4838    -4386    -4113    -4120 
   -4432    -4999    -5655    -6181    -6362    -6052    -5309    -4450 
   -3829    -3603    -3735    -4089    -4468    -4704    -4711    -4476 
   -4055    -3555    -3102    -2806    -2758    -2972    -3358    -3753 
   -4064    -4372    -4820    -5428    -6042    -6465    -6582    -6390 
   -5976    -5509    -5119    -4780    -4392    -4016    -3883    -4179 
   -4861    -5722    -6477    -6879    -6812    -6268    -5371    -4430 
   -3786    -3626    -3950    -4596    -5227    -5524    -5482    -5398 
   -5544    -5971    -6489    -6758    -6443    -5435    -3952    -2488 
   -1541    -1366    -1908    -2870    -3883    -4703    -5255    -5617 
   -5908    -6079    -5850    -5023    -3777    -2571    -1819    -1706 
   -2280    -3461    -4941    -6239    -6955    -6897    -6119    -4905 
   -3720    -3028    -3022    -3562    -4333    -5036    -5495    -5742 
   -5994    -6428    -6955    -7225    -6901    -5938    -4650    -3515 
   -2889    -2829    -3137    -3558    -3923    -4193    -4436    -4708 
   -5003    -5331    -5688    -5927    -5877    -5535    -5069    -4687 
   -4468    -4338    -4260    -4401    -5012    -6165    -7616    -8857 
   -9306    -8645    -7026    -5038    -3460    -2893    -3406    -4450 
   -5143    -4837    -3504    -1674      -99      560       25    -1525 
   -3464    -4963    -5536    -5319    -4815    -4450    -4405    -4726 
   -5298    -5686    -5402    -4428    -3245    -2416    -2180    -2413 
   -2901    -3549    -4290    -4922    -5158    -4893    -4291    -3580 
   -2992    -2852    -3422    -4668    -6216    -7530    -8187    -8075 
   -7373    -6432    -5618    -5116    -4899    -4842    -4757    -4456 
   -3924    -3384    -3123    -3327    -4033    -5107    -6241    -7060 
   -7264    -6735    -5636    -4347    -3280    -2714    -2704    -3123 
   -3753    -4330    -4704    -4927    -5121    -5298    -5409    -5460 
   -5520    -5606    -5633    -5489    -5123    -4583    -3986    -3496 
   -3330    -3635    -4248    -4768    -4951    -4912    -4918    -5067 
   -5242    -5278    -5128    -4800    -4276    -3596    -2937    -2558 
   -2674    -3362    -4492    -5657    -6265    -5846    -4386    -2436 
    -886     -461    -1324    -3009    -4706    -5707    -5692    -4828 
   -3678    -2844    -2682    -3295    -4564    -6218    -7896    -9161 
   -9634    -9205    -8098    -6832    -5984    -5838    -6311    -7138 
   -7958    -8392    -8203    -7337    -5942    -4414    -3159    -2324 
   -1885    -1809    -2054    -2543    -3121    -3574    -3804    -3847 
   -3759    -3642    -3667    -3893    -4170    -4314    -4303    -4286 
   -4391    -4548    -4560    -4357    -4021    -3605    -3113    -2678 
   -2592    -3133    -4360    -5957    -7342    -8028    -7904    -7225 
   -6404    -5778    -5466    -5382    -5346    -5175    -4747    -4044 
   -3164    -2266    -1549    -1217    -1397    -2108    -3276    -4671 
   -5961    -6913    -7434    -7511    -7252    -6864    -6465    -5984 
   -5360    -4704    -4194    -3892    -3766    -3829    -4175    -4837 
   -5563    -5864    -5436    -4511    -3653    -3265    -3447    -4175 
   -5350    -6656    -7568    -7626    -6762    -5324    -3883    -3018 
   -3096    -4063    -5417    -6442    -6550    -5566    -3755    -1703 
    -186       67    -1190    -3484    -5863    -7472    -7902    -7215 
   -5915    -4707    -4083    -4158    -4676    -5147    -5142    -4526 
   -3497    -2500    -2025    -2376    -3499    -4993    -6295    -6889 
   -6573    -5610    -4598    -4055    -4140    -4685    -5402    -6031 
   -6320    -6130    -5580    -4916    -4314    -3935    -3950    -4407 
   -5088    -5516    -5306    -4498    -3510    -2856    -2905    -3709 
   -4985    -6247    -7040    -7096    -6463    -5493    -4637    -4176 
   -4052    -3920    -3435    -2524    -1495     -884    -1117    -2222 
   -3778    -5165    -5918    -5964    -5543    -4981    -4541    -4398 
   -4553    -4781    -4762    -4314    -3582    -2948    -2721    -2917 
   -3333    -3753    -4098    -4409    -4745    -5151    -5578    -5849 
   -5814    -5487    -5039    -4671    -4542    -4776    -5462    -6550 
   -7753    -8630    -8815    -8141    -6766    -5202    -4039    -3597 
   -3862    -4581    -5398    -5999    -6211    -6045    -5667    -5354 
   -5341    -5638    -6014    -6208    -6072    -5524    -4577    -3438 
   -2420    -1768    -1579    -1846    -2467    -3221    -3785    -3916 
   -3612    -3119    -2744    -2632    -2766    -3098    -3615    -4253 
   -4837    -5112    -4915    -4340    -3743    -3503    -3709    -4120 
   -4382    -4279    -3850    -3375    -3233    -3595    -4152    -4317 
   -3761    -2713    -1838    -1836    -3021    -5136    -7429    -8946 
   -9045    -7789    -5845    -4085    -3168    -3249    -3932    -4522 
   -4434    -3559    -2319    -1397    -1374    -2450    -4328    -6374 
   -7950    -8676    -8549    -7889    -7164    -6782    -6866    -7165 
   -7284    -7015    -6448    -5826    -5393    -5275    -5401    -5583 
   -5607    -5251    -4411    -3241    -2101    -1405    -1422    -2153 
   -3343    -4603    -5562    -6007    -5927    -5445    -4749    -4050 
   -3555    -3449    -3759    -4249    -4515    -4283    -3651    -3033 
   -2830    -3213    -4081    -5136    -5987    -6335    -6138    -5622 
   -5140    -4961    -5166    -5714    -6500    -7272    -7657    -7375 
   -6435    -5181    -4121    -3643    -3816    -4438    -5175    -5718 
   -5944    -5973    -6042    -6331    -6841    -7402    -7720    -7443 
   -6280    -4206    -1661      549     1679     1431       68    -1756 
   -3349    -4271    -4426    -4018    -3442    -3122    -3381    -4348 
   -5871    -7495    -8650    -8927    -8262    -6951    -5471    -4263 
   -3596    -3487    -3709    -3943    -3966    -3788    -3647    -3882 
   -4661    -5794    -6831    -7341    -7134    -6372    -5432    -4668 
   -4253    -4187    -4345    -4569    -4699    -4618    -4322    -3960 
   -3739    -3786    -4041    -4268    -4282    -4147    -4108    -4324 
   -4710    -5070    -5314    -5509    -5773    -6096    -6293    -6185 
   -5746    -5076    -4325    -3649    -3180    -3025    -3241    -3798 
   -4607    -5491    -6157    -6353    -6073    -5549    -5077    -4908 
   -5165    -5769    -6531    -7252    -7777    -7987    -7875    -7569 
   -7242    -6987    -6768    -6462    -5977    -5312    -4483    -3546 
   -2698    -2223    -2303    -2870    -3674    -4492    -5251    -5917 
   -6361    -6439    -6126    -5445    -4460    -3333    -2263    -1370 
    -730     -444     -556     -943    -1394    -1772    -2081    -2388 
   -2768    -3335    -4189    -5251    -6189    -6597    -6215    -4986 
   -3106    -1097      306      538     -484    -2354    -4422    -6102 
   -7075    -7384    -7356    -7396    -7766    -8448    -9144    -9428 
   -8974    -7689    -5725    -3478    -1462     -155       82     -827 
   -2548    -4449    -5886    -6471    -6251    -5638    -5096    -4878 
   -4942    -4995    -4737    -4082    -3164    -2123     -990      135 
     872      688     -661    -2866    -5260    -7230    -8419    -8752 
   -8392    -7626    -6752    -6003    -5444    -4946    -4303    -3466 
   -2631    -2093    -2068    -2602    -3589    -4754    -5728    -6216 
   -6135    -5582    -4742    -3898    -3368    -3369    -3971    -5055 
   -6403    -7809    -9020    -9674    -9514    -8594    -7229    -5826 
   -4700    -4020    -3848    -4164    -4745    -5198    -5236    -4837 
   -4226    -3801    -3842    -4288    -4873    -5317    -5332    -4665 
   -3261    -1366      557     1980     2446     1736       35    -2157 
   -4333    -6177    -7547    -8441    -8922    -9023    -8758    -8117 
   -7060    -5649    -4099    -2660    -1526     -855     -730    -1112 
   -1853    -2766    -3740    -4812    -6068    -7439    -8640    -9275 
   -9024    -7821    -6007    -4190    -2837    -2087    -1915    -2326 
   -3277    -4646    -6188    -7496    -8156    -7997    -7145    -5904 
   -4633    -3627    -3065    -3022    -3429    -4029    -4544    -4789 
   -4700    -4341    -3906    -3607    -3564    -3765    -4077    -4353 
   -4550    -4635    -4448    -3809    -2793    -1764    -1142    -1131 
   -1678    -2589    -3677    -4861    -6077    -7160    -7947    -8387 
   -8405    -7874    -6812    -5494    -4310    -3505    -3125    -3157 
   -3589    -4322    -5162    -5913    -6423    -6647    -6702    -6822 
   -7150    -7593    -7908    -7898    -7554    -7038    -6538    -6112 
   -5682    -5171    -4607    -4087    -3724    -3508    -3268    -2868 
   -2323    -1703    -1066     -538     -376     -841    -1961    -3487 
   -4995    -6048    -6366    -5973    -5154    -4282    -3643    -3364 
   -3445    -3812    -4307    -4743    -5053    -5362    -5945    -7063 
   -8739   -10689   -12474   -13671   -14015   -13524   -12492   -11310 
  -10204    -9144    -7986    -6693    -5378    -4248    -3597    -3685 
   -4573    -6039    -7572    -8556    -8580    -7569    -5780    -3681 
   -1779     -527     -226     -861    -2054    -3279    -4155    -4610 
   -4783    -4842    -4903    -5015    -5201    -5456    -5655    -5522 
   -4803    -3484    -1871     -468      249       91     -731    -1760 
   -2583    -3021    -3121    -3040    -2943    -2964    -3217    -3662 
   -4001    -3888    -3265    -2398    -1625    -1162    -1098    -1491 
   -2388    -3622    -4815    -5676    -6168    -6362    -6269    -5861 
   -5209    -4483    -3843    -3407    -3229    -3250    -3261    -2965 
   -2247    -1401     -982    -1328    -2218    -3061    -3412    -3192 
   -2567    -1763    -1061     -864    -1564    -3231    -5549    -8052 
  -10255   -11712   -12102   -11318    -9612    -7566    -5705    -4260 
   -3331    -2961    -2997    -3013    -2528    -1350      306     1927 
    2910     2841     1719     -130    -2297    -4383    -6046    -7088 
   -7568    -7790    -8104    -8683    -9417    -9985   -10127    -9834 
   -9305    -8802    -8553    -8568    -8546    -8091    -7053    -5772 
   -5004    -5390    -6918    -8891   -10373   -10710    -9894    -8521 
   -7354    -6893    -7203    -8027    -8999    -9795   -10081    -9551 
   -8144    -6123    -3901    -1915     -541       13     -287    -1402 
   -3168    -5086    -6420    -6639    -5759    -4271    -2812    -1887 
   -1802    -2631    -4141    -5873    -7291    -7936    -7618    -6507 
   -5088    -3920    -3272    -2974    -2686    -2300    -2008    -2029 
   -2388    -2944    -3434    -3507    -2920    -1796     -638       33 
       8     -638    -1637    -2631    -3322    -3604    -3538    -3196 
   -2625    -1949    -1429    -1317    -1614    -2020    -2211    -2146 
   -2111    -2477    -3461    -5013    -6775    -8226    -8985    -9062 
   -8775    -8425    -8087    -7584    -6559    -4739    -2209      521 
    2668     3518     2772      703    -1898    -4000    -4942    -4846 
   -4403    -4374    -5227    -6872    -8590    -9367    -8496    -6011 
   -2671      430     2419     2941     2087      226    -2072    -4274 
   -6165    -7884    -9653   -11502   -13216   -14427   -14705   -13768 
  -11716    -8995    -6184    -3882    -2635    -2764    -4153    -6241 
   -8295    -9664    -9848    -8662    -6473    -4186    -2860    -3165 
   -4995    -7483    -9494   -10223    -9526    -7933    -6396    -5740 
   -6131    -7105    -8050    -8494    -8195    -7295    -6243    -5528 
   -5440    -5899    -6447    -6501    -5656    -3967    -2030     -616 
    -149     -527    -1277    -1769    -1561     -629      672     1804 
    2224     1533     -417    -3426    -6890    -9965   -11894   -12291 
  -11211    -9104    -6685    -4600    -3109    -2118    -1420     -777 
      31     1080     2207     3094     3376     2706      930    -1629 
   -4179    -5902    -6407    -5796    -4459    -2840    -1347     -225 
     468      708      437     -325    -1505    -3048    -4868    -6843 
   -8812   -10528   -11718   -12237   -12177   -11797   -11314   -10771 
  -10138    -9450    -8725    -7780    -6293    -4168    -1782      256 
    1533     1929     1486      345    -1263    -3042    -4671    -5915 
   -6741    -7357    -8087    -9196   -10795   -12808   -14914   -16622 
  -17467   -17135   -15579   -13178   -10658    -8664    -7426    -6710 
   -6075    -5201    -4094    -3033    -2336    -2137    -2326    -2677 
   -2992    -3121    -2953    -2587    -2342    -2547    -3338    -4495 
   -5524    -6026    -5983    -5732    -5715    -6199    -7146    -8260 
   -9104    -9301    -8694    -7410    -5836    -4446    -3520    -2986 
   -2531    -1869     -913      184     1206     2066     2767     3296 
    3565     3373     2515      936    -1189    -3484    -5381    -6212 
   -5459    -3109      122     3126     5065     5726     5447     4881 
    4614     4796     5155     5236     4698     3523     1995      510 
    -600    -1300    -1830    -2431    -3169    -4013    -4938    -5891 
   -6664    -6964    -6689    -6030    -5325    -4881    -4892    -5320 
   -5884    -6286    -6408    -6277    -6065    -5994    -6161    -6531 
   -6980    -7335    -7565    -7892    -8559    -9491   -10363   -10991 
  -11419   -11713   -11908   -12105   -12405   -12808   -13193   -13359 
  -13111   -12328   -11040    -9478    -7994    -6878    -6231    -5888 
   -5510    -4912    -4291    -4156    -5054    -7165    -9983   -12480 
  -13733   -13373   -11658    -9363    -7447    -6543    -6654    -7209 
   -7425    -6721    -4901    -2215      562     2435     2778     1642 
    -395    -2511    -3915    -4162    -3365    -2149    -1293    -1347 
   -2408    -4056    -5549    -6276    -6052    -4982    -3267    -1223 
     672     1941     2365     2128     1799     2058     3167     4676 
    5644     5190     3080      -91    -3310    -5714    -6845    -6704 
   -5768    -4725    -3994    -3555    -3072    -2114     -444     1746 
    3852     5117     5050     3705     1649     -369    -1757    -2263 
   -2053    -1615    -1521    -2114    -3311    -4598    -5335    -5304 
   -4838    -4409    -4201    -4082    -3869    -3572    -3350    -3303 
   -3431    -3773    -4332    -4977    -5617    -6357    -7322    -8380 
   -9239    -9830   -10359   -10939   -11434   -11743   -11904   -11998 
  -12117   -12298   -12417   -12237   -11588   -10453    -8951    -7341 
   -5945    -4989    -4525    -4472    -4675    -4912    -5008    -4982 
   -4962    -4986    -5016    -5053    -5135    -5255    -5370    -5548 
   -5967    -6677    -7489    -8105    -8267    -7867    -7080    -6255 
   -5628    -5235    -4977    -4661    -4086    -3233    -2331    -1732 
   -1640    -2022    -2737    -3677    -4776    -5883    -6739    -7227 
   -7400    -7261    -6779    -5980    -4916    -3717    -2508    -1225 
     247     1799     3057     3591     3121     1649     -544    -3030 
   -5394    -7249    -8280    -8422    -7946    -7240    -6588    -6146 
   -5923    -5745    -5374    -4727    -4033    -3796    -4365    -5539 
   -6785    -7755    -8348    -8406    -7749    -6447    -4857    -3361 
   -2181    -1351     -805     -571     -841    -1822    -3497    -5545 
   -7410    -8560    -8797    -8307    -7464    -6563    -5643    -4585 
   -3372    -2097     -853      232      949     1081      446     -954 
   -2833    -4900    -7055    -9058   -10426   -10895   -10635    -9855 
   -8579    -6853    -4893    -3072    -1867    -1625    -2381    -3932 
   -5919    -7832    -9146    -9521    -8924    -7631    -6235    -5437 
   -5603    -6481    -7415    -7828    -7528    -6691    -5643    -4689 
   -4023    -3654    -3574    -3881    -4534    -5151    -5143    -4098 
   -2146       47     1601     1840      648    -1513    -3855    -5676 
   -6664    -6889    -6550    -5802    -4719    -3430    -2149     -989 
      54      985     1784     2317     2277     1435      -54    -1668 
   -2852    -3312    -3069    -2363    -1482     -645      -28      252 
     159     -261     -878    -1566    -2258    -3021    -4009    -5250 
   -6529    -7537    -8140    -8514    -8847    -9073    -8966    -8341 
   -7167    -5595    -3871    -2259    -1075     -654    -1183    -2586 
   -4529    -6547    -8259    -9440   -10030   -10181   -10149   -10072 
   -9968    -9855    -9699    -9319    -8536    -7438    -6411    -5919 
   -6270    -7466    -9270   -11400   -13587   -15437   -16472   -16379 
  -15198   -13261   -10956    -8604    -6466    -4733    -3500    -2789 
   -2451    -2199    -1849    -1418    -1038     -899    -1077    -1449 
   -1834    -2118    -2317    -2542    -2849    -3188    -3431    -3438 
   -3118    -2502    -1798    -1285    -1062     -973     -816     -598 
    -565     -978    -1879    -3087    -4409    -5680    -6650    -7055 
   -6898    -6465    -6057    -5799    -5670    -5549    -5251    -4635 
   -3707    -2581    -1512     -816     -654    -1007    -1746    -2678 
   -3623    -4468    -5158    -5676    -5944    -5834    -5273    -4266 
   -2956    -1599     -430      353      554       89     -940    -2231 
   -3342    -3950    -4032    -3781    -3439    -3154    -2901    -2614 
   -2365    -2239    -2227    -2305    -2525    -2967    -3686    -4657 
   -5701    -6592    -7180    -7466    -7576    -7611    -7577    -7504 
   -7452    -7415    -7335    -7176    -6986    -6825    -6709    -6656 
   -6697    -6767    -6679    -6265    -5503    -4557    -3708    -3177 
   -3044    -3254    -3655    -4017    -4163    -4098    -4040    -4247 
   -4814    -5653    -6574    -7349    -7854    -8159    -8428    -8741 
   -9055    -9232    -9053    -8314    -6999    -5347    -3713    -2397 
   -1606    -1404    -1641    -2096    -2625    -3181    -3801    -4549 
   -5402    -6281    -7080    -7597    -7601    -6945    -5645    -3921 
   -2085     -388      980     1865     2160     1858     1093       55 
   -1086    -2196    -3160    -3946    -4629    -5323    -6018    -6523 
   -6629    -6301    -5667    -4918    -4249    -3916    -4201    -5197 
   -6628    -7978    -8904    -9439    -9783   -10061   -10257   -10247 
   -9926    -9294    -8421    -7403    -6374    -5412    -4469    -3503 
