Origin Time       2025/01/13 21:19:00
Lat.              31.8
Long.             131.6
Depth. (km)       30
Mag.              6.9
Station Code      KMM001
Station Lat.      33.1211
Station Long.     131.0689
Station Height(m) 430
Record Time       2025/01/13 21:19:58
Sampling Freq(Hz) 100Hz
Duration Time(s)  122
Dir.              N-S
Scale Factor      7845(gal)/8223790
Max. Acc. (gal)   6.203
Last Correction   2025/01/13 21:19:58
Memo.             
[...]
    5975     6130     6250     6281     6189     6008     5772     5536 
    5383     5340     5390     5512     5653     5761     5817     5807 
    5744     5670     5605     5540     5445     5308     5144     4985 
    4862     4795     4812     4946     5175     5428     5655     5844 
    5946     5915     5784     5643     5537     5471     5474     5599 
    5844     6112     6299     6334     6219     6003     5755     5572 
    5528     5555     5502     5313     5012     4631     4237     3932 
    3815     3909     4105     4245     4264     4182     4014     3785 
    3568     3397     3199     2924     2643     2470     2485     2698 
    3056     3485     3902     4212     4375     4453     4537     4693 
    4922     5174     5386     5475     5390     5167     4888     4608 
    4340     4074     3823     3630     3511     3470     3551     3825 
    4288     4870     5487     6034     6415     6581     6554     6415 
    6234     6070     6011     6095     6272     6465     6578     6565 
    6446     6246     6004     5792     5648     5570     5536     5508 
    5422     5250     5058     4965     5008     5185     5471     5764 
    5985     6112     6116     6031     5942     5881     5845     5827 
    5779     5586     5192     4700     4259     3954     3888     4149 
    4672     5317     6004     6631     7068     7245     7163     6837 
    6278     5543     4710     3829     2997     2343     1892     1624 
    1537     1610     1810     2133     2567     3092     3667     4190 
    4575     4788     4791     4596     4267     3825     3321     2810 
    2296     1813     1428     1196     1221     1570     2193     3006 
    3881     4654     5204     5441     5381     5161     4885     4592 
    4322     4108     3960     3844     3717     3545     3319     3107 
    2992     3037     3280     3670     4079     4414     4634     4719 
    4700     4629     4542     4496     4526     4584     4622     4638 
    4639     4671     4823     5150     5637     6203     6720     7092 
    7248     7138     6795     6313     5784     5246     4707     4224 
    3894     3743     3762     4023     4571     5371     6327     7312 
    8194     8814     9061     8969     8673     8313     7950     7634 
    7400     7209     7009     6802     6625     6577     6741     7128 
    7704     8356     8938     9408     9711     9791     9701     9493 
    9166     8770     8349     7866     7283     6615     5871     5070 
    4266     3547     2994     2654     2573     2727     3041     3473 
    3978     4500     4970     5319     5508     5522     5397     5197 
    4980     4795     4672     4569     4386     4031     3488     2843 
    2232     1850     1854     2249     2920     3700     4414     4909 
    5090     4947     4546     3994     3443     3029     2836     2910 
    3213     3645     4102     4456     4654     4762     4868     5047 
    5381     5876     6459     7021     7449     7699     7761     7623 
    7326     6902     6327     5624     4880     4179     3659     3457 
    3597     4028     4652     5341     5991     6521     6921     7248 
    7511     7654     7639     7458     7136     6735     6327     5949 
    5617     5346     5171     5120     5174     5282     5367     5355 
    5197     4911     4594     4336     4186     4180     4321     4563 
    4831     5024     5112     5138     5115     5047     4995     4982 
    4977     4957     4873     4672     4372     3979     3474     2929 
    2484     2220     2153     2300     2674     3223     3808     4267 
    4507     4473     4197     3770     3262     2721     2196     1713 
    1312     1046      953     1044     1312     1757     2357     3013 
    3622     4151     4602     4977     5305     5652     6070     6511 
    6845     6980     6871     6516     5971     5351     4781     4347 
    4064     3904     3838     3821     3808     3757     3667     3569 
    3476     3410     3424     3597     3964     4492     5089     5618 
    5961     6085     6025     5841     5648     5560     5616     5767 
    5910     5935     5798     5526     5196     4909     4750     4760 
    4915     5135     5335     5479     5557     5576     5568     5557 
    5567     5603     5636     5676     5788     5999     6286     6629 
    6997     7339     7659     7997     8318     8522     8505     8203 
    7600     6763     5856     5074     4571     4405     4496     4679 
    4799     4749     4521     4222     3983     3898     4008     4290 
    4671     5049     5306     5373     5255     4973     4568     4149 
    3801     3528     3370     3402     3619     4037     4712     5591 
    6527     7365     7974     8297     8347     8187     7943     7731 
    7620     7645     7778     7965     8187     8410     8534     8496 
    8341     8133     7906     7720     7677     7842     8189     8625 
    9027     9282     9285     9007     8523     7913     7254     6655 
    6134     5625     5103     4580     4074     3631     3369     3418 
    3789     4361     5012     5621     6042     6196     6129     5921 
    5617     5250     4865     4492     4175     3936     3744     3574 
    3416     3226     2960     2629     2273     1926     1634     1470 
    1486     1688     2060     2570     3200     3892     4564     5173 
    5683     6073     6335     6448     6388     6137     5701     5103 
    4417     3743     3149     2667     2336     2138     1996     1845 
    1651     1404     1112      805      513      251       -1     -244 
    -421     -490     -437     -270       -8      341      780     1267 
    1788     2350     2910     3420     3890     4369     4892     5444 
    5991     6475     6801     6880     6700     6296     5734     5127 
    4587     4209     4068     4166     4398     4671     4923     5057 
    4982     4723     4382     4060     3854     3832     4020     4419 
    4976     5572     6129     6650     7138     7599     8051     8472 
    8799     8964     8964     8851     8644     8322     7913     7452 
    6991     6608     6335     6203     6259     6451     6669     6836 
    6878     6745     6444     6043     5651     5328     5063     4853 
    4692     4585     4573     4691     4988     5490     6135     6829 
    7511     8077     8411     8468     8282     7947     7569     7195 
    6831     6498     6224     5981     5724     5451     5212     5047 
    4950     4912     4936     4958     4930     4854     4730     4560 
    4363     4153     3935     3720     3500     3241     2910     2471 
    1911     1302      761      359      144      149      338      643 
     965     1204     1347     1431     1502     1653     1948     2357 
    2840     3341     3788     4168     4530     4920     5347     5806 
    6261     6633     6841     6876     6772     6573     6353     6201 
    6204     6374     6623     6856     7020     7063     6974     6840 
    6775     6853     7069     7369     7690     7950     8024     7879 
    7557     7065     6435     5761     5136     4653     4363     4256 
    4328     4564     4887     5220     5553     5850     6062     6172 
    6193     6156     6075     5948     5780     5599     5421     5240 
    5065     4912     4789     4710     4692     4719     4777     4870 
    4974     5062     5117     5127     5089     5007     4855     4637 
    4382     4114     3893     3777     3789     3910     4082     4244 
    4342     4314     4139     3865     3545     3252     3068     3044 
    3199     3523     3931     4297     4527     4590     4509     4357 
    4230     4195     4268     4403     4519     4569     4563     4522 
    4498     4575     4811     5165     5555     5907     6164     6332 
    6432     6451     6396     6316     6253     6214     6191     6187 
    6193     6153     6034     5844     5583     5296     5065     4931 
    4900     4974     5085     5119     4992     4695     4270     3773 
    3285     2916     2705     2606     2579     2617     2705     2825 
    2964     3140     3379     3703     4120     4581     5054     5513 
    5890     6142     6326     6523     6816     7261     7816     8387 
    8878     9173     9208     9027     8688     8252     7801     7350 
    6894     6424     5934     5433     4970     4621     4440     4452 
    4635     4915     5196     5397     5466     5404     5271     5152 
    5113     5171     5313     5536     5814     6076     6272     6397 
    6428     6357     6215     6026     5841     5734     5740     5865 
    6111     6426     6728     6932     6972     6847     6585     6241 
    5900     5621     5414     5278     5178     5076     4959     4818 
    4665     4561     4553     4648     4819     5039     5297     5606 
    5961     6318     6606     6747     6712     6500     6118     5634 
    5155     4757     4492     4386     4415     4557     4769     4993 
    5193     5344     5416     5360     5140     4752     4241     3674 
    3118     2646     2324     2158     2093     2080     2084     2108 
    2149     2224     2403     2700     3045     3346     3510     3489 
    3303     2994     2670     2444     2324     2297     2351     2421 
    2496     2596     2667     2694     2705     2690     2689     2748 
    2901     3175     3555     4005     4476     4885     5189     5386 
    5454     5397     5231     4969     4684     4455     4325     4329 
    4456     4699     5036     5405     5790     6212     6642     7051 
    7431     7758     8000     8118     8120     8027     7852     7646 
    7437     7222     7037     6916     6872     6925     7047     7222 
    7461     7692     7862     7958     7938     7804     7578     7294 
    7013     6763     6523     6257     5910     5498     5089     4765 
    4621     4687     4923     5254     5551     5688     5632     5428 
    5193     5001     4892     4918     5073     5290     5501     5648 
    5726     5751     5728     5659     5543     5381     5131     4756 
    4294     3782     3246     2736     2285     1912     1628     1418 
    1279     1201     1194     1285     1495     1858     2376     2987 
    3604     4136     4518     4698     4654     4456     4197     3947 
    3753     3600     3438     3295     3258     3302     3392     3557 
    3724     3809     3790     3619     3288     2826     2249     1602 
     949      333     -217     -665     -980    -1151    -1152     -982 
    -688     -276      233      756     1243     1690     2108     2517 
    2945     3407     3883     4309     4592     4714     4702     4580 
    4446     4392     4419     4521     4661     4739     4687     4529 
    4311     4056     3790     3528     3258     2979     2704     2504 
    2485     2701     3144     3800     4646     5618     6617     7561 
    8402     9108     9660    10052    10274    10318    10180     9903 
    9536     9117     8700     8341     8073     7905     7821     7778 
    7747     7743     7782     7866     7993     8189     8445     8685 
    8834     8885     8849     8754     8687     8685     8723     8780 
    8815     8762     8556     8155     7592     6945     6272     5655 
    5189     4889     4733     4716     4801     4938     5124     5348 
    5590     5867     6212     6643     7121     7593     8006     8299 
    8436     8391     8158     7786     7375     6999     6767     6777 
    7024     7420     7844     8154     8257     8144     7809     7276 
    6593     5776     4842     3832     2791     1804     1004      490 
     294      383      668     1040     1418     1761     2069     2373 
    2713     3111     3578     4086     4598     5086     5502     5783 
    5917     5952     5952     5977     6057     6196     6370     6488 
    6480     6331     6012     5589     5213     4924     4772     4770 
    4747     4596     4302     3840     3311     2853     2505     2309 
    2284     2347     2450     2579     2744     2982     3314     3719 
    4139     4450     4538     4399     4095     3730     3426     3288 
    3377     3657     4005     4299     4444     4386     4162     3839 
    3484     3176     2938     2743     2567     2401     2251     2131 
    2056     2068     2209     2490     2880     3322     3773     4186 
    4486     4654     4730     4758     4796     4885     5016     5162 
    5292     5366     5373     5314     5227     5134     4999     4793 
    4534     4239     3939     3716     3647     3758     4009     4330 
    4660     4938     5140     5292     5440     5630     5861     6107 
    6359     6590     6775     6930     7103     7330     7585     7800 
    7944     7997     7952     7871     7800     7776     7847     7985 
    8121     8189     8110     7859     7458     6947     6381     5823 
    5366     5071     4936     4965     5147     5464     5927     6505 
    7118     7685     8077     8168     7967     7561     7029     6486 
    6069     5840     5759     5776     5809     5798     5767     5738 
    5730     5780     5864     5922     5921     5861     5815     5849 
    5976     6212     6543     6875     7060     7037     6853     6561 
    6208     5825     5445     5117     4826     4565     4365     4206 
    4035     3809     3497     3110     2708     2382     2180     2127 
    2251     2501     2803     3106     3383     3650     3933     4261 
    4677     5190     5755     6312     6783     7098     7199     7052 
    6685     6191     5702     5298     4974     4673     4290     3736 
    3034     2276     1551      965      564      294       78     -155 
    -454     -811    -1154    -1394    -1485    -1425    -1235     -970 
    -679     -365      -17      375      818     1316     1838     2308 
    2686     2987     3261     3599     4071     4683     5408     6188 
    6928     7564     8055     8365     8502     8494     8394     8268 
    8179     8151     8179     8248     8324     8365     8363     8306 
    8186     8016     7827     7668     7572     7534     7564     7636 
    7688     7678     7577     7356     7033     6655     6259     5891 
    5609     5448     5413     5497     5661     5840     5972     6037 
    6052     6077     6191     6430     6767     7150     7477     7627 
    7558     7292     6906     6515     6173     5887     5634     5332 
    4930     4440     3912     3427     3051     2778     2566     2377 
    2199     2057     1979     1987     2092     2259     2435     2581 
    2693     2802     2936     3123     3389     3723     4068     4376 
    4619     4781     4864     4868     4803     4684     4519     4297 
    4047     3788     3505     3219     2959     2745     2612     2571 
    2606     2687     2775     2859     2970     3121     3334     3626 
    3952     4286     4625     4942     5227     5486     5692     5807 
    5806     5702     5518     5290     5085     4954     4893     4866 
    4860     4873     4870     4818     4729     4615     4471     4324 
    4168     3996     3851     3773     3754     3800     3919     4086 
    4282     4476     4657     4834     4953     4963     4908     4795 
    4567     4249     3894     3541     3246     3057     2984     3021 
    3138     3291     3422     3497     3541     3619     3802     4117 
    4537     5035     5566     6042     6421     6706     6893     6988 
    7045     7103     7203     7411     7732     8125     8552     8969 
    9336     9633     9861    10053    10264    10511    10783    11048 
   11245    11315    11213    10930    10519    10037     9535     9063 
    8676     8388     8186     8050     7963     7908     7890     7911 
    7948     7975     7944     7828     7649     7429     7163     6864 
    6529     6112     5582     4942     4233     3520     2859     2309 
    1918     1683     1584     1617     1741     1891     2026     2118 
    2155     2203     2349     2619     2983     3400     3786     4055 
    4189     4222     4205     4205     4271     4395     4533     4612 
    4577     4428     4221     4032     3925     3924     3994     4102 
    4210     4290     4371     4511     4720     4995     5306     5586 
    5780     5853     5791     5644     5470     5300     5139     4974 
    4756     4448     4083     3719     3404     3186     3079     3065 
    3119     3217     3325     3412     3464     3464     3404     3311 
    3241     3242     3322     3466     3638     3770     3790     3657 
    3402     3111     2895     2851     3010     3338     3730     4045 
    4195     4164     3978     3715     3478     3302     3173     3069 
    2948     2794     2635     2492     2396     2398     2498     2662 
    2847     3011     3152     3300     3485     3719     3997     4287 
    4561     4791     4942     4985     4900     4693     4398     4079 
    3813     3661     3642     3720     3840     3962     4064     4129 
    4158     4189     4245     4328     4438     4584     4781     5053 
    5383     5755     6151     6532     6859     7119     7338     7538 
    7712     7857     7983     8090     8155     8183     8209     8280 
    8409     8588     8806     9018     9184     9288     9319     9293 
    9243     9163     9024     8812     8503     8105     7686     7325 
    7090     7018     7065     7148     7177     7088     6887     6635 
    6415     6307     6316     6413     6551     6623     6558     6369 
    6087     5768     5487     5282     5154     5090     5073     5078 
    5088     5124     5228     5398     5587     5753     5840     5790 
    5589     5274     4934     4631     4414     4321     4318     4329 
    4298     4179     3973     3753     3565     3423     3361     3357 
    3364     3353     3303     3206     3068     2893     2677     2424 
    2158     1919     1753     1692     1750     1922     2185     2474 
    2708     2799     2690     2398     2000     1580     1237     1073 
    1092     1236     1449     1657     1806     1898     2000     2188 
    2498     2913     3377     3798     4086     4199     4163     4052 
    3952     3935     4014     4156     4293     4349     4299     4167 
    4020     3932     3969     4153     4487     4938     5460     6021 
    6579     7106     7574     7981     8359     8735     9109     9481 
    9817    10065    10211    10251    10206    10137    10083    10054 
   10060    10064    10002     9850     9613     9300     8946     8579 
    8213     7857     7491     7088     6662     6254     5881     5556 
    5310     5136     5005     4892     4760     4614     4490     4409 
    4415     4530     4716     4936     5162     5373     5562     5778 
    6062     6405     6783     7148     7404     7465     7302     6939 
    6440     5902     5414     5042     4799     4658     4573     4486 
    4367     4207     4005     3767     3507     3211     2879     2528 
    2189     1880     1610     1410     1306     1297     1366     1497 
    1684     1934     2234     2551     2880     3203     3478     3703 
    3896     4070     4247     4428     4608     4788     4950     5080 
    5165     5213     5247     5278     5310     5362     5437     5525 
    5625     5730     5800     5814     5772     5688     5586     5493 
    5435     5416     5405     5363     5273     5135     4990     4872 
    4810     4858     5026     5270     5536     5773     5949     6053 
    6076     6029     5929     5772     5580     5387     5206     5049 
    4919     4818     4757     4738     4745     4750     4745     4742 
