Origin Time       2025/01/13 21:19:00
Lat.              31.8
Long.             131.6
Depth. (km)       30
Mag.              6.9
Station Code      KMM016
Station Lat.      32.1965
Station Long.     130.7757
Station Height(m) 151
Record Time       2025/01/13 21:19:47
Sampling Freq(Hz) 100Hz
Duration Time(s)  147
Dir.              N-S
Scale Factor      7845(gal)/8223790
Max. Acc. (gal)   26.490
Last Correction   2025/01/13 21:19:47
Memo.             
[...]
   -3546    -4259    -5208    -6102    -6760    -7119    -7138    -6874 
   -6567    -6575    -7236    -8646   -10509   -12316   -13709   -14675 
  -15418   -16096   -16660   -16933   -16757   -16042   -14766   -13016 
  -10974    -8842    -6745    -4698    -2714     -924      519     1593 
    2369     2949     3389     3628     3565     3146     2377     1317 
      56    -1374    -2947    -4511    -5753    -6463    -6841    -7364 
   -8347    -9786   -11507   -13208   -14428   -14638   -13494   -11114 
   -7981    -4665    -1748      392     1856     2984     3973     4834 
    5524     6023     6318     6346     6106     5647     4942     3928 
    2717     1516      391     -675    -1694    -2751    -3921    -5235 
   -6752    -8421    -9975   -11211   -12124   -12748   -13149   -13502 
  -13927   -14216   -13930   -12818   -11067    -9123    -7330    -5823 
   -4719    -4095    -3946    -4245    -4793    -5178    -5200    -5043 
   -4923    -4880    -4854    -4850    -4923    -5005    -4959    -4712 
   -4225    -3595    -2968    -2197    -1004      600     2344     3874 
    4876     5116     4437     2889      877    -1038    -2448    -3163 
   -3268    -3187    -3462    -4425    -6137    -8536   -11329   -13822 
  -15304   -15529   -14689   -13178   -11403    -9709    -8426    -7782 
   -7717    -7916    -7932    -7506    -6808    -6107    -5368    -4394 
   -3145    -1858     -900     -503     -669    -1252    -2142    -3361 
   -4900    -6536    -7884    -8653    -8857    -8772    -8773    -9134 
   -9883   -10806   -11539   -11688   -11028    -9680    -8070    -6582 
   -5354    -4492    -4225    -4725    -5981    -7668    -9208   -10195 
  -10631   -10648   -10284    -9586    -8698    -7763    -6917    -6262 
   -5806    -5580    -5586    -5528    -5074    -4290    -3566    -3203 
   -3196    -3196    -2737    -1660     -282      838     1224      757 
    -279    -1448    -2330    -2628    -2331    -1672    -1051     -938 
   -1599    -2961    -4688    -6367    -7750    -8842    -9732   -10378 
  -10538    -9915    -8480    -6681    -5169    -4221    -3630    -3132 
   -2646    -2104    -1331     -190     1301     2986     4579     5744 
    6282     6281     5917     5115     3626     1350    -1593    -4946 
   -8360   -11421   -13828   -15651   -17224   -18736   -20113   -21203 
  -21942   -22333   -22272   -21622   -20339   -18513   -16370   -14026 
  -11512    -9058    -7044    -5752    -5197    -5063    -4835    -4104 
   -2718     -724     1649     4005     5971     7365     8255     8839 
    9180     9232     9036     8607     7839     6639     4985     2928 
     656    -1705    -4324    -7379   -10756   -14170   -17243   -19480 
  -20451   -20120   -18960   -17604   -16402   -15314   -14168   -13000 
  -12017   -11402   -11107   -10773   -10029    -8779    -7123    -5179 
   -3006     -747     1182     2239     2083      773    -1298    -3569 
   -5425    -6443    -6701    -6694    -6766    -7005    -7595    -8627 
   -9678   -10169    -9922    -9066    -7732    -6021    -4151    -2446 
   -1161     -452     -495    -1404    -3001    -4881    -6509    -7226 
   -6570    -4691    -2349     -513      214      -62     -842    -1683 
   -2303    -2583    -2484    -2025    -1321     -514      261      841 
    1111     1008      525     -295    -1370    -2531    -3628    -4646 
   -5595    -6488    -7349    -8137    -8810    -9400    -9990   -10620 
  -11213   -11637   -11835   -11759   -11362   -10744   -10031    -9227 
   -8388    -7713    -7223    -6724    -6119    -5537    -5116    -4785 
   -4437    -4207    -4438    -5436    -7246    -9518   -11692   -13400 
  -14573   -15326   -15777   -15898   -15568   -14727   -13401   -11730 
  -10019    -8534    -7323    -6397    -5763    -5282    -4758    -3974 
   -2766    -1263      182     1221     1615     1399      913      552 
     503      616      526      -29    -1073    -2505    -4183    -5883 
   -7383    -8586    -9576   -10594   -11788   -12987   -13853   -14146 
  -13818   -13041   -11988   -10631    -8920    -6937    -4814    -2736 
    -907      490     1345     1767     2047     2490     3265     4297 
    5395     6427     7285     7866     8056     7819     7226     6315 
    5100     3747     2485     1471      830      583      496      274 
    -199     -845    -1432    -1794    -1948    -1931    -1768    -1570 
   -1520    -1796    -2469    -3358    -4207    -4984    -5821    -6717 
   -7434    -7662    -7231    -6160    -4595    -2786    -1013      437 
    1351     1644     1329      490     -731    -2165    -3596    -4770 
   -5513    -5848    -5965    -6170    -6806    -8100   -10026   -12394 
  -14982   -17539   -19762   -21389   -22306   -22592   -22407   -21860 
  -21066   -20232   -19619   -19376   -19444   -19573   -19404   -18659 
  -17319   -15533   -13483   -11385    -9427    -7709    -6307    -5178 
   -4158    -3113    -1937     -542      970     2431     3769     4905 
    5632     5806     5493     4862     4074     3222     2330     1377 
     337     -714    -1637    -2439    -3302    -4347    -5493    -6461 
   -6905    -6743    -6274    -5950    -6022    -6442    -7068    -7763 
   -8407    -9007    -9729   -10629   -11454   -11792   -11419   -10420 
   -9023    -7506    -6208    -5432    -5281    -5618    -6111    -6393 
   -6343    -6120    -5911    -5719    -5373    -4715    -3819    -2916 
   -2243    -1927    -1914    -2093    -2455    -2978    -3539    -4028 
   -4482    -5008    -5610    -6247    -6941    -7719    -8527    -9146 
   -9288    -8899    -8224    -7538    -6939    -6401    -5907    -5439 
   -4965    -4498    -4083    -3739    -3396    -2983    -2492    -1899 
   -1189     -440      194      572      585      183     -638    -1782 
   -2943    -3811    -4320    -4579    -4739    -4942    -5194    -5404 
   -5559    -5837    -6462    -7449    -8554    -9435    -9849    -9825 
   -9617    -9427    -9324    -9281    -9207    -9065    -8830    -8338 
   -7461    -6264    -4907    -3541    -2257    -1151     -430     -301 
    -822    -1922    -3348    -4671    -5536    -5844    -5663    -5152 
   -4499    -3820    -3200    -2816    -2864    -3349    -4025    -4587 
   -4915    -5098    -5324    -5680    -6057    -6309    -6485    -6794 
   -7488    -8654   -10123   -11646   -13026   -14046   -14519   -14446 
  -13956   -13146   -12044   -10719    -9337    -8089    -7042    -6139 
   -5267    -4306    -3233    -2141    -1065       35     1138     2066 
    2535     2378     1653      560     -645    -1732    -2592    -3215 
   -3653    -4032    -4484    -4969    -5333    -5505    -5555    -5678 
   -6091    -6814    -7612    -8164    -8305    -8125    -7797    -7361 
   -6786    -6081    -5340    -4765    -4483    -4445    -4573    -4846 
   -5265    -5786    -6305    -6723    -6988    -7182    -7470    -7944 
   -8495    -8887    -8899    -8457    -7609    -6465    -5225    -4140 
   -3306    -2582    -1755     -675      656     2043     3213     3990 
    4407     4604     4629     4452     4035     3288     2185      869 
    -436    -1464    -2011    -2112    -2019    -2007    -2295    -2997 
   -4090    -5449    -6870    -8056    -8766    -8950    -8758    -8471 
   -8368    -8552    -8918    -9315    -9675    -9976   -10173   -10137 
   -9688    -8772    -7518    -6139    -4855    -3813    -3051    -2582 
   -2400    -2504    -2961    -3785    -4838    -5927    -6859    -7484 
   -7805    -7956    -8082    -8214    -8302    -8309    -8230    -7981 
   -7439    -6571    -5502    -4503    -3808    -3410    -3229    -3327 
   -3780    -4577    -5687    -7013    -8395    -9710   -10921   -12062 
  -13170   -14243   -15282   -16258   -17049   -17537   -17705   -17491 
  -16772   -15492   -13674   -11485    -9324    -7601    -6477    -5906 
   -5819    -6138    -6744    -7492    -8149    -8525    -8637    -8600 
   -8473    -8359    -8434    -8819    -9482   -10249   -10871   -11141 
  -10951   -10327    -9397    -8259    -6922    -5406    -3850    -2493 
   -1533     -980     -658     -283      367     1285     2209     2851 
    3133     3153     2995     2720     2315     1710      977      338 
     -36      -54      317     1017     1864     2582     3009     3199 
    3238     3152     2963     2697     2394     2138     1939     1701 
    1271      510     -583    -1876    -3206    -4382    -5306    -6000 
   -6494    -6852    -7117    -7229    -7213    -7233    -7373    -7534 
   -7496    -7079    -6250    -5038    -3442    -1513      595     2663 
    4382     5395     5501     4781     3537     2083      594     -818 
   -2061    -3149    -4104    -4891    -5512    -5925    -6007    -5714 
   -5163    -4534    -3975    -3538    -3229    -3145    -3470    -4340 
   -5738    -7480    -9333   -11191   -13014   -14729   -16262   -17558 
  -18612   -19411   -19857   -19831   -19296   -18343   -17181   -16000 
  -14862   -13771   -12672   -11522   -10434    -9552    -8870    -8298 
   -7716    -7024    -6237    -5532    -5143    -5151    -5424    -5786 
   -6106    -6322    -6454    -6478    -6289    -5857    -5279    -4710 
   -4315    -4195    -4342    -4712    -5273    -5940    -6534    -6866 
   -6940    -7007    -7366    -8149    -9300   -10674   -12104   -13414 
  -14507   -15422   -16198   -16723   -16826   -16378   -15310   -13582 
  -11172    -8199    -4954    -1738     1246     3900     6181     8077 
    9525    10351    10430     9852     8866     7766     6798     6000 
    5255     4460     3520     2442     1387      523      -91     -495 
    -832    -1283    -1971    -2928    -4112    -5395    -6594    -7461 
   -7724    -7358    -6669    -5930    -5313    -4911    -4642    -4347 
   -3919    -3366    -2860    -2563    -2440    -2392    -2347    -2254 
   -2176    -2268    -2636    -3265    -4009    -4729    -5381    -5931 
   -6382    -6821    -7331    -7981    -8829    -9822   -10827   -11711 
  -12359   -12754   -12947   -12920   -12656   -12282   -11931   -11657 
  -11507   -11491   -11556   -11693   -11951   -12325   -12663   -12807 
  -12739   -12421   -11782   -10894    -9963    -9182    -8635    -8301 
   -8125    -7944    -7470    -6527    -5231    -3879    -2646    -1421 
     -85     1219     2251     2867     2964     2461     1290     -598 
   -3196    -6416   -10050   -13721   -17000   -19541   -21073   -21446 
  -20727   -19120   -16862   -14261   -11588    -8910    -6151    -3280 
    -399     2259     4514     6389     8067     9722    11380    12912 
   14123    14859    15064    14740    13892    12474    10415     7723 
    4492      958    -2540    -5786    -8611   -10821   -12375   -13360 
  -13896   -14187   -14408   -14561   -14496   -14076   -13308   -12220 
  -10802    -9157    -7458    -5792    -4202    -2798    -1652     -657 
     334     1370     2475     3655     4780     5601     5927     5756 
    5197     4380     3483     2681     2029     1449      712     -461 
   -2151    -4210    -6430    -8568   -10386   -11732   -12582   -12981 
  -12942   -12464   -11686   -10886   -10260    -9876    -9737    -9779 
   -9937   -10162   -10416   -10740   -11237   -11885   -12528   -13084 
  -13540   -13849   -13992   -13950   -13697   -13248   -12660   -12064 
  -11678   -11580   -11662   -11724   -11460   -10662    -9432    -8035 
   -6728    -5598    -4553    -3555    -2708    -2130    -1915    -2029 
   -2320    -2701    -3142    -3662    -4324    -5143    -6137    -7420 
   -9081   -11021   -13008   -14852   -16487   -17886   -18943   -19458 
  -19260   -18292   -16654   -14625   -12437   -10152    -7844    -5603 
   -3439    -1354      646     2492     3997     4986     5401     5302 
    4909     4487     4113     3778     3500     3314     3325     3542 
    3750     3734     3462     3103     2901     2970     3298     3835 
    4390     4703     4658     4252     3537     2660     1741      756 
    -352    -1566    -2755    -3585    -3726    -3172    -2241    -1395 
   -1036    -1344    -2272    -3666    -5319    -7007    -8575    -9879 
  -10717   -10972   -10724   -10129    -9320    -8426    -7665    -7234 
   -7125    -7234    -7453    -7600    -7597    -7445    -7049    -6342 
   -5405    -4364    -3330    -2431    -1741    -1269    -1031    -1024 
   -1144    -1310    -1606    -2149    -2951    -3979    -5221    -6609 
   -8010    -9323   -10548   -11774   -13053   -14277   -15217   -15650 
  -15498   -14837   -13799   -12511   -11072    -9468    -7689    -5957 
   -4637    -3973    -4014    -4669    -5806    -7237    -8706   -10026 
  -11111   -11977   -12698   -13305   -13778   -14108   -14337   -14580 
  -14928   -15358   -15750   -15886   -15538   -14607   -13178   -11427 
   -9529    -7639    -5875    -4311    -2970    -1831     -830      172 
    1296     2556     3955     5393     6525     7005     6710     5694 
    4140     2295      340    -1561    -3283    -4801    -6195    -7619 
   -9228   -10970   -12613   -13903   -14594   -14601   -14085   -13212 
  -12035   -10577    -8833    -6841    -4743    -2654     -611     1405 
    3434     5464     7427     9238    10759    11773    12125    11750 
   10650     8981     6960     4791     2652      510    -1755    -4050 
   -6223    -8143    -9683   -10855   -11746   -12366   -12691   -12668 
  -12187   -11178    -9598    -7473    -5028    -2538     -156     2023 
    4037     6002     7929     9768    11441    12854    13888    14454 
   14592    14359    13632    12177     9822     6567     2585    -1941 
   -6817   -11745   -16468   -20838   -24709   -27966   -30522   -32267 
  -33134   -33139   -32362   -30969   -29220   -27255   -25031   -22555 
  -19947   -17428   -15192   -13294   -11774   -10562    -9471    -8484 
   -7615    -6783    -5950    -5007    -3790    -2269     -538     1217 
    2818     4168     5147     5645     5706     5418     4846     4070 
    3106     1962      785     -248    -1071    -1734    -2358    -3056 
   -3897    -4872    -5890    -6890    -7881    -8883   -10011   -11437 
  -13185   -15072   -16794   -18139   -19067   -19552   -19622   -19453 
  -19137   -18596   -17740   -16433   -14585   -12337    -9842    -7176 
   -4507    -1945      473     2592     4266     5458     6122     6309 
    6199     5940     5643     5356     5005     4432     3523     2204 
     473    -1513    -3462    -5108    -6362    -7237    -7740    -8004 
   -8203    -8410    -8716    -9097    -9270    -9020    -8349    -7404 
   -6453    -5665    -4966    -4232    -3480    -2791    -2258    -2011 
   -2091    -2427    -2916    -3338    -3527    -3599    -3742    -4020 
   -4463    -4977    -5402    -5751    -6095    -6451    -6894    -7435 
   -7967    -8460    -8873    -9100    -9072    -8726    -8067    -7227 
   -6313    -5386    -4536    -3855    -3387    -3025    -2583    -2029 
   -1478    -1057     -842     -799     -862    -1111    -1657    -2536 
   -3690    -4946    -6097    -7068    -7879    -8557    -9086    -9462 
   -9690    -9738    -9574    -9265    -8910    -8561    -8301    -8214 
   -8305    -8590    -9055    -9587   -10048   -10280   -10160    -9701 
   -8980    -8079    -7101    -6099    -5071    -4012    -2932    -1890 
    -967     -245      228      453      500      503      584      754 
     874      807      598      440      476      699      965     1117 
    1092      918      642      279     -193     -811    -1647    -2745 
   -4094    -5695    -7560    -9599   -11623   -13396   -14727   -15545 
  -15897   -15882   -15580   -15026   -14253   -13336   -12325   -11165 
   -9838    -8425    -7011    -5649    -4376    -3260    -2381    -1814 
   -1607    -1644    -1660    -1490    -1101     -452      496     1749 
    3187     4534     5505     5898     5586     4587     3026     1098 
    -986    -3084    -5134    -7136    -9097   -10984   -12711   -14107 
  -15022   -15418   -15246   -14381   -12772   -10569    -8068    -5584 
   -3381    -1614     -332      467      811      692      102     -881 
   -2149    -3561    -4976    -6322    -7624    -8974   -10403   -11870 
  -13331   -14701   -15901   -16872   -17589   -18144   -18623   -19017 
  -19359   -19715   -20059   -20304   -20366   -20100   -19305   -17814 
  -15557   -12653    -9373    -5983    -2689      355     3080     5414 
    7275     8600     9366     9595     9333     8625     7466     5791 
    3627     1165    -1362    -3670    -5508    -6840    -7751    -8328 
   -8733    -9139    -9606   -10075   -10485   -10840   -11159   -11358 
  -11292   -10832    -9909    -8598    -7059    -5308    -3279     -976 
    1607     4359     6986     9223    10841    11713    11893    11499 
   10636     9402     7933     6421     4949     3524     2164      862 
    -241     -957    -1309    -1401    -1314    -1190    -1093    -1043 
   -1085    -1208    -1406    -1710    -2099    -2520    -2933    -3288 
   -3591    -3929    -4395    -5036    -5836    -6708    -7587    -8424 
   -9104    -9539    -9691    -9571    -9289    -8923    -8429    -7763 
   -6920    -5891    -4718    -3449    -2119     -841      265     1097 
    1526     1498     1055      243     -849    -2110    -3464    -4877 
   -6408    -8094    -9856   -11650   -13444   -15136   -16695   -18191 
  -19683   -21177   -22581   -23685   -24267   -24227   -23657   -22781 
  -21790   -20784   -19764   -18623   -17343   -16040   -14759   -13531 
  -12424   -11441   -10631   -10100    -9867    -9877   -10050   -10357 
  -10828   -11399   -11977   -12523   -12962   -13200   -13189   -12896 
  -12316   -11512   -10559    -9490    -8332    -7101    -5775    -4336 
   -2782    -1158      438     1923     3195     4171     4858     5256 
    5362     5224     4884     4382     3763     3078     2490     2196 
    2232     2462     2706     2872     2945     2913     2809     2698 
    2542     2230     1786     1325      996      992     1437     2322 
    3557     4970     6350     7537     8421     8897     8887     8387 
    7487     6322     4985     3435     1609     -494    -2874    -5441 
   -8020   -10481   -12660   -14345   -15453   -16048   -16209   -15996 
  -15479   -14802   -14095   -13444   -12931   -12517   -12052   -11419 
  -10492    -9229    -7708    -5926    -3931    -1917      -18     1657 
    3017     4058     4819     5358     5738     5911     5740     5178 
    4270     3091     1729      199    -1520    -3375    -5296    -7217 
   -9077   -10947   -12934   -15084   -17420   -19797   -21990   -23896 
  -25417   -26458   -27051   -27210   -26963   -26384   -25477   -24214 
  -22615   -20698   -18534   -16287   -14091   -12017   -10145    -8521 
   -7086    -5730    -4355    -2926    -1536     -326      579     1138 
    1394     1360     1034      467     -309    -1263    -2316    -3407 
   -4484    -5485    -6350    -7011    -7449    -7736    -7932    -8094 
   -8283    -8473    -8641    -8822    -8989    -9050    -8893    -8387 
   -7476    -6166    -4479    -2524     -538     1250     2751     3996 
    5028     5864     6488     6882     6976     6629     5755     4375 
    2643      824     -843    -2234    -3319    -4186    -4889    -5382 
   -5680    -5856    -5940    -5922    -5767    -5474    -5063    -4579 
   -4112    -3732    -3457    -3262    -3154    -3219    -3534    -4070 
   -4722    -5408    -6073    -6637    -7032    -7269    -7392    -7407 
   -7329    -7214    -7125    -7134    -7314    -7693    -8253    -8919 
   -9553   -10003   -10100    -9728    -8887    -7678    -6270    -4806 
