Origin Time       2025/01/13 21:19:00
Lat.              31.8
Long.             131.6
Depth. (km)       30
Mag.              6.9
Station Code      KMM008
Station Lat.      32.6875
Station Long.     130.6598
Station Height(m) 3
Record Time       2025/01/13 21:19:57
Sampling Freq(Hz) 100Hz
Duration Time(s)  116
Dir.              U-D
Scale Factor      7845(gal)/8223790
Max. Acc. (gal)   7.994
Last Correction   2025/01/13 21:19:57
Memo.             
[...]
   -7254    -7063    -6844    -6586    -6261    -5965    -5869    -6025 
   -6301    -6546    -6756    -7030    -7310    -7364    -7107    -6689 
   -6261    -5865    -5513    -5240    -5086    -5071    -5157    -5202 
   -5146    -5112    -5198    -5389    -5653    -5967    -6335    -6806 
   -7338    -7794    -8056    -8051    -7854    -7720    -7871    -8384 
   -9188   -10048   -10710   -11090   -11237   -11290   -11425   -11723 
  -12168   -12723   -13300   -13710   -13819   -13653   -13298   -12820 
  -12367   -12133   -12201   -12502   -12839   -12987   -12884   -12600 
  -12239   -11923   -11697   -11554   -11538   -11654   -11796   -11867 
  -11824   -11657   -11477   -11502   -11766   -12069   -12270   -12401 
  -12417   -12171   -11643   -10978   -10407   -10131   -10142   -10308 
  -10629   -11099   -11522   -11684   -11554   -11371   -11399   -11620 
  -11838   -11920   -11842   -11637   -11317   -10890   -10477   -10235 
  -10219   -10390   -10658   -10918   -11107   -11129   -10960   -10777 
  -10728   -10760   -10733   -10542   -10188    -9717    -9146    -8505 
   -7905    -7488    -7246    -7111    -7126    -7303    -7545    -7821 
   -8105    -8317    -8471    -8660    -8901    -9186    -9528    -9973 
  -10512   -11041   -11514   -11919   -12255   -12615   -12996   -13284 
  -13494   -13624   -13549   -13252   -12796   -12240   -11649   -11028 
  -10342    -9636    -9057    -8742    -8703    -8823    -9011    -9267 
   -9583    -9917   -10251   -10602   -11018   -11516   -12000   -12329 
  -12434   -12340   -12154   -12027   -12055   -12286   -12760   -13439 
  -14118   -14557   -14611   -14289   -13749   -13161   -12610   -12179 
  -11877   -11554   -11059   -10417    -9856    -9591    -9632    -9818 
  -10017   -10196   -10389   -10655   -11028   -11530   -12185   -12937 
  -13649   -14208   -14554   -14696   -14671   -14476   -14060   -13435 
  -12707   -11989   -11345   -10804   -10374   -10133   -10143   -10301 
  -10446   -10527   -10577   -10617   -10675   -10789   -10951   -11130 
  -11330   -11461   -11402   -11128   -10652   -10053    -9485    -9094 
   -9011    -9165    -9293    -9266    -9063    -8669    -8199    -7870 
   -7782    -7886    -8110    -8378    -8575    -8634    -8583    -8513 
   -8511    -8575    -8630    -8623    -8500    -8226    -7854    -7458 
   -7056    -6648    -6257    -5930    -5753    -5799    -6070    -6501 
   -6995    -7434    -7724    -7870    -7917    -7870    -7774    -7751 
   -7877    -8056    -8176    -8243    -8298    -8411    -8669    -9111 
   -9753   -10586   -11515   -12415   -13227   -13936   -14526   -15010 
  -15415   -15687   -15763   -15734   -15714   -15680   -15549   -15290 
  -14936   -14543   -14135   -13711   -13252   -12711   -12085   -11492 
  -11047   -10716   -10411   -10104    -9805    -9494    -9113    -8600 
   -7987    -7442    -7075    -6841    -6713    -6758    -6974    -7252 
   -7457    -7511    -7466    -7410    -7345    -7295    -7385    -7730 
   -8355    -9163    -9996   -10729   -11249   -11492   -11507   -11325 
  -10964   -10558   -10230    -9981    -9736    -9420    -9066    -8772 
   -8569    -8457    -8442    -8487    -8571    -8718    -8915    -9086 
   -9140    -9057    -8849    -8542    -8283    -8190    -8148    -8028 
   -7859    -7757    -7831    -8090    -8441    -8853    -9350    -9906 
  -10503   -11132   -11711   -12139   -12357   -12370   -12267   -12158 
  -12077   -12056   -12150   -12366   -12658   -12923   -13039   -12962 
  -12731   -12453   -12267   -12222   -12235   -12237   -12290   -12465 
  -12691   -12775   -12615   -12276   -11847   -11376   -10899   -10397 
   -9829    -9267    -8820    -8496    -8225    -7932    -7596    -7264 
   -6993    -6837    -6863    -7084    -7419    -7784    -8129    -8415 
   -8619    -8761    -8893    -9092    -9409    -9860   -10405   -10989 
  -11533   -11924   -12089   -12108   -12182   -12465   -12974   -13594 
  -14216   -14816   -15390   -15904   -16310   -16636   -16995   -17431 
  -17837   -18100   -18177   -18027   -17598   -16892   -15986   -15034 
  -14197   -13509   -12912   -12370   -11843   -11277   -10590    -9725 
   -8746    -7796    -7028    -6543    -6374    -6467    -6687    -6918 
   -7123    -7306    -7476    -7622    -7751    -7871    -7950    -7974 
   -7965    -7952    -7969    -7989    -7947    -7834    -7727    -7742 
   -7928    -8240    -8622    -9035    -9412    -9649    -9674    -9502 
   -9282    -9150    -9089    -9035    -9022    -9097    -9205    -9282 
   -9370    -9566    -9899   -10307   -10708   -11090   -11465   -11827 
  -12144   -12361   -12456   -12474   -12421   -12294   -12087   -11758 
  -11323   -10881   -10521   -10304   -10201   -10123   -10023    -9914 
   -9792    -9630    -9456    -9350    -9401    -9637    -9987   -10343 
  -10612   -10754   -10795   -10801   -10871   -11098   -11450   -11824 
  -12125   -12285   -12298   -12217   -12085   -11936   -11826   -11807 
  -11919   -12175   -12511   -12820   -13043   -13155   -13123   -12914 
  -12537   -12079   -11614   -11134   -10644   -10189    -9772    -9354 
   -8911    -8455    -8037    -7750    -7654    -7774    -8101    -8577 
   -9134    -9691   -10188   -10638   -11056   -11416   -11704   -11951 
  -12194   -12457   -12719   -12927   -13031   -12988   -12761   -12340 
  -11753   -11057   -10378    -9868    -9547    -9332    -9175    -9030 
   -8858    -8687    -8564    -8532    -8625    -8787    -8928    -9043 
   -9148    -9227    -9265    -9298    -9396    -9574    -9811   -10076 
  -10359   -10727   -11236   -11834   -12399   -12814   -12999   -12927 
  -12621   -12132   -11539   -10937   -10366    -9802    -9239    -8687 
   -8125    -7535    -6933    -6374    -5921    -5594    -5382    -5290 
   -5308    -5352    -5356    -5314    -5251    -5247    -5394    -5730 
   -6257    -6899    -7527    -8077    -8536    -8937    -9363    -9836 
  -10289   -10679   -11024   -11348   -11657   -11992   -12374   -12739 
  -13001   -13126   -13130   -13055   -12935   -12804   -12695   -12625 
  -12588   -12514   -12324   -12006   -11564   -11002   -10405    -9876 
   -9455    -9130    -8861    -8594    -8329    -8151    -8174    -8452 
   -8968    -9630   -10301   -10898   -11396   -11769   -12009   -12110 
  -12073   -11982   -11954   -12001   -12064   -12120   -12206   -12345 
  -12496   -12602   -12627   -12569   -12440   -12248   -11977   -11607 
  -11171   -10750   -10404   -10166   -10066   -10069   -10073   -10025 
   -9969    -9963   -10027   -10138   -10219   -10210   -10112    -9963 
   -9759    -9528    -9396    -9452    -9691   -10041   -10390   -10694 
  -10953   -11083   -11034   -10905   -10781   -10674   -10567   -10443 
  -10318   -10201   -10039    -9786    -9456    -9126    -8876    -8752 
   -8727    -8760    -8829    -8892    -8915    -8910    -8891    -8880 
   -8922    -9032    -9175    -9285    -9348    -9439    -9583    -9725 
   -9833    -9918    -9995   -10046   -10045   -10046   -10161   -10401 
  -10677   -10868   -10886   -10721   -10446   -10122    -9805    -9576 
   -9497    -9567    -9784   -10118   -10444   -10606   -10503   -10110 
   -9504    -8808    -8117    -7483    -6939    -6502    -6178    -5965 
   -5815    -5665    -5503    -5358    -5266    -5260    -5352    -5541 
   -5863    -6370    -7063    -7894    -8822    -9768   -10640   -11423 
  -12156   -12831   -13412   -13921   -14411   -14867   -15223   -15448 
  -15556   -15587   -15600   -15630   -15628   -15553   -15419   -15214 
  -14875   -14350   -13698   -13058   -12505   -12000   -11515   -11070 
  -10656   -10223    -9769    -9366    -9059    -8869    -8800    -8826 
   -8938    -9188    -9614   -10157   -10694   -11151   -11549   -11952 
  -12348   -12673   -12892   -13031   -13143   -13225   -13243   -13173 
  -13030   -12893   -12820   -12775   -12754   -12834   -13049   -13331 
  -13598   -13818   -13987   -14058   -13991   -13803   -13532   -13169 
  -12727   -12260   -11794   -11327   -10874   -10465   -10107    -9792 
   -9539    -9350    -9213    -9140    -9144    -9207    -9300    -9363 
   -9355    -9315    -9275    -9227    -9188    -9197    -9263    -9402 
   -9657   -10050   -10543   -11074   -11568   -11981   -12330   -12626 
  -12858   -13024   -13109   -13085   -12954   -12750   -12501   -12198 
  -11843   -11530   -11388   -11429   -11542   -11618   -11557   -11317 
  -10968   -10612   -10270    -9926    -9556    -9147    -8685    -8167 
   -7614    -7074    -6619    -6282    -6066    -5983    -6011    -6085 
   -6141    -6133    -6077    -6058    -6166    -6439    -6841    -7300 
   -7749    -8152    -8525    -8876    -9219    -9568    -9913   -10239 
  -10578   -10957   -11364   -11782   -12229   -12702   -13123   -13383 
  -13437   -13312   -13063   -12780   -12549   -12387   -12274   -12204 
  -12110   -11896   -11493   -10906   -10189    -9400    -8594    -7865 
   -7268    -6768    -6323    -5899    -5505    -5239    -5200    -5397 
   -5784    -6258    -6706    -7092    -7396    -7591    -7695    -7739 
   -7759    -7819    -7936    -8101    -8343    -8664    -9012    -9336 
   -9629    -9914   -10197   -10451   -10701   -10982   -11253   -11491 
  -11691   -11794   -11776   -11684   -11578   -11489   -11410   -11342 
  -11326   -11398   -11545   -11708   -11820   -11862   -11865   -11884 
  -11955   -12063   -12145   -12179   -12193   -12183   -12102   -11905 
  -11569   -11115   -10625   -10183    -9825    -9562    -9387    -9300 
   -9315    -9443    -9609    -9713    -9729    -9661    -9467    -9158 
   -8854    -8661    -8604    -8692    -8900    -9163    -9439    -9718 
   -9999   -10268   -10524   -10774   -10983   -11115   -11190   -11268 
  -11354   -11403   -11400   -11402   -11484   -11651   -11838   -11992 
  -12108   -12229   -12359   -12442   -12448   -12371   -12217   -12002 
  -11751   -11497   -11321   -11288   -11398   -11601   -11811   -11936 
  -11936   -11830   -11711   -11688   -11769   -11892   -12008   -12101 
  -12152   -12136   -12062   -12004   -12052   -12226   -12459   -12710 
  -12968   -13197   -13382   -13535   -13672   -13824   -14017   -14261 
  -14535   -14793   -15002   -15142   -15188   -15090   -14809   -14350 
  -13772   -13135   -12468   -11826   -11281   -10839   -10428    -9964 
   -9406    -8766    -8070    -7369    -6733    -6242    -5956    -5868 
   -5937    -6146    -6450    -6795    -7173    -7581    -7983    -8359 
   -8722    -9108    -9526    -9957   -10390   -10787   -11036   -11029 
  -10782   -10407    -9979    -9487    -8916    -8284    -7596    -6853 
   -6072    -5277    -4536    -3947    -3558    -3354    -3304    -3387 
   -3580    -3813    -4013    -4185    -4383    -4627    -4915    -5246 
   -5610    -6022    -6509    -7060    -7632    -8172    -8644    -9063 
   -9463    -9836   -10200   -10629   -11161   -11757   -12348   -12895 
  -13404   -13930   -14516   -15148   -15788   -16397   -16922   -17316 
  -17537   -17550   -17339   -16945   -16447   -15930   -15442   -14978 
  -14492   -13944   -13306   -12584   -11808   -11033   -10305    -9682 
   -9173    -8707    -8235    -7727    -7168    -6629    -6158    -5724 
   -5335    -5082    -5019    -5120    -5359    -5714    -6135    -6562 
   -6952    -7291    -7588    -7882    -8229    -8667    -9221    -9890 
  -10654   -11495   -12306   -12924   -13243   -13216   -12852   -12209 
  -11375   -10512    -9796    -9282    -8920    -8652    -8448    -8272 
   -8073    -7831    -7589    -7419    -7348    -7290    -7188    -7087 
   -7018    -6998    -7052    -7105    -7098    -7109    -7179    -7306 
   -7522    -7824    -8218    -8737    -9383   -10112   -10848   -11545 
  -12208   -12856   -13527   -14226   -14870   -15354   -15614   -15639 
  -15464   -15121   -14669   -14210   -13842   -13625   -13554   -13630 
  -13882   -14265   -14671   -15012   -15268   -15479   -15695   -15942 
  -16209   -16497   -16796   -17034   -17150   -17158   -17115   -17035 
  -16864   -16569   -16152   -15655   -15147   -14665   -14257   -13969 
  -13778   -13635   -13502   -13367   -13271   -13267   -13374   -13541 
  -13664   -13698   -13701   -13737   -13821   -13946   -14127   -14366 
  -14683   -15052   -15361   -15561   -15658   -15616   -15408   -15056 
  -14586   -14021   -13404   -12788   -12191   -11650   -11213   -10848 
  -10446    -9923    -9296    -8633    -7989    -7415    -6959    -6651 
   -6481    -6369    -6247    -6126    -5996    -5865    -5806    -5841 
   -5927    -6060    -6215    -6320    -6353    -6322    -6246    -6184 
   -6187    -6232    -6289    -6301    -6162    -5802    -5275    -4688 
   -4098    -3527    -3041    -2702    -2540    -2559    -2718    -2987 
   -3389    -3905    -4460    -5030    -5634    -6293    -7032    -7851 
   -8676    -9429   -10079   -10577   -10897   -11063   -11129   -11110 
  -11002   -10831   -10627   -10405   -10183    -9950    -9701    -9423 
   -9100    -8762    -8498    -8356    -8370    -8563    -8877    -9205 
   -9475    -9625    -9618    -9474    -9277    -9150    -9166    -9321 
   -9567    -9841   -10120   -10350   -10424   -10336   -10161    -9921 
   -9622    -9278    -8889    -8527    -8325    -8348    -8563    -8889 
   -9239    -9558    -9833   -10077   -10311   -10528   -10687   -10774 
  -10793   -10781   -10831   -10983   -11160   -11296   -11419   -11562 
  -11705   -11846   -11992   -12096   -12175   -12241   -12179   -11996 
  -11811   -11646   -11568   -11645   -11805   -12029   -12376   -12820 
  -13270   -13684   -14050   -14381   -14744   -15176   -15681   -16263 
  -16877   -17444   -17895   -18220   -18462   -18632   -18735   -18775 
  -18747   -18677   -18590   -18480   -18310   -18030   -17621   -17089 
  -16456   -15747   -14997   -14238   -13498   -12829   -12280   -11819 
  -11375   -10902   -10369    -9787    -9235    -8785    -8463    -8290 
   -8270    -8364    -8521    -8675    -8781    -8861    -8947    -9022 
   -9090    -9189    -9286    -9360    -9448    -9575    -9759   -10008 
  -10257   -10412   -10432   -10322   -10111    -9814    -9369    -8733 
   -7969    -7164    -6390    -5722    -5190    -4801    -4557    -4414 
   -4328    -4272    -4256    -4337    -4557    -4896    -5292    -5682 
   -6016    -6273    -6501    -6763    -7053    -7354    -7655    -7963 
   -8326    -8752    -9174    -9504    -9690    -9745    -9720    -9675 
   -9679    -9761    -9911   -10103   -10312   -10544   -10832   -11156 
  -11466   -11753   -11994   -12118   -12100   -11946   -11665   -11307 
  -10952   -10615   -10268    -9931    -9614    -9292    -8953    -8584 
   -8218    -7909    -7658    -7473    -7411    -7472    -7596    -7765 
   -7987    -8248    -8564    -8966    -9409    -9798   -10091   -10300 
  -10443   -10536   -10617   -10714   -10858   -11060   -11253   -11362 
  -11392   -11342   -11202   -11038   -10929   -10870   -10822   -10754 
  -10636   -10440   -10129    -9730    -9298    -8837    -8386    -8029 
   -7808    -7726    -7780    -7924    -8068    -8141    -8117    -8020 
   -7935    -7931    -8020    -8197    -8425    -8638    -8803    -8910 
   -8946    -8942    -8972    -9072    -9223    -9423    -9671    -9945 
  -10243   -10578   -10924   -11267   -11622   -11979   -12341   -12704 
  -13039   -13348   -13680   -14017   -14308   -14569   -14779   -14926 
  -15048   -15133   -15132   -15033   -14843   -14569   -14245   -13905 
  -13545   -13174   -12833   -12522   -12226   -11944   -11673   -11376 
  -11030   -10629   -10166    -9660    -9151    -8665    -8220    -7824 
   -7474    -7190    -6980    -6835    -6752    -6772    -6934    -7253 
   -7716    -8282    -8931    -9659   -10407   -11074   -11612   -12029 
  -12321   -12490   -12594   -12668   -12726   -12815   -12897   -12896 
  -12802   -12634   -12417   -12181   -11913   -11627   -11379   -11211 
  -11129   -11103   -11102   -11103   -11076   -11005   -10883   -10717 
  -10551   -10408   -10262   -10106    -9937    -9749    -9553    -9356 
   -9146    -8928    -8734    -8572    -8429    -8307    -8216    -8179 
   -8209    -8294    -8418    -8569    -8723    -8862    -8993    -9153 
   -9362    -9605    -9864   -10120   -10354   -10562   -10778   -11032 
  -11323   -11638   -11934   -12163   -12316   -12432   -12557   -12699 
  -12865   -13070   -13294   -13486   -13598   -13622   -13581   -13471 
  -13308   -13142   -13011   -12950   -12995   -13138   -13355   -13622 
  -13919   -14230   -14551   -14883   -15196   -15433   -15541   -15492 
  -15277   -14926   -14508   -14076   -13651   -13239   -12816   -12359 
  -11862   -11321   -10740   -10172    -9691    -9290    -8930    -8617 
   -8302    -7943    -7599    -7323    -7146    -7074    -7042    -7006 
   -6959    -6879    -6741    -6569    -6404    -6268    -6188    -6199 
   -6319    -6548    -6862    -7222    -7591    -7955    -8328    -8698 
   -9024    -9261    -9382    -9400    -9362    -9297    -9198    -9090 
   -9036    -9051    -9070    -9039    -8959    -8865    -8788    -8754 
   -8779    -8831    -8873    -8912    -8943    -8938    -8911    -8899 
   -8947    -9080    -9275    -9498    -9705    -9864    -9983   -10107 
  -10265   -10451   -10679   -10956   -11245   -11526   -11803   -12093 
  -12401   -12708   -12985   -13201   -13335   -13373   -13300   -13143 
  -12955   -12780   -12641   -12538   -12436   -12299   -12155   -12039 
  -11938   -11830   -11734   -11674   -11654   -11670   -11696   -11691 
  -11631   -11524   -11389   -11254   -11146   -11038   -10886   -10674 
  -10409   -10107    -9791    -9498    -9262    -9093    -8995    -8955 
   -8926    -8853    -8741    -8583    -8348    -8066    -7794    -7576 
   -7466    -7480    -7591    -7778    -8006    -8228    -8426    -8606 
   -8757    -8883    -8984    -9057    -9130    -9262    -9505    -9856 
  -10264   -10663   -11017   -11314   -11558   -11745   -11882   -11996 
  -12113   -12241   -12361   -12460   -12528   -12540   -12471   -12332 
  -12151   -11954   -11769   -11597   -11449   -11331   -11227   -11132 
  -11051   -10984   -10939   -10921   -10957   -11065   -11225   -11400 
  -11570   -11720   -11832   -11882   -11880   -11858   -11840   -11821 
  -11781   -11686   -11538   -11372   -11207   -11049   -10906   -10770 
  -10651   -10561   -10469   -10345   -10183    -9968    -9691    -9374 
   -9049    -8754    -8533    -8388    -8298    -8235    -8182    -8108 
   -7981    -7801    -7592    -7368    -7140    -6932    -6760    -6616 
   -6485    -6388    -6334    -6309    -6327    -6407    -6538    -6718 
   -6949    -7223    -7568    -8008    -8527    -9078    -9616   -10110 
  -10534   -10858   -11098   -11288   -11442   -11564   -11632   -11622 
  -11535   -11392   -11192   -10948   -10696   -10485   -10363   -10341 
  -10401   -10527   -10709   -10932   -11142   -11284   -11326   -11257 
  -11086   -10833   -10542   -10274   -10069    -9937    -9880    -9869 
   -9846    -9788    -9705    -9616    -9544    -9518    -9570    -9715 
   -9937   -10204   -10490   -10762   -10972   -11095   -11155   -11198 
  -11279   -11442   -11665   -11882   -12055   -12177   -12248   -12267 
  -12244   -12210   -12190   -12204   -12258   -12337   -12409   -12445 
  -12449   -12445   -12438   -12426   -12410   -12403   -12426   -12482 
  -12564   -12648   -12703   -12741   -12772   -12776   -12744   -12685 
  -12638   -12641   -12687   -12734   -12753   -12752   -12719   -12633 
  -12521   -12403   -12270   -12127   -11975   -11782   -11547   -11306 
