Origin Time       2025/01/13 21:19:00
Lat.              31.8
Long.             131.6
Depth. (km)       30
Mag.              6.9
Station Code      KMM016
Station Lat.      32.1965
Station Long.     130.7757
Station Height(m) 151
Record Time       2025/01/13 21:19:47
Sampling Freq(Hz) 100Hz
Duration Time(s)  147
Dir.              E-W
Scale Factor      7845(gal)/8223790
Max. Acc. (gal)   21.808
Last Correction   2025/01/13 21:19:47
Memo.             
[...]
   -4099    -4023    -3657    -2876    -1618     -103     1270     2176 
    2571     2691     2844     3107     3306     3407     3730     4546 
    5717     6864     7622     7609     6650     5080     3553     2542 
    2177     2319     2702     3271     4278     5875     7762     9333 
   10123    10107     9467     8322     6893     5602     4757     4291 
    3894     3308     2497     1709     1402     1826     2751     3770 
    4592     5040     5005     4396     3204     1669      357     -182 
      63      537      495     -603    -2779    -5422    -7615    -8640 
   -8233    -6552    -4095    -1557      386     1328     1431     1386 
    1834     2824     3923     4757     5279     5625     5907     6192 
    6573     7168     7981     8885     9757    10413    10636    10409 
    9918     9350     8895     8741     8881     9066     8989     8429 
    7311     5616     3292      587    -1776    -3040    -2907    -1580 
     423     2365     3595     3967     3739     3192     2577     2231 
    2502     3480     4834     6099     7044     7677     8083     8386 
    8685     8965     9103     8868     8059     6774     5393     4347 
    3916     4024     4249     4186     3748     3090     2319     1505 
     943     1038     1953     3589     5580     7264     8051     7879 
    7138     6345     5908     6037     6636     7273     7383     6585 
    4781     2150     -810    -3528    -5806    -7844    -9892   -11935 
  -13645   -14747   -15257   -15194   -14341   -12480    -9634    -6096 
   -2323     1221     4152     6265     7597     8278     8471     8434 
    8289     7870     7017     5688     3862     1642     -704    -2930 
   -4815    -6093    -6627    -6598    -6351    -6068    -5741    -5341 
   -4810    -3915    -2393     -230     2312     4827     7006     8931 
   10943    13144    15151    16308    16218    15074    13379    11507 
    9641     7978     6686     5760     5059     4413     3751     3179 
    2833     2728     2706     2590     2380     2266     2366     2605 
    2934     3443     4220     5200     6203     7087     7771     8176 
    8225     7852     7052     6027     5138     4506     3902     3109 
    2201     1402      872      741     1125     1991     3136     4422 
    5973     7958    10174    11997    12730    12020    10165     8039 
    6531     5968     6103     6520     6897     7036     6743     5814 
    4332     2793     1757     1431     1595     1842     1915     1830 
    1811     2107     2828     3889     5055     6080     6805     7057 
    6678     5773     4680     3666     2841     2197     1611      900 
     -35    -1208    -2682    -4483    -6390    -7905    -8483    -7929 
   -6535    -4796    -3179    -2088    -1692    -1779    -1960    -1977 
   -1767    -1328     -621      376     1556     2539     2857     2428 
    1642      935      491      310      359      641     1252     2339 
    3889     5688     7537     9127     9788     8866     6369     3014 
    -148    -2137    -2438    -1281      664     2729     4164     4122 
    2274     -658    -3272    -4441    -3940    -2370     -564      967 
    2014     2508     2671     2983     3858     5474     7727    10196 
   12195    13061    12561    11001     9027     7318     6180     5401 
    4553     3362     1844      244    -1197    -2401    -3338    -3883 
   -3892    -3407    -2802    -2543    -2767    -3199    -3554    -3892 
   -4359    -4788    -4819    -4259    -3214    -2014     -967     -221 
     101     -139     -892    -1830    -2469    -2282     -851     1865 
    5452     9204    12407    14646    15747    15615    14496    12987 
   11473     9907     8164     6277     4415     2839     1647      606 
    -653    -2349    -4490    -6933    -9383   -11377   -12368   -12058 
  -10582    -8230    -5292    -2307       47     1564     2551     3323 
    4032     4712     5302     5806     6413     7335     8626    10111 
   11438    12210    12162    11362    10222     9211     8556     8262 
    8434     9242    10461    11485    11850    11539    10843     9917 
    8595     6743     4598     2728     1709     1737     2501     3473 
    4301     4908     5270     5296     5007     4666     4614     5070 
    6076     7530     9278    11070    12611    13782    14613    15102 
   15137    14542    13239    11414     9383     7391     5607     4216 
    3352     2956     2853     2992     3392     3928     4386     4680 
    4874     5074     5381     5881     6484     6914     7028     6725 
    5842     4479     3109     2211     1965     2155     2328     2149 
    1502      365    -1248    -3310    -5644    -7911    -9760   -10903 
  -11088   -10237    -8591    -6574    -4653    -3327    -2867    -3021 
   -3215    -3130    -2844    -2359    -1493     -220     1246     2550 
    3311     3454     3281     3109     3013     2930     2895     3086 
    3723     4892     6320     7499     7986     7547     6227     4230 
    1736     -893    -2959    -3815    -3225    -1520      384     1490 
    1386      336    -1077    -2254    -2783    -2597    -1944    -1132 
    -346      317      818     1142     1304     1381     1534     1875 
    2322     2635     2600     2231     1749     1408     1444     2014 
    3057     4320     5636     7048     8402     9165     8880     7668 
    6232     5431     5711     6903     8441     9632     9954     9273 
    7754     5767     3780     2158     1051      409       29     -295 
    -596     -741     -614     -190      423      946     1138     1047 
     869      711      542      294        2     -152      117     1053 
    2569     4253     5748     6993     8023     8681     8629     7665 
    6137     4876     4587     5354     6725     8122     9117     9363 
    8699     7337     5767     4518     3840     3581     3453     3241 
    2760     1919      807     -349    -1242    -1572    -1247     -477 
     483     1541     2587     3389     3728     3526     2866     1890 
     727     -487    -1597    -2478    -3051    -3321    -3484    -3726 
   -3920    -3686    -2752    -1188      668     2461     4017     5328 
    6380     7092     7460     7608     7703     7870     8164     8564 
    8920     9011     8681     7803     6326     4519     2926     2035 
    2079     2951     4295     5701     6875     7753     8456     9107 
    9687    10057    10089     9790     9274     8657     7987     7167 
    6034     4579     2955     1313     -299    -1865    -3339    -4656 
   -5694    -6296    -6363    -5933    -5105    -3974    -2587     -963 
     796     2529     4114     5425     6285     6635     6569     6227 
    5868     5791     6050     6351     6331     5857     5027     3954 
    2674     1290       -2    -1102    -2025    -2760    -3256    -3464 
   -3304    -2685    -1603     -186     1325     2633     3505     3982 
    4338     4757     5306     6099     7092     7987     8510     8564 
    8187     7519     6750     6022     5440     5152     5259     5641 
    6080     6439     6686     6829     6852     6712     6381     5896 
    5286     4560     3866     3519     3748     4544     5621     6559 
    7090     7146     6797     6169     5336     4297     3067     1757 
     544     -414     -957    -1042     -854     -648     -552     -588 
    -757    -1082    -1597    -2301    -3044    -3589    -3866    -4006 
   -4159    -4352    -4511    -4580    -4523    -4278    -3831    -3217 
   -2423    -1452     -369      758     1811     2565     2879     2778 
    2448     2187     2204     2571     3310     4405     5796     7392 
    8954    10133    10687    10623    10129     9412     8545     7510 
    6309     5069     3986     3130     2363     1502      560     -236 
    -639     -535       29      866     1736     2482     3073     3532 
    3839     3966     3919     3811     3836     4062     4341     4430 
    4113     3372     2366     1166     -251    -1729    -2932    -3549 
   -3423    -2574    -1156      631     2565     4367     5756     6539 
    6794     6879     7129     7623     8263     8904     9378     9520 
    9205     8451     7476     6552     5811     5205     4577     3844 
    3030     2172     1294      496      -25      -97      282      977 
    1867     2844     3761     4446     4756     4672     4413     4330 
    4626     5223     5903     6513     6960     7117     6848     6072 
    4838     3441     2382     2087     2582     3495     4446     5336 
    6280     7344     8340     8966     9138     9040     8919     8908 
    9004     9142     9306     9590    10053    10574    10941    11018 
   10750    10054     8815     7003     4808     2504      321    -1522 
   -2934    -3939    -4529    -4772    -4889    -5051    -5270    -5429 
   -5346    -4900    -4141    -3223    -2290    -1406     -621      -55 
     186       97     -259     -761    -1314    -1930    -2606    -3219 
   -3553    -3451    -2929    -2110    -1100       72     1466     3117 
    4915     6602     7878     8473     8220     7173     5648     4083 
    2847     2120     1849     1792     1652     1192      319     -854 
   -2050    -2920    -3226    -3063    -2810    -2736    -2736    -2544 
   -2045    -1345     -637       45      820     1725     2573     3056 
    3041     2705     2297     1890     1445      972      526      147 
    -108     -116      189      765     1555     2403     3069     3396 
    3337     2930     2343     1904     1931     2520     3442     4237 
    4638     4833     5159     5755     6428     6822     6754     6349 
    5933     5784     5913     6228     6824     7732     8748     9616 
   10191    10484    10615    10683    10767    10898    11001    11078 
   11303    11772    12418    13062    13441    13392    12896    11942 
   10500     8654     6655     4889     3701     3167     3086     3146 
    3132     3057     3032     2970     2668     2074     1339      756 
     602      969     1818     3098     4666     6247     7545     8307 
    8351     7688     6590     5447     4498     3665     2682     1418 
      -1    -1375    -2550    -3472    -4170    -4587    -4552    -4041 
   -3343    -2860    -2798    -3029    -3280    -3397    -3381    -3300 
   -3195    -3044    -2825    -2601    -2463    -2434    -2413    -2277 
   -1972    -1551    -1075     -517      182      961     1636     2014 
    2008     1668     1154      680      371      172      -64     -382 
    -722    -1074    -1395    -1551    -1404     -874       25     1243 
    2754     4449     6048     7280     8028     8316     8284     8031 
    7491     6555     5223     3638     1993      415    -1088    -2515 
   -3789    -4819    -5563    -5976    -5934    -5348    -4276    -2859 
   -1236      515     2381     4306     6168     7848     9252    10361 
   11179    11591    11433    10673     9391     7636     5444     2914 
     159    -2674    -5354    -7631    -9336   -10305   -10401    -9675 
   -8355    -6681    -4887    -3161    -1575      -94     1359     2812 
    4178     5368     6413     7438     8537     9661    10644    11283 
   11421    11070    10403     9617     8872     8235     7693     7277 
    7020     6893     6914     7126     7527     8098     8708     9112 
    9090     8527     7442     6056     4619     3240     1999     1013 
     375      190      554     1474     2825     4428     6230     8328 
   10744    13300    15687    17612    18844    19195    18598    17232 
   15402    13277    10951     8559     6134     3638     1121    -1270 
   -3310    -4777    -5628    -5913    -5605    -4649    -3025     -824 
    1692     4221     6561     8614    10316    11504    11993    11811 
   11183    10316     9261     7900     6091     3775     1051    -1830 
   -4662    -7317    -9609   -11389   -12607   -13181   -13049   -12326 
  -11227    -9840    -8143    -6156    -3916    -1433     1206     3763 
    5999     7879     9551    11122    12501    13473    13937    13980 
   13791    13540    13339    13203    13061    12861    12625    12326 
   11853    11122    10243     9450     8911     8684     8692     8777 
    8827     8730     8305     7383     5900     3960     1779     -399 
   -2366    -4000    -5266    -6176    -6860    -7570    -8471    -9556 
  -10655   -11442   -11599   -10993    -9726    -8098    -6502    -5317 
   -4714    -4621    -4868    -5219    -5359    -5057    -4172    -2697 
    -881      936     2543     3859     4934     5845     6628     7348 
    8090     8864     9540     9900     9788     9132     7959     6389 
    4552     2558      556    -1240    -2717    -4002    -5159    -5942 
   -6134    -5890    -5436    -4773    -3856    -2801    -1769     -842 
      45     1005     2046     3114     4178     5206     6177     7072 
    7820     8221     8039     7165     5670     3819     2047      795 
     345      769     1931     3589     5460     7203     8484     9135 
    9215     8904     8352     7614     6685     5543     4202     2756 
    1297     -121    -1459    -2686    -3707    -4360    -4556    -4299 
   -3589    -2431     -982      464     1710     2752     3730     4847 
    6253     7897     9622    11352    13080    14767    16282    17435 
   18072    18129    17644    16753    15543    13992    12070     9798 
    7306     4812     2484      496     -928    -1686    -1818    -1431 
    -615      691     2621     5112     7919    10759    13324    15369 
   16788    17532    17591    16988    15722    13871    11569     8785 
    5309     1057    -3676    -8337   -12413   -15610   -17887   -19302 
  -19872   -19619   -18554   -16649   -13925   -10528    -6669    -2635 
    1256     4842     8106    11053    13687    16023    17965    19249 
   19589    18852    17093    14505    11322     7771     4113      641 
   -2378    -4773    -6482    -7591    -8267    -8522    -8228    -7469 
   -6516    -5589    -4833    -4234    -3634    -2882    -1884     -610 
     895     2455     3786     4742     5309     5429     5051     4261 
    3303     2432     1811     1529     1567     1863     2311     2679 
    2790     2585     2050     1348      733      378      432      936 
    1736     2647     3568     4441     5262     6068     6797     7168 
    6883     5890     4391     2690     1038     -450    -1750    -2845 
   -3774    -4630    -5471    -6258    -6913    -7391    -7678    -7803 
   -7761    -7491    -6906    -5877    -4270    -2043      679     3701 
    6826     9810    12371    14288    15481    16031    16108    15807 
   15186    14345    13370    12340    11306    10258     9180     8058 
    6887     5740     4769     4074     3630     3381     3289     3249 
    3088     2654     1922     1055      252     -349     -719    -1013 
   -1254    -1190     -668      209     1192     2083     2862     3547 
    4147     4696     5119     5252     5051     4530     3739     2826 
    1911     1054      373      -21     -166     -132       37      330 
     738     1271     1995     2940     4090     5441     6961     8533 
   10006    11272    12198    12694    12788    12556    12097    11470 
   10656     9661     8560     7434     6382     5489     4729     4033 
    3410     2876     2355     1782     1229      803      517      392 
     472      684      909     1062      982      457     -596    -2054 
   -3669    -5169    -6323    -7021    -7225    -6930    -6200    -5136 
   -3894    -2625    -1337       33     1499     2921     3987     4579 
    4889     5062     5219     5552     6064     6583     7042     7395 
    7557     7572     7526     7414     7318     7443     7865     8413 
    8918     9348     9675     9842     9830     9518     8671     7241 
    5448     3572     1787      122    -1472    -3046    -4602    -6091 
   -7406    -8376    -8881    -8981    -8796    -8345    -7645    -6767 
   -5771    -4702    -3585    -2431    -1221      108     1583     3130 
    4606     5800     6588     7011     7152     7094     6959     6789 
    6554     6284     6029     5749     5356     4819     4148     3388 
    2704     2299     2263     2551     3010     3512     4028     4585 
    5202     5868     6608     7506     8587     9828    11188    12571 
   13807    14783    15462    15867    16004    15778    15133    14137 
   12896    11539    10199     8931     7715     6528     5327     4108 
    3015     2182     1615     1312     1232     1350     1756     2517 
    3539     4594     5416     5845     5838     5421     4672     3694 
    2583     1405      197    -1039    -2273    -3372    -4187    -4645 
   -4791    -4780    -4689    -4499    -4270    -4089    -3942    -3771 
   -3469    -2961    -2351    -1814    -1409    -1092     -781     -319 
     442     1507     2722     3874     4745     5196     5225     4874 
    4168     3172     2037      892     -253    -1393    -2457    -3457 
   -4464    -5455    -6381    -7191    -7798    -8113    -8087    -7703 
   -6966    -5915    -4666    -3372    -2154    -1084     -148      735 
    1602     2415     3195     4001     4849     5756     6735     7744 
    8799     9964    11205    12432    13521    14264    14499    14211 
   13463    12325    10777     8793     6486     4091     1925      203 
   -1100    -2058    -2671    -2986    -3103    -3088    -2948    -2624 
   -1987     -950      448     2107     3843     5402     6608     7358 
    7576     7330     6812     6199     5663     5343     5274     5351 
    5394     5351     5310     5341     5413     5459     5503     5674 
    6104     6866     7919     9089    10169    11063    11762    12241 
   12449    12348    11908    11145    10170     9097     7935     6720 
    5562     4529     3715     3244     3044     2889     2623     2165 
    1455      513     -612    -1898    -3322    -4828    -6367    -7925 
   -9494   -10983   -12182   -12911   -13138   -12930   -12332   -11313 
   -9836    -7952    -5768    -3379     -858     1730     4301     6739 
    8904    10647    11877    12542    12579    11985    10817     9180 
    7308     5470     3834     2502     1503      769      222     -118 
    -241     -198       -8      348      903     1711     2774     4083 
    5616     7219     8757    10234    11654    12960    14108    15113 
   15963    16559    16783    16560    15889    14816    13387    11715 
    9967     8301     6818     5537     4410     3416     2652     2254 
    2182     2262     2380     2462     2443     2284     1915     1340 
     672      -10     -758    -1688    -2821    -4071    -5370    -6631 
   -7720    -8554    -9054    -9135    -8823    -8205    -7296    -6070 
   -4509    -2650     -633     1350     3145     4649     5857     6786 
    7435     7852     8068     8017     7626     6840     5645     4132 
    2450      739     -822    -2104    -3095    -3865    -4530    -5200 
   -5877    -6463    -6840    -6945    -6795    -6415    -5841    -5140 
   -4297    -3248    -1996     -558      974     2423     3663     4644 
    5351     5888     6446     7190     8202     9423    10685    11843 
   12849    13760    14623    15358    15844    16033    15938    15723 
   15661    15886    16367    16989    17563    17902    17933    17682 
   17166    16347    15195    13787    12202    10455     8534     6477 
    4392     2407      577    -1100    -2621    -4023    -5389    -6710 
   -7902    -8881    -9553    -9859    -9780    -9375    -8807    -8240 
   -7763    -7352    -6889    -6318    -5703    -5131    -4637    -4205 
