Origin Time       2025/01/13 21:19:00
Lat.              31.8
Long.             131.6
Depth. (km)       30
Mag.              6.9
Station Code      KMM009
Station Lat.      32.6864
Station Long.     130.9886
Station Height(m) 466
Record Time       2025/01/13 21:19:51
Sampling Freq(Hz) 100Hz
Duration Time(s)  105
Dir.              N-S
Scale Factor      7845(gal)/8223790
Max. Acc. (gal)   28.238
Last Correction   2025/01/13 21:19:51
Memo.             
[...]
    8025     6218     2751    -1001    -3238    -3550    -2867    -2390 
   -2751    -3703    -4919    -6130    -6635    -5898    -4106    -2166 
   -1142    -1165    -1551    -1460     -461     1003     2493     3935 
    5027     5428     4862     3281     1555      886     1386     2116 
    2486     2563     1699    -1074    -4693    -7168    -8148    -7817 
   -6181    -4032    -1937      128     1773     2748     3276     3315 
    2768     1706      -68    -2485    -4687    -5652    -4742    -2203 
     845     3681     6138     7163     5628     2685      565     -265 
    -869    -1732    -2123    -1772    -1757    -2717    -3908    -4256 
   -3308    -1607     -454     -819    -2201    -3408    -4120    -4537 
   -4286    -2428      947     4016     5526     6227     7271     8349 
    8064     6114     3269       24    -3099    -5526    -7047    -7689 
   -7430    -6328    -5093    -4037    -2706    -1628    -1362     -932 
     344     1759     2697     3415     3862     3574     3295     4102 
    5468     6205     5753     4224     2012     -881    -4324    -7263 
   -8788    -8949    -8413    -7713    -6488    -4402    -2180     -399 
    1134     2259     2327     1228     -247    -1070     -847       27 
    1048     2212     3447     3855     3117     2442     2431     2138 
     853    -1047    -2924    -4299    -4812    -4650    -4010    -2604 
   -1007     -260      -86      364     1085     1660     2211     3125 
    4503     6046     6934     6662     5643     4347     3099     2127 
     882     -977    -2354    -2679    -3102    -4052    -4272    -2990 
   -1156      -55      322      745     1699     2914     3360     2716 
    1756      684     -837    -2516    -3879    -5139    -6328    -6610 
   -5799    -4795    -3959    -3041    -2304    -2405    -3122    -2816 
    -367     2988     5344     6301     6030     4133      583    -3658 
   -7334    -9733   -10551    -9841    -8429    -7198    -6444    -5940 
   -5124    -3735    -1713      588     1692      515    -1972    -3954 
   -4390    -3184     -828     1806     3611     3898     2933     1390 
     144      -82      237      615     1586     2793     3048     2482 
    2177     2616     3468     4191     4379     3646     1999       99 
   -1514    -2565    -2492     -909     1599     3727     4504     3956 
    2791     1972     2292     3856     5674     6423     5830     3886 
      21    -5167    -9536   -11437   -10837    -8654    -6010    -4132 
   -3821    -4791    -6102    -6906    -6794    -5811    -4469    -3632 
   -3947    -5413    -7248    -8530    -9055    -8530    -6393    -3186 
     -14     2717     4747     5753     5768     5240     5385     6883 
    8136     7280     4978     3092     2355     2598     3291     3746 
    3870     4213     5001     5854     6748     7717     7812     6046 
    2559    -1605    -5490    -8762   -10752   -10440    -7956    -4715 
   -2083     -209     1537     3426     5293     6759     7730     8255 
    7547     4950     1372    -1684    -3986    -6567    -9942   -13231 
  -15088   -15159   -14280   -12684    -9721    -5645    -1345     2440 
    4868     5931     6242     5659     4444     3547     3067     3003 
    3523     3816     3190     2230     1900     2351     2789     2551 
    1568       33    -1603    -2956    -3758    -3550    -1968      665 
    2596     1861     -928    -3504    -5158    -6214    -6088    -4743 
   -3586    -3365    -3651    -3774    -2743      361     5657    12287 
   18203    20952    19777    15924    10658     4557    -1518    -6057 
   -8133    -8734    -9606   -10505   -10023    -9247   -10153   -12195 
  -13398   -11658    -7164    -3045      -64     3114     5876     7670 
    8541     8047     6893     6073     5478     4035      768    -3160 
   -6122    -7977    -8611    -7785    -5371    -1945      252      148 
    -842    -2095    -3832    -4739    -3792    -2126     -924     -517 
   -1242    -2747    -4070    -4804    -4691    -3349     -935     1952 
    4407     5151     3929     2361     1660     1047     -346    -2119 
   -3954    -6129    -7952    -8087    -6291    -3134      302     2529 
    3361     3947     4395     3824     2295      511    -1174    -2836 
   -4737    -6473    -7496    -8197    -8603    -7938    -6181    -3878 
    -980     2571     6231     9626    12784    15167    15809    14304 
   10976     7087     3708      201    -3708    -6601    -7677    -7609 
   -7349    -7002    -5717    -3383    -1146      608     2683     5316 
    7395     7781     7038     6596     6450     5807     5123     4680 
    3187      496    -1574    -2153    -1829    -1213     -587     -199 
    -639    -2123    -3943    -5386    -6134    -6311    -6297    -5914 
   -4741    -3001    -1466     -480      550     2212     4240     5790 
    5991     4611     2304     -263    -2755    -4511    -4823    -3802 
   -2189     -714      178      702     1136     1289     1335     1278 
     679       90      135      167     -523    -1871    -3186    -3636 
   -3225    -2654    -1981     -822      444     1526     2739     3667 
    3534     2157     -202    -2633    -4168    -4792    -5046    -5468 
   -6231    -6940    -7604    -8684    -9448    -8822    -7641    -7253 
   -7447    -7863    -8916   -10165   -10648   -10370    -9429    -7561 
   -4918    -2139       31     1506     2957     4860     6910     8299 
    8441     7470     5795     3572     1351      -66     -967    -2077 
   -2930    -2631    -1155     1089     3721     6797    10571    13532 
   13576    11256     8484     5923     3325      554    -2371    -5263 
   -7211    -6994    -4880    -2289      635     4098     6764     7800 
    7933     7504     6581     5773     4792     2920      776     -743 
   -1783    -2897    -4001    -4344    -3680    -2496    -1151      436 
    2558     4893     6392     6716     6396     5742     4633     2741 
      94    -2902    -6133    -9316   -11495   -12012   -11040    -8943 
   -5950    -2486      396     1861     2076     1378       91    -1363 
   -2647    -3215    -3208    -3188    -2762    -1398      884     3496 
    5337     6185     6609     6582     5998     5225     4290     2816 
     918     -915    -2517    -4121    -6129    -8506   -10511   -11584 
  -11608   -10692    -9150    -6961    -4063    -1112     1098     2504 
    3813     5152     5227     3638     2065     1448      974      317 
     217     1232     2914     3954     3854     3792     4475     5100 
    5184     4903     4347     3674     2547       56    -3788    -7736 
  -11248   -15007   -17937   -17898   -15990   -14254   -12305    -9682 
   -6725    -3672     -714     2161     4675     6299     7078     7468 
    8291    10233    11928    10806     7410     4465     1921    -1161 
   -4066    -6324    -7200    -6588    -6096    -6490    -7634    -8349 
   -6496    -2849      -76     1609     3285     4953     5815     5535 
    5019     4897     4183     3114     4789     9886    13961    13954 
   11645     9358     7157     3856     -909    -5962    -9760   -11506 
  -11643   -11125   -10551   -10409    -9580    -5810     -760     2107 
    3570     5063     6002     6502     6390     4866     2482     1094 
    1912     3573     4048     3038      733    -2263    -4433    -5139 
   -5036    -4450    -3146    -1823    -2344    -5105    -7036    -5647 
   -2813     -184     2952     6243     8999    10777    10169     6455 
    1244    -2516    -4155    -5647    -7411    -8642    -9702   -10462 
  -10401    -9967    -8706    -5259     -600     1953      951     -965 
    -764      180    -1236    -4232    -6597    -8263    -9181    -9247 
   -8804    -6864    -2619     2471     6478     9238    11273    12302 
   12444    12039    10575     7938     4671     1331    -1877    -5071 
   -7214    -7225    -6809    -8436   -11071   -11500    -9672    -7793 
   -5790    -2999      -45     2957     5876     7614     8164     9036 
   10017     9385     7395     5132     2425     -638    -3379    -5602 
   -7331    -8419    -8638    -7776    -6056    -4106    -2160        0 
    2340     4523     6320     7632     8294     8031     6447     3412 
    -684    -5061    -8599   -10515   -10702    -9350    -6689    -3149 
     340     3329     6384     9580    12226    13892    14368    13473 
   11414     8503     4681      105    -4409    -8110   -10652   -11871 
  -11848   -11011   -10018    -9184    -7979    -6037    -4014    -2311 
    -573     1042     2093     2532     2629     2839     3061     2848 
    2265     1236     -625    -3078    -5475    -7217    -7622    -6740 
   -5406    -3628     -919     1992     3847     4587     5028     5243 
    4471     2749     1198      415      -12     -610    -1244    -1571 
   -2142    -3380    -4577    -5123    -5070    -4637    -3873    -2968 
   -2166     -928     1116     3325     5224     6471     6369     4901 
    2772      384    -2085    -4214    -5460    -5775    -5725    -5582 
   -4982    -3839    -2547    -1201      359     2070     3793     5167 
    5676     5247     4324     3284     2077      762     -329    -1111 
   -1602    -2087    -2995    -4009    -4423    -4058    -3168    -1931 
    -205     2085     4567     6702     8186     8912     8953     8491 
    7701     6785     5771     4459     2670      415    -1953    -3809 
   -4831    -5113    -4743    -4167    -4189    -4754    -5124    -5308 
   -5876    -6824    -7553    -7657    -7199    -6359    -5397    -4905 
   -5117    -5302    -4791    -3925    -3213    -2497    -1480     -394 
     496     1621     3326     5142     6459     6929     6378     4695 
    1811    -1734    -4773    -6471    -6778    -6172    -5328    -4718 
   -4305    -3721    -2668     -940     1436     3871     5746     6924 
    7283     6625     5381     4611     4722     4835     4194     3090 
    2192     1899     2128     2489     2548     1857      213    -2161 
   -4719    -6867    -8410    -9185    -8834    -7782    -6885    -6118 
   -4870    -2793      -35     3087     6347     9285    11053    11024 
    9464     7072     4166      857    -2521    -5317    -6914    -7388 
   -7146    -5911    -3353     -548      835      772     1134     3167 
    5751     7614     8978     9559     8429     5745     2378     -657 
   -2330    -2789    -3415    -4839    -6550    -8012    -8824    -9112 
   -9450    -9536    -8549    -6651    -4615    -2762     -839     1325 
    3267     4367     4513     4212     4013     3609     2560     1809 
    2579     4183     5158     5364     5364     5146     4128     2251 
     230    -1575    -3262    -4637    -5397    -5764    -6043    -6551 
   -8085    -9846    -9778    -8653    -8016    -7032    -5628    -4210 
   -2299     -710      -40       21     -535     -938     -761     -481 
    -426     -997    -2046    -3073    -3670    -3468    -2884    -2165 
    -642     1491     2700     2122      945      552      498      -86 
   -1159    -2327    -3292    -4430    -6046    -7213    -7308    -6743 
   -5800    -4669    -3543    -2342    -1156     -213      454      777 
     913     1495     2766     4255     5641     6754     7094     6586 
    5985     5973     6602     7634     8757     9319     8606     6648 
    3874      529    -2999    -6180    -8618   -10142   -10712   -10346 
   -9444    -8622    -7673    -5697    -2689      496     3566     6454 
    8556     9259     8503     6640     4631     4012     4972     5787 
    5244     3723     1957      118    -1605    -2523    -2613    -2710 
   -3041    -2956    -1952     -754     -581    -1135    -1061      -97 
     830     1237     1318      756     -872    -2882    -4320    -5070 
   -5270    -4716    -3361    -1864    -1090    -1354    -2296    -3127 
   -3235    -2589    -1377      322     1984     2285      715    -1283 
   -2139    -1861    -1221     -449      580     1625     2234     2234 
    1853     1763     2462     3493     3952     3419     2047      228 
   -1715    -3326    -4045    -3882    -3223    -2339    -1331     -378 
     164      951     2928     5082     6021     5815     4784     3107 
    1151     -891    -2493    -2851    -2602    -3177    -4402    -5524 
   -6307    -6223    -5231    -4132    -3435    -3302    -4136    -5798 
   -6663    -5795    -4509    -4108    -4684    -5854    -7017    -7905 
   -8703    -9212    -8970    -7865    -5925    -3140      353     4006 
    6882     8413     8869     8845     8519     7501     5769     4002 
    2220     -128    -2976    -6092    -8993   -10419    -9629    -7418 
   -4812    -1988      899     3650     6494     9080    10606    11059 
   10882    10453     9850     8563     6285     3339       54    -2986 
   -4999    -5944    -6373    -6608    -6444    -6138    -6894    -8622 
   -9254    -8066    -6450    -5171    -4140    -3360    -2266     -556 
     899     1721     2234     2020      959       -6     -264      182 
    1105     1996     2636     3117     3410     3628     4094     5016 
    6239     7356     7986     7695     6338     4140     1057    -2605 
   -5967    -8676   -10698   -11670   -11410    -9856    -6817    -2920 
     811     4530     8658    12201    13695    12733     9481     4120 
   -1858    -5842    -7303    -7993    -8823    -9467    -9377    -7834 
   -4464      162     5227    10800    16646    21097    23006    22712 
   20922    17973    13701     8093     1655    -4698   -10054   -14620 
  -18457   -20027   -18601   -14810    -8922    -1502     6054    11947 
   14700    14346    11782     7453     1563    -5169   -11664   -17366 
  -22256   -26095   -28660   -30082   -29795   -26974   -22468   -17443 
  -11084    -2852     4963    10085    12798    13340    11111     8014 
    8137    11677    13174    10111     6561     4646     3111     2533 
    2936     3226     3318     2261     -183    -2772    -5364    -7626 
   -8482    -7705    -5652    -2567     1553     6365    10843    14002 
   15658    15762    13666    10515     8760     7881     6705     5088 
     587    -7267   -14489   -19101   -22296   -24698   -24844   -21555 
  -17896   -17126   -15835   -10334    -4294     -383     3469     6777 
    8847    10875    11673    10045     7095     3631     -684    -4445 
   -3746     1485     6528     9113     8864     5323     1123    -1548 
   -3206    -3208    -1509      633     3225     4819     3240     -271 
   -2674    -1958      371     1243     1121      846     -753    -3287 
   -5098    -5201    -3161      893     5805    10212    12587    10774 
    5097    -1285    -6978   -12376   -16641   -18589   -17633   -13956 
   -9998    -8444    -8619    -7541    -4198     -124     4345     9302 
   13616    17621    21512    23365    22281    19649    18019    18187 
   17371    13259     6918       62    -6744   -12718   -16879   -18976 
  -18801   -16455   -13899   -13782   -15103   -13713    -9208    -4764 
   -1108     1848     3167     3685     3703     1432    -2120    -3264 
   -1107     2204     4834     6026     6192     6300     6303     5904 
    5022     3499     1998     1071      182    -1607    -4529    -7315 
   -8525    -7789    -5803    -3627    -1464      711     2270     2178 
    -113    -3295    -5283    -5263    -3678    -2014    -1821    -3154 
   -4861    -5555    -4741    -3277    -1814     -388      463     -345 
   -2620    -3820    -2701    -1205     -526       68      853     1529 
    2054     2304     2177     2158     2632     3173     3793     5094 
    6779     8105     8689     8132     6253     3319     -271    -4178 
   -8077   -11603   -14254   -15566   -15438   -14181   -12375   -10160 
   -7015    -2916     1371     5231     8402    10804    12467    13045 
   12371    11407    10673     9315     7292     5613     4286     2728 
    1128       12     -603    -1046    -1329    -1432    -1819    -2562 
   -2975    -2714    -2084    -1507    -1246    -1163     -783        0 
     557      398     -130     -427     -301      -91     -276     -711 
    -984    -1352    -2212    -3154    -3581    -3708    -3925    -3971 
   -3665    -3284    -3017    -2917    -3173    -3927    -4934    -6045 
   -7175    -7789    -7684    -7098    -6129    -5185    -4550    -3832 
   -2952    -2231    -1472     -114     1911     3967     5454     6010 
    5355     3991     2747     1791     1107      537     -201    -1111 
   -2174    -3368    -4550    -5494    -6056    -6277    -6138    -5780 
   -5381    -4719    -3613    -2030       18     2319     4479     6160 
    7452     8629     9621     9980     9194     7342     5049     2705 
     340    -2170    -4725    -6702    -7599    -7479    -6392    -4212 
   -1298     1486     3474     4753     5630     5868     5552     5227 
    4872     4126     2818     1181     -237    -1278    -2494    -4203 
   -5644    -6276    -6647    -6898    -6492    -5337    -3694    -1975 
    -801     -396     -508     -880    -1089     -719     -178     -365 
   -1290    -2443    -4035    -6141    -7859    -8109    -6666    -4252 
   -1395     1647     4236     6210     7784     8873     9593     9786 
    9040     7703     6056     3820     1196    -1182    -3223    -5336 
   -7227    -7912    -7387    -6448    -5287    -3711    -1802      -70 
    1216     2419     3578     4185     3932     3098     2114     1003 
    -218    -1391    -2415    -3092    -3485    -3824    -4039    -3883 
   -3244    -2276    -1024      475     1875     3095     4299     5400 
    6254     6971     7626     7925     7885     8067     8363     8145 
    7434     6378     5038     3850     2930     2158     1563      868 
     166     -198     -498     -885    -1219    -1507    -1810    -2280 
   -3133    -4557    -6462    -8542   -10663   -12791   -14875   -16687 
  -17793   -17994   -17298   -15589   -12671    -8424    -3049     2656 
    7557    10827    12279    12140    10858     9097     7318     5374 
    2700     -923    -4649    -7453    -9058    -9252    -7871    -5247 
   -1998      924     2960     4538     5860     6482     6241     5142 
    3343     1721     1001     1104     1792     2650     3295     3782 
    4002     3875     3573     3207     3041     3148     3018     2176 
     679    -1192    -3385    -5711    -7508    -8455    -8893    -9045 
   -8888    -8488    -7948    -7334    -6675    -6039    -5475    -4878 
   -4143    -3271    -2509    -2354    -2947    -3927    -5130    -6455 
   -7454    -7655    -6710    -4707    -2346     -251     1552     3462 
    5698     8062    10285    11782    11642     9783     6970     3854 
     973    -1116    -1960    -1647     -770       70       44     -788 
   -1237    -1156    -1051     -824     -449     -290     -882    -2439 
   -4618    -6847    -8311    -8249    -6459    -3188     1271     6417 
   11414    15736    19103    20974    20930    19044    16186    13189 
    9575     5265     1401    -1703    -4191    -5694    -6214    -6100 
   -5935    -6143    -6299    -6060    -5937    -6840    -9038   -11677 
  -13868   -15433   -16233   -15866   -14339   -11978    -8878    -5324 
   -1782     1594     4525     6496     7163     6546     5459     4725 
    4232     3692     2670      934     -793    -2149    -3160    -3333 
   -2648    -1702    -1167    -1792    -3686    -5948    -7542    -8102 
   -7975    -7697    -7298    -6489    -5232    -3685    -1956       94 
    2652     5356     7593     9119     9992    10299     9842     8193 
    5379     2006    -1305    -4171    -6266    -7400    -7605    -6851 
