Origin Time       2025/01/13 21:19:00
Lat.              31.8
Long.             131.6
Depth. (km)       30
Mag.              6.9
Station Code      KMM019
Station Lat.      32.4548
Station Long.     130.1807
Station Height(m) 10
Record Time       2025/01/13 21:20:14
Sampling Freq(Hz) 100Hz
Duration Time(s)  74
Dir.              U-D
Scale Factor      7845(gal)/8223790
Max. Acc. (gal)   2.282
Last Correction   2025/01/13 21:20:15
Memo.             
[...]
   -9661    -9755    -9836    -9890    -9923    -9948    -9960    -9956 
   -9944    -9946    -9979   -10027   -10079   -10112   -10111   -10110 
  -10130   -10141   -10119   -10087   -10065   -10046   -10018    -9987 
   -9945    -9891    -9832    -9772    -9701    -9606    -9494    -9390 
   -9298    -9211    -9139    -9100    -9099    -9113    -9115    -9094 
   -9058    -9008    -8950    -8892    -8839    -8804    -8803    -8822 
   -8843    -8883    -8939    -8989    -9011    -8984    -8903    -8803 
   -8699    -8553    -8364    -8179    -8041    -7956    -7904    -7892 
   -7923    -7965    -8005    -8055    -8112    -8181    -8274    -8388 
   -8502    -8595    -8672    -8730    -8725    -8645    -8542    -8463 
   -8407    -8357    -8283    -8185    -8091    -8036    -8023    -8037 
   -8074    -8117    -8144    -8152    -8171    -8203    -8226    -8217 
   -8159    -8085    -8050    -8066    -8109    -8171    -8256    -8370 
   -8498    -8596    -8644    -8650    -8633    -8603    -8576    -8552 
   -8518    -8473    -8444    -8436    -8428    -8422    -8434    -8449 
   -8449    -8433    -8418    -8405    -8379    -8349    -8336    -8336 
   -8357    -8419    -8526    -8657    -8783    -8876    -8942    -8999 
   -9045    -9086    -9127    -9165    -9189    -9192    -9192    -9198 
   -9181    -9128    -9062    -9008    -8966    -8911    -8835    -8769 
   -8734    -8738    -8789    -8891    -9032    -9194    -9359    -9509 
   -9626    -9720    -9807    -9895    -9985   -10072   -10138   -10176 
  -10195   -10223   -10278   -10350   -10424   -10501   -10589   -10663 
  -10690   -10681   -10652   -10596   -10516   -10435   -10370   -10326 
  -10291   -10253   -10223   -10206   -10196   -10201   -10219   -10246 
  -10277   -10285   -10234   -10111    -9936    -9767    -9660    -9609 
   -9594    -9621    -9702    -9837    -9985   -10104   -10201   -10292 
  -10361   -10390   -10384   -10362   -10338   -10314   -10295   -10292 
  -10305   -10330   -10350   -10349   -10312   -10235   -10119    -9985 
   -9867    -9769    -9686    -9616    -9558    -9506    -9481    -9483 
   -9502    -9517    -9517    -9502    -9486    -9452    -9386    -9298 
   -9209    -9124    -9043    -8959    -8868    -8791    -8752    -8741 
   -8753    -8806    -8878    -8953    -9039    -9132    -9215    -9290 
   -9350    -9379    -9387    -9383    -9369    -9343    -9306    -9259 
   -9213    -9186    -9189    -9208    -9223    -9246    -9292    -9354 
   -9418    -9458    -9452    -9418    -9366    -9296    -9234    -9192 
   -9157    -9117    -9066    -9003    -8938    -8870    -8792    -8723 
   -8691    -8700    -8737    -8785    -8833    -8865    -8876    -8885 
   -8912    -8965    -9046    -9146    -9243    -9315    -9346    -9355 
   -9369    -9394    -9429    -9447    -9417    -9355    -9289    -9223 
   -9154    -9094    -9061    -9045    -9045    -9058    -9082    -9099 
   -9085    -9043    -9001    -8981    -8976    -8973    -8961    -8950 
   -8957    -8964    -8962    -8981    -9032    -9094    -9154    -9212 
   -9267    -9310    -9327    -9320    -9315    -9342    -9401    -9459 
   -9499    -9526    -9545    -9560    -9564    -9559    -9535    -9491 
   -9429    -9358    -9296    -9251    -9219    -9207    -9225    -9261 
   -9293    -9324    -9360    -9393    -9423    -9452    -9487    -9529 
   -9564    -9575    -9563    -9545    -9536    -9541    -9563    -9571 
   -9533    -9464    -9402    -9358    -9319    -9285    -9274    -9279 
   -9281    -9273    -9254    -9217    -9180    -9159    -9162    -9189 
   -9225    -9250    -9270    -9289    -9305    -9327    -9351    -9370 
   -9386    -9405    -9424    -9439    -9450    -9459    -9451    -9421 
   -9408    -9421    -9425    -9390    -9332    -9285    -9263    -9251 
   -9243    -9243    -9240    -9221    -9193    -9162    -9135    -9112 
   -9101    -9109    -9139    -9174    -9175    -9146    -9109    -9077 
   -9035    -8988    -8946    -8904    -8865    -8839    -8833    -8851 
   -8889    -8931    -8968    -9001    -9034    -9062    -9090    -9117 
   -9131    -9132    -9119    -9086    -9054    -9047    -9067    -9100 
   -9123    -9123    -9101    -9074    -9059    -9051    -9022    -8966 
   -8911    -8869    -8831    -8789    -8748    -8721    -8710    -8714 
   -8729    -8737    -8723    -8710    -8718    -8729    -8719    -8703 
   -8691    -8688    -8695    -8710    -8737    -8776    -8820    -8862 
   -8888    -8888    -8868    -8826    -8762    -8688    -8606    -8530 
   -8484    -8476    -8513    -8591    -8687    -8787    -8881    -8955 
   -8992    -8995    -8974    -8959    -8972    -9000    -9019    -9047 
   -9112    -9181    -9217    -9228    -9240    -9266    -9306    -9340 
   -9355    -9359    -9356    -9358    -9366    -9371    -9362    -9335 
   -9301    -9273    -9261    -9265    -9286    -9306    -9304    -9281 
   -9252    -9220    -9180    -9140    -9109    -9081    -9058    -9047 
   -9028    -8989    -8955    -8954    -8977    -9016    -9070    -9131 
   -9190    -9254    -9328    -9398    -9437    -9440    -9428    -9427 
   -9425    -9410    -9387    -9370    -9362    -9347    -9325    -9312 
   -9306    -9306    -9310    -9324    -9360    -9418    -9486    -9553 
   -9610    -9670    -9741    -9818    -9887    -9944    -9990   -10046 
  -10120   -10208   -10307   -10415   -10505   -10550   -10554   -10539 
  -10498   -10430   -10351   -10281   -10219   -10168   -10143   -10146 
  -10161   -10179   -10177   -10147   -10098   -10045    -9987    -9900 
   -9783    -9664    -9563    -9474    -9400    -9352    -9325    -9301 
   -9277    -9250    -9220    -9185    -9158    -9142    -9123    -9099 
   -9100    -9142    -9219    -9313    -9413    -9510    -9599    -9663 
   -9686    -9682    -9672    -9661    -9639    -9602    -9556    -9505 
   -9440    -9354    -9252    -9148    -9046    -8946    -8857    -8773 
   -8694    -8635    -8611    -8614    -8621    -8622    -8627    -8626 
   -8602    -8553    -8492    -8436    -8392    -8359    -8326    -8306 
   -8311    -8343    -8399    -8461    -8505    -8527    -8533    -8533 
   -8552    -8588    -8654    -8761    -8872    -8968    -9065    -9144 
   -9205    -9281    -9393    -9524    -9640    -9730    -9818    -9902 
   -9964   -10007   -10057   -10111   -10156   -10181   -10179   -10141 
  -10077   -10002    -9929    -9879    -9863    -9863    -9856    -9853 
   -9867    -9886    -9894    -9894    -9894    -9904    -9925    -9942 
   -9950    -9936    -9888    -9826    -9767    -9710    -9661    -9630 
   -9613    -9594    -9566    -9533    -9489    -9424    -9344    -9259 
   -9177    -9108    -9057    -9023    -9020    -9054    -9100    -9130 
   -9153    -9200    -9273    -9348    -9404    -9444    -9481    -9520 
   -9563    -9610    -9668    -9745    -9845    -9946   -10022   -10068 
  -10104   -10129   -10135   -10120   -10081   -10029    -9980    -9936 
   -9888    -9836    -9786    -9745    -9705    -9648    -9578    -9499 
   -9418    -9328    -9227    -9127    -9047    -8992    -8950    -8915 
   -8892    -8878    -8873    -8856    -8810    -8741    -8661    -8577 
   -8499    -8422    -8349    -8297    -8263    -8236    -8222    -8226 
   -8240    -8270    -8311    -8359    -8414    -8500    -8621    -8753 
   -8880    -8991    -9097    -9212    -9329    -9437    -9529    -9606 
   -9667    -9715    -9748    -9752    -9741    -9741    -9745    -9740 
   -9730    -9715    -9686    -9643    -9587    -9525    -9451    -9369 
   -9294    -9235    -9188    -9159    -9154    -9151    -9140    -9134 
   -9144    -9154    -9153    -9130    -9082    -9026    -8986    -8968 
   -8958    -8955    -8968    -8991    -9011    -9034    -9077    -9142 
   -9216    -9279    -9329    -9379    -9433    -9477    -9508    -9528 
   -9528    -9506    -9475    -9435    -9382    -9328    -9282    -9235 
   -9169    -9084    -8988    -8891    -8792    -8699    -8619    -8561 
   -8519    -8484    -8448    -8415    -8395    -8398    -8428    -8476 
   -8533    -8588    -8633    -8656    -8660    -8654    -8657    -8679 
   -8715    -8756    -8800    -8845    -8891    -8951    -9032    -9120 
   -9197    -9258    -9304    -9335    -9342    -9316    -9267    -9223 
   -9181    -9134    -9085    -9040    -9003    -8973    -8945    -8916 
   -8899    -8897    -8899    -8899    -8899    -8900    -8919    -8953 
   -8982    -9013    -9054    -9090    -9113    -9121    -9112    -9092 
   -9066    -9030    -8985    -8935    -8881    -8837    -8819    -8829 
   -8856    -8891    -8931    -8978    -9028    -9086    -9150    -9213 
   -9275    -9328    -9370    -9404    -9435    -9458    -9478    -9504 
   -9533    -9551    -9548    -9524    -9485    -9440    -9393    -9342 
   -9294    -9266    -9247    -9229    -9246    -9310    -9404    -9495 
   -9582    -9655    -9715    -9772    -9817    -9832    -9826    -9815 
   -9815    -9832    -9844    -9842    -9840    -9840    -9837    -9823 
   -9795    -9752    -9697    -9624    -9529    -9424    -9324    -9242 
   -9177    -9121    -9066    -9011    -8974    -8964    -8972    -8992 
   -9019    -9055    -9094    -9128    -9169    -9225    -9296    -9360 
   -9409    -9448    -9493    -9537    -9559    -9547    -9522    -9514 
   -9521    -9525    -9525    -9533    -9555    -9585    -9610    -9630 
   -9655    -9690    -9726    -9751    -9767    -9780    -9790    -9786 
   -9772    -9755    -9733    -9706    -9675    -9637    -9576    -9490 
   -9394    -9302    -9216    -9134    -9072    -9039    -9026    -9019 
   -9019    -9031    -9067    -9123    -9181    -9236    -9294    -9355 
   -9427    -9512    -9606    -9702    -9780    -9832    -9875    -9915 
   -9948    -9969    -9981    -9984    -9973    -9953    -9922    -9864 
   -9786    -9707    -9629    -9548    -9468    -9393    -9321    -9258 
   -9205    -9167    -9142    -9120    -9093    -9070    -9046    -9019 
   -8991    -8955    -8910    -8857    -8804    -8762    -8735    -8718 
   -8714    -8725    -8745    -8758    -8757    -8733    -8696    -8667 
   -8645    -8629    -8619    -8606    -8595    -8606    -8634    -8671 
   -8718    -8776    -8838    -8895    -8943    -8993    -9045    -9085 
   -9101    -9103    -9108    -9117    -9132    -9157    -9190    -9231 
   -9265    -9292    -9309    -9321    -9331    -9333    -9331    -9327 
   -9319    -9304    -9281    -9251    -9219    -9178    -9124    -9061 
   -9003    -8959    -8924    -8887    -8851    -8833    -8833    -8838 
   -8835    -8824    -8812    -8799    -8789    -8788    -8785    -8775 
   -8766    -8770    -8770    -8758    -8742    -8730    -8725    -8737 
   -8764    -8791    -8820    -8857    -8897    -8937    -8965    -8980 
   -8989    -8986    -8964    -8924    -8883    -8838    -8791    -8748 
   -8722    -8722    -8745    -8781    -8830    -8895    -8969    -9047 
   -9127    -9208    -9289    -9366    -9421    -9450    -9455    -9448 
   -9439    -9435    -9424    -9404    -9389    -9387    -9389    -9385 
   -9382    -9397    -9425    -9458    -9489    -9531    -9579    -9628 
   -9678    -9713    -9736    -9765    -9799    -9829    -9842    -9845 
   -9846    -9841    -9823    -9798    -9756    -9694    -9607    -9501 
   -9386    -9267    -9139    -9013    -8914    -8838    -8781    -8750 
   -8742    -8739    -8727    -8698    -8650    -8604    -8575    -8563 
   -8552    -8530    -8513    -8514    -8541    -8580    -8623    -8676 
   -8749    -8833    -8901    -8946    -8974    -9005    -9062    -9150 
   -9258    -9374    -9493    -9612    -9720    -9811    -9886    -9952 
  -10023   -10096   -10165   -10233   -10300   -10363   -10417   -10458 
  -10478   -10470   -10440   -10397   -10327   -10234   -10137   -10044 
   -9944    -9838    -9737    -9653    -9597    -9566    -9548    -9537 
   -9529    -9510    -9478    -9452    -9447    -9460    -9483    -9520 
   -9564    -9614    -9657    -9686    -9707    -9732    -9759    -9782 
   -9795    -9809    -9823    -9829    -9830    -9830    -9830    -9840 
   -9867    -9900    -9923    -9934    -9937    -9921    -9872    -9801 
   -9721    -9633    -9540    -9439    -9331    -9225    -9121    -9032 
   -8964    -8908    -8864    -8829    -8802    -8784    -8779    -8785 
   -8800    -8820    -8847    -8884    -8923    -8970    -9032    -9101 
   -9175    -9251    -9323    -9391    -9440    -9466    -9482    -9482 
   -9459    -9421    -9377    -9327    -9270    -9212    -9161    -9111 
   -9050    -8982    -8910    -8824    -8737    -8658    -8581    -8506 
   -8438    -8386    -8349    -8328    -8316    -8320    -8341    -8376 
   -8417    -8455    -8488    -8517    -8534    -8553    -8584    -8630 
   -8687    -8754    -8826    -8893    -8946    -8977    -8993    -9001 
   -9004    -9000    -8991    -8982    -8978    -8985    -9005    -9039 
   -9085    -9135    -9169    -9171    -9140    -9081    -9001    -8907 
   -8793    -8668    -8541    -8422    -8325    -8262    -8221    -8202 
   -8203    -8212    -8221    -8243    -8282    -8337    -8406    -8482 
   -8554    -8614    -8650    -8662    -8657    -8642    -8635    -8641 
   -8660    -8694    -8725    -8741    -8746    -8752    -8750    -8739 
   -8735    -8756    -8792    -8827    -8846    -8856    -8856    -8839 
   -8806    -8761    -8718    -8680    -8660    -8648    -8630    -8619 
   -8621    -8626    -8641    -8671    -8712    -8770    -8846    -8934 
   -9036    -9158    -9294    -9443    -9603    -9775    -9941   -10093 
  -10231   -10350   -10451   -10547   -10654   -10781   -10925   -11067 
  -11198   -11325   -11439   -11529   -11591   -11637   -11665   -11662 
  -11632   -11584   -11511   -11411   -11292   -11168   -11044   -10918 
  -10793   -10662   -10524   -10380   -10224   -10064    -9903    -9748 
   -9607    -9487    -9396    -9342    -9328    -9339    -9370    -9418 
   -9479    -9549    -9630    -9724    -9819    -9904    -9977   -10042 
  -10088   -10107   -10106   -10100   -10096   -10088   -10080   -10076 
  -10083   -10107   -10145   -10192   -10253   -10322   -10386   -10443 
  -10496   -10542   -10571   -10585   -10575   -10538   -10485   -10431 
  -10372   -10305   -10246   -10187   -10108   -10006    -9900    -9801 
   -9697    -9583    -9479    -9390    -9313    -9252    -9201    -9161 
   -9138    -9127    -9124    -9127    -9128    -9127    -9130    -9134 
   -9127    -9107    -9085    -9070    -9049    -9009    -8964    -8918 
   -8866    -8797    -8711    -8615    -8518    -8424    -8336    -8259 
   -8185    -8117    -8051    -7982    -7916    -7854    -7796    -7746 
   -7713    -7684    -7657    -7646    -7649    -7653    -7657    -7662 
   -7676    -7708    -7754    -7805    -7861    -7917    -7978    -8040 
   -8102    -8167    -8240    -8314    -8384    -8452    -8519    -8587 
   -8656    -8730    -8800    -8874    -8957    -9050    -9147    -9239 
   -9319    -9385    -9440    -9491    -9545    -9598    -9648    -9699 
   -9748    -9790    -9829    -9871    -9899    -9902    -9891    -9873 
   -9856    -9846    -9840    -9828    -9814    -9810    -9826    -9850 
   -9873    -9898    -9925    -9954    -9977    -9988    -9991    -9990 
   -9984    -9968    -9944    -9915    -9883    -9855    -9826    -9788 
   -9749    -9711    -9668    -9620    -9568    -9522    -9482    -9444 
   -9404    -9369    -9352    -9354    -9362    -9371    -9378    -9389 
   -9397    -9402    -9413    -9435    -9463    -9493    -9537    -9590 
   -9637    -9672    -9694    -9705    -9717    -9730    -9748    -9769 
   -9784    -9795    -9811    -9832    -9849    -9864    -9868    -9850 
   -9806    -9729    -9620    -9482    -9324    -9154    -8976    -8789 
   -8603    -8424    -8243    -8071    -7924    -7809    -7739    -7709 
   -7697    -7699    -7709    -7735    -7771    -7817    -7874    -7947 
   -8031    -8113    -8189    -8263    -8347    -8437    -8527    -8626 
   -8742    -8865    -8985    -9105    -9223    -9323    -9404    -9474 
   -9537    -9591    -9643    -9691    -9730    -9764    -9795    -9823 
   -9852    -9882    -9914    -9948    -9984   -10022   -10061   -10092 
  -10110   -10108   -10093   -10069   -10044   -10011    -9963    -9896 
   -9818    -9730    -9637    -9548    -9470    -9397    -9329    -9271 
   -9223    -9181    -9148    -9124    -9109    -9107    -9120    -9142 
   -9171    -9212    -9262    -9313    -9371    -9435    -9501    -9558 
   -9599    -9632    -9661    -9675    -9682    -9688    -9691    -9686 
   -9675    -9660    -9637    -9614    -9585    -9547    -9506    -9471 
   -9437    -9401    -9360    -9320    -9285    -9244    -9200    -9166 
   -9148    -9146    -9157    -9174    -9189    -9204    -9229    -9263 
   -9304    -9346    -9385    -9429    -9477    -9518    -9559    -9601 
   -9651    -9706    -9764    -9817    -9863    -9904    -9941    -9967 
   -9988   -10007   -10008    -9996    -9971    -9926    -9876    -9833 
   -9795    -9753    -9702    -9647    -9586    -9518    -9445    -9360 
   -9254    -9131    -8993    -8843    -8684    -8522    -8368    -8235 
   -8120    -8017    -7921    -7828    -7739    -7655    -7577    -7506 
   -7456    -7439    -7449    -7487    -7550    -7631    -7727    -7838 
   -7969    -8118    -8275    -8424    -8559    -8683    -8796    -8892 
   -8968    -9016    -9043    -9053    -9045    -9023    -9001    -8982 
   -8968    -8958    -8958    -8969    -8993    -9032    -9078    -9131 
   -9198    -9273    -9342    -9402    -9448    -9481    -9509    -9526 
   -9528    -9510    -9468    -9401    -9321    -9234    -9144    -9062 
   -8991    -8930    -8876    -8820    -8766    -8726    -8706    -8696 
   -8691    -8681    -8662    -8642    -8626    -8613    -8607    -8621 
   -8653    -8700    -8761    -8823    -8884    -8954    -9032    -9112 
   -9202    -9300    -9393    -9479    -9558    -9621    -9678    -9724 
   -9753    -9764    -9753    -9732    -9711    -9693    -9679    -9672 
   -9672    -9690    -9725    -9765    -9802    -9833    -9853    -9852 
   -9829    -9791    -9742    -9688    -9633    -9587    -9563    -9559 
   -9564    -9586    -9621    -9659    -9699    -9753    -9817    -9884 
   -9958   -10037   -10114   -10179   -10230   -10269   -10292   -10293 
  -10273   -10227   -10157   -10073    -9975    -9861    -9732    -9593 
   -9451    -9323    -9219    -9136    -9065    -9004    -8951    -8903 
   -8858    -8822    -8796    -8780    -8765    -8750    -8735    -8711 
   -8688    -8680    -8680    -8676    -8671    -8675    -8683    -8685 
   -8692    -8707    -8721    -8738    -8766    -8799    -8831    -8861 
   -8895    -8942    -9001    -9062    -9121    -9175    -9221    -9261 
   -9297    -9333    -9367    -9389    -9397    -9404    -9414    -9433 
   -9458    -9486    -9518    -9562    -9624    -9709    -9795    -9875 
   -9954   -10037   -10104   -10164   -10219   -10257   -10273   -10276 
  -10268   -10245   -10214   -10179   -10130   -10064    -9998    -9938 
   -9875    -9813    -9761    -9717    -9683    -9661    -9648    -9645 
   -9656    -9667    -9680    -9701    -9722    -9740    -9751    -9755 
   -9751    -9726    -9688    -9652    -9609    -9552    -9481    -9393 
   -9296    -9200    -9107    -9012    -8919    -8830    -8754    -8695 
   -8660    -8641    -8637    -8656    -8695    -8748    -8816    -8901 
   -8991    -9080    -9165    -9242    -9310    -9377    -9441    -9505 
   -9563    -9617    -9661    -9694    -9722    -9757    -9791    -9819 
