Origin Time       2025/01/13 21:19:00
Lat.              31.8
Long.             131.6
Depth. (km)       30
Mag.              6.9
Station Code      KOC001
Station Lat.      33.5277
Station Long.     134.2808
Station Height(m) 7
Record Time       2025/01/13 21:20:52
Sampling Freq(Hz) 100Hz
Duration Time(s)  60
Dir.              N-S
Scale Factor      7845(gal)/8223790
Max. Acc. (gal)   1.394
Last Correction   2025/01/13 21:20:51
Memo.             
[...]
   -1887    -1884    -1910    -1953    -2007    -2053    -2081    -2104 
   -2112    -2100    -2083    -2064    -2034    -1991    -1941    -1898 
   -1885    -1922    -1988    -2049    -2092    -2131    -2162    -2168 
   -2147    -2106    -2043    -1976    -1917    -1864    -1825    -1813 
   -1834    -1887    -1960    -2023    -2060    -2077    -2077    -2056 
   -2031    -2007    -1968    -1933    -1915    -1907    -1896    -1871 
   -1848    -1856    -1881    -1910    -1933    -1944    -1957    -1983 
   -2010    -2038    -2058    -2057    -2053    -2047    -2039    -2039 
   -2046    -2056    -2058    -2047    -2042    -2058    -2064    -2046 
   -2015    -1976    -1941    -1923    -1918    -1919    -1921    -1922 
   -1946    -2002    -2058    -2095    -2104    -2092    -2068    -2041 
   -2014    -1985    -1957    -1945    -1971    -2011    -2016    -1996 
   -1972    -1949    -1948    -1979    -2006    -2007    -1992    -1983 
   -1989    -1995    -1979    -1966    -1983    -2019    -2066    -2115 
   -2149    -2160    -2150    -2142    -2124    -2073    -2014    -1976 
   -1964    -1969    -1977    -1987    -2014    -2034    -2027    -2019 
   -2029    -2037    -2031    -2019    -1996    -1948    -1891    -1854 
   -1841    -1853    -1891    -1933    -1969    -2011    -2038    -2033 
   -2030    -2052    -2062    -2050    -2039    -2031    -2019    -2019 
   -2041    -2074    -2107    -2133    -2155    -2173    -2189    -2205 
   -2199    -2170    -2146    -2138    -2133    -2107    -2062    -2006 
   -1942    -1894    -1869    -1876    -1906    -1933    -1968    -2015 
   -2047    -2072    -2096    -2093    -2073    -2066    -2069    -2061 
   -2034    -2000    -1966    -1921    -1868    -1841    -1849    -1881 
   -1921    -1937    -1944    -1964    -1991    -2004    -2010    -2011 
   -2004    -1987    -1966    -1962    -1981    -2011    -2042    -2080 
   -2115    -2137    -2149    -2160    -2180    -2199    -2201    -2196 
   -2182    -2162    -2155    -2145    -2093    -2031    -2003    -1988 
   -1971    -1960    -1953    -1937    -1923    -1937    -1965    -1979 
   -1983    -1976    -1961    -1949    -1926    -1890    -1868    -1863 
   -1868    -1894    -1922    -1931    -1941    -1976    -2020    -2047 
   -2045    -2030    -2015    -2006    -1999    -1996    -2000    -1996 
   -1976    -1972    -1991    -2008    -2039    -2095    -2139    -2158 
   -2165    -2176    -2180    -2155    -2115    -2077    -2041    -2029 
   -2039    -2038    -2027    -2025    -2041    -2085    -2141    -2169 
   -2161    -2124    -2069    -2016    -1975    -1941    -1917    -1899 
   -1881    -1879    -1907    -1957    -1998    -2026    -2053    -2072 
   -2074    -2062    -2033    -1983    -1923    -1883    -1879    -1900 
   -1927    -1946    -1969    -2004    -2037    -2064    -2091    -2111 
   -2108    -2081    -2033    -1966    -1895    -1841    -1818    -1822 
   -1831    -1845    -1879    -1933    -1983    -2029    -2068    -2079 
   -2076    -2083    -2079    -2065    -2053    -2033    -2015    -2020 
   -2054    -2108    -2161    -2191    -2200    -2201    -2195    -2165 
   -2134    -2118    -2092    -2060    -2043    -2030    -2008    -1988 
   -1975    -1971    -1985    -2016    -2047    -2060    -2056    -2057 
   -2068    -2064    -2033    -1988    -1938    -1881    -1844    -1850 
   -1871    -1872    -1875    -1900    -1944    -1996    -2050    -2084 
   -2096    -2103    -2106    -2115    -2127    -2127    -2116    -2092 
   -2053    -2029    -2019    -1996    -1971    -1954    -1941    -1938 
   -1942    -1957    -1976    -1965    -1930    -1907    -1912    -1935 
   -1952    -1948    -1941    -1949    -1973    -2018    -2072    -2112 
   -2126    -2114    -2101    -2101    -2108    -2114    -2112    -2089 
   -2053    -2016    -1989    -1977    -1966    -1952    -1952    -1966 
   -1981    -2003    -2020    -2020    -2016    -2016    -2004    -1983 
   -1961    -1939    -1915    -1892    -1875    -1877    -1911    -1961 
   -2007    -2049    -2079    -2083    -2095    -2130    -2150    -2146 
   -2147    -2151    -2157    -2168    -2162    -2130    -2092    -2064 
   -2045    -2039    -2046    -2049    -2049    -2054    -2054    -2047 
   -2031    -1996    -1952    -1915    -1885    -1864    -1863    -1875 
   -1881    -1890    -1907    -1927    -1960    -2002    -2041    -2068 
   -2073    -2061    -2041    -2011    -1980    -1968    -1971    -1961 
   -1944    -1945    -1937    -1899    -1872    -1876    -1876    -1864 
   -1852    -1849    -1860    -1883    -1917    -1949    -1965    -1968 
   -1976    -1995    -2011    -2007    -1992    -1980    -1954    -1923 
   -1921    -1956    -1989    -2006    -2016    -2027    -2035    -2034 
   -2012    -1966    -1906    -1856    -1846    -1875    -1904    -1933 
   -1976    -2015    -2033    -2045    -2050    -2041    -2019    -1983 
   -1934    -1899    -1877    -1863    -1875    -1918    -1957    -1985 
   -2031    -2085    -2116    -2122    -2116    -2093    -2056    -2018 
   -1992    -1971    -1942    -1908    -1867    -1830    -1813    -1815 
   -1830    -1849    -1865    -1887    -1923    -1968    -2004    -2004 
   -1962    -1915    -1883    -1864    -1842    -1813    -1800    -1826 
   -1873    -1921    -1957    -1975    -1972    -1969    -1988    -2016 
   -2031    -2004    -1929    -1856    -1825    -1818    -1827    -1868 
   -1925    -1954    -1979    -2026    -2053    -2034    -2019    -2014 
   -1991    -1981    -1998    -1996    -1968    -1949    -1958    -1999 
   -2058    -2103    -2127    -2146    -2128    -2074    -2035    -2020 
   -2003    -1985    -1976    -1954    -1907    -1864    -1853    -1871 
   -1900    -1939    -1991    -2042    -2077    -2101    -2122    -2134 
   -2134    -2124    -2103    -2073    -2043    -2020    -1999    -1980 
   -1981    -1999    -2030    -2077    -2114    -2127    -2123    -2106 
   -2085    -2072    -2061    -2038    -2003    -1979    -1976    -1987 
   -2012    -2043    -2062    -2081    -2103    -2122    -2142    -2147 
   -2130    -2118    -2114    -2097    -2073    -2039    -2000    -1991 
   -2014    -2042    -2072    -2093    -2097    -2108    -2135    -2137 
   -2111    -2095    -2088    -2088    -2110    -2134    -2142    -2153 
   -2162    -2155    -2134    -2104    -2064    -2012    -1960    -1910 
   -1864    -1830    -1817    -1830    -1871    -1930    -1996    -2046 
   -2061    -2050    -2034    -2041    -2076    -2097    -2077    -2025 
   -1950    -1876    -1831    -1836    -1869    -1907    -1948    -2004 
   -2077    -2137    -2158    -2166    -2172    -2157    -2124    -2087 
   -2037    -1984    -1952    -1945    -1954    -1976    -2033    -2120 
   -2207    -2280    -2330    -2340    -2320    -2289    -2257    -2228 
   -2191    -2150    -2137    -2134    -2120    -2118    -2130    -2126 
   -2095    -2046    -1993    -1956    -1938    -1930    -1917    -1891 
   -1860    -1831    -1798    -1773    -1779    -1803    -1831    -1863 
   -1899    -1941    -1992    -2045    -2088    -2123    -2141    -2138 
   -2138    -2168    -2209    -2238    -2247    -2242    -2218    -2181 
   -2153    -2130    -2088    -2025    -1969    -1937    -1915    -1888 
   -1872    -1879    -1902    -1938    -1975    -1993    -1995    -1995 
   -2000    -2008    -2023    -2035    -2019    -1977    -1949    -1942 
   -1934    -1930    -1934    -1930    -1922    -1912    -1884    -1850 
   -1838    -1844    -1853    -1857    -1858    -1863    -1858    -1852 
   -1864    -1894    -1933    -1980    -2041    -2100    -2133    -2145 
   -2137    -2101    -2054    -2026    -2007    -1971    -1935    -1915 
   -1892    -1865    -1856    -1858    -1863    -1876    -1898    -1926 
   -1960    -1998    -2030    -2053    -2070    -2079    -2068    -2029 
   -1957    -1892    -1877    -1902    -1929    -1958    -2019    -2104 
   -2184    -2265    -2342    -2384    -2382    -2336    -2242    -2126 
   -2003    -1864    -1729    -1645    -1594    -1545    -1540    -1607 
   -1707    -1807    -1894    -1969    -2026    -2058    -2072    -2087 
   -2101    -2084    -2008    -1910    -1838    -1803    -1802    -1844 
   -1910    -1976    -2043    -2099    -2130    -2162    -2209    -2239 
   -2243    -2232    -2196    -2134    -2073    -2016    -1961    -1931 
   -1934    -1944    -1962    -2002    -2039    -2084    -2154    -2223 
   -2277    -2313    -2313    -2284    -2247    -2184    -2101    -2039 
   -1993    -1953    -1930    -1921    -1923    -1972    -2068    -2150 
   -2207    -2242    -2223    -2154    -2083    -2003    -1910    -1813 
   -1717    -1656    -1664    -1722    -1802    -1902    -2025    -2146 
   -2251    -2327    -2350    -2343    -2326    -2285    -2243    -2218 
   -2169    -2097    -2054    -2043    -2031    -2054    -2134    -2207 
   -2243    -2249    -2209    -2124    -2030    -1935    -1840    -1759 
   -1715    -1728    -1790    -1849    -1881    -1903    -1911    -1899 
   -1881    -1872    -1873    -1887    -1906    -1933    -1962    -1985 
   -2016    -2080    -2168    -2223    -2212    -2154    -2069    -1957 
   -1852    -1783    -1746    -1749    -1813    -1941    -2097    -2227 
   -2293    -2300    -2257    -2164    -2047    -1945    -1846    -1761 
   -1753    -1817    -1895    -1992    -2123    -2236    -2305    -2347 
   -2340    -2262    -2155    -2039    -1892    -1753    -1669    -1647 
   -1672    -1737    -1833    -1944    -2056    -2172    -2278    -2328 
   -2303    -2226    -2110    -1948    -1771    -1638    -1575    -1580 
   -1672    -1840    -2011    -2162    -2326    -2498    -2602    -2590 
   -2494    -2339    -2134    -1942    -1822    -1760    -1726    -1713 
   -1710    -1723    -1784    -1892    -1995    -2072    -2139    -2177 
   -2181    -2191    -2227    -2278    -2336    -2396    -2446    -2461 
   -2408    -2289    -2154    -2049    -1977    -1927    -1875    -1794 
   -1726    -1718    -1730    -1725    -1742    -1782    -1804    -1849 
   -1976    -2141    -2277    -2362    -2382    -2334    -2245    -2128 
   -1983    -1814    -1625    -1447    -1351    -1366    -1470    -1648 
   -1868    -2060    -2203    -2347    -2492    -2586    -2609    -2546 
   -2376    -2138    -1911    -1734    -1601    -1506    -1456    -1444 
   -1487    -1611    -1792    -1977    -2128    -2238    -2322    -2378 
   -2396    -2401    -2430    -2442    -2392    -2303    -2216    -2143 
   -2076    -2026    -1989    -1927    -1837    -1757    -1718    -1719 
   -1759    -1842    -1957    -2087    -2218    -2320    -2378    -2378 
   -2304    -2172    -2029    -1911    -1813    -1759    -1790    -1883 
   -1996    -2112    -2230    -2328    -2359    -2305    -2212    -2099 
   -1954    -1798    -1668    -1579    -1541    -1574    -1675    -1827 
   -2004    -2170    -2311    -2425    -2484    -2448    -2323    -2154 
   -1989    -1853    -1732    -1579    -1414    -1335    -1383    -1524 
   -1711    -1922    -2116    -2265    -2401    -2538    -2613    -2600 
   -2509    -2336    -2089    -1829    -1617    -1471    -1418    -1478 
   -1597    -1730    -1887    -2060    -2234    -2412    -2552    -2596 
   -2539    -2415    -2261    -2101    -1960    -1845    -1749    -1683 
   -1675    -1742    -1869    -2006    -2112    -2174    -2160    -2070 
   -1961    -1840    -1698    -1568    -1482    -1431    -1445    -1570 
   -1784    -2043    -2300    -2517    -2682    -2785    -2799    -2722 
   -2575    -2370    -2111    -1838    -1614    -1471    -1398    -1379 
   -1413    -1501    -1622    -1764    -1926    -2070    -2147    -2147 
   -2089    -1998    -1906    -1854    -1848    -1867    -1922    -2012 
   -2118    -2255    -2425    -2565    -2617    -2562    -2413    -2232 
   -2060    -1900    -1761    -1661    -1598    -1590    -1678    -1838 
   -1985    -2079    -2108    -2081    -2038    -2014    -2020    -2050 
   -2079    -2087    -2091    -2111    -2142    -2176    -2196    -2168 
   -2091    -1999    -1912    -1834    -1784    -1784    -1798    -1807 
   -1836    -1852    -1827    -1795    -1777    -1784    -1826    -1891 
   -1945    -1969    -1961    -1946    -1962    -2019    -2085    -2177 
   -2338    -2535    -2698    -2793    -2790    -2670    -2459    -2209 
   -1926    -1601    -1273     -984     -791     -739     -818    -1013 
   -1309    -1642    -1956    -2263    -2566    -2798    -2943    -3026 
   -3025    -2914    -2724    -2485    -2218    -1949    -1703    -1493 
   -1341    -1275    -1302    -1405    -1575    -1821    -2127    -2446 
   -2714    -2872    -2898    -2772    -2496    -2120    -1706    -1316 
   -1016     -830     -783     -888    -1085    -1301    -1543    -1840 
   -2178    -2511    -2799    -3002    -3042    -2911    -2697    -2462 
   -2220    -2007    -1865    -1792    -1750    -1729    -1718    -1705 
   -1701    -1732    -1806    -1891    -1942    -1938    -1885    -1796 
   -1694    -1620    -1603    -1638    -1705    -1810    -1945    -2052 
   -2115    -2174    -2259    -2369    -2478    -2566    -2616    -2604 
   -2519    -2397    -2280    -2180    -2124    -2142    -2180    -2177 
   -2143    -2116    -2084    -2037    -1973    -1873    -1749    -1649 
   -1609    -1629    -1688    -1759    -1848    -1971    -2099    -2193 
   -2257    -2266    -2201    -2103    -2018    -1973    -1988    -2041 
   -2089    -2116    -2123    -2119    -2135    -2192    -2269    -2331 
   -2358    -2339    -2286    -2226    -2151    -2053    -1923    -1759 
   -1571    -1402    -1291    -1247    -1287    -1451    -1734    -2087 
   -2459    -2818    -3138    -3369    -3472    -3439    -3273    -3001 
   -2654    -2253    -1838    -1459    -1152     -970     -942    -1080 
   -1364    -1713    -2052    -2346    -2575    -2737    -2839    -2871 
   -2814    -2666    -2455    -2230    -2026    -1881    -1819    -1852 
   -1976    -2157    -2351    -2501    -2552    -2498    -2362    -2185 
   -1996    -1811    -1682    -1644    -1668    -1738    -1836    -1911 
   -1952    -1975    -2003    -2030    -2015    -1948    -1848    -1757 
   -1709    -1710    -1745    -1783    -1806    -1818    -1813    -1786 
   -1755    -1728    -1702    -1678    -1651    -1594    -1520    -1485 
   -1517    -1621    -1792    -1996    -2193    -2369    -2529    -2675 
   -2759    -2729    -2582    -2365    -2119    -1877    -1682    -1552 
   -1455    -1374    -1351    -1424    -1602    -1876    -2185    -2442 
   -2583    -2597    -2497    -2308    -2072    -1813    -1561    -1333 
   -1138     -999     -932     -961    -1112    -1374    -1684    -1972 
   -2182    -2322    -2407    -2431    -2424    -2455    -2538    -2632 
   -2708    -2725    -2646    -2490    -2301    -2100    -1896    -1698 
   -1525    -1390    -1296    -1258    -1298    -1406    -1552    -1703 
   -1852    -1973    -2039    -2053    -2019    -1945    -1842    -1738 
   -1678    -1695    -1799    -1949    -2120    -2301    -2469    -2605 
   -2698    -2745    -2743    -2675    -2529    -2315    -2034    -1701 
   -1386    -1174    -1080    -1073    -1169    -1387    -1699    -2045 
   -2374    -2641    -2806    -2851    -2785    -2651    -2482    -2295 
   -2143    -2070    -2052    -2054    -2085    -2122    -2111    -2066 
   -2027    -1991    -1930    -1821    -1678    -1568    -1551    -1634 
   -1787    -1975    -2168    -2338    -2446    -2485    -2448    -2324 
   -2130    -1929    -1769    -1667    -1621    -1625    -1661    -1737 
   -1856    -2015    -2195    -2336    -2403    -2407    -2370    -2301 
   -2208    -2093    -1952    -1798    -1675    -1613    -1632    -1736 
   -1904    -2112    -2327    -2504    -2608    -2614    -2527    -2384 
   -2211    -2026    -1865    -1750    -1678    -1647    -1672    -1790 
   -1983    -2208    -2455    -2705    -2910    -2997    -2928    -2729 
   -2431    -2070    -1722    -1437    -1229    -1094    -1053    -1143 
   -1358    -1651    -1984    -2290    -2502    -2593    -2558    -2415 
   -2191    -1923    -1647    -1391    -1206    -1136    -1212    -1451 
   -1811    -2216    -2590    -2878    -3041    -3075    -2987    -2785 
   -2479    -2119    -1780    -1534    -1424    -1440    -1541    -1678 
   -1815    -1954    -2095    -2208    -2268    -2273    -2204    -2027 
   -1767    -1528    -1387    -1356    -1428    -1567    -1717    -1867 
   -2033    -2218    -2397    -2535    -2592    -2570    -2517    -2438 
   -2319    -2182    -2034    -1880    -1787    -1775    -1798    -1838 
   -1904    -1962    -1988    -1993    -1992    -2002    -2049    -2145 
   -2243    -2304    -2324    -2297    -2207    -2079    -1942    -1815 
   -1728    -1682    -1653    -1637    -1629    -1636    -1671    -1741 
   -1834    -1944    -2092    -2266    -2408    -2493    -2542    -2562 
   -2538    -2444    -2278    -2043    -1767    -1498    -1310    -1244 
   -1300    -1466    -1717    -1989    -2227    -2407    -2524    -2569 
   -2525    -2389    -2174    -1923    -1691    -1514    -1426    -1429 
   -1486    -1571    -1672    -1792    -1925    -2054    -2164    -2222 
   -2219    -2169    -2095    -2014    -1950    -1949    -2023    -2131 
   -2253    -2412    -2578    -2701    -2774    -2801    -2766    -2639 
   -2421    -2176    -1973    -1813    -1698    -1652    -1641    -1622 
   -1628    -1683    -1767    -1852    -1918    -1942    -1927    -1898 
   -1883    -1894    -1919    -1971    -2077    -2207    -2319    -2392 
   -2397    -2330    -2216    -2089    -1985    -1904    -1825    -1760 
   -1733    -1744    -1792    -1887    -2014    -2149    -2274    -2381 
   -2455    -2490    -2482    -2436    -2371    -2272    -2111    -1927 
   -1776    -1667    -1594    -1555    -1556    -1609    -1725    -1896 
   -2084    -2243    -2353    -2398    -2373    -2285    -2146    -1971 
   -1779    -1605    -1489    -1466    -1544    -1692    -1877    -2076 
   -2258    -2392    -2451    -2417    -2312    -2168    -2008    -1863 
   -1741    -1669    -1676    -1760    -1910    -2099    -2280    -2421 
   -2504    -2519    -2490    -2436    -2351    -2243    -2139    -2053 
   -1977    -1918    -1895    -1900    -1902    -1907    -1942    -1987 
   -2014    -2015    -1981    -1910    -1829    -1745    -1669    -1636 
   -1641    -1660    -1701    -1798    -1933    -2064    -2182    -2270 
   -2285    -2232    -2147    -2047    -1944    -1861    -1806    -1768 
   -1767    -1826    -1939    -2088    -2250    -2366    -2401    -2386 
   -2335    -2249    -2143    -2016    -1860    -1710    -1629    -1633 
   -1678    -1713    -1725    -1721    -1734    -1773    -1809    -1844 
   -1872    -1860    -1818    -1798    -1798    -1800    -1838    -1921 
   -1992    -2029    -2054    -2084    -2120    -2150    -2158    -2160 
   -2147    -2101    -2029    -1958    -1899    -1841    -1810    -1823 
   -1854    -1888    -1929    -1984    -2066    -2162    -2250    -2311 
   -2340    -2347    -2350    -2358    -2350    -2303    -2218    -2112 
   -2022    -1966    -1938    -1933    -1937    -1930    -1915    -1914 
   -1942    -1988    -2033    -2068    -2092    -2118    -2150    -2169 
   -2181    -2211    -2261    -2324    -2388    -2416    -2394    -2330 
   -2224    -2107    -2007    -1917    -1831    -1773    -1760    -1787 
   -1823    -1850    -1879    -1914    -1953    -1993    -1998    -1941 
   -1838    -1710    -1584    -1516    -1526    -1571    -1634    -1737 
   -1856    -1971    -2088    -2195    -2286    -2358    -2388    -2378 
