Origin Time       2025/01/13 21:19:00
Lat.              31.8
Long.             131.6
Depth. (km)       30
Mag.              6.9
Station Code      KOC010
Station Lat.      33.3929
Station Long.     133.2852
Station Height(m) 2
Record Time       2025/01/13 21:20:36
Sampling Freq(Hz) 100Hz
Duration Time(s)  68
Dir.              E-W
Scale Factor      7845(gal)/8223790
Max. Acc. (gal)   1.938
Last Correction   2025/01/13 21:20:37
Memo.             
[...]
    8125     7670     7280     7148     7223     7373     7558     7815 
    8104     8293     8282     8117     7905     7715     7588     7469 
    7188     6756     6467     6605     7098     7601     7927     8113 
    8185     8167     8176     8280     8456     8627     8633     8338 
    7821     7368     7200     7263     7402     7587     7866     8228 
    8538     8634     8448     8082     7739     7514     7353     7182 
    6995     6891     6982     7253     7523     7589     7431     7183 
    6993     7021     7358     7871     8329     8599     8634     8492 
    8322     8266     8318     8306     8105     7803     7599     7604 
    7744     7901     8017     8102     8193     8256     8199     8013 
    7774     7589     7562     7713     7928     8062     8087     8052 
    8001     7996     8068     8116     8043     7916     7852     7920 
    8118     8360     8513     8502     8371     8232     8140     8105 
    8118     8094     7923     7643     7376     7144     6963     6987 
    7311     7771     8114     8268     8380     8599     8860     8980 
    8883     8618     8287     7979     7739     7514     7192     6845 
    6667     6727     6993     7368     7647     7669     7511     7419 
    7499     7647     7800     7932     7965     7912     7889     7843 
    7600     7245     7074     7159     7350     7547     7666     7591 
    7330     7057     6909     6867     6909     7082     7342     7524 
    7558     7497     7375     7249     7275     7487     7712     7835 
    7842     7742     7646     7719     7983     8295     8483     8496 
    8451     8410     8283     8023     7704     7419     7245     7258 
    7472     7774     8067     8355     8583     8613     8403     8094 
    7831     7645     7564     7695     8047     8386     8429     8151 
    7758     7434     7256     7245     7330     7406     7474     7595 
    7751     7897     7997     7997     7865     7700     7620     7626 
    7688     7777     7816     7766     7653     7551     7515     7484 
    7420     7399     7470     7653     7938     8181     8240     8127 
    7935     7711     7479     7334     7391     7589     7746     7797 
    7777     7635     7356     7042     6760     6561     6574     6837 
    7149     7277     7279     7403     7708     8100     8518     8810 
    8796     8602     8464     8368     8186     7971     7888     7954 
    8002     7954     7896     7819     7615     7321     7105     7036 
    7059     7133     7263     7445     7707     8082     8463     8661 
    8652     8581     8530     8440     8297     8164     8081     8066 
    8100     8106     8059     7969     7815     7651     7638     7796 
    7938     7973     8002     8086     8216     8441     8757     8991 
    8988     8758     8405     8035     7693     7372     7150     7138 
    7353     7743     8208     8557     8662     8573     8401     8268 
    8241     8244     8190     8127     8139     8257     8482     8748 
    8937     8973     8869     8653     8361     8101     7965     7901 
    7863     7885     7977     8117     8297     8478     8500     8262 
    7920     7717     7731     7835     7886     7911     8013     8251 
    8615     8942     8992     8737     8356     7977     7643     7449 
    7447     7584     7817     8116     8349     8391     8252     8052 
    7881     7770     7755     7805     7867     8004     8256     8523 
    8719     8773     8595     8210     7812     7601     7649     7881 
    8097     8136     8023     7902     7889     7921     7859     7746 
    7708     7720     7743     7858     8074     8208     8078     7755 
    7456     7272     7182     7156     7145     7156     7300     7638 
    8068     8434     8629     8672     8653     8594     8482     8314 
    8074     7785     7518     7338     7299     7371     7391     7323 
    7318     7445     7622     7755     7797     7755     7705     7763 
    8002     8291     8395     8224     7912     7685     7646     7774 
    7987     8172     8268     8283     8253     8205     8109     7942 
    7763     7657     7642     7666     7678     7642     7570     7481 
    7321     7080     6891     6843     6906     7011     7064     7029 
    6984     6997     7084     7244     7437     7612     7719     7763 
    7809     7854     7836     7780     7751     7765     7823     7920 
    7990     7965     7805     7534     7246     7030     6928     6959 
    7113     7358     7685     8056     8364     8465     8275     7919 
    7657     7560     7503     7407     7275     7172     7194     7365 
    7596     7717     7614     7330     7003     6775     6721     6831 
    6995     7102     7156     7265     7433     7504     7398     7207 
    7044     6960     6991     7087     7161     7227     7358     7545 
    7689     7722     7651     7484     7221     6970     6914     7095 
    7371     7657     7989     8384     8766     9005     9035     8851 
    8515     8166     7913     7774     7695     7624     7600     7653 
    7778     7975     8164     8209     8066     7861     7785     7908 
    8129     8294     8311     8253     8282     8452     8621     8617 
    8378     7948     7530     7407     7654     8064     8418     8644 
    8764     8838     8939     9057     9031     8738     8287     7925 
    7788     7832     7948     8005     7929     7823     7843     7989 
    8132     8158     8052     7943     7996     8249     8580     8807 
    8854     8770     8634     8514     8444     8433     8452     8442 
    8414     8405     8399     8364     8303     8229     8114     7912 
    7645     7395     7210     7107     7126     7280     7518     7747 
    7882     7927     7950     7950     7875     7711     7472     7238 
    7114     7082     7032     6898     6725     6639     6693     6810 
    6899     6953     7001     7082     7217     7377     7518     7627 
    7697     7682     7560     7356     7113     6870     6655     6515 
    6523     6697     6972     7258     7470     7607     7743     7898 
    8005     8012     7879     7619     7373     7307     7422     7623 
    7835     8019     8105     8012     7777     7547     7381     7275 
    7230     7186     7092     7011     7030     7167     7360     7542 
    7703     7851     7983     8101     8160     8086     7904     7724 
    7609     7520     7426     7369     7433     7615     7823     7989 
    8117     8213     8247     8202     8087     7971     7996     8216 
    8464     8523     8363     8112     7931     7935     8089     8241 
    8280     8224     8172     8183     8203     8191     8191     8228 
    8239     8187     8090     7975     7935     8024     8141     8156 
    8077     7978     7885     7789     7693     7588     7500     7453 
    7420     7406     7452     7551     7628     7562     7350     7136 
    7006     6957     6978     7045     7155     7341     7607     7857 
    7985     8000     7981     7935     7844     7742     7635     7524 
    7464     7479     7537     7631     7784     7955     8067     8094 
    8055     7951     7769     7562     7447     7433     7466     7557 
    7700     7843     7944     7983     7990     8010     8048     8073 
    8041     7948     7865     7866     7912     7878     7709     7481 
    7306     7233     7254     7304     7272     7109     6891     6750 
    6735     6814     6932     7001     6990     6995     7110     7321 
    7585     7842     7962     7924     7878     7931     8067     8233 
    8329     8267     8108     8020     8071     8199     8303     8303 
    8197     8041     7898     7759     7569     7349     7207     7210 
    7311     7452     7639     7878     8094     8214     8248     8213 
    8071     7857     7716     7751     7942     8178     8383     8540 
    8606     8590     8588     8604     8548     8406     8235     8105 
    8051     8040     8023     7959     7824     7661     7524     7445 
    7422     7416     7418     7416     7346     7249     7246     7350 
    7566     7923     8294     8472     8368     8095     7867     7817 
    7983     8313     8652     8866     8938     8868     8650     8349 
    8052     7803     7607     7485     7524     7743     8009     8179 
    8208     8129     8028     7951     7874     7759     7636     7604 
    7672     7735     7731     7676     7622     7623     7703     7839 
    7889     7719     7400     7101     6910     6875     6991     7164 
    7311     7476     7728     7996     8114     8010     7742     7429 
    7192     7115     7173     7265     7319     7317     7285     7296 
    7383     7512     7646     7763     7861     7935     7996     8074 
    8159     8201     8210     8189     8124     8074     8063     8008 
    7888     7759     7641     7530     7435     7369     7357     7414 
    7534     7673     7749     7730     7651     7520     7362     7256 
    7253     7346     7488     7600     7638     7600     7500     7402 
    7373     7431     7562     7724     7863     7960     8048     8162 
    8272     8345     8376     8365     8349     8380     8461     8549 
    8591     8544     8387     8166     7939     7762     7696     7693 
    7627     7503     7420     7429     7510     7591     7645     7701 
    7758     7823     7894     7896     7753     7524     7377     7396 
    7511     7639     7758     7848     7897     7924     7893     7732 
    7473     7234     7103     7080     7106     7133     7137     7115 
    7140     7242     7373     7514     7677     7857     8021     8132 
    8155     8094     8006     7938     7888     7848     7852     7928 
    8017     8037     7977     7847     7689     7566     7527     7578 
    7696     7859     8073     8301     8491     8646     8789     8916 
    9011     9031     8970     8880     8780     8623     8395     8139 
    7911     7763     7742     7828     7939     8012     8060     8100 
    8121     8139     8172     8199     8191     8143     8074     8020 
    8006     8043     8077     8062     8036     8028     8025     8032 
    8035     7992     7911     7839     7830     7913     8067     8260 
    8472     8679     8826     8858     8757     8556     8282     7965 
    7636     7348     7161     7107     7149     7214     7256     7279 
    7321     7362     7345     7277     7245     7280     7356     7446 
    7522     7535     7458     7337     7248     7225     7244     7264 
    7260     7271     7349     7487     7635     7751     7792     7765 
    7708     7616     7534     7535     7592     7609     7535     7395 
    7249     7134     7079     7072     7060     7042     7107     7298 
    7562     7873     8222     8563     8872     9148     9354     9443 
    9396     9229     8961     8603     8230     7929     7728     7609 
    7537     7530     7646     7882     8181     8449     8638     8789 
    8931     9045     9107     9055     8897     8746     8640     8518 
    8364     8199     8044     7925     7875     7913     8041     8220 
    8398     8526     8538     8399     8135     7792     7447     7179 
    7021     6948     6909     6902     6990     7213     7507     7724 
    7750     7600     7391     7226     7137     7076     6967     6790 
    6593     6442     6377     6384     6417     6485     6597     6731 
    6883     7032     7125     7144     7095     7032     7041     7129 
    7213     7219     7175     7138     7126     7134     7160     7202 
    7254     7326     7433     7576     7735     7915     8105     8264 
    8382     8468     8498     8467     8434     8436     8403     8256 
    7996     7695     7416     7198     7065     7029     7091     7257 
    7477     7697     7933     8170     8332     8430     8534     8641 
    8714     8762     8784     8776     8748     8708     8660     8588 
    8488     8390     8297     8176     8067     8024     8008     7977 
    7939     7928     7962     8014     8083     8151     8139     8024 
    7875     7738     7618     7511     7412     7317     7236     7179 
    7140     7115     7096     7074     7053     7047     7072     7110 
    7099     7020     6889     6729     6588     6529     6582     6710 
    6863     7026     7198     7379     7576     7781     7973     8144 
    8306     8464     8580     8584     8448     8216     7940     7678 
    7503     7454     7503     7596     7732     7909     8071     8168 
    8206     8222     8241     8259     8293     8360     8438     8483 
    8459     8332     8110     7889     7763     7716     7681     7628 
    7585     7605     7686     7751     7746     7682     7620     7614 
    7659     7717     7788     7882     7974     8039     8056     8021 
    7962     7904     7848     7773     7655     7531     7443     7381 
    7349     7365     7403     7434     7464     7495     7489     7429 
    7353     7299     7275     7321     7453     7634     7846     8077 
    8299     8494     8619     8618     8473     8253     8058     7921 
    7827     7789     7807     7817     7800     7773     7747     7753 
    7807     7875     7904     7857     7773     7739     7770     7816 
    7877     7965     8050     8147     8301     8469     8569     8577 
    8515     8430     8378     8382     8425     8486     8546     8596 
    8626     8631     8591     8479     8316     8133     7954     7819 
    7743     7685     7608     7503     7381     7258     7142     7049 
    6983     6914     6852     6840     6894     6976     7011     6951 
    6829     6712     6677     6756     6851     6849     6750     6596 
    6393     6149     5927     5794     5771     5846     5988     6170 
    6384     6658     6993     7321     7593     7794     7928     8028 
    8112     8152     8128     8056     8006     8006     8009     7981 
    7943     7912     7911     7970     8114     8338     8577     8764 
    8873     8904     8865     8803     8738     8681     8673     8738 
    8858     8986     9065     9101     9131     9124     9073     9012 
    8937     8829     8714     8634     8607     8644     8735     8815 
    8816     8749     8667     8594     8529     8459     8356     8229 
    8128     8122     8213     8325     8395     8438     8496     8579 
    8685     8793     8823     8730     8565     8411     8320     8283 
    8245     8151     7992     7821     7704     7635     7553     7420 
    7260     7118     7038     7032     7045     7017     6952     6909 
    6922     6968     7017     7018     6945     6849     6817     6893 
    7045     7207     7317     7318     7203     7040     6910     6835 
    6813     6851     6932     7042     7198     7400     7596     7726 
    7798     7836     7835     7811     7792     7771     7755     7782 
    7843     7867     7815     7701     7562     7422     7303     7209 
    7136     7086     7051     7029     7030     7069     7150     7273 
    7415     7557     7697     7819     7886     7919     7947     7956 
    7951     7948     7948     7923     7857     7759     7641     7507 
    7381     7310     7314     7366     7435     7495     7541     7607 
    7682     7715     7707     7690     7686     7708     7750     7815 
    7898     7965     7975     7924     7847     7782     7736     7703 
    7673     7661     7703     7796     7882     7932     7971     7994 
    7973     7925     7902     7927     7960     7951     7900     7851 
    7828     7816     7789     7735     7674     7650     7699     7823 
    7965     8063     8086     8040     7985     7973     8005     8040 
    8032     8000     7998     8054     8154     8226     8205     8079 
    7884     7680     7516     7419     7356     7257     7118     6984 
    6890     6836     6794     6745     6733     6799     6916     7048 
    7182     7277     7304     7284     7277     7304     7333     7362 
    7433     7561     7743     7959     8160     8299     8376     8419 
    8445     8433     8368     8276     8178     8067     7960     7882 
    7824     7766     7728     7753     7852     8005     8155     8244 
    8271     8255     8195     8106     8004     7896     7792     7723 
    7734     7836     7959     8062     8155     8199     8158     8063 
    7975     7932     7938     7971     8009     8024     8017     8021 
    8062     8124     8156     8131     8078     8028     8000     8017 
    8046     8031     7973     7904     7843     7809     7808     7813 
    7815     7827     7846     7855     7851     7835     7792     7704 
    7607     7550     7533     7551     7627     7744     7836     7851 
    7778     7662     7564     7510     7497     7497     7491     7493 
    7520     7558     7591     7605     7599     7584     7597     7649 
    7693     7684     7615     7504     7381     7285     7241     7246 
    7296     7387     7511     7668     7840     7993     8104     8176 
    8222     8249     8247     8229     8239     8253     8226     8166 
    8097     8040     8019     8046     8118     8205     8266     8299 
    8314     8286     8214     8149     8125     8128     8129     8135 
    8148     8167     8205     8263     8306     8316     8282     8221 
    8170     8133     8087     8028     7960     7897     7847     7804 
    7769     7734     7668     7581     7524     7519     7554     7611 
    7676     7757     7861     7979     8098     8208     8283     8310 
    8311     8324     8360     8399     8406     8359     8270     8175 
    8105     8060     8033     8048     8120     8232     8332     8374 
    8351     8274     8143     7959     7744     7542     7399     7326 
    7304     7325     7373     7410     7420     7418     7408     7385 
    7348     7330     7342     7348     7341     7334     7308     7261 
    7218     7169     7068     6934     6826     6747     6677     6658 
    6729     6863     7024     7188     7326     7426     7503     7568 
    7635     7697     7746     7789     7828     7848     7866     7901 
    7936     7960     7977     7989     7993     7992     8000     8014 
    8040     8110     8239     8391     8526     8604     8631     8650 
    8687     8733     8776     8811     8829     8808     8779     8784 
    8811     8785     8676     8511     8318     8120     7958     7838 
    7743     7678     7650     7666     7726     7800     7867     7901 
    7870     7788     7696     7604     7507     7395     7267     7141 
    7047     6997     6971     6959     6953     6934     6917     6949 
    7021     7056     7017     6951     6903     6893     6899     6901 
    6918     6971     7034     7096     7180     7280     7348     7392 
    7465     7585     7738     7912     8071     8159     8171     8170 
    8195     8249     8313     8372     8425     8463     8500     8557 
    8596     8581     8533     8486     8479     8538     8634     8714 
    8745     8750     8768     8779     8758     8703     8600     8463 
    8361     8349     8399     8457     8488     8491     8492     8503 
    8514     8500     8419     8284     8158     8064     7987     7915 
    7835     7727     7585     7450     7372     7339     7322     7314 
    7312     7321     7375     7473     7572     7653     7727     7812 
    7906     7982     8046     8087     8060     7982     7884     7769 
    7674     7639     7655     7704     7769     7821     7840     7811 
    7753     7699     7642     7585     7542     7519     7546     7619 
    7682     7712     7715     7711     7720     7730     7726     7716 
