Origin Time       2025/01/13 21:19:00
Lat.              31.8
Long.             131.6
Depth. (km)       30
Mag.              6.9
Station Code      KOC002
Station Lat.      33.2946
Station Long.     134.1666
Station Height(m) 19
Record Time       2025/01/13 21:20:47
Sampling Freq(Hz) 100Hz
Duration Time(s)  82
Dir.              U-D
Scale Factor      7845(gal)/8223790
Max. Acc. (gal)   0.877
Last Correction   2025/01/13 21:20:46
Memo.             
[...]
   16330    16320    16328    16341    16349    16356    16370    16384 
   16380    16347    16317    16316    16321    16326    16329    16320 
   16312    16321    16333    16343    16336    16289    16235    16233 
   16270    16291    16295    16305    16352    16428    16474    16461 
   16432    16417    16390    16329    16275    16259    16266    16271 
   16263    16244    16236    16244    16245    16225    16197    16187 
   16208    16249    16298    16336    16363    16397    16428    16410 
   16348    16289    16255    16252    16267    16255    16222    16218 
   16243    16263    16290    16332    16372    16380    16345    16301 
   16281    16271    16248    16214    16179    16156    16162    16190 
   16213    16220    16239    16270    16272    16251    16227    16195 
   16181    16195    16200    16174    16162    16190    16225    16229 
   16213    16198    16183    16182    16209    16231    16240    16274 
   16325    16349    16349    16349    16348    16366    16417    16471 
   16502    16514    16484    16414    16347    16305    16299    16339 
   16393    16436    16449    16403    16314    16222    16141    16089 
   16073    16075    16114    16208    16306    16363    16382    16398 
   16429    16441    16409    16367    16332    16295    16262    16221 
   16173    16131    16092    16056    16024    15993    15997    16046 
   16127    16239    16337    16380    16387    16378    16363    16363 
   16376    16405    16444    16467    16480    16497    16484    16448 
   16424    16432    16459    16470    16452    16410    16355    16305 
   16254    16205    16204    16266    16340    16359    16310    16231 
   16158    16100    16058    16046    16075    16120    16147    16152 
   16144    16155    16189    16197    16164    16137    16151    16189 
   16213    16210    16224    16270    16306    16310    16299    16294 
   16308    16325    16321    16297    16282    16293    16297    16260 
   16195    16155    16164    16204    16241    16263    16290    16325 
   16329    16294    16263    16254    16254    16259    16270    16286 
   16309    16321    16317    16314    16308    16310    16336    16360 
   16352    16317    16271    16224    16193    16197    16232    16278 
   16318    16359    16406    16428    16390    16326    16283    16262 
   16249    16237    16225    16240    16289    16337    16353    16328 
   16299    16306    16332    16353    16367    16384    16406    16403 
   16351    16274    16221    16206    16194    16155    16113    16108 
   16139    16174    16185    16190    16212    16225    16218    16214 
   16204    16183    16181    16189    16175    16166    16175    16186 
   16198    16225    16252    16275    16321    16374    16393    16391 
   16391    16387    16370    16348    16335    16328    16318    16303 
   16281    16270    16270    16267    16272    16290    16301    16303 
   16295    16281    16270    16255    16243    16248    16270    16308 
   16339    16336    16314    16297    16270    16233    16221    16237 
   16240    16225    16236    16290    16353    16386    16371    16325 
   16290    16291    16328    16376    16405    16429    16465    16490 
   16503    16514    16505    16463    16410    16343    16278    16260 
   16291    16329    16380    16459    16536    16576    16560    16490 
   16383    16275    16209    16191    16177    16151    16146    16163 
   16171    16160    16168    16193    16181    16124    16063    16000 
   15925    15881    15889    15924    15967    16000    16012    16023 
   16056    16097    16150    16240    16355    16448    16487    16457 
   16380    16294    16227    16187    16171    16179    16205    16254 
   16313    16359    16395    16424    16430    16424    16397    16336 
   16270    16214    16173    16146    16120    16096    16086    16078 
   16083    16120    16170    16229    16302    16356    16368    16351 
   16332    16325    16321    16324    16367    16430    16470    16487 
   16486    16463    16451    16417    16326    16232    16173    16137 
   16120    16131    16193    16303    16405    16465    16490    16486 
   16464    16453    16459    16479    16528    16569    16545    16483 
   16422    16375    16360    16357    16329    16290    16260    16228 
   16183    16135    16109    16131    16171    16191    16183    16167 
   16154    16141    16124    16119    16136    16160    16186    16220 
   16262    16322    16395    16441    16443    16417    16378    16339 
   16320    16320    16321    16310    16302    16316    16326    16308 
   16291    16330    16410    16495    16561    16576    16517    16416 
   16312    16221    16151    16135    16178    16240    16286    16309 
   16305    16291    16293    16297    16283    16247    16179    16104 
   16066    16074    16094    16112    16150    16200    16224    16200 
   16160    16167    16224    16294    16368    16436    16470    16460 
   16437    16414    16378    16341    16345    16382    16402    16382 
   16349    16336    16328    16310    16297    16278    16254    16240 
   16220    16187    16187    16198    16168    16143    16151    16168 
   16201    16251    16289    16293    16260    16202    16146    16117 
   16110    16106    16125    16183    16266    16345    16398    16421 
   16426    16403    16360    16343    16352    16364    16386    16413 
   16437    16468    16479    16434    16351    16267    16220    16210 
   16210    16210    16217    16227    16233    16222    16193    16181 
   16202    16237    16275    16308    16347    16416    16483    16507 
   16497    16476    16443    16383    16309    16256    16254    16291 
   16339    16360    16353    16337    16299    16225    16135    16067 
   16036    16032    16059    16132    16231    16314    16367    16403 
   16426    16433    16429    16406    16364    16329    16313    16312 
   16302    16275    16264    16272    16268    16262    16271    16286 
   16301    16329    16368    16409    16443    16460    16455    16432 
   16394    16349    16297    16239    16200    16185    16168    16147 
   16131    16131    16148    16170    16183    16185    16175    16159 
   16141    16113    16070    16052    16085    16127    16150    16185 
   16259    16359    16463    16541    16559    16528    16474    16378 
   16240    16104    16004    15948    15943    15965    15998    16044 
   16096    16136    16166    16185    16185    16155    16114    16085 
   16067    16071    16110    16168    16218    16237    16224    16229 
   16298    16390    16432    16424    16387    16328    16263    16202 
   16147    16139    16185    16236    16275    16301    16320    16357 
   16409    16433    16432    16437    16447    16429    16383    16347 
   16349    16384    16410    16382    16318    16278    16282    16306 
   16345    16401    16457    16501    16513    16490    16448    16386 
   16305    16229    16166    16120    16120    16139    16136    16141 
   16187    16247    16293    16309    16294    16282    16282    16281 
   16286    16306    16320    16326    16324    16287    16229    16198 
   16200    16218    16243    16249    16235    16210    16166    16113 
   16102    16136    16183    16241    16330    16437    16526    16565 
   16549    16502    16432    16343    16260    16216    16225    16282 
   16359    16387    16344    16294    16266    16218    16158    16143 
   16204    16299    16368    16376    16343    16306    16275    16229 
   16181    16154    16154    16175    16181    16146    16102    16096 
   16136    16209    16286    16328    16341    16359    16362    16349 
   16355    16382    16420    16465    16505    16515    16483    16434 
   16424    16433    16433    16432    16437    16441    16424    16386 
   16345    16325    16324    16312    16271    16216    16171    16177 
   16228    16282    16317    16333    16344    16352    16336    16291 
   16248    16220    16225    16267    16322    16391    16467    16509 
   16517    16510    16479    16429    16397    16393    16384    16357 
   16336    16302    16241    16167    16067    15942    15847    15815 
   15834    15894    15975    16059    16147    16206    16209    16175 
   16152    16163    16194    16212    16213    16217    16224    16224 
   16209    16177    16151    16140    16129    16120    16121    16143 
   16213    16306    16351    16337    16317    16317    16335    16363 
   16409    16483    16573    16618    16568    16455    16364    16347 
   16372    16405    16441    16480    16502    16498    16490    16484 
   16471    16476    16497    16488    16461    16478    16537    16586 
   16600    16602    16590    16546    16483    16420    16375    16367 
   16374    16362    16330    16313    16309    16274    16204    16132 
   16071    16013    15975    15985    16047    16141    16247    16349 
   16428    16459    16441    16382    16326    16321    16363    16420 
   16448    16410    16337    16298    16302    16333    16379    16424 
   16453    16452    16386    16251    16105    15993    15903    15830 
   15813    15859    15936    16019    16082    16121    16146    16150 
   16146    16146    16143    16154    16217    16312    16386    16413 
   16391    16340    16295    16274    16252    16225    16216    16217 
   16213    16239    16301    16357    16398    16414    16379    16326 
   16302    16297    16287    16281    16294    16324    16341    16335 
   16343    16397    16472    16526    16532    16486    16417    16355 
   16313    16274    16232    16218    16235    16251    16259    16270 
   16316    16410    16514    16588    16622    16606    16518    16363 
   16158    15952    15809    15732    15701    15746    15866    15997 
   16096    16163    16205    16224    16241    16282    16330    16367 
   16398    16405    16376    16344    16324    16303    16270    16204 
   16114    16056    16040    16038    16042    16040    16052    16112 
   16186    16236    16264    16268    16267    16285    16301    16305 
   16314    16325    16329    16343    16372    16398    16420    16456 
   16510    16565    16595    16576    16526    16459    16362    16255 
   16189    16174    16174    16167    16159    16141    16100    16077 
   16129    16252    16413    16563    16644    16659    16641    16572 
   16447    16326    16243    16170    16114    16085    16060    16052 
   16075    16114    16148    16175    16220    16298    16391    16479 
   16542    16544    16483    16440    16453    16482    16502    16522 
   16526    16495    16438    16374    16293    16187    16077    16005 
   15988    15988    16006    16074    16162    16220    16240    16235 
   16220    16212    16228    16272    16328    16378    16407    16397 
   16372    16378    16405    16402    16351    16286    16240    16205 
   16173    16128    16063    16021    16050    16119    16170    16216 
   16299    16398    16472    16502    16483    16430    16353    16271 
   16191    16124    16100    16123    16164    16214    16264    16303 
   16347    16411    16476    16509    16502    16455    16376    16264 
   16132    16062    16101    16181    16245    16303    16366    16403 
   16390    16341    16287    16239    16228    16290    16405    16521 
   16600    16617    16582    16519    16444    16362    16275    16197 
   16152    16150    16163    16168    16164    16182    16249    16353 
   16468    16582    16676    16726    16708    16621    16479    16290 
   16082    15913    15801    15741    15741    15820    15998    16235 
   16430    16533    16552    16513    16452    16406    16421    16487 
   16563    16627    16653    16614    16518    16376    16225    16087 
   15962    15870    15830    15813    15788    15762    15801    15935 
   16106    16283    16448    16571    16657    16708    16706    16654 
   16564    16443    16290    16078    15827    15627    15523    15510 
   15593    15757    15944    16123    16262    16344    16422    16529 
   16602    16599    16552    16511    16502    16517    16529    16519 
   16502    16494    16490    16486    16467    16409    16341    16295 
   16244    16194    16193    16228    16267    16299    16326    16341 
   16324    16282    16245    16212    16160    16124    16092    16011 
   15924    15898    15905    15936    16048    16231    16425    16605 
   16713    16679    16557    16447    16343    16217    16104    16066 
   16127    16235    16291    16262    16177    16098    16089    16191 
   16375    16557    16714    16810    16761    16605    16448    16316 
   16217    16182    16179    16163    16123    16086    16070    16063 
   16092    16191    16289    16290    16260    16289    16341    16383 
   16432    16468    16475    16470    16457    16416    16348    16308 
   16289    16216    16089    15988    15952    15990    16125    16330 
   16511    16591    16582    16544    16487    16416    16345    16282 
   16255    16272    16289    16291    16289    16271    16235    16208 
   16227    16272    16293    16249    16152    16036    15942    15913 
   15965    16075    16224    16372    16457    16448    16362    16249 
   16177    16167    16195    16231    16252    16239    16170    16042 
   15880    15746    15680    15697    15813    16008    16228    16438 
   16622    16733    16730    16648    16548    16471    16430    16432 
   16460    16487    16482    16429    16362    16337    16367    16406 
   16421    16405    16357    16254    16051    15789    15557    15410 
   15364    15422    15566    15778    16031    16287    16491    16600 
   16642    16677    16707    16721    16758    16838    16920    16968 
   16966    16911    16791    16600    16389    16216    16087    15984 
   15903    15851    15854    15901    15938    15957    15990    16063 
   16193    16359    16507    16588    16591    16532    16433    16336 
   16278    16272    16301    16340    16366    16372    16376    16366 
   16316    16251    16212    16185    16190    16266    16367    16433 
   16464    16474    16470    16429    16353    16305    16305    16305 
   16278    16254    16252    16240    16202    16164    16143    16159 
   16212    16259    16258    16254    16305    16387    16453    16475 
   16433    16351    16258    16170    16133    16197    16343    16499 
   16598    16584    16461    16258    15996    15750    15614    15596 
   15673    15863    16174    16518    16762    16829    16737    16545 
   16291    16024    15792    15615    15526    15565    15689    15816 
   15930    16082    16303    16526    16683    16816    16983    17127 
   17161    17046    16823    16576    16375    16210    16067    16000 
   16058    16191    16303    16329    16275    16197    16141    16097 
   16036    15990    16039    16190    16344    16449    16524    16571 
   16568    16518    16434    16324    16197    16086    16038    16085 
   16191    16283    16339    16368    16368    16329    16240    16112 
   15977    15892    15907    16004    16125    16239    16302    16293 
   16243    16200    16209    16290    16389    16449    16475    16465 
   16387    16220    16017    15881    15882    15994    16152    16332 
   16513    16661    16772    16846    16837    16725    16592    16541 
   16588    16671    16692    16615    16445    16221    16031    15913 
   15835    15788    15772    15784    15847    15986    16181    16410 
   16664    16895    17046    17109    17103    17011    16826    16564 
   16260    15971    15768    15682    15715    15853    16051    16286 
   16551    16754    16812    16754    16659    16567    16490    16447 
   16426    16387    16313    16217    16108    16013    15970    15998 
   16114    16299    16494    16634    16663    16596    16498    16401 
   16326    16272    16210    16136    16067    15992    15915    15873 
   15892    15963    16066    16182    16306    16428    16511    16510 
   16424    16328    16281    16281    16322    16395    16457    16472 
   16417    16295    16127    15961    15859    15853    15921    16035 
   16173    16308    16397    16413    16367    16281    16200    16163 
   16144    16119    16097    16059    15992    15934    15920    15934 
   15959    16032    16173    16341    16491    16622    16704    16679 
   16541    16363    16212    16112    16058    16036    16042    16083 
   16156    16235    16290    16326    16347    16355    16364    16389 
   16425    16455    16443    16349    16179    16004    15897    15881 
   15948    16067    16202    16326    16411    16441    16432    16440 
   16499    16583    16656    16700    16691    16592    16417    16216 
   16054    15967    15930    15896    15863    15831    15785    15736 
   15692    15676    15732    15885    16117    16366    16540    16603 
   16598    16533    16406    16305    16298    16344    16387    16399 
   16341    16244    16189    16206    16295    16448    16627    16761 
   16800    16748    16632    16467    16297    16178    16106    16052 
   16038    16075    16113    16119    16127    16128    16100    16101 
   16181    16303    16414    16470    16463    16413    16314    16173 
   16044    15998    16040    16094    16112    16120    16135    16150 
   16181    16229    16264    16303    16366    16399    16397    16414 
   16461    16511    16541    16528    16467    16364    16251    16174 
   16171    16241    16349    16421    16409    16378    16389    16398 
   16384    16398    16444    16511    16588    16613    16546    16448 
   16389    16375    16389    16416    16447    16482    16503    16465 
   16348    16183    16019    15889    15805    15807    15928    16121 
   16287    16398    16480    16536    16552    16544    16526    16492 
   16457    16426    16366    16272    16174    16092    16035    15986 
   15954    15965    16000    16015    15992    15935    15874    15854 
   15880    15915    15970    16086    16228    16353    16476    16587 
   16652    16687    16723    16731    16669    16575    16490    16387 
   16252    16108    15973    15870    15811    15790    15812    15882 
   15982    16073    16120    16131    16140    16160    16198    16263 
   16348    16459    16615    16785    16916    16984    16984    16923 
   16853    16799    16742    16677    16596    16482    16372    16313 
   16289    16283    16305    16357    16422    16455    16428    16339 
   16194    16056    15992    15990    16017    16087    16214    16360 
   16494    16587    16610    16591    16565    16518    16451    16378 
   16295    16218    16159    16120    16104    16113    16186    16325 
   16465    16565    16611    16584    16465    16252    15982    15741 
   15606    15579    15604    15657    15750    15892    16081    16294 
   16472    16587    16672    16767    16841    16846    16787    16690 
   16564    16421    16271    16140    16083    16136    16258    16387 
   16507    16613    16661    16621    16525    16426    16359    16329 
   16328    16325    16309    16298    16299    16294    16282    16266 
   16248    16240    16247    16268    16278    16279    16290    16301 
   16299    16302    16320    16336    16356    16382    16379    16349 
   16332    16339    16355    16355    16306    16222    16159    16148 
   16189    16249    16295    16347    16425    16488    16513    16503 
   16451    16368    16286    16227    16224    16297    16401    16467 
