Origin Time       2025/01/13 21:19:00
Lat.              31.8
Long.             131.6
Depth. (km)       30
Mag.              6.9
Station Code      KOC011
Station Lat.      33.3982
Station Long.     132.8962
Station Height(m) 500
Record Time       2025/01/13 21:20:27
Sampling Freq(Hz) 100Hz
Duration Time(s)  79
Dir.              U-D
Scale Factor      7845(gal)/8223790
Max. Acc. (gal)   1.746
Last Correction   2025/01/13 21:20:27
Memo.             
[...]
    4294     4279     4313     4334     4330     4310     4239     4198 
    4268     4382     4523     4716     4878     4931     4896     4861 
    4878     4945     5027     5073     5049     4954     4850     4808 
    4787     4725     4691     4691     4638     4569     4572     4622 
    4652     4672     4687     4639     4558     4490     4364     4207 
    4112     4091     4117     4129     4129     4156     4176     4163 
    4159     4232     4375     4518     4646     4784     4927     5066 
    5159     5186     5200     5211     5189     5154     5123     5081 
    5020     4955     4924     4938     4942     4866     4745     4635 
    4538     4492     4534     4607     4683     4757     4754     4671 
    4621     4607     4546     4495     4575     4726     4801     4785 
    4720     4653     4618     4590     4529     4437     4345     4291 
    4286     4325     4359     4371     4426     4519     4595     4680 
    4762     4792     4797     4822     4839     4833     4853     4914 
    4908     4784     4656     4588     4525     4483     4527     4610 
    4658     4657     4633     4623     4644     4677     4698     4704 
    4660     4541     4429     4359     4311     4305     4313     4274 
    4199     4175     4190     4153     4104     4139     4260     4422 
    4554     4627     4646     4617     4618     4675     4706     4696 
    4689     4708     4727     4719     4712     4754     4892     5036 
    5023     4907     4827     4747     4649     4634     4710     4779 
    4783     4750     4722     4673     4591     4523     4473     4433 
    4391     4330     4330     4440     4554     4644     4738     4765 
    4712     4688     4716     4754     4776     4745     4650     4584 
    4591     4588     4531     4465     4419     4384     4357     4401 
    4550     4718     4816     4857     4866     4862     4869     4891 
    4899     4862     4761     4623     4498     4405     4351     4337 
    4337     4324     4301     4291     4309     4353     4419     4477 
    4521     4568     4594     4606     4656     4729     4781     4768 
    4676     4596     4584     4618     4693     4783     4811     4769 
    4729     4742     4823     4935     4974     4908     4839     4819 
    4789     4720     4634     4608     4664     4680     4645     4639 
    4622     4548     4494     4502     4522     4527     4541     4544 
    4491     4414     4359     4324     4321     4369     4396     4368 
    4375     4438     4509     4554     4538     4500     4542     4606 
    4599     4568     4608     4696     4722     4700     4742     4787 
    4743     4700     4698     4677     4658     4641     4622     4652 
    4702     4699     4623     4494     4380     4360     4407     4490 
    4614     4739     4811     4816     4803     4820     4830     4780 
    4760     4815     4803     4666     4529     4446     4395     4391 
    4413     4411     4421     4448     4444     4432     4463     4530 
    4587     4590     4540     4446     4351     4306     4338     4453 
    4568     4584     4557     4565     4583     4581     4596     4668 
    4761     4791     4780     4818     4868     4895     4922     4905 
    4862     4846     4814     4777     4784     4811     4830     4793 
    4675     4537     4442     4395     4378     4390     4421     4409 
    4329     4282     4356     4442     4444     4455     4534     4627 
    4708     4776     4826     4895     5004     5042     4946     4873 
    4896     4926     4935     4931     4873     4772     4668     4583 
    4541     4544     4565     4564     4538     4526     4509     4452 
    4402     4379     4352     4334     4348     4375     4413     4483 
    4549     4585     4685     4824     4872     4851     4862     4923 
    4972     4954     4931     4963     4962     4869     4777     4733 
    4703     4679     4644     4619     4644     4668     4600     4503 
    4509     4581     4622     4635     4648     4679     4706     4693 
    4642     4561     4473     4428     4457     4504     4496     4461 
    4423     4369     4303     4249     4229     4282     4405     4503 
    4545     4595     4642     4627     4563     4507     4488     4477 
    4483     4545     4580     4502     4422     4432     4475     4529 
    4571     4569     4584     4614     4592     4573     4579     4534 
    4469     4426     4384     4363     4351     4326     4320     4314 
    4315     4425     4650     4876     5051     5186     5266     5267 
    5217     5194     5192     5148     5121     5085     4923     4688 
    4464     4252     4117     4091     4121     4179     4225     4232 
    4229     4272     4375     4479     4550     4604     4637     4610 
    4541     4514     4518     4471     4359     4270     4334     4518 
    4646     4681     4680     4658     4654     4676     4710     4761 
    4833     4892     4888     4830     4768     4698     4626     4598 
    4607     4611     4588     4552     4509     4507     4591     4703 
    4765     4731     4637     4571     4548     4525     4529     4608 
    4731     4766     4653     4519     4472     4432     4345     4275 
    4274     4361     4506     4635     4727     4765     4779     4815 
    4819     4820     4928     5076     5200     5327     5355     5219 
    5026     4845     4657     4483     4336     4210     4114     4001 
    3839     3735     3778     3871     3904     3948     4068     4163 
    4225     4329     4415     4463     4519     4529     4450     4378 
    4396     4433     4428     4437     4467     4526     4673     4816 
    4864     4930     5065     5174     5235     5260     5235     5163 
    5063     5001     5065     5142     5058     4877     4765     4726 
    4676     4631     4639     4658     4634     4569     4484     4403 
    4367     4384     4349     4216     4078     3902     3689     3632 
    3739     3863     3981     4064     4054     4033     4105     4222 
    4326     4414     4510     4664     4843     4972     5103     5262 
    5383     5487     5567     5563     5532     5541     5525     5425 
    5302     5239     5192     5035     4733     4390     4145     4035 
    3964     3906     3951     4052     4085     4082     4121     4143 
    4114     4159     4314     4438     4468     4482     4486     4433 
    4360     4334     4365     4417     4418     4353     4291     4279 
    4336     4460     4585     4660     4665     4581     4468     4436 
    4473     4514     4531     4550     4614     4687     4714     4710 
    4700     4735     4849     4974     5039     5036     4978     4903 
    4866     4854     4818     4806     4839     4839     4803     4822 
    4916     4974     4899     4788     4760     4749     4715     4707 
    4693     4622     4519     4437     4398     4391     4383     4383 
    4445     4537     4596     4653     4773     4914     4954     4914 
    4912     4957     4990     4997     4974     4931     4874     4791 
    4688     4584     4509     4503     4531     4546     4579     4618 
    4592     4518     4457     4413     4357     4301     4279     4271 
    4209     4151     4179     4224     4241     4279     4336     4386 
    4434     4469     4507     4554     4569     4583     4679     4827 
    4943     4989     4976     4946     4916     4892     4927     5020 
    5111     5179     5220     5189     5080     4938     4796     4681 
    4611     4595     4611     4614     4584     4527     4448     4421 
    4459     4428     4278     4156     4176     4294     4410     4484 
    4538     4587     4626     4658     4687     4683     4645     4631 
    4656     4649     4584     4518     4488     4456     4405     4422 
    4525     4572     4511     4465     4483     4521     4608     4743 
    4823     4816     4772     4715     4665     4642     4627     4567 
    4469     4418     4450     4488     4465     4457     4507     4488 
    4363     4266     4253     4320     4446     4527     4519     4496 
    4450     4357     4290     4263     4230     4199     4182     4191 
    4271     4380     4421     4401     4399     4438     4502     4568 
    4606     4626     4676     4765     4851     4889     4872     4839 
    4823     4820     4810     4792     4824     4923     4988     4955 
    4904     4918     4978     5028     5040     5012     4949     4869 
    4788     4699     4610     4558     4546     4534     4521     4509 
    4450     4351     4302     4342     4434     4538     4611     4648 
    4702     4785     4824     4785     4764     4806     4814     4774 
    4770     4789     4761     4696     4648     4637     4646     4657 
    4654     4612     4521     4449     4473     4542     4569     4558 
    4554     4552     4548     4529     4445     4359     4368     4436 
    4495     4558     4630     4675     4704     4769     4853     4903 
    4951     5028     5077     5076     5044     4976     4884     4823 
    4781     4699     4579     4483     4426     4386     4359     4374 
    4423     4471     4502     4527     4577     4652     4683     4654 
    4625     4592     4553     4537     4529     4521     4526     4531 
    4510     4469     4440     4407     4369     4365     4395     4456 
    4554     4650     4726     4815     4926     5007     5020     5000 
    4981     4941     4870     4810     4777     4761     4737     4676 
    4604     4557     4518     4468     4419     4418     4484     4571 
    4635     4696     4758     4783     4749     4689     4654     4648 
    4634     4592     4522     4460     4456     4486     4475     4445 
    4434     4413     4387     4402     4434     4453     4442     4398 
    4338     4280     4225     4186     4164     4141     4104     4032 
    3946     3933     4001     4055     4124     4260     4407     4522 
    4577     4598     4652     4691     4634     4548     4506     4486 
    4436     4355     4315     4394     4549     4693     4800     4870 
    4915     4962     5000     5031     5085     5130     5109     5046 
    4999     4954     4860     4730     4584     4403     4239     4178 
    4190     4214     4244     4279     4341     4440     4561     4710 
    4862     4958     4984     4977     4981     5015     5066     5101 
    5071     4930     4708     4490     4330     4266     4295     4344 
    4363     4394     4446     4467     4459     4483     4537     4584 
    4635     4685     4711     4754     4811     4834     4851     4893 
    4880     4800     4743     4707     4639     4577     4533     4488 
    4457     4411     4337     4282     4251     4237     4274     4360 
    4464     4579     4662     4668     4644     4604     4510     4413 
    4310     4126     3935     3831     3777     3762     3848     4009 
    4153     4274     4375     4426     4496     4635     4765     4838 
    4864     4868     4895     4926     4918     4865     4780     4681 
    4573     4441     4344     4328     4338     4348     4396     4456 
    4499     4573     4661     4677     4623     4511     4367     4295 
    4322     4345     4332     4337     4355     4341     4334     4401 
    4545     4716     4895     5071     5211     5279     5287     5273 
    5250     5223     5169     5076     4969     4885     4860     4897 
    4915     4901     4914     4912     4866     4814     4749     4664 
    4596     4531     4429     4313     4221     4151     4113     4101 
    4054     3958     3882     3844     3848     3925     4041     4160 
    4286     4392     4487     4621     4762     4882     5030     5200 
    5327     5387     5398     5351     5262     5148     5003     4818 
    4622     4480     4436     4445     4436     4402     4392     4450 
    4549     4618     4658     4688     4702     4703     4660     4558 
    4488     4496     4518     4531     4561     4611     4704     4837 
    4977     5086     5113     5067     4993     4887     4743     4602 
    4526     4530     4552     4567     4583     4611     4702     4839 
    4949     5031     5098     5112     5066     5022     4984     4905 
    4762     4564     4361     4209     4079     3963     3923     3912 
    3856     3843     3909     3987     4078     4179     4218     4170 
    4093     4047     4056     4106     4158     4207     4261     4325 
    4409     4506     4596     4658     4706     4780     4866     4947 
    5067     5202     5294     5393     5512     5590     5620     5638 
    5680     5771     5886     5948     5942     5917     5894     5863 
    5836     5809     5751     5668     5549     5351     5097     4823 
    4526     4260     4058     3867     3692     3578     3483     3364 
    3298     3325     3397     3489     3597     3701     3777     3831 
    3890     3959     4047     4168     4313     4440     4542     4668 
    4800     4862     4846     4804     4795     4814     4806     4757 
    4706     4704     4779     4897     5005     5090     5165     5223 
    5259     5273     5260     5240     5236     5213     5140     5032 
    4938     4893     4884     4904     4980     5077     5151     5220 
    5293     5321     5267     5159     5009     4831     4649     4455 
    4241     4036     3878     3784     3713     3672     3723     3846 
    3956     4082     4270     4426     4502     4568     4652     4725 
    4765     4766     4768     4804     4850     4915     5050     5247 
    5428     5540     5586     5609     5636     5671     5694     5667 
    5575     5433     5279     5116     4888     4579     4253     3963 
    3693     3416     3164     2965     2826     2778     2818     2906 
    3018     3129     3240     3381     3570     3820     4082     4291 
    4482     4698     4896     5053     5204     5339     5410     5429 
    5455     5532     5637     5732     5798     5826     5830     5842 
    5859     5861     5844     5778     5649     5482     5254     4955 
    4673     4483     4380     4330     4284     4230     4180     4125 
    4054     3974     3894     3854     3862     3846     3770     3678 
    3577     3492     3484     3518     3531     3535     3539     3550 
    3605     3684     3751     3840     3991     4182     4365     4554 
    4749     4936     5140     5340     5445     5468     5506     5544 
    5529     5514     5513     5482     5404     5263     5078     4893 
    4737     4612     4492     4374     4280     4216     4187     4218 
    4293     4355     4382     4376     4330     4261     4201     4151 
    4125     4137     4148     4124     4081     4016     3971     4008 
    4085     4168     4297     4444     4544     4639     4783     4938 
    5071     5161     5182     5148     5103     5042     4957     4901 
    4877     4795     4669     4591     4546     4514     4521     4546 
    4527     4477     4465     4477     4444     4406     4407     4423 
    4469     4556     4664     4803     4941     5024     5088     5146 
    5132     5047     4963     4882     4796     4777     4824     4846 
    4792     4685     4595     4542     4513     4518     4523     4486 
    4444     4445     4498     4604     4735     4814     4806     4762 
    4730     4714     4700     4665     4638     4623     4556     4468 
    4419     4351     4217     4048     3878     3726     3619     3582 
    3592     3612     3620     3599     3584     3601     3631     3681 
    3766     3850     3927     4008     4102     4252     4448     4622 
    4785     4963     5108     5202     5271     5308     5341     5386 
    5422     5497     5601     5653     5655     5628     5563     5502 
    5439     5329     5228     5169     5096     5022     4981     4939 
    4865     4770     4691     4630     4580     4561     4542     4494 
    4476     4487     4456     4384     4279     4105     3902     3767 
    3721     3727     3778     3863     3935     3971     4017     4133 
    4332     4536     4695     4812     4888     4942     4990     4995 
    4962     4946     4935     4904     4880     4870     4847     4774 
    4638     4496     4426     4422     4437     4483     4576     4671 
    4727     4783     4853     4870     4815     4765     4727     4653 
    4563     4473     4355     4245     4189     4145     4113     4120 
    4160     4244     4348     4388     4361     4325     4282     4233 
    4234     4334     4494     4623     4703     4753     4800     4889 
    5023     5155     5279     5409     5503     5524     5490     5431 
    5354     5260     5128     4968     4842     4766     4719     4704 
    4749     4870     5023     5139     5197     5174     5082     4973 
    4876     4819     4796     4753     4660     4517     4361     4280 
    4287     4303     4299     4313     4345     4372     4428     4533 
    4656     4769     4849     4880     4877     4861     4855     4884 
    4922     4920     4885     4860     4814     4676     4488     4374 
    4340     4322     4298     4268     4259     4283     4313     4333 
    4353     4388     4477     4622     4756     4846     4904     4949 
    4986     5009     5032     5055     5043     4997     4954     4920 
    4911     4923     4912     4895     4895     4877     4845     4820 
    4793     4760     4691     4540     4337     4155     4031     3975 
    3966     3994     4051     4091     4140     4252     4396     4554 
    4738     4935     5135     5302     5404     5455     5458     5395 
    5290     5159     5005     4862     4730     4579     4442     4368 
    4322     4264     4214     4171     4113     4091     4135     4182 
    4226     4297     4364     4441     4590     4785     4959     5098 
    5217     5340     5470     5576     5656     5694     5675     5610 
    5514     5435     5382     5298     5171     4988     4737     4490 
    4284     4098     3942     3801     3667     3566     3508     3497 
    3524     3574     3657     3721     3704     3665     3669     3685 
    3684     3657     3624     3628     3662     3667     3654     3692 
    3790     3893     3977     4051     4116     4203     4360     4538 
    4645     4673     4650     4595     4564     4564     4550     4549 
    4598     4656     4704     4776     4865     4932     4972     5023 
    5108     5167     5166     5120     5080     5067     5031     4961 
    4915     4880     4835     4773     4637     4476     4414     4407 
    4363     4309     4274     4241     4225     4213     4205     4229 
    4249     4218     4185     4174     4135     4110     4162     4214 
    4213     4218     4249     4291     4357     4415     4450     4523 
    4634     4722     4801     4903     4989     5047     5117     5155 
    5090     4968     4858     4781     4722     4662     4604     4553 
    4517     4487     4456     4483     4591     4696     4750     4749 
    4688     4623     4611     4634     4661     4688     4723     4774 
    4824     4853     4878     4926     4992     5071     5136     5143 
    5098     5020     4915     4816     4725     4633     4568     4531 
    4510     4529     4560     4546     4536     4575     4607     4619 
    4649     4681     4710     4769     4823     4826     4785     4726 
    4664     4621     4604     4603     4588     4544     4472     4383 
    4297     4253     4259     4253     4189     4104     4064     4067 
    4070     4093     4175     4295     4407     4475     4483     4483 
    4548     4661     4762     4824     4847     4842     4816     4766 
