Origin Time       2025/01/13 21:19:00
Lat.              31.8
Long.             131.6
Depth. (km)       30
Mag.              6.9
Station Code      KOC012
Station Lat.      33.1976
Station Long.     132.9758
Station Height(m) 147
Record Time       2025/01/13 21:20:24
Sampling Freq(Hz) 100Hz
Duration Time(s)  78
Dir.              U-D
Scale Factor      7845(gal)/8223790
Max. Acc. (gal)   1.796
Last Correction   2025/01/13 21:20:23
Memo.             
[...]
   18426    18630    18790    18655    18592    18748    18731    18532 
   18462    18353    18063    17934    18018    18033    18000    18026 
   18122    18264    18273    18137    18110    18204    18238    18331 
   18643    18941    19106    19349    19583    19539    19381    19353 
   19342    19224    19111    19117    19164    19149    19122    19132 
   19070    18827    18539    18355    18133    17857    17782    17849 
   17840    17834    17919    17992    17972    17915    17992    18134 
   18104    18031    18075    18060    17956    17919    18040    18338 
   18634    18760    18850    18920    18858    18787    18827    18858 
   18832    18895    19056    19103    19005    18936    18931    18908 
   18841    18756    18663    18567    18446    18261    18095    18014 
   17910    17861    18017    18179    18231    18353    18509    18562 
   18630    18762    18810    18779    18755    18724    18712    18743 
   18702    18551    18431    18409    18414    18396    18392    18364 
   18223    18119    18218    18334    18322    18357    18459    18446 
   18389    18446    18508    18470    18422    18408    18384    18316 
   18242    18246    18287    18234    18157    18243    18418    18459 
   18480    18644    18766    18756    18810    18951    19028    18948 
   18750    18609    18555    18517    18584    18662    18551    18426 
   18455    18457    18365    18328    18289    18125    18019    18166 
   18374    18403    18373    18365    18216    18046    18067    18146 
   18180    18179    18102    18121    18396    18694    18852    19035 
   19215    19201    19141    19219    19287    19294    19305    19149 
   18887    18883    18976    18844    18693    18596    18377    18287 
   18418    18374    18187    18164    18181    18129    18145    18204 
   18242    18397    18688    18895    18925    18914    18949    18951 
   18883    18867    18883    18805    18763    18885    19029    19093 
   19071    19006    19026    19133    19210    19253    19244    19191 
   19271    19429    19400    19264    19183    18972    18616    18388 
   18322    18273    18207    18098    17957    17829    17717    17666 
   17722    17829    17887    17987    18253    18500    18565    18584 
   18659    18740    18732    18598    18527    18669    18782    18644 
   18513    18611    18671    18642    18759    18836    18698    18631 
   18728    18868    19005    18954    18713    18627    18657    18501 
   18287    18234    18235    18215    18308    18499    18605    18644 
   18692    18659    18566    18532    18512    18472    18490    18581 
   18670    18694    18720    18785    18765    18690    18600    18354 
   18088    17929    17806    17902    18241    18453    18524    18671 
   18746    18643    18562    18511    18354    18187    18176    18362 
   18636    18801    18894    19101    19267    19218    19118    18999 
   18783    18621    18590    18586    18624    18736    18856    18966 
   19037    18989    18844    18823    18986    19039    18852    18644 
   18435    18199    18153    18308    18392    18268    18112    18153 
   18241    18145    18038    18019    17940    17961    18261    18608 
   18809    18844    18779    18828    18951    18964    19043    19238 
   19253    19117    19084    19094    18964    18717    18454    18172 
   17928    17875    17923    17815    17639    17579    17527    17494 
   17690    17980    18110    18192    18360    18466    18459    18490 
   18546    18509    18485    18580    18702    18800    18851    18840 
   18844    18785    18570    18408    18369    18335    18381    18441 
   18354    18297    18343    18372    18465    18577    18613    18746 
   18908    18909    18912    18974    18922    18802    18663    18384 
   18079    17992    18025    17969    17876    17842    17890    18044 
   18189    18241    18314    18389    18360    18323    18306    18261 
   18353    18601    18789    18918    19026    19008    18972    19028 
   19030    18945    18874    18837    18867    18955    18987    18958 
   19040    19217    19313    19333    19322    19272    19214    19129 
   19028    19018    19064    19014    18887    18825    18739    18488 
   18211    17971    17712    17591    17608    17536    17429    17385 
   17298    17267    17436    17641    17759    17895    18111    18304 
   18361    18445    18738    19008    19087    19179    19348    19503 
   19656    19741    19657    19542    19565    19657    19656    19545 
   19380    19176    18948    18739    18578    18468    18412    18438 
   18526    18598    18616    18581    18542    18504    18387    18264 
   18238    18161    17996    17957    18048    18114    18185    18307 
   18438    18617    18793    18821    18736    18613    18504    18463 
   18414    18416    18607    18748    18769    18971    19241    19317 
   19377    19546    19579    19333    18978    18727    18620    18577 
   18558    18573    18666    18851    19018    19095    19094    18931 
   18582    18295    18156    17936    17694    17633    17585    17524 
   17720    18060    18266    18436    18643    18685    18592    18603 
   18625    18550    18566    18717    18879    19024    19052    18936 
   18894    18925    18785    18550    18446    18443    18449    18493 
   18585    18632    18569    18523    18612    18675    18631    18657 
   18670    18492    18353    18442    18582    18643    18704    18813 
   18851    18736    18551    18339    18088    17906    17898    18006 
   18103    18169    18334    18662    18963    19089    19113    19116 
   19149    19237    19272    19205    19134    19090    19047    19082 
   19209    19286    19182    18974    18841    18762    18646    18561 
   18489    18316    18100    17976    17976    18063    18202    18405 
   18571    18528    18446    18539    18662    18704    18675    18624 
   18700    18806    18837    18927    18940    18797    18794    18860 
   18669    18331    18092    17921    17783    17805    17996    18173 
   18226    18216    18212    18214    18222    18285    18401    18480 
   18497    18557    18743    18966    19090    19182    19306    19338 
   19210    19043    18908    18704    18476    18350    18165    17910 
   17874    17971    17969    17987    18058    18048    17998    17883 
   17658    17552    17668    17814    17979    18258    18435    18431 
   18611    18983    19174    19187    19116    18922    18804    18805 
   18725    18632    18642    18705    18841    19013    19076    19063 
   19132    19279    19317    19174    18986    18760    18447    18166 
   17972    17855    17887    18060    18307    18515    18562    18505 
   18388    18176    17963    17817    17712    17689    17751    17818 
   17950    18216    18426    18465    18484    18470    18320    18231 
   18327    18401    18432    18603    18778    18715    18570    18567 
   18585    18535    18511    18463    18338    18265    18333    18424 
   18434    18438    18465    18378    18257    18291    18366    18381 
   18412    18455    18520    18592    18590    18677    18921    19095 
   19157    19153    19052    18999    19071    19090    18985    18841 
   18759    18796    18912    19003    18987    18889    18867    18955 
   18920    18661    18365    18206    18168    18183    18272    18355 
   18333    18370    18488    18374    18054    17795    17697    17793 
   17971    18075    18145    18169    18153    18350    18715    18867 
   18831    18775    18593    18342    18203    18165    18202    18316 
   18451    18621    18824    18920    18913    18985    19089    19070 
   19072    19305    19575    19622    19597    19670    19714    19639 
   19449    19182    19029    19033    19066    19144    19190    19071 
   18981    19025    19055    19098    19190    19184    19130    19164 
   19125    18983    18943    18922    18813    18738    18693    18617 
   18534    18405    18300    18297    18260    18142    18030    17921 
   17887    17975    18052    18107    18184    18245    18328    18414 
   18414    18424    18565    18744    18787    18732    18735    18701 
   18544    18501    18630    18630    18385    18191    18241    18333 
   18347    18393    18384    18189    18015    18036    18002    17757 
   17604    17728    17917    18046    18206    18431    18675    18821 
   18759    18592    18507    18478    18449    18531    18674    18598 
   18412    18481    18673    18646    18473    18333    18220    18121 
   18085    18085    17923    17648    17598    17824    18103    18287 
   18300    18223    18230    18333    18349    18146    17887    17802 
   17863    18002    18268    18519    18601    18659    18833    19056 
   19165    19079    18900    18760    18723    18839    19041    19168 
   19179    19157    19194    19348    19496    19433    19233    19099 
   19033    18990    18987    18956    18825    18693    18724    18878 
   18966    18935    18886    18881    18875    18881    18909    18825 
   18684    18733    18891    18976    19066    19099    19017    19021 
   19063    18910    18698    18628    18689    18841    18943    18891 
   18829    18778    18655    18611    18640    18496    18330    18454 
   18665    18717    18785    18989    19182    19180    18991    18766 
   18543    18287    18104    18072    18041    17903    17807    17836 
   17749    17498    17432    17606    17653    17564    17579    17566 
   17451    17435    17458    17433    17512    17666    17838    18154 
   18426    18399    18306    18345    18372    18362    18370    18303 
   18141    18013    18031    18177    18288    18265    18183    18135 
   18234    18431    18496    18513    18652    18766    18924    19352 
   19764    19785    19603    19468    19310    19211    19307    19380 
   19310    19279    19311    19318    19375    19387    19184    19030 
   19114    19170    19179    19329    19403    19241    19118    19124 
   19044    18887    18841    18868    18790    18651    18662    18773 
   18782    18778    18922    19047    18975    18905    19022    19120 
   19010    18864    18841    18832    18744    18686    18731    18740 
   18682    18692    18697    18588    18485    18461    18404    18231 
   18033    17998    18107    18127    18094    18210    18301    18270 
   18310    18299    18118    17949    17815    17732    17848    18053 
   18112    18022    17913    17891    17983    18112    18212    18301 
   18415    18550    18636    18643    18644    18648    18620    18584 
   18554    18558    18600    18604    18522    18380    18243    18195 
   18219    18245    18312    18476    18640    18750    18831    18837 
   18829    18901    18839    18581    18450    18443    18370    18380 
   18408    18191    17917    17809    17713    17577    17589    17707 
   17687    17548    17471    17527    17724    17950    18057    18104 
   18183    18314    18608    18964    19145    19242    19394    19538 
   19680    19724    19566    19421    19350    19198    19066    18994 
   18827    18652    18593    18580    18630    18729    18760    18750 
   18759    18678    18468    18283    18192    18149    18192    18303 
   18346    18341    18428    18631    18793    18860    18954    19053 
   19074    19079    19075    19018    18975    18999    19082    19190 
   19252    19237    19248    19392    19579    19668    19662    19583 
   19446    19302    19151    18951    18682    18407    18279    18310 
   18288    18181    18173    18280    18366    18399    18419    18428 
   18420    18420    18544    18801    18922    18860    18929    19068 
   18998    18959    19093    19047    18868    18921    19095    19140 
   19086    18999    18870    18713    18611    18592    18566    18454 
   18270    18094    18009    18021    18014    17894    17771    17744 
   17770    17872    18046    18172    18245    18362    18515    18584 
   18585    18659    18774    18867    18939    18901    18829    18870 
   18928    18904    18828    18746    18708    18717    18744    18747 
   18708    18648    18538    18409    18346    18234    18022    17879 
   17879    17929    17910    17844    17865    17963    18006    17996 
   18041    18175    18297    18301    18249    18326    18544    18729 
   18870    19002    19045    19098    19269    19367    19275    19140 
   19099    19168    19228    19236    19269    19256    19149    19072 
   18994    18801    18546    18320    18189    18192    18342    18589 
   18721    18667    18597    18496    18338    18281    18307    18276 
   18246    18243    18156    17968    17820    17830    17917    17955 
   18027    18176    18225    18148    18072    17999    17945    18006 
   18148    18249    18256    18207    18199    18252    18270    18280 
   18389    18470    18405    18405    18553    18675    18790    18949 
   18986    18873    18850    18985    19068    19018    18933    18817 
   18692    18685    18758    18796    18889    19041    19063    18987 
   18991    19026    19025    19029    18963    18836    18805    18852 
   18881    18862    18769    18640    18598    18671    18771    18828 
   18814    18750    18715    18756    18829    18852    18742    18536 
   18423    18418    18377    18361    18368    18241    18173    18331 
   18412    18355    18415    18480    18432    18484    18646    18727 
   18740    18750    18762    18816    18879    18846    18712    18555 
   18409    18237    18009    17743    17464    17215    17064    16996 
   16895    16741    16683    16748    16794    16788    16811    16880 
   17022    17263    17469    17586    17764    17987    18156    18303 
   18407    18434    18463    18562    18729    18900    19013    19089 
   19111    19109    19242    19477    19622    19705    19778    19681 
   19449    19286    19114    18786    18458    18291    18214    18173 
   18198    18210    18141    18077    18096    18192    18297    18330 
   18338    18369    18392    18438    18519    18561    18571    18635 
   18767    18890    18952    19028    19089    19003    18870    18850 
   18850    18744    18679    18738    18746    18731    18840    18925 
   18908    18964    19145    19353    19562    19753    19843    19861 
   19935    20013    19967    19885    19822    19696    19561    19503 
   19450    19404    19387    19287    19134    19051    19036    19117 
   19225    19121    18870    18769    18825    18891    18995    19144 
   19242    19332    19480    19575    19531    19419    19263    19032 
   18875    18885    18877    18785    18789    18901    18935    18878 
   18893    18932    18852    18765    18748    18697    18608    18544 
   18459    18323    18195    18154    18219    18266    18196    18148 
   18231    18343    18405    18463    18571    18697    18735    18708 
   18733    18778    18729    18581    18404    18225    18111    18126 
   18130    18029    17965    18007    18100    18207    18218    18102 
   18033    18057    18068    18106    18191    18172    18056    18007 
   18013    18029    18157    18404    18625    18798    18978    19122 
   19225    19348    19438    19396    19286    19233    19228    19194 
   19165    19251    19365    19354    19322    19345    19303    19230 
   19180    19057    18901    18794    18705    18650    18566    18351 
   18127    18021    17972    17937    17886    17770    17610    17459 
   17351    17311    17361    17459    17545    17709    17946    18040 
   17983    17940    17869    17788    17806    17829    17832    17898 
   17930    17890    17868    17826    17801    17863    17917    17973 
   18060    18046    17984    17950    17895    17883    17899    17826 
   17736    17703    17698    17737    17809    17863    17917    17995 
   18114    18295    18408    18365    18328    18381    18374    18318 
   18300    18247    18229    18403    18600    18615    18571    18551 
   18458    18374    18457    18589    18636    18715    18850    18928 
   19029    19171    19195    19197    19307    19345    19302    19344 
   19352    19238    19172    19170    19057    18841    18674    18592 
   18582    18696    18846    18891    18925    19008    19029    18994 
   18940    18835    18759    18778    18839    18913    18922    18820 
   18763    18833    18860    18801    18786    18798    18837    19005 
   19163    19213    19318    19440    19421    19376    19364    19275 
   19194    19256    19319    19245    19113    19041    19055    19076 
   19066    19079    19072    18963    18889    18941    18982    18963 
   18932    18852    18739    18644    18515    18364    18256    18114 
   17894    17745    17778    17898    18003    18135    18310    18420 
   18468    18559    18667    18659    18555    18534    18634    18682 
   18671    18775    18905    18860    18796    18882    18912    18756 
   18619    18580    18522    18442    18432    18439    18378    18299 
   18289    18368    18446    18473    18527    18651    18808    18947 
   19039    19117    19214    19306    19377    19418    19413    19399 
   19452    19525    19491    19392    19386    19452    19446    19361 
   19259    19114    18931    18769    18596    18392    18266    18227 
   18166    18090    18057    18046    18040    18040    17992    17888 
   17790    17716    17632    17548    17505    17536    17625    17686 
   17713    17739    17707    17617    17612    17755    17879    17887 
   17933    18063    18179    18312    18484    18588    18577    18543 
   18581    18662    18744    18831    18873    18831    18779    18750 
   18733    18785    18863    18850    18782    18690    18574    18540 
   18547    18482    18453    18496    18478    18424    18403    18335 
   18162    17953    17791    17656    17491    17379    17369    17354 
   17370    17486    17571    17583    17648    17771    17834    17825 
   17836    17834    17756    17709    17755    17829    17910    17948 
   17922    17973    18119    18216    18277    18373    18416    18382 
   18384    18414    18389    18299    18153    18009    17968    18025 
   18054    18025    18027    18091    18162    18245    18342    18393 
   18423    18515    18627    18686    18724    18777    18832    18868 
   18877    18897    18966    19071    19197    19319    19413    19475 
   19489    19437    19363    19337    19372    19437    19469    19473 
   19516    19566    19588    19662    19746    19726    19670    19654 
   19651    19683    19723    19651    19480    19332    19188    19021 
   18947    18949    18866    18712    18589    18472    18366    18304 
   18181    17982    17838    17760    17694    17672    17678    17671 
   17676    17720    17832    17995    18063    18006    17948    17901 
   17861    17875    17841    17733    17697    17691    17631    17625 
   17682    17734    17848    18033    18223    18401    18550    18690 
   18862    18972    18970    18952    18972    19037    19136    19167 
   19122    19117    19109    19055    19024    18976    18870    18813 
   18831    18825    18787    18744    18647    18515    18441    18405 
   18319    18187    18087    18041    18006    17982    17998    18027 
   18034    18075    18198    18322    18412    18519    18612    18666 
   18716    18769    18828    18883    18904    18902    18852    18704 
   18550    18482    18442    18382    18349    18351    18357    18337 
