Origin Time       2025/01/13 21:19:00
Lat.              31.8
Long.             131.6
Depth. (km)       30
Mag.              6.9
Station Code      KOC011
Station Lat.      33.3982
Station Long.     132.8962
Station Height(m) 500
Record Time       2025/01/13 21:20:27
Sampling Freq(Hz) 100Hz
Duration Time(s)  79
Dir.              E-W
Scale Factor      7845(gal)/8223790
Max. Acc. (gal)   3.549
Last Correction   2025/01/13 21:20:27
Memo.             
[...]
   -1852    -1773    -1699    -1657    -1633    -1591    -1528    -1467 
   -1441    -1448    -1440    -1412    -1394    -1395    -1417    -1445 
   -1472    -1505    -1539    -1571    -1610    -1660    -1719    -1780 
   -1822    -1856    -1875    -1848    -1761    -1651    -1567    -1537 
   -1544    -1578    -1651    -1768    -1883    -1946    -1979    -2025 
   -2066    -2064    -2015    -1941    -1865    -1818    -1765    -1671 
   -1568    -1483    -1391    -1296    -1221    -1196    -1233    -1317 
   -1406    -1501    -1609    -1732    -1868    -2018    -2165    -2263 
   -2274    -2226    -2154    -2079    -2019    -1968    -1902    -1795 
   -1652    -1514    -1424    -1399    -1447    -1540    -1618    -1649 
   -1656    -1660    -1648    -1607    -1545    -1472    -1417    -1408 
   -1449    -1541    -1679    -1873    -2091    -2245    -2309    -2319 
   -2286    -2232    -2188    -2182    -2223    -2281    -2327    -2358 
   -2371    -2331    -2185    -1948    -1687    -1474    -1333    -1250 
   -1208    -1212    -1242    -1263    -1258    -1250    -1278    -1339 
   -1401    -1433    -1418    -1359    -1294    -1266    -1244    -1152 
    -996     -849     -766     -756     -788     -816     -819     -832 
    -901    -1023    -1150    -1246    -1297    -1309    -1320    -1368 
   -1447    -1537    -1634    -1753    -1911    -2080    -2232    -2376 
   -2494    -2571    -2624    -2668    -2713    -2756    -2785    -2771 
   -2687    -2543    -2381    -2212    -2047    -1910    -1794    -1702 
   -1638    -1578    -1521    -1463    -1385    -1320    -1298    -1308 
   -1348    -1420    -1495    -1561    -1603    -1598    -1568    -1566 
   -1618    -1718    -1848    -1998    -2145    -2241    -2258    -2211 
   -2120    -2016    -1923    -1857    -1817    -1780    -1737    -1698 
   -1667    -1649    -1641    -1618    -1575    -1516    -1448    -1399 
   -1371    -1335    -1291    -1259    -1258    -1321    -1443    -1563 
   -1638    -1655    -1605    -1513    -1449    -1444    -1462    -1476 
   -1490    -1522    -1566    -1583    -1583    -1591    -1610    -1655 
   -1760    -1930    -2128    -2304    -2420    -2470    -2471    -2425 
   -2322    -2181    -2076    -2065    -2123    -2170    -2147    -2077 
   -2002    -1925    -1841    -1740    -1617    -1489    -1366    -1254 
   -1150    -1035     -896     -739     -587     -469     -413     -415 
    -469     -577     -726     -882    -1038    -1208    -1418    -1660 
   -1899    -2088    -2203    -2259    -2293    -2351    -2458    -2565 
   -2608    -2554    -2413    -2241    -2065    -1887    -1736    -1636 
   -1578    -1579    -1652    -1738    -1773    -1773    -1788    -1829 
   -1890    -1953    -2002    -2035    -2043    -2022    -1981    -1937 
   -1915    -1930    -1946    -1917    -1840    -1736    -1624    -1516 
   -1429    -1393    -1406    -1431    -1432    -1404    -1371    -1358 
   -1371    -1406    -1458    -1516    -1574    -1609    -1630    -1671 
   -1734    -1799    -1850    -1865    -1865    -1895    -1949    -1980 
   -1948    -1867    -1780    -1736    -1748    -1782    -1783    -1736 
   -1695    -1707    -1738    -1736    -1695    -1648    -1644    -1667 
   -1660    -1628    -1638    -1737    -1896    -2058    -2193    -2284 
   -2317    -2317    -2309    -2313    -2339    -2358    -2336    -2272 
   -2191    -2099    -1968    -1796    -1626    -1471    -1293    -1078 
    -877     -700     -533     -421     -438     -579     -753     -886 
    -966    -1023    -1096    -1210    -1387    -1622    -1872    -2112 
   -2340    -2554    -2751    -2936    -3065    -3094    -3010    -2826 
   -2592    -2366    -2180    -2025    -1880    -1737    -1615    -1502 
   -1337    -1111     -901     -784     -749     -769     -830     -900 
    -976    -1078    -1198    -1293    -1316    -1287    -1290    -1356 
   -1463    -1601    -1745    -1846    -1891    -1890    -1842    -1763 
   -1680    -1625    -1613    -1641    -1701    -1794    -1919    -2068 
   -2220    -2343    -2425    -2481    -2508    -2485    -2417    -2342 
   -2284    -2235    -2176    -2104    -2060    -2060    -2085    -2106 
   -2074    -1962    -1806    -1659    -1532    -1433    -1374    -1340 
   -1314    -1263    -1165    -1066    -1013    -1017    -1071    -1144 
   -1201    -1233    -1240    -1255    -1355    -1601    -1971    -2361 
   -2667    -2844    -2871    -2755    -2574    -2432    -2370    -2376 
   -2408    -2417    -2386    -2311    -2177    -1999    -1800    -1594 
   -1401    -1232    -1090    -1005    -1012    -1116    -1282    -1468 
   -1641    -1733    -1705    -1605    -1497    -1418    -1375    -1310 
   -1201    -1097    -1016     -962     -962    -1001    -1048    -1102 
   -1177    -1281    -1394    -1483    -1540    -1576    -1624    -1713 
   -1814    -1883    -1944    -2027    -2093    -2097    -2039    -1954 
   -1891    -1869    -1865    -1890    -1935    -1968    -1993    -2023 
   -2039    -2034    -2002    -1941    -1861    -1742    -1580    -1425 
   -1335    -1343    -1417    -1470    -1462    -1408    -1321    -1252 
   -1256    -1343    -1475    -1609    -1729    -1806    -1796    -1701 
   -1552    -1406    -1313    -1252    -1190    -1156    -1192    -1290 
   -1410    -1502    -1532    -1506    -1482    -1533    -1688    -1929 
   -2188    -2390    -2517    -2592    -2633    -2647    -2648    -2681 
   -2771    -2874    -2928    -2899    -2786    -2606    -2393    -2165 
   -1949    -1786    -1671    -1574    -1472    -1331    -1154    -1024 
    -990    -1009    -1026    -1026    -1020    -1011     -997     -994 
   -1024    -1082    -1143    -1215    -1339    -1516    -1674    -1741 
   -1721    -1679    -1661    -1651    -1629    -1633    -1696    -1798 
   -1912    -2010    -2042    -2004    -1935    -1895    -1930    -1996 
   -1999    -1911    -1773    -1605    -1425    -1270    -1144    -1034 
    -950     -923     -990    -1124    -1243    -1331    -1404    -1463 
   -1520    -1583    -1645    -1692    -1690    -1630    -1578    -1591 
   -1655    -1721    -1756    -1732    -1637    -1507    -1378    -1262 
   -1156    -1059     -976     -899     -835     -832     -931    -1121 
   -1399    -1742    -2080    -2353    -2527    -2597    -2589    -2525 
   -2424    -2308    -2215    -2166    -2139    -2084    -1961    -1779 
   -1584    -1414    -1283    -1177    -1047     -881     -716     -602 
    -544     -517     -521     -581     -691     -866    -1159    -1503 
   -1809    -2074    -2273    -2366    -2370    -2324    -2315    -2376 
   -2438    -2448    -2439    -2442    -2448    -2417    -2324    -2172 
   -1999    -1838    -1701    -1617    -1599    -1629    -1680    -1714 
   -1707    -1667    -1605    -1543    -1466    -1350    -1250    -1206 
   -1198    -1210    -1244    -1297    -1379    -1485    -1564    -1602 
   -1645    -1738    -1853    -1946    -2003    -1996    -1907    -1768 
   -1621    -1521    -1499    -1502    -1439    -1312    -1205    -1134 
   -1075    -1067    -1139    -1259    -1389    -1497    -1598    -1742 
   -1896    -1972    -1953    -1884    -1823    -1837    -1933    -2042 
   -2104    -2110    -2068    -1996    -1946    -1954    -2003    -2070 
   -2138    -2169    -2142    -2061    -1946    -1838    -1756    -1679 
   -1594    -1521    -1495    -1548    -1637    -1694    -1719    -1749 
   -1775    -1773    -1752    -1745    -1782    -1840    -1888    -1903 
   -1873    -1794    -1659    -1505    -1401    -1378    -1405    -1414 
   -1381    -1360    -1404    -1506    -1633    -1736    -1806    -1888 
   -2023    -2205    -2388    -2520    -2569    -2520    -2384    -2192 
   -2010    -1906    -1899    -1946    -1998    -2003    -1914    -1763 
   -1647    -1621    -1661    -1695    -1690    -1652    -1617    -1624 
   -1669    -1750    -1890    -2062    -2170    -2123    -1933    -1715 
   -1568    -1520    -1556    -1611    -1606    -1529    -1432    -1371 
   -1374    -1433    -1537    -1661    -1802    -1973    -2137    -2215 
   -2189    -2101    -2030    -2041    -2123    -2184    -2176    -2172 
   -2243    -2343    -2407    -2431    -2415    -2334    -2203    -2049 
   -1881    -1737    -1674    -1676    -1676    -1638    -1579    -1502 
   -1426    -1389    -1368    -1301    -1183    -1039     -870     -730 
    -664     -668     -749     -886    -1008    -1071    -1085    -1101 
   -1178    -1317    -1479    -1638    -1802    -2000    -2253    -2539 
   -2820    -3064    -3240    -3303    -3258    -3153    -2998    -2791 
   -2540    -2273    -2047    -1902    -1840    -1841    -1858    -1837 
   -1757    -1665    -1603    -1543    -1480    -1431    -1386    -1366 
   -1393    -1459    -1545    -1629    -1698    -1756    -1791    -1792 
   -1767    -1725    -1703    -1733    -1803    -1863    -1856    -1807 
   -1799    -1865    -1981    -2076    -2092    -2045    -1962    -1852 
   -1728    -1580    -1399    -1212    -1065     -989     -986    -1050 
   -1167    -1296    -1383    -1401    -1351    -1281    -1263    -1316 
   -1413    -1556    -1726    -1857    -1930    -1991    -2061    -2123 
   -2160    -2172    -2138    -2054    -1945    -1819    -1695    -1584 
   -1489    -1408    -1336    -1271    -1229    -1216    -1246    -1348 
   -1537    -1775    -1984    -2138    -2281    -2444    -2610    -2767 
   -2917    -3040    -3105    -3110    -3091    -3087    -3102    -3084 
   -2957    -2691    -2313    -1890    -1501    -1212    -1021     -895 
    -810     -746     -675     -606     -583     -639     -787     -990 
   -1189    -1312    -1321    -1259    -1201    -1179    -1171    -1124 
   -1015     -869     -729     -637     -594     -587     -626     -714 
    -826     -950    -1107    -1324    -1566    -1776    -2012    -2346 
   -2724    -3073    -3356    -3532    -3605    -3604    -3532    -3370 
   -3118    -2833    -2617    -2500    -2403    -2246    -2053    -1863 
   -1667    -1456    -1264    -1119    -1005     -904     -820     -766 
    -741     -738     -762     -797     -803     -735     -607     -491 
    -467     -567     -745     -922    -1073    -1225    -1383    -1517 
   -1611    -1678    -1738    -1821    -1939    -2080    -2243    -2421 
   -2586    -2737    -2889    -3001    -3002    -2897    -2771    -2681 
   -2606    -2527    -2447    -2370    -2281    -2126    -1864    -1564 
   -1306    -1069     -822     -577     -349     -145       16      141 
     243      315      360      375      346      276      201      144 
      63      -97     -310     -511     -662     -751     -807     -862 
    -922     -992    -1085    -1198    -1323    -1449    -1586    -1718 
   -1815    -1873    -1915    -1938    -1919    -1867    -1834    -1857 
   -1926    -2016    -2096    -2130    -2107    -2047    -1992    -1971 
   -1971    -1966    -1965    -1996    -2066    -2120    -2103    -2060 
   -2076    -2165    -2278    -2373    -2427    -2431    -2398    -2342 
   -2241    -2072    -1857    -1638    -1441    -1269    -1116     -986 
    -884     -793     -692     -602     -560     -550     -562     -629 
    -768     -938    -1075    -1175    -1275    -1401    -1566    -1767 
   -1972    -2157    -2307    -2394    -2416    -2417    -2434    -2432 
   -2377    -2278    -2174    -2085    -2008    -1975    -2018    -2101 
   -2161    -2185    -2189    -2189    -2195    -2220    -2280    -2362 
   -2455    -2531    -2571    -2586    -2585    -2539    -2421    -2212 
   -1896    -1537    -1228    -1011     -897     -878     -899     -888 
    -807     -680     -561     -491     -515     -653     -878    -1148 
   -1406    -1617    -1791    -1949    -2095    -2250    -2427    -2592 
   -2690    -2704    -2637    -2496    -2308    -2116    -1964    -1883 
   -1868    -1881    -1872    -1800    -1684    -1587    -1544    -1555 
   -1594    -1653    -1765    -1941    -2126    -2261    -2324    -2335 
   -2346    -2388    -2457    -2550    -2641    -2700    -2732    -2767 
   -2798    -2813    -2848    -2918    -2960    -2903    -2789    -2697 
   -2668    -2704    -2762    -2802    -2816    -2799    -2737    -2617 
   -2448    -2257    -2043    -1783    -1494    -1219     -978     -805 
    -729     -731     -780     -853     -911     -908     -842     -761 
    -738     -808     -939    -1062    -1140    -1188    -1232    -1297 
   -1395    -1537    -1695    -1830    -1941    -2033    -2096    -2147 
   -2205    -2249    -2269    -2299    -2384    -2517    -2617    -2604 
   -2494    -2366    -2246    -2115    -1977    -1868    -1795    -1734 
   -1675    -1618    -1566    -1514    -1459    -1390    -1318    -1259 
   -1193    -1123    -1067    -1035    -1015     -993     -973     -958 
    -928     -870     -793     -741     -753     -828     -939    -1092 
   -1316    -1610    -1938    -2253    -2504    -2639    -2632    -2523 
   -2381    -2261    -2195    -2162    -2155    -2166    -2162    -2151 
   -2169    -2224    -2295    -2322    -2263    -2142    -1972    -1782 
   -1622    -1512    -1447    -1416    -1356    -1248    -1138    -1053 
    -996     -967     -938     -873     -792     -745     -735     -766 
    -866    -1039    -1260    -1498    -1718    -1910    -2079    -2235 
   -2355    -2407    -2403    -2373    -2334    -2296    -2262    -2220 
   -2162    -2111    -2091    -2106    -2165    -2274    -2411    -2533 
   -2619    -2668    -2687    -2678    -2663    -2664    -2667    -2648 
   -2623    -2616    -2612    -2547    -2392    -2170    -1941    -1776 
   -1736    -1838    -2045    -2300    -2567    -2843    -3142    -3470 
   -3836    -4247    -4679    -5057    -5317    -5439    -5431    -5325 
   -5171    -5016    -4866    -4735    -4631    -4484    -4222    -3854 
   -3441    -3051    -2710    -2427    -2191    -1971    -1721    -1406 
   -1044     -670     -301       48      355      612      835     1020 
    1154     1228     1282     1359     1437     1453     1398     1312 
    1202     1054      859      623      357       63     -272     -625 
    -930    -1140    -1269    -1371    -1494    -1637    -1780    -1903 
   -1977    -1981    -1919    -1817    -1675    -1490    -1281    -1059 
    -826     -610     -445     -349     -324     -357     -434     -556 
    -726     -924    -1138    -1352    -1530    -1659    -1736    -1760 
   -1773    -1837    -1948    -2074    -2199    -2307    -2384    -2401 
   -2366    -2301    -2204    -2068    -1890    -1684    -1485    -1318 
   -1206    -1147    -1140    -1194    -1318    -1522    -1788    -2042 
   -2200    -2246    -2223    -2187    -2169    -2154    -2107    -2047 
   -2003    -1952    -1869    -1780    -1702    -1634    -1576    -1513 
   -1420    -1279    -1089     -873     -650     -432     -232      -58 
      83      175      216      224      207      139        4     -133 
    -213     -264     -360     -550     -814    -1105    -1399    -1675 
   -1945    -2231    -2515    -2776    -3024    -3252    -3443    -3574 
   -3627    -3620    -3574    -3493    -3383    -3264    -3137    -2999 
   -2855    -2704    -2536    -2363    -2205    -2092    -2039    -2020 
   -1989    -1927    -1852    -1794    -1749    -1699    -1655    -1637 
   -1644    -1644    -1607    -1536    -1448    -1350    -1247    -1143 
   -1035     -916     -822     -793     -797     -796     -796     -797 
    -791     -769     -756     -787     -889    -1073    -1324    -1603 
   -1890    -2165    -2404    -2589    -2745    -2902    -3037    -3119 
   -3160    -3163    -3106    -2978    -2791    -2585    -2380    -2150 
   -1881    -1584    -1297    -1080     -932     -805     -689     -600 
    -549     -553     -596     -637     -660     -691     -766     -908 
   -1094    -1287    -1490    -1687    -1841    -1939    -1987    -1999 
   -2006    -2033    -2072    -2097    -2122    -2154    -2187    -2215 
   -2243    -2255    -2231    -2172    -2070    -1915    -1718    -1489 
   -1236     -997     -800     -654     -567     -519     -483     -445 
    -409     -386     -395     -459     -567     -692     -822     -966 
   -1134    -1287    -1391    -1456    -1505    -1557    -1584    -1561 
   -1529    -1541    -1611    -1732    -1900    -2119    -2355    -2581 
   -2798    -2995    -3157    -3292    -3419    -3530    -3589    -3601 
   -3588    -3550    -3480    -3370    -3214    -3030    -2848    -2668 
   -2485    -2288    -2079    -1895    -1776    -1713    -1686    -1679 
   -1678    -1675    -1655    -1583    -1455    -1293    -1135    -1015 
    -947     -922     -927     -963    -1027    -1111    -1205    -1296 
   -1377    -1449    -1522    -1605    -1703    -1811    -1921    -2011 
   -2070    -2110    -2155    -2211    -2270    -2357    -2505    -2702 
   -2907    -3088    -3204    -3250    -3231    -3115    -2876    -2539 
   -2147    -1748    -1364    -1017     -729     -486     -275     -124 
     -59      -68     -126     -217     -378     -631     -966    -1377 
   -1846    -2326    -2781    -3180    -3484    -3684    -3782    -3800 
   -3748    -3628    -3464    -3264    -3014    -2733    -2450    -2165 
   -1867    -1549    -1233     -940     -661     -407     -236     -167 
    -163     -184     -224     -301     -415     -537     -676     -837 
   -1003    -1181    -1370    -1549    -1722    -1900    -2065    -2205 
   -2343    -2473    -2581    -2682    -2774    -2845    -2925    -3037 
   -3172    -3319    -3503    -3721    -3942    -4129    -4270    -4368 
   -4430    -4442    -4419    -4374    -4284    -4141    -3944    -3704 
   -3433    -3119    -2758    -2361    -1927    -1458     -970     -473 
      25      490      876     1152     1290     1283     1182     1035 
     845      611      344       58     -252     -595     -940    -1266 
   -1580    -1869    -2112    -2316    -2492    -2635    -2741    -2809 
   -2826    -2813    -2810    -2822    -2814    -2783    -2756    -2725 
   -2674    -2597    -2509    -2440    -2393    -2353    -2290    -2166 
   -1983    -1776    -1579    -1424    -1308    -1205    -1105     -992 
    -881     -803     -747     -702     -685     -711     -766     -834 
    -900     -953     -999    -1051    -1098    -1125    -1154    -1205 
   -1259    -1286    -1267    -1204    -1107     -997     -884     -760 
    -625     -483     -338     -211     -126      -76      -43      -16 
      14       35       21      -28      -91     -166     -267     -402 
    -565     -773    -1042    -1354    -1676    -1999    -2328    -2659 
   -2960    -3203    -3396    -3543    -3649    -3727    -3775    -3808 
   -3824    -3802    -3765    -3723    -3666    -3588    -3465    -3300 
   -3138    -2982    -2809    -2616    -2397    -2164    -1953    -1783 
   -1636    -1480    -1310    -1165    -1054     -963     -880     -804 
    -747     -711     -688     -681     -689     -693     -711     -760 
    -820     -892     -994    -1148    -1354    -1575    -1802    -2050 
   -2312    -2563    -2775    -2940    -3078    -3184    -3238    -3254 
   -3241    -3180    -3083    -2982    -2871    -2740    -2608    -2473 
   -2324    -2158    -1969    -1776    -1607    -1447    -1275    -1117 
    -994     -891     -805     -738     -680     -634     -614     -625 
    -657     -710     -780     -843     -877     -892     -923     -974 
   -1017    -1044    -1051    -1054    -1081    -1116    -1128    -1120 
   -1098    -1065    -1038    -1015     -978     -930     -880     -835 
    -812     -835     -912    -1023    -1144    -1279    -1425    -1568 
