Origin Time       2025/01/13 21:19:00
Lat.              31.8
Long.             131.6
Depth. (km)       30
Mag.              6.9
Station Code      KOC004
Station Lat.      33.6975
Station Long.     133.8764
Station Height(m) 220
Record Time       2025/01/13 21:20:50
Sampling Freq(Hz) 100Hz
Duration Time(s)  76
Dir.              N-S
Scale Factor      7845(gal)/8223790
Max. Acc. (gal)   1.537
Last Correction   2025/01/13 21:20:50
Memo.             
[...]
   -2347    -2327    -2336    -2438    -2575    -2631    -2574    -2474 
   -2404    -2369    -2327    -2272    -2219    -2201    -2239    -2317 
   -2394    -2455    -2484    -2492    -2533    -2589    -2590    -2567 
   -2592    -2670    -2733    -2693    -2547    -2416    -2394    -2440 
   -2459    -2467    -2547    -2667    -2720    -2705    -2691    -2671 
   -2575    -2427    -2349    -2392    -2466    -2482    -2470    -2500 
   -2532    -2527    -2512    -2520    -2529    -2459    -2292    -2178 
   -2212    -2297    -2347    -2384    -2469    -2597    -2655    -2559 
   -2392    -2331    -2436    -2594    -2729    -2818    -2821    -2737 
   -2552    -2289    -2130    -2193    -2330    -2405    -2479    -2581 
   -2637    -2616    -2573    -2567    -2610    -2678    -2716    -2670 
   -2585    -2570    -2632    -2698    -2724    -2695    -2625    -2566 
   -2540    -2505    -2450    -2447    -2494    -2511    -2516    -2533 
   -2515    -2494    -2556    -2654    -2662    -2566    -2473    -2444 
   -2451    -2432    -2381    -2412    -2575    -2702    -2668    -2570 
   -2525    -2546    -2586    -2597    -2527    -2384    -2246    -2220 
   -2351    -2550    -2673    -2710    -2754    -2816    -2821    -2740 
   -2658    -2660    -2705    -2727    -2729    -2714    -2660    -2556 
   -2459    -2451    -2501    -2492    -2400    -2346    -2407    -2524 
   -2624    -2694    -2706    -2627    -2466    -2304    -2219    -2215 
   -2247    -2273    -2286    -2304    -2289    -2230    -2168    -2145 
   -2195    -2303    -2397    -2440    -2462    -2492    -2494    -2465 
   -2490    -2577    -2640    -2673    -2713    -2752    -2755    -2694 
   -2575    -2467    -2435    -2417    -2340    -2282    -2328    -2398 
   -2400    -2342    -2322    -2393    -2471    -2482    -2457    -2440 
   -2458    -2521    -2597    -2625    -2590    -2550    -2536    -2498 
   -2411    -2328    -2328    -2431    -2550    -2589    -2570    -2566 
   -2566    -2536    -2512    -2524    -2542    -2555    -2596    -2667 
   -2741    -2776    -2762    -2752    -2797    -2871    -2934    -2974 
   -2967    -2916    -2860    -2779    -2625    -2446    -2323    -2270 
   -2236    -2176    -2104    -2080    -2172    -2350    -2492    -2550 
   -2567    -2582    -2609    -2652    -2673    -2650    -2635    -2651 
   -2620    -2485    -2322    -2242    -2278    -2411    -2540    -2540 
   -2436    -2370    -2361    -2355    -2381    -2443    -2457    -2421 
   -2458    -2540    -2550    -2517    -2531    -2575    -2598    -2598 
   -2592    -2558    -2517    -2521    -2502    -2409    -2313    -2269 
   -2268    -2315    -2390    -2447    -2496    -2586    -2658    -2600 
   -2466    -2396    -2404    -2431    -2438    -2417    -2403    -2435 
   -2523    -2616    -2663    -2690    -2721    -2741    -2752    -2770 
   -2770    -2720    -2651    -2636    -2677    -2704    -2679    -2655 
   -2682    -2735    -2768    -2766    -2756    -2828    -2940    -2925 
   -2790    -2663    -2567    -2482    -2436    -2425    -2401    -2353 
   -2290    -2208    -2149    -2155    -2192    -2222    -2263    -2319 
   -2347    -2358    -2390    -2407    -2357    -2285    -2246    -2219 
   -2187    -2189    -2250    -2355    -2504    -2640    -2671    -2613 
   -2566    -2547    -2504    -2430    -2358    -2301    -2208    -2077 
   -2004    -2033    -2131    -2245    -2303    -2315    -2370    -2457 
   -2498    -2524    -2562    -2552    -2473    -2347    -2250    -2272 
   -2389    -2486    -2497    -2481    -2532    -2635    -2683    -2670 
   -2683    -2714    -2682    -2610    -2563    -2542    -2529    -2524 
   -2529    -2546    -2560    -2567    -2589    -2670    -2810    -2906 
   -2897    -2833    -2743    -2651    -2604    -2590    -2597    -2632 
   -2655    -2651    -2635    -2610    -2583    -2574    -2577    -2547 
   -2470    -2415    -2413    -2427    -2430    -2440    -2463    -2482 
   -2489    -2515    -2569    -2613    -2594    -2515    -2448    -2439 
   -2442    -2415    -2371    -2354    -2373    -2388    -2392    -2394 
   -2376    -2363    -2381    -2425    -2508    -2592    -2597    -2524 
   -2457    -2475    -2554    -2570    -2512    -2494    -2548    -2589 
   -2560    -2486    -2434    -2450    -2498    -2524    -2550    -2597 
   -2609    -2573    -2542    -2525    -2523    -2548    -2581    -2602 
   -2609    -2613    -2624    -2602    -2562    -2539    -2528    -2536 
   -2589    -2663    -2717    -2717    -2681    -2646    -2619    -2606 
   -2606    -2609    -2641    -2704    -2731    -2705    -2679    -2664 
   -2614    -2538    -2488    -2477    -2473    -2463    -2450    -2427 
   -2401    -2386    -2349    -2269    -2218    -2251    -2320    -2365 
   -2392    -2393    -2373    -2370    -2373    -2357    -2339    -2307 
   -2247    -2231    -2288    -2339    -2315    -2295    -2385    -2539 
   -2608    -2570    -2517    -2492    -2486    -2484    -2473    -2477 
   -2489    -2481    -2469    -2475    -2466    -2388    -2296    -2295 
   -2344    -2355    -2343    -2347    -2349    -2331    -2327    -2389 
   -2511    -2606    -2659    -2752    -2879    -2947    -2947    -2928 
   -2894    -2826    -2743    -2687    -2651    -2609    -2586    -2575 
   -2569    -2581    -2558    -2469    -2394    -2350    -2290    -2251 
   -2274    -2311    -2315    -2295    -2285    -2323    -2373    -2366 
   -2343    -2377    -2448    -2511    -2556    -2578    -2577    -2582 
   -2597    -2596    -2585    -2592    -2624    -2659    -2668    -2632 
   -2577    -2548    -2546    -2552    -2581    -2612    -2614    -2628 
   -2658    -2640    -2592    -2587    -2619    -2620    -2556    -2444 
   -2344    -2281    -2230    -2205    -2263    -2393    -2513    -2556 
   -2475    -2312    -2195    -2176    -2204    -2231    -2270    -2334 
   -2417    -2481    -2475    -2419    -2361    -2301    -2262    -2280 
   -2322    -2339    -2349    -2378    -2401    -2384    -2340    -2312 
   -2316    -2340    -2361    -2400    -2501    -2608    -2633    -2608 
   -2627    -2700    -2745    -2725    -2679    -2629    -2583    -2555 
   -2558    -2605    -2633    -2589    -2542    -2521    -2494    -2469 
   -2470    -2502    -2552    -2582    -2571    -2532    -2504    -2519 
   -2570    -2623    -2644    -2620    -2559    -2484    -2417    -2381 
   -2400    -2448    -2443    -2378    -2334    -2330    -2322    -2292 
   -2278    -2317    -2392    -2447    -2446    -2427    -2444    -2478 
   -2467    -2403    -2363    -2389    -2438    -2511    -2604    -2608 
   -2485    -2340    -2277    -2295    -2323    -2357    -2409    -2451 
   -2458    -2428    -2396    -2417    -2474    -2519    -2554    -2582 
   -2577    -2528    -2467    -2444    -2461    -2496    -2527    -2536 
   -2552    -2581    -2558    -2512    -2505    -2529    -2583    -2708 
   -2860    -2959    -3013    -3038    -2990    -2907    -2848    -2776 
   -2697    -2650    -2592    -2524    -2519    -2582    -2643    -2648 
   -2628    -2637    -2660    -2624    -2509    -2388    -2347    -2378 
   -2385    -2324    -2220    -2084    -1949    -1890    -1919    -1996 
   -2085    -2184    -2293    -2376    -2407    -2403    -2344    -2246 
   -2193    -2235    -2330    -2443    -2581    -2683    -2683    -2613 
   -2529    -2444    -2413    -2486    -2605    -2681    -2687    -2629 
   -2544    -2497    -2478    -2484    -2562    -2666    -2712    -2722 
   -2721    -2641    -2515    -2508    -2663    -2828    -2856    -2772 
   -2720    -2781    -2894    -2909    -2748    -2546    -2451    -2448 
   -2462    -2481    -2516    -2559    -2601    -2617    -2575    -2502 
   -2447    -2431    -2450    -2455    -2434    -2432    -2470    -2546 
   -2639    -2725    -2797    -2809    -2735    -2631    -2555    -2531 
   -2547    -2529    -2444    -2377    -2380    -2385    -2336    -2274 
   -2235    -2234    -2305    -2419    -2498    -2513    -2492    -2494 
   -2515    -2504    -2446    -2317    -2143    -2030    -2003    -1989 
   -1984    -2058    -2189    -2281    -2326    -2361    -2390    -2439 
   -2525    -2578    -2519    -2393    -2284    -2238    -2288    -2411 
   -2502    -2513    -2506    -2533    -2594    -2700    -2812    -2866 
   -2889    -2883    -2754    -2506    -2285    -2189    -2250    -2436 
   -2651    -2794    -2848    -2901    -3005    -3022    -2859    -2662 
   -2573    -2540    -2458    -2313    -2204    -2203    -2272    -2332 
   -2322    -2290    -2366    -2554    -2731    -2828    -2868    -2878 
   -2855    -2806    -2729    -2573    -2369    -2266    -2323    -2431 
   -2506    -2575    -2647    -2691    -2708    -2725    -2770    -2813 
   -2770    -2643    -2529    -2442    -2319    -2162    -2034    -1962 
   -1954    -2012    -2154    -2369    -2596    -2760    -2783    -2639 
   -2420    -2243    -2172    -2222    -2312    -2328    -2243    -2135 
   -2065    -2002    -1938    -1972    -2142    -2404    -2697    -2883 
   -2901    -2880    -2907    -2913    -2867    -2803    -2725    -2639 
   -2585    -2566    -2565    -2585    -2617    -2663    -2743    -2853 
   -2957    -2983    -2870    -2651    -2432    -2327    -2393    -2583 
   -2828    -3069    -3167    -3033    -2785    -2547    -2366    -2282 
   -2317    -2438    -2577    -2667    -2612    -2370    -2091    -1972 
   -2031    -2187    -2384    -2596    -2803    -2949    -2936    -2747 
   -2512    -2365    -2322    -2307    -2245    -2155    -2147    -2270 
   -2407    -2431    -2388    -2342    -2234    -2061    -1973    -2065 
   -2245    -2405    -2550    -2682    -2744    -2679    -2517    -2367 
   -2301    -2317    -2394    -2531    -2705    -2847    -2894    -2821 
   -2660    -2536    -2479    -2389    -2280    -2261    -2322    -2359 
   -2323    -2239    -2181    -2219    -2327    -2397    -2444    -2605 
   -2933    -3294    -3446    -3279    -2964    -2710    -2535    -2430 
   -2461    -2656    -2916    -3057    -3019    -2936    -2897    -2843 
   -2770    -2785    -2903    -3021    -3099    -3184    -3211    -3011 
   -2559    -2060    -1771    -1791    -2007    -2201    -2257    -2208 
   -2096    -1965    -1921    -2012    -2124    -2168    -2209    -2268 
   -2247    -2191    -2261    -2473    -2691    -2841    -2948    -2994 
   -2926    -2774    -2574    -2313    -2056    -1933    -1998    -2196 
   -2392    -2479    -2490    -2547    -2683    -2790    -2785    -2745 
   -2768    -2835    -2851    -2725    -2498    -2323    -2272    -2327 
   -2424    -2469    -2384    -2131    -1840    -1769    -1956    -2191 
   -2322    -2330    -2289    -2326    -2457    -2578    -2640    -2647 
   -2650    -2745    -2970    -3191    -3226    -3072    -2879    -2755 
   -2682    -2566    -2408    -2305    -2266    -2250    -2309    -2482 
   -2729    -2983    -3161    -3230    -3250    -3306    -3391    -3400 
   -3285    -3126    -3025    -2965    -2814    -2494    -2074    -1682 
   -1426    -1375    -1494    -1617    -1659    -1830    -2335    -3021 
   -3522    -3613    -3327    -2821    -2224    -1691    -1399    -1404 
   -1568    -1703    -1753    -1745    -1679    -1626    -1653    -1680 
   -1696    -1880    -2342    -2902    -3268    -3346    -3246    -3055 
   -2816    -2623    -2575    -2704    -2924    -3037    -2898    -2586 
   -2296    -2153    -2142    -2169    -2243    -2443    -2689    -2802 
   -2762    -2706    -2775    -2953    -3080    -3049    -2874    -2612 
   -2384    -2330    -2425    -2497    -2436    -2280    -2128    -2107 
   -2317    -2720    -3087    -3175    -2983    -2779    -2720    -2677 
   -2524    -2295    -2110    -2135    -2373    -2602    -2637    -2465 
   -2192    -2000    -2003    -2092    -2053    -1929    -1999    -2317 
   -2674    -2920    -3013    -2988    -2945    -2893    -2775    -2627 
   -2533    -2565    -2720    -2909    -2952    -2697    -2239    -1869 
   -1729    -1745    -1799    -1818    -1829    -1946    -2222    -2578 
   -2922    -3171    -3244    -3149    -2951    -2674    -2342    -2039 
   -1887    -1927    -2076    -2226    -2331    -2446    -2631    -2779 
   -2698    -2396    -2123    -2095    -2277    -2474    -2552    -2543 
   -2583    -2722    -2824    -2740    -2539    -2412    -2440    -2559 
   -2655    -2678    -2675    -2728    -2817    -2859    -2856    -2864 
   -2820    -2663    -2473    -2328    -2196    -2058    -1976    -1993 
   -2135    -2431    -2828    -3163    -3311    -3261    -3068    -2857 
   -2710    -2571    -2412    -2330    -2425    -2641    -2785    -2721 
   -2493    -2222    -2074    -2142    -2303    -2392    -2398    -2412 
   -2529    -2749    -2970    -3091    -3038    -2759    -2331    -1965 
   -1811    -1823    -1867    -1933    -2160    -2546    -2790    -2664 
   -2357    -2209    -2350    -2637    -2836    -2849    -2783    -2789 
   -2911    -3042    -2997    -2739    -2432    -2232    -2145    -2122 
   -2162    -2289    -2527    -2845    -3118    -3253    -3233    -3037 
   -2691    -2334    -2057    -1879    -1879    -2176    -2705    -3119 
   -3132    -2843    -2608    -2633    -2747    -2627    -2250    -1888 
   -1767    -1922    -2265    -2646    -2917    -3007    -2936    -2774 
   -2578    -2343    -2057    -1782    -1617    -1594    -1629    -1644 
   -1626    -1599    -1686    -1972    -2371    -2766    -3126    -3433 
   -3585    -3450    -3051    -2602    -2338    -2293    -2349    -2439 
   -2567    -2706    -2805    -2822    -2775    -2776    -2933    -3183 
   -3322    -3213    -2879    -2478    -2189    -2061    -2034    -2073 
   -2164    -2290    -2484    -2848    -3427    -3975    -4114    -3777 
   -3264    -2884    -2651    -2343    -1877    -1424    -1128    -1005 
   -1152    -1699    -2554    -3418    -3936    -3898    -3414    -2845 
   -2558    -2606    -2683    -2544    -2309    -2207    -2255    -2305 
   -2268    -2173    -2120    -2116    -2101    -2165    -2394    -2666 
   -2824    -2852    -2839    -2851    -2789    -2479    -1957    -1570 
   -1633    -1975    -2124    -1918    -1682    -1794    -2231    -2671 
   -2863    -2783    -2604    -2533    -2679    -2960    -3161    -3133 
   -2949    -2818    -2816    -2797    -2658    -2496    -2396    -2357 
   -2424    -2592    -2745    -2856    -2971    -3075    -3140    -3180 
   -3145    -2887    -2393    -1941    -1846    -2108    -2466    -2670 
   -2631    -2384    -2037    -1741    -1636    -1746    -1921    -1938 
   -1786    -1671    -1732    -1917    -2151    -2425    -2720    -2964 
   -3079    -3014    -2797    -2528    -2293    -2188    -2324    -2654 
   -2956    -3094    -3073    -2916    -2659    -2397    -2203    -2103 
   -2103    -2191    -2369    -2658    -3001    -3226    -3246    -3163 
   -3003    -2650    -2116    -1552    -1100     -945    -1217    -1759 
   -2196    -2328    -2262    -2193    -2199    -2195    -2084    -2010 
   -2272    -2903    -3539    -3766    -3514    -3026    -2592    -2315 
   -2108    -1880    -1709    -1713    -1925    -2332    -2879    -3429 
   -3828    -3960    -3770    -3325    -2799    -2338    -2011    -1898 
   -2074    -2471    -2802    -2828    -2604    -2309    -2056    -1919 
   -1948    -2100    -2274    -2385    -2424    -2479    -2659    -2895 
   -3017    -2952    -2733    -2497    -2446    -2614    -2798    -2793 
   -2637    -2525    -2535    -2581    -2579    -2592    -2756    -3026 
   -3167    -3067    -2830    -2594    -2380    -2111    -1827    -1736 
   -1956    -2377    -2735    -2767    -2473    -2170    -2143    -2388 
   -2745    -3049    -3222    -3307    -3362    -3341    -3167    -2847 
   -2477    -2174    -2019    -1968    -1887    -1771    -1744    -1844 
   -1983    -2122    -2342    -2662    -2870    -2798    -2620    -2559 
   -2575    -2506    -2297    -2064    -1969    -2049    -2203    -2262 
   -2189    -2184    -2400    -2762    -3075    -3167    -3032    -2845 
   -2776    -2795    -2740    -2525    -2176    -1807    -1599    -1632 
   -1841    -2155    -2543    -2905    -3067    -2987    -2866    -2886 
   -2972    -2887    -2559    -2219    -2128    -2285    -2467    -2521 
   -2531    -2644    -2814    -2862    -2722    -2509    -2331    -2201 
   -2147    -2239    -2509    -2876    -3157    -3226    -3083    -2775 
   -2408    -2126    -2022    -2124    -2381    -2660    -2840    -2871 
   -2710    -2354    -1948    -1703    -1695    -1833    -2035    -2266 
   -2428    -2446    -2381    -2344    -2378    -2447    -2475    -2447 
   -2423    -2397    -2312    -2176    -2093    -2212    -2571    -2986 
   -3237    -3312    -3271    -3046    -2635    -2205    -1958    -1988 
   -2193    -2357    -2431    -2529    -2632    -2610    -2479    -2390 
   -2405    -2478    -2565    -2623    -2600    -2471    -2286    -2141 
   -2096    -2122    -2142    -2099    -2029    -2084    -2363    -2735 
   -2961    -2988    -2926    -2899    -2943    -2988    -2972    -2947 
   -2972    -3001    -2941    -2810    -2673    -2535    -2377    -2235 
   -2204    -2330    -2517    -2654    -2760    -2876    -2963    -2952 
   -2813    -2620    -2500    -2494    -2524    -2509    -2524    -2677 
   -2882    -2971    -2922    -2802    -2629    -2400    -2182    -2041 
   -1975    -2014    -2147    -2263    -2295    -2262    -2191    -2127 
   -2150    -2269    -2392    -2443    -2421    -2358    -2307    -2311 
   -2315    -2218    -2060    -1954    -1921    -1933    -2010    -2122 
   -2165    -2142    -2161    -2228    -2284    -2323    -2354    -2328 
   -2212    -2076    -2050    -2162    -2342    -2508    -2663    -2866 
   -3118    -3333    -3380    -3240    -3079    -3069    -3154    -3117 
   -2882    -2701    -2857    -3242    -3464    -3360    -3094    -2802 
   -2504    -2280    -2268    -2496    -2864    -3176    -3300    -3291 
   -3235    -3087    -2786    -2436    -2251    -2336    -2605    -2849 
   -2894    -2798    -2724    -2662    -2538    -2411    -2425    -2621 
   -2879    -3063    -3105    -3015    -2868    -2709    -2515    -2313 
   -2187    -2149    -2130    -2084    -2065    -2146    -2282    -2361 
   -2369    -2396    -2448    -2434    -2317    -2172    -2091    -2143 
   -2285    -2393    -2407    -2385    -2404    -2474    -2587    -2737 
   -2876    -2968    -3021    -3037    -2953    -2709    -2384    -2176 
   -2174    -2284    -2404    -2523    -2650    -2764    -2843    -2887 
   -2910    -2898    -2845    -2766    -2655    -2470    -2193    -1926 
   -1821    -1912    -2076    -2195    -2259    -2312    -2400    -2550 
   -2682    -2656    -2442    -2172    -2058    -2189    -2393    -2465 
   -2423    -2400    -2415    -2388    -2249    -2023    -1836    -1795 
   -1922    -2180    -2501    -2782    -2880    -2732    -2484    -2332 
   -2346    -2478    -2627    -2697    -2689    -2644    -2569    -2448 
   -2324    -2286    -2390    -2577    -2724    -2770    -2729    -2651 
   -2583    -2512    -2376    -2201    -2092    -2111    -2269    -2520 
   -2781    -2998    -3144    -3144    -2934    -2627    -2377    -2228 
   -2173    -2200    -2277    -2359    -2393    -2339    -2238    -2191 
   -2220    -2285    -2421    -2687    -2999    -3217    -3280    -3183 
   -2949    -2679    -2517    -2498    -2556    -2660    -2812    -2951 
   -2983    -2916    -2851    -2866    -2930    -2994    -3015    -2940 
   -2754    -2523    -2328    -2181    -2066    -2041    -2166    -2362 
   -2478    -2436    -2297    -2158    -2023    -1899    -1846    -1894 
