Origin Time       2025/01/13 21:19:00
Lat.              31.8
Long.             131.6
Depth. (km)       30
Mag.              6.9
Station Code      KOC016
Station Lat.      32.7359
Station Long.     132.9754
Station Height(m) 125
Record Time       2025/01/13 21:20:16
Sampling Freq(Hz) 100Hz
Duration Time(s)  83
Dir.              N-S
Scale Factor      7845(gal)/8223790
Max. Acc. (gal)   2.767
Last Correction   2025/01/13 21:20:16
Memo.             
[...]
    1964     1722     1756     2133     2494     2492     2305     2178 
    2007     1856     2006     2361     2560     2520     2344     2042 
    1714     1667     1972     2336     2496     2413     2232     2080 
    1989     2042     2274     2459     2381     2165     2034     1939 
    1825     1927     2312     2640     2758     2778     2664     2416 
    2262     2340     2446     2373     2224     2053     1845     1829 
    2138     2536     2701     2566     2346     2249     2308     2450 
    2631     2812     2803     2617     2533     2523     2475     2532 
    2670     2673     2532     2452     2559     2771     2934     2920 
    2674     2276     1914     1894     2286     2636     2606     2370 
    2072     1682     1418     1632     2137     2492     2624     2509 
    2146     1806     1630     1707     2158     2685     2906     2845 
    2575     2103     1701     1776     2205     2382     2169     1983 
    2010     2042     1881     1741     1945     2335     2627     2832 
    2866     2624     2412     2504     2716     2782     2597     2296 
    2173     2330     2694     3117     3165     2647     2042     1772 
    1760     1921     2230     2492     2520     2312     2006     1856 
    2006     2253     2377     2398     2401     2322     2087     1896 
    2016     2376     2616     2506     2238     2114     2149     2122 
    2089     2362     2678     2600     2378     2326     2303     2226 
    2266     2463     2570     2494     2427     2390     2327     2389 
    2596     2720     2621     2305     1984     2023     2452     2898 
    3096     3142     3156     3095     3046     3154     3302     3315 
    3110     2691     2234     1985     2128     2597     2956     2862 
    2550     2359     2151     1850     1848     2249     2606     2641 
    2470     2269     2178     2289     2498     2674     2840     2982 
    2917     2636     2496     2666     2897     3053     3084     2874 
    2593     2489     2536     2687     2867     2970     3007     2952 
    2795     2655     2496     2265     2236     2687     3408     3727 
    3268     2521     2122     2169     2482     2795     2844     2596 
    2247     2089     2188     2259     2087     1829     1771     1900 
    1876     1649     1583     1744     1948     2188     2389     2398 
    2257     2138     2241     2575     2872     2979     2965     2853 
    2781     2853     2849     2818     3038     3283     3115     2660 
    2454     2531     2455     2257     2309     2643     2997     3129 
    3045     2951     2848     2569     2253     2324     2878     3365 
    3269     2805     2409     2154     1977     1885     1915     1977 
    2007     2216     2550     2538     2123     1717     1637     1972 
    2531     2837     2597     2050     1671     1698     1879     1891 
    1981     2363     2627     2469     2103     1881     1989     2266 
    2484     2544     2381     2072     1804     1809     2216     2677 
    2748     2471     2064     1709     1644     1937     2339     2528 
    2481     2404     2280     2091     2153     2554     2868     2814 
    2551     2290     2110     2068     2286     2802     3338     3500 
    3226     2764     2393     2230     2224     2235     2138     2068 
    2193     2361     2488     2589     2353     1679     1151     1188 
    1503     1912     2455     2698     2343     1856     1636     1641 
    1838     2120     2258     2332     2509     2663     2722     2641 
    2338     2158     2326     2471     2382     2162     1829     1458 
    1324     1522     1767     1957     2207     2309     2193     2050 
    1837     1594     1574     1819     2146     2281     2035     1556 
    1144      972     1179     1864     2654     2884     2540     2204 
    2066     2089     2390     2724     2705     2551     2658     2799 
    2660     2492     2400     2201     2046     2169     2416     2423 
    2122     1802     1730     1965     2286     2369     2150     1811 
    1491     1221     1109     1318     1748     2057     2073     1965 
    1922     1907     1899     2014     2307     2628     2673     2331 
    1903     1734     1795     1837     1917     2247     2709     3036 
    3136     2936     2398     1888     1904     2363     2781     2933 
    2933     2830     2539     2241     2323     2754     3149     3299 
    3213     2864     2289     1903     2079     2544     2743     2513 
    2216     2246     2505     2675     2674     2558     2266     1780 
    1372     1386     1930     2814     3573     3728     3321     2872 
    2674     2689     2932     3319     3535     3361     2802     2047 
    1541     1544     1807     2135     2435     2471     2330     2273 
    2077     1561     1132     1084     1333     1787     2189     2201 
    1956     1977     2367     2751     3015     3157     2921     2350 
    1981     2184     2744     3202     3334     3217     2867     2219 
    1560     1305     1418     1721     2166     2466     2338     1998 
    1796     1849     2232     2830     3273     3389     3144     2496 
    1811     1610     1857     2074     2029     1922     1952     1952 
    1794     1767     2070     2386     2434     2330     2255     2407 
    2812     3022     2840     2600     2312     1918     1856     2288 
    2808     3160     3322     3169     2667     2069     1611     1468 
    1759     2224     2516     2600     2455     2122     1973     2211 
    2516     2533     2272     2031     2077     2246     2286     2350 
    2397     2127     1800     1845     2034     1956     1802     2139 
    2851     3141     2866     2577     2479     2606     3132     3825 
    4108     3646     2567     1509     1108     1254     1560     2034 
    2619     2952     2863     2523     2108     1744     1711     2184 
    2794     3042     2918     2621     2207     1809     1564     1409 
    1289     1355     1655     1962     2089     1981     1634     1270 
    1345     1948     2565     2871     3003     2932     2587     2293 
    2416     2817     3025     3019     3057     2963     2633     2448 
    2538     2528     2332     2427     2876     3121     3021     2876 
    2808     2790     2837     2975     3075     3006     2849     2725 
    2673     2673     2675     2768     2974     3069     2929     2652 
    2438     2416     2524     2727     3001     3134     3114     3169 
    3244     3088     2758     2493     2415     2563     2772     2749 
    2573     2411     2151     1961     2188     2667     2870     2609 
    2288     2253     2332     2380     2550     2818     2911     2803 
    2592     2111     1474     1181     1394     1864     2326     2758 
    3176     3207     2744     2488     2783     3114     3117     2891 
    2521     2100     1873     1949     2145     2328     2424     2236 
    1837     1652     1825     2087     2214     2207     2142     2022 
    1784     1534     1601     2073     2536     2702     2785     2813 
    2578     2326     2317     2351     2386     2523     2511     2189 
    1900     1979     2280     2435     2254     1857     1602     1669 
    1948     2308     2650     2840     2903     2907     2745     2377 
    1966     1584     1263     1105     1053     1088     1310     1524 
    1498     1266      800      149     -326     -355       -1      540 
    1135     1640     1946     2208     2532     2776     2997     3304 
    3346     2754     1910     1489     1567     1857     2228     2602 
    2789     2681     2532     2633     2857     2926     2779     2479 
    2097     1858     1865     1772     1555     1772     2362     2610 
    2299     1804     1507     1567     1977     2466     2550     2054 
    1394     1070     1169     1714     2679     3508     3611     2940 
    1956     1445     1771     2543     3164     3269     2980     2629 
    2446     2627     3082     3518     3667     3345     2803     2435 
    2220     2060     2006     2108     2328     2515     2505     2378 
    2344     2293     1984     1548     1398     1784     2374     2725 
    2980     3261     3288     3057     2732     2297     1945     2069 
    2702     3392     3622     3183     2305     1517     1269     1723 
    2633     3460     3815     3496     2559     1648     1559     2390 
    3365     3792     3681     3132     2243     1490     1377     1973 
    2751     3075     2878     2413     1898     1509     1354     1532 
    2041     2593     2818     2509     1840     1431     1622     1935 
    1923     1881     2126     2425     2590     2710     2697     2488 
    2258     2058     1946     2112     2415     2517     2432     2409 
    2529     2721     2898     2889     2718     2602     2457     2161 
    1933     1885     1948     2166     2546     2916     3200     3389 
    3426     3406     3537     3809     3985     3892     3595     3183 
    2666     2239     2003     1725     1476     1633     2204     2828 
    3113     2883     2423     2189     2245     2371     2450     2374 
    2142     1993     1929     1764     1618     1513     1266     1097 
    1344     1763     1895     1686     1254      751      606     1031 
    1636     1960     1962     1879     1768     1475     1146     1154 
    1628     2363     2982     3117     2613     1755     1034      683 
     810     1476     2446     3318     3753     3568     2953     2400 
    2180     2238     2479     2714     2771     2687     2571     2546 
    2702     2905     2980     3036     3208     3348     3258     3001 
    2806     2667     2370     2061     2083     2423     2898     3406 
    3661     3331     2677     2238     2065     1906     1699     1624 
    1738     1880     2064     2328     2403     2181     1979     2033 
    2162     2222     2353     2362     1925     1344     1075     1239 
    1779     2370     2609     2454     2180     1968     1837     1864 
    2119     2443     2677     2952     3299     3361     3078     2874 
    2840     2670     2330     2091     2168     2525     2845     2797 
    2451     2146     2042     2182     2594     3026     3094     2835 
    2513     2099     1722     1865     2403     2575     2212     1876 
    1865     1926     1871     1822     1912     2157     2533     2986 
    3307     3167     2547     1973     1956     2415     2968     3338 
    3365     3071     2717     2590     2833     3281     3538     3474 
    3273     3021     2760     2664     2755     2809     2813     2884 
    2836     2601     2404     2247     2037     1899     1930     1877 
    1490     1035      965     1333     1836     2087     1885     1443 
    1225     1455     1998     2635     3161     3396     3316     2984 
    2498     2160     2285     2704     2924     2803     2548     2182 
    1630     1186     1294     1887     2440     2616     2462     2164 
    1899     1786     1841     1962     2050     2072     1925     1605 
    1475     1725     2046     2133     2006     1923     2047     2274 
    2543     2790     2708     2214     1659     1350     1385     1759 
    2307     2752     2876     2574     1939     1352     1167     1429 
    2039     2712     3029     2899     2602     2489     2752     3253 
    3547     3353     2879     2424     2089     1979     2177     2475 
    2515     2234     1853     1543     1397     1364     1331     1372 
    1609     1989     2346     2467     2377     2425     2683     2782 
    2670     2651     2790     2847     2656     2400     2347     2457 
    2485     2408     2389     2366     2141     1826     1651     1668 
    1921     2349     2632     2571     2295     1988     1814     1881 
    2077     2176     2126     2045     2010     1976     1914     1865 
    1903     2145     2666     3214     3487     3500     3380     3233 
    3194     3342     3592     3807     4012     4109     3873     3530 
    3415     3439     3427     3312     3153     3098     3040     2795 
    2578     2621     2778     2978     3264     3411     3325     3175 
    2998     2817     2732     2743     2775     2826     2925     2929 
    2668     2189     1633     1156      923     1043     1395     1580 
    1448     1274     1209     1183     1186     1262     1332     1248 
    1050      862      707      660      777      932     1075     1316 
    1609     1741     1626     1470     1529     1736     1933     2251 
    2709     2918     2754     2563     2505     2454     2382     2381 
    2465     2538     2574     2628     2635     2512     2411     2478 
    2536     2462     2498     2712     2824     2749     2752     2965 
    3152     3095     2837     2498     2251     2214     2238     2123 
    1895     1687     1582     1570     1551     1526     1644     1833 
    1876     1764     1516     1147      943     1112     1475     1819 
    2003     1848     1503     1439     1834     2380     2651     2556 
    2320     2154     2228     2542     2825     2887     2737     2473 
    2274     2219     2288     2509     2810     3053     3148     3011 
    2754     2525     2305     2205     2307     2415     2516     2758 
    3018     3106     3072     3073     3111     3113     3133     3190 
    3169     3015     2748     2413     2127     1904     1637     1350 
    1163     1105     1128     1169     1140      949      608      318 
     244      367      622      864      842      556      297      265 
     465      783     1150     1568     1964     2211     2300     2338 
    2432     2586     2776     3028     3276     3392     3403     3393 
    3245     2980     3053     3713     4572     5128     5254     5028 
    4598     4189     3970     3994     4136     4083     3770     3435 
    3203     3051     2986     3030     3203     3469     3640     3487 
    3009     2467     2045     1784     1768     1929     2060     2201 
    2455     2710     2882     2974     3005     3037     3121     3272 
    3443     3515     3478     3438     3396     3377     3500     3680 
    3680     3510     3287     2957     2525     2164     1939     1771 
    1649     1603     1566     1540     1584     1664     1800     1996 
    2139     2257     2412     2494     2489     2581     2794     2879 
    2712     2447     2289     2263     2265     2254     2216     2089 
    1952     2016     2253     2380     2331     2327     2461     2573 
    2558     2559     2623     2578     2463     2490     2635     2704 
    2673     2602     2458     2347     2384     2413     2393     2396 
    2273     1887     1383     1008      896     1005     1173     1298 
    1445     1640     1772     1815     1852     1899     2010     2231 
    2376     2361     2411     2569     2685     2862     3333     3906 
    4143     3958     3584     3227     3011     3021     3307     3634 
    3620     3225     2729     2420     2373     2524     2752     2785 
    2490     2101     1810     1540     1321     1333     1480     1458 
    1162      743      440      297      194      206      449      770 
     873      646      290      147      417      981     1524     1798 
    1722     1489     1444     1656     1904     2085     2307     2539 
    2555     2299     1892     1539     1395     1391     1498     1772 
    1979     1914     1717     1630     1737     1864     1861     1759 
    1588     1398     1291     1310     1398     1432     1389     1323 
    1289     1413     1705     2012     2262     2440     2543     2613 
    2713     2879     3140     3473     3794     4077     4347     4537 
    4553     4459     4356     4247     4160     4162     4207     4132 
    3893     3600     3280     2995     2917     2997     3024     2971 
    2876     2705     2477     2286     2204     2234     2327     2359 
    2268     2184     2228     2355     2484     2551     2473     2254 
    2066     2062     2200     2319     2323     2265     2215     2205 
    2309     2560     2916     3246     3267     2878     2482     2446 
    2683     3075     3574     3958     4037     3888     3707     3585 
    3497     3450     3393     3218     2957     2735     2601     2470 
    2281     2160     2161     2158     2012     1651     1227      942 
     778      703      718      764      811      873      955     1003 
     935      830      861     1085     1404     1679     1864     1961 
    1931     1818     1761     1768     1721     1665     1746     1864 
    1848     1759     1696     1647     1593     1553     1564     1740 
    2145     2583     2798     2741     2519     2301     2227     2301 
    2467     2652     2736     2698     2695     2818     2995     3200 
    3538     4009     4409     4604     4635     4554     4457     4437 
    4480     4584     4708     4729     4658     4536     4279     3958 
    3759     3724     3759     3812     3869     3824     3580     3169 
    2667     2199     1937     1931     2088     2288     2374     2203 
    1872     1679     1783     2114     2524     2818     2853     2664 
    2324     1884     1560     1593     1919     2276     2509     2552 
    2377     2162     2170     2366     2533     2679     2891     3080 
    3191     3343     3595     3811     3854     3744     3627     3554 
    3422     3229     3107     3046     2903     2679     2452     2133 
    1671     1264     1034      815      457       43     -278     -463 
    -469     -236      133      477      718      777      681      587 
     561      618      789     1040     1281     1398     1314     1075 
     865      909     1219     1570     1815     1975     2065     2083 
    2092     2166     2328     2565     2783     2893     2921     2901 
    2775     2556     2373     2300     2308     2347     2388     2424 
    2448     2413     2350     2377     2508     2704     2945     3113 
    3130     3123     3187     3222     3144     3033     2959     2930 
    3013     3191     3289     3192     2916     2593     2447     2555 
    2752     2833     2736     2527     2303     2128     2042     2068 
    2195     2371     2520     2600     2636     2605     2489     2397 
    2394     2398     2319     2205     2178     2226     2223     2184 
    2182     2169     2066     1975     2046     2181     2176     2062 
    1937     1777     1615     1533     1512     1499     1518     1618 
    1765     1842     1861     1969     2170     2351     2492     2571 
    2497     2328     2254     2285     2317     2362     2463     2592 
    2691     2756     2806     2862     2876     2755     2589     2598 
    2733     2821     2824     2671     2388     2165     2064     2057 
    2126     2154     2038     1865     1804     1926     2215     2560 
    2760     2756     2627     2411     2211     2169     2330     2648 
    2911     2945     2849     2714     2520     2340     2334     2485 
    2574     2538     2434     2193     1841     1609     1566     1591 
    1629     1678     1664     1544     1370     1154      889      708 
     689      758      874     1026     1128     1117     1063     1117 
    1341     1665     1995     2245     2396     2458     2438     2412 
    2466     2592     2732     2847     2898     2889     2875     2871 
    2867     2907     2972     2914     2685     2425     2255     2154 
    2123     2176     2235     2258     2269     2273     2263     2309 
    2457     2556     2501     2438     2463     2489     2471     2505 
    2625     2694     2636     2574     2613     2747     2921     3048 
