Origin Time       2025/01/13 21:19:00
Lat.              31.8
Long.             131.6
Depth. (km)       30
Mag.              6.9
Station Code      KOC007
Station Lat.      33.5612
Station Long.     133.5273
Station Height(m) 3
Record Time       2025/01/13 21:20:34
Sampling Freq(Hz) 100Hz
Duration Time(s)  107
Dir.              N-S
Scale Factor      7845(gal)/8223790
Max. Acc. (gal)   5.436
Last Correction   2025/01/13 21:20:34
Memo.             
[...]
    7512     7581     7632     7670     7693     7709     7742     7808 
    7904     8000     8106     8249     8419     8588     8726     8811 
    8858     8904     8973     9065     9167     9252     9297     9312 
    9319     9313     9298     9298     9309     9319     9325     9313 
    9278     9255     9266     9297     9340     9394     9450     9502 
    9568     9648     9717     9756     9728     9617     9464     9309 
    9167     9054     8943     8807     8660     8538     8441     8355 
    8276     8181     8068     7987     7950     7936     7936     7929 
    7894     7850     7819     7819     7863     7935     8010     8062 
    8095     8141     8212     8316     8446     8577     8702     8812 
    8922     9059     9221     9371     9506     9625     9711     9788 
    9861     9895     9895     9865     9803     9732     9676     9644 
    9587     9478     9364     9277     9205     9169     9146     9115 
    9107     9120     9144     9205     9296     9364     9386     9375 
    9358     9337     9301     9250     9192     9127     9078     9081 
    9121     9161     9184     9192     9207     9234     9227     9154 
    9046     8942     8837     8718     8595     8457     8302     8187 
    8151     8189     8294     8405     8463     8494     8546     8626 
    8731     8845     8939     9004     9043     9055     9036     9008 
    8969     8915     8864     8819     8766     8712     8676     8658 
    8667     8702     8749     8811     8874     8916     8958     9018 
    9069     9094     9089     9050     8980     8903     8837     8793 
    8779     8762     8712     8649     8614     8633     8704     8806 
    8911     9009     9099     9174     9212     9204     9155     9076 
    8988     8915     8865     8842     8850     8888     8957     9055 
    9157     9213     9202     9144     9062     8988     8946     8911 
    8856     8769     8668     8592     8576     8611     8644     8648 
    8633     8613     8610     8627     8654     8685     8706     8715 
    8752     8815     8870     8908     8938     8968     8996     9003 
    8973     8889     8743     8572     8426     8330     8278     8239 
    8191     8149     8145     8209     8334     8472     8596     8702 
    8779     8822     8842     8847     8847     8845     8861     8907 
    8947     8955     8931     8885     8841     8810     8789     8781 
    8785     8793     8797     8789     8756     8694     8600     8467 
    8294     8102     7916     7739     7574     7427     7299     7183 
    7088     7052     7078     7141     7236     7361     7499     7645 
    7819     8017     8214     8411     8611     8799     8973     9126 
    9266     9418     9593     9786     9980    10169    10343    10498 
   10631    10727    10779    10822    10864    10876    10864    10835 
   10764    10651    10496    10309    10131     9957     9768     9579 
    9402     9248     9142     9096     9096     9131     9182     9217 
    9228     9207     9131     9019     8897     8768     8613     8444 
    8280     8114     7933     7749     7580     7443     7356     7315 
    7304     7325     7373     7438     7522     7626     7755     7917 
    8101     8283     8461     8634     8785     8916     9065     9242 
    9417     9578     9728     9842     9915     9980    10048    10112 
   10188    10281    10372    10439    10465    10434    10343    10203 
   10044     9890     9744     9605     9458     9309     9175     9054 
    8946     8851     8760     8667     8572     8478     8375     8260 
    8151     8048     7956     7885     7825     7771     7724     7689 
    7695     7755     7857     7987     8147     8314     8460     8584 
    8696     8788     8853     8905     8958     9015     9069     9120 
    9174     9224     9254     9274     9319     9381     9425     9459 
    9497     9513     9518     9522     9505     9477     9460     9448 
    9448     9462     9468     9471     9477     9479     9495     9537 
    9582     9616     9640     9659     9664     9652     9652     9671 
    9684     9678     9640     9545     9397     9213     9018     8819 
    8600     8343     8075     7838     7626     7414     7200     6994 
    6809     6669     6586     6555     6570     6617     6693     6832 
    7026     7210     7366     7510     7651     7815     8006     8198 
    8378     8565     8768     8974     9193     9443     9711     9969 
   10192    10389    10567    10708    10816    10897    10932    10926 
   10906    10864    10786    10675    10540    10382    10230    10108 
    9992     9864     9741     9610     9456     9317     9219     9124 
    9009     8893     8783     8672     8540     8386     8235     8109 
    8010     7939     7885     7840     7793     7747     7735     7767 
    7828     7917     8035     8164     8286     8367     8421     8498 
    8580     8623     8641     8646     8638     8635     8638     8650 
    8694     8752     8783     8804     8858     8915     8914     8872 
    8829     8756     8652     8540     8398     8248     8122     8002 
    7906     7850     7812     7819     7882     7969     8041     8091 
    8137     8197     8252     8291     8303     8274     8194     8086 
    7974     7867     7785     7746     7728     7732     7798     7917 
    8073     8286     8521     8752     9016     9294     9540     9759 
    9952    10099    10204    10274    10309    10334    10378    10419 
   10436    10485    10582    10694    10835    10991    11125    11250 
   11360    11415    11411    11353    11233    11028    10759    10471 
   10170     9872     9594     9339     9116     8926     8762     8625 
    8510     8429     8392     8386     8390     8394     8382     8355 
    8310     8228     8104     7951     7763     7551     7350     7186 
    7079     7038     7056     7107     7173     7256     7350     7438 
    7537     7649     7754     7844     7923     7992     8081     8185 
    8274     8340     8382     8418     8484     8586     8696     8803 
    8924     9070     9229     9406     9559     9651     9734     9814 
    9844     9853     9830     9724     9586     9460     9321     9184 
    9076     8976     8877     8811     8769     8734     8727     8738 
    8731     8716     8700     8676     8646     8614     8579     8549 
    8526     8513     8521     8556     8577     8580     8634     8719 
    8784     8856     8928     8981     9047     9136     9221     9296 
    9370     9431     9445     9421     9387     9363     9356     9336 
    9286     9258     9247     9212     9196     9192     9166     9143 
    9115     9070     9038     9018     9001     8989     8972     8949 
    8931     8926     8934     8957     8977     8995     9024     9062 
    9082     9067     9016     8945     8854     8737     8617     8515 
    8415     8324     8274     8253     8228     8203     8186     8159 
    8117     8054     7958     7846     7731     7608     7492     7375 
    7245     7153     7118     7113     7144     7245     7371     7477 
    7642     7861     8041     8229     8463     8680     8895     9107 
    9269     9400     9509     9598     9706     9822     9925    10056 
   10208    10336    10454    10578    10666    10731    10814    10854 
   10820    10768    10685    10534    10368    10204    10023     9841 
    9660     9467     9289     9159     9069     8999     8957     8928 
    8876     8797     8699     8567     8415     8272     8131     7978 
    7840     7726     7622     7555     7524     7491     7474     7516 
    7591     7662     7753     7879     8006     8128     8259     8374 
    8464     8550     8618     8657     8692     8733     8775     8831 
    8903     8981     9081     9207     9366     9578     9801    10007 
   10211    10392    10534    10666    10787    10867    10909    10924 
   10899    10841    10774    10674    10543    10413    10273    10103 
    9927     9768     9609     9424     9219     8988     8719     8430 
    8108     7736     7353     6971     6592     6269     6014     5782 
    5605     5513     5485     5535     5656     5809     6007     6258 
    6523     6805     7132     7461     7774     8109     8464     8793 
    9113     9447     9765    10058    10365    10685    10993    11306 
   11612    11854    12033    12175    12264    12309    12322    12285 
   12198    12094    11965    11790    11587    11367    11119    10866 
   10611    10347    10080     9811     9522     9209     8893     8595 
    8318     8063     7831     7601     7373     7159     6970     6817 
    6701     6608     6531     6467     6419     6380     6349     6328 
    6332     6366     6434     6532     6647     6764     6875     6980 
    7086     7177     7227     7254     7281     7296     7315     7376 
    7476     7597     7734     7893     8070     8239     8424     8641 
    8853     9054     9258     9433     9594     9774     9938    10060 
   10174    10303    10412    10478    10523    10562    10562    10521 
   10489    10444    10342    10212    10069     9903     9724     9517 
    9282     9040     8787     8509     8225     7952     7685     7438 
    7230     7056     6912     6799     6705     6635     6610     6617 
    6648     6739     6889     7065     7268     7491     7711     7925 
    8151     8384     8615     8842     9077     9316     9547     9774 
   10000    10218    10413    10593    10756    10902    11036    11163 
   11280    11364    11400    11402    11368    11290    11169    11020 
   10841    10654    10469    10265    10044     9817     9579     9336 
    9117     8934     8769     8634     8526     8419     8301     8178 
    8062     7952     7850     7765     7692     7624     7569     7542 
    7539     7546     7572     7641     7739     7852     7987     8133 
    8274     8399     8513     8631     8742     8834     8930     9032 
    9140     9282     9444     9607     9788     9971    10152    10347 
   10538    10701    10856    10998    11125    11238    11299    11288 
   11248    11168    11021    10847    10666    10453    10230    10022 
    9814     9598     9396     9215     9031     8838     8653     8446 
    8203     7954     7690     7414     7159     6929     6717     6534 
    6369     6207     6052     5907     5787     5698     5651     5655 
    5695     5757     5840     5935     6027     6110     6196     6291 
    6394     6504     6608     6725     6868     7033     7233     7462 
    7705     7971     8271     8592     8926     9275     9614     9921 
   10215    10481    10710    10933    11144    11329    11506    11676 
   11824    11954    12071    12172    12251    12324    12382    12376 
   12312    12226    12091    11889    11655    11383    11060    10723 
   10368     9976     9574     9174     8762     8356     7981     7651 
    7364     7109     6876     6691     6544     6401     6307     6301 
    6282     6222     6212     6216     6181     6197     6270     6327 
    6405     6525     6623     6709     6812     6895     6970     7057 
    7144     7221     7294     7368     7452     7535     7618     7715 
    7859     8033     8199     8365     8541     8711     8895     9103 
    9317     9521     9713     9887    10021    10114    10200    10289 
   10354    10409    10474    10532    10606    10701    10762    10831 
   10951    11049    11101    11160    11213    11219    11210    11183 
   11097    10989    10890    10755    10584    10424    10255    10073 
    9919     9756     9560     9364     9180     8980     8777     8596 
    8422     8248     8097     7952     7825     7742     7695     7681 
    7719     7811     7952     8132     8329     8533     8735     8943 
    9143     9309     9450     9571     9661     9729     9780     9807 
    9806     9788     9759     9721     9693     9674     9651     9625 
    9586     9525     9452     9364     9262     9155     9049     8950 
    8857     8769     8688     8599     8509     8422     8343     8282 
    8235     8197     8162     8137     8141     8154     8160     8167 
    8163     8137     8100     8058     8006     7942     7882     7831 
    7782     7742     7726     7728     7736     7750     7770     7800 
    7840     7892     7950     8016     8086     8160     8241     8318 
    8379     8428     8475     8507     8518     8533     8553     8559 
    8560     8569     8575     8576     8580     8567     8533     8494 
    8433     8333     8216     8100     7971     7836     7697     7545 
    7399     7276     7163     7082     7056     7067     7110     7194 
    7312     7449     7614     7828     8067     8325     8606     8884 
    9171     9489     9807    10129    10466    10805    11129    11435 
   11712    11963    12194    12391    12550    12672    12748    12772 
   12738    12661    12536    12339    12097    11824    11507    11167 
   10816    10439    10044     9643     9235     8835     8451     8067 
    7696     7344     6998     6671     6376     6112     5890     5715 
    5595     5530     5520     5553     5616     5703     5829     5989 
    6187     6444     6755     7114     7527     7962     8395     8854 
    9333     9801    10255    10697    11105    11477    11824    12129 
   12374    12564    12718    12838    12918    12949    12937    12876 
   12753    12575    12348    12071    11749    11387    11003    10585 
   10127     9645     9144     8633     8110     7580     7053     6534 
    6022     5541     5094     4673     4287     3942     3657     3446 
    3294     3199     3149     3141     3196     3304     3454     3645 
    3878     4149     4460     4823     5228     5656     6124     6632 
    7145     7677     8224     8761     9294     9830    10359    10876 
   11371    11826    12249    12638    12982    13289    13558    13774 
   13932    14034    14085    14091    14065    14003    13887    13725 
   13531    13302    13057    12798    12522    12228    11896    11526 
   11132    10713    10280     9848     9412     8964     8511     8059 
    7612     7194     6817     6484     6201     5965     5755     5579 
    5436     5313     5231     5193     5182     5206     5262     5336 
    5425     5543     5692     5875     6107     6378     6671     6986 
    7319     7672     8055     8452     8851     9250     9618     9963 
   10301    10617    10898    11141    11333    11481    11601    11696 
   11761    11800    11828    11834    11811    11769    11701    11610 
   11495    11357    11199    11013    10797    10562    10315    10054 
    9786     9514     9238     8955     8683     8428     8186     7955 
    7758     7601     7483     7396     7321     7261     7227     7209 
    7209     7231     7257     7276     7290     7304     7330     7372 
    7427     7492     7572     7662     7747     7844     7956     8056 
    8155     8257     8351     8444     8540     8627     8712     8814 
    8935     9074     9235     9412     9590     9769     9938    10092 
   10220    10301    10331    10305    10231    10118     9983     9846 
    9695     9518     9339     9148     8934     8716     8491     8251 
    8009     7781     7569     7376     7192     7011     6829     6652 
    6494     6366     6269     6193     6133     6106     6120     6176 
    6274     6411     6570     6755     6971     7213     7477     7777 
    8090     8391     8681     8966     9239     9501     9747     9985 
   10219    10439    10656    10879    11101    11329    11556    11766 
   11961    12136    12278    12382    12447    12455    12403    12303 
   12163    11989    11766    11495    11207    10899    10567    10239 
    9909     9571     9247     8937     8635     8351     8074     7798 
    7524     7257     6990     6723     6465     6211     5952     5703 
    5482     5298     5173     5111     5107     5162     5269     5417 
    5622     5884     6185     6519     6878     7245     7614     7975 
    8299     8576     8842     9108     9347     9555     9744     9923 
   10093    10253    10395    10517    10611    10666    10690    10667 
   10596    10512    10389    10212    10021     9807     9556     9296 
    9018     8716     8418     8133     7878     7666     7495     7373 
    7303     7265     7256     7287     7349     7422     7511     7630 
    7763     7889     8002     8112     8220     8332     8460     8602 
    8739     8877     9023     9169     9297     9425     9576     9730 
    9876    10022    10149    10234    10295    10322    10312    10304 
   10289    10253    10222    10201    10165    10129    10107    10073 
   10038    10034    10038    10038    10053    10083    10111    10129 
   10142    10162    10168    10138    10084    10017     9933     9838 
    9741     9620     9478     9354     9236     9090     8934     8781 
    8592     8380     8179     7974     7771     7582     7398     7226 
    7079     6932     6791     6696     6629     6589     6592     6627 
    6696     6814     6959     7113     7290     7477     7643     7792 
    7944     8083     8198     8320     8460     8594     8726     8861 
    8984     9108     9251     9397     9533     9666     9778     9868 
    9945    10002    10027    10031    10022     9994     9942     9867 
    9765     9647     9525     9405     9289     9175     9062     8951 
    8834     8714     8596     8471     8345     8226     8116     8009 
    7908     7824     7758     7701     7665     7657     7662     7688 
    7743     7819     7919     8036     8156     8290     8430     8571 
    8712     8842     8946     9055     9175     9298     9425     9556 
    9690     9829     9975    10116    10246    10372    10496    10613 
   10724    10818    10889    10922    10913    10875    10820    10731 
   10619    10490    10334    10154     9961     9742     9510     9288 
    9072     8846     8626     8434     8247     8052     7886     7739 
    7580     7437     7306     7152     7001     6871     6741     6625 
    6542     6471     6421     6407     6413     6446     6509     6597 
    6708     6847     7002     7167     7350     7545     7731     7916 
    8102     8267     8419     8572     8710     8831     8941     9036 
    9124     9204     9273     9337     9405     9481     9562     9643 
    9726     9807     9864     9894     9909     9906     9880     9836 
    9780     9715     9644     9582     9535     9486     9437     9404 
    9385     9381     9396     9429     9477     9529     9578     9612 
    9630     9640     9637     9622     9606     9589     9553     9501 
    9444     9396     9362     9343     9343     9359     9378     9401 
    9432     9455     9471     9490     9494     9472     9424     9346 
    9240     9112     8977     8847     8723     8606     8500     8409 
    8334     8290     8278     8280     8297     8332     8376     8428 
    8478     8517     8540     8542     8533     8521     8502     8473 
    8440     8399     8363     8333     8310     8290     8270     8245 
    8222     8209     8206     8197     8178     8154     8114     8078 
    8059     8043     8032     8040     8058     8087     8139     8213 
    8307     8421     8546     8671     8789     8908     9030     9144 
    9252     9359     9458     9539     9601     9644     9680     9726 
    9778     9841     9909     9957     9992    10018    10027    10019 
    9980     9907     9803     9671     9514     9332     9131     8919 
