Origin Time       2025/01/13 21:19:00
Lat.              31.8
Long.             131.6
Depth. (km)       30
Mag.              6.9
Station Code      KOC012
Station Lat.      33.1976
Station Long.     132.9758
Station Height(m) 147
Record Time       2025/01/13 21:20:24
Sampling Freq(Hz) 100Hz
Duration Time(s)  78
Dir.              E-W
Scale Factor      7845(gal)/8223790
Max. Acc. (gal)   3.386
Last Correction   2025/01/13 21:20:23
Memo.             
[...]
    1332     1247     1148     1138     1066      876      788      855 
     900      935     1105     1350     1555     1725     1853     1872 
    1772     1593     1417     1324     1344     1460     1590     1682 
    1729     1629     1379     1111      841      652      673      761 
     830      981     1119     1116     1085     1084     1007      880 
     854      961     1182     1483     1802     2141     2361     2274 
    2041     1845     1595     1313     1197     1264     1410     1586 
    1742     1858     1993     2143     2241     2315     2403     2427 
    2346     2239     2034     1602     1124      850      770      796 
     886     1031     1201     1356     1555     1750     1675     1316 
     957      707      534      476      562      805     1115     1321 
    1491     1761     1972     2016     2033     1998     1745     1347 
    1001      772      672      751      945     1013      845      550 
     233      -52     -217     -257     -251     -186      -18      193 
     357      491      641      769      922     1250     1706     2097 
    2346     2419     2259     1822     1161      521      128      -10 
     122      517      967     1358     1653     1746     1680     1547 
    1302     1020      756      360     -120     -409     -423     -206 
     217      657      891      936      838      552      207       12 
      12      255      762     1374     1941     2351     2459     2304 
    1968     1418      850      534      417      432      591      781 
     989     1327     1688     1871     1822     1591     1304     1117 
    1092     1224     1543     1979     2328     2488     2463     2247 
    1930     1649     1414     1258     1248     1345     1476     1630 
    1750     1768     1744     1709     1545     1269     1020      757 
     438      126     -226     -596     -826     -915     -911     -737 
    -361      122      596     1009     1382     1642     1738     1831 
    1931     1810     1494     1186      940      801      830      989 
    1221     1448     1571     1556     1417     1198     1007      934 
     945      992     1098     1220     1244     1169     1116     1162 
    1213     1190     1102      918      710      684      799      811 
     719      641      587      558      583      714     1062     1572 
    2030     2351     2479     2365     2143     1841     1377      992 
     893      939     1112     1475     1764     1714     1467     1287 
    1239     1294     1485     1800     2116     2315     2398     2452 
    2482     2390     2143     1821     1420      857      243     -183 
    -405     -460     -213      319      819     1080     1150     1088 
     951      899     1003     1170     1335     1439     1431     1391 
    1371     1332     1302     1266     1147      990      888      834 
     824      882      982     1093     1179     1220     1300     1386 
    1351     1323     1439     1493     1364     1215     1121     1026 
     950      930      896      804      741      807      969     1159 
    1363     1544     1625     1560     1393     1221     1090      990 
     947     1003     1097     1197     1324     1428     1498     1583 
    1638     1591     1418     1146      905      847      955     1077 
    1109     1097     1092     1067     1074     1205     1394     1447 
    1269      997      801      685      723     1057     1514     1838 
    2018     2097     2072     1954     1807     1814     1998     2147 
    2255     2371     2313     1996     1553     1088      742      669 
     778      849      815      761      762      815      831      799 
     799      820      828      880      967     1078     1281     1567 
    1772     1756     1591     1478     1435     1301     1011      699 
     479      348      328      441      670     1040     1402     1478 
    1313     1165     1167     1377     1688     1811     1657     1395 
    1043      587      276      265      395      594      831      912 
     872      955     1181     1498     1864     2058     1958     1668 
    1343     1174     1278     1560     1863     2104     2269     2263 
    1998     1611     1329     1208     1193     1210     1204     1175 
    1127     1050      967      888      807      745      712      714 
     762      814      824      882     1071     1310     1499     1575 
    1472     1296     1182     1047      816      585      386      252 
     352      706     1061     1231     1258     1208     1067      819 
     560      405      256       -9     -264     -332      -99      533 
    1408     2176     2722     3076     3203     3073     2682     2111 
    1540     1108      949     1131     1517     1925     2268     2446 
    2394     2139     1715     1163      573      105      -82       85 
     639     1503     2420     3137     3505     3384     2774     1952 
    1264      801      425      147      147      413      803     1263 
    1698     1915     1814     1487     1167      958      797      731 
     830      985     1108     1170     1039      707      438      382 
     464      657      913     1104     1185     1135      965      827 
     772      727      778     1017     1252     1324     1439     1791 
    2187     2404     2486     2493     2494     2539     2513     2355 
    2122     1822     1584     1549     1588     1613     1691     1718 
    1584     1395     1192     1017     1063     1294     1480     1559 
    1520     1375     1271     1198     1017      791      654      700 
     932     1107     1044      901      780      650      575      594 
     669      787      885      913      965     1112     1250     1287 
    1314     1405     1505     1588     1610     1482     1246     1058 
     997     1003     1048     1255     1557     1665     1548     1436 
    1383     1267     1120     1071      999      743      476      322 
     171       81      247      680     1197     1566     1756     1934 
    2054     1842     1274      641      152     -124      -81      245 
     561      656      654      746      830      727      577      621 
     877     1239     1587     1826     1915     1917     1953     2011 
    1952     1738     1437     1100      792      529      290      155 
     183      306      473      722     1038     1306     1418     1394 
    1285     1055      696      315       63       44      213      460 
     789     1171     1455     1576     1610     1576     1397     1098 
     850      743      765      918     1140     1260     1143      889 
     785      918     1143     1399     1690     1948     2123     2155 
    2029     1854     1674     1395      962      357     -328     -853 
   -1069     -997     -681     -274       58      380      724      904 
     911      972     1148     1337     1520     1738     1906     1896 
    1779     1738     1823     1991     2273     2735     3226     3431 
    3319     3022     2474     1691     1011      623      352      126 
     151      355      427      342      279      368      625      770 
     526       54     -321     -450     -271      102      405      660 
    1012     1331     1543     1759     1984     2127     2107     1929 
    1752     1648     1591     1607     1682     1771     1881     1996 
    2135     2374     2574     2512     2307     2142     1879     1470 
    1143      962      827      760      800      930     1084     1101 
     981      999     1248     1498     1617     1714     1777     1641 
    1394     1229     1115     1004      973     1039     1163     1360 
    1690     2027     2069     1732     1254      828      460      220 
     260      496      689      870     1196     1544     1740     1872 
    2025     2041     1867     1663     1483     1266     1043      891 
     828      814      823      889      997     1071     1179     1470 
    1815     1934     1813     1572     1250      951      795      757 
     800      839      756      622      546      513      529      588 
     661      830     1190     1659     2101     2451     2620     2539 
    2351     2235     2218     2246     2243     2122     1872     1617 
    1482     1490     1593     1633     1453     1081      608      101 
    -328     -616     -743     -641     -369      -39      419      967 
    1397     1715     1895     1692     1213      822      558      318 
     133        2      -91     -106      -37       36       86      144 
     261      434      545      598      835     1275     1630     1800 
    1848     1787     1726     1763     1815     1888     2043     2166 
    2208     2230     2141     1888     1636     1462     1321     1174 
     966      745      614      549      526      633      927     1359 
    1779     1991     1854     1406      858      450      255      264 
     476      781     1032     1202     1305     1351     1374     1337 
    1221     1161     1247     1425     1617     1722     1665     1520 
    1399     1297     1155      985      896     1004     1232     1398 
    1517     1701     1880     1976     1991     1861     1548     1163 
     855      715      733      819      972     1210     1372     1389 
    1404     1375     1181     1109     1489     2106     2597     2955 
    3221     3267     3049     2627     2031     1399      913      599 
     376      193       87      149      369      585      650      544 
     378      279      265      349      531      664      687      774 
    1055     1458     1871     2195     2289     2124     1823     1422 
     943      504      125     -166     -229     -116       18      191 
     477      868     1262     1541     1628     1578     1570     1665 
    1783     1873     1885     1837     1825     1850     1879     1899 
    1907     1962     2095     2199     2153     1950     1647     1274 
     815      260     -263     -565     -638     -503      -79      556 
    1196     1759     2211     2461     2462     2281     1983     1559 
    1048      599      309      213      348      773     1552     2546 
    3389     3771     3561     2833     1910     1148      751      780 
    1136     1576     1876     1965     1903     1764     1605     1494 
    1418     1302     1208     1232     1328     1433     1525     1518 
    1309      940      513       12     -554     -997    -1090     -812 
    -309      301      958     1541     1938     2184     2250     1968 
    1368      733      229     -108     -166      148      692     1174 
    1476     1636     1633     1475     1220      855      406      -20 
    -352     -504     -391      -76      360      936     1548     2026 
    2346     2497     2463     2311     2058     1683     1229      730 
     205     -236     -504     -631     -618     -352      240     1035 
    1757     2218     2505     2755     2909     2876     2652     2227 
    1668     1151      702      253      -98     -318     -523     -675 
    -658     -544     -425     -345     -356     -369     -221       81 
     426      695      873     1183     1771     2419     2906     3221 
    3364     3312     3022     2496     1985     1772     1894     2315 
    2945     3508     3769     3704     3377     2852     2164     1341 
     519     -164     -712    -1082    -1162     -932     -480       33 
     438      648      637      477      353      379      565      926 
    1443     1992     2452     2812     3044     3053     2907     2791 
    2689     2508     2309     2137     1991     1944     1993     2076 
    2181     2234     2137     1899     1483      855      151     -491 
    -965    -1129     -930     -400      351     1080     1587     1850 
    1931     1923     1861     1687     1470     1335     1229     1159 
    1252     1443     1560     1570     1445     1134      703      311 
      48      -81      -82       10      157      392      691      932 
    1112     1209     1125      922      691      368      -31     -446 
    -870    -1158    -1158     -922     -469      214      963     1625 
    2223     2721     2924     2731     2278     1752     1225      754 
     392      186      257      654     1210     1750     2223     2582 
    2732     2605     2227     1734     1323     1147     1233     1422 
    1548     1649     1807     1981     2056     1977     1840     1683 
    1428     1150     1000      955      916      837      719      598 
     510      441      317      106     -152     -414     -673     -977 
   -1332    -1560    -1440    -1024     -487      152      874     1539 
    1999     2189     2193     2139     2069     2029     2038     1973 
    1790     1668     1710     1802     1822     1757     1657     1621 
    1740     1964     2165     2301     2339     2193     1885     1472 
     955      425       35     -216     -442     -708     -922     -985 
    -940     -822     -549     -163      166      357      417      368 
     256      121       36      101      406      986     1728     2424 
    2901     3082     3045     2926     2763     2519     2193     1868 
    1618     1377     1082      822      668      673      943     1443 
    1976     2385     2602     2694     2735     2627     2320     1935 
    1543     1183      897      634      396      244      214      387 
     720     1021     1193     1209     1047      769      438      114 
    -112     -245     -321     -288     -141       40      230      454 
     654      747      738      657      580      615      687      629 
     499      406      341      365      571      892     1232     1628 
    2127     2658     3177     3689     4136     4480     4693     4718 
    4625     4526     4364     4086     3781     3446     3025     2601 
    2292     2061     1821     1610     1503     1464     1431     1328 
    1077      770      549      417      344      276      209      272 
     444      556      573      503      345      201      144      101 
      32       66      247      417      496      484      360      260 
     291      292      186      120       91      -21     -155     -170 
     -17      302      719     1169     1590     1853     1927     1918 
    1838     1694     1610     1701     1952     2303     2664     2953 
    3156     3268     3246     3072     2756     2312     1799     1313 
     888      486      136      -85     -199     -301     -353     -205 
     151      486      645      710      704      471       25     -415 
    -805    -1202    -1467    -1476    -1385    -1273    -1011     -614 
    -238       97      481      953     1456     1895     2205     2366 
    2343     2180     1972     1792     1680     1628     1636     1728 
    1830     1872     1942     2123     2362     2592     2774     2837 
    2721     2500     2307     2193     2145     2176     2280     2366 
    2380     2320     2181     1995     1790     1574     1412     1336 
    1293     1223     1120     1011      922      876      866      866 
     846      774      637      473      313      166      110      201 
     324      368      398      471      511      504      510      534 
     580      710      994     1402     1773     1983     1991     1757 
    1282      665       44     -461     -839    -1097    -1142     -972 
    -676     -211      402      977     1397     1626     1636     1503 
    1356     1216     1063      974     1016     1129     1260     1485 
    1856     2259     2598     2902     3150     3271     3264     3127 
    2805     2316     1823     1464     1217     1081     1179     1512 
    1900     2211     2396     2446     2377     2168     1811     1399 
     994      567      129     -251     -538     -696     -695     -592 
    -496     -411     -256      -33      136      148       -2     -257 
    -573     -947    -1327    -1578    -1636    -1572    -1420    -1143 
    -776     -365       97      598     1094     1543     1894     2149 
    2346     2458     2457     2428     2493     2704     3068     3512 
    3886     4102     4164     4097     3877     3477     2924     2263 
    1588     1058      780      715      787      962     1189     1398 
    1541     1566     1464     1304     1102      845      530      186 
    -141     -437     -657     -754     -791     -792     -702     -513 
    -263       13      302      594      862     1109     1320     1467 
    1566     1615     1661     1757     1773     1610     1395     1197 
     976      810      742      708      729      847     1024     1216 
    1389     1521     1601     1566     1426     1321     1317     1389 
    1534     1752     1999     2228     2367     2363     2280     2168 
    2016     1912     1930     1996     2068     2182     2365     2582 
    2794     2994     3169     3294     3354     3312     3154     2961 
    2795     2619     2344     1964     1578     1240      938      688 
     469      202      -87     -305     -425     -490     -529     -502 
    -388     -209       32      326      622      893     1105     1204 
    1167      993      716      421      147      -76     -203     -259 
    -321     -433     -577     -715     -847    -1013    -1190    -1287 
   -1247    -1089     -843     -490       -4      581     1202     1794 
    2315     2733     3014     3195     3321     3365     3346     3318 
    3285     3231     3123     2929     2662     2354     2052     1802 
    1607     1393     1119      866      722      669      661      665 
     700      788      896      973     1030     1151     1364     1593 
    1764     1846     1823     1723     1556     1317     1100     1027 
    1090     1220     1393     1564     1648     1647     1637     1620 
    1499     1262     1016      827      657      502      426      441 
     484      513      502      407      236       89       58      125 
     207      313      541      912     1304     1611     1800     1865 
    1815     1656     1391     1090      892      888     1053     1291 
    1545     1783     1930     1923     1791     1593     1379     1188 
    1028      927      940     1094     1362     1640     1814     1845 
    1756     1506     1070      579      182     -102     -271     -282 
    -170      -13      151      313      446      521      530      511 
     518      571      633      666      676      660      594      518 
     490      437      298      125      -56     -253     -417     -491 
    -459     -376     -291     -132      148      465      768     1067 
    1345     1583     1755     1850     1911     1949     1965     2003 
    2085     2205     2385     2624     2830     2940     2992     3045 
    3109     3175     3176     3049     2824     2567     2288     1996 
    1725     1464     1223     1078     1073     1138     1217     1314 
    1405     1458     1462     1382     1228     1101     1054     1054 
    1093     1173     1235     1224     1142      992      791      585 
     386      180       13      -97     -197     -265     -253     -199 
    -143      -45       75      109       43       12      121      355 
     635      908     1216     1584     1961     2295     2578     2812 
    2991     3105     3140     3105     3010     2860     2721     2641 
    2547     2440     2432     2458     2386     2262     2130     1966 
    1767     1521     1267     1080      931      738      494      203 
    -136     -444     -638     -741     -814     -859     -812     -676 
    -560     -495     -445     -421     -409     -383     -360     -319 
