Origin Time       2025/01/13 21:19:00
Lat.              31.8
Long.             131.6
Depth. (km)       30
Mag.              6.9
Station Code      KOC017
Station Lat.      33.7844
Station Long.     133.7298
Station Height(m) 228
Record Time       2025/01/13 21:21:05
Sampling Freq(Hz) 100Hz
Duration Time(s)  60
Dir.              N-S
Scale Factor      7845(gal)/8223790
Max. Acc. (gal)   1.179
Last Correction   2025/01/13 21:21:05
Memo.             
[...]
     201      110       27      -49     -113     -152     -175     -202 
    -229     -238     -236     -218     -176     -102      -29       -6 
     -36      -64      -56      -12       39       63       70       99 
     157      211      236      240      252      279      299      297 
     272      238      198      145       87       48       27        2 
     -16       -8       40      116      186      229      252      271 
     291      302      287      251      217      217      237      255 
     267      275      288      315      348      365      344      270 
     179      117      110      147      191      221      229      220 
     197      170      144      108       70       58       72       89 
      85       48      -12      -58      -74      -81      -91     -102 
     -95      -71      -27       32       81       97      106      132 
     157      168      164      162      164      156      137      136 
     160      189      209      240      280      315      349      384 
     395      376      363      361      338      294      265      256 
     248      232      205      167      116       72       56       40 
      28       47       91      129      152      172      194      191 
     151      105       83       90      108      114      113      112 
     129      182      252      310      361      409      429      407 
     372      338      294      229      179      176      214      265 
     309      341      364      380      383      364      336      297 
     225      139       70       35       31       32       33       55 
      83       98      120      160      197      216      238      274 
     305      315      292      251      222      214      218      232 
     234      224      206      168      121       79       28      -25 
     -55      -45        0       64      120      149      164      186 
     218      230      216      210      225      236      247      272 
     303      329      346      345      315      276      233      182 
     130       93       66       35       -4      -25       -6       32 
      60       70       82      109      149      193      229      241 
     229      210      207      211      194      159      133      118 
     106       95       85       76       52        9      -24      -36 
     -39      -44      -47      -45      -32       10       75      129 
     157      174      184      190      186      170      153      155 
     174      211      252      275      299      337      363      364 
     357      363      390      421      430      421      418      421 
     411      387      363      359      379      407      427      442 
     448      433      392      340      294      251      214      205 
     217      225      220      217      230      264      292      292 
     268      237      214      207      206      187      141       83 
      49       52       59       35       -8      -32      -16       21 
      62       91      118      160      191      182      149      133 
     135      136      125       86       29       -6        0       47 
     121      193      245      283      302      314      340      353 
     322      255      182      132      109       97      105      140 
     166      159      144      132      121      116      106       90 
      91      117      149      176      194      214      249      270 
     248      218      214      217      205      189      183      189 
     209      245      271      257      224      198      190      202 
     206      174      122       90       82       83       97      128 
     155      163      170      194      225      240      233      202 
     145       76       27       12       22       49       90      147 
     197      209      172      103       18      -55      -95     -121 
    -126      -79       17      113      160      156      128       85 
      21      -43      -81      -97     -117     -147     -163     -160 
    -141      -95      -49      -66     -133     -179     -162      -93 
      -5       63      109      151      180      187      182      172 
     156      141      133      137      143      145      148      147 
     139      126      118      106       76       43       18       10 
      25       60      112      156      172      163      135       87 
      47       37       36       27       25       36       49       64 
      83       90       78       68       74       67       33       -1 
     -20      -14       21       79      129      148      141      141 
     164      211      263      292      305      310      315      328 
     333      324      317      326      319      276      213      144 
      62      -27     -106     -175     -233     -271     -302     -334 
    -351     -348     -341     -330     -309     -279     -238     -187 
    -124      -62      -12       37       91      141      198      257 
     306      336      344      338      346      388      449      507 
     544      533      479      415      360      298      230      168 
     124       85       35       -2       -1       18       36       45 
      41       20        0       -1       10       24       32       33 
      41       75      135      205      272      334      384      399 
     386      367      351      333      313      291      283      283 
     261      218      191      195      225      274      307      290 
     243      209      179      133       89       45       -4      -48 
     -63      -49      -22        0       13       33       66       95 
      97       71       47       41       45       64      110      160 
     172      145      120      117      130      147      152      156 
     172      205      238      255      229      162       86       39 
      33       60       95      114      122      125      124      124 
     125      117       86       36       -9      -47      -86     -125 
    -151     -162     -160     -148     -135     -143     -171     -184 
    -172     -148     -117      -94      -79      -62      -43      -21 
      12       67      139      210      268      319      373      433 
     490      525      513      448      365      309      283      275 
     291      338      407      476      526      540      521      480 
     437      409      394      361      302      236      172      124 
     106      102       89       94      137      191      228      249 
     260      280      330      384      413      415      410      410 
     429      460      488      503      510      508      495      480 
     464      445      429      421      413      400      390      373 
     351      313      257      201      143       81       40       24 
      20       35       67       93       98       97       93       91 
      98       98       93       91       97      122      153      148 
     105       52       14       -2       -6       -9      -13      -14 
     -16      -28      -76     -179     -298     -361     -369     -363 
    -344     -290     -202     -103      -16       41       70       75 
      68       55       44       41       47       74      118      159 
     187      209      233      244      229      216      237      288 
     344      384      410      432      449      445      440      444 
     446      445      446      450      461      473      471      459 
     433      383      324      272      225      183      155      140 
     156      198      240      279      322      363      399      442 
     480      506      519      513      500      496      495      481 
     460      446      425      379      321      270      240      220 
     201      184      170      145      105       56       21       17 
      33       44       45       44       58       86      117      140 
     140      124      103       70       35        0      -52     -116 
    -166     -210     -243     -255     -255     -255     -261     -275 
    -284     -282     -274     -264     -248     -226     -193     -137 
     -83      -56      -49      -44      -32      -17       -1       14 
      24       35       55       86      124      170      211      224 
     213      194      180      170      148      117       98       95 
     101      137      203      265      294      301      301      301 
     310      334      360      379      409      448      480      508 
     541      564      572      581      610      639      642      612 
     569      538      534      546      564      564      542      514 
     487      463      437      409      373      342      324      298 
     255      213      190      180      168      149      133      126 
     133      148      166      172      167      166      176      201 
     230      243      237      236      260      295      319      318 
     292      259      234      211      179      152      139      116 
      90       85       98      108       99       86       86       87 
      76       48        5      -45      -90     -116     -136     -151 
    -139      -95      -31       44      113      155      163      148 
     112       54      -13      -74     -120     -139     -121      -82 
     -41       -2       41       87      121      140      143      143 
     137      120      114      136      176      218      247      253 
     244      237      232      216      201      195      179      144 
     113       99       93       78       60       45       29       22 
      32       62      124      198      257      299      324      326 
     311      278      224      164      112       59       14        4 
      29       56       63       64       82      109      135      159 
     183      226      288      349      394      427      453      483 
     521      554      585      622      664      708      756      800 
     827      820      781      731      684      648      623      598 
     558      514      483      463      434      384      326      275 
     225      162       93       29      -31      -82     -113     -141 
    -176     -221     -272     -321     -360     -386     -391     -390 
    -390     -382     -357     -315     -274     -243     -229     -232 
    -244     -240     -213     -163      -82       20      128      233 
     330      421      504      577      638      684      712      727 
     731      718      684      638      587      527      464      406 
     359      322      302      287      260      222      191      170 
     151      137      139      156      184      222      260      286 
     306      328      346      360      372      383      390      391 
     396      411      422      417      394      361      332      301 
     261      229      218      224      244      290      360      437 
     494      526      544      544      530      510      483      442 
     386      328      278      236      195      160      137      121 
     102       81       72       75       68       56       66       94 
     122      149      179      218      259      275      251      205 
     163      129       99       68       41       20       10        6 
     -13      -43      -67      -87     -102     -114     -132     -166 
    -220     -278     -330     -369     -390     -399     -406     -407 
    -403     -392     -372     -351     -336     -324     -309     -292 
    -263     -220     -168     -117      -63        1       72      143 
     217      298      364      403      427      449      461      469 
     484      494      481      446      396      346      314      292 
     265      225      179      141       98       32      -36      -89 
    -120     -141     -162     -178     -191     -214     -237     -241 
    -222     -179     -120      -48       36      122      187      229 
     263      294      318      328      328      333      341      345 
     356      380      406      418      413      396      365      324 
     286      261      251      248      236      202      155      103 
      56       22        4        0       12       40       72       90 
      89       67       37       20       14        5      -13      -25 
     -17        9       39       63       93      124      144      153 
     152      145      148      170      197      218      234      237 
     226      217      224      240      255      263      261      261 
     272      288      321      365      394      406      413      418 
     429      453      465      452      429      406      382      360 
     344      333      321      321      346      382      410      430 
     446      472      499      511      498      467      440      430 
     427      418      399      383      375      372      373      382 
     390      396      398      400      392      360      310      257 
     209      159       99       31      -35      -91     -148     -220 
    -299     -386     -487     -591     -677     -742     -800     -851 
    -885     -908     -932     -945     -924     -878     -818     -742 
    -660     -577     -496     -421     -359     -305     -253     -202 
    -147      -86      -22       21       41       51       66       76 
      82       87       97      101       99      105      121      149 
     191      245      306      365      421      484      553      623 
     684      727      764      810      857      897      931      965 
    1005     1053     1088     1111     1136     1163     1181     1197 
    1225     1256     1282     1310     1352     1390     1402     1391 
    1366     1317     1252     1185     1116     1054      999      942 
     884      826      766      699      612      514      414      317 
     220      120       21      -63     -144     -213     -265     -319 
    -382     -432     -460     -464     -448     -417     -390     -376 
    -361     -340     -313     -284     -252     -207     -149      -89 
     -29       28       82      140      199      248      287      326 
     359      386      411      425      429      432      438      446 
     444      430      413      382      334      280      238      216 
     198      183      171      162      162      172      189      205 
     207      198      190      194      206      216      226      236 
     240      251      271      284      282      272      257      232 
     206      186      167      153      157      168      170      170 
     182      203      228      257      298      342      375      386 
     379      363      344      321      292      259      210      159 
     113       67       17      -32      -83     -145     -230     -317 
    -390     -456     -527     -587     -621     -637     -653     -661 
    -650     -637     -631     -633     -630     -619     -604     -583 
    -544     -494     -453     -414     -364     -302     -244     -201 
    -168     -144     -125     -116     -116     -114     -109      -97 
     -78      -60      -49      -32       -4       24       47       79 
     125      162      198      245      287      318      355      396 
     436      471      503      538      569      600      646      697 
     730      745      762      776      772      751      731      718 
     710      708      711      700      670      635      591      533 
     469      407      340      265      189      116       52        8 
     -22      -41      -49      -48      -43      -36      -24       -4 
      12        9       -1       -9      -17      -24      -20       -8 
       8       21       31       43       67      105      148      190 
     216      236      261      292      329      360      386      422 
     464      492      506      504      495      484      488      504 
     515      521      527      529      521      506      481      459 
     459      488      523      546      568      592      607      615 
     626      622      599      576      561      546      527      504 
     476      441      402      360      314      270      222      175 
     118       48      -18      -70     -108     -140     -167     -184 
    -194     -201     -209     -210     -214     -225     -236     -244 
    -252     -249     -226     -190     -162     -148     -141     -143 
    -153     -162     -167     -176     -184     -187     -202     -228 
    -251     -264     -272     -278     -276     -276     -290     -322 
    -369     -432     -511     -599     -688     -770     -832     -865 
    -882     -892     -888     -872     -861     -857     -855     -845 
    -822     -785     -731     -657     -573     -483     -391     -303 
    -217     -129      -40       56      156      255      359      468 
     572      666      742      797      834      859      880      904 
     939      982     1016     1032     1038     1040     1031      996 
     945      892      839      793      756      730      710      684 
     642      583      508      434      359      283      207      130 
      66       21        0       -6      -20      -45      -76     -108 
    -129     -135     -124     -109      -98      -79      -45       -4 
      35       70       87       81       71       75       94      121 
     149      182      233      286      326      359      392      432 
     472      508      534      552      564      577      595      604 
     598      579      553      534      531      541      557      579 
     596      600      588      568      548      529      508      492 
     477      453      426      405      383      364      341      292 
     225      164      117       86       74       58       32       17 
      17       22       31       33       35       41       54       78 
     117      155      182      201      213      217      216      203 
     187      172      152      122       83       43        1      -40 
     -70      -87      -99     -101      -90      -79      -75      -78 
     -86      -87      -78      -62      -49      -41      -33      -31 
     -36      -51      -85     -141     -218     -305     -384     -449 
    -495     -529     -554     -575     -588     -584     -562     -525 
    -480     -444     -407     -356     -297     -236     -166      -86 
      -1       87      182      267      336      390      433      467 
     486      498      503      495      475      445      411      376 
     342      305      268      241      221      203      189      175 
     163      149      137      126      109       82       51       21 
      -5      -28      -44      -48      -43      -36      -36      -43 
     -55      -60      -54      -47      -44      -32        1       43 
      89      147      213      279      330      376      432      492 
     545      591      630      648      650      646      633      604 
     560      511      461      409      355      290      214      143 
      74       10      -27      -35      -18       14       60      117 
     172      220      265      309      345      383      430      468 
     496      530      569      612      656      700      735      756 
     770      792      808      816      827      835      835      835 
     841      842      831      815      795      762      720      677 
     635      589      538      491      446      407      364      315 
     261      206      156      125      120      135      164      201 
