Origin Time       2025/01/13 21:19:00
Lat.              31.8
Long.             131.6
Depth. (km)       30
Mag.              6.9
Station Code      KOC016
Station Lat.      32.7359
Station Long.     132.9754
Station Height(m) 125
Record Time       2025/01/13 21:20:16
Sampling Freq(Hz) 100Hz
Duration Time(s)  83
Dir.              E-W
Scale Factor      7845(gal)/8223790
Max. Acc. (gal)   3.254
Last Correction   2025/01/13 21:20:16
Memo.             
[...]
    -814     -808     -907     -830     -800     -812     -641     -557 
    -792     -881     -600     -353     -287     -414     -859    -1332 
   -1390    -1012     -461      -37       87       10      -18       58 
     124      253      392      148     -364     -696     -989    -1350 
   -1514    -1645    -1895    -1796    -1289     -990    -1063    -1144 
   -1151    -1204    -1231    -1070     -729     -425     -359     -426 
    -414     -342     -341     -364     -352     -386     -487     -630 
    -912    -1286    -1470    -1386    -1136     -672      -48      349 
     363      205     -109     -562     -847     -892     -799     -540 
    -311     -344     -411     -279     -112     -172     -569    -1167 
   -1737    -2278    -2725    -2650    -2004    -1414    -1256    -1377 
   -1696    -2191    -2582    -2602    -2254    -1653     -972     -548 
    -535     -625     -611     -656     -700     -552     -348     -301 
    -387     -491     -560     -571     -602     -777     -891     -711 
    -558     -697     -884     -985    -1008     -780     -372      -44 
      90     -265    -1225    -2060    -2245    -2176    -2072    -1742 
   -1395    -1301    -1194     -819     -384     -211     -473    -1028 
   -1408    -1482    -1453    -1196     -758     -631     -795     -899 
    -969     -974     -788     -552     -386     -234      -14      274 
     394       63     -588    -1005     -900     -653     -510     -290 
    -237     -581     -789     -591     -402     -371     -372     -463 
    -646     -783     -873     -974     -994     -970    -1019    -1015 
    -905     -800     -595     -330     -313     -399     -383     -688 
   -1316    -1601    -1601    -1659    -1468    -1136    -1170    -1347 
   -1394    -1487    -1493    -1242     -903     -553     -432     -877 
   -1499    -1736    -1746    -1728    -1514    -1192     -951     -693 
    -356     -197     -448     -845     -870     -703     -857    -1005 
    -800     -753     -904     -753     -525     -440     -329     -556 
   -1232    -1694    -1713    -1543    -1248     -985     -996    -1196 
   -1463    -1783    -1867    -1555    -1210    -1019     -753     -400 
    -211     -232     -256     -270     -468     -768     -865     -756 
    -731     -972    -1350    -1540    -1435    -1298    -1246    -1096 
    -992    -1202    -1381    -1255    -1182    -1174     -858     -437 
    -220        6      162     -197     -866    -1262    -1243     -953 
    -637     -576     -765    -1004    -1185    -1113     -658     -213 
    -236     -490     -534     -540     -797    -1035     -999     -950 
    -969     -769     -367      -82      -83     -368     -773    -1023 
    -978     -739     -530     -417     -317     -268     -276     -244 
    -228     -382     -816    -1375    -1782    -2142    -2471    -2359 
   -1864    -1591    -1649    -1582    -1363    -1344    -1351    -1019 
    -670     -834    -1317    -1491    -1285    -1223    -1397    -1360 
   -1170    -1201    -1148     -633      -70      140       72     -365 
   -1111    -1594    -1539    -1128     -600     -198      -43     -233 
    -737     -988     -737     -592     -696     -472      -55      -70 
    -307     -399     -611     -954    -1097     -942     -506      -86 
     -82     -341     -560     -712     -699     -461     -195      -90 
    -315     -893    -1408    -1494    -1313    -1120     -947     -729 
    -442     -253     -189       24      220       36     -257     -418 
    -477     -303     -180     -519     -847     -699     -503     -689 
   -1071    -1371    -1571    -1607    -1355    -1034     -915     -816 
    -685     -869    -1351    -1750    -1977    -2038    -1838    -1629 
   -1679    -1741    -1694    -1733    -1687    -1344     -988     -926 
   -1190    -1621    -1934    -2083    -2272    -2343    -1953    -1318 
    -808     -351      108      409      548      527      179     -402 
    -900    -1360    -1817    -1957    -1830    -1629    -1097     -359 
     -60     -448    -1367    -2416    -2941    -2770    -2277    -1701 
   -1344    -1482    -1663    -1341     -773     -395     -248     -229 
    -301     -429     -453     -311     -298     -571     -865     -915 
    -738     -556     -471     -390     -427     -603     -407      198 
     427      166       21      -45     -147       99      465      421 
     140     -125     -356     -340       29      444      469       13 
    -395     -337     -217     -221      155      720      769      321 
    -253     -762    -1055    -1119    -1039     -976    -1148    -1570 
   -1987    -2203    -2164    -1757    -1054     -425       -2      305 
     272     -287     -974    -1375    -1537    -1499    -1301    -1209 
   -1332    -1579    -1848    -1961    -1885    -1613     -999     -290 
     121      175     -191     -899    -1657    -2386    -2874    -2704 
   -1977    -1269     -955     -988    -1150    -1405    -1694    -1732 
   -1517    -1286    -1048     -918    -1129    -1529    -1723    -1471 
    -896     -376      -37      106      -36     -400     -930    -1370 
   -1121     -426     -209     -403     -480     -623     -869     -891 
    -816     -745     -452     -221     -413     -741    -1019    -1389 
   -1522    -1034     -253      328      603      507      135     -170 
    -473     -949    -1228    -1205    -1328    -1668    -1996    -2313 
   -2512    -2247    -1559     -950     -606     -525     -918    -1456 
   -1512    -1393    -1637    -2025    -2369    -2787    -3018    -2786 
   -2246    -1517     -706     -202       14      459      930      581 
    -545    -1418    -1551    -1439    -1437    -1391    -1205    -1039 
   -1065    -1020     -522      -55     -139     -238      -51       35 
     270      934     1289     1009      789      805      665      444 
     395      500      568      449      255       44     -310     -527 
    -187      392      488      -24     -660    -1088    -1339    -1304 
    -853     -334      -99        0        6     -391    -1281    -2311 
   -3045    -3276    -2987    -2365    -1903    -1857    -1875    -1660 
   -1337    -1004     -588     -109      247      233     -126     -457 
    -500     -427     -383     -183      129      190       10     -122 
    -244     -548     -966    -1209    -1200    -1237    -1502    -1737 
   -1768    -1725    -1601    -1474    -1641    -1956    -1981    -1641 
   -1224    -1007     -807     -382      -10       99      218      538 
     799      677      360      148      -22     -157     -190     -291 
    -527     -804    -1162    -1621    -2045    -2378    -2664    -2799 
   -2608    -2182    -1783    -1451    -1116     -908     -976    -1262 
   -1680    -2014    -1958    -1732    -1726    -1721    -1545    -1495 
   -1566    -1634    -1819    -1908    -1638    -1225     -741      -87 
     349      248       40      160      333      272      164      -27 
    -623    -1414    -1895    -1926    -1599    -1217    -1101    -1090 
    -970     -895     -973    -1235    -1761    -2235    -2141    -1641 
   -1225     -953     -864    -1074    -1339    -1422    -1337    -1142 
   -1066    -1293    -1668    -1917    -1829    -1475    -1193    -1135 
   -1155    -1071     -830     -517     -211       82      276      207 
       2     -128     -267     -297      -28      133     -125     -445 
    -619     -751     -623     -132      255      290      224      126 
    -108     -376     -452     -155      337      521      341      140 
    -248    -1096    -1857    -1999    -1861    -1818    -1736    -1453 
   -1115    -1053    -1221    -1150     -896     -889    -1042    -1177 
   -1316    -1279    -1030     -837     -727     -495     -213       13 
     297      490      247     -419    -1178    -1614    -1459     -927 
    -452     -182     -141     -436     -916    -1221    -1393    -1706 
   -2073    -2286    -2328    -2207    -1929    -1576    -1323    -1333 
   -1453    -1472    -1629    -2108    -2604    -2924    -3117    -3068 
   -2725    -2331    -2093    -1912    -1690    -1571    -1633    -1806 
   -2026    -2155    -2062    -1795    -1429     -961     -446       -6 
     360      654      762      673      515      302      -24     -292 
    -232       54      155      -97     -484     -761     -843     -683 
    -291       28      -45     -291     -237      109      415      531 
     522      423      225       99      236      392      217     -176 
    -456     -463     -261     -128     -207     -469     -997    -1598 
   -1825    -1752    -1671    -1467    -1173    -1220    -1656    -2073 
   -2335    -2551    -2666    -2668    -2678    -2655    -2529    -2367 
   -2116    -1692    -1273     -904     -418      122      556      797 
     781      575      234     -251     -670     -842     -888     -942 
   -1065    -1239    -1270    -1131     -957     -645     -272     -202 
    -298     -199      -16       55       21        0      132      291 
     249       97     -153     -610     -931     -827     -557     -294 
      21      270      245      -64     -445     -714     -958    -1175 
   -1147    -1003    -1075    -1323    -1636    -2058    -2498    -2840 
   -3041    -3109    -3150    -3138    -2893    -2434    -1941    -1498 
   -1135     -886     -742     -699     -787     -993    -1236    -1336 
   -1089     -513      160      666      772      523      340      436 
     588      580      411      221      148      216      517     1044 
    1401     1408     1360     1333     1267     1298     1363     1343 
    1318     1215      951      631      129     -642    -1387    -1908 
   -2369    -2844    -3083    -2925    -2627    -2444    -2442    -2694 
   -3122    -3495    -3693    -3758    -3869    -4040    -4035    -3777 
   -3294    -2612    -2003    -1707    -1679    -1779    -1723    -1417 
   -1224    -1246    -1129     -780     -317      270      942     1507 
    1752     1595     1239      940      720      515      286       12 
    -141      -67      102      297      440      360      121      -86 
    -321     -611     -738     -657     -616     -693     -777     -842 
    -819     -685     -604     -653     -815    -1159    -1583    -1877 
   -2072    -2212    -2147    -1908    -1780    -1868    -2014    -2131 
   -2362    -2745    -2970    -2843    -2500    -1995    -1420    -1031 
    -891     -850     -723     -442     -210     -163     -214     -444 
    -896    -1209    -1236    -1256    -1233     -924     -521     -326 
    -282     -210     -147     -228     -340     -243       12      240 
     383      344      108     -109     -144      -83      -52      -41 
     -20      -82     -263     -402     -490     -662     -816     -851 
    -965    -1219    -1555    -2003    -2371    -2515    -2674    -2932 
   -3160    -3373    -3472    -3331    -3159    -3098    -2986    -2801 
   -2593    -2265    -1900    -1653    -1455    -1296    -1262    -1258 
   -1237    -1355    -1651    -2003    -2188    -1972    -1441     -951 
    -676     -589     -645     -729     -710     -541     -225      125 
     456      962     1524     1711     1694     1845     1925     1764 
    1688     1740     1626     1377     1169      942      633      292 
     -24     -284     -577    -1008    -1493    -1923    -2286    -2604 
   -2911    -3138    -3256    -3443    -3665    -3663    -3489    -3350 
   -3295    -3334    -3419    -3495    -3565    -3466    -3086    -2786 
   -2770    -2655    -2366    -2160    -1900    -1474    -1144    -1017 
    -804     -328      148      328      363      633     1102     1363 
    1345     1308     1255     1138     1232     1641     2006     2110 
    2068     1965     1791     1571     1391     1267     1051      714 
     468      361      203      -75     -429     -746     -857     -881 
   -1163    -1644    -2049    -2442    -2884    -3118    -2964    -2585 
   -2284    -2169    -2123    -2079    -2083    -2085    -1944    -1718 
   -1641    -1675    -1594    -1406    -1202     -934     -568     -170 
     137      295      317      164      -95     -286     -373     -419 
    -430     -360     -201      -51       -1      -90     -355     -774 
   -1204    -1512    -1744    -1948    -2042    -2037    -2034    -2083 
   -2231    -2466    -2718    -2940    -2980    -2714    -2281    -1863 
   -1551    -1414    -1410    -1402    -1375    -1476    -1780    -2130 
   -2338    -2350    -2137    -1687    -1166     -769     -519     -368 
    -255     -114       55      276      558      753      746      643 
     619      711      788      708      476      186      -78     -270 
    -442     -697     -939    -1007     -972     -938     -949    -1125 
   -1324    -1239    -1005     -815     -483      -66      174      349 
     616      889     1108     1221     1144      970      835      749 
     799     1003     1071      928      783      616      405      225 
     -32     -426     -791     -949     -831     -622     -530     -491 
    -542     -842    -1162    -1221    -1127    -1028     -974    -1070 
   -1263    -1378    -1464    -1602    -1734    -1799    -1757    -1624 
   -1476    -1404    -1557    -1883    -2091    -2177    -2297    -2354 
   -2301    -2268    -2265    -2262    -2270    -2230    -2111    -1915 
   -1594    -1256    -1140    -1251    -1482    -1898    -2488    -3038 
   -3406    -3667    -3897    -3912    -3628    -3322    -3140    -3033 
   -3091    -3280    -3415    -3445    -3341    -3200    -3262    -3402 
   -3316    -3072    -2808    -2475    -2076    -1688    -1355    -1073 
    -778     -419      -14      430      988     1659     2238     2520 
    2525     2316     1912     1571     1609     1881     2034     1972 
    1709     1263      796      473      328      260      118     -147 
    -506     -889    -1170    -1347    -1526    -1679    -1813    -2027 
   -2262    -2435    -2602    -2700    -2632    -2559    -2555    -2498 
   -2400    -2250    -1957    -1668    -1536    -1395    -1102     -791 
    -531     -268      -52       89      233      349      407      460 
     457      402      421      548      706      741      581      402 
     286      170      164      310      433      527      618      492 
     105     -333     -743    -1123    -1372    -1547    -1733    -1802 
   -1713    -1613    -1475    -1227    -1046    -1050    -1105    -1163 
   -1302    -1517    -1741    -1899    -1961    -1965    -1927    -1804 
   -1593    -1385    -1278    -1293    -1425    -1580    -1601    -1514 
   -1406    -1186     -912     -816     -845     -722     -465     -352 
    -481     -724     -962    -1135    -1223    -1236    -1178    -1027 
    -784     -507     -295     -225     -306     -471     -657     -832 
    -913     -866     -805     -807     -837     -907    -1011    -1011 
    -868     -743     -707     -622     -387      -60      263      503 
     599      553      415      183     -109     -364     -583     -764 
    -810     -789     -837     -878     -857     -843     -864     -970 
   -1213    -1467    -1528    -1350    -1142    -1124    -1208    -1296 
   -1503    -1765    -1911    -1987    -2004    -1917    -1795    -1629 
   -1413    -1278    -1219    -1171    -1200    -1301    -1441    -1656 
   -1858    -1952    -1996    -1988    -1846    -1594    -1271     -946 
    -727     -576     -427     -379     -438     -486     -504     -502 
    -488     -538     -627     -653     -673     -780     -885     -911 
    -957    -1073    -1239    -1474    -1687    -1755    -1725    -1711 
   -1759    -1817    -1806    -1768    -1730    -1557    -1231     -903 
    -672     -572     -567     -545     -507     -483     -391     -249 
    -143       36      365      679      823      828      760      652 
     521      375      243      197      252      205      -90     -449 
    -751    -1092    -1394    -1552    -1641    -1728    -1848    -2073 
   -2338    -2497    -2571    -2698    -2928    -3176    -3342    -3439 
   -3489    -3404    -3167    -2922    -2782    -2674    -2489    -2228 
   -1950    -1672    -1412    -1223    -1071     -837     -538     -301 
    -148      -89     -162     -319     -471     -556     -530     -398 
    -247     -151     -135     -172     -234     -342     -496     -641 
    -746     -797     -785     -774     -816     -885    -1008    -1190 
   -1306    -1287    -1185    -1040     -918     -904     -977     -992 
    -800     -475     -218       25      314      400      174     -121 
    -305     -402     -469     -484     -373     -170      -24       66 
     206      267      113      -62      -64       35      135      190 
     187      147       60     -109     -264     -206       -5       59 
     -21      -72     -117     -213     -232     -121       -2       89 
     183      205       75     -153     -364     -477     -519     -546 
    -556     -549     -612     -801    -1047    -1269    -1420    -1459 
   -1409    -1371    -1404    -1476    -1545    -1649    -1792    -1848 
   -1771    -1624    -1417    -1182    -1050    -1086    -1201    -1306 
   -1413    -1456    -1385    -1364    -1445    -1437    -1362    -1350 
   -1328    -1294    -1287    -1223    -1154    -1173    -1235    -1412 
   -1745    -2010    -2095    -2107    -2092    -2122    -2285    -2488 
   -2597    -2629    -2660    -2772    -2960    -3113    -3103    -2863 
   -2516    -2324    -2332    -2405    -2447    -2424    -2365    -2323 
   -2317    -2371    -2421    -2349    -2192    -2033    -1840    -1634 
   -1494    -1305     -916     -475     -189       -4      148      218 
     301      490      675      772      805      766      708      737 
     869     1070     1264     1370     1428     1480     1429     1239 
    1066      988      904      830      892     1011      984      816 
     611      325      -70     -438     -688     -808     -764     -627 
    -612     -801    -1012    -1094    -1116    -1179    -1275    -1331 
   -1332    -1362    -1428    -1416    -1350    -1344    -1335    -1258 
   -1224    -1252    -1197    -1024     -893     -882     -866     -800 
    -811     -889     -895     -893    -1019    -1170    -1219    -1185 
   -1100     -982     -819     -642     -610     -731     -841     -916 
   -1013    -1053     -954     -819     -778     -811     -872     -997 
   -1144    -1231    -1344    -1557    -1767    -1923    -2064    -2149 
   -2141    -2070    -1933    -1734    -1526    -1329    -1210    -1212 
   -1155     -911     -649     -504     -390     -306     -355     -464 
    -487     -481     -579     -718     -731     -666     -712     -854 
    -954    -1036    -1171    -1302    -1337    -1335    -1429    -1595 
   -1687    -1686    -1674    -1665    -1659    -1707    -1829    -1931 
   -1923    -1872    -1861    -1860    -1846    -1810    -1701    -1553 
   -1443    -1363    -1254    -1057     -799     -583     -457     -386 
    -329     -267     -176      -16      213      382      384      346 
     445      642      791      810      688      480      207      -91 
    -294     -364     -413     -506     -616     -722     -820     -912 
   -1009    -1096    -1138    -1178    -1246    -1313    -1394    -1449 
   -1406    -1308    -1220    -1107     -958     -864     -855     -868 
    -882     -903     -909     -918     -926     -907     -903     -965 
   -1070    -1185    -1271    -1296    -1302    -1328    -1358    -1389 
   -1394    -1323    -1178    -1062    -1050    -1038     -878     -681 
