Origin Time       2025/01/13 21:19:00
Lat.              31.8
Long.             131.6
Depth. (km)       30
Mag.              6.9
Station Code      KOC015
Station Lat.      32.9393
Station Long.     132.7258
Station Height(m) 3
Record Time       2025/01/13 21:20:03
Sampling Freq(Hz) 100Hz
Duration Time(s)  119
Dir.              U-D
Scale Factor      7845(gal)/8223790
Max. Acc. (gal)   13.359
Last Correction   2025/01/13 21:20:02
Memo.             
[...]
    3391     3666     4098     4515     5000     5624     6203     6515 
    6488     6265     6091     5942     5562     5138     5248     5502 
    4845     3796     3630     3912     3940     4387     5327     5736 
    5316     4519     3850     3743     4068     4214     3905     3508 
    3800     4932     5919     6278     6651     7048     6787     6010 
    5506     5479     5305     4769     4612     4993     4981     4278 
    3651     3555     3703     3774     3846     4199     4762     5150 
    5250     5193     5119     5148     5202     5165     5124     4992 
    4437     3497     2714     2481     2663     3100     3910     4949 
    5967     7014     7708     7557     7098     7033     6991     6254 
    4976     4012     3645     3295     2785     2712     3215     3578 
    3516     3786     4785     5734     5929     5575     5188     5123 
    5447     5848     5927     5455     4711     4482     5004     5663 
    5989     5968     5722     5595     5836     6181     6330     6305 
    6011     5306     4764     4976     5317     5013     4463     4102 
    3558     2751     2277     2504     3172     3736     3974     4147 
    4410     4654     5101     6004     6750     6539     5763     5382 
    5366     5090     4756     4850     4866     4287     3809     4010 
    4288     4162     3936     3755     3461     3183     3231     3700 
    4267     4448     4162     3743     3553     3800     4387     5035 
    5653     6245     6837     7317     7283     6916     6926     6979 
    6239     5209     4822     4708     4135     3466     3322     3318 
    2941     2586     2713     3113     3419     3515     3643     4237 
    5112     5555     5347     5032     5221     5655     5741     5768 
    6183     6708     7022     7179     7434     7886     8117     7828 
    7230     6370     5220     4233     3829     3875     4016     3896 
    3280     2340     1440      855      827     1188     1521     2042 
    3094     4336     5413     6369     7269     7987     8205     7929 
    7657     7584     7546     7376     6667     5263     3877     3122 
    2740     2427     2427     2797     2964     2733     2872     3815 
    4850     5429     5906     6448     6721     6633     6293     5638 
    4695     3877     3429     3042     2768     3153     3986     4607 
    5019     5321     5336     5175     4932     4710     4918     5447 
    5780     5931     5903     5428     4932     5159     5810     6014 
    5772     5570     5379     5259     5651     6301     6444     6065 
    5580     5036     4396     3777     3148     2439     1998     2172 
    2667     3118     3682     4375     4677     4403     4213     4662 
    5337     5566     5714     6519     7372     7237     6540     6253 
    6185     5660     4851     4332     3974     3271     2436     2188 
    2563     2968     3167     3348     3516     3522     3468     3586 
    3863     4112     4324     4673     5028     5179     5417     5738 
    5630     5346     5566     5910     5749     5447     5420     5490 
    5540     5464     5131     4753     4446     3994     3518     3585 
    4149     4423     4379     4604     4750     4456     4472     5055 
    5448     5536     5877     6413     6674     6650     6467     5987 
    5371     5134     5223     5144     4984     5061     5117     4769 
    4071     3330     2871     2833     3083     3391     3549     3569 
    3573     3450     3256     3379     3724     3846     3946     4569 
    5427     5807     5884     6174     6474     6416     6083     5783 
    5805     6146     6318     5944     5359     5015     4873     4731 
    4461     4064     3626     3204     3033     3199     3407     3663 
    4170     4729     5192     5551     5506     5165     5211     5620 
    5756     5594     5444     5231     5015     5368     6440     7441 
    7881     8121     8230     7939     7285     6257     5097     4468 
    4133     3411     2868     3125     3419     3217     3118     3291 
    3271     3146     3172     3200     3130     3017     3141     3839 
    4946     6219     7589     8600     8919     8854     8554     7850 
    7042     6567     6243     5825     5379     4841     4247     3844 
    3458     2709     1784     1347     1690     2350     2953     3638 
    4149     4033     3665     3628     3801     3991     4642     6018 
    7352     7797     7578     7264     6799     6021     5301     5158 
    5560     5933     5915     5728     5410     4572     3427     2813 
    2914     3391     4301     5628     6687     6893     6377     5638 
    5097     4884     4872     4988     5174     5109     4611     4055 
    3950     4372     5076     5848     6660     7383     7676     7599 
    7570     7450     6812     6012     5725     5772     5738     5778 
    5772     5285     4708     4549     4409     4013     3726     3711 
    3773     3586     3034     2704     3063     3523     3751     4388 
    5343     5687     5381     5070     4995     5105     5309     5381 
    5270     5209     5096     4627     4224     4329     4267     3611 
    3253     3495     3603     3730     4294     4579     4229     3989 
    4121     4259     4511     5150     5869     6146     5999     5895 
    5745     5134     4540     4471     4341     3916     3812     4079 
    4301     4386     4329     4190     4201     4413     4692     4822 
    4448     3636     2961     2805     3399     4737     6200     7519 
    8978    10118    10192     9401     8199     6548     4595     3125 
    2641     2613     2392     2133     2157     2238     2116     2033 
    2470     3638     5085     6291     7411     8467     8791     8251 
    7632     7271     6700     6014     5926     6355     6469     5975 
    5148     3951     2331     1150     1201     1810     2223     2863 
    3767     4075     3740     3584     3947     4602     5154     5200 
    4892     4969     5486     5501     4812     4276     4108     4005 
    4437     5732     7064     7622     7446     6783     5769     4644 
    3816     3628     3785     3615     3110     2695     2484     2413 
    2297     1850     1109      454      295      776     1691     2833 
    4186     5628     6832     7589     7929     8025     7973     7715 
    7353     6986     6563     6365     6529     6589     6226     5425 
    4355     3688     3847     4423     5154     6045     6652     6735 
    6679     6423     5346     3613     2362     2189     2404     2439 
    2756     3372     3377     2894     3163     4403     5827     7165 
    8409     8985     8472     7271     5914     4729     4039     3645 
    3138     3083     3977     4822     4720     4378     4499     4538 
    4132     3955     4064     3649     3018     3113     3546     3777 
    4423     5707     6845     7481     7898     7958     7258     6168 
    5460     5200     5053     5061     5131     4749     3929     3478 
    3769     4351     4980     5826     6625     6629     5665     4538 
    3804     3073     2249     2087     2925     4054     4696     4796 
    4945     5652     6637     7334     7785     8266     8471     7840 
    6696     5976     5517     4544     3534     3321     3442     3206 
    3018     3581     4722     5671     6170     6535     6809     6690 
    6065     5336     5185     5530     5624     5541     5788     5817 
    4936     3696     2837     2332     2219     2713     3514     4326 
    5319     6393     7042     6999     6450     5746     4941     3839 
    2759     2308     2176     1702     1150     1070     1534     2366 
    3360     4718     6689     8676    10025    10717    10705     9817 
    8094     5908     3936     2392      820     -895    -2299    -3003 
   -2798    -1690       51     2099     4239     6561     9023    10881 
   11772    12163    11925    10446     8091     5778     3734     1827 
     248     -765    -1016     -514      222     1031     2335     4023 
    5462     6255     6500     6527     6220     5232     3894     2967 
    2837     3276     3755     4415     5698     7049     8047     9271 
   10627    11296    11175    10611     9882     9119     8106     6741 
    5262     3650     1819      103    -1323    -2467    -2917    -2467 
   -1524     -267     1549     3825     5919     7388     8479     9603 
   10550    10759    10134     9016     7836     6714     5157     2944 
     864     -415    -1063    -1067      -25     1709     3276     4653 
    6219     7572     8244     8599     8884     8708     8093     7576 
    7088     6122     4710     3271     2255     1914     1975     2311 
    3226     4515     5657     6486     6790     6513     6156     5818 
    4978     3677     2521     1741     1347     1485     2047     2778 
    3450     3723     3885     4822     6378     7623     8545     9389 
    9616     8953     8021     7439     7217     6980     6432     5498 
    4371     3478     3001     2898     3464     5112     7712    10503 
   12773    14222    14540    13460    11105     7879     4449     1483 
    -861    -2579    -3204    -2647    -1968    -1931    -1860    -1100 
    -217      433     1744     4253     7113     9553    11732    13566 
   14322    13891    12927    11619     9927     8224     6409     4220 
    2308     1131      228     -427     -409      221     1317     2889 
    4660     6123     6696     6075     4815     3871     3526     3631 
    4473     6116     7550     7834     7167     6215     5432     4951 
    4716     4668     4677     4598     4301     3694     2956     2413 
    2064     1513      837      638      934     1360     1826     2154 
    2245     2312     2566     3098     4032     5432     6967     8083 
    8649     9108     9811    10415    10420    10017     9737     9382 
    8179     6334     5001     4392     3557     2162      926      180 
    -402     -818     -885     -753     -548     -423     -538     -525 
     153     1576     3478     5551     7523     9117    10123    10666 
   10993    11047    10638     9752     8397     6621     4868     3410 
    1988      730       20     -330     -410      171     1377     2833 
    4661     6824     8577     9520     9926    10199    10787    11686 
   12150    11704    11002    10895    11065    10886    10731    10755 
   10002     8036     5524     2833       -9    -2508    -4172    -4963 
   -5117    -4966    -4509    -3315    -1304      614     1502     1814 
    2241     2413     2610     4027     6407     8465    10188    12332 
   14570    15871    15981    15076    12987     9925     6637     3576 
     819    -1576    -3532    -4830    -5208    -4693    -3370    -1335 
     773     2255     3411     4800     6025     6610     7003     7541 
    7905     8025     8364     9347    10651    11524    11804    11662 
   11136    10440     9774     8872     7479     5765     3960     2324 
    1252      885     1264     2452     3932     4780     4499     3078 
     708    -1850    -3628    -4599    -5063    -4600    -3071    -1035 
    1224     3592     5541     6756     7830     9545    11630    13227 
   14422    15711    16486    15797    13761    10912     7501     3937 
     737    -1694    -3075    -3638    -3743    -3191    -1809       16 
    1752     3019     3646     3516     2559     1247      346      -10 
     209     1524     3661     5417     6505     7558     8537     9065 
    9315     9381     9126     8579     7884     7388     7284     7146 
    6534     5481     4105     2447      683     -849    -1602    -1286 
    -356      753     2116     3674     5165     6516     7746     8968 
   10444    11902    12463    12009    11238    10135     8104     5374 
    3014     1532      330     -892    -1355     -587      892     2641 
    4729     7129     9247    10262    10115     9521     8931     8372 
    8149     8613     9364     9840    10127    10403    10493    10196 
    9481     8511     7114     4841     2070     -167    -1348    -1479 
    -638      897     2409     3226     3327     2882     1921      980 
     714      861      931     1324     2448     3716     4743     6281 
    8649    10839    12051    12618    13026    13046    12280    10879 
    9120     6905     4108     1112    -1435    -3518    -5439    -6852 
   -7426    -7503    -7253    -6432    -4986    -3032     -739     1497 
    3307     4738     6147     7882     9890    11781    13512    15250 
   16660    17077    16212    14597    12868    10909     8918     7723 
    7165     6322     4789     2575      247    -1233    -1871    -2296 
   -2446    -2180    -1861    -1695    -1533    -1237     -869     -390 
     453     1653     3150     5043     7190     9579    12267    14767 
   16526    17315    16946    15484    13528    11600     9732     7838 
    5930     4059     2374     1057       66     -589     -337     1016 
    2250     2231     1360      332    -1081    -2875    -3894    -3439 
   -2241     -758     1439     4090     6247     7692     8735     9448 
    9784     9819     9855    10233    10984    11805    12479    13084 
   13533    13487    12947    12185    11129     9621     7897     6041 
    3792     1289     -957    -2725    -3893    -4274    -4102    -3867 
   -3647    -3163    -2340    -1370     -203     1275     2687     3748 
    4785     5821     6496     7025     7746     8343     8526     8488 
    8410     8414     8560     8668     8860     9680    11203    12992 
   14651    15792    16183    16017    15356    13853    11537     8986 
    6343     3380      523    -1694    -3634    -5721    -7542    -8645 
   -9135    -8897    -7511    -5196    -2772     -765      901     2509 
    4128     5821     7848    10064    11782    12654    12835    12274 
   10750     8522     6087     3626     1460       95     -723    -1676 
   -2612    -2909    -2550    -1825     -757      548     1788     2862 
    3811     4538     4878     4927     5071     5518     6033     6274 
    6332     6544     6901     7132     7025     6689     6748     7514 
    8444     9288    10311    11053    10855    10251     9821     8922 
    7321     5918     4949     3905     2924     2234     1547      834 
     399      333      425      332       58      -28      195      832 
    2153     3939     5730     7406     8765     9521     9830     9952 
    9865     9614     9216     8460     7431     6666     6399     6177 
    5582     4793     3983     2968     1831      923      338       55 
     109      378      720     1406     2658     3989     5035     5923 
    6272     5746     4946     4398     4234     4607     5194     5532 
    5900     6706     7835     9109    10504    11842    12680    12695 
   12135    11468    10820    10100     9379     8796     8324     7890 
    7326     6158     4225     2047      156    -1282    -2324    -3075 
   -3361    -2937    -2030     -905      615     2496     4179     5358 
    6222     6756     6708     6384     6264     6102     5543     4752 
    3905     3098     2663     2907     3789     4901     5695     5964 
    5899     5713     5483     5206     4897     4506     3848     3038 
    2447     2301     2648     3125     3159     2755     2235     1702 
    1476     1973     3057     4426     5919     7283     8465     9701 
   10997    12118    12873    13244    13225    12474    10994     9472 
    8029     6313     4611     3199     1838      487     -567    -1077 
    -885       -2     1279     2663     4024     5020     5456     5919 
    6883     7908     8560     8926     8989     8619     7932     7221 
    6802     6662     6543     6494     6502     6210     5618     5061 
    4488     3863     3508     3334     2963     2674     2994     3744 
    4353     4621     4492     3636     2164      985      704     1043 
    1624     2443     3476     4585     5825     7149     8194     8700 
    8472     7288     5516     3948     2836     1933     1147      476 
     -70     -217       78      301      361      764     1439     1957 
    2536     3460     4342     4868     5414     6320     7357     8403 
    9602    10739    11503    11966    12168    12012    11637    11072 
   10204     9439     9190     9082     8742     8324     7730     6494 
    4629     2771     1348      237     -685    -1260    -1320     -988 
    -631     -398      -72      375      573      488      791     1798 
    3059     4374     5745     6795     7430     7888     8013     7569 
    6689     5686     4808     4045     3334     2816     2571     2452 
    2288     2115     2120     2241     2197     2043     2018     2042 
    2106     2446     2953     3489     4310     5332     6189     6995 
    7889     8521     8704     8673     8421     7824     7173     6650 
    6118     5606     5147     4704     4291     3782     3326     3415 
    3838     3910     3850     4253     4887     5485     6473     7811 
    8808     9352     9748     9971     9940     9688     9186     8402 
    7283     5890     4550     3523     2725     1883      901       83 
    -280     -287      -99      342     1144     2173     3190     4179 
    5150     6041     6937     7858     8580     8926     8865     8464 
    7878     7241     6586     5864     4947     3990     3465     3345 
    3156     2959     3034     3114     3099     3473     4110     4284 
    4166     4272     4120     3426     2860     2628     2577     3073 
    4018     4689     5144     5980     7021     7624     7696     7507 
    7148     6654     6134     5660     5283     4973     4480     3711 
    3029     2770     2849     3138     3649     4185     4588     5144 
    5981     6843     7728     8673     9354     9606     9545     9157 
    8398     7425     6467     5541     4548     3750     3437     3327 
    3264     3578     4189     4588     4734     4815     4764     4685 
    4777     4711     4148     3406     2876     2451     2000     1858 
    2289     2886     3219     3435     3584     3535     3446     3349 
    3199     3245     3433     3429     3314     3408     3834     4340 
    4472     4330     4380     4536     4509     4449     4633     5143 
    5799     6386     7068     8095     9186     9813     9923     9877 
    9778     9548     9370     9309     9101     8718     8262     7723 
    7333     7207     6972     6546     6242     5964     5410     4698 
    4079     3585     3196     2975     2863     2712     2609     2759 
    3046     3411     4070     4866     5441     5849     6156     6359 
    6629     6778     6415     5683     4900     4082     3348     2849 
    2397     1925     1601     1274      750      276      124      194 
     291      463      851     1432     2131     2979     3931     4827 
    5598     6133     6258     6133     5967     5606     5017     4392 
    3678     3032     2862     2918     2755     2606     2633     2490 
    2207     2226     2511     2751     3048     3410     3451     3222 
    3132     3191     3323     3716     4356     4996     5605     6332 
    7119     7738     8181     8540     8626     8401     8244     8240 
    8129     7890     7646     7434     7076     6366     5617     5196 
    4834     4303     3915     3811     3694     3418     3198     3175 
    3218     3215     3249     3392     3547     3539     3234     2774 
    2477     2366     2300     2327     2523     2852     3110     3076 
    2971     3231     3879     4631     5341     5918     6258     6440 
    6635     6963     7418     7690     7514     7049     6408     5595 
