Origin Time       2025/01/13 21:19:00
Lat.              31.8
Long.             131.6
Depth. (km)       30
Mag.              6.9
Station Code      KOC009
Station Lat.      33.5736
Station Long.     133.1720
Station Height(m) 98
Record Time       2025/01/13 21:20:48
Sampling Freq(Hz) 100Hz
Duration Time(s)  60
Dir.              E-W
Scale Factor      7845(gal)/8223790
Max. Acc. (gal)   1.629
Last Correction   2025/01/13 21:20:49
Memo.             
[...]
    5587     5698     5922     6174     6354     6405     6351     6286 
    6299     6400     6601     6859     6990     6876     6612     6377 
    6309     6390     6505     6596     6656     6681     6696     6710 
    6697     6669     6681     6710     6644     6442     6218     6081 
    6066     6129     6149     6060     5925     5833     5840     5946 
    6069     6130     6145     6089     5944     5803     5778     5888 
    6092     6278     6373     6394     6397     6432     6513     6592 
    6582     6455     6286     6174     6119     6110     6168     6251 
    6309     6322     6289     6259     6228     6157     6111     6180 
    6303     6347     6274     6115     5922     5734     5591     5563 
    5688     5877     6043     6187     6295     6335     6308     6214 
    6066     5958     5980     6126     6345     6552     6662     6635 
    6475     6237     5991     5832     5864     6068     6285     6405 
    6404     6295     6134     6011     5989     6079     6226     6374 
    6493     6519     6431     6335     6323     6380     6471     6555 
    6586     6592     6575     6484     6353     6280     6261     6227 
    6151     6058     5958     5822     5705     5742     5953     6222 
    6394     6389     6269     6137     6042     6030     6100     6193 
    6273     6349     6394     6363     6257     6092     5892     5741 
    5721     5840     6034     6219     6318     6301     6211     6075 
    5921     5823     5840     5961     6156     6357     6480     6467 
    6303     6042     5819     5734     5817     6018     6208     6272 
    6204     6096     6035     6046     6123     6226     6277     6259 
    6253     6320     6466     6629     6712     6659     6457     6142 
    5856     5749     5838     6048     6273     6409     6436     6442 
    6462     6461     6426     6339     6201     6093     6092     6187 
    6326     6436     6467     6426     6299     6126     6060     6174 
    6363     6512     6567     6511     6373     6232     6153     6176 
    6285     6412     6507     6551     6539     6477     6386     6286 
    6177     6066     6012     6076     6269     6511     6655     6644 
    6552     6450     6354     6251     6124     5987     5868     5795 
    5790     5877     6092     6386     6598     6590     6393     6126 
    5896     5776     5790     5890     6034     6193     6323     6393 
    6380     6280     6172     6122     6099     6096     6134     6178 
    6203     6178     6068     5935     5894     5921     5968     6068 
    6200     6255     6200     6076     5921     5779     5676     5617 
    5587     5556     5555     5651     5800     5900     5923     5934 
    6002     6070     6026     5906     5840     5867     5952     6041 
    6092     6111     6110     6072     6007     5971     6010     6103 
    6181     6201     6158     6096     6035     5952     5868     5864 
    5983     6200     6424     6540     6517     6404     6268     6169 
    6133     6111     6045     5940     5852     5818     5829     5891 
    6006     6110     6123     6016     5832     5664     5595     5637 
    5775     5980     6165     6218     6112     5958     5854     5805 
    5814     5888     5992     6095     6164     6183     6214     6307 
    6384     6346     6226     6115     6073     6134     6312     6574 
    6829     6953     6874     6683     6523     6417     6326     6237 
    6178     6184     6258     6401     6583     6705     6651     6435 
    6235     6173     6207     6299     6446     6582     6620     6534 
    6374     6216     6112     6099     6168     6243     6270     6250 
    6237     6272     6312     6274     6160     6004     5834     5728 
    5757     5898     6079     6253     6390     6466     6459     6366 
    6227     6114     6073     6111     6218     6361     6457     6455 
    6399     6316     6180     6022     5940     5998     6165     6342 
    6458     6525     6593     6663     6687     6647     6582     6528 
    6465     6370     6285     6270     6323     6403     6470     6462 
    6324     6165     6162     6320     6513     6666     6774     6844 
    6855     6801     6709     6609     6532     6511     6538     6598 
    6647     6616     6524     6448     6423     6471     6581     6679 
    6728     6740     6764     6822     6849     6795     6687     6534 
    6353     6234     6237     6319     6407     6459     6469     6439 
    6373     6311     6303     6349     6401     6421     6401     6373 
    6367     6377     6385     6363     6281     6164     6092     6138 
    6331     6628     6876     6953     6878     6737     6623     6596 
    6662     6759     6818     6791     6659     6490     6404     6438 
    6561     6733     6862     6858     6754     6651     6578     6480 
    6349     6268     6270     6320     6358     6322     6227     6154 
    6112     6085     6088     6110     6127     6189     6312     6376 
    6280     6087     5940     5914     5992     6120     6265     6401 
    6481     6489     6473     6453     6405     6342     6292     6243 
    6189     6135     6108     6154     6273     6411     6504     6511 
    6431     6336     6282     6216     6083     5935     5852     5871 
    5969     6062     6129     6180     6177     6104     5995     5876 
    5786     5768     5813     5841     5792     5695     5645     5687 
    5778     5864     5906     5876     5791     5675     5562     5526 
    5628     5838     6061     6173     6129     6006     5913     5906 
    5975     6085     6183     6211     6189     6191     6212     6177 
    6061     5946     5910     5954     6058     6180     6272     6311 
    6289     6208     6107     6021     5967     5965     6021     6093 
    6157     6246     6392     6513     6501     6376     6254     6195 
    6160     6131     6135     6161     6165     6108     6025     5984 
    6029     6172     6386     6550     6562     6475     6401     6370 
    6346     6295     6220     6154     6102     6048     6043     6161 
    6372     6577     6689     6685     6624     6565     6496     6426 
    6388     6369     6343     6281     6160     6010     5896     5861 
    5923     6042     6137     6192     6243     6278     6286     6318 
    6405     6540     6712     6885     6976     6925     6740     6490 
    6251     6056     5919     5836     5780     5719     5625     5510 
    5445     5471     5594     5802     6003     6097     6093     6061 
    6043     6039     6012     5927     5823     5751     5709     5691 
    5699     5706     5729     5841     6035     6204     6266     6249 
    6193     6127     6079     6069     6127     6222     6265     6255 
    6268     6308     6369     6436     6427     6297     6118     5960 
    5877     5890     5948     6010     6073     6103     6068     5996 
    5941     5926     5931     5914     5864     5818     5796     5795 
    5837     5937     6057     6169     6255     6293     6295     6326 
    6443     6621     6775     6841     6813     6706     6563     6444 
    6399     6432     6497     6543     6552     6493     6330     6112 
    5937     5827     5771     5765     5788     5814     5867     5953 
    6039     6116     6174     6172     6134     6135     6174     6220 
    6284     6349     6336     6201     6011     5887     5887     5981 
    6110     6250     6390     6494     6569     6612     6583     6488 
    6378     6282     6218     6174     6112     6056     6053     6072 
    6069     6068     6070     6042     5972     5863     5721     5563 
    5408     5312     5320     5385     5460     5549     5611     5622 
    5610     5595     5589     5591     5564     5506     5482     5537 
    5656     5780     5871     5917     5913     5883     5837     5746 
    5617     5499     5420     5393     5408     5432     5467     5530 
    5641     5794     5940     6053     6180     6289     6268     6072 
    5803     5597     5510     5529     5626     5753     5848     5929 
    6033     6137     6232     6351     6474     6543     6528     6447 
    6357     6332     6397     6475     6517     6554     6575     6524 
    6407     6285     6210     6196     6235     6292     6323     6334 
    6361     6382     6343     6249     6150     6092     6091     6137 
    6210     6308     6428     6554     6671     6779     6891     7025 
    7144     7198     7191     7106     6916     6697     6547     6469 
    6463     6528     6567     6528     6458     6373     6266     6168 
    6116     6149     6261     6335     6273     6118     5973     5891 
    5892     5960     6064     6187     6286     6308     6247     6102 
    5895     5729     5695     5778     5892     5988     6066     6135 
    6176     6158     6073     5950     5856     5809     5800     5850 
    5968     6119     6269     6386     6430     6384     6274     6146 
    6043     5988     5965     5950     5960     6046     6214     6390 
    6536     6670     6782     6831     6798     6697     6596     6562 
    6589     6624     6631     6575     6469     6357     6272     6232 
    6257     6332     6436     6546     6600     6539     6419     6349 
    6335     6338     6367     6440     6496     6480     6420     6358 
    6292     6239     6224     6199     6123     6016     5930     5926 
    6023     6164     6272     6292     6216     6080     5930     5826 
    5782     5763     5753     5756     5746     5711     5679     5690 
    5736     5800     5865     5910     5971     6083     6193     6261 
    6280     6239     6161     6087     6039     6046     6134     6284 
    6404     6417     6328     6184     6034     5927     5899     5933 
    5958     5950     5954     5989     6008     6004     6046     6139 
    6201     6207     6231     6303     6370     6403     6435     6496 
    6558     6586     6570     6527     6501     6532     6606     6700 
    6798     6871     6902     6898     6852     6752     6627     6521 
    6457     6399     6331     6296     6330     6426     6548     6650 
    6716     6755     6741     6666     6561     6463     6378     6297 
    6224     6172     6110     6000     5860     5744     5665     5610 
    5586     5603     5630     5663     5730     5802     5846     5891 
    5968     6072     6174     6251     6299     6326     6362     6424 
    6484     6502     6474     6424     6373     6303     6195     6085 
    6037     6060     6102     6093     6012     5884     5772     5726 
    5749     5794     5800     5759     5715     5695     5672     5647 
    5643     5670     5722     5795     5871     5942     6039     6141 
    6177     6131     6043     5960     5922     5921     5926     5979 
    6096     6220     6326     6417     6471     6450     6384     6354 
    6392     6465     6546     6621     6702     6789     6844     6837 
    6775     6670     6554     6486     6492     6519     6517     6498 
    6470     6382     6227     6056     5929     5867     5830     5764 
    5661     5551     5448     5358     5293     5292     5350     5428 
    5479     5467     5416     5406     5464     5574     5713     5834 
    5906     5937     5942     5927     5938     6046     6259     6496 
    6640     6659     6598     6490     6358     6265     6276     6378 
    6488     6540     6542     6529     6538     6570     6625     6700 
    6783     6874     6982     7061     7052     7009     7032     7107 
    7153     7160     7175     7230     7321     7385     7395     7360 
    7271     7128     6990     6898     6832     6770     6716     6670 
    6602     6505     6420     6393     6413     6432     6438     6439 
    6438     6427     6392     6334     6280     6223     6164     6135 
    6150     6187     6242     6320     6417     6525     6593     6566 
    6458     6319     6157     5988     5873     5829     5826     5836 
    5822     5775     5694     5594     5528     5535     5621     5771 
    5944     6092     6161     6120     6023     5950     5922     5903 
    5875     5836     5783     5718     5651     5614     5638     5697 
    5753     5807     5861     5894     5891     5865     5827     5765 
    5678     5595     5530     5472     5432     5432     5447     5432 
    5386     5337     5324     5373     5464     5584     5729     5853 
    5927     5971     5983     5964     5948     5954     6008     6107 
    6195     6241     6259     6253     6212     6150     6091     6048 
    6030     6037     6068     6111     6168     6230     6293     6384 
    6492     6567     6604     6617     6609     6585     6596     6700 
    6898     7094     7186     7173     7106     7015     6922     6833 
    6752     6681     6613     6563     6552     6562     6556     6555 
    6569     6562     6515     6442     6376     6336     6312     6284 
    6245     6192     6129     6066     6018     6018     6088     6200 
    6322     6432     6508     6529     6508     6488     6494     6496 
    6462     6412     6380     6357     6318     6257     6181     6108 
    6062     6029     5971     5898     5849     5845     5881     5944 
    6011     6062     6061     5994     5914     5886     5930     6041 
    6189     6326     6409     6444     6451     6459     6512     6606 
    6709     6814     6901     6937     6922     6867     6779     6674 
    6575     6488     6423     6385     6336     6243     6116     5957 
    5772     5620     5556     5583     5641     5652     5566     5401 
    5213     5059     4985     4977     4969     4908     4773     4606 
    4495     4500     4615     4784     4949     5061     5098     5108 
    5157     5260     5394     5540     5688     5826     5923     5956 
    5958     5961     5957     5948     5946     5969     6031     6116 
    6189     6239     6264     6266     6277     6324     6408     6494 
    6563     6619     6671     6716     6762     6818     6878     6913 
    6916     6902     6886     6863     6822     6759     6687     6620 
    6551     6496     6470     6448     6392     6277     6116     5960 
    5857     5791     5729     5684     5665     5649     5632     5634 
    5675     5751     5859     6011     6172     6270     6299     6313 
    6361     6465     6601     6721     6813     6889     6940     6963 
    6947     6880     6790     6720     6693     6716     6764     6795 
    6795     6763     6689     6586     6501     6477     6523     6590 
    6602     6542     6459     6393     6327     6235     6142     6083 
    6064     6073     6085     6092     6100     6114     6149     6192 
    6181     6110     6039     6011     6015     6031     6031     6003 
    5962     5915     5864     5823     5813     5815     5815     5825 
    5869     5938     5996     6004     5960     5914     5891     5888 
    5911     5954     5994     5995     5960     5917     5873     5840 
    5861     5954     6069     6150     6164     6116     6052     5989 
    5915     5837     5810     5856     5941     6023     6083     6123 
    6169     6228     6273     6289     6289     6277     6259     6254 
    6273     6316     6378     6448     6511     6540     6520     6439 
    6299     6137     6003     5921     5883     5883     5903     5904 
    5886     5868     5845     5795     5728     5694     5728     5805 
    5886     5935     5945     5927     5902     5879     5890     5952 
    6046     6138     6191     6192     6184     6199     6238     6266 
    6247     6191     6147     6157     6216     6289     6346     6385 
    6401     6378     6304     6197     6126     6162     6328     6570 
    6805     6976     7044     7009     6955     6966     7055     7200 
    7384     7580     7749     7834     7808     7709     7604     7528 
    7477     7439     7425     7420     7395     7339     7269     7198 
    7113     6986     6814     6627     6443     6274     6162     6108 
    6069     6016     5954     5879     5786     5694     5649     5663 
    5705     5729     5701     5621     5533     5472     5448     5467 
    5521     5594     5668     5724     5760     5798     5842     5887 
    5903     5876     5844     5846     5879     5938     6022     6100 
    6151     6177     6180     6168     6147     6126     6112     6083 
    6012     5938     5890     5854     5833     5827     5806     5761 
    5710     5665     5641     5629     5632     5672     5746     5813 
    5863     5926     6006     6081     6147     6203     6245     6268 
    6265     6254     6251     6265     6299     6339     6366     6369 
    6354     6340     6340     6350     6358     6347     6328     6319 
    6304     6257     6189     6139     6130     6153     6169     6149 
    6119     6108     6099     6073     6060     6070     6088     6100 
    6108     6131     6172     6189     6162     6114     6053     5989 
    5960     5985     6027     6031     5980     5908     5844     5798 
    5783     5802     5825     5819     5783     5737     5691     5659 
    5645     5634     5618     5595     5547     5466     5378     5325 
    5309     5302     5287     5269     5256     5266     5306     5379 
    5479     5598     5719     5823     5881     5888     5868     5859 
    5886     5942     6003     6057     6119     6196     6272     6320 
    6359     6408     6475     6559     6625     6647     6619     6574 
    6546     6540     6562     6600     6624     6627     6617     6609 
    6628     6690     6760     6798     6787     6717     6600     6477 
    6377     6308     6269     6249     6224     6184     6141     6100 
    6070     6068     6083     6068     6014     5948     5903     5906 
    5954     6021     6072     6085     6070     6054     6049     6054 
    6064     6087     6120     6158     6193     6238     6308     6399 
    6475     6531     6570     6597     6632     6696     6763     6813 
    6843     6841     6836     6871     6937     7005     7072     7136 
    7168     7164     7133     7088     7048     7010     6959     6903 
    6864     6832     6804     6806     6831     6837     6824     6813 
    6817     6835     6836     6801     6729     6633     6528     6443 
    6397     6370     6336     6300     6251     6173     6085     6021 
    5968     5913     5857     5802     5760     5746     5760     5783 
    5798     5780     5730     5672     5640     5655     5707     5767 
    5802     5809     5810     5822     5842     5869     5911     5971 
    6049     6139     6207     6243     6288     6351     6380     6343 
    6285     6259     6289     6359     6431     6478     6504     6493 
    6435     6357     6282     6235     6234     6251     6237     6183 
    6118     6076     6065     6072     6065     6035     5987     5927 
    5888     5886     5876     5834     5783     5742     5711     5692 
    5686     5682     5680     5675     5652     5621     5609     5624 
    5667     5726     5773     5798     5815     5853     5917     5979 
    6014     6025     6022     6010     5964     5887     5841     5864 
    5926     6004     6104     6210     6286     6324     6336     6330 
    6301     6269     6269     6327     6428     6544     6655     6735 
    6767     6756     6750     6775     6817     6853     6864     6840 
    6794     6755     6756     6802     6852     6871     6856     6817 
    6762     6689     6617     6571     6562     6574     6585     6558 
    6489     6417     6372     6345     6311     6254     6195     6162 
