Origin Time       2025/01/13 21:19:00
Lat.              31.8
Long.             131.6
Depth. (km)       30
Mag.              6.9
Station Code      KOC007
Station Lat.      33.5612
Station Long.     133.5273
Station Height(m) 3
Record Time       2025/01/13 21:20:34
Sampling Freq(Hz) 100Hz
Duration Time(s)  107
Dir.              U-D
Scale Factor      7845(gal)/8223790
Max. Acc. (gal)   0.870
Last Correction   2025/01/13 21:20:34
Memo.             
[...]
   -7479    -7488    -7496    -7522    -7577    -7651    -7726    -7789 
   -7842    -7870    -7874    -7873    -7886    -7912    -7921    -7902 
   -7866    -7821    -7769    -7712    -7659    -7609    -7550    -7485 
   -7431    -7389    -7360    -7342    -7329    -7310    -7283    -7246 
   -7211    -7195    -7202    -7200    -7179    -7160    -7140    -7107 
   -7080    -7079    -7102    -7156    -7236    -7319    -7399    -7473 
   -7530    -7565    -7577    -7562    -7523    -7473    -7412    -7341 
   -7265    -7187    -7101    -7036    -7003    -6971    -6932    -6895 
   -6868    -6862    -6867    -6878    -6902    -6951    -7020    -7099 
   -7176    -7240    -7290    -7352    -7430    -7512    -7597    -7685 
   -7770    -7835    -7866    -7852    -7808    -7754    -7712    -7689 
   -7670    -7638    -7600    -7564    -7541    -7531    -7533    -7558 
   -7615    -7676    -7715    -7726    -7705    -7668    -7641    -7635 
   -7646    -7663    -7665    -7650    -7639    -7632    -7616    -7599 
   -7578    -7547    -7506    -7454    -7412    -7398    -7402    -7410 
   -7423    -7435    -7429    -7412    -7408    -7418    -7438    -7470 
   -7514    -7562    -7612    -7658    -7701    -7747    -7796    -7846 
   -7892    -7935    -7971    -8002    -8014    -7992    -7946    -7893 
   -7838    -7773    -7695    -7615    -7546    -7487    -7439    -7422 
   -7425    -7420    -7404    -7384    -7358    -7329    -7304    -7288 
   -7272    -7254    -7248    -7264    -7315    -7395    -7476    -7538 
   -7596    -7663    -7738    -7812    -7881    -7939    -7985    -8027 
   -8060    -8073    -8060    -8029    -7975    -7901    -7797    -7661 
   -7510    -7372    -7256    -7171    -7111    -7079    -7075    -7084 
   -7101    -7126    -7155    -7188    -7237    -7285    -7325    -7352 
   -7368    -7391    -7430    -7479    -7526    -7570    -7615    -7661 
   -7715    -7770    -7813    -7840    -7852    -7863    -7870    -7858 
   -7819    -7751    -7662    -7557    -7453    -7375    -7319    -7258 
   -7184    -7105    -7014    -6916    -6826    -6758    -6717    -6704 
   -6706    -6727    -6760    -6816    -6906    -7025    -7149    -7253 
   -7338    -7423    -7514    -7600    -7669    -7722    -7755    -7755 
   -7746    -7754    -7765    -7762    -7750    -7730    -7685    -7626 
   -7581    -7553    -7553    -7576    -7584    -7568    -7551    -7545 
   -7542    -7543    -7537    -7526    -7530    -7535    -7541    -7561 
   -7582    -7588    -7589    -7607    -7638    -7662    -7685    -7728 
   -7784    -7832    -7888    -7947    -7990    -8012    -8009    -7977 
   -7932    -7896    -7851    -7769    -7670    -7587    -7508    -7414 
   -7318    -7227    -7142    -7082    -7047    -7022    -7017    -7024 
   -7041    -7074    -7119    -7182    -7250    -7306    -7346    -7389 
   -7441    -7485    -7522    -7543    -7550    -7550    -7537    -7510 
   -7483    -7452    -7415    -7381    -7353    -7339    -7342    -7361 
   -7398    -7431    -7449    -7452    -7442    -7433    -7435    -7443 
   -7453    -7468    -7483    -7491    -7497    -7514    -7530    -7545 
   -7568    -7603    -7654    -7717    -7786    -7854    -7912    -7959 
   -7994    -8008    -8004    -7989    -7963    -7933    -7913    -7884 
   -7825    -7736    -7620    -7489    -7368    -7263    -7172    -7096 
   -7033    -6972    -6910    -6853    -6806    -6775    -6781    -6826 
   -6894    -6979    -7075    -7163    -7249    -7348    -7435    -7496 
   -7554    -7615    -7658    -7682    -7692    -7684    -7669    -7665 
   -7663    -7662    -7663    -7659    -7672    -7719    -7786    -7854 
   -7901    -7929    -7955    -7986    -8009    -8000    -7970    -7939 
   -7892    -7824    -7755    -7695    -7646    -7601    -7546    -7491 
   -7454    -7443    -7462    -7503    -7546    -7604    -7673    -7749 
   -7825    -7889    -7940    -7992    -8029    -8037    -8010    -7956 
   -7900    -7825    -7731    -7639    -7566    -7507    -7457    -7423 
   -7414    -7435    -7492    -7576    -7682    -7796    -7893    -8001 
   -8135    -8259    -8353    -8405    -8391    -8330    -8248    -8141 
   -8012    -7890    -7789    -7695    -7591    -7481    -7373    -7283 
   -7221    -7184    -7152    -7125    -7115    -7119    -7122    -7109 
   -7072    -7029    -6991    -6955    -6907    -6849    -6779    -6710 
   -6660    -6633    -6633    -6663    -6701    -6744    -6806    -6897 
   -6993    -7080    -7167    -7237    -7281    -7310    -7321    -7325 
   -7330    -7337    -7345    -7335    -7300    -7260    -7218    -7167 
   -7125    -7110    -7119    -7159    -7229    -7304    -7353    -7379 
   -7393    -7404    -7411    -7423    -7430    -7408    -7356    -7279 
   -7183    -7091    -7025    -7001    -7034    -7111    -7199    -7295 
   -7404    -7537    -7688    -7847    -8000    -8133    -8243    -8328 
   -8378    -8391    -8383    -8356    -8320    -8275    -8208    -8105 
   -7986    -7862    -7727    -7593    -7472    -7356    -7267    -7217 
   -7173    -7130    -7091    -7052    -7032    -7044    -7061    -7065 
   -7063    -7059    -7057    -7071    -7091    -7110    -7133    -7161 
   -7194    -7236    -7295    -7365    -7433    -7488    -7538    -7580 
   -7605    -7622    -7631    -7638    -7649    -7676    -7717    -7765 
   -7792    -7792    -7776    -7763    -7749    -7724    -7701    -7682 
   -7658    -7628    -7588    -7546    -7522    -7503    -7473    -7433 
   -7383    -7323    -7267    -7209    -7148    -7094    -7064    -7056 
   -7060    -7080    -7115    -7167    -7223    -7268    -7299    -7333 
   -7353    -7352    -7352    -7358    -7352    -7335    -7331    -7333 
   -7333    -7353    -7389    -7419    -7447    -7474    -7503    -7551 
   -7601    -7631    -7646    -7663    -7693    -7731    -7766    -7788 
   -7797    -7796    -7785    -7774    -7777    -7785    -7790    -7805 
   -7821    -7824    -7824    -7832    -7842    -7858    -7873    -7863 
   -7831    -7778    -7701    -7614    -7531    -7460    -7393    -7342 
   -7312    -7298    -7288    -7295    -7330    -7389    -7472    -7576 
   -7688    -7807    -7929    -8036    -8116    -8176    -8221    -8256 
   -8291    -8324    -8329    -8283    -8197    -8086    -7960    -7832 
   -7701    -7566    -7441    -7331    -7227    -7137    -7057    -6993 
   -6956    -6953    -6974    -7009    -7045    -7068    -7080    -7080 
   -7061    -7056    -7084    -7121    -7156    -7194    -7211    -7221 
   -7234    -7241    -7238    -7230    -7217    -7207    -7204    -7200 
   -7191    -7183    -7172    -7160    -7152    -7136    -7107    -7080 
   -7053    -7017    -6997    -7003    -7030    -7075    -7132    -7187 
   -7241    -7295    -7349    -7392    -7419    -7445    -7468    -7480 
   -7500    -7534    -7562    -7589    -7630    -7684    -7739    -7792 
   -7846    -7896    -7928    -7956    -7994    -8037    -8077    -8108 
   -8132    -8133    -8104    -8073    -8041    -8002    -7963    -7923 
   -7871    -7819    -7769    -7705    -7616    -7518    -7429    -7361 
   -7302    -7230    -7146    -7063    -6988    -6933    -6903    -6895 
   -6905    -6916    -6921    -6926    -6937    -6949    -6966    -6993 
   -7028    -7068    -7117    -7168    -7214    -7271    -7342    -7414 
   -7480    -7542    -7580    -7593    -7618    -7663    -7722    -7780 
   -7820    -7851    -7892    -7928    -7940    -7928    -7890    -7842 
   -7792    -7753    -7723    -7685    -7627    -7550    -7457    -7353 
   -7263    -7190    -7130    -7090    -7076    -7083    -7101    -7142 
   -7221    -7311    -7406    -7510    -7611    -7697    -7767    -7820 
   -7842    -7823    -7774    -7711    -7636    -7555    -7473    -7395 
   -7329    -7285    -7275    -7287    -7317    -7369    -7439    -7514 
   -7592    -7665    -7723    -7781    -7839    -7886    -7925    -7962 
   -7983    -7997    -8012    -8014    -8008    -8005    -7996    -7977 
   -7947    -7900    -7843    -7785    -7727    -7674    -7626    -7565 
   -7500    -7464    -7456    -7472    -7523    -7577    -7605    -7631 
   -7662    -7684    -7695    -7696    -7682    -7663    -7646    -7631 
   -7620    -7605    -7587    -7570    -7557    -7551    -7554    -7553 
   -7550    -7550    -7549    -7550    -7561    -7584    -7623    -7673 
   -7727    -7786    -7840    -7889    -7931    -7962    -7987    -8005 
   -8020    -8040    -8058    -8068    -8074    -8060    -8025    -7971 
   -7912    -7852    -7790    -7724    -7651    -7577    -7506    -7416 
   -7308    -7200    -7107    -7038    -6987    -6941    -6898    -6864 
   -6845    -6831    -6805    -6771    -6744    -6731    -6725    -6723 
   -6717    -6714    -6727    -6747    -6762    -6779    -6814    -6849 
   -6887    -6943    -7014    -7095    -7169    -7238    -7310    -7375 
   -7433    -7489    -7541    -7584    -7600    -7588    -7565    -7539 
   -7510    -7487    -7473    -7465    -7462    -7461    -7452    -7435 
   -7431    -7443    -7469    -7516    -7573    -7623    -7678    -7739 
   -7790    -7832    -7869    -7900    -7928    -7954    -7978    -7998 
   -8017    -8027    -8016    -7973    -7904    -7821    -7734    -7643 
   -7564    -7492    -7418    -7338    -7258    -7187    -7129    -7090 
   -7071    -7069    -7083    -7109    -7150    -7198    -7248    -7307 
   -7362    -7406    -7445    -7472    -7493    -7524    -7562    -7603 
   -7654    -7719    -7790    -7850    -7889    -7916    -7939    -7959 
   -7982    -8010    -8054    -8105    -8152    -8171    -8155    -8124 
   -8095    -8066    -8017    -7955    -7896    -7832    -7762    -7701 
   -7646    -7596    -7562    -7539    -7526    -7527    -7543    -7564 
   -7589    -7618    -7638    -7647    -7650    -7638    -7609    -7574 
   -7530    -7481    -7435    -7393    -7349    -7303    -7260    -7227 
   -7211    -7215    -7248    -7304    -7381    -7476    -7576    -7665 
   -7750    -7839    -7932    -8023    -8097    -8148    -8181    -8198 
   -8209    -8203    -8182    -8151    -8121    -8093    -8070    -8050 
   -8027    -8000    -7967    -7935    -7896    -7844    -7785    -7719 
   -7643    -7558    -7461    -7348    -7233    -7123    -7018    -6921 
   -6845    -6794    -6766    -6758    -6759    -6766    -6793    -6839 
   -6890    -6945    -6997    -7034    -7063    -7079    -7080    -7072 
   -7056    -7042    -7037    -7032    -7018    -7009    -7003    -7001 
   -7001    -6991    -6968    -6952    -6957    -6987    -7044    -7111 
   -7179    -7252    -7335    -7426    -7519    -7622    -7732    -7846 
   -7955    -8043    -8105    -8129    -8112    -8075    -8039    -7996 
   -7959    -7927    -7882    -7828    -7773    -7727    -7704    -7693 
   -7689    -7701    -7726    -7761    -7820    -7886    -7946    -8001 
   -8047    -8078    -8101    -8113    -8116    -8105    -8081    -8033 
   -7959    -7866    -7770    -7681    -7601    -7528    -7461    -7406 
   -7371    -7357    -7358    -7366    -7373    -7373    -7373    -7387 
   -7404    -7402    -7372    -7325    -7260    -7183    -7105    -7024 
   -6940    -6866    -6804    -6756    -6731    -6723    -6720    -6723 
   -6737    -6767    -6812    -6875    -6944    -7010    -7060    -7086 
   -7088    -7078    -7061    -7047    -7042    -7057    -7082    -7101 
   -7115    -7134    -7156    -7179    -7207    -7237    -7260    -7284 
   -7317    -7344    -7369    -7403    -7441    -7496    -7573    -7655 
   -7736    -7817    -7889    -7947    -7996    -8027    -8046    -8056 
   -8070    -8082    -8082    -8071    -8054    -8029    -8010    -7996 
   -7986    -7986    -7979    -7956    -7928    -7902    -7885    -7870 
   -7852    -7840    -7832    -7823    -7813    -7805    -7797    -7789 
   -7784    -7788    -7800    -7803    -7792    -7778    -7773    -7774 
   -7792    -7809    -7807    -7786    -7758    -7723    -7678    -7628 
   -7577    -7522    -7454    -7375    -7294    -7229    -7173    -7117 
   -7068    -7032    -7005    -6986    -6975    -6970    -6964    -6949 
   -6933    -6928    -6933    -6947    -6960    -6976    -7003    -7041 
   -7087    -7136    -7175    -7210    -7248    -7280    -7311    -7349 
   -7389    -7438    -7491    -7538    -7582    -7623    -7666    -7728 
   -7800    -7866    -7932    -7997    -8047    -8086    -8121    -8148 
   -8166    -8183    -8191    -8171    -8118    -8043    -7967    -7894 
   -7824    -7751    -7677    -7607    -7549    -7499    -7456    -7415 
   -7373    -7331    -7288    -7250    -7213    -7173    -7141    -7121 
   -7102    -7080    -7053    -7025    -7003    -7003    -7026    -7064 
   -7114    -7175    -7244    -7312    -7389    -7472    -7550    -7620 
   -7684    -7734    -7767    -7778    -7770    -7743    -7703    -7661 
   -7626    -7591    -7557    -7523    -7501    -7495    -7499    -7516 
   -7538    -7550    -7549    -7539    -7530    -7514    -7481    -7445 
   -7407    -7357    -7300    -7242    -7184    -7136    -7110    -7103 
   -7103    -7103    -7098    -7094    -7098    -7115    -7148    -7186 
   -7221    -7252    -7285    -7325    -7368    -7415    -7457    -7489 
   -7527    -7573    -7619    -7654    -7677    -7693    -7708    -7735 
   -7774    -7811    -7831    -7836    -7832    -7825    -7813    -7792 
   -7767    -7742    -7722    -7713    -7700    -7673    -7646    -7632 
   -7630    -7638    -7657    -7678    -7701    -7731    -7753    -7765 
   -7770    -7766    -7758    -7744    -7715    -7665    -7608    -7543 
   -7452    -7338    -7225    -7113    -6998    -6895    -6810    -6731 
   -6660    -6610    -6588    -6592    -6615    -6652    -6702    -6756 
   -6813    -6872    -6932    -6990    -7042    -7087    -7114    -7121 
   -7111    -7092    -7074    -7064    -7063    -7068    -7086    -7114 
   -7141    -7157    -7175    -7196    -7218    -7246    -7280    -7317 
   -7361    -7408    -7454    -7496    -7533    -7565    -7605    -7658 
   -7715    -7769    -7816    -7854    -7890    -7927    -7973    -8032 
   -8089    -8131    -8162    -8178    -8183    -8194    -8208    -8225 
   -8239    -8240    -8232    -8224    -8222    -8235    -8255    -8282 
   -8313    -8338    -8359    -8375    -8382    -8387    -8388    -8388 
   -8391    -8392    -8384    -8375    -8361    -8330    -8284    -8236 
   -8190    -8147    -8117    -8087    -8060    -8050    -8043    -8028 
   -8019    -8013    -7994    -7958    -7908    -7850    -7793    -7740 
   -7677    -7599    -7515    -7426    -7333    -7240    -7148    -7060 
   -6979    -6907    -6848    -6805    -6779    -6770    -6777    -6799 
   -6825    -6858    -6902    -6948    -6995    -7053    -7113    -7161 
   -7209    -7260    -7304    -7350    -7406    -7458    -7500    -7538 
   -7569    -7589    -7609    -7636    -7651    -7653    -7651    -7641 
   -7612    -7582    -7553    -7516    -7476    -7439    -7407    -7376 
   -7348    -7327    -7314    -7306    -7302    -7303    -7300    -7291 
   -7276    -7250    -7206    -7142    -7071    -6994    -6921    -6856 
   -6794    -6736    -6689    -6656    -6648    -6664    -6704    -6770 
   -6847    -6924    -7005    -7082    -7155    -7236    -7322    -7400 
   -7466    -7512    -7528    -7523    -7514    -7511    -7514    -7524 
   -7543    -7568    -7593    -7620    -7650    -7682    -7716    -7746 
   -7770    -7789    -7805    -7817    -7821    -7817    -7803    -7780 
   -7757    -7736    -7715    -7680    -7627    -7573    -7526    -7481 
   -7445    -7427    -7420    -7412    -7408    -7408    -7408    -7412 
   -7426    -7447    -7469    -7491    -7515    -7539    -7562    -7584 
   -7600    -7614    -7627    -7639    -7645    -7635    -7608    -7570 
   -7524    -7481    -7450    -7427    -7410    -7403    -7400    -7395 
   -7389    -7392    -7406    -7433    -7464    -7492    -7516    -7531 
   -7537    -7546    -7573    -7607    -7639    -7658    -7654    -7647 
   -7658    -7676    -7688    -7696    -7696    -7688    -7674    -7666 
   -7658    -7657    -7672    -7696    -7717    -7728    -7738    -7755 
   -7781    -7812    -7840    -7865    -7889    -7909    -7924    -7939 
   -7948    -7947    -7932    -7905    -7866    -7819    -7770    -7738 
   -7722    -7711    -7697    -7680    -7655    -7626    -7604    -7593 
   -7580    -7554    -7514    -7465    -7418    -7375    -7327    -7272 
   -7214    -7155    -7098    -7053    -7026    -7014    -7018    -7034 
   -7061    -7096    -7136    -7180    -7227    -7263    -7290    -7310 
   -7315    -7303    -7271    -7221    -7163    -7103    -7041    -6980 
   -6924    -6878    -6853    -6849    -6866    -6901    -6959    -7041 
   -7134    -7223    -7308    -7392    -7476    -7558    -7632    -7690 
   -7727    -7744    -7758    -7778    -7800    -7823    -7848    -7879 
   -7913    -7943    -7956    -7955    -7943    -7920    -7894    -7878 
   -7873    -7865    -7854    -7838    -7812    -7789    -7781    -7781 
   -7781    -7778    -7765    -7751    -7749    -7749    -7750    -7754 
   -7755    -7746    -7723    -7686    -7658    -7642    -7630    -7622 
   -7615    -7607    -7597    -7588    -7578    -7577    -7587    -7595 
   -7595    -7591    -7576    -7543    -7499    -7452    -7410    -7361 
   -7303    -7237    -7163    -7088    -7026    -6990    -6976    -6967 
   -6959    -6957    -6949    -6944    -6955    -6968    -6976    -6983 
   -6987    -6991    -6994    -6990    -6986    -6983    -6983    -6994 
   -7009    -7025    -7055    -7105    -7167    -7229    -7283    -7325 
   -7358    -7392    -7422    -7441    -7450    -7454    -7454    -7453 
   -7446    -7433    -7416    -7406    -7410    -7430    -7457    -7488 
   -7528    -7580    -7632    -7680    -7723    -7766    -7812    -7851 
   -7866    -7862    -7844    -7812    -7777    -7746    -7712    -7681 
   -7654    -7614    -7565    -7520    -7479    -7441    -7407    -7375 
   -7338    -7298    -7248    -7196    -7148    -7105    -7069    -7044 
   -7026    -7018    -7015    -7017    -7026    -7037    -7045    -7052 
   -7051    -7042    -7034    -7028    -7015    -7003    -6990    -6976 
   -6964    -6961    -6971    -6988    -7014    -7047    -7087    -7133 
   -7177    -7221    -7268    -7312    -7350    -7383    -7404    -7422 
   -7438    -7446    -7445    -7438    -7427    -7412    -7399    -7395 
   -7403    -7415    -7437    -7469    -7501    -7530    -7562    -7596 
   -7623    -7645    -7657    -7657    -7650    -7641    -7642    -7654 
   -7670    -7686    -7699    -7715    -7744    -7771    -7788    -7801 
   -7808    -7811    -7816    -7828    -7842    -7861    -7882    -7897 
   -7908    -7917    -7927    -7938    -7948    -7955    -7959    -7954 
   -7940    -7920    -7890    -7855    -7823    -7790    -7762    -7735 
   -7705    -7680    -7657    -7628    -7593    -7558    -7523    -7487 
   -7452    -7414    -7377    -7352    -7337    -7329    -7327    -7334 
   -7346    -7353    -7360    -7369    -7377    -7381    -7387    -7393 
   -7403    -7415    -7431    -7454    -7479    -7499    -7516    -7527 
   -7527    -7520    -7510    -7499    -7488    -7487    -7491    -7491 
   -7483    -7468    -7443    -7414    -7384    -7358    -7333    -7306 
   -7287    -7283    -7283    -7284    -7285    -7284    -7294    -7312 
   -7330    -7337    -7342    -7348    -7361    -7388    -7422    -7449 
   -7469    -7485    -7503    -7523    -7547    -7572    -7582    -7591 
   -7601    -7607    -7608    -7619    -7632    -7641    -7642    -7636 
