Origin Time       2025/01/13 21:19:00
Lat.              31.8
Long.             131.6
Depth. (km)       30
Mag.              6.9
Station Code      KOC002
Station Lat.      33.2946
Station Long.     134.1666
Station Height(m) 19
Record Time       2025/01/13 21:20:47
Sampling Freq(Hz) 100Hz
Duration Time(s)  82
Dir.              E-W
Scale Factor      7845(gal)/8223790
Max. Acc. (gal)   2.742
Last Correction   2025/01/13 21:20:46
Memo.             
[...]
   26211    26250    26289    26325    26385    26473    26546    26561 
   26531    26504    26505    26522    26523    26492    26427    26343 
   26271    26212    26161    26109    26060    26017    25978    25971 
   26013    26076    26130    26183    26253    26330    26380    26395 
   26385    26364    26362    26387    26418    26462    26528    26593 
   26653    26689    26671    26622    26584    26563    26554    26531 
   26464    26360    26252    26173    26136    26107    26053    25959 
   25867    25855    25913    25976    26034    26102    26188    26288 
   26369    26414    26418    26401    26391    26387    26384    26384 
   26396    26426    26443    26403    26314    26225    26164    26140 
   26149    26171    26184    26198    26222    26256    26295    26322 
   26303    26266    26256    26283    26354    26447    26531    26603 
   26655    26670    26661    26644    26634    26640    26659    26654 
   26609    26574    26593    26635    26630    26547    26393    26203 
   26056    25998    26005    26026    26014    25983    25965    25942 
   25909    25886    25867    25871    25918    25983    26046    26110 
   26164    26218    26277    26330    26389    26449    26472    26462 
   26449    26461    26500    26543    26582    26622    26647    26643 
   26590    26514    26458    26435    26442    26472    26500    26527 
   26561    26589    26584    26541    26493    26469    26473    26496 
   26509    26488    26442    26393    26325    26226    26109    25995 
   25924    25893    25864    25859    25914    25992    26060    26110 
   26122    26096    26073    26086    26125    26145    26148    26196 
   26302    26397    26469    26542    26613    26681    26736    26757 
   26717    26642    26588    26566    26543    26515    26470    26406 
   26350    26312    26281    26260    26235    26231    26262    26272 
   26222    26131    26017    25899    25802    25741    25737    25771 
   25816    25886    25963    26011    26072    26180    26293    26385 
   26460    26524    26581    26627    26688    26777    26847    26856 
   26842    26827    26805    26765    26690    26609    26557    26528 
   26509    26476    26404    26335    26272    26160    26026    25928 
   25867    25853    25893    25961    26045    26130    26192    26237 
   26289    26331    26343    26335    26314    26302    26319    26354 
   26388    26406    26395    26411    26478    26518    26505    26473 
   26415    26350    26311    26283    26266    26298    26365    26433 
   26472    26465    26420    26383    26384    26407    26446    26509 
   26580    26632    26649    26640    26627    26585    26527    26491 
   26469    26441    26424    26431    26438    26430    26407    26369 
   26323    26276    26238    26218    26212    26196    26145    26071 
   25986    25903    25859    25874    25918    25961    25996    26030 
   26079    26136    26154    26140    26144    26192    26256    26299 
   26318    26356    26441    26539    26622    26680    26721    26754 
   26771    26770    26744    26694    26642    26611    26619    26635 
   26605    26554    26522    26482    26428    26374    26300    26183 
   26059    25961    25875    25801    25763    25748    25740    25760 
   25810    25868    25924    25971    25996    26022    26064    26125 
   26215    26333    26453    26566    26665    26743    26778    26779 
   26781    26777    26779    26805    26815    26792    26738    26624 
   26473    26346    26252    26180    26133    26122    26136    26154 
   26160    26141    26109    26103    26137    26156    26123    26088 
   26099    26156    26235    26295    26333    26368    26381    26368 
   26353    26364    26414    26488    26561    26636    26693    26686 
   26624    26534    26446    26406    26399    26365    26308    26245 
   26184    26167    26183    26185    26192    26214    26214    26198 
   26188    26199    26235    26287    26316    26323    26312    26268 
   26218    26200    26212    26261    26350    26443    26516    26565 
   26570    26541    26512    26505    26499    26480    26455    26427 
   26385    26334    26266    26172    26071    26003    25986    25990 
   25990    25984    25990    26010    26049    26110    26175    26218 
   26227    26229    26258    26318    26395    26484    26551    26573 
   26576    26570    26543    26503    26446    26384    26364    26400 
   26441    26460    26462    26449    26412    26354    26279    26211 
   26168    26152    26144    26137    26131    26110    26065    26038 
   26038    26009    25952    25913    25897    25902    25926    25965 
   26017    26077    26131    26167    26214    26291    26379    26457 
   26495    26507    26542    26590    26628    26657    26694    26757 
   26806    26796    26738    26678    26639    26609    26572    26516 
   26442    26360    26276    26184    26092    26025    26014    26041 
   26048    26014    25960    25944    25978    25994    25999    26049 
   26107    26146    26196    26244    26272    26288    26284    26269 
   26262    26268    26280    26307    26352    26416    26508    26603 
   26651    26651    26638    26617    26581    26526    26454    26397 
   26384    26401    26420    26423    26396    26366    26368    26395 
   26430    26470    26496    26503    26495    26470    26424    26339 
   26235    26180    26195    26261    26329    26349    26341    26346 
   26353    26329    26266    26203    26190    26233    26260    26246 
   26238    26250    26273    26299    26300    26287    26280    26261 
   26214    26163    26141    26161    26204    26254    26287    26285 
   26264    26227    26168    26099    26063    26071    26100    26164 
   26269    26381    26472    26555    26617    26638    26626    26590 
   26555    26562    26600    26619    26628    26654    26654    26592 
   26518    26496    26516    26527    26504    26443    26354    26252 
   26154    26063    25978    25925    25933    26022    26152    26256 
   26337    26414    26473    26528    26599    26643    26623    26555 
   26477    26410    26393    26427    26460    26485    26532    26558 
   26532    26478    26410    26339    26287    26230    26149    26064 
   25991    25938    25909    25884    25852    25818    25795    25806 
   25852    25921    25991    26022    26007    25999    26029    26072 
   26118    26180    26241    26296    26357    26410    26447    26481 
   26511    26555    26615    26642    26630    26628    26653    26676 
   26692    26720    26743    26712    26619    26507    26412    26338 
   26275    26219    26165    26095    26026    25996    26003    26036 
   26127    26269    26396    26472    26511    26526    26512    26472 
   26420    26384    26379    26379    26337    26250    26146    26057 
   25999    25988    26032    26123    26246    26362    26430    26442 
   26422    26366    26258    26110    25971    25874    25825    25832 
   25897    26003    26115    26203    26260    26315    26424    26592 
   26775    26936    27048    27125    27190    27214    27163    27071 
   27010    26975    26921    26839    26752    26690    26662    26624 
   26554    26473    26381    26268    26137    25999    25880    25807 
   25783    25798    25824    25799    25695    25567    25475    25458 
   25546    25732    25965    26195    26415    26635    26829    26970 
   27066    27125    27139    27120    27059    26937    26815    26732 
   26655    26573    26455    26254    26032    25867    25774    25770 
   25834    25915    25994    26028    25995    25960    25984    26080 
   26215    26327    26381    26387    26361    26347    26393    26489 
   26582    26643    26670    26647    26566    26476    26437    26469 
   26570    26697    26779    26789    26717    26572    26442    26419 
   26484    26582    26697    26808    26854    26812    26723    26609 
   26458    26295    26158    26046    25956    25894    25893    25948 
   25980    25947    25875    25785    25697    25664    25731    25887 
   26107    26346    26582    26765    26821    26773    26712    26676 
   26677    26717    26777    26829    26855    26846    26832    26829 
   26804    26724    26595    26428    26237    26056    25942    25914 
   25944    25978    25992    25976    25940    25948    26015    26044 
   25979    25883    25833    25876    26028    26249    26488    26692 
   26821    26913    27031    27145    27220    27282    27324    27309 
   27230    27049    26747    26372    25976    25631    25401    25285 
   25249    25286    25404    25593    25793    25947    26061    26160 
   26257    26352    26406    26400    26393    26434    26524    26638 
   26736    26765    26712    26662    26713    26866    27017    27097 
   27132    27136    27043    26832    26566    26281    26001    25776 
   25637    25590    25632    25726    25834    25949    26106    26335 
   26580    26755    26867    26929    26914    26801    26574    26269 
   26006    25868    25837    25857    25882    25890    25875    25840 
   25805    25813    25928    26183    26515    26813    26968    26910 
   26686    26431    26234    26126    26129    26214    26339    26480 
   26586    26630    26611    26532    26401    26234    26067    25951 
   25894    25876    25911    26003    26103    26154    26142    26115 
   26149    26264    26476    26789    27124    27396    27544    27495 
   27272    26993    26735    26551    26472    26442    26391    26312 
   26219    26131    26090    26126    26219    26277    26246    26140 
   25963    25753    25583    25497    25525    25668    25878    26110 
   26310    26446    26534    26603    26689    26824    26987    27129 
   27195    27133    26956    26757    26608    26518    26470    26464 
   26489    26507    26446    26260    25983    25683    25435    25307 
   25296    25343    25458    25650    25845    25984    26052    26055 
   26034    26046    26119    26264    26435    26597    26767    26920 
   26982    26946    26858    26748    26647    26593    26611    26689 
   26765    26784    26743    26622    26410    26146    25888    25687 
   25613    25713    25930    26173    26399    26586    26705    26736 
   26694    26646    26646    26696    26762    26813    26820    26738 
   26563    26331    26060    25798    25618    25546    25547    25548 
   25482    25385    25336    25331    25357    25492    25790    26180 
   26550    26825    26966    26986    26927    26848    26851    26991 
   27220    27441    27556    27471    27190    26833    26530    26320 
   26218    26219    26254    26217    26079    25914    25821    25834 
   25952    26141    26333    26488    26619    26698    26711    26670 
   26532    26288    26056    25911    25817    25783    25812    25821 
   25791    25797    25879    25995    26072    26103    26152    26203 
   26211    26207    26210    26249    26383    26616    26898    27149 
   27284    27280    27168    26968    26703    26406    26106    25843 
   25685    25690    25832    26013    26148    26214    26223    26199 
   26164    26138    26129    26131    26129    26109    26091    26100 
   26137    26199    26304    26484    26767    27108    27406    27585 
   27589    27415    27147    26871    26623    26414    26276    26226 
   26227    26250    26298    26366    26431    26443    26365    26241 
   26129    26032    25937    25853    25806    25863    26034    26211 
   26283    26249    26152    26018    25887    25810    25826    25936 
   26075    26161    26177    26137    26045    25956    25979    26145 
   26346    26445    26416    26346    26289    26231    26181    26218 
   26384    26635    26896    27156    27427    27662    27837    27990 
   28113    28121    27920    27452    26775    26098    25585    25270 
   25130    25116    25164    25232    25304    25350    25382    25411 
   25444    25567    25787    25976    26068    26104    26188    26397 
   26697    27001    27225    27303    27264    27189    27124    27099 
   27149    27265    27386    27413    27290    27016    26599    26080 
   25593    25250    25072    25073    25230    25442    25659    25880 
   26098    26307    26501    26662    26735    26674    26524    26397 
   26352    26357    26364    26377    26399    26380    26273    26125 
   26030    26034    26137    26312    26495    26589    26555    26476 
   26433    26404    26356    26312    26315    26360    26422    26492 
   26545    26559    26554    26538    26505    26428    26303    26219 
   26264    26374    26450    26454    26347    26145    25905    25647 
   25380    25138    24976    24945    25039    25227    25524    25938 
   26385    26731    26877    26870    26866    26964    27143    27326 
   27452    27490    27406    27148    26752    26356    26084    26005 
   26137    26423    26717    26881    26873    26688    26365    26037 
   25836    25790    25840    25887    25871    25772    25623    25513 
   25543    25732    26036    26379    26666    26815    26794    26671 
   26586    26631    26742    26788    26705    26493    26171    25766 
   25361    25087    25050    25249    25602    26037    26512    26944 
   27272    27518    27716    27839    27837    27689    27468    27234 
   26959    26597    26214    25883    25590    25313    25103    24997 
   25035    25263    25625    25991    26285    26451    26414    26204 
   25941    25699    25516    25396    25327    25324    25405    25574 
   25840    26237    26775    27402    28036    28606    29022    29207 
   29138    28844    28378    27824    27259    26719    26226    25751 
   25230    24702    24309    24139    24185    24409    24763    25130 
   25417    25650    25860    26033    26148    26180    26130    26050 
   26002    26015    26136    26391    26716    27018    27244    27376 
   27445    27503    27588    27712    27837    27880    27792    27557 
   27205    26786    26331    25917    25643    25490    25412    25429 
   25543    25712    25913    26165    26478    26775    26952    26966 
   26828    26609    26418    26302    26256    26210    26037    25693 
   25259    24880    24669    24649    24771    25003    25326    25687 
   26057    26451    26831    27074    27139    27095    26998    26890 
   26825    26811    26896    27157    27546    27949    28291    28485 
   28443    28205    27889    27579    27283    26943    26511    26003 
   25465    24938    24476    24156    24035    24113    24360    24703 
   25020    25247    25404    25542    25704    25905    26153    26442 
   26720    26937    27101    27261    27456    27645    27770    27830 
   27881    27972    28075    28163    28194    28093    27810    27355 
   26793    26273    25933    25776    25728    25682    25527    25251 
   24925    24570    24228    24005    23931    23997    24200    24480 
   24773    25091    25454    25852    26265    26701    27147    27550 
   27872    28116    28285    28363    28356    28282    28152    27992 
   27799    27541    27211    26852    26539    26335    26260    26308 
   26399    26393    26254    26013    25726    25505    25392    25335 
   25309    25273    25162    24960    24729    24592    24664    24945 
   25367    25826    26179    26342    26357    26325    26372    26562 
   26839    27128    27336    27360    27220    27004    26800    26723 
   26829    27052    27280    27403    27387    27291    27149    26974 
   26794    26604    26370    26109    25828    25524    25239    25026 
   24889    24850    24927    25060    25195    25319    25419    25520 
   25664    25857    26073    26277    26468    26692    26967    27218 
   27367    27403    27359    27280    27225    27220    27284    27427 
   27580    27656    27637    27517    27274    26941    26580    26207 
   25855    25578    25408    25330    25319    25351    25400    25420 
   25398    25389    25431    25512    25621    25752    25860    25898 
   25870    25818    25809    25882    26077    26400    26763    27087 
   27349    27556    27719    27831    27882    27865    27778    27643 
   27472    27233    26914    26549    26196    25903    25683    25528 
   25393    25250    25124    25049    25002    24930    24807    24675 
   24606    24629    24746    24968    25270    25609    25967    26322 
   26661    26975    27236    27445    27622    27735    27793    27858 
   27934    27989    27988    27872    27646    27364    27022    26638 
   26299    26040    25853    25745    25668    25585    25550    25625 
   25797    25996    26152    26215    26165    26022    25851    25699 
   25594    25600    25722    25895    26103    26316    26481    26619 
   26746    26859    26989    27125    27216    27221    27102    26877 
   26603    26320    26056    25806    25550    25343    25274    25393 
   25705    26161    26653    27075    27345    27407    27267    27002 
   26707    26434    26208    26048    25920    25786    25652    25540 
   25459    25436    25513    25672    25851    26019    26171    26283 
   26334    26325    26276    26194    26080    26001    26018    26123 
   26260    26401    26562    26751    26958    27157    27326    27459 
   27550    27629    27700    27716    27625    27425    27137    26808 
   26477    26171    25926    25767    25671    25610    25581    25600 
   25660    25729    25817    25959    26127    26241    26254    26185 
   26072    25961    25907    25897    25879    25874    25922    26029 
   26196    26418    26703    27054    27390    27602    27653    27575 
   27392    27128    26828    26541    26276    26036    25864    25814 
   25861    25957    26069    26152    26185    26211    26241    26285 
   26377    26507    26608    26626    26536    26323    26015    25720 
   25535    25478    25502    25542    25582    25666    25821    26041 
   26303    26578    26848    27102    27305    27422    27467    27467 
   27402    27233    26959    26654    26399    26222    26137    26160 
   26250    26337    26381    26380    26333    26242    26152    26100 
   26065    26009    25930    25847    25741    25587    25419    25316 
   25321    25407    25544    25755    26034    26323    26576    26785 
   26941    27036    27098    27144    27157    27136    27081    27006 
   26948    26901    26852    26832    26825    26759    26597    26347 
   26055    25782    25567    25404    25297    25281    25363    25501 
   25600    25586    25497    25409    25351    25362    25479    25683 
   25967    26334    26705    27012    27248    27413    27514    27599 
   27687    27754    27789    27799    27784    27724    27588    27378 
   27145    26924    26716    26530    26343    26142    25960    25834 
   25755    25710    25712    25739    25764    25798    25836    25871 
   25915    25971    26034    26110    26185    26244    26275    26245 
   26131    25986    25848    25702    25573    25497    25482    25532 
   25651    25821    26011    26176    26283    26314    26300    26310 
   26369    26465    26592    26738    26890    27031    27109    27106 
   27064    27006    26932    26850    26769    26709    26682    26661 
   26613    26503    26298    26045    25810    25621    25513    25494 
   25512    25540    25593    25656    25731    25834    25960    26110 
   26283    26422    26492    26519    26512    26474    26426    26381 
