Origin Time       2025/01/13 21:19:00
Lat.              31.8
Long.             131.6
Depth. (km)       30
Mag.              6.9
Station Code      KOC013
Station Lat.      33.0797
Station Long.     133.1023
Station Height(m) 4
Record Time       2025/01/13 21:20:18
Sampling Freq(Hz) 100Hz
Duration Time(s)  123
Dir.              N-S
Scale Factor      7845(gal)/8223790
Max. Acc. (gal)   9.500
Last Correction   2025/01/13 21:20:17
Memo.             
[...]
   -5379    -5443    -5629    -6053    -6831    -7935    -9271   -10795 
  -12414   -13923   -15179   -16135   -16756   -17068   -17162   -17020 
  -16494   -15545   -14319   -12969   -11569   -10228    -9123    -8326 
   -7808    -7593    -7716    -8085    -8568    -9040    -9363    -9459 
   -9404    -9371    -9413    -9371    -9112    -8726    -8368    -8086 
   -7844    -7620    -7373    -7072    -6767    -6516    -6366    -6393 
   -6667    -7196    -7881    -8648    -9571   -10597   -11530   -12364 
  -13188   -13941   -14530   -14908   -15061   -14994   -14616   -13876 
  -12942   -12013   -11119   -10285    -9602    -9115    -8810    -8725 
   -8938    -9398    -9929   -10408   -10739   -10829   -10686   -10397 
  -10100    -9960   -10037   -10231   -10416   -10519   -10459   -10180 
   -9756    -9321    -8984    -8831    -8878    -9035    -9204    -9405 
   -9666    -9941   -10268   -10727   -11294   -11921   -12536   -12949 
  -12964   -12553   -11819   -10854    -9774    -8772    -8085    -7815 
   -7855    -8082    -8432    -8787    -9011    -9081    -9005    -8780 
   -8471    -8213    -8160    -8374    -8772    -9262    -9803   -10316 
  -10705   -10902   -10914   -10847   -10786   -10750   -10714   -10613 
  -10435   -10241   -10026    -9738    -9424    -9148    -8877    -8498 
   -7952    -7353    -6934    -6837    -7075    -7605    -8271    -8861 
   -9337    -9768   -10142   -10435   -10681   -10948   -11272   -11592 
  -11878   -12205   -12550   -12814   -13050   -13383   -13798   -14135 
  -14222   -13984   -13452   -12673   -11747   -10797    -9898    -9140 
   -8604    -8226    -7904    -7641    -7484    -7492    -7696    -8047 
   -8449    -8842    -9240    -9624    -9859    -9919    -9921    -9895 
   -9794    -9664    -9622    -9666    -9698    -9678    -9587    -9375 
   -9072    -8807    -8695    -8815    -9169    -9644   -10131   -10557 
  -10818   -10872   -10810   -10733   -10638   -10451   -10160    -9828 
   -9517    -9319    -9367    -9697   -10227   -10887   -11614   -12286 
  -12781   -13070   -13144   -13008   -12718   -12349   -11997   -11700 
  -11415   -11155   -11022   -10966   -10748   -10239    -9509    -8696 
   -7908    -7177    -6490    -5857    -5337    -4978    -4758    -4658 
   -4716    -4988    -5463    -6064    -6659    -7110    -7387    -7645 
   -8068    -8698    -9468   -10323   -11146   -11743   -12010   -12021 
  -11871   -11610   -11319   -11132   -11119   -11245   -11489   -11867 
  -12276   -12596   -12864   -13128   -13333   -13398   -13289   -13022 
  -12607   -12069   -11491   -10956   -10478   -10077    -9850    -9864 
  -10042   -10216   -10242   -10092    -9832    -9603    -9552    -9678 
   -9888   -10134   -10349   -10427   -10319   -10126   -10004    -9944 
   -9838    -9683    -9535    -9363    -9070    -8679    -8340    -8132 
   -8124    -8432    -9008    -9617   -10068   -10380   -10675   -11006 
  -11344   -11695   -12089   -12510   -12888   -13194   -13417   -13483 
  -13319   -12953   -12467   -11889   -11248   -10652   -10147    -9634 
   -9003    -8283    -7657    -7280    -7144    -7156    -7242    -7295 
   -7190    -6899    -6515    -6085    -5603    -5134    -4820    -4754 
   -4892    -5162    -5557    -6021    -6427    -6741    -7011    -7244 
   -7462    -7705    -7943    -8163    -8434    -8795    -9267    -9828 
  -10413   -11001   -11565   -12052   -12486   -12893   -13211   -13394 
  -13509   -13632   -13802   -14003   -14169   -14249   -14251   -14231 
  -14193   -14053   -13757   -13358   -12892   -12361   -11843   -11403 
  -10975   -10462    -9806    -8926    -7800    -6559    -5355    -4257 
   -3333    -2704    -2457    -2536    -2814    -3195    -3593    -3951 
   -4291    -4664    -5070    -5486    -5948    -6542    -7285    -8095 
   -8916    -9742   -10530   -11250   -11932   -12587   -13203   -13799 
  -14426   -15071   -15611   -15944   -16102   -16162   -16151   -16071 
  -15967   -15873   -15769   -15628   -15399   -15006   -14376   -13428 
  -12235   -11020    -9925    -8935    -8063    -7393    -6983    -6793 
   -6704    -6550    -6257    -5917    -5672    -5567    -5559    -5611 
   -5713    -5844    -5960    -6015    -6050    -6177    -6408    -6654 
   -6890    -7169    -7527    -7987    -8530    -9101    -9694   -10273 
  -10789   -11267   -11726   -12089   -12262   -12210   -12005   -11803 
  -11726   -11792   -11962   -12205   -12498   -12795   -13103   -13470 
  -13883   -14260   -14466   -14391   -14071   -13582   -12938   -12181 
  -11406   -10706   -10187    -9872    -9655    -9441    -9248    -9099 
   -8976    -8856    -8671    -8329    -7848    -7346    -6895    -6507 
   -6166    -5845    -5528    -5223    -4957    -4773    -4714    -4842 
   -5270    -6022    -7024    -8236    -9548   -10739   -11669   -12322 
  -12703   -12843   -12788   -12630   -12526   -12600   -12874   -13304 
  -13833   -14345   -14716   -14936   -15061   -15130   -15160   -15167 
  -15174   -15138   -14928   -14485   -13914   -13324   -12715   -12077 
  -11385   -10570    -9632    -8698    -7888    -7242    -6728    -6320 
   -5984    -5630    -5206    -4756    -4298    -3811    -3310    -2835 
   -2400    -2046    -1849    -1858    -2061    -2386    -2801    -3381 
   -4190    -5189    -6285    -7410    -8532    -9622   -10644   -11576 
  -12417   -13165   -13833   -14469   -15125   -15809   -16475   -17050 
  -17474   -17730   -17837   -17751   -17388   -16723   -15811   -14717 
  -13497   -12194   -10871    -9675    -8721    -7955    -7242    -6467 
   -5560    -4558    -3585    -2748    -2137    -1804    -1725    -1860 
   -2149    -2512    -2917    -3379    -3904    -4504    -5198    -6015 
   -6984    -8102    -9321   -10544   -11642   -12550   -13301   -13933 
  -14446   -14789   -14891   -14756   -14486   -14184   -13899   -13674 
  -13497   -13300   -13042   -12745   -12519   -12523   -12803   -13231 
  -13659   -14027   -14281   -14261   -13852   -13127   -12214   -11217 
  -10270    -9505    -8982    -8737    -8802    -9150    -9651   -10206 
  -10783   -11340   -11793   -12054   -12096   -11944   -11614   -11109 
  -10419    -9533    -8538    -7562    -6678    -5967    -5506    -5310 
   -5360    -5609    -5965    -6390    -6870    -7385    -7967    -8642 
   -9355   -10031   -10648   -11190   -11637   -11959   -12086   -12004 
  -11784   -11483   -11153   -10860   -10644   -10538   -10546   -10584 
  -10609   -10679   -10817   -11001   -11234   -11527   -11839   -12070 
  -12104   -11858   -11327   -10565    -9656    -8698    -7766    -6945 
   -6318    -5849    -5432    -5036    -4715    -4506    -4440    -4585 
   -4981    -5566    -6264    -7061    -7927    -8768    -9490   -10022 
  -10330   -10490   -10646   -10902   -11249   -11578   -11851   -12132 
  -12429   -12668   -12814   -12934   -13144   -13446   -13741   -14015 
  -14280   -14473   -14504   -14335   -14021   -13668   -13342   -13015 
  -12614   -12102   -11473   -10750   -10021    -9355    -8764    -8247 
   -7801    -7384    -6993    -6697    -6561    -6575    -6725    -6978 
   -7241    -7458    -7669    -7923    -8257    -8710    -9266    -9902 
  -10604   -11306   -11917   -12399   -12752   -12989   -13184   -13428 
  -13724   -13994   -14195   -14349   -14501   -14654   -14754   -14786 
  -14770   -14723   -14632   -14445   -14107   -13618   -12985   -12213 
  -11308   -10268    -9157    -8060    -6999    -6015    -5202    -4572 
   -4098    -3836    -3831    -3998    -4187    -4291    -4311    -4307 
   -4320    -4405    -4580    -4752    -4820    -4820    -4822    -4868 
   -5023    -5374    -5956    -6718    -7553    -8345    -9019    -9504 
   -9768    -9909   -10076   -10358   -10777   -11360   -12086   -12850 
  -13571   -14223   -14797   -15264   -15584   -15728   -15664   -15372 
  -14931   -14451   -13980   -13517   -13084   -12699   -12285   -11727 
  -11038   -10301    -9528    -8695    -7824    -6937    -6046    -5162 
   -4293    -3516    -2940    -2596    -2457    -2497    -2694    -3014 
   -3404    -3842    -4329    -4862    -5454    -6118    -6848    -7673 
   -8625    -9680   -10735   -11657   -12363   -12846   -13149   -13305 
  -13355   -13360   -13306   -13123   -12816   -12456   -12109   -11842 
  -11708   -11755   -11946   -12172   -12399   -12600   -12714   -12719 
  -12627   -12453   -12220   -11917   -11522   -11036   -10494    -9936 
   -9398    -8951    -8671    -8581    -8672    -8873    -9078    -9204 
   -9232    -9186    -9059    -8899    -8806    -8833    -8993    -9302 
   -9729   -10224   -10693   -11024   -11203   -11241   -11126   -10864 
  -10488   -10069    -9690    -9371    -9089    -8833    -8602    -8409 
   -8298    -8352    -8621    -9057    -9540    -9961   -10241   -10350 
  -10330   -10295   -10345   -10498   -10756   -11067   -11364   -11668 
  -11990   -12243   -12339   -12231   -11905   -11448   -10995   -10640 
  -10426   -10370   -10474   -10720   -11102   -11641   -12366   -13257 
  -14188   -15016   -15669   -16136   -16395   -16461   -16422   -16356 
  -16264   -16108   -15853   -15448   -14840   -14021   -13045   -11985 
  -10916    -9906    -8989    -8164    -7476    -6999    -6744    -6660 
   -6679    -6740    -6794    -6798    -6712    -6498    -6156    -5778 
   -5456    -5175    -4916    -4720    -4633    -4638    -4672    -4731 
   -4864    -5050    -5235    -5391    -5521    -5629    -5675    -5583 
   -5351    -5059    -4811    -4720    -4872    -5259    -5809    -6423 
   -7030    -7601    -8155    -8745    -9417   -10164   -10953   -11757 
  -12555   -13338   -14085   -14747   -15317   -15843   -16310   -16664 
  -16910   -17046   -17058   -16946   -16717   -16402   -16055   -15664 
  -15169   -14554   -13803   -12861   -11692   -10331    -8847    -7315 
   -5799    -4392    -3177    -2208    -1526    -1129     -957     -938 
    -997    -1066    -1115    -1182    -1382    -1769    -2323    -3048 
   -3974    -5061    -6218    -7368    -8475    -9544   -10620   -11773 
  -12996   -14203   -15321   -16316   -17161   -17837   -18327   -18631 
  -18771   -18778   -18665   -18446   -18160   -17813   -17366   -16806 
  -16151   -15442   -14708   -13973   -13270   -12596   -11902   -11156 
  -10365    -9553    -8731    -7901    -7075    -6246    -5467    -4833 
   -4328    -3867    -3454    -3150    -2972    -2895    -2905    -3053 
   -3418    -3997    -4688    -5371    -5987    -6493    -6858    -7122 
   -7379    -7653    -7920    -8170    -8419    -8677    -8955    -9275 
   -9639   -10029   -10434   -10848   -11272   -11686   -12074   -12442 
  -12811   -13184   -13521   -13768   -13934   -14037   -14038   -13918 
  -13695   -13382   -12999   -12567   -12124   -11697   -11259   -10797 
  -10355    -9985    -9690    -9401    -9020    -8537    -8006    -7452 
   -6925    -6512    -6258    -6185    -6312    -6596    -6944    -7298 
   -7650    -7987    -8279    -8534    -8811    -9200    -9703   -10223 
  -10678   -11059   -11388   -11708   -12073   -12483   -12870   -13178 
  -13423   -13617   -13707   -13698   -13687   -13726   -13818   -13964 
  -14148   -14305   -14353   -14266   -14076   -13825   -13575   -13371 
  -13208   -13047   -12822   -12495   -12112   -11716   -11304   -10862 
  -10378    -9823    -9159    -8361    -7433    -6420    -5412    -4495 
   -3711    -3094    -2709    -2579    -2632    -2771    -2964    -3229 
   -3596    -4099    -4772    -5629    -6650    -7755    -8854    -9892 
  -10818   -11585   -12189   -12663   -13055   -13396   -13680   -13922 
  -14157   -14408   -14667   -14882   -15005   -15030   -14975   -14875 
  -14746   -14504   -14068   -13441   -12680   -11842   -10979   -10169 
   -9471    -8888    -8399    -7978    -7622    -7349    -7153    -7021 
   -6952    -6934    -6945    -6952    -6937    -6918    -6922    -6983 
   -7095    -7209    -7303    -7335    -7273    -7153    -7011    -6879 
   -6779    -6685    -6546    -6349    -6162    -6096    -6208    -6508 
   -6978    -7570    -8218    -8878    -9548   -10227   -10883   -11504 
  -12098   -12653   -13174   -13674   -14180   -14705   -15196   -15599 
  -15871   -15971   -15915   -15732   -15450   -15115   -14724   -14266 
  -13767   -13204   -12552   -11858   -11180   -10520    -9840    -9115 
   -8371    -7690    -7152    -6774    -6536    -6413    -6372    -6359 
   -6320    -6259    -6222    -6197    -6195    -6242    -6320    -6426 
   -6569    -6750    -6999    -7294    -7582    -7886    -8214    -8557 
   -8922    -9282    -9599    -9875   -10147   -10424   -10669   -10906 
  -11210   -11627   -12158   -12738   -13319   -13875   -14359   -14755 
  -15084   -15383   -15655   -15878   -16067   -16204   -16151   -15849 
  -15380   -14790   -14071   -13239   -12337   -11377   -10335    -9232 
   -8112    -7002    -5937    -4936    -4005    -3142    -2382    -1775 
   -1289     -876     -541     -294     -179     -251     -491     -876 
   -1432    -2162    -3019    -3958    -5001    -6211    -7592    -9107 
  -10693   -12270   -13749   -15033   -16092   -16974   -17709   -18301 
  -18785   -19183   -19489   -19665   -19664   -19476   -19113   -18600 
  -17979   -17288   -16514   -15637   -14704   -13757   -12753   -11661 
  -10486    -9255    -8024    -6872    -5856    -4980    -4194    -3464 
   -2790    -2181    -1648    -1197     -859     -664     -602     -660 
    -827    -1074    -1389    -1802    -2326    -2941    -3649    -4471 
   -5413    -6454    -7537    -8630    -9776   -10991   -12206   -13359 
  -14427   -15385   -16251   -17092   -17911   -18630   -19174   -19543 
  -19762   -19834   -19753   -19533   -19188   -18719   -18104   -17347 
  -16437   -15346   -14098   -12776   -11431   -10095    -8841    -7739 
   -6793    -5957    -5206    -4544    -3977    -3499    -3106    -2806 
   -2621    -2554    -2597    -2717    -2853    -2955    -3022    -3111 
   -3248    -3439    -3736    -4187    -4823    -5636    -6569    -7580 
   -8644    -9709   -10731   -11704   -12618   -13473   -14276   -15041 
  -15753   -16382   -16900   -17320   -17682   -17979   -18162   -18227 
  -18195   -18034   -17701   -17200   -16582   -15908   -15223   -14539 
  -13852   -13158   -12437   -11681   -10908   -10122    -9297    -8395 
   -7406    -6384    -5402    -4483    -3603    -2759    -1977    -1278 
    -704     -334     -194     -249     -465     -776    -1120    -1491 
   -1898    -2367    -2975    -3743    -4596    -5458    -6319    -7183 
   -8036    -8862    -9676   -10488   -11288   -12071   -12818   -13508 
  -14153   -14778   -15375   -15913   -16379   -16750   -16999   -17170 
  -17336   -17478   -17536   -17470   -17234   -16822   -16306   -15768 
  -15221   -14648   -14091   -13570   -13035   -12433   -11776   -11124 
  -10503    -9863    -9161    -8387    -7551    -6698    -5896    -5215 
   -4698    -4330    -4095    -3974    -3921    -3912    -3997    -4233 
   -4612    -5100    -5668    -6258    -6820    -7350    -7885    -8453 
   -9080    -9764   -10484   -11206   -11913   -12560   -13116   -13572 
  -13883   -14019   -14013   -13888   -13683   -13425   -13104   -12718 
  -12275   -11784   -11280   -10806   -10359    -9923    -9504    -9121 
   -8808    -8549    -8291    -8028    -7767    -7499    -7249    -7067 
   -6976    -6993    -7111    -7331    -7643    -8027    -8441    -8838 
   -9198    -9535    -9845   -10112   -10357   -10617   -10871   -11074 
  -11252   -11450   -11665   -11865   -12017   -12124   -12201   -12225 
  -12183   -12114   -12064   -12077   -12145   -12216   -12237   -12191 
  -12064   -11857   -11588   -11310   -11068   -10889   -10764   -10674 
  -10612   -10590   -10608   -10651   -10705   -10748   -10750   -10694 
  -10598   -10492   -10392   -10269   -10093    -9902    -9737    -9574 
   -9354    -9047    -8657    -8205    -7726    -7279    -6907    -6616 
   -6408    -6268    -6143    -6014    -5898    -5817    -5765    -5713 
   -5649    -5597    -5576    -5594    -5680    -5863    -6120    -6421 
   -6779    -7192    -7639    -8125    -8677    -9273    -9856   -10426 
  -10990   -11511   -11959   -12334   -12665   -12996   -13300   -13520 
  -13668   -13776   -13834   -13848   -13848   -13836   -13788   -13691 
  -13536   -13356   -13198   -13066   -12973   -12896   -12768   -12565 
  -12307   -12015   -11695   -11345   -10968   -10569   -10129    -9628 
   -9069    -8494    -7951    -7454    -6988    -6555    -6151    -5761 
   -5401    -5127    -4966    -4923    -4990    -5140    -5373    -5709 
   -6129    -6620    -7167    -7707    -8190    -8606    -8942    -9192 
   -9385    -9587    -9869   -10255   -10729   -11265   -11820   -12343 
  -12800   -13162   -13412   -13583   -13711   -13801   -13852   -13842 
  -13780   -13720   -13648   -13510   -13317   -13115   -12877   -12586 
  -12287   -12021   -11780   -11537   -11292   -11071   -10882   -10710 
  -10562   -10454   -10380   -10285   -10129    -9923    -9701    -9474 
   -9266    -9111    -9009    -8931    -8814    -8646    -8460    -8259 
   -8017    -7735    -7403    -7010    -6558    -6091    -5668    -5314 
   -5039    -4876    -4819    -4841    -4966    -5235    -5633    -6093 
   -6544    -6972    -7402    -7851    -8289    -8661    -8980    -9308 
   -9705   -10204   -10801   -11454   -12124   -12792   -13455   -14095 
  -14694   -15222   -15641   -15946   -16121   -16160   -16083   -15916 
  -15666   -15317   -14847   -14276   -13656   -13030   -12403   -11767 
  -11113   -10446    -9786    -9123    -8456    -7824    -7269    -6810 
   -6427    -6080    -5746    -5441    -5186    -5000    -4904    -4914 
   -5011    -5177    -5378    -5591    -5863    -6258    -6774    -7372 
   -8027    -8718    -9427   -10116   -10752   -11323   -11808   -12187 
  -12490   -12784   -13111   -13443   -13741   -13996   -14203   -14366 
  -14520   -14696   -14883   -15026   -15070   -15010   -14872   -14685 
  -14478   -14269   -14053   -13826   -13594   -13329   -13026   -12707 
  -12384   -12051   -11708   -11340   -10928   -10438    -9828    -9115 
   -8348    -7530    -6677    -5859    -5147    -4565    -4110    -3792 
   -3611    -3531    -3530    -3615    -3785    -4035    -4374    -4788 
   -5216    -5622    -6021    -6409    -6777    -7171    -7655    -8245 
   -8914    -9614   -10292   -10918   -11489   -11997   -12447   -12858 
  -13232   -13556   -13828   -14045   -14200   -14265   -14219   -14089 
  -13894   -13636   -13332   -12995   -12619   -12210   -11778   -11340 
  -10889   -10412    -9904    -9373    -8823    -8256    -7684    -7102 
   -6512    -5952    -5435    -4953    -4550    -4284    -4149    -4114 
   -4176    -4344    -4622    -5008    -5498    -6070    -6717    -7431 
   -8183    -8922    -9616   -10273   -10916   -11537   -12120   -12676 
  -13207   -13714   -14214   -14701   -15149   -15522   -15812   -16042 
  -16197   -16249   -16209   -16105   -15920   -15622   -15207   -14665 
  -13995   -13239   -12424   -11543   -10631    -9725    -8835    -7966 
   -7150    -6434    -5850    -5398    -5069    -4866    -4783    -4787 
   -4860    -5012    -5267    -5645    -6115    -6615    -7129    -7676 
   -8213    -8680    -9065    -9393    -9683    -9936   -10133   -10287 
  -10458   -10675   -10928   -11214   -11537   -11890   -12267   -12650 
  -13028   -13382   -13682   -13907   -14049   -14089   -14040   -13917 
  -13710   -13400   -12977   -12438   -11794   -11083   -10349    -9653 
   -9059    -8594    -8228    -7917    -7643    -7418    -7249    -7126 
