Origin Time       2025/01/13 21:19:00
Lat.              31.8
Long.             131.6
Depth. (km)       30
Mag.              6.9
Station Code      KOC001
Station Lat.      33.5277
Station Long.     134.2808
Station Height(m) 7
Record Time       2025/01/13 21:20:52
Sampling Freq(Hz) 100Hz
Duration Time(s)  60
Dir.              E-W
Scale Factor      7845(gal)/8223790
Max. Acc. (gal)   1.979
Last Correction   2025/01/13 21:20:51
Memo.             
[...]
  -10535   -10579   -10600   -10577   -10538   -10511   -10489   -10459 
  -10436   -10432   -10449   -10477   -10507   -10531   -10558   -10590 
  -10616   -10611   -10571   -10523   -10497   -10477   -10436   -10395 
  -10369   -10346   -10326   -10324   -10345   -10374   -10409   -10457 
  -10501   -10534   -10558   -10569   -10554   -10519   -10480   -10446 
  -10405   -10351   -10314   -10328   -10385   -10436   -10482   -10531 
  -10561   -10565   -10551   -10524   -10500   -10486   -10470   -10462 
  -10465   -10462   -10458   -10466   -10492   -10534   -10574   -10600 
  -10612   -10620   -10615   -10594   -10567   -10544   -10535   -10536 
  -10544   -10543   -10528   -10508   -10497   -10507   -10521   -10523 
  -10520   -10531   -10552   -10571   -10578   -10565   -10535   -10496 
  -10459   -10449   -10451   -10436   -10408   -10385   -10376   -10370 
  -10372   -10378   -10381   -10386   -10413   -10459   -10505   -10551 
  -10594   -10604   -10571   -10538   -10532   -10531   -10508   -10470 
  -10443   -10428   -10423   -10428   -10440   -10451   -10462   -10480 
  -10507   -10542   -10575   -10609   -10642   -10654   -10652   -10659 
  -10673   -10675   -10666   -10640   -10601   -10569   -10552   -10547 
  -10546   -10531   -10503   -10474   -10462   -10455   -10449   -10444 
  -10443   -10446   -10474   -10509   -10523   -10500   -10451   -10407 
  -10380   -10377   -10403   -10427   -10439   -10463   -10496   -10513 
  -10507   -10486   -10473   -10470   -10467   -10446   -10415   -10388 
  -10380   -10417   -10486   -10540   -10562   -10562   -10555   -10554 
  -10547   -10524   -10485   -10443   -10424   -10432   -10439   -10415 
  -10376   -10361   -10386   -10427   -10457   -10473   -10494   -10550 
  -10633   -10686   -10674   -10629   -10592   -10562   -10524   -10476 
  -10424   -10370   -10330   -10338   -10404   -10471   -10492   -10480 
  -10480   -10500   -10516   -10515   -10500   -10485   -10486   -10501 
  -10511   -10507   -10488   -10453   -10422   -10405   -10396   -10390 
  -10401   -10427   -10466   -10513   -10551   -10570   -10574   -10573 
  -10578   -10589   -10590   -10585   -10586   -10581   -10563   -10544 
  -10538   -10547   -10548   -10513   -10458   -10416   -10403   -10401 
  -10404   -10404   -10395   -10389   -10412   -10454   -10480   -10489 
  -10517   -10559   -10592   -10609   -10621   -10629   -10628   -10623 
  -10616   -10605   -10593   -10601   -10615   -10612   -10609   -10613 
  -10597   -10552   -10501   -10467   -10440   -10404   -10378   -10381 
  -10392   -10401   -10428   -10473   -10517   -10542   -10547   -10540 
  -10534   -10535   -10540   -10546   -10536   -10505   -10474   -10458 
  -10444   -10428   -10415   -10407   -10403   -10409   -10435   -10484 
  -10532   -10555   -10565   -10571   -10565   -10546   -10539   -10550 
  -10569   -10574   -10569   -10562   -10538   -10493   -10451   -10416 
  -10399   -10411   -10440   -10471   -10496   -10511   -10519   -10521 
  -10519   -10504   -10473   -10447   -10450   -10473   -10497   -10516 
  -10531   -10539   -10535   -10512   -10484   -10462   -10434   -10401 
  -10377   -10362   -10354   -10354   -10363   -10370   -10373   -10378 
  -10390   -10392   -10381   -10384   -10404   -10426   -10440   -10447 
  -10446   -10436   -10424   -10405   -10393   -10404   -10420   -10438 
  -10462   -10485   -10501   -10504   -10497   -10509   -10532   -10543 
  -10539   -10528   -10519   -10520   -10542   -10578   -10601   -10588 
  -10569   -10567   -10573   -10570   -10555   -10539   -10520   -10496 
  -10474   -10454   -10427   -10403   -10395   -10401   -10419   -10435 
  -10451   -10476   -10505   -10538   -10575   -10598   -10588   -10555 
  -10517   -10485   -10461   -10440   -10427   -10411   -10393   -10395 
  -10411   -10415   -10417   -10442   -10485   -10525   -10562   -10585 
  -10585   -10563   -10536   -10521   -10527   -10534   -10519   -10497 
  -10503   -10527   -10543   -10544   -10534   -10508   -10478   -10471 
  -10489   -10511   -10527   -10538   -10543   -10544   -10538   -10513 
  -10480   -10455   -10455   -10478   -10501   -10508   -10501   -10496 
  -10504   -10516   -10508   -10471   -10436   -10443   -10486   -10530 
  -10562   -10588   -10594   -10578   -10551   -10515   -10473   -10442 
  -10442   -10465   -10489   -10516   -10534   -10528   -10519   -10503 
  -10466   -10415   -10382   -10396   -10434   -10463   -10480   -10471 
  -10455   -10459   -10477   -10485   -10492   -10521   -10570   -10606 
  -10623   -10628   -10617   -10579   -10527   -10485   -10474   -10482 
  -10500   -10519   -10527   -10524   -10512   -10489   -10459   -10434 
  -10416   -10396   -10382   -10403   -10446   -10482   -10505   -10525 
  -10530   -10517   -10497   -10469   -10436   -10417   -10416   -10420 
  -10431   -10457   -10492   -10512   -10503   -10482   -10480   -10493 
  -10501   -10509   -10525   -10535   -10513   -10477   -10459   -10458 
  -10457   -10455   -10450   -10436   -10431   -10446   -10467   -10496 
  -10535   -10575   -10611   -10629   -10623   -10606   -10585   -10552 
  -10517   -10496   -10486   -10473   -10461   -10467   -10476   -10457 
  -10426   -10424   -10458   -10504   -10538   -10559   -10581   -10609 
  -10644   -10677   -10667   -10609   -10540   -10488   -10449   -10419 
  -10409   -10432   -10474   -10525   -10570   -10586   -10567   -10524 
  -10474   -10427   -10392   -10369   -10347   -10334   -10349   -10397 
  -10459   -10515   -10563   -10604   -10620   -10611   -10605   -10602 
  -10575   -10530   -10496   -10477   -10461   -10451   -10463   -10498 
  -10527   -10538   -10550   -10569   -10579   -10578   -10567   -10547 
  -10525   -10511   -10505   -10498   -10478   -10459   -10450   -10443 
  -10427   -10415   -10416   -10432   -10465   -10509   -10550   -10573 
  -10563   -10531   -10500   -10476   -10455   -10451   -10466   -10492 
  -10532   -10579   -10605   -10615   -10644   -10681   -10686   -10659 
  -10624   -10593   -10552   -10497   -10443   -10397   -10350   -10303 
  -10273   -10269   -10281   -10291   -10303   -10328   -10362   -10411 
  -10461   -10478   -10473   -10478   -10493   -10497   -10494   -10482 
  -10465   -10454   -10450   -10455   -10461   -10453   -10438   -10424 
  -10404   -10396   -10413   -10438   -10457   -10481   -10511   -10535 
  -10554   -10559   -10547   -10513   -10471   -10458   -10488   -10524 
  -10540   -10540   -10539   -10544   -10552   -10555   -10542   -10511 
  -10480   -10458   -10443   -10431   -10415   -10401   -10415   -10454 
  -10500   -10534   -10554   -10565   -10577   -10586   -10582   -10552 
  -10496   -10434   -10393   -10380   -10381   -10397   -10442   -10488 
  -10512   -10521   -10525   -10508   -10470   -10443   -10443   -10453 
  -10461   -10476   -10509   -10567   -10623   -10650   -10648   -10636 
  -10632   -10633   -10611   -10567   -10539   -10544   -10577   -10608 
  -10616   -10608   -10602   -10594   -10586   -10577   -10571   -10584 
  -10617   -10648   -10655   -10633   -10594   -10539   -10476   -10408 
  -10342   -10289   -10270   -10295   -10349   -10413   -10485   -10557 
  -10601   -10602   -10573   -10515   -10431   -10351   -10309   -10309 
  -10335   -10373   -10415   -10458   -10511   -10578   -10628   -10627 
  -10590   -10546   -10508   -10466   -10417   -10370   -10328   -10301 
  -10308   -10339   -10358   -10359   -10365   -10376   -10382   -10389 
  -10412   -10449   -10470   -10476   -10486   -10505   -10513   -10527 
  -10573   -10629   -10659   -10660   -10660   -10673   -10677   -10656 
  -10627   -10592   -10539   -10471   -10417   -10385   -10362   -10354 
  -10369   -10385   -10393   -10400   -10408   -10409   -10400   -10399 
  -10420   -10438   -10428   -10413   -10428   -10469   -10497   -10497 
  -10488   -10498   -10530   -10561   -10570   -10557   -10543   -10543 
  -10561   -10573   -10554   -10515   -10488   -10490   -10512   -10524 
  -10507   -10470   -10444   -10436   -10435   -10419   -10390   -10370 
  -10376   -10397   -10436   -10486   -10516   -10525   -10550   -10593 
  -10638   -10663   -10660   -10647   -10644   -10662   -10686   -10683 
  -10632   -10566   -10538   -10552   -10567   -10548   -10511   -10486 
  -10480   -10478   -10486   -10509   -10516   -10493   -10458   -10424 
  -10392   -10363   -10358   -10384   -10415   -10443   -10504   -10585 
  -10627   -10635   -10654   -10677   -10685   -10674   -10654   -10635 
  -10619   -10605   -10608   -10609   -10584   -10543   -10519   -10521 
  -10543   -10570   -10590   -10594   -10589   -10597   -10612   -10605 
  -10575   -10543   -10513   -10493   -10485   -10488   -10494   -10497 
  -10492   -10493   -10504   -10512   -10519   -10538   -10557   -10558 
  -10534   -10481   -10413   -10355   -10301   -10245   -10203   -10184 
  -10177   -10188   -10238   -10319   -10405   -10465   -10480   -10470 
  -10443   -10389   -10319   -10237   -10145   -10091   -10111   -10188 
  -10284   -10396   -10525   -10647   -10743   -10806   -10829   -10822 
  -10790   -10728   -10652   -10601   -10567   -10532   -10494   -10477 
  -10505   -10574   -10646   -10694   -10716   -10729   -10737   -10727 
  -10692   -10635   -10552   -10454   -10361   -10293   -10249   -10218 
  -10192   -10181   -10203   -10262   -10341   -10417   -10481   -10531 
  -10566   -10567   -10521   -10453   -10396   -10349   -10311   -10300 
  -10323   -10368   -10419   -10463   -10488   -10482   -10443   -10380 
  -10299   -10234   -10211   -10218   -10242   -10270   -10281   -10300 
  -10350   -10404   -10440   -10457   -10457   -10466   -10515   -10585 
  -10648   -10690   -10696   -10667   -10632   -10617   -10629   -10655 
  -10685   -10733   -10798   -10862   -10895   -10866   -10762   -10605 
  -10428   -10269   -10143   -10058   -10029   -10056   -10119   -10207 
  -10311   -10404   -10466   -10504   -10521   -10519   -10497   -10474 
  -10465   -10481   -10501   -10490   -10435   -10365   -10318   -10307 
  -10308   -10303   -10303   -10323   -10357   -10389   -10386   -10345 
  -10299   -10257   -10208   -10162   -10137   -10130   -10143   -10191 
  -10272   -10368   -10455   -10520   -10561   -10578   -10589   -10600 
  -10602   -10590   -10565   -10525   -10471   -10420   -10392   -10385 
  -10401   -10427   -10432   -10407   -10385   -10384   -10373   -10349 
  -10343   -10382   -10430   -10446   -10436   -10411   -10377   -10369 
  -10392   -10417   -10435   -10467   -10534   -10623   -10712   -10779 
  -10801   -10763   -10692   -10617   -10521   -10388   -10254   -10168 
  -10137   -10165   -10265   -10399   -10511   -10592   -10636   -10627 
  -10588   -10557   -10519   -10455   -10393   -10363   -10368   -10395 
  -10446   -10519   -10597   -10663   -10692   -10682   -10682   -10714 
  -10724   -10679   -10638   -10638   -10656   -10655   -10631   -10623 
  -10652   -10671   -10647   -10601   -10542   -10471   -10416   -10388 
  -10370   -10357   -10359   -10382   -10432   -10528   -10659   -10777 
  -10852   -10894   -10912   -10894   -10831   -10729   -10611   -10509 
  -10443   -10401   -10380   -10395   -10447   -10519   -10593   -10650 
  -10675   -10655   -10585   -10486   -10386   -10308   -10277   -10319 
  -10409   -10516   -10631   -10739   -10801   -10804   -10752   -10660 
  -10555   -10457   -10388   -10366   -10411   -10497   -10574   -10627 
  -10670   -10720   -10797   -10893   -10989   -11078   -11148   -11165 
  -11118   -10997   -10797   -10544   -10288   -10065    -9907    -9850 
   -9903   -10054   -10282   -10544   -10774   -10925   -10967   -10883 
  -10701   -10485   -10300   -10172   -10093   -10071   -10112   -10195 
  -10289   -10396   -10532   -10674   -10794   -10890   -10924   -10848 
  -10678   -10465   -10226    -9980    -9764    -9634    -9605    -9670 
   -9850   -10139   -10462   -10739   -10917   -10987   -10951   -10804 
  -10577   -10338   -10134    -9975    -9868    -9848    -9915   -10031 
  -10164   -10318   -10500   -10690   -10867   -11011   -11086   -11059 
  -10943   -10778   -10563   -10308   -10083    -9922    -9830    -9848 
   -9991   -10214   -10462   -10690   -10852   -10905   -10845   -10737 
  -10631   -10523   -10412   -10341   -10343   -10417   -10542   -10677 
  -10806   -10929   -11022   -11053   -11014   -10935   -10841   -10721 
  -10579   -10471   -10400   -10323   -10245   -10219   -10262   -10334 
  -10388   -10403   -10365   -10284   -10215   -10181   -10130   -10034 
   -9929    -9837    -9763    -9740    -9811    -9960   -10127   -10304 
  -10521   -10777   -11021   -11199   -11281   -11253   -11119   -10905 
  -10647   -10393   -10176   -10012    -9902    -9859    -9891    -9987 
  -10120   -10284   -10467   -10651   -10805   -10903   -10925   -10860 
  -10759   -10677   -10604   -10498   -10378   -10312   -10320   -10385 
  -10486   -10575   -10593   -10540   -10465   -10392   -10327   -10284 
  -10272   -10289   -10339   -10439   -10596   -10758   -10876   -10940 
  -10957   -10917   -10817   -10667   -10476   -10282   -10142   -10056 
  -10004    -9999   -10073   -10223   -10413   -10601   -10764   -10868 
  -10887   -10840   -10746   -10581   -10355   -10145   -10023   -10006 
  -10083   -10276   -10584   -10939   -11265   -11522   -11678   -11695 
  -11562   -11315   -10967   -10508    -9975    -9478    -9127    -8970 
   -9015    -9238    -9583    -9999   -10453   -10903   -11292   -11545 
  -11601   -11457   -11133   -10694   -10237    -9853    -9622    -9576 
   -9707   -10007   -10427   -10878   -11298   -11638   -11851   -11912 
  -11793   -11460   -10935   -10299    -9641    -9051    -8621    -8414 
   -8463    -8750    -9217    -9784   -10388   -10975   -11500   -11880 
  -12024   -11929   -11637   -11190   -10666   -10142    -9691    -9409 
   -9329    -9432    -9688   -10037   -10430   -10839   -11187   -11384 
  -11404   -11273   -11025   -10701   -10351   -10015    -9717    -9479 
   -9344    -9343    -9479    -9759   -10170   -10643   -11109   -11520 
  -11812   -11932   -11889   -11700   -11394   -11011   -10589   -10165 
   -9828    -9664    -9661    -9771    -9968   -10215   -10457   -10665 
  -10822   -10912   -10913   -10833   -10717   -10594   -10473   -10345 
  -10223   -10141   -10133   -10192   -10303   -10434   -10554   -10651 
  -10700   -10675   -10592   -10488   -10392   -10301   -10222   -10201 
  -10293   -10503   -10794   -11110   -11388   -11543   -11510   -11322 
  -11065   -10771   -10465   -10180    -9927    -9732    -9663    -9732 
   -9871   -10014   -10146   -10270   -10372   -10440   -10503   -10555 
  -10565   -10550   -10547   -10565   -10600   -10650   -10705   -10774 
  -10867   -10980   -11097   -11183   -11200   -11148   -11060   -10972 
  -10901   -10832   -10752   -10671   -10597   -10527   -10446   -10342 
  -10224   -10098    -9968    -9875    -9864    -9945   -10084   -10237 
  -10373   -10481   -10563   -10635   -10713   -10806   -10891   -10966 
  -11051   -11122   -11098   -10947   -10705   -10397   -10050    -9736 
   -9501    -9348    -9296    -9359    -9524    -9749   -10011   -10289 
  -10552   -10744   -10829   -10833   -10775   -10648   -10488   -10358 
  -10289   -10276   -10299   -10354   -10450   -10575   -10712   -10844 
  -10939   -10953   -10895   -10790   -10629   -10427   -10226   -10057 
   -9930    -9860    -9855    -9918   -10029   -10169   -10339   -10524 
  -10719   -10929   -11129   -11267   -11330   -11335   -11272   -11117 
  -10881   -10586   -10266    -9957    -9706    -9579    -9632    -9861 
  -10201   -10559   -10851   -11018   -10998   -10756   -10363    -9940 
   -9585    -9366    -9317    -9414    -9626    -9941   -10336   -10741 
  -11087   -11333   -11438   -11360   -11125   -10845   -10620   -10453 
  -10327   -10262   -10281   -10366   -10488   -10638   -10790   -10905 
  -10959   -10956   -10903   -10801   -10640   -10432   -10177    -9877 
   -9586    -9402    -9383    -9514    -9784   -10181   -10624   -11036 
  -11380   -11596   -11626   -11487   -11252   -11013   -10824   -10697 
  -10629   -10585   -10513   -10416   -10315   -10220   -10149   -10107 
  -10050    -9968    -9918    -9949   -10072   -10266   -10492   -10709 
  -10879   -10967   -10967   -10914   -10832   -10733   -10633   -10539 
  -10465   -10411   -10384   -10416   -10528   -10687   -10844   -10968 
  -11052   -11102   -11122   -11080   -10951   -10736   -10447   -10104 
   -9772    -9531    -9424    -9460    -9625    -9898   -10241   -10594 
  -10902   -11149   -11333   -11429   -11403   -11242   -10967   -10611 
  -10216    -9845    -9556    -9406    -9416    -9582    -9915   -10384 
  -10852   -11175   -11319   -11326   -11246   -11118   -10940   -10710 
  -10466   -10266   -10150   -10106   -10073   -10021    -9975    -9954 
   -9961   -10017   -10130   -10280   -10447   -10642   -10866   -11065 
  -11160   -11117   -10967   -10755   -10516   -10266   -10027    -9845 
   -9756    -9774    -9892   -10068   -10262   -10462   -10651   -10812 
  -10930   -10991   -10972   -10863   -10694   -10504   -10307   -10103 
   -9929    -9836    -9844    -9949   -10130   -10339   -10557   -10790 
  -11002   -11118   -11124   -11088   -11056   -11016   -10945   -10839 
  -10679   -10462   -10206    -9957    -9768    -9678    -9705    -9830 
  -10002   -10184   -10351   -10485   -10596   -10702   -10789   -10841 
  -10859   -10849   -10835   -10822   -10797   -10752   -10694   -10602 
  -10451   -10211    -9883    -9537    -9279    -9178    -9259    -9505 
   -9873   -10312   -10717   -10991   -11145   -11240   -11280   -11242 
  -11130   -10972   -10813   -10687   -10571   -10419   -10242   -10093 
  -10029   -10077   -10214   -10388   -10565   -10725   -10856   -10944 
  -10967   -10932   -10862   -10751   -10602   -10443   -10307   -10204 
  -10157   -10210   -10373   -10615   -10887   -11129   -11272   -11280 
  -11191   -11080   -10957   -10760   -10465   -10125    -9823    -9624 
   -9576    -9679    -9882   -10138   -10427   -10705   -10894   -10963 
  -10936   -10824   -10640   -10444   -10299   -10222   -10180   -10129 
  -10056    -9961    -9853    -9747    -9683    -9717    -9876   -10146 
  -10498   -10914   -11334   -11647   -11776   -11718   -11520   -11234 
  -10902   -10578   -10312   -10111    -9967    -9882    -9860    -9890 
   -9944   -10003   -10075   -10169   -10305   -10477   -10663   -10832 
  -10940   -10979   -10963   -10903   -10804   -10665   -10527   -10450 
  -10451   -10525   -10659   -10802   -10922   -11036   -11130   -11157 
  -11078   -10895   -10654   -10395   -10143    -9904    -9697    -9547 
   -9463    -9454    -9553    -9751    -9992   -10233   -10457   -10659 
  -10841   -10993   -11087   -11130   -11128   -11079   -10989   -10881 
  -10786   -10713   -10648   -10577   -10482   -10369   -10280   -10255 
  -10303   -10404   -10516   -10596   -10628   -10619   -10581   -10512 
  -10396   -10245   -10095    -9975    -9925    -9983   -10145   -10341 
  -10516   -10669   -10795   -10885   -10916   -10874   -10775   -10648 
  -10530   -10470   -10476   -10525   -10597   -10654   -10675   -10652 
  -10550   -10353   -10096    -9850    -9676    -9594    -9586    -9628 
   -9730    -9906   -10122   -10304   -10397   -10411   -10413   -10465 
  -10565   -10678   -10787   -10887   -10960   -10989   -10956   -10863 
  -10723   -10559   -10385   -10210   -10045    -9909    -9823    -9805 
   -9837    -9882    -9917    -9963   -10034   -10127   -10239   -10349 
