Origin Time       2025/01/13 21:19:00
Lat.              31.8
Long.             131.6
Depth. (km)       30
Mag.              6.9
Station Code      KOC001
Station Lat.      33.5277
Station Long.     134.2808
Station Height(m) 7
Record Time       2025/01/13 21:20:52
Sampling Freq(Hz) 100Hz
Duration Time(s)  60
Dir.              U-D
Scale Factor      7845(gal)/8223790
Max. Acc. (gal)   0.588
Last Correction   2025/01/13 21:20:51
Memo.             
[...]
   -4846    -4823    -4797    -4770    -4750    -4730    -4688    -4648 
   -4649    -4689    -4734    -4776    -4811    -4824    -4830    -4839 
   -4823    -4754    -4675    -4644    -4650    -4630    -4580    -4573 
   -4642    -4725    -4766    -4765    -4750    -4758    -4785    -4815 
   -4820    -4785    -4750    -4752    -4762    -4753    -4729    -4703 
   -4708    -4745    -4784    -4803    -4800    -4783    -4788    -4824 
   -4851    -4826    -4780    -4747    -4703    -4644    -4606    -4598 
   -4619    -4680    -4758    -4815    -4849    -4877    -4891    -4861 
   -4806    -4784    -4806    -4800    -4731    -4676    -4708    -4793 
   -4868    -4909    -4907    -4850    -4769    -4708    -4679    -4679 
   -4696    -4699    -4680    -4662    -4666    -4675    -4649    -4592 
   -4549    -4548    -4584    -4652    -4730    -4776    -4785    -4787 
   -4787    -4770    -4742    -4716    -4712    -4731    -4774    -4828 
   -4876    -4901    -4912    -4924    -4919    -4874    -4822    -4807 
   -4830    -4868    -4897    -4896    -4869    -4855    -4869    -4861 
   -4799    -4715    -4671    -4677    -4696    -4693    -4665    -4638 
   -4637    -4662    -4693    -4720    -4743    -4764    -4784    -4806 
   -4814    -4806    -4801    -4815    -4826    -4833    -4861    -4907 
   -4931    -4915    -4907    -4942    -4958    -4920    -4893    -4901 
   -4893    -4838    -4770    -4735    -4745    -4779    -4791    -4745 
   -4680    -4666    -4726    -4800    -4796    -4716    -4654    -4654 
   -4691    -4756    -4823    -4839    -4824    -4827    -4826    -4799 
   -4779    -4787    -4812    -4838    -4855    -4862    -4866    -4862 
   -4842    -4826    -4808    -4758    -4696    -4666    -4692    -4749 
   -4785    -4765    -4722    -4710    -4727    -4737    -4731    -4716 
   -4684    -4649    -4627    -4610    -4585    -4573    -4594    -4627 
   -4622    -4590    -4584    -4614    -4650    -4683    -4693    -4662 
   -4630    -4658    -4737    -4787    -4785    -4765    -4746    -4725 
   -4725    -4769    -4819    -4827    -4812    -4814    -4811    -4766 
   -4707    -4707    -4776    -4835    -4858    -4899    -4945    -4928 
   -4869    -4841    -4838    -4808    -4754    -4733    -4770    -4826 
   -4850    -4838    -4815    -4803    -4828    -4869    -4857    -4787 
   -4730    -4731    -4756    -4735    -4668    -4612    -4617    -4673 
   -4742    -4804    -4851    -4869    -4873    -4900    -4900    -4830 
   -4754    -4730    -4741    -4774    -4815    -4843    -4842    -4820 
   -4815    -4839    -4877    -4914    -4936    -4924    -4900    -4930 
   -5024    -5090    -5031    -4876    -4747    -4716    -4749    -4785 
   -4820    -4854    -4861    -4851    -4828    -4785    -4760    -4783 
   -4816    -4811    -4761    -4707    -4692    -4711    -4716    -4708 
   -4738    -4788    -4774    -4726    -4734    -4776    -4769    -4752 
   -4761    -4723    -4660    -4673    -4730    -4739    -4729    -4756 
   -4803    -4830    -4826    -4801    -4769    -4735    -4710    -4716 
   -4750    -4741    -4681    -4661    -4684    -4677    -4662    -4685 
   -4699    -4672    -4669    -4712    -4749    -4770    -4822    -4896 
   -4935    -4920    -4881    -4834    -4783    -4742    -4734    -4760 
   -4792    -4804    -4804    -4791    -4750    -4696    -4656    -4642 
   -4638    -4614    -4606    -4630    -4631    -4583    -4521    -4480 
   -4487    -4546    -4602    -4615    -4617    -4626    -4635    -4649 
   -4664    -4672    -4683    -4702    -4699    -4681    -4692    -4714 
   -4698    -4675    -4689    -4739    -4804    -4847    -4850    -4855 
   -4889    -4918    -4905    -4846    -4781    -4791    -4878    -4955 
   -4968    -4954    -4947    -4935    -4904    -4874    -4854    -4816 
   -4743    -4671    -4658    -4703    -4737    -4739    -4730    -4695 
   -4611    -4514    -4471    -4507    -4579    -4622    -4621    -4614 
   -4661    -4731    -4737    -4689    -4675    -4707    -4743    -4753 
   -4749    -4770    -4811    -4849    -4869    -4849    -4791    -4739 
   -4733    -4742    -4702    -4633    -4618    -4665    -4726    -4779 
   -4811    -4823    -4830    -4833    -4847    -4881    -4887    -4822 
   -4716    -4626    -4606    -4657    -4726    -4769    -4815    -4885 
   -4927    -4909    -4881    -4862    -4827    -4797    -4801    -4824 
   -4841    -4865    -4907    -4941    -4941    -4887    -4783    -4687 
   -4658    -4710    -4796    -4861    -4888    -4907    -4928    -4904 
   -4801    -4668    -4583    -4572    -4599    -4626    -4672    -4743 
   -4803    -4816    -4776    -4693    -4614    -4592    -4614    -4637 
   -4675    -4753    -4841    -4882    -4878    -4860    -4835    -4806 
   -4789    -4797    -4814    -4830    -4868    -4915    -4934    -4924 
   -4889    -4824    -4772    -4761    -4773    -4785    -4785    -4766 
   -4757    -4774    -4800    -4792    -4770    -4803    -4860    -4850 
   -4780    -4734    -4727    -4727    -4750    -4808    -4873    -4907 
   -4896    -4869    -4849    -4822    -4800    -4781    -4727    -4680 
   -4692    -4718    -4719    -4739    -4774    -4768    -4729    -4699 
   -4658    -4598    -4560    -4572    -4625    -4676    -4693    -4703 
   -4738    -4791    -4816    -4785    -4747    -4766    -4847    -4935 
   -4961    -4920    -4896    -4943    -4995    -4951    -4851    -4804 
   -4843    -4899    -4885    -4823    -4808    -4858    -4884    -4869 
   -4889    -4926    -4892    -4827    -4822    -4869    -4905    -4900 
   -4866    -4838    -4833    -4804    -4707    -4571    -4465    -4414 
   -4423    -4480    -4542    -4595    -4673    -4773    -4828    -4803 
   -4715    -4622    -4591    -4615    -4631    -4633    -4654    -4685 
   -4734    -4822    -4900    -4916    -4892    -4862    -4841    -4842 
   -4843    -4818    -4806    -4828    -4839    -4811    -4780    -4781 
   -4820    -4842    -4800    -4743    -4756    -4834    -4931    -5009 
   -5034    -5015    -5019    -5031    -4988    -4914    -4851    -4791 
   -4738    -4676    -4584    -4537    -4604    -4739    -4857    -4908 
   -4901    -4862    -4810    -4738    -4641    -4552    -4504    -4494 
   -4536    -4618    -4696    -4758    -4761    -4666    -4541    -4487 
   -4510    -4579    -4719    -4884    -4945    -4889    -4810    -4731 
   -4633    -4542    -4494    -4465    -4457    -4513    -4649    -4819 
   -4927    -4930    -4864    -4750    -4603    -4507    -4537    -4660 
   -4788    -4861    -4899    -4924    -4907    -4843    -4789    -4764 
   -4729    -4685    -4675    -4695    -4731    -4804    -4901    -4949 
   -4931    -4914    -4904    -4878    -4838    -4807    -4806    -4811 
   -4773    -4707    -4641    -4565    -4537    -4625    -4756    -4849 
   -4943    -5055    -5096    -5028    -4922    -4826    -4731    -4654 
   -4604    -4585    -4633    -4731    -4800    -4846    -4928    -4995 
   -4955    -4827    -4706    -4645    -4625    -4629    -4652    -4637 
   -4548    -4459    -4475    -4608    -4781    -4941    -5057    -5069 
   -4988    -4918    -4873    -4776    -4649    -4590    -4604    -4611 
   -4592    -4611    -4672    -4731    -4799    -4864    -4893    -4888 
   -4845    -4747    -4664    -4664    -4706    -4720    -4696    -4642 
   -4614    -4677    -4803    -4893    -4896    -4845    -4804    -4810 
   -4849    -4905    -4976    -5022    -4990    -4935    -4934    -4939 
   -4909    -4903    -4924    -4888    -4799    -4734    -4693    -4648 
   -4629    -4631    -4585    -4490    -4441    -4498    -4587    -4595 
   -4545    -4569    -4711    -4893    -5049    -5139    -5120    -5015 
   -4901    -4799    -4685    -4590    -4518    -4432    -4351    -4348 
   -4429    -4549    -4703    -4892    -5035    -5055    -5005    -4963 
   -4934    -4882    -4812    -4743    -4665    -4598    -4627    -4776 
   -4920    -4951    -4908    -4888    -4887    -4853    -4812    -4784 
   -4737    -4679    -4654    -4681    -4743    -4808    -4853    -4865 
   -4869    -4877    -4882    -4907    -4946    -4950    -4904    -4816 
   -4707    -4639    -4665    -4765    -4862    -4881    -4831    -4784 
   -4757    -4703    -4611    -4529    -4490    -4483    -4480    -4468 
   -4479    -4560    -4706    -4838    -4872    -4830    -4788    -4792 
   -4822    -4793    -4700    -4626    -4617    -4652    -4710    -4731 
   -4693    -4691    -4787    -4887    -4878    -4808    -4774    -4768 
   -4738    -4708    -4695    -4671    -4676    -4743    -4792    -4765 
   -4720    -4712    -4754    -4892    -5131    -5327    -5364    -5304 
   -5232    -5162    -5089    -4981    -4838    -4727    -4677    -4675 
   -4720    -4791    -4833    -4823    -4796    -4781    -4768    -4726 
   -4681    -4700    -4766    -4768    -4673    -4580    -4567    -4623 
   -4706    -4787    -4862    -4941    -4984    -4954    -4882    -4835 
   -4812    -4769    -4658    -4498    -4378    -4355    -4361    -4340 
   -4382    -4565    -4773    -4882    -4936    -5020    -5132    -5221 
   -5242    -5196    -5100    -4985    -4900    -4826    -4718    -4634 
   -4658    -4727    -4747    -4756    -4799    -4855    -4924    -4988 
   -4986    -4907    -4783    -4664    -4602    -4596    -4634    -4725 
   -4854    -4949    -4968    -4949    -4942    -4936    -4912    -4891 
   -4869    -4808    -4711    -4638    -4623    -4662    -4726    -4773 
   -4785    -4780    -4795    -4816    -4785    -4711    -4630    -4554 
   -4494    -4471    -4494    -4536    -4591    -4691    -4773    -4741 
   -4637    -4572    -4598    -4681    -4757    -4796    -4811    -4784 
   -4725    -4704    -4730    -4726    -4699    -4695    -4658    -4571 
   -4530    -4546    -4545    -4542    -4596    -4691    -4766    -4800 
   -4833    -4926    -5047    -5107    -5117    -5148    -5173    -5135 
   -5040    -4912    -4754    -4606    -4519    -4479    -4461    -4496 
   -4553    -4553    -4541    -4598    -4708    -4833    -4930    -4959 
   -4931    -4896    -4904    -4984    -5097    -5147    -5084    -4922 
   -4687    -4459    -4338    -4363    -4483    -4623    -4746    -4868 
   -4989    -5040    -5000    -4942    -4926    -4919    -4880    -4835 
   -4816    -4788    -4719    -4641    -4577    -4550    -4603    -4730 
   -4849    -4915    -4974    -5074    -5154    -5144    -5071    -4976 
   -4827    -4604    -4411    -4383    -4498    -4614    -4671    -4708 
   -4737    -4733    -4727    -4756    -4792    -4828    -4877    -4912 
   -4873    -4781    -4707    -4652    -4602    -4581    -4612    -4698 
   -4828    -4993    -5134    -5127    -4965    -4807    -4738    -4693 
   -4623    -4550    -4509    -4504    -4519    -4557    -4664    -4815 
   -4942    -5019    -5005    -4868    -4673    -4546    -4526    -4567 
   -4637    -4710    -4768    -4854    -4976    -5058    -5036    -4928 
   -4795    -4688    -4622    -4584    -4577    -4591    -4583    -4558 
   -4561    -4576    -4580    -4581    -4572    -4536    -4513    -4569 
   -4688    -4834    -4990    -5100    -5101    -5016    -4924    -4873 
   -4834    -4781    -4727    -4654    -4572    -4538    -4602    -4761 
   -4934    -4993    -4936    -4887    -4920    -4988    -4997    -4949 
   -4914    -4876    -4774    -4622    -4461    -4344    -4330    -4423 
   -4561    -4693    -4807    -4903    -4976    -5005    -4996    -4969 
   -4926    -4865    -4784    -4679    -4557    -4430    -4352    -4410 
   -4591    -4792    -4972    -5127    -5224    -5228    -5144    -5009 
   -4857    -4725    -4644    -4604    -4604    -4639    -4684    -4720 
   -4750    -4793    -4849    -4865    -4806    -4699    -4617    -4592 
   -4583    -4546    -4488    -4479    -4554    -4637    -4639    -4590 
   -4577    -4633    -4703    -4756    -4816    -4905    -4974    -4990 
   -4990    -4977    -4914    -4843    -4810    -4799    -4814    -4876 
   -4981    -5103    -5200    -5202    -5073    -4855    -4646    -4475 
   -4317    -4225    -4287    -4495    -4743    -4903    -4916    -4851 
   -4806    -4788    -4765    -4741    -4725    -4726    -4743    -4727 
   -4646    -4584    -4641    -4788    -4920    -5015    -5076    -5063 
   -4977    -4870    -4777    -4706    -4675    -4712    -4803    -4891 
   -4950    -4986    -4989    -4946    -4896    -4882    -4884    -4872 
   -4841    -4796    -4764    -4783    -4850    -4930    -4980    -4981 
   -4941    -4907    -4892    -4842    -4725    -4594    -4554    -4610 
   -4627    -4550    -4465    -4421    -4398    -4426    -4554    -4716 
   -4839    -4963    -5113    -5201    -5151    -4999    -4818    -4649 
   -4513    -4438    -4445    -4496    -4558    -4648    -4760    -4858 
   -4909    -4930    -4911    -4815    -4684    -4610    -4623    -4672 
   -4679    -4622    -4564    -4568    -4598    -4619    -4675    -4789 
   -4924    -5028    -5066    -5005    -4843    -4629    -4449    -4378 
   -4434    -4595    -4818    -5058    -5251    -5335    -5282    -5130 
   -4957    -4823    -4730    -4683    -4692    -4753    -4834    -4882 
   -4887    -4878    -4864    -4827    -4791    -4777    -4787    -4814 
   -4847    -4876    -4872    -4815    -4718    -4587    -4459    -4402 
   -4448    -4568    -4723    -4891    -5058    -5151    -5093    -4946 
   -4815    -4706    -4568    -4409    -4309    -4317    -4390    -4479 
   -4577    -4679    -4780    -4912    -5081    -5212    -5239    -5171 
   -5054    -4911    -4747    -4575    -4422    -4347    -4392    -4499 
   -4576    -4644    -4769    -4934    -5057    -5080    -5024    -4924 
   -4772    -4575    -4401    -4288    -4209    -4152    -4162    -4264 
   -4422    -4584    -4738    -4888    -5007    -5047    -4992    -4878 
   -4743    -4614    -4521    -4453    -4383    -4364    -4465    -4645 
   -4815    -4965    -5081    -5116    -5059    -4959    -4878    -4854 
   -4846    -4810    -4768    -4746    -4718    -4672    -4672    -4753 
   -4857    -4924    -4928    -4873    -4831    -4849    -4858    -4815 
   -4773    -4761    -4747    -4725    -4711    -4704    -4704    -4730 
   -4754    -4711    -4617    -4561    -4573    -4621    -4665    -4695 
   -4706    -4695    -4653    -4579    -4517    -4523    -4611    -4727 
   -4773    -4735    -4702    -4707    -4677    -4575    -4488    -4504 
   -4569    -4588    -4581    -4627    -4743    -4881    -5001    -5097 
   -5146    -5119    -5001    -4834    -4685    -4596    -4564    -4561 
   -4575    -4619    -4730    -4896    -5050    -5144    -5186    -5179 
   -5096    -4962    -4865    -4855    -4881    -4866    -4797    -4725 
   -4677    -4671    -4742    -4864    -4943    -4950    -4918    -4864 
   -4784    -4692    -4641    -4630    -4585    -4507    -4476    -4506 
   -4540    -4599    -4733    -4881    -4972    -5034    -5092    -5084 
   -4992    -4884    -4789    -4688    -4611    -4599    -4649    -4735 
   -4843    -4938    -4970    -4928    -4865    -4830    -4801    -4741 
   -4679    -4669    -4689    -4693    -4712    -4789    -4878    -4936 
   -4977    -4982    -4919    -4804    -4692    -4622    -4600    -4603 
   -4608    -4619    -4642    -4662    -4672    -4684    -4706    -4745 
   -4819    -4923    -5028    -5086    -5059    -4955    -4815    -4704 
   -4658    -4671    -4706    -4711    -4666    -4598    -4563    -4590 
   -4645    -4687    -4700    -4710    -4747    -4777    -4742    -4660 
   -4568    -4476    -4415    -4430    -4517    -4631    -4758    -4891 
   -4986    -4997    -4950    -4928    -4934    -4899    -4815    -4729 
   -4675    -4666    -4681    -4706    -4750    -4799    -4854    -4923 
   -4973    -4973    -4962    -4981    -5009    -5000    -4965    -4938 
   -4905    -4841    -4747    -4654    -4611    -4634    -4676    -4722 
   -4789    -4837    -4822    -4781    -4739    -4660    -4565    -4526 
   -4563    -4648    -4761    -4865    -4922    -4939    -4941    -4924 
   -4885    -4855    -4833    -4800    -4772    -4749    -4719    -4695 
   -4683    -4664    -4660    -4722    -4830    -4901    -4907    -4896 
   -4922    -4963    -4935    -4837    -4769    -4756    -4727    -4687 
   -4691    -4725    -4747    -4779    -4833    -4860    -4839    -4799 
   -4750    -4703    -4657    -4615    -4615    -4672    -4726    -4735 
   -4716    -4696    -4693    -4742    -4835    -4895    -4869    -4791 
   -4729    -4714    -4722    -4714    -4702    -4706    -4711    -4687 
   -4625    -4563    -4541    -4556    -4581    -4625    -4688    -4752 
   -4801    -4828    -4820    -4787    -4769    -4781    -4791    -4795 
   -4831    -4889    -4926    -4907    -4842    -4791    -4804    -4849 
   -4869    -4854    -4827    -4804    -4784    -4764    -4753    -4757 
   -4760    -4729    -4676    -4660    -4702    -4770    -4820    -4833 
   -4830    -4846    -4866    -4846    -4791    -4754    -4737    -4712 
   -4726    -4800    -4873    -4905    -4914    -4884    -4808    -4734 
   -4695    -4675    -4644    -4604    -4588    -4600    -4621    -4633 
   -4645    -4654    -4649    -4657    -4702    -4747    -4795    -4853 
   -4873    -4819    -4726    -4645    -4603    -4622    -4693    -4776 
   -4845    -4914    -4978    -5003    -4962    -4878    -4780    -4676 
   -4591    -4568    -4607    -4658    -4692    -4738    -4812    -4887 
   -4927    -4936    -4935    -4922    -4858    -4739    -4625    -4561 
   -4553    -4595    -4644    -4672    -4719    -4804    -4876    -4904 
   -4924    -4949    -4936    -4869    -4772    -4689    -4666    -4695 
   -4729    -4749    -4765    -4801    -4862    -4920    -4942    -4923 
   -4888    -4857    -4830    -4807    -4803    -4814    -4820    -4797 
   -4750    -4710    -4689    -4684    -4707    -4765    -4834    -4880 
   -4861    -4777    -4708    -4695    -4712    -4766    -4853    -4907 
   -4899    -4881    -4895    -4916    -4900    -4841    -4768    -4693 
   -4635    -4619    -4637    -4666    -4711    -4777    -4839    -4865 
   -4854    -4814    -4745    -4684    -4672    -4695    -4698    -4679 
   -4676    -4675    -4653    -4641    -4660    -4696    -4725    -4727 
   -4718    -4706    -4673    -4627    -4581    -4540    -4521    -4523 
   -4525    -4525    -4541    -4600    -4684    -4733    -4747    -4766 
   -4783    -4758    -4706    -4676    -4695    -4731    -4757    -4777 
   -4799    -4828    -4866    -4878    -4858    -4835    -4831    -4838 
   -4826    -4792    -4776    -4776    -4758    -4734    -4727    -4752 
   -4796    -4842    -4893    -4930    -4909    -4845    -4796    -4783 
   -4770    -4752    -4753    -4783    -4819    -4851    -4853    -4806 
   -4745    -4723    -4715    -4681    -4642    -4619    -4625    -4679 
   -4756    -4816    -4853    -4873    -4876    -4847    -4789    -4737 
   -4746    -4824    -4923    -5000    -5042    -5039    -5012    -4985 
   -4959    -4931    -4911    -4896    -4855    -4785    -4742    -4757 
   -4773    -4750    -4733    -4747    -4765    -4768    -4756    -4718 
   -4666    -4641    -4654    -4683    -4708    -4729    -4750    -4758 
   -4722    -4649    -4596    -4602    -4646    -4714    -4789    -4842 
   -4858    -4853    -4828    -4800    -4784    -4772    -4756    -4762 
   -4799    -4834    -4858    -4878    -4900    -4927    -4947    -4941 
   -4907    -4887    -4900    -4919    -4934    -4958    -4968    -4939 
   -4891    -4842    -4801    -4783    -4797    -4831    -4850    -4842 
   -4843    -4865    -4876    -4849    -4806    -4788    -4787    -4776 
