Origin Time       2025/01/13 21:19:00
Lat.              31.8
Long.             131.6
Depth. (km)       30
Mag.              6.9
Station Code      KOC009
Station Lat.      33.5736
Station Long.     133.1720
Station Height(m) 98
Record Time       2025/01/13 21:20:48
Sampling Freq(Hz) 100Hz
Duration Time(s)  60
Dir.              U-D
Scale Factor      7845(gal)/8223790
Max. Acc. (gal)   1.391
Last Correction   2025/01/13 21:20:49
Memo.             
[...]
   23784    23851    23797    23688    23614    23623    23697    23747 
   23692    23538    23384    23355    23475    23622    23680    23661 
   23629    23647    23776    23946    23977    23830    23664    23591 
   23580    23587    23610    23642    23681    23723    23753    23777 
   23799    23815    23847    23903    23934    23931    23951    24005 
   24020    23944    23819    23742    23773    23854    23881    23832 
   23750    23676    23634    23607    23546    23434    23303    23174 
   23074    23051    23103    23186    23253    23296    23356    23475 
   23625    23760    23866    23938    23992    24092    24259    24370 
   24305    24123    23957    23849    23780    23751    23755    23758 
   23738    23707    23714    23791    23905    24007    24084    24127 
   24129    24139    24220    24335    24364    24281    24177    24144 
   24181    24219    24209    24163    24093    23977    23850    23796 
   23796    23758    23692    23693    23762    23809    23808    23770 
   23688    23552    23444    23453    23518    23541    23561    23639 
   23765    23878    23927    23920    23927    23974    24023    24046 
   24050    24019    23951    23877    23800    23718    23669    23673 
   23706    23746    23782    23773    23716    23673    23700    23803 
   23943    24048    24071    24050    24025    23996    23963    23942 
   23900    23799    23653    23531    23479    23458    23426    23383 
   23342    23328    23365    23452    23533    23560    23544    23512 
   23457    23356    23253    23233    23275    23290    23252    23191 
   23137    23117    23139    23157    23132    23070    23004    22955 
   22932    22964    23068    23198    23299    23388    23481    23579 
   23677    23758    23807    23847    23936    24084    24183    24119 
   23978    23969    24102    24202    24177    24082    24005    24007 
   24084    24169    24204    24178    24143    24182    24282    24309 
   24228    24187    24281    24395    24379    24225    24057    24007 
   24084    24163    24146    24021    23862    23785    23830    23897 
   23895    23853    23822    23805    23803    23784    23719    23631 
   23539    23436    23342    23264    23174    23075    23012    23005 
   23056    23149    23224    23257    23282    23333    23417    23519 
   23608    23633    23579    23511    23496    23552    23677    23835 
   23931    23896    23800    23787    23861    23885    23782    23647 
   23618    23714    23838    23911    23922    23904    23915    23965 
   24013    24027    24005    23959    23909    23877    23870    23874 
   23863    23822    23723    23575    23446    23382    23352    23328 
   23311    23303    23275    23240    23257    23337    23422    23452 
   23415    23376    23388    23430    23442    23422    23402    23394 
   23407    23448    23480    23491    23512    23538    23525    23471 
   23433    23465    23548    23606    23591    23530    23490    23494 
   23488    23448    23427    23471    23541    23593    23626    23647 
   23658    23669    23666    23615    23548    23537    23595    23652 
   23647    23620    23670    23830    23986    24027    23970    23899 
   23863    23885    23950    23984    23939    23874    23858    23868 
   23819    23708    23646    23680    23726    23745    23778    23828 
   23874    23957    24050    24048    23946    23855    23865    23951 
   23994    23935    23847    23803    23793    23803    23812    23800 
   23789    23841    23938    23946    23782    23544    23368    23306 
   23333    23406    23460    23453    23437    23471    23526    23548 
   23554    23622    23753    23828    23789    23737    23770    23859 
   23904    23869    23797    23743    23746    23809    23857    23789 
   23649    23580    23633    23728    23789    23804    23819    23870 
   23963    24032    23957    23742    23568    23549    23625    23703 
   23746    23760    23760    23758    23764    23764    23722    23670 
   23715    23858    23940    23865    23707    23572    23480    23430 
   23437    23480    23495    23448    23371    23302    23259    23257 
   23313    23410    23500    23549    23576    23637    23727    23801 
   23838    23838    23823    23836    23861    23851    23826    23830 
   23861    23890    23909    23901    23862    23830    23820    23797 
   23739    23680    23668    23680    23654    23612    23615    23633 
   23600    23538    23510    23512    23494    23469    23500    23546 
   23510    23419    23380    23406    23426    23415    23395    23384 
   23394    23453    23564    23658    23665    23642    23707    23843 
   23931    23919    23843    23746    23676    23680    23741    23787 
   23785    23755    23710    23661    23627    23638    23737    23865 
   23872    23743    23630    23637    23716    23761    23714    23626 
   23592    23646    23743    23816    23824    23803    23849    23998 
   24136    24155    24108    24097    24140    24189    24175    24081 
   23959    23880    23866    23876    23826    23700    23592    23556 
   23535    23494    23467    23496    23569    23639    23683    23711 
   23720    23714    23735    23784    23785    23699    23584    23526 
   23546    23606    23645    23631    23573    23491    23419    23384 
   23372    23355    23345    23356    23349    23341    23413    23550 
   23696    23812    23854    23820    23785    23777    23764    23778 
   23855    23928    23923    23855    23776    23720    23726    23800 
   23899    23961    23958    23905    23853    23845    23882    23955 
   24063    24154    24144    24027    23904    23857    23851    23824 
   23773    23753    23780    23803    23792    23760    23722    23695 
   23692    23703    23714    23719    23737    23807    23880    23861 
   23764    23683    23674    23720    23751    23722    23664    23646 
   23715    23841    23936    23953    23923    23916    23951    23980 
   23946    23865    23826    23819    23765    23679    23615    23568 
   23522    23479    23429    23380    23373    23431    23521    23593 
   23626    23652    23734    23863    23958    23958    23849    23668 
   23525    23517    23606    23669    23650    23614    23631    23699 
   23772    23811    23785    23723    23693    23723    23788    23862 
   23922    23927    23877    23820    23793    23799    23816    23814 
   23785    23765    23761    23760    23758    23769    23776    23754 
   23723    23700    23688    23704    23726    23712    23691    23684 
   23666    23654    23679    23726    23769    23774    23724    23660 
   23615    23575    23548    23565    23595    23584    23564    23580 
   23623    23656    23669    23688    23728    23765    23782    23795 
   23812    23818    23807    23807    23841    23907    23981    24035 
   24051    24024    23976    23947    23954    23977    23971    23922 
   23858    23830    23841    23842    23803    23751    23741    23785 
   23841    23819    23697    23581    23561    23633    23735    23789 
   23774    23735    23714    23706    23672    23588    23518    23535 
   23608    23653    23643    23591    23534    23506    23484    23450 
   23422    23394    23384    23453    23560    23584    23514    23446 
   23472    23603    23745    23785    23703    23568    23487    23521 
   23593    23580    23461    23361    23410    23573    23699    23708 
   23662    23642    23665    23728    23804    23847    23851    23836 
   23824    23862    23957    24016    23981    23903    23842    23811 
   23777    23704    23600    23512    23487    23526    23581    23587 
   23525    23429    23345    23311    23346    23417    23468    23472 
   23427    23363    23317    23295    23282    23269    23242    23191 
   23161    23199    23268    23298    23287    23290    23341    23411 
   23441    23430    23436    23475    23503    23504    23507    23531 
   23569    23581    23566    23571    23596    23606    23641    23737 
   23818    23811    23764    23758    23801    23830    23800    23755 
   23776    23854    23909    23901    23843    23765    23726    23766 
   23870    23963    23961    23862    23774    23754    23757    23746 
   23730    23706    23641    23512    23372    23317    23369    23463 
   23522    23522    23481    23460    23510    23608    23665    23641 
   23607    23634    23714    23824    23939    23994    23970    23935 
   23940    23970    23970    23904    23818    23784    23812    23858 
   23880    23853    23774    23701    23722    23832    23934    23955 
   23909    23854    23850    23897    23946    23969    23977    23969 
   23942    23913    23912    23930    23922    23900    23917    23994 
   24059    24035    23946    23866    23824    23812    23824    23839 
   23823    23782    23764    23796    23846    23892    23947    24007 
   24035    24021    24009    24038    24057    24024    23974    23913 
   23832    23781    23789    23801    23749    23660    23638    23727 
   23843    23877    23822    23757    23750    23830    23966    24070 
   24078    24036    24031    24096    24178    24194    24167    24190 
   24267    24325    24320    24270    24241    24273    24339    24371 
   24318    24228    24189    24219    24256    24233    24123    23973 
   23862    23831    23843    23841    23808    23766    23743    23716 
   23633    23514    23438    23419    23415    23415    23407    23369 
   23332    23356    23417    23423    23376    23364    23429    23523 
   23572    23546    23511    23544    23633    23700    23696    23647 
   23607    23631    23728    23799    23750    23631    23548    23546 
   23593    23623    23602    23571    23573    23581    23561    23503 
   23419    23341    23302    23290    23269    23249    23268    23340 
   23425    23450    23396    23325    23303    23356    23446    23480 
   23415    23323    23309    23379    23442    23415    23328    23271 
   23271    23292    23315    23321    23291    23260    23278    23342 
   23404    23433    23453    23484    23514    23541    23558    23561 
   23573    23599    23633    23701    23805    23884    23908    23888 
   23841    23791    23789    23838    23880    23889    23876    23834 
   23768    23733    23730    23677    23550    23446    23453    23535 
   23604    23611    23588    23577    23557    23526    23542    23629 
   23728    23785    23785    23738    23670    23638    23669    23718 
   23738    23758    23809    23870    23926    23985    24032    24047 
   24025    23969    23924    23950    24016    24055    24061    24048 
   24021    24011    24048    24088    24067    24011    23978    23982 
   23986    23965    23935    23905    23857    23785    23711    23635 
   23566    23526    23507    23491    23487    23502    23514    23506 
   23480    23453    23446    23475    23530    23587    23610    23587 
   23548    23504    23458    23427    23399    23345    23294    23261 
   23237    23210    23186    23193    23244    23301    23319    23319 
   23352    23403    23413    23390    23411    23485    23558    23623 
   23691    23728    23735    23758    23812    23873    23924    23954 
   23969    23997    24058    24147    24240    24293    24277    24221 
   24190    24185    24173    24132    24065    24005    23970    23950 
   23949    23943    23882    23801    23778    23820    23859    23841 
   23758    23664    23610    23603    23625    23654    23673    23684 
   23703    23718    23688    23634    23607    23604    23583    23525 
   23467    23450    23458    23440    23414    23430    23473    23512 
   23553    23568    23507    23390    23321    23369    23476    23538 
   23544    23553    23595    23656    23716    23754    23755    23753 
   23782    23828    23836    23791    23734    23728    23789    23886 
   23971    24012    24021    24036    24082    24142    24159    24128 
   24100    24112    24128    24121    24129    24167    24201    24205 
   24187    24171    24158    24116    24028    23934    23884    23874 
   23889    23908    23896    23843    23793    23780    23781    23746 
   23662    23577    23529    23504    23502    23539    23575    23538 
   23448    23380    23369    23392    23409    23411    23441    23510 
   23592    23669    23701    23669    23602    23527    23457    23395 
   23332    23261    23202    23164    23149    23155    23175    23203 
   23234    23247    23213    23145    23110    23130    23164    23174 
   23155    23125    23109    23095    23072    23044    23028    23036 
   23089    23168    23218    23236    23274    23356    23441    23495 
   23533    23581    23627    23641    23633    23634    23645    23660 
   23670    23653    23618    23610    23658    23758    23858    23919 
   23977    24074    24185    24252    24268    24271    24283    24306 
   24324    24317    24308    24348    24437    24509    24517    24470 
   24412    24387    24414    24478    24540    24578    24599    24611 
   24628    24657    24672    24653    24628    24614    24602    24560 
   24471    24381    24341    24320    24273    24229    24236    24306 
   24433    24552    24576    24506    24432    24437    24511    24568 
   24547    24511    24557    24668    24738    24696    24576    24484 
   24479    24525    24532    24432    24247    24082    24003    23970 
   23908    23792    23647    23531    23465    23382    23210    22977 
   22778    22671    22642    22626    22559    22443    22338    22284 
   22266    22254    22246    22258    22308    22388    22465    22507 
   22527    22577    22658    22702    22686    22666    22688    22723 
   22724    22693    22677    22696    22731    22759    22766    22751 
   22732    22735    22763    22790    22809    22852    22927    22997 
   23024    23016    23010    23024    23043    23053    23066    23098 
   23145    23179    23203    23242    23294    23356    23444    23542 
   23627    23715    23823    23940    24042    24108    24138    24148 
   24160    24181    24198    24208    24237    24313    24406    24468 
   24487    24497    24541    24621    24691    24736    24759    24742 
   24702    24688    24705    24705    24678    24656    24645    24618 
   24579    24565    24579    24586    24559    24495    24440    24449 
   24518    24574    24578    24548    24518    24520    24567    24646 
   24734    24802    24849    24892    24937    24954    24925    24871 
   24810    24734    24648    24583    24537    24478    24413    24366 
   24318    24229    24104    23980    23863    23747    23639    23531 
   23427    23336    23256    23197    23167    23141    23102    23072 
   23071    23064    23025    22971    22935    22909    22883    22870 
   22864    22862    22871    22891    22904    22887    22837    22781 
   22754    22773    22813    22833    22836    22863    22931    22994 
   23006    22970    22933    22945    22994    23020    23002    22956 
   22914    22914    22943    22960    22947    22918    22893    22881 
   22905    22958    23002    23033    23076    23144    23206    23226 
   23224    23252    23323    23400    23456    23494    23523    23568 
   23657    23778    23888    23958    23990    24012    24046    24075 
   24081    24092    24146    24220    24254    24237    24202    24178 
   24174    24185    24197    24209    24227    24241    24246    24248 
   24254    24256    24263    24286    24324    24335    24287    24214 
   24162    24127    24081    24013    23938    23865    23788    23708 
   23634    23566    23490    23403    23332    23282    23222    23133 
   23049    23001    22983    22981    22986    22987    22970    22918 
   22867    22869    22908    22932    22924    22898    22883    22897 
   22929    22968    23004    23036    23082    23141    23205    23268 
   23336    23414    23515    23643    23770    23865    23930    23966 
   23989    24034    24125    24223    24273    24281    24301    24358 
   24410    24405    24352    24308    24297    24294    24271    24209 
   24117    24034    23996    23982    23934    23843    23757    23706 
   23662    23599    23527    23464    23394    23314    23261    23251 
   23247    23234    23232    23237    23232    23217    23221    23267 
   23321    23361    23414    23491    23573    23662    23757    23834 
   23888    23928    23959    23992    24028    24059    24096    24152 
   24213    24264    24291    24289    24282    24297    24314    24321 
   24325    24333    24332    24310    24278    24244    24204    24154 
   24117    24097    24063    24016    23973    23936    23897    23854 
   23820    23816    23847    23886    23916    23942    23973    24009 
   24061    24116    24133    24108    24084    24101    24150    24192 
   24206    24210    24237    24301    24381    24440    24455    24445 
   24456    24495    24514    24468    24375    24286    24241    24225 
   24194    24143    24104    24075    24052    24035    24019    23978 
   23912    23861    23851    23866    23859    23808    23734    23670 
   23620    23562    23488    23410    23349    23317    23307    23295 
   23257    23182    23099    23058    23058    23062    23045    23024 
   23022    23045    23091    23155    23210    23237    23234    23218 
   23218    23215    23184    23139    23099    23068    23032    22985 
   22945    22928    22916    22901    22887    22859    22812    22774 
   22778    22808    22813    22793    22783    22805    22851    22909 
   22967    23013    23058    23120    23187    23236    23268    23317 
   23387    23461    23502    23502    23504    23542    23595    23634 
   23657    23669    23681    23701    23724    23743    23761    23785 
   23822    23855    23870    23882    23923    23974    23998    23985 
   23985    24052    24171    24274    24316    24317    24332    24389 
   24463    24517    24532    24499    24445    24414    24424    24428 
   24393    24340    24294    24255    24208    24131    24038    23961 
   23911    23872    23830    23773    23691    23610    23571    23558 
   23519    23423    23299    23211    23174    23152    23125    23098 
   23101    23140    23183    23201    23211    23237    23271    23311 
   23363    23419    23484    23561    23649    23741    23824    23896 
   23962    24039    24105    24150    24192    24233    24246    24244 
   24279    24364    24467    24553    24618    24676    24738    24787 
   24817    24854    24912    24965    24989    24988    24977    24958 
   24934    24908    24876    24838    24806    24772    24721    24660 
   24592    24507    24410    24305    24198    24093    24005    23943 
   23885    23799    23679    23554    23456    23367    23267    23166 
   23091    23045    23009    22967    22918    22874    22850    22866 
   22914    22950    22948    22945    22987    23062    23129    23161 
   23175    23210    23272    23336    23368    23353    23332    23352 
   23415    23499    23572    23619    23657    23693    23727    23766 
   23822    23888    23936    23950    23927    23890    23868    23853 
   23820    23765    23727    23719    23710    23676    23637    23625 
   23641    23654    23641    23619    23610    23622    23657    23700 
   23727    23712    23669    23639    23637    23638    23616    23577 
   23550    23538    23522    23496    23473    23464    23477    23511 
