Origin Time       2025/01/13 21:19:00
Lat.              31.8
Long.             131.6
Depth. (km)       30
Mag.              6.9
Station Code      KOC004
Station Lat.      33.6975
Station Long.     133.8764
Station Height(m) 220
Record Time       2025/01/13 21:20:50
Sampling Freq(Hz) 100Hz
Duration Time(s)  76
Dir.              E-W
Scale Factor      7845(gal)/8223790
Max. Acc. (gal)   1.613
Last Correction   2025/01/13 21:20:50
Memo.             
[...]
   17513    17554    17525    17410    17323    17331    17382    17437 
   17477    17487    17487    17483    17497    17581    17712    17793 
   17814    17836    17863    17863    17825    17784    17784    17791 
   17757    17667    17543    17412    17286    17246    17351    17521 
   17662    17756    17810    17834    17797    17701    17659    17710 
   17778    17809    17786    17683    17533    17466    17510    17540 
   17514    17531    17585    17575    17483    17377    17309    17284 
   17275    17311    17413    17529    17649    17772    17826    17821 
   17853    17901    17865    17752    17622    17531    17513    17563 
   17648    17734    17788    17803    17818    17832    17779    17686 
   17674    17744    17774    17733    17695    17714    17748    17737 
   17675    17606    17581    17587    17560    17521    17532    17547 
   17493    17440    17531    17702    17766    17741    17782    17879 
   17884    17774    17671    17632    17589    17481    17354    17312 
   17356    17405    17451    17533    17645    17749    17833    17892 
   17938    17996    18036    18014    17995    18017    17960    17733 
   17456    17302    17343    17469    17489    17427    17459    17552 
   17559    17544    17626    17728    17716    17628    17578    17562 
   17502    17415    17373    17393    17451    17473    17402    17313 
   17282    17297    17365    17482    17595    17676    17732    17764 
   17748    17713    17734    17767    17701    17547    17440    17475 
   17575    17628    17674    17787    17899    17884    17757    17621 
   17510    17427    17415    17486    17570    17594    17543    17485 
   17523    17613    17636    17616    17625    17604    17481    17354 
   17343    17436    17513    17512    17532    17608    17586    17412 
   17274    17297    17388    17432    17477    17590    17709    17720 
   17633    17579    17620    17658    17591    17489    17470    17540 
   17620    17683    17784    17909    18003    18033    17984    17915 
   17887    17878    17845    17795    17779    17821    17825    17716 
   17606    17601    17616    17601    17640    17703    17671    17595 
   17620    17729    17776    17728    17699    17749    17775    17701 
   17636    17686    17729    17636    17520    17537    17636    17655 
   17597    17622    17741    17779    17699    17641    17632    17593 
   17550    17591    17670    17668    17639    17693    17772    17782 
   17783    17861    17965    17975    17896    17840    17802    17713 
   17601    17505    17413    17365    17402    17485    17552    17629 
   17717    17748    17730    17709    17672    17605    17491    17346 
   17250    17200    17124    17111    17246    17389    17433    17493 
   17626    17664    17535    17440    17496    17540    17491    17448 
   17446    17447    17462    17514    17577    17616    17658    17691 
   17664    17617    17583    17529    17493    17513    17497    17424 
   17375    17366    17356    17370    17458    17574    17614    17612 
   17651    17716    17747    17722    17668    17644    17652    17659 
   17649    17640    17656    17685    17686    17675    17672    17664 
   17648    17632    17620    17626    17637    17635    17678    17774 
   17820    17788    17753    17739    17736    17740    17730    17737 
   17778    17793    17747    17705    17716    17720    17674    17645 
   17678    17713    17701    17647    17601    17583    17555    17527 
   17560    17643    17690    17701    17756    17834    17811    17687 
   17550    17448    17406    17432    17498    17577    17660    17739 
   17760    17705    17666    17687    17698    17668    17624    17564 
   17478    17408    17416    17504    17608    17683    17744    17794 
   17817    17806    17782    17775    17787    17770    17699    17625 
   17621    17678    17717    17706    17639    17536    17493    17532 
   17574    17604    17680    17807    17883    17811    17691    17664 
   17656    17568    17497    17535    17624    17676    17701    17755 
   17842    17865    17794    17745    17779    17801    17751    17701 
   17713    17740    17725    17680    17640    17616    17618    17641 
   17648    17613    17564    17536    17544    17606    17703    17768 
   17771    17763    17779    17753    17640    17529    17516    17543 
   17535    17524    17536    17513    17447    17437    17512    17589 
   17613    17578    17529    17551    17637    17691    17660    17601 
   17577    17563    17537    17505    17420    17277    17209    17297 
   17428    17474    17454    17483    17595    17699    17714    17667 
   17641    17662    17666    17616    17590    17655    17717    17664 
   17567    17555    17608    17629    17616    17597    17601    17658 
   17720    17694    17609    17585    17616    17605    17540    17490 
   17482    17483    17462    17432    17437    17487    17513    17473 
   17428    17448    17510    17563    17614    17682    17717    17703 
   17707    17732    17706    17631    17560    17520    17523    17541 
   17551    17591    17680    17757    17790    17809    17825    17802 
   17748    17716    17695    17651    17635    17645    17610    17585 
   17667    17793    17825    17784    17806    17911    17967    17890 
   17763    17725    17793    17833    17791    17766    17786    17733 
   17578    17466    17464    17459    17386    17370    17473    17555 
   17563    17590    17636    17608    17501    17431    17485    17609 
   17709    17756    17764    17721    17631    17550    17544    17626 
   17737    17802    17832    17896    17976    17983    17928    17922 
   18019    18092    18025    17902    17844    17849    17883    17899 
   17891    17845    17729    17605    17547    17510    17458    17440 
   17502    17599    17629    17548    17437    17423    17482    17493 
   17435    17415    17423    17352    17261    17281    17371    17388 
   17297    17253    17371    17510    17506    17442    17470    17564 
   17609    17598    17605    17633    17668    17709    17732    17722 
   17710    17726    17745    17733    17709    17706    17706    17685 
   17617    17520    17463    17474    17525    17601    17652    17644 
   17616    17612    17637    17663    17686    17764    17909    18018 
   18002    17875    17775    17770    17741    17636    17577    17616 
   17635    17562    17508    17533    17548    17532    17525    17529 
   17539    17514    17456    17460    17545    17601    17593    17613 
   17691    17733    17695    17648    17651    17675    17648    17595 
   17622    17698    17705    17672    17682    17707    17717    17713 
   17697    17720    17780    17797    17753    17712    17702    17702 
   17693    17691    17707    17709    17656    17567    17497    17478 
   17513    17579    17628    17633    17652    17698    17701    17648 
   17613    17631    17631    17559    17475    17400    17305    17230 
   17205    17239    17302    17363    17455    17562    17602    17591 
   17591    17620    17633    17621    17659    17737    17763    17725 
   17656    17571    17502    17467    17452    17444    17466    17520 
   17531    17479    17444    17486    17594    17694    17726    17733 
   17779    17802    17717    17602    17537    17485    17446    17450 
   17415    17320    17280    17325    17375    17389    17383    17366 
   17350    17386    17459    17521    17599    17722    17838    17886 
   17829    17709    17626    17590    17564    17544    17510    17485 
   17501    17512    17479    17416    17324    17255    17292    17416 
   17564    17703    17810    17878    17911    17894    17853    17842 
   17861    17898    17944    17965    17915    17802    17666    17550 
   17458    17396    17394    17442    17491    17513    17498    17444 
   17382    17363    17401    17475    17571    17648    17666    17671 
   17694    17667    17567    17478    17455    17463    17448    17450 
   17547    17690    17774    17782    17741    17671    17578    17490 
   17500    17632    17778    17853    17871    17857    17830    17829 
   17864    17903    17941    17986    18004    17982    17967    17986 
   17952    17797    17583    17423    17324    17211    17104    17128 
   17293    17489    17655    17763    17761    17633    17440    17292 
   17230    17205    17209    17323    17505    17590    17572    17608 
   17726    17842    17905    17899    17849    17803    17753    17693 
   17685    17751    17842    17953    18137    18353    18462    18445 
   18358    18235    18092    17901    17647    17420    17302    17301 
   17379    17509    17663    17788    17882    17938    17911    17828 
   17757    17707    17625    17486    17331    17205    17143    17239 
   17506    17753    17802    17699    17629    17633    17583    17459 
   17388    17358    17263    17188    17257    17374    17398    17398 
   17456    17481    17421    17459    17728    18063    18242    18226 
   18115    17972    17774    17535    17374    17366    17444    17533 
   17672    17888    18088    18184    18199    18185    18129    17983 
   17720    17409    17226    17211    17213    17145    17047    16980 
   17030    17267    17651    18079    18403    18488    18330    18030 
   17686    17344    17072    16968    17045    17163    17216    17281 
   17436    17591    17698    17860    18081    18239    18261    18137 
   17945    17805    17718    17633    17599    17689    17857    17992 
   18037    18002    17933    17872    17820    17776    17771    17780 
   17770    17776    17793    17739    17618    17566    17663    17834 
   17964    18002    17941    17791    17571    17297    17008    16795 
   16769    16962    17282    17593    17833    18041    18249    18393 
   18392    18283    18123    17869    17545    17270    17030    16771 
   16618    16715    16999    17288    17471    17577    17656    17743 
   17859    17976    18015    17938    17778    17594    17464    17433 
   17469    17504    17608    17891    18199    18269    18134    17990 
   17874    17697    17439    17212    17105    17115    17254    17513 
   17766    17913    17983    18025    18054    18053    17960    17786 
   17622    17506    17412    17350    17325    17266    17178    17254 
   17599    18010    18207    18146    17975    17786    17571    17409 
   17431    17570    17641    17629    17635    17643    17566    17450 
   17416    17539    17760    17957    18103    18218    18252    18139 
   17913    17658    17421    17293    17369    17490    17421    17243 
   17147    17113    17097    17203    17451    17635    17617    17510 
   17382    17147    16854    16711    16830    17105    17412    17730 
   18046    18269    18319    18199    17973    17699    17406    17192 
   17163    17251    17300    17316    17385    17466    17517    17639 
   17883    18121    18250    18327    18407    18441    18357    18148 
   17907    17743    17633    17506    17370    17273    17240    17262 
   17332    17463    17618    17739    17836    17890    17849    17751 
   17644    17568    17551    17540    17471    17405    17439    17532 
   17589    17547    17379    17184    17101    17142    17277    17531 
   17894    18193    18203    17982    17852    17973    18146    18162 
   18083    17990    17815    17582    17419    17312    17178    17059 
   17069    17207    17316    17277    17215    17343    17671    18067 
   18396    18551    18530    18428    18266    17998    17690    17474 
   17389    17428    17540    17640    17712    17757    17710    17572 
   17429    17335    17332    17421    17500    17510    17525    17625 
   17805    17956    17992    17952    17925    17903    17783    17535 
   17280    17100    16950    16866    16976    17282    17605    17790 
   17911    18091    18288    18423    18426    18225    17860    17448 
   17108    16953    16978    17047    17076    17076    17126    17305 
   17643    18073    18372    18347    18168    18100    18112    18011 
   17741    17435    17240    17200    17305    17529    17775    17901 
   17888    17887    17960    17980    17887    17759    17649    17539 
   17404    17289    17273    17355    17504    17707    17895    17929 
   17734    17440    17254    17220    17231    17238    17286    17348 
   17350    17335    17354    17315    17167    17031    17035    17205 
   17539    17963    18304    18474    18527    18446    18142    17710 
   17416    17351    17344    17247    17116    17085    17203    17390 
   17550    17690    17860    18057    18304    18567    18665    18480 
   18148    17817    17498    17180    16912    16837    17043    17431 
   17826    18084    18088    17879    17614    17397    17292    17319 
   17346    17261    17203    17356    17602    17671    17502    17238 
   17078    17131    17331    17521    17631    17722    17840    17967 
   18090    18119    17960    17678    17446    17379    17467    17617 
   17726    17751    17751    17806    17892    17942    17929    17859 
   17770    17741    17845    18017    18108    18122    18157    18222 
   18219    18019    17625    17250    17127    17262    17446    17516 
   17494    17494    17606    17797    17901    17795    17509    17157 
   16899    16853    16968    17074    17091    17078    17113    17269 
   17558    17913    18246    18435    18342    17959    17416    16873 
   16453    16299    16530    17042    17595    18108    18646    19133 
   19321    19068    18497    17830    17208    16764    16626    16723 
   16862    17069    17560    18264    18755    18823    18708    18665 
   18593    18292    17836    17544    17564    17718    17818    17797 
   17599    17223    16838    16695    16881    17247    17609    17892 
   18053    18100    18102    18068    17957    17718    17355    17046 
   16922    16895    16858    16843    16916    17081    17374    17809 
   18223    18447    18488    18430    18323    18188    18040    17894 
   17726    17470    17161    17011    17128    17275    17213    17069 
   17115    17361    17555    17583    17578    17645    17689    17572 
   17424    17500    17728    17833    17797    17726    17555    17282 
   17136    17235    17432    17568    17664    17802    17968    18123 
   18260    18287    18103    17761    17377    17050    16970    17234 
   17656    18009    18280    18540    18738    18733    18434    17921 
   17455    17254    17280    17315    17247    17192    17332    17687 
   18053    18212    18162    18040    17986    18063    18153    18027 
   17632    17196    16980    17001    17100    17227    17415    17597 
   17695    17729    17676    17471    17193    17055    17159    17370 
   17509    17544    17548    17587    17655    17689    17666    17582 
   17400    17115    16883    16950    17392    18010    18526    18770 
   18751    18600    18451    18314    18095    17806    17602    17523 
   17437    17332    17309    17339    17281    17139    17104    17223 
   17293    17246    17259    17412    17560    17617    17666    17755 
   17795    17652    17311    16965    16833    16962    17281    17667 
   17964    18042    17922    17732    17555    17482    17640    18030 
   18451    18638    18422    17841    17165    16708    16637    16912 
   17339    17776    18231    18646    18886    18902    18760    18590 
   18419    18162    17826    17508    17285    17188    17200    17298 
   17466    17680    17871    17928    17840    17725    17744    17918 
   18023    17879    17614    17456    17394    17216    16868    16622 
   16726    17066    17336    17436    17502    17656    17887    18046 
   17988    17776    17629    17667    17787    17806    17676    17505 
   17417    17396    17317    17186    17092    17065    17136    17298 
   17481    17631    17757    17888    17998    17992    17847    17690 
   17709    17930    18129    18061    17722    17302    16993    16892 
   17031    17346    17666    17842    17833    17690    17524    17412 
   17381    17466    17612    17664    17645    17703    17805    17776 
   17533    17170    16920    16935    17127    17371    17643    17936 
   18177    18249    18090    17770    17423    17180    17162    17369 
   17655    17921    18139    18234    18121    17820    17464    17240 
   17251    17452    17775    18154    18468    18585    18480    18222 
   17911    17652    17455    17226    16945    16756    16823    17151 
   17514    17687    17728    17790    17847    17803    17663    17536 
   17567    17749    17957    18152    18308    18296    18040    17675 
   17423    17363    17452    17613    17703    17595    17338    17081 
   16873    16676    16580    16734    17118    17558    17946    18215 
   18230    17919    17436    17028    16831    16864    17084    17362 
   17552    17620    17668    17761    17853    17977    18246    18594 
   18792    18681    18272    17640    16910    16332    16137    16313 
   16671    17107    17589    18009    18247    18318    18341    18399 
   18399    18206    17871    17604    17509    17479    17409    17369 
   17431    17563    17756    18046    18387    18651    18774    18748 
   18532    18077    17464    16918    16629    16632    16831    17070 
   17250    17443    17718    17938    17932    17728    17486    17335 
   17339    17513    17779    17961    17906    17656    17396    17205 
   17108    17199    17486    17803    18014    18161    18328    18490 
   18550    18457    18261    18037    17814    17613    17437    17293 
   17230    17257    17321    17404    17470    17510    17602    17716 
   17713    17626    17605    17679    17801    17919    17949    17867 
   17768    17683    17571    17482    17470    17477    17463    17462 
   17478    17510    17551    17554    17532    17570    17699    17864 
   17977    18013    18014    18041    18083    18044    17838    17501 
   17173    17020    17055    17162    17307    17508    17690    17806 
   17913    18040    18122    18096    18002    17932    17949    18044 
   18118    18090    17994    17923    17896    17879    17803    17593 
   17297    17095    17103    17315    17671    18060    18364    18576 
   18731    18769    18632    18360    18003    17640    17408    17354 
   17369    17379    17388    17358    17309    17305    17305    17236 
   17180    17224    17278    17219    17084    17000    17014    17077 
   17138    17213    17342    17516    17703    17894    18067    18141 
   18067    17902    17737    17597    17469    17402    17458    17594 
   17710    17745    17705    17625    17517    17379    17253    17194 
   17219    17274    17370    17604    17946    18144    18037    17803 
   17697    17718    17716    17672    17668    17705    17709    17647 
   17614    17676    17729    17695    17685    17774    17856    17851 
   17863    17973    18069    18030    17901    17788    17751    17761 
   17760    17759    17744    17626    17397    17186    17115    17193 
   17342    17470    17581    17702    17774    17734    17640    17593 
   17610    17612    17543    17444    17379    17377    17374    17307 
   17238    17258    17354    17450    17501    17525    17537    17558 
   17618    17670    17595    17393    17200    17112    17155    17385 
   17772    18123    18285    18272    18166    18007    17787    17537 
