Origin Time       2025/01/13 21:19:00
Lat.              31.8
Long.             131.6
Depth. (km)       30
Mag.              6.9
Station Code      KOC017
Station Lat.      33.7844
Station Long.     133.7298
Station Height(m) 228
Record Time       2025/01/13 21:21:05
Sampling Freq(Hz) 100Hz
Duration Time(s)  60
Dir.              U-D
Scale Factor      7845(gal)/8223790
Max. Acc. (gal)   0.849
Last Correction   2025/01/13 21:21:05
Memo.             
[...]
   16980    16992    17011    17041    17084    17128    17162    17181 
   17190    17194    17193    17190    17178    17162    17142    17113 
   17077    17047    17026    17014    17016    17031    17055    17082 
   17119    17165    17215    17262    17304    17343    17386    17429 
   17473    17514    17558    17602    17647    17689    17718    17736 
   17743    17743    17730    17712    17694    17676    17658    17645 
   17636    17620    17605    17590    17566    17540    17512    17474 
   17433    17398    17374    17359    17351    17356    17370    17383 
   17393    17396    17390    17385    17386    17390    17390    17383 
   17374    17365    17352    17344    17347    17352    17350    17346 
   17344    17352    17367    17382    17394    17408    17427    17452 
   17479    17497    17505    17506    17506    17509    17516    17517 
   17509    17504    17501    17493    17479    17471    17469    17475 
   17494    17512    17517    17518    17527    17541    17568    17604 
   17636    17666    17695    17716    17729    17734    17734    17732 
   17730    17729    17724    17722    17728    17729    17725    17717 
   17702    17686    17676    17670    17662    17649    17635    17620 
   17614    17616    17610    17597    17583    17566    17537    17490 
   17433    17375    17324    17277    17236    17207    17188    17178 
   17173    17172    17172    17177    17185    17189    17192    17194 
   17203    17217    17235    17244    17243    17236    17234    17234 
   17230    17216    17190    17157    17116    17074    17041    17012 
   16981    16951    16922    16897    16884    16883    16884    16880 
   16868    16857    16846    16825    16798    16771    16748    16734 
   16730    16725    16711    16698    16687    16671    16657    16644 
   16634    16637    16657    16687    16715    16744    16773    16804 
   16834    16865    16899    16931    16958    16985    17011    17034 
   17058    17085    17112    17138    17172    17211    17254    17296 
   17339    17378    17410    17436    17460    17489    17524    17554 
   17571    17582    17586    17583    17578    17572    17571    17571 
   17567    17555    17536    17510    17477    17432    17385    17336 
   17284    17235    17194    17162    17149    17151    17159    17178 
   17208    17240    17278    17320    17359    17397    17440    17487 
   17540    17587    17628    17671    17716    17757    17795    17825 
   17849    17876    17899    17917    17929    17933    17933    17938 
   17945    17950    17955    17950    17941    17936    17929    17918 
   17909    17899    17887    17871    17845    17814    17795    17779 
   17755    17722    17687    17658    17636    17612    17585    17564 
   17550    17532    17509    17479    17444    17402    17365    17338 
   17316    17300    17289    17281    17278    17284    17300    17319 
   17343    17373    17405    17437    17469    17496    17518    17541 
   17566    17598    17633    17667    17703    17741    17775    17799 
   17813    17820    17818    17798    17776    17761    17748    17737 
   17718    17680    17625    17560    17490    17416    17348    17298 
   17259    17226    17192    17163    17142    17120    17097    17077 
   17064    17057    17050    17037    17027    17023    17022    17024 
   17026    17012    16987    16958    16937    16914    16883    16843 
   16794    16735    16680    16632    16582    16530    16497    16482 
   16479    16484    16488    16488    16494    16506    16521    16540 
   16565    16594    16622    16661    16711    16765    16816    16860 
   16899    16937    16974    17018    17069    17126    17192    17258 
   17316    17373    17427    17479    17528    17577    17622    17664 
   17697    17718    17729    17737    17747    17761    17775    17780 
   17782    17782    17778    17776    17779    17788    17801    17811 
   17828    17852    17883    17906    17919    17936    17952    17957 
   17946    17919    17880    17836    17783    17714    17631    17541 
   17447    17352    17261    17170    17084    17008    16951    16911 
   16880    16856    16834    16825    16827    16837    16852    16875 
   16896    16920    16950    16980    17011    17043    17072    17100 
   17128    17151    17167    17181    17197    17215    17230    17243 
   17259    17285    17317    17350    17382    17417    17455    17489 
   17523    17555    17581    17597    17605    17609    17612    17614 
   17622    17633    17641    17644    17640    17631    17614    17589 
   17551    17506    17467    17435    17408    17381    17351    17325 
   17308    17297    17292    17294    17296    17294    17296    17296 
   17290    17292    17307    17325    17343    17362    17386    17415 
   17442    17463    17483    17502    17512    17517    17521    17518 
   17517    17525    17525    17521    17518    17510    17498    17482 
   17462    17440    17419    17400    17386    17381    17378    17374 
   17369    17362    17365    17375    17390    17404    17413    17420 
   17424    17423    17410    17392    17373    17356    17343    17338 
   17331    17319    17304    17290    17281    17275    17270    17262 
   17248    17242    17247    17259    17273    17292    17313    17332 
   17343    17348    17344    17327    17297    17262    17227    17190 
   17153    17118    17085    17053    17022    16996    16972    16953 
   16939    16929    16919    16914    16918    16927    16939    16954 
   16973    16992    17010    17026    17034    17032    17026    17011 
   16993    16978    16965    16956    16954    16951    16946    16949 
   16960    16966    16965    16965    16970    16983    16996    17016 
   17042    17076    17112    17153    17194    17236    17281    17323 
   17365    17413    17464    17521    17581    17637    17693    17747 
   17788    17817    17840    17856    17859    17851    17841    17832 
   17814    17786    17753    17718    17680    17635    17585    17541 
   17504    17469    17435    17397    17359    17320    17275    17228 
   17181    17132    17084    17042    17004    16968    16935    16910 
   16887    16869    16856    16845    16833    16819    16802    16783 
   16772    16773    16787    16810    16835    16857    16870    16884 
   16897    16902    16891    16875    16864    16860    16858    16856 
   16850    16843    16838    16838    16839    16835    16833    16834 
   16842    16858    16877    16892    16906    16924    16945    16964 
   16988    17020    17058    17103    17155    17204    17254    17308 
   17362    17413    17456    17497    17540    17581    17617    17653 
   17686    17712    17734    17751    17759    17759    17752    17744 
   17732    17712    17691    17674    17652    17628    17605    17583 
   17567    17555    17548    17539    17524    17518    17514    17505 
   17493    17485    17474    17463    17459    17463    17470    17481 
   17496    17516    17541    17574    17602    17628    17647    17663 
   17676    17685    17687    17679    17652    17612    17567    17520 
   17464    17406    17344    17278    17219    17162    17104    17050 
   17008    16977    16958    16950    16947    16943    16945    16957 
   16977    17007    17045    17086    17136    17193    17247    17301 
   17361    17417    17466    17509    17548    17579    17604    17620 
   17624    17621    17612    17598    17586    17575    17560    17539 
   17517    17489    17459    17440    17432    17429    17439    17460 
   17491    17532    17578    17632    17697    17761    17832    17906 
   17979    18045    18106    18156    18191    18216    18225    18207 
   18169    18117    18052    17977    17890    17795    17710    17629 
   17550    17471    17398    17336    17285    17248    17220    17199 
   17189    17188    17182    17182    17189    17190    17186    17181 
   17181    17186    17193    17204    17219    17232    17243    17248 
   17251    17255    17263    17271    17277    17282    17292    17305 
   17323    17342    17359    17375    17392    17408    17420    17431 
   17440    17448    17454    17458    17460    17452    17433    17410 
   17382    17342    17294    17238    17173    17103    17034    16969 
   16919    16881    16856    16843    16835    16833    16834    16838 
   16849    16866    16887    16914    16945    16976    17011    17053 
   17095    17138    17182    17224    17265    17302    17339    17378 
   17421    17466    17508    17541    17579    17617    17653    17695 
   17743    17790    17838    17891    17940    17982    18017    18050 
   18080    18102    18114    18118    18121    18123    18119    18108 
   18096    18079    18053    18015    17971    17921    17861    17797 
   17730    17662    17591    17524    17460    17402    17348    17300 
   17251    17203    17161    17130    17108    17084    17053    17019 
   16992    16969    16945    16929    16919    16910    16902    16896 
   16887    16875    16862    16858    16860    16869    16881    16893 
   16903    16906    16904    16904    16908    16915    16927    16941 
   16947    16949    16949    16951    16953    16958    16968    16983 
   17007    17035    17062    17089    17112    17132    17153    17173 
   17200    17230    17267    17305    17334    17361    17394    17425 
   17451    17474    17500    17527    17558    17595    17633    17667 
   17699    17729    17752    17771    17790    17807    17821    17829 
   17834    17830    17822    17811    17801    17790    17776    17757 
   17740    17721    17705    17685    17660    17632    17601    17571 
   17539    17501    17464    17432    17404    17378    17351    17327 
   17305    17282    17257    17232    17209    17184    17167    17153 
   17136    17123    17111    17091    17066    17041    17018    16991 
   16962    16933    16903    16875    16845    16814    16787    16757 
   16729    16707    16691    16679    16671    16665    16663    16671 
   16683    16694    16711    16737    16761    16791    16829    16864 
   16896    16922    16941    16960    16980    17004    17026    17045 
   17066    17095    17123    17147    17174    17200    17219    17239 
   17262    17278    17301    17332    17356    17374    17389    17406 
   17412    17404    17393    17379    17359    17342    17328    17311 
   17289    17270    17258    17253    17248    17243    17239    17236 
   17235    17234    17235    17242    17248    17253    17255    17257 
   17261    17267    17277    17286    17300    17316    17331    17342 
   17356    17374    17385    17396    17408    17419    17428    17439 
   17447    17455    17458    17450    17431    17408    17382    17352 
   17321    17289    17259    17231    17207    17188    17167    17143 
   17126    17112    17105    17111    17120    17132    17151    17173 
   17194    17215    17230    17238    17243    17247    17257    17269 
   17289    17316    17348    17379    17409    17435    17455    17477 
   17500    17520    17532    17536    17536    17537    17545    17554 
   17563    17575    17591    17608    17618    17620    17614    17604 
   17593    17586    17581    17577    17577    17575    17571    17568 
   17560    17552    17548    17550    17556    17564    17577    17597 
   17626    17656    17687    17720    17748    17770    17790    17809 
   17826    17842    17856    17861    17859    17852    17849    17849 
   17844    17833    17822    17809    17797    17783    17763    17733 
   17702    17676    17652    17628    17605    17581    17558    17537 
   17512    17481    17448    17413    17377    17344    17319    17298 
   17284    17273    17265    17265    17270    17274    17273    17265 
   17254    17242    17236    17234    17236    17242    17247    17253 
   17258    17269    17275    17277    17282    17292    17304    17324 
   17350    17377    17401    17427    17456    17481    17505    17533 
   17562    17590    17618    17641    17658    17664    17666    17664 
   17659    17651    17639    17618    17594    17564    17528    17486 
   17440    17390    17336    17281    17230    17185    17149    17116 
   17085    17054    17023    16985    16945    16907    16869    16837 
   16815    16802    16794    16792    16798    16808    16816    16830 
   16846    16862    16880    16900    16920    16942    16968    16995 
   17016    17038    17057    17074    17093    17116    17136    17155 
   17167    17177    17190    17207    17221    17236    17246    17254 
   17267    17278    17286    17296    17305    17312    17319    17325 
   17329    17336    17343    17344    17340    17332    17325    17319 
   17308    17297    17290    17286    17284    17275    17265    17254 
   17242    17226    17209    17196    17180    17166    17154    17146 
   17142    17143    17143    17135    17122    17113    17111    17105 
   17096    17089    17085    17077    17066    17061    17054    17047 
   17043    17042    17039    17030    17015    17000    16983    16969 
   16962    16953    16941    16931    16926    16926    16929    16931 
   16937    16943    16951    16961    16970    16978    16985    16993 
   17005    17028    17057    17086    17120    17158    17199    17242 
   17286    17335    17388    17437    17483    17533    17587    17643 
   17697    17756    17810    17860    17909    17948    17984    18022 
   18057    18088    18123    18156    18181    18207    18223    18227 
   18226    18225    18218    18208    18199    18192    18183    18172 
   18157    18135    18107    18076    18049    18021    17991    17961 
   17926    17884    17840    17794    17747    17698    17648    17604 
   17563    17528    17498    17470    17443    17419    17400    17385 
   17371    17356    17342    17331    17327    17327    17327    17329 
   17334    17339    17350    17359    17369    17383    17396    17402 
   17408    17410    17406    17397    17385    17373    17363    17356 
   17354    17355    17355    17354    17354    17352    17350    17356 
   17371    17386    17397    17402    17412    17424    17431    17439 
   17444    17442    17439    17439    17432    17428    17425    17420 
   17415    17413    17405    17393    17383    17379    17374    17369 
   17365    17359    17348    17342    17339    17334    17329    17328 
   17317    17300    17277    17250    17228    17212    17199    17184 
   17173    17162    17150    17138    17128    17122    17115    17109 
   17107    17105    17107    17111    17118    17123    17124    17126 
   17131    17132    17130    17131    17132    17128    17126    17126 
   17120    17118    17118    17119    17119    17119    17119    17118 
   17118    17122    17131    17140    17154    17172    17194    17224 
   17258    17293    17328    17369    17416    17467    17518    17566 
   17609    17647    17678    17710    17747    17784    17818    17845 
   17869    17886    17890    17886    17879    17867    17847    17821 
   17788    17752    17717    17682    17643    17599    17558    17521 
   17490    17459    17431    17406    17386    17370    17356    17346 
   17338    17334    17325    17315    17305    17292    17274    17259 
   17244    17224    17208    17194    17178    17165    17158    17153 
   17150    17147    17142    17136    17128    17115    17107    17104 
   17099    17089    17081    17074    17061    17050    17043    17032 
   17022    17018    17016    17016    17019    17022    17026    17027 
   17024    17023    17028    17037    17046    17061    17074    17081 
   17091    17100    17113    17132    17155    17178    17204    17232 
   17259    17282    17304    17324    17342    17358    17374    17383 
   17389    17385    17373    17362    17354    17347    17342    17336 
   17328    17327    17331    17331    17329    17335    17336    17329 
   17327    17323    17316    17309    17302    17290    17274    17255 
   17235    17212    17189    17170    17153    17136    17127    17127 
   17132    17145    17165    17188    17215    17251    17286    17317 
   17351    17392    17433    17471    17506    17539    17570    17595 
   17614    17632    17648    17663    17671    17679    17689    17695 
   17703    17716    17722    17732    17747    17764    17783    17799 
   17815    17828    17834    17834    17832    17829    17821    17807 
   17794    17782    17764    17748    17732    17713    17686    17652 
   17617    17581    17543    17506    17471    17432    17393    17355 
   17315    17271    17232    17193    17157    17131    17109    17091 
   17076    17059    17041    17024    17010    17001    17000    17004 
   17015    17031    17046    17061    17076    17092    17109    17127 
   17142    17157    17173    17188    17204    17221    17236    17250 
   17265    17277    17286    17296    17302    17307    17312    17316 
   17317    17323    17327    17335    17347    17363    17383    17416 
   17447    17470    17491    17510    17517    17517    17520    17517 
   17501    17482    17466    17444    17419    17400    17382    17361 
   17339    17319    17301    17285    17270    17259    17253    17248 
   17250    17254    17259    17266    17271    17274    17273    17273 
   17280    17290    17298    17308    17313    17317    17324    17328 
   17328    17329    17325    17321    17323    17321    17313    17304 
   17296    17290    17285    17280    17274    17271    17273    17281 
   17292    17305    17321    17344    17374    17402    17424    17446 
   17466    17481    17494    17509    17523    17532    17541    17550 
   17552    17550    17545    17540    17529    17518    17508    17500 
   17490    17483    17479    17474    17467    17459    17447    17433 
   17425    17412    17396    17378    17365    17352    17340    17325 
   17311    17294    17282    17275    17277    17286    17301    17320 
   17343    17367    17394    17423    17447    17469    17496    17521 
   17550    17582    17612    17639    17662    17680    17698    17713 
   17726    17740    17749    17752    17753    17751    17743    17733 
   17725    17714    17699    17686    17672    17660    17647    17628 
   17604    17574    17540    17504    17463    17424    17386    17351 
   17319    17289    17261    17234    17208    17182    17154    17126 
   17104    17091    17082    17074    17072    17072    17074    17088 
   17103    17109    17115    17119    17115    17108    17104    17101 
   17097    17100    17104    17101    17099    17101    17103    17107 
   17116    17124    17126    17128    17136    17143    17151    17159 
   17169    17180    17186    17193    17207    17215    17213    17213 
   17215    17209    17208    17207    17199    17190    17185    17173 
   17162    17158    17155    17154    17155    17157    17158    17163 
   17169    17176    17182    17192    17201    17209    17220    17238 
   17254    17271    17292    17312    17332    17347    17362    17374 
   17381    17379    17375    17367    17361    17356    17356    17355 
   17355    17354    17355    17362    17366    17365    17363    17359 
   17352    17347    17348    17351    17354    17361    17367    17374 
   17383    17394    17404    17412    17417    17421    17428    17433 
   17439    17444    17451    17463    17475    17483    17489    17489 
