Origin Time       2025/01/13 21:19:00
Lat.              31.8
Long.             131.6
Depth. (km)       30
Mag.              6.9
Station Code      KOC015
Station Lat.      32.9393
Station Long.     132.7258
Station Height(m) 3
Record Time       2025/01/13 21:20:03
Sampling Freq(Hz) 100Hz
Duration Time(s)  119
Dir.              N-S
Scale Factor      7845(gal)/8223790
Max. Acc. (gal)   33.050
Last Correction   2025/01/13 21:20:02
Memo.             
[...]
  -10382   -10509   -10578   -10494   -10341   -10145    -9946    -9863 
   -9941   -10006    -9807    -9387    -8957    -8569    -8228    -7917 
   -7620    -7431    -7464    -7661    -7809    -7758    -7580    -7474 
   -7576    -7890    -8384    -8993    -9516    -9779    -9887    -9988 
  -10098   -10261   -10520   -10791   -11009   -11094   -10875   -10330 
   -9715    -9223    -8715    -8081    -7551    -7393    -7542    -7746 
   -7877    -7974    -8100    -8175    -8035    -7646    -7123    -6643 
   -6439    -6717    -7441    -8310    -9005    -9481    -9985   -10774 
  -11816   -12744   -13104   -12781   -12133   -11549   -11074   -10513 
   -9583    -8193    -6782    -5998    -5942    -6156    -6288    -6291 
   -6232    -6320    -6750    -7377    -7854    -8063    -8216    -8534 
   -9049    -9666   -10285   -10821   -11118   -11090   -10859   -10565 
  -10258   -10045   -10069   -10278   -10276    -9706    -8802    -8160 
   -8102    -8472    -8808    -8640    -7902    -7026    -6420    -6166 
   -6232    -6548    -7003    -7533    -8031    -8429    -8815    -9201 
   -9571   -10030   -10488   -10741   -10905   -11160   -11491   -11785 
  -11850   -11591   -11082   -10374    -9671    -9335    -9400    -9562 
   -9667    -9765    -9802    -9570    -8992    -8301    -7843    -7734 
   -7871    -8094    -8148    -7855    -7311    -6735    -6353    -6361 
   -6659    -6988    -7418    -8235    -9406   -10542   -11271   -11458 
  -11148   -10393    -9300    -8203    -7493    -7307    -7605    -8216 
   -8791    -9144    -9362    -9505    -9626    -9836   -10118   -10316 
  -10255    -9911    -9514    -9313    -9296    -9266    -9076    -8762 
   -8468    -8297    -8353    -8660    -8977    -9086    -9103    -9115 
   -8957    -8619    -8359    -8329    -8430    -8467    -8310    -7977 
   -7578    -7360    -7570    -8132    -8784    -9405    -9890   -10126 
  -10131   -10058   -10064   -10153   -10265   -10400   -10481   -10435 
  -10384   -10342   -10041    -9382    -8556    -7681    -6855    -6312 
   -6227    -6589    -7258    -8086    -8950    -9607    -9801    -9539 
   -9089    -8753    -8576    -8445    -8421    -8557    -8590    -8290 
   -7781    -7398    -7452    -8002    -8707    -9082    -8988    -8660 
   -8317    -8085    -8097    -8260    -8299    -8222    -8282    -8557 
   -9013    -9657   -10427   -11145   -11616   -11817   -11827   -11537 
  -10855   -10034    -9420    -9028    -8553    -7771    -6820    -5979 
   -5397    -5161    -5337    -5787    -6289    -6790    -7250    -7630 
   -7994    -8405    -8877    -9437   -10058   -10700   -11392   -12083 
  -12568   -12648   -12366   -11959   -11593   -11292   -10912   -10215 
   -9231    -8241    -7375    -6574    -5850    -5275    -4876    -4687 
   -4779    -5115    -5602    -6238    -6925    -7464    -7962    -8673 
   -9524   -10323   -11048   -11526   -11619   -11630   -11772   -11757 
  -11345   -10631    -9796    -9096    -8849    -9061    -9317    -9288 
   -8981    -8554    -8152    -7784    -7338    -6845    -6538    -6642 
   -7155    -7788    -8297    -8710    -9066    -9300    -9475    -9756 
  -10143   -10517   -10897   -11340   -11718   -11861   -11716   -11318 
  -10760   -10200    -9759    -9448    -9265    -9185    -9099    -8924 
   -8699    -8451    -8235    -8174    -8295    -8484    -8596    -8583 
   -8498    -8372    -8205    -8071    -8001    -7965    -8037    -8210 
   -8334    -8421    -8532    -8591    -8641    -8864    -9207    -9471 
   -9634    -9687    -9536    -9254    -9076    -9157    -9448    -9807 
  -10048    -9985    -9688    -9402    -9138    -8788    -8448    -8233 
   -8064    -7843    -7538    -7053    -6299    -5462    -4955    -5044 
   -5676    -6633    -7641    -8446    -9030    -9572   -10162   -10785 
  -11443   -12012   -12241   -12054   -11619   -11165   -10743   -10233 
   -9576    -8845    -8100    -7334    -6624    -6262    -6502    -7330 
   -8432    -9386   -10050   -10524   -10820   -10922   -10987   -11186 
  -11481   -11681   -11610   -11264   -10714   -10000    -9316    -8860 
   -8534    -8251    -8199    -8599    -9535   -10787   -11807   -12256 
  -12160   -11569   -10616    -9609    -8793    -8363    -8469    -8993 
   -9553    -9869    -9942    -9971   -10142   -10446   -10681   -10624 
  -10149    -9292    -8186    -6959    -5802    -4945    -4457    -4290 
   -4367    -4540    -4714    -4958    -5390    -6085    -7087    -8368 
   -9691   -10669   -11148   -11361   -11574   -11842   -12047   -11966 
  -11461   -10682    -9907    -9317    -9016    -9007    -9158    -9340 
   -9387    -8984    -8006    -6694    -5297    -3998    -3040    -2548 
   -2525    -2960    -3820    -5051    -6667    -8629   -10585   -12105 
  -13101   -13585   -13436   -12749   -11832   -10821    -9794    -9055 
   -8834    -8970    -9209    -9373    -9202    -8623    -8037    -7915 
   -8276    -8785    -9154    -9142    -8413    -6960    -5390    -4374 
   -4234    -5051    -6612    -8465   -10241   -11674   -12640   -13275 
  -13736   -13872   -13408   -12321   -10989    -9869    -9150    -8966 
   -9440   -10233   -10789   -10960   -10847   -10473    -9913    -9316 
   -8721    -8058    -7272    -6319    -5201    -4153    -3576    -3613 
   -4113    -4981    -6254    -7925    -9915   -12004   -13691   -14443 
  -14181   -13123   -11507    -9867    -8783    -8442    -8950   -10304 
  -11947   -13004   -12911   -11724    -9940    -8085    -6588    -5759 
   -5570    -5624    -5564    -5248    -4498    -3391    -2593    -2687 
   -3784    -5873    -8613   -11159   -12868   -13660   -13690   -13049 
  -11897   -10705    -9853    -9297    -8969    -8853    -8765    -8689 
   -8793    -9069    -9451    -9936   -10490   -11121   -11809   -12378 
  -12507   -11888   -10516    -8726    -6901    -5482    -4947    -5428 
   -6448    -7271    -7589    -7553    -7317    -7051    -6960    -7231 
   -8095    -9418   -10663   -11623   -12444   -13023   -13162   -12856 
  -12158   -11257   -10423    -9714    -9139    -8835    -8797    -8926 
   -9244    -9693    -9894    -9428    -8345    -7171    -6361    -6187 
   -6786    -7793    -8403    -8179    -7337    -6226    -5206    -4789 
   -5242    -6448    -8253   -10420   -12452   -13852   -14492   -14538 
  -14134   -13531   -13043   -12652   -12136   -11411   -10353    -8754 
   -6829    -5274    -4430    -4075    -4175    -4861    -5881    -6848 
   -7641    -8145    -8140    -7781    -7568    -7677    -8009    -8546 
   -9217    -9879   -10497   -11124   -11734   -12156   -12249   -11959 
  -11194    -9996    -8631    -7290    -6042    -5085    -4691    -4893 
   -5275    -5406    -5416    -5756    -6682    -8163    -9942   -11596 
  -12726   -13088   -12649   -11649   -10470    -9359    -8329    -7272 
   -6142    -5011    -3947    -3091    -2875    -3721    -5487    -7704 
  -10152   -12661   -14858   -16488   -17523   -17840   -17302   -16060 
  -14382   -12442   -10386    -8318    -6386    -4908    -4086    -3897 
   -4164    -4591    -5135    -6003    -7157    -8357    -9339    -9934 
  -10363   -10920   -11516   -11862   -11669   -10813    -9533    -8433 
   -8156    -8943   -10471   -12205   -13795   -15074   -15807   -15859 
  -15340   -14316   -12845   -11029    -8773    -6130    -3639    -1795 
    -681     -297     -756    -1945    -3356    -4523    -5351    -5836 
   -5964    -5935    -5989    -6211    -6686    -7508    -8700   -10327 
  -12492   -15057   -17437   -18902   -19207   -18727   -17832   -16491 
  -14682   -12746   -11148   -10181    -9873   -10100   -10594   -10841 
  -10478    -9622    -8446    -6960    -5212    -3481    -2303    -2114 
   -2967    -4664    -6768    -8700   -10179   -11149   -11406   -10832 
   -9508    -7520    -5323    -3688    -2922    -2857    -3380    -4328 
   -5331    -6192    -7060    -8286   -10125   -12275   -14092   -15255 
  -15859   -16141   -16258   -16245   -16033   -15554   -14889   -14115 
  -13239   -12249   -11165   -10100    -9165    -8351    -7626    -7119 
   -7017    -7295    -7716    -8063    -8222    -7902    -6548    -4001 
    -896     1973     4099     5113     4931     3734     1597    -1489 
   -5233    -9042   -12507   -15580   -18279   -20518   -22077   -22746 
  -22399   -20808   -17772   -13585    -9163    -5621    -3484    -2346 
   -1575    -1136    -1254    -1934    -3115    -4714    -6612    -8627 
  -10380   -11453   -11655   -11006    -9544    -7366    -4887    -2659 
    -938      270      837      418    -1171    -3735    -6845    -9991 
  -12657   -14694   -16278   -17361   -17888   -18192   -18458   -18455 
  -18094   -17528   -16708   -15561   -14332   -13201   -12218   -11646 
  -11615   -11870   -12105   -12118   -11880   -11464   -10804    -9690 
   -7933    -5547    -2867     -415     1308     1957     1428      -31 
   -1965    -4125    -6512    -8966   -11044   -12225   -12059   -10509 
   -8313    -6370    -4989    -4288    -4634    -6029    -7817    -9397 
  -10507   -10983   -10801   -10010    -8648    -7032    -5872    -5850 
   -7160    -9467   -12282   -15040   -17109   -18134   -18102   -17069 
  -15167   -12710   -10045    -7422    -5086    -3149    -1557     -226 
     954     1939     2440     2324     1840     1248      592      -24 
    -486    -1001    -2077    -4256    -7688   -11785   -15707   -19188 
  -22310   -24916   -26894   -28139   -28333   -27422   -25375   -21668 
  -16206   -10265    -5084     -492     3447     5679     5941     5005 
    3480     1273    -1921    -5570    -8586   -10665   -12181   -13014 
  -12856   -12063   -11060   -10038    -9450    -9510    -9963   -10805 
  -12140   -13516   -14300   -14341   -13922   -13373   -12758   -11861 
  -10363    -8062    -5258    -2902    -1799    -2070    -3407    -5271 
   -7361    -9585   -11445   -12802   -14430   -16883   -20073   -23554 
  -26384   -27847   -28212   -27760   -26188   -23473   -20044   -16117 
  -11418    -5545     1379     8584    15009    19656    22106    22582 
   21514    19448    16532    12008     5784     -490    -5578    -9946 
  -14134   -17836   -20677   -22497   -23269   -23629   -24286   -24993 
  -25266   -25154   -24817   -24294   -23452   -21844   -19282   -16004 
  -11858    -6547     -650     4584     8252    10243    10783     9826 
    7230     3235    -1197    -5155    -8907   -12611   -15321   -16266 
  -15076   -11851    -7592    -3550     -973     -481    -1813    -4907 
   -9420   -14204   -18358   -21377   -22967   -23137   -21914   -19473 
  -16266   -12769    -9458    -6620    -4255    -2288     -407     1765 
    3825     4765     4075     1942    -1240    -4997    -8919   -12765 
  -16217   -18866   -20313   -20162   -18358   -15452   -12263    -9409 
   -7188    -5848    -5597    -6455    -8465   -11287   -13682   -14679 
  -14673   -14377   -13797   -12638   -10696    -8175    -5872    -4322 
   -3362    -2710    -2232    -1846    -1626    -1949    -3219    -5578 
   -8934   -12870   -16638   -19484   -20947   -20938   -19610   -17167 
  -14041   -10947    -8297    -6097    -4371    -3183    -2670    -2992 
   -4066    -5483    -6763    -7499    -7364    -6315    -4696    -3115 
   -2139    -1814    -1922    -2436    -3096    -3388    -3308    -3396 
   -4283    -6523   -10247   -14926   -19422   -22377   -23417   -23548 
  -23599   -23411   -22846   -22017   -20858   -19248   -17015   -14118 
  -10975    -8023    -5198    -2230      754     3288     5200     6485 
    6856     6002     3924      858    -2705    -6008    -8368    -9598 
  -10033   -10134   -10035    -9624    -8938    -8156    -7349    -6563 
   -6073    -6308    -7342    -8712    -9842   -10450   -10686   -10968 
  -11639   -12772   -14210   -15734   -17066   -17840   -17883   -17423 
  -16650   -15365   -13459   -11256    -9158    -7488    -6420    -5817 
   -5485    -5243    -4872    -4426    -4144    -4037    -3831    -3427 
   -3083    -2828    -2722    -3119    -3831    -4433    -5188    -6477 
   -8248   -10249   -12253   -14254   -16244   -17979   -19454   -20973 
  -22272   -22551   -21573   -19707   -17081   -13678    -9984    -6623 
   -3684    -1189      749     2342     3531     3811     3076     1489 
    -939    -3879    -6631    -8712   -10011   -10732   -11121   -11028 
  -10304    -9174    -7825    -6420    -5298    -4849    -5360    -6841 
   -9042   -11583   -14007   -16011   -17374   -17722   -16919   -15276 
  -13047   -10440    -7892    -5753    -4008    -2516    -1426    -1042 
   -1359    -2218    -3603    -5432    -7485    -9687   -12105   -14547 
  -16729   -18852   -21328   -24046   -26412   -27832   -28096   -27190 
  -24945   -21398   -16987   -12266    -8121    -5385    -3866    -2852 
   -1973     -974      417     2170     3909     5211     5628     4820 
    3168     1416     -143    -1495    -2605    -3403    -3686    -3392 
   -2849    -2598    -3056    -4185    -5817    -8008   -10620   -13296 
  -15859   -18112   -19912   -21482   -22958   -24160   -24953   -25308 
  -25195   -24447   -22878   -20568   -17678   -14322   -10693    -6932 
   -3136      371     3100     4764     5485     5678     5836     6219 
    6663     6731     5832     3565      234    -3393    -6856   -10162 
  -13240   -15745   -17597   -18916   -19693   -20040   -19990   -19245 
  -17653   -15697   -14177   -13277   -12451   -11523   -10863   -10413 
   -9821    -9003    -7812    -6072    -3916    -1539     1102     4059 
    6971     9323    11060    12264    12653    11917     9821     5998 
     357    -6743   -14767   -23013   -30640   -36788   -40891   -43039 
  -43576   -42734   -40753   -37692   -33273   -27421   -20810   -14488 
   -9038    -4531     -930     2025     4865     7909    11065    14044 
   16397    17659    17683    16771    15179    12942    10357     7635 
    4490      872    -2918    -6682   -10187   -13273   -15894   -18095 
  -20205   -22446   -24817   -27402   -29930   -31699   -32287   -31684 
  -30019   -27508   -24339   -20669   -16642   -12449    -8379    -4561 
   -1001     2335     5601     8776    11502    13328    13938    13300 
   11612     9205     6363     3080     -851    -5441   -10444   -15542 
  -20166   -23638   -25731   -26607   -26590   -26168   -25679   -25127 
  -24286   -22964   -21280   -19511   -17848   -16386   -14975   -13190 
  -10810    -7979    -4846    -1485     1757     4345     5981     6735 
    6864     6619     6162     5603     4820     3581     1900       10 
   -1745    -3099    -4159    -5312    -7047    -9714   -13153   -16839 
  -20252   -23002   -24916   -26082   -26739   -27085   -27074   -26374 
  -24699   -22162   -19120   -15880   -12675    -9555    -6385    -3167 
    -147     2349     4013     4743     4704     4023     2614      415 
   -2540    -6199   -10393   -14627   -18004   -19990   -21000   -21402 
  -21053   -20181   -19064   -17548   -15778   -14025   -12235   -10449 
   -8783    -7245    -5979    -5074    -4247    -3150    -1738     -145 
    1540     3238     4770     6056     7206     8179     8618     8118 
    6569     4036      548    -3658    -8131   -12484   -16410   -19803 
  -22746   -25317   -27475   -28829   -28942   -28016   -26605   -24983 
  -23110   -20815   -18004   -14754   -11173    -7480    -3985     -885 
    1795     4228     6594     8815    10584    11402    10719     8387 
    4818      703    -3343    -7069   -10521   -13801   -17001   -20092 
  -22770   -24660   -25552   -25377   -24298   -22750   -21058   -19253 
  -17250   -14952   -12432   -10006    -7958    -6288    -4787    -3335 
   -2149    -1505    -1275    -1078     -687      -55      718     1431 
    1896     1992     1651      716    -1004    -3523    -6590    -9888 
  -13269   -16590   -19589   -22054   -23807   -24582   -24128   -22393 
  -19635   -16330   -12933    -9706    -6754    -4209    -2295     -988 
     -91      309      122     -333     -778    -1260    -1849    -2616 
   -3653    -4889    -6139    -7271    -8325    -9495   -10878   -12363 
  -13776   -15071   -16328   -17543   -18616   -19341   -19387   -18690 
  -17498   -15950   -14103   -12101   -10154    -8517    -7348    -6588 
   -6038    -5584    -5263    -5125    -5169    -5354    -5470    -5267 
   -4826    -4456    -4341    -4554    -5121    -5933    -6880    -7985 
   -9263   -10651   -12052   -13386   -14524   -15218   -15327   -14837 
  -13563   -11399    -8580    -5447    -2377      230     2231     3747 
    4996     6087     6786     6727     5778     3978     1428    -1584 
   -4561    -7075    -9099   -10881   -12611   -14364   -16051   -17406 
  -18185   -18382   -18260   -18098   -18004   -17994   -18025   -17921 
  -17491   -16695   -15668   -14624   -13747   -13089   -12526   -11880 
  -10967    -9591    -7708    -5503    -3222    -1019     1024     2864 
    4386     5297     5227     3983     1674    -1371    -4684    -7827 
  -10685   -13344   -15711   -17574   -18897   -19861   -20657   -21348 
  -21949   -22414   -22639   -22731   -22966   -23301   -23310   -22666 
  -21285   -19263   -16879   -14330   -11511    -8305    -4826    -1197 
    2579     6249     9266    11161    11738    11094     9641     7834 
    5819     3549     1012    -1711    -4464    -7172    -9900   -12671 
  -15356   -17756   -19680   -20977   -21667   -21895   -21608   -20645 
  -18990   -16800   -14376   -11844    -9134    -6450    -4166    -2322 
    -719      750     2089     3231     4055     4394     4147     3246 
    1593     -685    -3167    -5514    -7593    -9344   -10943   -12723 
  -14678   -16456   -17849   -18932   -19776   -20305   -20468   -20281 
  -19707   -18762   -17556   -16229   -14967   -13917   -13092   -12426 
  -11811   -11110   -10210    -9086    -7870    -6728    -5761    -5063 
   -4815    -5263    -6508    -8360   -10411   -12260   -13786   -15101 
  -16201   -16904   -17142   -16870   -15907   -14172   -11874    -9414 
   -7134    -5124    -3399    -2062    -1156     -608     -352     -379 
    -666    -1134    -1688    -2227    -2709    -3221    -3816    -4433 
   -5057    -5701    -6353    -6957    -7406    -7653    -7788    -7942 
   -8263    -8818    -9551   -10372   -11138   -11751   -12267   -12749 
  -13216   -13678   -13996   -13876   -13182   -12124   -10964    -9791 
   -8579    -7375    -6403    -5923    -6064    -6770    -7777    -8746 
   -9471    -9925   -10164   -10291   -10381   -10380   -10231    -9977 
   -9699    -9551    -9695   -10123   -10760   -11580   -12492   -13414 
  -14245   -14814   -15036   -14948   -14666   -14347   -14026   -13633 
  -13165   -12544   -11557   -10179    -8603    -6918    -5182    -3557 
   -2139     -942       21      737     1256     1686     1891     1564 
     637     -704    -2173    -3591    -5078    -6752    -8495   -10125 
  -11442   -12352   -12951   -13315   -13450   -13443   -13413   -13389 
  -13246   -12856   -12278   -11645   -11007   -10389    -9775    -9147 
   -8622    -8307    -8185    -8230    -8440    -8800    -9269    -9763 
  -10237   -10632   -10794   -10686   -10481   -10282    -9990    -9516 
   -8947    -8464    -8185    -8068    -7978    -7751    -7242    -6461 
   -5614    -4872    -4260    -3773    -3376    -3005    -2689    -2531 
   -2554    -2776    -3368    -4455    -6012    -7940    -9967   -11711 
  -12903   -13419   -13327   -12873   -12258   -11545   -10766    -9969 
   -9186    -8460    -7811    -7204    -6674    -6288    -6022    -5881 
   -5950    -6249    -6799    -7699    -8961   -10507   -12212   -13807 
