Origin Time       2025/01/13 21:19:00
Lat.              31.8
Long.             131.6
Depth. (km)       30
Mag.              6.9
Station Code      KOC002
Station Lat.      33.2946
Station Long.     134.1666
Station Height(m) 19
Record Time       2025/01/13 21:20:47
Sampling Freq(Hz) 100Hz
Duration Time(s)  82
Dir.              N-S
Scale Factor      7845(gal)/8223790
Max. Acc. (gal)   2.128
Last Correction   2025/01/13 21:20:46
Memo.             
[...]
   42477    42477    42506    42518    42512    42506    42504    42514 
   42523    42512    42487    42461    42454    42500    42593    42674 
   42719    42745    42768    42772    42727    42673    42654    42646 
   42624    42608    42601    42572    42500    42422    42371    42350 
   42379    42465    42561    42611    42633    42666    42699    42693 
   42638    42562    42515    42485    42445    42414    42412    42442 
   42481    42506    42539    42572    42554    42499    42458    42481 
   42547    42596    42618    42654    42687    42678    42660    42655 
   42654    42676    42747    42843    42904    42890    42835    42772 
   42696    42654    42664    42665    42607    42487    42369    42333 
   42361    42372    42338    42310    42341    42411    42444    42415 
   42384    42394    42426    42473    42527    42553    42556    42581 
   42641    42715    42774    42801    42804    42804    42808    42807 
   42805    42801    42782    42751    42720    42680    42608    42506 
   42427    42412    42456    42531    42576    42546    42493    42483 
   42496    42498    42504    42525    42535    42542    42566    42580 
   42557    42539    42554    42587    42638    42720    42792    42807 
   42765    42681    42596    42561    42557    42554    42561    42574 
   42572    42543    42506    42469    42446    42475    42542    42568 
   42508    42412    42337    42295    42303    42342    42371    42396 
   42453    42537    42615    42673    42730    42793    42865    42942 
   42978    42930    42831    42732    42669    42646    42643    42638 
   42634    42628    42596    42511    42399    42331    42367    42477 
   42574    42599    42557    42489    42411    42336    42311    42361 
   42437    42504    42581    42685    42770    42786    42761    42739 
   42715    42657    42579    42523    42503    42493    42480    42476 
   42516    42612    42720    42803    42840    42816    42755    42712 
   42684    42619    42500    42384    42349    42394    42446    42489 
   42561    42660    42738    42757    42736    42719    42704    42688 
   42653    42580    42498    42431    42371    42309    42275    42315 
   42421    42534    42631    42704    42741    42732    42682    42622 
   42614    42665    42705    42669    42584    42537    42546    42569 
   42585    42610    42651    42684    42662    42564    42431    42330 
   42282    42282    42296    42300    42325    42398    42498    42592 
   42668    42741    42832    42917    42921    42830    42724    42678 
   42665    42635    42607    42603    42597    42579    42560    42547 
   42547    42576    42619    42630    42595    42542    42484    42429 
   42381    42326    42276    42259    42259    42267    42310    42399 
   42503    42595    42677    42745    42776    42786    42805    42815 
   42790    42739    42696    42695    42736    42774    42742    42643 
   42565    42542    42519    42472    42427    42408    42418    42439 
   42454    42465    42485    42499    42491    42472    42458    42462 
   42493    42550    42600    42604    42573    42541    42504    42460 
   42426    42411    42427    42503    42639    42788    42880    42874 
   42778    42638    42514    42439    42408    42410    42441    42495 
   42549    42597    42650    42704    42769    42847    42915    42924 
   42865    42796    42754    42716    42637    42483    42304    42172 
   42107    42132    42211    42260    42257    42250    42264    42276 
   42245    42184    42178    42257    42373    42477    42573    42672 
   42772    42858    42936    43056    43201    43299    43318    43286 
   43236    43186    43121    43027    42923    42828    42746    42669 
   42579    42491    42444    42431    42429    42425    42407    42365 
   42294    42214    42167    42140    42110    42130    42215    42304 
   42368    42430    42511    42597    42657    42662    42641    42637 
   42654    42684    42732    42795    42840    42869    42915    42954 
   42919    42836    42778    42741    42669    42541    42390    42271 
   42215    42206    42230    42303    42411    42514    42587    42606 
   42583    42553    42542    42564    42587    42572    42531    42507 
   42520    42554    42595    42642    42682    42711    42735    42718 
   42631    42516    42431    42398    42417    42454    42473    42476 
   42476    42472    42460    42446    42449    42477    42515    42549 
   42565    42556    42530    42520    42556    42624    42682    42705 
   42727    42768    42800    42789    42759    42758    42776    42784 
   42766    42701    42620    42581    42574    42554    42523    42504 
   42484    42453    42435    42435    42398    42325    42288    42322 
   42407    42496    42569    42614    42634    42664    42708    42739 
   42735    42681    42611    42596    42634    42642    42587    42512 
   42465    42458    42489    42542    42593    42646    42699    42726 
   42696    42622    42527    42457    42453    42503    42588    42703 
   42822    42916    42963    42969    42959    42931    42855    42739 
   42639    42584    42545    42493    42435    42383    42334    42295 
   42287    42311    42361    42425    42479    42498    42473    42412 
   42341    42299    42333    42441    42556    42615    42627    42649 
   42720    42808    42849    42835    42820    42850    42889    42876 
   42823    42773    42742    42741    42754    42728    42642    42545 
   42488    42464    42422    42358    42322    42333    42346    42322 
   42291    42294    42322    42369    42453    42537    42579    42610 
   42662    42718    42750    42750    42731    42722    42734    42759 
   42790    42799    42765    42696    42606    42522    42457    42380 
   42294    42232    42202    42201    42209    42202    42194    42210 
   42256    42331    42441    42585    42745    42862    42897    42870 
   42839    42840    42850    42828    42796    42797    42828    42834 
   42796    42745    42705    42682    42665    42619    42520    42419 
   42384    42402    42419    42399    42323    42209    42087    41972 
   41879    41859    41925    42039    42190    42394    42604    42750 
   42827    42878    42936    42996    43029    43016    42970    42947 
   42965    42982    42994    43015    43011    42962    42888    42817 
   42768    42735    42715    42684    42607    42481    42345    42249 
   42217    42219    42244    42288    42356    42429    42445    42373 
   42280    42237    42238    42273    42357    42477    42583    42653 
   42700    42749    42800    42835    42854    42862    42850    42813 
   42753    42687    42651    42631    42585    42531    42499    42489 
   42483    42454    42425    42450    42522    42589    42633    42639 
   42612    42573    42530    42466    42394    42361    42400    42479 
   42557    42620    42658    42661    42638    42599    42546    42484 
   42433    42421    42461    42537    42615    42674    42716    42736 
   42731    42685    42597    42508    42462    42438    42407    42399 
   42434    42468    42471    42458    42469    42519    42577    42597 
   42564    42507    42485    42507    42520    42504    42507    42543 
   42593    42630    42653    42701    42808    42932    43017    43070 
   43121    43154    43121    43021    42881    42730    42623    42569 
   42507    42418    42352    42331    42349    42379    42404    42414 
   42408    42412    42430    42426    42383    42307    42211    42130 
   42121    42206    42360    42535    42695    42846    43016    43178 
   43266    43259    43216    43209    43204    43147    43060    42982 
   42921    42873    42813    42728    42633    42550    42496    42498 
   42552    42595    42572    42510    42448    42376    42288    42201 
   42140    42145    42215    42290    42333    42368    42439    42549 
   42646    42687    42696    42750    42869    42988    43040    43038 
   43020    42988    42938    42903    42889    42885    42888    42884 
   42855    42827    42834    42876    42900    42867    42790    42697 
   42604    42504    42407    42330    42271    42238    42238    42257 
   42279    42295    42336    42407    42456    42445    42383    42304 
   42259    42256    42287    42369    42515    42676    42801    42889 
   42959    43046    43159    43255    43297    43290    43245    43177 
   43079    42959    42840    42746    42677    42610    42537    42466 
   42395    42314    42248    42233    42240    42201    42110    42041 
   42051    42129    42245    42376    42484    42561    42645    42751 
   42857    42940    42998    43033    43035    42978    42862    42749 
   42687    42666    42654    42620    42557    42449    42290    42140 
   42060    42020    41976    41931    41893    41886    41945    42064 
   42207    42360    42506    42608    42658    42670    42650    42624 
   42645    42708    42746    42731    42720    42766    42850    42921 
   42961    43005    43063    43074    43029    42988    42971    42939 
   42840    42678    42493    42327    42207    42145    42124    42149 
   42245    42381    42469    42477    42458    42466    42498    42514 
   42510    42533    42581    42588    42539    42495    42484    42492 
   42507    42554    42669    42819    42936    43008    43047    43058 
   43031    42952    42824    42672    42525    42411    42336    42284 
   42246    42196    42102    41982    41882    41855    41940    42106 
   42268    42391    42495    42589    42666    42704    42678    42614 
   42587    42622    42641    42588    42507    42460    42496    42620 
   42790    42942    43001    42944    42830    42724    42666    42658 
   42687    42724    42716    42600    42398    42199    42087    42083 
   42186    42376    42576    42700    42731    42723    42731    42768 
   42816    42863    42913    42942    42916    42851    42800    42805 
   42839    42811    42684    42504    42349    42257    42201    42167 
   42164    42161    42126    42056    41948    41854    41879    42036 
   42229    42383    42469    42512    42562    42643    42761    42885 
   42962    42965    42894    42765    42631    42535    42496    42531 
   42616    42689    42692    42599    42475    42411    42423    42495 
   42596    42658    42660    42669    42738    42816    42812    42703 
   42533    42341    42159    42055    42095    42250    42444    42623 
   42749    42805    42808    42749    42639    42545    42543    42635 
   42727    42765    42734    42593    42354    42132    42036    42074 
   42179    42292    42414    42539    42650    42742    42817    42876 
   42900    42839    42689    42538    42446    42373    42307    42296 
   42348    42400    42425    42458    42530    42618    42696    42765 
   42835    42913    42984    43044    43131    43239    43267    43156 
   42993    42874    42797    42732    42672    42627    42627    42680 
   42724    42693    42589    42442    42288    42190    42165    42165 
   42155    42151    42198    42344    42583    42850    43098    43330 
   43494    43484    43324    43159    43033    42896    42759    42674 
   42606    42491    42356    42313    42418    42608    42796    42939 
   43036    43058    42944    42703    42406    42106    41844    41696 
   41720    41910    42191    42485    42709    42811    42851    42916 
   43016    43100    43141    43146    43087    42897    42568    42218 
   42007    42007    42169    42373    42522    42587    42570    42498 
   42399    42309    42319    42480    42689    42812    42765    42543 
   42246    41982    41827    41841    42017    42276    42560    42853 
   43133    43328    43382    43330    43249    43171    43079    42959 
   42797    42601    42435    42321    42217    42072    41882    41690 
   41562    41567    41756    42088    42464    42745    42826    42730 
   42537    42306    42106    41991    41951    41947    41970    42025 
   42113    42242    42431    42700    43042    43376    43572    43571 
   43405    43158    42912    42726    42628    42614    42677    42793 
   42877    42876    42820    42769    42753    42774    42831    42859 
   42786    42633    42458    42325    42250    42201    42199    42315 
   42556    42816    42952    42900    42736    42573    42446    42317 
   42168    42043    42020    42118    42241    42315    42354    42379 
   42406    42468    42577    42711    42836    42916    42909    42799 
   42612    42415    42265    42206    42265    42454    42724    42961 
   43062    43001    42832    42645    42472    42296    42167    42121 
   42132    42198    42344    42547    42803    43093    43325    43401 
   43316    43163    43009    42853    42730    42676    42662    42660 
   42614    42481    42282    42106    42057    42133    42232    42271 
   42244    42167    42048    41906    41786    41777    41929    42148 
   42271    42236    42088    41943    41904    41982    42174    42491 
   42900    43290    43537    43563    43398    43202    43116    43136 
   43187    43198    43098    42880    42628    42445    42377    42398 
   42468    42545    42570    42519    42458    42492    42638    42804 
   42898    42900    42811    42654    42530    42530    42612    42655 
   42600    42496    42391    42234    42018    41832    41760    41793 
   41883    42036    42282    42569    42800    42940    43000    42985 
   42919    42862    42884    43011    43182    43302    43330    43305 
   43309    43395    43552    43719    43819    43756    43443    42889 
   42199    41500    40909    40512    40348    40428    40705    41106 
   41563    41999    42390    42757    43112    43414    43588    43605 
   43494    43278    42992    42734    42588    42572    42692    42932 
   43178    43312    43345    43395    43483    43501    43405    43240 
   43028    42772    42469    42157    41975    42001    42159    42319 
   42390    42321    42129    41902    41759    41787    42010    42341 
   42641    42822    42884    42865    42781    42704    42778    43042 
   43352    43509    43401    43075    42658    42214    41808    41580 
   41585    41710    41827    41924    42079    42314    42583    42867 
   43163    43375    43382    43162    42823    42550    42445    42452 
   42488    42547    42645    42749    42828    42927    43054    43136 
   43123    42998    42738    42346    41922    41601    41484    41566 
   41739    41894    42009    42097    42196    42353    42569    42828 
   43097    43337    43491    43492    43370    43181    42916    42627 
   42448    42454    42603    42780    42951    43154    43349    43459 
   43459    43376    43225    43020    42780    42484    42157    41921 
   41867    41970    42141    42329    42500    42543    42395    42141 
   41902    41743    41632    41517    41435    41470    41648    41894 
   42122    42321    42506    42666    42843    43125    43488    43816 
   44032    44072    43903    43578    43156    42693    42269    41987 
   41953    42140    42388    42589    42749    42909    43025    42989 
   42808    42597    42407    42214    42024    41897    41882    41940 
   41987    41956    41823    41681    41681    41887    42257    42693 
   43102    43426    43610    43600    43445    43278    43160    43058 
   42958    42921    42951    42907    42670    42323    42056    41968 
   42014    42109    42195    42207    42097    41908    41783    41831 
   42017    42255    42464    42572    42569    42518    42518    42618 
   42784    42974    43129    43128    42900    42518    42138    41885 
   41814    41943    42180    42353    42391    42350    42314    42313 
   42306    42318    42444    42657    42796    42773    42676    42599 
   42531    42468    42442    42456    42466    42427    42356    42340 
   42476    42743    43004    43154    43209    43210    43160    43065 
   42969    42907    42862    42800    42707    42597    42471    42325 
   42225    42304    42624    43054    43382    43537    43560    43471 
   43293    43089    42911    42745    42560    42380    42209    41972 
   41648    41346    41233    41365    41656    41971    42223    42367 
   42364    42263    42206    42273    42390    42431    42367    42241 
   42101    42010    42072    42330    42699    43051    43299    43430 
   43456    43383    43260    43175    43164    43186    43173    43108 
   43005    42853    42628    42408    42327    42398    42488    42491 
   42425    42377    42403    42495    42630    42778    42877    42863 
   42763    42658    42603    42631    42758    42928    42996    42834 
   42476    42078    41754    41539    41476    41616    41906    42211 
   42456    42637    42722    42633    42367    42068    41890    41866 
   42009    42333    42774    43201    43498    43650    43717    43746 
   43798    43888    43953    43896    43668    43308    42874    42385 
   41885    41492    41334    41423    41648    41887    42061    42138 
   42148    42156    42214    42315    42441    42561    42608    42549 
   42402    42253    42236    42407    42691    42966    43179    43356 
   43530    43696    43850    43988    44058    43962    43646    43183 
   42711    42348    42179    42240    42456    42669    42770    42749 
   42606    42372    42114    41912    41824    41856    41972    42121 
   42211    42147    41910    41609    41370    41276    41351    41577 
   41904    42269    42588    42826    43042    43263    43443    43545 
   43565    43517    43428    43312    43185    43062    42935    42849 
   42876    42990    43081    43105    43100    43102    43104    43112 
   43137    43110    42920    42554    42118    41731    41458    41357 
   41467    41681    41796    41750    41651    41620    41693    41862 
   42107    42385    42645    42827    42865    42795    42751    42830 
   43036    43324    43617    43842    43988    44091    44176    44239 
   44246    44119    43789    43297    42790    42383    42088    41918 
   41859    41820    41737    41621    41492    41370    41281    41241 
   41242    41300    41424    41604    41852    42164    42475    42719 
   42862    42927    42965    42975    42978    43015    43047    43019 
   42950    42888    42828    42762    42724    42730    42750    42751 
   42726    42676    42603    42542    42538    42597    42692    42753 
   42723    42623    42511    42423    42353    42295    42236    42117 
   41922    41724    41575    41480    41450    41515    41666    41877 
   42147    42481    42865    43236    43505    43642    43683    43648 
   43546    43386    43193    43000    42826    42732    42762    42862 
   42946    42986    43001    42994    42936    42789    42568    42336 
   42126    41937    41778    41661    41567    41492    41465    41515 
   41615    41705    41793    41902    42061    42296    42610    42969 
   43312    43563    43664    43587    43349    43019    42681    42407 
   42264    42322    42569    42878    43105    43204    43240    43297 
   43389    43492    43548    43470    43235    42884    42472    42040 
   41628    41335    41241    41308    41461    41635    41796    41933 
   42072    42217    42329    42376    42361    42307    42276    42288 
   42311    42322    42319    42314    42336    42414    42595    42889 
   43249    43650    44049    44344    44448    44359    44128    43835 
   43580    43432    43347    43222    42990    42664    42318    42009 
