Origin Time       2025/01/13 21:19:00
Lat.              31.8
Long.             131.6
Depth. (km)       30
Mag.              6.9
Station Code      KOC010
Station Lat.      33.3929
Station Long.     133.2852
Station Height(m) 2
Record Time       2025/01/13 21:20:36
Sampling Freq(Hz) 100Hz
Duration Time(s)  68
Dir.              U-D
Scale Factor      7845(gal)/8223790
Max. Acc. (gal)   1.144
Last Correction   2025/01/13 21:20:37
Memo.             
[...]
   -2060    -2064    -1910    -1680    -1601    -1695    -1788    -1813 
   -1811    -1771    -1723    -1760    -1798    -1729    -1642    -1626 
   -1668    -1798    -1989    -2112    -2128    -2070    -1952    -1869 
   -1860    -1823    -1740    -1694    -1705    -1796    -2008    -2196 
   -2208    -2141    -2123    -2145    -2174    -2196    -2164    -2085 
   -2042    -2077    -2155    -2197    -2141    -2022    -1957    -1973 
   -1968    -1910    -1869    -1884    -1904    -1910    -1961    -2007 
   -1975    -1949    -1930    -1838    -1711    -1632    -1707    -1908 
   -2085    -2218    -2309    -2304    -2266    -2301    -2357    -2327 
   -2263    -2265    -2309    -2373    -2446    -2489    -2531    -2650 
   -2803    -2859    -2787    -2678    -2562    -2415    -2312    -2280 
   -2249    -2236    -2273    -2295    -2249    -2177    -2114    -2007 
   -1910    -1931    -2008    -2026    -1979    -1950    -1987    -2039 
   -2101    -2176    -2178    -2070    -1934    -1899    -1989    -2106 
   -2180    -2222    -2242    -2276    -2330    -2339    -2320    -2332 
   -2350    -2380    -2475    -2608    -2733    -2825    -2845    -2821 
   -2782    -2733    -2760    -2883    -2965    -2953    -2914    -2837 
   -2756    -2779    -2848    -2847    -2824    -2844    -2878    -2859 
   -2779    -2677    -2587    -2550    -2581    -2640    -2664    -2581 
   -2447    -2396    -2442    -2554    -2670    -2714    -2705    -2687 
   -2654    -2612    -2592    -2560    -2486    -2420    -2417    -2461 
   -2482    -2413    -2322    -2309    -2324    -2319    -2313    -2270 
   -2211    -2239    -2303    -2304    -2268    -2231    -2218    -2208 
   -2195    -2247    -2343    -2413    -2473    -2501    -2482    -2493 
   -2550    -2574    -2548    -2512    -2504    -2513    -2425    -2228 
   -2096    -2123    -2258    -2416    -2511    -2505    -2447    -2405 
   -2417    -2450    -2385    -2249    -2172    -2155    -2180    -2220 
   -2178    -2065    -1984    -2018    -2134    -2173    -2076    -1931 
   -1830    -1845    -1968    -2085    -2157    -2230    -2296    -2367 
   -2458    -2478    -2376    -2263    -2203    -2180    -2222    -2274 
   -2255    -2189    -2128    -2110    -2147    -2174    -2127    -2058 
   -2042    -2047    -2018    -1976    -1977    -2026    -2091    -2188 
   -2309    -2362    -2305    -2185    -2087    -2035    -2047    -2169 
   -2304    -2350    -2371    -2397    -2440    -2538    -2614    -2582 
   -2504    -2469    -2465    -2450    -2420    -2398    -2392    -2362 
   -2301    -2269    -2262    -2234    -2197    -2146    -2053    -2027 
   -2151    -2297    -2316    -2262    -2228    -2203    -2200    -2227 
   -2205    -2137    -2093    -2111    -2196    -2299    -2347    -2330 
   -2263    -2195    -2209    -2331    -2469    -2505    -2448    -2412 
   -2469    -2616    -2759    -2786    -2709    -2613    -2592    -2689 
   -2808    -2818    -2713    -2575    -2489    -2474    -2497    -2494 
   -2425    -2319    -2193    -2088    -2072    -2097    -2065    -2018 
   -2012    -2014    -2020    -2062    -2083    -2046    -2010    -1969 
   -1876    -1765    -1695    -1688    -1764    -1887    -1972    -1998 
   -2010    -2027    -2069    -2162    -2274    -2363    -2428    -2466 
   -2508    -2577    -2608    -2566    -2538    -2587    -2710    -2843 
   -2879    -2810    -2697    -2556    -2438    -2394    -2427    -2515 
   -2590    -2574    -2463    -2292    -2126    -2053    -2047    -2037 
   -2031    -2060    -2124    -2174    -2139    -2083    -2081    -2083 
   -2083    -2124    -2154    -2161    -2158    -2101    -2010    -1972 
   -2042    -2188    -2286    -2272    -2200    -2139    -2145    -2209 
   -2234    -2176    -2088    -1993    -1918    -1881    -1840    -1769 
   -1746    -1800    -1858    -1894    -1941    -1975    -1981    -2033 
   -2128    -2168    -2155    -2192    -2303    -2428    -2462    -2389 
   -2343    -2388    -2465    -2531    -2517    -2404    -2296    -2259 
   -2242    -2178    -2122    -2162    -2249    -2297    -2301    -2266 
   -2211    -2184    -2207    -2243    -2262    -2265    -2254    -2231 
   -2200    -2178    -2153    -2139    -2246    -2478    -2660    -2720 
   -2725    -2700    -2677    -2683    -2678    -2636    -2575    -2533 
   -2517    -2484    -2462    -2502    -2502    -2405    -2299    -2223 
   -2162    -2092    -1961    -1799    -1721    -1790    -1950    -2066 
   -2088    -2104    -2150    -2172    -2161    -2143    -2097    -2049 
   -2077    -2145    -2191    -2250    -2330    -2382    -2401    -2400 
   -2390    -2385    -2377    -2358    -2339    -2312    -2243    -2147 
   -2103    -2116    -2106    -2023    -1908    -1831    -1834    -1914 
   -2038    -2100    -2068    -2080    -2147    -2161    -2149    -2149 
   -2130    -2153    -2262    -2361    -2398    -2403    -2323    -2170 
   -2073    -2079    -2106    -2104    -2081    -2049    -2029    -2039 
   -2065    -2103    -2150    -2180    -2191    -2211    -2258    -2304 
   -2309    -2272    -2223    -2222    -2317    -2450    -2496    -2455 
   -2412    -2381    -2362    -2354    -2304    -2211    -2110    -2034 
   -2014    -2037    -2108    -2212    -2232    -2172    -2138    -2145 
   -2145    -2127    -2101    -2100    -2153    -2222    -2261    -2251 
   -2215    -2214    -2258    -2355    -2490    -2535    -2502    -2520 
   -2555    -2575    -2619    -2646    -2656    -2694    -2744    -2755 
   -2697    -2609    -2583    -2628    -2668    -2697    -2731    -2732 
   -2706    -2709    -2739    -2732    -2651    -2567    -2550    -2559 
   -2579    -2641    -2697    -2685    -2640    -2589    -2479    -2328 
   -2236    -2222    -2219    -2201    -2181    -2180    -2157    -2064 
   -1983    -1958    -1960    -2003    -2037    -1965    -1836    -1775 
   -1827    -1931    -2018    -2069    -2056    -2014    -2038    -2099 
   -2104    -2050    -1977    -1912    -1895    -1965    -2110    -2236 
   -2261    -2228    -2234    -2282    -2367    -2490    -2569    -2551 
   -2523    -2524    -2524    -2539    -2538    -2479    -2461    -2515 
   -2538    -2500    -2458    -2428    -2377    -2328    -2343    -2382 
   -2403    -2439    -2488    -2492    -2490    -2540    -2567    -2497 
   -2401    -2349    -2327    -2320    -2320    -2304    -2268    -2242 
   -2250    -2257    -2209    -2146    -2162    -2255    -2340    -2389 
   -2440    -2492    -2555    -2635    -2681    -2700    -2728    -2747 
   -2748    -2759    -2779    -2794    -2797    -2760    -2681    -2636 
   -2647    -2639    -2612    -2582    -2516    -2438    -2378    -2344 
   -2336    -2323    -2273    -2184    -2092    -2049    -2046    -2023 
   -1927    -1784    -1706    -1752    -1868    -1950    -1960    -1927 
   -1892    -1891    -1908    -1906    -1867    -1804    -1784    -1827 
   -1872    -1900    -1929    -1935    -1950    -2034    -2135    -2165 
   -2139    -2092    -2029    -1999    -2015    -2030    -2018    -1987 
   -1976    -1989    -2007    -2049    -2100    -2114    -2103    -2106 
   -2114    -2101    -2065    -2026    -2014    -2031    -2077    -2135 
   -2173    -2200    -2241    -2276    -2312    -2353    -2373    -2390 
   -2415    -2415    -2394    -2389    -2408    -2443    -2485    -2554 
   -2655    -2708    -2683    -2674    -2694    -2670    -2609    -2562 
   -2527    -2492    -2488    -2515    -2525    -2524    -2542    -2542 
   -2512    -2473    -2408    -2334    -2292    -2254    -2195    -2157 
   -2162    -2197    -2242    -2290    -2340    -2380    -2386    -2342 
   -2270    -2204    -2139    -2061    -1988    -1972    -2000    -2006 
   -1981    -1972    -1988    -1998    -1999    -2035    -2097    -2133 
   -2118    -2116    -2181    -2281    -2386    -2492    -2590    -2694 
   -2801    -2884    -2955    -3005    -3030    -3076    -3144    -3184 
   -3198    -3198    -3141    -3036    -2947    -2910    -2913    -2894 
   -2824    -2724    -2617    -2543    -2500    -2443    -2373    -2332 
   -2332    -2305    -2232    -2169    -2126    -2096    -2087    -2083 
   -2064    -2020    -1952    -1865    -1761    -1648    -1510    -1383 
   -1335    -1341    -1372    -1432    -1494    -1570    -1688    -1848 
   -2025    -2172    -2273    -2349    -2392    -2420    -2473    -2516 
   -2496    -2435    -2401    -2412    -2424    -2424    -2420    -2404 
   -2397    -2419    -2444    -2431    -2390    -2380    -2393    -2380 
   -2312    -2241    -2230    -2261    -2290    -2330    -2380    -2430 
   -2479    -2521    -2519    -2444    -2330    -2196    -2057    -1954 
   -1894    -1848    -1804    -1777    -1780    -1804    -1860    -1944 
   -2002    -2010    -1989    -1971    -2006    -2085    -2122    -2100 
   -2064    -2030    -2031    -2108    -2188    -2196    -2168    -2124 
   -2083    -2085    -2119    -2141    -2127    -2097    -2108    -2158 
   -2181    -2169    -2146    -2124    -2087    -2045    -2038    -2050 
   -2020    -1964    -1934    -1904    -1867    -1865    -1880    -1908 
   -1999    -2088    -2137    -2218    -2340    -2461    -2562    -2632 
   -2662    -2637    -2598    -2614    -2689    -2760    -2782    -2756 
   -2702    -2640    -2585    -2504    -2361    -2222    -2166    -2146 
   -2108    -2093    -2135    -2184    -2187    -2189    -2232    -2254 
   -2251    -2277    -2300    -2281    -2270    -2299    -2320    -2315 
   -2300    -2296    -2300    -2304    -2327    -2353    -2354    -2366 
   -2393    -2388    -2366    -2370    -2396    -2416    -2425    -2420 
   -2403    -2413    -2470    -2542    -2612    -2687    -2752    -2770 
   -2770    -2798    -2839    -2867    -2875    -2855    -2840    -2836 
   -2787    -2709    -2664    -2656    -2675    -2736    -2808    -2839 
   -2830    -2809    -2778    -2735    -2685    -2647    -2620    -2563 
   -2470    -2385    -2305    -2196    -2085    -2015    -1958    -1880 
   -1796    -1723    -1667    -1614    -1559    -1517    -1490    -1480 
   -1513    -1564    -1578    -1590    -1661    -1745    -1790    -1814 
   -1821    -1813    -1826    -1856    -1867    -1830    -1772    -1740 
   -1715    -1686    -1682    -1672    -1629    -1601    -1617    -1640 
   -1656    -1698    -1750    -1771    -1777    -1796    -1809    -1818 
   -1857    -1915    -1966    -2022    -2089    -2111    -2056    -1996 
   -1945    -1881    -1848    -1858    -1876    -1902    -1941    -1987 
   -2030    -2056    -2087    -2141    -2172    -2170    -2172    -2173 
   -2182    -2231    -2322    -2417    -2492    -2562    -2636    -2713 
   -2798    -2856    -2849    -2803    -2766    -2759    -2772    -2791 
   -2808    -2809    -2789    -2766    -2741    -2725    -2709    -2667 
   -2597    -2533    -2504    -2511    -2527    -2524    -2488    -2439 
   -2435    -2484    -2524    -2523    -2497    -2462    -2415    -2339 
   -2262    -2214    -2162    -2095    -2050    -2010    -1952    -1902 
   -1867    -1818    -1733    -1648    -1626    -1651    -1669    -1678 
   -1682    -1706    -1795    -1930    -2052    -2160    -2263    -2323 
   -2347    -2378    -2412    -2420    -2417    -2432    -2421    -2370 
   -2334    -2322    -2339    -2390    -2431    -2450    -2474    -2504 
   -2524    -2554    -2614    -2681    -2722    -2729    -2722    -2740 
   -2791    -2859    -2932    -2986    -3040    -3130    -3229    -3287 
   -3281    -3223    -3165    -3148    -3146    -3113    -3048    -3002 
   -2976    -2933    -2883    -2835    -2770    -2700    -2635    -2562 
   -2497    -2454    -2411    -2359    -2326    -2334    -2370    -2403 
   -2397    -2358    -2336    -2328    -2300    -2274    -2246    -2187 
   -2141    -2131    -2127    -2122    -2104    -2066    -2012    -1949 
   -1918    -1937    -1948    -1922    -1883    -1848    -1848    -1894 
   -1949    -1969    -1941    -1904    -1904    -1931    -1956    -1957 
   -1937    -1910    -1904    -1948    -2016    -2066    -2112    -2178 
   -2216    -2208    -2218    -2261    -2286    -2289    -2324    -2401 
   -2496    -2596    -2663    -2655    -2605    -2569    -2556    -2554 
   -2574    -2610    -2632    -2629    -2623    -2606    -2583    -2593 
   -2631    -2666    -2671    -2639    -2589    -2528    -2467    -2443 
   -2457    -2465    -2452    -2451    -2457    -2438    -2412    -2392 
   -2349    -2289    -2241    -2199    -2158    -2116    -2084    -2076 
   -2100    -2128    -2135    -2139    -2147    -2154    -2160    -2158 
   -2164    -2174    -2164    -2134    -2115    -2118    -2131    -2138 
   -2147    -2172    -2201    -2231    -2249    -2249    -2241    -2254 
   -2293    -2327    -2331    -2330    -2358    -2408    -2454    -2496 
   -2538    -2567    -2575    -2560    -2543    -2560    -2601    -2621 
   -2623    -2620    -2613    -2609    -2614    -2631    -2650    -2654 
   -2639    -2623    -2643    -2710    -2762    -2743    -2666    -2587 
   -2540    -2497    -2430    -2346    -2270    -2232    -2226    -2232 
   -2231    -2219    -2189    -2123    -2058    -2034    -2030    -2033 
   -2038    -2037    -2046    -2087    -2141    -2197    -2253    -2286 
   -2303    -2343    -2416    -2486    -2523    -2524    -2515    -2520 
   -2558    -2609    -2633    -2633    -2631    -2625    -2617    -2624 
   -2643    -2627    -2565    -2492    -2439    -2403    -2363    -2322 
   -2286    -2255    -2235    -2232    -2222    -2187    -2137    -2093 
   -2060    -2034    -2008    -1949    -1827    -1683    -1572    -1493 
   -1414    -1327    -1242    -1163    -1119    -1128    -1134    -1098 
   -1080    -1100    -1129    -1163    -1209    -1248    -1281    -1336 
   -1424    -1518    -1606    -1692    -1804    -1944    -2056    -2116 
   -2160    -2197    -2241    -2320    -2420    -2484    -2529    -2594 
   -2674    -2752    -2801    -2814    -2822    -2851    -2898    -2920 
   -2897    -2867    -2845    -2791    -2727    -2693    -2678    -2658 
   -2635    -2623    -2623    -2587    -2520    -2474    -2431    -2380 
   -2346    -2320    -2284    -2269    -2299    -2331    -2312    -2270 
   -2245    -2227    -2226    -2245    -2236    -2199    -2173    -2151 
   -2134    -2143    -2169    -2196    -2231    -2281    -2339    -2392 
   -2432    -2470    -2496    -2474    -2425    -2404    -2405    -2411 
   -2417    -2409    -2371    -2323    -2297    -2317    -2351    -2359 
   -2358    -2370    -2374    -2367    -2362    -2347    -2305    -2261 
   -2232    -2220    -2226    -2250    -2281    -2307    -2328    -2320 
   -2286    -2259    -2253    -2255    -2263    -2272    -2282    -2286 
   -2278    -2292    -2361    -2454    -2535    -2586    -2597    -2597 
   -2619    -2640    -2646    -2658    -2697    -2749    -2795    -2826 
   -2832    -2803    -2751    -2706    -2683    -2675    -2663    -2650 
   -2637    -2616    -2579    -2538    -2496    -2455    -2420    -2407 
   -2421    -2447    -2459    -2451    -2411    -2327    -2224    -2137 
   -2056    -1979    -1934    -1942    -1983    -2007    -2002    -1993 
   -1991    -1992    -2016    -2041    -2039    -2046    -2088    -2123 
   -2130    -2150    -2201    -2235    -2253    -2292    -2313    -2300 
   -2301    -2313    -2311    -2311    -2338    -2384    -2436    -2492 
   -2531    -2536    -2513    -2484    -2459    -2420    -2363    -2327 
   -2319    -2312    -2295    -2292    -2296    -2269    -2232    -2231 
   -2245    -2241    -2247    -2262    -2251    -2219    -2185    -2157 
   -2150    -2177    -2209    -2191    -2137    -2092    -2058    -2033 
   -2015    -2003    -2012    -2045    -2072    -2072    -2062    -2072 
   -2099    -2124    -2157    -2196    -2245    -2296    -2340    -2403 
   -2478    -2535    -2582    -2619    -2617    -2594    -2587    -2598 
   -2612    -2624    -2628    -2617    -2620    -2658    -2691    -2701 
   -2706    -2709    -2706    -2710    -2710    -2687    -2651    -2608 
   -2551    -2509    -2524    -2552    -2538    -2505    -2489    -2459 
   -2423    -2401    -2357    -2289    -2247    -2242    -2247    -2239 
   -2223    -2189    -2137    -2096    -2092    -2107    -2122    -2145 
   -2165    -2165    -2172    -2200    -2212    -2203    -2192    -2196 
   -2219    -2253    -2285    -2316    -2328    -2317    -2323    -2342 
   -2350    -2339    -2311    -2281    -2273    -2289    -2317    -2332 
   -2311    -2282    -2289    -2313    -2330    -2353    -2355    -2311 
   -2259    -2257    -2277    -2281    -2278    -2257    -2207    -2164 
   -2154    -2145    -2099    -2054    -2030    -2000    -1973    -1949 
   -1918    -1891    -1863    -1844    -1841    -1823    -1786    -1750 
   -1714    -1688    -1686    -1698    -1713    -1738    -1786    -1846 
   -1907    -1972    -2038    -2083    -2114    -2127    -2127    -2153 
   -2195    -2223    -2250    -2276    -2293    -2313    -2327    -2336 
   -2353    -2349    -2312    -2278    -2263    -2253    -2254    -2280 
   -2300    -2292    -2289    -2307    -2331    -2351    -2355    -2338 
   -2322    -2326    -2350    -2369    -2361    -2332    -2308    -2286 
   -2265    -2246    -2239    -2247    -2259    -2269    -2286    -2290 
   -2262    -2218    -2182    -2161    -2161    -2170    -2165    -2150 
   -2126    -2101    -2116    -2153    -2168    -2149    -2111    -2085 
   -2093    -2119    -2142    -2146    -2124    -2111    -2128    -2168 
   -2218    -2261    -2295    -2330    -2361    -2392    -2413    -2419 
   -2420    -2412    -2403    -2415    -2436    -2469    -2524    -2575 
   -2597    -2601    -2609    -2628    -2643    -2646    -2632    -2612 
   -2614    -2650    -2677    -2687    -2698    -2704    -2700    -2700 
   -2695    -2685    -2681    -2683    -2675    -2656    -2636    -2629 
   -2623    -2598    -2559    -2509    -2459    -2425    -2409    -2392 
   -2363    -2351    -2354    -2353    -2336    -2316    -2307    -2289 
   -2238    -2184    -2161    -2164    -2177    -2182    -2161    -2133 
   -2118    -2116    -2130    -2127    -2088    -2042    -1995    -1933 
   -1875    -1829    -1791    -1759    -1725    -1695    -1676    -1651 
   -1611    -1593    -1598    -1605    -1580    -1525    -1479    -1460 
   -1463    -1479    -1475    -1445    -1416    -1387    -1363    -1375 
   -1413    -1436    -1451    -1486    -1525    -1549    -1570    -1580 
   -1575    -1547    -1530    -1556    -1598    -1636    -1678    -1706 
   -1719    -1738    -1777    -1841    -1902    -1962    -2043    -2104 
   -2134    -2184    -2265    -2342    -2408    -2457    -2494    -2542 
   -2600    -2654    -2701    -2741    -2785    -2837    -2887    -2936 
   -2983    -3014    -3025    -3026    -3032    -3053    -3079    -3083 
   -3057    -3026    -3003    -2995    -3011    -3038    -3055    -3059 
   -3046    -3007    -2963    -2934    -2902    -2853    -2817    -2802 
   -2805    -2812    -2793    -2760    -2744    -2736    -2721    -2712 
   -2700    -2686    -2694    -2716    -2714    -2691    -2682    -2679 
   -2670    -2675    -2691    -2686    -2675    -2681    -2679    -2667 
   -2664    -2677    -2683    -2658    -2596    -2527    -2467    -2423 
   -2393    -2361    -2319    -2273    -2218    -2164    -2127    -2103 
   -2089    -2088    -2087    -2081    -2096    -2139    -2182    -2207 
   -2208    -2208    -2234    -2268    -2289    -2292    -2273    -2243 
   -2222    -2212    -2208    -2200    -2185    -2146    -2097    -2089 
   -2111    -2123    -2123    -2112    -2107    -2103    -2095    -2108 
