Origin Time       2025/01/13 21:19:00
Lat.              31.8
Long.             131.6
Depth. (km)       30
Mag.              6.9
Station Code      KOC004
Station Lat.      33.6975
Station Long.     133.8764
Station Height(m) 220
Record Time       2025/01/13 21:20:50
Sampling Freq(Hz) 100Hz
Duration Time(s)  76
Dir.              U-D
Scale Factor      7845(gal)/8223790
Max. Acc. (gal)   1.267
Last Correction   2025/01/13 21:20:50
Memo.             
[...]
   17001    16931    16877    16837    16837    16868    16858    16779 
   16694    16640    16578    16492    16444    16475    16518    16492 
   16432    16426    16509    16642    16760    16812    16811    16792 
   16777    16768    16731    16654    16579    16557    16598    16713 
   16916    17138    17244    17208    17092    16953    16843    16760 
   16672    16617    16618    16636    16663    16717    16791    16856 
   16892    16904    16889    16822    16699    16576    16519    16542 
   16618    16731    16852    16938    16945    16864    16756    16672 
   16592    16519    16510    16563    16623    16680    16767    16902 
   17061    17173    17211    17205    17182    17143    17078    17014 
   16997    17043    17107    17135    17147    17169    17162    17112 
   17050    16995    16937    16856    16761    16671    16603    16578 
   16580    16583    16582    16579    16584    16578    16509    16382 
   16249    16156    16124    16146    16210    16305    16389    16459 
   16534    16611    16663    16650    16592    16565    16594    16634 
   16679    16756    16866    16973    17043    17072    17053    16983 
   16884    16816    16818    16854    16887    16911    16902    16864 
   16854    16866    16839    16756    16648    16561    16514    16534 
   16645    16787    16881    16910    16872    16772    16644    16537 
   16521    16646    16841    16988    17088    17130    17028    16807 
   16596    16474    16457    16551    16687    16789    16860    16897 
   16870    16808    16754    16704    16656    16590    16465    16312 
   16189    16139    16197    16366    16579    16752    16843    16846 
   16744    16565    16403    16310    16310    16424    16592    16722 
   16808    16864    16868    16853    16880    16939    16985    16991 
   16941    16845    16742    16680    16691    16787    16920    16996 
   16980    16908    16822    16752    16723    16722    16717    16704 
   16661    16582    16526    16557    16664    16787    16856    16849 
   16810    16767    16698    16623    16586    16592    16664    16800 
   16923    16954    16899    16803    16691    16590    16555    16605 
   16714    16853    16978    17032    17000    16914    16810    16696 
   16607    16578    16598    16638    16667    16677    16721    16804 
   16837    16784    16738    16725    16702    16675    16663    16669 
   16710    16783    16868    16946    17004    17032    17039    17037 
   17004    16914    16808    16746    16719    16706    16710    16744 
   16788    16816    16815    16789    16762    16773    16858    16981 
   17051    17046    17011    16957    16883    16826    16816    16842 
   16872    16883    16887    16896    16881    16834    16792    16783 
   16784    16760    16741    16773    16819    16821    16781    16740 
   16707    16665    16602    16553    16576    16630    16633    16621 
   16646    16669    16657    16614    16567    16560    16607    16680 
   16760    16826    16845    16795    16711    16650    16621    16594 
   16568    16569    16600    16634    16649    16640    16623    16640 
   16688    16738    16788    16849    16895    16914    16915    16899 
   16865    16816    16780    16791    16852    16918    16945    16945 
   16961    16970    16938    16880    16838    16810    16777    16740 
   16708    16711    16761    16816    16843    16849    16839    16803 
   16723    16607    16513    16501    16567    16661    16731    16756 
   16737    16698    16679    16699    16757    16839    16903    16908 
   16858    16769    16660    16600    16661    16803    16929    16995 
   17008    16984    16941    16892    16866    16892    16969    17037 
   17054    17028    16961    16875    16808    16776    16791    16850 
   16897    16893    16834    16727    16615    16548    16541    16579 
   16644    16704    16734    16727    16690    16633    16588    16576 
   16602    16653    16691    16691    16646    16587    16567    16579 
   16582    16561    16524    16491    16495    16537    16602    16688 
   16795    16877    16915    16942    16958    16941    16911    16899 
   16912    16945    16993    17055    17100    17077    16980    16879 
   16807    16745    16688    16652    16641    16656    16691    16718 
   16699    16637    16565    16506    16465    16459    16488    16538 
   16599    16636    16622    16595    16592    16622    16690    16771 
   16827    16853    16877    16907    16943    16992    17023    17035 
   17068    17122    17161    17162    17139    17109    17068    17026 
   16999    16968    16938    16941    16977    17004    16969    16877 
   16781    16719    16686    16641    16590    16583    16611    16630 
   16632    16610    16575    16545    16515    16507    16561    16672 
   16803    16903    16938    16924    16885    16842    16798    16749 
   16715    16730    16803    16876    16881    16838    16806    16798 
   16788    16769    16746    16714    16673    16637    16606    16568 
   16530    16490    16464    16483    16532    16561    16568    16557 
   16533    16540    16564    16534    16471    16428    16383    16329 
   16286    16262    16255    16275    16322    16380    16438    16488 
   16513    16518    16526    16530    16549    16618    16721    16829 
   16931    17005    17045    17070    17081    17057    17012    16976 
   16968    16985    17010    17031    17051    17077    17097    17086 
   17055    17031    16980    16892    16814    16768    16737    16717 
   16727    16748    16735    16704    16688    16694    16723    16761 
   16788    16815    16839    16857    16872    16884    16881    16842 
   16785    16758    16761    16777    16800    16811    16821    16853 
   16897    16924    16946    16996    17042    17030    16983    16939 
   16918    16924    16935    16949    16968    16978    16969    16931 
   16879    16838    16819    16818    16833    16849    16841    16819 
   16821    16835    16830    16811    16783    16734    16669    16600 
   16545    16532    16572    16640    16702    16745    16769    16775 
   16758    16731    16704    16694    16699    16710    16748    16827 
   16911    16961    16977    16976    16978    16996    17019    17020 
   16977    16891    16807    16764    16753    16741    16710    16675 
   16660    16659    16661    16671    16672    16642    16598    16568 
   16545    16515    16482    16438    16393    16372    16364    16367 
   16393    16407    16405    16434    16488    16537    16590    16653 
   16723    16800    16849    16845    16814    16795    16803    16837 
   16873    16903    16947    16997    17022    16995    16926    16846 
   16772    16706    16680    16719    16795    16857    16893    16910 
   16896    16869    16848    16834    16823    16804    16773    16740 
   16680    16591    16525    16494    16461    16413    16364    16324 
   16291    16274    16268    16270    16294    16355    16441    16518 
   16580    16645    16702    16717    16704    16695    16680    16650 
   16630    16623    16637    16677    16730    16787    16837    16858 
   16860    16860    16858    16865    16900    16947    16981    17008 
   17027    17023    16992    16945    16910    16889    16857    16785 
   16676    16555    16445    16355    16295    16286    16320    16389 
   16487    16578    16630    16657    16671    16650    16590    16537 
   16537    16594    16677    16756    16804    16810    16785    16757 
   16734    16718    16710    16726    16779    16829    16846    16841 
   16825    16794    16761    16735    16731    16758    16799    16841 
   16887    16931    16961    16978    16995    17014    17024    17019 
   17012    17031    17076    17113    17145    17176    17172    17113 
   17045    17015    17028    17053    17055    17042    17030    17028 
   17023    16996    16951    16906    16853    16784    16715    16675 
   16661    16650    16654    16692    16707    16672    16629    16592 
   16545    16492    16456    16455    16491    16540    16561    16563 
   16556    16524    16471    16426    16420    16464    16542    16600 
   16618    16614    16603    16594    16594    16580    16568    16598 
   16632    16633    16623    16611    16615    16645    16676    16704 
   16718    16683    16619    16587    16613    16661    16706    16771 
   16843    16887    16889    16865    16838    16821    16802    16788 
   16792    16798    16796    16783    16758    16738    16733    16748 
   16784    16831    16873    16907    16938    16964    16977    16980 
   16961    16916    16869    16853    16873    16899    16912    16907 
   16879    16838    16780    16706    16654    16645    16660    16677 
   16708    16775    16858    16911    16927    16930    16911    16865 
   16803    16741    16692    16668    16648    16618    16595    16611 
   16677    16771    16853    16914    16947    16937    16891    16861 
   16889    16953    17003    17043    17103    17173    17213    17197 
   17130    17054    17003    16988    17016    17057    17080    17081 
   17051    16989    16902    16811    16754    16735    16723    16699 
   16669    16640    16607    16582    16565    16556    16557    16591 
   16649    16700    16740    16789    16858    16919    16951    16978 
   17026    17076    17097    17091    17066    17034    17001    16962 
   16923    16887    16841    16794    16753    16714    16681    16650 
   16610    16571    16538    16503    16474    16467    16475    16488 
   16497    16488    16471    16449    16420    16395    16395    16418 
   16455    16492    16503    16497    16506    16530    16563    16602 
   16627    16632    16609    16578    16591    16652    16719    16772 
   16816    16850    16857    16835    16811    16799    16806    16822 
   16829    16831    16815    16772    16730    16690    16649    16644 
   16673    16690    16653    16580    16526    16501    16482    16479 
   16506    16563    16625    16646    16621    16586    16567    16584 
   16644    16721    16795    16850    16888    16916    16924    16902 
   16858    16812    16795    16796    16791    16804    16856    16896 
   16899    16864    16798    16733    16696    16686    16699    16738 
   16784    16804    16798    16785    16764    16737    16713    16659 
   16582    16515    16467    16457    16499    16546    16598    16690 
   16788    16841    16849    16861    16896    16931    16941    16924 
   16910    16910    16919    16938    16949    16927    16884    16831 
   16775    16730    16703    16692    16699    16719    16740    16746 
   16722    16687    16672    16679    16707    16758    16834    16927 
   16999    17014    16999    16987    16974    16962    16956    16953 
   16969    17007    17042    17070    17103    17139    17163    17185 
   17228    17281    17301    17286    17243    17172    17091    17019 
   16969    16933    16895    16841    16777    16717    16659    16607 
   16587    16592    16598    16599    16600    16614    16640    16656 
   16667    16688    16735    16802    16860    16908    16969    17031 
   17055    17035    17005    16983    16961    16941    16924    16914 
   16903    16885    16864    16843    16818    16789    16768    16756 
   16740    16698    16618    16532    16470    16436    16430    16457 
   16501    16529    16529    16505    16447    16376    16337    16337 
   16355    16387    16434    16490    16538    16553    16553    16580 
   16627    16686    16750    16812    16870    16920    16960    17001 
   17039    17058    17065    17064    17035    16987    16939    16911 
   16910    16916    16907    16875    16808    16715    16625    16561 
   16524    16502    16503    16522    16530    16526    16522    16514 
   16491    16470    16467    16474    16484    16509    16540    16573 
   16615    16660    16704    16742    16775    16808    16841    16857 
   16856    16833    16789    16726    16660    16602    16553    16518 
   16499    16503    16540    16578    16582    16565    16555    16555 
   16561    16571    16565    16526    16470    16434    16441    16484 
   16561    16659    16754    16829    16870    16885    16884    16897 
   16947    17031    17130    17212    17267    17317    17359    17375 
   17365    17348    17343    17328    17301    17293    17302    17307 
   17292    17257    17215    17178    17135    17089    17057    17032 
   16996    16938    16865    16796    16734    16669    16618    16590 
   16563    16521    16455    16378    16308    16220    16113    16017 
   15938    15881    15858    15854    15862    15862    15862    15873 
   15880    15896    15930    15975    16039    16101    16146    16181 
   16212    16247    16279    16318    16374    16428    16460    16475 
   16492    16514    16526    16529    16534    16541    16560    16600 
   16625    16622    16633    16665    16703    16729    16733    16730 
   16734    16735    16742    16775    16826    16866    16873    16848 
   16810    16750    16680    16627    16594    16575    16584    16605 
   16610    16603    16579    16530    16490    16492    16524    16571 
   16645    16727    16788    16838    16899    16949    16993    17046 
   17089    17119    17132    17132    17140    17150    17155    17170 
   17177    17165    17126    17039    16946    16893    16884    16912 
   16973    17032    17077    17135    17212    17270    17302    17334 
   17359    17393    17474    17582    17687    17793    17875    17926 
   17959    17986    18017    18049    18071    18084    18084    18064 
   18027    17983    17926    17859    17786    17718    17644    17562 
   17485    17416    17350    17270    17170    17073    16999    16937 
   16884    16839    16802    16768    16734    16696    16646    16603 
   16583    16563    16534    16506    16460    16402    16341    16286 
   16251    16239    16233    16235    16247    16252    16244    16243 
   16249    16247    16221    16195    16185    16186    16195    16206 
   16220    16241    16255    16251    16248    16239    16221    16216 
   16235    16264    16291    16313    16330    16341    16328    16294 
   16279    16299    16329    16362    16394    16405    16389    16351 
   16329    16351    16398    16456    16529    16598    16640    16649 
   16638    16625    16615    16619    16634    16654    16683    16710 
   16722    16731    16729    16698    16661    16632    16588    16551 
   16540    16533    16518    16506    16480    16441    16418    16406 
   16390    16390    16405    16407    16394    16376    16356    16347 
   16360    16376    16384    16399    16417    16425    16432    16436 
   16447    16484    16540    16609    16690    16764    16819    16856 
   16885    16902    16899    16907    16924    16927    16915    16902 
   16897    16902    16907    16906    16884    16857    16833    16800 
   16769    16745    16710    16676    16649    16630    16627    16636 
   16638    16634    16636    16642    16630    16599    16569    16540 
   16513    16480    16434    16407    16413    16413    16406    16413 
   16437    16463    16480    16501    16536    16582    16630    16684 
   16744    16807    16870    16934    16995    17049    17091    17120 
   17149    17172    17190    17203    17205    17194    17166    17124 
   17092    17082    17104    17136    17167    17208    17232    17231 
   17216    17196    17172    17143    17109    17084    17080    17091 
   17115    17146    17166    17162    17140    17113    17074    17037 
   17018    17003    16976    16943    16908    16861    16806    16757 
   16730    16715    16710    16715    16708    16683    16648    16615 
   16607    16637    16677    16717    16762    16799    16829    16868 
   16907    16951    17003    17041    17054    17042    17008    16973 
   16954    16937    16918    16923    16950    16962    16943    16911 
   16868    16827    16815    16826    16846    16883    16927    16946 
   16933    16908    16872    16812    16735    16653    16586    16540 
   16505    16470    16438    16413    16380    16360    16372    16402 
   16422    16429    16434    16447    16465    16491    16511    16532 
   16569    16613    16629    16610    16569    16524    16479    16452 
   16451    16467    16487    16501    16491    16453    16405    16363 
   16343    16336    16333    16335    16329    16313    16297    16266 
   16225    16195    16174    16159    16171    16210    16241    16237 
   16212    16193    16183    16181    16189    16202    16229    16262 
   16272    16263    16252    16251    16262    16285    16318    16364 
   16401    16413    16422    16444    16486    16556    16641    16729 
   16822    16912    17005    17089    17143    17182    17221    17263 
   17320    17381    17429    17466    17474    17458    17440    17425 
   17421    17436    17464    17475    17469    17475    17490    17506 
   17529    17518    17467    17413    17355    17301    17274    17267 
   17277    17285    17267    17235    17204    17166    17123    17082 
   17045    17004    16976    16953    16915    16880    16861    16841 
   16821    16818    16821    16806    16785    16781    16795    16826 
   16879    16960    17045    17104    17143    17173    17185    17196 
   17207    17209    17209    17207    17204    17209    17217    17219 
   17209    17200    17200    17194    17181    17167    17149    17130 
   17120    17103    17065    17016    16966    16915    16875    16846 
   16810    16764    16731    16719    16717    16717    16717    16730 
   16771    16819    16854    16861    16837    16798    16746    16672 
   16598    16540    16484    16443    16430    16443    16475    16514 
   16553    16595    16630    16656    16679    16702    16718    16713 
   16688    16663    16644    16627    16606    16580    16560    16537 
   16497    16441    16380    16325    16287    16259    16247    16264 
   16299    16335    16362    16364    16344    16320    16302    16293 
   16298    16317    16336    16357    16376    16370    16336    16316 
   16322    16335    16352    16376    16394    16422    16474    16517 
   16536    16545    16551    16565    16590    16594    16591    16607 
   16630    16645    16652    16660    16671    16684    16702    16723 
   16749    16776    16807    16845    16881    16903    16919    16937 
   16942    16924    16910    16915    16939    16974    17000    17007 
   16999    16980    16950    16915    16884    16872    16884    16900 
   16896    16884    16879    16862    16843    16848    16858    16864 
   16872    16869    16848    16815    16773    16713    16656    16629 
   16603    16565    16534    16509    16494    16497    16494    16499 
   16518    16511    16479    16456    16438    16424    16436    16457 
   16467    16480    16506    16526    16549    16598    16661    16710 
   16735    16744    16749    16769    16798    16830    16880    16942 
   16993    17035    17074    17107    17124    17132    17146    17157 
   17131    17081    17042    17007    16983    16980    16977    16958 
   16927    16884    16826    16765    16708    16657    16630    16622 
   16598    16563    16537    16507    16465    16414    16364    16325 
   16297    16275    16256    16245    16245    16243    16241    16248 
   16262    16278    16293    16299    16298    16286    16270    16259 
