Origin Time       2025/01/13 21:19:00
Lat.              31.8
Long.             131.6
Depth. (km)       30
Mag.              6.9
Station Code      KOC014
Station Lat.      32.9897
Station Long.     132.9403
Station Height(m) 6
Record Time       2025/01/13 21:20:11
Sampling Freq(Hz) 100Hz
Duration Time(s)  147
Dir.              N-S
Scale Factor      7845(gal)/8223790
Max. Acc. (gal)   8.712
Last Correction   2025/01/13 21:20:11
Memo.             
[...]
    2249     1251      286     -664    -1563    -2349    -2975    -3396 
   -3601    -3673    -3705    -3726    -3723    -3726    -3794    -3991 
   -4302    -4602    -4741    -4619    -4198    -3515    -2682    -1864 
   -1236     -909     -872    -1048    -1394    -1941    -2775    -3915 
   -5219    -6482    -7537    -8284    -8708    -8858    -8858    -8830 
   -8822    -8815    -8776    -8703    -8599    -8425    -8124    -7662 
   -7140    -6786    -6714    -6876    -7190    -7584    -7990    -8333 
   -8538    -8591    -8502    -8249    -7808    -7142    -6197    -4992 
   -3651    -2319    -1158     -319      126      244      168       56 
       5      -10      -31      -10       89      284      618     1100 
    1713     2420     3150     3812     4267     4405     4280     3987 
    3599     3183     2737     2219     1610      862      -40    -1028 
   -1993    -2820    -3399    -3651    -3553    -3134    -2542    -2011 
   -1756    -1871    -2288    -2837    -3376    -3848    -4275    -4658 
   -4968    -5205    -5406    -5587    -5711    -5740    -5736    -5806 
   -5965    -6154    -6273    -6273    -6224    -6242    -6369    -6569 
   -6793    -7037    -7306    -7550    -7697    -7708    -7601    -7447 
   -7319    -7263    -7299    -7348    -7244    -6891    -6289    -5490 
   -4526    -3408    -2191     -988       24      679      931      859 
     568      101     -560    -1406    -2369    -3329    -4093    -4503 
   -4538    -4257    -3801    -3356    -3028    -2837    -2776    -2789 
   -2820    -2860    -2916    -2978    -3021    -3003    -2890    -2716 
   -2574    -2506    -2459    -2388    -2303    -2245    -2272    -2423 
   -2685    -3046    -3573    -4295    -5139    -5988    -6729    -7245 
   -7462    -7408    -7167    -6833    -6512    -6274    -6127    -6018 
   -5849    -5525    -5011    -4328    -3570    -2883    -2403    -2243 
   -2447    -2948    -3591    -4167    -4519    -4581    -4329    -3784 
   -3048    -2299    -1692    -1302    -1143    -1173    -1337    -1605 
   -1934    -2274    -2586    -2836    -3011    -3146    -3260    -3322 
   -3316    -3252    -3159    -3094    -3125    -3285    -3514    -3677 
   -3690    -3555    -3303    -2961    -2546    -2050    -1513    -1054 
    -793     -749     -843     -986    -1120    -1242    -1358    -1447 
   -1460    -1366    -1163     -841     -383      160      699     1147 
    1439     1541     1440     1092      417     -600    -1854    -3144 
   -4270    -5135    -5707    -5964    -5964    -5829    -5644    -5451 
   -5270    -5128    -5055    -5085    -5208    -5332    -5409    -5517 
   -5715    -6010    -6404    -6844    -7242    -7570    -7844    -8059 
   -8167    -8087    -7794    -7395    -7041    -6789    -6604    -6442 
   -6286    -6145    -6033    -5953    -5915    -5991    -6231    -6575 
   -6893    -7051    -6921    -6462    -5741    -4866    -3942    -3019 
   -2119    -1293     -623     -187       13       56       -1     -116 
    -243     -365     -448     -464     -419     -290      -54      305 
     838     1543     2307     2998     3535     3897     4094     4110 
    3951     3653     3245     2802     2435     2164     1944     1726 
    1482     1169      716      129     -503    -1097    -1574    -1892 
   -2104    -2300    -2592    -3059    -3659    -4325    -5008    -5616 
   -6039    -6262    -6370    -6446    -6556    -6731    -6894    -6924 
   -6770    -6471    -6114    -5784    -5537    -5429    -5489    -5690 
   -5962    -6173    -6199    -6069    -5929    -5894    -5977    -6096 
   -6184    -6253    -6330    -6407    -6519    -6747    -7132    -7618 
   -8062    -8298    -8230    -7858    -7300    -6762    -6400    -6230 
   -6130    -5914    -5454    -4754    -3882    -2899    -1877     -920 
    -125      446      811     1053     1239     1364     1382     1275 
    1066      787      471      178      -36     -133     -149     -171 
    -280     -507     -793    -1035    -1216    -1360    -1478    -1580 
   -1694    -1865    -2164    -2635    -3264    -3950    -4573    -5107 
   -5559    -5910    -6169    -6367    -6507    -6604    -6723    -6917 
   -7194    -7510    -7848    -8233    -8665    -9089    -9413    -9560 
   -9506    -9286    -9013    -8792    -8596    -8343    -8014    -7653 
   -7275    -6891    -6556    -6289    -6079    -5967    -5965    -6014 
   -6065    -6069    -5967    -5729    -5327    -4772    -4114    -3404 
   -2694    -2018    -1408     -931     -627     -500     -525     -635 
    -789     -972    -1183    -1413    -1603    -1659    -1517    -1189 
    -766     -333       75      459      858     1296     1750     2205 
    2609     2902     3080     3171     3203     3188     3125     3053 
    3021     3061     3169     3280     3321     3245     3042     2745 
    2396     2026     1629     1161      603      -71     -882    -1759 
   -2598    -3311    -3804    -4056    -4148    -4174    -4193    -4203 
   -4197    -4182    -4216    -4368    -4679    -5161    -5809    -6577 
   -7438    -8414    -9490   -10561   -11475   -12112   -12434   -12468 
  -12271   -11915   -11456   -10914   -10319    -9687    -8973    -8160 
   -7326    -6540    -5814    -5138    -4507    -3928    -3376    -2781 
   -2119    -1453     -857     -346      124      618     1146     1640 
    1977     2070     1960     1798     1688     1580     1340      893 
     253     -546    -1445    -2354    -3190    -3855    -4232    -4259 
   -3963    -3426    -2745    -2035    -1378     -808     -319      122 
     568     1023     1482     1927     2273     2415     2328     2068 
    1733     1391     1016      557      -10     -666    -1360    -2097 
   -2947    -3943    -5055    -6211    -7312    -8270    -9053    -9660 
  -10107   -10432   -10639   -10704   -10620   -10368    -9919    -9282 
   -8482    -7574    -6636    -5715    -4843    -4051    -3412    -3024 
   -2934    -3149    -3584    -4068    -4463    -4676    -4671    -4473 
   -4136    -3747    -3388    -3065    -2755    -2451    -2188    -2041 
   -2073    -2292    -2654    -3096    -3580    -4072    -4541    -4935 
   -5221    -5409    -5526    -5580    -5547    -5379    -5081    -4742 
   -4468    -4328    -4348    -4503    -4747    -5044    -5344    -5624 
   -5887    -6087    -6145    -6045    -5868    -5705    -5539    -5305 
   -4969    -4519    -3978    -3392    -2814    -2289    -1842    -1501 
   -1294    -1213    -1239    -1348    -1486    -1563    -1505    -1290 
    -955     -546      -70      487     1105     1725     2265     2671 
    2933     3045     3009     2883     2725     2538     2303     2026 
    1725     1412     1109      842      607      368       94     -201 
    -506     -847    -1236    -1674    -2168    -2682    -3177    -3690 
   -4234    -4797    -5387    -5977    -6496    -6876    -7083    -7125 
   -7078    -7021    -6984    -6994    -7086    -7265    -7511    -7823 
   -8201    -8642    -9159    -9730   -10287   -10801   -11244   -11524 
  -11597   -11435   -11005   -10388    -9724    -9062    -8415    -7788 
   -7146    -6481    -5818    -5155    -4494    -3863    -3272    -2700 
   -2111    -1486     -846     -241      284      724     1081     1318 
    1389     1314     1198     1116     1051      951      785      538 
     217     -157     -585    -1063    -1564    -2064    -2565    -3059 
   -3514    -3890    -4179    -4407    -4622    -4847    -5061    -5217 
   -5308    -5383    -5490    -5647    -5856    -6104    -6358    -6571 
   -6683    -6650    -6475    -6185    -5792    -5292    -4706    -4097 
   -3510    -2960    -2459    -2022    -1686    -1448    -1247    -1066 
    -919     -827     -811     -846     -872     -847     -768     -654 
    -550     -498     -506     -545     -572     -552     -442     -234 
       5      171      184       10     -342     -824    -1341    -1815 
   -2223    -2570    -2870    -3138    -3376    -3588    -3802    -4055 
   -4349    -4645    -4903    -5089    -5184    -5201    -5166    -5100 
   -5030    -4989    -4988    -5003    -5003    -4951    -4807    -4576 
   -4320    -4106    -4001    -4020    -4128    -4280    -4469    -4692 
   -4962    -5317    -5780    -6340    -6971    -7641    -8283    -8838 
   -9286    -9606    -9780    -9829    -9802    -9697    -9482    -9138 
   -8634    -7969    -7190    -6338    -5429    -4467    -3453    -2404 
   -1371     -400      473     1198     1748     2147     2409     2539 
    2556     2512     2465     2463     2550     2749     3040     3358 
    3666     3952     4198     4384     4502     4544     4503     4374 
    4141     3809     3408     2991     2570     2138     1719     1375 
    1182     1174     1291     1443     1553     1551     1360      926 
     218     -738    -1873    -3088    -4293    -5440    -6497    -7429 
   -8229    -8884    -9343    -9603    -9720    -9747    -9717    -9616 
   -9412    -9104    -8715    -8291    -7900    -7618    -7499    -7553 
   -7765    -8109    -8530    -8969    -9366    -9670    -9853    -9915 
   -9863    -9732    -9602    -9544    -9558    -9597    -9637    -9668 
   -9649    -9526    -9275    -8893    -8401    -7844    -7268    -6712 
   -6197    -5705    -5198    -4639    -3981    -3217    -2392    -1559 
    -757      -22      611     1112     1451     1637     1732     1804 
    1895     2006     2127     2274     2454     2664     2905     3165 
    3435     3724     4023     4267     4374     4274     3952     3439 
    2778     2008     1158      280     -541    -1269    -1892    -2400 
   -2820    -3208    -3593    -3964    -4314    -4633    -4916    -5162 
   -5375    -5560    -5692    -5749    -5757    -5749    -5746    -5780 
   -5854    -5938    -5989    -5980    -5917    -5822    -5707    -5584 
   -5494    -5451    -5452    -5478    -5478    -5416    -5289    -5089 
   -4810    -4461    -4067    -3653    -3235    -2843    -2481    -2126 
   -1750    -1359     -946     -519     -128      167      311      286 
     103     -203     -596    -1019    -1433    -1807    -2103    -2327 
   -2516    -2685    -2841    -3010    -3234    -3534    -3889    -4283 
   -4720    -5181    -5651    -6134    -6605    -6998    -7261    -7387 
   -7393    -7306    -7142    -6933    -6720    -6515    -6319    -6143 
   -6016    -5950    -5927    -5927    -5960    -6025    -6093    -6127 
   -6081    -5919    -5622    -5192    -4654    -4043    -3370    -2671 
   -1989    -1374     -862     -454     -129      141      390      645 
     918     1212     1532     1877     2249     2624     2975     3289 
    3558     3755     3855     3838     3697     3442     3107     2710 
    2266     1792     1293      758      183     -452    -1151    -1890 
   -2627    -3341    -4028    -4673    -5251    -5738    -6141    -6501 
   -6853    -7206    -7566    -7942    -8338    -8748    -9117    -9373 
   -9472    -9427    -9286    -9090    -8853    -8590    -8295    -7969 
   -7609    -7223    -6816    -6407    -6038    -5757    -5571    -5468 
   -5448    -5506    -5633    -5814    -6011    -6192    -6312    -6323 
   -6200    -5957    -5628    -5247    -4869    -4534    -4253    -4048 
   -3927    -3863    -3843    -3839    -3816    -3744    -3589    -3346 
   -3063    -2759    -2421    -2043    -1634    -1215     -816     -467 
    -195      -16       98      189      261      301      284      190 
      12     -224     -486     -751     -999    -1208    -1372    -1509 
   -1634    -1744    -1823    -1873    -1925    -2003    -2100    -2196 
   -2266    -2307    -2319    -2304    -2265    -2204    -2130    -2085 
   -2099    -2160    -2270    -2431    -2614    -2799    -2974    -3136 
   -3326    -3582    -3927    -4357    -4838    -5320    -5773    -6178 
   -6534    -6848    -7132    -7402    -7678    -7977    -8309    -8664 
   -9016    -9351    -9652    -9894   -10061   -10129   -10069    -9869 
   -9522    -9050    -8478    -7828    -7136    -6411    -5647    -4864 
   -4081    -3311    -2560    -1817    -1082     -376      278      872 
    1409     1914     2390     2817     3164     3407     3546     3605 
    3603     3534     3402     3234     3053     2879     2716     2548 
    2373     2181     1960     1717     1490     1294     1105      915 
     738      585      473      410      359      275      116     -174 
    -608    -1142    -1740    -2366    -2979    -3576    -4162    -4722 
   -5247    -5755    -6272    -6813    -7385    -7975    -8556    -9126 
   -9674   -10164   -10577   -10886   -11079   -11167   -11146   -11017 
  -10794   -10471   -10037    -9499    -8881    -8199    -7464    -6700 
   -5940    -5194    -4456    -3731    -3049    -2446    -1937    -1494 
   -1070     -668     -317      -27      207      429      662      895 
    1115     1286     1379     1413     1398     1339     1231     1058 
     843      604      345       79     -186     -440     -649     -815 
    -946    -1028    -1070    -1084    -1065    -1016     -957     -918 
    -928     -993    -1112    -1286    -1533    -1883    -2343    -2886 
   -3491    -4145    -4839    -5560    -6284    -7002    -7716    -8424 
   -9089    -9671   -10139   -10492   -10741   -10921   -11063   -11183 
  -11280   -11341   -11338   -11253   -11088   -10847   -10542   -10197 
   -9819    -9405    -8957    -8492    -8039    -7581    -7095    -6567 
   -5992    -5381    -4764    -4170    -3607    -3075    -2565    -2061 
   -1568    -1090     -622     -167      272      696     1109     1541 
    2015     2531     3068     3586     4059     4482     4845     5147 
    5389     5574     5705     5780     5798     5761     5675     5535 
    5339     5077     4756     4388     3991     3581     3176     2787 
    2415     2037     1614     1131      565      -81     -781    -1506 
   -2224    -2903    -3523    -4081    -4598    -5100    -5587    -6058 
   -6496    -6879    -7210    -7496    -7730    -7929    -8118    -8293 
   -8465    -8649    -8856    -9092    -9344    -9593    -9836   -10068 
  -10293   -10512   -10729   -10939   -11133   -11291   -11387   -11411 
  -11373   -11273   -11114   -10893   -10606   -10285    -9930    -9506 
   -9031    -8529    -8001    -7453    -6872    -6237    -5541    -4806 
   -4059    -3342    -2687    -2100    -1595    -1186     -869     -633 
    -484     -410     -380     -394     -440     -499     -583     -692 
    -799     -907    -1028    -1127    -1175    -1150    -1040     -877 
    -691     -504     -342     -199      -60       94      268      460 
     687      958     1251     1553     1852     2138     2411     2647 
    2825     2936     2952     2871     2727     2542     2331     2127 
    1929     1729     1533     1331     1116      886      618      283 
    -112     -560    -1057    -1578    -2083    -2550    -2964    -3319 
   -3616    -3865    -4075    -4244    -4368    -4483    -4600    -4710 
   -4828    -4972    -5139    -5332    -5535    -5725    -5891    -6031 
   -6141    -6218    -6270    -6318    -6381    -6467    -6596    -6804 
   -7098    -7453    -7827    -8178    -8480    -8726    -8915    -9059 
   -9174    -9270    -9364    -9471    -9595    -9740    -9894   -10041 
  -10157   -10228   -10251   -10224   -10142   -10011    -9830    -9595 
   -9301    -8957    -8568    -8147    -7696    -7192    -6623    -5999 
   -5343    -4675    -4000    -3331    -2686    -2062    -1453     -873 
    -326      183      652     1078     1459     1783     2052     2285 
    2517     2760     3015     3287     3584     3917     4266     4587 
    4862     5073     5209     5263     5225     5103     4909     4669 
    4405     4113     3775     3385     2924     2393     1817     1209 
     600       32     -479     -931    -1355    -1779    -2219    -2678 
   -3146    -3612    -4085    -4565    -5039    -5495    -5934    -6342 
   -6729    -7103    -7462    -7809    -8144    -8464    -8770    -9051 
   -9292    -9485    -9632    -9734    -9799    -9840    -9890    -9963 
  -10042   -10100   -10112   -10076   -10002    -9899    -9786    -9680 
   -9590    -9509    -9413    -9271    -9062    -8773    -8407    -7974 
   -7491    -6975    -6423    -5842    -5254    -4675    -4120    -3592 
   -3084    -2609    -2172    -1741    -1290     -824     -364       67 
     432      708      905     1021     1081     1112     1124     1129 
    1147     1186     1250     1348     1478     1638     1830     2041 
    2246     2436     2590     2685     2713     2679     2586     2459 
    2332     2209     2070     1903     1699     1452     1174      872 
     552      225     -118     -487     -862    -1229    -1566    -1856 
   -2097    -2282    -2400    -2452    -2462    -2469    -2481    -2498 
   -2539    -2605    -2701    -2841    -3029    -3276    -3586    -3942 
   -4332    -4764    -5229    -5706    -6173    -6620    -7029    -7398 
   -7747    -8071    -8365    -8660    -8966    -9270    -9574    -9871 
  -10143   -10390   -10605   -10756   -10833   -10843   -10804   -10743 
  -10669   -10570   -10431   -10228    -9956    -9617    -9220    -8765 
   -8256    -7711    -7145    -6579    -6033    -5528    -5074    -4675 
   -4320    -3989    -3655    -3306    -2932    -2527    -2093    -1637 
   -1161     -669     -178      297      753     1189     1605     1993 
    2357     2686     2982     3244     3469     3654     3798     3916 
    4027     4133     4226     4301     4337     4328     4279     4191 
    4045     3839     3593     3311     2974     2570     2115     1611 
    1043      410     -256     -928    -1588    -2220    -2808    -3348 
   -3850    -4325    -4784    -5233    -5674    -6091    -6485    -6885 
   -7302    -7739    -8183    -8600    -8964    -9286    -9580    -9841 
  -10066   -10261   -10435   -10598   -10741   -10855   -10926   -10962 
  -10968   -10947   -10914   -10874   -10812   -10740   -10665   -10577 
  -10481   -10374   -10219    -9976    -9637    -9207    -8700    -8133 
   -7501    -6813    -6079    -5312    -4533    -3750    -2982    -2263 
   -1611    -1016     -468       37      525      994     1444     1865 
    2239     2560     2845     3113     3364     3589     3788     3955 
    4083     4183     4260     4311     4337     4341     4329     4322 
    4317     4290     4237     4153     4035     3882     3697     3464 
    3168     2817     2409     1935     1406      853      294     -274 
    -862    -1480    -2137    -2833    -3551    -4274    -4988    -5694 
   -6365    -6986    -7574    -8136    -8665    -9166    -9639   -10073 
  -10471   -10835   -11157   -11445   -11697   -11889   -11992   -11985 
  -11867   -11654   -11372   -11033   -10658   -10282    -9915    -9539 
   -9161    -8787    -8414    -8052    -7703    -7348    -6980    -6597 
   -6199    -5784    -5355    -4922    -4506    -4114    -3738    -3357 
   -2953    -2520    -2070    -1605    -1125     -649     -194      234 
     645     1036     1420     1796     2151     2473     2744     2937 
    3030     3024     2930     2770     2552     2288     1993     1674 
    1318      926      514      102     -305     -700    -1074    -1449 
   -1838    -2236    -2644    -3053    -3449    -3827    -4189    -4541 
   -4887    -5223    -5540    -5827    -6081    -6308    -6509    -6686 
   -6828    -6909    -6928    -6895    -6822    -6728    -6612    -6467 
   -6301    -6114    -5914    -5709    -5493    -5258    -4997    -4712 
   -4409    -4083    -3757    -3458    -3192    -2961    -2760    -2571 
