Origin Time       2025/01/13 21:19:00
Lat.              31.8
Long.             131.6
Depth. (km)       30
Mag.              6.9
Station Code      KOC007
Station Lat.      33.5612
Station Long.     133.5273
Station Height(m) 3
Record Time       2025/01/13 21:20:34
Sampling Freq(Hz) 100Hz
Duration Time(s)  107
Dir.              E-W
Scale Factor      7845(gal)/8223790
Max. Acc. (gal)   4.319
Last Correction   2025/01/13 21:20:34
Memo.             
[...]
    -599     -324     -101        9        6     -120     -342     -584 
    -783     -918    -1005    -1063    -1108    -1171    -1242    -1297 
   -1339    -1314    -1144     -831     -427        2      396      754 
    1108     1418     1622     1715     1703     1603     1479     1379 
    1300     1201     1053      868      666      475      352      324 
     395      584      834     1047     1186     1212     1088      816 
     448       71     -274     -604     -909    -1150    -1314    -1413 
   -1437    -1382    -1309    -1309    -1410    -1539    -1587    -1544 
   -1412    -1152     -811     -471     -166       31       76      -13 
    -221     -490     -734     -911     -982     -955     -885     -777 
    -610     -387     -105      241      610      950     1228     1429 
    1574     1699     1829     1945     1984     1906     1711     1394 
     984      545      149     -130     -279     -361     -429     -502 
    -552     -529     -444     -326     -195     -109      -86      -70 
     -89     -220     -418     -619     -827    -1020    -1171    -1324 
   -1487    -1618    -1696    -1688    -1570    -1420    -1306    -1205 
   -1098     -982     -839     -673     -487     -251       20      263 
     441      541      557      523      487      473      488      523 
     579      637      696      799      974     1186     1356     1420 
    1390     1320     1233     1131      999      831      637      430 
     236       52     -157     -380     -553     -657     -702     -676 
    -592     -490     -411     -396     -450     -548     -661     -760 
    -857     -997    -1185    -1377    -1524    -1583    -1548    -1480 
   -1416    -1331    -1205    -1042     -841     -615     -413     -284 
    -253     -288     -326     -317     -270     -241     -276     -356 
    -430     -461     -441     -368     -221       24      352      692 
     966     1140     1213     1201     1139     1026      872      718 
     577      446      295      112      -45     -136     -190     -245 
    -298     -305     -243     -112       89      318      507      604 
     577      432      210      -55     -371     -716    -1024    -1231 
   -1344    -1385    -1348    -1255    -1131     -988     -838     -688 
    -548     -415     -317     -276     -260     -225     -186     -176 
    -193     -214     -257     -311     -349     -396     -419     -359 
    -247      -95       86      259      419      569      676      742 
     784      815      839      826      746      627      502      353 
     206      101       10      -47      -24       32       68      105 
     145      175      168       86      -79     -275     -445     -568 
    -639     -675     -716     -768     -791     -781     -766     -756 
    -747     -718     -643     -527     -357     -147       32      171 
     298      372      398      421      417      365      311      290 
     288      276      233      172      114       54      -29      -97 
    -116      -97      -59      -55     -120     -226     -332     -418 
    -504     -612     -714     -791     -876     -961    -1003     -988 
    -934     -839     -669     -419     -135      156      446      712 
     936     1108     1206     1232     1200     1121     1007      897 
     858      900      996     1107     1175     1165     1078      931 
     773      665      621      599      526      369      163      -64 
    -297     -518     -731     -920    -1092    -1298    -1547    -1780 
   -1926    -1926    -1809    -1634    -1458    -1324    -1228    -1154 
   -1100    -1035     -918     -731     -498     -283     -132      -54 
     -39      -36      -27      -41      -56      -47      -21       35 
     144      305      507      722      920     1078     1196     1290 
    1343     1343     1323     1317     1332     1320     1223     1059 
     886      753      665      585      476      329      172       66 
      35       64      130      191      214      194      135       60 
     -17     -126     -260     -391     -508     -575     -583     -591 
    -638     -742     -896    -1020    -1024     -913     -738     -527 
    -303     -118       -9       22      -27     -139     -256     -334 
    -364     -326     -224     -102        8       97      147      170 
     209      263      294      311      349      423      549      708 
     824      847      781      630      418      189      -48     -274 
    -452     -560     -606     -643     -723     -835     -950    -1039 
   -1085    -1074     -996     -876     -742     -604     -480     -387 
    -328     -315     -364     -460     -587     -735     -888    -1019 
   -1116    -1150    -1092     -989     -903     -842     -811     -787 
    -710     -573     -411     -228      -40      108      195      216 
     180      124       79       70      110      193      326      507 
     679      796      866      905      928      936      916      873 
     855      907     1011     1100     1143     1131     1050      924 
     777      592      391      207       64      -24      -87     -152 
    -209     -257     -319     -396     -484     -580     -664     -715 
    -747     -764     -746     -714     -691     -683     -687     -708 
    -741     -761     -778     -812     -835     -834     -832     -822 
    -795     -791     -818     -830     -789     -696     -558     -399 
    -244      -93       58      179      234      224      205      230 
     290      369      461      491      450      398      334      265 
     232      237      272      346      454      567      669      750 
     780      742      639      471      264       56     -135     -287 
    -387     -448     -487     -553     -673     -818     -946    -1028 
   -1066    -1065    -1024     -963     -918     -911     -945     -966 
    -951     -932     -915     -881     -830     -761     -666     -556 
    -449     -359     -264     -145      -29       70      174      274 
     373      503      648      768      827      803      734      650 
     545      448      387      328      259      222      229      264 
     336      440      548      629      664      642      583      529 
     496      488      513      525      472      357      186      -32 
    -237     -403     -550     -684     -793     -880     -932     -962 
    -978     -973     -966     -985    -1011    -1024    -1035    -1040 
   -1039    -1047    -1062    -1078    -1104    -1135    -1155    -1152 
   -1101     -977     -804     -622     -459     -338     -248     -136 
      -1      118      221      321      430      554      672      764 
     835      896      955      994      996      967      927      882 
     830      776      742      737      729      689      630      572 
     504      406      261       99      -31     -116     -191     -287 
    -417     -583     -762     -923    -1047    -1150    -1250    -1336 
   -1385    -1397    -1381    -1333    -1262    -1205    -1182    -1193 
   -1240    -1285    -1278    -1224    -1161    -1111    -1073    -1026 
    -954     -866     -754     -596     -363      -47      302      622 
     881     1071     1217     1340     1428     1475     1475     1408 
    1274     1092      888      710      589      483      344      172 
      -1     -153     -268     -344     -373     -364     -346     -360 
    -433     -541     -629     -675     -699     -715     -738     -751 
    -704     -598     -499     -422     -342     -256     -147      -10 
      98      152      180      210      270      367      465      510 
     488      405      265       97      -67     -220     -369     -523 
    -680     -837     -970    -1059    -1094    -1097    -1092    -1061 
    -994     -905     -787     -648     -510     -368     -206      -31 
     139      301      437      530      616      712      793      880 
     962     1013     1054     1098     1131     1132     1104     1066 
    1044     1051     1084     1111     1105     1061      976      865 
     758      637      476      282       60     -160     -353     -525 
    -672     -795     -900     -962    -1000    -1050    -1104    -1140 
   -1131    -1062     -976     -885     -795     -745     -733     -743 
    -796     -859     -891     -893     -888     -877     -851     -827 
    -804     -751     -685     -626     -554     -475     -399     -315 
    -224     -114       35      199      365      527      654      747 
     816      846      843      820      792      762      706      621 
     522      406      287      186      108       71       78      102 
     122      106       47      -29     -116     -232     -388     -595 
    -838    -1061    -1260    -1470    -1671    -1857    -2029    -2157 
   -2253    -2324    -2370    -2423    -2454    -2421    -2338    -2209 
   -2056    -1898    -1734    -1575    -1394    -1166     -920     -662 
    -384      -81      253      608      954     1266     1521     1738 
    1934     2116     2270     2370     2425     2454     2458     2444 
    2390     2274     2128     1968     1786     1595     1402     1215 
    1035      854      679      521      369      206       24     -172 
    -387     -626     -901    -1197    -1501    -1803    -2072    -2289 
   -2439    -2511    -2532    -2517    -2446    -2316    -2147    -1968 
   -1783    -1579    -1344    -1078     -828     -627     -452     -306 
    -221     -180     -157     -157     -184     -206     -195     -168 
    -129      -59       27      106      201      318      459      635 
     827     1008     1163     1271     1325     1327     1298     1267 
    1227     1167     1090      976      839      711      607      531 
     476      433      395      336      270      224      189      178 
     174      125       41      -60     -202     -391     -621     -857 
   -1074    -1300    -1518    -1702    -1858    -1964    -2014    -2031 
   -1983    -1849    -1683    -1534    -1412    -1320    -1251    -1146 
    -965     -766     -608     -495     -414     -346     -284     -232 
    -186     -149     -124      -97      -45       41      159      297 
     440      579      724      892     1088     1278     1425     1533 
    1603     1634     1637     1610     1555     1468     1347     1201 
    1034      872      720      545      355      171      -31     -248 
    -460     -653     -828     -999    -1175    -1382    -1603    -1804 
   -1987    -2139    -2241    -2311    -2324    -2261    -2158    -2018 
   -1822    -1574    -1277     -934     -562     -207      121      449 
     754     1000     1204     1399     1588     1757     1891     1973 
    2014     2025     1993     1906     1756     1557     1341     1117 
     888      680      488      301      126      -20     -159     -310 
    -468     -621     -764     -878     -959    -1032    -1090    -1135 
   -1194    -1244    -1256    -1255    -1264    -1279    -1275    -1237 
   -1169    -1075     -970     -870     -760     -631     -529     -461 
    -403     -378     -402     -423     -430     -433     -395     -338 
    -306     -257     -183      -93       40      211      406      645 
     926     1217     1505     1776     2027     2282     2529     2747 
    2949     3111     3206     3260     3261     3190     3044     2820 
    2536     2185     1773     1404     1080      726      382       59 
    -311     -684    -1003    -1306    -1618    -1930    -2243    -2551 
   -2829    -3082    -3354    -3643    -3873    -4029    -4148    -4222 
   -4230    -4180    -4086    -3925    -3678    -3373    -3038    -2666 
   -2261    -1833    -1389     -945     -502      -52      376      770 
    1117     1383     1587     1753     1863     1944     2029     2101 
    2164     2219     2258     2281     2303     2328     2371     2452 
    2550     2636     2728     2825     2898     2937     2938     2880 
    2766     2583     2311     1948     1524     1082      656      252 
    -136     -504     -845    -1159    -1453    -1699    -1894    -2077 
   -2224    -2330    -2463    -2619    -2766    -2928    -3094    -3256 
   -3404    -3524    -3630    -3720    -3773    -3771    -3694    -3535 
   -3314    -3038    -2687    -2274    -1858    -1441    -1001     -571 
    -156      243      567      815     1020     1177     1313     1451 
    1566     1656     1756     1876     2023     2207     2394     2555 
    2712     2868     2991     3073     3102     3063     2974     2817 
    2571     2269     1939     1583     1204      797      382      -29 
    -421     -773    -1108    -1429    -1707    -1966    -2214    -2401 
   -2552    -2706    -2874    -3069    -3287    -3503    -3711    -3879 
   -3982    -4036    -4043    -3970    -3820    -3603    -3307    -2949 
   -2547    -2096    -1613    -1116     -604      -91      400      866 
    1313     1721     2080     2421     2749     3051     3326     3565 
    3762     3924     4041     4109     4122     4095     4047     3979 
    3882     3742     3539     3275     2976     2664     2336     1991 
    1644     1297      957      637      310      -36     -368     -702 
   -1053    -1377    -1686    -1995    -2273    -2542    -2795    -3010 
   -3206    -3364    -3461    -3537    -3611    -3659    -3700    -3743 
   -3763    -3769    -3757    -3694    -3608    -3534    -3453    -3348 
   -3218    -3075    -2925    -2775    -2631    -2482    -2308    -2100 
   -1853    -1582    -1286     -957     -585     -152      318      783 
    1232     1664     2087     2515     2918     3268     3564     3807 
    4006     4172     4306     4387     4411     4392     4332     4221 
    4047     3793     3480     3123     2732     2336     1944     1549 
    1167      799      434       58     -319     -692    -1046    -1362 
   -1649    -1904    -2108    -2290    -2452    -2566    -2646    -2698 
   -2732    -2760    -2755    -2721    -2662    -2554    -2393    -2176 
   -1922    -1667    -1413    -1166     -943     -753     -569     -360 
    -160       12      201      379      525      673      808      916 
    1019     1107     1177     1232     1250     1237     1217     1173 
    1082      961      837      702      561      418      248       78 
     -45     -151     -255     -325     -372     -399     -394     -379 
    -367     -348     -318     -288     -271     -257     -248     -251 
    -247     -225     -197     -171     -151     -130     -109      -86 
     -52      -16       12       27       28       20        0      -32 
     -76     -130     -199     -279     -356     -425     -506     -598 
    -677     -751     -810     -847     -885     -916     -918     -911 
    -912     -923     -954     -986     -996     -999    -1008    -1005 
    -977     -934     -864     -756     -630     -486     -319     -133 
      68      241      378      517      637      727      815      886 
     923      931      923      897      857      826      803      758 
     703      660      615      553      495      444      380      326 
     290      220      139       72      -14     -118     -233     -378 
    -542     -697     -835     -966    -1074    -1147    -1204    -1233 
   -1232    -1235    -1244    -1246    -1246    -1232    -1202    -1192 
   -1194    -1197    -1217    -1246    -1248    -1229    -1208    -1166 
   -1104    -1050     -973     -839     -665     -459     -230      -13 
     193      405      625      838     1044     1244     1433     1624 
    1819     1995     2135     2239     2304     2327     2313     2266 
    2160     1989     1798     1595     1374     1155      932      683 
     411      118     -184     -491     -795    -1092    -1387    -1683 
   -1984    -2272    -2515    -2728    -2909    -3029    -3083    -3057 
   -2929    -2716    -2450    -2139    -1787    -1416    -1044     -660 
    -271       89      437      777     1070     1313     1539     1769 
    1962     2085     2177     2228     2228     2222     2193     2124 
    2039     1921     1767     1605     1420     1198      955      704 
     446      195      -49     -315     -589     -850    -1140    -1447 
   -1711    -1958    -2207    -2405    -2566    -2704    -2789    -2820 
   -2803    -2729    -2601    -2440    -2255    -2045    -1836    -1642 
   -1445    -1264    -1115     -988     -874     -757     -645     -541 
    -417     -295     -182      -40      124      305      498      688 
     870     1048     1235     1420     1571     1672     1715     1728 
    1742     1752     1755     1756     1730     1687     1637     1561 
    1467     1358     1217     1050      893      758      626      483 
     337      172      -17     -210     -419     -654     -881    -1093 
   -1304    -1514    -1734    -1944    -2137    -2320    -2484    -2620 
   -2728    -2799    -2843    -2864    -2853    -2805    -2724    -2602 
   -2454    -2286    -2095    -1891    -1683    -1453    -1209     -951 
    -681     -415     -143      140      411      668      926     1183 
    1432     1668     1896     2122     2343     2569     2795     3001 
    3172     3318     3427     3483     3478     3424     3318     3165 
    2974     2735     2452     2139     1798     1436     1059      675 
     299      -76     -467     -857    -1240    -1602    -1923    -2208 
   -2457    -2682    -2894    -3067    -3194    -3300    -3379    -3422 
   -3439    -3399    -3285    -3113    -2883    -2605    -2296    -1949 
   -1566    -1154     -715     -263      197      661     1120     1571 
    1999     2392     2749     3057     3303     3504     3658     3742 
    3755     3721     3649     3561     3477     3376     3225     3033 
    2820     2590     2336     2056     1744     1397     1034      650 
     228     -220     -684    -1167    -1634    -2081    -2523    -2928 
   -3280    -3604    -3890    -4121    -4310    -4449    -4522    -4544 
   -4519    -4441    -4311    -4133    -3902    -3640    -3375    -3091 
   -2783    -2469    -2151    -1834    -1522    -1197     -834     -459 
     -97      260      626     1000     1379     1746     2093     2430 
    2737     3009     3256     3458     3597     3690     3735     3711 
    3612     3446     3223     2960     2666     2350     2011     1665 
    1328      994      652      295      -68     -427     -764    -1075 
   -1366    -1642    -1907    -2154    -2374    -2563    -2720    -2849 
   -2947    -3013    -3051    -3049    -3007    -2936    -2843    -2737 
   -2614    -2463    -2268    -2029    -1768    -1506    -1229     -940 
    -639     -326      -29      243      496      718      918     1116 
    1309     1494     1663     1803     1917     2004     2074     2138 
    2193     2227     2239     2241     2228     2207     2182     2147 
    2089     2008     1914     1807     1686     1539     1360     1161 
     953      749      571      423      274      118      -24     -167 
    -294     -395     -495     -596     -685     -774     -873     -985 
   -1107    -1231    -1348    -1447    -1540    -1655    -1784    -1933 
   -2088    -2227    -2363    -2485    -2565    -2609    -2612    -2552 
   -2435    -2272    -2069    -1838    -1593    -1345    -1104     -882 
    -676     -471     -272      -76      120      306      488      656 
     799      945     1097     1235     1378     1537     1701     1865 
    2023     2172     2330     2478     2590     2673     2720     2706 
    2637     2525     2365     2153     1908     1636     1333     1019 
