Origin Time       2025/01/13 21:19:00
Lat.              31.8
Long.             131.6
Depth. (km)       30
Mag.              6.9
Station Code      KOC013
Station Lat.      33.0797
Station Long.     133.1023
Station Height(m) 4
Record Time       2025/01/13 21:20:18
Sampling Freq(Hz) 100Hz
Duration Time(s)  123
Dir.              E-W
Scale Factor      7845(gal)/8223790
Max. Acc. (gal)   14.488
Last Correction   2025/01/13 21:20:17
Memo.             
[...]
   -9691    -9994   -10511   -11119   -11600   -11850   -12019   -12302 
  -12719   -13254   -13968   -14777   -15390   -15516   -15084   -14293 
  -13491   -12950   -12700   -12513   -12151   -11558   -10802   -10039 
   -9427    -8968    -8594    -8321    -8203    -8199    -8193    -8050 
   -7709    -7215    -6575    -5802    -5115    -4773    -4766    -4897 
   -5039    -5140    -5204    -5270    -5390    -5648    -6066    -6582 
   -7145    -7663    -8095    -8484    -8758    -8834    -8830    -8858 
   -8874    -8838    -8865    -9134    -9637   -10158   -10559   -10886 
  -11155   -11276   -11248   -11176   -11122   -11090   -11097   -11180 
  -11367   -11612   -11800   -11862   -11840   -11784   -11712   -11684 
  -11718   -11697   -11495   -11088   -10515    -9896    -9408    -9127 
   -8950    -8691    -8302    -7886    -7504    -7115    -6679    -6238 
   -5950    -5923    -6045    -6168    -6355    -6747    -7287    -7757 
   -8027    -8195    -8419    -8707    -9049    -9548   -10208   -10832 
  -11250   -11412   -11241   -10636    -9721    -8814    -8170    -7911 
   -8059    -8510    -9094    -9663   -10062   -10208   -10138    -9896 
   -9524    -9166    -9000    -9000    -8993    -8954    -9031    -9300 
   -9715   -10207   -10709   -11115   -11314   -11311   -11202   -11022 
  -10756   -10422   -10106    -9922    -9988   -10342   -10894   -11530 
  -12055   -12109   -11475   -10324    -9061    -8094    -7680    -7815 
   -8280    -8779    -9078    -9112    -8978    -8854    -8819    -8849 
   -8900    -8861    -8648    -8382    -8274    -8432    -8829    -9350 
   -9803    -9971    -9756    -9273    -8733    -8341    -8183    -8132 
   -8021    -7801    -7447    -7044    -6812    -6886    -7176    -7510 
   -7825    -8179    -8607    -9113    -9683   -10282   -10822   -11159 
  -11287   -11411   -11709   -12183   -12683   -13078   -13347   -13510 
  -13632   -13770   -13891   -13954   -13950   -13891   -13734   -13300 
  -12415   -11157    -9795    -8658    -8008    -7882    -8075    -8303 
   -8345    -8073    -7454    -6633    -5917    -5589    -5682    -5961 
   -6197    -6389    -6615    -6772    -6677    -6363    -6127    -6210 
   -6550    -6932    -7227    -7431    -7528    -7485    -7391    -7439 
   -7812    -8576    -9597   -10623   -11439   -11838   -11697   -11190 
  -10669   -10392   -10354   -10443   -10660   -11020   -11439   -11913 
  -12479   -13038   -13409   -13517   -13400   -13081   -12572   -11997 
  -11562   -11352   -11310   -11302   -11121   -10751   -10415   -10170 
   -9888    -9585    -9389    -9293    -9042    -8287    -7025    -5724 
   -4806    -4376    -4455    -4988    -5768    -6459    -6758    -6701 
   -6566    -6562    -6849    -7526    -8453    -9306    -9836   -10069 
  -10233   -10478   -10773   -11024   -11202   -11335   -11381   -11215 
  -10839   -10405   -10081    -9954   -10038   -10316   -10702   -11025 
  -11172   -11121   -10879   -10573   -10405   -10523   -10917   -11361 
  -11547   -11346   -10809   -10092    -9452    -9119    -9142    -9385 
   -9632    -9702    -9479    -8899    -8016    -7030    -6243    -5868 
   -5859    -6026    -6253    -6467    -6631    -6786    -6957    -7132 
   -7402    -7882    -8484    -9036    -9518    -9957   -10343   -10692 
  -10924   -10914   -10752   -10593   -10422   -10231   -10165   -10239 
  -10206    -9856    -9292    -8858    -8803    -9038    -9339    -9510 
   -9355    -8839    -8225    -7896    -8039    -8526    -9081    -9486 
   -9699    -9807    -9856    -9853    -9853    -9855    -9748    -9539 
   -9440    -9632   -10108   -10736   -11352   -11846   -12128   -12074 
  -11662   -11074   -10512   -10012    -9559    -9188    -8858    -8496 
   -8140    -7848    -7626    -7468    -7388    -7408    -7454    -7427 
   -7373    -7385    -7511    -7750    -7987    -8071    -8029    -8062 
   -8333    -8885    -9674   -10530   -11250   -11692   -11777   -11485 
  -10886   -10181    -9613    -9336    -9379    -9636    -9904    -9977 
   -9763    -9286    -8680    -8202    -8093    -8353    -8784    -9182 
   -9506    -9850   -10228   -10496   -10515   -10335   -10142   -10017 
   -9907    -9818    -9747    -9590    -9333    -9097    -8982    -9039 
   -9265    -9595    -9914   -10118   -10212   -10287   -10423   -10565 
  -10519   -10223    -9848    -9558    -9344    -9092    -8781    -8521 
   -8322    -8116    -7971    -7943    -7923    -7777    -7453    -7021 
   -6590    -6247    -6185    -6571    -7264    -7950    -8406    -8614 
   -8775    -9113    -9683   -10438   -11199   -11655   -11685   -11468 
  -11244   -11132   -11183   -11408   -11662   -11726   -11568   -11286 
  -10963   -10656   -10260    -9670    -9049    -8662    -8665    -9070 
   -9742   -10443   -10967   -11214   -11129   -10696   -10042    -9431 
   -9022    -8784    -8594    -8253    -7619    -6767    -5900    -5196 
   -4819    -4950    -5634    -6654    -7605    -8183    -8380    -8397 
   -8448    -8792    -9572   -10579   -11488   -12100   -12349   -12393 
  -12384   -12316   -12237   -12199   -12077   -11734   -11140   -10369 
   -9567    -8876    -8413    -8328    -8688    -9389   -10179   -10741 
  -10829   -10345    -9404    -8326    -7449    -6913    -6644    -6520 
   -6482    -6505    -6577    -6731    -6936    -7119    -7369    -7800 
   -8336    -8864    -9362    -9830   -10255   -10578   -10754   -10878 
  -11102   -11439   -11840   -12301   -12694   -12757   -12324   -11445 
  -10409    -9656    -9501    -9933   -10651   -11229   -11291   -10704 
   -9661    -8514    -7568    -7047    -7021    -7258    -7368    -7157 
   -6771    -6424    -6091    -5628    -5143    -5019    -5520    -6617 
   -8154    -9778   -11063   -11823   -12062   -11886   -11578   -11403 
  -11479   -11785   -12087   -12075   -11685   -11099   -10492    -9917 
   -9440    -9238    -9432    -9972   -10640   -11047   -10890   -10258 
   -9481    -8919    -8781    -8991    -9329    -9559    -9409    -8792 
   -7947    -7219    -6810    -6710    -6762    -6775    -6706    -6764 
   -7218    -8132    -9328   -10497   -11387   -12012   -12510   -12841 
  -12935   -12866   -12669   -12339   -11975   -11758   -11809   -12060 
  -12228   -12005   -11303   -10322    -9354    -8595    -8097    -7789 
   -7553    -7277    -6945    -6646    -6462    -6443    -6615    -6903 
   -7152    -7226    -7091    -6824    -6502    -6200    -6042    -6120 
   -6504    -7138    -7740    -8082    -8156    -8036    -7897    -8023 
   -8532    -9306   -10216   -11117   -11793   -12160   -12309   -12461 
  -12972   -13944   -14989   -15680   -15888   -15673   -15209   -14743 
  -14473   -14442   -14455   -14164   -13338   -12055   -10632    -9374 
   -8448    -7939    -7790    -7758    -7615    -7311    -6932    -6624 
   -6461    -6332    -6064    -5603    -5090    -4738    -4656    -4783 
   -4993    -5216    -5468    -5769    -6060    -6305    -6542    -6686 
   -6532    -6081    -5636    -5530    -5957    -6925    -8214    -9536 
  -10654   -11392   -11784   -12096   -12598   -13393   -14337   -15142 
  -15660   -15890   -15807   -15431   -14975   -14667   -14512   -14399 
  -14283   -14121   -13799   -13213   -12348   -11334   -10415    -9725 
   -9161    -8561    -7857    -7068    -6353    -5948    -5925    -6088 
   -6154    -5954    -5441    -4606    -3570    -2678    -2230    -2265 
   -2647    -3240    -3948    -4665    -5267    -5751    -6313    -7148 
   -8241    -9440   -10530   -11319   -11720   -11816   -11892   -12232 
  -12868   -13636   -14385   -14994   -15318   -15310   -15109   -14806 
  -14338   -13726   -13134   -12675   -12363   -12123   -11863   -11493 
  -10901   -10115    -9327    -8631    -8039    -7557    -7113    -6613 
   -6084    -5637    -5416    -5529    -5965    -6624    -7319    -7846 
   -8224    -8588    -8941    -9294    -9715   -10135   -10453   -10635 
  -10642   -10423    -9979    -9417    -8923    -8603    -8459    -8529 
   -8861    -9417   -10100   -10824   -11560   -12268   -12810   -13027 
  -12879   -12467   -11943   -11361   -10666    -9815    -8812    -7724 
   -6686    -5807    -5173    -4831    -4749    -4868    -5144    -5545 
   -6058    -6662    -7254    -7693    -7909    -7946    -7935    -8000 
   -8159    -8314    -8311    -8083    -7736    -7466    -7414    -7601 
   -7990    -8487    -8883    -8885    -8434    -7878    -7695    -8122 
   -9092   -10309   -11452   -12318   -12784   -12900   -12966   -13247 
  -13784   -14409   -14809   -14762   -14272   -13520   -12777   -12305 
  -12218   -12413   -12656   -12760   -12567   -12006   -11252   -10544 
  -10025    -9730    -9568    -9472    -9514    -9659    -9715    -9549 
   -9076    -8279    -7317    -6412    -5718    -5333    -5275    -5425 
   -5610    -5686    -5628    -5582    -5705    -6006    -6411    -6839 
   -7281    -7742    -8166    -8495    -8719    -8923    -9188    -9464 
   -9695    -9884   -10019   -10164   -10428   -10782   -11125   -11419 
  -11580   -11461   -10975   -10162    -9255    -8618    -8475    -8762 
   -9192    -9448    -9436    -9251    -9038    -8996    -9302    -9926 
  -10681   -11403   -11929   -12105   -11934   -11519   -10979   -10481 
  -10165   -10057   -10088   -10120    -9956    -9439    -8621    -7758 
   -7074    -6643    -6477    -6555    -6758    -6891    -6875    -6747 
   -6578    -6505    -6656    -7051    -7663    -8451    -9231    -9703 
   -9684    -9212    -8441    -7645    -7184    -7215    -7597    -8070 
   -8368    -8415    -8387    -8529    -8988    -9745   -10588   -11244 
  -11612   -11780   -11901   -12094   -12341   -12552   -12652   -12580 
  -12360   -12079   -11734   -11257   -10575    -9653    -8617    -7722 
   -7186    -7106    -7511    -8372    -9533   -10696   -11541   -11844 
  -11607   -11049   -10395    -9796    -9356    -9077    -8931    -8864 
   -8707    -8360    -7962    -7686    -7572    -7604    -7784    -8056 
   -8371    -8741    -9148    -9572    -9968   -10193   -10153    -9957 
   -9761    -9613    -9487    -9285    -8868    -8259    -7618    -7020 
   -6504    -6169    -6077    -6178    -6401    -6779    -7346    -8010 
   -8685    -9346    -9882   -10172   -10233   -10107    -9829    -9595 
   -9657   -10052   -10608   -11118   -11516   -11847   -12120   -12379 
  -12703   -13066   -13419   -13733   -13902   -13822   -13502   -12997 
  -12367   -11676   -10979   -10358    -9867    -9497    -9238    -9089 
   -8997    -8877    -8669    -8293    -7720    -7076    -6546    -6278 
   -6338    -6617    -6928    -7133    -7111    -6841    -6550    -6550 
   -6975    -7753    -8700    -9609   -10339   -10879   -11268   -11584 
  -11977   -12455   -12847   -13057   -13061   -12845   -12483   -12098 
  -11747   -11464   -11233   -10945   -10536    -9999    -9301    -8509 
   -7801    -7214    -6623    -5940    -5125    -4253    -3523    -3033 
   -2764    -2733    -2952    -3441    -4271    -5374    -6566    -7798 
   -9050   -10103   -10756   -11049   -11132   -11176   -11395   -11912 
  -12725   -13716   -14557   -14898   -14725   -14258   -13693   -13170 
  -12838   -12811   -13054   -13374   -13578   -13603   -13451   -13177 
  -12901   -12633   -12290   -11853   -11263   -10419    -9297    -8008 
   -6782    -5832    -5194    -4785    -4544    -4444    -4415    -4394 
   -4417    -4583    -4930    -5464    -6185    -7024    -7840    -8538 
   -9131    -9671   -10158   -10505   -10628   -10585   -10538   -10640 
  -10987   -11541   -12164   -12779   -13313   -13633   -13648   -13421 
  -13134   -12949   -12874   -12807   -12685   -12522   -12310   -12005 
  -11618   -11223   -10860   -10461    -9934    -9227    -8337    -7327 
   -6349    -5582    -5138    -5053    -5290    -5695    -6087    -6382 
   -6508    -6335    -5796    -4957    -4041    -3357    -3149    -3491 
   -4218    -5036    -5776    -6485    -7256    -8114    -9062   -10052 
  -11034   -11951   -12715   -13312   -13792   -14210   -14600   -14994 
  -15479   -16074   -16588   -16822   -16754   -16424   -15844   -15098 
  -14343   -13667   -13061   -12505   -12015   -11580   -11169   -10762 
  -10268    -9575    -8739    -7971    -7357    -6801    -6219    -5594 
   -4872    -4064    -3316    -2735    -2343    -2122    -2018    -2049 
   -2230    -2494    -2770    -2971    -3002    -2960    -3056    -3435 
   -4201    -5355    -6760    -8272    -9783   -11187   -12379   -13300 
  -13949   -14346   -14532   -14554   -14450   -14310   -14251   -14350 
  -14573   -14794   -14947   -15103   -15292   -15433   -15472   -15380 
  -15105   -14593   -13815   -12812   -11685   -10546    -9516    -8704 
   -8128    -7678    -7165    -6457    -5541    -4527    -3573    -2763 
   -2143    -1742    -1502    -1375    -1404    -1613    -2035    -2678 
   -3429    -4193    -4953    -5668    -6346    -7086    -7932    -8827 
   -9714   -10550   -11319   -12047   -12695   -13213   -13640   -14014 
  -14354   -14697   -15016   -15161   -15021   -14666   -14237   -13807 
  -13447   -13158   -12829   -12302   -11458   -10315    -9057    -7861 
   -6793    -5872    -5100    -4469    -3971    -3626    -3512    -3655 
   -3967    -4345    -4752    -5186    -5643    -6142    -6787    -7663 
   -8730    -9896   -11106   -12345   -13645   -15005   -16390   -17761 
  -18971   -19866   -20506   -21010   -21435   -21890   -22410   -22847 
  -22974   -22578   -21567   -20074   -18314   -16491   -14831   -13444 
  -12255   -11152   -10021    -8653    -6951    -5097    -3375    -1960 
    -896      -91      616     1377     2257     3215     4133     4900 
    5472     5786     5728     5256     4433     3366     2173      951 
    -207    -1275    -2377    -3697    -5360    -7384    -9609   -11777 
  -13707   -15291   -16488   -17421   -18283   -19201   -20155   -20957 
  -21374   -21309   -20794   -19931   -18882   -17795   -16823   -16108 
  -15607   -15124   -14526   -13779   -12877   -11831   -10694    -9551 
   -8464    -7476    -6582    -5740    -4903    -4024    -3088    -2169 
   -1340     -625      -78      252      364      313      193       20 
    -283     -757    -1405    -2232    -3214    -4306    -5479    -6735 
   -8041    -9331   -10650   -12120   -13714   -15294   -16749   -18034 
  -19098   -19863   -20283   -20413   -20424   -20488   -20625   -20703 
  -20588   -20200   -19468   -18404   -17158   -15897   -14682   -13485 
  -12249   -10937    -9568    -8249    -7101    -6149    -5310    -4457 
   -3484    -2401    -1317     -325      477      977     1116      953 
     641      313       -6     -392     -934    -1674    -2648    -3878 
   -5242    -6515    -7553    -8365    -9055    -9771   -10606   -11564 
  -12600   -13691   -14823   -15935   -16939   -17778   -18400   -18712 
  -18721   -18620   -18578   -18650   -18800   -18902   -18859   -18646 
  -18260   -17764   -17248   -16744   -16251   -15726   -15030   -14080 
  -12896   -11527   -10048    -8534    -7087    -5845    -4835    -3964 
   -3196    -2513    -1853    -1209     -615      -78      376      696 
     857      857      716      488      213      -79     -346     -560 
    -768    -1077    -1552    -2203    -3021    -3947    -4851    -5670 
   -6442    -7188    -7925    -8733    -9667   -10697   -11713   -12629 
  -13441   -14154   -14770   -15309   -15766   -16162   -16556   -16929 
  -17154   -17184   -17112   -17035   -16964   -16914   -16924   -16980 
  -16957   -16699   -16171   -15464   -14639   -13743   -12861   -12108 
  -11547   -11138   -10737   -10218    -9553    -8793    -8068    -7491 
   -7032    -6583    -6087    -5517    -4838    -4054    -3265    -2632 
   -2309    -2334    -2574    -2893    -3271    -3713    -4180    -4626 
   -5023    -5413    -5908    -6577    -7416    -8421    -9541   -10619 
  -11479   -12093   -12541   -12916   -13346   -13945   -14639   -15187 
  -15423   -15325   -14925   -14342   -13767   -13285   -12841   -12360 
  -11824   -11277   -10790   -10419   -10201   -10084    -9931    -9639 
   -9189    -8633    -8091    -7655    -7304    -7002    -6710    -6355 
   -5945    -5572    -5285    -5094    -5005    -4995    -5065    -5225 
   -5445    -5711    -6062    -6540    -7086    -7573    -7939    -8268 
   -8702    -9302   -10048   -10867   -11691   -12515   -13315   -13967 
  -14424   -14760   -14991   -15057   -14931   -14674   -14374   -14046 
  -13655   -13204   -12691   -12104   -11477   -10874   -10335    -9871 
   -9470    -9140    -8910    -8734    -8488    -8105    -7622    -7075 
   -6454    -5775    -5085    -4455    -3942    -3516    -3119    -2806 
   -2647    -2628    -2755    -3106    -3730    -4595    -5633    -6785 
   -8000    -9204   -10342   -11400   -12375   -13298   -14207   -15025 
  -15670   -16193   -16623   -16919   -17109   -17257   -17321   -17235 
  -17020   -16758   -16490   -16198   -15819   -15252   -14439   -13409 
  -12205   -10902    -9659    -8608    -7754    -7040    -6401    -5748 
   -5050    -4356    -3724    -3238    -2992    -3005    -3195    -3396 
   -3484    -3441    -3288    -3075    -2891    -2830    -2991    -3451 
   -4203    -5142    -6106    -6952    -7646    -8271    -8931    -9703 
  -10589   -11480   -12249   -12793   -13105   -13323   -13567   -13851 
  -14133   -14323   -14332   -14180   -13933   -13629   -13313   -13019 
  -12715   -12359   -11925   -11385   -10755   -10071    -9321    -8521 
   -7700    -6885    -6153    -5556    -5071    -4680    -4375    -4153 
   -4077    -4180    -4437    -4830    -5360    -5954    -6478    -6866 
   -7206    -7658    -8310    -9151   -10095   -11029   -11889   -12629 
  -13258   -13895   -14625   -15375   -16004   -16438   -16669   -16723 
  -16650   -16510   -16298   -15957   -15439   -14724   -13806   -12739 
  -11605   -10436    -9247    -8075    -6941    -5892    -5031    -4437 
   -4077    -3867    -3759    -3694    -3593    -3433    -3257    -3110 
   -3033    -3052    -3138    -3295    -3573    -4000    -4585    -5337 
   -6197    -7087    -7950    -8762    -9551   -10342   -11134   -11931 
  -12727   -13470   -14067   -14485   -14762   -14862   -14692   -14278 
  -13743   -13194   -12722   -12363   -12108   -11915   -11696   -11391 
  -11060   -10773   -10516   -10261   -10031    -9819    -9522    -9078 
   -8519    -7927    -7375    -6914    -6605    -6515    -6662    -7013 
   -7499    -8047    -8629    -9212    -9763   -10285   -10746   -11070 
  -11256   -11365   -11446   -11496   -11489   -11476   -11550   -11732 
  -11973   -12224   -12417   -12488   -12410   -12195   -11908   -11592 
  -11248   -10875   -10451    -9987    -9564    -9250    -9073    -9016 
   -8972    -8866    -8687    -8367    -7896    -7375    -6858    -6370 
   -5965    -5688    -5593    -5710    -5973    -6257    -6455    -6550 
   -6616    -6713    -6909    -7240    -7647    -8079    -8529    -8939 
   -9288    -9593    -9848   -10038   -10141   -10154   -10147   -10153 
  -10146   -10129   -10139   -10192   -10261   -10327   -10369   -10361 
  -10342   -10332   -10280   -10192   -10123   -10053    -9971    -9884 
   -9792    -9726    -9707    -9729    -9778    -9803    -9764    -9688 
   -9632    -9645    -9751    -9898   -10017   -10060    -9991    -9833 
   -9647    -9436    -9192    -8935    -8684    -8461    -8338    -8360 
   -8490    -8642    -8750    -8827    -8941    -9096    -9221    -9294 
   -9337    -9319    -9227    -9108    -8997    -8916    -8872    -8824 
   -8714    -8538    -8370    -8267    -8214    -8228    -8345    -8532 
