Origin Time       2025/01/13 21:19:00
Lat.              31.8
Long.             131.6
Depth. (km)       30
Mag.              6.9
Station Code      KOC003
Station Lat.      33.5014
Station Long.     133.9071
Station Height(m) 5
Record Time       2025/01/13 21:20:45
Sampling Freq(Hz) 100Hz
Duration Time(s)  113
Dir.              U-D
Scale Factor      7845(gal)/8223790
Max. Acc. (gal)   1.148
Last Correction   2025/01/13 21:20:45
Memo.             
[...]
   18661    18720    18824    18922    18959    18995    19083    19132 
   19079    19026    19032    19001    18916    18871    18863    18812 
   18723    18688    18742    18804    18809    18800    18802    18769 
   18697    18651    18643    18632    18604    18570    18526    18478 
   18472    18492    18478    18432    18403    18377    18337    18311 
   18337    18378    18392    18387    18391    18372    18296    18189 
   18096    18042    17992    17899    17787    17713    17680    17641 
   17585    17550    17560    17593    17601    17589    17601    17659 
   17733    17783    17798    17817    17898    18026    18127    18180 
   18214    18258    18312    18355    18391    18461    18566    18644 
   18675    18702    18729    18740    18769    18831    18887    18920 
   18947    18982    19009    18995    18951    18917    18902    18887 
   18878    18891    18929    18951    18922    18860    18810    18794 
   18775    18721    18661    18607    18531    18450    18423    18415 
   18372    18323    18300    18257    18198    18180    18196    18193 
   18187    18225    18310    18349    18273    18196    18230    18284 
   18273    18262    18318    18397    18420    18392    18388    18399 
   18391    18415    18485    18522    18511    18508    18528    18527 
   18495    18482    18512    18517    18490    18497    18522    18513 
   18492    18466    18432    18405    18387    18374    18373    18373 
   18369    18384    18431    18493    18555    18598    18596    18567 
   18554    18554    18546    18550    18577    18584    18554    18534 
   18536    18508    18432    18366    18322    18268    18220    18220 
   18266    18318    18342    18327    18299    18292    18304    18293 
   18238    18176    18152    18139    18119    18130    18157    18161 
   18169    18218    18287    18335    18347    18364    18420    18480 
   18484    18461    18480    18516    18513    18516    18558    18597 
   18615    18624    18624    18593    18536    18499    18511    18538 
   18542    18538    18539    18539    18554    18585    18607    18616 
   18648    18727    18829    18910    18958    18985    18997    18967 
   18890    18794    18716    18667    18601    18484    18361    18279 
   18206    18121    18068    18058    18019    17944    17928    17983 
   18013    17979    17938    17938    17945    17914    17892    17903 
   17914    17936    17987    18049    18108    18145    18154    18169 
   18193    18191    18165    18162    18184    18192    18196    18247 
   18334    18373    18369    18438    18603    18744    18789    18777 
   18790    18829    18831    18824    18874    18928    18925    18889 
   18847    18806    18762    18704    18650    18597    18511    18396 
   18324    18316    18314    18281    18246    18241    18266    18312 
   18366    18412    18442    18469    18495    18503    18513    18538 
   18561    18581    18596    18604    18613    18617    18611    18609 
   18632    18665    18665    18632    18651    18721    18732    18694 
   18696    18728    18743    18744    18755    18777    18778    18754 
   18728    18711    18712    18738    18769    18770    18739    18700 
   18681    18673    18650    18620    18609    18592    18551    18520 
   18509    18485    18442    18396    18349    18293    18238    18199 
   18172    18138    18088    18036    17998    17956    17887    17840 
   17852    17849    17791    17728    17671    17609    17574    17556 
   17537    17536    17548    17537    17512    17514    17570    17643 
   17682    17697    17733    17805    17896    17992    18085    18180 
   18296    18416    18489    18522    18588    18711    18820    18881 
   18928    18997    19072    19116    19134    19147    19148    19138 
   19137    19132    19101    19059    19040    19051    19055    19028 
   19001    18995    19010    19037    19049    19026    19001    19020 
   19072    19107    19114    19118    19113    19083    19070    19094 
   19109    19084    19060    19053    19024    18955    18871    18800 
   18740    18671    18601    18570    18589    18608    18581    18531 
   18486    18450    18423    18403    18370    18335    18306    18265 
   18225    18188    18139    18083    18044    18025    18022    18044 
   18068    18087    18122    18175    18225    18280    18351    18412 
   18451    18500    18550    18539    18480    18449    18446    18401 
   18323    18274    18262    18246    18192    18114    18041    17975 
   17906    17847    17810    17775    17737    17716    17695    17653 
   17622    17626    17639    17664    17699    17702    17695    17725 
   17768    17795    17821    17865    17930    17996    18056    18133 
   18230    18311    18381    18477    18578    18657    18740    18850 
   18958    19029    19068    19106    19155    19190    19201    19209 
   19218    19202    19157    19095    19029    18986    18971    18937 
   18890    18879    18881    18850    18827    18848    18858    18793 
   18698    18662    18692    18721    18724    18731    18752    18766 
   18773    18759    18702    18630    18585    18551    18493    18415 
   18353    18319    18287    18238    18177    18126    18103    18092 
   18061    18010    17980    17988    17992    17964    17940    17944 
   17934    17901    17891    17915    17932    17928    17933    17955 
   17960    17934    17914    17918    17910    17856    17802    17790 
   17774    17717    17675    17686    17694    17672    17671    17713 
   17772    17836    17914    18006    18084    18125    18158    18233 
   18335    18412    18468    18540    18634    18709    18742    18765 
   18801    18814    18785    18762    18775    18783    18756    18728 
   18727    18729    18716    18697    18697    18717    18727    18697 
   18655    18642    18658    18669    18642    18605    18627    18696 
   18725    18685    18642    18643    18662    18657    18617    18577 
   18584    18632    18663    18667    18685    18721    18738    18720 
   18711    18729    18751    18767    18798    18819    18804    18786 
   18810    18851    18885    18905    18893    18855    18829    18806 
   18759    18704    18655    18596    18534    18476    18408    18324 
   18220    18112    18021    17922    17787    17656    17566    17491 
   17423    17385    17367    17327    17277    17263    17285    17305 
   17323    17373    17471    17567    17632    17725    17856    17957 
   18037    18141    18242    18307    18357    18397    18426    18468 
   18527    18580    18623    18665    18690    18696    18705    18717 
   18721    18729    18752    18792    18840    18891    18948    18999 
   19032    19062    19095    19121    19145    19149    19116    19080 
   19070    19037    18948    18854    18801    18755    18694    18643 
   18615    18589    18558    18540    18534    18531    18536    18542 
   18534    18532    18542    18547    18550    18577    18631    18670 
   18682    18690    18712    18751    18794    18828    18870    18920 
   18958    18999    19067    19118    19121    19093    19070    19057 
   19032    18999    18972    18922    18836    18748    18678    18604 
   18519    18438    18365    18308    18280    18250    18195    18146 
   18122    18099    18068    18056    18071    18087    18085    18081 
   18088    18084    18045    18000    17995    18011    17994    17944 
   17917    17928    17915    17865    17836    17820    17764    17698 
   17675    17670    17647    17625    17636    17656    17651    17648 
   17680    17734    17778    17795    17803    17853    17940    18006 
   18050    18110    18183    18254    18326    18373    18405    18468 
   18549    18590    18596    18603    18646    18708    18740    18740 
   18765    18831    18890    18920    18931    18925    18912    18909 
   18913    18897    18844    18777    18739    18715    18666    18601 
   18559    18534    18489    18412    18335    18319    18349    18343 
   18296    18270    18283    18303    18330    18400    18497    18558 
   18581    18613    18650    18665    18671    18688    18709    18715 
   18686    18646    18627    18609    18567    18523    18503    18466 
   18400    18338    18288    18238    18208    18198    18157    18088 
   18037    18022    18030    18030    18025    18037    18050    18034 
   18010    18019    18053    18071    18065    18065    18085    18107 
   18115    18121    18135    18169    18202    18199    18180    18179 
   18189    18200    18211    18233    18261    18276    18276    18297 
   18339    18357    18342    18337    18365    18404    18416    18403 
   18395    18404    18407    18391    18384    18416    18466    18485 
   18486    18504    18532    18549    18563    18600    18661    18723 
   18774    18835    18910    18978    19026    19072    19111    19124 
   19117    19107    19093    19071    19044    18998    18928    18867 
   18839    18810    18756    18682    18590    18489    18412    18341 
   18238    18153    18131    18129    18091    18064    18095    18141 
   18160    18166    18168    18157    18160    18189    18212    18216 
   18242    18299    18345    18366    18392    18436    18495    18553 
   18594    18611    18627    18648    18648    18619    18586    18571 
   18567    18570    18574    18581    18615    18670    18697    18675 
   18658    18682    18696    18678    18677    18689    18684    18685 
   18708    18733    18755    18774    18789    18812    18828    18808 
   18759    18704    18635    18553    18461    18374    18306    18239 
   18164    18081    18002    17930    17864    17806    17749    17697 
   17660    17643    17632    17625    17637    17672    17706    17720 
   17729    17756    17802    17861    17925    17983    18034    18083 
   18134    18193    18257    18314    18364    18405    18428    18439 
   18449    18455    18458    18458    18461    18461    18465    18473 
   18473    18474    18493    18517    18549    18590    18619    18625 
   18650    18697    18724    18728    18750    18790    18828    18841 
   18843    18859    18887    18910    18931    18958    18989    19012 
   19016    18998    18967    18931    18898    18875    18846    18794 
   18746    18704    18654    18598    18559    18534    18500    18453 
   18411    18370    18322    18276    18230    18162    18080    18019 
   17983    17946    17911    17883    17867    17852    17833    17828 
   17837    17849    17867    17907    17979    18071    18171    18258 
   18315    18353    18416    18508    18573    18605    18650    18697 
   18727    18763    18816    18862    18900    18944    18983    19008 
   19032    19064    19097    19116    19116    19120    19138    19159 
   19167    19164    19157    19163    19165    19153    19140    19144 
   19137    19093    19037    19001    18960    18879    18779    18711 
   18659    18574    18469    18384    18310    18226    18149    18090 
   18036    17983    17929    17871    17813    17755    17702    17672 
   17668    17675    17685    17698    17720    17755    17806    17872 
   17938    17990    18022    18048    18072    18108    18158    18192 
   18196    18204    18233    18247    18219    18183    18172    18160 
   18115    18076    18084    18111    18117    18114    18135    18156 
   18145    18130    18150    18189    18234    18288    18346    18409 
   18482    18538    18571    18611    18657    18711    18775    18836 
   18889    18940    18987    19029    19062    19082    19098    19106 
   19091    19064    19036    19005    18952    18874    18797    18731 
   18655    18563    18466    18370    18266    18157    18056    17959 
   17860    17774    17709    17659    17625    17612    17621    17641 
   17659    17689    17740    17801    17865    17938    18011    18094 
   18185    18268    18347    18442    18534    18597    18652    18713 
   18747    18747    18755    18771    18756    18713    18686    18678 
   18669    18651    18640    18639    18636    18639    18651    18670 
   18700    18733    18766    18800    18831    18851    18866    18895 
   18937    18964    18970    18983    19001    18989    18936    18873 
   18820    18770    18701    18625    18562    18512    18461    18396 
   18322    18245    18175    18115    18061    17998    17933    17876 
   17837    17822    17817    17793    17766    17756    17755    17763 
   17784    17807    17817    17828    17852    17890    17934    17983 
   18029    18073    18119    18169    18231    18295    18338    18373 
   18415    18446    18457    18461    18472    18493    18512    18517 
   18528    18553    18565    18565    18569    18571    18563    18553 
   18558    18576    18580    18565    18558    18561    18555    18543 
   18540    18547    18557    18561    18546    18520    18503    18485 
   18462    18445    18438    18430    18404    18374    18358    18349 
   18326    18296    18272    18249    18225    18199    18179    18166 
   18145    18104    18048    17987    17940    17905    17869    17836 
   17797    17752    17712    17666    17621    17599    17589    17574 
   17567    17571    17575    17589    17612    17632    17663    17713 
   17756    17802    17875    17963    18044    18125    18218    18304 
   18381    18472    18559    18623    18693    18802    18914    19002 
   19082    19155    19214    19264    19321    19388    19449    19489 
   19525    19558    19588    19614    19626    19619    19619    19633 
   19631    19610    19589    19564    19518    19461    19418    19379 
   19327    19272    19224    19184    19138    19089    19051    19010 
   18954    18893    18821    18725    18632    18554    18481    18419 
   18355    18268    18179    18114    18056    17986    17917    17869 
   17829    17778    17728    17689    17660    17643    17635    17648 
   17687    17730    17774    17830    17902    17969    18034    18115 
   18215    18318    18412    18507    18612    18724    18812    18873 
   18933    18995    19052    19122    19195    19241    19259    19257 
   19229    19182    19125    19072    19017    18935    18846    18778 
   18720    18658    18594    18526    18447    18370    18314    18260 
   18185    18102    18036    17988    17948    17910    17871    17826 
   17795    17782    17770    17752    17744    17752    17761    17755 
   17743    17741    17756    17774    17788    17809    17833    17853 
   17865    17882    17910    17938    17956    17964    17971    17982 
   18010    18056    18095    18104    18090    18083    18103    18134 
   18154    18176    18216    18265    18300    18330    18369    18424 
   18501    18588    18667    18742    18831    18933    19013    19070 
   19126    19188    19237    19260    19271    19291    19314    19309 
   19280    19256    19226    19167    19090    19026    18967    18895 
   18823    18766    18717    18661    18612    18586    18573    18542 
   18497    18463    18450    18445    18445    18449    18446    18432 
   18415    18405    18411    18424    18432    18422    18401    18387 
   18385    18380    18349    18296    18265    18258    18242    18211 
   18193    18187    18172    18156    18139    18115    18092    18085 
   18091    18090    18079    18064    18044    18023    17999    17960 
   17918    17899    17892    17871    17851    17859    17876    17886 
   17899    17918    17936    17965    18006    18044    18087    18139 
   18199    18272    18354    18436    18528    18613    18675    18728 
   18794    18870    18931    18963    18983    19005    19018    19028 
   19044    19057    19064    19072    19079    19064    19033    19016 
   19018    19018    19008    18987    18966    18964    18986    18999 
   18978    18940    18912    18887    18868    18879    18901    18900 
   18877    18848    18817    18782    18735    18677    18630    18589 
   18542    18497    18466    18431    18384    18345    18315    18288 
   18265    18243    18212    18171    18134    18106    18072    18031 
   18000    17991    17990    17984    17995    18018    18037    18053 
   18068    18079    18102    18138    18176    18208    18230    18247 
   18274    18306    18326    18326    18323    18328    18327    18311 
   18295    18274    18239    18207    18183    18165    18153    18145 
   18142    18141    18135    18119    18102    18096    18107    18137 
   18175    18191    18195    18222    18285    18350    18377    18385 
   18408    18426    18426    18431    18447    18453    18435    18416 
   18414    18415    18407    18415    18443    18453    18450    18457 
   18458    18465    18490    18524    18559    18588    18615    18661 
   18720    18766    18802    18844    18889    18921    18948    18986 
   19037    19079    19094    19103    19120    19124    19107    19089 
   19082    19072    19051    19012    18968    18945    18916    18852 
   18790    18738    18674    18597    18522    18458    18399    18327 
   18235    18138    18056    17971    17865    17761    17680    17609 
   17527    17452    17416    17396    17374    17352    17340    17344 
   17367    17409    17475    17548    17620    17699    17795    17899 
   17998    18087    18180    18276    18372    18472    18574    18669 
   18752    18836    18913    18970    19010    19044    19082    19120 
   19147    19152    19138    19121    19113    19102    19093    19094 
   19090    19064    19030    19002    18979    18956    18948    18956 
   18945    18925    18925    18933    18914    18882    18864    18860 
   18851    18839    18829    18821    18810    18796    18770    18723 
   18669    18630    18603    18576    18532    18478    18445    18428 
   18405    18370    18337    18312    18288    18268    18261    18247 
   18216    18195    18188    18188    18179    18168    18179    18202 
   18219    18225    18220    18215    18208    18193    18179    18162 
   18135    18108    18099    18108    18117    18126    18131    18130 
   18129    18127    18117    18108    18110    18122    18144    18165 
   18185    18200    18214    18242    18262    18256    18249    18268 
   18285    18280    18279    18295    18291    18273    18270    18272 
   18274    18288    18297    18296    18296    18307    18306    18292 
   18300    18322    18314    18292    18296    18315    18322    18319 
   18323    18331    18328    18323    18328    18331    18318    18308 
   18319    18320    18314    18327    18361    18407    18459    18500 
   18527    18559    18597    18630    18665    18709    18751    18777 
   18812    18873    18924    18954    18995    19030    19037    19040 
   19064    19091    19099    19102    19113    19121    19116    19113 
   19124    19128    19111    19098    19093    19080    19063    19045 
   19009    18954    18897    18840    18773    18709    18669    18634 
   18584    18527    18481    18436    18392    18358    18324    18258 
   18177    18133    18117    18083    18033    17992    17969    17959 
   17957    17961    17971    17999    18038    18063    18083    18126 
   18179    18223    18265    18295    18311    18339    18380    18400 
   18408    18427    18443    18454    18477    18503    18520    18527 
   18528    18528    18512    18482    18461    18439    18405    18368 
   18323    18279    18239    18208    18192    18176    18149    18126 
