Origin Time       2025/01/13 21:19:00
Lat.              31.8
Long.             131.6
Depth. (km)       30
Mag.              6.9
Station Code      KOC009
Station Lat.      33.5736
Station Long.     133.1720
Station Height(m) 98
Record Time       2025/01/13 21:20:48
Sampling Freq(Hz) 100Hz
Duration Time(s)  60
Dir.              N-S
Scale Factor      7845(gal)/8223790
Max. Acc. (gal)   1.428
Last Correction   2025/01/13 21:20:49
Memo.             
[...]
    4681     4677     4634     4611     4635     4641     4584     4482 
    4360     4293     4336     4475     4657     4820     4918     4943 
    4942     4978     5026     5023     4997     4966     4891     4788 
    4692     4584     4463     4355     4307     4401     4595     4722 
    4710     4618     4515     4440     4396     4351     4286     4224 
    4180     4122     4035     3986     4021     4077     4106     4143 
    4243     4428     4661     4870     4966     4897     4734     4595 
    4523     4499     4510     4560     4654     4773     4870     4897 
    4842     4754     4702     4711     4746     4737     4662     4579 
    4510     4455     4461     4567     4687     4685     4513     4239 
    3962     3775     3766     3913     4095     4272     4461     4623 
    4737     4835     4881     4823     4698     4557     4456     4414 
    4364     4297     4307     4419     4541     4561     4442     4255 
    4089     3983     3956     4029     4174     4287     4297     4241 
    4186     4166     4198     4286     4387     4413     4324     4153 
    3963     3832     3831     3959     4166     4374     4469     4394 
    4190     3960     3809     3808     3942     4106     4187     4171 
    4109     4010     3877     3800     3877     4043     4153     4179 
    4191     4210     4225     4264     4356     4500     4650     4723 
    4693     4594     4463     4363     4344     4394     4483     4583 
    4671     4754     4827     4853     4828     4768     4661     4579 
    4619     4731     4789     4750     4648     4531     4448     4426 
    4456     4477     4432     4311     4230     4311     4484     4621 
    4734     4849     4899     4842     4704     4545     4436     4399 
    4395     4396     4403     4384     4314     4243     4230     4291 
    4413     4496     4406     4164     3933     3844     3950     4187 
    4417     4550     4550     4432     4332     4351     4428     4498 
    4565     4612     4584     4473     4356     4333     4415     4521 
    4572     4521     4375     4228     4176     4230     4333     4419 
    4444     4403     4363     4390     4461     4529     4548     4491 
    4392     4317     4271     4233     4245     4351     4486     4561 
    4557     4526     4568     4700     4828     4904     4934     4862 
    4689     4558     4549     4612     4696     4749     4746     4699 
    4617     4536     4507     4540     4614     4696     4726     4672 
    4569     4498     4527     4618     4662     4603     4464     4318 
    4240     4267     4409     4614     4762     4781     4669     4459 
    4251     4133     4109     4163     4261     4326     4345     4388 
    4476     4564     4602     4587     4552     4500     4440     4403 
    4368     4294     4217     4195     4237     4290     4298     4272 
    4270     4280     4232     4156     4163     4266     4394     4500 
    4537     4488     4422     4415     4475     4561     4577     4444 
    4240     4139     4225     4450     4695     4835     4819     4660 
    4413     4176     4059     4122     4333     4523     4546     4415 
    4229     4082     4045     4085     4110     4120     4148     4186 
    4226     4294     4382     4414     4334     4216     4172     4228 
    4329     4417     4475     4529     4591     4631     4638     4619 
    4579     4522     4444     4363     4359     4460     4567     4591 
    4526     4383     4203     4079     4078     4210     4426     4604 
    4666     4633     4521     4379     4310     4345     4433     4506 
    4499     4434     4453     4630     4866     5036     5103     5069 
    4942     4766     4630     4611     4696     4770     4753     4668 
    4571     4525     4571     4646     4677     4668     4614     4542 
    4507     4492     4472     4477     4518     4565     4591     4575 
    4545     4568     4635     4669     4644     4569     4471     4411 
    4421     4461     4502     4548     4633     4768     4882     4915 
    4880     4768     4587     4429     4361     4374     4414     4415 
    4352     4288     4282     4298     4298     4317     4376     4450 
    4494     4498     4537     4666     4835     4930     4853     4637 
    4464     4432     4484     4563     4610     4612     4653     4743 
    4754     4629     4444     4286     4191     4156     4148     4164 
    4251     4395     4545     4707     4857     4905     4833     4683 
    4540     4482     4498     4500     4433     4347     4345     4453 
    4580     4625     4561     4429     4314     4317     4464     4688 
    4880     4945     4869     4768     4743     4741     4666     4553 
    4480     4440     4386     4314     4274     4286     4263     4148 
    4014     3923     3878     3886     3948     4077     4266     4413 
    4432     4378     4325     4252     4198     4257     4365     4409 
    4440     4504     4585     4683     4758     4746     4691     4675 
    4704     4741     4746     4696     4604     4490     4361     4264 
    4255     4353     4536     4689     4677     4548     4459     4452 
    4465     4464     4446     4418     4388     4395     4449     4507 
    4521     4467     4356     4234     4137     4070     4028     3989 
    3959     4004     4164     4371     4509     4529     4444     4302 
    4217     4282     4449     4617     4711     4680     4546     4417 
    4374     4399     4453     4517     4558     4577     4596     4606 
    4585     4550     4529     4518     4491     4436     4353     4268 
    4226     4220     4195     4137     4071     4008     3924     3820 
    3743     3757     3869     4020     4140     4167     4101     4010 
    3944     3878     3808     3793     3910     4153     4417     4596 
    4658     4653     4661     4703     4762     4824     4850     4849 
    4909     5058     5196     5243     5185     5020     4770     4499 
    4301     4243     4282     4322     4315     4270     4239     4293 
    4410     4471     4367     4094     3788     3613     3612     3693 
    3792     3892     3960     3971     3960     3970     4014     4068 
    4121     4162     4166     4124     4068     4064     4147     4288 
    4387     4333     4153     4010     4012     4140     4276     4325 
    4310     4268     4183     4086     4018     3973     3951     3958 
    3932     3812     3661     3603     3643     3705     3774     3875 
    3998     4108     4159     4099     3950     3835     3835     3888 
    3943     4058     4241     4432     4592     4661     4591     4429 
    4294     4279     4388     4554     4727     4884     4996     5051 
    5081     5080     5031     4984     4965     4942     4918     4931 
    4984     5042     5080     5076     5016     4899     4757     4698 
    4766     4868     4892     4799     4660     4595     4618     4654 
    4677     4727     4806     4842     4808     4743     4700     4707 
    4772     4828     4800     4691     4550     4432     4415     4521 
    4642     4696     4683     4635     4627     4707     4815     4854 
    4797     4676     4541     4476     4546     4689     4769     4743 
    4658     4545     4444     4395     4375     4318     4228     4147 
    4124     4183     4282     4333     4311     4233     4140     4082 
    4098     4207     4378     4518     4563     4487     4332     4220 
    4220     4257     4248     4206     4160     4106     4068     4082 
    4128     4135     4033     3832     3649     3612     3717     3865 
    3978     4012     3955     3859     3793     3753     3720     3712 
    3765     3900     4062     4167     4214     4237     4252     4284 
    4313     4288     4243     4249     4332     4440     4518     4560 
    4572     4546     4490     4421     4345     4284     4279     4322 
    4401     4534     4683     4737     4679     4594     4548     4567 
    4644     4746     4828     4858     4861     4873     4899     4927 
    4943     4942     4947     4982     5031     5076     5104     5080 
    5001     4916     4818     4675     4517     4398     4352     4375 
    4410     4401     4359     4328     4338     4378     4402     4386 
    4372     4411     4484     4564     4656     4741     4780     4777 
    4730     4654     4639     4716     4803     4853     4912     5013 
    5161     5314     5412     5425     5379     5332     5350     5404 
    5397     5319     5229     5138     5024     4909     4839     4847 
    4922     4989     5003     4958     4831     4656     4519     4464 
    4477     4522     4527     4444     4280     4091     3952     3905 
    3928     3996     4072     4087     4021     3936     3896     3893 
    3896     3902     3942     4002     4025     3951     3825     3750 
    3789     3929     4087     4191     4247     4267     4264     4280 
    4328     4367     4392     4444     4506     4529     4517     4504 
    4498     4492     4459     4364     4209     4004     3821     3765 
    3811     3867     3933     4012     4052     4032     3990     3991 
    4070     4171     4222     4230     4282     4423     4626     4816 
    4922     4920     4841     4745     4716     4785     4903     5020 
    5117     5197     5298     5422     5513     5548     5535     5475 
    5405     5351     5300     5248     5212     5202     5236     5290 
    5297     5236     5162     5131     5151     5181     5166     5111 
    5073     5074     5098     5158     5209     5189     5138     5107 
    5076     5055     5094     5171     5186     5078     4911     4814 
    4833     4891     4901     4846     4758     4689     4644     4581 
    4514     4503     4534     4527     4457     4320     4113     3916 
    3788     3684     3588     3577     3665     3785     3894     3979 
    4043     4087     4112     4108     4064     3982     3883     3800 
    3742     3692     3649     3643     3705     3811     3892     3897 
    3838     3765     3746     3815     3950     4121     4280     4409 
    4523     4573     4498     4386     4317     4267     4257     4318 
    4387     4411     4390     4314     4213     4143     4102     4077 
    4089     4126     4139     4101     4032     3983     3962     3908 
    3811     3748     3770     3852     3969     4075     4118     4121 
    4149     4209     4276     4347     4421     4513     4672     4895 
    5061     5089     5040     5016     5077     5205     5321     5363 
    5325     5254     5202     5185     5188     5188     5167     5131 
    5080     5004     4884     4726     4579     4487     4460     4499 
    4599     4703     4730     4672     4579     4483     4406     4351 
    4301     4236     4156     4085     4054     4059     4082     4129 
    4210     4290     4324     4275     4158     4044     3986     3969 
    3977     3994     3952     3812     3636     3492     3387     3303 
    3240     3217     3237     3289     3406     3601     3836     4070 
    4266     4371     4383     4340     4284     4249     4252     4280 
    4310     4330     4333     4328     4363     4459     4567     4626 
    4580     4426     4287     4278     4390     4549     4693     4788 
    4816     4811     4792     4750     4718     4768     4897     5026 
    5093     5132     5189     5255     5306     5329     5331     5320 
    5297     5269     5238     5200     5189     5246     5337     5402 
    5410     5368     5290     5205     5143     5121     5136     5167 
    5197     5232     5275     5304     5281     5200     5104     5044 
    5023     5007     5004     5040     5104     5177     5244     5269 
    5233     5182     5140     5089     5020     4959     4911     4853 
    4804     4783     4779     4772     4746     4679     4561     4406 
    4257     4149     4071     4020     4006     4035     4085     4122 
    4121     4072     3974     3835     3707     3638     3642     3700 
    3763     3781     3746     3682     3624     3612     3681     3816 
    3954     4041     4064     4040     3987     3925     3917     4016 
    4171     4279     4294     4249     4194     4168     4180     4205 
    4210     4187     4151     4121     4104     4106     4129     4129 
    4093     4045     3986     3932     3927     3978     4064     4162 
    4240     4284     4287     4226     4093     3940     3840     3794 
    3770     3748     3736     3720     3672     3604     3573     3601 
    3638     3645     3651     3686     3753     3834     3912     3996 
    4095     4180     4202     4159     4091     4064     4108     4205 
    4321     4414     4472     4515     4565     4614     4673     4766 
    4880     4955     4980     4981     4982     4970     4912     4799 
    4668     4585     4569     4560     4504     4429     4376     4337 
    4278     4203     4117     4017     3946     3950     4020     4141 
    4317     4500     4614     4638     4606     4563     4546     4569 
    4658     4819     4995     5111     5148     5134     5093     5050 
    5015     4951     4828     4707     4650     4644     4658     4683 
    4702     4725     4749     4746     4716     4673     4606     4521 
    4459     4441     4467     4510     4515     4446     4314     4141 
    3981     3893     3883     3928     3990     4001     3937     3848 
    3761     3676     3604     3554     3534     3550     3572     3559 
    3528     3518     3547     3608     3654     3661     3678     3742 
    3825     3919     4048     4216     4398     4583     4752     4884 
    4961     4985     5007     5066     5179     5341     5508     5649 
    5778     5876     5923     5938     5946     5945     5926     5896 
    5864     5832     5803     5798     5811     5807     5755     5659 
    5533     5410     5331     5312     5324     5331     5329     5321 
    5300     5256     5198     5132     5057     4976     4876     4743 
    4621     4542     4475     4384     4280     4176     4083     4012 
    3955     3905     3855     3815     3794     3781     3748     3696 
    3646     3628     3663     3735     3804     3854     3898     3943 
    3962     3956     3944     3932     3933     3982     4078     4182 
    4263     4307     4326     4355     4413     4514     4652     4764 
    4800     4793     4783     4779     4774     4745     4680     4614 
    4545     4440     4311     4198     4098     4002     3917     3846 
    3767     3666     3589     3584     3631     3680     3689     3659 
    3630     3632     3663     3692     3708     3754     3867     4027 
    4180     4321     4479     4650     4795     4873     4888     4896 
    4949     5036     5124     5201     5273     5351     5443     5516 
    5536     5510     5466     5436     5432     5422     5381     5316 
    5240     5144     5023     4896     4789     4706     4625     4540 
    4465     4396     4322     4260     4226     4179     4078     3963 
    3885     3835     3798     3775     3775     3825     3900     3933 
    3905     3859     3869     3960     4085     4185     4244     4294 
    4367     4465     4552     4588     4577     4561     4564     4583 
    4604     4611     4596     4569     4511     4415     4318     4260 
    4241     4243     4245     4239     4226     4217     4212     4198 
    4158     4075     3983     3936     3946     4002     4098     4194 
    4251     4263     4241     4221     4241     4287     4293     4226 
    4124     4018     3920     3838     3778     3738     3701     3642 
    3558     3493     3464     3446     3445     3477     3530     3596 
    3670     3759     3870     3975     4050     4104     4168     4270 
    4418     4595     4779     4942     5054     5120     5167     5193 
    5193     5190     5192     5182     5163     5163     5197     5228 
    5219     5174     5127     5090     5066     5071     5132     5227 
    5290     5277     5188     5090     5049     5047     5035     4986 
    4882     4743     4634     4592     4614     4679     4749     4780 
    4769     4738     4708     4707     4750     4830     4912     4954 
    4945     4907     4853     4779     4689     4594     4502     4425 
    4376     4371     4413     4476     4531     4544     4496     4428 
    4384     4380     4399     4415     4428     4444     4477     4530 
    4565     4549     4513     4515     4567     4623     4658     4704 
    4795     4903     4978     5009     5017     5005     4986     4997 
    5049     5115     5174     5205     5197     5165     5132     5112 
    5094     5067     5027     4973     4912     4854     4792     4719 
    4650     4595     4544     4494     4440     4378     4333     4314 
    4288     4230     4148     4064     4004     3964     3936     3916 
    3919     3950     4000     4041     4059     4048     4017     3986 
    3993     4056     4145     4197     4198     4186     4186     4194 
    4186     4122     4008     3919     3929     4023     4110     4118 
    4056     3975     3905     3854     3823     3796     3781     3804 
    3847     3865     3848     3831     3823     3815     3817     3835 
    3856     3894     3977     4102     4248     4379     4459     4471 
    4429     4360     4286     4234     4226     4230     4206     4159 
    4102     4048     3998     3956     3931     3943     3985     4027 
    4062     4083     4085     4086     4104     4124     4121     4085 
    4036     4020     4055     4108     4149     4194     4248     4291 
    4306     4290     4270     4297     4383     4494     4595     4671 
    4727     4769     4803     4839     4881     4907     4903     4882 
    4861     4834     4803     4774     4757     4754     4765     4773 
    4773     4777     4772     4745     4714     4706     4719     4735 
    4734     4704     4653     4614     4602     4604     4626     4677 
    4742     4788     4791     4768     4752     4730     4695     4691 
    4712     4716     4698     4673     4666     4704     4783     4861 
    4904     4912     4905     4923     4988     5073     5157     5240 
    5314     5363     5371     5328     5259     5216     5202     5184 
    5132     5062     5007     4990     4989     4954     4872     4768 
    4664     4571     4482     4379     4275     4197     4149     4121 
    4099     4067     4014     3962     3928     3902     3878     3870 
    3883     3900     3919     3942     3969     4006     4055     4110 
    4179     4251     4306     4357     4423     4488     4549     4629 
    4711     4765     4780     4772     4769     4785     4810     4835 
    4843     4824     4800     4799     4814     4830     4854     4876 
    4880     4876     4870     4839     4776     4714     4679     4657 
    4618     4558     4503     4463     4450     4473     4502     4513 
    4518     4514     4480     4434     4401     4374     4334     4284 
    4232     4175     4124     4097     4086     4072     4041     4000 
    3956     3916     3873     3817     3763     3740     3755     3793 
    3828     3844     3834     3819     3828     3878     3964     4074 
    4197     4307     4384     4433     4465     4506     4581     4681 
    4780     4874     4959     5024     5071     5109     5143     5181 
    5215     5239     5252     5246     5217     5184     5155     5128 
    5088     5028     4978     4954     4942     4918     4860     4768 
    4689     4660     4652     4635     4612     4573     4518     4473 
    4456     4446     4432     4415     4410     4421     4440     4455 
