Origin Time       2025/01/13 21:19:00
Lat.              31.8
Long.             131.6
Depth. (km)       30
Mag.              6.9
Station Code      KOC016
Station Lat.      32.7359
Station Long.     132.9754
Station Height(m) 125
Record Time       2025/01/13 21:20:16
Sampling Freq(Hz) 100Hz
Duration Time(s)  83
Dir.              U-D
Scale Factor      7845(gal)/8223790
Max. Acc. (gal)   2.359
Last Correction   2025/01/13 21:20:16
Memo.             
[...]
   -3866    -3792    -3873    -4071    -4230    -4452    -4718    -4699 
   -4363    -4027    -3824    -3678    -3639    -3786    -3963    -4029 
   -4054    -4085    -4116    -4214    -4440    -4622    -4579    -4432 
   -4267    -4024    -3838    -3854    -3932    -3955    -4087    -4394 
   -4607    -4625    -4653    -4710    -4723    -4804    -4892    -4693 
   -4236    -3906    -3932    -4220    -4525    -4673    -4653    -4490 
   -4260    -4083    -3998    -4056    -4233    -4387    -4510    -4584 
   -4479    -4251    -4093    -4086    -4198    -4367    -4472    -4368 
   -4182    -4135    -4052    -3829    -3739    -3846    -3983    -4064 
   -4087    -4153    -4226    -4153    -4044    -4014    -3948    -3802 
   -3758    -3978    -4279    -4396    -4414    -4496    -4565    -4571 
   -4569    -4399    -3950    -3535    -3418    -3520    -3765    -4093 
   -4326    -4318    -4148    -4008    -3874    -3619    -3389    -3352 
   -3466    -3705    -3963    -4085    -4091    -4051    -4013    -3989 
   -3925    -3952    -4195    -4523    -4838    -5044    -4953    -4629 
   -4378    -4392    -4583    -4685    -4538    -4180    -3835    -3790 
   -4062    -4298    -4221    -3950    -3762    -3851    -4198    -4448 
   -4345    -4124    -4060    -4166    -4337    -4415    -4405    -4494 
   -4727    -4961    -5011    -4796    -4482    -4272    -4187    -4143 
   -4058    -3879    -3665    -3600    -3835    -4210    -4457    -4568 
   -4618    -4611    -4567    -4499    -4457    -4456    -4500    -4672 
   -4788    -4523    -4118    -4067    -4345    -4538    -4442    -4212 
   -3912    -3416    -2944    -2821    -2902    -3025    -3289    -3600 
   -3769    -3827    -3848    -3797    -3726    -3829    -3998    -3848 
   -3492    -3369    -3473    -3626    -3856    -4167    -4410    -4401 
   -4162    -4039    -4216    -4479    -4610    -4657    -4756    -4943 
   -5135    -5205    -5128    -5013    -4907    -4720    -4467    -4305 
   -4243    -4175    -4143    -4145    -4059    -3897    -3767    -3705 
   -3790    -4079    -4421    -4671    -4903    -5113    -5179    -5154 
   -5051    -4737    -4320    -4044    -3959    -4018    -4124    -4187 
   -4248    -4271    -4193    -4143    -4172    -4216    -4324    -4440 
   -4372    -4145    -3954    -3888    -3931    -4040    -4143    -4199 
   -4217    -4117    -3852    -3619    -3534    -3526    -3657    -3916 
   -4124    -4225    -4280    -4341    -4329    -4135    -3990    -4187 
   -4602    -4928    -5115    -5239    -5219    -5026    -4830    -4567 
   -4075    -3618    -3466    -3478    -3474    -3500    -3619    -3798 
   -4028    -4311    -4530    -4533    -4357    -4190    -4137    -4217 
   -4509    -4955    -5255    -5281    -5197    -5139    -5074    -4834 
   -4361    -3924    -3761    -3755    -3713    -3658    -3632    -3527 
   -3416    -3550    -3850    -4083    -4253    -4464    -4780    -5088 
   -5123    -4858    -4588    -4479    -4384    -4212    -4098    -4116 
   -4182    -4279    -4411    -4394    -4024    -3526    -3284    -3307 
   -3465    -3699    -3836    -3894    -4140    -4531    -4650    -4446 
   -4372    -4537    -4602    -4509    -4376    -4164    -3929    -3798 
   -3753    -3731    -3708    -3705    -3896    -4409    -4958    -5181 
   -5157    -5034    -4687    -4171    -3886    -3937    -3970    -3886 
   -3951    -4148    -4309    -4455    -4480    -4216    -3901    -3877 
   -4025    -4016    -3856    -3820    -3970    -4185    -4492    -4915 
   -5255    -5309    -5105    -4831    -4491    -3924    -3337    -3136 
   -3283    -3541    -3858    -4148    -4274    -4228    -4151    -4101 
   -3969    -3734    -3554    -3558    -3788    -4213    -4653    -4812 
   -4571    -4189    -4039    -4126    -4160    -4101    -4139    -4244 
   -4244    -4094    -3931    -3975    -4283    -4799    -5420    -5826 
   -5784    -5404    -4866    -4338    -3933    -3703    -3700    -3869 
   -4074    -4249    -4387    -4490    -4468    -4201    -3813    -3616 
   -3742    -4094    -4491    -4719    -4726    -4720    -4810    -4830 
   -4737    -4723    -4757    -4496    -3951    -3670    -3859    -4014 
   -3797    -3484    -3261    -3052    -2991    -3275    -3771    -4259 
   -4714    -5086    -5188    -4981    -4700    -4556    -4554    -4648 
   -4810    -4868    -4661    -4317    -4064    -3942    -3797    -3507 
   -3159    -2971    -3095    -3613    -4378    -4793    -4490    -3920 
   -3573    -3442    -3588    -4048    -4440    -4511    -4595    -4928 
   -5057    -4627    -4125    -4000    -4135    -4467    -4822    -4683 
   -4075    -3661    -3762    -4059    -4178    -4190    -4306    -4536 
   -4797    -4828    -4446    -3958    -3717    -3873    -4322    -4580 
   -4504    -4571    -4870    -4968    -4747    -4473    -4228    -3939 
   -3782    -3948    -4228    -4364    -4457    -4672    -4905    -4862 
   -4382    -3672    -3230    -3352    -3719    -3808    -3592    -3411 
   -3329    -3200    -3126    -3312    -3700    -4043    -4264    -4531 
   -4800    -4635    -3964    -3496    -3724    -4252    -4650    -5046 
   -5529    -5837    -5751    -5277    -4588    -3991    -3701    -3703 
   -3908    -4180    -4347    -4318    -4217    -4329    -4653    -4743 
   -4419    -4064    -4014    -4148    -4245    -4290    -4313    -4341 
   -4340    -4230    -4113    -4064    -3974    -3896    -4035    -4348 
   -4529    -4490    -4455    -4388    -4160    -3989    -3905    -3713 
   -3626    -3893    -4363    -4753    -4855    -4627    -4207    -3804 
   -3597    -3634    -3893    -4214    -4251    -4005    -3873    -3902 
   -3879    -3786    -3603    -3322    -3249    -3645    -4207    -4463 
   -4406    -4234    -3917    -3582    -3542    -3778    -4090    -4357 
   -4406    -4214    -3973    -3711    -3438    -3357    -3430    -3419 
   -3573    -4189    -4768    -4826    -4666    -4518    -4216    -3840 
   -3553    -3358    -3416    -3825    -4271    -4388    -4190    -3908 
   -3777    -3886    -4113    -4348    -4517    -4419    -4072    -3848 
   -3919    -4112    -4382    -4662    -4668    -4513    -4612    -4833 
   -4888    -4882    -4797    -4499    -4225    -4195    -4234    -4237 
   -4341    -4603    -5040    -5583    -5776    -5279    -4413    -3620 
   -3038    -2724    -2776    -3168    -3624    -3879    -3994    -4063 
   -3979    -3780    -3705    -3724    -3528    -3195    -3090    -3268 
   -3688    -4375    -5032    -5289    -5239    -5235    -5390    -5526 
   -5471    -5250    -5040    -4993    -5081    -5228    -5449    -5609 
   -5441    -5113    -4932    -4734    -4391    -4176    -4152    -4004 
   -3591    -3072    -2646    -2582    -3099    -3909    -4469    -4588 
   -4387    -4000    -3627    -3474    -3523    -3682    -4014    -4496 
   -4880    -4895    -4560    -4240    -4225    -4448    -4654    -4654 
   -4525    -4510    -4664    -4793    -4760    -4608    -4450    -4401 
   -4610    -5073    -5421    -5410    -5248    -5116    -4989    -4931 
   -4857    -4519    -4008    -3640    -3549    -3627    -3627    -3261 
   -2539    -1975    -2069    -2720    -3483    -4001    -4109    -3997 
   -3915    -3823    -3765    -3846    -3975    -4244    -4654    -4772 
   -4387    -3812    -3470    -3562    -3898    -4126    -4125    -4074 
   -4217    -4488    -4637    -4603    -4356    -4010    -3909    -4054 
   -4270    -4631    -5042    -5236    -5231    -5130    -4822    -4314 
   -4016    -4168    -4450    -4638    -4795    -4739    -4426    -4271 
   -4382    -4455    -4476    -4656    -4957    -5201    -5383    -5424 
   -5067    -4538    -4268    -4139    -4014    -4016    -4000    -3877 
   -3886    -4098    -4318    -4429    -4407    -4197    -3869    -3619 
   -3512    -3608    -3963    -4263    -4144    -3861    -3923    -4297 
   -4607    -4780    -4861    -4649    -4044    -3315    -2926    -3214 
   -3982    -4685    -5026    -4945    -4507    -4135    -4187    -4365 
   -4293    -4175    -4305    -4642    -5032    -5185    -4773    -4012 
   -3611    -3750    -3832    -3626    -3530    -3649    -3865    -4190 
   -4390    -4234    -3881    -3478    -3192    -3252    -3539    -3728 
   -3709    -3624    -3586    -3426    -2988    -2493    -2281    -2619 
   -3546    -4600    -5193    -5198    -4820    -4352    -4125    -4247 
   -4429    -4347    -4051    -3765    -3626    -3750    -4104    -4507 
   -4874    -5077    -4936    -4518    -4068    -3746    -3669    -3950 
   -4448    -4835    -5032    -5142    -5124    -4992    -4923    -4935 
   -4884    -4734    -4568    -4436    -4274    -3940    -3468    -3192 
   -3264    -3478    -3769    -3998    -3829    -3411    -3299    -3661 
   -4125    -4344    -4320    -3966    -3265    -2771    -2794    -3018 
   -3377    -4037    -4834    -5394    -5516    -5301    -4904    -4513 
   -4425    -4626    -4793    -4730    -4499    -4444    -4718    -4970 
   -4934    -4699    -4369    -4029    -3766    -3600    -3483    -3352 
   -3211    -2994    -2710    -2652    -2982    -3499    -3970    -4338 
   -4557    -4453    -4017    -3589    -3523    -3847    -4205    -4291 
   -4332    -4475    -4278    -3689    -3361    -3532    -3943    -4522 
   -5057    -5067    -4530    -3978    -3819    -3996    -4305    -4641 
   -4806    -4645    -4345    -4178    -4270    -4575    -4835    -4926 
   -4899    -4646    -4244    -4143    -4502    -5053    -5537    -5760 
   -5548    -5005    -4557    -4495    -4804    -5358    -5819    -5809 
   -5448    -5116    -4968    -5030    -5169    -5130    -4922    -4797 
   -4881    -5067    -5194    -5088    -4612    -3971    -3549    -3418 
   -3345    -3230    -3191    -3264    -3392    -3622    -3893    -3964 
   -3784    -3508    -3267    -3210    -3457    -3875    -4284    -4692 
   -5076    -5232    -5085    -4797    -4463    -4118    -3939    -4027 
   -4288    -4560    -4590    -4099    -3179    -2506    -2670    -3399 
   -4028    -4205    -3835    -3159    -2743    -2798    -3095    -3397 
   -3460    -3356    -3531    -3987    -4214    -4001    -3603    -3352 
   -3450    -3796    -3951    -3701    -3420    -3454    -3717    -3998 
   -4216    -4415    -4683    -5076    -5470    -5499    -5023    -4418 
   -4064    -3954    -3950    -4017    -4214    -4665    -5256    -5520 
   -5107    -4180    -3356    -3063    -3215    -3632    -4013    -3916 
   -3415    -3065    -3248    -3869    -4581    -5157    -5375    -4993 
   -4144    -3333    -3041    -3442    -4151    -4608    -4773    -4882 
   -4865    -4633    -4388    -4288    -4375    -4638    -4907    -5011 
   -4951    -4762    -4351    -3766    -3456    -3596    -3862    -4212 
   -4638    -4693    -4228    -3634    -3187    -2901    -2879    -3299 
   -4040    -4715    -5042    -4934    -4448    -3771    -3123    -2674 
   -2713    -3380    -4216    -4675    -4604    -4099    -3542    -3321 
   -3404    -3632    -4075    -4708    -4966    -4496    -4039    -4274 
   -4878    -5529    -6112    -6192    -5701    -5194    -4897    -4680 
   -4680    -4884    -4920    -4797    -4747    -4583    -4255    -4093 
   -4135    -4237    -4410    -4538    -4457    -4255    -4135    -4224 
   -4560    -5004    -5215    -5034    -4679    -4375    -4139    -3870 
   -3469    -3100    -3098    -3491    -3920    -3967    -3441    -2500 
   -1744    -1819    -2658    -3553    -3987    -3919    -3504    -3076 
   -2998    -3154    -3156    -3086    -3246    -3550    -3701    -3541 
   -3130    -2789    -2793    -3103    -3476    -3727    -3861    -4095 
   -4590    -5078    -5146    -4943    -4919    -5001    -4888    -4689 
   -4591    -4537    -4565    -4833    -5196    -5333    -5179    -4889 
   -4642    -4538    -4552    -4502    -4139    -3545    -3183    -3329 
   -3850    -4517    -5107    -5381    -5136    -4360    -3411    -2795 
   -2706    -3118    -3952    -4881    -5459    -5463    -5071    -4627 
   -4199    -3889    -4070    -4679    -5100    -4931    -4318    -3682 
   -3326    -3384    -3877    -4477    -4743    -4677    -4536    -4386 
   -4145    -3850    -3747    -3962    -4306    -4666    -4950    -4869 
   -4436    -4045    -3840    -3754    -3817    -3978    -4102    -4148 
   -4158    -4171    -4133    -4075    -4151    -4361    -4634    -4885 
   -4992    -5023    -5013    -4838    -4573    -4372    -4175    -3931 
   -3848    -4189    -4743    -5066    -5077    -4834    -4364    -3967 
   -3910    -4141    -4529    -4889    -4950    -4716    -4542    -4611 
   -4742    -4741    -4587    -4314    -4014    -3865    -3931    -4082 
   -4121    -3874    -3350    -2932    -3071    -3696    -4383    -4973 
   -5409    -5493    -5233    -4827    -4429    -4252    -4445    -4845 
   -5134    -5077    -4610    -3951    -3577    -3736    -4183    -4564 
   -4692    -4471    -3921    -3322    -3117    -3484    -4097    -4519 
   -4607    -4398    -4059    -3954    -4197    -4388    -4301    -4298 
   -4598    -4788    -4521    -3986    -3505    -3289    -3442    -3832 
   -4149    -4190    -4043    -3948    -4028    -4224    -4459    -4642 
   -4664    -4544    -4405    -4278    -4081    -3863    -3858    -4050 
   -4020    -3662    -3461    -3721    -4217    -4641    -4858    -4810 
   -4490    -4075    -3807    -3777    -3963    -4340    -4823    -5116 
   -4935    -4477    -4086    -3809    -3639    -3661    -3908    -4137 
   -3977    -3542    -3272    -3253    -3357    -3535    -3742    -3890 
   -3881    -3716    -3435    -3076    -2957    -3346    -3974    -4507 
   -4893    -5067    -4990    -4747    -4365    -3855    -3410    -3312 
   -3630    -4135    -4510    -4482    -3958    -3095    -2189    -1726 
   -2118    -3148    -4109    -4429    -4068    -3447    -2945    -2708 
   -2844    -3349    -3956    -4307    -4183    -3672    -3153    -3052 
   -3485    -4136    -4606    -4828    -4845    -4615    -4332    -4345 
   -4700    -5125    -5420    -5622    -5715    -5543    -5147    -4799 
   -4639    -4595    -4606    -4664    -4723    -4729    -4652    -4453 
   -4172    -3997    -4079    -4336    -4614    -4796    -4764    -4591 
   -4430    -4267    -4131    -4105    -4113    -4060    -3917    -3696 
   -3449    -3303    -3528    -4095    -4428    -4279    -4017    -3839 
   -3727    -3875    -4426    -5150    -5714    -5995    -5960    -5557 
   -4958    -4483    -4336    -4650    -5287    -5728    -5643    -5121 
   -4406    -3804    -3507    -3484    -3678    -3936    -3959    -3635 
   -3186    -2967    -3230    -3913    -4702    -5233    -5144    -4421 
   -3630    -3254    -3245    -3369    -3511    -3666    -3773    -3699 
   -3581    -3666    -3856    -4051    -4438    -4988    -5283    -5138 
   -4801    -4468    -4136    -3912    -3975    -4301    -4660    -4899 
   -4930    -4599    -3917    -3242    -3022    -3338    -3823    -4147 
   -4290    -4244    -3990    -3767    -3808    -4010    -4247    -4542 
   -4800    -4816    -4553    -4190    -3901    -3692    -3568    -3665 
   -3958    -4172    -4133    -3905    -3596    -3307    -3187    -3298 
   -3516    -3755    -4014    -4197    -4147    -3915    -3759    -3767 
   -3736    -3642    -3719    -4068    -4486    -4665    -4561    -4349 
   -4178    -4212    -4536    -4904    -5036    -4999    -4972    -5036 
   -5262    -5589    -5756    -5598    -5239    -4939    -4819    -4806 
   -4884    -5139    -5462    -5617    -5476    -5042    -4537    -4298 
   -4421    -4780    -5132    -5233    -5131    -5062    -5138    -5233 
   -5101    -4774    -4571    -4588    -4741    -4900    -4803    -4417 
   -4000    -3676    -3489    -3503    -3658    -3850    -3973    -3979 
   -3923    -3813    -3655    -3481    -3334    -3404    -3761    -4186 
   -4471    -4415    -3927    -3298    -2874    -2737    -2860    -3123 
   -3329    -3331    -3168    -3110    -3312    -3562    -3689    -3693 
   -3551    -3450    -3649    -4051    -4396    -4511    -4372    -4148 
   -3978    -3886    -3933    -4095    -4220    -4189    -4032    -3846 
   -3670    -3589    -3748    -4112    -4550    -4993    -5165    -4704 
   -3900    -3472    -3527    -3688    -3846    -4058    -4213    -4189 
   -4014    -3802    -3709    -3902    -4348    -4776    -4896    -4569 
   -3964    -3464    -3296    -3526    -4108    -4742    -5046    -4924 
   -4572    -4153    -3800    -3703    -3800    -3815    -3701    -3557 
   -3370    -3096    -2778    -2648    -2855    -3127    -3222    -3200 
   -3141    -3086    -3078    -3102    -3184    -3400    -3709    -3960 
   -4117    -4234    -4332    -4405    -4410    -4334    -4314    -4446 
   -4629    -4700    -4672    -4653    -4652    -4719    -4966    -5251 
   -5319    -5143    -4833    -4484    -4244    -4244    -4376    -4419 
   -4332    -4136    -3785    -3362    -3051    -2902    -2928    -3179 
   -3531    -3743    -3784    -3809    -3952    -4239    -4573    -4785 
   -4808    -4757    -4726    -4607    -4347    -4105    -3974    -3951 
   -4074    -4267    -4406    -4433    -4396    -4507    -4818    -5057 
   -5046    -4816    -4473    -4182    -4074    -4167    -4333    -4414 
   -4402    -4325    -4225    -4245    -4460    -4725    -4874    -4870 
   -4784    -4704    -4638    -4572    -4591    -4761    -4963    -5024 
   -4914    -4580    -3935    -3289    -3145    -3473    -3848    -4110 
   -4237    -4039    -3570    -3268    -3392    -3820    -4307    -4691 
   -4918    -4950    -4784    -4534    -4313    -4206    -4320    -4600 
   -4764    -4579    -4099    -3605    -3343    -3396    -3770    -4263 
   -4496    -4390    -4171    -4006    -3969    -4067    -4288    -4592 
   -4796    -4723    -4405    -3989    -3681    -3646    -3856    -4162 
   -4433    -4540    -4390    -4045    -3712    -3653    -3948    -4361 
   -4638    -4706    -4600    -4376    -4037    -3685    -3496    -3541 
   -3835    -4233    -4417    -4314    -4085    -3877    -3762    -3701 
   -3708    -3762    -3713    -3589    -3530    -3483    -3399    -3369 
   -3420    -3408    -3242    -3055    -2964    -2967    -3076    -3257 
   -3395    -3470    -3516    -3551    -3665    -3888    -4109    -4257 
   -4376    -4484    -4564    -4606    -4588    -4533    -4552    -4673 
   -4795    -4878    -4981    -5082    -5123    -5152    -5221    -5270 
   -5242    -5134    -4943    -4696    -4536    -4580    -4754    -4900 
   -4914    -4731    -4448    -4303    -4406    -4650    -4880    -4976 
   -4915    -4815    -4804    -4868    -4961    -5042    -4992    -4826 
   -4750    -4851    -5100    -5468    -5764    -5772    -5578    -5390 
   -5190    -4919    -4784    -4919    -5084    -5096    -5038    -4945 
   -4808    -4716    -4757    -4854    -4827    -4673    -4492    -4338 
   -4291    -4287    -4168    -3985    -3828    -3717    -3708    -3820 
   -4009    -4137    -4054    -3823    -3624    -3577    -3716    -3928 
   -4040    -4056    -4087    -4114    -4097    -4106    -4193    -4344 
   -4517    -4569    -4384    -4044    -3705    -3438    -3348    -3570 
   -3923    -4060    -3983    -3851    -3635    -3342    -3138    -3164 
   -3354    -3493    -3477    -3348    -3125    -2822    -2550    -2434 
   -2493    -2619    -2737    -2794    -2708    -2550    -2440    -2385 
   -2475    -2782    -3129    -3381    -3547    -3608    -3541    -3419 
   -3377    -3418    -3478    -3651    -3954    -4217    -4353    -4321 
   -4093    -3821    -3731    -3950    -4419    -4888    -5121    -5071 
   -4822    -4506    -4259    -4199    -4332    -4537    -4735    -4849 
