Origin Time       2025/01/13 21:19:00
Lat.              31.8
Long.             131.6
Depth. (km)       30
Mag.              6.9
Station Code      KOC003
Station Lat.      33.5014
Station Long.     133.9071
Station Height(m) 5
Record Time       2025/01/13 21:20:45
Sampling Freq(Hz) 100Hz
Duration Time(s)  113
Dir.              N-S
Scale Factor      7845(gal)/8223790
Max. Acc. (gal)   2.479
Last Correction   2025/01/13 21:20:45
Memo.             
[...]
    1258     1402     1443     1367     1225     1116     1074     1097 
    1173     1278     1405     1522     1588     1591     1501     1340 
    1229     1275     1483     1772     2022     2143     2106     1898 
    1537     1119      787      584      460      422      479      530 
     518      463      375      303      311      390      545      789 
    1059     1267     1385     1421     1421     1468     1574     1653 
    1667     1609     1483     1351     1264     1236     1275     1383 
    1544     1687     1719     1651     1584     1580     1617     1686 
    1792     1892     1954     2018     2106     2197     2274     2282 
    2169     1962     1710     1443     1224     1131     1178     1317 
    1470     1547     1482     1259      963      733      637      675 
     804      926      977      990     1005     1036     1113     1225 
    1290     1267     1192     1104     1013      930      881      907 
    1008     1131     1205     1202     1152     1121     1142     1193 
    1264     1350     1414     1422     1385     1335     1329     1428 
    1617     1821     1995     2147     2270     2322     2272     2172 
    2126     2157     2207     2222     2195     2116     1948     1694 
    1425     1219     1107     1063     1019      928      803      675 
     571      502      475      472      468      479      527      583 
     594      544      483      499      668      934     1155     1283 
    1336     1351     1416     1578     1737     1745     1572     1318 
    1112     1009      965      911      823      703      588      540 
     573      677      831     1007     1167     1305     1410     1472 
    1491     1413     1210      986      862      865      947     1048 
    1120     1139     1094      996      869      742      639      564 
     523      569      750     1035     1314     1499     1576     1584 
    1584     1601     1622     1661     1721     1769     1802     1829 
    1809     1717     1587     1451     1329     1255     1269     1371 
    1501     1572     1522     1327     1040      780      652      684 
     816      943     1013     1067     1150     1264     1387     1503 
    1611     1714     1834     1971     2072     2058     1871     1560 
    1267     1098     1053     1069     1100     1134     1170     1219 
    1289     1378     1453     1489     1497     1521     1584     1655 
    1680     1656     1610     1603     1696     1852     1979     2056 
    2095     2065     1958     1818     1687     1598     1557     1551 
    1579     1618     1615     1541     1393     1196     1003      837 
     662      475      333      292      357      480      568      565 
     510      471      492      596      766      942     1073     1161 
    1220     1262     1309     1345     1320     1204     1023      826 
     673      588      592      735      992     1263     1480     1579 
    1518     1355     1173     1062     1120     1359     1668     1912 
    2014     1971     1849     1706     1609     1625     1753     1902 
    1977     1956     1875     1763     1641     1567     1563     1597 
    1637     1682     1719     1753     1800     1842     1844     1795 
    1684     1518     1336     1181     1039      874      704      576 
     523      571      700      818      828      745      645      581 
     581      656      778      913     1058     1216     1348     1416 
    1418     1374     1296     1220     1179     1162     1161     1175 
    1171     1116     1021      915      822      777      799      866 
     942     1007     1086     1208     1356     1482     1549     1557 
    1513     1449     1386     1302     1194     1092     1019     1016 
    1100     1225     1339     1399     1372     1282     1193     1125 
    1074     1043     1026      997      965      962     1019     1120 
    1201     1228     1219     1206     1225     1300     1420     1561 
    1692     1761     1759     1714     1642     1572     1528     1490 
    1439     1399     1394     1401     1379     1306     1189     1067 
    1009     1065     1208     1366     1480     1510     1437     1306 
    1196     1159     1209     1310     1408     1483     1556     1644 
    1713     1711     1656     1583     1510     1491     1555     1633 
    1661     1634     1570     1505     1485     1516     1563     1588 
    1582     1541     1480     1440     1456     1517     1598     1696 
    1814     1941     2049     2093     2080     2041     1980     1941 
    1972     2034     2066     2053     1977     1834     1675     1567 
    1524     1514     1517     1520     1493     1397     1247     1094 
     982      938      954      993     1027     1055     1070     1059 
    1015      918      783      681      658      684      708      729 
     738      710      662      623      588      554      529      500 
     469      450      465      535      626      703      800      949 
    1123     1266     1348     1360     1337     1343     1402     1483 
    1567     1645     1674     1626     1536     1435     1343     1263 
    1171     1069      982      912      842      776      729      680 
     580      427      276      187      195      287      425      592 
     774      955     1121     1244     1313     1363     1416     1458 
    1479     1494     1516     1540     1552     1541     1505     1449 
    1398     1354     1262     1097      904      739      643      637 
     702      774      823      850      881      966     1113     1271 
    1431     1617     1819     2011     2192     2346     2438     2455 
    2417     2351     2266     2182     2135     2127     2141     2141 
    2138     2155     2164     2116     1998     1826     1636     1475 
    1389     1381     1406     1429     1441     1445     1435     1413 
    1385     1340     1286     1244     1213     1179     1146     1121 
    1102     1102     1152     1254     1374     1472     1520     1533 
    1557     1620     1710     1792     1840     1873     1926     1988 
    2026     2015     1949     1857     1783     1728     1678     1641 
    1615     1563     1460     1331     1196     1059      918      760 
     604      508      502      548      588      569      499      425 
     372      348      348      353      372      411      433      419 
     410      434      491      568      660      773      899     1016 
    1119     1227     1351     1476     1584     1672     1738     1771 
    1772     1773     1807     1869     1933     1961     1939     1875 
    1784     1686     1598     1514     1432     1355     1266     1147 
    1030      946      907      904      908      895      847      761 
     670      634      658      722      839     1016     1186     1302 
    1375     1421     1448     1449     1429     1417     1437     1487 
    1552     1610     1679     1779     1892     1995     2081     2134 
    2168     2224     2315     2427     2547     2654     2706     2698 
    2675     2658     2604     2481     2293     2035     1719     1402 
    1131      908      707      511      314      124      -20      -99 
    -118      -72       27      145      261      368      448      473 
     438      380      342      357      421      492      530      533 
     529      534      548      561      589      662      792      949 
    1092     1208     1294     1333     1341     1366     1413     1482 
    1597     1741     1861     1929     1949     1942     1923     1894 
    1871     1879     1907     1917     1902     1867     1821     1772 
    1688     1567     1452     1374     1314     1266     1213     1132 
    1048     1011      997      969      935      905      889      891 
     899      912      934      946      943      928      900      865 
     842      854      932     1074     1239     1390     1529     1657 
    1772     1891     2034     2189     2342     2484     2594     2674 
    2708     2674     2600     2517     2432     2361     2324     2301 
    2262     2199     2133     2073     2006     1911     1790     1664 
    1570     1514     1486     1489     1514     1532     1526     1525 
    1540     1563     1588     1624     1659     1661     1605     1510 
    1422     1348     1297     1294     1331     1385     1448     1501 
    1532     1544     1530     1498     1474     1466     1470     1482 
    1499     1513     1501     1440     1354     1264     1169     1071 
     966      847      714      575      454      353      256      180 
     143      129      151      205      271      352      436      506 
     562      618      681      776      897     1008     1082     1113 
    1097     1058     1017      978      953      935      923      935 
     962      976      982      993      990      955      904      866 
     857      868      884      900      901      877      834      792 
     743      692      649      599      506      384      260      124 
      -8     -103     -159     -174     -140      -82      -31        8 
      51      120      221      349      491      623      726      805 
     878      951     1043     1192     1404     1655     1912     2166 
    2407     2616     2782     2894     2979     3067     3157     3244 
    3316     3353     3337     3277     3183     3069     2953     2840 
    2748     2694     2644     2573     2470     2342     2215     2108 
    2020     1946     1883     1827     1777     1741     1713     1675 
    1609     1513     1417     1348     1305     1274     1251     1232 
    1205     1178     1189     1262     1385     1526     1669     1807 
    1904     1938     1930     1891     1842     1815     1814     1817 
    1809     1763     1664     1536     1410     1301     1205     1129 
    1088     1080     1100     1146     1200     1236     1247     1231 
    1202     1190     1196     1216     1254     1309     1363     1389 
    1374     1331     1287     1259     1248     1248     1243     1235 
    1239     1254     1277     1305     1329     1340     1332     1306 
    1283     1256     1201     1123     1040      963      909      880 
     869      876      873      831      764      689      610      540 
     495      467      461      484      488      463      449      460 
     483      523      567      587      588      594      618      662 
     716      780      845      916     1013     1138     1271     1399 
    1526     1660     1795     1935     2091     2219     2297     2343 
    2349     2319     2274     2205     2110     2011     1907     1810 
    1745     1709     1687     1674     1671     1675     1659     1610 
    1537     1455     1366     1281     1224     1206     1208     1210 
    1201     1170     1109     1034      963      899      830      758 
     692      638      612      623      661      711      751      777 
     799      824      878      949     1000     1027     1035     1015 
     955      882      832      818      827      849      864      846 
     792      730      668      615      594      600      631      692 
     773      850      922      988     1035     1062     1089     1125 
    1177     1247     1336     1429     1499     1537     1566     1602 
    1632     1647     1652     1653     1653     1668     1710     1787 
    1918     2088     2263     2432     2586     2725     2845     2922 
    2959     2975     2979     2971     2944     2901     2841     2762 
    2662     2544     2431     2363     2343     2323     2270     2189 
    2104     2041     2003     1979     1942     1865     1757     1636 
    1502     1370     1247     1119      981      846      703      527 
     310       86     -113     -270     -364     -413     -454     -498 
    -537     -573     -603     -619     -618     -595     -562     -540 
    -530     -525     -514     -465     -367     -247     -121       10 
     160      336      511      653      761      868      973     1073 
    1190     1336     1494     1642     1755     1811     1822     1803 
    1782     1784     1807     1813     1790     1756     1709     1636 
    1557     1483     1408     1362     1366     1395     1435     1464 
    1464     1460     1476     1507     1537     1566     1606     1674 
    1757     1827     1879     1922     1954     1984     2023     2054 
    2057     2041     2002     1945     1912     1915     1941     1991 
    2046     2079     2064     2011     1944     1861     1767     1668 
    1559     1444     1340     1262     1193     1098      966      810 
     645      515      452      434      452      513      598      699 
     823      958     1077     1167     1239     1312     1391     1460 
    1506     1528     1513     1471     1432     1394     1347     1289 
    1200     1067      919      780      658      567      496      433 
     384      345      309      280      267      268      270      272 
     283      298      324      395      525      677      828      981 
    1128     1256     1371     1466     1529     1572     1615     1675 
    1765     1873     1961     2020     2068     2119     2187     2278 
    2393     2508     2596     2659     2706     2728     2741     2771 
    2806     2845     2911     3002     3087     3145     3164     3148 
    3126     3118     3118     3123     3136     3149     3153     3146 
    3126     3086     3011     2907     2789     2660     2531     2416 
    2292     2124     1912     1678     1432     1194      977      774 
     579      368      126     -140     -400     -627     -816     -959 
   -1053    -1108    -1151    -1208    -1270    -1310    -1313    -1279 
   -1216    -1127    -1017     -907     -803     -703     -615     -549 
    -488     -411     -325     -232     -121       10      149      298 
     453      607      760      900     1011     1097     1183     1285 
    1402     1529     1640     1729     1795     1846     1877     1871 
    1825     1769     1732     1719     1715     1711     1705     1686 
    1657     1628     1598     1566     1530     1501     1497     1524 
    1563     1583     1582     1575     1571     1575     1605     1649 
    1682     1676     1629     1571     1526     1489     1444     1382 
    1300     1215     1131     1036      942      857      777      692 
     596      506      421      341      280      243      211      190 
     195      221      252      287      329      378      441      531 
     652      787      924     1066     1224     1408     1618     1833 
    2038     2236     2430     2600     2740     2867     2982     3059 
    3098     3123     3122     3078     2997     2882     2737     2589 
    2446     2297     2135     1956     1763     1574     1410     1281 
    1183     1104     1032      954      872      803      747      699 
     670      660      664      685      707      707      681      660 
     676      727      800      885      957     1005     1054     1113 
    1173     1229     1277     1308     1340     1382     1414     1437 
    1470     1507     1520     1505     1476     1439     1386     1328 
    1274     1219     1156     1096     1034      976      942      946 
     972      993     1000     1007     1024     1059     1107     1140 
    1154     1173     1216     1285     1366     1437     1485     1526 
    1593     1695     1815     1948     2092     2250     2421     2597 
    2759     2894     2987     3057     3134     3225     3308     3365 
    3389     3392     3375     3343     3319     3300     3271     3227 
    3176     3103     3007     2909     2802     2681     2566     2463 
    2361     2251     2119     1956     1788     1651     1532     1412 
    1283     1156     1026      880      741      619      514      438 
     392      360      330      310      302      280      243      210 
     205      230      292      382      464      526      580      631 
     662      670      665      652      633      616      587      533 
     457      364      247      110      -29     -171     -321     -471 
    -615     -749     -847     -891     -888     -861     -826     -804 
    -792     -772     -745     -700     -621     -504     -368     -226 
     -94       10       85      144      198      261      340      421 
     490      538      569      588      610      642      692      741 
     770      788      816      846      870      909      982     1081 
    1201     1333     1468     1607     1761     1931     2110     2297 
    2492     2675     2853     3045     3241     3423     3586     3721 
    3808     3839     3831     3796     3743     3696     3669     3645 
    3596     3512     3393     3248     3094     2941     2786     2627 
    2482     2359     2230     2069     1883     1684     1478     1263 
    1030      787      548      318      109      -67     -218     -360 
    -515     -679     -827     -945    -1032    -1094    -1128    -1135 
   -1123    -1085    -1026     -967     -926     -886     -834     -770 
    -699     -618     -534     -442     -324     -186      -51       81 
     225      382      541      693      849     1004     1163     1331 
    1501     1663     1810     1948     2081     2212     2338     2458 
    2578     2694     2798     2872     2918     2955     2987     3009 
    3022     3034     3040     3037     3036     3034     3022     3005 
    2987     2968     2953     2949     2956     2964     2968     2960 
    2932     2887     2836     2786     2745     2721     2722     2740 
    2760     2776     2775     2743     2674     2577     2455     2324 
    2205     2106     2018     1934     1836     1730     1630     1529 
    1437     1374     1340     1335     1347     1362     1366     1364 
    1367     1359     1328     1279     1229     1178     1128     1084 
    1042     1009      996      996      989      958      903      834 
     768      718      697      696      702      706      703      687 
     654      604      530      444      363      282      184       71 
     -52     -182     -311     -430     -522     -585     -637     -680 
    -720     -766     -811     -841     -850     -834     -805     -772 
    -735     -706     -675     -618     -538     -461     -399     -352 
    -311     -244     -132        8      170      333      473      598 
     722      854      997     1147     1290     1425     1547     1641 
    1722     1810     1890     1942     1979     1993     1981     1964 
    1949     1930     1907     1883     1857     1830     1809     1799 
    1777     1737     1698     1664     1626     1593     1566     1539 
    1507     1482     1466     1455     1452     1479     1524     1568 
    1615     1664     1721     1799     1887     1966     2035     2096 
    2151     2207     2258     2300     2357     2432     2517     2608 
    2690     2751     2772     2754     2712     2662     2619     2592 
    2577     2558     2520     2459     2378     2289     2205     2122 
    2035     1953     1869     1769     1657     1544     1425     1310 
    1209     1123     1043      958      877      812      757      712 
     685      669      657      658      672      695      743      818 
     882      930      980     1035     1088     1144     1213     1290 
    1362     1421     1476     1529     1578     1628     1675     1715 
    1757     1800     1831     1834     1811     1767     1711     1663 
    1634     1613     1587     1567     1537     1483     1429     1386 
