Origin Time       2025/01/13 21:19:00
Lat.              31.8
Long.             131.6
Depth. (km)       30
Mag.              6.9
Station Code      KOC017
Station Lat.      33.7844
Station Long.     133.7298
Station Height(m) 228
Record Time       2025/01/13 21:21:05
Sampling Freq(Hz) 100Hz
Duration Time(s)  60
Dir.              E-W
Scale Factor      7845(gal)/8223790
Max. Acc. (gal)   1.134
Last Correction   2025/01/13 21:21:05
Memo.             
[...]
    5979     5996     6022     6049     6080     6114     6150     6188 
    6215     6228     6227     6212     6207     6222     6232     6230 
    6239     6264     6276     6270     6259     6251     6251     6259 
    6259     6258     6261     6257     6234     6205     6189     6183 
    6172     6161     6160     6170     6183     6183     6170     6161 
    6160     6157     6154     6160     6174     6192     6215     6249 
    6281     6319     6381     6451     6501     6539     6579     6625 
    6658     6663     6659     6651     6627     6581     6516     6455 
    6408     6358     6299     6238     6165     6080     6010     5961 
    5918     5902     5917     5944     5989     6060     6138     6215 
    6286     6346     6384     6397     6404     6421     6448     6475 
    6507     6551     6612     6664     6683     6673     6656     6651 
    6646     6628     6593     6544     6492     6438     6385     6339 
    6299     6272     6270     6274     6274     6285     6305     6327 
    6359     6393     6408     6413     6432     6461     6489     6513 
    6529     6551     6589     6627     6636     6620     6590     6570 
    6562     6547     6525     6501     6471     6439     6408     6367 
    6309     6239     6176     6138     6114     6083     6041     6000 
    5980     5988     6000     5995     5972     5941     5906     5868 
    5840     5833     5838     5850     5876     5913     5949     5988 
    6037     6088     6138     6193     6262     6330     6372     6405 
    6443     6466     6465     6473     6509     6550     6567     6562 
    6556     6552     6539     6523     6509     6497     6493     6502 
    6498     6470     6444     6435     6420     6405     6407     6424 
    6444     6457     6466     6474     6475     6471     6459     6432 
    6399     6372     6350     6328     6307     6277     6247     6230 
    6214     6189     6170     6164     6169     6193     6232     6261 
    6269     6278     6301     6338     6374     6400     6412     6408 
    6400     6400     6409     6420     6431     6446     6450     6435 
    6408     6365     6308     6251     6192     6129     6062     5988 
    5919     5868     5818     5772     5742     5724     5713     5705 
    5690     5664     5633     5602     5576     5560     5564     5590 
    5638     5702     5775     5856     5925     5962     5981     5998 
    5999     5995     6010     6043     6085     6138     6193     6232 
    6254     6264     6268     6278     6301     6335     6370     6396 
    6408     6400     6373     6332     6286     6245     6203     6156 
    6103     6068     6043     6018     6002     6003     6014     6030 
    6053     6075     6097     6133     6177     6226     6285     6349 
    6407     6454     6493     6534     6574     6606     6624     6631 
    6631     6621     6598     6559     6511     6462     6419     6384 
    6354     6320     6285     6247     6211     6191     6185     6189 
    6211     6239     6269     6311     6353     6378     6396     6405 
    6401     6393     6378     6350     6328     6328     6342     6359 
    6376     6385     6393     6407     6420     6423     6415     6404 
    6388     6372     6355     6343     6336     6334     6335     6342 
    6342     6334     6322     6301     6278     6254     6216     6168 
    6110     6048     5983     5918     5864     5825     5784     5737 
    5699     5679     5671     5672     5683     5705     5741     5787 
    5837     5881     5926     5984     6045     6097     6154     6211 
    6268     6323     6373     6401     6408     6401     6390     6376 
    6357     6340     6342     6355     6372     6396     6428     6458 
    6482     6515     6562     6623     6682     6740     6805     6879 
    6953     7018     7063     7083     7096     7105     7098     7076 
    7049     7015     6974     6921     6870     6822     6771     6721 
    6674     6624     6577     6536     6497     6455     6415     6384 
    6346     6304     6276     6258     6232     6212     6200     6187 
    6169     6145     6115     6080     6042     6004     5969     5926 
    5873     5834     5815     5810     5807     5814     5832     5860 
    5902     5940     5960     5972     5984     5999     6014     6025 
    6041     6064     6081     6085     6088     6097     6111     6122 
    6131     6138     6120     6075     6015     5953     5894     5844 
    5798     5763     5740     5715     5692     5674     5661     5652 
    5643     5647     5668     5695     5721     5737     5753     5788 
    5846     5925     6003     6072     6149     6242     6328     6399 
    6461     6517     6566     6608     6646     6679     6714     6748 
    6778     6799     6818     6844     6862     6859     6845     6832 
    6817     6805     6793     6777     6758     6740     6716     6685 
    6655     6631     6604     6562     6507     6446     6386     6335 
    6309     6319     6351     6384     6400     6404     6407     6412 
    6424     6444     6458     6455     6455     6470     6486     6486 
    6481     6490     6516     6535     6532     6511     6484     6463 
    6451     6431     6399     6369     6342     6318     6307     6297 
    6272     6234     6201     6184     6185     6187     6169     6137 
    6103     6070     6050     6038     6022     6000     5979     5950 
    5914     5865     5813     5773     5749     5729     5710     5692 
    5680     5691     5724     5760     5792     5815     5827     5838 
    5850     5861     5886     5918     5946     5979     6010     6025 
    6034     6056     6079     6099     6119     6134     6154     6188 
    6222     6255     6284     6304     6338     6386     6430     6463 
    6500     6539     6571     6597     6617     6631     6643     6663 
    6686     6701     6713     6725     6731     6729     6710     6681 
    6663     6659     6655     6650     6647     6640     6629     6636 
    6656     6669     6681     6706     6745     6791     6836     6878 
    6918     6951     6972     6994     7017     7030     7036     7034 
    7032     7025     7006     6974     6936     6897     6851     6790 
    6708     6623     6554     6493     6431     6370     6318     6265 
    6210     6151     6089     6026     5962     5910     5865     5815 
    5769     5748     5734     5718     5697     5672     5651     5628 
    5605     5591     5582     5566     5545     5537     5541     5547 
    5553     5559     5567     5584     5610     5633     5651     5670 
    5697     5719     5729     5733     5748     5767     5780     5788 
    5792     5799     5817     5842     5877     5923     5987     6061 
    6129     6183     6241     6297     6353     6412     6467     6511 
    6554     6596     6632     6664     6698     6724     6731     6732 
    6737     6733     6714     6687     6658     6633     6616     6593 
    6573     6559     6538     6515     6502     6486     6463     6440 
    6412     6374     6334     6291     6253     6228     6205     6183 
    6162     6143     6135     6139     6145     6143     6137     6127 
    6116     6106     6089     6066     6042     6018     5996     5995 
    6011     6035     6064     6092     6120     6150     6176     6195 
    6204     6204     6204     6204     6212     6231     6255     6281 
    6303     6316     6322     6323     6311     6288     6262     6230 
    6184     6137     6091     6043     6003     5968     5933     5890 
    5844     5796     5742     5678     5622     5587     5562     5552 
    5559     5564     5571     5591     5620     5659     5719     5792 
    5865     5937     6004     6061     6119     6196     6295     6405 
    6524     6643     6759     6875     6982     7057     7099     7126 
    7156     7177     7180     7171     7153     7121     7083     7052 
    7022     6990     6960     6936     6910     6879     6835     6785 
    6741     6704     6660     6609     6561     6517     6471     6417 
    6359     6305     6264     6228     6201     6193     6201     6212 
    6218     6214     6197     6176     6150     6112     6073     6050 
    6026     5988     5958     5941     5922     5910     5913     5927 
    5946     5962     5975     5987     5988     5981     5984     5989 
    5983     5971     5971     5980     5981     5971     5954     5935 
    5923     5927     5942     5962     5989     6021     6057     6099 
    6147     6204     6270     6339     6407     6469     6529     6594 
    6662     6721     6777     6837     6895     6933     6952     6961 
    6956     6929     6890     6847     6793     6729     6656     6578 
    6509     6450     6390     6330     6280     6245     6211     6165 
    6110     6057     6010     5973     5957     5956     5969     5995 
    6025     6060     6115     6195     6288     6382     6477     6574 
    6664     6748     6828     6902     6967     7011     7021     7002 
    6971     6937     6894     6840     6777     6709     6623     6519 
    6413     6307     6199     6096     6007     5930     5863     5802 
    5756     5726     5707     5697     5688     5687     5695     5706 
    5718     5737     5763     5790     5817     5844     5877     5917 
    5946     5950     5945     5952     5954     5946     5937     5919 
    5898     5887     5892     5906     5921     5929     5941     5969 
    6012     6064     6127     6208     6296     6388     6480     6554 
    6609     6655     6693     6725     6752     6782     6818     6851 
    6875     6893     6902     6912     6918     6918     6910     6893 
    6858     6806     6750     6698     6647     6586     6517     6436 
    6338     6230     6126     6038     5964     5895     5826     5763 
    5703     5651     5614     5594     5583     5589     5603     5621 
    5645     5668     5688     5710     5730     5759     5807     5861 
    5908     5950     5989     6021     6043     6064     6077     6084 
    6081     6069     6060     6052     6031     6007     5992     5983 
    5976     5981     6000     6025     6053     6087     6122     6158 
    6195     6226     6266     6323     6393     6462     6524     6583 
    6640     6702     6772     6836     6885     6925     6957     6975 
    6984     6990     6990     6987     6986     6980     6968     6956 
    6941     6928     6914     6894     6863     6822     6778     6727 
    6674     6621     6569     6509     6442     6374     6305     6223 
    6135     6057     5983     5915     5853     5795     5744     5701 
    5656     5614     5576     5548     5536     5539     5557     5598 
    5668     5757     5861     5975     6081     6181     6282     6378 
    6465     6546     6619     6686     6755     6821     6876     6928 
    6974     7003     7022     7038     7045     7036     7015     6987 
    6948     6890     6825     6760     6694     6631     6574     6520 
    6463     6411     6372     6339     6305     6282     6270     6258 
    6250     6243     6239     6239     6243     6241     6227     6205 
    6177     6149     6131     6131     6139     6156     6183     6214 
    6247     6288     6328     6357     6376     6388     6405     6427 
    6448     6457     6454     6453     6451     6431     6396     6354 
    6297     6224     6145     6056     5960     5861     5761     5661 
    5564     5481     5418     5375     5352     5356     5381     5416 
    5454     5497     5543     5579     5614     5663     5724     5787 
    5846     5898     5946     5992     6033     6061     6083     6104 
    6122     6139     6157     6178     6215     6272     6335     6388 
    6428     6473     6524     6570     6610     6651     6677     6686 
    6687     6682     6673     6662     6646     6619     6574     6513 
    6436     6351     6265     6170     6065     5965     5880     5813 
    5764     5732     5713     5713     5721     5742     5787     5846 
    5918     6006     6095     6181     6273     6373     6477     6571 
    6643     6696     6735     6764     6777     6774     6770     6766 
    6762     6752     6737     6720     6698     6667     6635     6606 
    6585     6566     6546     6515     6482     6459     6438     6415 
    6396     6378     6358     6326     6277     6220     6168     6120 
    6070     6019     5983     5961     5944     5933     5926     5925 
    5937     5957     5976     5994     6007     6019     6038     6070 
    6110     6147     6177     6207     6235     6269     6319     6374 
    6427     6477     6519     6550     6575     6592     6594     6590 
    6581     6574     6573     6567     6559     6556     6563     6573 
    6575     6575     6577     6571     6561     6534     6493     6447 
    6400     6362     6334     6299     6259     6228     6210     6200 
    6203     6208     6215     6228     6239     6237     6224     6205 
    6180     6156     6129     6091     6048     6000     5950     5903 
    5844     5771     5699     5633     5557     5478     5409     5351 
    5298     5259     5238     5228     5232     5251     5279     5317 
    5367     5428     5506     5601     5694     5773     5840     5898 
    5962     6027     6085     6134     6183     6238     6296     6351 
    6401     6436     6455     6465     6474     6480     6478     6470 
    6465     6461     6465     6488     6521     6561     6610     6666 
    6725     6795     6858     6910     6970     7037     7102     7164 
    7226     7285     7337     7375     7403     7429     7446     7457 
    7466     7473     7469     7453     7426     7383     7323     7249 
    7169     7095     7021     6945     6864     6781     6701     6625 
    6552     6484     6413     6345     6289     6241     6195     6150 
    6107     6075     6058     6054     6053     6056     6064     6079 
    6099     6129     6161     6188     6207     6218     6228     6239 
    6238     6232     6238     6251     6266     6282     6296     6312 
    6331     6346     6357     6372     6393     6412     6424     6432 
    6447     6461     6470     6481     6492     6501     6508     6512 
    6513     6507     6484     6447     6407     6367     6323     6276 
    6228     6178     6135     6100     6068     6033     5999     5961 
    5915     5869     5837     5817     5813     5822     5836     5849 
    5868     5890     5910     5931     5950     5971     5996     6029 
    6064     6103     6149     6197     6253     6315     6380     6438 
    6492     6547     6596     6644     6696     6743     6777     6804 
    6813     6806     6790     6763     6727     6682     6623     6554 
    6486     6420     6349     6278     6210     6139     6072     6004 
    5933     5854     5772     5695     5628     5574     5533     5493 
    5452     5420     5398     5397     5413     5431     5456     5497 
    5544     5594     5648     5707     5773     5848     5927     6006 
    6073     6126     6173     6216     6249     6276     6293     6295 
    6285     6276     6269     6262     6265     6268     6265     6268 
    6282     6295     6303     6308     6311     6309     6307     6308 
    6320     6347     6384     6423     6458     6484     6502     6525 
    6555     6592     6639     6687     6732     6775     6818     6864 
    6914     6957     6999     7048     7091     7126     7167     7207 
    7236     7265     7298     7317     7322     7312     7287     7250 
    7204     7153     7101     7045     6993     6940     6882     6820 
    6751     6675     6600     6527     6453     6393     6346     6299 
    6257     6216     6180     6143     6104     6061     6015     5973 
    5946     5921     5886     5844     5796     5753     5714     5665 
    5618     5578     5541     5509     5475     5448     5421     5382 
    5341     5309     5287     5281     5286     5290     5298     5314 
    5332     5354     5389     5432     5474     5528     5587     5636 
    5682     5729     5778     5833     5895     5964     6035     6100 
    6164     6228     6286     6345     6412     6484     6552     6617 
    6675     6725     6771     6818     6868     6909     6944     6975 
    6998     7017     7030     7036     7038     7041     7034     7021 
    6999     6971     6939     6909     6871     6826     6777     6717 
    6650     6583     6524     6469     6416     6372     6328     6278 
    6226     6177     6131     6085     6050     6030     6012     6000 
    5998     5998     6004     6014     6029     6048     6064     6081 
    6100     6123     6154     6191     6231     6268     6297     6327 
    6354     6376     6396     6407     6411     6413     6409     6403 
    6396     6385     6366     6339     6308     6281     6257     6235 
    6214     6188     6165     6153     6147     6145     6141     6137 
    6142     6153     6161     6168     6170     6166     6164     6169 
    6181     6197     6211     6226     6243     6258     6270     6286 
    6308     6323     6330     6343     6362     6388     6421     6455 
    6489     6521     6547     6574     6598     6616     6632     6652 
    6670     6677     6678     6678     6673     6656     6637     6612 
    6577     6540     6511     6485     6462     6448     6443     6442 
    6442     6443     6443     6443     6450     6458     6467     6475 
    6481     6485     6490     6493     6500     6508     6517     6528 
    6536     6543     6551     6558     6563     6570     6578     6583 
    6588     6596     6600     6598     6597     6594     6588     6583 
    6582     6581     6578     6575     6573     6565     6554     6539 
    6515     6482     6450     6417     6385     6351     6323     6295 
    6261     6227     6203     6183     6158     6137     6124     6119 
    6116     6112     6103     6096     6095     6096     6104     6120 
    6139     6157     6172     6195     6223     6245     6254     6254 
    6257     6261     6261     6264     6265     6266     6268     6272 
    6276     6274     6265     6250     6227     6195     6162     6131 
    6099     6069     6042     6012     5977     5941     5907     5877 
    5854     5841     5840     5849     5869     5906     5952     5998 
    6041     6085     6134     6195     6265     6334     6396     6457 
    6508     6546     6578     6613     6650     6689     6728     6763 
    6790     6809     6818     6818     6812     6795     6767     6735 
    6705     6673     6640     6616     6598     6578     6551     6523 
    6496     6467     6440     6416     6396     6386     6378     6357 
    6327     6299     6274     6249     6227     6207     6177     6143 
    6112     6080     6037     5994     5952     5900     5844     5799 
    5769     5744     5722     5713     5715     5729     5742     5759 
    5786     5818     5849     5880     5915     5961     6010     6046 
    6076     6107     6133     6157     6176     6188     6195     6197 
    6195     6188     6176     6165     6161     6164     6168     6178 
    6192     6201     6216     6235     6247     6265     6293     6316 
    6326     6334     6346     6361     6372     6384     6411     6448 
    6488     6528     6569     6608     6643     6669     6686     6702 
    6712     6713     6712     6710     6706     6704     6698     6681 
    6656     6628     6598     6570     6544     6520     6502     6488 
    6474     6459     6431     6394     6362     6335     6305     6280 
