Origin Time       2025/01/13 21:19:00
Lat.              31.8
Long.             131.6
Depth. (km)       30
Mag.              6.9
Station Code      KOC010
Station Lat.      33.3929
Station Long.     133.2852
Station Height(m) 2
Record Time       2025/01/13 21:20:36
Sampling Freq(Hz) 100Hz
Duration Time(s)  68
Dir.              N-S
Scale Factor      7845(gal)/8223790
Max. Acc. (gal)   2.110
Last Correction   2025/01/13 21:20:37
Memo.             
[...]
   -7970    -8384    -8667    -8654    -8552    -8548    -8548    -8356 
   -7955    -7535    -7284    -7223    -7227    -7176    -7155    -7362 
   -7759    -8095    -8239    -8220    -8116    -7983    -7823    -7669 
   -7588    -7531    -7442    -7344    -7240    -7144    -7157    -7323 
   -7558    -7749    -7847    -7877    -7870    -7816    -7697    -7492 
   -7203    -6944    -6897    -7128    -7541    -7915    -8033    -7979 
   -8027    -8194    -8297    -8241    -8032    -7750    -7524    -7420 
   -7465    -7665    -7983    -8340    -8591    -8654    -8608    -8522 
   -8336    -8025    -7704    -7497    -7385    -7308    -7371    -7655 
   -7983    -8174    -8252    -8232    -8037    -7728    -7481    -7352 
   -7230    -7069    -6976    -7059    -7250    -7418    -7538    -7655 
   -7790    -7888    -7886    -7793    -7620    -7389    -7219    -7199 
   -7291    -7442    -7649    -7851    -7916    -7808    -7657    -7558 
   -7499    -7431    -7291    -7102    -7025    -7177    -7503    -7830 
   -8002    -7956    -7727    -7450    -7314    -7418    -7653    -7789 
   -7738    -7603    -7472    -7365    -7284    -7218    -7211    -7284 
   -7420    -7647    -7901    -8036    -8058    -8032    -7936    -7767 
   -7609    -7500    -7372    -7144    -6859    -6590    -6396    -6471 
   -6948    -7657    -8399    -9032    -9325    -9216    -8950    -8696 
   -8310    -7678    -7052    -6802    -6941    -7199    -7462    -7765 
   -8017    -8117    -8158    -8287    -8483    -8590    -8542    -8440 
   -8370    -8282    -8095    -7821    -7520    -7269    -7136    -7034 
   -6889    -6903    -7291    -7885    -8320    -8442    -8392    -8336 
   -8247    -8025    -7730    -7547    -7574    -7744    -7960    -8145 
   -8179    -8014    -7836    -7807    -7823    -7761    -7612    -7414 
   -7295    -7425    -7784    -8114    -8220    -8181    -8100    -7862 
   -7423    -7032    -6956    -7145    -7321    -7353    -7346    -7423 
   -7612    -7828    -8012    -8214    -8444    -8575    -8487    -8191 
   -7843    -7674    -7789    -8008    -8110    -8114    -8062    -7843 
   -7474    -7172    -7047    -7029    -7099    -7314    -7596    -7750 
   -7743    -7726    -7769    -7804    -7735    -7487    -7103    -6758 
   -6629    -6793    -7175    -7566    -7769    -7771    -7697    -7630 
   -7580    -7530    -7441    -7298    -7161    -7141    -7264    -7445 
   -7605    -7744    -7863    -7939    -7998    -8089    -8183    -8213 
   -8181    -8154    -8168    -8216    -8221    -8058    -7703    -7339 
   -7207    -7348    -7557    -7669    -7713    -7773    -7894    -8067 
   -8193    -8175    -8009    -7742    -7466    -7311    -7377    -7639 
   -7935    -8118    -8216    -8305    -8259    -7874    -7275    -6851 
   -6771    -6891    -7076    -7338    -7650    -7932    -8190    -8383 
   -8370    -8109    -7754    -7469    -7296    -7211    -7177    -7084 
   -6937    -6976    -7331    -7859    -8387    -8785    -8947    -8870 
   -8675    -8444    -8176    -7851    -7488    -7155    -6880    -6636 
   -6459    -6455    -6652    -6994    -7380    -7643    -7653    -7508 
   -7426    -7419    -7410    -7445    -7554    -7684    -7816    -7912 
   -7901    -7736    -7449    -7225    -7233    -7433    -7669    -7792 
   -7719    -7508    -7325    -7318    -7481    -7636    -7678    -7662 
   -7646    -7655    -7665    -7593    -7449    -7321    -7227    -7126 
   -7051    -7078    -7240    -7503    -7724    -7785    -7763    -7774 
   -7761    -7669    -7620    -7680    -7717    -7632    -7456    -7238 
   -7041    -6974    -7060    -7207    -7368    -7543    -7690    -7758 
   -7765    -7786    -7851    -7917    -7950    -7915    -7807    -7715 
   -7678    -7646    -7604    -7596    -7646    -7747    -7855    -7869 
   -7731    -7537    -7507    -7762    -8145    -8410    -8503    -8472 
   -8324    -8155    -8133    -8290    -8467    -8484    -8340    -8124 
   -7855    -7597    -7430    -7292    -7159    -7168    -7381    -7677 
   -7933    -8093    -8120    -8041    -7932    -7884    -7889    -7804 
   -7554    -7272    -7074    -6964    -6982    -7157    -7364    -7426 
   -7383    -7445    -7663    -7867    -7947    -7948    -7925    -7916 
   -7906    -7811    -7618    -7429    -7277    -7140    -6993    -6817 
   -6656    -6640    -6839    -7153    -7450    -7744    -8073    -8370 
   -8649    -8931    -9008    -8730    -8294    -7939    -7728    -7663 
   -7690    -7726    -7753    -7800    -7923    -8228    -8689    -9050 
   -9103    -8869    -8434    -7888    -7422    -7223    -7273    -7391 
   -7469    -7524    -7580    -7642    -7719    -7785    -7777    -7658 
   -7500    -7422    -7460    -7588    -7789    -7992    -8095    -8120 
   -8164    -8235    -8233    -8104    -7855    -7534    -7283    -7292 
   -7593    -7987    -8209    -8220    -8230    -8322    -8359    -8284 
   -8191    -8147    -8147    -8190    -8228    -8218    -8251    -8405 
   -8594    -8672    -8563    -8330    -8118    -8008    -8002    -8058 
   -8156    -8278    -8310    -8189    -7981    -7743    -7553    -7535 
   -7680    -7840    -7927    -7950    -7931    -7875    -7821    -7824 
   -7898    -8001    -8071    -8091    -8085    -8077    -8091    -8122 
   -8131    -8085    -7993    -7866    -7711    -7572    -7500    -7504 
   -7547    -7576    -7634    -7827    -8147    -8463    -8618    -8552 
   -8340    -8101    -7896    -7695    -7450    -7182    -6966    -6872 
   -6964    -7246    -7587    -7842    -7947    -7884    -7753    -7704 
   -7743    -7794    -7861    -8004    -8216    -8407    -8534    -8650 
   -8730    -8645    -8394    -8132    -7973    -7877    -7796    -7754 
   -7746    -7663    -7452    -7227    -7137    -7183    -7279    -7357 
   -7408    -7423    -7388    -7372    -7462    -7623    -7701    -7601 
   -7384    -7132    -6860    -6643    -6608    -6760    -7029    -7354 
   -7651    -7808    -7776    -7618    -7420    -7209    -7014    -6906 
   -6887    -6948    -7145    -7516    -7989    -8378    -8487    -8321 
   -8014    -7654    -7284    -6924    -6596    -6404    -6442    -6642 
   -6868    -7041    -7129    -7129    -7068    -6999    -6968    -6957 
   -6912    -6878    -6930    -7036    -7086    -6998    -6809    -6669 
   -6685    -6781    -6806    -6747    -6754    -6940    -7261    -7620 
   -7894    -7966    -7832    -7588    -7361    -7279    -7395    -7639 
   -7896    -8094    -8251    -8409    -8517    -8486    -8320    -8118 
   -7983    -7936    -7916    -7878    -7828    -7785    -7773    -7823 
   -7939    -8079    -8114    -7921    -7572    -7260    -7078    -6984 
   -6903    -6849    -6916    -7084    -7263    -7443    -7639    -7863 
   -8112    -8283    -8307    -8271    -8316    -8495    -8707    -8780 
   -8687    -8544    -8407    -8210    -7862    -7404    -7049    -7014 
   -7327    -7828    -8306    -8662    -8945    -9243    -9525    -9579 
   -9246    -8635    -7973    -7437    -7144    -7102    -7241    -7483 
   -7723    -7915    -8083    -8198    -8170    -7987    -7738    -7535 
   -7458    -7503    -7574    -7534    -7350    -7172    -7186    -7419 
   -7770    -8127    -8401    -8576    -8698    -8797    -8860    -8816 
   -8648    -8442    -8284    -8189    -8131    -8060    -7971    -7873 
   -7723    -7519    -7338    -7279    -7376    -7580    -7776    -7888 
   -7970    -8078    -8133    -8075    -7946    -7788    -7609    -7410 
   -7180    -6960    -6833    -6844    -6975    -7213    -7555    -7981 
   -8446    -8842    -9013    -8924    -8660    -8345    -8071    -7852 
   -7685    -7604    -7580    -7526    -7442    -7379    -7402    -7535 
   -7697    -7790    -7784    -7653    -7419    -7172    -7005    -6921 
   -6851    -6770    -6770    -6895    -7091    -7329    -7609    -7896 
   -8118    -8164    -8004    -7751    -7456    -7095    -6760    -6566 
   -6504    -6529    -6656    -6889    -7146    -7338    -7474    -7626 
   -7803    -7938    -7960    -7847    -7635    -7393    -7226    -7219 
   -7326    -7412    -7422    -7356    -7207    -7032    -6968    -7091 
   -7303    -7465    -7560    -7643    -7744    -7858    -7954    -8027 
   -8104    -8154    -8117    -7985    -7763    -7493    -7264    -7121 
   -7047    -7044    -7133    -7311    -7523    -7707    -7812    -7831 
   -7823    -7815    -7740    -7585    -7415    -7290    -7231    -7217 
   -7204    -7183    -7179    -7238    -7398    -7611    -7758    -7801 
   -7839    -7982    -8255    -8529    -8650    -8667    -8654    -8521 
   -8197    -7766    -7350    -7030    -6844    -6822    -6972    -7223 
   -7485    -7670    -7705    -7641    -7605    -7678    -7861    -8066 
   -8202    -8239    -8168    -8027    -7888    -7794    -7724    -7635 
   -7495    -7338    -7246    -7254    -7346    -7499    -7681    -7852 
   -7971    -7994    -7916    -7789    -7597    -7257    -6814    -6484 
   -6439    -6651    -6966    -7267    -7581    -7993    -8479    -8881 
   -9065    -9034    -8870    -8640    -8364    -8100    -7897    -7707 
   -7518    -7431    -7458    -7496    -7501    -7493    -7504    -7581 
   -7731    -7938    -8205    -8492    -8675    -8698    -8627    -8513 
   -8348    -8156    -7915    -7518    -6978    -6459    -6119    -6004 
   -6026    -6069    -6150    -6335    -6615    -6917    -7169    -7322 
   -7376    -7387    -7442    -7562    -7708    -7871    -8027    -8120 
   -8183    -8287    -8424    -8527    -8552    -8500    -8386    -8209 
   -8035    -7963    -8023    -8193    -8432    -8623    -8669    -8586 
   -8465    -8365    -8248    -8013    -7620    -7169    -6799    -6558 
   -6443    -6509    -6731    -6983    -7234    -7479    -7634    -7719 
   -7861    -8075    -8297    -8484    -8622    -8677    -8618    -8500 
   -8421    -8356    -8229    -8050    -7871    -7747    -7747    -7902 
   -8152    -8364    -8453    -8479    -8499    -8418    -8194    -7928 
   -7650    -7311    -6961    -6705    -6575    -6577    -6705    -6893 
   -7053    -7182    -7356    -7612    -7855    -7975    -7970    -7881 
   -7740    -7566    -7357    -7107    -6845    -6663    -6652    -6805 
   -7028    -7223    -7318    -7348    -7430    -7577    -7665    -7611 
   -7469    -7325    -7182    -7014    -6859    -6740    -6646    -6605 
   -6656    -6770    -6895    -6998    -7061    -7122    -7257    -7488 
   -7793    -8162    -8518    -8749    -8806    -8669    -8380    -8101 
   -7965    -7917    -7861    -7834    -7927    -8122    -8345    -8563 
   -8781    -8977    -9104    -9103    -8947    -8700    -8483    -8367 
   -8286    -8144    -7973    -7871    -7869    -7921    -7997    -8062 
   -8020    -7808    -7484    -7142    -6841    -6621    -6475    -6365 
   -6285    -6265    -6366    -6624    -6971    -7300    -7549    -7690 
   -7730    -7686    -7585    -7454    -7338    -7280    -7271    -7326 
   -7507    -7777    -8013    -8152    -8174    -8074    -7873    -7582 
   -7234    -6910    -6686    -6592    -6639    -6809    -7045    -7321 
   -7649    -7981    -8222    -8343    -8363    -8297    -8159    -7981 
   -7776    -7528    -7248    -7017    -6980    -7167    -7439    -7696 
   -7894    -7985    -8010    -8040    -8013    -7852    -7607    -7383 
   -7248    -7190    -7165    -7169    -7203    -7249    -7267    -7237 
   -7230    -7317    -7473    -7655    -7851    -8031    -8155    -8210 
   -8218    -8205    -8145    -8016    -7867    -7793    -7847    -8024 
   -8260    -8495    -8722    -8920    -9059    -9134    -9105    -8919 
   -8592    -8187    -7766    -7379    -7061    -6852    -6772    -6801 
   -6903    -7076    -7263    -7341    -7281    -7179    -7103    -7045 
   -7018    -7071    -7229    -7483    -7784    -8068    -8310    -8479 
   -8538    -8484    -8371    -8263    -8181    -8108    -8041    -7996 
   -7959    -7916    -7878    -7879    -7931    -7997    -8021    -7974 
   -7878    -7758    -7607    -7407    -7171    -6964    -6862    -6874 
   -6968    -7113    -7308    -7561    -7843    -8106    -8309    -8395 
   -8302    -8044    -7749    -7549    -7508    -7605    -7758    -7923 
   -8071    -8117    -8040    -7963    -7990    -8091    -8185    -8232 
   -8275    -8363    -8478    -8550    -8522    -8387    -8218    -8078 
   -7990    -7959    -7960    -7977    -8009    -8056    -8098    -8073 
   -7965    -7875    -7874    -7933    -7989    -8013    -8041    -8102 
   -8167    -8206    -8202    -8127    -7985    -7851    -7751    -7646 
   -7557    -7510    -7458    -7376    -7311    -7329    -7439    -7591 
   -7743    -7866    -7913    -7893    -7842    -7762    -7686    -7635 
   -7595    -7573    -7600    -7688    -7857    -8095    -8326    -8463 
   -8478    -8428    -8356    -8237    -8067    -7871    -7678    -7527 
   -7406    -7268    -7138    -7075    -7064    -7007    -6862    -6720 
   -6677    -6717    -6781    -6825    -6878    -7002    -7188    -7349 
   -7406    -7377    -7338    -7362    -7483    -7653    -7785    -7848 
   -7855    -7840    -7850    -7888    -7933    -7979    -7992    -7933 
   -7816    -7677    -7524    -7381    -7314    -7364    -7485    -7585 
   -7609    -7581    -7519    -7398    -7221    -7028    -6835    -6658 
   -6523    -6448    -6436    -6486    -6609    -6785    -6947    -7083 
   -7190    -7196    -7106    -7036    -7075    -7204    -7311    -7310 
   -7238    -7179    -7156    -7150    -7163    -7214    -7292    -7383 
   -7514    -7704    -7919    -8125    -8305    -8419    -8444    -8382 
   -8276    -8175    -8129    -8181    -8343    -8596    -8912    -9277 
   -9636    -9865    -9909    -9846    -9753    -9622    -9433    -9208 
   -9004    -8851    -8730    -8622    -8544    -8496    -8451    -8364 
   -8229    -8082    -7956    -7852    -7761    -7668    -7553    -7433 
   -7352    -7323    -7337    -7372    -7395    -7353    -7230    -7053 
   -6853    -6660    -6498    -6369    -6259    -6196    -6228    -6340 
   -6477    -6593    -6683    -6797    -6988    -7230    -7418    -7501 
   -7530    -7535    -7514    -7504    -7531    -7549    -7542    -7557 
   -7615    -7657    -7626    -7546    -7469    -7396    -7325    -7284 
   -7323    -7469    -7716    -8024    -8310    -8502    -8607    -8635 
   -8533    -8256    -7869    -7500    -7240    -7094    -7033    -7056 
   -7183    -7422    -7700    -7892    -7933    -7866    -7759    -7662 
   -7576    -7488    -7411    -7342    -7275    -7218    -7192    -7222 
   -7302    -7391    -7466    -7530    -7558    -7539    -7499    -7452 
   -7406    -7381    -7399    -7438    -7466    -7488    -7501    -7470 
   -7395    -7339    -7335    -7344    -7330    -7292    -7223    -7149 
   -7126    -7150    -7172    -7176    -7163    -7136    -7107    -7087 
   -7063    -7014    -6928    -6817    -6702    -6594    -6519    -6519 
   -6624    -6802    -6987    -7177    -7388    -7595    -7778    -7920 
   -8004    -8039    -8058    -8093    -8172    -8257    -8280    -8224 
   -8149    -8114    -8144    -8253    -8436    -8656    -8876    -9036 
   -9108    -9123    -9116    -9082    -9005    -8888    -8734    -8522 
   -8255    -7993    -7789    -7650    -7539    -7439    -7404    -7456 
   -7531    -7588    -7623    -7654    -7716    -7776    -7761    -7654 
   -7522    -7457    -7489    -7581    -7696    -7805    -7893    -7950 
   -7935    -7808    -7595    -7408    -7345    -7377    -7453    -7538 
   -7584    -7584    -7595    -7615    -7580    -7462    -7308    -7191 
   -7146    -7153    -7176    -7200    -7237    -7280    -7333    -7404 
   -7492    -7557    -7582    -7624    -7742    -7905    -8027    -8059 
   -8027    -7967    -7900    -7812    -7707    -7638    -7680    -7828 
   -8008    -8163    -8295    -8414    -8515    -8579    -8576    -8503 
   -8418    -8384    -8395    -8407    -8410    -8422    -8436    -8432 
   -8392    -8305    -8194    -8083    -7983    -7900    -7819    -7740 
   -7677    -7643    -7658    -7734    -7827    -7869    -7839    -7782 
   -7738    -7722    -7709    -7666    -7572    -7450    -7356    -7322 
   -7311    -7285    -7269    -7279    -7291    -7292    -7300    -7319 
   -7327    -7281    -7183    -7068    -6960    -6878    -6843    -6848 
   -6882    -6922    -6955    -6968    -6971    -6988    -7022    -7053 
   -7078    -7095    -7078    -7037    -7002    -6963    -6907    -6886 
   -6955    -7109    -7311    -7519    -7681    -7767    -7816    -7862 
   -7890    -7882    -7851    -7817    -7803    -7823    -7884    -7996 
   -8152    -8334    -8538    -8738    -8877    -8958    -9013    -9023 
   -9000    -8980    -8941    -8887    -8864    -8857    -8830    -8776 
   -8715    -8646    -8540    -8392    -8247    -8127    -8031    -7958 
   -7921    -7913    -7889    -7815    -7707    -7576    -7426    -7269 
   -7140    -7091    -7129    -7198    -7248    -7292    -7368    -7477 
   -7576    -7622    -7614    -7562    -7445    -7249    -7047    -6943 
   -6972    -7096    -7250    -7392    -7527    -7680    -7843    -7992 
   -8104    -8179    -8225    -8248    -8255    -8247    -8235    -8233 
   -8249    -8302    -8395    -8483    -8527    -8537    -8523    -8488 
   -8419    -8305    -8190    -8116    -8066    -8031    -8009    -7989 
   -7979    -7985    -8000    -8035    -8098    -8193    -8294    -8365 
   -8386    -8352    -8287    -8185    -8005    -7771    -7526    -7291 
   -7107    -7001    -6957    -6964    -6979    -6945    -6863    -6763 
   -6660    -6544    -6405    -6265    -6156    -6087    -6073    -6134 
   -6223    -6266    -6259    -6246    -6261    -6311    -6343    -6324 
   -6299    -6312    -6380    -6489    -6608    -6705    -6754    -6745 
   -6736    -6786    -6894    -7032    -7163    -7253    -7310    -7379 
   -7495    -7646    -7793    -7938    -8102    -8263    -8378    -8449 
   -8492    -8503    -8479    -8434    -8364    -8297    -8284    -8347 
   -8455    -8569    -8665    -8742    -8792    -8788    -8702    -8559 
   -8415    -8291    -8221    -8208    -8182    -8132    -8091    -8043 
   -7983    -7944    -7902    -7817    -7696    -7573    -7477    -7412 
   -7381    -7398    -7452    -7518    -7608    -7728    -7869    -8039 
   -8202    -8299    -8340    -8394    -8480    -8533    -8486    -8355 
   -8164    -7936    -7728    -7566    -7429    -7307    -7187    -7049 
   -6899    -6778    -6731    -6754    -6793    -6833    -6874    -6887 
   -6885    -6897    -6913    -6922    -6925    -6906    -6909    -6987 
   -7125    -7281    -7423    -7560    -7734    -7946    -8164    -8375 
   -8559    -8695    -8793    -8885    -8964    -9004    -9007    -9001 
   -8996    -8973    -8935    -8901    -8866    -8812    -8719    -8567 
   -8364    -8148    -7954    -7798    -7670    -7560    -7484    -7431 
   -7383    -7333    -7281    -7249    -7244    -7253    -7276    -7315 
   -7371    -7435    -7483    -7503    -7511    -7493    -7450    -7407 
   -7358    -7288    -7221    -7188    -7194    -7221    -7276    -7377 
   -7508    -7638    -7743    -7785    -7736    -7615    -7445    -7253 
   -7094    -7009    -7003    -7065    -7179    -7333    -7489    -7615 
   -7707    -7789    -7865    -7911    -7890    -7821    -7761    -7724 
   -7674    -7615    -7573    -7568    -7591    -7616    -7619    -7599 
   -7578    -7578    -7603    -7650    -7713    -7761    -7751    -7699 
   -7668    -7668    -7635    -7542    -7420    -7306    -7219    -7198 
   -7246    -7338    -7461    -7603    -7719    -7793    -7865    -7931 
