Origin Time       2025/01/13 21:19:00
Lat.              31.8
Long.             131.6
Depth. (km)       30
Mag.              6.9
Station Code      KOC014
Station Lat.      32.9897
Station Long.     132.9403
Station Height(m) 6
Record Time       2025/01/13 21:20:11
Sampling Freq(Hz) 100Hz
Duration Time(s)  147
Dir.              E-W
Scale Factor      7845(gal)/8223790
Max. Acc. (gal)   11.133
Last Correction   2025/01/13 21:20:11
Memo.             
[...]
     338     -175     -534     -643     -457      -13      631     1444 
    2397     3430     4482     5540     6620     7693     8700     9605 
   10457    11356    12325    13269    14057    14597    14881    14985 
   14953    14760    14380    13832    13216    12671    12267    11974 
   11739    11538    11361    11194    10997    10759    10521    10353 
   10318    10416    10574    10741    10909    11048    11102    10983 
   10642    10152     9628     9101     8549     7965     7362     6751 
    6143     5586     5148     4870     4725     4675     4691     4760 
    4891     5076     5274     5498     5798     6196     6678     7190 
    7678     8116     8492     8819     9135     9468     9811    10057 
   10099     9938     9675     9462     9406     9471     9533     9545 
    9603     9852    10354    11055    11836    12587    13251    13836 
   14382    14912    15387    15761    16001    16059    15903    15553 
   15032    14354    13590    12860    12228    11637    11028    10446 
    9973     9629     9358     9053     8625     8075     7481     6922 
    6409     5899     5395     4966     4633     4351     4045     3655 
    3211     2826     2585     2508     2562     2695     2898     3168 
    3477     3790     4090     4410     4815     5343     6006     6799 
    7695     8688     9741    10720    11510    12079    12421    12571 
   12636    12729    12942    13317    13807    14324    14847    15410 
   16074    16834    17598    18234    18623    18713    18574    18299 
   17874    17192    16213    15032    13818    12738    11851    11082 
   10291     9409     8496     7682     7041     6538     6102     5728 
    5459     5340     5377     5462     5410     5061     4357     3377 
    2301     1331      608      210      153      409      897     1579 
    2439     3368     4163     4666     4845     4753     4510     4261 
    4136     4209     4469     4851     5331     5954     6751     7642 
    8472     9131     9612     9919    10034     9999     9918     9910 
   10084    10519    11233    12166    13188    14183    15091    15866 
   16447    16795    16911    16842    16669    16478    16287    16073 
   15790    15400    14908    14361    13767    13109    12410    11705 
   11047    10494    10092     9848     9744     9741     9778     9811 
    9834     9826     9720     9458     9094     8769     8590     8614 
    8896     9420    10126    10957    11789    12413    12646    12429 
   11826    10967     9981     8954     7924     6895     5871     4891 
    3982     3127     2317     1574      951      515      297      294 
     522     1001     1750     2764     3975     5271     6550     7742 
    8769     9532     9988    10161    10099     9837     9364     8718 
    8017     7357     6771     6295     5967     5814     5838     5971 
    6124     6234     6242     6173     6153     6239     6412     6651 
    6925     7207     7510     7847     8199     8577     9099     9895 
   10959    12170    13382    14474    15369    16023    16403    16509 
   16339    15912    15311    14636    13965    13375    12931    12657 
   12532    12502    12494    12455    12367    12248    12144    12113 
   12218    12483    12869    13362    14007    14816    15703    16537 
   17207    17670    17955    18058    17907    17433    16609    15461 
   14065    12449    10638     8749     6906     5185     3608     2135 
     758     -454    -1391    -1961    -2196    -2218    -2139    -2004 
   -1776    -1429    -1017     -626     -286       17      297      541 
     734      876      999     1167     1468     1981     2717     3591 
    4486     5347     6143     6806     7303     7672     7966     8220 
    8469     8800     9316    10075    11043    12089    13061    13879 
   14561    15142    15634    15998    16195    16255    16268    16328 
   16494    16776    17146    17571    18027    18454    18786    19020 
   19182    19255    19160    18828    18239    17452    16591    15742 
   14953    14285    13710    13140    12548    11928    11275    10570 
    9788     8962     8190     7589     7199     6918     6628     6320 
    6077     5988     6031     6081     6075     6037     5971     5819 
    5537     5112     4580     4040     3562     3123     2717     2397 
    2220     2247     2497     2914     3381     3759     3952     3937 
    3742     3429     3090     2805     2660     2740     3110     3785 
    4746     5969     7398     8935    10467    11907    13223    14385 
   15340    16046    16480    16661    16660    16501    16173    15715 
   15172    14621    14161    13815    13541    13328    13209    13208 
   13290    13354    13269    12947    12347    11461    10330     9036 
    7677     6365     5259     4479     4043     3939     4140     4610 
    5324     6200     7086     7848     8430     8856     9159     9328 
    9315     9084     8638     8050     7422     6863     6423     6093 
    5872     5775     5803     5949     6216     6605     7110     7734 
    8434     9108     9668    10091    10350    10385    10142     9647 
    9007     8357     7798     7348     6994     6763     6655     6617 
    6616     6655     6736     6853     6961     6980     6843     6498 
    5948     5265     4573     3989     3600     3488     3682     4151 
    4842     5732     6804     8016     9277    10482    11554    12478 
   13263    13899    14395    14794    15126    15412    15673    15888 
   16011    16042    16035    16046    16098    16197    16332    16453 
   16486    16357    16011    15419    14625    13724    12780    11824 
   10887     9999     9177     8444     7865     7511     7415     7585 
    7993     8541     9101     9587     9983    10289    10503    10609 
   10563    10334     9919     9347     8675     7989     7366     6867 
    6508     6269     6122     6057     6056     6061     6026     5906 
    5672     5354     5011     4679     4356     4039     3754     3538 
    3427     3469     3703     4124     4696     5374     6106     6816 
    7445     7959     8360     8656     8856     8984     9061     9092 
    9127     9273     9563     9945    10368    10831    11326    11785 
   12128    12316    12374    12375    12356    12285    12129    11888 
   11566    11191    10789    10388     9977     9537     9047     8478 
    7800     7065     6384     5840     5451     5205     5082     5070 
    5150     5296     5470     5621     5691     5686     5633     5502 
    5283     5020     4760     4573     4533     4656     4934     5359 
    5919     6621     7484     8491     9614    10839    12131    13432 
   14681    15811    16802    17687    18457    19078    19537    19832 
   19962    19957    19869    19718    19491    19165    18739    18238 
   17689    17092    16422    15643    14710    13601    12351    11006 
    9614     8267     7074     6095     5347     4854     4638     4652 
    4784     4922     4997     5003     4943     4787     4506     4085 
    3538     2955     2430     2010     1718     1557     1541     1686 
    1987     2423     2943     3488     4024     4536     5013     5460 
    5877     6258     6601     6929     7231     7443     7506     7430 
    7303     7248     7349     7631     8078     8646     9308    10072 
   10929    11786    12530    13105    13501    13729    13840    13894 
   13941    13995    14042    14077    14108    14154    14246    14413 
   14675    15024    15414    15801    16132    16340    16393    16282 
   16000    15549    14948    14223    13408    12529    11624    10773 
   10048     9455     8961     8525     8112     7693     7275     6886 
    6573     6372     6269     6211     6158     6093     6027     5980 
    5956     5925     5856     5730     5555     5351     5123     4882 
    4680     4583     4618     4765     4997     5283     5584     5861 
    6095     6258     6328     6326     6278     6203     6130     6083 
    6079     6161     6385     6772     7326     8046     8891     9763 
   10542    11137    11519    11719    11799    11793    11711    11547 
   11314    11037    10733    10384     9963     9499     9059     8675 
    8340     8047     7808     7661     7616     7650     7736     7847 
    7969     8131     8379     8711     9067     9351     9512     9580 
    9616     9622     9585     9510     9440     9429     9525     9756 
   10114    10539    10962    11349    11661    11835    11846    11723 
   11497    11191    10827    10439    10068     9747     9485     9267 
    9080     8937     8846     8777     8679     8527     8328     8097 
    7896     7794     7821     7952     8155     8378     8569     8710 
    8802     8857     8881     8853     8754     8603     8417     8202 
    7965     7716     7477     7276     7145     7088     7109     7213 
    7393     7627     7892     8171     8440     8702     8982     9267 
    9541     9815    10095    10362    10600    10797    10945    11072 
   11206    11353    11515    11691    11862    12029    12194    12340 
   12437    12429    12260    11934    11484    10967    10440     9926 
    9416     8888     8330     7784     7326     7017     6841     6754 
    6745     6856     7123     7549     8070     8581     9003     9302 
    9459     9436     9244     8947     8604     8253     7923     7642 
    7412     7214     7030     6844     6636     6384     6065     5697 
    5306     4912     4541     4221     3967     3802     3734     3753 
    3865     4086     4429     4891     5448     6069     6736     7434 
    8139     8835     9499    10098    10604    11024    11384    11707 
   12008    12285    12526    12734    12930    13124    13321    13545 
   13825    14146    14492    14875    15291    15707    16066    16312 
   16407    16352    16162    15855    15434    14912    14332    13771 
   13302    12958    12692    12468    12268    12063    11820    11539 
   11202    10764    10210     9572     8919     8317     7807     7381 
    7024     6706     6428     6212     6052     5903     5761     5626 
    5471     5296     5125     4968     4819     4676     4513     4307 
    4075     3842     3604     3337     3034     2725     2448     2239 
    2127     2123     2215     2385     2598     2828     3065     3279 
    3437     3564     3713     3959     4348     4850     5436     6099 
    6847     7680     8568     9471    10362    11214    11994    12694 
   13323    13879    14369    14814    15228    15600    15934    16235 
   16498    16726    16934    17120    17270    17388    17505    17621 
   17705    17722    17648    17463    17169    16762    16233    15584 
   14850    14053    13220    12394    11610    10918    10376     9983 
    9698     9470     9232     8947     8618     8243     7815     7337 
    6809     6210     5544     4897     4379     4082     4043     4206 
    4484     4819     5161     5455     5667     5783     5782     5644 
    5379     5007     4560     4102     3715     3456     3353     3385 
    3507     3689     3931     4237     4598     4993     5398     5802 
    6214     6656     7113     7550     7969     8388     8811     9228 
    9649    10092    10582    11136    11738    12334    12854    13259 
   13548    13711    13755    13687    13516    13252    12928    12594 
   12279    12009    11811    11677    11581    11522    11495    11460 
   11385    11259    11071    10832    10543    10201     9822     9421 
    9013     8611     8208     7813     7441     7090     6791     6574 
    6417     6284     6173     6075     5971     5859     5749     5652 
    5575     5540     5579     5706     5913     6180     6497     6868 
    7310     7828     8398     8985     9548    10071    10562    11045 
   11520    11967    12364    12711    13014    13274    13491    13691 
   13909    14152    14427    14731    15053    15384    15700    15961 
   16144    16244    16278    16275    16232    16124    15930    15628 
   15218    14701    14061    13308    12467    11570    10646     9707 
    8772     7870     7025     6254     5557     4915     4295     3670 
    3014     2347     1714     1155      696      325       40     -114 
     -99       71      357      733     1181     1668     2154     2590 
    2941     3206     3396     3541     3682     3885     4201     4622 
    5103     5609     6133     6667     7175     7616     7986     8284 
    8541     8795     9074     9402     9787    10216    10665    11126 
   11608    12091    12549    12995    13455    13932    14395    14817 
   15195    15543    15866    16135    16340    16494    16603    16669 
   16668    16575    16397    16155    15866    15535    15178    14844 
   14566    14331    14122    13899    13630    13336    13057    12818 
   12619    12459    12332    12248    12222    12243    12285    12336 
   12394    12455    12511    12542    12515    12417    12240    11959 
   11562    11064    10477     9801     9061     8294     7530     6789 
    6073     5368     4684     4024     3389     2797     2250     1746 
    1291      877      487      114     -234     -550     -816    -1012 
   -1128    -1170    -1147    -1071     -959     -816     -638     -426 
    -198       28      256      504      768     1044     1347     1661 
    1985     2330     2700     3103     3549     4048     4607     5194 
    5796     6428     7078     7747     8472     9271    10135    11034 
   11935    12806    13645    14462    15226    15913    16521    17050 
   17524    17965    18357    18705    19051    19395    19727    20039 
   20320    20537    20679    20769    20815    20790    20700    20575 
   20409    20194    19953    19693    19399    19036    18567    17969 
   17263    16497    15695    14856    13965    13028    12096    11213 
   10399     9671     9003     8338     7695     7099     6507     5904 
    5296     4629     3933     3264     2621     2033     1528     1115 
     792      554      417      368      363      394      461      542 
     648      776      900     1028     1167     1300     1448     1651 
    1923     2265     2683     3195     3785     4434     5138     5886 
    6669     7466     8257     9039     9802    10512    11134    11649 
   12051    12367    12619    12823    13003    13170    13305    13390 
   13425    13410    13356    13274    13162    13018    12846    12631 
   12370    12078    11772    11473    11188    10905    10627    10373 
   10153     9973     9825     9697     9599     9549     9568     9655 
    9761     9850     9895     9894     9863     9795     9675     9501 
    9275     9022     8775     8575     8453     8384     8330     8283 
    8239     8189     8132     8068     7998     7940     7920     7939 
    8002     8109     8257     8452     8675     8923     9227     9576 
    9927    10264    10582    10867    11102    11279    11367    11334 
   11200    10999    10744    10444    10102     9715     9298     8860 
    8409     7977     7588     7225     6878     6583     6377     6281 
    6309     6436     6632     6875     7140     7418     7695     7956 
    8206     8419     8586     8733     8869     9007     9166     9352 
    9576     9840    10111    10381    10662    10945    11222    11473 
   11693    11884    12050    12197    12314    12409    12499    12588 
   12671    12737    12758    12725    12642    12519    12363    12175 
   11975    11773    11570    11367    11134    10848    10519    10152 
    9764     9381     9016     8680     8379     8109     7865     7638 
    7423     7225     7056     6940     6875     6844     6832     6844 
    6876     6934     7036     7179     7349     7546     7774     8019 
    8266     8511     8743     8951     9130     9275     9393     9478 
    9521     9529     9513     9486     9467     9445     9402     9351 
    9312     9302     9333     9387     9460     9553     9660     9778 
    9888     9980    10039    10046     9992     9898     9798     9694 
    9579     9466     9344     9193     9012     8799     8554     8299 
    8036     7747     7442     7153     6913     6735     6602     6489 
    6388     6286     6160     6021     5899     5807     5749     5738 
    5807     5968     6189     6448     6723     6986     7246     7518 
    7797     8073     8324     8533     8706     8849     8972     9085 
    9184     9263     9346     9435     9536     9668     9844    10065 
   10326    10620    10933    11246    11545    11801    11997    12139 
   12222    12260    12283    12282    12244    12206    12185    12155 
   12110    12052    11959    11830    11685    11543    11398    11222 
   11006    10768    10531    10312    10110     9914     9714     9506 
    9312     9146     9007     8892     8799     8723     8661     8600 
    8534     8460     8363     8247     8128     8009     7892     7778 
    7668     7576     7527     7528     7596     7734     7901     8081 
    8268     8460     8650     8824     8955     9020     9019     8957 
    8837     8665     8468     8267     8066     7848     7632     7449 
    7300     7191     7132     7119     7150     7207     7261     7310 
    7372     7465     7591     7746     7911     8073     8221     8356 
    8490     8631     8775     8895     8989     9078     9184     9290 
    9371     9413     9410     9354     9255     9127     8986     8858 
    8753     8672     8642     8687     8815     9034     9332     9694 
   10099    10509    10913    11319    11734    12147    12546    12931 
   13302    13655    13986    14287    14543    14744    14885    14943 
   14913    14808    14631    14388    14089    13744    13362    12942 
   12495    12039    11578    11136    10723    10331     9964     9622 
    9296     8980     8668     8359     8054     7754     7458     7180 
    6940     6727     6513     6296     6079     5861     5652     5467 
    5304     5148     5011     4909     4843     4810     4808     4841 
    4904     4990     5089     5201     5316     5429     5547     5661 
    5765     5864     5960     6060     6181     6338     6521     6733 
    6991     7314     7695     8114     8563     9027     9494     9963 
   10424    10862    11264    11630    11959    12256    12511    12700 
   12822    12892    12922    12915    12892    12858    12796    12708 
   12611    12517    12426    12334    12241    12171    12139    12127 
   12112    12077    12004    11892    11776    11658    11535    11412 
   11292    11183    11090    11006    10922    10835    10754    10686 
   10615    10539    10469    10416    10374    10324    10255    10156 
   10033     9894     9725     9508     9244     8942     8617     8262 
    7878     7489     7128     6810     6540     6324     6174     6093 
    6062     6050     6037     6007     5956     5899     5850     5829 
    5856     5937     6053     6178     6318     6492     6701     6922 
    7125     7298     7446     7582     7705     7805     7878     7912 
    7897     7846     7754     7635     7534     7472     7447     7464 
    7534     7662     7838     8059     8316     8595     8889     9189 
    9491     9786    10037    10223    10331    10369    10362    10332 
   10291    10235    10158    10060     9956     9859     9772     9703 
    9643     9591     9544     9491     9440     9400     9379     9386 
    9424     9504     9629     9779     9927    10065    10200    10330 
   10451    10566    10654    10702    10723    10719    10700    10682 
