Origin Time       2025/01/13 21:19:00
Lat.              31.8
Long.             131.6
Depth. (km)       30
Mag.              6.9
Station Code      KOC012
Station Lat.      33.1976
Station Long.     132.9758
Station Height(m) 147
Record Time       2025/01/13 21:20:24
Sampling Freq(Hz) 100Hz
Duration Time(s)  78
Dir.              N-S
Scale Factor      7845(gal)/8223790
Max. Acc. (gal)   4.143
Last Correction   2025/01/13 21:20:23
Memo.             
[...]
   20722    20753    20632    20470    20332    20266    20318    20482 
   20665    20714    20563    20331    20147    20028    20012    20162 
   20449    20773    21042    21201    21276    21338    21406    21452 
   21440    21320    21057    20619    20034    19475    19043    18638 
   18274    18099    18177    18512    19047    19662    20266    20773 
   21124    21290    21211    20889    20417    19866    19359    19048 
   18949    19040    19377    19884    20333    20618    20740    20710 
   20591    20490    20463    20487    20490    20401    20169    19853 
   19618    19533    19543    19680    20016    20457    20869    21226 
   21481    21551    21448    21207    20819    20368    19948    19566 
   19263    19095    19106    19365    19847    20372    20754    20900 
   20857    20742    20636    20610    20645    20648    20625    20565 
   20389    20189    20097    20070    20102    20256    20495    20727 
   20889    20979    21026    20962    20713    20376    20079    19782 
   19433    19098    18885    18802    18751    18719    18846    19157 
   19522    19827    19996    19978    19827    19680    19637    19674 
   19747    19866    19992    20061    20100    20156    20278    20518 
   20819    21055    21207    21284    21304    21284    21170    20934 
   20633    20325    20067    19942    20012    20294    20676    20970 
   21168    21344    21419    21352    21269    21195    21124    21132 
   21184    21118    20865    20544    20317    20164    19963    19728 
   19548    19449    19415    19461    19608    19815    20054    20348 
   20676    20981    21174    21157    20906    20399    19699    19078 
   18747    18657    18744    19040    19485    19924    20240    20401 
   20439    20420    20407    20409    20399    20343    20202    20017 
   19873    19838    19992    20305    20610    20792    20821    20698 
   20495    20331    20247    20194    20183    20243    20325    20413 
   20490    20506    20507    20544    20592    20690    20875    21097 
   21266    21282    21128    20902    20642    20337    20027    19789 
   19758    20012    20466    20943    21253    21278    21138    21020 
   20956    20922    20969    21093    21212    21207    20985    20586 
   20127    19747    19558    19508    19516    19623    19819    19980 
   20031    19955    19800    19637    19471    19369    19472    19791 
   20256    20808    21311    21547    21451    21184    20866    20547 
   20318    20221    20197    20173    20105    20081    20243    20518 
   20736    20868    20911    20861    20808    20879    21114    21373 
   21466    21289    20785    20051    19350    18837    18509    18392 
   18576    19099    19857    20637    21232    21460    21203    20536 
   19781    19298    19148    19192    19391    19724    20059    20218 
   20115    19831    19562    19457    19572    19874    20279    20668 
   20969    21223    21431    21537    21605    21676    21641    21398 
   20941    20349    19803    19425    19244    19319    19681    20216 
   20745    21065    21018    20650    20170    19720    19350    19110 
   19024    19082    19305    19705    20190    20598    20798    20783 
   20603    20244    19765    19371    19198    19279    19585    19970 
   20298    20575    20814    20938    20856    20541    20040    19500 
   19164    19174    19448    19796    20081    20302    20505    20603 
   20498    20204    19739    19215    18904    18917    19157    19458 
   19622    19629    19672    19827    20036    20205    20183    19905 
   19454    18995    18682    18553    18581    18796    19209    19746 
   20268    20683    20997    21242    21413    21498    21485    21401 
   21270    21055    20744    20406    20144    20029    20034    20007 
   19886    19799    19832    19916    19974    19957    19831    19661 
   19549    19529    19596    19704    19764    19749    19726    19692 
   19595    19539    19684    19938    20096    20173    20309    20483 
   20568    20494    20304    20136    20186    20537    21076    21676 
   22256    22607    22580    22227    21587    20740    19916    19336 
   19138    19368    19897    20488    20869    20858    20561    20228 
   19954    19776    19838    20173    20592    20958    21288    21483 
   21344    20854    20159    19445    18925    18693    18636    18625 
   18621    18655    18769    18963    19194    19467    19819    20254 
   20746    21168    21327    21162    20740    20285    20075    20069 
   19974    19720    19471    19344    19280    19203    19121    19045 
   19045    19278    19757    20308    20776    21088    21205    21114 
   20835    20467    20067    19592    19036    18495    18131    18084 
   18300    18698    19341    20202    21045    21628    21861    21774 
   21470    21107    20795    20553    20397    20344    20367    20414 
   20432    20353    20197    20013    19773    19533    19494    19722 
   20066    20371    20588    20765    20935    20995    20881    20692 
   20470    20121    19647    19205    18968    19082    19570    20232 
   20838    21300    21586    21733    21744    21483    20985    20515 
   20247    20224    20426    20709    20996    21366    21771    22053 
   22177    22100    21729    21205    20803    20590    20532    20694 
   21065    21481    21818    22083    22239    22176    21878    21465 
   21003    20484    20004    19705    19603    19614    19683    19819 
   19980    19994    19799    19496    19094    18619    18314    18320 
   18524    18805    19125    19541    20062    20498    20698    20788 
   20980    21270    21487    21578    21563    21436    21324    21401 
   21593    21685    21532    21055    20339    19620    19021    18607 
   18519    18790    19340    20081    20822    21296    21362    21088 
   20653    20163    19639    19147    18790    18635    18647    18671 
   18661    18748    18995    19349    19727    20046    20294    20502 
   20653    20706    20676    20618    20522    20286    19904    19589 
   19499    19503    19488    19526    19603    19697    19948    20345 
   20649    20796    20892    20893    20763    20602    20436    20228 
   20001    19793    19741    19948    20256    20490    20664    20753 
   20673    20467    20267    20175    20206    20306    20410    20445 
   20352    20147    19867    19539    19256    19141    19210    19403 
   19646    19882    20074    20151    20089    20039    20139    20379 
   20699    20980    21127    21138    21053    20962    20934    20898 
   20796    20682    20598    20586    20714    20945    21072    20946 
   20646    20331    20028    19732    19503    19406    19469    19695 
   19973    20082    19996    19926    19967    20077    20258    20463 
   20632    20787    20833    20698    20532    20428    20297    20073 
   19747    19408    19267    19461    19865    20240    20551    20868 
   21123    21222    21162    20960    20687    20470    20416    20571 
   20861    21193    21559    21891    22064    22032    21825    21527 
   21243    20985    20699    20386    20066    19792    19677    19778 
   20051    20379    20622    20709    20601    20200    19522    18782 
   18181    17793    17656    17851    18438    19337    20293    21027 
   21406    21405    21066    20563    20127    19885    19851    19916 
   19890    19726    19515    19314    19107    18875    18677    18692 
   19043    19602    20144    20557    20845    21006    20966    20665 
   20177    19700    19483    19661    20106    20583    20939    21038 
   20784    20236    19575    19024    18746    18793    19188    19959 
   20933    21722    22053    21924    21411    20603    19616    18550 
   17582    16929    16619    16584    16749    16991    17321    17836 
   18418    18931    19408    19851    20243    20617    20922    21068 
   21014    20803    20610    20602    20776    21024    21315    21682 
   22096    22432    22558    22408    22036    21644    21443    21405 
   21343    21157    20854    20457    19997    19512    19033    18596 
   18303    18280    18507    18886    19323    19742    20169    20622 
   20997    21205    21192    20898    20352    19689    19084    18681 
   18604    18932    19616    20555    21581    22376    22646    22312 
   21455    20321    19264    18573    18439    18944    19935    21054 
   21938    22345    22179    21519    20605    19765    19222    19025 
   19192    19738    20518    21232    21618    21579    21147    20380 
   19449    18674    18277    18281    18620    19170    19830    20478 
   20877    20968    20908    20792    20625    20413    20135    19822 
   19562    19418    19344    19211    18935    18574    18235    17992 
   17905    17983    18192    18495    18833    19163    19504    19865 
   20162    20348    20474    20590    20744    20925    21011    20954 
   20865    20844    20918    21138    21443    21686    21813    21803 
   21612    21297    20960    20679    20517    20460    20490    20645 
   20861    20918    20702    20294    19865    19614    19650    19885 
   20115    20260    20389    20541    20741    21004    21193    21180 
   21074    21033    21054    21016    20831    20609    20576    20898 
   21613    22557    23445    24084    24390    24333    23905    23175 
   22333    21516    20783    20272    20061    20017    20046    20120 
   20205    20328    20476    20466    20147    19572    18966    18632 
   18682    18983    19450    20100    20848    21504    21843    21737 
   21336    20919    20615    20412    20272    20129    19913    19579 
   19074    18414    17740    17228    16927    16804    16804    16887 
   17097    17477    17977    18544    19048    19299    19230    18894 
   18407    17994    17826    17921    18308    18981    19820    20723 
   21616    22372    22901    23161    23224    23272    23348    23352 
   23236    22958    22512    21976    21432    20974    20675    20526 
   20487    20476    20399    20247    20065    19897    19805    19799 
   19826    19886    20024    20271    20634    21062    21402    21512 
   21384    21069    20618    20158    19834    19695    19701    19831 
   20058    20310    20556    20764    20868    20842    20703    20467 
   20193    19930    19696    19542    19498    19575    19828    20320 
   20991    21582    21836    21718    21355    20908    20530    20260 
   20120    20200    20518    20960    21365    21536    21301    20687 
   19904    19222    18833    18785    18999    19359    19774    20170 
   20448    20569    20599    20568    20370    19899    19240    18658 
   18358    18333    18435    18523    18569    18659    18783    18774 
   18639    18604    18767    19039    19369    19788    20255    20641 
   20856    20908    20858    20746    20611    20552    20690    21026 
   21481    22025    22594    23060    23396    23623    23652    23409 
   23005    22612    22299    22037    21749    21378    20996    20719 
   20549    20467    20533    20792    21259    21841    22318    22538 
   22473    22108    21496    20776    20086    19506    19098    18949 
   19102    19498    20027    20590    21078    21394    21463    21273 
   20893    20380    19762    19147    18627    18215    17945    17828 
   17837    18006    18318    18677    19040    19384    19696    20000 
   20239    20356    20433    20513    20588    20707    20906    21174 
   21433    21577    21602    21531    21324    21033    20794    20629 
   20488    20372    20302    20213    20038    19845    19714    19589 
   19430    19280    19151    19010    18835    18631    18453    18345 
   18328    18457    18713    18944    19018    18922    18711    18532 
   18534    18748    19172    19743    20290    20664    20806    20675 
   20304    19892    19656    19615    19722    19935    20119    20190 
   20231    20337    20510    20686    20866    21132    21466    21745 
   21860    21741    21377    20819    20169    19560    19136    18995 
   19136    19446    19808    20139    20366    20459    20451    20363 
   20251    20206    20193    20148    20070    19894    19564    19117 
   18578    17975    17416    17031    16885    17000    17382    18003 
   18740    19476    20177    20780    21184    21373    21405    21373 
   21321    21197    20952    20633    20326    20093    19940    19832 
   19786    19862    20079    20416    20740    20916    20970    20991 
   20968    20919    20877    20800    20668    20526    20389    20255 
   20155    20146    20258    20428    20619    20903    21292    21666 
   21934    22135    22318    22462    22558    22586    22499    22254 
   21802    21130    20353    19585    18900    18409    18180    18142 
   18229    18435    18756    19128    19441    19645    19766    19834 
   19826    19719    19526    19265    18947    18659    18515    18524 
   18638    18852    19134    19354    19415    19352    19234    19072 
   18885    18750    18735    18837    19032    19276    19499    19626 
   19645    19608    19553    19514    19553    19726    20050    20441 
   20750    20939    21065    21124    21065    20893    20690    20553 
   20528    20591    20669    20686    20632    20576    20586    20738 
   21124    21703    22307    22810    23178    23376    23430    23411 
   23329    23178    22990    22781    22562    22327    22073    21822 
   21600    21450    21433    21527    21608    21562    21371    21020 
   20459    19755    19051    18372    17712    17099    16552    16117 
   15893    15951    16283    16811    17420    17972    18380    18652 
   18787    18735    18532    18284    18041    17834    17729    17760 
   17882    18034    18230    18538    19009    19647    20434    21335 
   22268    23136    23828    24194    24177    23877    23398    22824 
   22268    21833    21590    21525    21568    21751    22090    22416 
   22585    22674    22779    22886    22974    23008    22937    22798 
   22661    22520    22341    22095    21726    21227    20675    20140 
   19676    19361    19197    19089    19005    18985    18997    18939 
   18789    18620    18504    18430    18316    18125    17949    17859 
   17814    17775    17749    17778    17921    18187    18528    18922 
   19360    19801    20197    20517    20758    20929    21035    21101 
   21172    21269    21379    21481    21554    21579    21529    21401 
   21226    20987    20680    20371    20101    19869    19668    19515 
   19456    19499    19608    19720    19768    19759    19808    19974 
   20214    20443    20548    20475    20325    20225    20162    20090 
   20043    20042    20081    20154    20177    20039    19728    19290 
   18801    18432    18279    18303    18509    18900    19381    19857 
   20247    20494    20623    20692    20680    20536    20294    20021 
   19745    19462    19148    18832    18620    18550    18593    18746 
   18971    19219    19484    19780    20151    20603    21057    21492 
   21915    22261    22481    22599    22628    22589    22518    22416 
   22276    22102    21895    21679    21487    21320    21199    21151 
   21158    21182    21238    21355    21521    21664    21722    21705 
   21635    21529    21416    21303    21122    20815    20425    20000 
   19541    19114    18829    18760    18929    19294    19769    20290 
   20753    21068    21240    21265    21100    20780    20371    19955 
   19639    19453    19319    19153    18928    18644    18324    17998 
   17707    17514    17490    17648    17892    18121    18303    18432 
   18527    18643    18805    18998    19225    19506    19869    20306 
   20749    21146    21462    21671    21790    21890    22015    22152 
   22261    22299    22239    22086    21843    21532    21228    20985 
   20799    20661    20594    20606    20669    20734    20731    20609 
   20403    20208    20081    20017    19977    19971    20039    20175 
   20352    20565    20869    21294    21748    22091    22253    22179 
   21887    21456    20949    20449    20059    19823    19741    19755 
   19788    19820    19872    19938    20011    20090    20171    20247 
   20297    20310    20309    20268    20171    20083    20050    20017 
   19971    19978    20051    20123    20152    20144    20119    20119 
   20194    20316    20402    20424    20391    20332    20308    20317 
   20316    20316    20343    20366    20308    20124    19830    19479 
   19121    18819    18659    18717    18945    19225    19503    19738 
   19854    19857    19792    19666    19552    19581    19815    20212 
   20668    21091    21440    21681    21793    21806    21753    21658 
   21581    21564    21613    21751    21968    22183    22345    22449 
   22435    22283    22084    21897    21682    21447    21230    21022 
   20817    20629    20484    20387    20297    20206    20156    20152 
   20186    20262    20340    20403    20509    20683    20861    20925 
   20818    20582    20272    19958    19712    19537    19404    19307 
   19199    19068    18927    18740    18519    18327    18157    17987 
   17780    17501    17212    16997    16842    16758    16780    16887 
   17057    17307    17614    17945    18334    18816    19326    19768 
   20085    20243    20266    20245    20216    20136    20005    19858 
   19718    19604    19539    19514    19522    19570    19614    19614 
   19631    19716    19831    19940    20067    20201    20325    20440 
   20507    20513    20518    20560    20648    20777    20895    20954 
   21019    21151    21332    21519    21695    21892    22090    22196 
   22184    22108    21983    21762    21501    21298    21122    20923 
   20723    20503    20259    20040    19897    19878    19986    20146 
   20326    20560    20792    20903    20869    20752    20613    20510 
   20474    20484    20528    20598    20677    20731    20731    20680 
   20609    20579    20671    20881    21142    21389    21571    21668 
   21663    21552    21384    21197    20977    20740    20537    20382 
   20250    20129    20038    20016    20071    20171    20279    20362 
   20397    20380    20328    20237    20094    19911    19726    19581 
   19506    19498    19530    19573    19612    19651    19689    19723 
   19780    19872    19997    20167    20343    20451    20490    20475 
   20409    20340    20305    20294    20299    20309    20291    20240 
   20169    20094    20001    19855    19684    19581    19580    19645 
   19755    19890    20013    20101    20151    20194    20229    20209 
   20167    20152    20147    20117    20038    19904    19761    19643 
   19584    19637    19796    19992    20156    20223    20187    20108 
   20035    20016    20075    20169    20260    20325    20337    20314 
   20295    20329    20493    20754    20969    21082    21136    21124 
   21031    20880    20710    20568    20497    20517    20615    20750 
   20868    20953    21026    21097    21143    21145    21089    20977 
   20808    20580    20309    20011    19691    19384    19124    18933 
   18843    18885    19059    19317    19579    19751    19785    19705 
   19552    19379    19248    19199    19265    19464    19741    20025 
   20282    20483    20632    20754    20860    20941    20989    21003 
   20987    20926    20810    20653    20486    20312    20136    19989 
   19924    19982    20169    20459    20792    21092    21327    21489 
