Origin Time       2025/01/13 21:19:00
Lat.              31.8
Long.             131.6
Depth. (km)       30
Mag.              6.9
Station Code      KOC015
Station Lat.      32.9393
Station Long.     132.7258
Station Height(m) 3
Record Time       2025/01/13 21:20:03
Sampling Freq(Hz) 100Hz
Duration Time(s)  119
Dir.              E-W
Scale Factor      7845(gal)/8223790
Max. Acc. (gal)   29.417
Last Correction   2025/01/13 21:20:02
Memo.             
[...]
   18500    17890    17612    17450    17223    16869    16329    15757 
   15502    15777    16467    17182    17490    17282    16926    16803 
   16912    17150    17520    17987    18453    18787    19028    19321 
   19618    19808    19843    19684    19394    18976    18361    17772 
   17479    17385    17396    17535    17621    17481    17189    17014 
   17131    17355    17486    17606    17722    17745    17683    17593 
   17663    18036    18507    18717    18446    17838    17292    16980 
   16812    16870    17319    17898    18180    18264    18605    19291 
   19845    19858    19488    19003    18354    17532    16924    16983 
   17585    18077    18091    17767    17319    16891    16596    16492 
   16529    16573    16586    16742    17242    17996    18681    19079 
   19161    19026    18924    19037    19333    19647    19697    19427 
   19188    19145    19143    19083    18846    18443    18081    17709 
   17228    16833    16525    16044    15418    14935    14785    15110 
   15789    16321    16428    16291    16244    16594    17313    18034 
   18477    18704    18958    19229    19376    19508    19685    19759 
   19680    19518    19359    19170    18766    18138    17571    17258 
   17149    17184    17383    17721    18025    18107    17942    17664 
   17431    17262    17004    16634    16353    16206    16112    16241 
   16723    17392    18092    18605    18662    18438    18358    18578 
   18939    19132    18955    18538    18139    18054    18538    19271 
   19543    19165    18522    18018    17759    17560    17298    16992 
   16661    16389    16317    16506    16927    17437    17825    18077 
   18319    18473    18434    18333    18339    18420    18323    17814 
   17050    16555    16596    16958    17383    17761    17999    18087 
   18179    18400    18694    18935    18971    18801    18700    18760 
   18777    18669    18432    18054    17604    17177    16924    16949 
   17155    17385    17490    17385    17196    17134    17235    17383 
   17412    17284    17127    17045    17217    17752    18285    18441 
   18320    18296    18762    19688    20422    20401    19639    18478 
   17389    16822    16767    16811    16792    16927    17355    18038 
   18792    19263    19295    19145    19087    19049    18797    18252 
   17518    16810    16376    16314    16467    16638    16810    17084 
   17432    17682    17818    18025    18369    18728    18878    18663 
   18184    17739    17676    18183    19024    19607    19481    18716 
   17724    16924    16609    16781    17059    16962    16379    15684 
   15307    15341    15712    16260    16688    16857    16852    16899 
   17379    18346    19318    19881    19928    19531    19016    18852 
   19283    20079    20752    20952    20623    19982    19314    18709 
   18068    17317    16529    15824    15203    14628    14233    14079 
   13995    14044    14476    15219    15927    16332    16618    17213 
   18036    18630    18863    18986    19356    20073    20893    21625 
   22283    22804    22950    22580    21775    20756    19835    19163 
   18585    17887    16798    15157    13396    12156    11637    11666 
   11965    12395    13139    14328    15863    17604    19218    20194 
   20378    20108    19819    19796    20209    21001    21770    22094 
   21914    21350    20479    19566    18964    18566    17899    16721 
   15237    13992    13447    13653    14372    15180    15826    16467 
   17095    17446    17658    17980    18330    18625    18864    18993 
   19110    19298    19453    19527    19422    18955    18150    17259 
   16645    16578    16961    17393    17464    17096    16665    16548 
   16802    17374    18004    18295    18346    18721    19708    20969 
   21845    21918    21239    20150    18955    17793    16722    15743 
   14820    14056    13617    13501    13639    13905    14014    13833 
   13601    13613    14027    14883    16032    17248    18369    19225 
   19693    19911    20259    21084    22331    23399    23608    22793 
   21301    19651    18361    17666    17253    16640    15715    14717 
   14100    14061    14251    14505    15079    15809    16240    16433 
   16700    17034    17311    17496    17636    17909    18420    19059 
   19684    20302    20915    21240    20899    19928    18651    17392 
   16447    15820    15325    14986    14812    14597    14355    14374 
   14791    15453    16089    16517    16777    17068    17617    18495 
   19461    20185    20578    20763    20839    20765    20453    19969 
   19406    18816    18346    18045    17687    17178    16673    16274 
   15958    15676    15402    15217    15237    15419    15601    15650 
   15458    15033    14647    14702    15381    16503    17805    19089 
   20097    20721    21197    21791    22462    22844    22688    22212 
   21740    21398    21135    20659    19768    18652    17554    16599 
   15947    15576    15286    14997    14665    14224    13737    13401 
   13468    14153    15456    17078    18577    19745    20837    22075 
   23229    23998    24237    23793    22797    21712    20854    20264 
   19858    19357    18473    17320    16170    15157    14484    14193 
   14058    13953    13790    13500    13211    13035    13132    13832 
   15194    16914    18647    20179    21402    22171    22451    22405 
   22202    22033    22137    22492    22736    22561    22072    21552 
   21087    20569    19799    18609    17074    15496    14274    13682 
   13645    13811    13828    13662    13660    14118    15009    16147 
   17309    18246    18854    19292    19759    20410    21466    22871 
   24051    24435    23923    22842    21633    20575    19812    19417 
   19229    18890    18219    17420    16785    16393    16131    15839 
   15377    14635    13795    13485    14176    15526    16688    17080 
   16660    15785    15005    14864    15664    17217    18908    20085 
   20434    20251    20124    20304    20812    21555    22040    21921 
   21423    20807    20206    19732    19373    19084    18786    18314 
   17747    17371    17199    17049    16808    16208    15128    14068 
   13667    14129    15191    16378    17227    17489    17381    17400 
   17805    18423    18836    18693    17980    17178    16983    17609 
   18671    19592    19828    19122    17702    16082    14754    13957 
   13761    14211    15078    15880    16445    16870    17124    17335 
   17838    18702    19842    21173    22426    23315    23684    23284 
   21992    20046    17809    15692    14146    13321    13113    13344 
   13594    13483    13113    12676    12330    12491    13566    15573 
   17987    19924    20902    21232    21533    22067    22639    22995 
   23076    22908    22528    22100    21708    21134    20221    19012 
   17525    15928    14598    13830    13841    14823    16511    18099 
   18929    18983    18611    18114    17618    17315    17521    18318 
   19557    21019    22122    22184    21234    19920    18778    18081 
   17922    17901    17270    15788    13905    12251    11368    11551 
   12506    13420    13779    13845    14287    15627    17705    19653 
   20844    21423    21675    21717    21834    22349    23206    23920 
   23978    23411    22603    21628    20256    18393    16249    14188 
   12572    11692    11565    11904    12322    12617    12775    12793 
   12784    13039    13886    15476    17408    19037    20136    20771 
   21100    21278    21174    20671    20055    19824    20278    21209 
   21975    21988    21076    19575    18230    17568    17498    17621 
   17572    17238    16838    16507    16031    15302    14643    14513 
   15174    16515    18029    19110    19408    18981    18134    17242 
   16852    17324    18296    19311    20363    21325    21797    21536 
   20653    19508    18418    17444    16753    16565    16721    16822 
   16600    16087    15580    15113    14328    13215    12384    12395 
   13185    14332    15624    16984    18242    19434    20707    21741 
   21915    21159    20225    20039    20822    21897    22408    21849 
   20119    17658    15263    13603    13001    13288    13845    14092 
   14027    14034    14350    15044    15912    16518    16719    16803 
   17109    17636    18139    18684    19511    20436    21081    21506 
   22161    23318    24533    24868    23863    21860    19477    17297 
   15789    15291    15863    17038    18181    18966    19224    19017 
   18824    18968    19176    19047    18393    17223    15985    15263 
   15145    15554    16479    17604    18567    19464    20588    21986 
   23411    24475    24818    24321    22960    20682    17878    15319 
   13404    12116    11275    10833    11117    12044    13116    14273 
   15469    16363    16841    16950    16950    17340    18102    18590 
   18403    17886    17848    18585    19489    19978    19938    19302 
   18156    16877    15900    15515    15695    16175    16834    17613 
   18168    18181    17894    17760    18038    18956    20440    21963 
   23134    23878    24235    24212    23658    22446    20563    18026 
   15079    12249    10011     8490     7310     6183     5688     6313 
    7499     8734    10129    11804    13821    16046    18075    19751 
   21174    22391    23612    25069    26640    28185    29566    30514 
   30919    30616    29286    27163    25029    23269    21683    20143 
   18731    17545    16630    15903    15399    15286    15464    15711 
   15935    16147    16320    16289    16002    15642    15363    15327 
   15681    16271    16814    17273    17857    18801    19950    20595 
   20132    18712    16941    15275    13986    13275    13109    13294 
   13582    13786    14184    15203    16903    19183    21735    23946 
   25354    25787    25296    24166    22724    21104    19437    18044 
   17026    16110    15209    14445    13813    13151    12187    10994 
   10201    10268    11079    12309    13743    15291    16721    17587 
   17635    16920    15808    15060    15163    15719    16083    15973 
   15314    14135    12930    12769    14540    18164    22650    26821 
   29999    32009    32760    32059    30071    27599    25357    23669 
   22715    22248    21656    20564    18924    16765    14219    11723 
    9768     8553     8187     8887    10721    13236    15755    17922 
   19309    19558    19291    19267    19395    19753    20621    21767 
   23125    24543    25334    25363    24929    24025    22794    21508 
   20271    19021    17379    15080    12428    10115     8964     9313 
   10801    12802    14624    15854    16710    17575    18366    18802 
   19006    19453    20625    22462    24337    25739    26258    25496 
   23388    20297    16976    14188    12232    10935     9883     8883 
    8135     7753     7515     7322     7354     7921     9447    12000 
   14885    17282    19241    21432    23992    26455    28402    29782 
   31072    32486    33214    32375    30172    27475    25026    23295 
   22061    20453    17971    14885    11861     9454     7966     7566 
    7879     8086     8031     8552    10372    13251    16127    17659 
   17444    16406    15452    15076    15593    16599    17401    17919 
   18322    18600    18931    19504    20173    21053    22443    23722 
   23521    21185    17475    13682    10596     8571     7796     8229 
    9741    12217    15248    18351    21448    24376    26597    27951 
   28692    28780    27957    26256    24202    22482    21006    19064 
   16622    14007    11111     7867     4531     1633     -175     -650 
     -43     1212     2867     4972     7605    10686    13809    16618 
   19484    22978    27045    31197    34842    37397    38588    38475 
   37222    35460    34273    33732    32697    30704    28173    25269 
   22092    18651    14824    10932     7249     3901     1337      -87 
    -143     1305     3727     6153     8087     9531    10527    11534 
   13254    15846    19012    22118    24422    25832    26960    28336 
   29976    31565    32744    33365    33377    32379    30041    26765 
   22956    18384    13142     8162     4353     2097     1308     1583 
    2501     3755     5424     7952    11601    16198    21169    25681 
   29108    31118    31450    30262    28340    26329    24401    22790 
   21760    21324    21413    21874    22607    23724    24833    25065 
   24382    23170    21216    18311    14530    10187     6377     4268 
    3636     3558     3765     4442     5876     8031    10255    12069 
   13502    14619    15445    16139    16753    17261    17840    18485 
   18937    19238    19579    19701    19084    17845    16690    16204 
   16563    17464    18775    20814    23334    25319    25913    25070 
   23566    22252    21371    20919    20857    20939    21008    21058 
   21097    21192    21227    20911    19888    17865    15165    12555 
   10471     8903     7628     6498     5579     5132     5401     6315 
    7900    10538    14247    18488    22593    26029    28846    31425 
   33392    34006    33266    31506    28996    26678    25747    26038 
   26261    25739    24425    21996    18191    13208     7811     2955 
   -1139    -4503    -6785    -7599    -6359    -2624     3126     9660 
   15693    20787    25411    29814    33763    37174    40130    42624 
   44443    45007    43816    41199    38075    34836    31232    27105 
   22314    16777    10744     4672     -498    -4048    -6547    -8826 
  -10867   -12320   -12976   -12533   -10872    -8252    -4552      468 
    6567    13502    20742    27373    33129    38151    42164    44832 
   46164    46282    45453    44199    42662    40478    37704    34825 
   31784    28093    23552    18176    12248     6401     1165    -3110 
   -6120    -7919    -8945    -9266    -8290    -5779    -2241     1806 
    5994    10235    14935    20220    25407    29664    32730    34717 
   35722    35955    35754    35305    34742    34128    32960    30707 
   27810    25105    22916    21180    19764    18473    16930    14836 
   12156     8930     5524     2681      896      108       74      864 
    2667     5063     7227     8981    10783    13077    16162    19897 
   23512    26418    28706    30603    32124    33203    33920    34399 
   34553    34138    32968    31062    28714    26374    24204    21909 
   19245    16204    12988     9981     7298     4861     2856     1302 
      45     -727     -884     -575      109     1094     2332     3869 
    5671     7812    10623    14249    18361    22503    26453    30114 
   33350    36134    38473    40169    40998    41050    40601    39725 
   38620    37825    37285    36200    33957    30476    26221    21751 
   17069    12205     7539     3277     -325    -2825    -4087    -4189 
   -3246    -1476      857     3329     5545     7585     9695    11923 
   14470    17620    21168    24459    26900    28567    30113    31876 
   33590    34759    35028    34253    32348    29515    26248    23064 
   20409    18223    15931    13096     9585     5661     2029     -673 
   -2104    -2373    -1945    -1113       45     1530     3461     6070 
    9601    13593    16942    19287    21004    22302    23603    25347 
   27157    28424    28980    28845    28188    27391    27000    27322 
   27765    27449    26339    24835    23074    21124    18999    16501 
   13721    11145     9023     7447     6777     7327     8993    11248 
   13498    15592    17641    19726    22013    24443    26507    27753 
   28129    27954    27742    27822    28069    28139    27788    26797 
   25029    22758    20505    18586    16866    14886    12409     9717 
    7253     5132     3318     2020     1435     1351     1386     1287 
    1082     1254     2419     4733     7908    11388    14577    17258 
   19414    21111    22836    25149    28016    30917    33214    34447 
   34627    34211    33704    33253    32589    31353    29446    26987 
   24159    21103    18038    15300    13030    11110     9297     7396 
    5709     4919     5389     6790     8445     9944    11387    13211 
   15634    18430    21328    24078    26407    28206    29566    30746 
   32036    33494    34685    34762    33413    31226    28703    25936 
   23094    20101    16519    12312     7905     3928     1075     -627 
   -1757    -2536    -2909    -2809    -2057     -585     1580     4245 
    6922     9416    11784    13968    16039    18273    21019    24394 
   28005    31179    33305    34013    33354    31822    30069    28459 
   26709    24273    21257    18193    15410    13177    11583    10458 
    9717     9391     9568    10243    11213    12403    14068    16335 
   18913    21309    23008    23901    24501    25196    25918    26396 
   26446    26231    25810    24873    23506    22314    21490    20538 
   18976    16672    13709    10481     7565     5406     4364     4769 
    6573     9275    12263    15003    17166    18904    20682    22539 
   24032    24884    25069    24752    24435    24537    24912    25262 
   25296    24584    23101    21255    19446    17976    16650    14945 
   12815    10629     8752     7268     5960     4770     3819     3136 
    2886     3397     4850     7257    10378    13752    17101    20397 
   23411    25790    27548    29031    30389    31491    32236    32454 
   31976    30978    29732    28364    26829    24966    22873    20799 
   18782    16821    14978    13405    12356    11907    11956    12360 
   12812    13032    13019    12926    12955    13279    13965    15059 
   16569    18323    20077    21714    23053    23797    23938    23789 
   23573    23193    22480    21579    20760    20069    19519    19026 
   18345    17539    16906    16587    16545    16598    16533    16309 
   16021    15600    14939    14315    14138    14476    15057    15423 
   15353    15067    14779    14412    13878    13309    12856    12509 
   12267    12116    12015    12108    12575    13309    14210    15472 
   17231    19201    20923    22185    23098    23769    24160    24297 
   24202    23866    23410    22875    22038    20730    19066    17321 
   15692    14138    12498    10723     8985     7537     6674     6725 
    7789     9548    11399    12896    14210    15886    18072    20324 
   22211    23760    25282    26951    28702    30473    32120    33332 
   33810    33261    31679    29621    27460    24985    22113    19016 
   15904    13108    10866     9171     7971     7156     6559     6083 
    5806     6011     6913     8392    10196    12240    14575    17190 
   19800    21953    23425    24282    24667    24772    24865    25003 
   24949    24414    23194    21392    19398    17425    15456    13564 
   11986    10976    10602    10787    11568    12964    14670    16295 
   17741    18949    19673    19847    19838    20115    20984    22594 
   24764    26963    28688    29658    29778    29107    27750    25955 
   24106    22451    21031    19718    18381    17255    16748    16919 
   17396    17644    17350    16610    15714    14871    14172    13609 
   13182    13022    13216    13630    14095    14432    14435    14021 
   13352    12800    12677    12973    13477    13980    14320    14411 
   14373    14488    14895    15514    16239    16977    17663    18381 
   19198    19970    20553    20964    21166    21057    20763    20560 
