Origin Time       2025/01/13 21:19:00
Lat.              31.8
Long.             131.6
Depth. (km)       30
Mag.              6.9
Station Code      KOC011
Station Lat.      33.3982
Station Long.     132.8962
Station Height(m) 500
Record Time       2025/01/13 21:20:27
Sampling Freq(Hz) 100Hz
Duration Time(s)  79
Dir.              N-S
Scale Factor      7845(gal)/8223790
Max. Acc. (gal)   2.950
Last Correction   2025/01/13 21:20:27
Memo.             
[...]
    1290     1385     1452     1503     1547     1597     1656     1709 
    1745     1761     1782     1811     1803     1719     1584     1406 
    1166      888      641      465      386      406      514      660 
     783      873      932      938      901      838      749      664 
     606      557      522      503      440      305      141       -2 
    -113     -190     -214     -183      -99       33      203      417 
     673      923     1132     1300     1406     1452     1440     1374 
    1277     1150      994      847      716      588      492      448 
     438      464      514      544      537      521      521      545 
     576      572      531      491      449      382      326      361 
     495      684      882     1059     1202     1310     1409     1533 
    1671     1788     1876     1941     1998     2062     2135     2209 
    2268     2304     2328     2315     2231     2091     1921     1715 
    1471     1204      950      766      676      630      583      540 
     503      453      398      337      268      211      166       95 
       6      -64     -105     -103      -58        6      101      284 
     557      855     1128     1343     1456     1472     1414     1300 
    1185     1135     1170     1248     1285     1243     1159     1093 
    1088     1161     1279     1377     1408     1385     1331     1251 
    1155     1047      889      677      479      333      234      179 
     141      102       67       52      101      236      433      669 
     927     1177     1368     1464     1493     1506     1549     1652 
    1786     1927     2084     2242     2367     2439     2450     2403 
    2292     2135     1958     1782     1598     1385     1128      837 
     540      276       68      -99     -247     -368     -444     -465 
    -427     -330     -214     -116      -39        1       -1      -13 
      -6       31       99      180      257      329      396      463 
     572      758      986     1231     1490     1714     1853     1927 
    1993     2093     2234     2373     2454     2463     2420     2336 
    2226     2112     2018     1957     1922     1877     1814     1742 
    1628     1429     1167      881      602      364      182       54 
     -21      -56      -76      -97     -109     -112     -129     -170 
    -202     -210     -189     -140      -59       71      252      456 
     660      855     1057     1250     1394     1467     1464     1412 
    1359     1333     1325     1337     1359     1367     1371     1390 
    1437     1514     1576     1582     1528     1418     1269     1135 
    1066     1044     1028     1004     1000     1039     1117     1213 
    1306     1341     1300     1237     1231     1298     1414     1533 
    1628     1692     1701     1628     1483     1312     1181     1112 
    1055      957      837      727      638      598      608      615 
     584      538      519      557      627      699      784      876 
     913      870      780      704      683      712      753      773 
     783      799      834      903      985     1055     1132     1228 
    1337     1458     1576     1669     1709     1709     1718     1744 
    1757     1733     1632     1458     1262     1071      884      727 
     623      556      513      495      523      612      723      796 
     805      757      634      445      240       64      -74     -174 
    -236     -257     -229     -143       -8      168      382      612 
     878     1206     1568     1919     2227     2465     2614     2662 
    2605     2479     2351     2284     2295     2336     2340     2268 
    2107     1869     1615     1417     1283     1197     1152     1119 
    1062      958      801      607      403      218       79       25 
      64      141      205      253      301      348      405      488 
     599      730      865      966     1032     1101     1179     1259 
    1331     1360     1344     1317     1302     1309     1347     1375 
    1332     1196      990      788      672      669      749      866 
     959      961      859      688      511      405      392      440 
     507      579      665      777      886      957     1003     1051 
    1127     1224     1293     1291     1227     1134     1048      978 
     911      823      719      642      618      626      670      762 
     866      959     1042     1090     1096     1078     1051     1020 
    1003     1011     1046     1123     1231     1313     1343     1335 
    1293     1224     1197     1260     1386     1534     1664     1713 
    1667     1588     1524     1468     1402     1300     1138      908 
     645      433      324      291      307      361      426      468 
     494      538      631      789     1019     1283     1490     1584 
    1609     1595     1529     1399     1206      957      702      510 
     405      361      328      264      186      117       48       20 
      94      255      449      626      769      920     1094     1227 
    1306     1386     1460     1505     1534     1533     1467     1375 
    1352     1459     1661     1865     1999     2054     2039     1975 
    1911     1876     1871     1869     1817     1692     1516     1273 
     958      626      324       68     -112     -176     -106       58 
     256      423      529      584      599      556      464      378 
     355      411      538      710      874      984     1023     1005 
     949      864      789      797      916     1102     1309     1513 
    1711     1895     2027     2052     1938     1699     1394     1116 
     909      764      681      650      623      585      540      450 
     314      186      114      102      149      247      340      360 
     283      139      -14     -140     -224     -253     -224     -113 
      82      351      664      965     1205     1401     1587     1771 
    1946     2069     2060     1877     1568     1227      938      765 
     738      820      943     1035     1043      963      847      741 
     638      545      502      502      534      610      680      712 
     760      828      861      849      814      770      753      805 
     931     1100     1294     1443     1452     1354     1262     1242 
    1293     1367     1405     1378     1304     1227     1162     1105 
    1034      909      761      645      579      585      664      777 
     892      981     1024     1061     1125     1206     1298     1402 
    1468     1464     1466     1528     1603     1655     1682     1683 
    1647     1551     1426     1317     1228     1151     1081     1009 
     954      901      804      683      591      552      592      695 
     784      807      791      791      847      943     1016     1046 
    1066     1125     1235     1355     1428     1466     1507     1559 
    1624     1676     1680     1638     1572     1525     1513     1507 
    1459     1323     1107      877      693      585      553      562 
     568      540      450      286       59     -179     -336     -330 
    -153      124      395      604      747      826      870      901 
     927      999     1143     1324     1498     1641     1746     1823 
    1864     1838     1746     1620     1495     1401     1340     1290 
    1237     1208     1239     1313     1378     1378     1278     1131 
    1000      866      716      596      519      472      436      382 
     322      302      336      406      494      614      807     1067 
    1378     1726     2076     2381     2583     2637     2550     2393 
    2218     2007     1757     1490     1225      985      781      585 
     375      174       44       31      144      348      558      703 
     754      729      683      666      687      708      708      715 
     760      839      927     1013     1094     1171     1255     1356 
    1490     1637     1736     1740     1644     1476     1296     1136 
     992      853      718      583      461      391      394      459 
     556      638      691      726      756      789      830      849 
     842      846      882      939      977      945      834      711 
     627      581      575      621      702      788      870      924 
     892      774      614      437      280      178      129      117 
     117      124      171      297      525      822     1098     1305 
    1429     1485     1507     1513     1490     1425     1293     1082 
     837      637      531      535      621      739      881     1054 
    1243     1433     1590     1695     1761     1809     1834     1813 
    1692     1463     1158      816      492      249      105       71 
     160      321      472      580      657      751      908     1128 
    1377     1588     1715     1776     1823     1885     1960     2041 
    2110     2139     2108     1998     1802     1570     1381     1279 
    1237     1205     1155     1063      923      750      558      375 
     241      164      118      108      149      234      367      577 
     835     1069     1242     1352     1395     1377     1316     1243 
    1196     1192     1215     1251     1308     1382     1448     1463 
    1414     1331     1227     1107      969      832      746      706 
     666      627      607      604      608      581      507      406 
     287      164       64        5        4       85      240      415 
     565      718      924     1189     1476     1746     1987     2196 
    2357     2446     2466     2438     2373     2281     2151     1968 
    1734     1475     1232     1040      938      930      955      951 
     912      839      712      553      411      313      257      221 
     139      -33     -259     -475     -629     -680     -634     -521 
    -345     -117      130      369      584      774      954     1121 
    1251     1331     1381     1437     1524     1610     1642     1601 
    1520     1451     1413     1401     1441     1579     1796     2004 
    2142     2222     2235     2181     2091     1965     1794     1570 
    1287      966      629      318       76     -130     -363     -614 
    -830     -966     -993     -920     -792     -643     -483     -322 
    -175      -33      112      271      433      581      699      766 
     800      839      884      924      982     1058     1128     1190 
    1227     1225     1174     1069      936      823      750      704 
     691      724      791      859      934     1016     1089     1159 
    1259     1387     1518     1638     1753     1881     2030     2185 
    2307     2330     2238     2096     1973     1869     1772     1691 
    1629     1578     1532     1490     1422     1312     1182     1069 
     950      780      554      301       40     -213     -445     -670 
    -912    -1134    -1282    -1343    -1309    -1170     -949     -700 
    -459     -194      113      429      703      942     1173     1367 
    1502     1599     1644     1644     1642     1660     1683     1696 
    1692     1659     1598     1537     1501     1498     1521     1537 
    1517     1474     1429     1389     1348     1296     1201     1044 
     865      735      689      707      761      845      962     1101 
    1252     1405     1551     1679     1764     1798     1798     1807 
    1867     1957     2029     2072     2095     2111     2143     2180 
    2188     2150     2041     1844     1617     1445     1358     1328 
    1294     1185      996      778      584      437      348      311 
     310      338      440      634      881     1129     1358     1559 
    1733     1876     1991     2096     2187     2223     2168     2031 
    1857     1671     1489     1318     1142      931      688      446 
     247      122       91      147      251      373      507      629 
     718      777      822      858      886      913      942      961 
     984     1046     1123     1146     1089      976      835      689 
     548      441      390      371      332      236       81      -93 
    -220     -240     -151        1      171      329      456      571 
     715      903     1138     1401     1644     1841     2010     2162 
    2313     2466     2614     2752     2871     2964     3019     3019 
    2964     2890     2840     2830     2857     2914     2964     2971 
    2913     2782     2593     2350     2046     1690     1289      857 
     449      132     -102     -307     -496     -657     -789     -915 
   -1028    -1071     -992     -807     -565     -314      -74      157 
     371      546      673      754      826      913      989     1023 
    1012      992      984      980      939      851      770      742 
     765      814      841      827      797      777      766      754 
     729      704      708      741      787      838      928     1104 
    1362     1663     1962     2243     2474     2633     2748     2835 
    2879     2884     2857     2770     2606     2378     2112     1831 
    1548     1252      955      668      395      166       16      -56 
     -71      -31       67      198      351      541      773     1044 
    1323     1557     1728     1837     1908     1979     2053     2112 
    2195     2347     2563     2799     3011     3186     3322     3408 
    3442     3431     3387     3312     3169     2928     2592     2189 
    1767     1362      992      668      380      112     -136     -372 
    -602     -816    -1007    -1163    -1278    -1348    -1378    -1398 
   -1428    -1468    -1537    -1641    -1767    -1895    -2011    -2085 
   -2101    -2047    -1929    -1771    -1595    -1394    -1162     -899 
    -592     -238      152      546      892     1167     1375     1537 
    1691     1854     2027     2193     2346     2485     2606     2681 
    2706     2733     2795     2867     2924     2948     2937     2898 
    2840     2751     2601     2386     2133     1850     1564     1294 
    1034      799      616      481      364      241      130       43 
     -32     -102     -176     -290     -442     -598     -733     -839 
    -911     -936     -903     -803     -622     -356      -52      255 
     562      847     1084     1300     1510     1692     1850     2004 
    2142     2235     2272     2246     2160     2077     2060     2080 
    2091     2062     1985     1896     1823     1737     1594     1389 
    1146      911      720      571      430      287      157       44 
     -56     -147     -220     -264     -272     -226     -126       -1 
     136      271      396      527      666      795      895      961 
    1003     1013      966      850      664      433      216       49 
     -67     -135     -162     -170     -174     -174     -167     -130 
     -72      -33      -58     -168     -336     -502     -634     -712 
    -745     -766     -778     -777     -764     -723     -634     -488 
    -310     -145        6      166      318      432      491      527 
     571      627      702      773      822      857      912     1015 
    1167     1335     1482     1607     1734     1868     2004     2138 
    2234     2281     2308     2320     2311     2300     2301     2307 
    2330     2370     2403     2413     2401     2359     2280     2157 
    1996     1810     1618     1449     1317     1198     1053      865 
     657      473      353      299      295      337      405      465 
     529      611      729      908     1146     1404     1659     1899 
    2111     2278     2401     2493     2555     2593     2640     2704 
    2759     2786     2783     2745     2659     2538     2409     2296 
    2200     2120     2043     1956     1860     1764     1665     1571 
    1498     1464     1494     1605     1769     1923     2020     2046 
    1988     1877     1763     1637     1479     1304     1116      897 
     639      353       68     -184     -388     -548     -675     -768 
    -804     -784     -738     -684     -635     -579     -490     -384 
    -290     -207     -140      -78        4      102      194      256 
     288      307      330      367      419      476      534      606 
     692      793      926     1089     1278     1499     1759     2056 
    2370     2673     2952     3207     3427     3588     3658     3645 
    3574     3438     3226     2974     2704     2412     2099     1769 
    1425     1085      762      459      189      -49     -279     -514 
    -753     -972    -1156    -1287    -1332    -1309    -1250    -1161 
   -1043     -916     -814     -764     -757     -764     -765     -738 
    -673     -575     -433     -245      -39      156      333      500 
     650      774      895     1030     1186     1358     1544     1740 
    1933     2118     2285     2416     2497     2533     2550     2573 
    2609     2633     2627     2594     2535     2462     2405     2369 
    2343     2332     2324     2308     2286     2251     2172     2038 
    1871     1699     1551     1439     1347     1246     1139     1050 
     990      950      918      880      823      746      641      502 
     345      190       64        6       14       40       35       -4 
     -47      -71      -58       -4       81      175      259      319 
     365      413      480      561      654      768      877      953 
    1001     1044     1075     1085     1063     1009      950      901 
     845      757      646      533      437      365      325      326 
     369      468      637      862     1119     1398     1694     2002 
    2320     2644     2955     3225     3424     3545     3600     3605 
    3572     3514     3445     3383     3338     3273     3168     3030 
    2870     2712     2579     2474     2384     2304     2214     2081 
    1892     1651     1374     1090      819      560      310       59 
    -191     -429     -634     -799     -916     -994    -1039    -1053 
   -1053    -1040    -1008     -954     -880     -797     -727     -668 
    -606     -534     -444     -329     -197      -43      126      288 
     432      556      662      754      824      857      865      864 
     849      822      801      778      741      685      612      530 
     438      333      211       66      -95     -255     -398     -518 
    -598     -630     -622     -572     -490     -387     -280     -163 
     -18      144      315      499      707      936     1175     1394 
    1568     1694     1780     1830     1858     1890     1941     2038 
    2191     2378     2575     2767     2938     3095     3248     3375 
    3454     3474     3422     3304     3140     2921     2677     2438 
    2195     1942     1701     1476     1258     1044      865      737 
     650      580      510      441      372      295      207      117 
      28      -59     -129     -160     -162     -145     -113      -62 
       1       75      164      271      399      544      695      841 
     966     1071     1155     1216     1252     1254     1209     1116 
    1008      918      854      818      808      818      846      903 
     978     1048     1121     1200     1262     1296     1304     1304 
    1332     1401     1502     1625     1753     1881     2010     2123 
    2209     2282     2358     2438     2521     2597     2651     2671 
    2654     2586     2461     2293     2093     1864     1606     1336 
    1069      826      623      464      332      220      130       51 
     -24      -79     -101      -90      -47        5       51       99 
