Origin Time       2025/01/13 21:19:00
Lat.              31.8
Long.             131.6
Depth. (km)       30
Mag.              6.9
Station Code      KOC013
Station Lat.      33.0797
Station Long.     133.1023
Station Height(m) 4
Record Time       2025/01/13 21:20:18
Sampling Freq(Hz) 100Hz
Duration Time(s)  123
Dir.              U-D
Scale Factor      7845(gal)/8223790
Max. Acc. (gal)   3.746
Last Correction   2025/01/13 21:20:17
Memo.             
[...]
   12384    12348    12071    11904    11851    11780    11830    12046 
   12294    12433    12294    11947    11718    11711    11704    11610 
   11619    11705    11684    11688    11927    12275    12430    12276 
   12027    11911    11954    12190    12587    12796    12680    12665 
   12877    12742    12117    11649    11680    11934    12155    12299 
   12422    12575    12618    12363    11997    11815    11689    11514 
   11491    11622    11774    11927    11920    11686    11527    11580 
   11715    11963    12332    12602    12714    12802    12814    12677 
   12598    12745    12969    13078    13054    12958    12822    12579 
   12209    11832    11454    10990    10498    10153    10100    10270 
   10436    10497    10600    10867    11102    11152    11252    11462 
   11516    11412    11407    11546    11732    12006    12332    12526 
   12590    12540    12278    11928    11664    11450    11259    11133 
   11117    11207    11369    11619    11912    12132    12286    12425 
   12587    12698    12521    12177    12054    12089    12087    12124 
   12199    12231    12233    12248    12256    12078    11538    10899 
   10629    10701    10710    10593    10693    11119    11585    11973 
   12382    12789    13053    13126    13159    13275    13351    13235 
   12892    12279    11560    11149    11155    11261    11241    11114 
   10936    10717    10476    10262    10030     9760     9617     9676 
    9883    10191    10470    10670    10928    11269    11568    11655 
   11537    11450    11470    11561    11867    12390    12834    13011 
   12970    12918    13240    13996    14605    14769    14759    14575 
   14004    13193    12375    11553    10736    10123     9875     9937 
   10226    10674    11041    11199    11357    11593    11769    11919 
   12094    12210    12271    12286    12164    11938    11709    11421 
   11171    11311    11761    12054    12172    12274    12177    11912 
   11780    11830    11975    12081    11988    11901    12124    12487 
   12691    12664    12424    12167    12048    11826    11349    10891 
   10666    10606    10723    11142    11759    12317    12694    12937 
   13163    13374    13512    13597    13644    13717    13819    13691 
   13216    12658    12141    11605    11146    10801    10511    10284 
   10002     9733     9779    10048    10296    10623    11043    11341 
   11529    11762    11946    11998    12139    12436    12669    12717 
   12575    12303    12047    11843    11672    11665    11866    12050 
   12050    12054    12310    12649    12750    12641    12510    12382 
   12240    12062    11738    11322    11107    11229    11506    11712 
   11859    12162    12658    13093    13340    13541    13740    13872 
   13819    13439    12978    12699    12401    12021    11743    11556 
   11403    11292    11137    10886    10620    10434    10357    10396 
   10593    10941    11327    11716    12123    12422    12553    12576 
   12533    12453    12282    12055    12008    12094    12089    12042 
   12029    11874    11489    11106    10967    11106    11426    11682 
   11670    11488    11233    10859    10578    10635    10851    11173 
   11847    12679    13294    13670    13757    13648    13655    13667 
   13424    13035    12680    12372    12120    12028    12064    11979 
   11763    11587    11395    11119    10906    10912    11098    11252 
   11268    11264    11211    10952    10663    10586    10681    10968 
   11484    12012    12291    12189    11809    11481    11361    11338 
   11402    11572    11719    11790    11840    11848    11848    11831 
   11641    11329    11168    11227    11350    11423    11433    11461 
   11619    11843    11962    11862    11533    11199    11168    11391 
   11605    11653    11524    11350    11210    11047    10922    11006 
   11261    11434    11427    11464    11742    12101    12345    12688 
   13267    13706    13832    13833    13707    13447    13203    13008 
   12798    12555    12391    12375    12309    12055    11769    11593 
   11562    11632    11695    11882    12472    13225    13675    13780 
   13617    13127    12460    11928    11631    11534    11619    11767 
   11811    11678    11344    10920    10633    10543    10656    11016 
   11406    11565    11601    11668    11682    11635    11619    11592 
   11488    11380    11303    11194    11126    11269    11541    11773 
   11955    12006    11932    11939    12032    12051    12010    11958 
   11799    11473    11060    10714    10656    11014    11622    12172 
   12534    12739    12879    13057    13236    13297    13275    13212 
   13049    12829    12557    12201    11956    11967    11970    11743 
   11406    11101    10918    10894    10922    10998    11171    11238 
   11022    10647    10392    10503    10971    11674    12561    13402 
   13977    14341    14457    14304    14017    13529    12911    12568 
   12479    12244    11821    11360    10816    10224     9741     9450 
    9452     9740    10054    10274    10493    10714    10899    11095 
   11368    11831    12453    12985    13279    13423    13491    13471 
   13414    13324    13072    12727    12488    12351    12282    12310 
   12375    12368    12275    12166    11967    11553    11136    10962 
   10956    11016    11067    11021    10943    10905    10824    10687 
   10601    10621    10671    10647    10633    10779    11036    11337 
   11724    12117    12320    12321    12397    12703    13003    13181 
   13367    13521    13617    13729    13755    13614    13333    12860 
   12256    11739    11361    11090    10951    10897    10898    10984 
   11072    11082    11032    10940    10821    10700    10628    10639 
   10724    10901    11126    11396    11842    12436    13019    13602 
   14092    14241    14212    14319    14316    13940    13441    12966 
   12442    12028    11793    11549    11268    11068    10935    10831 
   10874    11106    11375    11692    12198    12754    13115    13270 
   13234    12977    12592    12155    11707    11335    10957    10480 
   10102     9929     9784     9641     9699     9984    10287    10530 
   10940    11646    12386    12977    13556    14067    14291    14268 
   14108    13878    13645    13306    12829    12480    12297    11971 
   11448    10916    10496    10274    10280    10417    10581    10785 
   11045    11213    11229    11263    11376    11520    11697    11854 
   11993    12163    12191    11986    11793    11762    11819    11870 
   11799    11570    11368    11265    11097    10867    10752    10740 
   10756    10860    11072    11291    11462    11631    11801    11942 
   12131    12422    12719    12919    12930    12722    12437    12171 
   11901    11707    11688    11746    11700    11502    11260    11095 
   11009    11024    11190    11398    11583    11840    12096    12182 
   12225    12460    12850    13215    13471    13555    13432    13302 
   13351    13420    13363    13300    13236    12937    12363    11785 
   11361    11040    10895    11020    11237    11375    11488    11554 
   11473    11452    11689    11950    12028    12013    12058    12183 
   12185    11958    11678    11438    11206    11022    10901    10779 
   10696    10763    10993    11311    11565    11718    11996    12448 
   12943    13467    13883    14058    14141    14143    13964    13686 
   13312    12838    12394    11884    11186    10523    10031     9639 
    9387     9313     9320     9331     9329     9319     9391     9733 
   10347    10999    11542    11985    12379    12814    13271    13575 
   13651    13624    13568    13414    13171    12906    12549    12096 
   11823    11921    12112    12155    12210    12302    12248    12069 
   11892    11839    11959    12106    12128    12055    11986    11988 
   12029    11970    11813    11784    11850    11707    11367    11005 
   10584    10164     9936     9871     9864     9969    10308    10902 
   11607    12290    12935    13545    14019    14195    14050    13745 
   13408    13090    12834    12664    12514    12306    12082    11897 
   11680    11379    11107    10971    10876    10673    10427    10280 
   10204    10222    10431    10791    11190    11518    11772    12028 
   12232    12312    12383    12546    12731    12873    12978    13007 
   12922    12725    12406    12100    11913    11734    11533    11385 
   11267    11253    11469    11767    12019    12364    12829    13294 
   13695    13937    14002    14011    13971    13776    13443    13065 
   12631    12090    11550    11157    10809    10331     9840     9537 
    9413     9497     9937    10625    11265    11808    12306    12640 
   12874    13285    13798    14287    14914    15522    15703    15543 
   15369    15261    15157    14924    14473    13826    13004    12136 
   11489    11121    10867    10666    10546    10440    10338    10343 
   10552    10989    11523    11989    12386    12679    12753    12667 
   12447    12024    11473    10886    10312     9876     9591     9417 
    9471     9725     9981    10223    10482    10721    11016    11410 
   11848    12349    12796    12974    12962    12900    12690    12340 
   12062    11907    11718    11376    10878    10342     9911     9628 
    9531     9616     9764     9964    10230    10361    10289    10242 
   10345    10588    10989    11550    12268    13004    13552    13888 
   14035    13949    13649    13197    12637    12078    11622    11268 
   10997    10764    10543    10408    10403    10524    10841    11362 
   11948    12460    12829    13085    13243    13262    13212    13246 
   13393    13521    13562    13555    13458    13240    12973    12702 
   12420    12073    11677    11341    11009    10616    10315    10245 
   10427    10760    11048    11218    11358    11481    11581    11812 
   12240    12636    12868    12995    13012    12966    12953    13019 
   13205    13410    13485    13497    13509    13362    13031    12735 
   12546    12353    12148    11975    11780    11479    11149    10970 
   10970    10963    10883    10910    11118    11430    11789    12056 
   12163    12182    12091    11892    11709    11573    11414    11186 
   10966    10910    10978    11071    11222    11402    11593    11857 
   12108    12229    12243    12270    12432    12646    12690    12517 
   12232    11855    11403    10932    10467    10038     9710     9486 
    9277     9081     9049     9320     9821    10278    10582    10878 
   11206    11533    11947    12413    12779    13030    13205    13350 
   13508    13568    13413    13095    12610    11950    11283    10736 
   10291     9971     9842     9934    10158    10395    10723    11186 
   11574    11816    12010    12175    12371    12676    12968    13073 
   12960    12741    12579    12453    12229    12021    12048    12255 
   12457    12532    12378    12093    11989    12131    12329    12569 
   12920    13235    13362    13302    13107    12910    12853    12860 
   12781    12613    12432    12251    11971    11570    11196    10959 
   10868    10825    10750    10766    10944    11215    11577    11971 
   12312    12673    13115    13531    13884    14207    14374    14293 
   14064    13774    13433    13032    12506    11850    11194    10642 
   10191     9844     9634     9628     9898    10400    10974    11522 
   12054    12534    12868    13045    13100    13059    13034    13088 
   13130    13132    13113    12976    12734    12602    12640    12703 
   12707    12631    12442    12133    11753    11391    11121    10943 
   10897    11001    11125    11184    11273    11472    11758    12083 
   12353    12499    12565    12584    12564    12617    12772    12883 
   12891    12888    12897    12865    12825    12845    12893    12874 
   12729    12557    12486    12433    12353    12361    12417    12411 
   12410    12457    12453    12276    11929    11510    11072    10656 
   10350    10165    10044    10018    10183    10461    10640    10692 
   10778    10960    11179    11368    11497    11591    11670    11704 
   11716    11803    11996    12285    12653    13086    13571    14004 
   14210    14114    13772    13234    12491    11580    10655     9880 
    9359     9088     8893     8691     8622     8750     9034     9499 
   10116    10717    11176    11506    11772    12051    12363    12584 
   12587    12445    12339    12287    12189    12001    11707    11286 
   10794    10311     9891     9579     9383     9296     9347     9585 
    9965    10386    10813    11256    11653    11975    12264    12433 
   12413    12337    12260    12123    11936    11659    11269    10872 
   10520    10214    10026     9969     9944     9903     9942    10162 
   10490    10837    11229    11669    12148    12692    13269    13774 
   14152    14430    14611    14624    14503    14393    14331    14264 
   14203    14116    13942    13752    13578    13333    13080    12938 
   12841    12703    12538    12316    11950    11502    11107    10833 
   10737    10835    11028    11280    11611    11950    12228    12465 
   12672    12852    13026    13167    13246    13278    13265    13190 
   13011    12704    12434    12348    12382    12517    12775    13026 
   13147    13124    12982    12787    12611    12448    12225    11898 
   11452    10893    10285     9647     9015     8572     8390     8332 
    8337     8440     8656     9020     9548    10226    10982    11718 
   12417    13130    13876    14609    15250    15684    15804    15693 
   15499    15210    14831    14436    14031    13613    13167    12599 
   11881    11128    10476     9976     9648     9497     9450     9409 
    9342     9290     9344     9501     9628     9676     9745     9907 
   10156    10449    10709    10874    10978    11105    11253    11389 
   11577    11809    12008    12204    12461    12737    12978    13223 
   13493    13724    13840    13819    13680    13458    13185    12845 
   12451    12097    11819    11599    11485    11472    11426    11342 
   11303    11286    11280    11286    11234    11145    11101    11117 
   11209    11353    11477    11639    11971    12409    12804    13159 
   13479    13706    13868    14058    14277    14416    14376    14160 
   13859    13556    13271    13018    12842    12765    12758    12771 
   12704    12501    12274    12132    12024    11920    11866    11882 
   12016    12291    12637    12989    13333    13652    13910    14100 
   14210    14143    13868    13481    13027    12455    11782    11117 
   10494     9936     9495     9151     8865     8721     8769     8943 
    9221     9617    10053    10428    10740    11044    11368    11684 
   11958    12151    12247    12287    12249    12037    11696    11371 
   11083    10737    10301     9863     9490     9220     9096     9070 
    9093     9231     9525     9923    10308    10609    10920    11295 
   11581    11657    11669    11797    11981    12133    12314    12540 
   12756    12930    13036    13031    12908    12775    12729    12692 
   12599    12533    12487    12393    12297    12197    12036    11873 
   11761    11665    11588    11583    11641    11686    11682    11643 
   11619    11688    11881    12089    12216    12322    12451    12517 
   12479    12405    12320    12218    12159    12174    12229    12307 
   12414    12499    12510    12503    12521    12469    12317    12137 
   11925    11620    11273    10976    10675    10311    10006     9832 
    9675     9536     9506     9559     9672     9833     9983    10129 
   10355    10689    11061    11406    11742    12121    12526    12918 
   13311    13694    14023    14322    14616    14814    14841    14773 
   14635    14369    13990    13522    12978    12424    11888    11381 
   10983    10710    10528    10407    10278    10133    10092    10235 
   10486    10748    10968    11134    11250    11325    11407    11523 
   11635    11782    12048    12375    12652    12868    13001    13038 
   13066    13112    13095    13039    13063    13169    13242    13219 
   13151    13105    13027    12861    12667    12486    12330    12241 
   12167    12047    11929    11831    11689    11506    11322    11140 
   10960    10790    10582    10268     9913     9613     9377     9263 
    9382     9687    10061    10500    10983    11437    11892    12375 
   12781    13095    13363    13508    13495    13369    13111    12754 
   12383    11940    11383    10833    10396    10066     9887     9879 
    9960    10095    10327    10627    10951    11315    11716    12135 
   12571    12968    13282    13576    13875    14107    14250    14287 
   14207    14150    14169    14129    14014    13875    13618    13250 
   12877    12469    12012    11599    11250    10943    10682    10501 
   10435    10428    10423    10477    10604    10782    11020    11272 
   11520    11820    12120    12320    12425    12460    12430    12332 
   12160    11951    11703    11400    11119    10913    10746    10631 
   10606    10696    10929    11268    11604    11882    12098    12216 
   12193    12117    12062    11924    11701    11554    11506    11468 
   11446    11491    11637    11902    12259    12652    13062    13485 
   13896    14253    14521    14690    14708    14567    14376    14188 
   13934    13562    13130    12714    12274    11765    11300    10947 
   10613    10284    10045     9863     9691     9598     9597     9628 
    9705     9888    10176    10523    10910    11338    11804    12318 
   12853    13292    13544    13621    13522    13265    12941    12591 
   12181    11758    11376    11003    10640    10366    10214    10129 
   10072    10080    10193    10349    10482    10627    10798    10970 
   11163    11360    11499    11597    11697    11858    12129    12440 
   12700    12937    13163    13331    13413    13428    13402    13336 
   13221    13086    12984    12937    12887    12792    12696    12650 
   12631    12619    12626    12617    12552    12474    12442    12471 
   12499    12447    12314    12174    12093    12060    11985    11861 
   11784    11723    11611    11533    11543    11626    11794    12012 
   12204    12355    12469    12556    12610    12595    12496    12294 
   11971    11580    11225    10952    10708    10440    10173     9946 
    9788     9738     9798     9918    10116    10465    10939    11426 
   11865    12245    12522    12700    12850    12980    13080    13147 
   13117    12947    12687    12403    12131    11863    11639    11543 
   11572    11651    11774    11948    12108    12202    12301    12478 
   12685    12866    13032    13205    13393    13587    13734    13791 
   13782    13765    13780    13824    13848    13826    13756    13609 
   13397    13153    12823    12368    11875    11452    11090    10694 
   10255     9857     9537     9285     9105     9004     8972     8984 
    9032     9159     9396     9682     9984    10312    10647    10967 
   11271    11551    11780    11935    12044    12108    12124    12158 
   12220    12278    12366    12459    12455    12357    12240    12136 
   12077    12086    12133    12143    12050    11850    11627    11476 
   11389    11330    11337    11427    11546    11677    11830    11961 
   12083    12266    12448    12538    12584    12606    12602    12621 
