Origin Time       2025/01/13 21:19:00
Lat.              31.8
Long.             131.6
Depth. (km)       30
Mag.              6.9
Station Code      KOC003
Station Lat.      33.5014
Station Long.     133.9071
Station Height(m) 5
Record Time       2025/01/13 21:20:45
Sampling Freq(Hz) 100Hz
Duration Time(s)  113
Dir.              E-W
Scale Factor      7845(gal)/8223790
Max. Acc. (gal)   2.721
Last Correction   2025/01/13 21:20:45
Memo.             
[...]
    4637     4499     4212     3869     3551     3273     3079     3015 
    3055     3163     3299     3375     3361     3333     3338     3327 
    3261     3180     3146     3186     3291     3465     3715     4016 
    4310     4526     4611     4567     4452     4359     4353     4375 
    4336     4276     4255     4225     4116     3927     3701     3508 
    3377     3264     3140     3079     3136     3240     3307     3354 
    3477     3755     4178     4607     4877     4930     4846     4777 
    4820     4918     4941     4830     4629     4437     4334     4328 
    4345     4297     4145     3952     3811     3769     3842     3993 
    4128     4164     4125     4113     4210     4378     4487     4468 
    4375     4301     4241     4126     3975     3863     3808     3784 
    3751     3665     3527     3377     3265     3265     3407     3634 
    3881     4108     4283     4444     4645     4841     4966     5004 
    4942     4793     4626     4518     4510     4614     4806     5009 
    5092     4954     4635     4257     3940     3751     3712     3816 
    4016     4228     4410     4572     4725     4892     5074     5215 
    5273     5243     5148     5032     4919     4788     4645     4548 
    4494     4406     4268     4163     4164     4253     4318     4266 
    4112     3969     3927     3986     4090     4194     4287     4374 
    4467     4590     4766     4978     5146     5190     5081     4801 
    4363     3878     3522     3387     3418     3483     3505     3500 
    3493     3505     3522     3478     3388     3364     3480     3686 
    3893     4063     4206     4309     4344     4329     4314     4302 
    4240     4058     3719     3310     3013     2971     3207     3611 
    4000     4226     4232     4050     3797     3570     3439     3515 
    3842     4286     4661     4868     4931     4946     4949     4874 
    4665     4359     4048     3825     3748     3804     3950     4125 
    4248     4267     4194     4033     3781     3460     3126     2860 
    2755     2855     3111     3438     3758     3978     4036     3996 
    4004     4151     4414     4725     5000     5140     5107     4957 
    4785     4681     4687     4733     4742     4711     4672     4607 
    4484     4299     4106     3985     3985     4136     4436     4793 
    5055     5138     5081     5011     5049     5208     5360     5355 
    5178     4947     4772     4710     4762     4847     4831     4638 
    4286     3885     3578     3408     3339     3349     3408     3481 
    3578     3697     3775     3754     3651     3577     3619     3774 
    3985     4183     4307     4313     4193     3962     3639     3302 
    3083     3029     3080     3194     3361     3550     3727     3915 
    4168     4467     4738     4941     5020     4923     4676     4378 
    4125     4006     4059     4191     4232     4086     3785     3449 
    3211     3144     3217     3346     3462     3507     3435     3264 
    3073     2970     3022     3203     3403     3515     3511     3431 
    3354     3352     3438     3595     3800     4000     4139     4207 
    4234     4270     4357     4515     4756     5061     5355     5583 
    5715     5748     5702     5606     5486     5373     5301     5283 
    5251     5134     4973     4868     4842     4835     4770     4617 
    4403     4218     4109     4029     3928     3844     3844     3937 
    4102     4301     4465     4541     4549     4556     4584     4619 
    4602     4483     4283     4075     3948     3963     4116     4305 
    4423     4475     4533     4610     4673     4692     4615     4423 
    4179     3943     3771     3738     3852     4037     4213     4325 
    4347     4294     4218     4174     4207     4342     4548     4741 
    4857     4878     4811     4666     4506     4417     4450     4569 
    4693     4747     4676     4487     4257     4047     3842     3635 
    3454     3292     3126     3001     3021     3218     3487     3699 
    3802     3809     3748     3677     3659     3728     3871     4074 
    4311     4510     4595     4577     4517     4467     4464     4517 
    4602     4681     4746     4781     4743     4614     4423     4191 
    3939     3728     3589     3476     3354     3260     3214     3180 
    3136     3099     3090     3126     3217     3311     3381     3461 
    3554     3638     3727     3850     4010     4175     4336     4526 
    4716     4814     4780     4672     4576     4542     4564     4602 
    4615     4584     4507     4428     4411     4457     4504     4526 
    4531     4549     4565     4517     4436     4432     4526     4641 
    4702     4692     4625     4515     4395     4291     4230     4266 
    4419     4618     4739     4737     4634     4456     4233     4023 
    3867     3775     3751     3785     3828     3819     3750     3666 
    3607     3574     3549     3505     3469     3501     3609     3743 
    3875     3991     4054     4045     3997     3928     3863     3844 
    3877     3929     3966     3978     3967     3944     3916     3863 
    3761     3616     3474     3380     3352     3379     3438     3515 
    3624     3761     3881     3944     3966     4009     4112     4253 
    4390     4487     4537     4585     4634     4633     4576     4480 
    4338     4179     4072     4027     3994     3955     3896     3811 
    3766     3821     3954     4110     4266     4423     4591     4749 
    4877     4997     5132     5281     5428     5566     5694     5809 
    5910     5987     6034     6048     6023     5965     5891     5788 
    5625     5389     5086     4749     4444     4220     4075     3964 
    3848     3734     3608     3422     3176     2918     2710     2631 
    2709     2910     3144     3303     3346     3333     3352     3424 
    3520     3608     3696     3802     3933     4082     4209     4256 
    4220     4159     4122     4139     4222     4349     4448     4473 
    4422     4305     4158     4047     4002     4006     4032     4044 
    4028     4016     4063     4186     4351     4503     4612     4702 
    4783     4830     4858     4908     4970     5000     4951     4785 
    4511     4209     3975     3851     3790     3723     3636     3564 
    3531     3549     3601     3642     3608     3473     3283     3123 
    3084     3191     3360     3477     3508     3480     3441     3424 
    3410     3366     3314     3296     3331     3397     3476     3559 
    3643     3709     3744     3744     3732     3744     3782     3809 
    3812     3820     3889     4060     4325     4657     5003     5283 
    5456     5539     5560     5559     5595     5691     5779     5759 
    5590     5316     5020     4783     4637     4573     4569     4592 
    4604     4595     4576     4533     4413     4212     4002     3863 
    3802     3769     3721     3672     3647     3630     3591     3537 
    3487     3447     3424     3420     3441     3487     3512     3484 
    3434     3400     3392     3424     3526     3678     3819     3924 
    4009     4086     4191     4349     4513     4625     4669     4680 
    4688     4722     4812     4947     5053     5096     5109     5117 
    5124     5117     5096     5080     5067     5053     5039     5012 
    4954     4885     4833     4791     4752     4719     4680     4596 
    4444     4228     3983     3736     3514     3364     3311     3339 
    3446     3595     3731     3846     3942     4006     4041     4040 
    3986     3892     3775     3654     3543     3445     3393     3424 
    3516     3627     3717     3740     3685     3576     3438     3296 
    3179     3092     3038     3030     3092     3227     3420     3669 
    3956     4234     4442     4571     4673     4799     4947     5101 
    5248     5391     5526     5632     5709     5786     5859     5908 
    5923     5895     5830     5760     5717     5713     5742     5796 
    5848     5856     5790     5643     5431     5194     4966     4766 
    4608     4479     4333     4137     3900     3654     3458     3346 
    3288     3222     3121     3003     2887     2787     2737     2758 
    2813     2857     2903     2983     3100     3235     3380     3539 
    3694     3813     3896     3944     3964     3977     3977     3952 
    3919     3908     3936     3987     4029     4037     4027     4028 
    4062     4110     4151     4170     4135     4033     3915     3825 
    3758     3686     3613     3527     3391     3238     3110     2978 
    2821     2667     2559     2535     2606     2740     2907     3090 
    3277     3469     3642     3774     3874     3962     4050     4133 
    4230     4357     4480     4556     4581     4571     4530     4457 
    4361     4253     4143     4044     3960     3888     3829     3797 
    3797     3847     3948     4087     4256     4436     4596     4716 
    4787     4810     4777     4691     4598     4527     4467     4409 
    4351     4286     4218     4164     4153     4180     4191     4160 
    4121     4102     4126     4213     4349     4502     4625     4680 
    4656     4576     4491     4446     4467     4542     4633     4696 
    4719     4702     4662     4637     4639     4650     4652     4662 
    4726     4847     4970     5062     5124     5142     5116     5086 
    5085     5109     5136     5165     5196     5206     5193     5170 
    5142     5082     4982     4849     4689     4525     4403     4324 
    4241     4153     4077     3989     3877     3763     3661     3572 
    3489     3404     3318     3245     3200     3184     3191     3221 
    3279     3366     3469     3564     3643     3716     3790     3889 
    4023     4179     4332     4452     4537     4579     4564     4502 
    4419     4351     4329     4378     4483     4618     4753     4854 
    4888     4853     4784     4725     4691     4688     4707     4707 
    4657     4564     4437     4279     4114     3979     3879     3780 
    3647     3485     3325     3218     3190     3207     3225     3229 
    3235     3248     3250     3249     3262     3302     3362     3416 
    3450     3469     3476     3468     3435     3370     3299     3258 
    3262     3314     3412     3538     3677     3821     3948     4050 
    4132     4190     4213     4233     4288     4371     4453     4518 
    4563     4585     4575     4540     4506     4459     4369     4259 
    4149     4045     3956     3892     3848     3836     3869     3942 
    4017     4089     4172     4256     4298     4290     4264     4260 
    4302     4369     4415     4418     4383     4317     4225     4118 
    4018     3937     3882     3854     3867     3902     3917     3908 
    3888     3855     3812     3755     3681     3612     3559     3512 
    3462     3418     3402     3426     3466     3497     3523     3566 
    3630     3708     3780     3836     3894     3971     4079     4217 
    4376     4540     4653     4689     4675     4648     4641     4662 
    4700     4727     4730     4733     4765     4801     4810     4796 
    4772     4749     4723     4683     4621     4553     4504     4482 
    4463     4445     4432     4407     4379     4376     4403     4432 
    4422     4355     4247     4126     4021     3946     3886     3824 
    3744     3663     3608     3582     3569     3558     3551     3569 
    3620     3712     3824     3921     3989     4036     4087     4164 
    4267     4376     4472     4544     4584     4581     4556     4542 
    4550     4581     4637     4729     4855     4993     5111     5196 
    5258     5314     5386     5466     5530     5564     5560     5518 
    5451     5360     5246     5117     4995     4874     4741     4590 
    4446     4329     4239     4171     4114     4068     4036     4008 
    3956     3870     3769     3672     3589     3541     3526     3522 
    3530     3574     3650     3728     3798     3844     3848     3832 
    3844     3904     3990     4085     4159     4183     4147     4066 
    3973     3879     3789     3720     3680     3635     3580     3530 
    3495     3478     3488     3518     3542     3530     3485     3419 
    3341     3271     3234     3219     3214     3211     3215     3217 
    3222     3256     3308     3350     3380     3403     3410     3396 
    3379     3366     3376     3411     3454     3465     3424     3369 
    3331     3311     3316     3352     3384     3399     3424     3478 
    3549     3622     3685     3736     3788     3862     3967     4081 
    4174     4236     4251     4214     4167     4159     4185     4222 
    4267     4320     4372     4426     4496     4569     4618     4649 
    4684     4718     4754     4833     4963     5125     5302     5486 
    5655     5791     5918     6053     6183     6301     6419     6520 
    6589     6643     6694     6739     6758     6732     6673     6597 
    6516     6430     6345     6251     6135     5985     5815     5637 
    5445     5244     5043     4837     4638     4479     4360     4256 
    4149     4047     3974     3933     3910     3904     3901     3889 
    3882     3897     3931     3979     4035     4090     4117     4089 
    4005     3886     3751     3615     3493     3391     3289     3173 
    3061     2984     2953     2971     3040     3150     3267     3369 
    3473     3597     3732     3863     3970     4024     4012     3943 
    3831     3685     3516     3342     3164     2987     2813     2635 
    2452     2276     2093     1898     1696     1520     1391     1321 
    1310     1343     1387     1437     1487     1534     1583     1644 
    1725     1815     1900     1985     2080     2189     2317     2474 
    2650     2828     3019     3242     3485     3740     4020     4325 
    4627     4900     5143     5344     5495     5605     5686     5746 
    5796     5844     5881     5892     5884     5879     5881     5877 
    5868     5867     5869     5859     5849     5850     5842     5826 
    5825     5827     5806     5756     5698     5645     5606     5571 
    5524     5452     5363     5267     5167     5050     4905     4742 
    4573     4396     4226     4072     3936     3829     3770     3747 
    3724     3681     3628     3577     3549     3564     3604     3647 
    3690     3731     3767     3804     3854     3920     4004     4091 
    4153     4167     4140     4101     4066     4023     3974     3924 
    3858     3766     3659     3553     3466     3418     3396     3375 
    3343     3312     3294     3287     3288     3312     3354     3399 
    3458     3534     3604     3662     3719     3777     3820     3842 
    3862     3902     3962     4025     4083     4129     4159     4189 
    4218     4249     4314     4432     4576     4725     4854     4931 
    4941     4926     4924     4920     4895     4865     4847     4823 
    4780     4733     4692     4654     4621     4577     4506     4415 
    4334     4275     4233     4206     4206     4230     4264     4305 
    4351     4405     4464     4526     4599     4673     4739     4799 
    4837     4830     4784     4718     4641     4569     4523     4503 
    4483     4448     4392     4310     4220     4160     4131     4113 
    4101     4082     4066     4063     4079     4116     4158     4176 
    4164     4121     4045     3947     3835     3716     3597     3483 
    3379     3285     3211     3184     3219     3304     3415     3526 
    3613     3681     3754     3859     3986     4101     4180     4229 
    4259     4282     4303     4324     4340     4349     4357     4356 
    4332     4290     4248     4218     4209     4207     4198     4182 
    4162     4129     4079     4018     3944     3842     3720     3622 
    3578     3591     3650     3744     3840     3901     3909     3861 
    3758     3642     3564     3534     3539     3576     3627     3663 
    3674     3669     3654     3649     3663     3711     3797     3905 
    4018     4136     4253     4383     4542     4720     4907     5089 
    5242     5354     5428     5466     5468     5436     5385     5331 
    5292     5270     5244     5198     5125     5034     4951     4895 
    4850     4818     4781     4729     4671     4617     4557     4495 
    4444     4396     4333     4243     4126     3983     3812     3618 
    3410     3180     2930     2689     2481     2307     2174     2083 
    2023     1998     2015     2068     2154     2261     2370     2484 
    2597     2697     2787     2894     3022     3167     3323     3480 
    3631     3767     3883     3969     4027     4079     4135     4206 
    4313     4441     4567     4685     4781     4826     4815     4769 
    4720     4680     4648     4639     4649     4649     4642     4637 
    4623     4607     4606     4621     4638     4652     4676     4722 
    4779     4822     4837     4820     4788     4774     4788     4820 
    4866     4908     4934     4938     4920     4880     4828     4783 
    4749     4719     4689     4662     4646     4638     4621     4602 
    4594     4581     4567     4567     4585     4630     4703     4787 
    4872     4955     5032     5084     5097     5097     5105     5113 
    5111     5084     5024     4923     4800     4684     4591     4523 
    4494     4482     4461     4436     4407     4367     4307     4252 
    4225     4221     4224     4228     4229     4230     4240     4252 
    4248     4209     4140     4062     3986     3915     3840     3751 
    3654     3577     3528     3503     3483     3451     3403     3334 
    3260     3214     3199     3210     3234     3241     3229     3207 
    3187     3181     3180     3176     3191     3242     3325     3427 
    3524     3597     3640     3667     3700     3751     3827     3916 
    3982     4021     4054     4083     4118     4175     4245     4324 
    4406     4492     4598     4719     4846     4959     5026     5042 
    5024     4982     4923     4858     4797     4742     4683     4611 
    4519     4390     4232     4062     3889     3727     3589     3474 
    3380     3303     3238     3168     3102     3065     3069     3122 
    3235     3395     3565     3726     3877     4037     4228     4433 
    4633     4820     4989     5140     5267     5362     5428     5471 
    5489     5490     5463     5414     5366     5298     5190     5055 
    4919     4785     4650     4511     4363     4191     3996     3793 
    3588     3383     3207     3068     2944     2836     2754     2683 
    2613     2536     2454     2362     2266     2189     2137     2091 
    2049     2011     1979     1971     1999     2049     2104     2164 
    2228     2304     2386     2485     2610     2758     2921     3106 
    3311     3526     3759     4021     4301     4581     4851     5100 
    5336     5572     5803     6016     6201     6353     6477     6579 
    6658     6705     6710     6677     6633     6590     6543     6498 
    6462     6434     6394     6336     6254     6147     6018     5886 
    5767     5665     5572     5493     5427     5360     5279     5185 
    5070     4935     4797     4676     4577     4495     4410     4305 
    4164     3998     3835     3703     3622     3595     3609     3645 
    3696     3762     3831     3909     4012     4137     4272     4407 
    4541     4665     4773     4861     4922     4941     4923     4884 
    4816     4703     4556     4409     4259     4094     3916     3720 
