Origin Time       2025/01/13 21:19:00
Lat.              31.8
Long.             131.6
Depth. (km)       30
Mag.              6.9
Station Code      KOC014
Station Lat.      32.9897
Station Long.     132.9403
Station Height(m) 6
Record Time       2025/01/13 21:20:11
Sampling Freq(Hz) 100Hz
Duration Time(s)  147
Dir.              U-D
Scale Factor      7845(gal)/8223790
Max. Acc. (gal)   5.352
Last Correction   2025/01/13 21:20:11
Memo.             
[...]
    2373     1783     1146      787      788     1055     1451     1894 
    2413     2979     3474     3852     4056     4000     3782     3604 
    3520     3426     3194     2744     2112     1517     1246     1389 
    1823     2388     2955     3434     3781     4052     4372     4703 
    4828     4599     4043     3319     2585     1873     1254      949 
    1108     1636     2269     2728     2874     2770     2546     2276 
    1972     1669     1468     1444     1572     1810     2145     2506 
    2774     2922     2976     2951     2889     2810     2721     2686 
    2716     2743     2752     2770     2782     2805     2853     2862 
    2802     2694     2478     2164     1969     2073     2373     2686 
    3005     3349     3578     3514     3141     2655     2280     2085 
    1979     1777     1440     1206     1318     1733     2295     2917 
    3495     3898     4072     4044     3878     3578     3087     2373 
    1489      562     -180     -554     -511      -83      635     1470 
    2317     3161     3854     4195     4190     3993     3755     3557 
    3366     3161     2997     2909     2847     2743     2590     2411 
    2285     2332     2533     2776     3014     3173     3196     3168 
    3165     3196     3315     3530     3704     3639     3250     2681 
    2177     1852     1652     1485     1323     1159      950      681 
     494      673     1348     2220     2814     2947     2816     2718 
    2809     3049     3275     3357     3248     2901     2376     1927 
    1800     2011     2339     2511     2376     2034     1799     1910 
    2342     2917     3406     3634     3654     3711     3969     4387 
    4773     4916     4756     4399     3973     3465     2836     2207 
    1765     1598     1746     2142     2606     2991     3195     3187 
    3080     3040     3114     3219     3213     2991     2589     2168 
    1829     1516     1209     1020      985     1023     1077     1151 
    1296     1514     1679     1740     1815     1944     2096     2351 
    2652     2763     2639     2469     2376     2428     2633     2832 
    2941     3069     3256     3437     3574     3593     3441     3234 
    3190     3395     3723     3960     4023     3964     3832     3585 
    3190     2748     2415     2142     1742     1186      631      241 
     102      228      606     1212     1926     2533     2909     3099 
    3109     2808     2212     1594     1221     1132     1146     1096 
    1012      942      862      816      935     1324     1922     2497 
    2902     3213     3542     3916     4320     4704     4978     5054 
    4908     4611     4329     4180     4102     3943     3619     3196 
    2847     2640     2516     2465     2517     2662     2849     2974 
    2953     2851     2825     2974     3264     3557     3659     3476 
    3088     2602     2050     1493     1062      896     1040     1362 
    1678     1961     2249     2486     2675     2967     3411     3805 
    4009     4078     3967     3527     2863     2223     1707     1356 
    1181     1113     1146     1358     1779     2303     2718     2909 
    2980     3060     3133     3136     3052     2897     2613     2137 
    1606     1239     1085     1135     1351     1567     1618     1506 
    1445     1615     1925     2232     2555     2903     3258     3600 
    3861     4014     4087     3958     3534     3010     2583     2263 
    2041     1921     1868     1877     1937     2058     2301     2689 
    3175     3646     4004     4270     4476     4637     4770     4837 
    4827     4808     4770     4641     4342     3800     3078     2381 
    1842     1489     1273     1046      733      469      437      708 
    1217     1794     2295     2679     3011     3366     3703     3916 
    3917     3620     3028     2303     1598      908      220     -368 
    -778     -986     -973     -781     -500      -97      530     1298 
    1992     2546     3063     3628     4197     4687     5094     5435 
    5611     5501     5124     4548     3797     2983     2234     1582 
    1073      754      612      677      942     1329     1809     2344 
    2878     3396     3882     4309     4669     4972     5196     5225 
    4962     4527     4126     3770     3372     2952     2577     2272 
    2038     1879     1833     1956     2224     2477     2567     2477 
    2285     2195     2382     2752     3079     3310     3456     3470 
    3387     3279     3125     2825     2386     1938     1560     1286 
    1193     1263     1374     1443     1506     1663     1917     2116 
    2137     2004     1827     1679     1602     1675     1873     1976 
    1908     1922     2208     2709     3292     3771     3963     3869 
    3643     3424     3260     3138     3061     3026     3006     3040 
    3196     3472     3804     4087     4198     4095     3839     3589 
    3515     3581     3615     3530     3325     3119     3111     3339 
    3696     4031     4120     3879     3489     3109     2763     2504 
    2367     2280     2173     2027     1848     1679     1491     1213 
     891      546      128     -247     -309       33      603     1161 
    1599     1933     2201     2478     2797     3088     3295     3399 
    3376     3204     2867     2419     1968     1532     1092      723 
     517      527      812     1355     2061     2871     3766     4622 
    5169     5235     4932     4465     3948     3489     3176     3024 
    3006     3025     2967     2844     2744     2689     2601     2384 
    2053     1776     1628     1539     1541     1717     1966     2173 
    2392     2660     2951     3260     3541     3690     3693     3619 
    3520     3338     2995     2531     2047     1649     1436     1458 
    1732     2220     2779     3252     3589     3762     3731     3545 
    3372     3392     3642     3987     4248     4399     4537     4676 
    4714     4552     4156     3528     2655     1594      518     -390 
   -1036    -1458    -1759    -1939    -1917    -1672    -1237     -598 
     225     1142     2027     2775     3404     3973     4421     4679 
    4796     4901     5078     5333     5671     6081     6480     6782 
    6909     6752     6288     5605     4828     4128     3650     3358 
    3146     2990     2849     2639     2335     2015     1741     1491 
    1225      932      595      216     -166     -531     -837    -1013 
   -1051     -962     -769     -545     -342     -145       44      145 
     159      186      247      334      533      819     1030     1142 
    1281     1518     1892     2403     2894     3186     3277     3295 
    3397     3669     4054     4504     5004     5394     5530     5489 
    5414     5316     5112     4800     4488     4290     4245     4310 
    4413     4433     4237     3869     3510     3281     3237     3410 
    3735     3982     3971     3757     3458     3137     2840     2565 
    2226     1737     1129      558      159      -16       20      139 
     220      355      706     1289     1987     2620     2986     3003 
    2816     2671     2735     3006     3337     3519     3388     2937 
    2370     1903     1615     1485     1425     1345     1237     1125 
    1055     1117     1305     1529     1811     2224     2725     3267 
    3831     4279     4473     4456     4271     3883     3352     2813 
    2327     1834     1240      575       10     -299     -278      116 
     826     1672     2482     3126     3524     3732     3879     3998 
    4051     3997     3788     3433     3036     2671     2322     1927 
    1528     1310     1390     1741     2303     2938     3504     4013 
    4511     4957     5306     5593     5838     5979     5994     5930 
    5744     5306     4629     3929     3438     3211     3141     3053 
    2805     2350     1790     1290      946      737      550      301 
      49      -74       -8      195      415      552      642      778 
     962     1232     1691     2281     2841     3267     3516     3654 
    3728     3712     3655     3620     3539     3385     3262     3246 
    3329     3504     3777     4074     4205     4010     3507     2890 
    2404     2189     2212     2357     2506     2560     2435     2138 
    1788     1502     1347     1385     1582     1841     2170     2647 
    3217     3690     3944     3946     3682     3207     2655     2205 
    2000     2008     2065     2092     2133     2195     2216     2187 
    2185     2254     2390     2640     2964     3194     3229     3136 
    2988     2798     2577     2349     2096     1810     1571     1449 
    1414     1383     1352     1401     1576     1819     2061     2339 
    2755     3303     3883     4499     5178     5784     6134     6183 
    5985     5621     5175     4679     4128     3564     3021     2492 
    2038     1804     1814     1873     1794     1586     1366     1235 
    1205     1260     1381     1480     1437     1215      918      743 
     791      965     1198     1570     2092     2601     2947     3191 
    3501     3900     4295     4634     4881     5047     5248     5505 
    5676     5660     5433     4981     4405     3929     3696     3603 
    3385     2929     2381     1876     1448     1129      885      641 
     378      105     -172     -437     -665     -861    -1021    -1124 
   -1177    -1201    -1117     -812     -282      369     1021     1595 
    2020     2245     2315     2367     2447     2505     2542     2605 
    2698     2841     3041     3248     3458     3672     3823     3931 
    4077     4263     4459     4623     4698     4654     4541     4455 
    4483     4600     4702     4735     4695     4577     4406     4193 
    3933     3609     3164     2602     2033     1599     1414     1443 
    1553     1680     1788     1784     1659     1578     1686     1939 
    2172     2246     2185     2104     2041     2015     2095     2197 
    2168     2060     2015     2025     2003     1908     1728     1474 
    1193      973      904      988     1166     1409     1737     2110 
    2444     2745     3036     3213     3168     2943     2636     2331 
    2092     1989     2104     2459     2964     3500     3977     4340 
    4608     4860     5144     5458     5710     5753     5471     4907 
    4272     3751     3310     2836     2327     1865     1471     1152 
     994     1042     1198     1350     1495     1710     2027     2397 
    2766     3073     3249     3244     3032     2637     2135     1599 
    1116      869     1023     1556     2286     3014     3626     4089 
    4387     4550     4664     4749     4777     4822     4915     4920 
    4764     4558     4383     4176     3875     3391     2636     1660 
     634     -210     -687     -814     -699     -398       -2      392 
     746      988     1112     1247     1452     1682     1961     2303 
    2606     2768     2797     2776     2789     2878     3032     3179 
    3296     3424     3585     3777     3985     4140     4182     4174 
    4187     4159     3997     3719     3414     3211     3202     3316 
    3380     3304     3117     2889     2690     2528     2374     2174 
    1890     1574     1304     1062      828      635      502      445 
     483      611      818     1074     1301     1471     1687     2031 
    2436     2814     3179     3551     3869     4075     4218     4355 
    4456     4467     4357     4145     3916     3777     3759     3815 
    3848     3786     3595     3248     2801     2417     2212     2138 
    2037     1823     1593     1431     1340     1336     1393     1375 
    1179      826      383      -56     -348     -376     -172      167 
     598     1073     1516     1912     2316     2729     3076     3250 
    3156     2825     2413     1988     1544     1188     1042     1109 
    1331     1678     2195     2932     3846     4793     5566     5984 
    6010     5680     5073     4345     3647     3049     2605     2390 
    2423     2614     2818     2986     3210     3532     3866     4094 
    4149     4032     3816     3593     3451     3430     3445     3381 
    3177     2833     2447     2153     1984     1904     1888     1953 
    2149     2474     2822     3148     3516     3962     4422     4783 
    4995     5085     4989     4664     4230     3780     3308     2837 
    2332     1713     1026      371     -225     -726    -1035    -1071 
    -834     -413      105      735     1474     2197     2754     3084 
    3194     3113     2916     2679     2440     2270     2272     2501 
    2963     3568     4148     4579     4783     4726     4457     4077 
    3676     3329     3095     2882     2532     2096     1745     1497 
    1271     1058      880      735      635      610      654      777 
    1020     1414     1953     2559     3072     3429     3730     4028 
    4245     4351     4356     4251     4052     3808     3600     3495 
    3442     3352     3195     2998     2833     2705     2471     2072 
    1629     1287     1120     1165     1409     1759     2107     2396 
    2627     2862     3127     3348     3474     3584     3693     3721 
    3650     3524     3395     3321     3308     3284     3183     3002 
    2832     2817     3011     3369     3792     4168     4498     4843 
    5157     5324     5329     5229     5035     4737     4361     3955 
    3568     3249     3015     2835     2619     2293     1895     1502 
    1159      897      765      777      940     1225     1528     1710 
    1672     1381      909      334     -338    -1061    -1725    -2284 
   -2716    -2978    -3014    -2751    -2135    -1248     -241      784 
    1730     2485     3055     3585     4117     4554     4858     5047 
    5136     5182     5258     5413     5655     5935     6180     6327 
    6353     6268     6038     5630     5148     4704     4284     3861 
    3442     3061     2775     2586     2467     2419     2394     2373 
    2393     2428     2400     2285     2079     1809     1560     1370 
    1192     1021      931      946      988      970      864      695 
     534      378      170      -35      -91       20      209      429 
     692      984     1313     1753     2290     2803     3215     3537 
    3802     4032     4198     4206     3986     3588     3110     2602 
    2081     1625     1337     1225     1263     1455     1757     2096 
    2431     2752     3046     3248     3296     3281     3300     3288 
    3230     3218     3264     3342     3491     3731     4031     4369 
    4774     5224     5591     5778     5809     5728     5564     5337 
    5040     4658     4207     3713     3148     2470     1775     1197 
     764      499      450      546      598      507      313       67 
    -209     -461     -642     -770     -877     -951     -919     -711 
    -364       12      311      542      803     1155     1595     2070 
    2444     2639     2722     2741     2686     2596     2500     2385 
    2265     2173     2147     2263     2605     3156     3786     4325 
    4695     4951     5154     5279     5286     5167     4949     4699 
    4491     4368     4386     4599     4976     5428     5872     6215 
    6431     6583     6651     6535     6208     5688     5012     4286 
    3632     3117     2770     2540     2323     2107     1965     1899 
    1856     1752     1498     1085      573       39     -433     -780 
    -959     -935     -735     -426      -47      368      772     1147 
    1560     2053     2592     3157     3753     4344     4869     5259 
    5536     5771     5976     6147     6264     6205     5915     5456 
    4888     4298     3778     3342     2953     2593     2231     1838 
    1428     1063      820      715      673      589      441      275 
     135      -12     -203     -375     -415     -265       48      477 
    1012     1626     2268     2914     3541     4124     4653     5063 
    5287     5368     5431     5532     5655     5796     5931     5987 
    5925     5748     5468     5124     4738     4295     3773     3187 
    2562     1896     1194      484     -218     -874    -1398    -1779 
   -2066    -2214    -2134    -1869    -1525    -1169     -876     -718 
    -657     -579     -421     -152      284      892     1597     2313 
    3003     3693     4423     5173     5868     6448     6880     7161 
    7325     7441     7538     7528     7331     7033     6729     6369 
    5891     5385     4928     4479     3979     3476     3024     2556 
    2004     1432      882      295     -326     -901    -1366    -1710 
   -1946    -2054    -1988    -1764    -1439    -1026     -484      180 
     880     1528     2069     2461     2745     2999     3219     3456 
    3797     4180     4480     4691     4908     5165     5385     5517 
    5613     5670     5616     5445     5182     4796     4286     3678 
    2957     2104     1169      232     -616    -1316    -1848    -2207 
   -2392    -2412    -2263    -1957    -1533    -1073     -653     -267 
     102      441      781     1148     1532     1942     2403     2936 
    3553     4202     4780     5235     5591     5892     6160     6388 
    6548     6616     6592     6484     6307     6106     5903     5675 
    5390     5038     4644     4266     3947     3724     3611     3570 
    3528     3429     3250     3018     2772     2531     2285     2047 
    1860     1744     1679     1664     1737     1898     2119     2394 
    2697     2968     3179     3335     3412     3384     3252     3021 
    2747     2501     2251     1954     1667     1441     1275     1167 
    1101     1044      997      957      885      773      639      517 
     445      399      326      211       59     -102     -237     -329 
    -349     -284     -153       35      283      602     1005     1462 
    1948     2482     3037     3555     4075     4673     5328     5937 
    6419     6718     6799     6708     6520     6262     5925     5522 
    5082     4635     4228     3875     3541     3202     2894     2662 
    2509     2390     2268     2154     2070     2033     2035     2035 
    2042     2118     2293     2558     2855     3146     3461     3771 
    4023     4205     4264     4159     3967     3754     3497     3210 
    2967     2776     2560     2326     2130     1988     1887     1800 
    1738     1723     1691     1598     1502     1410     1273     1105 
     938      762      568      360      133     -109     -342     -568 
    -791     -963    -1040    -1001     -812     -444       66      630 
    1192     1759     2365     2992     3577     4075     4488     4787 
    4932     4947     4888     4799     4726     4695     4695     4711 
    4737     4789     4896     5030     5140     5227     5269     5185 
    4957     4658     4341     3987     3591     3149     2667     2196 
    1790     1464     1231     1074      966      940     1043     1227 
    1397     1518     1606     1665     1694     1718     1744     1746 
    1723     1694     1710     1834     2069     2382     2735     3094 
    3451     3789     4075     4313     4486     4550     4511     4398 
    4205     3956     3700     3435     3134     2808     2496     2235 
    2038     1880     1730     1583     1436     1269     1078      886 
     687      452      211       12     -126     -179     -125      -17 
      93      220      386      598      849     1067     1192     1259 
    1325     1399     1495     1636     1802     1935     2033     2147 
