Origin Time       2025/01/13 21:19:00
Lat.              31.8
Long.             131.6
Depth. (km)       30
Mag.              6.9
Station Code      MIE008
Station Lat.      34.6291
Station Long.     136.1074
Station Height(m) 222
Record Time       2025/01/13 21:21:35
Sampling Freq(Hz) 100Hz
Duration Time(s)  60
Dir.              E-W
Scale Factor      7845(gal)/8223790
Max. Acc. (gal)   1.181
Last Correction   2025/01/13 21:21:34
Memo.             
[...]
    -108      -94      -68      -45      -29      -10        5        9 
       6        2      -12      -35      -59      -93     -135     -162 
    -176     -189     -195     -202     -214     -214     -205     -195 
    -178     -159     -141     -121     -101      -76      -54      -40 
     -32      -31      -36      -39      -45      -59      -68      -79 
     -94     -109     -125     -144     -151     -156     -166     -172 
    -168     -157     -148     -147     -136     -122     -117     -101 
     -81      -71      -58      -43      -36      -36      -35      -33 
     -36      -44      -55      -71      -98     -125     -143     -162 
    -180     -194     -202     -201     -199     -201     -194     -180 
    -170     -156     -143     -128     -102      -71      -45      -29 
     -22      -21      -24      -25      -27      -35      -43      -45 
     -56      -71      -79      -87      -98     -110     -128     -147 
    -160     -170     -175     -178     -175     -162     -141     -124 
    -109      -94      -82      -78      -76      -68      -58      -49 
     -48      -59      -74      -87      -99     -109     -112     -113 
    -114     -120     -117     -106      -97      -90      -81      -76 
     -78      -82      -83      -81      -70      -58      -52      -51 
     -59      -75      -81      -82      -86      -85      -87     -103 
    -114     -114     -120     -129     -136     -149     -167     -183 
    -190     -191     -194     -197     -190     -175     -149     -125 
    -105      -91      -83      -71      -48      -27      -16      -14 
     -21      -37      -56      -60      -59      -63      -75      -91 
    -114     -143     -162     -178     -194     -205     -214     -225 
    -233     -232     -222     -209     -189     -163     -135     -109 
     -83      -49      -22       -6        4        5        0       -2 
      -4       -8      -20      -43      -75     -105     -139     -170 
    -194     -211     -224     -228     -229     -229     -220     -199 
    -182     -168     -159     -141     -120     -101      -76      -54 
     -41      -29      -25      -33      -43      -52      -70      -87 
     -98     -112     -128     -141     -153     -164     -170     -170 
    -166     -153     -133     -110      -93      -81      -70      -58 
     -52      -51      -51      -47      -45      -56      -67      -68 
     -74      -82      -85      -93     -105     -108     -112     -122 
    -129     -140     -155     -170     -182     -186     -187     -199 
    -207     -195     -178     -157     -136     -110      -83      -67 
     -59      -52      -47      -36      -28      -27      -25      -28 
     -35      -37      -32      -16       -5      -18      -45      -76 
    -105     -122     -125     -135     -156     -175     -186     -184 
    -182     -190     -206     -217     -216     -198     -170     -152 
    -140     -124     -108      -89      -64      -45      -36      -28 
     -21      -21      -25      -32      -39      -45      -52      -58 
     -67      -83     -103     -121     -145     -168     -180     -183 
    -180     -172     -163     -152     -141     -133     -117      -91 
     -67      -44      -25      -20      -17      -14      -20      -36 
     -54      -72      -91     -112     -129     -147     -166     -176 
    -179     -180     -184     -183     -179     -172     -160     -139 
    -106      -78      -59      -49      -51      -55      -49      -40 
     -39      -33      -28      -35      -51      -74     -101     -124 
    -137     -143     -143     -147     -160     -168     -164     -156 
    -145     -132     -124     -114      -94      -76      -67      -62 
     -55      -51      -51      -55      -60      -59      -56      -55 
     -52      -55      -62      -71      -85     -101     -112     -118 
    -125     -135     -141     -145     -147     -145     -141     -139 
    -130     -121     -106      -90      -79      -71      -55      -40 
     -35      -32      -33      -32      -33      -44      -58      -68 
     -83      -97     -109     -121     -135     -156     -179     -193 
    -198     -198     -193     -194     -197     -189     -174     -163 
    -149     -132     -118     -103      -87      -78      -75      -74 
     -71      -60      -47      -41      -44      -52      -63      -71 
     -74      -82      -93     -110     -132     -147     -155     -159 
    -166     -178     -190     -195     -193     -183     -171     -163 
    -155     -148     -137     -126     -122     -114      -98      -83 
     -67      -48      -35      -39      -48      -48      -40      -33 
     -33      -43      -63      -86      -98      -99      -99      -98 
     -98     -102     -102      -98      -91      -86      -91     -105 
    -108     -102     -101     -103     -113     -122     -132     -141 
    -147     -137     -122     -113     -108     -109     -110     -101 
     -93      -91      -90      -94      -95      -86      -79      -79 
     -81      -85      -87      -93     -105     -120     -141     -164 
    -178     -180     -184     -184     -186     -190     -184     -170 
    -156     -141     -126     -109      -93      -82      -68      -51 
     -33      -22      -17      -13      -12      -20      -36      -55 
     -71      -93     -114     -135     -155     -164     -167     -175 
    -182     -186     -187     -180     -167     -152     -140     -126 
    -110     -102      -97      -87      -79      -70      -56      -49 
     -49      -51      -58      -70      -81      -89     -101     -113 
    -118     -124     -137     -152     -166     -172     -174     -174 
    -175     -176     -180     -183     -182     -175     -162     -141 
    -122     -105      -90      -75      -55      -36      -18       -2 
       6       13       14       13       18       24       16        1 
     -12      -32      -62      -87     -108     -126     -139     -151 
    -174     -202     -222     -229     -228     -220     -206     -193 
    -172     -149     -129     -109      -87      -71      -55      -43 
     -33      -18       -4        1        0       -9      -27      -51 
     -76     -101     -121     -137     -153     -171     -183     -193 
    -199     -203     -213     -222     -228     -228     -214     -189 
    -157     -129     -108      -87      -59      -28        1       33 
      59       74       86       86       74       59       32       -4 
     -45      -94     -147     -195     -240     -270     -284     -295 
    -301     -301     -298     -288     -265     -233     -197     -166 
    -144     -118      -89      -56      -21        2        8       13 
      16        8       -1      -18      -41      -56      -71      -90 
    -109     -125     -143     -155     -163     -172     -180     -193 
    -206     -207     -205     -201     -184     -162     -143     -122 
    -102      -82      -62      -44      -29      -16       -9       -1 
       8       14       16       13        5       -5      -25      -51 
     -76     -103     -133     -164     -190     -211     -230     -245 
    -260     -265     -260     -252     -240     -221     -203     -183 
    -157     -125      -93      -72      -59      -47      -37      -31 
     -27      -24      -22      -28      -41      -58      -81     -108 
    -126     -140     -153     -171     -191     -205     -203     -193 
    -183     -171     -156     -143     -130     -117      -99      -75 
     -55      -52      -55      -62      -75      -89      -98     -102 
     -99      -93      -97     -108     -110     -113     -120     -125 
    -130     -136     -137     -135     -128     -116     -105      -98 
     -89      -81      -74      -64      -62      -66      -67      -64 
     -62      -64      -66      -63      -67      -78      -93     -108 
    -121     -128     -132     -136     -140     -143     -145     -148 
    -147     -141     -136     -133     -125     -112      -97      -85 
     -76      -74      -78      -83      -86      -91      -97      -95 
     -98     -110     -117     -118     -126     -133     -139     -147 
    -151     -148     -140     -125     -103      -89      -79      -68 
     -60      -54      -44      -39      -48      -64      -74      -85 
     -95      -99     -102     -116     -128     -143     -167     -184 
    -183     -175     -166     -149     -129     -110      -95      -76 
     -58      -43      -29      -20      -20      -28      -43      -59 
     -66      -68      -78      -87     -101     -114     -125     -135 
    -139     -130     -118     -116     -121     -122     -114     -103 
     -95      -91      -86      -79      -74      -70      -74      -81 
     -81      -76      -82      -98     -117     -143     -163     -166 
    -160     -160     -164     -170     -176     -180     -180     -179 
    -174     -164     -149     -137     -137     -136     -126     -117 
    -110     -105     -106     -121     -133     -133     -136     -144 
    -151     -153     -153     -153     -147     -137     -130     -126 
    -117     -106      -94      -78      -59      -47      -37      -32 
     -31      -35      -43      -48      -55      -64      -71      -85 
    -109     -133     -145     -149     -155     -160     -167     -179 
    -187     -189     -183     -170     -144     -113      -90      -75 
     -59      -36      -12        4        6       -2      -24      -48 
     -67      -82      -95     -106     -116     -125     -136     -153 
    -168     -180     -183     -182     -178     -172     -157     -132 
    -109      -89      -68      -54      -45      -36      -24      -17 
     -22      -33      -47      -64      -87     -110     -120     -121 
    -122     -126     -137     -147     -157     -167     -170     -171 
    -175     -183     -186     -186     -180     -170     -157     -139 
    -114      -98      -85      -68      -56      -55      -60      -70 
     -83      -94      -98     -108     -121     -125     -122     -124 
    -128     -126     -125     -130     -139     -143     -139     -137 
    -133     -122     -114     -108      -97      -86      -71      -56 
     -45      -37      -40      -58      -67      -75      -89     -102 
    -121     -147     -167     -182     -198     -216     -228     -233 
    -241     -243     -234     -222     -209     -184     -152     -129 
    -105      -76      -55      -40      -28      -18      -10      -12 
     -24      -33      -43      -62      -75      -81      -94     -110 
    -126     -143     -155     -164     -174     -175     -168     -159 
    -149     -139     -129     -118     -108      -93      -79      -71 
     -64      -62      -64      -70      -83      -98     -108     -118 
    -132     -143     -148     -148     -140     -137     -144     -151 
    -160     -163     -155     -149     -141     -125     -113     -101 
     -89      -78      -79      -89      -99     -105     -110     -120 
    -124     -122     -124     -125     -126     -121     -102      -85 
     -70      -52      -36      -32      -29      -29      -35      -39 
     -43      -58      -74      -95     -117     -135     -155     -174 
    -187     -195     -202     -206     -193     -175     -149     -120 
     -95      -64      -28       12       55       86      106      118 
     118      102       74       33      -17      -78     -148     -218 
    -283     -341     -387     -418     -438     -445     -441     -423 
    -388     -336     -271     -193     -101      -14       68      152 
     233      303      349      360      346      311      257      190 
     106        6     -102     -209     -301     -382     -452     -506 
    -552     -585     -596     -591     -558     -494     -411     -309 
    -191      -75       44      168      279      373      442      472 
     469      444      399      334      249      141       24      -97 
    -222     -329     -419     -507     -577     -618     -634     -625 
    -588     -535     -471     -384     -279     -160      -35       81 
     186      280      351      383      383      357      307      237 
     145       43      -58     -166     -260     -333     -400     -456 
    -491     -508     -496     -456     -395     -314     -220     -126 
     -39       41      112      168      213      243      255      237 
     195      132       51      -40     -139     -241     -340     -429 
    -494     -527     -540     -525     -476     -410     -337     -255 
    -175      -99      -29       44      122      190      249      291 
     299      282      253      214      170      118       45      -59 
    -175     -286     -391     -477     -533     -560     -560     -534 
    -495     -442     -375     -299     -217     -151     -103      -55 
      -2       58      133      213      291      349      380      380 
     345      280      198      108       14      -71     -152     -230 
    -306     -383     -457     -519     -580     -627     -652     -657 
    -627     -556     -444     -311     -174      -36       82      176 
     256      329      400      473      531      565      581      567 
     510      411      265       94      -82     -257     -423     -575 
    -711     -822     -905     -955     -973     -962     -918     -831 
    -704     -534     -334     -117      109      336      538      708 
     838      919      959      959      903      793      633      421 
     171      -98     -363     -616     -847    -1047    -1205    -1305 
   -1345    -1323    -1233    -1090     -897     -672     -423     -153 
     124      391      627      823      977     1075     1119     1107 
    1031      899      722      506      261        4     -261     -525 
    -765     -977    -1147    -1252    -1300    -1283    -1213    -1107 
    -957     -768     -550     -307      -51      207      446      653 
     822      926      966      958      904      811      675      492 
     283       63     -141     -324     -479     -611     -737     -857 
    -957    -1021    -1027     -970     -859     -702     -518     -326 
    -135       45      210      348      453      530      567      556 
     514      449      360      245      109      -41     -205     -365 
    -503     -612     -676     -692     -670     -608     -523     -436 
    -351     -263     -168      -64       48      162      271      372 
     445      480      479      432      342      225       85      -72 
    -233     -378     -498     -592     -658     -689     -695     -676 
    -633     -575     -498     -398     -286     -171      -48       74 
     189      286      367      426      467      491      499      483 
     441      384      317      233      128        1     -148     -314 
    -481     -643     -795     -918     -997    -1023     -996     -916 
    -784     -615     -432     -240      -54      128      301      453 
     592      710      792      843      855      816      723      575 
     379      155      -74     -283     -467     -630     -774     -903 
   -1020    -1104    -1140    -1129    -1065     -951     -799     -604 
    -372     -114      152      400      606      751      843      889 
     895      868      818      735      618      471      286       66 
    -163     -375     -560     -723     -858     -954    -1012    -1032 
   -1019     -977     -896     -787     -653     -507     -364     -218 
     -56      121      306      486      646      768      837      849 
     812      745      645      500      325      132      -70     -270 
    -454     -621     -764     -880     -957     -977     -955     -912 
    -838     -726     -584     -418     -247      -87       64      221 
     371      517      650      745      774      729      611      446 
     251       41     -141     -283     -406     -514     -607     -687 
    -745     -766     -750     -710     -653     -587     -508     -405 
    -270     -108       70      233      367      475      533      541 
     526      496      444      364      244       93      -56     -186 
    -286     -364     -438     -513     -585     -648     -673     -652 
    -581     -475     -345     -220     -113      -24       47      105 
     149      171      178      175      163      149      145      156 
     172      176      156      101       18      -67     -137     -193 
    -229     -260     -313     -386     -471     -549     -595     -602 
    -575     -503     -391     -259     -112       43      184      291 
     357      382      373      334      276      203      106       -2 
    -114     -229     -336     -425     -499     -542     -549     -538 
    -507     -445     -371     -301     -233     -174     -125      -86 
     -52      -21        8       37       60       62       47       27 
       6       -1        2        2      -13      -41      -71      -94 
     -93      -67      -43      -37      -63     -120     -183     -234 
    -268     -286     -286     -272     -236     -180     -120      -51 
      21       87      132      147      145      143      148      168 
     193      205      191      137       43      -75     -206     -332 
    -436     -518     -572     -589     -569     -510     -410     -288 
    -160      -36       79      183      270      338      386      406 
     392      345      264      145       10     -112     -226     -332 
    -426     -521     -614     -676     -697     -687     -641     -558 
    -456     -348     -241     -132      -20      103      240      357 
     432      446      407      341      268      193      122       55 
     -25     -117     -207     -292     -361     -417     -481     -557 
    -638     -710     -749     -734     -662     -546     -411     -283 
    -159      -29      105      249      391      507      587      633 
     650      643      607      537      432      290      126      -48 
    -229     -418     -614     -803     -969    -1086    -1138    -1124 
   -1047     -916     -739     -527     -286      -22      237      483 
     708      897     1035     1096     1061      936      745      503 
     245        6     -198     -378     -529     -653     -750     -818 
    -849     -847     -832     -814     -780     -716     -623     -490 
    -315     -122       79      274      414      490      515      500 
     456      398      333      267      203      141       79       20 
     -33      -85     -139     -199     -255     -313     -371     -418 
    -452     -479     -517     -576     -638     -680     -684     -646 
    -580     -492     -375     -222      -52      117      271      394 
     486      542      568      565      533      472      379      247 
      81     -101     -276     -423     -544     -630     -668     -673 
    -668     -642     -589     -519     -432     -333     -241     -162 
     -72       40      160      278      373      426      418      341 
     221       83      -66     -221     -375     -510     -600     -638 
    -622     -549     -425     -270     -101       55      176      259 
     303      302      264      201      116       17      -75     -148 
    -194     -221     -236     -247     -255     -270     -291     -315 
    -330     -315     -265     -193     -122      -67      -16       33 
      67       82       78       56       17      -33      -94     -155 
    -207     -247     -263     -245     -193     -118      -36       39 
