Origin Time       2025/01/13 21:19:00
Lat.              31.8
Long.             131.6
Depth. (km)       30
Mag.              6.9
Station Code      MIE008
Station Lat.      34.6291
Station Long.     136.1074
Station Height(m) 222
Record Time       2025/01/13 21:21:35
Sampling Freq(Hz) 100Hz
Duration Time(s)  60
Dir.              N-S
Scale Factor      7845(gal)/8223790
Max. Acc. (gal)   0.613
Last Correction   2025/01/13 21:21:34
Memo.             
    3589     3599     3609     3613     3608     3599     3588     3574 
    3561     3553     3542     3526     3507     3481     3457     3443 
    3442     3447     3456     3461     3468     3483     3511     3543 
    3568     3585     3601     3615     3622     3626     3630     3627 
    3616     3608     3595     3566     3531     3508     3496     3478 
    3460     3447     3438     3438     3453     3473     3487     3497 
    3514     3537     3555     3565     3569     3570     3577     3586 
    3588     3591     3600     3603     3593     3581     3576     3565 
    3550     3539     3523     3499     3476     3456     3453     3468 
    3481     3491     3505     3524     3543     3565     3581     3592 
    3600     3600     3592     3580     3572     3572     3572     3569 
    3572     3572     3565     3561     3561     3553     3535     3518 
    3495     3474     3465     3462     3461     3465     3468     3473 
    3484     3500     3522     3546     3564     3573     3582     3589 
    3595     3603     3605     3601     3596     3582     3561     3541 
    3527     3516     3510     3505     3495     3478     3464     3456 
    3449     3443     3445     3454     3474     3495     3512     3530 
    3551     3573     3593     3609     3626     3638     3642     3643 
    3640     3628     3615     3600     3580     3554     3537     3519 
    3499     3485     3474     3462     3446     3434     3437     3450 
    3469     3491     3515     3539     3570     3599     3615     3623 
    3627     3635     3636     3628     3618     3607     3593     3574 
    3549     3516     3492     3485     3487     3487     3481     3468 
    3456     3456     3465     3476     3484     3492     3503     3515 
    3530     3553     3570     3577     3574     3568     3568     3570 
    3566     3564     3557     3542     3523     3514     3519     3520 
    3515     3507     3493     3485     3489     3496     3501     3511 
    3523     3531     3537     3554     3577     3593     3607     3616 
    3611     3593     3582     3572     3553     3532     3516     3495 
    3472     3461     3466     3480     3492     3505     3518     3528 
    3534     3537     3542     3550     3561     3572     3574     3578 
    3585     3586     3584     3582     3580     3569     3554     3539 
    3530     3526     3523     3523     3526     3524     3526     3532 
    3537     3543     3553     3557     3558     3562     3565     3569 
    3568     3562     3564     3564     3551     3543     3541     3537 
    3538     3541     3541     3535     3530     3527     3520     3500 
    3478     3464     3450     3443     3446     3450     3458     3473 
    3496     3523     3546     3561     3569     3562     3558     3569 
    3570     3565     3570     3581     3581     3566     3547     3531 
    3518     3515     3526     3528     3520     3515     3496     3476 
    3477     3489     3497     3505     3527     3554     3577     3586 
    3588     3577     3564     3565     3582     3595     3593     3581 
    3561     3555     3564     3564     3557     3549     3528     3507 
    3495     3483     3472     3469     3477     3491     3508     3523 
    3527     3523     3522     3532     3550     3568     3577     3577 
    3574     3576     3584     3596     3607     3612     3611     3601 
    3588     3577     3569     3562     3553     3539     3520     3501 
    3488     3481     3477     3476     3473     3469     3469     3481 
    3504     3527     3542     3553     3559     3566     3582     3607 
    3628     3647     3657     3653     3639     3622     3605     3582 
    3549     3514     3484     3454     3434     3430     3427     3427 
    3438     3449     3460     3477     3500     3522     3542     3562 
    3586     3605     3622     3638     3647     3643     3635     3627 
    3611     3589     3572     3553     3530     3512     3501     3492 
    3484     3480     3476     3473     3468     3469     3481     3492 
    3500     3505     3510     3520     3541     3566     3593     3612 
    3615     3613     3611     3601     3595     3593     3589     3589 
    3584     3572     3565     3561     3557     3557     3553     3543 
    3538     3534     3520     3514     3512     3515     3527     3542 
    3550     3557     3564     3570     3577     3581     3582     3574 
    3557     3542     3531     3526     3522     3510     3497     3485 
    3470     3465     3468     3474     3487     3493     3495     3497 
    3504     3516     3535     3558     3582     3600     3607     3608 
    3600     3584     3576     3573     3566     3559     3553     3535 
    3514     3497     3485     3478     3476     3473     3470     3476 
    3488     3504     3508     3510     3522     3538     3554     3577 
    3601     3611     3613     3619     3623     3623     3622     3612 
    3596     3582     3566     3541     3512     3493     3488     3491 
    3495     3497     3504     3512     3522     3523     3523     3535 
    3549     3555     3558     3559     3558     3550     3542     3546 
    3561     3576     3584     3585     3582     3577     3568     3554 
    3541     3527     3515     3505     3496     3487     3485     3493 
    3499     3508     3522     3528     3530     3532     3538     3546 
    3551     3554     3558     3557     3553     3553     3557     3559 
    3553     3542     3532     3523     3515     3511     3505     3495 
    3487     3485     3484     3485     3495     3515     3537     3547 
    3557     3566     3573     3580     3584     3580     3570     3561 
    3546     3532     3524     3514     3505     3504     3501     3497 
    3496     3496     3497     3503     3505     3504     3507     3514 
    3522     3534     3550     3561     3562     3558     3553     3545 
    3541     3541     3539     3541     3549     3553     3550     3547 
    3550     3551     3551     3553     3557     3555     3545     3534 
    3532     3528     3527     3531     3538     3550     3562     3573 
    3582     3588     3588     3585     3580     3581     3588     3591 
    3597     3604     3607     3608     3609     3605     3599     3592 
    3578     3566     3558     3543     3519     3500     3483     3468 
    3457     3457     3469     3483     3492     3505     3523     3535 
    3551     3566     3569     3573     3584     3589     3593     3600 
    3601     3599     3586     3569     3551     3532     3518     3504 
    3480     3451     3437     3438     3449     3469     3493     3512 
    3528     3543     3558     3570     3577     3580     3580     3577 
    3572     3565     3562     3558     3551     3541     3530     3528 
    3531     3527     3520     3519     3516     3503     3496     3496 
    3489     3481     3478     3473     3470     3480     3493     3497 
    3500     3514     3526     3541     3558     3574     3588     3593 
    3592     3578     3564     3561     3561     3553     3542     3534 
    3528     3523     3519     3511     3505     3507     3511     3515 
    3523     3531     3532     3528     3526     3527     3532     3541 
    3543     3542     3542     3543     3538     3538     3546     3551 
    3553     3555     3558     3555     3545     3538     3535     3527 
    3522     3526     3524     3526     3532     3537     3538     3538 
    3539     3542     3547     3551     3557     3561     3559     3554 
    3546     3538     3531     3523     3512     3505     3501     3496 
    3484     3476     3478     3485     3491     3504     3527     3553 
    3573     3593     3612     3623     3631     3636     3628     3611 
    3595     3574     3551     3532     3515     3497     3483     3468 
    3458     3454     3453     3456     3460     3466     3478     3492 
    3510     3528     3547     3572     3592     3601     3607     3612 
    3616     3618     3612     3605     3595     3581     3564     3545 
    3527     3516     3508     3500     3495     3485     3473     3465 
    3453     3447     3451     3454     3466     3488     3500     3512 
    3528     3545     3558     3569     3581     3592     3595     3596 
    3595     3586     3577     3568     3555     3543     3538     3539 
    3541     3541     3538     3534     3527     3518     3511     3508 
    3505     3516     3530     3537     3543     3549     3555     3569 
    3580     3584     3586     3580     3568     3554     3541     3526 
    3515     3510     3501     3492     3487     3484     3488     3497 
    3508     3519     3532     3545     3553     3557     3559     3562 
    3562     3562     3566     3573     3577     3581     3584     3582 
    3574     3564     3547     3524     3503     3491     3483     3483 
    3491     3501     3505     3507     3512     3523     3539     3561 
    3580     3586     3581     3580     3581     3577     3577     3584 
    3591     3595     3592     3582     3570     3557     3543     3528 
    3507     3484     3464     3451     3449     3456     3458     3458 
    3464     3474     3489     3508     3530     3550     3565     3574 
    3585     3599     3608     3616     3619     3609     3592     3570 
    3550     3538     3526     3514     3501     3497     3497     3497 
    3496     3497     3499     3497     3499     3510     3527     3542 
    3555     3566     3570     3573     3581     3596     3607     3613 
    3613     3607     3601     3596     3582     3562     3543     3527 
    3514     3507     3507     3508     3508     3504     3499     3503 
    3512     3522     3531     3543     3549     3549     3554     3561 
    3566     3568     3564     3559     3557     3551     3545     3534 
    3516     3501     3488     3476     3472     3472     3469     3472 
    3477     3480     3478     3484     3497     3512     3530     3543 
    3557     3574     3585     3592     3599     3601     3603     3599 
    3589     3577     3561     3542     3524     3514     3505     3495 
    3488     3485     3484     3488     3496     3503     3508     3515 
    3522     3526     3534     3545     3553     3555     3555     3555 
    3551     3547     3553     3559     3559     3557     3553     3543 
    3531     3523     3518     3515     3515     3512     3508     3511 
    3508     3503     3501     3504     3514     3527     3538     3553 
    3565     3566     3568     3570     3574     3577     3581     3584 
    3578     3570     3566     3561     3547     3535     3524     3507 
    3493     3489     3484     3484     3499     3512     3522     3531 
    3542     3553     3566     3581     3588     3586     3584     3580 
    3573     3574     3581     3585     3591     3592     3582     3574 
    3566     3553     3539     3519     3495     3478     3472     3474 
    3481     3491     3505     3524     3542     3557     3568     3574 
    3578     3581     3578     3570     3562     3559     3557     3553 
    3551     3550     3553     3562     3570     3570     3564     3561 
    3561     3557     3557     3562     3558     3547     3546     3545 
    3539     3539     3545     3546     3542     3534     3524     3514 
    3504     3492     3483     3483     3489     3501     3518     3534 
    3545     3555     3572     3585     3601     3620     3636     3650 
    3659     3661     3655     3643     3622     3603     3588     3566 
    3538     3510     3478     3451     3427     3406     3389     3376 
    3365     3370     3393     3430     3468     3508     3553     3593 
    3635     3676     3711     3734     3740     3736     3727     3705 
    3674     3638     3593     3537     3476     3414     3361     3318 
    3285     3273     3275     3284     3307     3339     3376     3416 
    3464     3518     3573     3628     3684     3735     3775     3807 
    3823     3825     3824     3807     3766     3716     3654     3577 
    3499     3422     3346     3277     3219     3173     3149     3150 
    3176     3222     3283     3358     3449     3542     3631     3712 
    3784     3854     3913     3952     3970     3959     3920     3862 
    3792     3716     3636     3553     3469     3383     3296     3221 
    3157     3114     3102     3115     3146     3194     3262     3346 
    3441     3546     3659     3774     3869     3940     3993     4020 
    4009     3967     3905     3825     3726     3620     3516     3407 
    3299     3211     3144     3092     3052     3028     3036     3088 
    3177     3289     3411     3534     3646     3740     3827     3904 
    3960     4000     4017     4006     3969     3906     3835     3757 
    3661     3557     3450     3333     3215     3115     3036     2984 
    2967     2987     3052     3159     3291     3431     3564     3678 
    3777     3859     3921     3973     4013     4039     4040     4027 
    4006     3967     3905     3825     3728     3616     3495     3361 
    3222     3095     2990     2920     2893     2909     2968     3071 
    3206     3353     3492     3620     3736     3844     3947     4025 
    4074     4089     4072     4032     3974     3904     3820     3723 
    3620     3512     3397     3285     3180     3080     2991     2925 
    2895     2910     2961     3041     3142     3252     3365     3485 
    3604     3723     3835     3933     4012     4055     4066     4047 
    4001     3943     3879     3808     3738     3672     3599     3515 
    3416     3314     3222     3146     3082     3037     3011     3013 
    3053     3129     3237     3366     3503     3639     3767     3877 
    3970     4041     4079     4078     4041     3983     3923     3869 
    3816     3754     3667     3555     3438     3321     3210     3122 
    3067     3038     3036     3059     3110     3177     3254     3338 
    3423     3510     3600     3689     3769     3847     3912     3955 
    3985     3994     3982     3947     3889     3812     3713     3603 
    3495     3395     3307     3234     3172     3117     3073     3057 
    3075     3130     3211     3304     3411     3523     3631     3739 
    3831     3894     3929     3936     3920     3885     3838     3777 
    3705     3635     3569     3508     3451     3399     3357     3330 
    3314     3308     3307     3310     3315     3326     3353     3402 
    3468     3539     3607     3662     3700     3720     3732     3736 
    3721     3685     3627     3551     3469     3389     3322     3276 
    3252     3250     3279     3335     3410     3483     3554     3618 
    3665     3697     3720     3728     3721     3713     3701     3680 
    3657     3634     3609     3592     3578     3566     3554     3532 
    3508     3480     3449     3423     3406     3399     3412     3438 
    3468     3487     3496     3507     3511     3508     3508     3507 
    3497     3488     3492     3508     3542     3588     3630     3673 
    3717     3751     3788     3827     3847     3842     3813     3757 
    3681     3592     3496     3397     3296     3196     3110     3044 
    3014     3032     3090     3169     3256     3335     3411     3487 
    3557     3613     3661     3704     3739     3765     3798     3838 
    3873     3896     3900     3877     3835     3777     3692     3586 
    3473     3362     3260     3176     3125     3113     3138     3195 
    3275     3354     3427     3487     3523     3543     3557     3577 
    3613     3659     3701     3748     3796     3829     3854     3869 
    3861     3817     3739     3635     3505     3375     3271     3203 
    3175     3187     3214     3252     3304     3349     3387     3422 
    3442     3461     3484     3495     3504     3518     3539     3573 
    3618     3658     3696     3736     3765     3781     3786     3773 
    3727     3640     3524     3420     3349     3308     3296     3321 
    3373     3438     3493     3527     3535     3523     3508     3508 
    3528     3562     3601     3636     3663     3696     3738     3767 
    3771     3748     3699     3632     3565     3495     3422     3352 
    3281     3226     3196     3191     3218     3289     3396     3528 
    3667     3788     3874     3933     3977     4000     3986     3932 
    3840     3719     3585     3468     3384     3331     3310     3310 
    3299     3273     3245     3215     3195     3202     3235     3289 
    3366     3456     3554     3645     3713     3761     3780     3766 
    3734     3696     3647     3584     3522     3470     3435     3430 
    3457     3508     3569     3622     3659     3677     3667     3631 
    3574     3501     3424     3362     3325     3308     3312     3326 
    3339     3356     3387     3439     3514     3589     3655     3707 
    3734     3740     3736     3724     3703     3672     3635     3599 
    3568     3543     3522     3495     3468     3451     3446     3449 
    3461     3473     3472     3457     3447     3451     3462     3476 
    3489     3493     3488     3481     3478     3488     3515     3553 
    3592     3624     3653     3677     3689     3689     3677     3642 
    3595     3554     3519     3489     3469     3458     3461     3470 
    3474     3474     3472     3465     3454     3449     3453     3474 
    3514     3565     3616     3657     3678     3688     3690     3689 
    3677     3651     3624     3601     3578     3551     3524     3496 
    3470     3456     3450     3443     3435     3423     3404     3389 
    3392     3422     3466     3505     3538     3558     3562     3566 
    3584     3603     3612     3618     3615     3591     3539     3478 
    3419     3369     3346     3356     3391     3441     3499     3543 
    3570     3600     3632     3649     3653     3647     3627     3589 
    3543     3499     3470     3456     3439     3426     3426     3438 
    3464     3505     3558     3600     3611     3607     3608     3608 
    3605     3599     3572     3527     3480     3435     3402     3391 
    3403     3416     3423     3433     3453     3484     3524     3578 
    3638     3685     3723     3754     3778     3793     3802     3804 
    3788     3746     3680     3581     3458     3345     3252     3173 
    3117     3087     3087     3132     3218     3323     3438     3550 
    3640     3708     3750     3770     3775     3770     3757     3758 
    3767     3773     3770     3747     3701     3645     3589     3545 
    3515     3491     3466     3442     3429     3433     3449     3468 
    3473     3469     3472     3481     3492     3514     3537     3538 
    3532     3537     3549     3566     3589     3605     3592     3547 
    3500     3464     3441     3446     3480     3526     3576     3632 
    3686     3724     3744     3742     3705     3638     3561     3488 
    3429     3389     3364     3341     3326     3322     3331     3354 
    3389     3422     3434     3420     3396     3375     3372     3389 
    3423     3468     3514     3559     3604     3650     3692     3724 
    3751     3769     3769     3753     3728     3699     3649     3591 
    3547     3520     3501     3500     3516     3530     3532     3531 
    3508     3451     3377     3316     3272     3258     3292     3362 
    3447     3542     3645     3744     3823     3875     3897     3873 
    3813     3738     3653     3576     3520     3481     3458     3461 
    3481     3501     3516     3534     3553     3562     3561     3550 
    3542     3554     3569     3570     3565     3543     3501     3443 
