Origin Time       2025/01/13 21:19:00
Lat.              31.8
Long.             131.6
Depth. (km)       30
Mag.              6.9
Station Code      MIE008
Station Lat.      34.6291
Station Long.     136.1074
Station Height(m) 222
Record Time       2025/01/13 21:21:35
Sampling Freq(Hz) 100Hz
Duration Time(s)  60
Dir.              U-D
Scale Factor      7845(gal)/8223790
Max. Acc. (gal)   0.201
Last Correction   2025/01/13 21:21:34
Memo.             
[...]
   17419    17425    17423    17413    17402    17397    17400    17406 
   17419    17428    17427    17419    17410    17406    17402    17404 
   17409    17413    17413    17415    17416    17410    17400    17394 
   17390    17383    17381    17385    17390    17396    17398    17398 
   17397    17394    17393    17392    17386    17383    17389    17394 
   17396    17400    17402    17400    17396    17393    17385    17378 
   17379    17382    17383    17386    17389    17389    17393    17401 
   17406    17409    17410    17409    17405    17401    17401    17402 
   17404    17397    17392    17392    17394    17398    17404    17405 
   17406    17416    17420    17421    17427    17431    17425    17419 
   17416    17417    17420    17427    17431    17431    17429    17429 
   17427    17424    17424    17425    17428    17435    17436    17428 
   17420    17416    17410    17402    17394    17385    17379    17386 
   17398    17406    17413    17413    17404    17393    17388    17379 
   17369    17363    17367    17371    17375    17383    17393    17401 
   17405    17406    17402    17396    17392    17394    17397    17404 
   17420    17433    17435    17428    17417    17408    17408    17413 
   17417    17419    17419    17415    17413    17412    17404    17393 
   17383    17374    17369    17371    17371    17373    17382    17390 
   17389    17383    17379    17373    17365    17366    17375    17381 
   17381    17382    17382    17390    17396    17393    17392    17390 
   17385    17381    17375    17370    17370    17373    17371    17373 
   17377    17389    17401    17410    17420    17425    17421    17420 
   17415    17402    17396    17397    17392    17385    17379    17375 
   17378    17390    17398    17400    17396    17388    17379    17377 
   17378    17379    17381    17382    17382    17378    17378    17379 
   17382    17388    17396    17402    17412    17424    17428    17428 
   17427    17416    17400    17389    17383    17382    17383    17390 
   17393    17393    17397    17396    17388    17383    17389    17398 
   17402    17401    17397    17390    17383    17378    17373    17367 
   17367    17365    17365    17371    17378    17386    17400    17406 
   17402    17397    17388    17375    17365    17361    17366    17374 
   17381    17388    17394    17398    17402    17408    17416    17427 
   17436    17440    17442    17439    17432    17425    17419    17410 
   17402    17393    17381    17375    17381    17388    17396    17405 
   17406    17398    17390    17388    17385    17385    17390    17393 
   17393    17394    17398    17405    17415    17421    17419    17413 
   17409    17405    17404    17408    17410    17406    17398    17393 
   17388    17378    17379    17386    17386    17383    17389    17393 
   17392    17392    17396    17397    17396    17394    17394    17394 
   17394    17398    17405    17406    17406    17405    17401    17393 
   17389    17390    17392    17400    17409    17412    17410    17409 
   17408    17405    17405    17408    17405    17397    17389    17386 
   17390    17404    17421    17433    17442    17439    17428    17419 
   17410    17408    17404    17397    17394    17392    17388    17388 
   17389    17386    17382    17378    17378    17381    17386    17389 
   17396    17400    17398    17398    17397    17393    17392    17398 
   17408    17416    17417    17412    17412    17415    17419    17424 
   17423    17412    17401    17396    17390    17394    17405    17413 
   17420    17425    17423    17419    17416    17413    17416    17420 
   17424    17428    17428    17417    17405    17397    17390    17389 
   17393    17397    17400    17397    17393    17392    17393    17394 
   17394    17392    17385    17378    17371    17366    17362    17369 
   17378    17379    17379    17388    17394    17398    17402    17400 
   17388    17377    17371    17369    17366    17365    17361    17359 
   17367    17379    17393    17404    17413    17413    17405    17396 
   17392    17389    17392    17398    17404    17408    17413    17413 
   17408    17405    17405    17405    17412    17417    17416    17415 
   17412    17408    17405    17397    17390    17388    17382    17378 
   17378    17375    17374    17379    17386    17392    17396    17396 
   17390    17382    17377    17379    17386    17398    17415    17429 
   17435    17436    17433    17421    17405    17394    17386    17379 
   17377    17378    17375    17373    17370    17367    17371    17378 
   17383    17389    17396    17402    17408    17410    17409    17406 
   17401    17392    17385    17383    17388    17392    17397    17401 
   17402    17406    17412    17413    17416    17419    17417    17412 
   17408    17408    17410    17416    17424    17427    17425    17428 
   17433    17432    17421    17410    17408    17405    17400    17400 
   17401    17401    17409    17412    17405    17401    17401    17397 
   17392    17386    17379    17373    17373    17374    17371    17367 
   17367    17369    17373    17373    17365    17362    17361    17358 
   17362    17371    17378    17390    17402    17408    17405    17400 
   17396    17390    17385    17386    17390    17393    17394    17393 
   17393    17392    17389    17390    17390    17386    17385    17389 
   17392    17397    17406    17412    17415    17421    17421    17417 
   17416    17417    17416    17409    17402    17394    17386    17381 
   17381    17381    17383    17388    17396    17402    17404    17401 
   17396    17386    17381    17381    17379    17374    17366    17359 
   17355    17359    17375    17394    17412    17429    17442    17447 
   17454    17459    17460    17454    17442    17428    17420    17415 
   17412    17417    17425    17428    17424    17421    17421    17420 
   17415    17406    17393    17374    17359    17350    17346    17348 
   17355    17370    17389    17405    17421    17431    17431    17431 
   17435    17436    17440    17444    17444    17442    17436    17429 
   17416    17398    17382    17375    17371    17366    17359    17350 
   17347    17352    17355    17356    17361    17366    17377    17390 
   17404    17417    17428    17436    17446    17455    17459    17462 
   17458    17455    17451    17442    17436    17433    17429    17425 
   17419    17408    17394    17378    17356    17336    17320    17309 
   17305    17313    17331    17356    17385    17415    17439    17458 
   17474    17482    17479    17475    17475    17474    17471    17464 
   17452    17437    17421    17408    17405    17405    17400    17390 
   17383    17377    17366    17354    17347    17339    17334    17338 
   17350    17365    17386    17410    17432    17447    17460    17473 
   17481    17478    17470    17459    17444    17429    17419    17404 
   17383    17366    17343    17317    17304    17304    17309    17313 
   17320    17331    17351    17375    17400    17421    17436    17444 
   17444    17437    17432    17428    17424    17421    17423    17419 
   17406    17390    17375    17366    17358    17346    17327    17304 
   17288    17292    17308    17320    17328    17342    17359    17388 
   17420    17443    17463    17478    17490    17497    17493    17487 
   17489    17489    17478    17458    17442    17431    17417    17404 
   17388    17366    17346    17335    17328    17316    17309    17312 
   17315    17328    17354    17381    17409    17437    17459    17478 
   17500    17521    17533    17535    17520    17491    17455    17421 
   17397    17382    17373    17366    17362    17346    17313    17280 
   17261    17257    17257    17257    17255    17259    17277    17305 
   17339    17386    17433    17477    17512    17537    17554    17564 
   17563    17541    17512    17478    17440    17402    17367    17338 
   17317    17308    17307    17305    17302    17301    17296    17293 
   17296    17300    17309    17325    17354    17392    17428    17462 
   17493    17517    17533    17537    17531    17513    17489    17464 
   17447    17437    17431    17427    17423    17410    17397    17385 
   17371    17361    17359    17361    17365    17369    17369    17366 
   17365    17363    17367    17378    17394    17417    17443    17469 
   17491    17508    17512    17505    17490    17469    17443    17413 
   17385    17361    17340    17324    17317    17319    17329    17340 
   17338    17328    17317    17304    17290    17285    17304    17336 
   17369    17400    17427    17448    17464    17470    17467    17462 
   17448    17436    17427    17415    17401    17393    17389    17389 
   17394    17396    17392    17389    17386    17379    17367    17356 
   17351    17347    17351    17363    17378    17389    17396    17394 
   17393    17396    17408    17421    17424    17423    17420    17410 
   17398    17388    17381    17374    17367    17363    17365    17374 
   17392    17409    17425    17443    17451    17452    17450    17447 
   17440    17429    17421    17413    17398    17386    17379    17379 
   17397    17423    17437    17439    17433    17420    17396    17371 
   17354    17335    17315    17302    17300    17304    17313    17334 
   17365    17404    17444    17481    17506    17517    17509    17485 
   17452    17417    17388    17370    17362    17366    17382    17400 
   17413    17420    17424    17424    17417    17398    17369    17334 
   17298    17265    17238    17223    17220    17227    17247    17280 
   17316    17363    17417    17467    17512    17552    17572    17567 
   17540    17498    17447    17397    17355    17332    17327    17339 
   17365    17392    17408    17416    17415    17402    17390    17382 
   17373    17356    17343    17343    17354    17369    17386    17398 
   17405    17413    17419    17420    17424    17432    17446    17462 
   17474    17478    17466    17437    17408    17381    17366    17369 
   17377    17385    17389    17379    17366    17348    17327    17308 
   17297    17293    17300    17324    17366    17415    17448    17463 
   17470    17475    17473    17462    17450    17443    17440    17454 
   17481    17508    17528    17532    17514    17481    17442    17408 
   17381    17352    17323    17296    17278    17271    17275    17293 
   17317    17354    17404    17458    17502    17527    17529    17524 
   17516    17500    17474    17429    17381    17352    17346    17350 
   17363    17373    17365    17348    17332    17319    17309    17313 
   17334    17373    17429    17491    17541    17567    17562    17536 
   17500    17446    17385    17334    17288    17250    17238    17247 
   17271    17311    17359    17404    17437    17462    17473    17470 
   17456    17432    17406    17377    17346    17324    17316    17321 
   17344    17379    17417    17452    17478    17489    17487    17467 
   17435    17388    17331    17284    17262    17273    17307    17354 
   17406    17450    17471    17477    17471    17455    17432    17409 
   17381    17354    17336    17324    17315    17316    17328    17339 
   17348    17361    17375    17390    17404    17421    17439    17450 
   17462    17475    17486    17494    17490    17464    17427    17378 
   17325    17285    17262    17255    17270    17300    17332    17370 
   17410    17442    17463    17485    17496    17490    17478    17456 
   17427    17397    17375    17355    17335    17324    17315    17307 
   17307    17324    17356    17393    17420    17429    17425    17419 
   17400    17373    17361    17362    17371    17392    17419    17448 
   17473    17478    17464    17450    17433    17415    17400    17389 
   17379    17379    17389    17409    17433    17456    17474    17482 
   17473    17446    17419    17394    17369    17348    17342    17340 
   17343    17359    17383    17401    17413    17424    17431    17433 
   17428    17421    17415    17404    17390    17386    17382    17375 
   17374    17371    17366    17373    17385    17397    17410    17409 
   17390    17365    17336    17316    17313    17329    17356    17392 
   17429    17456    17466    17458    17436    17401    17362    17332 
   17317    17317    17336    17365    17401    17436    17454    17446 
   17419    17381    17352    17343    17350    17365    17377    17382 
   17386    17396    17412    17429    17448    17458    17455    17446 
   17432    17423    17425    17444    17471    17489    17487    17470 
   17440    17410    17398    17400    17400    17405    17415    17419 
   17405    17381    17354    17325    17301    17293    17293    17307 
   17331    17356    17381    17401    17416    17428    17433    17435 
   17435    17435    17429    17415    17404    17397    17388    17379 
   17371    17363    17359    17366    17381    17406    17437    17464 
   17477    17473    17456    17429    17393    17355    17325    17298 
   17280    17270    17271    17292    17334    17385    17436    17481 
   17513    17529    17525    17505    17479    17450    17423    17406 
   17400    17404    17410    17419    17428    17433    17429    17424 
   17420    17406    17382    17351    17313    17271    17235    17213 
   17211    17226    17258    17307    17365    17431    17504    17568 
   17605    17605    17570    17508    17429    17352    17288    17242 
   17223    17235    17282    17352    17431    17508    17571    17605 
   17610    17591    17547    17486    17424    17373    17340    17331 
   17339    17358    17379    17400    17415    17425    17436    17442 
   17439    17435    17428    17415    17394    17374    17361    17361 
   17377    17412    17455    17496    17529    17556    17564    17550 
   17514    17463    17401    17334    17274    17242    17230    17235 
   17261    17294    17336    17381    17410    17429    17447    17464 
   17475    17473    17452    17409    17351    17296    17259    17246 
   17253    17270    17294    17328    17375    17431    17479    17510 
   17521    17514    17490    17452    17406    17358    17324    17311 
   17324    17362    17412    17460    17500    17524    17532    17523 
   17498    17459    17410    17371    17343    17325    17319    17324 
   17347    17390    17443    17487    17505    17498    17478    17447 
   17415    17392    17365    17331    17293    17261    17239    17236 
   17254    17290    17338    17393    17450    17496    17523    17531 
   17524    17512    17498    17486    17474    17456    17439    17423 
   17401    17377    17355    17334    17312    17297    17294    17313 
   17352    17396    17429    17462    17482    17486    17489    17489 
   17478    17462    17444    17417    17382    17355    17344    17344 
   17348    17342    17317    17301    17301    17312    17336    17367 
   17390    17405    17409    17401    17397    17401    17405    17420 
   17446    17460    17467    17471    17462    17437    17415    17397 
   17389    17392    17397    17405    17416    17421    17409    17389 
   17361    17324    17297    17288    17285    17290    17308    17331 
   17355    17388    17413    17425    17437    17448    17448    17433 
   17409    17383    17367    17358    17350    17355    17366    17377 
   17394    17415    17431    17447    17458    17452    17435    17405 
   17374    17356    17348    17343    17346    17348    17348    17356 
   17374    17392    17408    17425    17433    17433    17429    17420 
   17398    17379    17370    17359    17358    17377    17400    17417 
   17432    17432    17419    17410    17415    17415    17412    17409 
   17404    17398    17401    17409    17429    17456    17469    17469 
   17464    17447    17428    17431    17442    17451    17469    17487 
   17493    17483    17464    17440    17417    17397    17382    17371 
   17361    17350    17348    17354    17356    17363    17381    17394 
   17400    17405    17408    17415    17427    17440    17455    17466 
   17466    17452    17432    17415    17404    17402    17415    17435 
   17450    17448    17432    17408    17383    17370    17363    17363 
   17366    17367    17370    17381    17392    17409    17433    17448 
   17452    17447    17423    17389    17356    17335    17335    17350 
   17374    17402    17421    17432    17435    17424    17405    17383 
   17363    17346    17339    17344    17352    17347    17336    17335 
   17344    17363    17393    17424    17448    17466    17482    17483 
   17470    17442    17402    17363    17321    17286    17281    17294 
   17316    17350    17389    17424    17454    17467    17456    17424 
   17382    17344    17323    17313    17312    17325    17351    17371 
   17390    17409    17431    17458    17485    17505    17520    17527 
   17520    17504    17474    17431    17385    17347    17317    17300 
   17300    17317    17342    17371    17398    17419    17437    17450 
   17442    17417    17393    17370    17363    17385    17415    17433 
   17444    17447    17442    17435    17423    17406    17396    17388 
   17389    17398    17402    17408    17413    17400    17374    17356 
   17342    17332    17339    17358    17381    17400    17404    17398 
   17401    17404    17406    17413    17413    17402    17402    17398 
   17388    17392    17398    17396    17398    17405    17409    17412 
   17413    17412    17410    17400    17383    17369    17351    17334 
   17327    17327    17338    17362    17396    17428    17456    17477 
   17483    17478    17469    17456    17443    17425    17410    17404 
   17398    17396    17397    17386    17373    17371    17377    17385 
   17388    17382    17382    17393    17406    17421    17437    17447 
   17451    17454    17446    17433    17424    17408    17393    17388 
   17385    17378    17374    17378    17390    17401    17401    17392 
   17386    17397    17425    17447    17446    17433    17427    17425 
   17421    17408    17382    17356    17343    17340    17336    17336 
   17347    17371    17401    17421    17424    17425    17443    17463 
   17470    17462    17433    17396    17382    17390    17401    17406 
   17409    17413    17425    17444    17460    17477    17487    17487 
   17474    17447    17419    17397    17375    17359    17354    17354 
   17362    17379    17398    17421    17443    17458    17470    17479 
   17474    17454    17432    17416    17401    17383    17369    17347 
   17327    17327    17342    17365    17381    17379    17388    17421 
   17462    17482    17481    17469    17444    17415    17396    17378 
   17363    17354    17344    17339    17347    17369    17409    17455 
   17469    17437    17389    17348    17340    17363    17382    17374 
   17355    17344    17354    17379    17415    17442    17444    17420 
   17386    17359    17342    17340    17351    17356    17346    17332 
   17321    17323    17334    17348    17371    17397    17419    17443 
   17462    17462    17448    17421    17385    17351    17325    17312 
   17305    17301    17305    17316    17332    17348    17365    17379 
   17392    17408    17437    17464    17482    17491    17489    17474 
   17450    17423    17397    17379    17375    17383    17388    17394 
   17396    17386    17377    17374    17367    17365    17362    17367 
