Origin Time       2025/01/13 21:19:00
Lat.              31.8
Long.             131.6
Depth. (km)       30
Mag.              6.9
Station Code      MYZ006
Station Lat.      32.2564
Station Long.     131.5609
Station Height(m) 23
Record Time       2025/01/13 21:19:41
Sampling Freq(Hz) 100Hz
Duration Time(s)  131
Dir.              N-S
Scale Factor      7845(gal)/8223790
Max. Acc. (gal)   83.451
Last Correction   2025/01/13 21:19:41
Memo.             
[...]
   -5086    -5086    -5032    -5104    -5062    -4985    -5059    -5051 
   -5031    -5074    -5030    -5053    -5116    -5053    -5007    -5074 
   -5066    -4980    -5057    -5127    -5057    -5042    -5051    -5077 
   -5077    -5004    -5031    -5050    -5028    -5086    -5081    -5042 
   -5042    -5028    -5047    -5084    -5054    -5001    -5063    -5108 
   -5036    -5027    -5073    -5080    -5050    -5039    -5066    -5050 
   -5031    -5063    -5076    -5032    -5012    -5097    -5115    -4972 
   -4976    -5124    -5085    -4996    -5057    -5077    -5023    -5040 
   -5066    -5050    -5077    -5077    -5020    -5051    -5094    -5028 
   -5020    -5071    -5031    -5038    -5105    -5065    -5020    -5059 
   -5051    -5017    -5067    -5076    -5015    -5059    -5107    -5035 
   -5008    -5071    -5070    -5031    -5038    -5071    -5088    -5026 
   -5030    -5081    -5024    -5058    -5105    -4985    -5011    -5130 
   -5051    -5044    -5103    -4997    -5019    -5105    -5020    -5019 
   -5082    -5061    -5061    -5076    -5040    -5007    -5076    -5121 
   -4992    -4962    -5101    -5092    -5034    -5073    -5046    -5024 
   -5100    -5076    -4965    -5038    -5147    -5050    -4977    -5067 
   -5136    -5034    -4993    -5136    -5062    -4907    -5084    -5159 
   -4989    -5044    -5151    -5042    -5007    -5057    -5038    -5049 
   -5044    -5042    -5092    -5058    -5054    -5090    -5026    -5035 
   -5059    -4984    -5042    -5116    -5069    -5058    -5055    -5044 
   -5059    -5044    -5030    -5031    -5036    -5059    -5071    -5078 
   -5094    -5051    -4996    -5058    -5082    -5013    -5040    -5051 
   -5043    -5081    -5030    -5070    -5121    -4977    -5007    -5115 
   -4999    -5012    -5136    -5086    -5051    -5062    -5020    -5026 
   -5062    -5059    -5051    -5053    -5051    -5059    -5065    -5053 
   -5032    -5013    -5032    -5054    -5061    -5093    -5054    -5030 
   -5105    -5046    -4993    -5080    -5032    -5003    -5089    -5080 
   -5081    -5092    -5017    -4993    -5026    -5066    -5121    -5074 
   -4993    -5057    -5094    -5009    -5022    -5093    -5046    -5049 
   -5124    -5040    -4988    -5080    -5074    -5017    -5044    -5080 
   -5042    -5034    -5092    -5047    -5028    -5081    -5023    -5031 
   -5085    -5026    -5070    -5103    -4980    -5031    -5148    -5053 
   -4982    -5027    -5070    -5094    -5027    -5028    -5128    -5007 
   -4950    -5178    -5097    -4895    -5089    -5139    -4946    -5017 
   -5147    -5092    -5020    -5051    -5085    -5020    -5043    -5070 
   -5015    -5076    -5080    -5028    -5076    -5035    -5030    -5090 
   -5016    -5031    -5134    -5036    -4973    -5100    -5050    -4970 
   -5131    -5097    -4989    -5088    -5054    -5047    -5115    -5012 
   -4999    -5062    -5047    -5070    -5057    -5012    -5063    -5092 
   -5043    -5046    -5074    -5070    -5031    -4989    -5049    -5092 
   -5030    -5062    -5092    -5020    -5049    -5098    -5071    -5028 
   -4989    -5040    -5080    -5024    -5061    -5103    -5050    -5070 
   -5065    -4995    -5017    -5059    -5080    -5066    -5030    -5055 
   -5051    -5034    -5057    -5059    -5055    -5047    -5058    -5044 
   -5032    -5097    -5085    -5023    -5023    -5032    -5073    -5063 
   -5023    -5077    -5073    -5038    -5054    -5042    -5067    -5070 
   -5003    -5017    -5094    -5096    -5034    -5070    -5108    -5005 
   -5001    -5063    -5027    -5053    -5069    -5040    -5086    -5069 
   -5046    -5057    -4997    -5038    -5101    -5012    -5038    -5113 
   -5026    -5023    -5101    -5063    -5004    -5024    -5077    -5049 
   -5034    -5117    -5100    -5007    -5017    -5078    -5081    -5000 
   -5009    -5097    -5047    -5036    -5117    -5078    -5017    -5017 
   -5027    -5059    -5069    -5031    -5063    -5139    -5040    -4968 
   -5085    -5066    -5001    -5088    -5063    -5001    -5093    -5085 
   -5019    -5073    -5036    -5004    -5070    -5067    -5063    -5059 
   -5061    -5049    -5004    -5059    -5051    -4993    -5050    -5108 
   -5108    -5049    -5047    -5076    -4999    -5019    -5085    -5030 
   -5065    -5086    -5019    -5063    -5074    -5023    -5063    -5061 
   -4993    -5031    -5108    -5051    -4996    -5103    -5094    -4990 
   -5065    -5078    -5040    -5070    -5053    -5084    -5030    -4995 
   -5130    -5067    -4990    -5100    -5101    -5078    -5066    -5007 
   -5074    -5117    -5051    -5093    -5154    -5088    -5039    -5065 
   -5057    -5049    -5086    -5119    -5163    -5175    -5138    -5148 
   -5148    -5069    -5070    -5204    -5319    -5406    -5468    -5405 
   -5254    -5028    -4772    -4653    -4733    -5105    -5605    -5601 
   -5213    -5094    -5004    -4718    -4726    -5093    -5460    -5653 
   -5745    -5898    -5960    -5400    -4045    -3106    -3829    -5359 
   -6416    -6759    -6351    -5266    -3578    -2215    -2744    -4639 
   -6161    -6933    -6988    -6150    -4492    -2274     -891    -1933 
   -4943    -8170    -9724    -8370    -4923    -1749     -483    -1363 
   -4014    -7142    -8986    -8841    -6924    -4156    -2080    -1598 
   -2627    -4730    -7339    -9196    -8552    -5967    -3998    -3181 
   -2829    -3298    -4499    -5778    -7063    -8028    -7604    -5667 
   -3537    -2099    -1958    -4041    -7188    -8572    -7755    -6303 
   -4758    -3288    -2531    -3044    -4927    -7103    -8378    -8367 
   -7034    -5256    -3720    -2551    -3037    -5679    -8561    -9715 
   -8785    -6709    -4561    -3095    -2997    -4129    -5489    -6210 
   -6149    -6311    -7119    -7388    -7210    -7195    -6315    -4685 
   -3655    -3784    -5107    -6632    -7412    -8128    -8791    -8148 
   -6347    -4521    -3532    -4448    -6689    -7766    -7190    -6374 
   -5506    -4467    -3900    -3524    -3038    -3672    -5308    -6104 
   -5999    -5860    -5223    -3817    -2941    -3750    -5316    -5742 
   -4305    -2107    -1039    -1696    -2999    -3881    -4542    -5416 
   -5722    -5429    -5486    -4623    -1903     -198    -1644    -4203 
   -5539    -5860    -5663    -4607    -3215    -2648    -3204    -4476 
   -5428    -4770    -3666    -4772    -6853    -6709    -4839    -3666 
   -3997    -4722    -4334    -3339    -3889    -6521    -9080    -9859 
   -9261    -7584    -5169    -3098    -2007    -3088    -6885   -10642 
  -11843   -11155    -9058    -5201    -1806    -1648    -3902    -6694 
   -9439   -10192    -7248    -2808       98      121    -3272    -8167 
  -10573    -9032    -6651    -5763    -3701      -76      727    -1229 
   -3554    -7241   -10359    -8259    -1321     4675     4221    -1655 
   -7179    -9609    -9054    -6084    -3947    -5094    -6951    -6774 
   -4815    -2378    -2214    -5989    -9081    -5973     -645    -1449 
   -8205   -14243   -15221   -10392    -2018     4572     3466    -5231 
  -12505   -11380    -5229     -147     1402     -406    -3476    -6276 
   -9130   -11269   -11215    -8677    -2899     5202     9876     5274 
   -6887   -15731   -13277    -5876    -2628    -2335    -1524    -1391 
   -2814    -4897    -7743   -11418   -14666   -15654   -11916    -3982 
    2050     2107    -2127    -7909   -11924   -11083    -6463    -2339 
   -2668    -6899    -8603    -6007    -6054    -9524    -9271    -5071 
   -2623    -2228    -1729    -5044   -14585   -21967   -18350    -5678 
    6318     8542      310   -10493   -16347   -16336   -13072    -8464 
   -4858    -3167     -886     1613     1320    -2451    -8441    -9695 
   -1206     6975     5192    -3022   -11824   -15851   -11265    -1867 
    5088     4018    -3558    -6249      301     4703     -773   -10165 
  -14952   -11300      417    13192    15399     4048   -10932   -18006 
  -14346    -6647    -1487     -210    -2062    -2569      695     2247 
   -1132    -9386   -20542   -22204    -7724     7348    10057     5242 
   -1540    -7503    -8190    -6760   -13389   -28267   -37142   -29069 
   -8299    12764    21670    13329    -3865   -15939   -18060   -18550 
  -22983   -23198   -14137     -947    11742    17482    10388    -3429 
  -11005    -7539    -1541    -2187    -7106   -10266    -8878     -562 
    9629     8900    -3285   -12808   -12525    -6912    -1286    -1297 
   -9130   -15538   -12226    -3315     5518    11117     7107    -6122 
  -15506   -14535   -11670   -12600   -13084    -7106     7435    22215 
   23252     8461   -11554   -26011   -28559   -18150    -1189    12738 
   18126    13527     2380    -7982   -14932   -17373   -12609    -6777 
   -8301   -13722   -15755   -13863   -11746   -11095    -9173    -3246 
    4056     5343    -1822    -9251   -11816   -13273   -12085    -3159 
    9043    15167    11356      124   -13568   -23511   -22612    -9428 
    9013    24070    28733    19746     2930   -13942   -28399   -34071 
  -24197    -6609     6759    15573    21409    18585     2959   -19572 
  -35067   -34461   -23706   -12947    -4515     2717     8788    11481 
    7010    -3416   -14420   -23639   -29729   -29301   -20259    -6029 
    6374    15892    23545    20754     2695   -19595   -34288   -36103 
  -23188    -1699    16611    23178    17410     5985    -6922   -21328 
  -30160   -25413   -13173    -2747     6007    11983    10316     2380 
   -8471   -19375   -20456    -8002     2459     -976   -11107   -18133 
  -20637   -21385   -18604    -6666    10685    22397    22496    10376 
   -7923   -21714   -26596   -22852   -11553     2060    13741    22932 
   25763    15924    -4888   -25124   -34944   -30912   -13891     5900 
   13803     6652    -5787   -12120    -8613     -719     1656    -7434 
  -19028   -17255    -2835     9535     9468    -2710   -14998   -16806 
  -12819   -10434   -10068   -11578   -12143    -6741     2828     9628 
    6639    -8398   -24988   -27904   -15179      899     9266    11484 
   13288    12394     5131    -5501   -15228   -21425   -21234   -13508 
    -430    12160    16044     7992    -5483   -15294   -18951   -19657 
  -19562   -17427   -11538    -1946     9018    15248     9776    -5876 
  -21570   -30018   -28729   -16155     2313    14257    12906     3532 
   -4486    -8946   -12969   -15452   -13459    -8522    -3391      845 
    4893    10199    12509     5597    -4472    -7588    -7619   -11321 
  -14901   -11961    -1152     9211     8734     1815    -3175    -9996 
  -19966   -22054    -9877     5937    12259     9126      317   -13258 
  -25027   -27630   -20976    -7233     8517    17662    17536    10774 
   -1876   -18705   -33250   -36143   -21487     4673    26550    32300 
   19450    -7550   -33232   -38504   -23660    -6744     2309     7456 
   11441    12301     9803     3846    -5472   -12960   -13693    -9057 
   -4060    -5705   -15448   -21466   -14689    -2604     6021     8965 
    2914   -10982   -22107   -20267    -6520     8037    14442    11389 
    2317    -6756   -13193   -18806   -20970   -13721      336     9468 
    6114    -6814   -20980   -26740   -19872    -6235     6471    13775 
   12366     3933    -5655   -13130   -16139   -13419    -8845    -4806 
    1665     8542     6494    -7099   -23267   -32174   -30981   -24201 
  -18538   -14567    -6554     6315    15658    14594     3643   -11047 
  -18998   -13460       70     8515     5732    -1910    -6475    -4818 
    2795     8829     3091   -12002   -21656   -17703    -8316    -5485 
  -11065   -16893   -12941      853    11213     7620    -5722   -18166 
  -21880   -14350     -149    11460    13456     6016    -4577   -12584 
  -19676   -30761   -40590   -37535   -20663     1293    17752    18712 
    4891   -12550   -26638   -33293   -26354    -8756     6309    11871 
   11651     8538     2760    -1691    -2785    -4338    -6794    -6284 
   -3329    -2350    -2830      550     7311    11022     9315     4741 
    1695     5252    14404    20602    18481    12653    10477    11141 
    9837     7044     2917    -3437    -6837    -3757     1906     5285 
    4085      248    -2234    -3325    -5221    -7219    -6369    -1026 
    6894    12636    12494     7179     -143    -6463    -7217     -252 
    6812     4554    -4216    -8742    -6920    -7047   -12505   -18557 
  -23072   -26334   -26808   -24227   -19911   -14933   -10222    -5800 
   -1981    -2081    -9028   -18751   -23205   -19091    -8287     4946 
   13968    12654      580   -13961   -19030   -12178    -3343     -390 
    -622       33     -152    -2604    -3241      529     3577      553 
   -6771   -14385   -21350   -27448   -30983   -29635   -23122   -17332 
  -19939   -29789   -38226   -40238   -38034   -35112   -32379   -29258 
  -25209   -20632   -15570   -10509    -9552   -15109   -22087   -24375 
  -21296   -14000    -3034     7204     9220      211   -14399   -23978 
  -21253    -7989    11884    36180    58328    69199    64843    48305 
   27901    11408     2068     2654    13880    27738    33293    28360 
   19055    11360     8255     9020     8252     2590    -5194   -12298 
  -15905    -9848     7102    26001    36316    32597    17321     -297 
  -15087   -25826   -24879    -7344    14904    24979    19712     5710 
  -12591   -31383   -46002   -53601   -50527   -35540   -17421    -8816 
  -12252   -20995   -31183   -41199   -45567   -41339   -34460   -33536 
  -39213   -43942   -43933   -43757   -45449   -44477   -40350   -37065 
  -32231   -19689     -697    15580    20814    15961     7974    -3676 
  -23001   -40730   -42917   -26940     4059    42295    72088    82429 
   70812    38029    -2689   -29529   -34847   -27545   -18570   -12619 
   -7744    -2563      244     2338     7962    11037     3612    -7871 
  -10754    -2394     8915    18002    28553    40309    47704    49316 
   43945    29377    12501     5074     6033     7042     8141     8445 
    3931      789     7746    21579    31434    31514    23361    10056 
   -3519   -11518   -12688    -7844     4650    21074    30580    31453 
   28764    18019    -2990   -22696   -31232   -29251   -21910   -15658 
  -15992   -23855   -35851   -46789   -53127   -55179   -53431   -43298 
  -20919     4353    16984    13333     -498   -19237   -37615   -47162 
  -41554   -25743   -12240    -8094   -13949   -27171   -41528   -53125 
  -60971   -61882   -53354   -37966   -21519    -7279     1552    -2250 
  -16965   -28231   -28961   -22142    -8567     8166    19743    22964 
   17074    -1301   -28894   -51683   -59922   -54198   -35245    -6662 
   18594    26967    18246     9644    14810    25532    33370    41767 
   46311    40755    29610    16028     2214    -6056    -5385     7356 
   30863    51239    55439    45006    26342     3569   -13263   -14091 
   -4476     3732     7398     7074     3600     -938    -7200   -15691 
  -20036   -11920     7304    28467    43073    44626    34947    22491 
    7948    -9693   -23780   -32572   -42399   -54322   -60863   -56625 
  -46768   -37824   -28676   -19793   -15384   -17957   -30051   -47341 
  -55684   -47032   -27267    -6871     6964    11295     6138    -6311 
  -21300   -33191   -38199   -36132   -29925   -19839    -4727     8946 
   13292    11422    10709    10957     8922     6312     6079     6782 
    5013      -35    -4455    -2346     6378    15863    22600    27121 
   27847    19546      738   -22806   -43456   -55109   -53273   -37243 
  -11963    13343    29216    30917    20675     4973   -10586   -20295 
  -16355     2123    25899    45428    53962    48170    32026    12586 
   -4990   -16044   -17941   -14212   -10706    -6887     1672    12067 
   15785    10534     -596   -14139   -23552   -23184   -15014    -3713 
    7643    12613     4980   -10940   -26713   -40112   -49469   -49372 
  -37970   -21088    -7029     -373    -1868   -11114   -24313   -33755 
  -35766   -32165   -24286   -14150    -5080     2366     8619    11219 
    6212    -6983   -23334   -36367   -42573   -40834   -31696   -18354 
   -6278    -1717    -7194   -17209   -24270   -26889   -24935   -15932 
   -2529     8039    13398    16190    18877    21789    23383    21895 
   17676    13875    12623    12110    11163    11917    14037    13617 
   11107    11614    14689    14187     9058     2960    -1433    -1198 
    2188     2563      530     1355     5508    10315    14586    18960 
   20525    13687      500   -11160   -15637    -8671     8494    25643 
   34461    34059    25780    12415    -1984   -13702   -20655   -24533 
  -27229   -26354   -18993    -7921     -626    -1537   -10420   -25833 
  -43312   -56512   -62914   -63560   -58313   -45701   -29257   -17282 
  -13502   -14656   -15655   -13458    -8849    -4785    -3402    -4800 
   -5818    -2837     3314     9355    11809     7474    -3240   -15552 
  -23255   -23865   -19345   -11570    -2421     6270    13801    17608 
   14667     7404      510    -7134   -16490   -21805   -20094   -15429 
  -12129   -10524    -8857    -8228    -9821   -10864   -10201    -8770 
   -5136     1255     8627    14138    12941     3142    -9543   -15805 
  -10226     4591    23075    40838    49878    42940    23407    -1289 
  -26009   -41956   -40653   -25015    -6469     5028     4401    -7898 
  -23645   -30655   -23499    -6849    11592    25290    27672    16058 
   -3834   -22249   -31604   -28144   -13351     3924    14000    14793 
    8472    -1061    -7117    -5894     1999    15201    28618    33092 
   24467     7560   -11691   -29778   -40674   -40140   -30908   -16132 
    -480     7684     6691     -120   -12664   -28992   -43528   -51576 
  -51826   -47175   -40120   -29833   -17362    -8425    -7014    -9721 
  -11184   -10759    -9003    -4747     2513    12529    23203    30883 
   33880    32069    26944    20407    11988     3149    -1714     -267 
    6963    18087    31688    44065    47163    37050    16825    -7690 
  -26650   -31005   -22245    -9273     1300     5968     1196   -13026 
  -31051   -46606   -54207   -48907   -33130   -16472    -5940    -7084 
  -24586   -50730   -69075   -71435   -59779   -38470   -12964     8999 
   20852    20358     9258    -6280   -18171   -21143   -13143     3677 
   21991    33214    31823    19858     6313    -2309    -3879     3651 
   16996    26501    26655    18886     6083    -8259   -18740   -20156 
  -11211     3441    15388    18666    14524     8915     6284     7353 
   11330    16441    16684     5383   -15082   -34720   -45323   -44771 
  -35919   -22540    -8464     1532     5702     6451     6939     8267 
    8275     5802     2683     -301    -3261    -4257     -981     4355 
    6002     1482    -7249   -17340   -26198   -32030   -34599   -34159 
  -31668   -29802   -29010   -25076   -16220    -6291     2671    10369 
   12741     7053    -4387   -18532   -30703   -32765   -20893    -1946 
   14796    26908    34037    33889    26568    14154     -630   -11975 
  -14088    -6139     8672    25679    38001    37677    22715     -627 
  -23318   -36670   -34522   -18549     1640    17138    23360    15645 
   -6843   -35257   -58075   -67506   -59190   -35159    -5491    17824 
   26187    16243    -5109   -23098   -29245   -24659   -10713    10781 
   32348    45643    46584    35735    18596     1348   -12171   -18517 
  -16540    -9571    -2209     1728     -310    -7415   -17162   -27992 
  -35997   -36675   -30222   -20139   -11064    -8548   -14443   -22738 
