Origin Time       2025/01/13 21:19:00
Lat.              31.8
Long.             131.6
Depth. (km)       30
Mag.              6.9
Station Code      MYZ010
Station Lat.      31.9968
Station Long.     130.9722
Station Height(m) 203
Record Time       2025/01/13 21:19:43
Sampling Freq(Hz) 100Hz
Duration Time(s)  139
Dir.              U-D
Scale Factor      7845(gal)/8223790
Max. Acc. (gal)   11.749
Last Correction   2025/01/13 21:19:42
Memo.             
[...]
   27945    27827    26600    25228    24669    24941    25432    25566 
   25222    24695    24217    23872    23847    24247    24730    24856 
   24687    24705    25182    26026    27025    27919    28448    28599 
   28595    28474    28062    27523    27163    26671    25581    24239 
   23481    23638    24254    24622    24449    24027    23842    24098 
   24649    25091    24942    24154    23461    23656    24524    25222 
   25486    25608    25679    25536    25134    24700    24561    24611 
   24273    23494    23072    23484    24266    24934    25532    25965 
   25867    25304    24844    24925    25456    25992    26238    26138 
   25677    25034    24602    24622    24877    24833    24364    24106 
   24605    25510    26110    26260    26345    26523    26515    26075 
   25294    24472    23876    23616    23750    24372    25448    26555 
   27136    27209    27305    27530    27399    26661    25685    24995 
   24819    24987    25060    24687    24047    23780    24223    24845 
   24923    24561    24506    25181    26234    26956    27055    26766 
   26323    25925    25857    25933    25579    24916    24699    25045 
   25258    25018    24817    24929    24845    24387    24290    24915 
   25475    25195    24395    24023    24480    25228    25554    25470 
   25396    25348    25097    24757    24707    25050    25474    25693 
   25748    25685    25320    24599    23839    23371    23149    23055 
   23356    24183    24887    24921    24775    25020    25357    25334 
   25066    24880    24892    24968    24776    24128    23244    22470 
   22011    21972    22404    23261    24321    25232    25914    26628 
   27341    27592    27279    26882    26833    27137    27530    27777 
   27862    27920    28023    28055    27816    27175    26127    24950 
   24229    24266    24606    24679    24656    25089    25952    26640 
   26829    26744    26631    26362    25832    25250    24715    24078 
   23468    23218    23279    23403    23611    23853    23876    23835 
   24160    24645    24810    25053    26057    27398    27930    27260 
   26103    25321    25107    25218    25525    25890    25988    25766 
   25660    26065    26680    26555    25180    23444    22648    22754 
   22775    22403    22165    22631    23944    25508    26285    25964 
   25168    24503    24163    24059    23866    23296    22486    22121 
   22995    24858    26275    26554    26536    26592    25955    24669 
   23907    24102    24591    24680    24219    23886    24733    26572 
   27837    27716    27048    26762    26784    26690    26446    26172 
   25766    25269    25185    25713    26142    25768    24981    24713 
   25189    25779    25787    25139    24490    24660    25735    26967 
   27625    27541    26806    25562    24403    24089    24403    24273 
   23238    22090    21964    23180    24983    26250    26477    26046 
   25681    25853    26500    26817    25832    23908    22819    23442 
   24460    24264    23120    22492    23072    24370    25706    26800 
   27406    27174    26410    26238    27036    27530    26572    24892 
   24054    24349    24680    24271    23750    23998    24486    24224 
   23893    24825    26415    26971    26408    26029    26284    26497 
   26410    26566    27194    27760    27792    27419    27056    26808 
   26300    25258    24051    23267    23014    23020    23141    23508 
   24125    24543    24424    24208    24428    24764    24607    24104 
   23985    24588    25278    25153    24386    24125    24860    25859 
   26368    26350    26082    25901    26088    26388    26221    25682 
   25517    25918    26245    26119    25903    25983    26272    26562 
   26935    27459    27754    27363    26550    26094    26049    25683 
   24973    24813    25366    25573    24759    23720    23672    24655 
   25525    25438    24741    24147    23730    23314    23082    23180 
   23508    24133    25111    26060    26535    26508    26206    25778 
   25251    24664    24059    23557    23419    23723    24239    24842 
   25610    26365    26684    26538    26266    25874    25095    24198 
   23924    24489    25313    25914    26377    26808    26983    26739 
   26288    25859    25311    24559    24061    24255    24823    25049 
   24757    24476    24648    24997    25049    24881    24779    24660 
   24451    24395    24570    24679    24570    24525    24999    26059 
   27139    27666    27726    27677    27549    27144    26426    25620 
   25068    24908    24852    24503    23897    23453    23480    23913 
   24487    25037    25593    26145    26393    26023    25288    24803 
   24605    24100    23122    22353    22374    22929    23414    23575 
   23544    23608    23878    24193    24521    24907    25065    24811 
   24563    24721    25061    25186    25091    24988    24979    25047 
   25222    25532    25924    26233    26349    26422    26748    27278 
   27487    26960    25952    25149    24903    24930    24835    24806 
   25355    26473    27545    28073    28034    27668    27253    26940 
   26558    25785    24625    23506    22785    22526    22731    23215 
   23589    23827    24247    24850    25419    25961    26434    26576 
   26300    25791    25315    25081    25068    25122    25282    25751 
   26496    27126    27318    27105    26542    25569    24426    23630 
   23319    23194    23144    23373    23949    24691    25429    26063 
   26504    26748    26917    27095    27168    26994    26568    25903 
   25085    24362    23905    23517    22950    22434    22358    22635 
   22928    23186    23477    23711    23855    24015    24228    24530 
   25030    25790    26677    27365    27580    27378    26979    26418 
   25702    25108    24948    25286    25992    26759    27058    26536 
   25567    24862    24680    24794    24950    24979    24760    24510 
   24848    26050    27400    27818    27062    25867    24919    24181 
   23279    22202    21393    21212    21483    21863    22401    23287 
   24364    25509    26950    28637    29883    30226    30055    29829 
   29374    28356    26846    25278    24224    24005    24344    24595 
   24410    24024    23832    23843    23831    23726    23517    23112 
   22543    22142    22180    22466    22650    22742    23132    24160 
   25663    27028    27777    27897    27508    26580    25184    23862 
   23326    23669    24181    24179    23750    23463    23650    24286 
   25211    26094    26561    26626    26574    26420    25932    25147 
   24445    24015    23728    23539    23596    23982    24622    25304 
   25782    26017    26308    26874    27406    27465    27095    26651 
   26298    26006    25859    25952    26091    26017    25771    25591 
   25550    25501    25362    25261    25197    24810    23977    23233 
   23155    23755    24556    24954    24671    24051    23707    23841 
   24166    24352    24498    25060    26040    26730    26743    26527 
   26445    26307    26001    25651    25092    24079    22986    22469 
   22608    23052    23602    24113    24514    25181    26501    27996 
   28617    27967    26624    25269    24096    23153    22792    23280 
   24204    24808    24871    24772    24814    24965    25177    25366 
   25222    24592    23846    23422    23299    23180    23070    23341 
   24179    25243    26034    26323    26080    25297    24219    23418 
   23233    23364    23340    23198    23431    24210    25024    25304 
   25130    25050    25340    25694    25701    25401    25216    25438 
   26014    26681    27095    27074    26951    27314    28208    29000 
   29169    28831    28362    27847    27143    26185    25092    24177 
   23831    24070    24348    24220    23861    23699    23917    24428 
   25002    25358    25420    25502    25991    26858    27687    28031 
   27677    26838    26038    25596    25334    24975    24629    24611 
   24941    25451    26206    27252    28057    27874    26779    25666 
   25116    24880    24518    24048    23722    23475    23132    22978 
   23384    23947    23888    23191    22422    21757    21082    20652 
   20823    21429    22005    22358    22655    23151    23870    24499 
   24711    24640    24690    25007    25461    25967    26480    26813 
   26879    26923    27094    27102    26773    26451    26555    27035 
   27398    27272    26870    26751    27112    27527    27569    27394 
   27415    27658    27857    28071    28624    29405    29968    30213 
   30284    30006    29122    27872    26898    26654    27041    27643 
   28121    28344    28352    28325    28393    28432    28225    27745 
   27143    26473    25647    24763    24059    23484    22688    21539 
   20340    19435    18900    18709    18847    19080    19101    18920 
   18840    19140    19894    20904    21794    22364    22862    23688 
   24840    25918    26655    27072    27211    27009    26445    25635 
   24830    24273    24015    23965    24116    24499    24937    25070 
   24730    24142    23588    23053    22454    21945    21776    22072 
   22766    23710    24777    25786    26531    26893    26825    26468 
   26053    25581    24915    24235    23984    24187    24266    23884 
   23444    23517    24116    24652    24694    24449    24267    24171 
   24113    24178    24358    24532    24737    25149    25752    26258 
   26335    26053    25903    25980    25735    24984    24274    23853 
   23352    22686    22302    22404    22697    22951    23271    23650 
   23733    23132    21884    20582    19973    20362    21411    22531 
   23399    24106    24761    25224    25440    25519    25429    25150 
   24862    24624    24193    23583    23436    24201    25389    26296 
   26916    27633    28514    29208    29404    29178    28944    28977 
   28996    28644    28221    28271    28741    29203    29539    29906 
   30275    30453    30395    30242    29932    29079    27680    26427 
   25770    25297    24584    23841    23411    23403    23836    24613 
   25431    26055    26546    27035    27368    27267    26704    25879 
   24987    24220    23730    23575    23826    24381    24862    25112 
   25342    25668    25961    26218    26686    27423    28102    28437 
   28547    28771    29188    29454    29288    28923    28765    28890 
   29060    28926    28267    27253    26306    25617    25011    24344 
   23873    24016    24799    25690    26061    25663    24680    23557 
   22707    22140    21582    21115    21193    21902    22805    23568 
   24113    24383    24510    24738    24821    24212    22906    21510 
   20671    20610    20991    21371    21624    21901    22424    23109 
   23564    23526    23137    22766    22584    22473    22297    22037 
   21722    21428    21320    21539    21963    22291    22366    22189 
   21705    21058    20746    21091    21849    22607    23172    23580 
   24098    25024    26099    26514    25922    25024    24688    24961 
   25270    25301    25172    24950    24607    24297    24154    23976 
   23553    23037    22751    22858    23225    23550    23611    23411 
   23117    22986    23426    24605    25996    26867    27066    27117 
   27521    28096    28325    28121    27884    27999    28599    29473 
   29987    29677    28844    28069    27405    26527    25440    24534 
   24243    24880    26481    28587    30429    31549    31959    31738 
   31193    31168    32096    33034    32742    31332    29883    28903 
   28030    26979    26036    25655    25898    26399    26902    27575 
   28436    28954    28759    28208    27846    27720    27363    26269 
   24610    23514    23950    25259    25974    25876    25710    25508 
   24885    24343    24656    25343    25336    24771    24475    24363 
   23796    22921    22499    22752    23242    23653    24129    24764 
   25159    24753    23506    22108    21298    21151    21467    22492 
   24529    27083    29182    30420    31000    30950    30006    28325 
   26697    25732    25115    24239    23457    23751    25141    26532 
   27252    27637    28117    28742    29415    29843    29581    28533 
   27248    26334    25793    25261    24665    24327    24628    25635 
   26859    27587    27481    26875    26516    26642    26474    25400 
   24058    23372    23145    22505    21303    20179    19583    19350 
   19129    18750    18241    17589    16681    15800    15750    16780 
   17948    18358    18412    19041    20399    21956    23213    23920 
   24175    24430    25068    25979    26774    27344    27864    28327 
   28474    28138    27504    27006    26889    27122    27581    27877 
   27496    26453    25370    24983    25597    26715    27418    27279 
   26757    26654    27263    28011    27897    26504    24501    22786 
   21400    19878    18435    17778    17925    18243    18368    18504 
   18922    19423    19647    19683    19907    20277    20266    19795 
   19657    20609    22381    24081    25253    25999    26473    26936 
   27735    28636    28949    28459    27556    26842    26820    27568 
   28607    29268    29411    29457    29646    29752    29451    28721 
   27926    27494    27425    27309    26960    26680    26649    26557 
   26153    25698    25554    25740    25991    25894    25205    24227 
   23371    22600    21820    21436    21919    23025    24140    25176 
   26434    27935    29334    30248    30453    30072    29470    28814 
   28324    28692    30237    32111    33363    34186    35322    36714 
   37504    37210    36049    34306    32189    30014    28200    27256 
   27513    28521    29353    29732    30132    30775    31272    31137 
   30261    28915    27423    25847    24223    22906    22270    22248 
   22354    22127    21691    21698    22435    23419    24202    24841 
   25142    24510    23059    21932    21946    22632    23166    23514 
   24019    24641    25091    25284    25355    25369    25324    25308 
   25397    25498    25483    25374    25346    25712    26518    27159 
   27068    26392    25579    24868    24267    23724    23230    22863 
   22729    22954    23634    24522    25047    24995    24664    24236 
   23731    23522    23922    24420    24190    23167    22141    21807 
   21951    21905    21643    21691    22037    22077    21628    21033 
   20467    19915    19656    19958    20487    20849    21045    21095 
   21101    21254    21586    22111    22782    23409    23804    24090 
   24729    25802    26775    27456    28321    29289    29403    28198 
   26287    24676    23927    23823    23669    23043    22374    22212 
   22438    22744    23071    23325    23333    23183    23252    23718 
   24193    24237    23909    23522    23264    23174    23202    23141 
   22731    22118    21945    22492    23110    23188    22985    22954 
   23238    24019    25431    26968    27812    27787    27400    27116 
   26956    26651    25999    25272    25081    25465    25614    24903 
   23687    22913    23094    23888    24733    25435    25992    26237 
   25992    25567    25531    25843    25955    25760    25636    25654 
   25513    25081    24583    24194    23754    23202    22837    23002 
   23612    24138    24322    24449    24783    25070    24817    24210 
   24040    24497    24827    24509    24244    24857    25934    26531 
   26601    26997    28020    28903    29030    28586    27888    27155 
   26719    26723    26921    26951    26622    26150    25991    26443 
   27614    29311    30882    31409    30589    29457    29188    29412 
   28934    27638    26364    25440    24606    23818    23305    23238 
   23625    24259    24757    24941    25095    25508    26086    26661 
   27274    27799    27799    27297    27139    27982    29485    30940 
   31950    32297    32067    31764    31579    31050    29932    28834 
   28337    28206    27963    27531    26997    26512    26482    27037 
   27720    28044    27899    27587    27379    27125    26545    25633 
   24730    24190    24082    24277    24555    24680    24586    24448 
   24462    24590    24441    23599    22372    21439    20844    20368 
   20239    20713    21519    22087    22319    22565    22881    23012 
   23013    23453    24669    26025    26605    26446    26226    26028 
   25454    24705    24329    24202    23934    23654    23631    23859 
   24094    24048    23706    23157    22426    21591    20900    20803 
   21359    21797    21609    21351    21679    22334    22570    22177 
   21690    21689    22122    22535    22866    23453    24268    24777 
   24692    24231    23583    22925    22616    22893    23687    24524 
   25012    25321    25625    25740    25303    24198    22837    21720 
   21150    21227    21799    22646    23545    24194    24329    24291 
   24776    25490    25591    25172    24740    24259    23661    23221 
   23164    23503    23909    24012    24085    24630    25631    26493 
   26680    26588    27075    28138    28956    29122    29029    28907 
   28364    27341    26636    26721    27008    27012    27078    27495 
   27926    27988    27666    27157    26690    26306    25793    24945 
   23949    23301    23290    23927    24929    25864    26632    27338 
   27901    28132    27903    27180    26212    25228    24115    23028 
   22477    22673    23494    24548    25355    25809    26210    26855 
   27657    28174    28198    27981    27639    26946    26003    25393 
   25353    25473    25381    25138    24808    24266    23519    22785 
   22172    21563    20974    20764    21111    21887    23067    24575 
   26009    26963    27459    27901    28549    29151    29288    28945 
   28386    27765    27213    26909    26939    27201    27510    27832 
   28287    28836    28895    27978    26833    26527    26978    27550 
   27918    28163    28503    28798    28783    28441    27826    27079 
   26441    25868    25212    24684    24503    24470    24229    23660 
   23022    22663    22725    23145    23506    23445    23133    22860 
   22856    23184    23359    22824    21784    21095    21199    21605 
   21921    22503    23575    24544    24732    24286    23822    23630 
   23604    23554    23264    22805    22727    23010    23151    23453 
   24422    25825    27122    27946    28188    27916    27309    26755 
   26570    26539    26289    25870    25508    25176    24682    24055 
   23539    23229    22927    22570    22670    23664    25060    25917 
   25978    25725    25461    25083    24556    24017    23544    22990 
   22270    21633    21366    21342    21138    20695    20397    20536 
   21185    22110    22916    23537    24133    24757    25404    26106 
   26950    27811    28345    28598    28902    29149    29165    29169 
   29226    29104    28637    27854    27060    26487    25926    25218 
   24502    23839    23114    22333    21867    22191    23156    24081 
   24671    25362    26589    28030    29033    29533    29866    29932 
   29272    27999    26958    26620    26515    26052    25361    24898 
   24646    24355    24062    23993    24279    24659    24777    24821 
   25112    25303    24964    24537    24368    24094    23589    22921 
   22329    22279    22700    23340    24171    24915    25155    24733 
   23955    23309    22931    22788    22852    22960    22959    22913 
   23028    23275    23257    22943    22933    23668    24798    25655 
