Origin Time       2025/01/13 21:19:00
Lat.              31.8
Long.             131.6
Depth. (km)       30
Mag.              6.9
Station Code      MYZ004
Station Lat.      32.3888
Station Long.     131.3338
Station Height(m) 289
Record Time       2025/01/13 21:19:45
Sampling Freq(Hz) 100Hz
Duration Time(s)  110
Dir.              N-S
Scale Factor      7845(gal)/8223790
Max. Acc. (gal)   10.958
Last Correction   2025/01/13 21:19:44
Memo.             
[...]
    5779     5609     6593     8565    11053    13123    14045    14014 
   13481    12461    10898     9182     7662     6056     4264     3042 
    3001     3451     3160     2133     1229      498     -615    -2265 
   -3832    -4244    -3551    -3265    -3844    -3969    -2995    -1366 
     899     3705     6349     8016     7983     6392     4359     3094 
    3592     5692     7920     9702    11481    12901    13459    13196 
   12073    10269     8082     5543     3430     3084     4396     5744 
    6153     5821     4693     2242    -1120    -3597    -3825    -2010 
    1425     6181    11049    14561    15830    14678    12507    11333 
   11087    10095     7863     5606     4695     5169     5705     5464 
    5128     5359     5629     5348     4453     2872     1183      256 
    -359    -1119    -1109       33     1433     2652     4075     5910 
    7466     7742     6725     5431     4590     4025     3747     4064 
    4758     5904     7658     9340    10698    12082    13273    13778 
   13338    12216    11334    11253    11585    11861    11566     9890 
    7169     4939     3804     3631     4564     5838     6091     5474 
    4997     4734     4209     3250     2227     1649     1289     1096 
    2165     4661     7134     8766     9680     9875     9436     8448 
    6937     5791     5999     7024     7788     8070     7925     7345 
    6644     6332     6569     6929     7047     7110     7250     7179 
    6802     6454     6399     6363     5895     5038     3977     2814 
    1880     1208      612      197       13      102      646     1795 
    3936     7184    10449    12475    13302    13559    13300    12348 
   11032    10027     9545     9012     8085     7252     6891     6956 
    7350     7847     8216     8106     6926     4882     3015     1877 
    1502     1872     2705     3827     5390     7109     8505     9825 
   11272    12375    12935    13113    12698    11279     9090     7273 
    6777     7183     7555     7858     8371     8947     9508     9668 
    8568     6292     3944     2286     1412      940      502      363 
     999     2385     3982     5044     5279     5200     5317     5466 
    5441     5498     5856     6343     6636     6751     6871     6804 
    6367     5871     5691     5891     6330     6879     7195     6816 
    5918     5161     4854     4918     4882     4002     2158      309 
    -364      271     1350     2282     3032     3808     5003     6524 
    7789     8465     8453     7874     7128     6457     6160     6528 
    7098     7160     6442     5053     3566     2536     2088     2308 
    3046     3553     3396     3214     3726     4959     6608     8208 
    9297     9900    10247    10226     9819     9205     8328     7280 
    6536     6461     7148     8363     9267     9012     7788     6605 
    5973     5447     4853     4560     4378     3940     3613     3978 
    5097     6245     6404     5675     5410     6278     7238     6937 
    5518     4259     4104     5255     7006     8244     8789     8860 
    8375     7877     7820     7524     6424     4858     3312     1972 
    1183     1746     3731     5606     6099     5837     6026     7041 
    8598     9952    10246     9216     7441     6345     7005     8588 
    9741    10284    10282     9822     9347     8653     7180     5258 
    3677     2818     2523     2434     2624     3298     3977     4185 
    4507     5648     7376     9099    10336    11016    11402    11439 
   11391    11623    11048     8893     6404     4507     2998     2011 
    1904     2654     3747     4432     4197     2870      954     -382 
    -768    -1024    -1486    -1463     -525     1113     2917     4085 
    4256     3973     3794     3931     4704     6384     8638    10343 
   10253     8379     6149     4833     4594     4900     5238     5528 
    5863     6003     5728     5494     5841     6281     5927     4712 
    3237     1995     1350     1765     3145     4571     5625     7017 
    8965    10338    10681    10874    11165    11229    11288    11211 
   10516     9424     8158     6658     5525     5606     6729     7477 
    6859     5814     5544     5726     5965     6895     8499     9728 
   10323    10601    10197     8818     7038     5868     5560     5034 
    3582     1841      517      207     1270     2852     3856     4179 
    4075     3651     3115     2963     3748     5408     7060     7732 
    7346     6875     7083     7801     8776    10199    12091    13689 
   14029    13050    11519    10315     9904    10017    10093     9694 
    8623     7365     6349     5691     6002     7203     8063     7879 
    6663     4842     3281     2556     2849     3879     4676     4685 
    4334     3935     3403     2872     2509     2268     2157     2176 
    2000     1335      496      270     1032     2396     3811     4878 
    5336     5520     6102     7034     7686     7808     7684     7600 
    7469     7159     6876     6724     6559     6448     6575     7068 
    7874     8480     8247     7172     5965     5337     5520     6288 
    7013     7038     6282     5238     4398     3788     3086     2366 
    2052     2064     2224     2749     3491     4032     4499     4957 
    4974     4491     4228     5022     6728     8302     9167     9271 
    8606     7647     6687     5521     4630     4476     4396     4059 
    4272     5413     6713     7253     7261     7732     8552     9148 
    9948    10944    11249    10839    10640    11049    11623    12094 
   12591    12741    11715     9525     7226     5563     4461     3734 
    3360     3254     3261     3113     2685     2436     2905     3720 
    4068     4052     4271     4595     4700     4768     4752     4224 
    3186     2143     1471     1121     1008     1432     2632     4183 
    5456     6228     6847     7967     9528    10781    11561    11988 
   11658    10261     8050     5821     4471     4122     4487     5628 
    7231     8436     9022     9502    10050    10204     9653     8722 
    7900     7562     7857     8561     9533    10767    11634    11229 
    9691     8186     7460     6936     5713     4006     2740     2357 
    2651     3194     3819     4753     5737     5915     5242     4396 
    3589     2826     2370     2350     2488     2219     1317      298 
    -193       22      762     1605     2215     2837     3979     5541 
    6891     7743     8063     7506     5907     4005     2686     2029 
    1769     1856     2111     2322     2467     2442     2162     1648 
     892       87     -382     -102     1186     3252     5640     8046 
    9984    10862    10538     9450     8392     7915     7674     7102 
    6430     6264     6810     7975     9236     9624     8675     6906 
    5323     5008     6301     8376    10282    11504    12023    12541 
   13490    14268    14162    12928    10565     7604     5125     3645 
    2794     2112     1286      245     -558     -564      333     1678 
    2725     3177     3604     4723     6608     8768    10536    11551 
   12118    12810    13533    13722    13401    12892    12025    10434 
    8073     5347     2913     1206      392      611     1705     3083 
    4298     5339     6160     6390     5836     4919     4336     4436 
    5035     5826     6556     6929     6805     6156     4932     3260 
    1548      518      758     1969     3214     4158     5293     6835 
    8301     9163     9321     9454    10521    12330    13778    14457 
   14593    14146    12945    11117     9063     7237     5841     4791 
    4078     3628     3073     2192      928     -724    -2384    -3368 
   -3298    -2342    -1017      225     1337     2488     3601     4355 
    4602     4612     4907     5908     7630     9810    12147    14046 
   14912    14785    13952    12391    10318     8463     7229     6393 
    5649     4981     4754     5086     5324     4793     3607     2423 
    1863     2342     4028     6535     8765     9676     9266     8220 
    7048     5976     5059     4230     3466     2928     2988     4033 
    5957     8082     9724    10544    10605    10326    10208    10589 
   11358    11871    11574    10575     9428     8330     6970     5428 
    4234     3457     2722     1923     1386     1275      977     -229 
   -2062    -3555    -3956    -2902     -571     1984     3651     4264 
    4187     4010     4429     5564     6829     7434     6960     5742 
    4498     3790     3942     4747     5714     6885     8505    10305 
   11749    12455    12262    11241     9811     8598     7793     6980 
    6075     5590     5659     5803     5668     5363     5366     6134 
    7492     8760     9567    10048    10331    10220     9558     8634 
    7765     6932     6170     5790     6018     6751     7803     9165 
   10831    12557    13848    14126    13258    11776    10446     9749 
    9559     9402     9216     9255     9369     9086     8290     7240 
    6076     4747     3346     2254     1809     1721     1429      953 
     692      769      896      634      -21     -626    -1069    -1464 
   -1516    -1097     -707     -785    -1233    -1557    -1321     -627 
     225     1425     3330     5724     7935     9509    10438    10971 
   11335    11400    10868     9815     8526     7156     5967     5373 
    5499     5944     5945     5119     3870     2749     1971     1628 
    1929     3129     5186     7539     9363    10258    10511    10426 
   10060     9707     9861    10586    11264    11141    10172     9116 
    8761     9138     9536     9216     8067     6687     5736     5320 
    5070     4568     3653     2559     1618      891      360       91 
     140      575     1364     2199     2852     3304     3449     3379 
    3438     3770     4278     4745     4977     4816     4125     3250 
    2860     3223     4260     5779     7308     8299     8660     8721 
    8784     8982     9213     9194     8689     7785     6897     6291 
    5811     5373     5259     5686     6388     7084     7998     9456 
   11263    12799    13695    14185    14532    14503    13899    13177 
   12969    13211    13207    12511    11383    10353     9458     8213 
    6574     5152     4158     3262     2365     1742     1775     2442 
    3229     3761     3955     3852     3492     2728     1570      399 
    -487    -1156    -1682    -1622     -558      945     2110     2953 
    3709     4320     4739     5202     6112     7673     9637    11578 
   13297    14712    15574    15724    15240    14208    12648    10484 
    7808     5061     2751     1333      927      986      977      878 
     857     1101     1929     3476     5382     7153     8453     9051 
    9089     8905     8649     8444     8212     7611     6606     5414 
    4199     3164     2385     1923     1914     2268     2813     3456 
    4116     4797     5377     5572     5464     5482     5871     6527 
    7267     8117     9167    10146    10551    10315     9887     9499 
    8907     7863     6405     4945     3962     3412     2929     2463 
    2409     3175     4846     7221     9779    11842    13003    13177 
   12393    10828     8924     7330     6403     5921     5509     4807 
    3734     2748     2250     2189     2293     2215     1779     1274 
    1158     1579     2328     3148     3827     4114     3952     3607 
    3379     3437     3805     4217     4051     2943     1367      101 
    -468     -413     -151     -103     -318     -573     -653     -365 
     419     1555     2803     4182     5745     7260     8365     9078 
    9852    11017    12418    13678    14511    14850    14904    14910 
   15051    15508    16194    16646    16416    15300    13501    11626 
   10165     9194     8549     7942     7357     7218     7628     8206 
    8573     8445     7788     6785     5475     3946     2506     1416 
     828      761      923     1023      950      616        8     -656 
   -1003     -893     -495       27      749     1892     3262     4290 
    4915     5440     5853     6185     6782     7825     9104    10093 
   10280     9738     9130     9109     9926    11319    12776    13907 
   14500    14582    14531    14666    14910    14885    14161    12723 
   10956     9267     8000     7329     7028     6505     5337     3812 
    2562     1791     1246      675      166      -20        2      -72 
    -315     -706    -1183    -1599    -1919    -2079    -1794    -1005 
      -2      930     1610     2074     2525     3141     4209     5810 
    7391     8309     8510     8337     8156     8166     8082     7488 
    6602     5836     5197     4704     4572     4992     5815     6421 
    6470     6307     6251     6339     6627     7095     7615     8097 
    8446     8667     8930     9224     9229     8799     8241     7950 
    7956     8105     8391     8766     9046     9119     8904     8399 
    7842     7400     6922     6268     5505     4692     3827     3051 
    2596     2513     2567     2347     1676      892      463      610 
    1269     2207     3458     5225     7241     9018    10384    11315 
   11848    12152    12197    11632    10223     8240     6297     4834 
    3917     3427     3175     2979     2933     3348     4329     5732 
    7281     8595     9524    10474    11893    13690    15354    16155 
   15676    14407    13178    12360    11863    11338    10516     9467 
    8332     7294     6616     6120     5323     4232     3169     2266 
    1630     1405     1586     1969     2079     1324     -433    -2670 
   -4561    -5437    -5127    -3942    -2274     -452     1197     2452 
    3392     4438     5930     7630     8974     9792    10403    11102 
   11835    12495    13171    13805    14175    14261    14160    13919 
   13460    12627    11508    10361     9192     7855     6394     5059 
    4222     4091     4475     4999     5348     5220     4473     3483 
    2848     2716     2808     2818     2565     2143     1953     2328 
    3269     4558     5814     6629     6947     7025     7109     7296 
    7419     7215     6710     6149     5628     5000     4102     3036 
    2049     1204      552      405     1004     2228     3653     4688 
    4986     4737     4379     4162     4009     3696     2974     1799 
     666      255      615     1243     1765     2097     2246     2467 
    3260     4772     6481     7724     8272     8333     8289     8395 
    8546     8459     8105     7704     7466     7584     8013     8249 
    7886     7169     6700     6924     7842     8976     9794    10037 
    9764     9464     9599     9944     9948     9324     8066     6471 
    5028     4070     3645     3565     3605     3697     3726     3510 
    3144     2914     2983     3380     4025     4679     5273     6023 
    6928     7724     8247     8525     8788     9082     9154     8981 
    8834     8781     8623     8199     7673     7361     7356     7537 
    7686     7485     6770     5715     4683     3994     3624     3234 
    2647     1962     1366     1009      939     1127     1497     1935 
    2400     3010     3844     4791     5740     6604     7375     8272 
    9414    10480    11072    11144    10866    10436    10143    10243 
   10574    10644    10285     9753     9215     8703     8305     7970 
    7507     6833     5977     5044     4284     3848     3588     3393 
    3322     3284     3100     2732     2249     1746     1314     1086 
    1210     1694     2442     3269     3946     4388     4617     4700 
    4819     5013     5108     5066     4939     4626     4148     3840 
    3928     4284     4577     4502     4079     3593     3288     3366 
    3851     4542     5271     5840     6273     6971     7952     8708 
    8884     8509     7958     7754     8125     8884     9714    10435 
   11002    11412    11790    12359    13120    13699    13743    13319 
   12731    12191    11858    11716    11416    10704     9697     8559 
    7398     6284     5209     4264     3632     3334     3289     3373 
    3383     3237     2889     2269     1572     1104      977     1177 
    1611     2177     2945     4008     5144     6000     6424     6543 
    6679     7119     7896     8845     9711    10207    10145     9653 
    9099     8729     8594     8625     8649     8587     8496     8374 
    8176     7900     7515     6968     6272     5447     4518     3589 
    2824     2324     2008     1690     1509     1782     2370     2772 
    2581     1719      553     -329     -469      230     1487     2963 
    4491     5910     7102     8117     9062    10002    10886    11443 
   11333    10511     9344     8322     7635     7179     6984     7177 
    7576     7901     8105     8271     8484     8642     8498     8060 
    7592     7254     6956     6434     5603     4741     4036     3442 
    2893     2344     1791     1248      733      383      465     1084 
    1935     2620     3083     3526     4062     4596     5066     5526 
    5933     6158     6134     5837     5466     5401     5799     6529 
    7429     8271     8725     8714     8654     8970     9614    10268 
   10648    10579    10058     9325     8769     8602     8807     9169 
    9254     8807     7992     7088     6345     5969     5976     6118 
    6143     6075     6154     6498     6928     7215     7217     6864 
    6285     5775     5512     5424     5375     5348     5441     5691 
    5884     5713     5127     4415     3939     3829     4004     4333 
    4635     4645     4274     3819     3720     4125     4749     5074 
    4833     4293     3931     3960     4371     5148     6199     7268 
    8082     8473     8467     8194     7769     7256     6687     6052 
    5300     4491     3879     3593     3495     3503     3646     3852 
    3958     3955     3963     3991     4039     4203     4518     4941 
    5521     6239     6824     7007     6843     6512     6129     5879 
    5910     6050     6014     5823     5759     5979     6436     7038 
    7716     8347     8822     9234     9776    10420    10918    11068 
   10890    10609    10432    10335    10111     9540     8527     7240 
    6099     5382     5007     4826     4700     4402     3921     3558 
    3584     4043     4749     5402     5773     5744     5387     5008 
    4816     4746     4598     4225     3715     3292     3168     3483 
    4159     4914     5574     6138     6579     6813     6763     6403 
    5871     5505     5628     6211     6801     6949     6700     6328 
    5918     5529     5329     5391     5610     5755     5699     5622 
    5807     6230     6484     6211     5456     4506     3609     3006 
    2857     2980     2976     2697     2359     2204     2313     2727 
    3321     3775     3871     3586     3180     3149     3690     4483 
    5236     5900     6477     6964     7388     7809     8228     8514 
    8649     8791     9009     9194     9240     9124     8853     8480 
    8132     7878     7746     7744     7767     7766     7844     8160 
    8842     9736    10382    10532    10280     9778     9150     8560 
    8206     8151     8187     8082     7840     7582     7329     7060 
    6835     6620     6265     5769     5192     4556     4071     3931 
    4074     4452     5051     5609     5838     5764     5617     5593 
    5719     5888     6045     6231     6423     6555     6575     6493 
    6443     6515     6621     6624     6436     6038     5541     5112 
