Origin Time       2025/01/13 21:19:00
Lat.              31.8
Long.             131.6
Depth. (km)       30
Mag.              6.9
Station Code      MYZ011
Station Lat.      31.9951
Station Long.     131.2559
Station Height(m) 24
Record Time       2025/01/13 21:19:40
Sampling Freq(Hz) 100Hz
Duration Time(s)  128
Dir.              U-D
Scale Factor      7845(gal)/8223790
Max. Acc. (gal)   21.767
Last Correction   2025/01/13 21:19:39
Memo.             
[...]
    7811     8607     6652     3615      604    -1019       90     1879 
     585    -1529     1406     7820    11313    11890    12847    12352 
    8687     6281     8729    12440    11874     7295     4666     8050 
   13888    15799    13510    11261     9428     6265     4160     5024 
    5782     4514     2841     1633     1424     2512     2552      909 
    1320     5232     9312     9742     5518      830      884     3411 
    3596     3252     4715     5459     4268     3276     5271    11577 
   17633    16588    10139     5229     2690      -59    -1333     2052 
    8841    13305    11261     5684     3184     4912     5327     1062 
   -3295    -2053     2686     4818     3477     2323     2616     2177 
     110     -672     2459     6561     5830      282    -3142     -787 
    2643     2428     -803    -5584   -11272   -15522   -15720   -12090 
   -7465    -4692    -3645    -1632     1651     3307     2242     -226 
   -3177    -5085    -3569      961     4876     5927     4985     2691 
    -773    -2455      172     4068     5378     4982     4523     3769 
    3875     6552    10369    11912     9643     5670     3543     4193 
    6124     8579    10773    10702     8536     7609     9085    10184 
   10154    11712    14216    13814    11430    10978    11461     9969 
    7992     7917     8737     8642     7182     4785     3287     4207 
    5131     3311     1941     4826     8880     9462     6554     2839 
    1837     5154     9634    12468    13697    10551     1435    -6546 
   -8024    -8171   -10403   -10890    -9363    -8765    -7912    -5441 
   -3079    -1981    -1668    -1005      913     3222     3744     1717 
    -693     -310     3078     6054     6627     6891     8117     7967 
    4920     1003     -720      955     4958     9320    11977    11291 
    7728     3387     -564    -3241    -2932      429     5152    10324 
   14922    17543    18119    16521    12903    10585    12069    14137 
   13022    10146     8962    10196    11403    10168     7761     6901 
    6862     5768     4612     4240     3146      920    -1354    -3797 
   -6390    -7908    -8290    -8371    -8266    -8001    -7067    -5005 
   -3356    -3227    -4321    -7839   -13394   -16544   -15323   -11273 
   -4491     2300     3273      649     2340     6959     6745     1803 
   -1831    -1981      456     4679     8388     9624     9728    10142 
    9845     8910     9786    12405    13294    11577    10390    11701 
   13841    13594     9720     5809     6720    10926    12309     9283 
    5944     5814     8041     8824     6675     4469     3896     2529 
    -616    -2585    -2076    -1425    -1085     1053     3685     3152 
     787     1325     4494     5358     2127    -1821    -2859     -868 
    1366     1621      731     -124    -2327    -5602    -5509     -232 
    5821     8171     6880     4696     3503     2740     1868     2002 
    2694     2887     4734     8559    10535    10679    11006     8775 
    4676     5093     8864     9860    10300    13926    16189    13882 
   11308    11052    10517     8116     6070     7727    12010    13077 
    8895     3508     -491    -2880    -1783     2949     7501     9501 
    8785     4757     -276    -1525     1247     3969     4071     1652 
   -1362    -2889    -4342    -8166   -11503    -9342    -2511     2953 
    3107        6    -1324     1136     4270     4315     1772     -243 
    -596     -232      837     2871     4149     2980      754      837 
    4567     8947     9896     8198     8221     9907     9603     8343 
    9328    10844    10133     7985     5331     2178      226      538 
    1314     1599     1235    -1772    -5683    -4652     -959    -2774 
   -7628    -7460    -4236    -2593     -523     2016     1605      310 
    2920     8113    11059    11172    11115    11265    10320     8891 
    8487     8727     8347     7731     8237     9475     9713     9035 
    8932     9645    10690    11233     9701     6331     2695    -2354 
   -8575    -9983    -4538     1123     2338      317    -1875     -330 
    4179     4484     -341    -2061     1532     4071     3703     4178 
    6462     8085     6524     2203      355     5073    11416    10579 
    2654    -3555    -3919    -2824    -2393      668     5976     8384 
    6197     2439      252      997     3442     4475     3532     3416 
    5084     6870     7932     7668     5822     4897     6967     9857 
   10901    10615    10224     9729     8463     5332     1506     1516 
    6075     9067     7805     7476    10227    10513     5169    -1102 
   -2670     -283     1026      -24     -302      506      -68    -1000 
     684     4495     7607     7932     5000      811    -1745    -1672 
     691     4361     7056     6994     4406      386    -2695    -2795 
   -3082    -7005    -9559    -5393     1161     4730     6562     8004 
    7512     5513     4264     3528     2332     2408     4095     3861 
     778     -702     2166     5805     6480     6174     7786    10509 
   12634    13109    11654    10210    10066     8731     4814     1320 
    -113     -884     -479     1890     3946     4378     4594     5244 
    6378     7896     7487     3904      369     -741     -899     -932 
    -669    -1343    -3159    -4299    -4104    -3657    -3665    -3678 
   -2573      481     4378     6293     5452     4569     5201     5686 
    5880     7817    10744    12247    12478    12016     9958     7101 
    6174     7470     8108     6555     4696     4729     6547     8772 
   10644    12168    13254    13242    11129     6887     2232    -1082 
   -2531    -2413    -2289    -3570    -5155    -5543    -4649    -1865 
    2771     5832     4679     2635     3858     6843     8907    10397 
   10733     8733     6448     5283     3121      318     1108     6312 
   11449    12370     8456     2182    -2322    -2396      233     1561 
    1726     4943    11464    16600    18050    17421    15718    12418 
    8491     6525     7326     9278    10517     9543     5544     -569 
   -5911    -6893    -2749     2790     5872     7017     8957    11574 
   12059     9486     5985     3581     1991     -465    -3962    -6319 
   -6447    -6053    -6795    -8748   -10500    -9634    -6778    -5707 
   -5756    -2585     2470     4276     2721     1109     1159     3092 
    4515     2921     1706     4288     6673     5589     3874     2720 
     874      805     3910     5856     5383     6488     8203     5953 
    1783      845     2045     1397    -1058    -2587     -739     4718 
    9844    10783     9126     7615     5251     1823      598     2473 
    4375     4858     5022     4930     3935     2708     2872     5084 
    7103     5910     2855     2251     4471     5849     5285     5216 
    6174     5873     3527      662    -1459    -2378    -1941     -600 
     940     2502     4128     5227     5057     3916     2627     1435 
    1028     2965     6500     8156     7005     5586     4891     3862 
    2517     2068     4396     9973    14281    12935     9293     8050 
    7281     5215     5238     7647     7481     3865       -4    -4131 
   -7734    -6200     -535     1749    -1186    -4000    -3960    -2076 
    1764     6682     9601    10359    11253    12067    12174    13046 
   13825    11587     8199     7774     8939     9032     9049     7724 
    2006    -4672    -6889    -7195   -10481   -13875   -11963    -6399 
   -2597     -818     3569    11443    16761    14809     8433     2722 
    -716    -2226    -2161     -872     1529     3333     1537    -2727 
   -4664    -3402    -2145    -1665     -465      967     1439     2319 
    6015    11637    14827    13505    10747     9134     6589     2253 
     650     4086     7947     8486     7445     7180     7786     7518 
    3582    -2771    -5036    -1318     2436     2839     2601     3360 
    3790     3539     2984     1610      529     2038     4649     4780 
    3040     2585     3326     2720      440    -1209     -673     1120 
    2334     2316     1972     2297     2309      178    -2363    -1213 
    2709     4422     3890     4831     6473     5845     4072     4048 
    6196     8382     8199     6748     7669    10219     9549     5536 
    4027     7847    12606    13605    11867    10264     8394     5035 
    1725      584     1486     3059     4095     4114     4178     5771 
    8667    11400    12792    12463    11376    10831    10476     9582 
    8380     6767     5162     5251     6967     8359     9216    10473 
   10764     8714     7541    10789    14921    14067     9856     8496 
   10662    11465     8372     3658      587      -10     -109    -1598 
   -3847    -5412    -5994    -5383    -3225     -342     1547     1093 
   -1730    -5062    -6488    -5394    -3094     -135     4719    10704 
   13356    10794     7408     6562     5394      519    -7005   -13695 
  -16719   -15510   -12367   -10112    -8048    -3472     2339     5038 
    4396     4653     7393     9848    10234     9259     7530     5911 
    5829     6914     7730     8193     8289     7369     6080     5814 
    7047     9333    10933     9580     5814     3068     2462     1386 
   -1119    -2585    -2447    -3712    -7119    -9418    -8452    -4604 
     514     3296     1360    -1428      622     6509    10002     8224 
    4766     4064     5098     4137     2145     2874     5393     5907 
    4128     2324     1436      841     -121     -507     1314     3770 
    3426     1228      805     2349     4857     8710    11627    10303 
    6465     3994     3658     4557     4945     2218    -2254    -3021 
     707     3982     5297     7003     7943     5752     2577     1507 
    2209     2851     3264     4941     7839     9563     9198     8482 
    8627     9192     9034     6481     1433    -2235    -1414      796 
     234    -2110    -3219    -2621    -2803    -6004    -9616    -8469 
   -2540     3457     6885     7546     6093     6400    11286    16063 
   16113    14963    15665    14611    11038    10427    14423    17968 
   17512    14883    13239    13813    16113    17639    15236     9428 
    4117     1672     1183     -244    -4193    -8055    -8506    -5680 
   -1848      618     1111     1667     3368     4097     1517    -3754 
   -7963    -7439    -2562     2501     4117     2758     1921     3403 
    4504     2339      418     3947     9513    10308     7260     3608 
   -1973    -7659    -7250    -1499     2902     4442     5591     6111 
    5439     5441     6358     5512     2442      373     1624     4899 
    6180     2493    -3168    -4999    -2392     1807     7020    13471 
   19996    23913    22335    17003    12931    10224     5740     1040 
      13     2385     5589     8218     8873     6876     4390     2786 
    -980    -7755    -9888    -2455     4901     2532    -2605    -1386 
    2143     2519     1390      436     -534    -2123    -5510    -8213 
   -5354     1244     6058    10790    18596    24243    22975    18512 
   15595    14258    12584    10613     9949    10921    12706    13236 
   10076     5117     2694     2277     -379    -5439    -8680    -9856 
  -12463   -14812   -12613    -6994    -1548     1178    -1293    -7273 
  -10073    -6606     1024    11589    21631    22859    14647     8071 
    8544     9402     5692     -500    -5348    -5317     -525     4187 
    7018    10963    15769    16950    13452     9522     8159     8051 
    8410    10667    12721     9350     1815    -2300    -1167     -506 
   -3402    -7511   -10234   -10679    -9373    -7778    -6343    -4089 
    -913     1499     1791       45    -3848    -9224   -11329    -5694 
    3681     8777     9234    10787    13871    12714     5524    -2674 
   -7609    -8849    -6682    -1530     5287    11560    14513    13732 
   11558     8068     2548      126     5498    13127    15607    14681 
   15191    17401    18770    16123     9182     3682     4218     8159 
   10944    10249     5971     1236    -1516    -5132   -12136   -18495 
  -18266   -10720     -800     5375     6664     7088     8062     6903 
    3426      673      -20     -626    -2112    -1356     2816     5634 
    4475     3634     6604     9717     7110     -606    -6211    -4542 
    1316     4792     4576     4024     4248     3454     2049     3195 
    7249    10106     8563     3981       47     -772     1431     4136 
    4561     3250     2898     3254     1777      -55     3356    12287 
   19117    19330    15786    11311     6434     1732    -2582    -5702 
   -5001       20     5232     7415     7906     8156     7561     6702 
    7002     7879     8519     9865    12244    13987    13120     9215 
    4233      284    -3485    -7786    -9313    -4982     3330    10768 
   13689    11599     6713     2848     2637     4765     6092     4924 
    1362    -2743    -4868    -3801     -858      -63    -4203   -10361 
  -13851   -14496   -14291   -12660    -8073    -1090     5566     8444 
    6566     2683    -1062    -5086    -8797   -10856   -12124   -12857 
  -10477    -4186     2982     8614    11967    11492     7547     4519 
    5225     8198    11846    15360    16995    16233    15029    14605 
   14251    13614    12907    12019    11520    12069    12870    13205 
   13305    13348    14265    16526    17311    14813    12787    13871 
   13736     7796    -1393    -7680    -8527    -5364     -479     2911 
    2200     -189      217     2471     3461     5161     9343    10959 
    5971    -1039    -3963    -2658      515     4333     7383     8644 
    8807     7762     2998    -6226   -15392   -19099   -16448   -10083 
   -3476      959     4176     8908    14092    15894    14777    14590 
   15738    15395    11835     5589      471     1688     7754    11091 
    9745     7203     2072    -7195   -13078    -9405    -2280     -538 
   -3869    -5514    -2288     2527     5849     8287    10008     9895 
    8776     7951     7344     7690     9294     9402     6065     1296 
   -2664    -5494    -6825    -6806    -6432    -5125    -1235     4536 
    8040     6304     2323      592      247    -1332    -2182      -70 
    2135     2322     3040     5310     7299     8959    10588     9864 
    4961    -1634    -4519    -1127     5055     9074     9674     7651 
    4149     1885     2585     3681     2127     -325       85     4018 
    9509    13711    14600    13266    12339    13099    14943    15052 
   11242     6628     5954     7881     7512     4222     1189      297 
     745      387    -1837    -4476    -5803    -5336    -2502     2068 
    5117     5061     4032     3067     1680     1671     4311     6345 
    4375      243    -2026    -1725     -714       54     1113     3288 
    6759    10752    13953    16086    18013    18369    14624     8961 
    5570     3434     -278    -3963    -5732    -7546    -9289    -7593 
   -4510    -5174    -7130    -5120    -1165      515      529     1583 
    5152     9817    11716    10385     9602    10061     8895     5849 
    3063     1544     1185      639    -1980    -5354    -6018    -4336 
   -3380    -2871     -827     1532     2710     4240     6169     5697 
    3100     1718     2103     2245     1563     1502     3186     5278 
    5278     3079     1522     2394     3569     2959     2895     6303 
   10725    11826    11304    13468    16688    17119    14987    10964 
    4891     -101    -1196    -1097    -2367    -3034    -2289    -2490 
   -3793    -3136      557     4149     5467     7148    11294    13945 
   10280     2593    -2439    -2443     -526      399      178     -660 
   -2027    -3550    -4587    -4783    -4333    -3726    -2349     1093 
    5247     7106     7577    10135    13757    14052    10980     8842 
    8688     7148     3704     2571     5456     8613     9027     8225 
    8414     9541    10488     9653     7048     6781    10960    14126 
   12474    11033    13440    15329    13533    10261     6250      641 
   -4153    -5775    -5854    -6065    -5555    -3842    -1822      -72 
    1240     1763     1636     1803     2377     1829      130      297 
    3465     6384     6710     6050     5624     3468    -1815    -7268 
   -8368    -5240    -2224    -1270    -1057     -950     -546      963 
    2458     2868     3866     5703     5661     4113     5011     8858 
   11830    11682    10035     9089     8673     7519     6002     5799 
    7272     8405     7180     4212     1328     -801    -2376    -3632 
   -4625    -4885    -3433     -353     2312     3592     4999     6768 
    6832     4592     2103     1507     3307     6548     9643    11477 
   11893    11245     9999     8518     7082     5788     3947      942 
   -1939    -2655    -1077     1204     2637     2550     1610     1436 
    2867     5150     6674     6640     5985     5152     2963     -276 
   -2228    -2300    -2191    -2598    -2370    -1011      357     1270 
    3080     6442     9512    10476     9892     9225     9211    10304 
   12564    14381    13532    10698     8734     8020     7036     5753 
    4571     3532     3599     4428     3338      -36    -2292    -1858 
   -1358    -2704    -4873    -6532    -6833    -5451    -3308    -1625 
   -1204    -2141    -2932    -1952      318     2165     2274      645 
    -990     -503     2331     5244     6157     5778     5800     6122 
    5560     3975     2204      702     -465    -1158    -1232     -606 
     564     2216     4125     4687     2592     -247     -653     1675 
    4919     8405    11803    13207    11522     8617     6404     4633 
    3107     2790     3308     2882     2184     3615     6443     8297 
    9579    11591    13468    13753    12334    10242     8842     8573 
    8579     8232     8006     8611     9436     8568     5845     3669 
    3049     2598     1996     2319     3176     3478     4016     5489 
    6181     4963     3484     2928     2245      989     -135     -989 
    -870     1358     4518     6216     6212     5981     6088     6250 
    6768     7616     8162     8282     7366     4500      823    -1341 
   -1344     -481     -148     -311      410     3025     6777     9918 
   11302    11111    10635    10739    10651     9170     6613     4558 
    3730     3511     3599     4606     6774     9080    10341    10107 
    8205     5417     3704     3658     3611     2673     2057     2489 
    2997     2758     2141     1917     2520     3492     3908     4360 
    6443     9753    12329    13500    13641    12555     9976     6431 
    2992      992      774      224    -3013    -7754   -10611   -10685 
  -10041    -9724    -8459    -5809    -3165    -1286      122     1219 
    2312     3709     4828     5054     4752     4482     4240     3855 
    3443     3146     3034     3233     3451     3177     2706     2698 
    3115     3622     4440     5957     8037    10226    11863    12135 
   10814     8780     7009     4954     1722    -1768    -4239    -5948 
   -7730    -9718   -11094   -11122   -10392    -9752    -9136    -8509 
   -7763    -6096    -3470     -953      986     2254     2338     1741 
    2192     4114     6184     7677     8568     8418     7620     7480 
    8229     9112     9629     9896    10593    11753    11990    10817 
   10141    10987    11408     9950     7958     6825     5930     4280 
    2166     1181     2998     6600     8881     9722    11303    12834 
   12414    10836     8908     6201     3537     1539     -567    -1948 
