Origin Time       2025/01/13 21:19:00
Lat.              31.8
Long.             131.6
Depth. (km)       30
Mag.              6.9
Station Code      MYZ004
Station Lat.      32.3888
Station Long.     131.3338
Station Height(m) 289
Record Time       2025/01/13 21:19:45
Sampling Freq(Hz) 100Hz
Duration Time(s)  110
Dir.              U-D
Scale Factor      7845(gal)/8223790
Max. Acc. (gal)   9.205
Last Correction   2025/01/13 21:19:44
Memo.             
[...]
     769      769      769      769      768      766      768      769 
     768      766      766      769      770      768      766      769 
     770      769      770      769      768      769      769      769 
     769      769      768      769      769      768      768      769 
     770      769      768      769      769      768      768      769 
     769      769      769      768      768      768      768      769 
     769      769      769      770      766      765      769      769 
     768      769      770      770      770      769      770      770 
     769      770      769      766      769      772      768      769 
     769      768      768      770      770      768      766      765 
     768      770      766      768      769      766      765      769 
     770      769      769      769      769      772      772      769 
     768      766      768      770      770      770      768      765 
     768      770      769      768      766      768      769      769 
     770      770      770      769      768      770      772      768 
     766      769      768      766      768      768      769      768 
     766      769      770      769      768      768      766      768 
     768      766      768      769      769      770      769      766 
     769      769      769      769      768      769      770      768 
     766      768      768      769      770      769      772      772 
     768      766      766      768      769      769      769      770 
     769      768      768      766      768      768      769      769 
     769      769      769      768      768      770      769      766 
     768      768      768      768      768      769      768      766 
     768      769      769      769      769      768      768      769 
     768      766      768      769      768      768      769      769 
     768      769      769      768      766      766      766      768 
     770      769      768      768      769      769      769      769 
     770      769      768      769      769      769      768      768 
     769      769      769      768      770      770      768      768 
     768      770      768      766      769      768      765      768 
     768      766      766      768      769      768      768      769 
     769      766      768      769      768      769      770      770 
     769      768      768      768      766      768      768      768 
     769      768      766      768      768      768      769      770 
     770      769      768      768      769      769      769      769 
     770      769      769      768      768      770      770      769 
     768      768      769      769      766      766      766      765 
     766      768      768      766      768      770      768      766 
     769      769      769      770      769      768      768      768 
     768      769      769      768      770      772      769      768 
     769      768      768      768      765      764      762      760 
     757      756      756      754      753      750      750      750 
     749      747      750      751      751      749      743      735 
     722      707      693      689      702      718      718      697 
     662      649      687      766      841      865      828      769 
     739      737      719      679      642      643      714      822 
     865      778      637      568      615      738      885      997 
     989      851      712      677      689      633      523      531 
     761     1067     1233     1244     1201     1073      811      575 
     589      823      950      769      542      571      720      764 
     749      747      715      691      737      774      726      629 
     519      400      328      387      653     1042     1247     1090 
     785      588      530      576      658      711      818     1039 
    1201     1125      876      623      446      313      176       89 
      78       17      -89      -31      191      375      459      500 
     542      556      430      152      -93     -163      -62      199 
     612     1011     1111      822      356       17      -87     -130 
    -209     -191      -97     -116     -168      -25      333      785 
    1094     1111     1100     1269     1437     1568     1733     1664 
    1147      517      162       12      -54       67      318      558 
     772      796      770     1055     1125      643      510     1067 
    1599     1803     1846     1796     1717     1764     2066     2454 
    2627     2585     2351     1833     1247      608     -306     -730 
      -8      855     1367     2397     3407     3207     2617     2300 
    1530      826     1034     1232      638     -155     -519     -606 
    -891    -1305    -1173     -207      822     1221     1355     1544 
    1471      974      118     -927    -1544    -1205     -596     -595 
    -623      122     1150     1609     1733     2281     2687     1975 
     930      380     -460    -1448    -1021      585     1686     2047 
    2272     2162     1512      757      457      739     1194     1588 
    2335     3244     2964     1278     -162     -689    -1120    -1395 
    -739      743     2054     2447     2290     2046     1583      984 
     255     -591     -733      302     1524     1860     1725     1883 
    1869     1364     1119     1190      791      -29     -445     -291 
    -340     -934    -1290     -930     -534     -503     -475     -214 
     468     1305     1345     1058     1861     2920     2897     2879 
    3377     2677      533    -1192    -1517     -669      851     2330 
    3126     2983     2612     2602     1733     -550    -2631    -3466 
   -3145    -2203    -1529     -666     1085     2471     2620     2123 
    1416      868      195    -1543    -3703    -4746    -4476    -3330 
   -1609      278     2238     4048     4919     4855     4772     4781 
    4318     3399     2300     1181      355     -197     -939    -1694 
   -1787    -1341     -577      637     1676     1950     1748     1231 
     175    -1192    -1572      164     2749     3542     2461     2069 
    3053     3666     3619     3753     3242      981    -2246    -4106 
   -2575     1078     3105     2590     2020     2116     1248     -436 
   -1219     -533     1125     2263     1248     -660     -534      984 
     610    -1345    -2003    -1252     -379       83     -483    -1270 
    -585      626      660      502     1159     1872     2795     4380 
    5459     5290     4413     3121     1741      895      384     -537 
   -1753    -2440    -2155     -939      656     1669     1827     1644 
    1023       28      120     1324     1707     1664     2627     2882 
    1177     -197      -43      229      148      267      521      745 
    1036     1080      452      -31      915     2465     2459      930 
    -333    -1107    -1787    -1530     -656     -147      907     2076 
    1368      132      359      862     1138     1748     1800     1294 
     837     -122     -849     -314      190      112      920     2451 
    3024     3105     3943     4260     2891     1270      303     -599 
   -1251    -1398    -1610    -1917    -1888    -1722    -1567     -849 
     515     1725     2412     2533     1826      949     1061     1804 
    2304     2752     2964     2211     1116     1129     2477     3789 
    3812     3129     2702     1837     -180    -2168    -2484    -1115 
     619     1885     2751     3264     3298     2795     1979     1460 
    1574     1904     1665      658     -294     -631     -734     -795 
    -666     -442     -225      -94       47      711     1900     2852 
    3161     2767     1503     -183    -1186     -973        1      938 
    1445     1782     1892     1355      495      -39       78      708 
    1031      591     -314    -1458    -2146    -1482       35     1289 
    1965     1964     1336      766      544      283      184      634 
    1192     1398     1339     1158     1031     1080      787     -298 
   -1181     -791       52      434      770     1038      880     1100 
    1815     1687      757       99     -367     -807     -795     -562 
    -774    -1132     -726      410     1475     2079     1948      932 
      52      -40     -129     -255       81      723     1537     2019 
    1813     1572     1401      837      334      363      637      886 
     783      222     -209     -282      -40      718     1337     1283 
    1636     2681     2959     2081     1236     1406     2351     2806 
    2307     1825     1584      756     -257     -340      306      959 
    1352     1370     1123      666      186      369     1109     1464 
    1328     1090      706      214       -1      167      344      610 
    1347     1890     1584      959      236     -733    -1331    -1433 
   -1655    -1459     -302      722      792      392      166      217 
     106     -280     -243      691     1838     2230     2015     1906 
    1634      654     -197      276     1611     2529     2731     2569 
    2277     2124     2101     1918     1791     1958     2041     1790 
    1468     1453     1786     1873     1417      904      427      -51 
    -245     -692    -1530    -1549     -966    -1151    -1372     -438 
     853     1665     2081     2150     2103     1983     1464      841 
     332     -174       21      873     1267     1378     1684     1748 
    1649     1615     1383     1223     1485     1703     1659     1987 
    2566     2251     1300     1098     1408     1148      490      106 
     261      834     1282     1489     1904     1865      391    -1317 
   -1723    -1394    -1021     -118     1027     1333     1017     1065 
    1355     1055      375      279      591      552      780     1926 
    2597     1804     1169     1719     2322     2398     2212     1723 
    1374     1641     1935     1761     1463     1123      792     1243 
    2307     2326     1035       62     -356    -1323    -2558    -3181 
   -3226    -2779    -1733     -631      -60      217      259     -209 
    -881    -1588    -2585    -3385    -3150    -2050     -677      919 
    2641     3789     3532     2079      693       75      -62      -49 
     313     1250     2182     2803     3446     3716     3499     3511 
    3466     2778     2007     1447      531     -716    -1726    -2165 
   -1723     -588      168      -49     -322      387     1331     1004 
    -399    -1356    -1239     -658     -101      653     1691     2308 
    1879      822       14     -337     -303      508     1782     2305 
    2123     2195     2039      965      205      730     1417     1556 
    1983     2447     1642      425      504      970      634      747 
    2004     2963     2739     1665       10    -1575    -1946    -1193 
    -715     -853     -733     -356      -43      742     1675     1692 
    1259      950      333       21      511      581     -106     -515 
    -537     -704    -1054    -1077     -137     1410     2597     3435 
    4122     4221     3735     2667      988      116      785     1391 
    1277     1525     2293     2964     3402     3302     2166      549 
    -419     -795    -1151    -1271     -942     -457       55      629 
     816      407      191      373      332      175       91      -47 
     226     1036     1491     1088      337     -137     -305     -498 
    -467      334     1362     1898     2346     2722     2292     1532 
    1422      990     -791    -2116    -1574     -472      407     1398 
    2101     2033     1335      737     1113     1917     1706      751 
      95     -544    -1278    -1607    -1814    -1945    -1572     -966 
    -114     1001     1147       60     -893    -1244    -1007      376 
    2435     3554     2999     1593      587      499      923      943 
     334      102      473      391     -237     -504     -124      270 
      83     -216     -159     -264     -784    -1382    -1811    -1892 
   -1921    -2370    -2644    -2026    -1196     -737     -380     -421 
    -973    -1459    -2018    -2980    -4033    -4935    -5350    -4855 
   -3727    -2574    -1787    -1587    -1711    -1676    -1389     -730 
     426     1499     2128     3148     4745     5788     6131     6107 
    4938     2872     1823     2234     2582     2521     3203     4369 
    4784     4465     3825     2870     1802     1123     1308     2066 
    2628     3087     3577     3217     1907      616     -348     -761 
    -294      508     1301     2035     1810      286    -1390    -2687 
   -3906    -4237    -3048    -1493     -464      191      206     -569 
   -1263    -1051     -122      989     2253     3645     4675     5232 
    5719     6126     6285     6207     5888     5744     5989     6002 
    5757     5621     5196     4522     4257     4444     4565     4198 
    3720     3844     4032     3257     1977     1393     1768     2555 
    3049     2787     2155     1698     1013     -133     -958     -954 
    -807    -1680    -3414    -4332    -3927    -3361    -2722     -969 
    1417     2647     2322     1669     1244      314    -1161    -1659 
    -600      461      700      365    -1129    -3310    -4182    -3604 
   -2928    -2396    -1776    -1140     -558     -580    -1371    -1763 
   -1036      207     1534     2778     3384     3477     3753     3927 
    3817     4194     5047     5485     5050     3962     2617     1445 
    1046     1408     1890     2030     1379      -37    -1738    -3415 
   -4295    -3831    -2817    -2164    -2551    -4731    -7601    -8881 
   -8538    -7628    -6376    -5717    -5995    -5362    -3362    -1869 
   -1217     -189     1333     2409     2362     1971     2322     2651 
    1841      589      463     1475     2147     2358     3106     3947 
    4113     4425     5652     6868     7118     7568     9148     9736 
    8023     5872     4352     3065     1842      261    -1448    -2143 
   -1952    -1819    -1417     -406      120     -124     -372    -1316 
   -3048    -3573    -3030    -3264    -3584    -2628    -1171     -807 
   -1838    -2666    -1811     -118      186    -1603    -3798    -5143 
   -6265    -7091    -6512    -5097    -4014    -2481     -216      757 
    -220     -854      594     2971     4271     4718     5553     6328 
    6612     7063     7155     6045     4581     3528     2317      700 
    -533    -1108    -1390     -654     1208     1983     1202     1127 
    1984     2155     2088     3418     5529     6709     7337     7866 
    7122     5544     4675     3825     2366     1525     1047     -238 
    -895      109      954      870      588     -114    -1105    -1622 
   -1787    -2016    -2644    -3411    -3362    -3126    -3782    -4101 
   -3341    -2494    -1148      908     1517      421     -232     -818 
   -2212    -2471    -1463    -1575    -2103    -1038      569     1470 
    2054     2531     3346     4735     5445     4939     4487     4621 
    4418     3707     3686     4784     5313     4159     3025     2992 
    3095     3429     4164     4191     3527     3453     4299     4746 
    3788     2597     2497     2840     2647     1957     1100      554 
     365     -167     -248     1645     3717     3433     2575     3130 
    3144     2022     2286     4182     5579     5751     5173     4190 
    3307     2640     1572      147     -957    -1399    -1462    -2485 
   -4806    -6300    -5911    -4931    -4043    -2940    -1595      -40 
    1170     1255      857      749     1012     2002     2805     2323 
    1863     2029     1251     -253     -669     -391     -788    -1530 
   -2205    -2795    -2867    -3156    -4298    -5244    -6087    -7106 
   -6975    -6235    -6264    -5794    -4071    -2617    -1872    -1248 
   -1169    -1324     -490     1109     2656     3785     4236     4356 
    4249     3527     2880     2825     2523     2639     4500     6207 
    5846     4905     4725     4918     5206     5597     5935     5792 
    4807     3612     3395     4248     5213     5643     5657     5717 
    5803     5417     4700     4463     4514     3847     3109     3599 
    4252     3588     2648     2393     1530     -546    -2574    -3469 
   -2902    -1482     -513     -557    -1593    -3325    -4904    -5917 
   -6373    -5985    -4610    -2736    -1652    -1979    -2338    -1907 
   -2012    -3072    -3430    -2695    -2440    -2786    -2417    -1512 
   -1096    -1337    -1632    -1120      -51      459      841     2191 
    3678     3915     3233     2641     2527     2983     3944     4955 
    5039     3605     1784     1066     1362     2195     3419     4047 
    3466     2640     1858      403    -1240    -2131    -2521    -2806 
   -2759    -2446    -1976     -789     1405     3667     4789     4703 
    3947     2855     1976     1530     1147      878     1075     1858 
    2914     3642     4172     5066     6019     6168     5104     3284 
    1633      603       99      195      642      523       -4      -20 
      25     -464     -880     -704      -21     1150     2581     3370 
    3075     2266     1347      477       49      207      811     1533 
    1991     2353     2714     2677     2466     2551     2899     3462 
    3740     3254     2382     1206     -166     -696     -430     -724 
   -1683    -2484    -3285    -4321    -4847    -4517    -3869    -3335 
   -3157    -3406    -3731    -3450    -2142     -526      297      373 
      99     -681    -1421    -1296     -846     -436      409     1058 
    1148     1871     2735     2269     1881     2666     2606     1162 
     376      537      198     -541     -899     -800      282     1910 
    2150     1279     1166     1410     1073      932      994      422 
      14      522      540     -488     -691      114      299      468 
    1067      465     -734     -707     -538    -1406    -1977    -1165 
     405     1630     2195     2771     3526     3728     3396     2972 
    2119      742     -351     -264     1190     3034     4363     5425 
    6046     5648     4959     4531     3464     1633       87    -1088 
   -2150    -2637    -2610    -2394    -1964    -1714    -1632    -1161 
    -706     -599     -182      600      924      591      691     1733 
    2184     1593     1663     2281     2026     1447     1314     1255 
    1696     3254     4666     4523     3808     4105     5000     5336 
    5020     4382     3712     3611     4079     4176     3672     3298 
    3080     2539     2108     2127     2133     2245     2479     2188 
    1858     2061     1907     1347     1642     2714     3258     2444 
       5    -2911    -4178    -4348    -5254    -5782    -5155    -5232 
   -5915    -5575    -5458    -6829    -7462    -5769    -3572    -2743 
   -2600    -1733     -724     -444      -94      507      808     1354 
    2211     2486     2633     3690     4945     5202     4781     4483 
    4164     3439     2814     3044     3600     3551     3624     4380 
    4498     3773     3646     4187     4291     3353     1690      305 
     -83      464     1235     1363      824      399      521      631 
    -148    -1486    -1875     -827      612     1513     1769     1869 
    1829     1004      126      596     1649     1800     1397     1035 
     263     -345      395     1561     1888     1615     1065      691 
     454     -407    -1104    -1023    -1422    -2162    -2046    -1791 
