Origin Time       2025/01/13 21:19:00
Lat.              31.8
Long.             131.6
Depth. (km)       30
Mag.              6.9
Station Code      MYZ001
Station Lat.      32.7050
Station Long.     131.3086
Station Height(m) 362
Record Time       2025/01/13 21:19:50
Sampling Freq(Hz) 100Hz
Duration Time(s)  113
Dir.              U-D
Scale Factor      7845(gal)/8223790
Max. Acc. (gal)   15.807
Last Correction   2025/01/13 21:19:49
Memo.             
[...]
   10548     9873     9471     9181     8982     9189     9861    10609 
   11057    11092    10689     9975     9354     9192     9513     9973 
   10041     9609     9209     9256     9485     9478     9383     9686 
   10405    11114    11668    12236    12683    12663    12247    11854 
   11634    11357    10885    10443    10412    10870    11334    11140 
   10204     9312     9375    10458    11830    12869    13452    13706 
   13837    14041    14134    13655    12619    11639    11165    11059 
   10874    10293     9423     8689     8356     8259     8185     8284 
    8803     9605    10319    10791    11109    11283    11160    10616 
    9744     8943     8748     9331    10218    10770    10878    10774 
   10471     9979     9593     9624    10147    10891    11358    11465 
   11657    12143    12533    12305    11484    10860    11205    12255 
   13000    12841    12144    11599    11290    10968    10705    10621 
   10620    10631    10616    10377     9695     8752     8210     8503 
    9283    10011    10552    10909    10920    10531    10000     9676 
    9788    10404    11310    12127    12599    12671    12499    12245 
   11780    11036    10309     9840     9582     9282     8606     7591 
    6833     6868     7688     8945    10253    11165    11313    11002 
   11099    11886    12715    12900    12501    12195    12424    12829 
   12603    11300     9512     8488     8765     9562     9813     9616 
    9913    10810    11574    11892    11896    11750    11597    11314 
   10870    10827    11475    12212    12387    11943    11340    11194 
   11551    11913    12226    12723    12904    11990    10112     8336 
    7794     8513     9171     8834     8166     8313     9583    11172 
   11793    11099    10191    10137    10822    11680    12430    12808 
   12548    11758    10816    10162    10088    10211     9803     8842 
    8020     7992     8943    10416    11666    12255    12143    11681 
   11449    11580    11587    11271    11230    11924    12937    13585 
   13549    12847    11780    10750    10038     9740     9676     9568 
    9346     9042     8781     8822     9215     9694    10031    10250 
   10382    10319    10176    10285    10554    10714    10854    10980 
   10924    10754    10586    10467    10393    10149     9726     9452 
    9417     9649    10249    10949    11560    12225    12793    12955 
   12776    12550    12303    11638    10489     9570     9352     9393 
    9100     8534     8176     8244     8669     9427    10426    11395 
   12123    12664    13279    14042    14596    14592    13981    12903 
   11884    11483    11412    10955    10141     9636     9725     9987 
    9968     9813     9913    10262    10616    10870    11125    11611 
   12229    12368    11696    10740    10131     9792     9454     9367 
    9960    11094    11971    11977    11449    10937    10230     9163 
    8422     8559     9313    10141    10604    10519    10064     9491 
    8947     8622     8770     9413    10250    10980    11506    11944 
   12374    12511    12262    12027    12141    12498    12673    12387 
   11803    11387    11427    11456    10827     9977     9895    10615 
   11250    11155    10446     9661     9262     9286     9362     9328 
    9431     9725     9987    10214    10527    10697    10280     9366 
    8802     9146     9899    10435    10789    11061    11308    11774 
   12383    12742    12711    12241    11229     9948     8928     8332 
    7981     8016     8748     9813    10476    10651    10840    11315 
   11870    12262    12498    12646    12758    13015    13508    13973 
   14188    14273    14208    13711    12818    11805    10638     9273 
    8221     8063     8638     9378    10066    10739    11379    11977 
   12181    11313     9574     8349     8533     9475    10137    10465 
   11057    11944    12449    12244    11730    11179    10447     9697 
    9470     9927    10517    10507     9720     8700     8044     7705 
    7545     8074     9684    11704    13138    13845    14338    14750 
   14608    13626    12204    10914    10034     9585     9273     8691 
    7905     7353     7219     7369     7728     8379     9506    11190 
   12847    13548    13158    12383    11859    11681    11466    10845 
   10006     9402     8991     8415     7778     7549     7893     8580 
    9348    10177    11295    12723    14021    14702    14570    13868 
   13228    12977    12699    11857    10550     9470     9054     9096 
    9393     9805     9850     9364     8814     8569     8668     9093 
    9714    10033     9688     9169     9290    10084    10628    10239 
    9707    10223    11399    12019    11932    11877    12352    13105 
   13373    12784    11850    11399    11560    11496    10557     9347 
    9026     9929    11338    12280    12432    12287    12417    12762 
   12642    11435     9343     7310     6237     6365     7317     8561 
    9680    10399    10706    10849    11151    11743    12272    12275 
   11925    11866    12357    12864    12584    11462    10200     9479 
    9483     9848    10162    10420    10613    10552    10343    10357 
   10600    10721    10678    10848    11392    11919    12023    11961 
   12214    12414    11940    11115    10524    10261    10081     9622 
    9072     9169     9963    10401     9732     8606     8094     8317 
    8735     9066     9541    10404    11326    11785    11853    11924 
   12132    12391    12460    12212    12042    12243    12409    12160 
   11651    11117    10631    10314    10282    10489    10808    10987 
   10592     9722     9350    10192    11776    12930    12900    11967 
   10894    10039     9366     8792     8291     8106     8719    10253 
   12116    13414    13753    13397    12586    11402    10245     9693 
    9861    10291    10434    10126     9586     9234     9369     9810 
   10169    10396    10723    11269    11804    11955    11678    11300 
   11152    11222    11179    10864    10515    10327    10174     9844 
    9286     8714     8557     9026     9784    10411    10957    11616 
   12204    12291    11611    10557    10295    11433    12962    13560 
   13104    12114    10758     9049     7379     6439     6604     7562 
    8708     9751    10659    11276    11510    11462    11157    10714 
   10571    11020    11819    12415    12417    11912    11330    10993 
   10943    11179    11688    12231    12414    12062    11465    11152 
   11260    11315    10937    10382     9940     9499     9173     9377 
   10038    10489    10135     9143     8465     8788     9720    10579 
   11226    11718    12063    12314    12448    12553    12908    13356 
   13273    12391    11211    10438    10089     9529     8642     8113 
    8248     8503     8440     8345     8781     9853    10862    11090 
   10949    11448    12660    13605    13510    12631    11657    10681 
    9572     8903     9355    10481    11153    10987    10551    10415 
   10489    10417    10319    10405    10192     9184     7816     6853 
    6678     7430     8931    10609    12009    12977    13317    12900 
   12052    11412    11291    11429    11480    11443    11502    11595 
   11299    10339     9050     8121     8050     8864    10183    11596 
   12981    14296    15140    15153    14624    14114    13707    12934 
   11499     9867     8750     8563     9400    10750    11604    11388 
   10528    10106    10617    11303    11454    11298    11084    10790 
   10463     9906     8861     7763     7273     7287     7257     7136 
    7434     8557    10265    11655    11913    11380    11191    11637 
   11977    11630    10523     9092     8073     7770     8195     9331 
   10611    11387    11901    12764    13944    14829    15001    14644 
   14142    13533    12834    12511    12734    12623    11346     9478 
    8305     8279     8877     9366     9300     9004     9402    10763 
   12128    12541    12276    12069    11728    10712     9360     8338 
    7681     7217     7060     7384     8282     9512    10428    10817 
   11006    11163    11584    12568    13639    14238    14249    13540 
   12333    11273    10550     9729     8374     6836     6384     7940 
   10771    12987    13544    13057    12540    12469    12838    13201 
   13208    13008    12425    11043     9406     8452     8129     7834 
    7672     8411    10110    11448    11211     9958     9374    10270 
   11989    13521    14319    14315    13667    12357    10494     8977 
    8667     9103     9038     8032     7253     8128     9960    10790 
   10590    10775    11735    13078    14361    14991    14863    14467 
   13941    13001    11713    10548     9973     9950     9864     9516 
    9090     8341     7445     7268     7816     8182     8085     8298 
    9575    11434    12665    12946    13012    13336    13693    13873 
   13601    12440    10854     9860     9668     9950    10447    10690 
   10184     9275     9094    10076    11180    11229    10160     8793 
    8168     8806    10246    11415    11398    10498    10145    10787 
   11379    11461    11465    11176    10037     8568     8075     9024 
   10444    11133    10831     9972     9097     8725     9142     9964 
   10466    10681    11184    11820    11875    11168    10245     9875 
   10204    10551    10426    10147    10075     9977     9641     9462 
    9983    11358    13159    14181    13371    11246     9420     9084 
   10237    11686    12437    12807    13173    13101    12390    11153 
    9144     6459     4251     3797     5378     7970     9979    10751 
   10674    10131     9595     9533     9821    10304    11047    11894 
   12548    12596    11971    11453    11342    11002    10717    11327 
   12245    12264    11176     9786     9184     9641    10318    10459 
   10208    10253    11064    12293    12993    12787    12158    11329 
   10266     9548     9443     9143     8112     7061     6998     7693 
    7870     6920     5529     4656     4679     5570     6952     8122 
    8880     9819    11263    12556    12758    11982    11399    11758 
   12776    13582    13217    11616     9913     8776     7609     6284 
    6012     7647    10500    13209    14999    16109    17078    17631 
   16987    15179    12980    10859     8955     7596     6974     6606 
    5718     4326     3666     4791     7048     8991    10166    11380 
   13494    16131    18099    18921    18879    18257    17246    15836 
   14053    12325    10650     8326     5449     3414     3261     4426 
    5490     5832     6151     7277     9154    11341    13579    15637 
   17140    17729    17543    17271    17149    16718    15834    14490 
   12448    10096     8298     7493     7790     8991    10476    11638 
   12210    12077    11421    11018    11406    12124    12490    12348 
   11973    11884    12334    12792    12564    11506     9817     8008 
    6975     7271     8590    10247    11654    12368    12240    11520 
   10705    10315    10517    10762    10228     8873     7757     8001 
    9451    10920    11526    11244    10755    10733    10948    10879 
   10654    10609    10710    10662    10476    10687    11261    11304 
   10546     9586     8746     8068     7857     8228     8881     9555 
   10092    10382    10462    10277     9775     9198     8833     8974 
    9796    10713    10890    10173     8947     7885     7564     7902 
    8629     9579    10222    10060     9201     7973     6818     6354 
    6752     7348     7460     7385     7923     9267    11142    13320 
   15457    17103    18031    18339    18327    18164    17724    16819 
   15462    13910    12496    11476    10640     9366     7677     6359 
    5849     6111     7168     8885    10762    12170    12586    11842 
   10336     8745     7686     7607     8166     8305     7794     7600 
    8235     8931     8673     7581     6916     7627     9539    11955 
   14304    16202    17343    17563    17208    16854    16476    15637 
   14212    12457    10797     9736     9872    11298    12880    13383 
   12885    12181    11838    12082    12648    13038    13173    13173 
   12974    12700    12387    11716    10839    10243     9965     9909 
   10048    10087     9703     8977     8299     7816     7426     7088 
    6516     5489     4679     4930     5923     6744     7335     8110 
    9005     9790    10214     9944     9374     9420     9873    10075 
   10289    10602    11074    12102    13236    14380    15961    16912 
   16524    16224    16865    17257    16447    14990    13729    12918 
   12020    10243     7771     5422     3516     1945      666       64 
     984     3979     8405    12333    14204    14585    14755    14467 
   13275    11913    10960    10449    10582    11535    13232    15071 
   15986    15500    14187    12816    11665    10777    10238    10131 
   10409    10608    10359     9945     9668     9817    10800    12264 
   13286    13541    13590    14022    14646    15063    15353    15826 
   16819    18423    20243    21616    21980    21222    19353    16195 
   12062     8117     5479     4163     3392     2717     2134     1564 
     888      433      704     1395     1887     2702     4704     7543 
   10575    13625    16056    16995    16390    15165    14304    13825 
   13105    11982    10798     9737     8796     8046     7449     7169 
    7708     8629     8451     6596     3912     1391     -526    -1318 
    -360     1809     4152     6554     8721     9813     9821     9790 
   10736    12864    15909    18993    21131    23326    26202    27282 
   25380    22323    19268    16306    13587    11461    10179     9217 
    8287     7422     6562     6041     5158     3400     2448     3207 
    5273     8471    11730    13956    14951    14967    15151    16082 
   17135    17552    16942    15762    14073    11642     9250     7114 
    4885     3505     4129     6484     9539    12526    14889    16187 
   16366    15657    14242    12378    10454     8473     6336     4730 
    4509     5475     6763     7742     8085     7969     8129     8826 
    9563    10106    10870    12509    15269    18287    20177    20599 
   20217    19209    17069    13905    10705     8221     6494     5400 
    4953     5039     5246     5293     5471     6006     6416     6372 
    6432     7353     9313    12019    14878    17278    19028    19823 
   18886    16205    12926    10037     7998     7126     7587     9193 
   11033    11975    11884    11623    11882    12086    11196     9663 
    8943     9266     9570     9124     8178     7252     6408     5370 
    4167     3298     3198     3825     4950     6513     8375    10003 
   10920    11142    10949    10810    11372    12731    14246    15477 
   16355    16762    16829    16908    17012    16853    16181    14868 
   13265    12101    11616    11624    11993    12279    12129    11773 
   11052     9551     8010     7591     8320     9429    10257    10754 
   11395    12237    12930    13400    13630    13668    13599    13131 
   12279    11611    11194    10783    10640    11048    11851    12758 
   13493    13853    13788    13459    13124    12653    11630    10091 
    8394     6710     5138     3871     3156     3186     3839     4699 
    5543     6413     7263     8006     8745     9644    10740    11820 
   12505    12630    12189    10962     8986     6886     5162     3928 
    3350     3555     4336     5433     6709     7874     8598     8945 
    9301     9842    10322    10535    10751    11556    13188    15091 
   16263    16124    14997    13697    12933    13055    13761    14180 
   13770    12838    11908    11149    10578    10142     9617     8999 
    8641     8793     9497    10719    12313    13929    15029    15245 
   14590    13460    12514    11977    11470    10810    10133     9595 
    9464     9856    10504    11043    11188    10966    10854    11018 
   10918    10443    10177    10270    10435    10625    10926    11512 
   12590    13801    14362    14152    13832    13736    13589    13347 
   13261    13261    13045    12496    11765    11160    10875    10845 
   10837    10635    10376    10378    10539    10451     9964     9377 
    9325    10058    10944    11414    11669    11894    11761    11130 
   10554    10713    11591    12471    12856    13011    13344    13894 
   14488    14710    14058    12561    10943    10077    10211    10779 
   11160    11178    10895    10434    10025     9971    10308    10590 
   10482    10224    10122    10218    10517    11064    11816    12563 
   13004    12810    11689     9927     8418     7609     7392     7801 
    8785     9867    10525    10719    10741    10781    10875    10764 
   10138     9202     8445     8086     7707     6667     5190     4091 
    3632     3503     3451     3667     4510     5756     6744     7366 
    7998     8704     9286     9660     9865    10048    10331    10667 
   10991    11265    11317    11032    10566    10150     9940     9987 
   10242    10656    11041    11196    11253    11344    11365    11267 
   11137    11106    11286    11728    12347    12738    12515    11890 
   11631    12140    12856    13097    12981    13059    13610    14358 
   14725    14469    13984    13855    14073    14061    13498    12638 
   11784    10843     9649     8451     7438     6253     4851     3974 
    4263     5644     7434     8904     9871    10467    10847    11292 
   12069    13196    14296    14909    15049    15070    15217    15326 
   14823    13425    11665    10295     9504     9001     8608     8523 
    9011     9988    11055    11788    11936    11654    11325    11029 
   10686    10531    10876    11696    12613    12951    12212    10771 
    9485     8668     8047     7420     7037     7329     8284     9373 
   10181    10782    11389    12012    12479    12704    12866    13086 
   13008    12212    10916     9913     9771    10224    10623    10586 
   10073     9305     8573     8082     7944     8079     8411     9058 
    9976    10882    11495    11624    11207    10385     9437     8430 
    7210     6054     5638     6095     6918     7908     9315    11003 
   12382    13162    13489    13590    13639    13564    13239    12676 
   11685    10149     8684     8086     8386     9049     9751    10481 
   11136    11473    11456    11484    12064    13086    13828    13807 
   13257    12648    12104    11749    11929    12487    12694    12239 
   11506    10909    10358     9513     8507     7982     8206     8785 
    9271     9602     9938    10104     9840     9545     9707    10138 
   10424    10401    10162     9828     9347     8806     8586     8824 
    9221     9680    10500    11745    13061    14219    15269    16181 
   16804    17027    16727    15927    14866    13736    12644    11638 
   10773    10262    10207    10420    10802    11329    11677    11425 
   10698    10227    10484    11168    11780    12217    12671    13363 
   14396    15493    16023    15502    14013    12312    11291    11173 
   11620    12306    12993    13508    13730    13586    13169    12561 
   11785    11038    10555    10378    10482    10733    10874    10705 
   10218     9691     9547     9869    10366    10785    11005    10964 
   10751    10584    10704    11171    11669    11772    11457    11065 
   10694    10019     8973     8132     7900     7830     7443     6914 
