Origin Time       2025/01/13 21:19:00
Lat.              31.8
Long.             131.6
Depth. (km)       30
Mag.              6.9
Station Code      MYZ012
Station Lat.      31.8723
Station Long.     131.0684
Station Height(m) 150
Record Time       2025/01/13 21:19:42
Sampling Freq(Hz) 100Hz
Duration Time(s)  97
Dir.              E-W
Scale Factor      7845(gal)/8223790
Max. Acc. (gal)   97.934
Last Correction   2025/01/13 21:19:42
Memo.             
[...]
     164      155      151      137      129      145      190      222 
     220      191      152      133      141      145      148      162 
     160      139      125      133      148      157      155      149 
     149      159      164      159      160      180      214      233 
     213      151       81       51       86      137      167      193 
     210      198      168      143      121      103      113      153 
     198      216      199      186      182      157      130      133 
     145      148      155      160      162      170      167      152 
     137      120      113      141      195      232      222      171 
     132      121      120      124      130      139      149      153 
     167      184      183      176      180      187      197      197 
     172      135      116      120      124      125      137      151 
     151      151      159      167      179      190      182      174 
     179      176      166      156      147      139      129      122 
     128      143      164      168      141      120      128      155 
     189      218      221      189      145      118      118      149 
     193      222      224      191      144       98       58       56 
     110      176      218      232      206      140       81       79 
     129      189      224      218      194      170      145      133 
     140      157      171      168      167      178      172      159 
     156      153      143      117       78       52       76      153 
     251      307      282      206      140      101       97      139 
     190      214      209      172      112       66       68      106 
     157      186      166      135      124      126      141      193 
     263      290      251      184      129       97      101      144 
     206      237      198      128       67       37       62      122 
     175      191      171      151      155      163      172      201 
     229      230      201      167      156      163      172      163 
     130      103       82       71       86      114      151      175 
     175      167      162      168      199      237      259      257 
     232      198      170      124       56       21       47       91 
     130      162      175      182      187      182      172      171 
     175      179      182      183      174      157      152      157 
     162      130       72       58       99      149      178      205 
     249      284      265      191      114       97      137      179 
     171      116       71       66       76      101      145      194 
     230      230      191      160      164      180      190      180 
     164      163      167      167      171      176      167      141 
     109       87       75       74       90      110      135      170 
     214      249      247      207      189      217      236      195 
     122       82      101      160      209      187      122       74 
      60       68       86      114      149      178      203      237 
     261      255      217      182      168      167      164      148 
     124      108      105      101      103      129      160      167 
     143      124      140      167      183      191      191      186 
     191      189      175      175      168      144      137      159 
     176      168      145      130      120       91       59       72 
     130      191      237      249      226      194      162      137 
     143      184      224      216      170      133      114       93 
      82       98      120      128      139      160      189      213 
     209      170      139      139      159      178      187      182 
     172      172      180      191      183      147      110       94 
     108      141      162      155      145      144      140      137 
     147      168      189      201      198      184      179      183 
     184      183      176      152      116       93       94      112 
     129      137      140      149      164      175      189      202 
     205      190      178      182      184      178      166      145 
     130      118      106      109      125      139      143      147 
     176      214      222      218      213      210      220      222 
     217      201      187      193      187      164      159      148 
     128      120      135      187      270      357      433      457 
     411      306      184      103       79      101      145      182 
     194      166      113       78       94      152      207      253 
     297      294      230      101      -52      -90       36      253 
     480      656      685      492      171      -99     -179       13 
     330      494      411      171     -114     -361     -388      -40 
     492      872      926      738      612      783     1179     1513 
    1522     1213      801      438      189      130      253      387 
     421      429      515      664      788      838      783      594 
     351      172      194      538     1120     1653     1780     1273 
     371     -349     -540     -260      241      685      796      415 
    -417    -1404    -2011    -1917    -1298     -560      -13      245 
     357      545     1013     1969     3434     4865     5302     4328 
    2648     1468     1449     2254     2864     2440      950    -1092 
   -3045    -4224    -4099    -2736    -1019       -9      -52     -893 
   -1867    -1971     -845      842     2177     2326      972    -1040 
   -2184    -1368     1007     3052     3264     1900      -12    -1795 
   -2736    -2173     -773       -2     -345    -1305    -2115    -2126 
   -1344     -340      394      677      413     -265     -737     -639 
    -438     -556     -661     -530     -746    -1818    -3542    -5256 
   -6042    -5173    -2670      642     3423     4541     3912     2293 
     508     -436      365     2354     3694     3146      816    -2212 
   -4167    -3591     -715     2598     3964     2084    -1584    -3904 
   -3045      477     4684     7306     7048     4637     2346     1583 
    2026     3145     4199     3748     1456    -1294    -3098    -3292 
   -2088     -735     -646    -2209    -4455    -6080    -6435    -5185 
   -2621      -70     1582     2650     3650     4873     6245     6959 
    6330     4773     3342     2721     2754     3076     3466     3064 
    1324     -851    -2691    -3674    -2755     -167     2220     2851 
    1672      -10     -994    -1208    -1406    -2114    -2903    -3171 
   -2882    -2219    -1196     -124      103     -831    -2037    -2473 
   -2066    -1571    -1387    -1327    -1115     -241     1406     2875 
    3086     2108     1197     1409     2893     4843     5328     3285 
     147    -2420    -3944    -4199    -3252    -1601      232     1521 
    1853     1833     2277     3360     4702     5339     3933      291 
   -3609    -5309    -4136    -1462      684     1435     1162       36 
   -1965    -4226    -5593    -5063    -3122    -1363     -440     -205 
    -407     -513     -306      238     1275     2409     3095     3392 
    3681     4183     4353     3354     1529        8     -535     -211 
     -55     -989    -2389    -2894    -2134    -1048     -603     -633 
    -309      687     1811     2420     2438     2085     1561     1278 
    1660     2529     3145     2781     1240     -899    -2627    -3527 
   -4217    -5302    -6667    -7630    -7291    -5464    -2763      261 
    2945     4496     4851     4691     4467     4145     3856     3684 
    3350     2859     2232     1378      761      480     -396    -2031 
   -3322    -3767    -3680    -3179    -2452    -1578      -55     1854 
    2859     2579     1705      677     -190     -189     1028     2538 
    3057     2274      631    -1046    -1892    -1629     -321     1725 
    3399     3451     1957      333     -122      650     1587     1343 
    -481    -2889    -4487    -4507    -2828       22     2593     3127 
    1314    -1290    -2851    -2546     -874     1077     2670     3612 
    4056     4689     5773     6670     6423     4823     2625      733 
      14      673     1529     1533      731     -486    -1387    -1123 
     197     1440     1409     -155    -2238    -3558    -3542    -2243 
    -607     -491    -2997    -6872    -9197    -7816    -3196     1942 
    4696     4060     1355    -1125    -1985    -1672    -1327    -1503 
   -2327    -3225    -3199    -1903      692     4248     7345     8665 
    8326     6999     5063     3338     2539     2033     1047     -252 
   -1532    -2350    -2282    -1733    -1393    -1362    -1231     -136 
    2389     5073     5780     3896      730    -1930    -3091    -3171 
   -3179    -3204    -3119    -3770    -5563    -7433    -8368    -8387 
   -7983    -7635    -7172    -6027    -4108    -1183     2972     7022 
    8847     8104     6720     6629     7956     9734    10725     9861 
    7473     4752     2165       75    -1000    -1387    -1578    -1235 
     -10     1772     3264     3321     1692     -645    -2983    -4920 
   -5938    -5953    -4835    -2346      861     3304     4043     3565 
    2708     1580       82    -1678    -3789    -6218    -7850    -7699 
   -6257    -4075    -1229     1628     3346     3063     1094    -1304 
   -3365    -4525    -4191    -2992    -1938    -1051     -297       56 
     216      583     1412     3037     5409     7647     8835     9036 
    8946     8731     8175     7391     5958     2687    -2286    -6759 
   -8869    -9040    -8560    -7800    -7121    -6951    -6650    -5629 
   -4005    -1926     -180      118     -692    -1161     -631      751 
    2876     5155     6520     6455     5273     3348      792    -1680 
   -2840    -2536    -2058    -2848    -5013    -6983    -7221    -5655 
   -3073     -170     2764     5231     6405     6397     6084     5821 
    5682     5680     5368     4530     3836     3886     4301     4436 
    4259     3742     2435      641     -475     -444      364     1755 
    3480     4676     4463     2640     -139    -2794    -4603    -4988 
   -3905    -2737    -2947    -4530    -6561    -7970    -7804    -6007 
   -3589    -1455     -147      205      513     1490     2295     1945 
     642     -766    -1063      587     3187     5262     6340     6031 
    4612     3348     2597     2245     2774     3708     3915     3370 
    2236      796      241     1019     2058     1814     -373    -3335 
   -5409    -5972    -5219    -3748    -2658    -3030    -4087    -3883 
   -2830    -2812    -3990    -5568    -6728    -6550    -4934    -2648 
   -1058    -1458    -3273    -4537    -4364    -3331    -2546    -3160 
   -5093    -6636    -6733    -5832    -4369    -2423      -79     2605 
    5323     7584     9370    10727    10889     9356     7380     6623 
    7477     9630    12526    14875    14945    11881     6420       93 
   -5575    -9394   -11036   -11038   -10311    -8903    -5852    -1775 
    1138     2060     1594      859      963     1864     2781     3018 
    2166      526    -1512    -4095    -6762    -8174    -7808    -6463 
   -5035    -3423     -662     3677     8780    13154    15750    16530 
   15813    13894    11129     7491     2763    -2286    -6187    -8274 
   -8764    -8163    -7237    -6570    -6312    -6339    -5929    -4060 
    -874     2116     3707     3912     3149     1464     -753    -2095 
   -1382      873     3090     4025     3238     1219    -1048    -3080 
   -4352    -4236    -3248    -1975     -390      842      989      278 
    -417     -108     1312     3063     4460     5200     5100     3940 
    1674    -1286    -4306    -7049    -9297   -10407    -9895    -8365 
   -6805    -5459    -4118    -2833    -1678     -454     1080     3311 
    6311     8943    10147    10266     9815     8768     7276     5701 
    3981     1780     -311     -815      739     3091     4529     4305 
    3333     2880     3132     3940     5128     6404     7506     7604 
    6556     5736     5740     5575     4128     1264    -1726    -3589 
   -4926    -6689    -8073    -7942    -6652    -5175    -4498    -5185 
   -5765    -4580    -2407     -454      886     1154       74    -2158 
   -4645    -5996    -5574    -3936    -2258    -1119      302     2817 
    5850     8569    11183    14524    18909    23652    27496    29546 
   30311    31081    31850    31544    29463    25550    20690    15661 
    9524     1567    -6845   -14358   -20718   -25839   -30026   -34014 
  -38283   -42647   -46360   -48639   -48922   -47474   -45432   -43752 
  -42871   -42510   -41501   -39096   -35895   -32925   -30901   -29968 
  -29286   -28246   -27337   -26389   -24125   -19840   -13697    -6043 
    2498    10856    18235    24760    30846    36814    42908    48960 
   54781    60250    64608    66668    65603    61373    55023    48122 
   41300    34253    26671    18507    10893     5563     3013     3024 
    4734     6116     5486     2494    -2327    -8105   -13761   -18580 
  -22724   -26709   -31230   -36757   -42211   -46033   -48204   -49281 
  -49738   -50134   -50315   -50422   -51096   -51669   -50645   -46769 
  -39834   -31387   -23279   -16194    -9868    -3730     2274     7705 
   12368    16127    18941    20896    21949    22902    25165    29578 
   36481    45959    57713    70348    81261    88395    91791    93339 
   95065    97065    97703    96203    93480    90208    85591    78425 
   68096    55016    40640    25573     8685   -10767   -31226   -49836 
  -65438   -79047   -91058   -99648  -102504   -99592   -93162   -85658 
  -78922   -73754   -69319   -64933   -61215   -58494   -57141   -57171 
  -56527   -53874   -49898   -44270   -36425   -28136   -20803   -13505 
   -5204     4573    15606    27089    38149    47385    54078    58672 
   61920    65003    68484    71329    72138    70567    66989    61653 
   55262    48286    40051    30402    19784     8355    -2843   -11722 
  -16571   -17358   -15874   -14022   -12556   -11631   -11538   -12688 
  -14854   -17232   -19485   -21826   -24591   -28125   -32439   -36748 
  -39989   -41760   -42441   -42398   -41050   -37704   -32560   -25852 
  -18214   -10862    -3738     3427     9656    14458    18049    20690 
   22496    22979    22488    22081    21481    19870    17051    13699 
   11132     9313     7206     5040     3607     3103     3484     3917 
    3424     2621     2353     2478     3154     4452     5374     5200 
    3893      629    -5022   -11453   -17069   -21350   -23795   -24491 
  -24386   -24399   -24435   -23116   -19769   -14855    -8986    -3473 
     476     2736     3705     3802     3204     2181      831    -1246 
   -3933    -6755    -9660   -11912   -12172   -10602    -8563    -6473 
   -3877     -415     4264     9576    14195    18258    22621    26820 
   29293    28432    24232    18724    14137    11423    10019     9015 
    8325     8087     7596     5964     3743     2452     2307     2127 
    1352      415     -176      -98      449      864     1206     1746 
    1858     1032     -621    -2972    -5350    -7252    -9278   -11881 
  -14935   -17815   -19160   -17787   -13408    -6660     1296     9726 
   17928    24950    30416    34017    35122    33612    29970    24908 
   19534    15236    12505    10843    10291    10898    10963     8843 
    5443     1910    -2371    -7164   -11180   -14716   -18360   -21621 
  -24506   -27082   -28055   -26214   -22245   -17755   -13544    -9258 
   -4673     -876     1534     3059     3844     4553     6160     8436 
   10617    12290    13518    14674    16021    17537    18447    17383 
   13898     8671     2196    -5260   -12572   -18621   -23949   -29103 
  -33453   -36721   -38979   -39896   -38638   -35097   -30747   -26299 
  -21207   -15412    -9780    -4806      646     7487    15171    22844 
   29601    34781    38461    40768    41403    40300    37785    33872 
   28186    21003    13123     5157    -1806    -6736    -9917   -12403 
  -14401   -15182   -14821   -14069   -13197   -12487   -12474   -13840 
  -16845   -20295   -22997   -24787   -25420   -24883   -23286   -20136 
  -15403    -9902    -3738     3503    11167    18392    24255    27718 
   29212    29199    27828    26099    23577    19029    12653     4685 
   -4229   -12607   -19705   -24953   -28463   -31450   -33975   -35418 
  -35212   -31914   -25816   -19406   -13798    -9452    -6515    -3192 
    1532     6231     8907     9038     7792     6116     4162     1471 
   -2018    -4718    -5390    -4450    -2601       -1     3770     8988 
   15257    21817    27410    30915    32348    32522    32327    32341 
   32108    30504    27486    23782    19639    15533    12426    10508 
    8915     6739     3828      940     -874    -1310    -1082    -1171 
   -1695    -1771     -696     1027     2205     2660     2843     2490 
     885    -3090    -9574   -16884   -23857   -29754   -32946   -33029 
  -31151   -27904   -23387   -18076   -12766    -7728    -2673     2060 
    6234    10656    15813    20830    24152    25385    25682    26049 
   26231    25091    21956    17674    14130    11877     9167     5127 
    1105    -1848    -3915    -5838    -8043   -10141   -12132   -14435 
  -17417   -21355   -24945   -26730   -27114   -27167   -28486   -31599 
  -34126   -34029   -32159   -29763   -26798   -23012   -18131   -12625 
   -7712    -3566      166     3855     7954    11927    15145    17776 
   20294    23170    25924    27475    26985    23885    18473    11412 
    3136    -5746   -14154   -20800   -25089   -26873   -25666   -20875 
  -11947      245    12436    21243    25193    25185    23836    22773 
   21552    19611    17186    14570    12204    10731    10349    11315 
   13934    17180    19097    18931    18231    18895    20544    21899 
   22804    23215    22943    21984    19807    16050    11441     7311 
    4267      936    -4270   -10503   -15811   -19556   -22083   -23364 
  -23170   -21933   -19812   -16438   -12480    -8930    -5852    -3771 
   -3936    -5918    -8074   -10014   -12004   -14157   -16711   -19291 
  -20679   -20289   -19263   -19201   -20475   -22160   -22464   -19615 
  -13436    -6050      251     5387     9350    10710     9409     6778 
    3507     -108    -4089    -8483   -12480   -14895   -15159   -13555 
  -10686    -7098    -2975     1900     6995    10941    12726    12171 
   10204     8135     6847     6664     6752     6228     5391     4977 
    5540     7341    10172    12748    13566    12739    11313     9703 
    7909     6420     6058     7164     9143    10574    10311     8895 
    8127     8737     9317     8208     5228      967    -3483    -6511 
   -7485    -7187    -7137    -8648   -11530   -14026   -13899   -10142 
   -3888     2646     7454     9246     7747     4336     1343     -309 
   -1192    -1935    -3389    -5468    -6725    -6629    -5260    -2606 
     309     2083     2544     2739     3056     3369     4637     7209 
   10440    14121    17154    18418    18242    16768    14048    10747 
    7462     4969     3956     4072     4441     4544     3900     1895 
   -1468    -5265    -8507   -11129   -14179   -18580   -23660   -27490 
  -28217   -25571   -21068   -16633   -13736   -12544   -11331    -8176 
   -2932     2907     7460    10019    11658    13628    16112    18767 
   21065    22277    21521    17945    12212     6771     3311     1622 
