Origin Time       2025/01/13 21:19:00
Lat.              31.8
Long.             131.6
Depth. (km)       30
Mag.              6.9
Station Code      MYZ002
Station Lat.      32.6978
Station Long.     131.6833
Station Height(m) 18
Record Time       2025/01/13 21:19:50
Sampling Freq(Hz) 100Hz
Duration Time(s)  98
Dir.              E-W
Scale Factor      7845(gal)/8223790
Max. Acc. (gal)   46.784
Last Correction   2025/01/13 21:19:49
Memo.             
[...]
   -3720    -1745     -395       32     -450    -1556    -2538    -2326 
    -668     1748     4267     6199     7047     7312     7188     5668 
    2824      795     1142     2953     4149     3279      -36    -5097 
  -10257   -13699   -14481   -12486    -8178    -3500     -961     -851 
   -1281     -422     2347     6043     8761     9282     7461     4206 
    1213     -727    -2000    -2439    -1418      839     3439     5158 
    4774     2272    -1054    -3811    -5278    -5724    -5823    -5624 
   -4900    -4334    -4922    -5944    -5435    -2820      807     4137 
    6038     5929     4533     3267     2864     2979     3021     3145 
    3622     3437     1358    -2224    -6139    -9494   -10930    -9327 
   -5350     -510     3690     5246     3264      -67    -1603     -823 
     522     1237     1216      900     1317     2489     2940     2281 
    1490      692     -672    -2442    -3950    -4648    -3694     -666 
    2536     3387     1968     -218    -2340    -3997    -5591    -7722 
   -9420    -9528    -7998    -4286     1952     9165    15287    18621 
   18081    14596    10007     4536    -2147    -8977   -14530   -17911 
  -18405   -16449   -13369    -8965    -2385     4992    10316    11789 
    9980     7319     5629     4552     2675     -324    -3063    -4494 
   -5197    -5724    -5899    -5632    -4383    -1425     2671     6588 
    9228     9479     7179     4268     2616     1348    -1397    -5617 
   -9734   -11905   -11385    -9381    -7200    -4749    -1906     1062 
    4163     6173     5096     2083       68    -1078    -2529    -3095 
   -1798      864     4889     9535    11977    10465     5825     -545 
   -6633    -9872    -9857    -8353    -6439    -4139    -1536      908 
    2104     1417      117        0      878      726    -1096    -2709 
   -2906    -1985      183     3181     5562     7006     7777     7042 
    4272      144    -4571    -8911   -10982    -9575    -5582     -287 
    4942     7542     6160     2296    -1719    -4380    -5722    -6610 
   -6716    -5035    -1931      893     1881      981     -333     -319 
    1568     4166     6138     7360     7851     7107     5143     2315 
   -1641    -6390    -9836   -10303    -8665    -6825    -5472    -3998 
   -1421     2370     5876     7335     6694     5047     2859      184 
   -2951    -6457    -9050    -9216    -7188    -3796      521     4384 
    6158     5998     5012     3627     1991      583     -317     -801 
    -816     -618    -1047    -2060    -2424    -1552     -149      572 
    -221    -1686    -1611     1011     4865     7850     8766     7137 
    2999    -2008    -5799    -8249   -10126   -11416   -11722   -10204 
   -6215     -935     3603     6763     9004    10261    10058     8833 
    7564     6145     3626       59    -3211    -5239    -6496    -7913 
   -9899   -12459   -14758   -14769   -11051    -4448     2729     8653 
   12685    14180    12405     8432     4338      865    -1903    -3613 
   -4445    -4668    -3889    -2076      183     2702     5177     6585 
    6177     3951      395    -3593    -7107    -9628   -10920   -10652 
   -8584    -5413    -2539     -857     -314     -291      -12     1090 
    3009     5223     7186     8388     8676     8835     9204     8287 
    5124      889    -3122    -6338    -8498    -9749    -9952    -8847 
   -6652    -3397      805     4908     7383     7376     5575     3261 
     888    -1358    -3095    -4025    -3630    -1802      328     1779 
    3321     6012     8822     9657     7726     3738     -280    -1939 
   -1043      174      -36    -1502    -3584    -5931    -7311    -5917 
   -1769     2859     5602     5807     4722     3812     2924     1190 
    -869    -1815     -826     1975     4958     5840     4421     2026 
    -680    -2928    -3528    -2565    -1636    -2029    -3441    -5020 
   -6114    -5679    -3441     -773     1021     1551      826     -742 
   -2820    -5117    -6369    -5312    -2334     1420     5104     7877 
    9219     9189     7658     4351     -137    -4241    -6717    -7774 
   -8399    -8954    -9309    -9108    -7211    -3264      388     1194 
      -4     -257     1490     3605     4214     2843      415    -1347 
   -1580    -1080     -966    -1625    -2502    -2820    -3022    -4302 
   -6662    -8517    -8440    -6910    -5641    -5520    -6004    -6102 
   -5408    -4306    -3558    -3504    -3518    -2598     -383     2548 
    5194     6975     7919     8253     8338     8179     6488     2089 
   -3605    -7928   -10019   -10573   -10057    -8561    -6366    -3878 
   -1044     2420     6097     9309    12029    14353    15745    15327 
   12885     9105     4716      419    -2608    -3721    -4077    -5229 
   -7165    -8807    -9181    -7457    -3366     1656     5310     6639 
    5674     2305    -2747    -7649   -10731   -10939    -7955    -2893 
    2143     5332     5706     3639      796     -957        1     4156 
    9313    11916    10161     4780    -2191    -8402   -11892   -11897 
   -9273    -6158    -4727    -5493    -6913    -7155    -5688    -3134 
    -654     1063     2613     4550     5915     5298     2718     -496 
   -3154    -4260    -2837      761     5236     9869    13455    13868 
   10269     3399    -5513   -14276   -20077   -21251   -17990   -12118 
   -6150    -1622     1416     3615     5317     5742     4105     1530 
    -147     -573     -332       82      201      228     1197     3190 
    4770     4737     3030      465    -1555    -1965     -656     2119 
    5811     9297    11537    12127    11169     8872     5570     2006 
   -1425    -4737    -7071    -7593    -6770    -4911    -2259     -490 
   -1026    -3064    -4968    -6224    -6907    -6542    -4769    -1755 
    1826     4293     4024      858    -4170    -9427   -13409   -15391 
  -15115   -12414    -7296     -194     7337    12739    14166    11245 
    4762    -3288   -10721   -16096   -18130   -16120   -11013    -4930 
    -167     1763     1161     -463    -2061    -3258    -3663    -2778 
    -133     4287     9682    14787    18567    20324    19313    15310 
    9288     2416    -4633   -11113   -16143   -19267   -20436   -19627 
  -17073   -13355    -9162    -5481    -2794     -490     1719     3674 
    6027     9447    13531    17405    20390    22019    22229    21505 
   20200    17510    12050     3767    -5466   -13335   -18770   -22045 
  -23745   -24320   -23792   -21386   -16237    -8733     -710     6081 
   11117    14397    15989    16478    16553    16444    16283    16362 
   16895    17469    16432    11859     3438    -7079   -17081   -24364 
  -27714   -27426   -24948   -21045   -15762   -10022    -4988     -445 
    4460     9514    13621    16194    17336    17520    17618    17923 
   17848    17327    16738    15920    14274    11021     6475     3026 
    2369     3709     6052     8364     8338     4531    -2415   -11422 
  -21490   -31259   -38820   -42032   -39962   -33439   -23720   -11893 
     330    10706    18195    23041    24898    23093    18416    13296 
    9490     6176     2077    -2766    -8210   -13954   -19253   -24016 
  -28657   -32605   -34067   -31540   -25027   -16349    -7913     -707 
    5107     8946    10941    12306    13977    15911    17292    17327 
   16186    14809    13613    12162     9859     6339     1665    -3789 
   -9593   -15033   -19438   -22785   -25278   -26573   -25906   -22707 
  -17109   -10358    -4002     1478     6286    10459    14068    17022 
   19126    20884    22916    24634    24840    23175    20154    16397 
   12178     7631     3055    -1355    -5238    -7843    -9093    -9883 
  -10924   -12136   -13155   -13730   -13601   -12814   -11673    -9991 
   -7335    -3503     1540     7560    14199    20884    26476    29806 
   30337    28101    23591    17782    11796     6027      -72    -6929 
  -14200   -21327   -27880   -33255   -36680   -37806   -36771   -33558 
  -27810   -19504    -9545      882    11084    20810    29921    37733 
   42688    43266    39380    32767    25618    19101    13274     7634 
    1806    -4361   -10867   -17292   -23491   -29317   -33443   -34341 
  -31761   -27118   -22497   -18770   -15726   -13122   -10524    -7437 
   -3707      731     6258    13317    21435    28676    32960    33727 
   31425    26534    19975    12938     5954     -727    -6636   -11952 
  -17429   -23116   -28502   -33016   -35753   -36143   -34528   -31105 
  -25348   -17124    -7102     4064    16020    27749    36865    40899 
   39237    33123    24376    15090     7334     1869    -1483    -2751 
   -2751    -2928    -3811    -5517    -8048   -10660   -12879   -14855 
  -16467   -17608   -18311   -18060   -16186   -12564    -7557    -2162 
    2274     5333     7446     8946    10498    12892    15643    17628 
   18256    16958    13454     8276     1895    -5219   -11794   -16465 
  -18769   -19003   -17883   -16313   -14570   -12035    -8386    -4330 
    -784     2003     4270     6218     8259    11199    15284    19642 
   23097    24692    23529    19310    13155     7146     2662     -454 
   -2866    -4780    -6250    -7506    -9184   -11988   -15637   -19021 
  -20980   -20704   -18577   -16140   -14717   -14026   -12349    -8372 
   -1790     7017    16360    24100    29239    31159    29145    23696 
   16384     8426      915    -4595    -7506    -8764    -9379    -9879 
  -10593   -11612   -12654   -13321   -13825   -14644   -15691   -16695 
  -17234   -16051   -11981    -5105     3771    13279    21043    25226 
   26307    25770    23943    20421    15253     8785     1567    -5065 
   -9690   -12121   -12833   -11932    -9595    -6561    -3828    -2261 
   -2222    -3430    -5306    -7102    -7599    -5995    -3041     -228 
    1586     2454     3038     3962     5294     6837     8252     8830 
    8213     7196     6953     7524     7292     4392    -1379    -8758 
  -16364   -22909   -27472   -30157   -31063   -28896   -22350   -12154 
    -267    11333    20267    24883    25639    23863    20655    16729 
   12135     6808     1171    -3609    -6096    -6272    -5721    -5896 
   -7566   -11014   -15527   -19263   -20243   -17658   -12295    -5853 
     379     6199    11850    16902    20021    19958    16542    11068 
    5868     2562      745     -508    -1107     -868      -68      923 
    1578     1444      328    -1809    -4853    -8433   -11534   -12823 
  -11591    -8100    -3514      375     1807      180    -3518    -7757 
  -11111   -12471   -11637    -8839    -4333      922     5709     9316 
   11190    10728     7877     3894      672     -955    -1404    -1463 
   -1817    -2787    -4270    -5800    -6338    -4945    -2212      540 
    2756     4401     5726     6817     7056     5649     2254    -2533 
   -7306   -10654   -11947   -11722   -10864    -9622    -7408    -3273 
    2609     8472    12340    13109    10755     6358     1849    -1217 
   -2839    -3704    -3920    -3284    -1813      240     2717     5641 
    8422    10048    10404    10320    10269     9643     7538     3438 
   -2748    -9886   -15778   -19047   -19834   -18785   -16429   -13401 
  -10289    -7327    -4369    -1163     2110     4932     6970     8216 
    8872     9018     8572     7136     3958     -851    -5757    -9184 
  -10671   -10490    -9278    -8051    -7191    -5940    -3507      476 
    5829    11183    14663    15391    13717     9976     4610     -607 
   -3969    -5034    -3960    -1899     -364      176     -338    -1370 
   -1196      868     3711     6218     7824     8610     8662     7383 
    5065     2782      942       60      450     1181     1647     2320 
    3528     5634     8988    12622    14863    14806    12514     8436 
    3072    -2713    -8046   -12442   -15587   -17505   -18049   -16633 
  -13517    -9722    -6023    -3211    -2197    -3231    -5120    -5890 
   -4872    -2986    -1147      444     2137     4270     6571     8193 
    8417     7233     5319     3431     1547    -1089    -4619    -7938 
   -9717    -9244    -6407    -2042     1938     3883     3812     3042 
    2920     4291     7229    10851    13964    15772    15934    14323 
   10639     4719    -2590    -9745   -15376   -18465   -18582   -16213 
  -12432    -8201    -4158    -1035      488      291    -1198    -3034 
   -4332    -4843    -4579    -3611    -2019     -118      892      136 
   -1194     -940     1892     6619    11546    15107    16642    16299 
   14553    11943     8587     4291     -226    -3686    -5744    -6671 
   -6367    -4618    -1876      699     1659      -95    -4166    -9054 
  -13815   -18125   -21501   -23326   -23161   -20648   -15716    -9194 
   -2088     4980    11222    15967    18569    18038    14389     9181 
    4117      306    -1540    -1459     -589      -17       95     -727 
   -3542    -8203   -13243   -17088   -18100   -15178    -8883    -1490 
    3944     6068     5961     4915     3613     2219      472    -1412 
   -2843    -2968     -907     2729     6265     8773    10154    10336 
    8873     5393      244    -5667   -11302   -15742   -17840   -16638 
  -12889    -8355    -3947      299     4460     8361    11736    14176 
   15098    14436    12814    10687     8270     6498     6705     8959 
   11588    12059     8735     2112    -6219   -14840   -22508   -28105 
  -30732   -29844   -25339   -17647    -7712     3196    13312    20563 
   23969    24062    21728    18065    15005    14231    15716    18072 
   19780    19390    15375     7122    -4455   -17621   -30249   -40301 
  -46743   -49423   -48227   -43117   -34905   -25065   -14593    -3720 
    7290    17442    25072    28648    27823    24057    19386    14881 
   11141     8280     5640     3187     1340      -76    -1205    -1968 
   -2681    -3726    -4725    -4753    -3246     -741      873     -145 
   -3816    -9154   -14771   -18736   -19608   -17139   -11595    -3643 
    5598    15021    23284    28632    29835    27101    21627    14619 
    6966     -862    -8449   -14636   -17880   -17274   -13201    -7734 
   -3308     -754      460      822      403     -558    -1278     -571 
    2423     7516    13539    18963    22486    23202    20417    13844 
    4360    -6084   -15489   -22362   -25814   -25469   -21662   -15844 
   -9930    -5123    -1656      986     3534     5846     6993     6442 
    4132      155    -4661    -8883   -11051   -10116    -6589    -2300 
    1737     5420     8387    10253    10822    10156     8538     5892 
    1804    -3894   -10652   -17103   -21651   -23342   -22264   -19029 
  -14530    -9877    -5626    -1972      595     1961     2847     4194 
    6544     9849    13614    17004    18887    18227    14758     9281 
    3488     -565    -1614      -67     2436     4074     3605      641 
   -4675   -11438   -17632   -21203   -20987   -16524    -8576      622 
    8910    14877    17147    15164    10077     3589    -2644    -6736 
   -7514    -5436    -1648     3396     9641    16214    21350    23232 
   20568    13192     2319    -9944   -20858   -28013   -30757   -29524 
  -24949   -18449   -11805    -5815     -553     3592     6211     7592 
    8818    10800    13398    16098    18423    19834    19834    18036 
   14910    11512     7886     3402    -1719    -6455   -10022   -12186 
  -13242   -14087   -15857   -19062   -22936   -25770   -25980   -23153 
  -18256   -12576    -6708     -772     5161    10990    16187    19931 
   21938    22327    20808    16784    10053     1229    -8052   -15751 
  -20753   -22831   -21593   -16737    -9085     -777     5512     7981 
    6844     3726      442    -1472    -1460      182     2972     6172 
    9099    11718    14427    17043    18420    17463    13828     7994 
    1007    -5796   -10517   -11585    -9247    -5263    -2050    -2139 
   -6403   -13138   -20213   -26458   -30346   -30048   -25300   -17397 
   -7965     1424     9474    15438    19251    21381    22337    22252 
   20826    17930    14180    10589     7789     5580     3310      391 
   -3519    -8213   -12920   -16737   -18781   -18424   -15781   -11892 
   -8209    -5530    -3565    -1641      637     3285     5825     7674 
    9082    10983    13702    16683    19354    21172    21200    18844 
   14562     9120     2965    -3165    -8275   -12082   -14727   -15855 
  -15218   -13509   -11789   -10328    -8338    -5165    -1525     1123 
    2133     1879      935     -190    -1138    -2079    -3316    -4576 
   -5077    -4082    -1582     1609     4461     6130     6354     5668 
    4718     3387     1156    -1991    -5638    -9216   -11804   -12544 
  -11340    -8707    -5320    -1772     1657     4677     6714     7578 
    7418     6192     4060     1703      151      -33      400      278 
    -560    -1409    -1549     -513     1572     3492     3763     2000 
   -1154    -4649    -7088    -7248    -5213    -2500     -554      537 
    1551     3106     5394     8019    10172    11392    11601    10509 
    7933     4614     1999     1142     1876     2990     2937      723 
   -3477    -8575   -13339   -16885   -18665   -18592   -16995   -14010 
   -9657    -4348     1239     6276    10035    12116    12383    11082 
    8457     4432     -792    -6289   -10643   -12475   -11130    -6979 
   -1260     4174     7441     7697     6126     4641     3484     1757 
    -720    -3308    -5350    -6747    -7805    -8770    -9702   -10478 
  -10837   -10405    -8831    -6112    -2633     1081     4563     7427 
    9247     9556     8336     6169     3615      737    -2463    -5601 
   -8135    -9509    -9121    -6646    -2443     2230     5741     7099 
    6170     3591      737    -1201    -2065    -2211    -1647       17 
    2871     6305     9463    11838    13225    13323    11848     8773 
    4301     -831    -5382    -8158    -8625    -7177    -4710    -2211 
    -707     -878    -2555    -4977    -7461    -9501   -10593   -10278 
   -8243    -4772     -996     1937     3716     4581     4689     3979 
    2338       55    -1944    -2890    -2932    -2678    -2551    -2575 
   -2424    -2072    -2026    -2548    -3296    -3669    -3144    -1607 
     616     3464     6951    10161    11808    11358     9126     5981 
    2729     -274    -2860    -4857    -6079    -6399    -5956    -5229 
   -4490    -3375    -1435     1170     3658     5390     6420     6978 
    6829     5551     3240      565    -2088    -4617    -6697    -8245 
   -9186    -8937    -7045    -3852     -396     2238     3638     4202 
    4849     6312     8496    10612    11604    10678     7792     3370 
   -1921    -6790    -9610    -9682    -7746    -5063    -2421      -45 
    1865     2817     2381      700    -1560    -3504    -4396    -4179 
   -3329    -2087     -324     1929     4151     5494     5386     3889 
    1437    -1368    -3921    -5788    -6750    -6979    -7094    -7470 
   -7954    -8318    -8270    -7314    -5344    -2802      -71     2609 
    4880     6455     7344     7708     7520     6436     4229     1070 
   -2785    -6893   -10072   -10839    -8538    -3771     1891     6635 
    9139     8884     6463     3310      444    -1749    -2984    -3165 
   -2486    -1449     -735     -459      -44      851     1838     2216 
    1503     -315    -2679    -4668    -5530    -5046    -3531    -1539 
     535     2431     3770     4249     3898     3068     2362     2095 
    1837     1101       81     -706    -1026     -954     -757     -695 
