Origin Time       2025/01/13 21:19:00
Lat.              31.8
Long.             131.6
Depth. (km)       30
Mag.              6.9
Station Code      MYZ009
Station Lat.      32.0461
Station Long.     130.8115
Station Height(m) 230
Record Time       2025/01/13 21:19:49
Sampling Freq(Hz) 100Hz
Duration Time(s)  188
Dir.              E-W
Scale Factor      7845(gal)/8223790
Max. Acc. (gal)   29.102
Last Correction   2025/01/13 21:19:49
Memo.             
[...]
    2579     2882     3238     3740     4391     5093     5768     6367 
    6894     7470     8302     9458    10655    11441    11531    10993 
   10220     9643     9437     9603     9954    10208    10358    10685 
   11375    12312    13154    13609    13649    13394    12984    12679 
   12572    12291    11341     9548     7095     4440     2174      581 
    -588    -1782    -3200    -4648    -5790    -6546    -7060    -7477 
   -7884    -8213    -8294    -8073    -7680    -7387    -7326    -7168 
   -6505    -5532    -4845    -4619    -4338    -3214     -768     2961 
    7357    11183    13441    14396    15061    16073    17307    18183 
   18297    17739    16895    16241    16066    16410    17226    18253 
   19024    19248    19037    18640    18191    17694    17116    16484 
   15846    15137    14312    13456    12653    11915    11223    10632 
   10403    10886    12078    13477    14455    14708    14368    13775 
   13203    12823    12829    13313    14045    14669    15016    15130 
   15222    15450    15703    15637    14825    13092    10785     8565 
    6872     5634     4548     3546     2766     2276     2081     2008 
    1652      756     -537    -1910    -3154    -4355    -5848    -7859 
  -10169   -12236   -13593   -14212   -14472   -14693   -14812   -14675 
  -14278   -13487   -12021    -9929    -7573    -5292    -3368    -1867 
    -337     1690     4063     6195     7501     7843     7735     7857 
    8299     8652     8658     8340     7763     7213     7163     7983 
    9751    12059    14129    15404    15936    16148    16336    16630 
   17266    18378    19832    21396    22866    24208    25489    26624 
   27292    27122    26148    24991    24143    23206    21624    19539 
   17150    14531    11917     9443     7372     6008     5258     4783 
    4244     3365     2079      746     -155     -521     -517     -483 
    -724    -1111    -1255     -884     -103      437      199     -560 
   -1156    -1232     -920     -438      128      668     1000     1017 
     803      572      535      861     1553     2470     3477     4396 
    5020     5309     5244     4939     4976     5813     7017     7782 
    7852     7445     6944     6833     7299     8078     8818     9220 
    9077     8449     7668     6957     6166     5124     3989     2990 
    2166     1471      924      550      319      307      557      946 
    1424     2053     2797     3511     3997     4186     4249     4364 
    4606     4974     5229     5024     4436     4014     4228     4997 
    5890     6620     7107     7294     7256     7217     7240     7088 
    6458     5358     4159     3327     3194     3836     5090     6600 
    7958     9059    10068    10962    11631    12212    12865    13574 
   14359    15446    17031    18958    20866    22550    23907    24869 
   25547    26104    26427    26253    25570    24702    24062    23773 
   23580    23267    22904    22608    22376    22087    21595    20794 
   19624    18013    16028    14160    12943    12386    12016    11318 
   10111     8592     7037     5590     4415     3735     3568     3701 
    3883     3936     3850     3759     3704     3541     3298     3186 
    3148     3102     3227     3616     4243     4980     5539     5715 
    5468     4950     4467     4158     3937     3640     3348     3446 
    4075     4901     5441     5371     4741     3831     2774     1555 
     295     -757    -1439    -1706    -1726    -1834    -2208    -2802 
   -3456    -3844    -3709    -3165    -2455    -1613     -531      810 
    2268     3626     4685     5242     5262     5055     4965     5059 
    5139     4951     4498     3967     3453     2943     2404     1922 
    1722     1914     2274     2501     2546     2566     2770     3311 
    4113     4889     5428     5796     6188     6675     7182     7557 
    7730     7766     7755     7769     7800     7638     7129     6426 
    5852     5570     5397     5015     4415     3842     3372     2952 
    2578     2226     1803     1247      596       40     -190      -28 
     417      950     1389     1825     2594     3812     5188     6359 
    7053     7123     6785     6517     6627     7229     8318     9670 
   10979    12023    12699    13108    13544    14204    14967    15620 
   16121    16559    17065    17760    18651    19580    20304    20659 
   20676    20534    20441    20509    20706    20964    21288    21667 
   21965    22046    21863    21335    20374    19049    17633    16394 
   15365    14420    13549    12847    12258    11601    10795     9871 
    8892     7908     6960     6057     5108     4016     2891     1942 
    1259      808      365     -248     -857    -1208    -1225     -859 
     -94     1020     2361     3724     4932     5876     6509     6860 
    6934     6685     6041     5016     3754     2459     1414      930 
    1175     2035     3091     3865     4106     3854     3302     2600 
    1810      954       54     -714    -1024     -715       36      843 
    1516     2250     3211     4284     5306     6142     6775     7379 
    8020     8442     8437     8070     7507     7011     6821     6818 
    6801     6778     6817     7014     7346     7493     7246     6786 
    6273     5659     4978     4276     3538     2961     2793     3048 
    3591     4113     4243     3917     3462     3175     3122     3126 
    2921     2574     2338     2162     1910     1663     1540     1590 
    1881     2412     3064     3730     4310     4843     5579     6610 
    7724     8600     8973     8762     8075     7194     6443     6066 
    6228     6851     7751     8869    10048    11068    11900    12627 
   13381    14223    15013    15646    16259    16912    17452    17790 
   17973    18045    18018    17826    17331    16530    15574    14659 
   14006    13694    13560    13409    13119    12629    11963    11275 
   10766    10458    10224    10003     9810     9736     9890    10223 
   10558    10779    10894    10991    11155    11341    11437    11387 
   11199    10964    10898    11141    11595    12010    12114    11772 
   11078    10260     9463     8687     7906     7145     6494     6106 
    6103     6523     7256     8077     8869     9647    10380    11074 
   11848    12730    13586    14305    14759    14806    14520    14031 
   13320    12351    11159     9875     8685     7661     6767     6052 
    5609     5405     5352     5462     5734     6065     6266     6158 
    5638     4774     3802     2945     2254     1692     1281     1124 
    1325     1815     2394     2936     3446     3867     3963     3564 
    2794     1860      797     -432    -1767    -3099    -4409    -5671 
   -6825    -7915    -8977    -9899   -10629   -11288   -12035   -12928 
  -13753   -14165   -14089   -13644   -12879   -11827   -10527    -9049 
   -7515    -5984    -4491    -3095    -1769     -409      992     2227 
    3051     3524     3962     4608     5683     7296     9215    11063 
   12555    13571    14273    14920    15600    16271    16953    17732 
   18651    19677    20776    21876    22821    23512    23974    24206 
   24154    23847    23406    22856    22049    20783    18952    16587 
   13860    11061     8488     6323     4534     3001     1694      706 
     175      153      553     1281     2261     3350     4399     5320 
    5998     6374     6600     6826     7009     7137     7329     7578 
    7726     7669     7476     7345     7396     7507     7496     7342 
    7082     6690     6193     5643     5051     4491     4099     4021 
    4371     5175     6385     7931     9753    11785    13929    16071 
   18075    19778    21116    22117    22875    23595    24439    25338 
   26083    26437    26225    25389    23993    22270    20410    18343 
   16005    13529    11102     8891     7045     5617     4522     3634 
    2945     2528     2339     2212     2010     1806     1813     2079 
    2454     2759     2795     2362     1543      714      167       32 
     307      885     1661     2417     2810     2667     1941      637 
    -993    -2573    -3958    -5252    -6519    -7670    -8554    -9099 
   -9400    -9622    -9815    -9967   -10129   -10278   -10316   -10191 
   -9855    -9265    -8399    -7265    -5895    -4248    -2292     -153 
    2100     4482     6851     9139    11361    13328    14889    16050 
   16785    17181    17378    17432    17432    17417    17174    16314 
   14642    12490    10438     8797     7655     7110     7175     7653 
    8310     9138    10219    11479    12850    14305    15777    17238 
   18612    19753    20583    21061    21101    20707    19962    18852 
   17442    16042    14844    13720    12476    11057     9582     8213 
    7048     6218     5864     5873     5944     5950     5950     5867 
    5563     5069     4459     3757     2986     2227     1663     1437 
    1483     1710     2066     2376     2520     2585     2601     2493 
    2246     1848     1228      371     -604    -1421    -1792    -1709 
   -1399     -988     -479       86      633      985      949      643 
     465      616     1101     1969     3094     4318     5713     7222 
    8718    10312    12096    13907    15534    16833    17655    17960 
   17913    17740    17554    17280    16904    16629    16575    16661 
   16764    16803    16835    16983    17292    17784    18351    18742 
   18856    18720    18299    17555    16524    15363    14231    13090 
   11931    11021    10511    10160     9659     8843     7673     6188 
    4476     2629      770    -1013    -2731    -4261    -5370    -6006 
   -6181    -5865    -5096    -3878    -2266     -604      792     1939 
    2938     3816     4591     5184     5517     5738     6006     6307 
    6670     7218     7939     8661     9279     9907    10737    11750 
   12650    13185    13335    13225    13074    13041    13007    12746 
   12218    11488    10585     9468     8040     6249     4129     1761 
    -677    -2980    -5063    -6906    -8398    -9494   -10407   -11248 
  -11827   -12016   -11784   -11061    -9880    -8378    -6669    -4905 
   -3148    -1186     1097     3514     5876     8091    10062    11785 
   13304    14619    15711    16526    17003    17200    17292    17311 
   17316    17752    18751    19855    20807    21550    21930    21938 
   21647    20991    19874    18400    16802    15288    14040    13184 
   12762    12679    12672    12631    12688    12798    12814    12742 
   12495    11917    11114    10297     9548     8847     8083     7209 
    6407     5873     5579     5395     5271     5136     4947     4710 
    4244     3327     2038      657     -561    -1456    -1993    -2172 
   -1991    -1591    -1123     -484      557     2166     4442     7315 
   10427    13274    15537    17192    18311    18920    19017    18612 
   17710    16335    14662    12965    11384     9960     8752     7759 
    6851     5907     4976     4232     3774     3457     3132     2903 
    2845     2875     2970     3075     3038     2718     2074     1301 
     714      409      211     -120     -738    -1688    -2891    -4137 
   -5216    -6011    -6359    -5996    -4752    -2771     -541     1366 
    2687     3582     4336     5082     5811     6377     6633     6652 
    6613     6654     6870     7204     7492     7739     8033     8232 
    8194     7901     7234     6322     5517     4889     4432     4305 
    4635     5493     6951     8946    11068    12833    14184    15441 
   16822    18260    19634    20922    22052    22921    23606    24174 
   24507    24484    24100    23446    22623    21724    20892    20123 
   19156    17772    16058    14277    12533    10809     9282     8117 
    7171     6299     5549     5038     4843     4908     5124     5452 
    5826     6191     6588     6936     6848     6034     4712     3276 
    1804      202    -1490    -3169    -4801    -6300    -7508    -8306 
   -8629    -8517    -8101    -7468    -6752    -6143    -5613    -4993 
   -4213    -3187    -1837     -211     1575     3412     5248     7115 
    9049    10989    12873    14723    16532    18291    20025    21612 
   22709    23055    22686    21810    20684    19508    18279    16969 
   15670    14445    13351    12487    11847    11260    10592     9942 
    9504     9332     9297     9150     8746     8127     7366     6519 
    5715     5092     4666     4450     4554     5034     5742     6416 
    6905     7156     7055     6590     5945     5231     4440     3597 
    2767     1919      932     -303    -1849    -3676    -5684    -7825 
   -9980   -11826   -13139   -13872   -13892   -13077   -11518    -9497 
   -7383    -5475    -3867    -2529    -1467     -594      268     1111 
    1765     2245     2814     3743     5158     7014     9055    10955 
   12514    13667    14455    15028    15550    16073    16588    17143 
   17826    18643    19511    20289    20857    21284    21624    21726 
   21469    20866    19886    18474    16637    14330    11662     8982 
    6403     3784     1135    -1451    -3959    -6373    -8667   -10860 
  -12957   -14899   -16575   -17737   -18171   -17886   -17014   -15728 
  -14351   -13082   -11765   -10307    -8897    -7636    -6330    -4895 
   -3457    -2046     -683      580     1760     2771     3653     4517 
    5065     5100     4847     4249     3315     2563     2181     2095 
    2506     3362     4529     6228     8280    10060    11523    13080 
   14783    16475    18157    19888    21655    23404    25201    27265 
   29551    31710    33597    35263    36591    37400    37675    37620 
   37373    36857    36121    35359    34545    33453    31881    29787 
   27337    24698    21876    18885    15940    13312    11092     9246 
    7757     6687     6057     5764     5753     6050     6570     7182 
    7871     8648     9436    10088    10513    10883    11422    12120 
   12924    13765    14451    14770    14594    13936    12966    11827 
   10601     9452     8546     7985     7840     8116     8626     9096 
    9400     9609     9876    10264    10673    10930    10883    10490 
    9784     8764     7518     6218     4996     3915     2916     1933 
     994       60     -959    -2130    -3568    -5321    -7281    -9321 
  -11267   -12892   -14031   -14503   -14168   -13085   -11419    -9374 
   -7101    -4666    -2231       -1     1885     3334     4534     5899 
    7612     9540    11435    13128    14593    15796    16667    17220 
   17500    17396    16771    15735    14613    13705    13085    12571 
   12032    11550    11115    10617    10111     9679     9215     8561 
    7680     6659     5624     4625     3707     2974     2440     1998 
    1545      982      263     -464    -1009    -1313    -1416    -1374 
   -1221     -934     -521      -62      330      610      826     1065 
    1439     2046     2905     3959     5086     6156     7109     7897 
    8448     8733     8719     8324     7512     6313     4828     3249 
    1669      105    -1271    -2346    -3191    -3796    -4194    -4558 
   -4954    -5359    -5879    -6646    -7628    -8687    -9694   -10584 
  -11331   -11853   -12020   -11747   -11001    -9803    -8149    -5949 
   -3122      270     3935     7453    10548    13123    15191    16868 
   18210    19221    20042    20784    21409    21988    22581    23053 
   23375    23708    24133    24491    24579    24327    23718    22792 
   21675    20583    19711    19118    18796    18685    18669    18646 
   18511    18189    17652    16947    16289    15858    15608    15479 
   15379    15198    15036    14990    14925    14715    14307    13660 
   12852    12021    11263    10602     9942     9136     8178     7229 
    6465     5987     5852     6002     6288     6550     6648     6663 
    6837     7321     8141     9215    10342    11268    11832    12073 
   12123    12108    12127    12189    12243    12235    12085    11674 
   10909     9818     8469     6972     5517     4168     2805     1300 
    -326    -1915    -3303    -4413    -5356    -6330    -7430    -8649 
   -9810   -10667   -11175   -11385   -11257   -10689    -9647    -8333 
   -6983    -5594    -4112    -2536     -831     1086     3234     5394 
    7281     8861    10228    11430    12459    13212    13549    13414 
   12826    11888    10897    10299    10143     9992     9693     9342 
    8835     8245     7727     7191     6639     6197     5823     5387 
    5024     4973     5136     5302     5501     5850     6266     6469 
    6367     6046     5416     4450     3470     2713     2083     1466 
     903      544      456      596     1031     1788     2650     3437 
    4222     5228     6643     8425    10278    11858    12945    13536 
   13840    14034    14126    14065    13783    13228    12433    11433 
   10242     8918     7457     5848     4122     2305      437    -1437 
   -3192    -4563    -5381    -5680    -5536    -5027    -4236    -3207 
   -2006     -770      400     1487     2486     3420     4352     5325 
    6361     7427     8442     9313    10015    10577    10975    11203 
   11384    11647    12046    12602    13247    13811    14177    14277 
   14049    13477    12590    11506    10409     9447     8711     8279 
    8228     8688     9783    11479    13555    15773    17990    20083 
   21910    23363    24383    24906    24892    24391    23535    22520 
   21486    20474    19502    18601    17803    17165    16749    16600 
   16726    17015    17288    17334    16897    15946    14646    13158 
   11695    10363     9190     8278     7670     7312     7179     7250 
    7468     7798     8213     8637     8969     9123     9024     8672 
    8117     7384     6517     5572     4610     3686     2825     2056 
    1429     1000      811      896     1269     1902     2739     3740 
    4899     6255     7823     9506    11140    12546    13591    14214 
   14380    14118    13594    12987    12376    11749    11060    10341 
    9657     9032     8434     7773     6982     6056     5040     3989 
    2938     1938     1009      189     -448     -869    -1104    -1198 
   -1210    -1155    -1001     -757     -437      -94      139      221 
     282      463      797     1277     1867     2451     2945     3288 
    3372     3113     2490     1564      464     -753    -2041    -3345 
   -4673    -5992    -7230    -8360    -9358   -10170   -10743   -11049 
  -11092   -10957   -10785   -10735   -10929   -11340   -11770   -12081 
  -12303   -12550   -12891   -13244   -13396   -13151   -12503   -11595 
  -10582    -9566    -8600    -7674    -6679    -5556    -4321    -2964 
   -1466      202     2095     4187     6304     8226     9840    11290 
   12704    13933    14945    15912    16852    17815    18875    19881 
   20714    21367    21807    22075    22384    22881    23440    23865 
   24148    24370    24410    24088    23525    22900    22095    21065 
   19969    18840    17743    16814    16096    15693    15601    15593 
   15581    15623    15695    15735    15741    15768    15838    15862 
   15830    15867    16025    16210    16387    16636    16966    17244 
   17406    17583    17848    18063    18121    18077    18021    17965 
   17918    17941    18104    18347    18562    18789    19089    19369 
   19534    19588    19475    19047    18288    17313    16224    15070 
   13857    12587    11226     9763     8330     7040     5842     4711 
