Origin Time       2025/01/13 21:19:00
Lat.              31.8
Long.             131.6
Depth. (km)       30
Mag.              6.9
Station Code      MYZ011
Station Lat.      31.9951
Station Long.     131.2559
Station Height(m) 24
Record Time       2025/01/13 21:19:40
Sampling Freq(Hz) 100Hz
Duration Time(s)  128
Dir.              N-S
Scale Factor      7845(gal)/8223790
Max. Acc. (gal)   51.448
Last Correction   2025/01/13 21:19:39
Memo.             
[...]
    2195     2185     2199     2199     2191     2195     2195     2192 
    2193     2189     2192     2200     2193     2189     2199     2196 
    2189     2196     2199     2192     2197     2199     2189     2193 
    2200     2192     2192     2197     2195     2195     2195     2189 
    2196     2199     2191     2193     2196     2192     2191     2191 
    2193     2197     2195     2192     2195     2195     2191     2193 
    2196     2191     2195     2197     2188     2192     2200     2191 
    2187     2193     2196     2195     2191     2191     2195     2193 
    2192     2197     2199     2189     2189     2193     2195     2196 
    2193     2191     2196     2196     2191     2192     2193     2193 
    2199     2199     2187     2192     2200     2192     2192     2197 
    2192     2189     2193     2197     2197     2189     2188     2200 
    2200     2189     2193     2196     2187     2192     2199     2188 
    2188     2199     2197     2192     2193     2193     2193     2196 
    2195     2197     2195     2182     2188     2199     2197     2196 
    2195     2192     2192     2193     2197     2199     2191     2188 
    2197     2200     2196     2193     2193     2195     2195     2195 
    2196     2195     2193     2193     2197     2196     2189     2192 
    2197     2193     2195     2200     2193     2191     2192     2192 
    2193     2195     2199     2199     2189     2189     2196     2196 
    2192     2193     2195     2195     2192     2195     2196     2192 
    2191     2196     2199     2195     2191     2192     2196     2195 
    2193     2197     2195     2189     2195     2195     2191     2196 
    2197     2189     2192     2197     2195     2191     2196     2203 
    2196     2188     2193     2197     2195     2193     2195     2196 
    2195     2191     2197     2200     2192     2189     2192     2193 
    2197     2197     2191     2189     2192     2196     2195     2189 
    2193     2199     2196     2193     2193     2191     2189     2192 
    2196     2195     2195     2195     2193     2195     2193     2195 
    2199     2193     2193     2201     2193     2187     2197     2195 
    2189     2200     2197     2188     2196     2197     2195     2197 
    2191     2189     2201     2195     2188     2201     2197     2188 
    2196     2195     2189     2193     2196     2199     2199     2189 
    2191     2203     2195     2187     2197     2195     2192     2200 
    2199     2195     2188     2187     2196     2200     2196     2196 
    2195     2188     2192     2200     2196     2193     2196     2191 
    2189     2195     2196     2196     2196     2192     2195     2199 
    2195     2193     2197     2196     2192     2192     2195     2196 
    2195     2192     2192     2195     2193     2196     2199     2192 
    2195     2200     2192     2189     2196     2195     2192     2197 
    2199     2192     2192     2191     2192     2199     2197     2196 
    2196     2187     2188     2200     2197     2192     2196     2195 
    2192     2196     2196     2192     2192     2192     2191     2199 
    2195     2189     2195     2195     2192     2199     2195     2188 
    2193     2199     2197     2196     2192     2193     2199     2191 
    2191     2201     2192     2187     2199     2196     2189     2192 
    2196     2201     2199     2191     2196     2196     2188     2196 
    2204     2195     2191     2196     2195     2193     2197     2195 
    2193     2195     2193     2195     2195     2192     2199     2204 
    2195     2191     2195     2192     2196     2204     2196     2189 
    2196     2196     2192     2196     2193     2193     2197     2193 
    2192     2197     2189     2188     2201     2196     2189     2199 
    2197     2193     2195     2192     2193     2196     2193     2197 
    2200     2191     2189     2197     2191     2181     2178     2169 
    2157     2141     2115     2106     2116     2128     2135     2114 
    2039     1953     1912     1942     2033     2142     2209     2208 
    2155     2073     1962     1842     1827     1977     2174     2276 
    2253     2103     1867     1684     1618     1605     1686     1952 
    2308     2521     2427     2060     1636     1468     1759     2344 
    2766     2791     2648     2532     2388     2263     2285     2390 
    2515     2663     2706     2508     2263     2317     2608     2779 
    2752     2650     2458     2153     1998     2258     2605     2552 
    2393     2500     2469     2192     2228     2295     1656     1039 
    1533     2423     2527     2124     1853     1539     1065      754 
     661      688      931     1408     1911     1915     1005     -198 
    -652     -233      553     1312     1517      874      170      392 
    1135     1286      768      253       71      279      845     1557 
    2250     2762     2749     2101     1138      391      607     1823 
    2659     2440     2230     2282     1694      738      359      297 
     372     1682     4054     5181     4329     3433     3593     3808 
    3322     2824     3110     3923     4645     5297     5840     5275 
    3316     1759     1958     2901     3254     2789     1687     1112 
    2616     4793     4245      980    -1433     -727     1971     3601 
    2716     1933     3538     5408     5764     5638     4707     1996 
    -665     -868     1335     3728     3686     1077    -1075     -453 
    2187     4563     4727     2988     2108     3133     3719     2798 
    2133     2496     3010     3615     5125     7276     7798     5212 
    2288     2806     5815     7399     6266     4206     2905     2216 
    1343     1129     2749     4491     3566       72    -3044    -2928 
     -12     1761     -151    -3314    -4187    -2843    -1501    -1154 
   -1065      -31     1954     3294     2938     1553     -310    -2650 
   -4149    -3013       64     2764     4428     5533     5308     2801 
    -816    -2997    -2326      251     2513     3103     2450     1676 
    1597     2822     4893     5726     4500     3410     3909     4642 
    4989     5980     7132     7206     7192     8064     7943     5541 
    3176     2797     2721     1452      414      523      197    -1736 
   -3952    -4468    -2863     -626      252     -419    -1328    -1856 
   -1937    -1347     -202     1629     4356     6421     6070     4625 
    4163     3866     2759     2454     3709     5327     6971     7592 
    4851     -510    -5192    -7109    -5819    -2713       36     2066 
    3689     3937     2579     1377     1475     2485     4028     5059 
    4145     1960      500      978     3402     6324     7839     7122 
    4719     2366     1502     1547     1223      504      310     1497 
    3404     3518      789    -2313    -3005    -1108     1649     3715 
    5228     7200     9013     8799     6764     5286     5409     5769 
    4816     3110     2749     3666     3357     1664      946     1416 
    1279      180     -553      286     2177     2749      988     -760 
    -423      936     1449      768      278     1755     4349     5217 
    3831     1611    -1420    -5270    -7715    -7312    -5697    -4294 
   -2628     -693     1085     3273     5653     6444     4899     2265 
     453     1001     3746     6531     7549     7474     8129     9229 
    8260     4585     1838     4027     9898    13527    11335     6010 
    1854     -240    -1410    -2134    -1907      209     3709     6012 
    5377     2304    -1929    -5701    -7241    -6053    -3680    -2278 
   -2292    -2461    -1734     -145     1032      315    -1711    -2911 
   -2211     -255     1517     2405     3142     4463     6002     6914 
    7079     7082     6517     4268      739    -2440    -3852    -2596 
     238     1687     1096      989     2425     3935     4545     4124 
    3369     3954     5397     5525     5549     8110    11530    12343 
   10366     7021     3009     -365    -1717    -1024      679     1336 
    -228    -2516    -4475    -6500    -7304    -5335    -1921     1175 
    3489     3877     2008      409     1383     4295     7013     8144 
    8008     8098     8789     8861     7838     6135     4098     3221 
    5289     9058    10894     9232     5954     3194     1061    -1108 
   -3146    -4209    -3747    -2304    -1021     -105      949     2241 
    3688     4395     2214    -2980    -7106    -6710    -3464      -78 
    3445     6646     7152     3677    -2505    -8235    -9840    -5996 
     615     6239     8827     7460     3215      -33      216     2354 
    4259     5571     6149     6691     8383     9420     6828     1633 
   -2532    -4063    -3554    -1786      392     2069     3572     5896 
    8287     8579     6150     3312     2995     4529     4603     3372 
    3973     6269     7582     7454     6871     5896     4687     3927 
    3083     1394       85      649     2650     4186     3499     1526 
    1317     3267     5030     5818     6096     5668     5181     5621 
    5931     4742     2936     2205     2835     3592     3094     1696 
    1003      252    -3518    -9751   -13522   -11858    -6997    -3609 
   -4391    -7666   -10077   -10879   -11287   -11713   -11384    -8976 
   -4322      306     2571     2424     1158      263      972     3358 
    6264     8066     7449     5286     4990     7906    10773    10886 
    9656     9192     9686    10382     9892     7105     3866     3408 
    5429     6619     5614     4544     5667     8066     9107     8214 
    6704     5096     3580     3465     5383     7892     9285     8866 
    6829     4434     3107     2844     2440     1129     -425     -943 
    -564     -837    -2004    -2808    -2670    -1001     3095     7596 
    8495     5308     1282    -1019    -1393     -693      386     1242 
    1161      103    -1082    -2127    -3824    -5921    -6758    -6106 
   -5050    -3195      159     3535     4885     4013     2355     1192 
     535      652     2882     6829     9711    10168     9350     8064 
    6130     3875     1811      201     -153     1395     4372     7932 
   10941    11418     8341     3393     -737    -2543    -2320    -1445 
    -506      784     1691      657    -2331    -5232    -6304    -5910 
   -4931    -3400    -2093    -2336    -3794    -5282    -6276    -5980 
   -3662     -940     -495    -2342    -4261    -4819    -4168    -3362 
   -3564    -5329    -8337   -11076   -11442    -8770    -4191     1005 
    6002    10390    14347    18338    22565    26169    27515    26349 
   23943    20696    16048    10355     4533    -1215    -6444   -10092 
  -12564   -15144   -16876   -15979   -13105    -9701    -5964    -2261 
     535     2450     3932     4743     4699     4631     5605     7469 
    8866     8573     6577     4234     2941     2444     1566      297 
     162     2338     5718     7987     8634     8850     8966     8101 
    5397     1279    -1802    -1294     2963     8854    12627    10466 
    2829    -5275   -10192   -11708   -10126    -5337     2363    11434 
   19136    23298    23164    18941    11836     4762     1605     3955 
   10400    18505    24599    25402    22195    18581    15333    12205 
   10440    10840    13537    17693    19672    16614    10651     5105 
     666    -1637      -41     3963     7375     9374     8991     4650 
   -2454   -10265   -19110   -28410   -34086   -33212   -27410   -20488 
  -15533   -13134   -12218   -12877   -15487   -17370   -14590    -7634 
    -938     2936     4521     5136     6725    10801    15874    19415 
   21016    20725    18304    14917    11928     9300     6735     4598 
    3353     3307     4509     6478     8718    11144    13192    13127 
    9574     3672    -1722    -5328    -8409   -11662   -13332   -12271 
   -9969    -7793    -5850    -4549    -4099    -4153    -4467    -4239 
   -2731     -446     1991     3877     3046    -2165    -9833   -16384 
  -20132   -20204   -15547    -7180     1775     8953    13321    13917 
   11441     8729     6254     1701    -4618    -9498   -11421   -11103 
   -9398    -7384    -6696    -7461    -7184    -3530     2725     8023 
    9085     6635     4891     6104     8264     9439    10782    13207 
   15171    15844    15978    15268    13016     9823     6120     1825 
   -1726    -2643    -1489     -654     -827     -514     1497     4858 
    8283    11678    16438    21687    23836    21613    17304    13597 
   11848    11607    11132     9308     6438     3535     1391     -373 
   -2635    -5086    -6999    -8984   -11753   -14027   -14079   -11718 
   -7751    -4290    -3862    -5668    -6556    -5944    -5066    -3238 
     560     5266     9701    13686    16699    18299    18724    17752 
   15743    15083    17004    19170    19211    17343    13953     8611 
    2066    -4221   -10014   -14912   -17061   -15695   -12499    -9373 
   -6663    -3609      244     4560     8858    12795    15893    17764 
   18416    18007    16956    15547    12885     8625     4878     3697 
    4537     5040     2949    -1977    -7904   -13171   -17302   -19649 
  -19294   -16883   -14284   -11973    -8962    -5062    -1385     1316 
    3611     6527    10131    12914    12802     9192     3883     -365 
   -2401    -3275    -4552    -6720    -8865    -9859    -9950    -9690 
   -7940    -3869      743     3775     4664     2990    -1621    -8037 
  -14559   -20613   -26111   -30712   -33970   -35309   -34599   -32791 
  -31456   -30981   -29575   -25637   -19797   -13032    -4756     5800 
   17806    29305    38831    46248    52007    55710    56128    52933 
   47551    41705    36086    30427    24186    17787    12283     7290 
    1354    -5552   -11591   -14759   -14353   -11038    -6185    -1711 
     761     1957     4145     7485     9748     9321     5865      371 
   -3605    -2670     1733     4860     4070      330    -3954    -6307 
   -4430     2385    12066    21293    27913    31689    33278    32815 
   30325    27191    25689    26982    30375    34458    37651    37959 
   34450    28093    20025    10997     2673    -2889    -6288   -10648 
  -16876   -23240   -29311   -35372   -40705   -44883   -47220   -45902 
  -40231   -31734   -22423   -13662    -6272     -780     2296     3553 
    4888     6747     7878     8553    10878    15607    20965    24339 
   23604    18187     9598      611    -5705    -7707    -6974    -6525 
   -6713    -5302    -1902     1317     2988     3118     2535     3364 
    6544     9979    12020    13336    14018    13120    11115     8984 
    6459     3910     2844     3190     2929      573    -2771    -4815 
   -5629    -6951    -9058   -10801   -11388   -11543   -12141   -12352 
  -11080    -8391    -5201    -2910    -1598      487     4399     9640 
   14912    18767    21444    23958    24873    22898    20227    18380 
   15429     9796     2197    -5767   -11875   -14230   -13828   -13601 
  -13942   -12584    -9223    -6111    -4396    -3254    -1571      889 
    2629     1723    -1142    -3847    -6192    -8889   -11785   -14689 
  -16665   -15681   -11242    -4903     1768     7387     9714     6683 
    -504    -7142    -9348    -7350    -3623      777     6000    11290 
   15851    19344    21328    22523    23973    25488    27561    31047 
   33667    31976    26280    19238    13007     9428     7911     5009 
    -787    -7511   -13304   -18878   -25627   -32894   -38961   -42439 
  -42591   -40913   -39748   -38388   -34028   -25026   -11429     3620 
   13879    16349    14377    12285    11654    12190    13720    17763 
   25108    32390    34798    30866    22262    11831     3746     1873 
    5833    11666    16714    20321    20976    17101    10197     3095 
   -4452   -12985   -18870   -19272   -16802   -15259   -15822   -16908 
  -15111    -9796    -5359    -4499    -4411    -2552      868     5645 
   11232    16964    23878    32239    38936    40562    37656    33470 
   29268    24090    17995    11978     6331     1030    -3346    -6258 
   -9027   -13211   -16826   -15788    -8405     2100     9209     9979 
    8361     8345     8141     5445     2365      807      797     3878 
   10029    15188    16808    15673    12283     7902     5729     5935 
    4768      696    -4765   -10747   -16163   -19529   -21582   -23851 
  -26338   -28860   -31779   -35021   -37878   -38578   -34531   -25442 
  -15410   -10147   -11865   -16807   -18320   -12846    -2057    10494 
   22108    30380    33970    34059    32431    29110    23363    16290 
   10530     7403     6917     8446     9593     8440     6072     4234 
    3542     4513     7389    11296    15327    19411    23291    26291 
   27955    27172    22755    16776    13362    13281    13871    12869 
    8868     1327    -6907   -11611   -12955   -14472   -17794   -21654 
  -23784   -23225   -21363   -20352   -21309   -23392   -23633   -19414 
  -12275    -6922    -5314    -4680    -1961     2758     7199    10004 
   12761    17973    25436    31691    33860    32791    30036    25115 
   18007    10250     2917    -3618    -8168   -10019   -10864   -12590 
  -14553   -14883   -13894   -14177   -16605   -18767   -17967   -14202 
  -10411    -9541   -11213   -12633   -11778    -8383    -3468     1896 
    7118    11087    12872    12806    11688    10559    10727    12059 
   12337    10620     9803    13113    20036    27862    33970    35613 
   31765    24929    19095    17300    19222    20690    18821    15125 
   11943     9921     8992     8812     8032     4496    -3078   -13919 
  -25095   -32547   -34487   -32950   -30804   -29401   -28873   -28472 
  -26971   -23955   -20237   -16235   -11013    -3491     6116    16042 
   24128    29128    30855    29689    26206    21525    17450    15331 
   15165    15149    12858     8380     4357     2722     2781     2435 
    1159      314      669     2104     4996     9435    13498    14499 
   12792    11751    12919    14782    15357    12879     7403     2053 
   -1046    -3697    -7915   -12302   -14224   -13165   -10350    -7484 
   -6303    -7522   -11084   -17118   -24418   -29668   -30269   -26223 
  -18878   -10196    -2473     3316     7686    11161    14133    16322 
   16352    14590    13871    15214    16841    17903    19199    20478 
   20731    20804    22415    25222    27137    26376    21838    13543 
    4391    -1140    -2689    -5155   -11221   -17270   -19163   -17128 
  -13471    -9558    -6426    -4953    -4383    -3304    -1705     -310 
     730     1108      199    -1669    -3975    -6906    -9902   -11670 
  -12168   -12101   -11265   -10003   -10185   -12467   -14958   -15182 
  -11693    -5485    -1012    -1980    -5861    -7400    -5449    -2012 
    1564     4881     8514    13761    20409    25964    27793    25648 
   21921    19438    19272    20129    20004    18601    17135    16569 
   17088    18083    18338    16842    13633     9963     6490     2189 
   -2613    -4865    -2754     1598     4264     3580     1586      785 
     973      521    -1059    -3227    -5101    -6018    -6959    -9576 
  -13518   -17045   -19163   -19745   -19113   -17706   -15414   -12036 
   -7959    -3450     1429     6049     9838    13369    17068    19927 
   21436    22597    23946    24934    24611    22377    19060    15807 
   12306     8378     5597     5047     5197     3831      735    -2361 
   -3434    -1695     1746     4124     2771    -2045    -7376   -11171 
