Origin Time       2025/01/13 21:19:00
Lat.              31.8
Long.             131.6
Depth. (km)       30
Mag.              6.9
Station Code      MYZ014
Station Lat.      31.8457
Station Long.     131.3070
Station Height(m) 136
Record Time       2025/01/13 21:19:39
Sampling Freq(Hz) 100Hz
Duration Time(s)  100
Dir.              N-S
Scale Factor      7845(gal)/8223790
Max. Acc. (gal)   58.266
Last Correction   2025/01/13 21:19:38
Memo.             
[...]
   -8698    -8627    -8568    -8619    -8727    -8722    -8683    -8692 
   -8637    -8572    -8633    -8725    -8727    -8668    -8631    -8619 
   -8611    -8650    -8733    -8757    -8684    -8606    -8595    -8645 
   -8699    -8708    -8688    -8662    -8613    -8588    -8662    -8742 
   -8712    -8665    -8657    -8615    -8598    -8668    -8730    -8714 
   -8661    -8625    -8621    -8642    -8685    -8727    -8721    -8649 
   -8583    -8600    -8672    -8715    -8714    -8698    -8646    -8572 
   -8603    -8723    -8757    -8688    -8631    -8613    -8614    -8646 
   -8710    -8739    -8691    -8629    -8613    -8619    -8654    -8711 
   -8730    -8694    -8618    -8572    -8633    -8730    -8733    -8677 
   -8665    -8631    -8576    -8642    -8745    -8721    -8657    -8635 
   -8621    -8615    -8658    -8731    -8743    -8668    -8592    -8594 
   -8660    -8716    -8735    -8737    -8711    -8660    -8667    -8761 
   -8789    -8706    -8665    -8661    -8595    -8560    -8650    -8741 
   -8725    -8710    -8725    -8685    -8665    -8787    -8962    -8949 
   -8739    -8568    -8565    -8706    -8827    -8706    -8343    -8094 
   -8337    -8827    -8943    -8634    -8426    -8680    -9067    -8922 
   -8313    -8001    -8334    -8907    -9062    -8587    -8031    -8041 
   -8472    -8587    -8109    -7801    -8469    -9483    -9528    -8540 
   -7765    -8155    -8955    -8781    -7971    -7862    -8768    -9768 
   -9429    -7873    -7368    -8723   -10099   -10282    -9699    -9080 
   -8964    -9317    -9489    -9189    -9147    -9618    -9082    -7125 
   -6191    -7501    -9138    -9391    -8667    -8268    -8626    -9015 
   -8900    -8401    -8229    -9273   -10625   -10265    -8279    -6659 
   -6824    -8256    -9131    -9030    -9227    -9806    -9748    -9094 
   -8587    -8484    -8785    -9286    -9175    -8152    -7361    -7538 
   -7717    -7179    -6747    -7470    -9108   -10115    -9306    -7686 
   -7503    -9350   -11327   -11491   -10238    -8949    -7942    -7519 
   -7987    -8021    -6804    -6168    -6991    -7655    -7892    -8182 
   -7562    -6698    -7406    -8672    -8704    -8194    -8448    -8915 
   -8496    -7911    -8784   -10544   -10258    -7574    -6411    -8066 
   -9643   -10273   -10435    -9778    -8970    -7349    -4893    -5942 
   -9967   -10548    -9078   -10662   -11963    -9358    -6110    -5314 
   -8330   -13984   -14897    -9146    -6222    -8051    -6889    -4128 
   -5286    -7268    -7425    -8326    -9718    -9545    -8006    -5944 
   -5967    -9945   -13273   -11890    -9508    -9633   -10011    -7746 
   -3935    -3523    -8463   -12255    -9950    -7169    -7859    -7234 
   -4988    -5991    -8781    -9641    -9730   -11006   -11935    -9198 
   -4020    -3063    -8187   -13282   -14891   -14445   -11290    -7141 
   -9058   -14852   -13000    -5653    -5586   -10866   -10903    -6743 
   -4305    -3801    -4564    -5761    -4972    -3883    -5900    -8931 
   -9670    -8257    -7173   -10188   -15541   -16160   -14212   -17011 
  -20305   -17720   -13466   -11508    -9296    -6386    -6245    -8865 
  -10038    -8151    -5005    -2868    -4163    -7861    -9390    -8309 
   -7896    -7545    -3684     1853     1888    -3858    -6693    -4315 
   -4442    -8683    -8803    -3310    -1817    -8106   -12972    -9468 
   -3334    -2741    -6762    -9953   -12353   -16303   -19510   -19467 
  -17405   -15083   -13914   -15668   -18937   -18246   -11939    -5228 
   -1590     -135    -1564    -5503    -6855    -3316     1302     3180 
    1833     -488     -707     1246     1645    -1256    -5206    -9161 
  -12800   -13891   -13701   -16471   -20409   -19588   -13354    -7389 
   -6230    -7584    -7269    -6399    -8476   -13782   -20121   -23946 
  -20241    -9622    -2565    -4876    -9099   -10677   -11832    -9239 
   -2120      913    -2956    -7148    -8372    -9563   -11376    -9640 
   -4044    -1204    -4118    -7149    -6524    -5570    -5803    -5130 
   -4622    -7254   -12820   -18349   -21679   -22026   -18377   -11803 
   -6367    -4340    -4800    -6461    -8409   -10185   -10899    -9103 
   -6295    -5312    -5877    -7306    -9572   -10397    -8235    -6612 
   -8989   -11688   -11624   -11574    -9780    -4548    -2785    -5093 
   -4129    -2073    -5506   -11331   -13724   -12731   -10366    -7948 
   -7169    -9953   -16977   -23665   -22688   -16374   -12510    -7767 
    1051     4122     -446    -1884    -1196    -5351    -7146    -1906 
     359    -2457    -1356     1904    -1468    -9703   -15098   -15210 
  -12746   -11152   -11356   -13221   -17064   -20661   -20517   -16522 
  -11267    -7524    -6999    -9236   -13049   -16420   -15664   -10814 
   -7554    -8665    -9362    -5799    -2222    -3071    -6288    -8992 
   -8688    -2390     6439    10357     8430     4687     1480    -1007 
   -3115    -5778    -9537   -10426    -4554     1594    -1543   -12532 
  -22769   -26939   -25197   -21211   -17972   -15314   -12845   -11456 
  -12232   -16213   -21820   -21514    -9814     4973    11869    12672 
   10963     4021    -6053   -12969   -15577   -14440    -8939    -2941 
   -4604   -16542   -29062   -29955   -20559   -12204    -9117    -8212 
  -10054   -14208   -13589    -6419     -594     -839    -3823    -4976 
   -3885    -2540      371     4668     4364      384     -915    -3653 
  -11938   -18000   -18003   -16475   -13409    -7933    -4583    -4068 
   -2511     -297      886      484    -4417   -13427   -20058   -20842 
  -19013   -16113   -11018    -6878    -6104    -8792   -16052   -22489 
  -21990   -19109   -18388   -17969   -18902   -23645   -27035   -21744 
  -10620    -2056     3921    11395    16648    12451     -193   -10054 
   -8831    -2713    -1910    -6000   -10089   -14635   -17398   -11210 
     621     7362     8248     4972    -7045   -22848   -29182   -26334 
  -23120   -20483   -18139   -19836   -23388   -21857   -15635    -9475 
   -3862     -436    -2517    -6687    -8613   -10002   -12328   -13585 
  -10409    -2261     6814    12874    11384     1883    -4853    -3646 
   -1609     -684      668     -704    -5042    -8768   -12352   -19354 
  -27936   -30360   -24791   -18369   -15199   -13622   -12316   -10903 
  -11831   -18600   -27037   -29097   -25579   -22555   -20326   -17907 
  -17876   -17189    -8712     2324     3990     -699    -1237       86 
   -3415    -8607   -11847   -16745   -23048   -24047   -20052   -18084 
  -18517   -16483   -12189   -10193   -12441   -16821   -20922   -23704 
  -25689   -28791   -30465   -25466   -18157   -15769   -13173    -4637 
    2571     1825    -2116    -3912    -4876    -7230   -11128   -15614 
  -18296   -17869   -15445   -11345    -5479      155     4163     8081 
   12185    12825     8376     3705     4236     9688    15209    16366 
   12526     5647      418     1667     7244    11429    12456    12204 
   12191    11294     8773     6095     4094     2682     2376     2523 
    1316     -846    -2316    -2220     -927    -1098    -5270   -12472 
  -18640   -20031   -16629   -12417   -11641   -14531   -17923   -18966 
  -16860   -12464    -7469    -4116    -4216    -6573    -6866    -2890 
    2434     6898    12850    19827    21953    16993     8172    -1001 
   -7495   -10307   -10793    -9976    -9472   -10462   -12962   -17203 
  -19828   -17952   -14238   -11300   -11662   -16383   -23278   -31348 
  -38944   -44127   -46712   -46568   -43686   -37747   -29146   -20066 
  -12996    -7893    -3277     -934    -2678    -5443    -4957    -1266 
    1302     -508    -5560   -11595   -16934   -18789   -18252   -20183 
  -22887   -21176   -16659   -14463   -15056   -15508   -15638   -15836 
  -13649    -9111    -5543    -2964     -357    -1034    -4884    -4700 
     980     5613     7797     9950     9277     4649      464     -245 
    1961     2525      382       47     -958    -6890   -16286   -26819 
  -33662   -34150   -32094   -32162   -35926   -39133   -36259   -28599 
  -21087   -15144   -10052    -5660    -1020     3456     5162     3392 
    -206    -2647     -720     4541     7546     4646    -2054    -8680 
  -14696   -20587   -23723   -21587   -17636   -18431   -24214   -29644 
  -29594   -22459   -14835   -11628   -10663   -12976   -16733   -17084 
  -15822   -15581   -15307   -10881    -1763     5778     9265    12032 
   15492    17884    17080    11796     6064     6172     9263    10523 
   12135    13383    10611     4969    -1621    -7577   -13446   -22019 
  -28996   -31152   -32864   -37338   -45339   -51768   -50679   -44610 
  -37694   -29590   -18900    -9389    -4746     -715     5340     8135 
    6089     5065     6097     6253     8537    15615    22566    25910 
   29704    35313    38416    38283    34682    23616     8525    -2182 
   -8976   -14526   -19808   -26955   -34743   -42465   -49076   -52297 
  -52670   -48516   -39650   -29619   -18979    -7836     1223     6292 
    7781     6825     5725     7310    10311    11734    12424    14156 
   16248    16912    16190    17801    22661    25598    25859    26558 
   22351    10840      567    -7217   -13504   -15223   -15788   -16927 
  -19831   -26578   -34510   -42650   -46911   -45146   -43488   -44231 
  -45717   -48309   -53789   -59514   -59366   -52768   -46078   -43833 
  -40899   -32390   -22013   -14975   -11969    -9493    -5606     -843 
    4499     9101    10336     7882     4596     1601      -71     1424 
    4094     5528     4938     2326      805     1480     1509     1131 
    -364    -3819    -5482    -7570   -13193   -20434   -27619   -29243 
  -23413   -14395    -6189    -1663     2084     8178    14638    17914 
   16229    11518     5938     -486    -8939   -18270   -25602   -30033 
  -30707   -27151   -21965   -19908   -21861   -24012   -24746   -24444 
  -22520   -17583    -9109      -35     6741    13628    21806    25219 
   21740    18257    18874    20115    17787    11531     3103    -4546 
   -8465    -9514   -11323   -14897   -18171   -20821   -25016   -30645 
  -33431   -31396   -28845   -30280   -37011   -46471   -53021   -52921 
  -45409   -33409   -21269   -11654    -5452     -241     3632     3672 
    1595     -274    -1024    -3817   -11480   -18527   -18962   -14141 
   -7036     5656    23083    34535    39507    43814    43055    36124 
   26727    17049    10890     4826    -3542   -10122   -15923   -21180 
  -24868   -26438   -24560   -23294   -25895   -29300   -31974   -33948 
  -33042   -30997   -28470   -23610   -20495   -18972   -15032    -9811 
   -5174     -400     7948    17682    21478    19746    16440    11375 
    5296     1144        1     2729     9873    16679    18034    14389 
    7137      727       68     1945     2652      733    -2987    -6339 
  -11711   -16800   -18184   -18701   -18515   -16966   -16143   -18073 
  -21582   -23530   -21722   -15230    -7483    -2444    -1448    -5458 
  -12357   -18432   -23068   -27865   -31414   -28977   -21286   -14436 
   -9537    -4283      387     2501     1192    -3569   -11206   -19026 
  -22478   -21543   -19159   -15804   -11416    -6251    -1991     -778 
   -1509     -977     2322     6003     7528     7209     4996     1127 
   -2795    -7042   -11425   -15385   -20391   -23377   -21932   -20887 
  -21872   -22237   -21385   -21648   -23236   -21308   -15252    -8683 
   -2254     3684     6525     5084     2448     1733     3353     4797 
    2434    -2488    -5458    -3291     3474    10324    14813    15226 
   10504     6220     4108      279    -4282    -9711   -16085   -20781 
  -25084   -29118   -29398   -24744   -20073   -21263   -28166   -37291 
  -43411   -42951   -37289   -27959   -15407    -2161     8365    15051 
   18539    20871    22972    22272    17181     8029    -4988   -19886 
  -31124   -32744   -25898   -18630   -15623   -15183   -15843   -17390 
  -18189   -17752   -18504   -23182   -31572   -39873   -44504   -45743 
  -45512   -42388   -32859   -17589    -1998     9007    14655    16973 
   17568    17652    17219    13768     7350     1085    -5375   -11811 
  -13608   -11113    -8953    -6243     -130     6856     9559     7177 
    3087    -1399    -7121   -13911   -19951   -21169   -15313    -5644 
    1773     3642     2866     1371    -1877    -4677    -6056    -7048 
   -5930    -1975      969     -722    -4989    -6762    -3267     3692 
   10131    13656    13846    10949     5455      750     1040     5485 
    9316     8667     3132    -5767   -16389   -26396   -32736   -33949 
  -33539   -36049   -40181   -42746   -44486   -46437   -46202   -42449 
  -37152   -31486   -25893   -20960   -16902   -14114   -11271    -5837 
     963     3596       72    -6465   -13215   -16599   -14771   -11260 
   -9508    -8214    -5643    -4342    -3015     1260     4861     8460 
   12618    14423    17597    20301    17948    13540     7911     1111 
   -6548   -15857   -26574   -39015   -50523   -56567   -55995   -51046 
  -45265   -40238   -33045   -22779   -14941   -10616    -7145    -3866 
    2069    11911    24084    33162    32684    27596    25694    25204 
   23344    21215    17323     9297     4477     9705    12800     4955 
   -2461    -7477   -15635   -22115   -26981   -31733   -35349   -38090 
  -37925   -37586   -35463   -26828   -14257      -47    11524    17417 
   19608    20960    23110    26316    31839    34893    29820    21705 
   18183    18792    18215    15376     9104    -1009    -9425   -13144 
  -14095   -18650   -28975   -37681   -44149   -51926   -58013   -60234 
  -61596   -65834   -69745   -67554   -59194   -47347   -34713   -22975 
  -13857   -10270   -12272   -14307   -12758   -12598   -15682   -13444 
   -1285    12494    19603    22342    24282    24139    22593    23086 
   25166    23571    16899    10840     7091     -459   -11483   -15796 
  -11479    -6292    -2002      977    -1325    -8537   -17028   -21070 
  -19813   -20860   -25575   -30194   -33536   -35446   -37112   -37890 
  -35217   -25709    -8793     8062    16757    15244     5471    -7330 
  -16065   -19400   -22345   -25390   -23063   -15531   -10930   -10332 
   -7082    -1212     4671    10534    13513    10968     5346     1736 
    2214     4062     4002     2018     1776     5683     9350     7877 
    4132     2794     3021     3586     6579     8818     2760    -8945 
  -18235   -23353   -25631   -30107   -38595   -45040   -48641   -51071 
  -51355   -48890   -42560   -34086   -25267   -17097   -10952    -4827 
    2061     6588     6987     5335     3681     2227     1243      899 
    1845     3196     3339     4263     7473    10084     9224     6130 
    3117     1795     4310     8853     9420     3601    -5193   -11746 
  -15461   -21578   -30042   -35988   -40679   -45490   -47212   -43919 
  -37598   -32115   -28289   -24464   -20174   -16048   -11585    -6285 
   -2155    -1594    -4877    -7659    -6488    -5085    -5316    -4484 
   -2408     -895       70     2631     7431    11730    11977     9437 
    8397     7183     4170     3127     4338     6174     7619     7121 
    6555     4700     -799    -4630    -2810     3307     9250    10154 
    7562     5247     2725     -490    -1661     -548     -669    -3759 
   -8613   -13817   -19144   -23548   -26514   -28836   -30161   -31691 
  -34676   -34993   -28844   -20540   -15838   -14620   -14677   -13520 
   -9765    -6151    -5717    -8556   -13320   -18018   -21091   -21932 
  -20150   -16582   -13443   -12162   -12672   -15261   -20005   -23340 
  -21281   -15722   -11187    -8572    -6214    -4290    -4738    -6972 
   -7863    -5306     1287    10605    18490    20632    16117     7302 
   -1471    -5922    -7929   -13243   -20736   -26144   -29709   -31457 
  -30397   -27430   -24121   -22412   -23392   -25384   -25907   -24340 
  -20081   -11997    -3500     -380    -2625    -6114    -7669    -6324 
   -4569    -5621    -9042   -12183   -14570   -16233   -14550    -9526 
   -5220    -2243     1827     6021     7753     7932     8726     9262 
    8144     7406     8029     7258     4496      330    -5724   -12016 
  -15495   -13655    -8009    -3667    -3217    -5063    -5729    -4317 
   -2945    -2983    -4137    -5027    -5271    -5756    -6544    -7408 
   -8788   -10380   -10764    -9316    -7456    -8635   -14536   -21331 
  -23602   -20362   -16703   -17790   -20906   -21784   -21440   -18615 
  -10620     -800     5269     7311     8930     9256     6979     5917 
    7013     7115     4691     1557      405      807     1479     2762 
    3333      226    -5206    -7897    -8276   -11668   -16571   -17883 
  -17581   -16613   -14636   -15261   -16942   -18998   -22820   -24567 
  -24232   -24198   -24285   -25051   -27591   -31098   -33142   -34209 
  -34939   -32270   -24227   -13979    -5563     1123     6374     7643 
    3757      -94     1829     6432     8696     9680    10524     8752 
    4756     2860     2677      -35    -4446    -5906    -3358    -1927 
   -7588   -17932   -24854   -25382   -20637   -12765    -5256      383 
    3380     2783     -997    -6717   -12457   -17809   -23074   -28474 
  -35313   -42560   -45941   -43085   -36601   -28883   -19207    -8010 
    2134     8565    10633    10077     9765    10381     9236     6056 
    3460     1807       85    -1285    -2516    -4398    -5011    -3271 
   -2265    -5328   -12375   -19707   -24256   -25419   -22555   -18420 
  -17163   -17559   -18945   -22025   -25064   -27681   -29122   -28012 
  -24182   -18268   -12252    -6079     1900    11815    21456    27985 
   31037    29724    23284    15101     8478     3653      598    -1382 
   -4434    -8514   -11496   -12420   -11797   -10426    -9653   -10270 
   -8961    -5150    -4904    -9477   -15626   -21897   -26752   -30761 
  -34627   -36231   -35556   -33718   -29718   -23734   -16947    -9085 
   -1105     5386    10601    13903    14330    13647    13161    10812 
    5921     2161     1858     2718     2327     -287    -6093   -12931 
  -15581   -12695    -8353    -5551    -3480    -1296      508     1057 
    -855    -5479   -11395   -16551   -19392   -20159   -21116   -23579 
  -25069   -23458   -21416   -20939   -20351   -18586   -15610   -12174 
   -9250    -5698    -1572       44    -1885    -4801    -6085    -4965 
   -2397     -804    -2087    -5239    -7722    -8326    -7422    -6369 
   -7020    -9558   -11704   -11934   -11198   -10906   -12001   -14991 
  -19724   -25004   -28142   -27461   -24609   -21978   -20101   -17994 
  -14445    -9188    -2724     4078    10172    14796    16904    15696 
   11040     2550    -8429   -17826   -23091   -25596   -27351   -27664 
  -24754   -20402   -17911   -16575   -15799   -16189   -15917   -15527 
  -16444   -17797   -18916   -17932   -14499    -9540    -3307     2366 
    6952    10156    11460    11676    10731     9312     8232     6847 
    3904     -414    -3373    -3889    -2555     -591    -1426    -6745 
  -13855   -19603   -23220   -24586   -25088   -26370   -26021   -24324 
  -25817   -30199   -35035   -38773   -38315   -33151   -27037   -23437 
  -21112   -17108   -12672    -9589    -6640    -2361     2880     8541 
   15790    23130    27180    28425    28745    28260    25519    20001 
   13763     7727      756    -5231    -6743    -7076    -9520   -11816 
  -14828   -17932   -19932   -23241   -26217   -29428   -32647   -30704 
  -24749   -17589   -12000   -10015    -7804    -3882     1112     7437 
