Origin Time       2025/01/13 21:19:00
Lat.              31.8
Long.             131.6
Depth. (km)       30
Mag.              6.9
Station Code      MYZ009
Station Lat.      32.0461
Station Long.     130.8115
Station Height(m) 230
Record Time       2025/01/13 21:19:49
Sampling Freq(Hz) 100Hz
Duration Time(s)  188
Dir.              U-D
Scale Factor      7845(gal)/8223790
Max. Acc. (gal)   16.713
Last Correction   2025/01/13 21:19:49
Memo.             
[...]
   14635    14648    15094    15780    16357    16622    16663    16812 
   17311    18065    18836    19448    19735    19579    18998    18164 
   17312    16629    16213    16129    16348    16806    17509    18229 
   18435    17921    17092    16410    15934    15546    15329    15450 
   15855    16398    17089    17967    18850    19426    19565    19342 
   18906    18515    18397    18431    18200    17477    16471    15587 
   14914    14270    13729    13602    13937    14435    14828    15122 
   15435    15722    15843    15772    15635    15668    16025    16630 
   17248    17593    17516    17227    17103    17292    17564    17560 
   17128    16398    15641    15244    15464    16063    16538    16522 
   15912    15026    14447    14324    14185    13729    13348    13558 
   14284    15164    16043    16829    17370    17645    17770    17869 
   17948    17845    17452    16946    16648    16592    16528    16455 
   16686    17251    17683    17501    16781    16035    15552    15195 
   14894    14882    15307    15948    16509    16908    17034    16699 
   16109    15728    15676    15758    15861    15993    16067    16024 
   16065    16340    16629    16672    16537    16428    16402    16434 
   16600    16953    17285    17309    17000    16626    16444    16522 
   16827    17205    17400    17321    17091    16856    16735    16862 
   17361    18288    19460    20351    20341    19337    17940    16737 
   15811    15120    14824    14953    15237    15438    15499    15340 
   14847    14173    13755    13792    14056    14305    14575    14979 
   15504    15998    16252    16256    16228    16376    16864    17691 
   18488    18785    18544    18072    17455    16694    16209    16391 
   16934    17242    17105    16654    16011    15194    14227    13231 
   12447    12208    12816    14285    16128    17597    18295    18273 
   17683    16738    15831    15303    15180    15333    15743    16371 
   16931    17170    17250    17481    17960    18550    18937    18900 
   18504    18014    17768    18003    18550    18979    19130    19094 
   18897    18593    18353    18268    18276    18296    18337    18443 
   18611    18704    18636    18519    18407    18198    17949    17905 
   18245    18997    19930    20480    20217    19364    18447    17791 
   17562    17757    18013    17926    17541    17128    16692    16098 
   15489    15295    15877    17132    18376    18763    18049    16815 
   15792    15203    14963    15021    15217    15168    14675    13996 
   13446    13018    12664    12650    13266    14296    15207    15669 
   15587    14974    14065    13274    12874    12734    12671    12930 
   13734    14604    14854    14419    13734    13088    12549    12314 
   12614    13319    13975    14283    14400    14700    15157    15350 
   15188    15098    15264    15460    15704    16308    17253    18060 
   18373    18266    17907    17443    17226    17582    18316    18824 
   18751    18299    17906    17818    18053    18601    19379    20093 
   20405    20252    19832    19259    18615    18227    18377    18775 
   18902    18673    18296    17791    17169    16816    17134    17901 
   18544    18904    19206    19471    19543    19576    19917    20509 
   20837    20634    20279    20275    20537    20493    19766    18443 
   16807    15209    14067    13660    13891    14378    14851    15322 
   15801    16097    16214    16567    17417    18549    19539    19994 
   19707    18885    18041    17491    17120    16656    16016    15454 
   15376    15880    16637    17355    18144    19180    20116    20337 
   19772    18908    18053    17086    15979    15070    14620    14511 
   14557    14762    15159    15576    15647    15074    13963    12773 
   11936    11689    12060    12762    13300    13363    13015    12401 
   11546    10625    10130    10400    11199    11989    12475    12683 
   12668    12432    12058    11763    11827    12289    12781    13077 
   13462    14139    14793    15093    15155    15263    15344    15151 
   14854    14909    15365    15792    15927    15994    16245    16610 
   16865    16978    17147    17494    17941    18441    19063    19820 
   20695    21724    22796    23583    23859    23654    23091    22335 
   21652    21357    21560    21957    22046    21681    21061    20306 
   19329    18053    16595    15249    14342    14030    14129    14308 
   14472    14735    15148    15547    15603    15141    14436    14004 
   14122    14565    14882    14806    14320    13597    12957    12692 
   12903    13406    13819    13942    13903    13733    13261    12514 
   11834    11516    11515    11674    12106    12930    13842    14445 
   14717    14837    14796    14528    14172    13914    13757    13551 
   13224    12889    12645    12600    13144    14542    16379    17918 
   18732    18873    18746    18868    19430    20116    20478    20364 
   19874    19213    18740    18796    19315    19896    20379    21107 
   22381    23797    24344    23295    20983    18535    16900    16418 
   17123    18785    20791    22604    24169    25490    26154    25845 
   24906    23953    23355    23267    23662    24120    24125    23647 
   23068    22646    22337    22152    22346    23033    23885    24444 
   24487    24061    23391    22692    22015    21343    20803    20715 
   21294    22364    23349    23461    22142    19581    16623    14158 
   12753    12549    13151    13940    14598    14998    14993    14654 
   14245    13689    12623    11161     9921     9278     8926     8268 
    7304     6650     6507     6431     6193     6135     6588     7283 
    7744     7992     8245     8266     7685     6812     6392     6616 
    6979     7144     7375     8135     9437    10457    10146     8542 
    6759     5548     4777     4342     4729     6436     9240    12349 
   15149    17373    18781    19278    19395    19978    21105    22036 
   22288    22102    21863    21591    21026    20028    18779    17601 
   16762    16472    16703    17018    16843    16100    15412    15510 
   16468    17776    19155    20826    22774    24452    25347    25270 
   24262    22588    20906    20032    20171    20861    21764    22732 
   23284    22883    21778    20907    20648    20302    19344    18331 
   17986    18192    18385    18184    17410    16070    14586    13706 
   13776    14341    14804    15178    15682    16173    16433    16483 
   16478    16617    17082    17969    19087    19886    19951    19464 
   18839    18098    17064    15970    15391    15595    16197    16467 
   16033    15306    14959    15083    15187    15203    15900    17797 
   20294    22405    23801    24806    25582    25861    25489    24472 
   22801    20803    19205    18372    17818    16907    15792    14991 
   14455    13899    13478    13383    13437    13574    14023    14604 
   14427    12931    10959    10033    10582    11677    12322    12232 
   11624    10956    10671    10906    11468    11965    11996    11595 
   11356    11788    12710    13555    14071    14358    14365    13792 
   12604    11261    10222     9571     9228     9184     9417     9753 
    9960    10066    10400    11048    11620    11924    12463    13829 
   15904    18021    19642    20601    21003    21195    21463    21709 
   21682    21500    21608    22073    22261    21541    20108    18800 
   18301    18593    19145    19545    19724    19743    19816    20240 
   20857    21111    20788    20115    19534    19410    19545    19480 
   19086    18555    18254    18301    18257    17760    17213    17397 
   18563    20144    21343    21718    21281    20528    20255    20957 
   22474    24247    25747    26765    27310    27247    26370    24795 
   22840    20844    19244    18399    18171    18013    17505    16540 
   15109    13405    11882    10863    10260     9747     9261     9038 
    9094     9132     9032     9066     9439     9968    10431    10912 
   11515    11824    11253    10046     9046     8549     8208     7897 
    7867     8139     8395     8436     8307     8185     8403     9335 
   10960    12876    14862    17069    19521    21813    23465    24452 
   25146    25694    25859    25523    24904    24216    23425    22464 
   21532    21007    20845    20406    19237    17621    16216    15496 
   15545    16216    17404    18972    20646    22169    23337    23943 
   24050    24179    24927    26357    27893    28985    29554    29762 
   29902    30210    30396    29886    28579    26878    25110    23174 
   20853    18276    15734    13406    11529    10253     9348     8542 
    7838     7229     6573     5919     5614     5969     6847     7620 
    7717     7115     6361     6318     7558     9765    12001    13581 
   14436    14742    14613    14177    13674    13408    13552    14000 
   14503    14926    15257    15450    15628    16200    17236    18206 
   18775    19188    19642    20086    20621    21435    22400    23113 
   23484    23897    24399    24395    23639    22777    22469    22388 
   21660    20121    18412    17030    15997    15242    14721    14222 
   13296    11592     9433     7719     6875     6359     5733     5355 
    5547     6145     7121     8726    10872    12966    14523    15589 
   16463    17285    17961    18234    18013    17625    17394    17316 
   17381    17815    18873    20348    21629    22387    22716    22723 
   22374    21621    20592    19649    19002    18477    17749    16768 
   15855    15265    15010    15175    15885    17030    18404    19950 
   21525    22715    23214    23230    23147    23039    22804    22532 
   22459    22592    22758    22914    22970    22561    21546    20443 
   19963    20173    20412    20183    19569    18686    17400    15749 
   14315    13743    13803    13489    12241    10600     9375     8603 
    7825     6899     5844     4594     3458     3030     3326     3685 
    3616     3334     3343     3793     4417     5024     5718     6458 
    6897     6972     7191     8019     9263    10363    11024    11313 
   11357    11279    11200    11253    11627    12299    13015    13940 
   15604    18049    20865    23733    26362    28302    29138    28998 
   28517    28105    27753    27403    27075    26885    26889    26855 
   26711    26744    27086    27513    27812    28024    28271    28463 
   28275    27503    26281    24868    23368    21837    20434    19273 
   18164    16884    15638    14837    14644    14868    15118    15226 
   15419    15778    15939    15688    15373    15392    15615    15562 
   14994    14077    13100    12262    11616    11088    10673    10489 
   10532    10619    10613    10504    10365    10354    10611    11167 
   12021    13143    14440    15832    17181    18296    19059    19349 
   19117    18563    17842    16879    15795    15136    15225    15643 
   15711    15230    14482    13751    13207    13198    14017    15309 
   16438    17305    18225    19202    19797    19738    19307    18951 
   18651    18079    17346    16983    17131    17385    17506    17639 
   17713    17606    17675    18214    18943    19489    19997    20968 
   22446    23824    24572    24649    24283    23649    22715    21527 
   20434    19791    19522    19253    18794    18269    17782    17315 
   16868    16391    15747    14970    14304    14010    14168    14588 
   14953    15271    15815    16513    16910    16738    16129    15576 
   15695    16656    17972    18937    19240    19047    18596    18085 
   17693    17404    17244    17394    17815    18223    18432    18453 
   18347    18226    18254    18461    18740    19078    19435    19669 
   19751    19812    19885    19867    19699    19390    18935    18261 
   17286    16222    15472    14952    14180    13097    12202    11828 
   11646    11187    10581    10218    10058     9823     9583     9699 
   10309    11205    12193    13336    14685    16105    17504    18806 
   19761    20105    19818    19016    17834    16460    15086    13855 
   12951    12525    12420    12212    11603    10605     9495     8689 
    8424     8518     8557     8256     7678     7090     6556     5861 
    4914     3967     3312     2956     2762     2658     2659     2856 
    3357     4212     5427     6897     8352     9578    10554    11404 
   12290    13285    14354    15407    16322    16995    17443    17879 
   18720    20240    22088    23611    24548    25056    25420    25914 
   26611    27342    27881    28044    27822    27581    27766    28294 
   28582    28252    27587    27137    27126    27378    27626    27723 
   27607    27303    26950    26597    26106    25336    24318    23371 
   23002    23403    24166    24787    25208    25555    25682    25315 
   24364    22963    21385    19912    18738    17950    17563    17555 
   17869    18418    18954    19094    18744    18270    18034    18121 
   18436    18790    18970    18887    18625    18292    17869    17311 
   16740    16430    16545    16968    17450    17899    18307    18481 
   18229    17574    16592    15369    14118    13023    12100    11371 
   11011    11125    11473    11673    11696    11900    12487    13231 
   13868    14513    15407    16507    17577    18458    19113    19488 
   19514    19211    18696    18079    17456    16935    16538    16175 
   15724    15040    14034    12915    12048    11530    11223    11080 
   10984    10596     9651     8272     6847     5638     4553     3389 
    2254     1458      961      376     -387     -907     -891     -616 
    -417      -89      761     1999     3032     3663     4396     5607 
    7056     8461     9895    11394    12734    13875    15017    16143 
   17130    18114    19244    20359    21190    21699    22069    22424 
   22723    22890    22909    22866    22966    23377    24020    24629 
   25057    25365    25560    25550    25388    25290    25388    25604 
   25871    26288    26875    27430    27789    28031    28255    28377 
   28323    28229    28256    28324    28243    27977    27603    27130 
   26501    25714    24753    23473    21755    19757    17801    16071 
   14598    13420    12661    12363    12361    12372    12243    12075 
   11989    11904    11666    11331    11229    11630    12420    13239 
   13848    14195    14274    14100    13797    13606    13690    13956 
   14203    14378    14671    15249    15981    16563    16876    17076 
   17340    17632    17880    18183    18616    19078    19433    19715 
   20012    20295    20547    20756    20852    20787    20599    20360 
   20105    19843    19630    19514    19452    19356    19244    19175 
   19020    18594    17975    17433    17169    17103    16978    16744 
   16598    16642    16812    17108    17583    18184    18694    18877 
   18752    18565    18401    18122    17570    16781    15923    15001 
   13873    12533    11128     9864     8896     8189     7707     7533 
    7681     8077     8668     9428    10380    11534    12820    14210 
   15718    17186    18330    19035    19356    19386    19245    18949 
   18346    17401    16345    15407    14616    13861    13068    12285 
   11616    11141    10916    10897    10859    10659    10519    10706 
   11022    11020    10670    10307    10110    10008     9884     9736 
    9749    10107    10743    11431    12044    12559    12988    13483 
   14238    15205    16108    16802    17474    18351    19346    20220 
   20831    21112    21043    20750    20421    20104    19734    19414 
   19388    19689    20040    20171    20015    19618    19049    18362 
   17649    17039    16619    16414    16301    16110    15816    15471 
   15099    14723    14382    14148    14077    14224    14531    14823 
   15048    15380    15961    16704    17423    17994    18411    18752 
   19032    19163    19147    19090    19083    19137    19113    18900 
   18561    18198    17972    18084    18539    19078    19300    18954 
   18141    17095    15958    14845    13851    13073    12691    12758 
   13076    13417    13699    13913    14103    14403    14924    15650 
   16503    17420    18331    19164    19912    20692    21537    22257 
   22659    22800    22848    22856    22856    23004    23359    23808 
   24240    24509    24490    24270    23982    23724    23553    23460 
   23436    23340    22987    22500    22099    21762    21362    20826 
   20183    19626    19230    18779    18172    17554    17000    16463 
   15959    15650    15662    15873    16008    15970    15903    15877 
   15811    15709    15678    15680    15526    15156    14777    14607 
   14681    14940    15236    15357    15322    15300    15280    15141 
   14901    14692    14601    14666    14932    15419    16043    16578 
   16841    16922    17012    17073    16938    16617    16209    15720 
   15072    14216    13211    12168    11095     9942     8746     7553 
    6342     5142     4062     3144     2322     1593     1075      838 
     864     1266     2176     3461     4946     6571     8194     9783 
   11503    13370    15329    17394    19543    21735    23807    25548 
   26932    28053    28926    29434    29500    29334    29122    28821 
   28408    27766    26761    25575    24425    23352    22408    21577 
   20861    20341    19962    19531    18954    18387    18088    18104 
   18247    18357    18480    18742    19174    19645    19953    20061 
   20092    20079    19954    19651    19138    18504    17851    17073 
   16067    15009    14143    13545    13150    12834    12563    12430 
   12387    12182    11736    11222    10783    10450    10174     9931 
    9744     9559     9383     9414     9811    10521    11356    12216 
   13169    14176    15087    15905    16758    17717    18712    19623 
   20456    21270    21991    22473    22705    22873    23132    23365 
   23372    23221    23055    22854    22550    22099    21510    20868 
   20262    19805    19545    19332    19012    18576    18068    17533 
   17057    16681    16341    15913    15302    14585    13963    13551 
   13300    13069    12852    12793    12895    12980    12982    12993 
   13051    13109    13158    13188    13076    12734    12259    11731 
   11133    10470     9821     9408     9266     9166     9132     9402 
    9995    10766    11522    12190    12911    13682    14308    14790 
   15296    15896    16546    17111    17487    17784    18158    18650 
   19271    20004    20750    21357    21756    21951    21859    21432 
   20861    20413    20133    19828    19282    18455    17423    16186 
   14777    13416    12370    11705    11345    11250    11477    12016 
   12668    13232    13763    14494    15502    16633    17840    19160 
   20358    21099    21448    21744    22111    22358    22291    21952 
   21442    20740    19847    18806    17621    16325    15095    14192 
   13664    13404    13366    13558    13998    14652    15369    16023 
   16664    17416    18307    19252    20142    20862    21320    21485 
   21438    21292    21027    20530    19846    19148    18543    18046 
   17610    17234    16945    16640    16225    15732    15167    14472 
   13595    12630    11840    11407    11210    11092    11186    11699 
   12522    13365    14175    15052    15919    16656    17284    17929 
   18716    19570    20359    21105    21852    22573    23182    23599 
