Origin Time       2025/01/13 21:19:00
Lat.              31.8
Long.             131.6
Depth. (km)       30
Mag.              6.9
Station Code      MYZ012
Station Lat.      31.8723
Station Long.     131.0684
Station Height(m) 150
Record Time       2025/01/13 21:19:42
Sampling Freq(Hz) 100Hz
Duration Time(s)  97
Dir.              N-S
Scale Factor      7845(gal)/8223790
Max. Acc. (gal)   53.534
Last Correction   2025/01/13 21:19:42
Memo.             
[...]
    2567     2535     2528     2540     2525     2482     2458     2474 
    2504     2511     2497     2494     2501     2519     2531     2505 
    2471     2479     2512     2546     2593     2635     2613     2543 
    2485     2459     2455     2461     2454     2435     2435     2465 
    2490     2492     2496     2525     2550     2552     2552     2556 
    2558     2563     2579     2597     2601     2575     2502     2409 
    2350     2353     2405     2478     2547     2575     2521     2440 
    2431     2486     2538     2571     2592     2597     2585     2563 
    2535     2508     2517     2552     2559     2528     2474     2416 
    2382     2392     2442     2511     2559     2560     2512     2454 
    2439     2475     2536     2597     2636     2631     2587     2540 
    2506     2484     2462     2455     2481     2508     2486     2438 
    2421     2439     2469     2513     2543     2546     2552     2555 
    2546     2556     2577     2582     2567     2527     2486     2473 
    2469     2457     2434     2431     2461     2505     2546     2554 
    2516     2479     2497     2544     2558     2529     2506     2506 
    2501     2482     2482     2527     2563     2543     2511     2516 
    2531     2517     2479     2447     2459     2509     2547     2539 
    2509     2485     2457     2443     2484     2547     2585     2598 
    2582     2531     2473     2446     2462     2493     2496     2481 
    2501     2546     2550     2512     2475     2469     2502     2558 
    2574     2558     2567     2577     2520     2439     2409     2419 
    2454     2504     2531     2528     2516     2496     2473     2486 
    2531     2560     2581     2601     2596     2558     2500     2454 
    2451     2471     2470     2439     2428     2474     2525     2535 
    2528     2536     2552     2558     2551     2539     2517     2485 
    2459     2470     2515     2546     2554     2547     2517     2478 
    2459     2462     2479     2512     2543     2551     2529     2502 
    2474     2450     2463     2511     2544     2544     2540     2558 
    2560     2525     2489     2475     2479     2496     2517     2523 
    2512     2506     2512     2515     2512     2502     2484     2473 
    2492     2515     2513     2509     2517     2533     2543     2536 
    2519     2497     2477     2469     2484     2517     2547     2551 
    2527     2504     2512     2540     2543     2501     2451     2431 
    2446     2481     2513     2531     2543     2552     2546     2524 
    2513     2516     2517     2525     2551     2569     2546     2496 
    2448     2420     2424     2463     2509     2528     2515     2493 
    2484     2490     2517     2554     2577     2585     2587     2570 
    2533     2505     2504     2512     2511     2489     2444     2398 
    2393     2430     2478     2516     2539     2550     2550     2552 
    2558     2555     2542     2533     2535     2539     2542     2535 
    2511     2471     2434     2428     2455     2485     2498     2501 
    2496     2488     2492     2506     2523     2546     2577     2596 
    2582     2556     2543     2539     2546     2536     2498     2457 
    2434     2435     2444     2469     2520     2563     2569     2533 
    2465     2393     2351     2359     2423     2527     2663     2813 
    2916     2913     2774     2532     2303     2187     2174     2197 
    2238     2305     2392     2500     2628     2776     2906     2909 
    2766     2608     2524     2435     2238     1972     1796     1888 
    2268     2724     3068     3303     3380     3136     2600     2111 
    1995     2247     2521     2462     2192     2143     2347     2501 
    2525     2566     2673     2691     2508     2282     2331     2774 
    3341     3555     3262     2778     2398     2106     1815     1629 
    1687     1985     2430     2940     3424     3655     3349     2587 
    1884     1626     1718     1838     1867     2060     2671     3472 
    3958     3878     3407     2975     2797     2636     2307     2049 
    2110     2270     2089     1533     1101     1242     1769     2045 
    1795     1451     1552     2188     2914     3253     3373     3686 
    3970     3612     2658     2115     2945     4733     5903     5448 
    3823     1953      372     -361      253     1771     3052     3365 
    2798     1993     1397      893      353      -29      -32       62 
    -237     -479      457     2749     5420     7512     8602     8467 
    7103     4938     2617      715     -140      421     1722     2778 
    3350     3318     2465     1090      -28       49     1510     3071 
    3554     3242     2643     2150     2810     4849     6350     5143 
    1228    -3037    -4780    -3049      766     4803     7862     9208 
    8382     5422     1737     -178      511     1732     1210     -762 
   -1779      -14     3582     6573     7954     8206     7533     5589 
    2336    -1182    -3222    -2843     -757     1544     3287     4522 
    5304     5692     5718     5190     4417     3812     2718      483 
   -2212    -4040    -3866    -1210     2789     5672     6060     4417 
    1664     -735    -1111      600     3285     5863     7133     6542 
    4965     3424     2296     2124     3427     5468     6420     5359 
    3439     2226     1902     1664      630    -1453    -3685    -4930 
   -4592    -2450      865     3924     5377     4760     3195     2215 
    2089     2161     2081     2293     3199     4619     6220     7484 
    7655     6278     3585      387    -2083    -2691    -1524      125 
    1059     1032      832     1586     3461     5607     7381     8425 
    8139     6215     3133      330     -567      388     1524     1713 
    1514     2262     4337     6712     8166     8461     8017     6669 
    3797     -201    -3580    -4866    -3987    -1591     1163     2932 
    3808     4418     3915     1744     -785    -2215    -1980     -166 
    2257     4050     5163     6197     6883     6679     5942     5212 
    3835      637    -3609    -6193    -5503    -2354     1262     3649 
    4421     4087     3218     2582     2772     3599     4498     4885 
    4499     3923     3936     4170     3674     2691     2088     1752 
    1015     -172    -1078     -696     1428     4403     6600     7414 
    7364     6542     4671     2371      758      311      959     2180 
    2970     2725     1713      488     -436     -450      607     2039 
    3269     4311     5150     5671     5732     4869     2978     1404 
    1846     3909     5324     4654     2257     -870    -3673    -5161 
   -4774    -2621      268     2474     3271     3080     3443     5773 
    9363    11846    11677     9101     5266     1494    -1080    -2070 
   -1698     -448      504      207     -737    -1144     -553      838 
    2388     3283     3357     3078     2700     2371     2427     3191 
    4723     6556     7805     7811     6781     5159     3130     1486 
    1108     1865     2832     2693      922    -1374    -2473    -1048 
    2722     6748     9069     9090     7149     4695     3226     2781 
    2739     2771     2390      942    -1366    -3416    -4228    -3342 
   -1321       21     -249     -724       -4     1183     1652     1899 
    3234     5445     6809     6389     5024     4213     4186     3576 
    1896      357     -491    -1115    -1314     -557     1054     3304 
    5902     8118     9445     9823     8787     5624     1194    -2007 
   -2533    -1089      772     1863     2015     1733     1522     2081 
    4131     7075     8711     7261     3547      484      183     2023 
    3896     4465     3815     2411      236    -2385    -3921    -3361 
   -1979    -1310     -957      130     2408     5672     8537     9186 
    7407     4788     2478      410     -888     -394     1776     4698 
    7470     9576    10651     9688     5854       90    -5030    -7018 
   -5271    -1310     2694     5780     8154     9354     8495     5845 
    2349    -1124    -4040    -6289    -7146    -5427    -1136     4260 
    8712    10547     9532     6705     3157     -187    -2278    -2878 
   -2748    -1896      359     3676     6778     8383     8024     6313 
    3947     1363     -850    -2111    -1858      384     4239     8359 
   11524    13073    12707    10511     6890     2519    -1733    -4801 
   -5676    -4517    -2531     -313     2065     4116     4996     3672 
     137    -3526    -5076    -4110    -1741      545     2342     4419 
    6814     8186     7456     5246     2924      506    -2632    -5437 
   -6000    -3812      257     4438     6964     8147     9601    11160 
   11018     8668     5648     3528     2498     1933     1255      -41 
   -2046    -3890    -4365    -2920     -157     2585     4461     5509 
    6079     6336     6239     6043     6153     6340     5935     4807 
    3685     3229     3449     4024     4077     2720      662     -487 
    -240      800     1730     1854     1483     1158      414    -1038 
   -1763      -75     3026     4500     3210     1127      490     1653 
    3468     4926     6561     9015    11052    11128     8991     4711 
   -1154    -6871   -10917   -12318   -10054    -4725     1347     6843 
   11146    12907    11589     8109     3258    -2662    -8590   -12225 
  -11736    -7318     -688     5927    10268    11452    11072    10952 
   10972    10081     7730     4511     1806      615     1258     3543 
    6678     8700     7067     1896    -3253    -5760    -6214    -5751 
   -4757    -3527    -1486     1813     5271     7927     9115     8114 
    5344     1726    -1861    -4060    -3871    -1837      257     1220 
    1715     2901     4695     6440     7877     8676     8486     7592 
    6650     6343     6802     6897     5946     4510     2569       83 
   -2363    -5076    -8314   -10816   -11168    -8881    -4399      504 
    3719     4893     5387     6238     6955     6673     5657     4735 
    4233     3928     3418     2708     2316     2272     1634      -40 
   -1544    -1123     1516     4761     7022     8264     8969     8861 
    7630     5991     5097     5057     4761     3723     3015     3477 
    4573     5467     5833     5786     5520     4723     2736     -321 
   -3356    -5655    -7137    -7408    -6095    -3429      129     3835 
    6561     7776     7977     7642     6914     6065     5077     3663 
    1937      248     -955    -1086     -118     1116     1570      741 
    -552     -621     1140     3342     4352     4305     4432     5289 
    6462     7099     6779     5733     4086     2176      658     -270 
    -519      -91      530     1111     1810     2512     3045     3507 
    3858     3967     4267     5788     8892    12051    13009    11142 
    7869     4957     2578     -313    -3325    -4338    -2508      388 
    2322     3084     3285     2992     1599    -1795    -6615    -9749 
   -8800    -5443    -2755     -403     4033    10546    16289    18478 
   17190    14729    11449     5478    -2793   -10049   -13819   -14739 
  -15283   -16525   -16776   -14359   -10520    -7935    -7507    -8280 
   -9074    -9602   -10804   -12407   -12050    -9564    -7516    -6384 
   -3956      994     6334     8224     5903     2524      765      734 
    1142      442    -1418    -2532    -1987     -834      506     2550 
    4982     6547     6243     4989     5224     8060    12406    16441 
   18955    20187    21261    22306    22130    20178    17288    14261 
   11138     7738     4469     2677     3473     6300     9296    11221 
   12415    13429    13610    11799     8014     4106     2300     3341 
    6739    11921    18544    25825    31864    34965    35343    34271 
   32383    29388    24811    19130    13838     9871     6554     2727 
   -1991    -7704   -14423   -21591   -29188   -37191   -43526   -45982 
  -44401   -39872   -33590   -25911   -16792    -7200     1428     8456 
   13863    18111    21625    23556    23140    21405    19966    19716 
   20433    21215    21697    21610    20004    16434    11095     4459 
   -2042    -6940   -10239   -13409   -17915   -23409   -28051   -30269 
  -29019   -24021   -17416   -12353   -10399   -12243   -16987   -21411 
  -22944   -21548   -18621   -14736    -8739      654    12725    24869 
   34543    40576    43306    43148    39895    34038    27051    20193 
   13810     8133     4050     2281     2214     2146      441    -3538 
   -9092   -15064   -20468   -23873   -23886   -20603   -15221    -8966 
   -3146     1448     5499     9421    12494    14454    14049     9250 
     981    -7731   -14472   -17705   -17347   -14569   -10075    -4522 
     477     3642     4914     5297     5675     5967     5876     5263 
    4473     4349     5622     8641    12864    17180    20833    23575 
   25301    25126    22238    17324    11723     6835     3692     2243 
    1479      101    -2091    -4191    -5746    -6644    -6713    -6323 
   -6108    -6219    -6501    -6978    -7510    -7611    -7125    -6654 
   -6817    -7226    -7603    -8370    -8872    -7900    -5243    -1277 
    2971     6232     7727     6763     3674      -78    -3554    -6207 
   -7260    -6292    -3238     2139     9590    17901    25857    32962 
   39399    45227    49227    49754    46639    41544    36401    31275 
   25963    22338    21405    22063    23118    22828    20517    17216 
   12681     7114     1540    -4549   -10760   -16086   -20957   -25377 
  -28804   -31477   -33995   -36738   -39920   -43629   -47891   -51925 
  -53608   -51811   -47196   -40092   -31527   -23760   -16947    -9398 
    -803     7668    14931    20189    23017    24244    24268    21907 
   17709    13036     7410      905    -5841   -12305   -16741   -18138 
  -17578   -15824   -12483    -7661    -1764     5225    13238    22273 
   31841    40969    49145    54723    55992    54162    50369    44437 
   37828    32190    27943    25185    23183    21435    21034    22829 
   26005    29326    31789    32514    30923    26774    20830    14459 
    8557     3295    -2484    -9826   -17658   -24437   -29255   -31637 
  -32769   -33882   -34300   -33663   -33075   -33087   -32552   -30802 
  -28405   -25655   -22734   -19195   -15168   -12212   -10581   -10184 
  -11389   -13103   -14800   -17432   -20873   -24285   -26335   -25083 
  -20949   -15661    -9389    -3179     1421     5154     8294     9481 
    9482    10359    11614    11963    12183    13535    16038    19207 
   22604    25324    27168    29308    31549    32158    30747    28271 
   25760    23251    19812    16036    13566    12252    11133     9551 
    6759     2663    -3175   -12069   -23220   -33388   -40605   -44707 
  -45663   -44281   -40663   -34044   -26245   -19306   -12880    -6679 
    -990     3844     7755    11654    16587    22558    28750    34740 
   40771    46970    52516    55984    56683    54426    49497    43514 
   37941    32745    27348    21575    15928    10947     6532     2126 
   -2982    -9294   -16915   -25308   -33512   -40963   -46641   -48890 
  -47371   -43154   -36841   -28352   -18091    -7268     1953     7774 
   10941    13491    16819    21119    24987    27414    28902    29513 
   29000    27824    26470    25226    23733    21076    17536    14624 
   13555    14089    14663    14268    13514    13464    13821    13541 
   11971     8873     5360     2150    -1968    -7236   -12152   -16039 
  -19434   -22557   -25344   -27529   -28148   -26701   -23868   -20645 
  -17775   -15448   -12661    -8696    -4180      985     6822    11477 
   13281    12025     8433     4197      685    -2697    -6741   -10612 
  -12970   -13082   -11159    -8604    -7338    -8235   -10945   -14594 
  -17732   -19346   -19418   -17672   -13556    -7457     -510     6833 
   14597    21363    24259    21988    16236     9741     4622     2184 
    3406     8553    16688    26188    35035    41813    46462    49229 
   50040    48636    44578    38406    32351    28200    25936    24953 
   24845    25081    23970    19097     9786    -2216   -14169   -23656 
  -29103   -29994   -26885   -20865   -13360    -6535    -2893    -3622 
   -8453   -16395   -25254   -33374   -40917   -47251   -50053   -47717 
  -41119   -33019   -25589   -19276   -14511   -11838   -10636   -10164 
   -9637    -7547    -2902     4055    12352    21365    30581    38684 
   44494    47020    45912    42240    37006    31237    25963    21195 
   17227    15226    15823    17932    19340    18839    17012    15030 
   13157    10339     6162     2285       93    -1178    -2930    -5456 
   -7759    -8856    -9377   -10855   -13166   -14840   -15616   -15736 
  -14832   -13413   -12600   -12772   -13815   -15174   -16537   -18210 
  -19329   -18439   -15815   -12677    -9807    -7886    -7020    -6392 
   -5528    -4124    -1518     2034     5572     9065    12946    16798 
   19692    21562    23481    26329    29859    32886    33924    32302 
   29006    25566    22310    18796    14638     9877     5232     1182 
   -1979    -3524    -3019     -707     2303     4565     5760     6188 
    6319     6794     7184     7207     8137    10141    11466    11620 
   11168     9578     6336     1563    -4371   -10519   -15947   -19849 
  -21493   -20997   -19029   -15955   -11419    -5456      -13     2666 
    2187     -604    -4611    -8989   -12950   -15137   -14800   -12611 
   -9352    -5281    -1142     2062     4079     4194     1177    -4743 
  -11873   -17917   -20414   -17560    -9705      348     9416    15622 
   19240    21647    22288    19753    14447     7890     2257     -568 
    -418     2164     6362    10612    13490    14341    12564     8122 
    2979     -418    -2101    -3719    -5144    -4765    -2111     2524 
    8787    15144    19645    21649    21070    17918    13392     8768 
    4437      857    -1771    -3055    -2039      901     4147     6465 
    7217     6756     6710     8222    10353    11238     9823     5948 
     454    -4382    -6640    -6420    -4545    -2131     -723     -789 
   -1746    -2695    -2662    -1737    -1359    -2690    -4720    -4689 
    -851     5890    13005    18769    22893    25070    24656    21456 
   16009     9369     3105     -922    -2312    -2691    -3315    -3569 
   -2412     -471      491     -133    -1552    -2619    -2728    -2388 
   -2246    -2039    -1061      603     1493       52    -3654    -7761 
  -10065   -10169    -9305    -7885    -5277    -2218     -498     -245 
    -118     1158     3802     6266     7133     6767     5876     5098 
    5436     6640     7410     7001     4819      789    -4014    -8191 
  -11097   -12955   -13382   -11727    -8756    -5595    -2593      168 
    2756     4953     5814     4693     2101     -490    -1100     1165 
    5189     9479    13082    15422    16671    16949    16254    15870 
   17325    20000    21872    22153    21726    21568    21293    19211 
   14119     6529    -1826    -9589   -16629   -22268   -23934   -19974 
  -12104    -3616     3090     7726    10948    11932     9309     2971 
   -6043   -15381   -22337   -25798   -26098   -23357   -17120    -7680 
    3669    15327    25095    31299    34075    33477    28636    20329 
   12345     8511     9073    11774    14841    17184    18152    17670 
   15275    10773     5090    -1282    -7935   -13370   -16325   -15903 
  -11496    -4349     3105     9151    12777    13518    11496     6691 
