Origin Time       2025/01/13 21:19:00
Lat.              31.8
Long.             131.6
Depth. (km)       30
Mag.              6.9
Station Code      MYZ003
Station Lat.      32.5659
Station Long.     131.6602
Station Height(m) 6
Record Time       2025/01/13 21:19:47
Sampling Freq(Hz) 100Hz
Duration Time(s)  120
Dir.              U-D
Scale Factor      7845(gal)/8223790
Max. Acc. (gal)   35.351
Last Correction   2025/01/13 21:19:47
Memo.             
[...]
    5641     5725     5776     5767     5703     5598     5449     5281 
    5155     5098     5039     4924     4806     4760     4815     4962 
    5170     5381     5540     5611     5613     5601     5620     5622 
    5525     5312     5071     4926     4919     4977     5017     5036 
    5070     5119     5192     5332     5520     5630     5586     5459 
    5363     5308     5260     5240     5274     5321     5321     5285 
    5246     5229     5292     5410     5485     5495     5472     5429 
    5416     5432     5414     5312     5101     4824     4545     4266 
    4031     3955     4051     4228     4468     4777     5039     5197 
    5355     5575     5795     5914     5868     5660     5351     5089 
    5043     5177     5273     5248     5196     5181     5209     5310 
    5509     5713     5728     5475     5112     4860     4766     4726 
    4590     4279     3915     3746     3874     4251     4726     5090 
    5377     5757     6181     6542     6790     6875     6901     7024 
    7171     7182     7045     6890     6795     6627     6147     5460 
    5005     4941     5012     5004     4951     4988     5171     5441 
    5651     5733     5756     5711     5584     5413     5093     4700 
    4576     4722     4797     4623     4406     4496     4731     4576 
    4062     3829     4261     4984     5254     4922     4571     4634 
    5093     5806     6396     6484     6201     5805     5389     5119 
    5008     5051     5427     5999     6444     6655     6593     6367 
    6234     6245     6166     5795     5348     5301     5678     5968 
    5697     4897     4251     4419     5158     5776     5977     5629 
    4888     4444     4565     4808     4842     4654     4612     5198 
    6057     6457     6361     6137     5962     5701     5090     4104 
    2953     2158     2286     3098     3784     4000     4009     4240 
    4815     5432     5929     6432     6822     6867     6507     5620 
    4418     3829     4288     5054     5536     5898     6156     6134 
    5988     5921     5875     5655     5202     4843     4815     4810 
    4711     4942     5487     5737     5431     4777     4297     4664 
    5757     6648     6913     6831     6755     6889     7067     6922 
    6586     6381     5958     4727     2728      562     -880     -850 
     561     2481     3994     4666     4850     5421     6538     7194 
    6737     5805     5193     5184     5906     7014     7816     8176 
    8170     7600     6629     5891     5607     5233     4757     5206 
    6650     7551     7087     6345     6358     6200     4926     3937 
    4545     5216     4264     2998     3225     3973     3769     3748 
    5571     8314     9726     9360     8587     8083     7416     6791 
    6976     7403     6448     4255     3076     3985     5247     4749 
    2527      288     -344     1252     4352     7210     8432     7823 
    6160     4633     4114     4585     5316     5692     5838     6083 
    6292     6216     5871     5374     4789     4116     3655     3905 
    4563     4850     4958     5201     4828     3651     2655     2324 
    2610     3561     4633     5057     4905     4864     5652     7234 
    8762     9990    10709     9880     7932     6887     7140     7414 
    7079     6305     5193     3731     2110      922      660     1058 
    1696     2362     2492     2174     2829     4657     5850     5898 
    6162     6829     6528     4899     3524     3809     5518     7998 
   10674    12091    11056     8946     8351     9414     9794     7921 
    4895     2732     1630      560     -414     -423      626     2328 
    4445     6273     6859     6369     6006     6443     6943     6424 
    4945     3426     2478     2077     2443     4432     7678     9991 
   10442    10604    11728    12846    11942     8428     4029      915 
    -236     -238      -63      369     1483     2918     4298     5663 
    6666     7007     7299     8235     9300     9351     8464     7582 
    6512     4658     2616     1441     1602     2313     2247     1614 
    1690     3046     5443     7573     7962     7295     7306     7697 
    7191     5988     4720     3416     2398     2002     2281     3744 
    6740    10291    12668    12769    10573     7253     4935     4646 
    5017     4550     3248     1647      649      985     1922     2840 
    4355     5980     6070     4708     4051     5552     8071     9433 
    8644     6197     3676     2646     3526     5757     7939     8487 
    7442     6045     4833     3989     4095     5221     6492     6708 
    5331     3283     2228     2836     4361     5753     6493     6678 
    6592     6054     4862     3858     3993     4614     4222     2650 
    1395     1933     4325     7473     9948    10373     8415     5961 
    5379     6643     7959     8101     7161     5958     4734     3090 
    1642     1780     3265     4148     3595     2916     3321     4415 
    5381     6330     7280     7015     5305     4058     4371     5428 
    6296     6617     6612     6288     4972     3233     2992     4703 
    6970     8529     9157     9070     8205     6839     5941     5811 
    5640     4607     2727      982      264      464     1456     3484 
    5973     7967     9302     9813     9227     8102     7034     6176 
    5517     4734     3910     3358     2891     3002     4329     5952 
    6778     6855     6528     6106     6007     6516     7550     8336 
    7857     6805     7141     8314     7618     4708     1713       22 
    -487     -531     -168     1663     4860     6814     6307     5687 
    6250     6408     5706     5206     5003     4799     4865     5652 
    7196     8465     8638     8556     8738     8147     6448     4729 
    3690     3408     4040     5022     5576     6540     8679    10265 
    9432     7011     4730     2627     -136    -3457    -6058    -6604 
   -4870    -1298     3703     8804    12024    13009    13020    12858 
   12637    12413    11839    10314     7730     4496     1236     -969 
   -1196     -286      309      772     1718     3059     4584     5852 
    6507     6628     6556     6786     7369     7855     7523     5668 
    2690     -118    -1799    -1903     -333     2982     7593    11874 
   14774    16622    17437    16738    14269    10273     5911     2182 
   -1020    -3434    -4347    -4649    -5664    -6374    -5162    -2351 
    1196     4981     8553    12074    15060    15843    13967    10488 
    6531     2778     -990    -4396    -5004    -1651     3211     6998 
    9085     9548     9512    10683    12816    14071    13562    11878 
    9787     6978     2948     -726    -1819     -820      446     1429 
    2126     2511     2971     4136     6497     9381    11105    11408 
   11641    12190    11882     9825     6754     4179     2386      419 
   -1958    -3451    -2263     1946     6957    10150    11260    11124 
    9961     8679     8433     8349     6916     4324     1683       39 
    -106      522     1293     2683     4407     5066     4548     4290 
    5324     7375     8995     8446     5979     4164     4531     6034 
    7294     7819     7489     6280     4473     2798     1640      820 
     618     1345     2276     2930     4398     7674    11538    13514 
   12607    10165     7821     5508     3225     2239     2340     1734 
    -276    -2795    -3904    -2218     1625     5890     8891     9979 
   10135    10247     9913     8756     7356     6177     4627     2432 
     685      133      310      788     1412     1861     2293     3627 
    6300     9360    11435    11942    11145     9575     7499     5304 
    3801     3111     2481     1510      205     -754      170     3611 
    8769    13555    15029    12945    10184     8637     8459     8830 
    8208     6427     4783     3840     2824     1075     -291       67 
    1621     3181     4340     5987     9174    12514    13828    12997 
   10470     6790     3604     1800      576     -495     -622      901 
    3869     7372    10512    12723    13124    11392     9178     7867 
    6752     5035     2799      159    -2542    -4338    -3828     -487 
    3902     7072     8764     9553     9008     6894     4533     2879 
    1382      380     1061     2748     3981     4707     5387     6195 
    6790     6527     6439     8214    10486    10754     9356     7855 
    6690     5748     4942     4195     3123     1486      552     2095 
    5436     7890     8594     9023     9772     9855     8779     7149 
    6097     6223     6327     5047     2650      -44    -1638     -707 
    1742     3667     4561     4932     5539     6474     6531     4873 
    2227      157     -130     1108     2847     4608     5699     5386 
    4896     5954     7689     8370     9032    11753    15240    16360 
   14701    11785     8360     4839     2438     2355     3253     2074 
    -908    -2631    -2371    -1185      513     1962     2266     1827 
    1992     3337     4816     5724     6820     7591     6508     4915 
    4935     5771     6509     8306    12194    16430    17620    16680 
   17664    19148    16823    11425     6019     1502    -2538    -6016 
   -7815    -7172    -4831    -2509    -1436    -1190     -904      183 
    3481     8461    11524    10944     8730     6165     2992      496 
     -10     1085     3855     7538     9020     7342     5151     4513 
    5926     9054    11965    13014    13038    13794    15333    15654 
   12838     6921      -31    -5771    -9668   -10797    -7696    -2309 
    1898     4671     7096     9327    11449    13336    14847    15894 
   14844    10166     3866    -1217    -4753    -6698    -6910    -6043 
   -3798     -228     3041     6076     9628    11892    12006    11730 
   11786    12085    12448    11477     9031     6909     5598     4024 
    1652     -670    -1212      881     4750     8849    11800    12891 
   12067     9383     5325      864    -3522    -7175    -7749    -4039 
     716     3713     6220     8468     8862     7993     7238     6921 
    7290     8496     9853     9720     7057     3181      973     2052 
    5138     8521    12029    14127    11974     6673     2930     2614 
    3156     2459     1641     2232     3929     5462     5529     4005 
    1367    -2910    -7168    -6907    -1173     6812    14343    19492 
   20677    17670    11349     4202      -98     -861    -1610    -4133 
   -6295    -7233    -7136    -4399      994     6963    11576    12279 
    9219     6693     5914     3786     -876    -6349    -9717    -9169 
   -6092    -1251     5950    12904    17167    19656    20129    17174 
   11388     5845     4419     6880     8579     6891     3364      697 
    -419    -1680    -3466    -4306    -4803    -6501    -7959    -6841 
   -3246     1213     5224     8915    12322    13009    10481     9190 
   11148    12533    10417     5952     1343    -1655    -1966     -330 
    2160     5842     9636    10995    10389    10597    13188    17491 
   20263    19365    17251    15896    13801    11236    10989    12707 
   12496     9387     6870     6597     7142     7584     6984     5497 
    4947     3902      -49    -4467    -6550    -6941    -6471    -5339 
   -3820    -2396    -2196    -2222      823     6478    10485    10957 
    9544     8668     9067     9270     8129     6353     5115     5020 
    5865     6230     5304     5456     9047    13992    17285    18513 
   17585    15071    12893    11199     9209     7406     5297     1769 
   -2053    -4163    -3971    -1534     2870     7832    11924    14581 
   14575    10871     5281     1000    -1274    -3144    -5039    -6169 
   -6484    -6219    -5367    -3620     -220     4456     8330     9513 
    7295     2376    -2721    -5562    -6488    -7177    -7609    -6771 
   -4661    -1834     1366     5031     9998    16044    21415    26073 
   30948    34885    36691    36007    32092    26175    20714    15835 
   10878     5721      -93    -5881   -10257   -12806   -12997   -10739 
   -7499    -4637    -2960    -3488    -6461   -10357   -13504   -16325 
  -19831   -23022   -24106   -22624   -19296   -14960    -9590    -2305 
    6886    15823    22264    26673    30844    34920    37667    37998 
   35756    32321    29392    27318    25843    24915    24337    23819 
   23035    21298    17620    11921     5617      -55    -4342    -6291 
   -6728    -7771    -9355   -10523   -11870   -13717   -15634   -17886 
  -20070   -20869   -20790   -21161   -20784   -18007   -13316    -7183 
    -534     4383     8021    12258    16101    18839    21921    25585 
   28467    29242    27596    25143    23793    23041    20821    16553 
   11584     7068     3667     2443     3870     7357    11979    16416 
   19668    22208    24291    24729    23557    22369    20606    16244 
    9657     2690    -3966    -9749   -13161   -13451   -11362    -8085 
   -5413    -4206    -2172     2648     8345    12023    12684    10735 
    7550     3950    -1259    -8332   -14840   -19449   -23251   -25928 
  -25147   -20305   -13155    -5643      974     6828    12827    18472 
   22419    24290    24050    22094    19741    17115    13201     9175 
    7557     8341     9810    11724    14563    17694    20109    21087 
   20511    18956    16275    12289     8371     5004      923    -3861 
   -8484   -12888   -16266   -17464   -17072   -16143   -14739   -12753 
   -9968    -6478    -3607    -2243    -1814    -1615    -1667    -2386 
   -2955    -1399     2540     7395    12472    18235    24760    30618 
   34481    37201    40097    42357    41975    38404    32830    26829 
   21945    18594    15037     9702     3985       78    -2377    -4252 
   -5193    -5864    -6978    -7881    -9247   -12063   -14625   -15419 
  -15151   -14386   -13381   -12386   -10702    -8189    -5228    -1209 
    3064     5165     4942     4509     5158     6381     7407     8695 
   11307    15255    18480    18462    15831    13792    13495    13915 
   14810    15930    16312    16156    16182    15738    14450    13228 
   11963    10138     8851     8348     6578     2875     -816    -3580 
   -6147    -8106    -8962    -9923   -11426   -12371   -12221   -11288 
  -10740   -11634   -12895   -12267    -8490    -2856     1644     4445 
    7449    11483    16035    19803    21631    22252    22405    21108 
   17949    14049    10563     8124     7317     8498    11079    14107 
   17069    19448    21039    22135    22215    19839    14416     7510 
    1212    -4355    -9757   -14404   -17545   -18808   -18422   -17813 
  -17872   -17640   -15944   -12596    -8374    -4866    -3048    -1885 
     425     4360     9158    14395    20237    26065    30017    30342 
   26844    21359    16455    12856     9499     6246     4233     4291 
    6718    11225    16271    19886    21554    21949    21139    19057 
   16001    11605     6004      754    -3024    -5829    -8694   -11254 
  -12239   -11691   -10350    -8201    -5085    -1162     2640     4827 
    5144     4494     3734     3697     4568     5703     6180     4918 
    2266      195     -824    -2015    -2937    -1510     2381     6833 
   11064    15130    18601    21548    23876    24420    22624    18769 
   13150     7263     3424     1763      340    -1528    -2902    -2821 
    -961     1278     2006     1702     1437      854       75     -433 
    -897    -1144    -1328    -2340    -3532    -3566    -2623     -876 
    2004     4957     6435     6610     7094     9035    11704    13698 
   14983    15919    16004    15147    13819    11916     9485     7240 
    5329     3634     2685     2579     2596     2581     2664     2354 
    1927     2528     4260     6831    10037    12356    12584    11578 
   10115     8077     5755     3705     2543     2629     2988     2396 
    1375     1035     1094     1150     2085     4271     6473     7777 
    8394     8537     8276     7839     6974     5398     3750     2560 
    1541      676      220     -102     -440     -203     1032     3065 
    5366     7157     8036     8337     8252     7456     5520     2427 
   -1086    -4081    -6156    -7403    -8284    -9332   -10273   -10099 
   -8175    -4868    -1339     1732     4830     8193    11119    12877 
   13419    13724    14693    15696    15830    15418    14794    13527 
   11492     9228     7223     5786     5506     6458     7227     7002 
    6925     7904    10100    13408    16012    16187    14736    12177 
    8156     3829     -156    -4753    -9710   -13791   -16746   -18604 
  -18843   -17030   -12996    -7140     -957     4482     9679    14489 
   17059    17050    16854    18175    20499    22434    22333    19930 
   16781    13886    11886    11963    13451    14000    12950    11391 
    9907     8490     7379     6488     5205     3295      823    -2093 
   -4999    -7300    -8473    -8217    -6798    -5076    -3915    -3312 
   -2523    -1061      935     3144     5024     5675     4752     2891 
     623    -1625    -2898    -3042    -3088    -3238    -2552     -426 
    3164     8402    15371    22640    27828    30180    30431    29367 
   28464    28938    29906    30118    29290    27051    23537    20040 
   17344    14798    11821     8723     5366     1188    -3647    -8922 
  -14553   -19998   -24732   -28140   -29578   -29523   -28761   -26808 
  -22609   -15684    -6705     1965     7751    10147    10315     9570 
    9140     9745    11128    12884    15064    17855    20993    23573 
   25056    25720    26071    26883    28274    28669    26775    23458 
   20181    17101    14034    11381     8966     6029     2120    -2735 
   -7580   -11304   -14384   -17732   -20595   -21840   -21558   -20243 
  -18582   -17397   -16690   -15836   -14262   -12048    -9456    -5714 
    -792     3522     6423     8820    11587    14922    18439    21745 
   24819    27680    30029    31101    30663    29801    29463    29243 
   28343    26838    25598    25124    24397    22096    18744    15018 
    9980     3612    -2467    -7217   -10284   -11762   -12355   -12469 
  -12205   -11826   -11234    -9964    -8240    -6799    -5136    -1900 
    2596     6170     6953     5063     2369      649       58      -98 
     441     2701     6778    11593    16119    19664    21853    23390 
   25087    26152    25452    23589    21643    18979    14802     9884 
    5057      853    -1842    -2903    -3067    -2917    -3231    -4993 
   -7801    -9910   -10881   -11701   -12117   -11445   -10606   -10652 
  -11776   -13933   -15928   -15811   -13274    -9352    -4525      832 
    5865    10152    13483    15464    16502    17500    18438    18635 
   18002    17199    16744    16690    16912    17388    18172    19010 
   19556    19835    19900    19283    16811    11940     5848     -444 
   -6878   -13032   -18411   -22576   -24757   -24769   -22978   -19461 
  -14199    -7665     -649     6454    13163    18145    20868    22596 
   24096    25097    25637    25825    25706    25482    25212    24745 
   24223    24393    25299    25978    26266    26287    24980    21616 
   17004    12046     6940     1867    -2978    -7506   -11746   -16047 
  -20264   -23184   -24063   -23144   -20603   -17223   -14166   -11611 
   -9856    -9131    -7896    -4567      178     4610     8086    10612 
   11507    10534     8912     7315     5146     2500      166    -1522 
   -2596    -3379    -3928    -3454    -1571      919     3422     6266 
