Origin Time       2025/01/13 21:19:00
Lat.              31.8
Long.             131.6
Depth. (km)       30
Mag.              6.9
Station Code      MYZ010
Station Lat.      31.9968
Station Long.     130.9722
Station Height(m) 203
Record Time       2025/01/13 21:19:43
Sampling Freq(Hz) 100Hz
Duration Time(s)  139
Dir.              N-S
Scale Factor      7845(gal)/8223790
Max. Acc. (gal)   13.146
Last Correction   2025/01/13 21:19:42
Memo.             
[...]
    3160     3099     2909     2721     2721     2949     3221     3291 
    3091     2770     2575     2662     2983     3308     3385     3145 
    2783     2578     2643     2884     3133     3242     3159     2964 
    2801     2772     2901     3076     3136     3033     2862     2759 
    2813     2995     3145     3146     3032     2884     2790     2795 
    2879     3005     3119     3154     3067     2905     2786     2783 
    2882     3029     3125     3102     3001     2886     2797     2791 
    2886     3052     3203     3198     3013     2806     2709     2737 
    2852     3021     3190     3261     3154     2917     2713     2686 
    2818     2972     3056     3084     3079     3053     3009     2938 
    2859     2816     2830     2902     3019     3129     3133     3006 
    2852     2794     2860     2988     3080     3073     2986     2876 
    2814     2848     2974     3121     3171     3048     2843     2731 
    2772     2928     3106     3181     3118     2987     2849     2785 
    2840     2943     3011     3034     3015     2979     2963     2951 
    2925     2910     2928     2967     2998     3005     2984     2940 
    2894     2898     2960     3040     3075     3024     2913     2824 
    2821     2901     3013     3088     3083     3017     2932     2870 
    2866     2913     2956     2970     2968     2984     3025     3052 
    3015     2928     2851     2830     2883     2978     3055     3067 
    3021     2961     2913     2907     2947     2959     2925     2925 
    2976     3002     2992     2987     2976     2943     2913     2920 
    2959     2984     2957     2911     2934     3015     3028     2963 
    2938     2951     2941     2940     2961     2957     2933     2941 
    2984     3028     3022     2951     2887     2898     2937     2956 
    2979     3013     3003     2947     2910     2921     2953     2983 
    2988     2970     2945     2934     2937     2953     2983     3005 
    2999     2967     2922     2895     2921     2980     3010     2997 
    2971     2932     2894     2921     2998     3029     2987     2947 
    2920     2886     2906     2990     3046     3036     2972     2895 
    2875     2932     2984     2997     3009     3005     2949     2905 
    2930     2982     2980     2943     2925     2945     2986     3006 
    2976     2928     2906     2918     2959     3009     3024     2990 
    2951     2926     2906     2910     2967     3026     3026     2982 
    2936     2906     2907     2945     2986     3009     3006     2959 
    2906     2918     2965     2980     2968     2952     2945     2959 
    2979     2971     2938     2938     2971     2983     2968     2952 
    2948     2957     2975     2974     2953     2937     2932     2932 
    2949     2975     2991     2991     2978     2956     2941     2943 
    2955     2953     2936     2934     2968     3009     3019     2992 
    2938     2890     2884     2936     3005     3017     2979     2960 
    2970     2967     2953     2948     2941     2928     2932     2959 
    2986     2987     2978     2975     2953     2914     2906     2956 
    3013     3015     2974     2929     2920     2951     2986     2975 
    2930     2911     2949     3005     3015     2967     2905     2889 
    2945     3024     3044     2990     2918     2880     2902     2965 
    3017     3030     3002     2921     2849     2884     3006     3088 
    3051     2930     2836     2837     2937     3063     3106     3011 
    2868     2820     2891     3010     3084     3059     2961     2883 
    2876     2926     2990     3026     3010     2949     2887     2878 
    2943     3029     3048     2986     2899     2855     2898     3002 
    3076     3060     2970     2872     2845     2909     2999     3052 
    3037     2964     2876     2843     2911     3034     3091     3030 
    2924     2862     2879     2951     3019     3033     2988     2934 
    2894     2886     2924     2983     3036     3049     2988     2887 
    2840     2899     3015     3067     2990     2860     2812     2875 
    2963     2997     2967     2924     2924     2974     3036     3084 
    3087     3028     2951     2909     2906     2909     2893     2862 
    2840     2840     2884     2974     3052     3071     3048     3030 
    3038     3055     3044     2988     2910     2839     2782     2756 
    2783     2871     2998     3115     3175     3167     3133     3098 
    3033     2937     2863     2853     2894     2921     2864     2735 
    2633     2648     2803     3052     3260     3303     3137     2837 
    2590     2566     2751     2967     3071     3049     2947     2817 
    2728     2722     2756     2758     2698     2643     2683     2791 
    2872     2909     2941     3036     3234     3503     3740     3842 
    3747     3481     3146     2851     2573     2226     1906     1772 
    1795     1890     2023     2189     2367     2515     2700     3100 
    3666     4048     4045     3815     3618     3557     3555     3501 
    3338     2983     2419     1840     1548     1776     2455     3142 
    3384     3138     2843     2978     3549     4205     4591     4471 
    3869     3134     2691     2755     3190     3581     3568     3107 
    2536     2292     2466     2770     2853     2523     1818     1089 
     901     1549     2727     3840     4483     4500     4014     3515 
    3469     3834     4226     4279     3753     2762     1914     1914 
    2864     3985     4276     3466     2174     1305     1317     1956 
    2594     2759     2405     1938     1846     2127     2349     2261 
    1930     1436     1036     1237     2222     3543     4413     4310 
    3435     2493     2150     2583     3345     3816     3811     3595 
    3537     3950     4780     5424     5297     4374     3161     2394 
    2452     3051     3446     2944     1595      305      -91      481 
    1506     2284     2444     2272     2351     2916     3651     4077 
    3869     2991     1819     1003      965     1584     2357     2848 
    2964     2918     3015     3411     4040     4675     5015     4962 
    4681     4402     4383     4758     5235     5308     4820     4098 
    3647     3635     3730     3514     2745     1516      444      263 
     999     1946     2381     2093     1490     1244     1777     2907 
    3890     4043     3435     2710     2421     2712     3252     3531 
    3400     3078     2836     2870     3169     3489     3585     3343 
    2808     2269     2081     2276     2594     2768     2628     2255 
    2115     2647     3774     4935     5456     5008     3890     2814 
    2284     2230     2226     2019     1871     2174     2878     3599 
    4032     4041     3661     3087     2643     2548     2724     2932 
    2920     2533     2006     1902     2484     3495     4499     5007 
    4706     3852     3006     2447     2122     1961     1980     2200 
    2678     3446     4251     4629     4344     3635     3006     2727 
    2641     2497     2258     2089     2160     2497     2963     3325 
    3514     3636     3642     3396     3053     2965     3227     3480 
    3316     2759     2122     1590     1182      881      664      569 
     793     1513     2652     3967     5236     6183     6548     6435 
    6212     6018     5632     4816     3666     2660     2295     2600 
    3138     3437     3195     2367     1248      307     -202     -475 
    -823    -1043     -631      382     1453     2209     2578     2600 
    2484     2474     2451     2101     1522     1108     1061     1464 
    2382     3631     4754     5390     5521     5391     5301     5416 
    5618     5555     5022     4345     4098     4482     5221     5819 
    5780     4887     3411     2014     1302     1507     2508     3731 
    4361     4077     3262     2400     1583      785      255      251 
     684     1192     1480     1640     2153     3407     5038     5991 
    5529     4006     2623     2392     3087     3430     2675     1576 
    1467     2760     4558     5571     5200     3855     2575     2289 
    3183     4638     5645     5597     4995     4784     5201     5795 
    5865     4799     2664      302    -1412    -1991    -1412     -255 
     697     1144     1281     1378     1520     1621     1557     1232 
     872     1005     1726     2578     3204     3535     3592     3549 
    3703     4166     4692     4828     4221     3022     2037     2165 
    3489     5038     5603     4846     3577     2860     2916     3110 
    2793     1937     1159     1040     1374     1507     1251      896 
     704      739      942     1289     1910     2974     4409     5768 
    6511     6405     5589     4402     3280     2502     1972     1470 
    1038      965     1524     2686     4027     5024     5456     5360 
    4762     3742     2641     1957     2027     2659     3202     3284 
    3187     3272     3492     3531     3163     2457     1748     1340 
    1270     1447     1757     2019     2169     2409     2928     3492 
    3622     3194     2636     2427     2604     2879     2980     2820 
    2608     2803     3694     4955     5811     5709     4760     3496 
    2420     1857     1930     2459     3086     3588     3958     4243 
    4495     4752     4872     4641     4110     3618     3416     3414 
    3299     2776     1775      531     -538    -1066     -892     -299 
      91      -18     -325     -351       81      777     1421     1900 
    2388     3041     3789     4473     5067     5649     6257     6778 
    6953     6686     6211     5697     5082     4379     3759     3403 
    3356     3613     4194     4924     5398     5356     4853     4131 
    3535     3229     2988     2602     2272     2327     2740     3052 
    2778     1958     1163      912     1328     2185     2967     3118 
    2560     1857     1734     2447     3481     3912     3269     1926 
     706      241      638     1529     2455     3123     3485     3732 
    3977     4075     3897     3466     2899     2376     2110     2276 
    2926     3819     4428     4444     4160     4055     4168     4132 
    3711     3075     2571     2440     2637     2884     2898     2586 
    2114     1698     1416     1327     1493     1738     1804     1636 
    1340     1115     1167     1528     1979     2371     2801     3298 
    3798     4395     5120     5769     6133     6062     5564     4941 
    4591     4642     4804     4653     4082     3381     2955     3065 
    3693     4394     4573     4050     3129     2192     1456      965 
     580       83     -418     -452      176     1181     2230     3109 
    3659     3873     3905     3908     3863     3658     3327     3019 
    2693     2155     1412      730      400      556     1125     1892 
    2632     3160     3384     3323     3014     2552     2199     2177 
    2482     2972     3574     4324     5270     6320     7171     7431 
    6901     5842     4855     4293     3924     3329     2527     1989 
    2114     2845     3684     4004     3628     2974     2536     2505 
    2759     2978     2821     2199     1412      880      769      992 
    1306     1328      847      213       -8      398     1229     2164 
    3003     3680     4164     4491     4722     4920     5189     5466 
    5433     4958     4341     3923     3663     3183     2269     1215 
     513      463     1062     1993     2822     3252     3206     2794 
    2272     1930     1908     2089     2288     2559     3105     3925 
    4796     5499     5753     5217     3919     2397     1224      546 
     194        6     -110     -152      182     1273     2867     4077 
    4282     3599     2633     2182     2870     4486     5927     6131 
    4930     3063     1614     1289     1890     2523     2421     1522 
     375     -387     -540     -283       78      378      662     1116 
    1742     2315     2655     2770     2795     2968     3561     4681 
    6021     6913     6809     5763     4464     3670     3640     4136 
    4739     5081     4961     4531     4266     4463     4870     5049 
    4762     3936     2747     1649      994      820     1017     1417 
    1737     1692     1224      576       43     -259     -299       16 
     729     1588     2227     2598     2994     3692     4644     5502 
    5937     5788     5108     4153     3150     2162     1259      631 
     449      739     1397     2246     3091     3681     3735     3252 
    2713     2702     3453     4729     5879     6330     6052     5449 
    5055     5132     5483     5710     5490     4787     3962     3406 
    3111     2790     2170     1305      652      649     1360     2512 
    3717     4685     5265     5386     4992     4101     2987     1998 
    1285      895      884     1260     1958     2853     3766     4584 
    5379     6285     7202     7774     7785     7454     7238     7408 
    7784     7869     7389     6561     5763     5223     4953     4793 
    4531     4068     3553     3272     3303     3365     3107     2550 
    2060     1914     2068     2242     2119     1552      733       83 
    -135      -72     -126     -631    -1642    -2839    -3792    -4325 
   -4534    -4614    -4715    -4892    -5119    -5329    -5444    -5414 
   -5375    -5601    -6214    -7032    -7682    -7857    -7519    -6862 
   -6107    -5373    -4673    -3948    -3087    -2016     -854      166 
    1043     1968     3095     4473     5941     7242     8233     8915 
    9439    10054    10847    11674    12434    13196    13992    14682 
   15250    15853    16455    16740    16316    14956    12775    10257 
    8036     6588     5994     5877     5760     5436     4899     4222 
    3532     2817     1922      842     -168     -884    -1296    -1622 
   -2060    -2485    -2577    -2189    -1413     -514      121      253 
       2     -292     -306      232     1320     2550     3422     3744 
    3666     3520     3630     4024     4469     4699     4600     4382 
    4440     4877     5408     5629     5216     4234     3280     2967 
    3393     4183     4847     5081     4980     4884     5040     5436 
    5825     5953     5842     5844     6268     7083     8106     9119 
    9815    10007     9753     9254     8691     8186     7788     7391 
    6941     6681     6887     7550     8355     8873     8819     8060 
    6642     4941     3410     2241     1422      835      437      437 
     999     1927     2782     3215     3244     3176     3253     3580 
    4010     4032     3272     1826       21    -1784    -3330    -4525 
   -5458    -6239    -6875    -7380    -7766    -7947    -7808    -7294 
   -6505    -5832    -5607    -5657    -5621    -5331    -4642    -3532 
   -2307    -1177       25     1449     2975     4434     5676     6492 
    6799     6785     6666     6469     6084     5429     4567     3721 
    3157     2918     2832     2840     3038     3433     3854     4108 
    4163     4129     4027     3792     3508     3346     3294     3254 
    3308     3578     3948     4195     4217     4012     3605     3200 
    3122     3408     3735     3869     3940     4140     4464     4823 
    5070     4912     4128     2875     1578      684      481      965 
    1973     3303     4691     5854     6613     7017     7210     7253 
    7113     6717     6124     5420     4585     3697     2963     2493 
    2230     2110     2045     1892     1597     1194      797      558 
     569      850     1251     1404     1077      468      -56     -315 
    -274      166      997     1827     2153     1864     1233      630 
     330      341      468      567      615      723      851      804 
     631      394      182      226      544     1028     1514     1865 
    2241     2833     3566     4160     4446     4517     4608     5011 
    5979     7555     9428    11109    12263    12834    12943    12748 
   12384    11859    11052     9925     8662     7501     6573     5957 
    5633     5478     5467     5607     5686     5337     4459     3416 
    2620     2166     2112     2482     2988     3204     2982     2520 
    1942     1155       66    -1325    -2733    -3704    -3892    -3276 
   -2324    -1537    -1031     -661     -301      -32      -70     -522 
   -1206    -1742    -1799    -1185       -9     1188     1875     2030 
    2073     2369     2870     3271     3430     3520     3624     3430 
    2663     1401       10    -1011    -1422    -1414    -1210     -692 
     244     1273     2069     2644     3024     3075     2801     2517 
    2644     3334     4341     5364     6237     6782     6975     7006 
    7021     7057     7094     7030     6658     5888     4873     3682 
    2259      527    -1552    -3647    -5158    -5841    -5871    -5429 
   -4681    -3823    -2884    -1771     -499      630     1466     2301 
    3392     4662     6053     7647     9282    10485    10894    10550 
    9813     9005     8236     7358     6007     3989     1675     -314 
   -1649    -2128    -1632     -438     1021     2513     3915     5058 
    5860     6531     7280     8116     9023     9969    10940    11958 
   12935    13629    13824    13612    13216    12741    12213    11457 
   10216     8515     6512     4388     2403      687     -684    -1605 
   -2115    -2242    -1884    -1090      -79     1000     1989     2527 
    2407     1975     1657     1509     1564     1935     2582     3333 
    4074     4919     6000     7090     7682     7342     6041     4444 
    3342     2794     2242     1183     -395    -2104    -3523    -4440 
   -5038    -5609    -6079    -6188    -5711    -4583    -3064    -1539 
    -351      306      707     1321     2266     3335     4317     5221 
    6176     7142     7942     8494     8800     8978     9239     9490 
    9328     8630     7882     7820     8726    10069    10964    11087 
   10835    10739    10941    11091    10651     9216     7024     4981 
    3778     3504     3723     3534     2359      577    -1024    -1871 
   -1710     -741      585     1898     2845     3159     2694     1559 
     360     -274     -291     -180     -486    -1293    -2323    -3208 
   -3643    -3557    -3241    -3042    -2956    -2787    -2334    -1547 
    -662       22      321      263       37     -118      -76      117 
     286      272      113      -98     -267     -319     -240     -137 
    -369    -1327    -3030    -4873    -6123    -6548    -6396    -6262 
   -6624    -7389    -8001    -7927    -7071    -5579    -3701    -1890 
    -614       87      805     2154     3920     5306     5875     5842 
    5733     5976     6555     7021     6993     6585     6284     6501 
    7133     7649     7588     6683     5063     3445     2578     2629 
    3123     3532     3719     3717     3719     4045     4645     5123 
    5244     5131     5144     5574     6470     7651     8820     9738 
   10319    10623    10670    10632    10906    11534    12183    12610 
   12850    13065    13180    13001    12498    11794    10928     9821 
    8742     8100     7904     8009     8252     8445     8587     8893 
    9518    10285    10957    11419    11476    10901     9578     7703 
    5742     4148     3206     2933     3030     2951     2263     1034 
    -372    -1760    -3168    -4388    -5320    -6374    -7655    -8742 
   -9450    -9795    -9644    -9174    -8787    -8509    -8247    -7800 
   -7034    -6154    -5333    -4857    -4726    -4552    -4266    -3705 
