Origin Time       2025/01/13 21:19:00
Lat.              31.8
Long.             131.6
Depth. (km)       30
Mag.              6.9
Station Code      MYZ013
Station Lat.      31.9086
Station Long.     131.4188
Station Height(m) 6
Record Time       2025/01/13 21:19:37
Sampling Freq(Hz) 100Hz
Duration Time(s)  164
Dir.              U-D
Scale Factor      7845(gal)/8223790
Max. Acc. (gal)   80.157
Last Correction   2025/01/13 21:19:36
Memo.             
[...]
   -3057    -3065    -3061    -3049    -3033    -3028    -3045    -3061 
   -3046    -3022    -3026    -3049    -3056    -3048    -3041    -3049 
   -3065    -3065    -3042    -3030    -3041    -3049    -3042    -3033 
   -3041    -3060    -3068    -3060    -3038    -3029    -3038    -3044 
   -3040    -3036    -3045    -3060    -3064    -3056    -3049    -3046 
   -3045    -3045    -3045    -3040    -3034    -3038    -3041    -3045 
   -3055    -3053    -3051    -3049    -3034    -3025    -3040    -3059 
   -3059    -3042    -3037    -3059    -3071    -3057    -3037    -3034 
   -3053    -3064    -3049    -3033    -3028    -3034    -3038    -3036 
   -3045    -3055    -3048    -3038    -3037    -3046    -3061    -3073 
   -3061    -3032    -3021    -3038    -3057    -3061    -3051    -3034 
   -3032    -3046    -3061    -3067    -3052    -3025    -3018    -3033 
   -3049    -3065    -3069    -3049    -3024    -3028    -3057    -3079 
   -3067    -3036    -3029    -3045    -3049    -3051    -3056    -3049 
   -3040    -3034    -3036    -3037    -3036    -3040    -3052    -3056 
   -3046    -3045    -3051    -3051    -3046    -3040    -3040    -3057 
   -3072    -3067    -3052    -3048    -3040    -3032    -3032    -3030 
   -3030    -3037    -3046    -3056    -3060    -3048    -3034    -3041 
   -3055    -3055    -3048    -3044    -3038    -3038    -3041    -3051 
   -3064    -3063    -3049    -3041    -3042    -3044    -3036    -3026 
   -3034    -3046    -3052    -3049    -3053    -3067    -3065    -3036 
   -3025    -3055    -3072    -3055    -3044    -3048    -3046    -3042 
   -3032    -3017    -3036    -3063    -3049    -3032    -3040    -3046 
   -3048    -3057    -3059    -3051    -3048    -3048    -3051    -3048 
   -3037    -3036    -3044    -3045    -3041    -3041    -3057    -3065 
   -3052    -3034    -3026    -3038    -3060    -3068    -3059    -3042 
   -3030    -3030    -3048    -3060    -3053    -3046    -3055    -3061 
   -3044    -3018    -3014    -3033    -3053    -3064    -3064    -3055 
   -3044    -3044    -3049    -3044    -3036    -3041    -3053    -3059 
   -3061    -3056    -3042    -3040    -3042    -3041    -3041    -3042 
   -3046    -3055    -3051    -3037    -3034    -3041    -3048    -3052 
   -3053    -3049    -3040    -3033    -3044    -3061    -3059    -3042 
   -3045    -3059    -3056    -3042    -3041    -3044    -3041    -3036 
   -3040    -3055    -3067    -3057    -3040    -3034    -3038    -3042 
   -3048    -3040    -3032    -3041    -3051    -3051    -3052    -3060 
   -3060    -3045    -3045    -3056    -3045    -3032    -3042    -3052 
   -3052    -3053    -3049    -3040    -3038    -3048    -3055    -3046 
   -3041    -3055    -3064    -3055    -3037    -3029    -3040    -3052 
   -3048    -3045    -3052    -3048    -3034    -3040    -3055    -3056 
   -3045    -3036    -3041    -3056    -3057    -3052    -3052    -3041 
   -3032    -3042    -3060    -3061    -3044    -3032    -3044    -3055 
   -3049    -3049    -3057    -3049    -3040    -3042    -3044    -3040 
   -3037    -3045    -3053    -3049    -3042    -3044    -3045    -3042 
   -3041    -3041    -3046    -3053    -3053    -3052    -3046    -3036 
   -3036    -3048    -3056    -3053    -3051    -3051    -3049    -3048 
   -3045    -3048    -3051    -3046    -3049    -3052    -3045    -3037 
   -3038    -3046    -3052    -3049    -3037    -3037    -3049    -3051 
   -3044    -3042    -3046    -3049    -3048    -3045    -3052    -3055 
   -3046    -3040    -3044    -3049    -3045    -3040    -3040    -3046 
   -3049    -3049    -3045    -3042    -3046    -3052    -3048    -3046 
   -3049    -3051    -3052    -3046    -3040    -3041    -3046    -3046 
   -3044    -3046    -3049    -3046    -3041    -3040    -3041    -3048 
   -3056    -3052    -3045    -3044    -3048    -3055    -3057    -3052 
   -3044    -3044    -3052    -3053    -3042    -3032    -3034    -3046 
   -3055    -3055    -3045    -3036    -3030    -3034    -3048    -3063 
   -3061    -3052    -3045    -3040    -3037    -3042    -3051    -3051 
   -3042    -3037    -3041    -3046    -3045    -3045    -3051    -3052 
   -3048    -3046    -3048    -3048    -3048    -3044    -3044    -3051 
   -3051    -3045    -3048    -3052    -3049    -3049    -3048    -3042 
   -3040    -3037    -3040    -3051    -3053    -3048    -3049    -3051 
   -3046    -3037    -3033    -3041    -3060    -3068    -3053    -3037 
   -3032    -3033    -3041    -3049    -3051    -3052    -3052    -3046 
   -3044    -3048    -3051    -3052    -3053    -3049    -3044    -3044 
   -3045    -3041    -3036    -3038    -3048    -3056    -3055    -3045 
   -3041    -3042    -3045    -3045    -3045    -3052    -3057    -3053 
   -3051    -3055    -3051    -3041    -3040    -3042    -3041    -3037 
   -3044    -3055    -3053    -3045    -3042    -3044    -3052    -3056 
   -3051    -3040    -3034    -3040    -3049    -3053    -3052    -3046 
   -3042    -3041    -3038    -3041    -3053    -3060    -3055    -3045 
   -3042    -3046    -3052    -3053    -3046    -3038    -3037    -3042 
   -3051    -3055    -3057    -3056    -3052    -3041    -3032    -3034 
   -3049    -3060    -3055    -3040    -3029    -3036    -3052    -3061 
   -3052    -3034    -3034    -3053    -3059    -3046    -3041    -3048 
   -3057    -3056    -3042    -3036    -3044    -3051    -3053    -3052 
   -3044    -3041    -3052    -3051    -3037    -3036    -3046    -3053 
   -3051    -3041    -3040    -3051    -3053    -3052    -3049    -3041 
   -3036    -3042    -3051    -3052    -3048    -3042    -3044    -3044 
   -3040    -3036    -3036    -3042    -3048    -3049    -3049    -3053 
   -3056    -3055    -3055    -3049    -3038    -3038    -3049    -3053 
   -3053    -3053    -3045    -3037    -3038    -3042    -3046    -3051 
   -3042    -3032    -3036    -3046    -3055    -3060    -3056    -3045 
   -3044    -3045    -3042    -3044    -3046    -3042    -3044    -3053 
   -3053    -3044    -3038    -3046    -3052    -3048    -3044    -3042 
   -3041    -3042    -3041    -3044    -3052    -3059    -3060    -3048 
   -3036    -3038    -3051    -3052    -3045    -3040    -3044    -3051 
   -3055    -3048    -3041    -3044    -3049    -3044    -3033    -3033 
   -3045    -3059    -3064    -3055    -3038    -3038    -3051    -3059 
   -3056    -3046    -3040    -3034    -3038    -3048    -3051    -3048 
   -3055    -3056    -3044    -3038    -3041    -3048    -3055    -3052 
   -3049    -3051    -3045    -3038    -3038    -3038    -3042    -3055 
   -3061    -3052    -3042    -3045    -3048    -3041    -3040    -3051 
   -3059    -3056    -3046    -3036    -3036    -3048    -3055    -3048 
   -3041    -3040    -3044    -3052    -3055    -3052    -3049    -3046 
   -3046    -3049    -3042    -3033    -3042    -3052    -3045    -3044 
   -3056    -3061    -3052    -3042    -3038    -3037    -3040    -3045 
   -3044    -3042    -3056    -3068    -3060    -3049    -3046    -3049 
   -3049    -3038    -3036    -3044    -3045    -3044    -3049    -3059 
   -3091    -3198    -3450    -3927    -4702    -5788    -7082    -8249 
   -8641    -7458    -4399     -441     2385     2700     1150     -554 
   -1717    -2922    -4490    -5648    -5562    -4754    -4843    -6485 
   -7929    -6866    -3690    -1425    -2232    -5069    -6970    -6285 
   -4075    -2614    -3217    -4668    -3885      383     5262     6821 
    5061     3986     6367    10133    10432     5331     -650    -1526 
    1443      367    -8537   -18486   -20254   -14029    -8170    -8488 
  -12098   -11098    -2357     7468     8807      369    -8814    -9840 
   -4436    -2138    -7840   -14933   -13180    -2218     7522     7742 
    1809     -687     2794     4642    -1479   -11917   -17960   -15944 
   -9853    -4822    -2284    -1233     -153     1613     3330     3987 
    2621    -1158    -5433    -7196    -5954    -4374    -5026    -7183 
   -8163    -7416    -6309    -5599    -6077    -8376   -11340   -13032 
  -12305    -9740    -7231    -5466    -3862    -2382    -1517    -2042 
   -4141    -6388    -7314    -6840    -5782    -5026    -4399    -2766 
     398     3647     3578    -1058    -5732    -4973      612     4687 
    2712    -1269      218     6577     9278     3345    -5116    -5744 
    1830     7001     3032    -4403    -6502    -4089    -5289   -12669 
  -19793   -20081   -14573   -10048    -9868   -10228    -7186    -2542 
    -927    -3056    -4897    -4163    -2192     -697    -1432    -4857 
   -7533    -4691     4689    16492    23878    22300    14697     8058 
    4114     -375    -6492   -11545   -13594   -15107   -18370   -19457 
  -13066    -1279     7103     6316      573    -1228     3284     6686 
    1385    -9319   -15862   -14962   -10494    -7130    -6089    -4842 
   -1813      666    -1475    -9728   -19568   -23711   -18330    -5436 
    6860     9613     3140    -1869     3813    15930    21568    16573 
    7735      873    -2243    -2301    -2284    -3005    -1224     4137 
    7669     4780     1078     5053    13177    11921    -5842   -30566 
  -44136   -37848   -19062    -2276     3654     1414    -1683    -3485 
   -5875    -8118    -6508    -1084     2115     -576    -5860    -9563 
  -11079   -11453    -9944    -4045     4781     9221     5481     -619 
   -1313     3773     6913      515   -13203   -23326   -21352    -9254 
    2991     5610    -3368   -16063   -22570   -19809   -13031    -9791 
  -10297    -9467    -5744       25     5718     8710    10301    11219 
    7993      994    -3778    -4716    -7219   -14735   -23037   -24231 
  -17832   -13212   -14982   -16578   -10633     3196    16852    20637 
   15103     8534     4918     3534     4453     6701     5759    -1707 
  -11754   -15184    -7855     4502    12806    11502     2097    -8251 
  -14484   -16426   -14867   -10777    -5794      116     7256    11610 
    8818     2054    -2151    -3122    -4040    -5363    -5729    -4936 
   -3310    -1451    -1514    -5148    -8295    -5038     1621     3861 
    2577     5301    12726    17028    11651    -1879   -12276   -10173 
   -2574    -2330   -11342   -20371   -18084    -4301     7631     6616 
   -4945   -16422   -19392   -15115   -12896   -19057   -30326   -34635 
  -22110    -1871     7477     2103    -7076    -7335     3117     9526 
     245   -14029   -14102     2266    18859    22593    15871     7993 
    4657     4911     5444     6201     8023     9175     6683      770 
   -2164      800     1285    -6010   -13844   -16753   -18669   -22354 
  -24862   -23090   -16185    -7263    -2623    -2371     -486     1186 
   -6851   -23984   -33922   -25007    -8275    -1186    -3318    -2841 
    4826    12086     7462    -7553   -16139   -10022     -538      241 
   -4305     -241    15106    24854    18796     6932     -359    -1413 
    2583     7408     7356     2911    -1453    -7240   -14993   -17296 
  -14370   -15604   -20349   -18419    -5767     8608     8853    -9107 
  -26786   -22867     -658    18227    21506    13274     4509     6018 
   17193    21244     8044    -7554    -7126     7572    22042    24842 
   15601     4942     1455     1258    -3061   -10057    -9979      446 
    6423    -4581   -20042   -22059   -12939    -7875   -16645   -31295 
  -29365    -3370    22416    20920    -3924   -21743   -12426     8352 
   11322    -6783   -21501   -14183     4607    10214    -2513   -13761 
   -7954     4919     4360   -10241   -17348    -4463    12421    11479 
   -4414   -14013    -6914     4828     4610    -6924   -15673   -13678 
   -5945     1026     7489    11974     8883     -217    -7128    -7588 
   -5217   -10027   -27517   -45945   -47536   -31140   -12383    -5281 
   -8999   -10762    -1175    13730    19113    10093    -3100    -8475 
   -3566     4796     8672     8441    11275    19116    24744    20278 
    6446    -5979    -6762     3613    15894    18407     6789    -9944 
  -19531   -18096   -10204    -1750     6142    14905    24468    30761 
   25759     7399   -14882   -28660   -27309   -15057    -4932    -5157 
   -9833    -7803     2477    12598    17393    19310    19464    15580 
    7447    -3866   -16486   -24467   -22906   -15160    -8371    -5170 
   -1323     7605    16560    15927     3676   -13535   -26161   -30715 
  -31758   -29324   -16258     7032    27378    30183    13670    -6933 
  -15909   -14839   -14204   -17319   -19402   -14492    -3624     4240 
    3866     1015     4140    12789    18553    15530     4580    -6054 
   -4666     7357    15345    13371     9186    10774    17424    23082 
   25104    22508    12468    -3183   -17059   -24622   -25172   -17120 
   -2979     8199    11821     9990     3873    -6774   -21122   -34593 
  -39251   -33110   -23004   -15171   -12626   -16586   -21654   -20908 
  -16517   -14535   -16680   -20756   -22014   -17462   -10282    -5301 
   -3757    -5876   -11063   -14840   -14690   -13864   -12521    -5256 
    8573    21795    27612    24457    15489     6451      972    -1948 
   -5197    -9535   -14187   -19175   -23604   -26623   -27683   -21766 
   -4332    18686    34388    35222    24426    11851     6322     8440 
   11020     8653     2787    -5232   -17359   -30113   -36109   -34979 
  -31669   -30379   -32398   -34218   -30712   -20663    -8214     1487 
    8665    15934    22696    28293    32521    34777    38303    44999 
   48513    42574    28819    13562     3900     3411     6928     7389 
    6960    11527    19705    24888    23360    15849     4644    -8561 
  -24869   -46302   -68872   -83369   -87075   -85237   -79780   -70206 
  -61020   -55923   -50994   -39884   -20997     2587    24772    38826 
   44950    49539    54858    59819    64488    67406    67143    62970 
   54206    44054    35914    28842    21176    13220     5614    -4315 
  -19233   -36058   -49661   -56733   -55605   -46927   -34654   -25930 
  -25525   -28799   -27110   -19669   -10238     1408    13730    22705 
   29250    33450    32559    29336    27913    28278    29583    29743 
   26082    18337     6690    -8495   -24726   -39621   -52357   -61843 
  -66708   -66943   -63466   -56559   -45542   -29092    -9414     6083 
   13645    16228    15516    10983     4378    -2092    -7146    -8303 
   -5864    -5860   -12486   -22441   -27920   -24602   -17448   -11102 
   -2382     7094    10727    10183     9293     8559     8920     6386 
   -3176   -15080   -24354   -29737   -30423   -27009   -20518   -12232 
   -4195     3753    14832    29513    41932    46421    43783    39852 
   39077    39734    38379    35136    31044    26843    24567    23332 
   17942     6592    -6805   -18142   -25710   -29199   -28320   -23245 
  -16915   -12356    -9065    -7735   -11573   -19558   -26881   -31278 
  -34172   -37912   -42076   -43293   -42373   -43633   -45230   -43619 
  -40371   -35419   -24182    -4931    15969    33366    47584    54051 
   49176    37424    22712     7418    -6162   -16618   -21460   -20592 
  -17475   -13490    -7566      236     6922     7901     3730     1324 
    5786    17624    33542    45616    47121    39478    28539    17679 
    7573    -2403   -13776   -27870   -43494   -54868   -57242   -51282 
  -38853   -24430   -15569   -13478   -12100    -7516        9     7354 
    7051    -3909   -16831   -22103   -17810    -7570     2323     8293 
   13826    23425    35629    47054    56411    62721    66545    69387 
   69805    65558    56471    43168    26689     7426   -13882   -33519 
  -48294   -56758   -58302   -56594   -56327   -57704   -58336   -55734 
  -49813   -44215   -42839   -47644   -55283   -55873   -44095   -24490 
   -4806     6677     5598    -3592   -12699   -16521   -14615    -8935 
    1316    19213    42655    63775    74182    69156    51946    30505 
   11190    -3079   -13932   -22468   -26362   -26816   -27041   -26169 
  -23907   -22885   -24881   -29640   -33399   -30493   -20212    -8055 
    2145    11650    20264    25178    26582    26920    26493    23889 
   19094    13957    12360    16289    20792    21182    17043     8533 
    -963    -7723   -14484   -25303   -38765   -50110   -55271   -53696 
  -49423   -46796   -46461   -45890   -39780   -23461      251    22281 
   35770    39692    37639    35834    36022    31306    17620     1733 
   -7429    -6103     2334     8889     8480     4213      607     -772 
    -287     1092     2170      772    -5532   -16637   -29407   -40684 
  -48748   -49918   -40643   -24987    -9882     3372    15519    23340 
   21635    11604     1004    -5749    -8156    -5533       35     4104 
    5498     7858    13647    18679    16455     5621    -8757   -19944 
  -24081   -21463   -17347   -18088   -23016   -24309   -16227    -1795 
   10215    13126     8135     3470     4174     5216      437    -8074 
  -13606   -10768     1065    15128    22108    18770     8567    -2385 
   -8185    -8754   -10566   -16241   -20803   -19780   -12690    -1694 
    7724     9065     1552    -7550   -10646    -7689    -3681    -1414 
    1354     6975    11434     8627    -1470   -14769   -27203   -34911 
  -35753   -28618   -11804    12151    33974    45199    44861    37856 
   30657    26671    21822     9767    -6133   -14355    -9868      595 
    6963     4997    -1487    -6434    -7673    -6959    -6724    -7045 
   -6822    -6446    -7565   -11875   -18322   -24058   -29299   -34029 
  -33268   -23082    -7366     5259     8719     3801    -1892    -1293 
    2263    -1656   -17185   -38240   -52859   -50032   -31332    -9786 
    5989    15931    22457    27970    32695    34501    32263    27128 
   21747    19255    20336    21528    18920    12029     3959    -1194 
   -2866    -4723    -9408   -15095   -18206   -17197   -12798    -7002 
   -2313     -464    -1841    -4261    -2870     4596    13909    18640 
   16279     8823      585    -4545    -6890   -10173   -16405   -23287 
  -24475   -15522    -2025     5657     4719     -460    -6242   -12683 
  -21568   -32302   -41800   -48678   -52482   -51522   -44695   -32055 
  -15909    -1854     5270     4081    -4032   -13007   -14065    -6073 
    2691     6701     9175    15982    29567    46780    60377    65076 
   60801    50315    37627    25806    13393    -3318   -23824   -42985 
  -56482   -63853   -66810   -66526   -64034   -59880   -51297   -36090 
  -17050      900    12170    13772     9549     6054     7207    12298 
   16164    14013     8345     8626    19287    32260    36363    27712 
   10727    -3921    -6700     -453     1291    -9289   -25385   -34823 
  -32522   -23491   -17047   -17455   -20980   -21668   -16758    -8033 
      12     3345      746    -4295    -5549      183    11367    23627 
   31509    31723    25373    16900    10486     5736      318    -4796 
   -8094    -9452    -7690    -2342     4734    11172    14243    11826 
    6022     2174     2297     2277    -3198   -14006   -23795   -25758 
  -18675    -8282    -3198    -7777   -17080   -20896   -15315    -6390 
   -1221     -750     -757     3555    14006    27916    39266    43465 
   39764    29535    15951     3044    -7248   -14482   -17575   -16865 
  -14261   -10593    -6821    -4614    -4850    -7757   -13007   -19371 
  -24449   -26496   -27888   -32670   -38716   -38618   -29438   -15047 
   -1777     5393     5976     2687    -1567    -4916    -7635   -11227 
  -15412   -16667   -11453    -1768     5142     3908    -3292    -7796 
