Origin Time       2025/01/13 21:19:00
Lat.              31.8
Long.             131.6
Depth. (km)       30
Mag.              6.9
Station Code      MYZ008
Station Lat.      32.1056
Station Long.     131.3931
Station Height(m) 59
Record Time       2025/01/13 21:19:39
Sampling Freq(Hz) 100Hz
Duration Time(s)  147
Dir.              N-S
Scale Factor      7845(gal)/8223790
Max. Acc. (gal)   101.301
Last Correction   2025/01/13 21:19:38
Memo.             
[...]
   -2458    -2459    -2461    -2459    -2459    -2459    -2461    -2461 
   -2459    -2457    -2459    -2463    -2461    -2455    -2455    -2459 
   -2463    -2461    -2458    -2457    -2455    -2457    -2457    -2457 
   -2461    -2461    -2462    -2463    -2459    -2458    -2462    -2461 
   -2457    -2455    -2455    -2457    -2458    -2459    -2462    -2463 
   -2461    -2457    -2455    -2458    -2458    -2457    -2459    -2459 
   -2458    -2459    -2461    -2461    -2454    -2450    -2455    -2461 
   -2459    -2458    -2461    -2462    -2462    -2463    -2461    -2455 
   -2452    -2454    -2459    -2462    -2462    -2459    -2459    -2459 
   -2459    -2458    -2454    -2454    -2457    -2458    -2458    -2461 
   -2461    -2459    -2459    -2461    -2462    -2455    -2452    -2459 
   -2461    -2458    -2459    -2461    -2461    -2459    -2458    -2459 
   -2461    -2461    -2458    -2461    -2462    -2461    -2459    -2459 
   -2458    -2454    -2457    -2463    -2463    -2461    -2459    -2459 
   -2461    -2458    -2455    -2461    -2461    -2457    -2459    -2462 
   -2458    -2458    -2459    -2461    -2462    -2462    -2458    -2455 
   -2457    -2461    -2462    -2462    -2461    -2459    -2459    -2461 
   -2462    -2462    -2461    -2457    -2454    -2457    -2459    -2458 
   -2458    -2462    -2462    -2461    -2461    -2462    -2461    -2458 
   -2457    -2455    -2455    -2459    -2463    -2462    -2462    -2461 
   -2454    -2457    -2465    -2463    -2461    -2461    -2461    -2459 
   -2458    -2458    -2457    -2457    -2461    -2462    -2458    -2455 
   -2459    -2462    -2459    -2457    -2459    -2459    -2454    -2455 
   -2461    -2461    -2457    -2457    -2463    -2466    -2463    -2459 
   -2461    -2462    -2459    -2455    -2454    -2457    -2461    -2463 
   -2462    -2461    -2459    -2459    -2459    -2457    -2457    -2459 
   -2458    -2455    -2455    -2457    -2459    -2459    -2461    -2463 
   -2463    -2459    -2454    -2458    -2463    -2458    -2457    -2465 
   -2463    -2458    -2461    -2462    -2457    -2452    -2454    -2459 
   -2462    -2462    -2461    -2459    -2461    -2462    -2458    -2455 
   -2455    -2458    -2459    -2461    -2462    -2459    -2459    -2462 
   -2462    -2458    -2454    -2452    -2454    -2458    -2463    -2462 
   -2458    -2459    -2462    -2461    -2457    -2454    -2457    -2461 
   -2465    -2462    -2458    -2459    -2461    -2455    -2454    -2461 
   -2462    -2458    -2459    -2462    -2461    -2455    -2455    -2461 
   -2461    -2459    -2459    -2457    -2455    -2459    -2461    -2459 
   -2459    -2459    -2461    -2462    -2461    -2457    -2454    -2458 
   -2459    -2458    -2458    -2459    -2461    -2459    -2461    -2461 
   -2459    -2457    -2458    -2461    -2459    -2457    -2455    -2458 
   -2462    -2462    -2459    -2459    -2458    -2458    -2459    -2458 
   -2458    -2461    -2459    -2461    -2461    -2459    -2458    -2454 
   -2452    -2457    -2459    -2458    -2459    -2461    -2462    -2459 
   -2458    -2459    -2458    -2457    -2455    -2457    -2462    -2465 
   -2461    -2455    -2457    -2461    -2462    -2459    -2458    -2459 
   -2461    -2459    -2457    -2455    -2454    -2454    -2459    -2461 
   -2459    -2461    -2462    -2462    -2462    -2459    -2458    -2458 
   -2459    -2459    -2457    -2455    -2461    -2462    -2457    -2459 
   -2462    -2459    -2459    -2459    -2461    -2461    -2457    -2455 
   -2457    -2457    -2459    -2462    -2462    -2463    -2459    -2452 
   -2452    -2457    -2459    -2461    -2459    -2461    -2459    -2457 
   -2459    -2462    -2458    -2454    -2455    -2462    -2466    -2461 
   -2457    -2458    -2461    -2461    -2458    -2457    -2457    -2457 
   -2458    -2461    -2465    -2462    -2454    -2457    -2463    -2459 
   -2454    -2457    -2459    -2459    -2459    -2462    -2467    -2475 
   -2479    -2489    -2498    -2501    -2504    -2505    -2502    -2500 
   -2496    -2486    -2473    -2458    -2451    -2452    -2450    -2444 
   -2446    -2458    -2485    -2529    -2602    -2683    -2731    -2727 
   -2690    -2647    -2605    -2547    -2455    -2343    -2249    -2249 
   -2369    -2477    -2462    -2377    -2363    -2578    -2965    -3188 
   -3078    -2822    -2648    -2641    -2727    -2706    -2470    -2115 
   -1915    -2151    -2737    -3095    -2743    -2008    -1744    -2266 
   -2975    -3063    -2450    -1873    -1969    -2612    -3229    -3281 
   -2728    -2188    -2386    -3365    -4298    -4205    -3069    -1935 
   -1575    -1568    -1144     -440     -319    -1189    -2531    -3592 
   -3956    -3647    -3202    -3292    -4001    -4675    -4429    -2979 
   -1206     -237      -64        4     -101    -1101    -2793    -3909 
   -4006    -3952    -4280    -4401    -3715    -2813    -2785    -3426 
   -3392    -2243     -942     -469     -864    -1586    -2524    -3839 
   -4889    -4784    -3983    -3798    -4183    -3754    -2377    -1599 
   -2278    -3798    -5184    -5567    -4444    -2344     -791     -978 
   -2485    -3553    -3235    -2978    -4515    -6720    -6802    -4425 
   -2261    -2339    -3568    -3677    -2835    -2934    -3724    -3460 
   -2413    -2249    -3407    -4934    -5845    -5904    -5108    -3007 
     187     2203      336    -5030    -9991   -10747    -7107    -2166 
     865      810    -1506    -3905    -4259    -2571     -905     -849 
   -1954    -2608    -1830     -465     -538    -2945    -6475    -9319 
  -10034    -7564    -2243     3645     7123     6713     4055     2250 
    1703     -359    -5262   -10091   -11356    -9580    -7279    -4533 
    -596     3306     6211     8451     9285     6995     1282    -5641 
  -10393   -11188    -8931    -5868    -3821    -3028    -2407     -637 
    3106     7542     9202     6322      749    -4889    -8845    -9868 
   -8245    -6114    -5329    -5838    -6180    -5090    -2083     3002 
    8683    10881     6921     -654    -7060   -10181   -10801   -10122 
   -8212    -4577     -341     2035     1732     -306    -3253    -5783 
   -5898    -3565    -1966    -4314    -8868    -9969    -5580      324 
    3393     3258     2250     1567      248    -2289    -5756    -9732 
  -12610   -12847   -10840    -7703    -4576    -2274     -499     1375 
    3499     5472     6222     4272     -314    -4495    -5833    -5795 
   -6517    -7381    -6409    -3377     -448      540     -334    -1736 
   -1517      897     2386     -171    -4523    -4760       68     3667 
    2390        0     -198       27    -2095    -6139    -8603    -7099 
   -3260     -203      974      882     -476    -3395    -6432    -7375 
   -5919    -3645    -1939    -1008     -607     -334      886     3358 
    4927     3018    -2195    -7508   -10212   -10974   -11434   -11623 
  -10519    -7150    -2161     1975     3142     1490     -858    -2056 
   -1290     1517     4086     2990    -1894    -7258   -10123   -10044 
   -8590    -7087    -4781     -607     3402     4261     2385       74 
   -1321    -1969    -3264    -5640    -8189   -10693   -12372   -10935 
   -6259    -1493      976     1485     1568     1701      572    -1478 
   -1359      858      359    -5491   -13603   -18827   -18137   -11994 
   -3586     2880     5379     5366     3225    -2631    -8973    -8876 
   -2015     3963     3218     -973    -1381     1202     -444    -6809 
  -10342    -5699     2938     5247    -1651    -8749    -8282    -2543 
    2204     3834     4403     5142     3970    -2091   -11678   -18632 
  -18971   -14191    -7886    -1856     4270     9090     9945     7912 
    5991     4114      488    -4510    -9769   -15719   -21212   -23765 
  -22999   -18007    -7450     5927    17173    22376    20858    16794 
   13559     9531     1730   -10099   -20742   -23236   -18291   -13543 
  -11932    -8367     -600     5980     7700     7091     7048     6532 
    2778    -3638    -8171    -8214    -6767    -7106    -7967    -7211 
   -4172      178      986    -3501    -6705    -5913    -6210    -8685 
   -8733    -4642       47     2582     3682     3325      677    -2138 
   -2185      -20      842    -2245    -7940   -12914   -13996    -7634 
    4371    13632    16140    14320     9767     2461    -6758   -14739 
  -16497   -10497    -2257     1833     2285     3242     4803     3793 
    -453    -5128    -7577    -7061    -4912    -3449    -1796     2305 
    6448     7190     4280    -1202    -5910    -7750    -9601   -11125 
   -7730      426     9288    15194    15006     9377     3217    -1520 
   -7303   -14480   -19980   -21388   -18515   -11961    -2833     5274 
    9039    11387    16984    22238    17864     1591   -16486   -24565 
  -21915   -15854   -11441    -8926    -6890    -4787    -2732     -602 
    2196     6535    10476     8340    -1445   -11512   -14026    -9537 
   -4290    -2795    -4513    -6164    -6577    -7354    -8167    -5514 
     742     4565     1876    -3920    -7368    -7407    -8000   -11654 
  -13049    -5557     8202    17929    16173     6408     -993    -1333 
     616     -471    -3859    -6740    -9956   -14432   -15191    -6945 
    6760    16696    18414    15294    11751     7820     1297    -8068 
  -16875   -21006   -20071   -15947    -8807     2585    17454    29282 
   28810    14373    -6273   -23475   -30176   -25084   -14839    -8969 
   -9092    -7408      756    11341    18027    16951     9575     2272 
   -1012    -2444    -6795   -16159   -26865   -33481   -32545   -21112 
     247    22767    33670    27946    12502    -3241   -13223   -14731 
  -10469    -6203    -5522    -6990    -5671     -743     3245     4895 
    6053     5042     -352    -7311   -11622   -12823   -12382   -10566 
   -7141    -1503     5980    10378     5760    -6559   -17682   -19778 
  -13513    -4828     2628     7303     7076     1471    -6829   -12447 
   -9080     3483    15869    17995     8267    -6401   -16767   -19187 
  -16723   -12610    -7623    -2702     1494     6046    10582    11828 
    7906     1312    -2702    -1375     1105     -604    -5229    -9175 
  -11739   -12849   -11384    -6210      859     5143     4185    -1883 
  -11520   -19479   -21531   -19843   -17197   -12185    -2801     9647 
   20853    26676    26091    20796    12245     1759    -7489   -13969 
  -20043   -25076   -23674   -14860    -3724     6448    15495    22214 
   24059    17743     1625   -18571   -32941   -37336   -34479   -27850 
  -17784    -2814    16001    32969    41374    39201    30827    23209 
   19144    15338     5692   -13315   -34847   -45072   -37172   -16378 
    5471    20267    28775    34304    37697    37466    32053    23031 
   14134     7962     4810     3553     2925     1917     -986    -7267 
  -14721   -18042   -15390   -10882    -9836   -13300   -18087   -20086 
  -16756    -9124     -989     4302     6598    10408    19863    30655 
   33690    26091    12116    -3589   -19550   -36038   -50687   -57951 
  -54572   -42172   -24093    -3712    16146    34488    48135    52146 
   48195    39521    23561     1250   -22426   -47356   -71678   -87577 
  -89656   -76050   -47846   -12691    18611    40689    55181    61009 
   52303    30218     1664   -27761   -48875   -54379   -48794   -40603 
  -32162   -19924    -1741    18245    35417    47757    51254    42816 
   23834    -3296   -32304   -52785   -60832   -58741   -46691   -24918 
    3121    32078    55285    67508    66899    54494    34848    13616 
   -5814   -21762   -34098   -42435   -45787   -45022   -37976   -22766 
   -6534     4008     7547     2785    -7793   -18914   -28215   -33575 
  -33119   -28283   -20979   -11794    -1185    10540    20684    22719 
   13440    -1227   -13551   -23064   -32865   -43069   -52682   -60019 
  -60534   -51250   -33490   -10277    13238    31353    41677    42886 
   34690    23195    17892    21127    25320    21739    10214    -1771 
   -9084   -10847    -3967    12171    28678    34776    27168    10606 
   -6470   -18584   -26600   -33100   -37347   -37777   -36428   -36194 
  -35357   -31384   -25963   -19346    -7240    11429    30573    43812 
   48222    41947    26951     9306    -6365   -15426   -12611     1105 
   18661    33114    40574    41837    40930    41304    43627    45373 
   42824    32319    14349    -3384   -14986   -20364   -18584    -8595 
    6496    21155    31355    35475    32186    19307    -3512   -30512 
  -53673   -70174   -78648   -75174   -58594   -32202     -772    28564 
   46773    49275    37594    14733   -16069   -49566   -77278   -91561 
  -90884   -75469   -45431    -7300    29465    59695    79375    86771 
   87737    86676    77499    55563    27639     1121   -22459   -41948 
  -56312   -65646   -70236   -69248   -59379   -40437   -19159    -3677 
    3195     5398     7042     5655    -2042   -10693   -12324    -7990 
   -5933   -10982   -19477   -23699   -18481    -5602     7506    14763 
   15282    12978    11699     8205    -1291   -10486   -11923    -5616 
    7434    24430    39672    51534    57967    54056    42417    29943 
   17824     4666    -9923   -23128   -27656   -20799   -10129    -5643 
  -11299   -24937   -41777   -55375   -58514   -45758   -18096    15357 
   46267    72110    90063    95847    88430    69047    39491     7587 
  -16644   -32857   -44901   -51376   -49810   -41473   -30350   -20187 
  -15051   -18979   -32173   -51498   -71132   -85326   -93000   -92249 
  -77773   -49144   -13350    20692    48397    69948    82834    82405 
   67270    35430   -11848   -62203   -98979  -108653   -87463   -48193 
   -7068    29995    59086    74538    73749    57119    31553     7358 
  -10613   -19980   -20892   -16869    -6274    11384    26184    25705 
    5671   -23395   -44988   -52227   -47402   -36828   -26184   -15768 
   -5013     3154     6242     5864     7356    14324    21541    19897 
    7816   -10006   -29772   -47575   -57060   -53536   -37508   -12464 
   14763    32908    37365    36323    37084    39332    41123    40703 
   37092    29604    18139     4473   -11230   -28167   -42500   -53226 
  -59273   -53840   -32367    -1649    27445    52307    71478    77742 
   69781    52061    26889      317   -22265   -45947   -70254   -81286 
  -75492   -65128   -56128   -41929   -18389    10558    40666    66519 
   79964    76869    56909    24750    -5301   -19678   -17764   -10027 
   -7659    -9810    -4395    11229    21884    17852     9170     7061 
    9814     9123     -704   -15380   -20464    -6844    11419     8036 
  -19287   -43924   -46380   -35122   -31765   -41445   -46283   -34204 
  -12222     7128    14924    14551    15510    13396    -1082   -23572 
  -41112   -43627   -32899   -21500   -17247   -16098    -9058     8445 
   29172    41511    43749    42024    39424    31974    16198    -3038 
  -19125   -30584   -37328   -39375   -41755   -50017   -57901   -55976 
  -46857   -34192   -13554    16368    49100    76095    90391    90406 
   80770    62232    28605   -18971   -67725  -100388  -104059   -84796 
  -61743   -40644   -12259    22565    50973    66110    61462    32277 
   -4457   -27657   -36352   -33532   -20233    -1921    20800    44196 
   57937    60227    51644    33928    18632    13814    14845    13435 
    7897     2839      124      344     5173    12023    17582    18380 
   10342    -3198   -17024   -29540   -36586   -36971   -35148   -31114 
  -22180    -8515     8784    25965    39116    47313    47256    37023 
   20844      951   -21787   -39853   -47131   -48087   -46097   -36420 
  -21964   -15603   -21890   -35091   -46529   -44910   -25178     2512 
   20718    19319     3134   -13975   -22478   -23045   -21953   -22374 
  -22859   -23114   -22450   -18553   -12074    -5263     -768    -1547 
   -6849   -11761   -12383   -11939   -15665   -18805   -12984      849 
   16914    30156    38111    44378    47484    36884    11423   -18931 
  -44751   -58101   -56139   -42202   -18843    12853    47322    71162 
   73246    55115    24390   -12332   -48201   -73265   -77561   -60995 
  -32541       20    32008    58507    74738    78491    70295    53508 
   33972    16525     2828    -8455   -19788   -31018   -41300   -54614 
  -70688   -77772   -67779   -43853   -12476    20891    51563    70295 
   64134    35434     6480    -9590   -17513   -20807   -24403   -35414 
  -46858   -46251   -34419   -20410   -10377    -3951     4222    13668 
   15616     9429     6620    14165    26505    32744    27198    16410 
   15187    30742    52030    61500    53842    36763    18690     1466 
  -15889   -31789   -42967   -47409   -46290   -42637   -38966   -36755 
  -32034   -18967    -2155    10266    18004    21409    19809    13618 
   -1584   -27164   -50465   -55583   -40398   -19213    -7219    -3379 
    4174    19842    35548    39440    25844      224   -25371   -43906 
  -56502   -63688   -61268   -45624   -17977    15697    46444    67431 
   78250    79548    68939    46912    17806   -12596   -37119   -53044 
  -61064   -58877   -46236   -25343     2710    30815    48558    52825 
   44543    25591     1144   -23700   -45879   -61574   -66911   -61620 
  -47499   -25801     -155    22547    35414    35407    25756    11665 
   -4754   -23950   -44953   -60080   -60694   -48767   -32633   -17339 
   -3673     9803    23653    36859    48857    56554    51574    29008 
   -2754   -29081   -44007   -52066   -56646   -53194   -36536    -8567 
   21963    44595    55918    58707    52714    39845    29760    25297 
   18061     3931   -12607   -24761   -28732   -25462   -17278    -7867 
    -176     7723    17428    24441    21992    10061    -3133   -10806 
  -13317   -13259   -12094   -10924    -8679    -2961     6976    17046 
   17428     5481    -8409   -15493   -14397    -7678    -1607     1231 
    3796     4060    -2377   -14110   -26627   -32706   -26206    -9051 
   12683    31280    37863    29670    11592    -9235   -26276   -35838 
  -37137   -29836   -14593     4811    22277    34592    40663    36837 
   22189      672   -21278   -32861   -28669   -19688   -19801   -28227 
  -35282   -35521   -28714   -16677    -1919    13666    27319    35094 
   36570    34064    27513    16761     3770    -8530   -15271   -13672 
   -8492    -6269    -8190   -13042   -19703   -25903   -28981   -25702 
  -14816    -1193     8611    14319    20694    28236    32745    32738 
   28344    19128     7433    -2365    -8143   -12695   -22739   -40263 
  -55034   -55753   -44782   -32395   -24509   -17845    -4083    15423 
   26777    21814     7605    -4835   -12425   -17733   -20173   -14739 
    1078    20394    30870    29043    23611    22734    26794    30520 
   27595    18972    11037     4758    -3079   -13386   -22063   -24129 
  -22612   -23873   -28244   -31364   -27604   -14434     3299    17374 
   25347    31325    35883    33949    23467     6158   -14143   -30424 
  -39459   -43197   -42164   -37801   -32499   -25621   -17633   -10859 
   -5320     -607      513    -5323   -16590   -27789   -33532   -29760 
  -15606     5093    26412    44240    56145    59030    49176    24919 
   -9319   -43391   -66923   -73793   -65302   -46923   -21259     8544 
   34024    46889    44845    30951     9429   -15480   -35619   -40135 
  -26407    -3819    16453    28196    31602    32262    31895    24651 
    6631   -16715   -35711   -44799   -42368   -29490   -10246    11395 
