Origin Time       2025/01/13 21:19:00
Lat.              31.8
Long.             131.6
Depth. (km)       30
Mag.              6.9
Station Code      MYZ012
Station Lat.      31.8723
Station Long.     131.0684
Station Height(m) 150
Record Time       2025/01/13 21:19:42
Sampling Freq(Hz) 100Hz
Duration Time(s)  97
Dir.              U-D
Scale Factor      7845(gal)/8223790
Max. Acc. (gal)   38.894
Last Correction   2025/01/13 21:19:42
Memo.             
[...]
    2002     1985     1961     1931     1906     1895     1914     1950 
    1983     2003     2018     2027     2022     1993     1945     1910 
    1903     1919     1958     2003     2020     2006     1969     1921 
    1885     1884     1917     1960     1995     2026     2050     2042 
    2006     1969     1935     1915     1923     1939     1954     1971 
    1973     1965     1957     1946     1941     1946     1952     1965 
    1984     1989     1985     1979     1960     1942     1945     1956 
    1966     1981     1996     2008     2015     2006     1975     1925 
    1881     1871     1884     1908     1945     1976     1992     2007 
    2020     2025     2020     2012     1993     1964     1944     1942 
    1949     1958     1971     1966     1941     1917     1911     1917 
    1919     1927     1946     1966     1993     2025     2041     2042 
    2029     1996     1946     1904     1888     1880     1845     1769 
    1669     1568     1494     1503     1634     1875     2181     2478 
    2673     2714     2590     2307     1915     1510     1204     1054 
    1063     1221     1516     1917     2334     2639     2763     2722 
    2567     2332     2026     1653     1248      877      670      801 
    1336     2130     2884     3330     3399     3211     2874     2403 
    1915     1611     1499     1383     1132      803      621      824 
    1309     1668     1746     1769     1915     2154     2407     2691 
    3057     3307     3041     2200     1165      224     -576    -1102 
   -1131     -577      442     1587     2455     2797     2532     1750 
     737     -152     -685     -796     -368      777     2506     4288 
    5535     5944     5652     5088     4575     4121     3562     2828 
    2012     1200      399     -353    -1054    -1782    -2427    -2667 
   -2582    -2682    -2870    -2219     -294     2126     3794     4133 
    3573     2870     2474     2682     3807     5665     7191     7169 
    5328     2525      176     -720     -194     1225     3019     4648 
    5618     5564     4503     3099     1814      175    -2116    -4267 
   -5317    -5081    -3680     -881     3161     6995     8934     8716 
    7258     5321     3034      689     -487      587     3113     5209 
    6249     6697     6164     3947     1321      738     2610     4877 
    5751     5437     5084     5105     5082     4618     3501     1219 
   -2404    -5811    -6712    -4349      587     6647    11670    14300 
   14424    11541     5543    -1432    -6508    -8483    -8225    -7300 
   -5674    -1871     3813     8496     9778     7825     4175        2 
   -3817    -6203    -6504    -5013    -2331     1001     4233     6755 
    8625    10222    11391    11059     8276     3847     -152    -2740 
   -4434    -5537    -5568    -4190    -2049     -166     1323     2752 
    4068     4726     3906     1772       32      -94      646      839 
    -210    -2455    -5055    -6500    -5661    -2632     1625     6296 
   10760    13671    13468    10029     4930      216    -3094    -5070 
   -5698    -4738    -2409      467     2795     3944     3774     2151 
    -487    -2720    -3192    -1495     1993     6511    11091    14308 
   14320    10255     3512    -3250    -7896    -9057    -6270     -905 
    3793     5035     3424     1840     1398     1123      896     1771 
    3804     5400     4993     3022     1389     1001     1121      901 
     414      328     1220     3294     6340     9356    10480     8291 
    3450    -1705    -5265    -6397    -4387      986     8004    13494 
   15296    13558     9483     3919    -2392    -7881   -10373    -8915 
   -4823     -103     4510     9290    13497    14656    11188     4889 
    -916    -4556    -6154    -6158    -4818    -2376      658     3172 
    4118     3709     2686     1251     -236     -822      206     2521 
    5063     7203     8559     7975     4780      344    -3034    -4045 
   -2797      -70     3267     6172     7573     6997     5026     2816 
     978     -329     -911     -808      -68     1350     3044     4459 
    5228     5022     3867     2138       56    -1891    -2486     -761 
    2663     5945     7604     6963     3856     -885    -5273    -7015 
   -4779      457     5533     7554     5844     1732    -2493    -4978 
   -5404    -4337    -2296        6     1899     3562     5846     8992 
   11659    11912     9092     4086    -1574    -6373    -9090    -9009 
   -6346    -2261     1917     5331     7771     9520    10941    12127 
   12609    11457     8105     3059    -2344    -6961   -10520   -12970 
  -13582   -11479    -6741     -490     5644    10064    11983    11616 
    9690     7040     4141     1236    -1258    -3034    -4093    -4459 
   -4004    -2686     -992      274      939     1647     2991     4785 
    6386     7549     8587     9549     9709     8498     6505     4714 
    3407     2224      540    -1858    -4148    -5408    -5832    -6187 
   -6689    -6666    -5236    -2411     1143     5181     9417    12351 
   12071     8753     4976     2697     1325     -157     -897      530 
    3655     6513     8002     8471     8220     6443     2413    -2367 
   -5244    -5670    -4789    -3029     -472     2120     3852     4351 
    4002     3680     3582     2924     1656     1377     3350     6879 
   10041    11021     9242     5606     1162    -3561    -7433    -8557 
   -6156    -1613     2956     6593     9436    11272    11296     9175 
    5528     1566    -1694    -3919    -4847    -3979    -1362     1895 
    4222     4851     4202     2702        1    -3855    -7069    -7179 
   -3474     2366     7800    11248    12536    11948     9474     5078 
    -504    -5499    -7932    -6664    -1894     4787    11086    14917 
   15134    12167     7380     1648    -4450    -9340   -10893    -8621 
   -3901     2047     8325    13387    15753    14494     9225     1077 
   -7183   -12738   -14351   -12658    -8719    -3079     3079     7812 
   10180    10620     9722     7550     3894     -842    -5408    -8737 
  -10088    -8326    -2808     5047    11870    14677    13046     8407 
    2344    -3516    -7240    -7620    -5652    -3599    -1891     1129 
    5637     9147     9791     8244     5972     3704     1740      486 
     496     1962     4182     5962     6324     4927     2380      -33 
   -1200     -957       -1     1026     1822     2018      934    -2035 
   -5913    -7928    -6304    -1996     3145     8232    12711    15453 
   15275    12070     6993     1325    -4333    -9310   -11956   -10575 
   -5622       27     3967     5772     5417     3196      876      569 
    2880     6569     9687    10924    10177     8302     5667     1657 
   -3585    -8538   -11749   -13019   -12864   -10754    -5209     3586 
   12815    19318    22098    22446    21568    18779    13184     5499 
   -2884   -10586   -16001   -17926   -16104   -11037    -3654     4787 
   12457    17188    17220    11977     2925    -6671   -13886   -17167 
  -15348    -8046     2747    13317    20537    23183    21402    15412 
    5684    -5589   -14573   -18156   -15824    -9150     -380     8232 
   14935    18935    19942    17782    13317     8797     5760     3420 
     500    -2956    -5972    -7348    -6658    -4784    -2895    -1517 
    -507      409     1206     2147     3546     4266     2486    -1611 
   -5683    -7874    -8364    -8013    -6640    -3580      589     4021 
    5983     7898    11003    14723    17695    18752    17031    12280 
    5192    -2623    -9093   -12804   -13655   -12140    -8518    -3071 
    2836     7246    10050    12818    15147    14272     9239     2702 
   -2547    -6839   -11614   -15669   -16384   -13531    -9363    -5810 
   -2702     1247     6058    10295    13315    15867    18145    18921 
   17238    13603     8860     3098    -3419    -9370   -13259   -14153 
  -11605    -5961     1414     8225    12073    12402    10763     8604 
    5918     2313    -1167    -2558    -1734     -568       91      977 
    1976     1844      342    -1302    -1973    -1601     -611      915 
    3017     5077     6114     5670     4290     3156     2778     2643 
    2708     3615     4878     4912     3229      978     -538    -1023 
    -862      197     3006     7267    11340    13861    14708    14199 
   11936     7738     2853    -1561    -5898   -10613   -14489   -15696 
  -14044   -10627    -5846      599     8214    14964    18596    18199 
   13597     5271    -4507   -12734   -17332   -17041   -11190     -382 
   12395    22230    26114    25110    20812    12746     1012   -11226 
  -19403   -21408   -18982   -14702    -8823     -469     9008    15749 
   17080    14085     9232     3339    -3492    -9637   -12526   -11460 
   -8309    -4666     -179     5471    10947    14343    14804    13062 
   10643     7915     3905    -1479    -6459    -8738    -7580    -4396 
    -889     2403     4955     5566     4263     2998     3258     4880 
    6787     7507     6399     4446     2523       95    -3387    -7087 
   -9524    -9844    -8217    -5617    -2403     2326     8245    12823 
   14642    14929    14972    14592    13116    10471     7188     3623 
    -230    -3858    -5753    -4658     -924     4070     9012    12726 
   14288    13378     9953     4067    -3291    -9886   -13298   -12123 
   -6902     -126     5413     8225     8094     5332      583    -5105 
  -10308   -13452   -13818   -11793    -7686    -1687     4831     9593 
   11286    10404     7982     4147    -1071    -6045    -8203    -6305 
   -1570     3252     6219     7342     7284     6313     5065     4495 
    4585     4869     5641     6774     6588     3581    -1138    -4148 
   -3171     1086     6983    13321    18774    21602    20254    14751 
    6801    -1996   -11118   -20615   -29420   -34078   -31515   -22314 
   -9175     5239    18246    27234    29959    25451    15336     3437 
   -6119   -10990   -11111    -7495    -1374     5775    12251    16221 
   16021    11079     2647    -6863   -15547   -22337   -25817   -24574 
  -18751    -9841      886    12494    22977    29304    29104    22057 
   10894      662    -4712    -4995    -2141     2681     8930    14189 
   15020    10770     4229    -1271    -4499    -6461    -8005    -8390 
   -6538    -2350     3048     7913    11570    14624    16726    16668 
   14478    11082     7761     5254     1906    -3083    -7630   -11299 
  -15078   -17836   -18243   -16356   -12266    -6417      -25     5651 
    8993     9018     6659     3426      596     -657       94     2241 
    4665     6254     6007     3904     1013    -1993    -4473    -5003 
   -2744     1730     6605     9981    11853    13219    13722    12147 
    8492     4391     1449     -135     -708      357     3998     9737 
   15543    18762    17288    10898     1202    -9722   -20108   -28242 
  -32275   -31023   -24660   -14805    -3835     6632    15782    22657 
   26501    27006    24714    21119    17105    13308    11273    11574 
   12810    13216    12237    11024    10131     7703     2401    -4140 
   -9216   -12036   -13883   -15600   -16502   -15738   -13285    -9630 
   -5131      471     7179    13545    17678    18797    17447    14407 
    9958     4958      841    -1606    -2423    -2168     -764     2430 
    6381     8816     9046     8019     6299     3761      562    -2667 
   -5417    -7620    -9391   -11038   -12540   -12789   -11141    -9020 
   -7998    -7846    -8066    -8951   -10243   -10701    -9270    -6042 
   -1898     2544     7086    10822    12205    11086     8401     4610 
     737    -1702    -2031     -349     2378     4893     6768     7551 
    6127     2389    -2230    -6119    -8162    -8023    -5879    -2035 
    2046     3975     2444    -1786    -6211    -8006    -6211    -2234 
    2481     7886    13783    18499    19561    15828     8765     1347 
   -3966    -6358    -5690    -1626     5076    12120    16888    17814 
   15352    11076     6191     2288     1629     5090    11178    17487 
   22199    24233    23047    18666    11896     4247    -2728    -8037 
  -11502   -13805   -15811   -17433   -18382   -19010   -18620   -16079 
  -11801    -6845    -1819     3451     8708    12182    12510    10003 
    5861     1154    -2673    -3445     -611     4468    10247    14856 
   16740    15484    11080     3726    -5073   -12056   -14392   -11754 
   -5679     1664     8453    13867    17324    17814    14774     9301 
    4029      831     -634     -672     1516     5842    10751    13882 
   13817    11615     8448     4020     -961    -4128    -4182    -2191 
     -28     1615     3592     6655    10197    12888    13772    12604 
    9286     3809    -3009    -9740   -14970   -17766   -18094   -15977 
  -11148    -4237     3223     9536    13417    14557    13516    11400 
    9254     7674     6820     6396     5980     5130     3203     -135 
   -4621    -9570   -13459   -14403   -11916    -7383    -2826      737 
    3916     7296     9437     8503     5610     3665     3653     4029 
    3065     1165      -47     -209     -294     -831     -738     1063 
    3697     5884     7713     9833    12253    13397    10536     2925 
   -6795   -15070   -19654   -19963   -16429   -10145    -3038     2882 
    6621     8151     7240     3597     -969    -3177    -1344     3832 
   10667    17539    22608    23851    20113    11738      507   -11186 
  -21240   -28082   -30647   -27962   -19530    -6967     5919    15294 
   19288    17761    10972      -87   -12479   -21736   -23630   -16424 
   -2428    13529    27652    38088    42735    38907    26623    10577 
   -3404   -13428   -20289   -22962   -19434   -10476      -28     7885 
   12033    13478    12901     9740     4448     -460    -2729    -1306 
    3958    11323    18090    22767    24919    23868    18733     9811 
    -635    -9396   -14462   -15727   -13701    -8657     -842     8769 
   17737    23001    23252    19379    12505     3468    -6525   -15554 
  -20908   -21003   -16725    -9765    -1555     6502    12717    14912 
   12039     5946     -880    -8136   -15619   -21010   -21991   -18596 
  -12795    -6129     1012     7500    11423    11867     9919     8116 
    7557     6332     2691    -2127    -5544    -6740    -7238    -8487 
   -9968    -9764    -6521    -1285     3515     7246    11287    15564 
   17899    17188    14185     9701     4098    -1318    -4021    -2702 
    1282     5583     9120    12231    14403    13756     9510     3161 
   -2783    -6377    -6729    -3684     1814     7523    11526    13532 
   13572    10960     6374     2558     1317     2307     4357     6149 
    7036     7231     5903     1377    -5702   -12451   -16546   -16722 
  -12827    -5776     3646    13867    21789    25068    23423    18033 
   10731     3338    -2609    -6357    -7865    -7036    -4031      -76 
    2636     2787     1078    -1267    -3456    -4996    -5599    -4482 
   -1134     3469     8151    12463    15662    16688    15361    12460 
    8483     3487    -1663    -5289    -6369    -5551    -4266    -2466 
    1225     6675    11245    12027     8299     1441    -6806   -15302 
  -22464   -25510   -22735   -15334    -5896     3345    10573    13840 
   11757     4760    -5150   -15350   -23510   -27816   -26239   -17479 
   -3076    12630    25373    33200    35623    32259    23326    11153 
    -307    -8635   -13921   -16846   -17548   -15917   -12054    -6513 
    -612     4263     7591     9159     8996     7765     6023     4052 
    2160      614      201     1309     2695     3580     5046     8106 
   12290    16729    20893    23417    22231    16390     7153    -1989 
   -7692    -9551    -8829    -5913     -926     5055    10694    14567 
   15090    12121     7318     1988    -3609    -8864   -12309   -12268 
   -7479     1644    11828    18697    20021    16241     9142      554 
   -8240   -15402   -18283   -15583    -8891     -822     7545    15583 
   21163    21772    17128    10095     4247     1169      992     3496 
    7600    11192    12410    10644     5614    -2683   -11983   -18234 
  -19063   -15395    -9694    -3889      718     2878     1895    -1518 
   -5849    -9877   -12401   -12333    -9387    -3788     3859    12502 
   20198    24009    22505    17073     9769     2108    -4779   -10006 
  -12417   -11601    -9477    -8309    -7943    -6813    -4541    -2415 
   -1183      211     2025     2570     1728     2262     6022    10945 
   12887     9980     3910    -2974    -9598   -15384   -18712   -17240 
  -10470     -375    10368    19611    26195    29531    28790    23376 
   13980     2083   -10924   -22631   -29444   -29424   -23210   -12086 
    2245    16970    28834    35348    36076    32409    25439    15465 
    3723    -7252   -15184   -19060   -18939   -14978    -6656     5983 
   20055    30306    33003    28017    17004     2208   -13398   -26573 
  -34042   -33704   -26350   -14501     -708    11713    19157    20236 
   15773     7146    -3361   -12675   -18342   -19074   -14796    -6065 
    5877    18269    27702    31445    28310    19511     7632    -4789 
  -14936   -19720   -17080    -7400     5859    17929    25776    28745 
   27383    23264    18581    14072     8638     2060    -4066    -8110 
   -9213    -7549    -4129      236     4575     7218     6894     3646 
   -1182    -5969   -10049   -13323   -15392   -15813   -14280   -10542 
   -4816     2033     8976    14733    17478    15288     7600    -3314 
  -13653   -20991   -24339   -23067   -17466    -8658     2012    12156 
   18604    19980    17479    12923     7844     3929     2112     1669 
    1580     2169     4355     7240     8090     6062     3843     3577 
    3650     1532    -2450    -6192    -8810   -10524   -10999    -9298 
   -4992     1183     7901    13822    17703    18809    17172    13624 
    9590     5822     1945    -1833    -4191    -4263    -2289      984 
    4828     8024     8463     4945    -1676    -9749   -17277   -21660 
  -21046   -15849    -7693     2389    13001    21192    24115    20989 
   13304     4124    -3379    -7580    -8560    -7126    -3956      761 
    7017    13875    19020    20603    18808    15003    10385     4946 
   -1748    -8596   -13795   -16834   -18118   -17421   -13798    -7190 
     903     8777    15350    19963    22262    21612    17690    11820 
    5522     -588    -5321    -6889    -4523     1059     7940    13551 
   15947    14411     9333     2191    -5022   -10323   -11989    -9369 
   -3418     3915    10386    14015    13829     9637     1371    -9813 
  -20541   -27048   -27413   -21802   -11823      249    11971    20919 
   25149    24046    18877    11732     4120    -2586    -6596    -6910 
   -4460    -1228     1455     3264     4060     3530     1876      375 
     198     1116     1985     1790      391    -1337    -2528    -2740 
   -1385     1989     7052    12559    16691    18281    17836    16452 
   13914     9058     2022    -5148   -10368   -13008   -13255   -11227 
   -7580    -3646     -612      832      693     -643    -2830    -5144 
   -6577    -6629    -5340    -2361     2874     9487    15334    19080 
   20679    19834    15457     7464    -1822    -9115   -13107   -15214 
  -16352   -15230   -11273    -5946     -722     3793     7175     8765 
    8014     5089      943    -3063    -5772    -6628    -5424    -2421 
    1294     4604     7114     8228     6860     3343     -321    -3026 
