Origin Time       2025/01/13 21:19:00
Lat.              31.8
Long.             131.6
Depth. (km)       30
Mag.              6.9
Station Code      MYZ018
Station Lat.      31.3987
Station Long.     131.3054
Station Height(m) 12
Record Time       2025/01/13 21:19:47
Sampling Freq(Hz) 100Hz
Duration Time(s)  103
Dir.              N-S
Scale Factor      7845(gal)/8223790
Max. Acc. (gal)   39.187
Last Correction   2025/01/13 21:19:46
Memo.             
[...]
   -7119    -7666    -8028    -8078    -7894    -7696    -7632    -7631 
   -7481    -7037    -6327    -5448    -4438    -3276    -1945     -553 
     564     1044      832      151     -653    -1123     -896       70 
    1599     3462     5366     7001     8187     8953     9491     9915 
   10123     9994     9566     9128     9067     9472    10100    10689 
   11148    11566    12070    12700    13378    13983    14443    14767 
   15083    15572    16272    17042    17685    18041    18069    17901 
   17670    17315    16695    15739    14423    12784    10935     9004 
    7107     5275     3414     1377     -963    -3650    -6551    -9359 
  -11619   -12892   -13042   -12363   -11462   -10891   -10723   -10517 
   -9680    -7901    -5451    -2999    -1012      541     1904     3284 
    4830     6401     7620     8338     8626     8600     8418     8054 
    7408     6678     6249     6385     7045     8014     9204    10552 
   11800    12679    13146    13365    13495    13479    13146    12457 
   11522    10428     9097     7388     5337     3145     1047     -820 
   -2567    -4376    -6246    -7969    -9335   -10346   -11051   -11296 
  -10860    -9836    -8654    -7618    -6687    -5852    -5155    -4395 
   -3273    -1825     -348      915     1741     1900     1452      757 
     160      -93      163      959     2246     3873     5556     7099 
    8472     9572    10235    10538    10902    11799    13343    15232 
   17032    18412    19107    18967    18076    16692    15020    13174 
   11311     9683     8573     8097     8087     8249     8311     8089 
    7469     6467     5395     4797     5085     6334     8301    10497 
   12251    12991    12626    11435     9625     7287     4615     1907 
    -625    -2894    -4816    -6332    -7470    -8260    -8646    -8592 
   -8187    -7582    -7022    -6718    -6496    -6025    -5259    -4187 
   -2694     -850     1220     3535     6070     8694    11325    13859 
   16104    17976    19557    20970    22253    23202    23531    23148 
   22129    20549    18414    15649    12152     8082     4031      591 
   -1880    -3150    -3302    -2826    -2232    -1660     -986     -191 
     456      549      -90    -1206    -2326    -3034    -3202    -2933 
   -2290    -1406     -594     -163     -317    -1115    -2520    -4529 
   -7006    -9512   -11460   -12455   -12544   -12056   -11240   -10154 
   -8727    -6885    -4631    -1964     1048     4167     7157     9929 
   12537    15087    17552    19770    21664    23295    24733    25894 
   26554    26590    26133    25500    25002    24645    24240    23637 
   22599    20833    18301    15265    12024     8683     5240     1825 
   -1336    -3993    -5844    -6666    -6539    -5890    -5362    -5429 
   -5933    -6282    -6224    -5934    -5535    -5089    -4810    -4969 
   -5741    -7056    -8536    -9764   -10615   -11186   -11561   -11701 
  -11477   -10864    -9973    -8684    -6590    -3591     -175     3119 
    6272     9552    13139    17012    20969    24736    28116    30969 
   33216    34959    36348    37357    37822    37613    36738    35249 
   33220    30865    28260    25227    21698    17744    13354     8627 
    3869     -602    -4692    -8513   -12166   -15697   -19071   -22077 
  -24467   -26006   -26495   -25884   -24348   -22366   -20599   -19450 
  -18744   -17882   -16297   -13857   -10804    -7491    -4471    -2284 
    -773      707     2378     4036     5607     7102     8382     9228 
    9512     9337     9013     8860     9093     9774    10701    11399 
   11584    11581    11913    12708    13545    13878    13687    13495 
   13736    14397    15114    15516    15672    16058    16904    17821 
   18284    18114    17393    16414    15646    15330    15245    14895 
   13753    11565     8664     5740     3253     1273     -291    -1561 
   -2721    -3905    -5175    -6516    -7769    -8685    -9016    -8603 
   -7489    -6021    -4757    -4137    -4302    -5084    -5995    -6420 
   -6097    -5279    -4360    -3555    -2829    -1962     -870      295 
    1374     2216     2687     2740     2486     2238     2359     2932 
    3703     4326     4537     4168     3288     2168      953     -426 
   -2043    -3815    -5381    -6281    -6211    -5103    -3150     -735 
    1761     4059     5995     7542     8781     9776    10485    10921 
   11304    11908    12912    14345    16013    17670    19103    20108 
   20661    20934    20988    20710    19986    18819    17282    15502 
   13683    12085    10956    10512    10795    11426    11739    11364 
   10274     8550     6543     4885     4008     3882     4176     4518 
    4676     4633     4457     4124     3492     2315      449    -1879 
   -4369    -6880    -9162   -10829   -11769   -12285   -12695   -12943 
  -12758   -12078   -11060    -9760    -8024    -5736    -3024     -193 
    2424     4673     6679     8722    10908    13023    14770    15978 
   16553    16449    15849    15155    14663    14273    13629    12495 
   10970     9397     8058     6941     5838     4671     3584     2701 
    1931     1120      278     -449     -957    -1202    -1182     -904 
    -364      319      973     1610     2307     2871     2897     2042 
     243    -2083    -4109    -5182    -5260    -4653    -3524    -1875 
     168     2300     4329     6392     8739    11333    13786    15603 
   16568    16957    17185    17367    17385    17151    16707    16094 
   15182    13724    11689     9370     7088     4976     3041     1298 
    -197    -1328    -2029    -2397    -2655    -2971    -3326    -3600 
   -3665    -3315    -2381     -880     1109     3435     5780     7959 
    9977    11720    12896    13177    12407    10741     8429     5674 
    2714     -151    -2648    -4712    -6489    -8004    -9043    -9427 
   -9198    -8498    -7406    -5961    -4199    -2124      310     3059 
    5833     8351    10485    12019    12669    12442    11630    10547 
    9423     8432     7716     7325     7110     6810     6264     5549 
    4815     4021     2953     1541       81    -1075    -1903    -2593 
   -3154    -3307    -2758    -1499       74     1371     2031     2164 
    2093     1926     1576     1150     1005     1447     2593     4517 
    7163    10102    12756    14844    16498    17987    19333    20317 
   20829    20969    20973    21012    21033    20830    20263    19323 
   17940    15942    13459    10868     8267     5570     2806     -133 
   -3377    -6662    -9694   -12344   -14339   -15404   -15465   -14585 
  -12960   -10902    -8672    -6326    -3808    -1183     1385     3854 
    6245     8556    10739    12683    14326    15635    16403    16467 
   16085    15716    15534    15364    14932    14046    12675    10990 
    9213     7493     5971     4689     3523     2398     1436      865 
     841     1192     1505     1566     1557     1863     2670     3680 
    4386     4600     4471     4234     4044     3796     3227     2272 
    1127       52     -742    -1108    -1162    -1244    -1458    -1493 
   -1008      170     2033     4274     6400     8035     9043     9521 
    9717     9836     9929     9957     9888     9736     9493     9005 
    8017     6381     4179     1733     -486    -2073    -2882    -3105 
   -3094    -3019    -2932    -2941    -3111    -3415    -3774    -4058 
   -4124    -3937    -3555    -2914    -1730      205     2724     5340 
    7619     9440    10980    12411    13621    14300    14319    13882 
   13211    12307    11207    10115     9232     8692     8487     8484 
    8598     8723     8669     8295     7608     6778     5976     5186 
    4248     3064     1750      541     -445    -1192    -1626    -1740 
   -1759    -2025    -2682    -3508    -4055    -4032    -3457    -2474 
   -1215      244     1869     3553     5167     6723     8303     9873 
   11221    12222    13003    13783    14771    16139    17891    19828 
   21593    22797    23183    22667    21269    19074    16146    12559 
    8549     4533      885    -2307    -5225    -7985   -10419   -12260 
  -13416   -14076   -14530   -14843   -14936   -14820   -14477   -13780 
  -12665   -11153    -9209    -6794    -4044    -1250     1340     3505 
    4992     5683     5763     5594     5472     5580     6035     6886 
    8043     9312    10557    11811    13217    14851    16599    18301 
   19889    21324    22497    23268    23585    23465    22944    22103 
   20946    19276    16823    13508     9679     6124     3481     1487 
    -552    -2674    -4533    -6162    -7695    -9077   -10220   -11080 
  -11722   -12133   -12136   -11495    -9944    -7445    -4375    -1225 
    1676     4112     5849     6821     7218     7084     6307     5059 
    3732     2547     1455      175    -1590    -3720    -5582    -6515 
   -6353    -5435    -4233    -3037    -1871     -630      870     2793 
    5078     7527     9972    12349    14632    16737    18566    20096 
   21386    22553    23677    24663    25207    24980    23801    21717 
   19056    16360    14118    12482    11214     9948     8469     6754 
    4951     3329     1979      739     -616    -2258    -4129    -5888 
   -7119    -7701    -7884    -8027    -8364    -8920    -9544   -10146 
  -10797   -11508   -12124   -12494   -12660   -12785   -12915   -12926 
  -12652   -11924   -10613    -8758    -6544    -4090    -1335     1800 
    5221     8692    12070    15296    18191    20409    21724    22202 
   22007    21161    19653    17666    15546    13662    12206    11140 
   10392     9967     9850     9919     9980     9904     9652     9144 
    8259     7002     5493     3875     2436     1507     1210     1591 
    2659     4175     5832     7404     8569     8964     8537     7599 
    6604     5979     5888     6031     5829     4889     3165      789 
   -2062    -5225    -8488   -11543   -14057   -15780   -16540   -16258 
  -14987   -12833    -9803    -5776     -804     4405     8607    11037 
   12064    12437    12364    11827    11013    10039     8962     7951 
    7048     6129     5163     4217     3368     2664     2095     1642 
    1237      665     -244    -1449    -2666    -3500    -3681    -3082 
   -1628      618     3396     6370     9317    12112    14530    16266 
   17234    17647    17791    17945    18265    18651    18989    19360 
   19886    20664    21660    22581    23122    23195    22808    21994 
   20788    19195    17224    14958    12604    10521     8865     7356 
    5621     3580     1437     -496    -1938    -2687    -2673    -1981 
    -901      122      753      916      750      417     -139    -1150 
   -2802    -5134    -7931   -10704   -12961   -14526   -15481   -15847 
  -15492   -14295   -12355   -10056    -7824    -5913    -4317    -2855 
   -1350      332     2261     4398     6620     8770    10689    12181 
   12992    12993    12348    11411    10573    10222    10616    11732 
   13347    15252    17327    19379    20984    21649    21097    19390 
   16807    13676    10401     7402     4799     2470      413    -1314 
   -2795    -4099    -5197    -6037    -6538    -6643    -6385    -5813 
   -4922    -3705    -2226     -594     1112     2791     4359     5782 
    6955     7781     8320     8681     9023     9539    10382    11650 
   13243    14868    16321    17459    17945    17405    15734    13090 
    9823     6466     3528     1239     -368    -1314    -1769    -2008 
   -2293    -2949    -4247    -6114    -8212   -10143   -11526   -12013 
  -11369    -9605    -6966    -3796     -376     3049     6138     8536 
   10034    10581    10349     9755     9236     9061     9356     9971 
   10530    10843    10928    10779    10304     9367     7931     6089 
    3969     1674     -776    -3321    -5678    -7541    -8761    -9247 
   -8957    -7950    -6374    -4423    -2234       45     2219     4198 
    6004     7592     8830     9679    10237    10721    11333    12027 
   12544    12725    12687    12854    13714    15398    17612    19904 
   21895    23400    24317    24499    23768    22019    19288    15718 
   11522     6963     2293    -2419    -7345   -12488   -17388   -21475 
  -24495   -26501   -27627   -27891   -27193   -25488   -22739   -19026 
  -14791   -10516    -6484    -3017     -214     2212     4409     6272 
    7871     9431    10986    12474    13909    15140    15838    15923 
   15651    15276    14881    14499    14040    13328    12660    12604 
   13169    14025    15017    15992    16773    17259    17382    17085 
   16260    14809    12826    10563     8286     6156     4109     1925 
    -500    -2997    -5255    -7092    -8442    -9265    -9598    -9597 
   -9342    -8681    -7437    -5617    -3234     -143     3696     7879 
   11759    14885    17096    18511    19471    20268    20900    21249 
   21311    21131    20691    19950    18871    17518    16060    14521 
   12721    10405     7352     3553     -746    -5279    -9823   -14146 
  -18002   -21135   -23259   -24198   -24079   -23193   -21685   -19657 
  -17275   -14613   -11781    -9042    -6610    -4699    -3454    -2660 
   -1857     -672     1078     3446     6328     9325    11888    13691 
   14643    14828    14569    14238    14177    14654    15684    17118 
   18837    20711    22546    24078    25008    25184    24644    23587 
   22349    21107    19894    18943    18490    18586    19176    20124 
   21141    21716    21273    19375    15822    10847     5074     -915 
   -6820   -12483   -17712   -22256   -25975   -29033   -31671   -33852 
  -35374   -36231   -36606   -36477   -35552   -33679   -30915   -27201 
  -22527   -17281   -12064    -7267    -2853     1395     5560     9661 
   13765    17751    21394    24692    27762    30518    32672    34128 
   35032    35398    35140    34373    33165    31402    29251    27060 
   24935    22967    21251    19603    17856    16021    14115    12112 
    9999     7873     5782     3605     1242    -1229    -3545    -5478 
   -6984    -8093    -8807    -9111    -9009    -8517    -7578    -6246 
   -4629    -2704     -572     1339     2583     2910     2398     1620 
    1255     1468     1891     2118     1829      645    -1549    -4372 
   -7199    -9424   -10692   -11114   -10930   -10083    -8534    -6683 
   -5085    -3948    -3056    -2049     -669     1210     3619     6548 
    9977    13792    17755    21640    25227    28200    30257    31271 
   31326    30676    29589    28232    26640    24819    22906    21061 
   19330    17718    16125    14457    12804    11225     9699     8306 
    7128     6157     5290     4275     2797      764    -1625    -4241 
   -7172   -10369   -13554   -16448   -18752   -20229   -20920   -21122 
  -21186   -21230   -21072   -20514   -19531   -18279   -16891   -15307 
  -13462   -11416    -9213    -6841    -4407    -1998      545     3457 
    6924    11072    15754    20587    25173    29037    31764    33308 
   33871    33593    32529    30823    28622    25992    23130    20335 
   17776    15587    13926    12818    12127    11634    11111    10465 
    9691     8811     7923     7149     6589     6247     6031     5911 
    5876     5796     5494     4718     3233     1036    -1644    -4502 
   -7210    -9424   -10868   -11464   -11376   -10986   -10693   -10764 
  -11404   -12738   -14629   -16748   -18867   -20947   -22887   -24495 
  -25596   -26002   -25637   -24517   -22635   -20136   -17293   -14242 
  -10932    -7287    -3343      654     4464     8122    11884    15947 
   20294    24663    28725    32243    35063    37207    38815    39966 
   40668    40937    40905    40799    40686    40405    39815    38808 
   37311    35444    33412    31271    28961    26389    23533    20389 
   16826    12787     8445     4072      -62    -3877    -7484   -10906 
  -14100   -17058   -19664   -21687   -22920   -23322   -23039   -22226 
  -21068   -19872   -18839   -17929   -17084   -16317   -15573   -14752 
  -13911   -13107   -12118   -10773    -9305    -8052    -7026    -6007 
   -4838    -3465    -1890     -144     1780     3893     6160     8603 
   11140    13540    15768    17930    19958    21618    22773    23452 
   23731    23672    23283    22508    21316    19776    18087    16456 
   14982    13672    12445    11133     9618     7962     6351     4891 
    3570     2448     1611     1031      635      441      515      822 
    1227     1599     1838     1915     1850     1645     1390     1229 
    1325     1837     2673     3495     3986     3942     3283     2115 
     761     -403    -1148    -1406    -1251     -927     -754     -945 
   -1507    -2290    -3071    -3724    -4297    -4808    -5186    -5362 
   -5277    -4916    -4280    -3241    -1675      368     2689     5054 
    7290     9286    10979    12332    13348    14110    14733    15298 
   15888    16528    17109    17505    17631    17361    16627    15475 
   13940    12020     9748     7308     4993     2940     1175     -213 
   -1217    -1906    -2346    -2725    -3163    -3547    -3821    -4018 
   -4101    -4047    -3807    -3245    -2296    -1058      317     1702 
    2984     4085     4985     5698     6234     6563     6664     6608 
    6532     6534     6652     6897     7214     7510     7715     7755 
    7591     7304     7002     6718     6501     6423     6462     6488 
    6369     6030     5476     4822     4167     3500     2818     2137 
    1448      803      288      -74     -321     -461     -440     -210 
     211      793     1506     2309     3115     3808     4328     4681 
    4943     5266     5798     6571     7530     8598     9709    10806 
   11838    12762    13512    13965    14010    13620    12926    12177 
   11547    11078    10712    10305     9722     8962     8086     7080 
    5854     4348     2621      838     -822    -2234    -3375    -4251 
   -4838    -5196    -5406    -5464    -5354    -5120    -4830    -4502 
   -4109    -3649    -3140    -2524    -1756     -897       -4      953 
    2042     3327     4808     6444     8178     9895    11457    12810 
   14006    15071    15950    16553    16803    16690    16383    16077 
   15736    15199    14415    13390    12091    10538     8850     7187 
    5622     4108     2633     1313      224     -625    -1262    -1794 
   -2335    -2925    -3564    -4232    -4874    -5429    -5861    -6119 
   -6129    -5865    -5343    -4588    -3643    -2552    -1378     -292 
     490      905     1073     1177     1386     1798     2404     3187 
    4156     5301     6627     8124     9647    10955    11885    12418 
   12614    12525    12194    11735    11252    10735    10156     9552 
    8999     8522     8029     7392     6621     5904     5416     5194 
    5196     5385     5752     6296     6964     7595     7969     7950 
    7631     7221     6836     6509     6242     6018     5817     5661 
    5632     5794     6118     6448     6592     6484     6193     5780 
    5194     4307     3057     1529     -109    -1705    -3195    -4542 
   -5672    -6519    -7056    -7314    -7376    -7302    -7063    -6536 
   -5610    -4280    -2583     -517     1861     4383     6856     9178 
   11346    13285    14858    16046    16920    17473    17660    17451 
   16825    15882    14864    13972    13178    12274    11101     9636 
    7900     5945     3943     2116      568     -689    -1721    -2619 
   -3379    -3952    -4344    -4587    -4722    -4738    -4569    -4201 
