Origin Time       2025/01/13 21:19:00
Lat.              31.8
Long.             131.6
Depth. (km)       30
Mag.              6.9
Station Code      MYZ015
Station Lat.      31.7182
Station Long.     131.0624
Station Height(m) 146
Record Time       2025/01/13 21:19:42
Sampling Freq(Hz) 100Hz
Duration Time(s)  133
Dir.              U-D
Scale Factor      7845(gal)/8223790
Max. Acc. (gal)   21.777
Last Correction   2025/01/13 21:19:42
Memo.             
[...]
   -1861      966     5663    10343    13112    12753     9400     4793 
    1151      -16     1869     6065    10324    12260    10995     7311 
    3030      244       28     1948     4899     7469     8149     6427 
    3250       13    -2340    -3252    -2506     -252     3207     6859 
    8884     8117     4980     1143    -1513    -2083     -561     2623 
    6407     9545    11317    11206     8876     5134     1977      855 
    1641     3618     6253     8969    11159    12368    12144    10046 
    6358     2397     -325     -978      298     2724     5325     6998 
    6924     5101     2253     -384    -1553     -572     2407     6196 
    9248    10527     9620     6922     3399       71    -1728     -861 
    2353     6313     9171     9745     8218     5881     4131     3959 
    5865     9283    12388    13571    12710    10588     8322     7210 
    7893     9756    11152    10426     7425     3835     1890     2709 
    5656     9084    11153    10396     6777     2026    -1506    -2147 
     260     4321     8262    10639    10246     6859     1721    -3275 
   -6440    -6710    -3798     1671     7940    12684    14370    13076 
    9994     6207     2403     -265     -562     1310     3931     6088 
    7334     7850     7759     6741     5027     3688     3415     4365 
    6615     9764    12654    13798    12444     9139     5023     1593 
     625     2573     5929     8868    10130     9032     6131     3199 
    1915     2721     4737     6625     7526     7271     5988     3851 
    1661      891     2259     5182     8379    10187     9632     7406 
    4950     3383     2990     3258     3646     3977     4409     5238 
    6401     7534     8262     8008     6081     2610     -791    -2070 
    -394     3543     7997    10686     9784     5266     -622    -4815 
   -5478    -2508     2910     8352    11205    10589     7461     3496 
     183    -1917    -2577    -1306     1841     6066    10233    13011 
   13332    11084     7511     4315     2401     1864     2586     4707 
    8195    11919    14102    13562    10330     5714     1551     -820 
    -800     1587     5529     9659    12657    13281    10677     5698 
     819    -2174    -3172    -2523     -333     3127     7045    10057 
   10982     9641     6608     2810     -506    -2295    -1898      967 
    5436     9598    11885    11497     8433     4020      257    -1771 
   -2007     -504     2760     7294    11362    12615    10219     5698 
    1402    -1023     -837     1730     5385     8669    10810    11522 
   11130    10534    10111     9660     8880     7204     4716     2755 
    2586     4407     7470    10606    12779    13375    12426    10264 
    7238     4029     1309     -398     -519      706     2334     3855 
    4822     4711     3848     3002     2509     2516     2955     3495 
    4066     4452     4028     3002     2511     3171     4519     5437 
    5184     4540     5008     6998     9861    12584    13500    11169 
    6196      908    -2251    -1896     1420     5992    10374    12791 
   11431     7145     3493     2945     4847     7051     8035     7595 
    5857     2910       97     -579     1274     4334     7253     9670 
   11271    10735     7254     2142    -2026    -3330    -1683     1719 
    5479     8243     9096     8135     6292     4718     4347     5448 
    7414     9283    10368    10612    10724    11233    11476    10365 
    7449     3210     -766    -2716    -2027      931     5078     8525 
    9670     8414     5742     2647      175     -190     2227     6203 
    9705    11156     9906     6706     3088       74    -1803    -2115 
    -828     1753     4974     7435     7755     5969     3507     1818 
    1312     1375     1372     1752     3543     6874    10737    13462 
   13450    10547     6135     1930     -530     -224     2550     6043 
    8305     8706     7789     6192     4808     4534     5059     5451 
    5385     5321     6076     7541     8363     7611     5652     3543 
    2103     1247      527        8      -75      681     3306     7967 
   12654    15159    15075    12884     8959     3920     -727    -2285 
    1243     8163    14139    16119    13620     8058     2087    -2084 
   -3726    -2515     1594     7183    12070    14742    14481    11585 
    7356     3180      136    -1255    -1220        4     2419     5244 
    7138     7885     8363     8872     8621     6837     4059     1868 
    1270     1914     2708     2988     3272     4770     7824    10671 
   10650     7393     3420     1178     1339     3410     6232     8422 
    8949     7543     5043     2998     2246     2378     2859     3524 
    4025     3989     3585     3557     4440     5319     4804     3400 
    2552     2407     2573     2926     3221     3808     5147     6457 
    7195     8058     9101     9337     8357     6710     5382     5246 
    6507     8947    11788    13225    12017     8893     5485     2976 
    1505      654      440      980     2421     5069     7878     8785 
    7337     4710     2045       76    -1146    -1925    -1466     1163 
    4870     7647     8559     7707     6253     5529     5404     5440 
    6035     7030     7464     6502     3939      727    -1298     -537 
    3119     7939    11824    13702    13369    10998     7461     4468 
    3423     4453     6683     8981    10436    10060     7187     3234 
    1246     2697     6243     9805    12333    13286    12005     8661 
    5275     4109     4961     5759     5077     2706     -703    -3634 
   -4093     -826     5144    10413    11576     8016     2201    -2413 
   -3260      600     7749    14724    17933    15600     9308     3231 
     395      872     3289     5965     7546     8020     8422     9342 
   10396    10905    10172     7406     2538    -3157    -7684    -9054 
   -5999      799     8349    12879    12586     8641     2818    -3808 
   -9170   -10419    -6565      661     8175    13007    13178     8568 
    1667    -3673    -4943    -1883     4063    10314    14577    15993 
   14386     9864     3690    -1923    -5130    -5398    -3672    -1263 
    1258     3816     6334     8598    10045     9668     7029     3541 
    1381     1498     3655     7055    10628    13686    15804    16191 
   14311    10698     6447     2724      834     1150     2681     4672 
    6880     8957    10685    11337    10197     8050     6156     5424 
    6338     7851     8333     7530     6018     4205     2737     2394 
    3298     5036     7144     9258    11376    13413    14254    12557 
    8703     4198     -229    -3739    -4328     -531     6690    13806 
   17169    16015    11797     6324     1402    -1675    -2473    -1516 
      24     1641     3379     4665     4857     4004     2504      305 
   -2941    -6230    -7069    -4005     1996     8988    15584    20884 
   23685    22578    17506    10570     4733     2427     4433     9169 
   14185    17377    16378    10081      909    -6983   -11044   -10929 
   -7515    -1858     4949    10937    14292    14623    11772     6045 
    -720    -6169    -7742    -3932     3126     9324    12353    11931 
    8532     3477    -1447    -4560    -4425    -1030     4162     9477 
   12550    11354     6836     1494    -3122    -5606    -4831    -1271 
    3797     8802    12067    13277    12815    10517     7118     4398 
    3330     3796     5389     7638     9876    11192    10632     7948 
    4523     2697     3631     6462     9404    11152    11645    11341 
   10010     7500     5082     4698     7094    10677    12390    10355 
    5521      461    -2960    -3831    -1845     1337     3281     3449 
    2057     -823    -4325    -7167    -7982    -6011    -2226     1282 
    2729     1971      673      878     3546     7655    10558    10022 
    6018      537    -3828    -5240    -3488      256     4500     8299 
   11369    13463    13980    12263     8143     2270    -4029    -8888 
  -10369    -7736    -1933     4806     9510     9975     6459     1491 
   -1829    -1432     2706     8586    13232    14355    11944     7940 
    4610     3623     5329     8360    10470    10215     7951     5054 
    2870     2637     4820     7850     9132     7566     4298     1433 
     402     1634     4945     9096    11870    11565     8216     3295 
   -1520    -4943    -5726    -2832     3543    11489    17961    20514 
   18966    14976    10713     7785     6721     7511     9545    11372 
   12087    11989    11799    12091    12650    12645    11653    10025 
    8522     7785     8124     9169     9984    10297    10245     9162 
    6608     3505     1198      762     3113     7928    13313    17555 
   19615    18558    14467     8885     3797     1047     1960     6604 
   13387    19786    23598    23522    19647    13401     6550      872 
   -2095    -2062      193     3504     6096     6529     5026     2357 
   -1188    -4750    -6704    -6145    -3816    -1283      446     1008 
     267    -1363    -2690    -2043     1536     6745    10743    11743 
    9718     5559      978    -1950    -1614     2547     8999    14661 
   17126    15570    10858     5125      195    -2976    -3828    -2658 
    -652      754      421    -1520    -3666    -4862    -4997    -4374 
   -3388    -3025    -4118    -5953    -6984    -6633    -5377    -4001 
   -3172    -2455     -764     1699     3919     5464     6313     6851 
    7565     8110     7908     7369     7323     8154     9869    11642 
   12001    10426     7587     4671     3107     3379     4564     5856 
    6743     6297     4212     1505     -351     -369     1485     4135 
    5714     4810     1671    -1698    -2658      288     6141    11871 
   14886    14563    11194     5333    -1267    -5784    -6046    -2142 
    3879     9759    13435    13244    10076     7149     6224     6708 
    7587     8037     7649     6648     5397     4476     4942     7326 
   10876    14412    16862    17293    16356    16112    17355    19237 
   20536    19957    16927    12661     9328     7658     6443     4618 
    2081    -1061    -4584    -7825    -9594    -8683    -5116     -743 
    2106     2528     1379      232       63      870     2493     4822 
    7411     9626    10852    10832     9837     8442     7495     7447 
    7588     6424     3169     -945    -3804    -4423    -3202    -1237 
     492     1250      237    -2363    -4581    -3828     1024     8810 
   16941    22604    23872    20853    15789    11269     8224     6241 
    5216     5645     7338     8600     7917     5863     3958     2949 
    2949     3693     4787     6145     7646     8954     9548     8748 
    6720     4671     3582     3881     5687     9094    14183    20032 
   24491    25315    21552    14736     8032     3987     3582     6373 
   10743    14376    15228    12783     8155     3306      265       51 
    2091     4797     6593     7015     6835     6735     6806     7075 
    7337     7150     6268     4145      402    -3680    -5875    -4915 
   -1148     4149     9625    13605    14544    12183     7429     1983 
   -2606    -5981    -8071    -8560    -7484    -5123    -2076      550 
    1819     1420     -448    -2832    -4283    -4351    -3766    -3018 
   -2054    -1004      -52     1119     3113     6222    10071    13405 
   14746    13328     9647     6039     5204     7288    10251    12282 
   12487    10586     6845     2027    -2378    -4392    -2984     1100 
    6012     9647    10528     8652     5219     1634    -1113    -2508 
   -2434     -832     2776     8469    14828    19774    21859    20713 
   17240    12658     7753     3917     2690     4226     7701    11769 
   14732    15623    14527    11778     7743     3450      234    -1420 
   -1969    -2112    -2143    -1952    -1506     -600      885     2484 
    4081     5822     7055     7064     5398     1548    -3697    -8220 
  -10422    -9491    -5636     -579     4160     7920     9625     8850 
    6762     4283     1818      210     -172      -25       22      133 
    1105     3832     7746    10358     9810     6296     1121    -3352 
   -4626    -1973     3545     9560    13072    11912     5945    -2398 
   -9454   -12312    -9371    -1165     8978    16942    20271    18501 
   12775     5181    -2019    -6340    -5906     -803     7034    14589 
   19093    18889    13374     4297    -4010    -7535    -4953     2254 
   10725    16731    17554    12923     5965     1050      542     4185 
    9987    15337    18790    20148    18951    15584    12563    11938 
   13323    15001    15088    12471     7869     3289      110    -1448 
   -1302      924     5570    11959    17757    20706    20579    18222 
   14481    11092    10011    11317    13828    16371    17612    16945 
   14922    12067     8888     6130     4207     3773     5652     9205 
   12586    14231    13038     9032     3879     -510    -2498     -764 
    4089     9796    14239    15300    11539     3827    -5371   -13242 
  -17308   -16681   -12175    -5224     2012     6407     5887     1567 
   -3473    -6667    -6635    -3520     1040     5362     8245     8706 
    6836     3900     1491     1521     5159    10700    14632    14932 
   11566     5560     -990    -6026    -8730    -9117    -7685    -5008 
   -1304     3017     7254    10930    13113    12193     7948     2458 
   -2091    -4981    -6119    -5567    -4024    -2721    -2910    -4598 
   -5985    -5259    -1853     3532     8305     8985     4247    -3823 
  -11245   -14751   -13212    -7119     1957    11851    20741    26848 
   28116    24170    17334    10617     5979     4284     5748    10056 
   15731    20032    20555    16637     9563     2208    -2440    -3157 
    -477     4656    11364    18139    22330    21186    14199     3700 
   -6817   -13918   -15237   -10972    -3407     4850    11103    12873 
    9582     3287    -2664    -5626    -4719     -324     6285    12465 
   15630    15388    12834     9111     5332     2617     1987     4054 
    8460    13705    17851    19548    18172    13705     7577     2521 
      27     -837    -1055      -10     3226     8511    14370    18526 
   19504    17388    12919     6849     -341    -7821   -13432   -15044 
  -12241    -6116     1270     7649    11502    12607    12333    12444 
   13050    13066    12085    10120     6930     2913     -780    -3406 
   -4683    -4091    -1417     2280     5190     6131     5501     4842 
    4685     3896     2050      608     1042     3315     6461     9663 
   12432    13896    13096    10644     8417     7728     9061    11697 
   13649    13770    12540    10804     9861    10844    12777    13992 
   14297    13736    11758     8513     4958     1826     -549    -2053 
   -2617    -1938       52     2613     4857     6187     6015     4364 
    2404     1725     3179     6227     9360    11225    11754    11792 
   11210     9499     7618     6732     7099     8596    10129    10586 
   10258     9255     7385     5271     3384     1894      793     -626 
   -2574    -4330    -5632    -6619    -7458    -8417    -9138    -9155 
   -8665    -7279    -3894     1256     6183     9323    10573    10134 
    8286     5961     4361     4199     5323     7088     8640     8883 
    7148     3599     -596    -2990    -1767     2142     6677    10110 
   10855     9208     7133     5220     3505     3230     4838     7072 
    8592     8812     7994     7236     7736     9829    12638    14858 
   15901    15822    14629    12390     9452     6727     5566     6508 
    8502     9582     8172     4194     -841    -5148    -7978    -9331 
   -9040    -7188    -4742    -2578     -834      288      643     1011 
    2432     4702     6659     8064    10108    13625    17523    20042 
   20607    19299    16726    14773    14773    15380    14056     9832 
    3856    -1682    -5063    -5815    -4214    -1359     1162     2893 
    4077     4465     3908     2629      981     -291     -525     -191 
    -353     -893     -460     1968     6022    10062    12629    13417 
   12490    10174     7789     6502     6060     5682     5076     4276 
    3495     2822     2344     3024     5860     9833    12501    12463 
   10300     7665     5705     4401     3657     3677     4023     3975 
    3307     1965      225    -1305    -2301    -2502    -1696     -114 
    1929     4224     6258     7071     5802     2496    -1738    -5143 
   -6282    -5074    -2334     1196     4602     6770     7466     7723 
    8780    11002    13775    15892    16093    13830     9833     5611 
    2380      747     1031     2859     5281     7867    10216    11275 
   10748     9393     7570     5286     2840      823      263     2095 
    5967    10119    12459    11542     7175      961    -4441    -7277 
   -7060    -3732     1927     8113    13047    15302    13864     9348 
    4018      298      -25     3388     9073    15246    20376    22599 
   20872    15979     9698     4318     2162     4098     8946    13838 
   15368    12433     7211     2250    -1089    -1846       48     3472 
    7223    10239    11361     9832     5915     1215    -2031    -2648 
   -1074     1656     4380     5984     5998     4421     1498    -1934 
   -4479    -5067    -4124    -2862    -1821    -1444    -2134    -3389 
   -4544    -5112    -4660    -3796    -3555    -3337    -1760     1159 
    4329     6673     7497     6937     5721     4409     3308     2378 
    1480     1300     2671     5329     8441    10825    11165     9684 
    7844     6296     5078     4519     4900     6153     7705     8696 
    8810     8448     7938     7535     7713     8495     9597    11080 
   13212    15915    18385    19629    19024    16437    12544     8719 
    6494     6916     9703    13360    16609    18940    19665    17867 
   13225     6470     -407    -5161    -6642    -4826     -612     4309 
    8073     9336     7982     5113     2192      -10    -1517    -1887 
    -341     2785     6295     9136    10562     9794     6392     1408 
   -2890    -4637    -3329      226     4665     8407     9668     7547 
    3113    -1625    -5248    -6771    -5742    -3095     -224     1857 
    1922     -494    -3732    -5370    -3951      712     7396    13905 
   18273    19612    18176    15095    12141    10575    10289    10727 
   11352    11672    11627    11333    10835    10072     8862     7306 
    6085     5913     6478     7227     8191     8823     8463     7620 
    6745     5630     4401     3419     3148     4071     5836     7680 
    9246     9987     9220     6793     3222     -125    -1833    -1597 
     178     3269     7290    10632    11439     9621     6308     2772 
     224     -900     -585     1204     3946     6569     7942     7288 
    4587      919    -1903    -2683    -1541      457     1827     1524 
    -164    -1952    -2991    -3549    -4355    -5841    -7612    -8619 
   -8086    -5972    -2905      -35     1698     2338     2496     2613 
    2857     3175     3879     5636     7998     9819    10837    11160 
   10964    10858    11084    11358    11574    11826    12221    12692 
   12781    12380    12051    12170    12629    12985    12857    12437 
   12044    11789    11777    11707    11084    10044     9108     8606 
    8388     7817     6724     5749     5084     4415     4060     4363 
    4726     4476     3628     2226      414     -780     -495     1100 
    3697     6589     8657     9575     9495     8785     8213     8055 
