Origin Time       2025/01/13 21:19:00
Lat.              31.8
Long.             131.6
Depth. (km)       30
Mag.              6.9
Station Code      MYZ015
Station Lat.      31.7182
Station Long.     131.0624
Station Height(m) 146
Record Time       2025/01/13 21:19:42
Sampling Freq(Hz) 100Hz
Duration Time(s)  133
Dir.              E-W
Scale Factor      7845(gal)/8223790
Max. Acc. (gal)   40.984
Last Correction   2025/01/13 21:19:42
Memo.             
[...]
   -3119    -3129    -3136    -3126    -3118    -3117    -3117    -3119 
   -3123    -3118    -3121    -3130    -3125    -3114    -3111    -3111 
   -3119    -3126    -3129    -3133    -3126    -3118    -3117    -3114 
   -3117    -3122    -3121    -3111    -3109    -3119    -3123    -3119 
   -3125    -3137    -3134    -3118    -3117    -3122    -3121    -3113 
   -3113    -3129    -3132    -3110    -3102    -3114    -3127    -3125 
   -3115    -3123    -3132    -3126    -3123    -3119    -3121    -3123 
   -3118    -3115    -3122    -3130    -3126    -3110    -3107    -3118 
   -3126    -3121    -3118    -3132    -3133    -3115    -3105    -3110 
   -3125    -3130    -3118    -3115    -3127    -3136    -3132    -3119 
   -3118    -3127    -3127    -3113    -3100    -3110    -3121    -3113 
   -3107    -3117    -3132    -3134    -3133    -3130    -3119    -3119 
   -3122    -3119    -3118    -3111    -3114    -3123    -3122    -3122 
   -3125    -3115    -3110    -3121    -3127    -3118    -3122    -3127 
   -3119    -3117    -3117    -3114    -3118    -3117    -3118    -3129 
   -3134    -3127    -3115    -3115    -3125    -3132    -3136    -3125 
   -3113    -3109    -3105    -3109    -3117    -3123    -3127    -3127 
   -3132    -3133    -3127    -3119    -3118    -3126    -3121    -3107 
   -3114    -3119    -3113    -3114    -3119    -3123    -3125    -3130 
   -3125    -3113    -3119    -3125    -3121    -3126    -3123    -3123 
   -3132    -3122    -3113    -3114    -3125    -3133    -3122    -3115 
   -3126    -3126    -3114    -3107    -3114    -3123    -3117    -3102 
   -3105    -3132    -3145    -3134    -3127    -3129    -3130    -3125 
   -3115    -3109    -3103    -3113    -3133    -3127    -3111    -3119 
   -3132    -3127    -3122    -3133    -3134    -3115    -3107    -3119 
   -3127    -3113    -3106    -3123    -3127    -3111    -3113    -3122 
   -3126    -3127    -3132    -3125    -3113    -3117    -3122    -3125 
   -3121    -3113    -3127    -3140    -3122    -3111    -3119    -3129 
   -3125    -3121    -3123    -3110    -3103    -3122    -3125    -3115 
   -3118    -3130    -3133    -3119    -3115    -3127    -3137    -3127 
   -3114    -3119    -3125    -3119    -3122    -3119    -3114    -3114 
   -3109    -3115    -3125    -3122    -3121    -3121    -3121    -3122 
   -3126    -3132    -3122    -3119    -3126    -3129    -3133    -3123 
   -3111    -3114    -3114    -3111    -3115    -3123    -3123    -3114 
   -3113    -3121    -3125    -3125    -3121    -3118    -3119    -3122 
   -3127    -3125    -3115    -3121    -3130    -3117    -3099    -3117 
   -3134    -3125    -3123    -3118    -3114    -3127    -3126    -3117 
   -3119    -3115    -3110    -3110    -3126    -3140    -3130    -3123 
   -3122    -3127    -3136    -3126    -3119    -3125    -3117    -3105 
   -3107    -3111    -3111    -3119    -3125    -3123    -3126    -3117 
   -3111    -3122    -3126    -3129    -3133    -3129    -3125    -3122 
   -3111    -3103    -3113    -3129    -3122    -3114    -3121    -3126 
   -3126    -3122    -3123    -3130    -3126    -3109    -3102    -3114 
   -3117    -3115    -3130    -3141    -3137    -3121    -3109    -3121 
   -3136    -3134    -3126    -3110    -3099    -3102    -3113    -3123 
   -3119    -3115    -3127    -3133    -3130    -3121    -3114    -3118 
   -3117    -3117    -3130    -3138    -3127    -3105    -3105    -3130 
   -3142    -3129    -3111    -3110    -3122    -3122    -3118    -3121 
   -3119    -3122    -3126    -3123    -3115    -3115    -3121    -3117 
   -3113    -3118    -3122    -3133    -3141    -3132    -3125    -3121 
   -3127    -3133    -3127    -3118    -3102    -3102    -3114    -3117 
   -3118    -3121    -3126    -3134    -3127    -3115    -3115    -3121 
   -3122    -3117    -3115    -3121    -3132    -3138    -3130    -3121 
   -3113    -3111    -3119    -3119    -3122    -3129    -3117    -3102 
   -3107    -3123    -3136    -3127    -3118    -3119    -3127    -3130 
   -3129    -3129    -3121    -3110    -3109    -3115    -3125    -3123 
   -3114    -3113    -3118    -3129    -3132    -3125    -3122    -3117 
   -3113    -3115    -3119    -3121    -3117    -3118    -3119    -3119 
   -3130    -3130    -3118    -3117    -3123    -3132    -3127    -3113 
   -3110    -3113    -3114    -3113    -3117    -3123    -3110    -3091 
   -3091    -3092    -3091    -3091    -3095    -3110    -3121    -3136 
   -3160    -3167    -3161    -3159    -3157    -3138    -3099    -3064 
   -3045    -3044    -3046    -3041    -3048    -3080    -3136    -3190 
   -3223    -3231    -3198    -3138    -3092    -3048    -3010    -2992 
   -2994    -3011    -3042    -3082    -3130    -3181    -3226    -3260 
   -3265    -3230    -3168    -3090    -3011    -2953    -2913    -2880 
   -2855    -2817    -2771    -2741    -2755    -2836    -2975    -3153 
   -3335    -3462    -3505    -3473    -3380    -3257    -3126    -3015 
   -2937    -2847    -2697    -2519    -2427    -2506    -2751    -3090 
   -3431    -3647    -3622    -3400    -3181    -3036    -2899    -2749 
   -2639    -2685    -2906    -3145    -3295    -3350    -3302    -3153 
   -3021    -3063    -3211    -3172    -2902    -2677    -2685    -2853 
   -3051    -3198    -3140    -2651    -1831    -1161     -932    -1027 
   -1282    -1706    -2304    -2887    -3214    -3325    -3477    -3727 
   -3960    -4217    -4564    -4834    -4819    -4525    -3966    -3103 
   -2246    -1815    -1796    -2068    -2532    -2727    -2386    -1863 
   -1547    -1597    -1971    -2371    -2428    -2064    -1610    -1463 
   -1790    -2428    -3025    -3449    -3885    -4382    -4588    -4295 
   -3962    -4000    -4144    -4249    -4638    -5032    -4507    -2948 
   -1308     -373     -191     -473     -959    -1543    -2120    -2385 
   -2127    -1447     -612     -117     -459    -1633    -3262    -5028 
   -6546    -7245    -6922    -6295    -6309    -6754    -6577    -5545 
   -4495    -4159    -4417    -4550    -4032    -3049    -2050    -1146 
    -540     -729    -1752    -3315    -5470    -7954    -9618    -9462 
   -7354    -3996     -940      491      148    -1730    -4681    -7523 
   -9116    -9173    -7898    -5616    -2902     -598      461      -41 
   -1493    -2828    -3360    -3119    -2716    -2647    -2629    -2069 
   -1294    -1291    -2151    -3180    -4158    -5161    -6014    -6480 
   -6405    -5873    -5188    -4428    -3541    -2862    -2809    -3289 
   -3788    -3607    -2189      283     2899     4742     5256     4257 
    2074     -608    -3136    -4788    -5000    -4189    -3372    -2980 
   -2883    -3040    -3808    -5340    -6758    -6994    -5872    -3823 
   -1489      496     1753     2141     1719      699     -525    -1179 
    -457     1456     3210     3461     1850     -999    -4008    -6228 
   -7167    -6966    -6172    -5205    -4317    -3505    -2504    -1383 
    -761    -1217    -2821    -4928    -6436    -6542    -5123    -2818 
    -985     -638    -1536    -2785    -3701    -4178    -4403    -4043 
   -2447      232     2743     3585     2191     -781    -4206    -7123 
   -8946    -9796   -10250   -10316    -9609    -8275    -7015    -6490 
   -6475    -5697    -3312     -112     2450     3715     3856     3168 
    1840      151    -1767    -4349    -7747   -10887   -12310   -11354 
   -8455    -5022    -2505    -1220    -1062    -2241    -4168    -5844 
   -7128    -7690    -6713    -4372    -1729      160      562     -276 
   -1343    -2285    -3353    -4301    -4662    -4117    -2497     -483 
     498     -274    -2178    -4110    -5364    -5625    -4811    -3470 
   -2455    -1987    -1923    -2458    -3909    -6174    -8260    -8822 
   -7607    -5493    -3271    -1390     -361     -396    -1013    -1485 
   -1705    -2184    -3268    -4833    -6238    -6539    -5431    -3460 
   -1410     -199     -336    -1287    -2223    -2934    -3640    -4086 
   -3669    -2543    -1436     -758     -595     -842    -1228    -1503 
   -1590    -1784    -2336    -2799    -2538    -1526     -525     -391 
   -1019    -1536    -1632    -1931    -2938    -4388    -5598    -5765 
   -4364    -1522     1984     4675     5040     2909     -396    -3244 
   -4750    -4936    -4338    -3456    -2258     -720      506      606 
    -943    -4094    -7713   -10149   -10546    -9269    -7149    -4815 
   -2870    -1821    -1782    -2670    -4364    -6554    -8310    -8494 
   -6943    -4209     -928     1742     2783     2251      445    -2558 
   -5883    -7996    -8189    -6793    -4513    -2223     -650     -217 
   -1053    -2656    -4275    -5444    -5938    -5783    -4974    -3284 
    -855     1512     2906     2608      261    -3326    -6141    -6577 
   -4770    -2131      255     2107     2921     2091     -135    -3183 
   -6598    -9331   -10156    -8968    -6516    -3387     -129     2076 
    2130      440    -1599    -3283    -4612    -5601    -6273    -6586 
   -6470    -6053    -5209    -3588    -1813    -1143    -1769    -3248 
   -5243    -6497    -5765    -3519     -800     1098      607    -1988 
   -4901    -7010    -8016    -8046    -7242    -5807    -4202    -2317 
    -166     1116      633    -1425    -4195    -6523    -7635    -7647 
   -6934    -5543    -3794    -2065     -317     1236     1919     1030 
   -1273    -3595    -4932    -5717    -6438    -6790    -6230    -4896 
   -4043    -4668    -6126    -7327    -8048    -7857    -6177    -4160 
   -3288    -3126    -2587    -1274      781     2840     3692     2889 
    1093     -657    -1773    -2231    -2268    -2220    -2052    -1339 
    -213      571      311    -1347    -3940    -6183    -6797    -5301 
   -2641     -471      576      994     1239     1050      -74    -1906 
   -3684    -4976    -5375    -4399    -2295       -2     1552     1927 
    1283       22    -1610    -3015    -3078    -1591      351     1671 
    1521     -689    -4353    -8073   -11032   -13177   -14501   -14709 
  -13466   -10570    -6259    -1567     2211     3990     3078      220 
   -2528    -3834    -4129    -4482    -4946    -4747    -3746    -2500 
   -1756    -2394    -4695    -7672    -9574    -9055    -6227    -2728 
    -120     1372     1806      973     -519    -1620    -2411    -3998 
   -6288    -7366    -6168    -4220    -3630    -4631    -6303    -7870 
   -8521    -7935    -6795    -5790    -4837    -2975      787     5503 
    8310     7272     3034    -2312    -6629    -8301    -7144    -4758 
   -2504       33     3311     6197     6840     4195    -1123    -7011 
  -10967   -11592    -9610    -6876    -4487    -2605    -1262     -849 
   -1965    -4275    -6378    -7136    -6322    -4282    -1269     2101 
    3940     3127     1266      -43    -1324    -3055    -4734    -6237 
   -7446    -7369    -5649    -3809    -3497    -4669    -5798    -5737 
   -5352    -5703    -6216    -6156    -5305    -3370     -670     1178 
     211    -3376    -6890    -8513    -8719    -8148    -6474    -3446 
     -52     1892     1702      552     -623    -2292    -4268    -5117 
   -4531    -3518    -2303     -554     1256     2145     1574      105 
   -1360    -3119    -5925    -8896   -10072    -9019    -6936    -4719 
   -2685    -1371    -1250    -1923    -2617    -3217    -4202    -5605 
   -6284    -4914    -1656     1892     4070     4135     2550      538 
    -939    -1996    -3254    -4783    -6049    -6237    -5081    -3759 
   -3515    -4180    -5050    -5756    -6076    -5575    -3661     -568 
    2168     3466     4077     4845     4955     3137     -382    -3653 
   -4590    -3018     -909     -449    -2585    -6671   -10377   -11496 
  -10493    -9254    -8208    -6974    -5814    -5162    -5022    -4367 
   -1841     1755     4045     4311     3422     1950      133    -1783 
   -3889    -6737   -10011   -12187   -12484   -11117    -8514    -5506 
   -2924    -1501    -1792    -3438    -5547    -7446    -8791    -9197 
   -7908    -4887    -1536      808     1675     1169      -45    -1399 
   -3015    -5047    -6870    -7560    -6691    -4665    -2793    -2089 
   -2141    -2111    -1834    -1387     -660      329     1495     2872 
    4426     6108     7406     6999     4228      268    -2794    -3397 
   -1105     2990     6937     9456    10118     9196     7218     3994 
    -132    -3264    -3786    -1659     2311     6916    10404    11464 
    9805     5327    -1586    -9363   -16031   -20183   -21228   -19437 
  -15826   -11692    -8560    -7804    -9063   -10844   -12989   -15565 
  -17113   -16866   -15279   -11662    -5165     3007    10999    17809 
   22361    23552    21844    19111    16600    14345    12020     8927 
    4310    -2141   -10548   -19900   -28082   -34294   -39109   -42485 
  -43675   -42153   -37962   -32239   -26873   -22993   -20486   -18083 
  -14162    -8684    -2998     1769     5332     8515    11993    14837 
   15592    13387     8673     3856     1408     1738     3650     6023 
    8496    10597    11712    11708    10570     8483     6150     4544 
    4279     4752     5178     5737     6192     5421     2617    -2077 
   -7462   -12137   -15817   -18755   -20602   -21186   -21338   -22306 
  -24467   -26646   -27797   -28293   -28452   -27634   -25153   -20761 
  -14893    -9132    -5356    -4305    -5343    -6764    -7064    -6494 
   -6064    -6073    -6689    -8380   -11426   -15561   -19926   -23661 
  -26396   -27552   -26075   -21390   -13872    -4784     3809     9961 
   13136    14326    15427    18445    23168    27087    29764    32961 
   36834    39803    39843    36282    30345    22856    15034     8745 
    3356    -2849    -9605   -15354   -18939   -20952   -22966   -25968 
  -30148   -34240   -36290   -35112   -30445   -23396   -15975    -9965 
   -6048    -3225      -35     4122     8876    13154    16224    18091 
   19091    20073    21552    22686    22158    19278    14361     8735 
    4243     1944     1188     1171     2245     4441     6723     7900 
    7473     5957     4048     1721    -1429    -5404    -9433   -12437 
  -13778   -13321   -11286    -8249    -4789    -1256     2203     5833 
    9975    14586    18979    22057    23700    24572    24587    23724 
   22908    22207    19901    14748     7678      359    -6372   -12166 
  -16556   -19044   -19215   -16980   -13258    -9764    -7847    -7763 
   -8903   -10598   -12189   -13247   -14430   -16425   -19049   -22157 
  -25222   -26535   -25054   -22420   -21011   -20807   -20632   -20235 
  -19299   -17174   -14170   -11572    -9950    -8652    -7429    -6763 
   -6786    -6878    -6316    -4982    -3010     -924      433      712 
    -224    -2161    -4178    -5246    -4580    -2133     1378     5296 
    9036    11855    12949    11974     9921     8039     6574     5886 
    6458     7636     8232     7688     6272     4514     2721     1051 
    -638    -2575    -4603    -6723    -8815   -10062   -10646   -12029 
  -14627   -17706   -20486   -21999   -21652   -19872   -17401   -14709 
  -12375   -10864   -10228   -10944   -13478   -17042   -20402   -22584 
  -22643   -20274   -16407   -12776   -10845   -11061   -12996   -16140 
  -20313   -24889   -28422   -29992   -29980   -28698   -25722   -21311 
  -16866   -13344   -10401    -7292    -3898     -851     1480     3402 
    5107     6876     9001    11137    12664    13198    12958    12178 
   10185     6669     2651     -450    -1962    -2482    -2817    -2646 
   -1332      645     2201     3098     3789     4390     4796     4928 
    4268     2118    -1166    -4147    -6246    -8179   -10374   -12673 
  -14466   -15063   -14370   -12073    -7489     -735     7129    14740 
   21234    26501    30685    33886    36316    38277    39649    39694 
   37686    33508    27492    20186    12509     5162    -1921    -8706 
  -14806   -19965   -23755   -25968   -26966   -26593   -24147   -19835 
  -14895   -10369    -6457    -2895      688     4679     9324    14362 
   18824    21721    22836    22612    21836    21446    21979    22863 
   22644    20293    15935    10584     5266      279    -4696    -9892 
  -15145   -20316   -25231   -29471   -33170   -36919   -40659   -43657 
  -45026   -44174   -41002   -35368   -27427   -18339    -9630    -2498 
    2604     5884     7452     7242     5420     2790      398    -1429 
   -2787    -3653    -4085    -4224    -4051    -3315    -1861     -198 
     625       -9    -1857    -4190    -6039    -6872    -7140    -7861 
   -9612   -11893   -13992   -15525   -15871   -14719   -12572    -9745 
   -6574    -4392    -3518    -2250      369     3607     6172     7480 
    8746    11043    13467    15016    15634    15327    14131    12028 
    8700     4387     -105    -4946   -10384   -14763   -16717   -16926 
  -15969   -13841   -10817    -7048    -2851     1271     5363     9215 
   11321    10555     7979     5416     3855     3314     2647       33 
   -5239   -11207   -15153   -16976   -17963   -18544   -18704   -17851 
  -15574   -12502    -9101    -5537    -1683     2808     7439    11290 
   13647    13872    11593     7122     1845    -2633    -5645    -7381 
   -8347    -9054   -10431   -13085   -15874   -17779   -19738   -22851 
  -26917   -30604   -32204   -31217   -28744   -25617   -21559   -16438 
  -10646    -4800      369     4564     7587     9148     9543     9421 
    9354     9753    10505    11070    10993    10224     9018     7298 
    4475      384    -3944    -6930    -7686    -6504    -4531    -3353 
   -3888    -4893    -4367    -2305      517     4355     8858    12831 
   15419    16058    14989    12730     9173     4754      168    -4781 
  -10237   -15562   -20175   -24084   -27199   -29077   -29909   -30219 
  -29737   -28509   -27920   -28644   -28981   -27117   -23380   -18511 
  -12275    -5001     1907     6906     8719     6844     2451    -2516 
   -7256   -11250   -13439   -13387   -10828    -5678      525     5827 
    9679    12787    15784    18145    19053    18353    17081    17328 
   19988    24278    29111    33444    36406    36909    34510    30447 
   25911    21250    16360    10902     4842    -2249   -10388   -17783 
  -22816   -25704   -27511   -28480   -28059   -26524   -24889   -23673 
  -22572   -20819   -18380   -16325   -15435   -15489   -15917   -16532 
  -17836   -20015   -21902   -22524   -22851   -24451   -26887   -27985 
  -26588   -23496   -19948   -15938   -10359    -2782     6143    15125 
   22098    25609    26455    26304    25722    25286    26026    27176 
   26584    23379    19164    17598    21055    27398    32310    33431 
   31482    28701    26374    24291    21759    18420    14736    11584 
    9282     6752     2486    -3703   -11357   -19669   -26593   -30042 
  -29367   -25361   -19712   -14781   -12942   -14288   -16322   -17435 
  -18347   -19984   -22165   -23846   -23861   -21790   -18252   -14602 
  -11946   -10280    -9073    -8264    -8247    -9061   -10227   -10967 
  -10219    -7611    -3813      368     3577     4010     1331    -3249 
   -8442   -13153   -16078   -16456   -14358    -9848    -3642     2138 
    5682     6918     6816     6295     5401     3690     2093     2104 
    3083     4004     5000     4403       64    -6519   -12320   -16133 
  -18181   -19062   -18997   -17393   -14260   -11124    -9046    -7869 
   -7504    -7241    -5410    -1779     2241     5822     8596    10049 
    9981     8378     5980     3998     2285      398    -1050    -2137 
