Origin Time       2025/01/13 21:19:00
Lat.              31.8
Long.             131.6
Depth. (km)       30
Mag.              6.9
Station Code      MYZ019
Station Lat.      32.5008
Station Long.     131.4444
Station Height(m) 142
Record Time       2025/01/13 21:19:46
Sampling Freq(Hz) 100Hz
Duration Time(s)  104
Dir.              U-D
Scale Factor      7845(gal)/8223790
Max. Acc. (gal)   9.678
Last Correction   2025/01/13 21:19:45
Memo.             
[...]
   22280    22281    22284    22280    22279    22283    22283    22283 
   22283    22281    22281    22283    22284    22283    22283    22283 
   22281    22284    22284    22281    22281    22284    22283    22281 
   22281    22283    22283    22283    22283    22283    22283    22283 
   22283    22283    22281    22280    22281    22285    22284    22283 
   22285    22285    22281    22283    22285    22284    22283    22283 
   22283    22283    22284    22283    22284    22284    22283    22284 
   22284    22283    22284    22283    22281    22281    22283    22283 
   22283    22283    22283    22281    22283    22284    22285    22285 
   22283    22279    22280    22283    22285    22285    22284    22283 
   22281    22283    22283    22280    22281    22281    22281    22283 
   22279    22276    22277    22276    22270    22268    22265    22261 
   22257    22252    22243    22234    22225    22216    22212    22210 
   22208    22212    22221    22234    22252    22275    22295    22308 
   22322    22334    22335    22326    22308    22285    22258    22223 
   22187    22161    22144    22138    22146    22167    22200    22226 
   22239    22253    22268    22279    22287    22306    22351    22420 
   22470    22470    22454    22478    22524    22540    22526    22504 
   22485    22470    22431    22337    22214    22102    21994    21911 
   21953    22117    22245    22264    22252    22266    22277    22257 
   22256    22339    22450    22412    22212    22086    22161    22281 
   22258    22119    22037    22076    22134    22162    22253    22384 
   22388    22245    22161    22272    22477    22607    22607    22482 
   22273    22121    22126    22230    22338    22388    22372    22339 
   22273    22135    21986    21825    21614    21469    21413    21251 
   21033    21055    21266    21382    21429    21601    21905    22173 
   22273    22276    22306    22280    22127    22019    22091    22231 
   22291    22233    22090    21915    21798    21774    21744    21672 
   21698    21829    21975    22218    22535    22639    22492    22347 
   22273    22230    22342    22646    22918    22962    22854    22756 
   22628    22411    22275    22296    22307    22292    22395    22540 
   22609    22770    23161    23581    23718    23571    23468    23571 
   23579    23265    22914    22877    23035    23021    22805    22674 
   22728    22850    22948    22798    22207    21465    20973    20746 
   20700    20923    21465    22214    22894    23164    22929    22387 
   21782    21398    21381    21458    21420    21516    21868    22118 
   22018    21743    21570    21648    21928    22179    22184    22040 
   22157    22673    23153    23326    23387    23357    23109    22894 
   22940    22960    22617    22164    22207    22817    23315    23315 
   23290    23584    23701    23179    22443    22069    21930    21666 
   21292    21081    21178    21392    21474    21531    21753    22135 
   22572    22817    22609    22121    21909    22215    22603    22558 
   22185    21894    21725    21605    21686    21946    22075    21944 
   21659    21250    20818    20609    20676    20883    21197    21694 
   22246    22623    22964    23494    23818    23545    23060    22792 
   22736    22906    23288    23747    24101    24004    23317    22443 
   21779    21512    21724    21961    21681    21151    20833    20749 
   20862    20871    20632    20935    21990    22702    22754    22783 
   22831    22701    22512    22322    22346    22751    23168    23211 
   22824    22273    22088    22346    22562    22553    22415    22059 
   21613    21400    21162    20622    20380    21096    22476    23504 
   23469    22990    23110    23450    23292    23275    23762    23816 
   23188    22786    22978    23168    22723    21857    21559    22061 
   22323    21768    21064    20910    21263    21654    21979    22519 
   22738    21849    20919    21505    22735    22697    21525    20845 
   21269    21938    22077    21960    22179    22700    23041    23055 
   23118    23454    23792    23907    23957    23971    23533    22562 
   22034    22658    23315    22513    21010    20888    22303    23440 
   23525    23545    23869    23533    22376    21814    22690    23849 
   23873    23237    23080    23176    23056    22960    22607    21648 
   20802    20551    20467    20422    20650    21016    21201    21151 
   21107    21015    20449    19822    20298    21903    23410    24198 
   24602    24655    23970    22759    21645    20753    20023    19588 
   19413    19442    19795    20545    21732    23187    24200    24008 
   22881    22157    22600    23384    23510    23152    22875    22640 
   22137    21485    21143    21316    22000    23276    24657    25049 
   24320    23527    23139    22719    22145    21716    21712    22168 
   22457    22075    21848    22756    24024    24166    23410    23163 
   23434    23022    21960    21378    21427    21500    21551    21757 
   22258    23481    25281    26416    25893    24175    22582    21617 
   20812    20228    20430    21193    21749    21953    22356    23139 
   23534    23145    22794    22716    22138    21477    21735    22339 
   22508    22636    22851    22856    22779    22476    21868    21787 
   22380    22458    21563    20683    20799    21902    23213    24050 
   24206    23545    22504    22245    22562    22048    21114    21157 
   21589    21429    21357    21616    21359    20893    21065    21300 
   21135    21280    21566    21062    20370    20499    20962    21286 
   22021    23193    23997    24196    24294    24416    24124    23291 
   22405    21899    21431    20561    19824    20055    21147    22167 
   22397    22171    22365    22952    23132    22742    22198    21726 
   21311    20838    20509    20819    21469    21621    21442    21529 
   21536    20993    20326    20185    20636    21182    21577    22304 
   23538    24614    25348    26168    26848    26997    26727    26119 
   25537    25610    25933    25408    23957    22731    22485    22272 
   21033    19853    20139    21159    21577    21258    20895    21227 
   22098    22847    23697    24742    25026    24332    23477    22740 
   22006    21483    21143    20371    18987    17944    17865    18196 
   18598    19380    20594    21934    22856    22967    22690    22489 
   22141    22002    22751    23508    23409    23367    23730    23734 
   23680    23951    23781    22905    21888    20988    20167    19360 
   18914    19429    20394    20873    21163    21856    22812    23738 
   24559    25550    26897    27920    27857    26889    25621    24517 
   23676    22486    20644    19111    18625    18712    18962    19515 
   20378    21222    21710    22013    22496    22878    22794    22530 
   22212    21617    20881    20397    20690    21901    22847    22562 
   22061    22196    22229    22054    22323    22523    22023    21589 
   22167    23490    24505    24748    24714    24763    24759    24679 
   24675    24653    24298    23907    24297    24867    24027    22269 
   21315    21014    20526    20140    20082    20208    20671    21560 
   22785    24085    25014    25587    26300    27051    26924    25543 
   24065    23784    24061    23390    21807    20137    18501    17139 
   16507    16275    16276    17132    18484    18993    18650    18650 
   19319    19989    20409    21080    22343    23943    25326    26150 
   26619    26767    26015    24462    23238    22620    21759    20682 
   20294    20655    21280    22060    22827    23383    23799    23889 
   23598    23542    23841    23816    23461    23149    22590    21886 
   21801    22164    22090    21298    20102    19300    19708    20611 
   20553    19969    20140    20694    20996    21546    22473    23248 
   23523    23036    22183    21899    21971    21541    20956    20865 
   21000    21172    21810    23067    24214    24058    22505    21238 
   21469    22393    22935    23215    23838    25000    26086    26152 
   25193    23827    22249    20517    18654    16779    15955    16995 
   18814    20231    21432    22466    22944    22932    22616    22437 
   22883    23422    23710    24532    25623    25664    24813    24059 
   23445    22860    22616    22588    22149    21033    19770    19179 
   19556    20433    21011    21028    20911    20977    21324    21879 
   22057    21775    22010    23004    23877    24425    25127    25822 
   25861    25069    23892    22858    22260    22285    22832    23296 
   23230    23009    23232    23569    23012    21524    20553    21189 
   22712    23577    23198    22292    21852    22094    22226    21471 
   20451    20270    20463    20182    20151    20926    21756    22337 
   22540    21795    20803    20702    20989    21019    21007    21022 
   21262    22011    22921    23539    23750    23703    23734    23820 
   23818    24143    24949    25567    25620    25413    25274    25326 
   25373    25068    24672    24678    24667    23710    21942    20830 
   21069    21416    21054    20926    21244    21134    21018    21676 
   22249    21998    21683    21753    21643    21139    20591    20174 
   20042    20232    20524    21193    22304    22580    21485    20619 
   20983    21396    20682    19433    19136    20148    21185    21404 
   21859    23287    24244    23776    23205    23102    22184    20505 
   19974    21054    22050    21847    21016    20575    20988    21925 
   22702    23160    23637    24181    24362    23893    23122    22693 
   22956    23548    23491    22651    22239    22504    22044    20690 
   20159    21192    22711    23606    23475    22667    22246    22511 
   22511    22011    21679    21683    22096    23064    23942    24085 
   23743    23179    22347    21625    21228    20613    19870    19927 
   20741    21505    22037    22570    23214    23666    23372    22554 
   22010    21807    21770    22411    23919    25039    24534    23282 
   22943    23280    23063    22168    21149    20623    20977    21327 
   20583    19502    19504    20541    21443    21340    20607    20606 
   22015    23877    24835    24804    24609    24521    24412    24301 
   23811    23004    22877    23152    22740    22573    23480    23691 
   22280    20848    20177    19738    19626    19809    19815    20001 
   20777    21489    21752    22264    23191    23521    23006    22896 
   23766    24664    24872    24376    23114    21251    19440    18655 
   19245    19600    18419    17637    18993    20495    20293    19962 
   21284    23252    23903    23463    23760    24729    24559    23268 
   22414    21964    20866    19751    20213    21770    22235    21265 
   20521    20646    21001    21126    20942    21095    22114    22816 
   22323    21963    22520    22881    22534    22346    22725    22574 
   21061    19858    20614    21581    21114    20734    20812    19260 
   16559    15761    17540    19835    21020    21204    21541    22416 
   22800    22360    21867    21088    19515    18179    18130    18890 
   19577    20241    21424    23025    24505    25286    24609    22823 
   21713    21789    22100    22831    24227    24862    24162    23533 
   23372    22685    21973    22330    22882    22999    23809    25328 
   26541    27672    28372    27143    25099    24811    25386    24576 
   23232    22923    22754    21564    20237    19908    19953    19502 
   19072    19176    19637    20572    21541    21616    21767    23388 
   25280    25816    25373    24875    24817    25188    24993    23653 
   22486    22847    24086    24898    25207    25698    26434    26782 
   26318    25263    24247    23849    24144    24821    25794    27008 
   27665    27355    27071    27338    27467    27282    27074    26854 
   26573    25968    24953    23966    23098    22202    21309    20210 
   19234    19456    20779    21825    21933    21579    21294    21135 
   21219    22061    23271    23249    21776    20632    20808    21386 
   21308    21151    22075    23279    23159    22450    22829    23739 
   23414    21766    20333    19772    19120    17964    17235    17365 
   18038    19178    20062    19543    18342    18085    18573    18752 
   18407    17716    17153    17026    16729    16208    16706    18512 
   20055    20129    19684    19934    19716    18121    17182    17655 
   17500    16856    17540    19005    20120    21177    22157    22651 
   22698    21980    20537    19633    19708    19614    18954    18505 
   18303    17929    18023    19147    20498    21537    22906    24567 
   25369    25158    25127    25798    26315    25856    24625    23220 
   22100    21560    21145    20120    18999    18831    19448    20032 
   20476    21111    21762    22084    22488    23396    24266    24570 
   24555    24499    24069    22809    21366    20974    21193    20506 
   19252    18964    19591    20081    20260    20321    20302    20572 
   21509    22964    24347    25184    25974    27565    29556    30919 
   31600    31735    30792    29104    28043    27676    26730    25093 
   23897    23445    23026    22299    21803    21952    22314    22805 
   24075    25745    26553    26302    25655    25177    25188    25277 
   24931    24451    23805    22608    21716    21942    22341    22192 
   22126    22252    22307    22999    24437    25047    23996    22540 
   21903    21631    21045    20985    22491    24769    26522    27978 
   29806    31456    32119    32202    32427    32131    30423    28418 
   27656    27634    27355    26612    25172    23641    23176    23141 
   22368    21421    20881    20262    19863    20498    21612    22231 
   22569    23013    23122    22623    22162    22187    21992    20902 
   19631    19352    19923    20336    20490    20891    20931    19649 
   18133    18177    18870    18246    17059    17088    17774    17648 
   17031    16904    16812    15959    15214    15886    17265    17928 
   18439    19684    20741    20857    20553    20137    19309    17917 
   16530    16132    16822    17709    18289    18715    18910    18574 
   18149    18300    18300    17440    17194    18921    21637    24092 
   26125    27514    27938    27711    27429    27382    27220    26100 
   24102    22752    22634    22319    21281    20864    21288    21398 
   21308    21757    22289    22266    21801    21281    21196    21771 
   22306    21978    21639    22542    23850    24507    25019    25558 
   26023    27071    28171    27904    27016    26721    25698    23147 
   20970    20445    20910    21602    22150    22720    23877    25115 
   25577    26099    27322    27594    26113    25074    25814    26538 
   25949    25142    24760    24179    23506    23369    23728    24584 
   26111    27533    27629    26531    25830    26334    26752    25735 
   24113    23618    24240    24841    25141    25219    24914    24583 
   24626    24956    25593    26449    26894    26289    24954    24152 
   23996    22997    21162    20299    20503    20154    19017    18233 
   18150    18254    18261    17876    16673    15346    15215    15876 
   15893    15658    16676    18700    19980    19851    19222    18947 
   19133    19623    20417    21627    22948    23733    23946    24074 
   23946    22967    21465    20398    19877    19186    18280    17937 
   18297    18678    18828    19151    20082    21578    22905    23386 
   22971    21809    20309    19232    18850    18828    19021    19441 
   19866    20437    21559    22499    22056    20772    19917    19232 
   18104    17199    17230    17828    18281    18391    18422    18558 
   18943    19890    20939    21018    20387    20182    20468    20937 
   21558    21774    21450    21512    22158    22732    23278    24232 
   25502    26933    28455    29492    29701    29675    29596    28864 
   27834    27324    26673    25375    24898    25833    26333    25429 
   24424    24235    24367    24349    24367    24752    25564    26441 
   26659    26009    25435    25718    26306    26435    26158    25797 
   25686    25999    26183    25694    24729    23508    22351    21951 
   22426    23303    24052    24279    24528    25587    26715    26831 
   26439    26339    26173    25573    25073    24972    24599    23526 
   22347    21354    20254    19417    19009    18370    17813    18192 
   18883    18904    18500    18046    17410    16691    16206    16228 
   16641    16537    15537    14721    14693    14736    14546    14716 
   15506    16410    16926    17253    18050    19519    20988    21556 
   21304    21421    22297    22932    23101    23576    24217    24318 
   24119    24332    24867    24883    24121    23261    22640    21994 
   21259    20488    19849    19892    20719    21493    21799    22169 
   22582    22528    22628    23658    24615    24378    23699    23441 
   23210    22866    23090    23981    24814    25386    26028    26412 
   25921    24943    24614    25035    24969    23994    23307    23546 
   23845    23710    23882    24640    25083    24759    24178    23631 
   23018    22493    22250    22018    21693    21903    22797    23461 
   23695    24359    25319    25435    24752    24389    24425    23923 
   22837    21971    21454    21011    20591    19861    18751    18052 
   18010    17863    17500    17649    18144    18029    17633    17942 
   18326    18003    17960    18589    18824    18894    19643    20237 
   20196    20522    21240    21644    22269    23418    24012    23766 
   23776    24324    24507    23692    21913    19962    19105    19369 
   19475    19217    19494    20100    20129    19759    19730    19955 
   19992    20090    20767    21914    22945    23658    24462    25348 
   25618    25181    24660    24198    23619    23041    22542    21919 
   21099    20529    20725    21497    22192    22430    22535    23242 
   24466    25015    24559    24368    25093    25853    25957    25743 
   25886    26627    27432    27492    26609    25425    24642    24235 
   23823    23191    22297    21465    20916    20301    19899    20532 
   21589    21806    21458    21606    22522    23703    24555    24989 
   25370    25832    26018    25652    24887    23893    22646    21250 
   20225    19988    19978    19475    19098    19685    20572    20918 
   21168    22002    23276    24470    25412    26133    26342    25844 
   25143    24781    24386    23313    21837    20744    20135    19453 
   18279    16629    15010    14108    13911    13878    13994    14486 
   15151    15917    17042    18198    18712    18882    19672    21092 
   22087    22056    21729    22131    23125    23823    23919    23795 
   23830    24101    24233    23872    23511    23689    24015    24193 
   24381    24312    23874    23741    24155    24578    24896    25404 
   25957    26106    25632    24923    24507    24258    23862    23476 
   23274    23095    22692    22142    22102    22956    23754    23545 
   23120    23477    24015    24061    24177    24624    24802    24737 
   24922    25039    24629    24090    23936    23935    23679    23379 
   23340    23241    22852    22639    22775    22702    22308    21941 
   21552    21091    20777    20595    20397    20151    19889    19936 
   20561    21346    21886    22320    22713    23087    23610    24279 
