Origin Time       2025/01/13 21:19:00
Lat.              31.8
Long.             131.6
Depth. (km)       30
Mag.              6.9
Station Code      MYZ001
Station Lat.      32.7050
Station Long.     131.3086
Station Height(m) 362
Record Time       2025/01/13 21:19:50
Sampling Freq(Hz) 100Hz
Duration Time(s)  113
Dir.              N-S
Scale Factor      7845(gal)/8223790
Max. Acc. (gal)   26.091
Last Correction   2025/01/13 21:19:49
Memo.             
[...]
   -9267    -9305    -9541   -10076   -10768   -11260   -11412   -11338 
  -11179   -11047   -10947   -10766   -10446    -9975    -9370    -8811 
   -8467    -8332    -8353    -8367    -8209    -8102    -8352    -8854 
   -9333    -9643    -9829   -10092   -10435   -10513   -10187    -9861 
   -9942   -10307   -10585   -10663   -10690   -10778   -10840   -10789 
  -10728   -10812   -10993   -10974   -10574   -10015    -9620    -9551 
   -9819   -10170   -10234   -10025    -9933   -10197   -10666   -11007 
  -11075   -10990   -10957   -10995   -10887   -10530   -10053    -9616 
   -9352    -9358    -9551    -9663    -9479    -9105    -8827    -8730 
   -8608    -8284    -7784    -7264    -6998    -7161    -7545    -7825 
   -8001    -8337    -8935    -9497    -9859   -10177   -10369   -10264 
  -10056    -9980    -9995    -9926    -9688    -9416    -9275    -9180 
   -9140    -9545   -10558   -11770   -12742   -13320   -13423   -13119 
  -12745   -12464   -12152   -11727   -11187   -10694   -10584   -10816 
  -10808   -10199    -9402    -8993    -9016    -9246    -9402    -9209 
   -8756    -8352    -8128    -7997    -7782    -7551    -7554    -7722 
   -7898    -8133    -8333    -8317    -8251    -8353    -8352    -7928 
   -7407    -7349    -7948    -9063   -10423   -11635   -12256   -12195 
  -11853   -11662   -11772   -12043   -12225   -12326   -12517   -12660 
  -12521   -12135   -11615   -11140   -11084   -11465   -11746   -11622 
  -11192   -10563    -9938    -9447    -8930    -8421    -8174    -8073 
   -7788    -7388    -7146    -7053    -7146    -7653    -8456    -9351 
  -10346   -11288   -12064   -12703   -13016   -13009   -12955   -12676 
  -11928   -11167   -10702   -10172    -9402    -8527    -7657    -6961 
   -6397    -5751    -5269    -5435    -6223    -7163    -7912    -8590 
   -9549   -10783   -11880   -12414   -12264   -11888   -11805   -11824 
  -11470   -10733   -10050    -9680    -9576    -9849   -10357   -10574 
  -10466   -10315   -10031    -9633    -9625    -9990    -9965    -9655 
   -9925   -10608   -10893   -10631   -10165    -9961   -10197   -10458 
  -10338    -9964    -9580    -9219    -8893    -8665    -8525    -8549 
   -8811    -9166    -9440    -9601    -9726   -10035   -10737   -11631 
  -12194   -12163   -11755   -11319   -11038   -10894   -10647   -10027 
   -9169    -8549    -8468    -8683    -8542    -7663    -6424    -5590 
   -5555    -6107    -6868    -7665    -8424    -9105    -9698   -10222 
  -10795   -11422   -11924   -12262   -12440   -12480   -12633   -13001 
  -13397   -13811   -14107   -13825   -12869   -11483    -9891    -8370 
   -7005    -5795    -4947    -4652    -5061    -6181    -7508    -8573 
   -9499   -10357   -10836   -11061   -11542   -12167   -12452   -12307 
  -12019   -11970   -12205   -12375   -12260   -11859   -11183   -10334 
   -9590    -9197    -9016    -8673    -7987    -7014    -6021    -5371 
   -5281    -5796    -6714    -7732    -8958   -10386   -11218   -10980 
  -10324    -9830    -9231    -8337    -7776    -8167    -9167   -10122 
  -10924   -11691   -12387   -12799   -12698   -12248   -11850   -11531 
  -10999   -10181    -9362    -8811    -8600    -8738    -9034    -9185 
   -9251    -9348    -9335    -9433   -10041   -10832   -11214   -11107 
  -10768   -10521   -10571   -10829   -11087   -11215   -11202   -11099 
  -10910   -10697   -10509   -10255   -10012    -9895    -9651    -9123 
   -8641    -8401    -8239    -8221    -8415    -8384    -7800    -6845 
   -5863    -5379    -5892    -7020    -7852    -8243    -8692    -9378 
  -10089   -10677   -11283   -12097   -12976   -13687   -14223   -14662 
  -14931   -14770   -14175   -13618   -13293   -12749   -11678   -10300 
   -9016    -8140    -7631    -7252    -7038    -7105    -7302    -7528 
   -7852    -8122    -8102    -7904    -7956    -8495    -9227    -9784 
  -10089   -10166   -10131   -10222   -10557   -10957   -11260   -11634 
  -12141   -12367   -11934   -10920    -9620    -8197    -6818    -5863 
   -5487    -5397    -5312    -5224    -5355    -5979    -7001    -8058 
   -9016    -9921   -10706   -11179   -11223   -11065   -11034   -11157 
  -11310   -11381   -11479   -11935   -12625   -12950   -12622   -11773 
  -10758   -10039    -9855   -10081   -10527   -11121   -11834   -12610 
  -13224   -13340   -12870   -12004   -10935    -9679    -8190    -6627 
   -5209    -4085    -3557    -3942    -5023    -6196    -7171    -8067 
   -8927    -9562    -9933   -10169   -10359   -10754   -11439   -12213 
  -13208   -14562   -15865   -16663   -16748   -16024   -14719   -13429 
  -12483   -11511   -10039    -8205    -6601    -5483    -4437    -3181 
   -2226    -2141    -2893    -4194    -5663    -6993    -8345    -9906 
  -11344   -12226   -12438   -12243   -12105   -12280   -12646   -12941 
  -13069   -13170   -13383   -13536   -13370   -13020   -12684   -12187 
  -11407   -10493    -9740    -9324    -8914    -8249    -7740    -7581 
   -7470    -7512    -8016    -8775    -9571   -10396   -10855   -10701 
  -10349   -10008    -9466    -8770    -8340    -8550    -9513   -10949 
  -12225   -12754   -12402   -11713   -11425   -11426   -11033   -10115 
   -8911    -7568    -6415    -5805    -5613    -5544    -5886    -7084 
   -8826   -10292   -11070   -11484   -12051   -12827   -13532   -13914 
  -13937   -13833   -13853   -13948   -13905   -13726   -13517   -13028 
  -11943   -10557    -9309    -8091    -6855    -5969    -5381    -4606 
   -3678    -3083    -2999    -3443    -4644    -6434    -8060    -9135 
   -9710    -9699    -9385    -9387    -9686   -10025   -10473   -11102 
  -11997   -13131   -14154   -14632   -14357   -13694   -13374   -13562 
  -13743   -13463   -12779   -12009   -11110   -10022    -9163    -8692 
   -8271    -7735    -7312    -7307    -7654    -7816    -7339    -6480 
   -5906    -5861    -6037    -6265    -6741    -7493    -8357    -9248 
  -10096   -10872   -11529   -11923   -12112   -12322   -12652   -12912 
  -12825   -12334   -11620   -10968   -10509   -10002    -9142    -7905 
   -6664    -6054    -6312    -6910    -7276    -7550    -7955    -7986 
   -7358    -6839    -7079    -8024    -9589   -11443   -12891   -13736 
  -14365   -15056   -15834   -16416   -16264   -15329   -14164   -13024 
  -11843   -10879   -10419   -10323   -10336   -10289   -10187   -10179 
  -10038    -9369    -8382    -7443    -6608    -6072    -6122    -6728 
   -7589    -8185    -8143    -7632    -6960    -6345    -6224    -6999 
   -8542   -10262   -11578   -12529   -13340   -13730   -13556   -13139 
  -12534   -11766   -11340   -11457   -11614   -11576   -11616   -11801 
  -12058   -12235   -11839   -10705    -9259    -7897    -6887    -6226 
   -5651    -5355    -5659    -6253    -6785    -7275    -7616    -7755 
   -8027    -8689    -9678   -10778   -11634   -12029   -12141   -12073 
  -11697   -11080   -10488   -10138    -9979    -9772    -9439    -8989 
   -8484    -8105    -7948    -8050    -8446    -9055    -9733   -10315 
  -10650   -10912   -11472   -12228   -12802   -13290   -13980   -14713 
  -14941   -14177   -12649   -11299   -10605   -10150    -9691    -9479 
   -9441    -9112    -8401    -7711    -7300    -7126    -7150    -7211 
   -6899    -6033    -4845    -3693    -3010    -3211    -4334    -6135 
   -8355   -10573   -12372   -13747   -14769   -15303   -15403   -15322 
  -15206   -15157   -15080   -14646   -13922   -13279   -12657   -11790 
  -10557    -8892    -6991    -5194    -3738    -3061    -3457    -4538 
   -6026    -7955    -9880   -11118   -11384   -10785    -9632    -8552 
   -8294    -8892    -9748   -10611   -11477   -12082   -12397   -12798 
  -13142   -12776   -11646   -10285    -8992    -7738    -6704    -6269 
   -6346    -6629    -7187    -7803    -7921    -7574    -7119    -6806 
   -7094    -8183    -9675   -11330   -13022   -14184   -14574   -14733 
  -14886   -14482   -13332   -12193   -11755   -12000   -12583   -13004 
  -12885   -12700   -13138   -13837   -13899   -12972   -11317    -9498 
   -7971    -6845    -6049    -5309    -4467    -3924    -3958    -4228 
   -4544    -5065    -5655    -6073    -6536    -7334    -8379    -9468 
  -10415   -10867   -10559    -9748    -9055    -9038    -9877   -11128 
  -12071   -12603   -13169   -13853   -14297   -14305   -14006   -13671 
  -13490   -13433   -13321   -12795   -11668   -10355    -9346    -8845 
   -9062    -9798   -10341   -10322    -9715    -8537    -7322    -6748 
   -6839    -7338    -8118    -9117   -10185   -10952   -11281   -11340 
  -11059   -10552   -10227    -9853    -8930    -7599    -6386    -5713 
   -5545    -5725    -6558    -7890    -8907    -9477    -9803    -9699 
   -9352    -9306    -9536    -9541    -9201    -8949    -9147    -9818 
  -10805   -11809   -12510   -12928   -13444   -14075   -14311   -13855 
  -12603   -10516    -8484    -7658    -7727    -7750    -7566    -7369 
   -7435    -8037    -8741    -8842    -8498    -8104    -7680    -7296 
   -7020    -7128    -8037    -9630   -11404   -12742   -13321   -13803 
  -14785   -15448   -14871   -13544   -12314   -11364   -10702   -10065 
   -8738    -6957    -6139    -6920    -8591   -10079   -10177    -8301 
   -5636    -3820    -3217    -3407    -3960    -4806    -6219    -7990 
   -9445   -10443   -11314   -12131   -12792   -13398   -13923   -13938 
  -13327   -12513   -11614   -10709   -10273   -10116    -9597    -8826 
   -8012    -7149    -6686    -6822    -7333    -8414    -9992   -11398 
  -12463   -13444   -14343   -15041   -15330   -14802   -13343   -11507 
   -9957    -8876    -8195    -7759    -7447    -7523    -8159    -8950 
   -9273    -8869    -8228    -7867    -7596    -7275    -7111    -7136 
   -7438    -8199    -9182    -9990   -10712   -11747   -12757   -12618 
  -11183    -9494    -7967    -6482    -5478    -5377    -6273    -8075 
   -9998   -11200   -11668   -11722   -11884   -12714   -14080   -15376 
  -16154   -16195   -15500   -14319   -12916   -11492   -10395    -9595 
   -8785    -8343    -8482    -8432    -7771    -6913    -6382    -6509 
   -7010    -7348    -7677    -8201    -8446    -8166    -7896    -8179 
   -8897    -9505    -9609    -9294    -8964    -8959    -9273    -9558 
   -9578    -9606   -10122   -11291   -12845   -14161   -14735   -14688 
  -14485   -14277   -13852   -13250   -12768   -12434   -12344   -12626 
  -12854   -12569   -11786   -10782    -9941    -9424    -8968    -8229 
   -7323    -6785    -6933    -7607    -8302    -8654    -8908    -9275 
   -9576    -9614    -9038    -7680    -6327    -6027    -6829    -7960 
   -8847    -9470   -10038   -10651   -11144   -11318   -11288   -11209 
  -10922   -10156    -8905    -7632    -6685    -6066    -6112    -6925 
   -7881    -8749    -9726   -10899   -12434   -13995   -14978   -15637 
  -16258   -16321   -15369   -13417   -10820    -8429    -7084    -6691 
   -6389    -5737    -5262    -5578    -6585    -7690    -8182    -7774 
   -6966    -6370    -6169    -6473    -7261    -8216    -9313   -10659 
  -11812   -12363   -12363   -11805   -10874   -10299   -10498   -11165 
  -11759   -11672   -10731    -9626    -8932    -8540    -8321    -8233 
   -8268    -8864   -10309   -11996   -13209   -13636   -12885   -11026 
   -9072    -7975    -7956    -8660    -9580   -10539   -11314   -11414 
  -10862   -10103    -9178    -8040    -7105    -6566    -6177    -5992 
   -6037    -5931    -5814    -6239    -7099    -8110    -9448   -10909 
  -12101   -13312   -14696   -15731   -16179   -16409   -16692   -16919 
  -16970   -16737   -15790   -13996   -11977   -10120    -8309    -6928 
   -6598    -7068    -7643    -8226    -8895    -9331    -9471    -9772 
  -10435   -11202   -11817   -12159   -12144   -11649   -10671    -9367 
   -7542    -5030    -2478     -696       78      -93    -1113    -2752 
   -4453    -5760    -6982    -8526    -9972   -10797   -11290   -11929 
  -12577   -12841   -12771   -12810   -13177   -13810   -14729   -15755 
  -16295   -15813   -14238   -12154   -10405    -9212    -8233    -7335 
   -6489    -5638    -5132    -5278    -5837    -6685    -7885    -9123 
  -10260   -11396   -11939   -11395   -10488   -10012    -9984   -10045 
   -9607    -8595    -7796    -7453    -7111    -6864    -6939    -7176 
   -7530    -7911    -8100    -8033    -8047    -8911   -10755   -12694 
  -14246   -15615   -16525   -16414   -15387   -13883   -12275   -11146 
  -10967   -11549   -12413   -13239   -13778   -13969   -13983   -13760 
  -13138   -12179   -10922    -9470    -8147    -7083    -6331    -5894 
   -5579    -5616    -6130    -6531    -6772    -7462    -8671   -10166 
  -11971   -13655   -14639   -15570   -16722   -16675   -15222   -14007 
  -13182   -11627    -9979    -9269    -8937    -8877    -9197    -8515 
   -6597    -4919    -2968      251     3111     4726     5686     5406 
    4291     3561     2349       64    -2347    -5067    -8904   -13448 
  -18096   -22599   -26131   -27939   -27911   -25982   -22666   -18954 
  -15218   -11728    -8772    -6216    -4399    -3820    -4078    -4588 
   -5231    -6085    -7169    -8070    -8460    -8711    -9042    -9135 
   -8949    -8949    -9448   -10154   -10752   -11425   -12356   -13513 
  -14831   -16123   -17041   -16992   -15645   -13525   -11273    -9148 
   -7404    -6307    -6007    -6386    -7210    -8413    -9738   -11049 
  -12857   -15286   -17529   -19172   -20591   -21836   -22507   -22519 
  -22063   -21357   -20676   -19882   -18600   -17130   -16136   -15322 
  -13545   -10616    -7307    -3910     -461     3172     7159    10787 
   13524    15654    17103    17498    17216    17099    16914    15647 
   13158     9894     5979     1532    -3117    -7780   -12175   -16098 
  -19781   -22847   -24718   -26029   -27595   -29205   -29999   -29535 
  -27961   -25149   -21470   -18110   -15017   -11088    -6556    -2660 
     592     3932     6960     9154    10778    11083     8714     4758 
     791    -4280   -10156   -15052   -19992   -24927   -28030   -30176 
  -32445   -34194   -35295   -35662   -34570   -32204   -29409   -26239 
  -22227   -17759   -14145   -10612    -5363     -265     2575     4090 
    4496     3357     1317     -841    -1779     -697      778     1372 
    2072     3163     3307     1767    -1038    -4630    -8731   -12372 
  -14868   -17243   -20070   -22489   -24263   -25517   -25894   -25413 
  -24259   -22531   -20767   -19176   -17223   -14779   -12267    -9609 
   -6274    -2328     1242     3478     4365     4429     3866     2488 
     348    -1953    -4006    -6205    -8804   -11099   -12607   -13667 
  -14242   -13995   -13057   -11458    -9227    -6858    -4506    -1840 
     897     3018     4603     5883     6191     5105     3075      398 
   -2828    -6224    -9474   -12588   -15430   -17558   -18898   -19568 
  -19217   -17658   -15249   -12618   -10611    -9748    -9888   -10933 
  -12831   -14862   -16324   -17578   -18989   -20110   -20677   -20711 
  -20043   -19036   -18324   -17836   -17599   -17891   -18258   -18328 
  -18274   -17706   -16151   -13898   -11288    -8611    -6297    -4353 
   -2500     -729      746     1690     1942     1593      715     -738 
   -2424    -3950    -5516    -7452    -9869   -12708   -15635   -18265 
  -20133   -20691   -20154   -19418   -18662   -17536   -16484   -15816 
  -14746   -13000   -11007    -8644    -6049    -3888    -2322    -1054 
     248     1683     2932     3711     3851     2857      614    -2192 
   -5161    -8252   -11215   -13830   -15869   -17373   -18843   -20613 
  -22790   -25218   -27280   -28553   -28975   -28317   -26316   -23074 
  -19122   -15122   -11358    -7886    -4974    -2832    -1183      164 
     908      989      572     -611    -2685    -5179    -7624    -9857 
  -11812   -13238   -13848   -13775   -13412   -12892   -12079   -10759 
   -8788    -6243    -3343     -481     1726     2868     3154     2961 
    2039      -13    -2745    -5327    -7473    -9370   -11256   -13057 
  -14320   -14929   -15404   -16073   -16723   -17381   -18297   -19014 
  -18648   -17061   -15025   -13117   -10994    -8712    -7237    -6723 
   -6597    -6631    -6538    -6334    -6540    -7398    -8681    -9786 
  -10521   -11284   -11838   -11846   -11704   -11518   -10932   -10076 
   -9305    -8417    -7456    -6829    -6022    -4819    -4128    -3902 
   -3414    -2929    -2911    -3335    -4257    -5630    -6952    -7932 
   -8757    -9512   -10071   -10300   -10200   -10012   -10003   -10492 
  -11907   -14142   -16488   -18365   -19485   -19770   -19435   -18658 
  -17443   -16062   -14836   -13784   -12853   -11905   -10783    -9610 
   -8536    -7566    -6898    -6774    -7157    -8098    -9575   -11016 
  -11985   -12529   -12560   -11990   -11075   -10044    -9047    -8505 
   -8645    -9093    -9505    -9823    -9917    -9680    -9163    -8530 
   -7946    -7327    -6504    -5524    -4657    -4291    -4662    -5787 
   -7604    -9653   -11124   -11516   -10740    -9232    -7920    -7229 
   -7196    -7874    -8861    -9995   -11357   -12271   -12104   -11142 
  -10039    -9279    -9190   -10003   -11577   -13543   -15846   -18350 
  -20421   -21629   -22049   -21768   -20794   -19103   -16723   -13896 
  -10962    -8083    -5204    -2412      -40     1742     3052     4166 
    5259     5971     5768     4646     2808      194    -3156    -6955 
  -10916   -14667   -17884   -20503   -22403   -23542   -24258   -24705 
  -24690   -24112   -23049   -21543   -19484   -16815   -13421    -9224 
   -4801     -828     2606     5186     6439     6690     6478     5768 
    4315     2111     -430    -2583    -4180    -5891    -8091   -10579 
  -13234   -15797   -17809   -19086   -19661   -19499   -18341   -16052 
  -13077    -9968    -7079    -4766    -3280    -2505    -1988    -1513 
   -1379    -1642    -2066    -2816    -4067    -5559    -7005    -8317 
   -9499   -10589   -11595   -12510   -13351   -14122   -14829   -15583 
  -16487   -17375   -18000   -18422   -18808   -19090   -19036   -18526 
  -17717   -16870   -16051   -15134   -14138   -13374   -13063   -12981 
  -12868   -12800   -12757   -12580   -12487   -12521   -12117   -11091 
   -9927    -8974    -8272    -7879    -7800    -7808    -7707    -7501 
   -7179    -6801    -6717    -7060    -7578    -8210    -9020    -9826 
  -10450   -10690   -10045    -8363    -6318    -4561    -3219    -2415 
   -2457    -3445    -5063    -6979    -9242   -11813   -14210   -16020 
  -17022   -16985   -16059   -14619   -12742   -10578    -8596    -7060 
   -5914    -5125    -4699    -4714    -5319    -6412    -7757    -9120 
  -10181   -10837   -11245   -11418   -11333   -11283   -11503   -11742 
  -11862   -12083   -12339   -12361   -12145   -11812   -11422   -11095 
  -10922   -10655    -9938    -8915    -8155    -7870    -7747    -7524 
   -7051    -6204    -5366    -5216    -5867    -6783    -7348    -7500 
   -7659    -7848    -7873    -7863    -7923    -8187    -8980   -10262 
  -11712   -13188   -14605   -15759   -16507   -16821   -16633   -15885 
  -14578   -12884   -11190    -9644    -8127    -6970    -6521    -6345 
   -6200    -6482    -7025    -7429    -8046    -9093   -10145   -11007 
  -11696   -11896   -11427   -10646   -10098   -10127   -10562   -10936 
  -11172   -11327   -11182   -10643    -9822    -8765    -7551    -6381 
   -5356    -4406    -3472    -2685    -2196    -1995    -2047    -2315 
   -2709    -3341    -4495    -6211    -8228   -10392   -12598   -14542 
