Origin Time       2025/01/13 21:19:00
Lat.              31.8
Long.             131.6
Depth. (km)       30
Mag.              6.9
Station Code      MYZ013
Station Lat.      31.9086
Station Long.     131.4188
Station Height(m) 6
Record Time       2025/01/13 21:19:37
Sampling Freq(Hz) 100Hz
Duration Time(s)  164
Dir.              E-W
Scale Factor      7845(gal)/8223790
Max. Acc. (gal)   128.712
Last Correction   2025/01/13 21:19:36
Memo.             
[...]
   -2806    -2836    -2844    -2837    -2839    -2837    -2817    -2805 
   -2813    -2824    -2830    -2828    -2821    -2824    -2820    -2810 
   -2818    -2830    -2829    -2821    -2817    -2814    -2808    -2801 
   -2816    -2841    -2844    -2816    -2802    -2825    -2839    -2822 
   -2810    -2825    -2836    -2825    -2822    -2829    -2814    -2798 
   -2810    -2832    -2836    -2824    -2822    -2818    -2802    -2813 
   -2840    -2824    -2799    -2813    -2833    -2837    -2833    -2813 
   -2812    -2835    -2824    -2810    -2825    -2816    -2809    -2833 
   -2837    -2814    -2797    -2798    -2825    -2851    -2841    -2818 
   -2803    -2799    -2822    -2848    -2836    -2822    -2822    -2821 
   -2828    -2828    -2816    -2828    -2825    -2805    -2820    -2829 
   -2809    -2818    -2837    -2821    -2803    -2806    -2816    -2828 
   -2828    -2825    -2836    -2836    -2817    -2813    -2821    -2813 
   -2806    -2817    -2826    -2830    -2830    -2824    -2813    -2801 
   -2812    -2835    -2828    -2817    -2826    -2833    -2825    -2814 
   -2808    -2814    -2824    -2820    -2812    -2812    -2821    -2836 
   -2836    -2820    -2802    -2803    -2826    -2840    -2830    -2821 
   -2817    -2816    -2817    -2818    -2828    -2835    -2826    -2821 
   -2824    -2821    -2814    -2817    -2820    -2813    -2808    -2818 
   -2836    -2839    -2818    -2806    -2813    -2822    -2832    -2837 
   -2828    -2820    -2821    -2818    -2814    -2818    -2824    -2821 
   -2813    -2813    -2829    -2839    -2828    -2814    -2817    -2825 
   -2820    -2813    -2816    -2817    -2817    -2826    -2832    -2817 
   -2803    -2808    -2816    -2829    -2836    -2826    -2817    -2813 
   -2820    -2835    -2841    -2832    -2822    -2817    -2818    -2822 
   -2822    -2814    -2817    -2830    -2835    -2830    -2821    -2805 
   -2805    -2825    -2832    -2824    -2818    -2818    -2821    -2825 
   -2821    -2810    -2808    -2812    -2826    -2836    -2824    -2812 
   -2810    -2799    -2801    -2828    -2841    -2839    -2835    -2822 
   -2812    -2812    -2814    -2825    -2833    -2826    -2822    -2826 
   -2813    -2798    -2808    -2822    -2832    -2837    -2829    -2817 
   -2822    -2820    -2809    -2818    -2836    -2837    -2824    -2808 
   -2806    -2826    -2839    -2830    -2824    -2821    -2805    -2794 
   -2806    -2832    -2848    -2844    -2829    -2814    -2799    -2798 
   -2833    -2856    -2835    -2810    -2802    -2801    -2813    -2821 
   -2818    -2825    -2824    -2813    -2820    -2828    -2821    -2820 
   -2822    -2822    -2822    -2818    -2813    -2822    -2832    -2824 
   -2813    -2813    -2812    -2816    -2825    -2830    -2833    -2829 
   -2816    -2810    -2821    -2824    -2826    -2840    -2840    -2825 
   -2817    -2810    -2810    -2820    -2826    -2825    -2822    -2816 
   -2812    -2822    -2835    -2832    -2825    -2818    -2809    -2809 
   -2817    -2828    -2833    -2822    -2808    -2799    -2803    -2824 
   -2848    -2844    -2820    -2812    -2818    -2824    -2829    -2832 
   -2828    -2824    -2822    -2818    -2805    -2794    -2813    -2847 
   -2848    -2824    -2821    -2829    -2824    -2820    -2826    -2821 
   -2812    -2812    -2824    -2832    -2817    -2808    -2821    -2826 
   -2824    -2818    -2808    -2805    -2820    -2833    -2835    -2824 
   -2812    -2812    -2821    -2830    -2832    -2825    -2816    -2810 
   -2812    -2825    -2837    -2825    -2805    -2805    -2814    -2825 
   -2840    -2843    -2829    -2826    -2829    -2817    -2809    -2820 
   -2835    -2833    -2814    -2806    -2828    -2845    -2835    -2813 
   -2798    -2806    -2822    -2833    -2837    -2828    -2821    -2821 
   -2822    -2822    -2809    -2803    -2824    -2826    -2813    -2820 
   -2833    -2828    -2809    -2808    -2828    -2832    -2817    -2816 
   -2829    -2830    -2825    -2830    -2830    -2812    -2799    -2806 
   -2830    -2851    -2837    -2805    -2797    -2820    -2835    -2828 
   -2826    -2825    -2814    -2814    -2824    -2828    -2833    -2830 
   -2817    -2814    -2816    -2812    -2817    -2830    -2824    -2805 
   -2810    -2826    -2826    -2824    -2829    -2830    -2820    -2810 
   -2813    -2822    -2824    -2821    -2829    -2833    -2820    -2812 
   -2817    -2817    -2822    -2837    -2841    -2822    -2801    -2806 
   -2822    -2824    -2821    -2818    -2817    -2821    -2821    -2821 
   -2828    -2822    -2812    -2821    -2833    -2822    -2817    -2830 
   -2825    -2810    -2817    -2830    -2837    -2829    -2810    -2803 
   -2814    -2825    -2826    -2816    -2812    -2826    -2841    -2836 
   -2820    -2810    -2814    -2825    -2828    -2820    -2817    -2822 
   -2822    -2817    -2816    -2818    -2826    -2837    -2840    -2826 
   -2810    -2805    -2813    -2829    -2828    -2818    -2829    -2839 
   -2829    -2822    -2817    -2812    -2812    -2813    -2826    -2841 
   -2833    -2814    -2799    -2779    -2748    -2705    -2643    -2571 
   -2511    -2515    -2633    -2849    -3092    -3269    -3288    -3167 
   -3010    -2799    -2388    -1794    -1355    -1436    -2033    -2766 
   -3256    -3387    -3196    -2685    -1929    -1360    -1521    -2431 
   -3474    -3892    -3408    -2501    -1929    -2137    -3084    -4141 
   -4472    -3847    -2716    -1610     -963    -1065    -1753    -2419 
   -2655    -2596    -2274    -1678    -1466    -2153    -3165    -3769 
   -4167    -5032    -6286    -7126    -7091    -6277    -4963    -3566 
   -2463    -1518     -463       72     -633    -1803    -2470    -3006 
   -3717    -4226    -4037    -2316      747     2849     1917    -1480 
   -4369    -4482    -3519    -4619    -7369    -8579    -6735    -4005 
   -3111    -3229    -2049      -76      427    -1016    -2772    -3342 
   -2581    -1259     -373     -216     -383     -795    -1665    -2710 
   -3113    -2643    -2401    -3083    -3352    -2060     -352      506 
     706      414     -257     -638    -1078    -2968    -5886    -7299 
   -5850    -3083    -1372    -1086     -638      950     2434     1487 
   -2018    -5283    -6365    -5819    -4791    -3991    -3300    -2196 
    -926     -286    -1255    -4183    -7380    -8442    -6840    -4083 
   -1985     -915      -98      484      232     -588    -1975    -4665 
   -7479    -8139    -6764    -5277    -4739    -4318    -3038    -1977 
   -2039    -1826     -236     1699     2130      209    -2836    -4754 
   -5127    -5599    -5865    -3450     1097     3852     2181    -2664 
   -7306   -10089   -11303   -10597    -7250    -2651     -153    -1027 
   -3003    -3364    -1124     2083     3343     1787    -1317    -3589 
   -2442     1895     5929     6289     2701    -2141    -6188    -9263 
  -10710    -9886    -7477    -4405    -1684     -506     -355      747 
    2674     2853      252    -2968    -4247    -3458    -2280    -2178 
   -4027    -7263    -8486    -5452    -1848    -1512    -2594    -3144 
   -4051    -5433    -7487   -10592   -12320    -9952    -4149     2149 
    6237     7129     5070     1212    -1443     -969      -28    -2101 
   -6254    -8041    -4695     1081     4328     3819      939    -4083 
   -9624   -11159    -7317    -1641     3252     6334     5499      510 
   -4699    -6413    -5687    -6305    -9775   -13495   -13986   -11141 
   -7803    -6781    -7547    -5756      675     7879    10887     8954 
    4777     1763     1667     2274     1977     2484     3315     3092 
    3079     4500     5513     1911    -6014   -12352   -13794   -11524 
   -7765    -5502    -6948    -9705    -8878    -4591    -1993    -2532 
   -2459     -699     -118    -1158    -1119      789     2704     2614 
   -1132    -8283   -15164   -17057   -12571    -5539     -519     1098 
      -8    -2338    -5809   -10060   -11510    -8675    -3780       40 
   -1247    -6358    -7369    -1601     5717     9675     7993     1579 
   -3811    -4382    -3636    -4884    -6523    -5721    -1563     2636 
    2910      318    -1418     -427      284    -3873   -10737   -14573 
  -14386   -12488   -10196    -8903    -9344    -7920    -3015     2069 
    5737     6212     3352     1081       89      -18     1050        1 
   -4052    -6045    -2921     1444     2516      989     -880    -1626 
    -633     2100     7223    11437    10613     8513     8876     9286 
    8233     5394     -584    -7207   -10289   -12553   -18134   -23325 
  -23953   -20614   -13873    -6932    -5737    -9698   -11673    -6833 
    2554     9308     9775     7900     6804     5352     5016     5042 
   -1915   -15109   -23824   -22931   -14388    -2610     5826     6966 
    3854     1404    -2455   -10710   -17116   -14983    -6839     -137 
    1441       31    -2305    -2756     2544     9171     9217     3547 
   -5196   -17329   -27488   -28098   -19932   -10862    -6801    -6185 
   -4183      -56     1930     -843    -2782     1772     6350     4376 
    2646     5698     7688     5822     1911    -1467    -2263    -3599 
   -7985   -12024   -13065   -10733    -5571    -2401    -4433    -6658 
   -6500    -6542    -5364    -3314    -2257     2508     9869    11079 
    6235      388    -4197    -5601    -6222   -10346   -15815   -15892 
   -6882     6174    13000     9768     4846     8860    21487    32119 
   30420    16719     1514    -5903    -4683    -1323    -2523    -7669 
  -11692   -14220   -19094   -25809   -29419   -26789   -18431    -7708 
    1613     8707    13004    11620     6809     6610    11986    16434 
   16745    12837     5425    -1372    -3176     -471     2929     3910 
    1142    -4260    -7931    -6316    -1023     4581     9566    12981 
   10832     1027   -10594   -16745   -17362   -17308   -19957   -23934 
  -26790   -29732   -34392   -38958   -39471   -33619   -23784   -14405 
   -7688    -4630    -6407   -11038   -11793    -5316     2200     3919 
     125    -4853    -7311    -8932   -14004   -20244   -23031   -24135 
  -25752   -25127   -19342    -8550     3445    11358    14260    15172 
   15337    13468     8411     1526    -3997    -6258    -4855    -1102 
    3476     7356     5930    -1221    -5518      757    17626    38238 
   53631    59269    54900    42340    28657    22862    26798    35845 
   42897    41835    34501    28705    28682    31606    31050    25201 
   17901    11319     8415    13050    22783    33451    41230    42472 
   40531    39243    36767    32725    27689    18214     1826   -15147 
  -23438   -21709   -13568    -2276     8885    15066    11009    -3341 
  -24212   -46103   -61264   -68472   -71955   -70625   -63481   -54330 
  -45569   -39781   -39631   -43148   -50765   -66039   -84566   -97290 
 -100224   -94734   -85110   -73290   -56362   -33331    -9648     7145 
   16606    26549    40109    51254    56677    58521    58233    58090 
   58047    51938    38380    22172     4436   -13834   -29166   -41484 
  -50611   -51429   -41566   -25911    -9634     3811    10852    11176 
    7450     -259   -15040   -34884   -49401   -51289   -41883   -24961 
   -5875    10696    24281    33045    35857    37303    37039    29725 
   19543    15511    17821    19546    14767     3001   -10723   -19608 
  -20289   -16549   -11969    -2627    10030    16244    13842     6396 
   -2554    -7114    -5722     -668     9163    20833    23633    12272 
   -8704   -29671   -41563   -47051   -52855   -57316   -59298   -58245 
  -50072   -35556   -22206   -18794   -28316   -44242   -56893   -61229 
  -59124   -53990   -43054   -23579    -2281    12255    17679    15045 
    7811      631    -2856     1444    15191    33108    44205    39158 
   22013     7820     5749    14245    26751    37521    45819    50657 
   49432    44813    40811    36663    31531    27020    23649    22034 
   24381    29760    34696    39120    43742    48069    53447    58074 
   57168    50085    38904    27639    21818    23916    31045    37357 
   38993    32356    13824   -13984   -44747   -73759   -96268  -105511 
  -95774   -70387   -42897   -26285   -23147   -27884   -39515   -59324 
  -76523   -82183   -83080   -85067   -86286   -85386   -84283   -86547 
  -91566   -94558   -91914   -82864   -71682   -63601   -56428   -46159 
  -37060   -33346   -29239   -19418    -4826    12399    28264    39102 
   44062    43848    40849    38605    39610    42720    46980    54020 
   61543    64104    61241    57046    53873    50622    45231    38176 
   33296    32914    34013    32526    29608    27675    24309    17730 
    9645     1312    -5994   -12698   -21590   -32709   -42155   -44687 
  -38292   -26747   -15549    -9207    -9892   -15025   -22264   -31036 
  -37203   -36961   -28224    -7560    23714    57044    84728   103381 
  105741    88034    65071    46705    25215     5795     3758    15614 
   26767    32134    34465    36475    38915    38384    30966    19039 
    5891   -11526   -35070   -59296   -76345   -80068   -71223   -56988 
  -42003   -28470   -18924   -15504   -19973   -28125   -32165   -29533 
  -20942   -11117    -8109   -12289   -17026   -18829   -17678   -14582 
  -13373   -16326   -19630   -21570   -24031   -24266   -20505   -13552 
    -166    17662    31993    43792    58023    70586    75292    70861 
   59177    48386    46340    50143    50961    43021    27326     9321 
   -5136   -10231    -2154    15545    34206    47601    53161    52118 
   46489    34177    13022   -14790   -43433   -67562   -88674  -110602 
 -129413  -137754  -134380  -123341  -107577   -88072   -70336   -62776 
  -67444   -76815   -77225   -60039   -27681    10820    41208    52324 
   49345    43256    34307    23546    20511    26096    31315    32950 
   32568    27546    14007    -5564   -23969   -36482   -40473   -32336 
  -12181    13336    34281    41170    31156    12301    -2060    -1934 
   16305    43627    60289    58345    42817    11844   -33274   -72495 
  -87334   -80601   -64069   -45458   -31642   -28428   -33466   -38389 
  -34296   -11217    26682    52273    47028    21782    -7123   -33394 
  -49427   -52050   -49505   -47946   -49678   -53050   -50589   -39669 
  -24337   -10586    -2629      669     1695     2170     4209     8517 
   15175    23575    32038    39622    44282    42919    36285    28151 
   21231    17483    17687    20275    24587    32950    46641    61483 
   69681    67456    58735    50079    46314    48462    52191    50949 
   41138    25500     9579    -3699   -12950   -19755   -29451   -44508 
  -62803   -81253   -94822   -97784   -89120   -71768   -51641   -36860 
  -30373   -29214   -30331   -31089   -30296   -29349   -30541   -35789 
  -42912   -46481   -45203   -41985   -38348   -33477   -27729   -23684 
  -23373   -27081   -32682   -36240   -35452   -30106   -21157   -11267 
   -2286     6621    16312    27033    39352    51433    58962    60216 
   57736    55759    56832    59205    58629    51833    38254    20210 
    2134   -10235   -12873    -7246      787     8567    19476    35692 
   55763    75917    88438    87131    73755    53524    30582    10767 
    -492    -4162    -4486    -4500    -6426    -9895   -12447   -13188 
  -13439   -15005   -16945   -17138   -17713   -22793   -32209   -42203 
  -50521   -56812   -61755   -67342   -72954   -75759   -76049   -73168 
  -62432   -44400   -26221   -12825    -7811   -14577   -30210   -46028 
  -54355   -52941   -44124   -31757   -20051   -13282   -14017   -20061 
  -26333   -29706   -27868   -17919     -193    20645    39791    54625 
   63335    65684    64567    63196    63414    66943    73722    81141 
   86385    87886    85761    80967    74005    64864    53379    40709 
   29945    23294    20663    20325    19051    14771     8718     3850 
    2828     6107    12017    19248    26469    30068    26254    14538 
   -2169   -18611   -30109   -36344   -41108   -49482   -62588   -74136 
  -76889   -68378   -51233   -33581   -21497   -14785   -13946   -20542 
  -33798   -50326   -64898   -74885   -81000   -83223   -80947   -74648 
  -65302   -53897   -41505   -30168   -21983   -15676    -8726    -1768 
    2998     4224     2512      108    -1329    -1121       75     -581 
   -5895   -15263   -26404   -38076   -47447   -50592   -45665   -34751 
  -24521   -18971   -16619   -16482   -17259   -15921   -10939    -3057 
    6508    18138    32621    48864    65473    81426    95265   106223 
  112190   109194    96990    79351    60087    43256    31901    25431 
   22302    21865    23143    25921    30912    38371    47460    55486 
   59736    58685    50147    34457    17230     2316   -12062   -27685 
  -43104   -55622   -64380   -69867   -71224   -68588   -63771   -56285 
  -45588   -35549   -31617   -35633   -45759   -59826   -74035   -82541 
  -84600   -83200   -78268   -70699   -62822   -54124   -45522   -39577 
  -35505   -30897   -24070   -14392    -2574    10071    21390    30086 
   37030    43629    50625    56138    57006    52301    44313    39386 
   41747    48016    54465    60268    64570    67819    71010    72809 
   70514    63246    52479    40068    27908    19017    14810    12191 
    9448     8217     7013     3078    -3503   -11742   -20551   -29188 
  -38254   -48570   -60408   -73792   -87686   -99573  -106415  -106289 
  -99801   -89213   -76141   -61257   -45527   -30183   -16711    -7252 
   -3389    -3666    -3766    -2025     -388      232     -885    -3819 
   -6301    -7230    -5599      143     9852    22809    35344    43136 
   47316    49999    51572    53233    55151    56315    55356    49917 
   39681    27734    17563    10635     6073     3051      855    -2513 
   -8025   -15616   -24555   -32175   -36246   -35850   -31768   -28282 
  -28213   -28051   -24489   -18978   -12696    -6469    -2550    -1012 
     197     1884     2338      126    -3092    -5907    -9382   -15020 
  -23284   -31641   -35734   -34365   -29084   -21868   -16185   -14396 
  -14253   -12680    -9391    -3928     3802    10736    14980    17972 
   20676    22983    24709    23859    18230     8360    -4342   -16696 
  -23472   -22627   -15669    -6894    -1587     1447     6158    10619 
   11691     8730     4131     3861    10432    19824    25913    25636 
   22319    21701    25281    30014    32121    28665    18527     3582 
  -13117   -28972   -41432   -47659   -45786   -37220   -26217   -16799 
  -11873   -13090   -17477   -19346   -19055   -21882   -29043   -37133 
  -41000   -35472   -20638    -2936    11893    23184    31936    38886 
   44676    47495    44682    35348    21065     7537     1672     5421 
   14971    24992    30703    27788    15253    -3056   -21438   -34142 
  -37266   -32026   -24043   -17674   -12573    -9008    -8491    -8587 
   -8873   -12256   -17113   -21158   -24703   -26890   -27372   -26391 
  -24125   -22314   -21211   -19094   -15233   -10621    -7924    -8068 
   -7678    -3595     3191     9639    13913    15824    16357    17934 
   22204    27438    31172    33543    35754    37650    37916    35297 
   29296    19445     6064    -8214   -19630   -23649   -17960    -5632 
    8171    16996    15018     4293    -7904   -17896   -25305   -28927 
  -26836   -19267    -9409      260     8758    14431    16501    14706 
    8063    -3075   -17909   -35729   -54309   -70856   -82228   -85353 
  -81297   -74885   -67518   -56721   -42890   -30253   -21344   -15573 
