Origin Time       2025/01/13 21:19:00
Lat.              31.8
Long.             131.6
Depth. (km)       30
Mag.              6.9
Station Code      MYZ006
Station Lat.      32.2564
Station Long.     131.5609
Station Height(m) 23
Record Time       2025/01/13 21:19:41
Sampling Freq(Hz) 100Hz
Duration Time(s)  131
Dir.              U-D
Scale Factor      7845(gal)/8223790
Max. Acc. (gal)   44.606
Last Correction   2025/01/13 21:19:41
Memo.             
[...]
    9836     9850     9875     9876     9856     9846     9871     9879 
    9849     9828     9873     9911     9853     9818     9863     9892 
    9886     9863     9814     9844     9930     9883     9794     9844 
    9930     9869     9792     9907     9930     9763     9818     9968 
    9860     9810     9923     9883     9780     9833     9933     9913 
    9822     9818     9869     9875     9871     9907     9865     9787 
    9864     9899     9829     9890     9927     9819     9790     9880 
    9917     9884     9871     9833     9814     9876     9891     9877 
    9909     9853     9767     9841     9950     9892     9828     9872 
    9853     9822     9887     9894     9867     9859     9832     9869 
    9877     9833     9886     9902     9838     9845     9875     9848 
    9848     9898     9884     9838     9848     9859     9863     9887 
    9873     9846     9852     9856     9871     9891     9850     9844 
    9887     9863     9863     9890     9823     9829     9922     9884 
    9821     9872     9886     9828     9840     9890     9894     9869 
    9826     9859     9887     9811     9872     9941     9819     9841 
    9918     9828     9815     9892     9917     9855     9822     9891 
    9859     9837     9899     9859     9865     9884     9823     9860 
    9873     9852     9903     9877     9799     9833     9929     9898 
    9806     9864     9902     9832     9846     9884     9879     9865 
    9828     9867     9923     9837     9801     9909     9906     9795 
    9846     9949     9844     9795     9923     9882     9805     9886 
    9880     9850     9891     9849     9829     9871     9886     9887 
    9840     9832     9891     9859     9844     9899     9857     9819 
    9869     9891     9888     9842     9809     9902     9925     9826 
    9822     9876     9883     9865     9865     9863     9829     9877 
    9909     9823     9860     9915     9833     9830     9902     9863 
    9819     9890     9903     9844     9857     9861     9856     9864 
    9850     9898     9871     9792     9884     9913     9829     9868 
    9890     9840     9844     9873     9894     9860     9836     9876 
    9853     9832     9888     9883     9853     9873     9848     9819 
    9888     9910     9850     9860     9852     9821     9890     9913 
    9853     9848     9871     9857     9830     9876     9922     9864 
    9838     9861     9845     9860     9903     9906     9859     9818 
    9836     9868     9887     9898     9865     9819     9842     9883 
    9883     9877     9860     9842     9865     9865     9848     9880 
    9902     9833     9810     9917     9903     9803     9877     9899 
    9811     9867     9922     9871     9819     9836     9909     9861 
    9806     9919     9913     9784     9829     9913     9894     9849 
    9830     9877     9872     9821     9886     9918     9833     9819 
    9891     9884     9837     9899     9891     9772     9859     9945 
    9830     9844     9922     9832     9806     9921     9900     9815 
    9865     9864     9852     9900     9834     9846     9904     9830 
    9871     9906     9841     9863     9845     9849     9903     9861 
    9864     9848     9807     9899     9907     9833     9865     9861 
    9799     9833     9887     9848     9815     9830     9801     9796 
    9846     9837     9826     9802     9753     9830     9848     9749 
    9792     9815     9702     9721     9817     9726     9586     9532 
    9455     9444     9509     9578     9845    10204    10370    10403 
   10316    10056     9660     9300     9356     9807    10230    10386 
   10006     9213     8808     9012     9239     9225     9262     9562 
   10106    10929    11844    12008    10651     8402     7009     7812 
   10777    14088    15144    12988     9192     6345     6413     9379 
   12636    13363    11453     8833     7183     7250     8796    10683 
   11673    11032     9123     7654     8000     9499    10679    11032 
   10606     9715     8999     8590     8500     9113    10034    10231 
    9765     9614     9909     9992     9748     9655     9956    10400 
   10600    10039     8684     8017     9158    10859    11647    11472 
   10486     9032     8179     8218     8391     8893     9958    10427 
   10228    10382    10505    10064     9428     8513     7103     6243 
    7337     9749    11141    10582     9300     8596     9045    10559 
   11885    11789    10332     8043     5992     6122     8949    11848 
   11561     8163     5193     5728     9329    12822    13227    10129 
    5837     3492     4800     8876    12788    13564    10598     6354 
    4209     5958    10721    15120    15942    13273    10164     9616 
   11595    13401    13043    10569     7653     6492     7665    10671 
   14384    15677    12669     8205     6454     8634    12939    15843 
   14165     9188     6412     8311    12247    15381    15672    12079 
    7133     4887     7006    12213    16849    16294     9941     4083 
    4375     9153    13660    14274     9946     4314     2893     6949 
   12645    15584    14022     9178     4625     3712     6758    10993 
   12707    10201     5175     1826     4062    10810    15638    14234 
    8904     3825     1351     2598     6353     9796    11394    10935 
    9734    10214    12935    15723    15951    13319    10561    10532 
   12834    14686    14361    11585     7298     5354     8718    13864 
   15380    12941     9845     8854    11306    16024    18114    15325 
   12297    11842    12405    13548    12114     4376    -3515    -2498 
    6381    15007    16708    10069      322    -3445     3349    15024 
   20599    14207      945    -7662    -5038     6130    17207    19278 
   12884     7373     6984     8899    11183    12077     9563     6413 
    7207    10158    10413     9580    11529    13302    11580    10322 
   13783    19886    22898    18094     7087     -850     1263    10488 
   18850    19746    12604     3352    -2276    -1343     5242    10920 
   11769    10608     8546     5308     5605    12324    18868    18018 
   11387     5211     5059    12780    22096    23824    16129     4224 
   -4425    -3542     5378    11871     7924    -2151    -7508    -3102 
    7338    16320    18634    14764     8669     5182     7300    11124 
   10949     9301    10419    11514    11248    11935    10955     8295 
   10449    15966    18944    19128    14493     6021     3661     9390 
   14283    13416     8334     4436     5364     7063     7631    11507 
   18227    23229    24968    22077    12892     1289    -3191     5448 
   20943    30071    26499    13624     1007     1086    15206    26937 
   20773    -1524   -23461   -25547    -2498    30542    51065    43170 
   12367   -13722   -17910    -7962     3298     4544    -8194   -19469 
  -13090     5285    19819    22048    12418      500     -676     7673 
   12491    11745    13039    17163    21104    24169    25250    24266 
   23184    21590    15730     7034     6440    17034    24398    19322 
    8561     -349    -2594     4398    13888    15639     7236    -3807 
   -6318     2110    14881    26102    27309    11666    -8652   -13412 
      43    19480    31448    26890    10400      997     9517    23255 
   26158    18547     6251    -5260    -6700     1561     8811    14061 
   19337    16499     5298     -379     5292    14104    16193     7237 
   -6709   -11519     -915    14891    20954    12995    -1124   -10442 
   -7574     7053    23217    28710    21111     9988     6324    11901 
   21551    28194    24938    13737     6394     9246    19074    30435 
   34145    23735     7337    -2745    -3759     1536     9925    15030 
    9000    -4037    -5898    11325    33502    42464    29565     1479 
  -19826   -20873    -9374     5355    17643    20429    16730    16185 
   18453    16561     8889     1297    -1468    -2133    -2502       85 
    5007    10231    14243    13184     8638     6617     6161     5339 
    5887     6836     7302     6458     3102     2624     8505    15051 
   18592    17813     9487    -1885    -4321     6477    21263    27372 
   22245    14268    11915    16102    20679    19369    12163     4877 
    2636     3132     3936     8905    15587    16848    14274    10831 
    7943    10935    19160    22828    14856       52    -6322     2511 
   15071    20569    17124     6008    -3350    -1008     9404    17689 
   16405     5746    -1985     5576    22333    28912    16691    -2745 
  -11064     -476    20542    33145    21789    -6843   -25582   -17273 
    9869    33698    32896     6119   -22041   -28090   -11504    12892 
   26609    18705    -1489   -12421    -1960    23816    45073    43919 
   22388     -174    -5799     7465    24686    29947    20412     4811 
   -2388     7541    26295    35718    23317    -4731   -23053   -14118 
   11292    31552    34518    19353    -3183   -16012   -10878     5605 
   19387    19707     8607      468     5656    18029    25334    23080 
   13714     3667      265     4491    11785    19008    24918    27495 
   25351    19504    11514     3515     -849     -311     4082    11160 
   14477     7939    -1630    -4565     -464     6822    10207     4715 
   -1246     2355    12769    23333    29207    24862    10952    -1777 
   -1561    12378    27460    29504    16560     1286    -2490     5150 
   15774    20579     8887   -15184   -25633    -8318    21309    39132 
   30635     2455   -17178    -8102    17940    34788    30427    11569 
   -6895    -9262     9429    32205    35903    16771    -8537   -19244 
   -8687    11233    26900    31062    19973     2640    -4903    -1166 
    7388    18257    24204    18202     4884    -6300    -7249     4896 
   21460    29080    23719    13186     5834     2270     2091     6808 
   12264    13379    12422    11554    10206    11304    15210    16447 
   14343    13427    14531    16324    18852    18099     8360    -4762 
   -9645    -5530      599     4392     4660     2596     -349    -3879 
   -5417     -823     9439    18766    20525    14181     5055      480 
    5161    16654    26222    25829    14917     3728     6394    22520 
   33694    24402    -2358   -26631   -26257      -14    27766    32394 
   14323    -4521    -5659    11372    31923    36724    20270     -446 
   -6220     3632    17273    23452    17053     2278   -10177   -12241 
   -4064     8742    18400    16031     1201   -13387   -15469    -3217 
   14686    23264    15352      378    -6620     1463    20058    34256 
   31475    17068     6235     6234    15165    26612    32081    27583 
   16513     4182    -3235     1522    15786    24795    21078    12910 
    9140     9630    10450     7950      450    -6455    -2613    10944 
   21325    21593    12930     -282    -7308    -1672     7951     9883 
    2810    -5815    -8503    -3960     3626     7882     4954     -367 
     753     7740    12040    11461    11716    15998    20426    19024 
   11669     5479     7889    19013    28737    25810    11935    -1764 
   -6745     1487    20557    36911    36791    21143     3623    -2816 
    4716    18569    26790    20660     1998   -13618   -10687     7496 
   24464    29079    20973     8610     3474     7900    14152    17200 
   17194    13664    10080    13992    23145    26138    19602    10895 
    7399    10521    15404    16773    14959    12089     8799     7643 
   10831    14548    13431     8650     5243     4977     7561    12752 
   16074    10889    -2123   -14782   -18432    -8908     7001    14617 
    9717     2650     1807     6265    11646    14153    11445     4368 
   -1443      533    10320    19757    20140    12425     5374     3130 
    3061     3168     2458     -218    -3165    -2617     2774     9313 
   11750     9435     6489     6178     6839     6895    10338    19145 
   27113    27009    19159    12530    14650    21398    25172    26057 
   26669    26512    24722    21774    20121    21130    20582    15720 
   11688    12876    17786    22739    23112    18844    16008    16171 
   14482     7987     -477    -5297    -4367      623     5441     2338 
   -8120   -11092     1273    18563    26327    18314     4315     5436 
   26628    45733    41305    19009     1358      391    10963    22361 
   26713    20831     5961    -9063   -12209    -4895      576    -2177 
  -12663   -23857   -24688   -14103      117    11263    10993    -1834 
   -8707     4978    26731    35738    23741     -286   -12920    -2079 
   17955    30419    29639    13724   -11473   -29489   -25783    -2241 
   21459    26107    12739    -2324    -6308     3134    18253    24113 
   11697   -12960   -32549   -29273    -3956    20127    25130    15271 
    3013    -3129    -2620     -781     2046     9977    20036    21149 
    9427    -1387     -288     6961    16626    28043    33003    30500 
   28887    28269    26974    31689    40188    39195    27463    15169 
   10031    17236    33789    44089    36104    15410    -1655    -3771 
    6589    18007    20754    13343     4349     3665    10270    17270 
   20166    16791    12796    16534    24233    27769    27383    24741 
   17606     7353      858     1404     5618     8222     5000    -3538 
   -8320     -225    13378    17636    13724     9675     4257    -1004 
    1571    11029    20945    28873    29451    17537       85   -13003 
  -16303    -3778    19575    32111    20025    -6837   -25173   -18554 
    5448    25855    31811    20613    -5620   -28783   -28714   -10288 
    5012     3492   -14215   -33604   -36896   -22187    -2327     8241 
    1719   -14068   -19438    -4896    17517    29268    23774     7874 
   -3890      384    16185    29749    36350    36298    28919    21724 
   24132    33178    39544    37301    26586    14212     7589     7959 
   14123    26717    37908    32436    14057     5323    14497    28121 
   30219    14677    -9968   -23529   -12307    14762    36505    39100 
   19257   -11754   -27900   -13720    18630    42214    38136    14076 
   -3820      657    23110    46550    55483    46133    23788     1387 
   -4013    12028    34493    42901    28865     2663   -16567   -18474 
   -8752      625     2200    -6133   -19178   -25107   -17591    -2627 
    8442     9994     5432    -1038    -7681    -9705    -2061    12642 
   23789    20421     3400   -11804   -11317     1842    13381    13344 
    2592   -10453   -13986    -1301    19398    32810    31951    19947 
    6539     2060     7776    16692    22404    21493    12280    -1714 
  -10220    -5698     7618    19071    19835     6575   -11731   -17437 
   -3630    18976    33666    30572    13961    -1359    -1570    15365 
   35868    43838    37708    26844    19575    20710    29165    36729 
   36309    28054    16834     8783     8575    14766    19032    14851 
    4423    -5525   -10601   -10678    -7522    -1979     4833     9474 
    8716     4005     2116     7762    15731    17517    12224     5047 
    1965     5436    10914    11502     4549    -6789   -15028   -14149 
   -5267     4167     7091     4572     4303     9765    16422    20191 
   22149    22836    20518    16360    13780    13906    16166    18507 
   15969     7597     1570     3901    10030    12793     8048    -4920 
  -18173   -17867    -1043    17734    22688    12418    -2303    -7889 
    1208    15751    21612    14952     4135      625     8723    22504 
   32547    33327    24869    13633     9999    17837    28877    31158 
   21365     6512    -2907      795    14331    22902    17127     2884 
   -8710   -10192      210    16730    29519    32567    26883    17543 
   10207     8422    11917    17136    18635    14170     8583     7996 
   12972    18079    17855    13637    10633    11624    15330    17622 
   17471    17489    16802    13366     9481     7483     6835     8295 
   12995    15608     8181    -7159   -18304   -16298    -3786     7569 
    7308    -4654   -18513   -24066   -20264   -12663    -4679      719 
     279    -2142      -41     5958    12131    17329    20229    18635 
   14445    13016    15531    18366    19282    18081    15402    15133 
   20344    26482    27348    23568    19776    18605    20881    27915 
   36645    37948    29006    17594     9707     6003     7641    13057 
   16106    13560     6656    -1317    -5182    -3442    -1709    -4926 
  -10885   -13578    -9302      627    11168    17699    18804    15550 
   11445    12371    20127    26785    24005    13582     2629    -2512 
     318     5764     8272     7456     2953    -3978    -7551    -4711 
    1208     6157     8594     8152     6458     7457    13059    21319 
   28077    27700    18790     9194     8230    16445    26028    29084 
   24503    16599     9165     4203     3809     6547     5969     -449 
   -7896   -11333    -7682     4236    17660    20491    10582    -1163 
   -3696     5791    19946    25100    15947     2791    -1829     3631 
   11943    15834    13792    10092     9830    14740    23121    30630 
   32998    30223    24364    17085    11827    10324    10208     8938 
    3229    -8133   -17003   -13899    -2398     5008     1509   -10000 
  -21516   -24363   -15194     -149    10512    11344     4147    -4738 
   -8247    -3002     8806    22466    32560    32651    21709     8999 
    5543    14118    28410    38920    40504    34037    23164    13490 
   11475    18137    25712    26388    21633    17031    14197    12722 
   12834    14264    14427     8464    -3642   -13285   -13182    -5131 
    3663     6064      325    -7044    -8685    -4191     2513     6093 
    1624    -7811   -11541    -5120     4518     9290     7253     1290 
   -2571      911     9724    16915    17965    12056     2639    -2211 
    3674    17662    30007    32701    25562    15006    10285    16734 
   29093    36067    32325    23136    17941    21720    31939    39637 
   35934    22569     9348     2902     6030    16183    22145    16742 
    6189     -689    -1113     2752     4993     1804    -3700    -6948 
   -5660       81     7055    12382    14175    10188     2552    -2462 
   -1954     1647     4936     5961     3882     1028     2725    10368 
   18389    20258    14152     4953     1043     4325     9040    11772 
   12625    11178     8033     5100     4008     5130     7420     9634 
   10166     9040     9613    12924    15210    13343     8164     3607 
    3287     6242     7977     6902     6130     7338     8503    10072 
   14879    20501    22563    22356    21826    19107    13810     9671 
    9903    13369    16784    17639    15311    12074     9697     6993 
    4564     5189     8233     9634     6384      545     -731     6500 
   17626    25902    27426    21456    12879     9791    15044    23341 
   27029    23279    16457    13923    18049    23989    26082    21757 
   12420     4966     5892    14588    24533    26779    18450     7738 
    3167     5616    11179    13536     8633    -1027    -9077    -9441 
   -1432     7546     9023     1566    -9181   -15113   -12167    -4066 
    2393     3141    -1938    -9194   -13513   -11072    -2720     4426 
    4753      908      -75     4826    11340    15815    19695    23830 
   27068    27579    25078    23761    26177    28167    26275    22999 
   20700    18148    15187    13660    13937    14608    14033    11070 
    5493     -589    -2631     1615     9398    15935    16403     9077 
