Origin Time       2025/01/13 21:19:00
Lat.              31.8
Long.             131.6
Depth. (km)       30
Mag.              6.9
Station Code      MYZ016
Station Lat.      31.6131
Station Long.     131.3745
Station Height(m) 9
Record Time       2025/01/13 21:19:39
Sampling Freq(Hz) 100Hz
Duration Time(s)  147
Dir.              N-S
Scale Factor      7845(gal)/8223790
Max. Acc. (gal)   51.320
Last Correction   2025/01/13 21:19:39
Memo.             
[...]
  -24185   -19604   -15211   -11624    -8926    -6987    -5463    -3785 
   -1688      544     2751     5159     7758    10258    12329    13405 
   13047    11664    10400    10210    11275    13625    17554    23018 
   29334    35206    39114    40263    38631    34554    28976    23149 
   17748    12434     6523      270    -5356    -9872   -13328   -15855 
  -17651   -18852   -19611   -20588   -22600   -26046   -31109   -37390 
  -43923   -49805   -54201   -56716   -57589   -57102   -55197   -51561 
  -46198   -39699   -32751   -25841   -19626   -15012   -12507   -11902 
  -12567   -13381   -12584    -8569     -982     9086    19728    29180 
   36331    40443    41295    39672    36861    33976    31646    29643 
   27274    23946    19302    13647     7757     2393    -1444    -2922 
   -2257     -283     2332     5097     7543     9124     9358     8252 
    6494     5039     4287     4074     4321     5044     5953     6295 
    5178     1953    -3527   -10790   -18889   -26388   -31533   -32859 
  -29694   -22674   -14002    -6474    -1876     -733    -3165    -8916 
  -16740   -24393   -29673   -31756   -30730   -26433   -19080    -9856 
    -392     7592    12831    14995    14563    12098     7688     1633 
   -5221   -11948   -17721   -22214   -25370   -26877   -26489   -24202 
  -20256   -15051    -8915    -2262     4136     9054    11267     9988 
    5034    -2629   -10959   -17640   -20777   -19645   -14785    -7113 
    2373    11924    19282    23010    23016    20048    15010     8662 
    2062    -3595    -7828   -10841   -12727   -13281   -12711   -11708 
  -10397    -8352    -5641    -2875     -534     1154     1790      625 
   -2646    -7321   -12297   -16841   -20817   -24140   -26287   -26630 
  -24788   -21208   -17285   -14002   -11524   -10111    -9748    -9566 
   -8772    -7538    -6330    -4846    -2523      256     2222     2068 
    -604    -4594    -7905    -9305    -8495    -5432     -306     5850 
   11311    14678    15167    12209     5699    -3341   -12692   -19899 
  -23619   -23831   -20977   -15460    -7944      114     6723    10442 
   10732     7474     1113    -7106   -15543   -22601   -26948   -27864 
  -25776   -21910   -17267   -12590    -8619    -5898    -4575    -4083 
   -3577    -3006    -2668    -2193    -1252      -51     1541     3908 
    7045    10592    13741    15626    15913    14736    12483     9470 
    6035     2997     1193      622      585      579      498      164 
    -645    -1999    -4213    -8089   -14250   -22388   -31432   -40107 
  -47123   -51239   -51521   -47760   -40401   -29874   -16548    -1726 
   12218    22886    28684    29605    27432    24389    21833    20175 
   19477    19739    20494    20857    20071    17766    14358    10806 
    7697     5209     3207      905    -2594    -7275   -12135   -16268 
  -19576   -22238   -23928   -24061   -22882   -21405   -20277   -19426 
  -18462   -17109   -15519   -14170   -13540   -13709   -14354   -15601 
  -17949   -21014   -23569   -24682   -24097   -22022   -18870   -15138 
  -11245    -7231    -3068      938     4502     7705    10550    12590 
   13201    12051     9479     6339     3542     2123     2876     5837 
   10528    15867    20412    23037    22804    19288    13205     5848 
   -1420    -7426   -11742   -14523   -15932   -16065   -14962   -12877 
  -10574    -8877    -8113    -7998    -8058    -8290    -9086   -10655 
  -12758   -15002   -17406   -20275   -23572   -26851   -29654   -31698 
  -32629   -32070   -30132   -27244   -23654   -19539   -15244   -11318 
   -8425    -6963    -6925    -8213   -10558   -13189   -15164   -15795 
  -14656   -11691    -7302    -2107     3198     7792    10910    11865 
   10474     7866     5792     5089     5607     7079     9117    10790 
   11072     9412     5958     1868    -1360    -3098    -3462    -2527 
    -529     1572     2538     1524    -2038    -8326   -16382   -24451 
  -31178   -35685   -37284   -35853   -31904   -26518   -21072   -16229 
  -11449    -5779      824     7153    12144    16006    19217    21550 
   22742    22761    21621    19803    18019    16659    16218    17427 
   19985    22531    24478    26176    27303    27086    25446    22380 
   17435    10686     3067    -4328   -10621   -15395   -18945   -22141 
  -25836   -30055   -33974   -37106   -39609   -41143   -40899   -38821 
  -35706   -32386   -29475   -27558   -26604   -25678   -23943   -21336 
  -18295   -15164   -11867    -8460    -5755    -4716    -5184    -5935 
   -5892    -4660    -2439      217     2731     4841     6617     8060 
    9093     9471     8518     5872     2270     -912    -2501    -2131 
    -297     2542     6312    10470    14067    16722    18303    18334 
   16713    14142    11614     9880     9239     9651    10889    12459 
   13525    13074    10355     5351    -1167    -8102   -14561   -19830 
  -23271   -24750   -24638   -23180   -20456   -16866   -13257   -10307 
   -8086    -6547    -6052    -7159   -10152   -14667   -19604   -23820 
  -26993   -29137   -29586   -27483   -23075   -17990   -14042   -11672 
  -10087    -8750    -7911    -8172    -9837   -12480   -15556   -18793 
  -21600   -23155   -22994   -20715   -16221   -10689    -6054    -3404 
   -2435    -2246    -2149    -2045    -2397    -3593    -5467    -7321 
   -8216    -7485    -4941     -727     4818    11307    18353    25315 
   30966    34226    35371    35560    35275    34014    31320    27391 
   22636    17248    11277     4950    -1059    -5764    -8344    -8927 
   -8733    -8901    -9980   -12418   -16397   -21524   -26948   -31648 
  -34987   -36965   -37628   -36823   -34943   -32980   -31660   -31257 
  -31673   -32373   -32896   -32903   -31835   -29604   -26802   -23638 
  -19838   -15585   -11678    -8937    -7591    -7198    -7059    -6469 
   -4685    -1112     4018     9417    14042    18065    21922    25450 
   28219    29967    30699    30607    29895    28707    27074    24879 
   22164    19350    16915    14993    13274    11321     8976     6072 
    2138    -3065    -9150   -15107   -19656   -22045   -22416   -21176 
  -18407   -14158    -8899    -3323     2019     6882    11199    14769 
   17248    18338    17899    16197    13799    11011     7639     3487 
   -1204    -6039   -10848   -15813   -21053   -25934   -29559   -31560 
  -31936   -30908   -29085   -27445   -26968   -28055   -30187   -32552 
  -34769   -36524   -37108   -35789   -32285   -27153   -21922   -18149 
  -16349   -16065   -16470   -16889   -17051   -16802   -15946   -14427 
  -12178    -9217    -5973    -2774      675     4702     9007    12951 
   16222    18895    20818    21455    20429    17901    14716    12025 
   10401     9775     9914    10444    10876    10878    10466     9967 
    9680     9574     9441     9255     9153     9154     8857     7358 
    3793    -1925    -8877   -15557   -20686   -23862   -25365   -25585 
  -25070   -24738   -25396   -27376   -30478   -33878   -36585   -37902 
  -37242   -34354   -29798   -24664   -19985   -16104   -12474    -8521 
   -4305      -27     4584     9679    14428    17635    18647    17340 
   14048     9394     3947    -1586    -6254    -9274   -10378    -9745 
   -7686    -4680    -1638      344      307    -2332    -7095   -12455 
  -16965   -19801   -20409   -18403   -14064    -8738    -4110    -1165 
    -174    -1111    -3605    -6835    -9555   -10458    -8985    -5713 
   -1968     1048     2916     3709     3481     2548     1593      835 
    -102    -1455    -2910    -3793    -3531    -1995      206     1979 
    2619     1948     -279    -4306    -9603   -14709   -18030   -18837 
  -17590   -14889   -10964    -6594    -3115    -1574    -2239    -4365 
   -6659    -7948    -7456    -5047    -1051     4178    10025    15400 
   19484    22076    23056    22392    20387    17595    14625    11592 
    8104     4064      -13    -3469    -6091    -8183   -10180   -12259 
  -14193   -15614   -16405   -16546   -15865   -14226   -12055   -10458 
  -10446   -12244   -15206   -17999   -19230   -18233   -15045   -10035 
   -4002     1877     6543     9316    10158     9763     9175     9148 
    9821    11219    13176    14870    15476    14481    11516     6809 
    1092    -4827    -9975   -13014   -12816    -9494    -4291     1003 
    4742     6311     5682     3002    -1051    -5698   -10146   -13413 
  -14936   -15026   -14628   -14504   -14870   -15957   -18077   -21142 
  -24800   -28807   -33045   -37435   -41681   -45274   -47823   -49203 
  -49399   -48303   -45979   -42719   -38614   -33898   -29482   -26308 
  -24430   -23082   -21713   -20742   -20985   -22655   -25169   -27564 
  -28998   -29039   -27569   -24584   -20171   -14720    -8912    -3273 
    2035     7175    12519    18229    23984    29335    33930    37504 
   40051    41735    42530    42327    41122    39100    36767    34728 
   33307    32458    31972    31764    31738    31496    30630    28817 
   25758    21604    16798    11516     5768     -313    -5980   -10006 
  -11813   -11836   -11097   -10743   -11487   -13653   -17439   -22526 
  -28147   -33461   -37377   -38712   -36737   -31525   -24120   -16440 
  -10739    -8266    -8457   -10037   -11772   -12357   -10885    -7055 
   -1179     5463    11118    14790    16394    16066    14050    10647 
    6238     1444    -3312    -7792   -11376   -13441   -13959   -13332 
  -12085   -10936   -10840   -12405   -15126   -17610   -18675   -17764 
  -14816   -10544    -6343    -3356    -1865    -1688    -2527    -3562 
   -3622    -2284     -275     1223     1250     -633    -4201    -8569 
  -12461   -14752   -14886   -12942    -9639    -6141    -3375    -1714 
   -1181    -1435    -2185    -3643    -5819    -8032    -9413    -9346 
   -7534    -4031      702     5688     9618    11649    11970    11376 
   10735    10625    11021    11564    11992    12148    11711    10192 
    7369     3350    -1811    -7958   -14634   -21339   -27380   -32026 
  -35367   -38132   -40649   -42777   -44296   -44906   -44371   -42630 
  -39726   -36089   -32286   -28329   -24039   -19592   -14997    -9896 
   -4122     2077     8171    13583    17859    20899    22947    24078 
   24354    24131    23683    22875    21332    18766    14978     9888 
    3977    -1771    -6222    -8472    -8464    -6948    -4827    -2921 
   -1998    -2674    -5301    -9667   -14725   -19178   -22330   -24040 
  -24178   -22599   -19445   -15056    -9917    -4839     -696     1860 
    2519     1498     -568    -2832    -4522    -5552    -6388    -7384 
   -8739   -10559   -12660   -14700   -16351   -16915   -15091   -10081 
   -2605     5734    13359    18748    20542    18142    12177     4267 
   -3685   -10228   -14634   -16645   -16434   -14736   -12595   -10879 
  -10269   -11210   -13243   -15256   -16518   -16676   -15333   -12361 
   -8147    -3160     1977     6343     9394    11380    12712    13262 
   12673    11470    10679    10339     9806     8522     5880     1609 
   -4228   -11437   -19356   -27099   -33686   -38016   -39418   -37746 
  -33215   -26473   -18503   -10598    -3921      970     3666     3865 
    1771    -2064    -6563   -10069   -11219    -9576    -5478       16 
    5422     9757    12679    13801    12779    10108     7350     6232 
    7519    10692    14504    17933    20530    21891    21366    18662 
   14303     9157     3728    -1790    -7057   -11568   -15180   -18139 
  -20680   -22974   -24957   -26176   -26311   -25523   -24205   -22701 
  -21006   -18712   -15712   -12580   -10045    -8668    -8729   -10098 
  -12468   -15273   -17455   -17841   -15813   -11611    -5994       51 
    5356     8961    10476     9957     7608     3761    -1150    -6578 
  -11758   -15896   -18468   -19244   -18095   -14983   -10349    -5173 
    -533     2797     4648     5433     5575     5143     4348     3767 
    3924     4842     6029     6939     7329     7018     5632     2806 
   -1210    -5525    -9664   -13853   -18018   -21724   -24807   -27136 
  -28455   -28738   -28120   -26518   -23808   -20386   -17023   -13934 
  -10458    -5744      716     8824    17626    25563    31261    33987 
   33282    28989    21667    12347     2257    -7325   -15372   -21122 
  -24204   -24641   -22536   -18061   -11635    -4193     2961     9024 
   13961    17795    20375    21618    21487    20015    17400    13814 
    9313     4037    -1687    -7306   -11901   -14588   -15245   -14548 
  -13471   -12749   -12741   -13682   -15641   -18530   -22177   -25936 
  -28999   -31143   -32263   -31909   -29821   -26261   -22090   -18651 
  -16856   -16636   -17471   -18824   -20228   -21203   -21062   -19125 
  -15179    -9633    -3300     2859     7924    11385    13239    13640 
   13019    12132    11472    11021    10493     9468     7543     4711 
    1431    -1765    -4510    -6509    -7441    -7091    -5468    -2830 
     213     2876     4425     4349     2647     -186    -3121    -5047 
   -5491    -4326    -1652     1888     5486     8471    10386    11086 
   10633     9190     7094     4988     3640     3420     4160     5503 
    7045     8378     9085     8764     7358     5206     2604     -261 
   -3060    -5641    -8401   -11812   -16136   -21598   -28216   -35449 
  -42315   -48006   -52087   -54136   -53696   -50652   -45430   -38913 
  -32304   -26838   -23309   -21836   -21925   -22697   -23253   -22761 
  -20525   -16432   -11068    -5306      206     5046     8750    11028 
   12035    12272    12494    13383    15280    18353    22609    27758 
   33296    38615    43141    46495    48460    48803    47299    43843 
   38510    31819    24640    17485    10314     2893    -4816   -12275 
  -18790   -24177   -28358   -31225   -33141   -34645   -36313   -38894 
  -42641   -47013   -51086   -53939   -54916   -53763   -50646   -45820 
  -39563   -32653   -26086   -20331   -15437   -11340    -7920    -5198 
   -3231    -1715      -25     2251     5171     8764    12918    17178 
   21070    24237    26302    26964    26214    24289    21543    18382 
   15091    11731     8313     4996     2108       32     -945     -814 
      44      973     1277      438    -1811    -5401    -9693   -13765 
  -17037   -19345   -20730   -21334   -21273   -20505   -18902   -16416 
  -13089    -8973    -4251      465     4189     6289     6832     6031 
    4070     1231    -2002    -4824    -6601    -7307    -7222    -6623 
   -5676    -4494    -3352    -2786    -3358    -5271    -8355   -12164 
  -16090   -19624   -22366   -23989   -24436   -23839   -22427   -20542 
  -18508   -16584   -14764   -12735   -10435    -7935    -5105    -2101 
     510     2243     2949     2675     1534      -41    -1267    -1428 
    -230     2286     5872     9853    13417    16146    17802    18226 
   17752    17157    17041    17452    18033    18247    17523    15404 
   11793     7115     2169    -2293    -5786    -8108    -9309    -9683 
   -9747   -10152   -11446   -13807   -17004   -20641   -24393   -27996 
  -31137   -33469   -34645   -34599   -33660   -32213   -30534   -28881 
  -27469   -26373   -25573   -24989   -24345   -23392   -22204   -20837 
  -19300   -17697   -15865   -13381    -9945    -5491      -89     6095 
   12563    18535    23353    26568    28027    28074    27298    26241 
   25299    24668    24462    24810    25627    26577    27305    27456 
   26630    24403    20352    14245     6430    -2030    -9872   -16235 
  -20692   -23188   -24077   -24117   -24354   -25612   -27926   -30711 
  -33346   -35464   -36926   -37573   -37141   -35637   -33523   -31469 
  -30002   -29216   -28748   -28000   -26412   -23712   -19917   -15236 
  -10081    -5044     -602     2984     5331     5981     4818     2039 
   -1603    -4804    -6592    -6735    -5408    -2957       47     2806 
    4725     5767     6147     6097     6052     6365     6867     7215 
    7318     7094     6404     5309     4060     2897     1900     1062 
     473      336      850     2092     4036     6667     9907    13429 
   16710    19273    20767    20862    19495    16891    13277     8969 
    4452       67    -4124    -8222   -12290   -16148   -19492   -21987 
  -23234   -23028   -21564   -19379   -17105   -15196   -13811   -12904 
  -12372   -12168   -12371   -13119   -14373   -15865   -17274   -18273 
  -18646   -18374   -17296   -15241   -12537    -9682    -6978    -4772 
   -3470    -3163    -3551    -4217    -4754    -4903    -4592    -3734 
   -2259     -387     1410     2793     3896     5080     6443     7825 
    9045     9823     9828     8865     6805     3659     -133    -3792 
   -6525    -7965    -8241    -7770    -7061    -6550    -6336    -6193 
   -5937    -5516    -5008    -4845    -5350    -6380    -7836    -9752 
  -11916   -13933   -15377   -15890   -15417   -14256   -12768   -11308 
  -10251    -9883   -10296   -11237   -12237   -13059   -13783   -14399 
  -14693   -14563   -14033   -12987   -11311    -9285    -7391    -5881 
   -4868    -4515    -4779    -5273    -5557    -5358    -4587    -3294 
   -1718     -314      513      646      255     -268     -457     -108 
     596     1447     2409     3453     4473     5321     5854     5992 
    5688     5008     4128     3169     2141     1054       75     -538 
    -747     -787     -855    -1109    -1791    -3080    -4989    -7304 
   -9556   -11222   -11881   -11311    -9548    -6883    -3905    -1378 
      99      367     -437    -2020    -3890    -5464    -6309    -6327 
   -5782    -5076    -4544    -4353    -4433    -4599    -4733    -4804 
   -4895    -5148    -5640    -6326    -7109    -7921    -8831    -9910 
  -11161   -12598   -14218   -15923   -17490   -18593   -18986   -18658 
  -17734   -16397   -14918   -13535   -12394   -11669   -11445   -11534 
  -11619   -11350   -10388    -8667    -6494    -4297    -2482    -1387 
   -1100    -1510    -2443    -3712    -5136    -6504    -7628    -8433 
   -8903    -9085    -9085    -9011    -8934    -8878    -8776    -8548 
   -8186    -7704    -7188    -6768    -6488    -6284    -6031    -5672 
   -5216    -4557    -3484    -1904       56     2282     4689     7088 
    9250    10951    11986    12251    11715    10451     8681     6674 
    4679     2968     1767     1069      770      851     1294     1992 
    2716     3142     2972     1972      -24    -2999    -6601   -10246 
  -13370   -15518   -16433   -16129   -14821   -12872   -10709    -8648 
   -6883    -5595    -4849    -4490    -4357    -4445    -4814    -5437 
   -6180    -6901    -7485    -7847    -7956    -7811    -7462    -7007 
   -6546    -6191    -5996    -5918    -5979    -6254    -6647    -6907 
   -6889    -6585    -6015    -5192    -4120    -2870    -1605     -426 
     616     1437     1952     2077     1802     1283      700       85 
    -637    -1637    -3073    -4841    -6671    -8337    -9595   -10299 
  -10569   -10716   -11026   -11568   -12222   -12837   -13271   -13540 
  -13809   -14169   -14624   -15236   -16120   -17263   -18447   -19356 
  -19708   -19299   -17969   -15669   -12492    -8727    -4854    -1452 
     961     2155     2289     1807     1244      982     1237     2111 
    3495     5112     6675     7952     8835     9423     9983    10705 
   11562    12413    13063    13335    13089    12391    11574    10881 
   10308     9761     9099     8132     6708     4806     2550      136 
   -2259    -4548    -6723    -8842   -11024   -13342   -15730   -17992 
