Origin Time       2025/01/13 21:19:00
Lat.              31.8
Long.             131.6
Depth. (km)       30
Mag.              6.9
Station Code      MYZ006
Station Lat.      32.2564
Station Long.     131.5609
Station Height(m) 23
Record Time       2025/01/13 21:19:41
Sampling Freq(Hz) 100Hz
Duration Time(s)  131
Dir.              E-W
Scale Factor      7845(gal)/8223790
Max. Acc. (gal)   70.640
Last Correction   2025/01/13 21:19:41
Memo.             
[...]
     939      915      940      931      893      911      972      980 
     931      928      922      904      943      947      936      955 
     932      927      924      903      961      967      904      928 
     942      899      928      988      950      895      939      946 
     889      936      992      935      908      950      940      931 
     958      930      897      926      938      950      980      959 
     919      923      924      920      943      953      949      935 
     926      946      943      924      939      946      932      912 
     907      955      980      939      938      969      915      857 
     922      980      961      953      943      905      904      955 
     989      951      899      904      913      928     1001      978 
     900      932      928      905      970      973      920      904 
     901      927      965      969      972      943      876      889 
     938      934      950      958      930      962      977      901 
     882      934      940      934      962      969      938      936 
     943      916      923      915      903      951      966      976 
     982      930      893      877      889      961     1001      969 
     945      947      909      911      940      927      950      947 
     923      955      940      931      946      916      915      932 
     947      951      928      947      949      923      945      940 
     919      931      938      951      955      934      923      920 
     920      942      955      923      912      950      938      938 
     989      934      881      926      923      940      993      951 
     918      938      913      918      969      945      900      946 
     967      932      958      953      888      919      962      930 
     940      949      907      947      990      931      923      940 
     889      911      980      961      935      932      920      922 
     926      957      965      916      920      947      930      930 
     942      931      939      950      943      936      922      934 
     946      931      947      943      892      904      949      947 
     962      977      939      920      926      923      935      942 
     928      926      938      938      953      980      945      900 
     923      932      918      947      951      916      946      980 
     930      909      951      961      939      912      900      931 
     959      959      959      949      920      927      943      923 
     926      953      947      942      966      942      907      927 
     926      927      945      928      953      973      938      934 
     931      896      911      961      965      947      940      936 
     942      919      897      955      954      912      959      936 
     904      977      961      913      939      919      915      950 
     953      949      926      919      950      942      924      958 
     945      915      951      908      891      985      961      928 
     966      915      893      942      953      931      926      957 
     957      915      924      970      951      912      932      926 
     918      973      970      934      932      899      909      959 
     947      955      973      930      903      911      924      943 
     959      949      930      945      946      922      932      965 
     927      885      940      970      955      972      939      886 
     908      947      945      939      943      916      922      970 
     950      932      961      927      888      922      953      953 
     957      935      919      958      965      913      896      916 
     934      939      938      961      959      922      918      919 
     911      930      954      947      908      911      940      942 
     946      920      904      949      943      930      953      950 
     977      988      942      922      899      919      988      967 
     958     1039     1003      880      896      946      942      986 
    1055     1146     1194     1017      676      407      356      518 
     855     1243     1487     1609     1490     1007      569      395 
     345      607     1237     1910     2316     2123     1270      106 
    -958    -1294     -517      715     1599     2300     2968     2721 
    1009    -1205    -2566    -2408     -884     1479     3990     5294 
    4388     1948     -708    -2497    -2644    -1273      787     2759 
    4243     4870     4036     1784     -853    -2802    -3420    -2416 
     -32     2930     5645     7037     5640     1529    -3064    -5833 
   -5655    -2663     2061     6559     8483     6940     2755    -2579 
   -6679    -7086    -3510     2041     7002     8930     6585     1653 
   -3103    -6087    -5791    -1733     3650     7240     7568     4625 
    -132    -4167    -5548    -3728      625     5229     7377     6207 
    2632    -1259    -3442    -3870    -3005     -553     2520     4351 
    4402     3010      712    -1194    -1811    -1435     -456      729 
    2079     3850     4839     3693     1332     -853    -2613    -3248 
   -1679     1624     4928     6443     4710      378    -3357    -4293 
   -2729      209     2839     3680     2691      461    -1888    -2828 
   -2074     -330     1636     2803     3140     3522     3422     1512 
   -1593    -3542    -3141    -1035     1634     3572     4457     4702 
    3184     -468    -3511    -3828    -2043      845     3970     5778 
    5656     4438     2072    -1883    -5751    -6561    -2911     3416 
    8673    10115     7321     1586    -4621    -8174    -6681     -695 
    5869     8837     7344     3832      733    -1363    -2316    -1590 
     538     2863     4441     4513     3007     1367      465       -9 
     372     1848     3501     4284     3114      575    -1156    -2007 
   -2412    -1341       98     -109    -1063    -1579    -1506      121 
    2798     3781     1969     -955    -2690    -1914     1541     5805 
    6640     2293    -3358    -6921    -9121    -9089    -4342     2813 
    8629    12374    12279     6502    -2450    -9412    -9856    -3437 
    5074    10794    11542     7148      657    -3851    -5684    -4676 
    -607     2925     4915     8203     9537     4233    -3955    -8572 
   -8802    -6955    -2424     4965    10669    11360     7801     1694 
   -4625    -8382    -7369    -1825     4247     6894     5672     2785 
     468    -1625    -4193    -4530     -724     3809     5020     3696 
    2666     1528        8     1463     5791     8135     6589     2640 
   -1516    -3545    -3176    -2201     -931     1267     1485    -2162 
   -4814    -2956      861     3696     4530     2276    -3727    -8243 
   -4368     4930    11993    13957    11685     6866     -762   -10041 
  -14754   -12066    -5472     3720    14023    18185    12999     2668 
   -8904   -15662   -12266    -3514     4734    12309    15680    11149 
    2019    -8274   -16436   -16205    -7330     5019    17595    22495 
   13589     1289    -4013    -5120    -4018     -472     1667     -406 
   -5355    -8194    -5239      -83     3611     7433     9737     5925 
   -2158    -8935   -12710   -12436    -4907     7749    17030    17019 
    8484    -2180    -7801    -6099     -596     1757    -1521    -5921 
   -6469     1846    18010    28678    24821    11692    -3973   -17367 
  -21666   -16567    -7662     5773    22648    31822    26659    10129 
  -11306   -28451   -33782   -25362    -8660     6076    14770    19211 
   18821    12707     3569    -5298   -14129   -21969   -21778   -10520 
    4765    17998    27700    30960    25348    11564    -7045   -23190 
  -27973   -17113     3287    19792    24678    19687     8160    -6619 
  -20177   -30040   -31271   -16235     7141    20244    20779    15989 
    6955    -3744   -12077   -16519   -13212     -913    11097    12834 
    6795       82    -4567    -3379     4052     9509     7088    -1494 
  -10372   -12044    -4594     6764    17953    24655    20124     7519 
   -2323    -8012   -11545    -9575    -2178     7762    15169    11029 
   -2022    -9448    -6434      457     4071      372    -7163   -11773 
  -13201   -12401    -6313     5140    17574    24880    21693     8149 
  -11306   -27855   -29401   -14899     4356    20758    32015    34545 
   24985     5107   -16166   -30171   -33706   -24162    -2921    19622 
   32431    29932    14181    -3392   -13325   -16213   -14130    -7515 
      78     3566     1217    -2666      -21    11145    22177    25251 
   19464     2219   -24000   -40703   -34924   -13149    16239    42855 
   50618    36491     9158   -22005   -42611   -43421   -26925     3360 
   35074    46565    33457     9012   -16594   -33494   -32753   -19228 
     209    22967    35314    25644     3361   -17280   -29201   -28760 
  -17000     1534    19759    27086    19121     4946    -4459    -8349 
   -9486    -7348    -3288      727     5563     9660     8125       22 
   -8677   -12051    -9811    -5529    -1983     1782     5400     6193 
    5652     4352     -137    -3385     -368     4194     6718    10201 
   13328    11678     6670     2239      959     3747     6529     5524 
    3601     2473     -309    -4544    -8226   -10134    -9544    -8561 
   -8657    -4857     6826    18488    18941     9463    -2655   -13678 
  -18104   -12460    -1617     8425    14455    15772    15714    15641 
   10925      792    -7902   -11502   -11815    -9310    -4239     1221 
    4878     5378     3839     1850    -2469    -9753   -15452   -15039 
   -7865     3422    14100    18505    12164    -2943   -18145   -25976 
  -22693    -7515    13455    29906    33816    21068    -2903   -22473 
  -26229   -15198     4392    26215    39769    34202    12537   -10714 
  -24950   -26715   -18131    -3631    13578    24297    19271     6164 
   -2592    -7997   -13886   -17548   -16762    -9778     4750    19890 
   26123    21629     9485    -5101   -15934   -19788   -18199   -15466 
  -10273     4008    23966    36425    33246    14995    -9776   -28817 
  -33399   -19063     7673    29266    36209    31243    16787    -5027 
  -25762   -36016   -32090   -15140     5540    18812    23954    21682 
   11925     1175    -8889   -20891   -28048   -21409    -2679    16980 
   27675    27494    18840     6274    -4807   -11799   -13624    -9740 
   -1485     7785    14418    18065    17348     6594   -12071   -26512 
  -29581   -22985    -8915    11169    30041    37665    30697    11988 
  -11059   -26002   -24055    -8452    10231    24235    28926    20090 
    -149   -22272   -34537   -28539    -8268    12464    22161    17103 
    3861    -8634   -19413   -25911   -20221    -2735    17674    31482 
   29751    11952    -7958   -16011   -13182    -7209    -1782     1938 
    4423     6916     8758     6698    -2143   -13379   -17929   -12081 
    1074    14451    20541    18148    12992     8148      847    -7144 
   -8189     -122    10935    16353    12509     4496    -1310    -3262 
   -1786     1077     2326     1899     1587     1512     1270       91 
   -4145    -8523    -3956    10089    21242    21154    12757     1067 
   -8316    -7619     3655    15606    19896    15375     3366   -11839 
  -21932   -20752    -8668     8602    22229    23904    12523    -3869 
  -15766   -18864   -13529    -1537    13441    23267    21856    12401 
    1167    -9059   -15188   -12418     -738    15287    30703    37737 
   31567    17496     2061   -10585   -14338    -7615     4226    16632 
   26856    31995    29840    19572     4827    -6551   -10606    -9371 
   -3316     8548    21521    26742    20016     6702    -4110    -9146 
  -10482    -8888    -2263    10455    25128    34353    33679    22086 
     324   -24875   -40771   -39469   -23638    -1143    18594    27106 
   21199     3767   -16559   -28605   -27521   -15561     4131    22725 
   25721    10473    -9724   -22341   -25405   -23137   -18809   -13012 
   -6929    -3667    -4808    -8050   -10045   -10006    -9869   -11488 
  -13629   -13674   -11943    -9628    -5431       22     2019    -2573 
  -11655   -19390   -21213   -17941   -11863    -2870     7388    14297 
   16800    17410    14736     6276    -4189   -10566    -9327     -834 
    8565    13328    14671    12236     2583   -10700   -19483   -20807 
  -17568   -14443   -13270   -13297   -15595   -20544   -24105   -21632 
  -11311     5062    21683    33454    39706    40879    37390    32626 
   31677    35337    39222    39525    35402    28308    20561    12344 
    4306      -48    -1478    -5401   -10945   -10858    -2813     7051 
   10639     5200    -4432   -10473   -11713   -14987   -21141   -21026 
  -11456      379     7879     8505     1849   -10447   -23198   -26345 
  -14882     2443    16336    26854    34339    35468    28941    17147 
    3912    -4591    -1205    15674    41237    64071    68227    47748 
   12013   -24798   -51807   -64292   -61292   -44103   -18187     6976 
   19195    13674    -1320   -19240   -38728   -50598   -47115   -38280 
  -35591   -35232   -31938   -28435   -28283   -31399   -31190   -20903 
   -3997    13551    28594    35270    30276    15237    -7977   -31097 
  -40096   -30431   -10019     8733    15340     7603   -10532   -34423 
  -56173   -63953   -51540   -24231     8576    35781    44280    29673 
   -2659   -42746   -71381   -72732   -52818   -22823    13045    40842 
   43969    25893     1050   -22252   -37503   -38254   -24163     1788 
   33490    59981    74073    74987    63640    46434    33535    27773 
   25839    27306    33551    40381    39636    28858    13425      675 
   -5452    -5645     -203    10328    19774    22162    15526      -49 
  -19013   -33320   -38400   -30975    -9545    19170    41648    47796 
   33507     1059   -34365   -54202   -52509   -30491     5433    37108 
   49851    43834    23245    -3681   -22619   -26767   -19151    -6400 
    3321     8441    11167     8029       68    -2462     5593    18739 
   30140    37133    35434    21913     3154   -13864   -27274   -34053 
  -35926   -38269   -37143   -25645    -6205    13443    24823    21127 
    4969   -12877   -24368   -27351   -21316    -8125     5390    12858 
   13055     5922   -10462   -33401   -51133   -53541   -41183   -21227 
    -670    17447    29336    27471    11512    -8041   -23206   -32314 
  -31082   -16622     4984    26451    43626    52686    55557    57634 
   54338    38072    13859    -7533   -18436   -15222    -2921    10868 
   24939    36898    39455    30597    15584    -1240   -16902   -25678 
  -21824    -6605    10114    18280    15317     4849    -8934   -23168 
  -34179   -39127   -37701   -30723   -19287    -3518    13215    22084 
   18570     6907    -4729   -10249   -11214   -11608   -10405    -5219 
    4951    18040    26770    25489    15854     4144    -3416    -5368 
   -5256    -6390    -7794    -4945     5035    18426    27140    26666 
   19390     9767     1251    -2161     1009     6436     9983    12494 
   14804    15826    16224    15738    12487     8495     7086     7703 
    8356     8820    10723    13944    15219    13269     9310     4630 
    1939     2791     4743     4926     1763    -6669   -20491   -35499 
  -46126   -49015   -43850   -33273   -20968    -9614    -2342    -2436 
   -8623   -15098   -17008   -11986      711    18500    36780    50696 
   54294    46888    35644    26306    21851    25056    33231    39167 
   39237    34871    29255    24962    20569    12399     1194    -9032 
  -15034   -15190   -11348    -7113    -5209    -8264   -16600   -26163 
  -33196   -37246   -37689   -33215   -25068   -16914   -12681   -14705 
  -21389   -28113   -31660   -31560   -27757   -19241    -7785      483 
    2851     1757     -407       81     6319    15171    20634    19772 
   13657     4179    -8002   -18709   -20965   -15246    -8124    -2497 
    1082      876    -3078    -8145   -10960    -9558    -5564    -2322 
   -1968    -4664    -7186    -5086     1138     6835     9954     9828 
    4909    -1329    -2559     3052    14341    27527    35222    31988 
   18422    -1035   -20447   -33057   -33639   -21784    -2207    18712 
   34302    37519    26697     8120   -10035   -21689   -23468   -15257 
   -1659     8075     7384     -523    -7920   -11036    -8595      753 
   14848    27696    33099    26908    11086    -6704   -20302   -26451 
  -23761   -14423    -2836     7136    13999    18482    21095    20695 
   15699     6411    -4189   -10662    -8303      595     9192    14235 
   15021    11291     6196     3354     1757     -697    -2200       18 
    5772    13251    19986    22900    20036    11291     -467    -9937 
  -15111   -17170   -14855    -7863     -669     2682      552    -7242 
  -16440   -20871   -19417   -14115    -6193     1552     6471     9900 
   12707    13169    11564     9710     8714     9597    11712    12830 
   13014    13930    14658    12482     6342    -1377    -6367    -6817 
   -3908      618     4492     4752     -579    -9177   -16148   -20378 
  -21743   -16632    -3343    14243    28512    31916    22729     7146 
   -4634    -5462     3850    16741    27753    34704    35336    28726 
   18052     6710    -3588   -10500   -12631   -11546    -9680    -9390 
  -11292   -11936    -7372     2924    14791    20187    13846    -1717 
  -19176   -31164   -33382   -27125   -17531    -8737    -3684    -4546 
   -9967   -16673   -22755   -25529   -21042    -8187     8430    20498 
   22593    16051     7684     4426     6947    12293    18241    21720 
   19993    13065     3770    -3888    -7631    -5668     3874    17014 
   24746    22424    11511    -3804   -16808   -21146   -15618    -3925 
    8511    16528    17077    11299     2276    -7866   -15560   -16378 
  -10470    -2531     3146     5844     7225     6778     2169    -5039 
  -10297   -12364   -13861   -16301   -17876   -16749   -13765   -11207 
  -10889   -13081   -17089   -21770   -24221   -22091   -16938   -11919 
   -9007    -8669   -10158   -11470    -8510     1830    16136    26411 
   26966    16860     -391   -17262   -25154   -18983    -1310    18701 
   32603    35542    25743     8305    -7522   -16704   -17659    -8766 
    7662    23800    34338    39733    41061    38645    32201    22210 
   12626     7642     7871    11246    16060    22704    30010    32670 
   26689    13308    -3283   -16348   -18095    -6596    12289    31131 
   43992    44917    31533     9463   -11657   -23356   -20549    -5050 
   14805    30186    34519    25011     6701   -11362   -24680   -32814 
  -36018   -34986   -29193   -18503    -7831    -3281    -5660   -12835 
  -21886   -28813   -31950   -31531   -26566   -18358   -12409   -12727 
  -19515   -30732   -41835   -48020   -47011   -38981   -26615   -14432 
   -6825    -5146    -6203    -5744    -2610     1302     4797     9504 
   15828    19867    18320    13224     8125     3680      475      789 
    4271     7121     7977     9030    10594    10044     5344    -2929 
  -10894   -13709   -10723    -4900     2440    11572    20530    25209 
   23214    15799     6411     -531    -1624     3514    13230    23133 
   27992    27508    23234    15110     5491    -1975    -5225    -2396 
    6637    18478    28723    33289    29029    16700       16   -17686 
  -31954   -36834   -29037   -10077    13876    32687    37012    24722 
