Origin Time       2025/01/13 21:19:00
Lat.              31.8
Long.             131.6
Depth. (km)       30
Mag.              6.9
Station Code      MYZ007
Station Lat.      32.2351
Station Long.     131.1155
Station Height(m) 306
Record Time       2025/01/13 21:19:44
Sampling Freq(Hz) 100Hz
Duration Time(s)  91
Dir.              E-W
Scale Factor      7845(gal)/8223790
Max. Acc. (gal)   10.957
Last Correction   2025/01/13 21:19:43
Memo.             
[...]
   -3088    -3090    -3091    -3091    -3091    -3090    -3087    -3087 
   -3090    -3090    -3091    -3090    -3088    -3090    -3088    -3088 
   -3091    -3090    -3088    -3092    -3094    -3091    -3090    -3090 
   -3090    -3088    -3090    -3091    -3088    -3088    -3091    -3092 
   -3090    -3087    -3088    -3090    -3091    -3090    -3088    -3088 
   -3090    -3091    -3090    -3091    -3091    -3090    -3091    -3092 
   -3091    -3091    -3090    -3088    -3088    -3091    -3091    -3088 
   -3090    -3091    -3091    -3094    -3094    -3091    -3091    -3090 
   -3088    -3091    -3092    -3090    -3090    -3090    -3090    -3090 
   -3088    -3091    -3092    -3092    -3092    -3090    -3091    -3092 
   -3090    -3088    -3091    -3091    -3090    -3090    -3091    -3094 
   -3091    -3086    -3087    -3091    -3091    -3091    -3091    -3091 
   -3091    -3088    -3088    -3090    -3092    -3090    -3088    -3090 
   -3091    -3090    -3091    -3091    -3090    -3090    -3091    -3091 
   -3091    -3091    -3090    -3091    -3091    -3088    -3090    -3092 
   -3090    -3088    -3088    -3091    -3090    -3090    -3091    -3090 
   -3087    -3090    -3091    -3091    -3088    -3088    -3088    -3088 
   -3090    -3092    -3091    -3088    -3091    -3091    -3087    -3088 
   -3092    -3091    -3088    -3091    -3092    -3090    -3090    -3092 
   -3091    -3088    -3091    -3091    -3091    -3092    -3091    -3091 
   -3091    -3091    -3092    -3090    -3088    -3091    -3087    -3088 
   -3092    -3090    -3091    -3092    -3090    -3088    -3091    -3091 
   -3088    -3088    -3091    -3092    -3088    -3087    -3090    -3091 
   -3090    -3090    -3091    -3090    -3091    -3094    -3091    -3090 
   -3091    -3091    -3091    -3090    -3088    -3091    -3092    -3090 
   -3090    -3088    -3088    -3088    -3090    -3088    -3088    -3090 
   -3091    -3088    -3090    -3091    -3088    -3088    -3090    -3088 
   -3088    -3091    -3090    -3088    -3091    -3091    -3090    -3091 
   -3090    -3088    -3092    -3092    -3090    -3091    -3092    -3092 
   -3092    -3091    -3090    -3092    -3092    -3092    -3092    -3091 
   -3090    -3088    -3087    -3090    -3090    -3090    -3090    -3091 
   -3090    -3091    -3092    -3090    -3087    -3084    -3080    -3073 
   -3061    -3042    -3028    -3022    -3032    -3061    -3100    -3136 
   -3142    -3114    -3067    -3041    -3072    -3132    -3149    -3084 
   -2983    -2924    -2947    -3019    -3055    -2992    -2899    -2917 
   -3103    -3333    -3383    -3198    -2967    -2863    -2880    -2937 
   -2972    -2998    -3078    -3198    -3284    -3257    -3033    -2744 
   -2781    -3196    -3561    -3585    -3288    -2814    -2451    -2455 
   -2799    -3214    -3419    -3396    -3341    -3287    -3122    -2971 
   -3044    -3223    -3294    -3346    -3450    -3381    -3003    -2511 
   -2191    -2191    -2505    -3036    -3608    -3858    -3466    -2708 
   -2232    -2440    -3199    -3856    -3882    -3315    -2466    -1856 
   -1857    -2243    -2772    -3366    -3677    -3535    -3134    -2535 
   -2019    -2150    -2925    -3771    -4105    -3582    -2528    -1775 
   -1584    -1594    -1794    -2389    -3037    -3380    -3642    -3809 
   -3307    -2336    -2066    -2818    -3721    -4044    -3358    -1678 
    -291     -700    -2443    -3771    -3947    -3341    -2627    -2563 
   -3294    -4221    -4692    -4314    -3204    -1964    -1252    -1267 
   -1525    -1745    -2326    -3165    -3260    -2435    -2249    -3677 
   -5432    -5757    -4519    -3233    -3007    -2930    -1935     -970 
   -1487    -3087    -4271    -4530    -4156    -3750    -4018    -4278 
   -3445    -2338    -1983    -2200    -2903    -3963    -4572    -4079 
   -3125    -3512    -5649    -7272    -6405    -3546     -830     -198 
   -1139    -1528    -1301    -2064    -3726    -4773    -4869    -4799 
   -4592    -3759    -2876    -2840    -3119    -2724    -2169    -2786 
   -4216    -4320    -2521    -1053    -1618    -3002    -3284    -3098 
   -4352    -6015    -5313    -2448      -35     -116    -2629    -4702 
   -3974    -1672     -133     -598    -2736    -4606    -5070    -4735 
   -3886    -2579    -1607    -1421    -1614    -1690    -1854    -2731 
   -3580    -2933    -1602    -1775    -3400    -4270    -3415    -2612 
   -3447    -4449    -3732    -2258    -1811    -2436    -3252    -3754 
   -3804    -3227    -2226    -1717    -2616    -4854    -6725    -6102 
   -3532    -1846    -1966    -2415    -2556    -3040    -3792    -4104 
   -3858    -3310    -2705    -2245    -2147    -2866    -4140    -4611 
   -3640    -1969     -715     -889    -2574    -4649    -5964    -5574 
   -3339    -1119     -465     -797    -1506    -2390    -2936    -3249 
   -3757    -4437    -5101    -5297    -4610    -3400    -2620    -2987 
   -4087    -4558    -3981    -3096    -2037    -1078    -1260    -2188 
   -2519    -2309    -2376    -3029    -3908    -4029    -2814    -1223 
    -734    -1445    -2197    -2189    -1825    -2062    -3126    -4122 
   -4081    -3319    -3117    -3801    -4564    -4791    -4537    -4430 
   -4545    -3892    -2392    -1124     -819    -1984    -4005    -4743 
   -3624    -2241    -1620    -1765    -2305    -2816    -3586    -4816 
   -5378    -4214    -2454    -2083    -2772    -2710    -1710     -892 
    -760    -1007    -1119    -1286    -2550    -4503    -4777    -2893 
   -1397    -1954    -3289    -3483    -2844    -3075    -4232    -5302 
   -6272    -6798    -5894    -4078    -2921    -3497    -5427    -5860 
   -3021      282     1051     -380    -2631    -4351    -4671    -4063 
   -3221    -2369    -1476     -811    -1185    -2189    -2652    -3019 
   -4125    -5265    -4827    -2448     -395     -832    -2767    -3894 
   -3537    -2731    -2349    -1977    -1341    -1327    -2497    -3758 
   -3630    -2821    -3051    -3901    -4365    -5092    -6654    -7877 
   -6637    -3095    -1173    -3470    -6669    -6058    -2404      180 
     426     -363    -1383    -2589    -3743    -3919    -2987    -2578 
   -3466    -4399    -4234    -2706      -71     2227     2030    -1282 
   -5533    -7219    -5015    -1205     1040      310    -2995    -7032 
   -8858    -6975    -3601    -1804    -1740    -1836    -1865    -2700 
   -3441    -2636    -1971    -3414    -5402    -6095    -5984    -5908 
   -5864    -5364    -4147    -2820    -1907     -905      210     -162 
   -3037    -6421    -6952    -3928     -445      384    -1066    -2663 
   -3422    -3573    -3574    -3167    -1638      453     1572      985 
    -943    -3025    -4056    -3863    -2840    -1975    -2751    -4818 
   -5856    -4745    -2729    -2124    -4056    -6610    -7113    -5341 
   -2608     -518     -572    -2328    -3565    -3311    -2929    -3588 
   -4340    -3820    -2502    -2265    -4116    -6745    -7831    -6266 
   -2902      -62      271    -1502    -2974    -2323     -519     -157 
   -1664    -2886    -2899    -2867    -3176    -3148    -2693    -2324 
   -2408    -2620    -2602    -3157    -4743    -5665    -4433    -2620 
   -2716    -4413    -5393    -4646    -3724    -4538    -6291    -6693 
   -5101    -2390     -190     -278    -2327    -3883    -3569    -2646 
   -3028    -4521    -4834    -3051    -1173    -1008    -2301    -4062 
   -5163    -4783    -3477    -2398    -1730    -1229    -1185    -1813 
   -2891    -3906    -3817    -2084      174     1074     -508    -3650 
   -6154    -7392    -7565    -5686    -1846     1533     2316      445 
   -2424    -4353    -4446    -3337    -2361    -2064    -2451    -3604 
   -4750    -5003    -5024    -5661    -6168    -5412    -3400     -962 
     345     -700    -2857    -3928    -3384    -2002     -951     -733 
   -1144    -2386    -4101    -5352    -5614    -4148    -1707     -946 
   -2347    -3936    -4311    -3442    -2122     -909     -201    -1011 
   -3217    -4615    -3859    -2197    -1313    -1672    -3103    -5008 
   -6628    -7472    -6748    -4378    -2215    -1753    -2731    -4267 
   -4976    -3991    -2416    -1794    -2405    -3321    -3203    -1837 
    -545     -699    -2386    -4517    -5996    -6389    -5526    -3651 
   -1814     -953     -955    -1417    -2439    -3854    -4766    -4711 
   -4283    -4267    -4579    -4194    -2643    -1174    -1026    -1860 
   -3137    -4448    -4693    -3627    -2529    -2335    -2826    -3315 
   -3524    -3863    -4530    -4754    -3604    -1402      569     1185 
    -214    -2803    -4479    -4635    -4387    -4253    -3912    -3325 
   -2894    -2776    -2767    -2722    -2551    -2521    -2905    -3191 
   -3065    -2577    -1597    -1158    -2776    -5869    -8176    -7982 
   -5454    -2416     -766    -1154    -2573    -3618    -4176    -4411 
   -3856    -2998    -2826    -2710    -1964    -1686    -2554    -4023 
   -5611    -6124    -4615    -2504    -1655    -2169    -2887    -2770 
   -1877     -824      -74     -164    -1506    -3897    -6165    -6616 
   -4888    -2527    -1489    -2559    -4407    -4781    -3380    -2079 
   -2070    -2301    -1602     -814    -1262    -2798    -4374    -5242 
   -5185    -4448    -3570    -2687    -1799    -1648    -2465    -3102 
   -3092    -3227    -3578    -3400    -2890    -3204    -4388    -5104 
   -5158    -5790    -6764    -5903    -2290     1969     3885     2421 
   -1116    -4409    -5368    -3645    -1077      120     -668    -2241 
   -3446    -4376    -4843    -4239    -3393    -3726    -4909    -5366 
   -4407    -2809    -1661    -1290    -1312    -1981    -4079    -6300 
   -5949    -2956     -114      -21    -2902    -6647    -8992    -8715 
   -5776    -2245     -540     -577    -1148    -2151    -3639    -4680 
   -4268    -2749    -1776    -2214    -2871    -2681    -2451    -3057 
   -3765    -3684    -3288    -3037    -2258     -592     1236     1996 
     573    -2770    -5946    -6739    -4909    -2319     -992    -1694 
   -3931    -6285    -7079    -5641    -3316    -2578    -4291    -6332 
   -5962    -2930      881     3279     2327    -1999    -6409    -7173 
   -4093     -421      673    -1078    -3597    -4878    -4494    -3238 
   -2124    -1744    -1799    -1399     -199      950      652    -1352 
   -3511    -4423    -4016    -2407      -89     1566     1822     1062 
    -576    -3001    -4946    -5121    -4137    -3524    -3769    -4422 
   -4899    -4792    -4197    -3466    -2909    -2887    -3342    -3584 
   -3191    -2879    -3435    -3829    -2704    -1075     -787    -1854 
   -3244    -4374    -4507    -2633      727     3223     2862        2 
   -2876    -3778    -2929    -1480     -248       37     -855    -2123 
   -2893    -2836    -1848     -677     -599    -1480    -1964    -1557 
   -1112    -1204    -1337    -1463    -2195    -3059    -3041    -2481 
   -2567    -3743    -5587    -7480    -9000   -10045   -10377    -9661 
   -8522    -7781    -6862    -5429    -4887    -5780    -6659    -6825 
   -7003    -7350    -7425    -7261    -7206    -7319    -7186    -6313 
   -4765    -3136    -2031    -1583    -1652    -2088    -2299    -1922 
   -1513    -1004      287     1491     1000    -1105    -3115    -3339 
   -2020    -1428    -2825    -4986    -6232    -5628    -2884      637 
    1973     -464    -4614    -6843    -6091    -4567    -4477    -6033 
   -8159    -9227    -7870    -4114     -166      546    -2712    -6733 
   -8642    -8208    -6185    -3308     -587      828      630     -303 
   -1061    -1340    -1219    -1297    -2227    -3505    -4016    -3406 
   -2012     -567     -136     -961    -1736    -1420     -920    -1412 
   -2482    -3153    -3022    -2272    -1422     -627      325      793 
    -305    -2354    -3462    -3180    -2712    -2914    -3481    -3657 
   -3267    -3199    -4436    -6335    -6988    -5784    -4178    -3423 
   -3487    -4229    -5304    -5676    -5062    -4407    -4345    -4031 
   -2085      965     2646     1691     -495    -2172    -3246    -4005 
   -4245    -4143    -3892    -3503    -3385    -3769    -4491    -4930 
   -3902    -1463      804     2057     2124      491    -2400    -4753 
   -5252    -4337    -3794    -5201    -8109    -9984    -8938    -5961 
   -3515    -2852    -3357    -4268    -5892    -7846    -8563    -7689 
   -6102    -4378    -3160    -3196    -4122    -4612    -4298    -4059 
   -4407    -5413    -6814    -7485    -7122    -6594    -5763    -4129 
   -2401    -1436    -1170     -958     -494      103      475     -441 
   -2948    -5259    -5726    -4537    -2907    -2112    -2544    -3497 
   -3973    -3599    -2917    -2388    -1985    -1900    -1883    -1189 
    -189     -108    -1279    -2762    -3423    -3121    -2430    -1771 
   -1767    -3072    -4946    -5753    -5171    -4149    -3221    -2382 
   -1725    -1584    -2481    -4106    -5159    -5258    -5143    -5066 
   -5076    -5667    -6762    -7589    -7905    -7996    -7732    -6589 
   -4506    -2282     -908     -886    -2332    -4527    -5408    -3771 
   -1402     -696    -1919    -3754    -4320    -2411     1417     5574 
    8256     8351     6679     4911     3516     2160      853     -263 
   -1246    -2299    -3429    -3855    -3303    -2794    -2648    -2608 
   -2798    -2598    -1561     -665     -787    -1661    -2319    -2255 
   -2142    -2654    -3720    -4730    -4608    -2774      -56     1607 
     534    -3088    -7213    -9490    -8722    -5352     -939     2300 
    2359     -801    -5032    -7819    -8475    -8156    -7283    -5054 
   -1618     1603     2870      517    -5563   -12179   -14577   -11075 
   -4781     -591     -957    -4163    -7060    -8372    -8070    -6292 
   -3878    -1854    -1260    -3160    -6924   -10165   -10766    -8068 
   -4126    -2651    -4302    -6106    -5695    -3188     -654     -164 
   -1044     -986      -20     -573    -3554    -6833    -7458    -3684 
    3192     8355     7921     3042    -2074    -4002    -2462     -108 
    1243     2149     2897     3225     3037     1142    -2802    -6107 
   -6507    -4800    -3100    -2646    -3118    -4541    -7824   -11511 
  -12332    -9680    -6257    -4905    -5497    -6243    -7618   -10189 
  -11205    -9242    -7132    -6556    -5764    -3724    -1923    -1810 
   -3007    -4599    -6130    -6731    -6123    -5698    -6010    -6207 
   -6127    -5757    -4679    -3306    -2771    -3951    -6755    -9185 
   -8456    -4833    -1733     -874    -1283    -2118    -2393     -284 
    4078     7263     6218     1498    -3925    -6924    -6226    -3601 
   -1830    -2208    -4110    -5822    -6439    -5979    -3919     -433 
    2830     4679     4639     2713      267     -734      321     1900 
    1841     -137    -2488    -3604    -2847    -1009      240     -217 
   -2146    -4372    -5803    -5617    -3701    -1667    -1738    -4158 
   -6331    -5610    -2988    -1768    -3028    -5254    -7678   -10449 
  -11662    -8926    -3746     -446    -1607    -5763    -8862    -7897 
   -2710     3773     6562     3218    -3503    -9355   -11632    -9178 
   -3585     1004     2158     1274      255     -734    -1560    -1657 
   -1788    -4081    -8806   -12361   -11087    -5560      145     1985 
    -290    -3527    -5401    -5154    -2957     -828     -664    -1783 
   -2384    -2015    -1456    -1117     -841     -337      522     1152 
    1093      784      168    -1155    -2419    -3349    -5104    -7086 
   -6698    -3369      411     2010     1166     -733    -2689    -3816 
   -3250    -1977    -1907    -3330    -5528    -7732    -8968    -8943 
   -7751    -5366    -3049    -2049    -1165     1082     3639     4369 
    3214     2128     1823      795    -2205    -6081    -8046    -6683 
   -3520    -1328    -2269    -6376   -10771   -11442    -6789      -71 
    3504     2393    -1375    -5351    -6924    -4818    -1783    -1291 
   -2911    -4268    -4081    -2330     -295      378     -961    -3858 
   -6419    -6407    -3877     -804      828     -171    -3068    -5657 
   -6690    -6442    -5757    -5356    -5192    -4668    -3593    -2280 
   -1021      -79       43    -1009    -2766    -4374    -5516    -6237 
   -6409    -5819    -4653    -3732    -3464    -2513      503     4023 
    4645     1343    -3254    -5902    -5703    -3905    -2247    -1852 
   -2751    -4013    -4649    -4797    -5425    -6689    -7888    -8249 
   -6790    -3469     -114     1852     2986     4078     4711     4186 
    2355     -500    -3414    -5166    -5306    -4014    -2002     -148 
    1489     2583     1553    -1927    -5583    -7699    -8680    -8579 
   -7038    -5293    -4499    -3996    -3134    -2385    -2185    -2434 
   -3075    -4004    -4369    -3295    -1536    -1047    -2745    -5343 
   -6193    -4306    -2340    -3032    -5722    -8221    -8518    -5894 
   -2540     -672      243      423    -1032    -2914    -2756     -399 
    1701      556    -4594   -10536   -12829   -10355    -5711    -2407 
   -2127    -3626    -4789    -4860    -4114    -3045    -1966    -1579 
   -3303    -6886    -9541    -9540    -7913    -6023    -4685    -4563 
   -4918    -4301    -2767    -1687    -2276    -4086    -5117    -4186 
   -2220    -1161    -1953    -3636    -4556    -4013    -2697    -1397 
     -63     1188     1718      888    -1520    -4047    -4166    -1154 
    2898     4904     3115    -1490    -5304    -4943     -696     4274 
    6466     4272      351    -1795    -2925    -4712    -5969    -5348 
   -3462    -1895    -1525    -1935    -3327    -6871   -11210   -12405 
   -9099    -4118     -954     -796    -2045    -2648    -2508    -2242 
   -2106    -2764    -4009    -4176    -3168    -2853    -3623    -4406 
   -4923    -4969    -4072    -2802    -2338    -2767    -2798    -1844 
   -1023    -1364    -2700    -4071    -4664    -4953    -5709    -6022 
   -4557    -2039     -783    -2380    -5611    -7025    -5146    -2351 
   -1528    -2991    -5093    -6565    -6940    -5846    -4085    -3005 
   -1888      276     1719      325    -3175    -6088    -6632    -5763 
   -5184    -4882    -4568    -4685    -4895    -4202    -2714    -1713 
   -1815    -2073    -1944    -2762    -4999    -6031    -3433      935 
    2533     -301    -4653    -6623    -4499      400     4924     6482 
    4185     -544    -4580    -6196    -6093    -5273    -4403    -4224 
   -4043    -2554    -1077    -1298    -2014    -2230    -3046    -4838 
   -6160    -5949    -4951    -4226    -3657    -2196      661     3354 
    3700     1240    -2573    -5251    -6029    -6473    -6546    -4988 
   -2986    -2300    -2535    -2556    -2000    -1297    -1096    -1225 
   -1320    -2029    -3272    -3443    -1887      291     1201     -191 
   -2465    -3981    -4731    -4488    -3034    -1490    -1032    -1717 
   -2461    -1861     -494     -981    -3956    -7055    -9090   -10793 
  -11410    -9057    -4257     -876    -2174    -6208    -8247    -6966 
   -4796    -3931    -4174    -4079    -3387    -2991    -3225    -4098 
   -5443    -6083    -5200    -3515    -1842     -688     -837    -2380 
   -4311    -5761    -6280    -5271    -3242    -2313    -2903    -2652 
    -399     1796     1463     -892    -2581    -2366    -1443    -1568 
   -3181    -5379    -6948    -6552    -4093    -1858    -1695    -2474 
   -2176    -1186    -1746    -3893    -4687    -2965    -1186    -1116 
   -1906    -2482    -2446    -2012    -2068    -2785    -3217    -2670 
