Origin Time       2025/01/13 21:19:00
Lat.              31.8
Long.             131.6
Depth. (km)       30
Mag.              6.9
Station Code      MYZ014
Station Lat.      31.8457
Station Long.     131.3070
Station Height(m) 136
Record Time       2025/01/13 21:19:39
Sampling Freq(Hz) 100Hz
Duration Time(s)  100
Dir.              U-D
Scale Factor      7845(gal)/8223790
Max. Acc. (gal)   59.932
Last Correction   2025/01/13 21:19:38
Memo.             
[...]
   15153    15261    15255    15161    15082    15063    15102    15183 
   15240    15225    15140    15047    15059    15157    15215    15228 
   15214    15125    15034    15074    15184    15229    15199    15118 
   15003    14894    14790    14670    14480    14170    13857    13717 
   13848    14278    14945    15626    15998    15950    15830    16017 
   16233    15754    14509    13369    13117    13618    14057    13895 
   13485    13571    14277    14837    14678    14469    15186    16426 
   16812    15911    14991    15471    16684    16610    15244    14897 
   16753    19145    19570    17856    16374    16617    17347    16746 
   15165    14482    14968    14882    13039    10342     9134    10736 
   13648    15558    16147    16795    18416    19811    19138    17555 
   17771    18773    17103    12749     9520     9836    11898    12860 
   12123    11002    11173    12336    12599    12721    15309    19807 
   22593    21271    17406    14431    13491    13656    14420    15438 
   15363    13027     9921     8864     9894    11229    12711    14611 
   15649    14307    11024     8298     7938     8959     9394     9687 
   12245    16360    17437    14010    10825    12522    17801    21374 
   20383    17382    15979    15615    13713    10882     9985    11419 
   12694    12638    12989    14295    14914    15777    18922    21864 
   21321    19051    18079    18472    19329    20293    20737    19228 
   14382     7807     4463     7052    12518    16891    19477    19822 
   16110     9136     4297     6385    12995    18740    23600    28429 
   29270    23822    16232    14033    21675    32752    35212    28657 
   23598    22572    18805    11959     7734     7072     8333     9447 
    5795    -1486    -4449    -1719     3136    11705    23886    33022 
   35197    31954    25720    19581    16209    14717    14373    17872 
   22324    17695     4139    -5032    -3075     2945     5458     7245 
   15207    26666    31884    28251    22728    22655    27280    30523 
   30024    25791    17979    11905    13547    19770    21562    14478 
    2678    -4621    -1742     6064    10242    13200    20919    25647 
   17401     6474     9294    20206    21730    11616      757    -3491 
   -1831     2079     8877    20925    31245    29107    16769     6335 
    4198     7966    12345    13338    10647     7488     6539     8422 
   14432    22712    25571    21551    18601    19647    21166    22042 
   20862    14492     5308      365     2350     7982    15272    24587 
   32044    32352    26890    20552    15282    10746     7944     8699 
   10273     8440     7194    12067    17594    14742     4993    -1297 
    2207    11827    19619    19310    11263     5548     9594    16892 
   20727    24921    30859    31233    22553    11857     7488     9589 
   12399    11728     7699     2484    -2227    -4151     1358    16507 
   34666    44697    41372    29849    21415    21493    23066    18149 
    9555     4819     6064    11094    18233    24540    25466    20860 
   16043    16033    19669    20977    18361    14372     9248     5416 
    8394    16668    21701    19448    13375     8371     8191    14134 
   22594    28482    30222    28408    22447    13053     5860     6575 
   13216    15853     6278   -10304   -19156   -13244     2297    21066 
   39455    52758    55705    46656    31676    22142    22688    26149 
   22901    10218    -4934   -12403   -10092    -2393     7146    14493 
   16518    15597    15475    15994    15919    15622    14134    10813 
    9825    12195    10243     2347     -897     6037    17868    30280 
   40689    42269    29841     8973    -8025   -15051   -14580    -8642 
    2627    15291    23770    27321    27253    23288    20950    27990 
   37858    38233    31360    24976    17564     7453      317     -441 
    1501     3902     8673    13332    11395     3296    -3169    -1621 
    8189    19048    23094    22621    24003    25720    24321    21833 
   19926    18122    17984    19812    18993    12031     3195    -1264 
   -1899    -1494     -814     -179     5921    23133    41715    46288 
   35136    17118     1576    -4560      826    12663    23187    30919 
   37291    37928    30489    22399    21039    24457    25393    19946 
    9278    -3244   -12803   -15369   -10207      989    15959    32258 
   43632    41415    27918    18967    22913    29629    27804    17362 
    1586   -16521   -29205   -28734   -16642     1381    23562    45103 
   55108    51293    44625    41611    35716    21203     2878   -11585 
  -20061   -22501   -14567     6211    29262    39799    36445    26519 
   15518    10569    16482    26395    28885    19491     2277   -12737 
  -16012    -6802     8264    22931    33301    37648    37731    37203 
   36844    33295    24182     8955   -11454   -28267   -30191   -16321 
    5605    24385    31245    29748    28629    28713    29153    33540 
   40275    40126    30707    20341    13892     8838     5159     6932 
   14156    20742    20746    13089     1286    -9405   -13473    -7543 
    5749    20169    30072    30612    21196    10619     9628    16314 
   21632    25365    29590    28723    19546     7662     -109    -1811 
    2864    15415    31031    39739    39712    33116    19413     5254 
     113     2104     3303      784    -2875    -4052     -299     8095 
   16583    23658    35247    50449    55965    44589    24503     8386 
    3495     8455    15048    15186     7908     -751    -5277    -4121 
    1502     8259    15977    26509    33443    30150    24310    24466 
   24699    18646    12255     9714     4391    -3149     -180    14958 
   29960    37966    37423    26597    12360     5757     7395    12050 
   18018    22462    20856    16591    17139    19897    18077    14898 
   17497    25832    35608    43725    46120    39567    29114    20243 
    9023    -4220    -9498    -4228     4525    11223    13371    11256 
    9940    13971    20760    25042    25789    24609    22253    19124 
   17362    18188    18927    18238    16650    11581     2794    -4185 
   -5363     -670     7788    15334    18654    19754    21778    23371 
   20209    12557     5994     2030    -2322    -6118    -5408      577 
    8683    15448    20613    25404    27754    23884    15126     8071 
    6430     7807     9444     9783     6467     -608    -8220   -11576 
   -6743     4087    13872    18466    18663    17212    16191    15539 
   13541     9063     3299    -1663    -4945    -4914      907    10588 
   18666    22624    23758    24862    27425    29439    29079    27151 
   23560    17701    12178    11280    16838    25837    31449    29413 
   22499    16664    14999    15313    14285    13456    15245    17190 
   17527    19855    26827    34064    34438    27865    21092    17223 
   14330    12996    17124    25871    29178    20190     6493     -940 
     544     6678     9563     5402      302     -224       -4    -1649 
    1545    14361    29363    35652    32136    25284    19691    17186 
   17130    15704    12965    13373    15849    15242    11550     9190 
   10963    16320    23596    30177    31174    25073    18435    16776 
   17188    14870     9313     3793     1895     4531    11179    19321 
   24043    25257    28613    35248    39496    37962    33374    28472 
   22144    13597     7164     9447    20420    30765    30542    19858 
    8017     1767     1251     4935     9918    12486    11520     8004 
    4039     2690     6621    17756    33855    44504    40320    26172 
   15317    13077    14731    15867    16579    16532    14547    13332 
   16692    24629    33801    39407    39973    37230    29323    13671 
   -4580   -16486   -20892   -23018   -23795   -19596    -8521     6777 
   20719    29245    31588    29666    27390    27117    27565    25826 
   18428     4930    -9517   -19462   -21860   -15971    -6318      621 
    5414    13153    22763    30142    35787    39827    38097    28350 
   15348     5150    -1713    -5489    -4517    -1721    -1399    -1826 
    -733     2123     8802    18439    25998    29362    29319    26431 
   22470    20139    20640    21897    20166    15236     8727      712 
   -6339    -8970    -7481    -3813     -278     1120     2620     8127 
   16515    23017    24710    24101    25755    28416    29304    31241 
   36342    41436    41766    34492    22075    10573     3267      367 
    1228     3635     4406     1628    -3013    -4525     -889     5022 
   13128    25056    36880    43865    44741    40228    33515    28534 
   27639    29609    29925    26140    20098    13807     7334     1555 
   -1733    -1464     2575     8341    12378    14135    17151    23773 
   30645    33488    34001    36477    39893    38277    27719    12866 
    3797     4209     8799    10953     9857    11001    15979    18544 
   16660    15874    18875    23087    24552    20174    11306     3082 
     288     4199    10821    14643    14231    13012    14007    16159 
   18562    22889    28413    29617    23616    15526    11485    11507 
   11691     9942     7245     4379     1112    -1290     -862     2709 
   10133    21852    32634    35522    32603    31741    33369    31669 
   25166    16679     8073     1489      -60      927    -1880    -6264 
   -3430     6964    17084    22821    25355    26206    25141    20213 
   12544     9306    15133    24363    28786    27463    23199    17722 
   14021    14513    15901    13205     7518     4045     3881     2435 
   -1931    -3946     -675     2776      612    -4868    -6488    -2205 
    5082    12534    17726    20578    23440    26941    29516    30492 
   32957    40300    47614    46039    35723    25104    19855    18146 
   15423    10104     4576     1134    -1233    -3828    -5859    -4985 
    1128    13441    30361    45349    51201    48543    43602    38180 
   29987    20731    13976     9165     2829    -7052   -18311   -26585 
  -28568   -24062   -16185    -7032     3931    15276    23279    26160 
   24910    21424    16897    12025     8387     7246     6678     5413 
    8278    17771    27722    32679    33162    32077    30883    28588 
   24943    20895    16133    11056     7749     6933     8252    10939 
   13385    15163    16243    16517    19321    29218    44126    55024 
   55097    45573    31941    18235     6671    -1001    -4197    -3944 
   -3040    -5023   -10156   -13880   -11578    -3561     6295    15542 
   23183    27426    28495    28189    26111    23168    22072    20818 
   15920    10077     6531     3142      441     3612    12275    20341 
   24692    26703    28736    32053    35523    35839    30566    20899 
   11512     6254     4868     5111     5227     6490    11614    17914 
   19426    15820    12598    13050    15075    15290    11298     3812 
    -600     3829    13659    21352    24711    26304    27402    26343 
   22461    18804    18623    21001    22871    21427    13905      957 
  -11229   -15358    -9229     2488    13084    19110    21230    22231 
   24418    27321    27957    24852    19749    13932     7674     3669 
    4581     8856    13351    17145    21560    27805    33882    34732 
   28769    22374    21915    25262    26114    20946    10994     1557 
   -3119    -4472    -6138    -6967     -724    14295    29890    37336 
   35841    29444    22165    16376    12873    11869    12887    15179 
   18036    18025    11955     4325     2272     5661     9499    10459 
    9134     9448    13767    19773    23718    24123    22459    19510 
   13298     5061      157      108     3106     9790    19518    27346 
   29833    26815    19687    12075     6484     3720     6470    14856 
   23564    28498    30689    33247    35529    33093    26493    21296 
   18621    16029    12649     7965     2358    -1719    -3064    -3049 
   -2695    -1609      430     2697     4564     7354    13204    21747 
   29241    30331    23997    16613    13554    12888    10696     7611 
    8891    17559    27602    29435    22516    14728     9667     3699 
   -4669   -10986   -11156    -6116      363     6261    12160    17640 
   20796    21397    21749    24237    27085    26616    22632    17267 
   14883    20127    31241    39947    38030    25806    12268     4356 
    2398     5134    11203    16042    16216    15334    16711    16460 
   12511    11421    17101    23862    26142    23399    16837    11254 
   13196    18436    14898     4648     2581    12322    22357    23220 
   17582    14154    16615    22767    30137    35051    32643    21516 
    5287    -7453    -8314     3264    19174    28688    27830    21620 
   16457    12105     7545    10081    22261    32584    31747    23425 
   14848     8370     5119     5792     6397     3264     1975     8572 
   14543    11152     6573     9834    16642    18427    13714     9875 
   14467    24675    29702    25305    17254    10651     8526    14436 
   24796    28698    21482     9456      858     -311     7069    21948 
   38600    48871    48978    39839    23716     5593    -5853    -4679 
    4715    11688    11996    10801    13437    19792    26900    31575 
   31509    26658    19980    13822     5377    -5651    -9054     1825 
   18111    28317    29859    25459    18891    12764     6224    -1475 
   -5919    -3136     5400    17613    30753    37666    33184    23294 
   18370    18220    15194     8545     4731     6793    11061    12680 
   10751     8460     8819    12248    17940    23484    24746    21625 
   20663    25045    28530    24146    10422   -10635   -33455   -47677 
  -43297   -20337     9902    36293    56139    70492    77186    72700 
   59036    42639    25969     7618   -10762   -24649   -30487   -27633 
  -19755   -13007   -10415    -8954    -4278     4365    15321    26674 
   36220    42249    46037    49958    52158    48158    38780    31160 
   28082    22883     9266    -9941   -25506   -30645   -25744   -15939 
   -7308    -2930     -645     3473    11209    22680    37488    53292 
   64006    63668    53119    38418    24375    13779     8289     5871 
    2556    -1979    -5151    -5244    -3504    -3635    -6628    -8950 
   -8629    -8097    -7900    -2513    12349    31094    43908    49616 
   53751    57034    55296    47285    36316    25177    12714    -3175 
  -20279   -32653   -36545   -31615   -18959    -2012    15234    30879 
   43231    51403    56172    55991    48271    34392    18415     4514 
   -3192    -2813     3289    10350    13360     9757     3338     2234 
   10297    21921    27511    22843    10883    -2243   -10164    -8386 
    3993    23695    43347    55370    56097    45686    28497    12993 
    6693     8885    10619     6033     -318    -2177     -706     1287 
    5016     9837    12339    13521    18202    26586    33037    35317 
   36795    38348    38354    37176    34663    30460    26477    22393 
   14457     2436    -8043   -11701    -9336    -6362    -6110    -6264 
   -1746    11055    30164    47507    56663    57592    52066    41239 
   27966    15566     3983    -8662   -21533   -31811   -38016   -39379 
  -33127   -16406     7677    30396    44722    49299    47376    43074 
   37736    32436    29956    29228    25382    18100    11943     8977 
    7685     7381     8298     8676     6913     4870     3946     2806 
    2400     3844     4086     2976     5351    12808    21726    28381 
   32067    32148    27652    21957    19120    18195    17231    16249 
   15379    15083    15777    16021    14716    13232    12765    12868 
   13398    14176    13109     8652     3719     2463     4126     6332 
    9533    12702    13150    11911    12434    16070    22635    32454 
   43020    47239    42191    33296    23473     9748    -5872   -15616 
  -16448   -11449    -4171     2498     5906     4816     1695     2255 
    9667    22543    36907    47154    50264    47538    40738    31407 
   22477    16815    14948    14233    10193     1852    -6660   -11959 
  -12908    -7977     2629    14123    21408    24572    25940    25598 
   24653    28811    40694    51864    51740    40670    26735    13891 
     498   -13232   -22543   -23286   -16537    -6507     2593     7813 
    9447    10355    12742    17278    23565    29835    33157    30645 
   22167    11805     4990     5117    11790    20956    27641    29003 
   25550    19303    11969     6307     6309    13387    22855    26438 
   20202     8719     -152    -2376     1578     8723    15634    21123 
   25142    26666    24914    21524    20331    23376    28363    30495 
   25866    15516     5802     1730     2038     3913     8469    16687 
   24672    27785    25064    18873    14031    14904    21300    28738 
   32471    30627    24085    15552     9035     7032     8014     9197 
    9479     7997     3784    -1286    -2632     1414     8375    15958 
   22135    24433    21670    14069     3816    -4278    -5717       97 
   10708    22196    29652    30319    25490    18631    13574    12005 
   12213    12852    14261    15535    15246    13239    10701     9472 
    9175     7902     6825     8768    12618    14246    12285     9699 
   11026    17767    25496    29120    29408    29697    29916    28031 
   24135    20000    16675    13281     7936      924    -4895    -6810 
   -3655     3539    12517    21231    27167    28665    26866    23495 
   19352    15291    11900     9050     6411     4152     3557     5971 
   11325    17317    19587    16033    10824    10292    15511    21382 
   22449    17936    11778     8595     9343    12185    17028    24952 
   33183    35424    28806    18150    11075    10525    13921    16893 
   16903    14931    13277    11954     9946     9412    13618    20795 
   25110    23213    17014    11541    10089    10974    11700    13354 
   17311    22080    24802    23773    20121    16430    14555    15747 
   19456    21567    18530    12255     6880     3931     2991     4090 
    8303    15074    19996    19145    14160    10411    11489    16015 
   19465    19398    17567    16402    16630    18265    20750    22108 
   20449    17262    15264    14269    13441    13374    14700    16808 
   17410    14442     8650     3106      135     -283      662     1815 
    2839     5278    10127    14312    14995    14906    18237    24938 
   31499    34387    31459    23330    14289     8035     4428     3029 
    5008     9717    13073    12023     8932     7951    10108    14604 
   19743    22736    22377    20881    21281    23722    26751    30855 
   37343    44405    46920    41801    32003    23603    19276    16380 
   11665     4041    -5221   -11942   -12981   -10201    -7110    -4068 
    -400     2987     7823    16991    28636    39079    45651    46298 
   41709    34412    25639    16452     9256     5640     5111     5332 
    3638      869      764     4379     8645    10831    11581    12862 
   15291    17876    19503    20079    20231    20679    21242    20733 
   18068    14003    12081    14447    18432    20494    20441    19828 
   18550    15273     9726     3396     -765      109     5875    11992 
   13990    13116    12981    13328    12455    11859    14602    21666 
   30943    37932    38400    33235    28044    25286    21992    16525 
   10282     3437    -3333    -5972    -1836     6655    15219    21012 
   23090    21762    17794    12468     8002     6334     6922     7962 
