Origin Time       2025/01/13 21:19:00
Lat.              31.8
Long.             131.6
Depth. (km)       30
Mag.              6.9
Station Code      MYZ005
Station Lat.      32.4286
Station Long.     131.6009
Station Height(m) 26
Record Time       2025/01/13 21:19:45
Sampling Freq(Hz) 100Hz
Duration Time(s)  96
Dir.              U-D
Scale Factor      7845(gal)/8223790
Max. Acc. (gal)   25.246
Last Correction   2025/01/13 21:19:45
Memo.             
[...]
  -20773   -20764   -20769   -20776   -20767   -20767   -20773   -20768 
  -20764   -20769   -20769   -20767   -20768   -20767   -20767   -20769 
  -20771   -20769   -20769   -20768   -20769   -20769   -20769   -20769 
  -20769   -20768   -20769   -20769   -20768   -20769   -20771   -20765 
  -20765   -20769   -20767   -20765   -20769   -20769   -20768   -20771 
  -20769   -20771   -20772   -20769   -20769   -20772   -20771   -20767 
  -20768   -20769   -20769   -20769   -20769   -20767   -20765   -20768 
  -20771   -20769   -20769   -20769   -20767   -20768   -20771   -20768 
  -20767   -20768   -20767   -20768   -20772   -20768   -20765   -20771 
  -20771   -20767   -20768   -20769   -20767   -20769   -20771   -20768 
  -20768   -20767   -20768   -20772   -20769   -20765   -20768   -20769 
  -20767   -20768   -20771   -20768   -20767   -20768   -20769   -20768 
  -20768   -20768   -20768   -20771   -20771   -20767   -20771   -20772 
  -20763   -20767   -20773   -20764   -20765   -20772   -20767   -20768 
  -20773   -20767   -20767   -20776   -20772   -20764   -20771   -20775 
  -20767   -20767   -20769   -20765   -20765   -20771   -20768   -20767 
  -20771   -20767   -20764   -20769   -20772   -20767   -20765   -20768 
  -20769   -20769   -20768   -20768   -20768   -20769   -20772   -20771 
  -20767   -20767   -20771   -20769   -20764   -20765   -20771   -20771 
  -20765   -20768   -20771   -20767   -20765   -20768   -20767   -20769 
  -20772   -20767   -20764   -20771   -20771   -20765   -20767   -20771 
  -20768   -20767   -20771   -20771   -20768   -20769   -20767   -20765 
  -20771   -20771   -20768   -20768   -20765   -20767   -20768   -20767 
  -20769   -20769   -20768   -20768   -20769   -20769   -20771   -20769 
  -20767   -20769   -20771   -20769   -20769   -20769   -20769   -20769 
  -20769   -20767   -20768   -20767   -20765   -20771   -20772   -20769 
  -20769   -20771   -20768   -20767   -20769   -20772   -20768   -20768 
  -20772   -20769   -20767   -20771   -20771   -20769   -20768   -20767 
  -20769   -20769   -20767   -20769   -20771   -20769   -20769   -20768 
  -20768   -20768   -20765   -20768   -20772   -20771   -20767   -20768 
  -20769   -20769   -20768   -20769   -20771   -20773   -20773   -20772 
  -20773   -20775   -20775   -20776   -20775   -20775   -20780   -20779 
  -20779   -20783   -20780   -20781   -20785   -20784   -20781   -20783 
  -20783   -20785   -20788   -20788   -20791   -20799   -20804   -20810 
  -20818   -20822   -20822   -20829   -20830   -20825   -20821   -20814 
  -20798   -20781   -20765   -20750   -20740   -20744   -20768   -20800 
  -20822   -20831   -20849   -20876   -20879   -20850   -20833   -20830 
  -20821   -20800   -20758   -20691   -20638   -20603   -20536   -20491 
  -20547   -20655   -20741   -20783   -20785   -20804   -20873   -20925 
  -20914   -20893   -20887   -20829   -20700   -20607   -20580   -20537 
  -20502   -20564   -20649   -20660   -20644   -20657   -20691   -20731 
  -20787   -20880   -20931   -20825   -20722   -20830   -20976   -20957 
  -20872   -20812   -20773   -20792   -20856   -20899   -20915   -20856 
  -20717   -20686   -20841   -20989   -20987   -20937   -20970   -20979 
  -20849   -20710   -20582   -20428   -20505   -20893   -21122   -20900 
  -20542   -20460   -20798   -21343   -21612   -21358   -20946   -20767 
  -20713   -20714   -20945   -21195   -21028   -20671   -20675   -21046 
  -21400   -21456   -21289   -21176   -21073   -20904   -20934   -21188 
  -21352   -21365   -21448   -21589   -21571   -21424   -21246   -21084 
  -20995   -20984   -21114   -21404   -21726   -21848   -21570   -21124 
  -20814   -20520   -20232   -20174   -20229   -20213   -20352   -20714 
  -20947   -20966   -20958   -20876   -20676   -20522   -20464   -20495 
  -20664   -20902   -21039   -20972   -20753   -20437   -20144   -20139 
  -20252   -20096   -19838   -19699   -19507   -19426   -19720   -19880 
  -19761   -19934   -20043   -19750   -19782   -20097   -20073   -20164 
  -20772   -21092   -20540   -19811   -19681   -19905   -20156   -20815 
  -21764   -21921   -21058   -20455   -20731   -21161   -21358   -21267 
  -20692   -20218   -20634   -21506   -22150   -22940   -23661   -23006 
  -21351   -20541   -20931   -21547   -21901   -21925   -21412   -20655 
  -20117   -19724   -19839   -20471   -20339   -19461   -19284   -20070 
  -21088   -21551   -21145   -20410   -19784   -19573   -20034   -20344 
  -19930   -19759   -20202   -20271   -19915   -19897   -19818   -19294 
  -19137   -19588   -20200   -20997   -21905   -22196   -21586   -20853 
  -20464   -20320   -20609   -20956   -20852   -20879   -21423   -22175 
  -23005   -23395   -22600   -21250   -20899   -21448   -21370   -20954 
  -21192   -20864   -19624   -19364   -20436   -21573   -22088   -21709 
  -20417   -19148   -19198   -20452   -21571   -22041   -21998   -21243 
  -20595   -21420   -22850   -22597   -20478   -18628   -18141   -18509 
  -19530   -20490   -20646   -20812   -21602   -22527   -23117   -23132 
  -22399   -21038   -20194   -20953   -22613   -23835   -23716   -21864 
  -19525   -19234   -21006   -21729   -20877   -20559   -20463   -20027 
  -20507   -21614   -21838   -21242   -20842   -20922   -21047   -21095 
  -21204   -20927   -20032   -19345   -19688   -20405   -20021   -19170 
  -19859   -21586   -22237   -21514   -20324   -19225   -19114   -20182 
  -20538   -19126   -18252   -19539   -20618   -20371   -20750   -21416 
  -20966   -20422   -20262   -19241   -17956   -18281   -19093   -18418 
  -17905   -19156   -19892   -18941   -18616   -19596   -20888   -22470 
  -23117   -21458   -19511   -19807   -21440   -22612   -23430   -23423 
  -21485   -19276   -19552   -21772   -22793   -21890   -21311   -21867 
  -22890   -23521   -23194   -23463   -24306   -22940   -19920   -18322 
  -18746   -19241   -18243   -17398   -18696   -20349   -20437   -20613 
  -22526   -24160   -23268   -21215   -19753   -18976   -19132   -19847 
  -20632   -21780   -22204   -20637   -18744   -19098   -20761   -21505 
  -22697   -24310   -23384   -21926   -22577   -22221   -19935   -19029 
  -19384   -18651   -18504   -20209   -19782   -17189   -17618   -20177 
  -21502   -22885   -24298   -23507   -21443   -21190   -22941   -22770 
  -19292   -16686   -16856   -17302   -17487   -19539   -23507   -26474 
  -26096   -23145   -21176   -21578   -20837   -17473   -14887   -15241 
  -17898   -21097   -22372   -21602   -20993   -21416   -22883   -24624 
  -24440   -22052   -19508   -17518   -15606   -14901   -16486   -19240 
  -21739   -22688   -21843   -20950   -20151   -18917   -18837   -19932 
  -20594   -20845   -21270   -21837   -21506   -19460   -17918   -18739 
  -19384   -18189   -18214   -21335   -24379   -24760   -24015   -23600 
  -23311   -22628   -21567   -22056   -24088   -23608   -19823   -17544 
  -19234   -21602   -22405   -22870   -22669   -21388   -20598   -19773 
  -18904   -20818   -23950   -24001   -21906   -20216   -18890   -18733 
  -20167   -20173   -18269   -18207   -19874   -20528   -21227   -22489 
  -22072   -20664   -19797   -18632   -18177   -19210   -19260   -18617 
  -19940   -21292   -20248   -19585   -20372   -20136   -20034   -21602 
  -22769   -23371   -24487   -24236   -21732   -20308   -21801   -23329 
  -22974   -21180   -18902   -18517   -19975   -20636   -20348   -19743 
  -19229   -19896   -20515   -19565   -19344   -21138   -21880   -20918 
  -20880   -20812   -19408   -19419   -21124   -22034   -23053   -24572 
  -23988   -22176   -22331   -23097   -21357   -18983   -19245   -19854 
  -18198   -17567   -19761   -21074   -20403   -20517   -21347   -21070 
  -20707   -21594   -22316   -21003   -18797   -18802   -20272   -20028 
  -19170   -19633   -19847   -19469   -20093   -20715   -20108   -20021 
  -21305   -22943   -24285   -23884   -21887   -21909   -24247   -24849 
  -22508   -20047   -20051   -21382   -20578   -17806   -17455   -20056 
  -20884   -20012   -21597   -23504   -21726   -19176   -19774   -22167 
  -23639   -23527   -22254   -20241   -18376   -18284   -19888   -20742 
  -19912   -18751   -17597   -16453   -16588   -17579   -17965   -18829 
  -20312   -19989   -18661   -19016   -20110   -19913   -18520   -17370 
  -17930   -20308   -23255   -24495   -22877   -21635   -23089   -24216 
  -23697   -22796   -21352   -20856   -21303   -19826   -18685   -20455 
  -20865   -17693   -15816   -18774   -23301   -24925   -23862   -22519 
  -21802   -21595   -21519   -21674   -22661   -23472   -22509   -20660 
  -19751   -19726   -19812   -20430   -21254   -20413   -19098   -19927 
  -20630   -19434   -19359   -21047   -22014   -21690   -20945   -20299 
  -20128   -20935   -22125   -22534   -22937   -23199   -21130   -18202 
  -17682   -18306   -17734   -16719   -16506   -17439   -19357   -21443 
  -23113   -23431   -21146   -18473   -18547   -19414   -19206   -20121 
  -22108   -22999   -23323   -23606   -23321   -23889   -25016   -24150 
  -22152   -20575   -19604   -20757   -22871   -22401   -20814   -22175 
  -25254   -25172   -21698   -19326   -18360   -15889   -14299   -16629 
  -19178   -18577   -18446   -22065   -25569   -24829   -22330   -21582 
  -21558   -20363   -19276   -19959   -21180   -21629   -22181   -23225 
  -24270   -25933   -27307   -25128   -20406   -18361   -19245   -18867 
  -17382   -18249   -21278   -23170   -22631   -21739   -21284   -19348 
  -17466   -18457   -19458   -18165   -17882   -20355   -22420   -21826 
  -20491   -19915   -19417   -19714   -20942   -20879   -19957   -20480 
  -21073   -19786   -18193   -17864   -18523   -19649   -20366   -19778 
  -18482   -18635   -21107   -23614   -24169   -23741   -23564   -23026 
  -21651   -20322   -19876   -20694   -22130   -22327   -20946   -19641 
  -19584   -21042   -23322   -23434   -19965   -17520   -19242   -21577 
  -21654   -20191   -18640   -18835   -21024   -22612   -21918   -20588 
  -20767   -21832   -21517   -19427   -16741   -14993   -16387   -19511 
  -20212   -20101   -22075   -22891   -21415   -21574   -23062   -22299 
  -20429   -20293   -20224   -18466   -17876   -19556   -20074   -19175 
  -19368   -19870   -20331   -22061   -22636   -20686   -20347   -22736 
  -24595   -24749   -23638   -22840   -23707   -24472   -24217   -24410 
  -24565   -22837   -20308   -19214   -18477   -17695   -19479   -21917 
  -20795   -19684   -22646   -24479   -22345   -21254   -21280   -18975 
  -17714   -20013   -20964   -19549   -20011   -21141   -20676   -20011 
  -19199   -18717   -19820   -21564   -22279   -21374   -20299   -20013 
  -20332   -21964   -23225   -21946   -20704   -21994   -23959   -24652 
  -24522   -23685   -22281   -21166   -20205   -20156   -20714   -19105 
  -16051   -14449   -15265   -18272   -20379   -19164   -18084   -19241 
  -20448   -22643   -25581   -24879   -22395   -22766   -23673   -21986 
  -19295   -18478   -19230   -18341   -16514   -17382   -19705   -20677 
  -21340   -22871   -22481   -18137   -15545   -18473   -19761   -16610 
  -16463   -21450   -25042   -22617   -17290   -14986   -16399   -18431 
  -20322   -23303   -26748   -27291   -23716   -21514   -23352   -23116 
  -20665   -21780   -23562   -22823   -23305   -25043   -25162   -23017 
  -18659   -17212   -22358   -24765   -19764   -18720   -24864   -27372 
  -23448   -19693   -18690   -19176   -20013   -19963   -19931   -21458 
  -21543   -18458   -17995   -22817   -26365   -25783   -25512   -26029 
  -24320   -21683   -22306   -25682   -25790   -22569   -21814   -21085 
  -17533   -18300   -24849   -30036   -30334   -26191   -22586   -23917 
  -25401   -23291   -22270   -22931   -19369   -14831   -18046   -24810 
  -26082   -23423   -21946   -22639   -23940   -23244   -21244   -21780 
  -24418   -25575   -23922   -21348   -21971   -25470   -26144   -23091 
  -21092   -20889   -19796   -19442   -20208   -17756   -13797   -13108 
  -13247   -12438   -14580   -18711   -20120   -20869   -23373   -24524 
  -22626   -17635   -12336   -12116   -14877   -14673   -12946   -14218 
  -16985   -17702   -17581   -17335   -15446   -12950   -12380   -14674 
  -17822   -20348   -22162   -22150   -21833   -23157   -23905   -23350 
  -23639   -23768   -21925   -20692   -21519   -20283   -15873   -15120 
  -19481   -20756   -18964   -20372   -21232   -19593   -21999   -25463 
  -23171   -20642   -22215   -22171   -19039   -17775   -17964   -16179 
  -14916   -16691   -18819   -19722   -19739   -19508   -20889   -22951 
  -23893   -25502   -26892   -24580   -21606   -22755   -25062   -24470 
  -21921   -19618   -20495   -25238   -28486   -27395   -26913   -27000 
  -21709   -15566   -15034   -17192   -21686   -27693   -28848   -25211 
  -21452   -18023   -15228   -14597   -13783   -11263   -10737   -12712 
  -13170   -12278   -12168   -10972    -8789    -9246   -11024   -10389 
   -9084   -10592   -14856   -18623   -17648   -14377   -15638   -17937 
  -16556   -17010   -20021   -21431   -22551   -24475   -26815   -28767 
  -27522   -23766   -22114   -24429   -27531   -28259   -29134   -31090 
  -29286   -25982   -26227   -24086   -17802   -16784   -21728   -24894 
  -25245   -26627   -28869   -27421   -22886   -21674   -23857   -25590 
  -27699   -30584   -32259   -32871   -33031   -31985   -31198   -32455 
  -32517   -29382   -27070   -27351   -27025   -24629   -23013   -23530 
  -23168   -22827   -24777   -22573   -15408   -15606   -23399   -24640 
  -18639   -16980   -20829   -22889   -21683   -19735   -17759   -16066 
  -14466   -13420   -15624   -20470   -24244   -27257   -30188   -30079 
  -25863   -19954   -14910   -10072    -3524     2419     5302     5697 
    3739      126    -5757   -15417   -22782   -21629   -18242   -19344 
  -20837   -18243   -15477   -18581   -24329   -24617   -20605   -17896 
  -17020   -16821   -16058   -16067   -20858   -28143   -31768   -30763 
  -27992   -24362   -19467   -16405   -16872   -18264   -20009   -22631 
  -24591   -24518   -23623   -22827   -21946   -23280   -25250   -22782 
  -17833   -15739   -18640   -23554   -24046   -20128   -19793   -25751 
  -28864   -23646   -18515   -18295   -17737   -16885   -18639   -19431 
  -18291   -19730   -22839   -22693   -21103   -22395   -22698   -18215 
  -15074   -16729   -18022   -18584   -22292   -26311   -26678   -26223 
  -27275   -27017   -25450   -26970   -30021   -27680   -21928   -20245 
  -20582   -19750   -21332   -23502   -22307   -22388   -26875   -30391 
  -29616   -27160   -23546   -18261   -14602   -13444   -11588    -9409 
  -10471   -14655   -17865   -18320   -18193   -18171   -17207   -16960 
  -18258   -18029   -16336   -17147   -20156   -22256   -22616   -20542 
  -16640   -14076   -14176   -16644   -19869   -20148   -17697   -16661 
  -18785   -21895   -21230   -17852   -19558   -25610   -28449   -27372 
  -25504   -24417   -25215   -26353   -23553   -17559   -15442   -18658 
  -21818   -23711   -24439   -22071   -20525   -23014   -22680   -16501 
  -13117   -15970   -17346   -14161   -11311   -10948   -12799   -15897 
  -17424   -18072   -19932   -21987   -23681   -25489   -27407   -27619 
  -24984   -22914   -22026   -20101   -20171   -22532   -22659   -21681 
  -23238   -26843   -29126   -27648   -25107   -24960   -24371   -20869 
  -18365   -18354   -17159   -14566   -13131   -13066   -14270   -16532 
  -18805   -20605   -20472   -18301   -17591   -18497   -18682   -20748 
  -24846   -26033   -26075   -28148   -27962   -25238   -25104   -26298 
  -25255   -23701   -22230   -17815   -12973   -13909   -18154   -19727 
  -20208   -21442   -21382   -21388   -23684   -26892   -29404   -28684 
  -23394   -19314   -20331   -21528   -20363   -19221   -18138   -17470 
  -19400   -22801   -22995   -18816   -15817   -16012   -16039   -17209 
  -20376   -22123   -22677   -23566   -23758   -23163   -22320   -20160 
  -16888   -15603   -15558   -12198    -8484   -11048   -16345   -16853 
  -14408   -14349   -15431   -15356   -15959   -18584   -21651   -24069 
  -27314   -30142   -29570   -28327   -28713   -28892   -29228   -29142 
  -25691   -20309   -18318   -21474   -25142   -25695   -25230   -25365 
  -24065   -21019   -19255   -19005   -17894   -16829   -17606   -18590 
  -17805   -17174   -19336   -22002   -21914   -20713   -20638   -20586 
  -19577   -18378   -18110   -20205   -24506   -27045   -25230   -22478 
  -22489   -24723   -26454   -25482   -21713   -17031   -15589   -18539 
  -19927   -17523   -16434   -18430   -20767   -21554   -21367   -21809 
  -22122   -20914   -19456   -19222   -19608   -19352   -18809   -18871 
  -18850   -18721   -19705   -21358   -21951   -21204   -20605   -20083 
  -17880   -16322   -18956   -22353   -21841   -19495   -19078   -19217 
  -17136   -16083   -19141   -21065   -18908   -18387   -21760   -24420 
  -23457   -21394   -24189   -31000   -32556   -29332   -29497   -29496 
  -23926   -19502   -20715   -21396   -18119   -15805   -16617   -16929 
  -16893   -19616   -22653   -22010   -19692   -18686   -17805   -16883 
  -17261   -16686   -14679   -15487   -18080   -17945   -17054   -17695 
  -18166   -18187   -16919   -14770   -16220   -20245   -20445   -16789 
  -15396   -18898   -23265   -24954   -26038   -28247   -28517   -25066 
  -21483   -20753   -21091   -20263   -19028   -19174   -21224   -23579 
  -24264   -24391   -24912   -23966   -22866   -23352   -22052   -18972 
  -18524   -20055   -19884   -17871   -16706   -18229   -21432   -23764 
  -24525   -25639   -27997   -29203   -27056   -24784   -26831   -30084 
  -29497   -26473   -23483   -20973   -20806   -22927   -23461   -21124 
  -18712   -18535   -20704   -23616   -24973   -23641   -21199   -20108 
  -20287   -20488   -20694   -20991   -21560   -22693   -22715   -20590 
  -19537   -21614   -23527   -22373   -20259   -20850   -23006   -22716 
  -20452   -19380   -19808   -19350   -17138   -15747   -16382   -17470 
  -18046   -17656   -16636   -16239   -17105   -18589   -18952   -18283 
  -18389   -19437   -21284   -23665   -24683   -23807   -22790   -22905 
  -23688   -23579   -22731   -23224   -25035   -26138   -25748   -24690 
  -24733   -25686   -23982   -19518   -17203   -18036   -17975   -15271 
  -12363   -11531   -12013   -12793   -14607   -17369   -20123   -22341 
  -23078   -22789   -23205   -24039   -24763   -25496   -25365   -24344 
  -23913   -25219   -26910   -26154   -23342   -21053   -19615   -18010 
  -16081   -14539   -14492   -16480   -18789   -19214   -19279   -21023 
  -22507   -22219   -21892   -22890   -24015   -23546   -22470   -23018 
  -24896   -26203   -26373   -26508   -26832   -26279   -25774   -26130 
  -25478   -23346   -20075   -14829   -10199    -9578   -10284    -9324 
   -8486    -9633   -12729   -15476   -15853   -16386   -18445   -19070 
  -17899   -17675   -18655   -18373   -16001   -14143   -14646   -15850 
  -16417   -17297   -18850   -20146   -20483   -19685   -18706   -18912 
  -19059   -17464   -15962   -16051   -16252   -15623   -15153   -16332 
  -18755   -20317   -20667   -20818   -21282   -22488   -24224   -25736 
  -26927   -27904   -28158   -27141   -25610   -24744   -24193   -23346 
  -22631   -22202   -21982   -22239   -21934   -19998   -18212   -17575 
  -16465   -14320   -12279   -12857   -16449   -19062   -19114   -18684 
  -18717   -19167   -19465   -19664   -20995   -23040   -24559   -25344 
  -24667   -22704   -21811   -22202   -22123   -22329   -23530   -24578 
  -25986   -28787   -31098   -30562   -28486   -26901   -25606   -25072 
