Origin Time       2025/01/13 21:19:00
Lat.              31.8
Long.             131.6
Depth. (km)       30
Mag.              6.9
Station Code      MYZ020
Station Lat.      32.4557
Station Long.     131.1472
Station Height(m) 600
Record Time       2025/01/13 21:19:47
Sampling Freq(Hz) 100Hz
Duration Time(s)  121
Dir.              N-S
Scale Factor      7845(gal)/8223790
Max. Acc. (gal)   29.349
Last Correction   2025/01/13 21:19:46
Memo.             
[...]
   -4054    -4909    -2448     -452     -660    -1944    -1881     1655 
    7703    11616    10265     5228    -1196    -8279   -14153   -15831 
  -12349    -5560     1082     4074     2043    -3314    -8723   -11327 
  -10417    -8414    -8523   -11163   -14411   -16590   -17080   -16862 
  -18385   -22202   -24939   -23137   -17101    -9892    -4909    -4342 
   -7982   -13300   -17176   -17882   -15279    -9833    -3223     1605 
    3773     5383     7970    11020    13279    13346    10282     4645 
   -1449    -5458    -5786    -2417     2547     5236     3542       68 
   -1069      791     3149     3233     -175    -5845   -11105   -14054 
  -14821   -14917   -15579   -17201   -19668   -22204   -23392   -22211 
  -19426   -17192   -16945   -18769   -22300   -26034   -26819   -22908 
  -16113    -9501    -4737    -1992    -1313    -2839    -5038    -5128 
   -2052     2805     7327     9964     9926     7641     5508     5742 
    7574     8873     8598     6625     3863     2490     3435     4363 
    2851     -171    -2416    -3145    -2658    -1921    -3423    -8910 
  -16375   -21952   -23403   -20691   -15164    -9390    -6467    -7361 
   -9953   -12330   -14557   -16846   -18729   -19282   -17134   -12097 
   -7133    -6193    -9618   -14177   -17011   -17163   -14766   -10685 
   -5786     -386     4531     7342     7182     3581    -3096    -9521 
  -10903    -6185      523     4756     5413     3917     2446     1593 
    -874    -6359   -12245   -14929   -13694    -9981    -5525    -1966 
     352     2504     4176     3267     -522    -4702    -7442    -9019 
   -9942   -10372   -10674   -11145   -11670   -11653   -10763    -9911 
  -10370   -12267   -14199   -14064   -11087    -6625    -2616     -442 
    -561    -2169    -4060    -5688    -7128    -8392    -8637    -6918 
   -4147    -2367    -2342    -3634    -5834    -7861    -7607    -4128 
     531     3184     2898     1274      400     1300     2937     3150 
    1530        4      -99      353      -17    -1717    -4498    -7771 
  -11141   -14620   -18104   -20784   -21427   -19677   -17053   -15777 
  -16417   -17605   -18073   -18200   -19205   -21217   -23082   -23834 
  -23438   -22333   -20441   -16954   -11797    -6258    -1343     2870 
    6531     9963    13235    15882    17663    18609    18854    18532 
   17101    14072    10455     7469     4472      268    -4588    -8263 
   -9742    -9914   -10311   -11423   -12758   -13547   -13671   -14650 
  -18058   -22566   -24899   -23278   -18357   -12596    -8964    -8468 
   -9904   -12040   -13941   -14192   -12070    -8367    -4132     -541 
     238    -3265    -9279   -13996   -15194   -12766    -7491    -1289 
    3740     7909    13200    19083    22045    19940    14161     8116 
    4591     3535     2639       82    -3439    -5413    -4801    -3526 
   -3824    -5927    -8608   -10496   -10909   -10166    -9606   -10980 
  -14196   -16714   -17220   -17779   -20781   -25752   -29859   -30399 
  -26603   -19720   -12078    -6164    -3593    -4025    -5636    -7063 
   -8347    -9668    -9857    -6929     -302     8028    15014    18881 
   19799    18810    16256    11171     2843    -6745   -13331   -14256 
  -10624    -5107      -56     2083      -20    -4617    -8446   -10085 
  -10492   -11214   -13149   -15979   -18218   -18912   -18711   -18068 
  -16669   -15205   -15076   -17001   -20497   -23468   -23803   -21505 
  -17625   -12865    -8525    -6401    -6366    -5697    -1760     5439 
   13578    19606    21586    20619    19638    20074    21478    22315 
   20125    13887     5767    -1035    -4812    -5868    -5898    -6866 
   -9687   -13477   -17058   -21019   -26077   -30805   -33378   -33450 
  -31456   -28071   -24001   -19839   -16787   -16208   -17429   -17810 
  -15807   -12063    -7292    -1368     5077    10525    14532    17706 
   19892    20310    18854    16205    13401    11182     9258     6710 
    3376      307    -1239     -947      264      572    -1759    -6655 
  -12129   -16842   -21166   -25234   -28364   -30299   -30909   -29628 
  -26735   -23556   -20410   -16557   -12646   -10575   -10372    -9973 
   -8109    -4577      432     4858     6107     4742     3798     4896 
    6295     5011     1070    -2485    -4104    -4638    -4348    -3154 
   -2363    -2590    -2951    -4002    -7412   -12496   -16303   -16734 
  -14183   -10844    -8764    -8186    -7998    -7616    -7581    -8827 
  -12017   -16345   -19238   -18601   -14544    -8905    -4082    -1524 
   -1024    -1692    -2747    -3649    -3878    -2535      729     4828 
    8330    10345    10188     7520     2820    -2824    -8020   -11232 
  -11520    -9505    -6932    -4977    -3642    -2920    -3676    -6798 
  -11672   -16312   -19253   -20299   -19383   -16200   -11515    -7527 
   -6048    -7014    -8959   -10219    -9765    -7530    -4349    -1539 
     183     1266     2484     4009     4942     3996     1811     1105 
    3418     7462    11161    13240    12789     9512     4392    -1021 
   -5854   -10230   -14241   -17010   -17506   -15731   -12988   -11033 
  -10639   -11389   -12561   -13963   -15809   -17886   -19444   -19602 
  -17940   -15047   -12086   -10404   -11041   -13014   -13151    -9589 
   -4309     -774     -301    -1506    -1733      696     4838     8372 
   10309    11626    13018    13491    12195     9343     4567    -2616 
  -10428   -15916   -18470   -20009   -21915   -23467   -23333   -21355 
  -18337   -15067   -12197   -10378   -10008   -10696   -11153   -10233 
   -7978    -5537    -4272    -4735    -6350    -7844    -8137    -7423 
   -6979    -7520    -8149    -7204    -4147     -136     3619     6984 
    9775    10889     9428     5859     1287    -3781    -8999   -13432 
  -16383   -17879   -18152   -17771   -17585   -17902   -18364   -18368 
  -17556   -15885   -12783    -7402     -457     5752     9445    10091 
    7749     3480     -553    -3326    -6000    -9387   -12251   -13069 
  -11907    -9786    -7404    -4779    -1667     1501     3337     2296 
   -1841    -7075   -10690   -11767   -11205    -9786    -7933    -6525 
   -6340    -7732   -10984   -15618   -19965   -22356   -22364   -20845 
  -19152   -18238   -17558   -15180   -10493    -5398    -1540     1574 
    5084     9429    14276    18191    19252    16949    12883     9151 
    6293     3478      357    -2446    -4256    -5009    -5404    -6559 
   -8984   -11817   -13329   -12475   -10154    -8791   -10390   -14482 
  -18322   -19855   -19259   -17551   -15846   -14798   -13510   -10708 
   -6790    -3388    -1630    -1659    -2949    -4117    -3538    -1170 
    1406     3227     4633     5879     6836     7365     6913     4766 
    1443    -1317    -2824    -4567    -8255   -13630   -18720   -21922 
  -23132   -22887   -21433   -18949   -15934   -12491    -8301    -3879 
    -386     1385      862    -2018    -5807    -8270    -8576    -7348 
   -5335    -3680    -3693    -5139    -6365    -6191    -4537    -2008 
     418     1910     1752     -367    -3370    -5705    -6660    -6145 
   -4789    -3991    -4950    -7441    -9749   -10489    -9741    -8284 
   -6727    -5598    -5593    -6691    -7697    -7809    -7742    -8375 
   -9300    -9698    -9342    -8194    -6616    -5243    -4121    -2932 
   -1601     -314      649      967      503     -426    -1377    -2091 
   -2413    -2413    -2651    -3612    -5009    -6637    -8730   -10687 
  -11273   -10045    -7669    -5310    -3632    -2436    -1763    -2282 
   -4066    -6316    -8614   -11140   -13593   -15229   -15935   -16024 
  -15697   -15039   -13328    -9505    -4294      -70     2022     3092 
    3912     3379      734    -2709    -5085    -5946    -6004    -6023 
   -6594    -7966   -10035   -12537   -15036   -17216   -18986   -20247 
  -20969   -20930   -19365   -15954   -11740    -7931    -4743    -1915 
     421     1586     1351      811     1414     3152     4909     6357 
    7711     8565     8390     6828     3518    -1054    -5270    -7658 
   -7913    -6793    -5616    -5448    -6199    -6912    -7075    -7240 
   -8058    -9232    -9969   -10145   -10397   -11033   -11530   -11475 
  -11227   -11157   -11137   -11217   -11541   -11790   -11715   -11545 
  -11425   -11148   -10438    -9013    -6678    -3630     -658     1192 
    1509      888      237     -121     -575    -1418    -2417    -3300 
   -3712    -3285    -2481    -2106    -2290    -2797    -3279    -3258 
   -2685    -2008    -1404     -702      -94     -257    -1682    -4122 
   -6813    -9080   -10894   -12943   -15645   -17888   -17787   -15066 
  -11611    -9447    -9072    -9522    -9360    -7913    -5821    -4253 
   -3765    -3877    -3807    -3596    -3747    -3889    -3076    -1341 
     126      313     -913    -2876    -4477    -5256    -5771    -6855 
   -9005   -11882   -14347   -15363   -14511   -11888    -8037    -3732 
     132     2492     2809     1431    -1402    -5740   -10702   -14531 
  -16236   -16112   -14621   -12077    -9493    -8186    -8411    -9236 
   -9622    -9132    -7704    -5775    -4453    -4379    -4702    -3993 
   -1733     1551     4854     6925     6772     4387      687    -3218 
   -6789   -10003   -12607   -14030   -13994   -12618   -10269    -7585 
   -5190    -3586    -3396    -5009    -8009   -11186   -13236   -13660 
  -12692   -10701    -8032    -4955    -1863      746     2709     3869 
    3889     2816      943    -1493    -4148    -6725    -8978   -10266 
   -9774    -7412    -4310    -2072    -1318    -1614    -2663    -4338 
   -6184    -7753    -8903    -9744   -10346   -10451    -9868    -8972 
   -8401    -8545    -9437   -10458   -10652    -9913    -9246    -9688 
  -11148   -12420   -12718   -12638   -13007   -13533   -13234   -12021 
  -11165   -11730   -13147   -13878   -12879   -10233    -6879    -3816 
   -1345     1043     4089     7792    11032    12330    11038     7985 
    5121     4075     4646     5184     4465     2608      156    -2687 
   -5800    -9054   -12235   -14713   -16025   -16803   -18160   -20291 
  -22216   -22619   -20790   -17267   -13545   -10660    -8473    -6536 
   -5057    -4564    -5097    -6021    -6434    -5767    -3971    -1259 
    2016     5478     8707    10995    11499     9907     6880     3657 
    1267      179     -186    -1341    -3962    -6978    -9213   -10486 
  -11064   -11541   -12623   -14188   -15399   -15639   -14891   -13614 
  -12110   -10098    -7429    -4463    -1352     1653     3447     3171 
    1491     -405    -2137    -3558    -4070    -3235    -1476      126 
     531     -338    -1310    -1337     -746     -260       -9     -211 
   -1634    -4872    -9360   -13389   -15719   -16614   -16811   -16664 
  -16567   -17015   -18003   -19032   -19550   -19090   -17766   -16684 
  -16679   -16798   -15426   -12476    -9138    -6509    -5285    -5371 
   -5630    -4959    -3064      -18     3759     7273     9675    10932 
   11356    10960     9632     7474     4635     1269    -2367    -6220 
  -10091   -13072   -14440   -14789   -15445   -16807   -17861   -17751 
  -17020   -16826   -17701   -19291   -20817   -21467   -20688   -18605 
  -15981   -13609   -11982   -11099   -10222    -8245    -4519      814 
    7017    12895    17366    20121    21270    21263    21141    21550 
   22010    21586    19462    15172     9113     2392    -4108    -9748 
  -13798   -16135   -17602   -18959   -20164   -21176   -22661   -25056 
  -27715   -29705   -30636   -30511   -29471   -27895   -26161   -24021 
  -20771   -16210   -10875    -5420     -313     3854     6444     7115 
    5872     3179      -27    -2570    -3524    -2741    -1009      545 
    1460     1908     1957     1701     1305      498    -1302    -4190 
   -7169    -8853    -8808    -7410    -4989    -2068      345     1543 
    1524      410    -1683    -4450    -7404    -9921   -11566   -12021 
  -10868    -8324    -5478    -3271    -1912    -1248    -1260    -2000 
   -3056    -3859    -4360    -4827    -5368    -5717    -5686    -5734 
   -6504    -7789    -8505    -8020    -6878    -6150    -6673    -8266 
   -9620    -9676    -8752    -8024    -8490   -10357   -12738   -14112 
  -13590   -11327    -8046    -4699    -2025     -117     1331     2110 
    1498     -432    -2628    -4232    -5162    -5682    -5972    -6169 
   -6338    -6623    -7348    -8915   -11740   -15468   -18928   -21475 
  -23080   -23637   -23047   -21120   -17707   -13186    -8340    -3990 
    -648     1539     2569     2916     3541     5112     7453     9684 
   11136    11857    11647     9884     6980     4095     1696     -222 
   -1887    -3901    -6593    -9805   -13367   -17186   -20995   -24133 
  -26021   -26762   -26640   -25315   -22368   -18122   -13171    -7832 
   -2203     3387     7767     9597     8677     6107     3609     2419 
    2493     3095     3645     3777     3203     1841      -68    -2261 
   -4706    -7250    -9560   -11502   -12870   -13323   -13134   -13171 
  -14148   -16100   -18192   -19485   -19699   -18630   -16085   -12749 
   -9790    -7731    -6388    -5297    -3863    -1800      243     1229 
     926     -153    -1429    -2435    -3024    -3426    -3808    -3888 
   -3125    -1479      213     1151     1301      954      703     1219 
    2146     2527     2027      826     -891    -3095    -5702    -8405 
  -10990   -13436   -15653   -17579   -19360   -21154   -23072   -25236 
  -27261   -28331   -27947   -26019   -22887   -19265   -15695   -12298 
   -9001    -5795    -2613      850     4969     9859    14997    19406 
   22503    24244    24761    24510    23977    22896    20514    16590 
   11831     7333     3519      -20    -3726    -7615   -11541   -15442 
  -19072   -21802   -23321   -24059   -24239   -23425   -21558   -19130 
  -16417   -13778   -12054   -11703   -12490   -14164   -16433   -18740 
  -20490   -21100   -20325   -18553   -16175   -13301   -10224    -7372 
   -5028    -3534    -2999    -2708    -1838     -573      477     1293 
    2084     2678     2886     2890     2987     3414     4221     5158 
    5880     6164     5867     4815     2764     -264    -3761    -7246 
  -10600   -13605   -15930   -17699   -19261   -20694   -22017   -23064 
  -23377   -22968   -22276   -21273   -19488   -16692   -13228    -9753 
   -6648    -3867    -1381      820     2899     4733     5942     6747 
    8009    10170    12692    14670    15504    15071    13682    11515 
    8264     3674    -1822    -6968   -10170   -10516    -8440    -5481 
   -3210    -2176    -2095    -2608    -3318    -4118    -5633    -8390 
  -12164   -16371   -20358   -23549   -25726   -27112   -28012   -28225 
  -27129   -24463   -20590   -16339   -12784   -10431    -8746    -6907 
   -4514    -1764      449      993     -492    -2922    -4380    -3627 
    -957     2161     4313     5418     6320     7049     6592     4264 
     328    -4271    -8294   -10920   -12210   -12799   -13123   -12961 
  -11875    -9805    -7254    -5124    -3956    -3599    -3703    -4055 
   -4585    -5260    -5902    -6273    -6216    -5560    -4139    -2137 
    -170     1059     1074      -25    -1467    -2404    -2697    -3107 
   -4499    -6775    -8847    -9807    -9848    -9913   -10936   -13086 
  -15329   -16314   -15314   -12181    -7742    -3789    -1563     -832 
    -892    -1563    -2841    -4588    -6793    -9130   -10559   -10228 
   -8411    -6106    -4365    -4203    -5987    -8723   -10704   -10972 
   -9998    -8914    -8090    -6856    -4876    -2852    -1510    -1030 
   -1437    -2670    -4490    -6528    -8341    -9653   -10462   -10998 
  -11573   -12247   -12769   -13015   -13144   -13031   -11981    -9367 
   -5494    -1740      587     1360     1312     1305     1921     2938 
    3420     2744     1348      375      383      600     -156    -2139 
   -4773    -7570   -10270   -12513   -13651   -13065   -11048    -8957 
   -8021    -8392    -9458   -10504   -11133   -11545   -12217   -13065 
  -13359   -12367    -9925    -6891    -4652    -3639    -3029    -2022 
    -411     1829     4357     6253     6878     6428     5421     4264 
    3144     1837     -160    -3032    -6193    -8711   -10328   -11672 
  -13190   -14593   -15425   -15535   -14986   -13973   -12847   -11885 
  -11101   -10430    -9856    -9398    -9103    -8835    -8386    -7769 
   -6862    -5373    -3393    -1125     1560     4619     7427     9320 
   10149    10231     9933     9255     7954     6137     4160     1860 
   -1416    -5795   -10559   -14809   -17911   -19518   -19507   -18006 
  -15601   -13153   -11365   -10652   -11088   -12352   -13795   -14909 
  -15855   -17188   -19159   -21440   -23252   -23780   -22858   -21100 
  -19179   -17201   -14673   -10912    -5969     -955     2944     5350 
    6474     6606     6158     5807     5988     6667     7684     8797 
    9564     9404     7871     4984     1381    -2004    -4715    -6853 
   -8387    -8988    -8359    -6482    -3916    -1732     -801    -1246 
   -2786    -5182    -8108   -11041   -13385   -14512   -14160   -12746 
  -10997    -9475    -8237    -7028    -6065    -5886    -6481    -7271 
   -7618    -7237    -6241    -5105    -4531    -4762    -5136    -5009 
   -4749    -5186    -6762    -9317   -12082   -14183   -15179   -14959 
  -13770   -12051   -10019    -7788    -5455    -2909     -225     1944 
    2878     2335      598    -1695    -3820    -5143    -5382    -4639 
   -2951     -483     2010     3596     3763     2538      306    -2424 
   -5404    -8816   -12866   -17068   -20181   -21162   -19872   -17089 
  -14250   -12447   -11700   -11562   -11824   -12503   -13595   -15009 
  -16313   -16650   -15622   -13689   -11287    -8415    -5000    -1132 
    2876     6470     9020    10227    10206     9227     7753     6481 
    5838     5579     5088     3928     2007     -471    -2971    -5123 
   -7041    -8804   -10404   -11977   -13467   -14550   -15033   -14979 
  -14666   -14531   -14845   -15430   -15813   -15751   -15514   -15461 
  -15545   -15466   -15149   -14636   -13649   -11820    -9343    -6899 
   -5017    -3689    -2398     -534     1914     4299     6112     7213 
    7578     7384     6771     5740     4527     3419     2473     1525 
     211    -1745    -4186    -6484    -8001    -8556    -8341    -7759 
   -7379    -7572    -8191    -8953    -9940   -11323   -13190   -15662 
  -18397   -20596   -21909   -22542   -22447   -21147   -18540   -15144 
  -11460    -7852    -4592    -1625     1117     3303     4556     5024 
    5252     5595     5998     6339     6569     6497     5941     4820 
    2768     -572    -4579    -8062   -10462   -11986   -13001   -13521 
  -13338   -12533   -11674   -11376   -11766   -12534   -13251   -13464 
  -12826   -11465    -9884    -8295    -6621    -4838    -2972    -1124 
     283      552     -390    -1609    -2289    -2394    -2251    -2114 
   -1976    -1705    -1271     -908    -1039    -1844    -2999    -4139 
   -5144    -5833    -6064    -6034    -5871    -5676    -5989    -7249 
   -9019   -10330   -10400    -9143    -7303    -5741    -4710    -4047 
   -3501    -2903    -2357    -2137    -2381    -2906    -3488    -4210 
   -5251    -6588    -7946    -8920    -9200    -8849    -8374    -8182 
   -8083    -7657    -6754    -5436    -3856    -2308    -1146     -629 
    -751    -1232    -1776    -2234    -2668    -3402    -4847    -7172 
   -9930   -12444   -14473   -16113   -17417   -18319   -18712   -18435 
