Origin Time       2025/01/13 21:19:00
Lat.              31.8
Long.             131.6
Depth. (km)       30
Mag.              6.9
Station Code      MYZ010
Station Lat.      31.9968
Station Long.     130.9722
Station Height(m) 203
Record Time       2025/01/13 21:19:43
Sampling Freq(Hz) 100Hz
Duration Time(s)  139
Dir.              E-W
Scale Factor      7845(gal)/8223790
Max. Acc. (gal)   23.552
Last Correction   2025/01/13 21:19:42
Memo.             
[...]
   -5580    -5775    -5404    -4668    -3994    -3753    -4056    -4734 
   -5394    -5617    -5344    -4961    -4830    -4882    -4827    -4606 
   -4388    -4239    -4041    -3699    -3292    -3006    -2880    -2809 
   -2749    -2733    -2722    -2700    -2874    -3461    -4298    -5000 
   -5367    -5460    -5417    -5316    -5128    -4737    -4141    -3620 
   -3456    -3597    -3854    -4175    -4565    -4926    -5101    -5009 
   -4692    -4171    -3391    -2398    -1495    -1096    -1397    -2079 
   -2466    -2282    -2066    -2505    -3581    -4604    -5088    -5233 
   -5449    -5852    -6289    -6446    -6093    -5414    -4815    -4461 
   -4326    -4390    -4538    -4538    -4263    -3862    -3699    -4067 
   -4904    -5765    -6180    -5977    -5285    -4536    -4317    -4795 
   -5466    -5618    -4922    -3721    -2767    -2446    -2498    -2513 
   -2388    -2278    -2359    -2668    -3121    -3568    -3807    -3661 
   -3117    -2459    -2177    -2494    -3095    -3420    -3159    -2585 
   -2354    -2790    -3524    -3901    -3534    -2604    -1705    -1385 
   -1779    -2581    -3393    -3970    -4206    -4347    -4851    -5744 
   -6531    -6728    -6243    -5575    -5368    -5684    -6106    -6281 
   -6097    -5755    -5571    -5602    -5667    -5451    -4671    -3458 
   -2239    -1232     -508     -211     -278     -274      137      680 
     697     -160    -1674    -3229    -4322    -5089    -6003    -7155 
   -8206    -8768    -8716    -8282    -7720    -7094    -6431    -5779 
   -5055    -4217    -3566    -3466    -3904    -4580    -5097    -5194 
   -5050    -5084    -5454    -5968    -6369    -6455    -6087    -5432 
   -4977    -4807    -4359    -3237    -1765     -583     -128     -467 
   -1318    -2239    -2926    -3341    -3534    -3437    -3117    -2991 
   -3385    -4017    -4176    -3430    -1969     -272     1154     1829 
    1611      913      301      -66     -521    -1514    -3192    -5223 
   -6990    -8029    -8325    -8249    -8175    -8100    -7618    -6338 
   -4561    -3276    -3152    -4064    -5506    -6802    -7306    -6894 
   -6080    -5614    -5861    -6382    -6343    -5435    -4182    -3322 
   -3109    -3291    -3470    -3391    -3134    -3025    -3241    -3674 
   -4025    -3790    -2763    -1563    -1040    -1432    -2367    -3168 
   -3343    -3163    -3361    -4094    -4542    -3800    -1996     -283 
     203     -826    -2770    -4569    -5409    -5229    -4488    -3700 
   -3175    -2916    -2833    -2944    -3256    -3709    -4153    -4429 
   -4664    -5197    -6068    -6844    -7099    -6902    -6704    -6821 
   -7157    -7403    -7269    -6620    -5690    -4920    -4525    -4367 
   -4129    -3724    -3477    -3559    -3667    -3524    -3248    -3096 
   -3094    -3129    -3285    -3771    -4544    -5190    -5246    -4671 
   -3850    -3163    -2844    -3019    -3508    -3808    -3515    -2722 
   -1844    -1143     -654     -340     -226     -508    -1355    -2693 
   -4240    -5556    -6191    -6052    -5485    -4833    -4152    -3427 
   -2754    -2277    -2147    -2409    -2983    -3748    -4515    -5049 
   -5181    -4878    -4280    -3647    -3225    -3194    -3635    -4455 
   -5339    -6023    -6567    -7110    -7604    -7863    -7690    -7091 
   -6416    -6102    -6286    -6625    -6538    -5802    -4749    -3771 
   -2906    -2003    -1206     -895    -1115    -1507    -1686    -1522 
   -1331    -1530    -2192    -3163    -4185    -4945    -5348    -5456 
   -5290    -4957    -4675    -4653    -5066    -5763    -6162    -5792 
   -4742    -3574    -2964    -3171    -3820    -4236    -4093    -3813 
   -4013    -4673    -5225    -5159    -4347    -2964    -1312      168 
     973      985      584      156     -234     -661    -1044    -1169 
   -1089    -1278    -2093    -3420    -4943    -6473    -7908    -9049 
   -9587    -9381    -8676    -7886    -7198    -6531    -5687    -4461 
   -2899    -1526    -1123    -2034    -3690    -5078    -5699    -5805 
   -5899    -6291    -6832    -7068    -6745    -5973    -5058    -4349 
   -4151    -4592    -5394    -5935    -5813    -5328    -5233    -5840 
   -6581    -6574    -5377    -3327    -1224      338     1293     1888 
    2339     2671     2789     2625     2145     1362      419     -508 
   -1341    -2030    -2550    -3025    -3689    -4681    -5853    -6852 
   -7433    -7665    -7830    -8083    -8317    -8384    -8282    -8000 
   -7442    -6702    -6035    -5547    -5154    -4664    -3925    -3109 
   -2660    -2898    -3761    -4793    -5418    -5441    -5181    -5030 
   -5182    -5660    -6262    -6623    -6547    -6129    -5528    -4797 
   -3863    -2675    -1394     -328      274      400      199     -243 
    -837    -1426    -1906    -2195    -2200    -1915    -1451    -1071 
   -1143    -1756    -2612    -3408    -4136    -4980    -5923    -6581 
   -6616    -6146    -5624    -5409    -5432    -5381    -5224    -5239 
   -5605    -6193    -6714    -7121    -7549    -7889    -7917    -7597 
   -7017    -6347    -5802    -5470    -5165    -4552    -3505    -2242 
   -1115     -480     -531    -1096    -1705    -1949    -1773    -1582 
   -2004    -3196    -4482    -4988    -4571    -3906    -3738    -4121 
   -4455    -4162    -3233    -2127    -1367    -1178    -1344    -1479 
   -1371    -1031     -626     -429     -699    -1620    -3217    -5256 
   -7302    -8878    -9655    -9693    -9377    -9040    -8734    -8270 
   -7514    -6554    -5560    -4702    -3913    -2681     -688     1521 
    3002     3094     1757     -380    -2528    -4276    -5707    -7188 
   -8861   -10300   -10824   -10004    -8029    -5725    -4012    -3256 
   -3099    -2791    -1961     -970     -399     -567    -1321    -2077 
   -2339    -2038    -1314     -515     -218     -823    -2172    -3634 
   -4612    -4972    -4992    -5031    -5167    -5181    -4866    -4240 
   -3515    -2990    -2797    -2733    -2511    -2083    -1642    -1564 
   -2130    -3214    -4490    -5763    -6894    -7720    -8175    -8333 
   -8321    -8229    -8040    -7658    -6944    -5767    -4126    -2261 
    -685       18     -356    -1502    -2903    -4055    -4565    -4402 
   -3817    -3015    -2058    -1069     -282      126      178      -44 
    -572    -1317    -1814    -1617     -737      284      696      178 
    -992    -2257    -3040    -3163    -3121    -3543    -4569    -5867 
   -6943    -7503    -7596    -7415    -7225    -7250    -7422    -7473 
   -7267    -6941    -6828    -7096    -7469    -7476    -6853    -5626 
   -4074    -2704    -2052    -2286    -3088    -3950    -4521    -4780 
   -4959    -5244    -5525    -5501    -5004    -4189    -3465    -3157 
   -3161    -3030    -2569    -2182    -2461    -3564    -4922    -5636 
   -5313    -4248    -2992    -1999    -1426    -1197    -1275    -1713 
   -2520    -3639    -4893    -6021    -6837    -7265    -7252    -6781 
   -6042    -5362    -4843    -4247    -3300    -1979     -444     1044 
    2197     2803     2832     2498     1983     1247      373     -356 
    -801    -1093    -1428    -1981    -3046    -4830    -6974    -8753 
   -9825   -10455   -11186   -12293   -13501   -14418   -14943   -15155 
  -15282   -15581   -16016   -16216   -15670   -14054   -11646    -9112 
   -6971    -5347    -3993    -2639    -1336     -275      472      942 
    1248     1532     1845     2072     1894      999     -685    -2951 
   -5275    -7025    -7834    -7792    -7306    -6754    -6226    -5692 
   -5197    -4870    -4899    -5412    -6318    -7280    -7927    -8113 
   -7936    -7592    -7269    -7040    -6851    -6636    -6374    -6049 
   -5562    -4729    -3434    -1759       76     1810     3114     3780 
    3879     3608     3113     2512     1906     1297      618      -83 
    -523     -318      615     1767     2338     1899      619     -911 
   -2056    -2682    -3248    -4266    -5848    -7592    -8792    -9031 
   -8542    -7921    -7624    -7681    -7743    -7483    -6928    -6359 
   -6114    -6424    -7231    -8220    -9023    -9502    -9779    -9900 
   -9790    -9450    -8812    -7715    -6269    -4908    -4070    -3885 
   -4090    -4271    -4148    -3677    -3048    -2494    -1993    -1325 
    -405      616     1452     1867     1763     1089      -67    -1368 
   -2475    -3322    -4023    -4645    -4986    -4758    -4067    -3358 
   -2963    -2862    -2767    -2357    -1574     -587      438     1275 
    1705     1775     1665     1378      777     -228    -1575    -3041 
   -4336    -5292    -5910    -6180    -6076    -5863    -5949    -6485 
   -7452    -8688    -9813   -10623   -11248   -11817   -12301   -12494 
  -12066   -10871    -9161    -7358    -5725    -4272    -2810    -1107 
     853     2798     4433     5555     5983     5687     4862     3746 
    2544     1458      550     -279    -1032    -1503    -1568    -1370 
   -1159    -1129    -1297    -1475    -1622    -2100    -3265    -5080 
   -7165    -9063   -10520   -11591   -12521   -13462   -14270   -14666 
  -14447   -13475   -11732    -9383    -6682    -4020    -1840     -294 
     720     1275     1320      835       63     -549     -703     -438 
     -22      309      567     1038     1988     3493     5463     7657 
    9825    11738    13072    13498    12930    11592     9887     8218 
    6795     5429     3666     1186    -1939    -5262    -8197   -10509 
  -12487   -14516   -16794   -19300   -21836   -24202   -26245   -27746 
  -28518   -28591   -28192   -27506   -26419   -24614   -22030   -19140 
  -16611   -14839   -13765   -12815   -11342    -9325    -7214    -5447 
   -4132    -3042    -2107    -1471    -1086     -720     -274      230 
     783     1341     1907     2552     3210     3673     3786     3622 
    3537     3874     4564     5236     5563     5416     4887     4125 
    3123     1782      105    -1769    -3753    -5940    -8476   -11354 
  -14331   -17045   -19222   -20725   -21556   -21799   -21564   -21030 
  -20197   -18821   -16750   -14116   -11281    -8695    -6678    -5192 
   -3960    -2731    -1309      214     1540     2609     3547     4365 
    4930     5097     4888     4629     4780     5390     5900     5652 
    4425     2508      444    -1274    -2339    -2652    -2365    -1776 
   -1254    -1012     -950     -824     -504     -176      -49      102 
     735     1944     3183     3676     3071     1551     -541    -2909 
   -5144    -6706    -7231    -6691    -5373    -3801    -2439    -1556 
   -1309    -1549    -1733    -1313     -108     1640     3387     4584 
    4943     4409     3167     1633      244     -692     -976     -648 
     -87      143     -391    -1711    -3393    -4819    -5625    -6049 
   -6635    -7742    -9472   -11711   -14073   -16241   -18334   -20613 
  -22998   -25008   -26144   -26285   -25712   -24740   -23379   -21562 
  -19507   -17512   -15637   -13833   -12051   -10358    -8941    -7816 
   -6893    -6208    -5744    -5316    -4843    -4297    -3437    -2066 
    -224     1902     4054     6021     7720     9211    10517    11531 
   12198    12654    13144    13865    14866    15955    16768    17028 
   16663    15840    14918    14107    13305    12293    10952     9227 
    6959     3978      395    -3375    -6816    -9558   -11704   -13741 
  -16006   -18331   -20325   -21852   -23094   -24254   -25290   -25836 
  -25412   -23854   -21593   -19260   -17073   -14770   -12105    -9224 
   -6434    -3759     -990     1919     4934     8031    10851    12730 
   13343    12977    12226    11558    10994    10223     8988     7357 
    5647     3931     2066      117    -1733    -3350    -4693    -6065 
   -7992   -10563   -13290   -15595   -17246   -18535   -19865   -21162 
  -22003   -22158   -21782   -21292   -21165   -21546   -22013   -21961 
  -21101   -19610   -18018   -16780   -15874   -14962   -13790   -12210 
  -10089    -7453    -4433    -1182     1969     4522     6116     6955 
    7769     9053    10544    11622    11881    11469    11099    11379 
   12224    13034    13020    11754     9601     7526     6374     6124 
    6169     6084     5632     4637     3076      940    -1782    -4936 
   -8125   -10886   -13019   -14597   -15680   -16193   -16114   -15646 
  -15169   -15132   -15603   -15994   -15453   -13737   -11518    -9624 
   -8449    -7869    -7292    -6150    -4282    -1760     1216     4237 
    6770     8510     9756    11080    12510    13487    13475    12414 
   10871     9663     9109     8888     8510     7754     6727     5670 
    4873     4492     4398     4247     3665     2506     1019     -500 
   -2187    -4348    -6832    -9121   -10901   -12113   -12924   -13797 
  -15165   -17015   -18928   -20480   -21544   -22087   -21951   -21055 
  -19677   -18416   -17643   -17113   -16294   -14863   -12868   -10571 
   -8162    -5474    -2255     1329     4835     7911    10455    12509 
   13977    14866    15480    15911    15885    15071    13227    10477 
    7373     4436     1896     -147    -1709    -3001    -4334    -5967 
   -7933   -10030   -12098   -14071   -15758   -16876   -17297   -17145 
  -16787   -16654   -16771   -16764   -16353   -15573   -14665   -13899 
  -13474   -13533   -14227   -15477   -16821   -17868   -18466   -18484 
  -17797   -16351   -14316   -12000    -9667    -7493    -5424    -3318 
   -1132     1101     3416     5935     8648    11535    14489    17058 
   18756    19241    18372    16299    13535    10940     9130     8170 
    7592     6403     3820      -62    -4364    -8221   -11431   -14262 
  -16985   -19467   -21470   -23126   -24682   -26217   -27697   -28696 
  -28436   -26662   -24007   -21452   -19751   -18924   -18314   -17270 
  -15705   -14114   -12938   -12002   -10836    -9200    -7160    -4974 
   -2930    -1220      244     1868     3852     5983     7948     9551 
   10849    12040    13066    13689    13880    13707    13182    12375 
   11242     9745     8217     7196     6988     7360     7651     7326 
    6384     5263     4417     3902     3424     2701     1516     -229 
   -2259    -4179    -5984    -7861    -9760   -11426   -12579   -13193 
  -13398   -13284   -13016   -12879   -13057   -13207   -12739   -11469 
   -9560    -7225    -4457    -1223     2088     4792     6493     7450 
    8074     8268     7740     6562     5262     4495     4365     4341 
    3960     3018     1426     -565    -2388    -3666    -4572    -5460 
   -6362    -7194    -8036    -8968   -10122   -11578   -13082   -14397 
  -15543   -16422   -16942   -17311   -17629   -17733   -17543   -16996 
  -15950   -14435   -12703   -11036    -9548    -8187    -6852    -5593 
   -4634    -4064    -3705    -3272    -2566    -1313      824     3657 
    6326     8008     8614     8757     9030     9594    10320    10798 
   10751    10257     9405     8509     7734     6755     5306     3365 
    1132     -980    -2675    -4008    -5231    -6562    -8154   -10031 
  -11939   -13683   -15400   -17150   -18765   -20039   -20806   -20892 
  -20115   -18424   -16027   -13352   -10912    -9126    -8131    -7574 
   -6929    -6072    -5139    -4210    -3429    -2748    -1912     -851 
     413     1721     2682     2997     2679     1873      703     -535 
   -1462    -1892    -1941    -1957    -2172    -2679    -3566    -4656 
   -5616    -6185    -6255    -6126    -6123    -6153    -5899    -5146 
   -4048    -3238    -3190    -3588    -3854    -3888    -3937    -4193 
   -4756    -5549    -6131    -6157    -5814    -5456    -5243    -5201 
   -5235    -5175    -4990    -4764    -4572    -4430    -4236    -3874 
   -3298    -2447    -1570    -1090    -1063    -1476    -2181    -2851 
   -3234    -2992    -2139    -1170     -508     -171      109      564 
    1217     1695     1667     1209      202    -1428    -3126    -4257 
   -4683    -4711    -4654    -4792    -5394    -6378    -7335    -7724 
   -7280    -6403    -5756    -5575    -5418    -4760    -3623    -2536 
   -2029    -2222    -2914    -3808    -4561    -4804    -4445    -3819 
   -3387    -3458    -3912    -4217    -3909    -2855    -1301      114 
     672      238     -666    -1358    -1421     -945     -244      517 
    1475     2785     4179     5174     5525     5228     4379     3302 
    2273     1281      329     -693    -2099    -4112    -6628    -9077 
  -10914   -12032   -12621   -13022   -13478   -13987   -14403   -14632 
  -14682   -14631   -14481   -14177   -13734   -13203   -12742   -12519 
  -12552   -12838   -13282   -13668   -13778   -13342   -12117   -10255 
   -8229    -6504    -5351    -4584    -3882    -3190    -2501    -1773 
   -1058     -521     -226        8      448     1181     2002     2662 
    3153     3611     4043     4299     4413     4469     4257     3605 
    2644     1780     1466     1660     1921     1948     1695     1232 
     641      -39     -866    -1965    -3342    -5017    -7074    -9238 
  -10972   -12023   -12530   -12946   -13667   -14536   -14987   -14747 
  -14008   -13032   -12185   -11639   -11067   -10309    -9464    -8577 
   -7753    -7064    -6501    -5921    -5184    -4233    -3100    -1999 
    -943      292     1856     3535     5003     6164     6948     7441 
    7734     7693     7160     6018     4383     2666     1455      932 
     641      318       67     -101     -329     -742    -1317    -1976 
   -2741    -3828    -5329    -6941    -8136    -8505    -8195    -7832 
   -7901    -8507    -9487   -10381   -10577    -9945    -8830    -7481 
   -5890    -3997    -2135     -950     -754    -1368    -2376    -3427 
   -4290    -4774    -4769    -4341    -3731    -3040    -2405    -2158 
   -2232    -2296    -2299    -2273    -2263    -2447    -2857    -3303 
   -3613    -3877    -4406    -5278    -6258    -7153    -7904    -8514 
   -8957    -9244    -9359    -9119    -8419    -7371    -6255    -5327 
   -4471    -3458    -2327    -1352     -762     -448      -68      623 
    1628     2677     3423     3715     3627     3316     2756     1715 
     243    -1159    -2007    -2362    -2770    -3743    -5273    -6795 
   -7701    -7900    -7732    -7380    -6929    -6706    -6679    -6583 
   -6701    -7279    -8082    -8835    -9478   -10169   -11028   -12006 
  -12835   -13219   -13180   -12888   -12438   -11850   -11068    -9969 
   -8569    -7130    -5817    -4471    -2821     -918      812     1989 
    2658     3096     3218     2818     1919      683     -492    -1447 
   -2384    -3446    -4625    -5715    -6373    -6318    -5810    -5273 
   -4708    -4102    -3524    -3063    -2829    -2883    -3221    -3628 
   -3755    -3454    -3161    -3376    -3987    -4669    -5088    -4977 
   -4425    -3724    -3133    -2685    -2355    -2176    -2120    -2390 
   -3348    -4924    -6624    -8105    -9335   -10127   -10100    -9144 
   -7704    -6403    -5508    -4951    -4541    -4253    -4267    -4618 
   -5270    -6232    -7342    -8186    -8317    -7695    -6763    -5945 
   -5212    -4361    -3391    -2303    -1178     -324      149      297 
     193       12      -89      -79     -201     -741    -1582    -2286 
   -2486    -2164    -1548     -876     -348     -112     -224     -585 
   -1031    -1576    -2355    -3429    -4708    -5988    -7125    -8082 
   -8935    -9887   -11001   -11998   -12515   -12356   -11610   -10555 
   -9433    -8392    -7473    -6662    -5915    -5107    -4176    -3082 
   -1686      -82     1402     2467     2952     3114     3457     4260 
