Origin Time       2025/01/13 21:19:00
Lat.              31.8
Long.             131.6
Depth. (km)       30
Mag.              6.9
Station Code      MYZ003
Station Lat.      32.5659
Station Long.     131.6602
Station Height(m) 6
Record Time       2025/01/13 21:19:47
Sampling Freq(Hz) 100Hz
Duration Time(s)  120
Dir.              N-S
Scale Factor      7845(gal)/8223790
Max. Acc. (gal)   80.696
Last Correction   2025/01/13 21:19:47
Memo.             
[...]
    -110     -114     -117     -113     -114     -113     -113     -116 
    -117     -117     -109     -108     -112     -112     -118     -117 
    -112     -114     -116     -120     -121     -118     -117     -113 
    -113     -114     -113     -120     -122     -118     -116     -120 
    -120     -113     -116     -118     -113     -116     -117     -113 
    -116     -117     -117     -113     -112     -117     -114     -112 
    -113     -112     -114     -116     -113     -116     -118     -118 
    -114     -120     -122     -113     -113     -116     -116     -117 
    -112     -113     -116     -114     -117     -114     -113     -117 
    -117     -117     -116     -118     -122     -117     -116     -120 
    -122     -121     -116     -122     -130     -126     -124     -122 
    -132     -140     -135     -133     -132     -141     -151     -148 
    -151     -153     -152     -143     -126     -132     -140     -136 
    -143     -152     -162     -170     -166     -162     -155     -148 
    -145     -149     -163     -163     -157     -151     -118      -71 
     -24        1        1      -12      -56     -106     -148     -193 
    -213     -209     -206     -210     -221     -205     -168     -125 
     -56       21       89      149      191      206      172       95 
      -4     -110     -182     -201     -201     -243     -341     -427 
    -464     -426     -292     -116       35      101       81       48 
      31       24        1      -99     -259     -403     -464     -433 
    -387     -379     -426     -506     -523     -392     -124      151 
     288      295      280      318      398      460      456      361 
     180      -64     -298     -436     -546     -696     -823     -851 
    -756     -579     -386     -194      -27       82      108       49 
     -86     -355     -714    -1034    -1219    -1229    -1163    -1132 
   -1152    -1225    -1260    -1134     -869     -573     -332     -172 
     -76       41      298      666      992     1100      949      726 
     581      500      459      396      238      -32     -383     -699 
    -858     -928    -1034    -1138    -1210    -1296    -1269    -1080 
    -900     -818     -861    -1042    -1204    -1212    -1093     -892 
    -611     -240      299     1058     1834     2336     2492     2405 
    2212     1988     1749     1599     1634     1725     1714     1638 
    1495     1173      724      260     -256     -804    -1219    -1336 
   -1224    -1274    -1634    -1960    -1998    -1898    -1953    -2187 
   -2285    -2131    -1979    -1880    -1640    -1348    -1170    -1067 
   -1086    -1108     -781        4     1165     2331     2857     2623 
    2092     1614     1219      899      757      814     1013     1356 
    1605     1424      918      477      284      292      353      429 
     803     1426     1510      656     -710    -2137    -3163    -3433 
   -3198    -2887    -2836    -3227    -3746    -3944    -3824    -3682 
   -3520    -2847    -1370      580     2493     3823     4125     3613 
    2911     2223     1456      727      332      600     1522     2415 
    2543     1838      807      191      414     1081     1532     1692 
    1721     1506      984      211     -602    -1024    -1067    -1279 
   -1873    -2608    -3285    -3770    -3975    -4105    -4432    -4907 
   -5175    -4773    -3643    -2245     -889      233      719      481 
     -54     -598    -1031    -1024     -571      -76      437      967 
    1306     1856     2994     4116     4594     4509     3954     2866 
    1621      831      816     1571     2505     2562     1381     -407 
   -2077    -3118    -3481    -3746    -4232    -4409    -3597    -1992 
    -373      781      963     -130    -1584    -2111    -1441     -186 
     940     1773     2668     3662     4023     3044      947    -1606 
   -3869    -4486    -2647      361     2412     2697     1738      124 
   -1846    -3665    -4441    -3555    -1563      302     1777     3234 
    4023     3325     1722      426     -108      -48      658     2245 
    4380     5811     5038     2173     -688    -2027    -2327    -2249 
   -1667    -1270    -2181    -3852    -4932    -5012    -4129    -2349 
    -283     1275     2139     2207     1182     -568    -2139    -2736 
   -1890     -222     1042     1730     1849      575    -1952    -4252 
   -5177    -4476    -2631     -325     1890     3006     2359      990 
     187     -112     -121      337     1053     1996     3122     3557 
    2988     2262     1676     1019      382     -723    -2594    -3896 
   -3461    -1718      379     1938     2285     1350     -463    -2511 
   -4297    -5715    -6602    -6729    -6254    -5135    -3134     -955 
     400     1067     1840     3199     4908     6053     6241     6521 
    7808     9058     8808     6991     4087      762    -1628    -2029 
    -743     1183     2592     2278      121    -2606    -4959    -6610 
   -7102    -6752    -6655    -6913    -6764    -5984    -4764    -3105 
   -1020     1067     2542     3041     2551     1580      741     -193 
   -1377    -1841     -957      800     3041     5310     6588     6482 
    5717     4876     3418     1065     -868    -1471    -1177     -330 
     496      765      958     1278     1244     1021     1085     1404 
    1783     1599     -207    -3184    -5437    -6247    -6116    -5697 
   -5733    -6012    -5356    -3731    -2392    -1831    -1799    -2620 
   -3916    -3927    -2095      436     2847     4384     4156     2875 
    2249     2901     4710     6983     7781     6111     4024     3581 
    3673     2466      348    -1364    -1923    -1170       37      851 
    1898     3393     3566      838    -4167    -9147   -11774   -10959 
   -7161    -2215     1829     3688     2810      118    -2056    -2168 
    -575     1490     3014     3524     3316     3113     2929     1976 
    -206    -2898    -4729    -4962    -3886    -2165     -218     1497 
    2205     1644      267    -1352    -2246    -1306     1490     5081 
    7970     8695     7114     4881     3098     1017    -1675    -3851 
   -4958    -5471    -5683    -5636    -5097    -4010    -3271    -3515 
   -4387    -5274    -5449    -4603    -3073    -1182      279      660 
     993     2182     3165     2988     2365     1989     1439      845 
    1266     2709     4383     5888     6509     5564     3726     2065 
     885      615     1601     2772     3119     2963     2236      576 
   -1290    -2351    -2340    -1728    -1080     -727    -1202    -2412 
   -3356    -3990    -4963    -5923    -6366    -6330    -5427    -3469 
   -1290      561     2026     2407     1606      837      810     1575 
    3210     5022     6126     6589     6421     5506     4483     3240 
     826    -1834    -3136    -3557    -3526    -2097      395     2134 
    1948      -18    -2466    -4016    -4545    -4326    -3078     -984 
    1043     2457     3337     3545     2195    -1152    -4885    -6475 
   -5535    -4108    -3689    -3704    -3314    -2610    -1470      425 
    2581     4650     6583     7310     6008     3551      828    -2038 
   -4531    -6049    -6328    -4868    -1548     2119     3551     1888 
    -903    -2644    -2258      634     4685     7785     9328     9348 
    7426     3709     -287    -2955    -4106    -4033    -2891    -1188 
     541     1381      330    -2238    -4973    -6571    -6187    -3809 
    -454     1985     2200      510    -2544    -6276    -9013    -9826 
   -8916    -6134    -1705     2944     6559     8650     8442     5837 
    3261     2968     4297     6049     7561     7788     6235     2808 
   -2322    -7615   -11211   -12245   -10740    -7265    -2490     2107 
    4068     2600     -683    -4517    -8291   -10519   -10284    -7898 
   -3292     3144     9228    12357    11202     6737     1999     -515 
    -614      761     2918     5432     7792     9104     8641     6826 
    4234      730    -3218    -6554    -8919   -10010    -9035    -6423 
   -4199    -3742    -4553    -4993    -3736     -980     1806     3370 
    3908     4218     4155     3527     3292     3937     4576     4942 
    5325     4509     1606    -1933    -4365    -4514    -1841     1665 
    3011     2062      476     -868    -1332    -1125    -1513    -2087 
   -1710    -1063     -672      -27      475     -357    -3096    -6565 
   -8445    -7947    -5761    -2147     2116     5216     6247     5564 
    3846     1850     -306    -2963    -5333    -6285    -5529    -2539 
    2386     6583     7528     5344     1933    -1372    -4325    -6262 
   -6432    -5436    -4266    -3156    -2411    -2323    -2393    -2043 
   -1155       87     1277     1968     2153     2540     3443     4009 
    3588     2380      731     -855    -1647    -1362     -577       68 
     550      839      942     1321     1748     1086    -1242    -4315 
   -5998    -5009    -2030     1606     4168     4565     3883     3034 
    1574       14     -695     -915    -1375    -2322    -3834    -5478 
   -5745    -3890    -1354     1019     3543     5437     6258     6332 
    5221     2848     -330    -3685    -5698    -5344    -3223     -423 
    2274     4222     4887     3947     1404    -1671    -3748    -4692 
   -4756    -3439     -907     2231     5503     7666     7601     5628 
    3161     1891     2469     3960     4727     3415     -319    -5258 
   -8849    -9408    -8068    -6729    -5668    -4673    -3609    -2137 
   -1170    -2027    -3651    -4149    -3512    -2134      151     2440 
    3491     3276     2088       99    -1741    -1965      -25     2840 
    4588     4548     3781     3011     2007      949      453      622 
    1560     3794     7080     9990    10343     6956     1736    -2878 
   -6331    -8236    -8702    -8503    -7437    -5302    -2627       -1 
    1215     -310    -3739    -6625    -7456    -6986    -6629    -6230 
   -5228    -3973    -2330     -126     1371     1216      629     1611 
    4221     6683     8278     9335     9661     9389     8783     7695 
    6751     6326     5688     4911     4267     3024     1301      280 
     116     -527    -2901    -6654   -10158   -11831   -10868    -8139 
   -6207    -6264    -6880    -6945    -6037    -3925    -1877    -1229 
   -2413    -5173    -7484    -8264    -8708    -8108    -4972     -387 
    4340     8727    12108    14494    16320    16710    14467    11465 
   10729    11299    11049    11101    12086    12039    10268     7013 
     932    -7136   -13092   -15592   -16136   -14821   -12729   -12623 
  -14007   -14856   -15870   -16722   -14611    -9400    -4117     -877 
     326      112     -507     -152     1474     3813     6066     7715 
   10228    14531    18103    18589    16035    11259     6110     2775 
    1362     1216     2245     2296     -872    -5038    -7408    -8316 
   -7736    -5247    -2413     -413      895     1127       37    -2384 
   -5927    -8546    -8841    -8143    -7526    -7290    -8113    -9702 
  -11044   -11801   -11368    -8557    -3915      313     3412     5930 
    7087     6193     4500     3572     3994     5850     9240    13500 
   16834    18387    17406    11935     3302    -4099    -8511   -10095 
   -9121    -6525    -2394     3288     7974     8004     2937    -4067 
  -10099   -13332   -12572    -8780    -3623     1775     5166     4595 
     656    -4225    -7609    -8375    -6023    -1170     3276     5296 
    5381     4864     5336     6077     4587     2350     2709     5166 
    7943    10025     9755     6698     2481    -1206    -2589     -190 
    4116     6610     7177     7165     5540     2440     -410    -2258 
   -1834      710     2363     2257     1254    -1205    -3905    -5007 
   -5699    -6405    -6434    -6632    -6161    -3874    -1834    -1572 
   -3356    -7321   -11044   -11566    -8349    -2795     1863     3187 
    2199      994     -449    -3693    -7850    -8449    -2856     6112 
   14280    19568    20482    17031    11950     7492     4465     2652 
     329    -2452    -3539    -3597    -4722    -6224    -7379    -9147 
  -10939   -11558   -11450   -10050    -7107    -5749    -7086    -8332 
   -8866    -9198    -7967    -5381    -2654      398     3051     4253 
    5059     6712     8297     8131     6552     4799     2685      467 
    -656       -4     3457     8680    11857    13096    15265    16977 
   15730    12314     8291     4600     1775     -216     -762      575 
    2478     3661     4044     4040     3697     1779    -2241    -5910 
   -7103    -7730   -10319   -13964   -17281   -20101   -21126   -19827 
  -17649   -14912   -11685    -9171    -7001    -3916     -267     3164 
    5636     6346     6000     5809     5132     2833      448     1252 
    5732    11186    15061    15890    13761    10971     9876    10935 
   13900    18511    22855    24314    22590    19218    15415    12016 
    9706     8421     7519     6316     4275     1169    -3260    -9171 
  -15863   -22522   -29016   -34404   -37157   -37704   -36910   -34404 
  -31617   -30615   -30439   -30416   -31730   -33679   -34662   -34130 
  -30898   -23841   -13609    -2458     7169    15384    23838    31887 
   38187    43202    46842    48309    48898    50157    50854    49671 
   47505    45214    42866    40078    35532    28094    17898     6453 
   -3924   -12225   -19372   -26226   -32931   -39517   -45566   -50626 
  -54908   -58614   -61549   -63559   -64430   -63832   -61570   -57397 
  -50872   -41719   -30067   -16891    -4401     6041    16042    27225 
   38268    47772    56227    63801    70502    77217    82962    84477 
   80489    72343    61437    50174    41392    34273    26796    20773 
   17203    12997     7227      981    -6957   -16357   -24534   -30902 
  -36402   -41057   -44869   -48568   -52948   -58203   -63375   -66838 
  -67910   -66631   -62307   -54571   -45165   -36850   -31411   -28490 
  -25267   -19377   -11565    -3384     4591    11954    18819    26017 
   33393    38632    39703    37566    33893    29139    24887    23193 
   23359    23962    25566    27873    29020    28750    27264    23944 
   20177    18195    17633    17332    17170    16852    16424    16235 
   15107    11712     6928     2251    -2420    -7280   -11307   -14569 
  -18295   -22441   -26345   -29783   -32521   -34635   -36051   -36668 
  -37683   -39302   -38944   -35334   -30051   -24300   -18951   -15318 
  -12749    -9012    -3638     2575     9074    14818    19562    24216 
   28417    31634    34935    38773    42256    44842    46109    45231 
   42234    38130    33021    25955    17388     9886     4995      981 
   -4000    -9491   -15330   -21683   -27943   -34311   -40535   -45019 
  -47125   -47687   -47880   -48126   -47555   -45426   -42199   -37822 
  -31268   -22939   -14736    -7658    -1648     3267     7584    12306 
   17267    21620    26003    31895    39742    49204    58999    66630 
   70344    70083    66915    62451    57141    49905    40402    30167 
   21003    13624     7936     3080    -2022    -7447   -12636   -17442 
  -22905   -30396   -39772   -49708   -58430   -64731   -68843   -70679 
  -69774   -66719   -61688   -54101   -44601   -34299   -23337   -13007 
   -5737     -877     4480    10735    16538    21271    24274    25258 
   25795    27865    30758    32128    32046    31954    31712    30840 
   29006    25416    19845    13076     6679     2235      407      795 
    1923     2326     1472     -804    -4093    -8025   -13529   -20542 
  -27240   -33237   -39094   -43661   -45058   -42172   -34931   -24538 
  -13221    -3354     4090     9720    14332    18647    23089    27457 
   31494    34865    37466    39626    40856    40062    37174    33288 
   30080    28472    27518    26343    25265    24187    22859    21035 
   17415    11117     2824    -6648   -16713   -26430   -34966   -41932 
  -47190   -50787   -52764   -53173   -52024   -49077   -44383   -38419 
  -31569   -24536   -17980   -11916    -7003    -4228    -2949    -1633 
     533     3408     6096     7946     9697    12773    17188    21294 
   23618    23889    23052    22549    23419    25888    29011    31962 
   34700    36371    35826    32556    25925    16117     4806    -6093 
  -15043   -21560   -26512   -30639   -34165   -37330   -39530   -39267 
  -36084   -31581   -27230   -22763   -18273   -15044   -13497   -12814 
  -12191   -11133    -9811    -9211    -9277    -8502    -6084    -1981 
    3954    11242    19044    26727    33041    37099    39465    39888 
   37436    33471    30393    28715    27445    25339    20893    13408 
    4303    -4315   -10972   -15279   -18534   -21683   -23872   -24259 
  -23041   -21030   -18925   -16703   -14361   -12043    -9274    -6102 
   -3701    -2508    -1977    -2216    -3632    -5833    -8421   -11253 
  -13261   -13077   -10692    -7161    -3731    -1293      575     3045 
    6046     8583    10218    10829    10771    10945    11279    11103 
   10647     9904     8210     6030     4206     2527     1453     1998 
    3319     3739     3056     1911      228    -2334    -5362    -8055 
   -9410    -8613    -6640    -5714    -6382    -7125    -6658    -5036 
   -3123    -1543       37     2070     4306     6253     7334     7244 
    6635     6420     7013     8507    10505    12229    13215    13130 
   11700     9637     8410     8797    10103    10759     9806     7119 
    2889    -1755    -5481    -8442   -11072   -13419   -16260   -19926 
  -23506   -26482   -29185   -31762   -33517   -33281   -30099   -23500 
  -14420    -5196     2682     9023    13483    16335    18608    20479 
   22434    25658    29458    32138    33331    32734    29550    24327 
   18387    12016     5749     1266     -540     -314      862     2085 
    2821     2887     1602    -2027    -7225   -11939   -15907   -19888 
  -23619   -26802   -29045   -30122   -31379   -33311   -34406   -33914 
  -31895   -28260   -23853   -19746   -15561   -10266    -3856     2902 
    9863    17354    25037    32221    38511    43553    47468    50774 
   53172    53612    51312    46170    38749    30164    22134    16456 
   13317    10739     6740     1067    -5703   -12681   -18968   -25064 
  -31637   -37856   -43239   -48134   -52070   -54342   -55378   -55976 
  -56011   -54955   -52542   -48224   -41384   -32115   -21162   -10246 
   -1775     3882     8797    14038    19211    24749    31414    39089 
   47144    54810    61321    66141    69093    70071    68566    63875 
   55648    44528    32829    23485    17344    12973     9541     7122 
    4714      283    -7973   -20004   -33569   -46502   -57655   -65958 
  -70702   -71941   -70021   -65650   -59833   -53320   -46696   -40228 
  -33380   -25512   -16438    -6137     4681    14511    22646    29408 
   34912    38632    39877    39353    39380    41274    45069    50600 
   55879    58333    57808    54627    48192    39197    29894    21855 
   14975     8865     3527    -1999    -9128   -17851   -27465   -37633 
  -47660   -56369   -62742   -66623   -69006   -70866   -72274   -72424 
  -69689   -63077   -53385   -41740   -29041   -17058    -7330      685 
    8054    14662    20528    25940    30823    35469    40174    44864 
   49243    52527    54194    54224    52699    50422    48257    45495 
   40851    34677    27951    20162    11090     2658    -3873    -9531 
  -14925   -19830   -24694   -29432   -33639   -37899   -42381   -46928 
