Origin Time       2025/01/13 21:19:00
Lat.              31.8
Long.             131.6
Depth. (km)       30
Mag.              6.9
Station Code      MYZ016
Station Lat.      31.6131
Station Long.     131.3745
Station Height(m) 9
Record Time       2025/01/13 21:19:39
Sampling Freq(Hz) 100Hz
Duration Time(s)  147
Dir.              U-D
Scale Factor      7845(gal)/8223790
Max. Acc. (gal)   28.144
Last Correction   2025/01/13 21:19:39
Memo.             
[...]
   14899    14897    14886    14878    14877    14883    14889    14887 
   14881    14883    14895    14898    14890    14879    14872    14878 
   14889    14898    14899    14895    14893    14887    14878    14879 
   14882    14886    14893    14893    14883    14879    14885    14893 
   14895    14890    14883    14879    14879    14889    14895    14891 
   14889    14889    14885    14882    14886    14894    14894    14887 
   14882    14877    14879    14889    14893    14894    14889    14885 
   14886    14885    14882    14885    14887    14889    14891    14891 
   14887    14887    14889    14887    14889    14893    14895    14897 
   14898    14904    14910    14909    14905    14895    14883    14878 
   14870    14845    14823    14839    14910    15006    15071    15057 
   14952    14808    14715    14716    14777    14813    14754    14671 
   14755    15079    15483    15728    15681    15364    14908    14531 
   14422    14566    14789    14917    14878    14716    14608    14667 
   14824    14976    15091    15115    14989    14751    14585    14661 
   14860    14877    14661    14450    14377    14362    14401    14693 
   15252    15723    15846    15716    15444    15067    14797    14790 
   14748    14289    13668    13608    14339    15228    15541    15321 
   15134    15130    14936    14504    14324    14647    15129    15384 
   15412    15383    15373    15431    15550    15651    15668    15583 
   15452    15400    15500    15670    15631    15176    14719    14924 
   15587    15866    15639    15668    16501    17817    18735    18603 
   17521    16127    14920    14072    13828    14369    15275    15759 
   15431    14692    14478    15404    16835    17251    15939    13950 
   12972    13506    14362    14168    13265    13188    14354    15531 
   15589    14755    14038    13868    13711    13155    12667    12914 
   13811    14370    13641    11938    10590    10550    11794    13410 
   13933    12839    11605    11821    13130    14378    15218    15364 
   14102    11909    11020    13023    16879    19980    20537    18837 
   16521    14763    13645    13144    13630    15044    16436    16730 
   15566    13622    12270    12264    12798    12806    12704    13319 
   14133    14419    14534    14828    15315    16383    17786    18125 
   16862    15252    14547    14875    15812    16746    17232    17311 
   16645    14739    12842    13189    15720    17871    17836    16340 
   15191    15153    15368    14867    14185    14179    14130    13034 
   11908    12831    15843    18366    18168    16031    14786    16015 
   18308    18765    16127    12332    10404    10980    12151    12636 
   12846    12810    12163    12089    14243    17961    20409    19570 
   16212    12973    12190    14273    17257    18488    17304    15475 
   14983    16071    17509    18092    17302    15473    14071    14463 
   15846    16035    14220    11448     9293     8887    10139    11993 
   13940    16029    17574    17701    16862    16348    16468    16066 
   14231    12145    11817    13158    14358    14767    15276    16194 
   16492    15538    14457    14566    15215    14744    12901    11140 
   11053    12880    15294    16727    16811    16167    15299    14650 
   15182    17321    19541    19390    16444    13412    13116    14975 
   16379    16584    16672    16804    16233    15210    14986    16220 
   17955    18266    16371    13895    13158    14204    14612    12799 
   10358     9991    12241    15395    17598    18073    17010    15313 
   14349    15075    16741    16904    14103    10408     9437    11738 
   14453    15418    15121    14843    14989    15257    15446    15722 
   16044    15873    14675    12484    10258     9686    11515    14146 
   15439    15438    15661    16661    17671    17442    15377    12896 
   12285    13721    15221    15157    13435    11151     9809    10223 
   12085    14424    16191    17061    17797    18909    19454    18526 
   16983    16083    15904    16046    15894    14782    13354    12964 
   13578    14092    14243    14963    16749    18654    19321    18330 
   16360    14693    14283    14605    14095    12366    11245    12513 
   15156    16366    14963    12518    11175    11294    11668    11646 
   12255    14925    19111    21798    20748    17528    15368    15026 
   14832    13946    13608    14953    17037    17923    16939    15129 
   13813    13188    12739    12453    12684    13305    13590    12899 
   11813    12025    13971    15682    15668    15137    15337    15156 
   13537    12015    13080    16827    20239    20406    17783    15257 
   14662    15002    14341    13085    13286    14538    14239    12463 
   12387    15252    18126    17523    13697    10395    10758    14272 
   17706    18497    16923    15057    14384    14701    15110    15566 
   16325    16460    15080    13198    12575    13663    15434    16465 
   16227    15354    14613    14373    14756    15229    14796    13477 
   12507    12726    14100    16110    17416    16713    14763    14114 
   16191    19507    21050    19214    15402    12463    11637    12052 
   12781    13545    13775    12822    11350    11389    14207    18532 
   21595    21479    18230    13965    11821    13198    16119    17490 
   16555    15026    14262    13940    13668    13791    14215    14377 
   14427    15137    16667    18114    18524    17543    15124    12303 
   11516    13790    16919    18134    17142    15894    15997    16695 
   16290    14870    13583    12330    10471     8881     9201    11441 
   13845    14836    14181    13042    13213    15032    16540    16160 
   14758    13725    13132    12988    14332    17365    19876    19302 
   15682    11635     9886    11010    13059    13548    12348    11681 
   12904    14708    15022    13721    12468    12326    12896    13689 
   14944    16742    18333    18800    17712    15453    13620    14189 
   17278    20468    21155    19180    16564    15007    14152    12533 
   10245     9521    11489    13670    13028    10740    10940    14905 
   19332    20430    17834    14619    13814    14959    15485    15223 
   16425    19307    21135    20173    17464    14785    13486    14345 
   16216    16831    16191    16083    16406    15763    14372    12927 
   10947     8533     7028     6976     7928     9798    12438    15056 
   17126    18526    18805    17613    15333    12915    11669    12528 
   14975    17602    19710    21280    21666    19942    16652    13882 
   13196    14173    15419    16241    16573    16264    15560    15364 
   16160    17373    17957    17185    15628    15201    16748    18528 
   18570    17015    15072    13298    11898    11356    11840    12780 
   13486    14230    16141    19253    21605    21292    18747    16146 
   14823    14538    14740    14716    13748    12525    12494    13551 
   14750    16371    18603    19766    18307    15141    12386    10844 
   10092    10129    11196    12565    12852    11377     8991     7577 
    8249    10073    11279    11456    11454    11666    12029    12729 
   13209    12391    11028    11207    13101    15111    16904    19103 
   20704    20062    17794    16190    16178    16765    17057    17043 
   16802    16248    15666    16183    18813    22407    24062    22449 
   19611    18711    20544    22839    22619    19209    15084    13011 
   12841    12556    11365    10231    10405    11912    13053    12401 
   10627     9074     8338     8691     9915    11323    12895    15234 
   17984    19815    20533    21443    23229    24987    25304    23784 
   21578    20104    19373    18000    15309    12731    11813    12264 
   13197    13860    12876     9864     7223     7530    10451    14002 
   16413    15952    12305     8202     6844     8357    10129    10012 
    8634     8112     9315    11627    13960    15117    14531    12545 
    9641     6593     4947     5871     9004    12958    16324    18419 
   19616    20989    23296    26018    27581    26786    24046    21346 
   20445    21042    21486    20833    19457    18362    17890    16879 
   14359    11700    10725    10798    10706    11458    14197    17118 
   16849    12565     7234     4233     3879     4122     3577     2914 
    3879     7094    10647    12019    11065     9860    10080    11350 
   12534    14127    17555    22141    24943    24235    21774    20731 
   22096    24132    24915    24102    22212    19834    18052    17868 
   18409    17566    15202    13610    13991    14935    15029    14513 
   13818    12884    11940    11128    10116     9103     9225    11134 
   13801    15736    16889    17955    18598    18056    16555    14953 
   13741    12914    12441    12426    12910    14048    15911    17896 
   19079    18762    17190    16430    18366    21340    21523    17683 
   12858    11088    12826    14544    13451    10498     7962     6525 
    5952     6444     8279    11387    15064    17892    18936    18693 
   18551    19579    21483    22505    21203    18544    16397    14931 
   13821    13703    14724    15938    16834    17760    18812    19410 
   18914    17338    15654    15088    15757    16393    15538    12695 
    8802     6253     7303    11179    14015    12970     9564     7913 
    9764    12591    13471    12881    13043    14404    15684    16154 
   16015    15628    15526    15742    15381    14158    13238    13767 
   15441    16991    17694    17594    16592    14809    13212    12150 
   10315     6794     3230     2200     4097     7399    10786    13123 
   13463    12598    12842    15441    19122    21748    22684    22632 
   22079    21266    20966    22071    24322    26177    26412    25396 
   24345    23935    23971    23859    23041    21196    18481    15724 
   13953    13338    12742    11134     8941     6836     4876     3689 
    3916     4758     5247     5606     6419     7840    10030    13298 
   16908    18862    18365    17136    17142    18526    20424    22272 
   23541    23364    21289    18031    15202    14122    14600    15203 
   14740    13266    11811    10936     9964     8205     6405     6488 
    9432    13543    16147    16767    17116    18509    20715    22916 
   24409    24490    22906    20513    18553    17543    17271    17140 
   16312    14283    11722    10135    10184    11090    11885    11988 
   10882     8584     6242     5584     7369    10399    12604    13159 
   13254    14712    17899    21251    22908    22447    20796    19140 
   18617    19948    22299    23598    22496    19187    14665    10458 
    8437     9432    12280    14936    16463    17433    18288    18778 
   19010    19155    18616    17028    15145    13589    12081    10779 
   10596    11516    12121    11325     9663     8244     7240     6054 
    4429     2955     2371     2722     3732     5377     7408     9135 
    9888     9269     7591     6204     6674     9410    12862    14570 
   13848    12590    12934    14878    16605    16877    16471    17024 
   19186    22288    25147    26927    27864    28788    29670    29575 
   28124    26175    24861    24455    24432    24119    23438    23325 
   24506    25915    25712    23839    22063    21377    21081    20378 
   19357    18439    17629    16390    14284    11888    10459    10308 
   10451    10103     9643     9886    10860    11584    10978     9161 
    7735     7851     8359     7211     4245     1314      -32       13 
     411      742     1443     2914     5124     7855    10417    11651 
   11557    12243    15520    20147    23187    23242    21338    19399 
   18604    19048    20402    22264    23973    24663    24071    23071 
   22894    23889    25155    25334    23604    20152    16201    13293 
   12050    11830    11715    11500    11697    12575    13521    13798 
   13192    11870    10693    10829    12182    13373    13532    13074 
   12610    12073    11291    10416     9460     8294     7183     6578 
    6196     5103     3476     3318     5772     8841     9907     8976 
    7739     7403     8575    11310    14647    17439    19678    22019 
   24278    25573    25617    24732    23237    21479    19969    19292 
   19561    19934    19508    18342    17086    16375    16394    16702 
   16897    17118    17540    18023    18605    19878    22142    24472 
   25434    24576    22856    21490    20785    20394    19932    19105 
   18149    17698    17447    16183    13612    10679     8424     7271 
    6581     5362     3971     3627     4187     4090     2600     1213 
    2640     8019    15269    20784    22408    20528    17145    14420 
   13594    14642    16418    17335    16681    15179    13844    12974 
   12348    11707    11001    10535    10671    11103    11379    12140 
   14195    16703    17918    17447    16206    14662    12938    11766 
   11765    12749    14175    15842    17770    19506    20536    20829 
   20344    18952    16908    15138    14806    15993    17215    16978 
   15167    12421     9217     6184     4402     4608     6421     8540 
    9693     9929    10612    12455    14517    15734    16271    16883 
   17564    17705    17444    17686    18808    20306    21267    20927 
   19577    18763    19471    20503    20075    18353    17170    17720 
   19481    21450    23356    24916    25191    24016    22959    23638 
   25980    28424    29072    26929    22724    18265    14727    11934 
    9356     7287     6354     6118     5479     4085     2189     -120 
   -2855    -6022    -9636   -13008   -14616   -13356    -9738    -5533 
   -1922     1456     5174     9266    14133    19970    25305    28537 
   30365    32324    34246    35236    35627    36427    37828    39179 
   39502    37562    32860    27125    23020    21042    19357    16884 
   14589    13313    12316    10570     8505     7859     9634    12577 
   14327    14096    13389    13423    13286    11881     9909     8537 
    7392     5651     4318     5142     7695     9737    10269    10243 
   10111     9113     7304     5692     4426     2883     1277      961 
    3249     8368    15028    20586    22815    22065    20883    21666 
   24495    26956    26715    23664    19611    17058    17275    18935 
   19800    19768    20571    22454    23583    23060    21897    20930 
   20210    19997    20660    21760    22010    20375    16935    12869 
    9759     8008     6706     5678     5768     7086     8737    10014 
   10964    11772    12118    11847    11709    12379    13493    14790 
   16627    18203    17799    15662    13913    13301    12324    10112 
    8550     9788    13355    17674    21919    25429    27295    26802 
   24376    21818    20170    18401    16027    14897    16310    18725 
   19831    18835    16368    13759    12325    12519    13718    14814 
   14737    12910    10072     8159     8299     9580    10724    11820 
   13635    16367    19489    21756    21556    18658    15404    14763 
   17128    19699    19356    15826    11527     9246    10566    15111 
   20537    24077    24545    22727    20274    18188    16100    13243 
    9632     5861     2647      685       -9     -252     -137     1530 
    4919     7582     7543     6718     7834     9431     8365     5476 
    4340     6189     9366    11943    13238    14112    16285    20335 
   24394    26241    26646    28027    30296    31486    30967    29014 
   25702    22204    20536    21251    22960    23954    23452    21701 
   19251    15961    11618     7462     5294     5001     4345     1837 
   -1084    -2155    -1534    -1051    -1277    -1316     -575      909 
    2706     3921     4232     4853     7138    10698    14224    17597 
   21521    25404    27504    27286    26323    26759    28876    30802 
   31442    31918    33220    34433    34410    33820    33897    34365 
   34225    33544    32888    31568    28490    24501    21621    20178 
   18823    16887    14424    10710     5383      270    -2231    -1945 
    -780     -429    -1281    -2803    -3700    -2332     1636     5977 
    7612     6277     4861     5354     6744     7834     9298    11693 
   13566    13081    11003    10377    12839    16785    19602    20567 
   21039    22416    24645    26505    26892    25655    23504    21513 
   20524    20875    22527    25041    27564    29064    28726    26608 
   23963    22100    20625    17941    13718     9737     7753     7495 
    7758     8310     9432    10810    11749    11588    10218     8907 
    9251    10713    10967     9085     6879     6566     8575    11881 
   14805    16055    15673    14393    13347    13807    14979    13983 
   10027     6269     6021     8699    10937    10926    10023    10045 
   10922    11772    12397    12833    13100    13825    15728    18301 
   19818    19249    17837    18037    20796    24209    25633    25184 
   25219    26180    25944    23626    21001    19692    19016    17254 
   14115    11074     9250     8135     7133     6515     6277     6131 
    5935     5128     3526     2350     2633     3693     4260     3790 
    2629     2014     3271     6463    10297    13216    14523    14845 
   15218    15843    16470    17350    18802    20174    20579    20592 
   21594    23774    26102    27884    29332    30495    30388    27857 
   23112    17923    14056    11746     9865     7523     5566     5709 
    7668     8924     8298     7627     8576    10017     9888     7847 
    5904     7080    12109    17922    20925    20822    20024    20237 
   21037    21172    19869    17601    16195    16927    18669    19218 
   17982    16443    16293    17528    18654    18357    16356    13880 
   13478    16175    19515    20464    18752    15979    13382    11599 
   11064    11672    12652    13394    14224    15503    16297    15313 
   13116    11777    12097    13081    13879    14571    15854    18381 
   21334    22512    21311    20015    20494    21645    21635    20665 
   20146    20520    21313    22522    24398    26134    26183    24133 
   21398    19834    19662    19106    16950    14189    11762     9107 
    6492     5599     6597     7294     5683     1890    -2084    -4197 
   -3954    -1921     1169     3923     4749     4167     4765     7769 
   11654    14274    14729    14100    14797    18018    22808    27592 
   30739    30892    28791    27220    27877    29787    31009    30427 
   28015    24104    18975    13626     9850     8471     8140     6724 
    3717      811       49     1628     3669     4369     3607     2197 
    1101     1480     3894     7527    11047    13686    15022    14725 
   13270    12220    13080    15741    18385    19546    19750    20186 
   20798    20819    20166    19494    19454    20204    21675    23851 
   26451    28645    29382    28580    27756    28275    29455    29516 
   27475    23579    19133    15697    13659    12464    11969    12181 
   12366    11743    10424     8947     7928     8252    10050    11950 
   12403    10953     8287     5773     4149     2724      934     -238 
      56      850     1135     1408     2046     2658     3573     5848 
    9683    13617    15415    14197    11570    10111    11086    13738 
   16409    18306    19997    22194    24478    25710    25562    24711 
   23718    22752    22037    21774    21757    21427    20158    17830 
   15511    14709    15808    17940    19745    20322    20151    20318 
