Origin Time       2025/01/13 21:19:00
Lat.              31.8
Long.             131.6
Depth. (km)       30
Mag.              6.9
Station Code      MYZ019
Station Lat.      32.5008
Station Long.     131.4444
Station Height(m) 142
Record Time       2025/01/13 21:19:46
Sampling Freq(Hz) 100Hz
Duration Time(s)  104
Dir.              E-W
Scale Factor      7845(gal)/8223790
Max. Acc. (gal)   14.564
Last Correction   2025/01/13 21:19:45
Memo.             
[...]
   10166    10169    10165    10166    10169    10168    10166    10168 
   10169    10169    10168    10166    10165    10168    10169    10166 
   10166    10166    10168    10169    10169    10169    10168    10165 
   10165    10168    10169    10169    10165    10165    10168    10169 
   10169    10168    10165    10165    10168    10169    10168    10168 
   10168    10166    10168    10166    10166    10169    10168    10165 
   10166    10169    10169    10169    10168    10166    10166    10169 
   10170    10169    10168    10165    10166    10166    10166    10168 
   10170    10168    10165    10164    10165    10169    10172    10169 
   10166    10166    10169    10173    10176    10174    10170    10173 
   10176    10176    10177    10174    10173    10173    10172    10172 
   10173    10169    10166    10166    10165    10166    10172    10176 
   10176    10174    10176    10180    10187    10189    10191    10188 
   10184    10181    10184    10185    10179    10169    10166    10166 
   10165    10162    10154    10138    10119    10115    10133    10161 
   10181    10177    10160    10149    10156    10172    10189    10206 
   10207    10199    10204    10216    10203    10156    10103    10081 
   10118    10185    10219    10192    10139    10087    10042    10042 
   10114    10227    10308    10296    10206    10134    10131    10166 
   10203    10239    10254    10219    10157    10139    10200    10253 
   10185    10033     9968    10077    10251    10335    10297    10191 
   10075    10003    10012    10120    10296    10428    10395    10223 
   10106    10139    10237    10289    10257    10206    10228    10268 
   10241    10214    10224    10181    10096    10088    10184    10312 
   10401    10396    10297    10166    10089    10142    10311    10476 
   10521    10435    10270    10129    10108    10220    10328    10278 
   10089     9942     9972    10162    10358    10346    10110     9903 
    9907    10044    10184    10281    10315    10303    10292    10282 
   10227    10143    10112    10130    10127    10146    10250    10296 
   10112     9829     9718     9834    10006    10098    10126    10158 
   10164    10068     9949     9963    10062    10112    10147    10253 
   10347    10322    10239    10223    10201    10037     9786     9628 
    9711    10011    10247    10264    10281    10424    10444    10180 
    9886     9910    10270    10652    10820    10849    10847    10719 
   10415    10089     9902     9861     9944    10149    10380    10393 
   10089     9714     9562     9687     9956    10164    10253    10419 
   10696    10671    10164     9679     9678     9973    10157    10147 
   10120    10112     9988     9807     9880    10230    10449    10297 
   10061    10080    10257    10258    10021     9801     9853    10176 
   10563    10804    10737    10326     9786     9487     9651    10120 
   10443    10326     9903     9552     9616    10080    10528    10597 
   10324     9987     9823     9877     9964     9977    10061    10274 
   10442    10451    10362    10233    10014     9755     9703     9992 
   10390    10627    10655    10565    10519    10606    10648    10517 
   10345    10255    10299    10424    10449    10405    10458    10400 
   10045     9687     9598     9744    10022    10255    10426    10628 
   10516     9865     9354     9585    10262    10872    11136    10964 
   10521    10046     9724     9802    10324    10963    11323    11156 
   10567    10042     9828     9736     9747    10088    10682    11130 
   11105    10566     9865     9377     9165     9283     9694    10021 
   10145    10400    10733    10611     9973     9437     9553    10235 
   10794    10741    10305     9899     9684     9721     9996    10314 
   10347    10002     9686     9833    10134     9998     9637     9690 
   10125    10498    10635    10520    10153     9694     9468     9679 
   10157    10457    10287     9898     9819    10204    10613    10594 
   10354    10459    10856    10859    10268     9763     9941    10497 
   10740    10498    10083     9697     9346     9119     9217     9585 
    9787     9605     9458     9896    10868    11726    11723    10732 
    9644     9350     9645    10057    10535    10814    10547    10039 
    9841     9809     9329     8517     8367     9309    10474    10854 
   10521    10268    10453    10740    10791    10692    10696    10908 
   11172    11223    11025    10709    10223     9535     8962     8949 
    9568    10273    10405     9981     9618     9713     9977    10004 
    9940     9998     9946     9752     9933    10755    11659    11840 
   11217    10500    10080     9497     8587     8131     8700     9818 
   10581    10523     9973     9684     9994    10635    11288    11740 
   11726    11114    10268     9833     9972    10153     9968     9599 
    9401     9609    10251    10929    11142    10766     9936     8957 
    8371     8748    10197    11720    11961    11014    10137    10035 
   10272    10018     9497     9844    11055    11781    11298    10133 
    9159     8953     9373     9868    10389    10960    11025    10509 
   10308    10871    11519    11340    10161     8969     8972     9873 
   10242     9591     8630     8140     8525     9539    10542    11299 
   11704    11568    11296    11387    11414    10762     9705     8922 
    8827     9540    10470    10566     9740     8854     8422     8598 
    9512    10665    11188    10890    10224     9764     9860    10314 
   10593    10378     9809     9502     9919    10697    11036    10527 
    9595     9119     9321     9506     9296     9369    10247    11261 
   11581    11281    10840    10611    10814    11392    11963    12071 
   11452    10304     9332     9159     9634    10054     9975     9622 
    9423     9275     8968     8779     8874     8965     8897     8874 
    9197    10031    11060    11477    10932    10133     9871    10054 
   10123    10008    10133    10450    10427    10019     9556     9161 
    8843     8637     8831     9799    11018    11395    10866    10408 
   10650    11340    11781    11545    10894    10450    10459    10501 
   10250    10129    10365    10361     9755     8989     8735     9189 
    9792    10052    10274    10810    11326    11446    11327    11223 
   11368    11920    12340    12010    11164    10208     9297     8633 
    8245     8044     8085     8237     8301     8349     8392     8471 
    8986    10164    11658    12814    13127    12733    12206    11921 
   11848    11681    11168    10440     9834     9447     9163     8961 
    8887     8976     9159     9177     8945     8749     8843     9375 
   10320    11209    11535    11298    10935    10994    11394    11225 
   10228     9406     9364     9576     9549     9170     8479     7927 
    7867     8137     8718     9714    10621    10759    10277     9909 
   10080    10766    11578    11904    11535    10847    10187     9748 
    9686     9767     9459     8607     7654     7371     8230     9687 
   10486    10017     8937     8430     9088    10413    11522    12137 
   12498    12858    13213    13162    12478    11545    10733    10131 
    9902    10019    10103    10015     9975     9922     9540     8866 
    8282     8120     8637     9884    11371    12333    12421    11826 
   11037    10478     9965     9217     8927     9867    11263    11610 
   10597     9266     8646     8862     9234     9057     8603     8602 
    9036     9655    10527    11311    11489    11314    11346    11689 
   12102    12164    11514    10507     9869     9747     9880    10069 
   10056     9776     9536     9386     9185     9348    10162    10875 
   10852    10336     9734     9443     9545     9633     9865    10729 
   11661    11701    10906     9999     9347     8799     8106     7369 
    7163     7846     8999     9972    10519    10939    11800    13061 
   13829    13428    12263    11487    11784    12509    12637    12237 
   11819    11146    10037     9034     8617     8777     9077     9047 
    8954     9283     9678     9578     9227     9148     9358     9562 
    9605     9740    10428    11362    11535    10872    10359    10388 
   10450    10212     9815     9427     9196     9337     9806    10161 
    9938     9101     8311     8461     9616    10910    11573    11385 
   10527     9491     8783     8761     9580    10763    11419    11103 
   10149     9400     9444     9903     9833     9027     8530     9382 
   11183    12556    12645    11664    10365     9497     9340     9622 
   10146    10878    11249    10647     9528     8861     8792     8777 
    8496     7942     7375     7407     8132     8955     9734    10531 
   10840    10461    10010    10030    10485    10959    11086    10947 
   10921    11246    11735    11892    11593    11330    11435    11704 
   11804    11533    10966    10538    10458    10347     9888     9232 
    8587     8082     7889     8145     8803     9582    10261    10643 
   10369     9759    10012    11314    12372    12502    12166    11566 
   10636     9850     9699    10077    10590    10851    10775    10771 
   11097    11307    10943    10281     9871     9763     9609     9109 
    8405     8198     8843     9720    10219    10577    11122    11627 
   11651    11152    10652    10581    10632    10215     9354     8837 
    9200     9990    10578    10871    10887    10517     9917     9647 
   10118    10987    11564    11565    11263    10944    10388     9579 
    9363    10176    11038    10802     9580     8391     7974     8125 
    8041     7757     8399    10134    11638    12127    11866    11137 
   10238     9676     9690    10149    10633    10505     9759     9417 
   10154    11207    11496    10947    10147     9760    10135    10805 
   11032    10818    10747    11221    11928    12052    11375    10639 
   10409    10342     9927     9436     9424     9761    10052    10195 
   10008     9556     9373     9567     9714     9526     9140     9126 
    9900    11013    11508    11026    10100     9243     8600     8619 
    9715    11153    11604    10817     9842     9879    10921    11414 
   10467     9502     9841    10562    10355     9541     9281    10125 
   11539    12339    12089    11676    11797    11904    11267    10320 
   10241    11492    13462    14964    14879    13155    10939     9443 
    9259    10188    11215    11531    11322    10818     9980     9359 
    9389     9459     9115     8961     9595    10497    10523     9529 
    8688     8722     8904     8617     8749    10330    12648    13833 
   12849    10520     8901     9466    11619    13386    13551    12506 
   11614    12226    14104    15182    14207    12506    12141    13362 
   14740    15288    15334    15304    14956    14326    13921    13593 
   13055    12822    12984    12762    11827    10546     9591     9676 
   10782    12033    12456    11520     9620     7906     7114     7006 
    7028     6870     6658     6894     7843     8985     9331     8375 
    7083     7272     9479    12364    14200    14135    12698    11477 
   11360    11493    10951    10088     9420     8885     8599     8785 
    9116     9212     9077     8538     7723     7654     8586     9289 
    9146     8749     8359     7890     7820     8534     9281     8988 
    7847     7038     7249     7994     8009     6571     4787     4681 
    6629     8911     9979     9653     8699     8429     9400    10457 
   10446     9679     8896     8391     8417     8942     9081     7971 
    5938     4257     3896     4810     6327     7688     8627     9437 
    9929     9485     8475     7981     8172     8488     8891     9563 
   10180    10184     9321     8117     7622     8325     9694    10617 
   10548    10077     9703     9089     8070     7118     6750     7107 
    7978     9130    10470    11673    12064    11418    10466    10091 
   10459    11280    12348    13431    14139    14662    15780    17400 
   18468    18442    17730    17157    17082    16798    15665    14419 
   14207    15120    16352    17020    17041    17176    17439    16860 
   15350    13837    12892    12397    11950    11631    12031    12960 
   13336    12741    11888    11589    11624    10989     9672     8889 
    9008     9300     9369     9053     8209     7366     7033     6820 
    6262     5502     4681     3624     2307     1094      639     1395 
    2980     4248     4271     3316     2377     2011     2397     3589 
    5101     6281     7211     8496    10099    11129    10975     9936 
    8758     8040     7873     8013     8383     8941     9281     8958 
    8174     7506     7157     7292     8330    10166    11850    12291 
   11333    10149    10196    11777    13825    15114    15364    14953 
   14497    14592    15064    15340    15525    15931    16217    15897 
   15209    15006    15723    16795    17356    17130    16472    15637 
   14210    11634     8079     4506     2037     1231     1809     2968 
    3928     4537     5352     6756     8275     9130     9236     9290 
    9910    10903    11403    10912     9917     8827     7353     5675 
    4708     4942     6015     7053     7348     6922     5946     4388 
    2782     1823     1273      623     -108     -881    -1603    -1854 
   -1282       98     2138     4673     7248     9151     9904     9613 
    8753     7600     6220     4992     4573     5232     6386     7130 
    6963     5753     3820     2307     2305     3647     5456     7084 
    8357    10112    13475    18126    22511    25199    25434    23398 
   20353    17991    16991    16537    15484    13363    10404     7361 
    5356     5400     7476    10251    12082    12376    11834    11337 
   11210    11511    12063    12376    12235    11974    11854    11635 
   11175    10751    10705    11277    12518    14266    16247    17999 
   19164    19857    20231    20069    19365    18732    18711    19237 
   19642    18887    16549    13501    11059    10008    10363    11168 
   11082     9914     8662     8145     8615     9838    11056    11782 
   12237    12407    11734    10455     9972    11249    13807    16156 
   16914    16224    15325    14418    12796    10611     8503     6585 
    5055     4540     5277     6627     7445     7025     5630     4190 
    3289     2365      824     -581    -1027     -873     -483      427 
    1817     3342     4903     6130     6525     6238     5566     4715 
    4527     5543     6876     7743     8511     9586    10813    11848 
   12636    13660    15292    16767    16872    15822    15024    15126 
   15546    15485    14577    12912    11119    10191    10732    12428 
   14400    15866    16552    16777    16696    15723    13601    11484 
   11088    12748    14732    15053    13770    12748    13209    14418 
   15087    15125    15392    16218    16803    16305    14998    13917 
   13583    13385    12626    11846    11805    11842    10867     9204 
    7936     7377     7152     6928     6671     6570     6628     6532 
    6107     5661     5726     6313     6862     7299     8163     9475 
   10438    10195     8695     7024     6551     7508     8775     9121 
    8406     7446     7056     7416     8143     8719     8924     8742 
    8164     7345     6669     6538     7014     7809     8676     9648 
   10970    12552    13518    13227    12333    12046    12903    14260 
   14752    13779    12086    10692    10027     9976    10019     9586 
    8595     7427     6535     6446     7427     8865     9915    10471 
   10903    11668    13174    15238    17032    17879    17382    15387 
   12799    11276    11453    12488    13081    12245    10026     7728 
    6727     7510     9616    11601    12079    11079     9720     9084 
    9632    11053    12393    12669    11902    11070    10689    10558 
   10775    11523    12253    12289    11578    10490     9691     9684 
    9954     9693     9235     9559    10829    12318    13381    13776 
   13382    12252    10561     8569     6814     5447     3948     2519 
    2405     4143     6552     7985     8206     8340     8943     9364 
    9034     8287     7808     7967     8820    10269    12139    14006 
   14960    14319    12422    10255     8691     7933     7628     7551 
    7612     7758     8322     9482    10805    11998    12941    13204 
   12727    12060    11483    10990    10746    10800    10921    10866 
   10443     9533     8324     7362     7130     7546     8010     8066 
    7951     8309     9286    10130     9975     8784     7168     5844 
    5466     6088     6771     6696     6346     6728     8140    10135 
   12019    13234    13532    13209    13270    14582    16594    17747 
   17392    16499    16456    17667    19167    19638    18738    16918 
   14669    12683    11724    11715    11657    10720     9155     7898 
    7416     7422     7315     6536     5028     3419     2443     2353 
    2708     2714     2053     1070      411      730     2155     3933 
    5030     5314     5776     7242     9410    11325    12249    12120 
   11561    11419    11909    12351    12048    11018     9769     8977 
    9263    10650    12276    13069    12857    12533    12920    13936 
   14868    15079    14521    13473    11878     9763     7780     6616 
    6335     6501     6859     7657     9077    10866    12733    14428 
   15780    17055    18374    19016    18523    17613    16934    16379 
   15989    16046    16534    17258    17703    17097    15687    14953 
   15615    16600    16499    15057    13151    11924    11885    12461 
   12814    12918    13281    13918    14146    13370    11886    10536 
    9648     8892     7821     6254     4491     3061     2128     1478 
    1003      908     1432     2272     2382     1003    -1152    -2408 
   -1873     -205     1418     2613     3732     4874     5800     6555 
    7393     8482     9639    10258    10103     9741     9783    10282 
   10825    11055    11206    11901    13401    15115    16114    16322 
   16568    17311    18184    18650    18469    17761    16893    16243 
   16074    16318    16380    15654    14193    12549    11132     9936 
    8743     7582     6785     6477     6497     6914     8000     9572 
   10935    11615    11835    12287    13481    15102    16303    16671 
   16478    16159    15905    15496    14310    11896     8891     6806 
    6377     6708     6390     4996     3403     2633     2698     3029 
    3354     3680     4052     4561     5204     5929     6760     7566 
    7967     7693     6952     6453     6602     6764     6123     4941 
    4144     4139     4573     4857     4738     4283     3393     2077 
    1105     1085     1395     1320     1409     2709     5289     7955 
    9325     9201     8699     9028    10324    11735    12546    12775 
   12789    12879    13115    13441    13895    14628    15579    16364 
   16899    17556    18280    18435    17807    16896    16325    16303 
   16488    16221    15126    13572    12440    12336    13113    14100 
   14592    14220    13352    12891    13153    13432    13031    12040 
   10905     9961     9324     8657     7595     6566     6339     6952 
    7759     8090     7784     7365     7423     7954     8542     8739 
    8329     7642     7296     7518     8067     8514     8378     7558 
    6457     5505     5042     5225     5652     5764     5709     6205 
