Origin Time       2025/01/13 21:19:00
Lat.              31.8
Long.             131.6
Depth. (km)       30
Mag.              6.9
Station Code      MYZ004
Station Lat.      32.3888
Station Long.     131.3338
Station Height(m) 289
Record Time       2025/01/13 21:19:45
Sampling Freq(Hz) 100Hz
Duration Time(s)  110
Dir.              E-W
Scale Factor      7845(gal)/8223790
Max. Acc. (gal)   24.763
Last Correction   2025/01/13 21:19:44
Memo.             
[...]
     270      270      270      270      270      271      271      270 
     270      270      270      272      270      268      270      267 
     268      272      270      268      271      270      270      271 
     271      270      270      270      271      271      271      271 
     270      268      268      270      270      268      268      270 
     270      270      270      270      270      271      271      270 
     270      271      271      271      270      270      270      268 
     268      270      271      270      270      271      271      270 
     271      272      271      268      270      270      270      271 
     270      270      271      271      271      271      270      268 
     270      270      270      271      271      270      270      272 
     272      271      271      272      271      270      270      267 
     270      274      272      271      271      270      270      268 
     267      270      270      268      271      271      268      268 
     271      271      272      272      271      271      270      270 
     270      270      271      270      271      271      268      271 
     272      268      270      272      270      268      271      271 
     270      271      272      271      270      271      271      270 
     270      270      272      271      271      271      270      268 
     271      270      268      272      272      267      268      270 
     268      270      271      268      268      268      270      271 
     270      268      268      268      268      268      268      271 
     271      268      270      270      268      268      271      272 
     272      272      270      268      271      271      270      268 
     268      272      271      268      268      268      268      268 
     270      271      272      270      267      268      270      268 
     270      271      271      270      271      272      272      271 
     272      274      272      274      275      276      275      275 
     275      276      275      274      275      275      274      276 
     276      276      278      280      284      287      288      292 
     294      291      290      291      287      276      265      260 
     260      268      271      268      274      295      324      337 
     319      276      243      251      294      330      318      274 
     245      252      278      284      260      237      249      306 
     383      422      378      252      117       74      135      216 
     241      232      260      345      403      383      328      278 
     234      213      226      295      394      411      298      179 
     202      324      378      330      278      275      294      282 
     222      166      170      224      288      329      328      324 
     355      338      193       33       44      225      436      557 
     557      517      507      507      483      410      297      230 
     261      330      375      378      355      369      461      565 
     550      394      226      149      168      243      319      387 
     476      589      729      858      866      702      457      268 
     240      341      440      476      450      367      275      238 
     268      318      332      302      253      255      409      635 
     743      734      595      314      183      260      272      283 
     369      359      319      383      436      418      355      179 
    -149     -418     -306       18       89       18      102      216 
     415      807      936      577      182      -60     -309     -349 
    -153     -120     -101      203      429      340      264      402 
     517      376      206      267      396      398      199     -193 
    -499     -390       56      426      419      287      548      982 
     907      459      278      340      186     -190     -363     -209 
     -20      114      252      237      218      580     1012      999 
     769      670      508      137     -156     -202     -175      -51 
     286      472      152     -422     -753     -517      112      598 
     837     1005     1038      992     1004      835      247     -369 
    -376       33      236      399      816     1027      642       -6 
    -355     -352     -402     -541     -441       -6      635     1162 
    1200      884      689      807     1032     1109     1021      695 
      44     -363      -76      261      143      -47     -170     -484 
    -818     -877     -718     -395       60      407      579      730 
     765      459      -58     -301     -207     -351     -475      348 
    1711     2489     2327     1298      136     -207      -87     -163 
    -468     -916     -797      221      961      943      980     1305 
    1567     1368      668      141       97       55     -279     -739 
    -912     -592     -137      103      214      356      544      681 
     776     1062     1570     1942     1921     1467      853      513 
     433      286        0     -194      -71      175      101     -278 
    -446     -251     -139     -286     -352     -148      341      901 
     793      -76     -608     -255      442     1074     1455     1362 
    1000      781      931     1664     2424     1813     -129    -1313 
    -785     -133     -340     -538     -282      159      515      260 
    -311       -1      845      560     -940    -2070    -1775     -394 
     831      911      198     -186       71      341      180     -252 
    -652     -714     -210      511      685      265      -45      140 
     776     1259      695     -378     -658     -211      611     1698 
    1872      726     -209     -342     -448     -471     -171      -79 
    -271     -164      175      124      -97      346     1220     1499 
    1198     1189     1583     1829     1702     1116      252      -37 
     248      -97    -1016    -1269     -743       10      649      677 
     365      409      526      387      275      384      824     1501 
    1867     1539      886      548      361      -67     -207      135 
     213      137      384      541      557      936     1429     1463 
    1170      955      756      500      353      124     -155        4 
     240      -44     -348     -396     -679    -1100    -1331    -1413 
   -1196     -676     -201      109      114     -217     -346       67 
     745     1437     1910     1761     1047      422      118     -261 
    -702     -832     -753     -843    -1196    -1320     -796      -31 
     430      549      518      603      832      959     1004     1043 
     947      811      695      464      319      418      515      588 
     777      882      608     -124    -1047    -1606    -1534    -1008 
    -353        8      -31     -143      -76      346     1031     1279 
     858      395      164      -44     -299     -577     -735     -510 
      68      471      156     -634    -1158    -1026     -297      548 
     850      746      849     1019      931      874      886      652 
     349        9     -670    -1044     -345      815     1532     1661 
    1355      870      669      924     1070      627       94       59 
     305      664     1125     1239     1111     1205     1239      953 
     301     -621    -1108     -901     -498      -79      126     -155 
    -517     -652     -649     -469     -275     -147       97      193 
      18       41      238      159      -97     -135      180      596 
     650      353      152      149      210      279      193       -8 
     152      776     1206     1000      496      276      596     1213 
    1694     1831     1478      658      -67     -195      198      581 
     541      321       63     -468     -872     -687     -286       18 
     202      120       17      302      746      962      908      675 
     423      351      569      990     1402     1615     1405      768 
     148     -117     -139     -101      -74     -105     -151     -214 
    -432     -743     -882     -800     -660     -422       55      568 
     827      876     1027     1551     2054     1834     1059      315 
    -174     -194       52      128      272      459       44     -716 
   -1047     -942     -638     -283     -214     -518     -837     -822 
    -476     -187      -99      148      376       31     -436     -345 
      66      491      827      962     1047     1097      931      675 
     541      564      477      157      130      523      795      882 
     803      356     -228     -733    -1237    -1548    -1436    -1084 
    -696     -336      -52      253      691      958      831      749 
     907      743      171       -5      584     1255     1337      912 
     240     -603    -1297    -1282     -714     -352     -238        6 
     163       16      -72       -6     -203     -449       31      943 
    1259      816      129     -191      313     1015      905      403 
     317      518      876     1306     1233      619      217      218 
     114     -139      -32      708     1865     2803     2928     2247 
    1173      122     -473     -603     -643     -662     -523     -199 
     275      855     1510     1877     1609      999      340     -109 
      45      321       68     -224      -87      168      264      229 
     249      513      947     1251     1104      614      259       28 
    -276     -332       71      649     1031      935      417       -8 
     -54      -67     -472    -1121    -1378     -896      -35      537 
     456       20     -201     -247     -402     -278      314      677 
     502      345      365      187      108      526      770      386 
      67      114      -18     -369     -409      -43      387      718 
     805      203     -904    -1406    -1081     -824     -805     -649 
    -445     -117      380      521      355      530     1059     1717 
    2485     2964     2640     1620      735      831     1571     1896 
    1615     1123      629      456      560      373       70      253 
     665      773      546       78     -526    -1081    -1426    -1410 
    -861      253     1297     1364      714      345      440      564 
     399     -172     -741     -585      202      808      849      477 
      83       55      129     -318    -1216    -1923    -1958    -1217 
     -67     1044     1964     2424     2286     1915     1432      684 
     -33     -236      -75       10      388     1364     2118     2200 
    1999     1501      683      -28     -469     -842    -1198    -1279 
    -850     -341     -394     -749     -832     -662     -189      772 
    1613     1526      753      130      189      793     1105      569 
    -391    -1039     -931     -171      780     1580     1973     2039 
    2258     2695     3295     4143     4641     4212     3206     2170 
    1389      823      303       62      459     1476     2660     3420 
    3757     4131     4716     5401     5921     5941     5451     4595 
    3489     2713     2824     3426     3819     3889     3775     3547 
    3187     2475     1385      387      -71       81      627     1210 
    1699     2115     2326     2289     2169     1864      977     -372 
   -1521    -2168    -2220    -1561     -746     -662    -1336    -2104 
   -2907    -4113    -5323    -5935    -5919    -5190    -3771    -2305 
   -1503    -1352    -1150     -702     -762    -1521    -2400    -3190 
   -3665    -3528    -3073    -2554    -1895    -1163     -477      101 
     531      884     1321     1881     2351     2762     3545     4633 
    5424     5848     6162     6151     5637     4980     4365     3569 
    2701     2089     1668     1390     1314     1107      603      -59 
   -1034    -2049    -2694    -3385    -4305    -5300    -6652    -8151 
   -9103    -9333    -9004    -8438    -7893    -7082    -5792    -4428 
   -3605    -3775    -4909    -6394    -7573    -8293    -8649    -8407 
   -7175    -4924    -2253      -97     1135     1652     1732     1768 
    1881     1594      727     -306    -1215    -1719    -1410     -237 
    1624     3834     5625     6728     7468     7742     7866     8823 
   10254    10851    10462     9652     8735     7959     7273     6496 
    5819     5316     4711     3808     2551     1259      805     1580 
    2411     1861      -49    -2581    -5216    -7499    -9054    -9836 
  -10021    -9560    -8453    -7191    -6193    -5479    -4815    -3816 
   -2417     -904      340      931     1210     1988     3105     4093 
    5194     6234     6863     7376     7641     7372     6887     6108 
    4845     3666     2914     2276     1329      -72    -1030     -689 
     124      419       64     -691    -1121     -796        5     1078 
    2239     3306     4283     4645     3748     2107      753      -95 
    -994    -1965    -2596    -3538    -5270    -6843    -7608    -7484 
   -6366    -4934    -4241    -4666    -5664    -6100    -5605    -5032 
   -5088    -5356    -4912    -3956    -3572    -3730    -3801    -3823 
   -3913    -3838    -3129    -1705     -182      999     1865     2729 
    4035     5378     5796     5263     4333     3875     5161     7838 
   10041    11398    12779    14185    14879    14219    12166     9119 
    5327     1309    -2160    -4981    -6937    -7188    -6380    -6723 
   -8785   -10768   -11291   -10849   -10053    -8685    -7034    -5258 
   -2316     2120     7061    11865    16262    19508    20750    20073 
   18053    14693    10542     6654     2471    -2600    -7237   -10538 
  -12899   -14530   -15985   -18303   -21404   -24175   -25689   -25058 
  -21941   -17502   -13128    -9271    -5803    -2338     1009     3747 
    5998     7576     7901     7619     7726     8141     8986    10816 
   12654    12722    11005     8613     6358     5512     6975     9290 
   10365    10164     9487     8271     6272     3415     -171    -3609 
   -5844    -6798    -7308    -7985    -8769    -9547   -10206   -10493 
  -10797   -11854   -13315   -14341   -14430   -12943    -9772    -5724 
   -1842     1023     3042     4784     5778     5640     5130     4808 
    4774     5209     5514     4800     3257     1364     -807    -2760 
   -3893    -4391    -4143    -2606     -799     -433    -1695    -4275 
   -8044   -11542   -12619   -10666    -6602    -1713     2802     6053 
    7492     7298     6666     6504     6316     5432     4496     4780 
    6573     8892    10503    11005    10532     9254     7507     5124 
    1910     -958    -2481    -3311    -4144    -4989    -5999    -7087 
   -7551    -7231    -6994    -7354    -8086    -8815    -8665    -7200 
   -5148    -2976    -1104       -2     1142     2924     4702     6328 
    8158     9860    10804    10790     9822     7894     5487     3437 
    2087     1115      187     -357     -180       74       -2       39 
      59      109     1201     3106     4469     4784     4116     2728 
    1325      665      945     1640     2324     3295     4726     5973 
    6405     6123     5634     5543     6359     7920     9031     8677 
    7169     5233     3512     2735     2547     1713      147    -1440 
   -2906    -4108    -4683    -4649    -4345    -4141    -3948    -3403 
   -2774    -2162     -911      826     2116     2658     2686     2749 
    2913     2126       14    -2482    -4664    -6126    -6326    -5259 
   -3491    -1583     -221     -106    -1177    -2627    -3607    -3723 
   -3474    -3730    -4318    -3956    -1667     2525     7716    12224 
   14531    14202    11815     8806     6444     4811     3701     3091 
    2393     1055     -612    -2038    -2814    -2587    -1293      591 
    2100     2417     1707      816      144     -600    -1873    -3703 
   -5132    -5131    -3939    -2471    -1615    -1919    -2821    -3491 
   -3970    -4428    -4430    -3150     -149     3651     6751     8598 
    9599    10388    10984    10731     9277     6787     3820     1431 
     159     -540    -1259    -2226    -3628    -5332    -6918    -8245 
   -9532   -10872   -12113   -13205   -14049   -14112   -12645    -9424 
   -5391    -2006       58     1000     1413     1984     2727     3082 
    3009     2739     2442     2463     2616     2547     2635     2917 
    2932     2810     2786     2714     2656     2964     3820     5066 
    6447     7653     8089     7303     5675     3874     2103      625 
      -6      163      484      737     1205     1740     1985     1908 
    1193     -403    -2107    -3019    -2979    -1811      349     2292 
    3123     3071     2162      318    -1389    -1734     -827      662 
    1809     1286     -864    -3030    -4423    -5270    -5544    -5413 
   -5205    -4602    -3470    -2560    -2398    -2475    -2544    -3145 
   -3738    -3414    -2528     -747     2442     5312     6203     5526 
    4166     2853     2012     1383      872      743     1074     1790 
    2469     2714     2994     4037     5972     8299     9948    10033 
    8721     6475     3646     1044     -791    -2031    -2574    -2370 
   -2282    -3048    -4325    -5503    -6299    -6706    -7261    -8413 
   -9593    -9864    -8797    -6627    -4190    -2295    -1177     -465 
     410     1312     2160     3537     4900     5181     4720     3786 
    2182      826      537      776      814      735      947      936 
     -93    -1675    -3148    -4536    -5543    -5975    -6254    -6212 
   -4974    -2497       27     1567     2011     1783     1806     2621 
    3549     3983     3951     3234     2010     1200     1173     1613 
    2253     2556     2007     1197      754      206     -391     -372 
     -31      418     1220     1486      503     -463     -585     -994 
   -2258    -3173    -2803    -1912    -1489    -1521    -2096    -2982 
   -2802    -1397     -454     -561     -580      267     1475     2104 
    2147     2135     1854     1035       60     -765    -1208     -635 
    1015     2609     3402     3580     2883     1088     -830    -1578 
    -919      292     1367     2153     2396     2231     2374     3037 
    3971     5070     6258     7345     7747     6737     4568     2273 
     757      330      132     -823    -2253    -3456    -3962    -3523 
   -2490    -1332      -37     1471     2878     3948     4750     4892 
    4148     3163     2280     1659     1601     1744     1899     2101 
    1659      434     -788    -1771    -2732    -3661    -4148    -3861 
   -3038    -1738      -27     1167     1313      930      434     -221 
   -1293    -2739    -3817    -4016    -3466    -2127     -298      884 
     903      267     -796    -2072    -2740    -2554    -1964     -882 
     715     2133     3041     3673     4205     4815     5695     6810 
    7774     8306     8669     9067     9130     8455     7325     6496 
    6184     6035     5867     5343     4087     2640     1863     1682 
    1270       14    -1922    -4158    -6309    -7551    -7713    -7767 
   -8114    -8257    -7749    -6671    -5765    -5486    -5652    -5967 
   -5719    -4522    -3260    -2594    -2327    -2803    -4342    -6199 
   -7712    -8706    -8802    -7844    -6453    -5476    -5089    -4824 
   -4423    -3622    -2053     -348      453      522      900     2169 
    3889     5367     6655     8044     9470    11020    12583    13143 
   11979     9741     7416     5540     4579     5003     6436     7500 
    7449     6799     6072     5540     5279     4735     3538     1992 
