Origin Time       2025/01/13 21:19:00
Lat.              31.8
Long.             131.6
Depth. (km)       30
Mag.              6.9
Station Code      MYZ014
Station Lat.      31.8457
Station Long.     131.3070
Station Height(m) 136
Record Time       2025/01/13 21:19:39
Sampling Freq(Hz) 100Hz
Duration Time(s)  100
Dir.              E-W
Scale Factor      7845(gal)/8223790
Max. Acc. (gal)   61.260
Last Correction   2025/01/13 21:19:38
Memo.             
[...]
   18598    16837     9162    -1946   -12865   -23834   -32250   -36491 
  -36445   -29351   -16571    -4179     3623     6774     7643     9015 
   12046    15893    18758    17107    10111     2655    -1270    -3312 
   -7230   -12996   -17433   -19186   -18370   -13329    -4172     4226 
    8023     8430     8496     9933    13433    16879    17798    16617 
   10351    -1220   -10312   -14901   -17959   -19630   -21350   -24845 
  -27063   -25083   -21330   -16972   -12731   -12494   -14666   -14508 
  -12395    -9875    -6698    -3118       -2     3052     6675     9360 
   11272    15847    22954    28922    31995    29894    21620    14372 
   12883    13333    16773    22836    24498    22681    21058    19939 
   20447    20109    16382    12467    11562    14073    20202    25911 
   26214    22918    18027    12758     9082     4685    -2050    -8426 
  -14219   -22410   -32753   -41616   -44496   -38553   -25906   -10991 
    4116    18862    29277    31629    28987    25280    21446    19224 
   19346    19171    17019    13213     8527     5865     7319    12668 
   19534    23143    21161    14365     7776     5517     2363    -5590 
  -14835   -22025   -26148   -26134   -23342   -22740   -24664   -25465 
  -23483   -19102   -13960    -8090     -808     8085    19290    31722 
   41130    45019    46515    47740    46822    42564    35320    25620 
   14972     6759     1802    -3110    -9304   -13846   -12718    -4602 
    7689    19219    26979    29848    27113    20887    14872    10667 
    7896     5351     2475       67    -3069    -9267   -16070   -19521 
  -19165   -16711   -14423   -12147    -9919   -10012   -11642   -13462 
  -15114   -14330    -9687     -904     9850    17123    19984    22218 
   25263    30006    37542    46056    51908    52357    49766    48259 
   47380    47133    49216    50712    48041    41987    32350    21042 
   13201     8178     3751    -1155    -6696   -10038   -11412   -12771 
  -14939   -18785   -22690   -24931   -27241   -29705   -29967   -29411 
  -28246   -23163   -13321    -1444     7138     9130     6847     5559 
    6440     5927     3217      113    -2114    -3271    -3578    -3582 
   -5898   -11263   -16522   -19109   -18048   -15446   -14716   -13485 
   -9902    -6538    -3461    -1320     -378     1104     2714     4463 
    5346     2994     -530    -1090     -936    -3326    -5684    -7905 
   -9757    -8413    -5594    -2403     1672     3512     1107    -4048 
  -10463   -15799   -17155   -14588   -10755    -7669    -4473      471 
    8290    18107    23971    22545    19638    19893    20295    19105 
   18130    16804    15680    17088    19827    21986    22507    19606 
   12039     -403   -15758   -30622   -42028   -46727   -44230   -38200 
  -30234   -20795   -12405    -3770     7407    18432    26331    29832 
   27527    19934    11615     6407     4337     5705    11055    18554 
   24663    26835    26001    26573    31307    37160    41091    42859 
   40942    33681    22123     9876     1097    -1512     2776    10318 
   13737    11781     8552     3574    -3360    -9374   -13522   -15439 
  -15221   -13298    -8881    -2205     5286    13531    20808    23287 
   22099    20472    17297    12896    11227    11564     9238     3823 
   -2628   -10436   -18693   -22933   -22354   -19788   -16159   -13921 
  -14432   -15445   -16687   -17119   -13741    -6840      390     5290 
    9196    16668    30136    47856    62816    65844    55871    39881 
   24233    12935     6334       45    -9130   -18470   -22453   -20590 
  -16733   -11761    -5875     -858     3272     7047    11176    17392 
   25600    32803    35230    31305    23564    16717    13645    13501 
   13084    10366     6011      313    -6305    -9961   -10250   -12217 
  -15869   -17157   -12989    -1302    15884    33181    43902    43021 
   32081    16961     2546    -7626   -12010   -12106    -9329    -6326 
   -7098   -10719   -13683   -15175   -14962   -12060    -6192      789 
    4953     5347     4897     3472     -375    -4962   -10014   -16127 
  -21355   -24368   -24382   -20174   -13300    -6512     -247     5861 
   11128    15566    21342    29154    35442    36981    35325    34323 
   35514    36798    35063    29351    20952    12024     5937     5370 
    7831     9448    10436    11018    11835    15182    17699    15302 
    9157      756    -5767    -7969   -10489   -15098   -18465   -20906 
  -25320   -29434   -30523   -28871   -25081   -23357   -25150   -24406 
  -16976    -5209     5830    11538    10752     8831    10309    13126 
   15685    19734    26609    35691    45736    53916    57692    58382 
   56257    51946    47837    39629    23526     8201     1773     1161 
    3018     2026    -8060   -20340   -28744   -35058   -37590   -37266 
  -37014   -35762   -32644   -28837   -24684   -19836   -13983    -7209 
   -1814     2762     7331     9555     9059     4982    -3435   -15589 
  -28335   -35415   -33174   -20406     -129    19588    32062    35796 
   36985    42781    50440    52556    47680    39668    32414    28347 
   26632    24495    22932    23363    22962    18306     9159    -1525 
  -11048   -18404   -23561   -26076   -24386   -20177   -18049   -18206 
  -18508   -20812   -24634   -23237   -14751    -5343     1142     5383 
    7635     8263     8874    10785    14662    20171    26680    35286 
   45164    49836    45175    34608    24503    21055    24591    30414 
   36223    39857    38152    30886    22569    17810    15952    15410 
   15749    14858    10463     3153    -3682    -6971    -8537   -14505 
  -24938   -32516   -34832   -36013   -38524   -41787   -44493   -44475 
  -40802   -35734   -31058   -25756   -19620   -13911    -7659    -1101 
    2390     4625    10805    19291    24316    23793    20318    19125 
   23835    32751    40120    42105    42120    44185    44386    39819 
   32733    22195    10381     2972    -1647    -5647    -8974   -13788 
  -17909   -15437    -6482     3631    11649    15317    13798    10563 
    7816     4962     1563    -3989   -12672   -21589   -26365   -26056 
  -25103   -25914   -24686   -21469   -19699   -18392   -15337    -8380 
    2899    14837    24499    31662    36475    39282    40115    36957 
   29538    21460    15661    12307     8757     2947    -2862    -5046 
   -2944      614     2473     2650     3835     7053    11183    16459 
   23480    30036    32239    29432    25533    22904    18625    10561 
     897    -7638   -13068   -14809   -12731    -5971     2523     8017 
    9582     6797     1294     -184     2874     4006     3105     2184 
     425     -923    -1557    -2012     -425     2818     2943    -2184 
   -8602   -12908   -16467   -20549   -22607   -21046   -17454   -12418 
   -5155     3438    11188    17111    20532    20757    16875     8428 
    -658    -5390    -5104    -1910     1586     4396     7358     9485 
    8797     7534     9100    11179     8611     1129    -4710    -2909 
    3415     6728     5960     4922     4980     5741     7458    10430 
   14685    19009    20784    18918    15516    13610    15198    21105 
   29579    35908    35932    29728    22141    18721    19661    20487 
   17948    11762     3964    -1827    -3275    -2343    -4444   -11994 
  -20798   -25721   -25296   -19322    -8487     3738    12945    16873 
   17317    18126    20710    23793    24961    22461    17367    11715 
    6488     2118    -1301    -4282    -8638   -14064   -15766   -12028 
   -7153    -4739    -5308    -6597    -5945    -6139   -10952   -17167 
  -20916   -21995   -20197   -18446   -19973   -20969   -16347    -6497 
    4812    13994    20764    27793    34183    37689    39911    40196 
   37416    34250    31303    27696    23850    18989    12744     8093 
    7288     8727    10886    13370    14801    14018    11423     8027 
    2899    -5745   -15329   -21802   -25189   -27799   -32883   -40860 
  -46700   -47444   -45962   -44328   -40212   -30144   -13660     3717 
   14962    18674    17305    14692    16335    24278    33818    40265 
   42979    41867    37326    32626    31353    31723    29803    25593 
   18407     9373     4114     3306     5296     8502     8866     7977 
   10292    13063    11357     6203     -675   -10233   -19105   -22221 
  -20124   -15633    -9937    -3994     1952     7379    10632    13365 
   18361    23400    23595    17266     6064    -7001   -17545   -23638 
  -26383   -25840   -22218   -16202    -7352     3218    13107    22104 
   29465    33345    34018    30703    23295    16478    13332    12232 
   11051     8953     6188     3445      -44    -5427   -10612   -12926 
  -11897    -8143    -3111     2759     8262     9857     7087     3148 
    -228    -2415    -1958     1325     6400    11142    12460     9336 
    2698    -5320   -10625    -8831     1248    16791    32173    40359 
   40325    38128    35780    31224    23377     9998    -6255   -17959 
  -24028   -24378   -17359    -7190     2419    11426    18751    23900 
   27110    27251    24236    19542    14191     9028     2799    -5432 
  -13474   -21304   -29284   -34410   -34682   -31197   -26017   -19834 
  -12375    -5830    -3503    -3056      483     7630    16768    24321 
   27224    28533    30609    31467    30480    28352    25027    20035 
   13906     8797     6799     7356     7551     7414     8958    10250 
    9086     6316     1902    -4122    -9200   -11761   -13440   -16236 
  -20645   -26148   -31237   -35320   -37783   -34727   -24640   -11788 
     776    12571    22387    29585    32780    29251    20896    13134 
    8414     6439     5458     3014     -741    -2335      634     6257 
   12363    19016    23944    24603    23022    21339    19842    19197 
   18408    16600    15924    15948    12614     5337    -3412   -11456 
  -16347   -17712   -17423   -16633   -16389   -16353   -13208    -5887 
    1660     5795     6893     6490     4900     3106     2651     3353 
    4228     4777     4718     4842     6635     9738    12164    12572 
   10959     8947     9279    13252    18812    22091    21527    19381 
   18249    17783    16264    13880    11901    10515    10061    12162 
   18266    26622    32710    35611    36741    33844    25957    15313 
    3249    -8305   -18863   -29887   -39966   -46932   -50107   -47386 
  -38915   -29755   -22319   -15743    -9423    -2492     4106     8245 
    8629     5648     1348    -1057     3110    15024    30342    44108 
   53126    56195    53350    45157    32661    18080     5427    -3973 
  -12812   -19750   -20660   -17529   -14521   -12695   -12584   -13944 
  -14401   -12314    -9643    -9332   -10686   -10639    -9081    -8669 
  -10017   -11380   -11281    -8773    -3187     4117    10314    14412 
   16549    16164    12629     7547     5472     6826     8660    12725 
   18118    20812    23029    26905    32275    38561    41774    40259 
   36116    29373    20144    12569     9779    10184    11036    11064 
   10686     9304     5509      607    -3288    -5891    -6683    -5755 
   -7273   -12734   -18287   -23265   -25924   -22005   -14041    -5861 
    3138    12970    21772    27649    28857    24935    18285    10890 
    4008     -336    -3997   -10106   -16757   -19827   -17423   -10976 
   -3835      886     2538     4444     9077    13979    16379    16448 
   15876    15932    15982    14424    11337     9531    10193     9477 
    4333    -2528    -6164    -4614     -791     1300     1942     3551 
    5698     6826     7064     6956     7535     9317     9992     9162 
    9370    10756    12378    13965    15064    15614    15670    14648 
   12120     9063     6696     5553     4993     3138    -1591    -9585 
  -19414   -29231   -37663   -43133   -44078   -39700   -32201   -24489 
  -15931    -6029     2415     8147    12969    17388    21236    24814 
   27527    28922    28696    27048    24472    20695    17027    15076 
   14022    14469    17847    21999    25037    27750    29671    28027 
   21500    12961     5351     1159     3084     7716    11159    14040 
   14536    11443     7005     2475    -2284    -7018   -11113   -14038 
  -14187   -12420   -12114   -12368    -9863    -3929     3835    11017 
   15673    17832    18820    19449    19404    17343    12406     5532 
    -322    -2141     -352     1611     1182     -151      727     3676 
    6706     8981    10049     8970     6091     4009     4534     6833 
    9817    13471    16389    16278    13398     8503     2336    -2455 
   -6177   -10037   -11209   -10281   -10858   -12141   -12178   -10991 
   -8922    -7244    -8245   -11367   -13837   -14901   -14766   -13284 
  -10901    -7885    -3888     -911    -1595    -4396    -6250    -5324 
   -1348     3973     8428    11313    14022    17401    21374    25304 
   27000    25142    20225    14104     7260    -2461   -11372   -13281 
  -11372    -8397    -2101     4298     7798     9648     9742     8847 
    8753     9273    10655    13934    17861    20515    21487    21695 
   22083    23009    25562    29247    31843    31684    27878    21305 
   13069     3917    -4823   -12629   -19890   -25845   -29169   -30927 
  -31814   -30997   -30180   -30946   -30898   -27872   -23099   -17325 
  -11164    -7133    -4905    -1831     2508     7483    13190    18879 
   23711    28494    32857    35696    37519    38908    40379    41758 
   41111    37095    30662    24061    19048    15884    14188    13252 
   11823    10679    11524    12286    10728     7865     4176     -257 
   -5279   -12513   -22866   -34862   -46685   -55981   -59520   -56481 
  -48532   -36675   -21610    -5364     8757    18223    23272    25672 
   26769    27685    29316    31012    30699    27741    25011    25621 
   28954    32648    35013    34547    30541    23157    13491     3921 
   -4419   -10353   -12483   -14250   -17570   -19498   -19287   -15546 
   -7946    -1158     2587     4028     2678       55       89     2108 
    2781     2106      102    -2955    -5294    -6774    -8016    -9158 
  -10404   -11439   -12171   -12345   -10045    -6525    -5093    -4305 
   -2544     -627     1603     4311     7501    12213    18850    25610 
   30431    32231    31738    30812    28892    26094    25142    26076 
   27340    28409    26979    21388    14023     7041      480    -6188 
  -13409   -19340   -22968   -25566   -26279   -24649   -20980   -14110 
   -4783     5562    16918    27549    33891    35511    34605    31199 
   25859    22084    21371    22111    23407    24460    24540    24618 
   24741    23750    20312    13332     4791    -1846    -7160   -12641 
  -15364   -16143   -17594   -15379    -9115    -1837     7358    16573 
   22339    23352    19592    12637     6080     2243     -580    -4085 
   -8600   -12900   -14535   -13689   -13082   -14112   -14744   -12772 
   -8498    -2828     2708     6193     8353    10933    14477    18890 
   22013    21906    18914    14531    10361     5524      248    -3010 
   -5767    -8637    -8299    -6389    -4903    -1399     1813     1513 
    -639    -2731    -2550     1867     9358    16826    22204    24241 
   22742    19527    16144    12552     7319     1113    -2679    -3346 
   -2700    -2169    -2347    -3144    -4371    -5803    -7681    -9948 
   -9730    -5533     -978     1783     3346     4162     6088    10021 
   14373    17508    18237    15935    11766     7547     4153     2344 
    1725      747     -697    -1803    -2442    -2245     -163     3628 
    6879     7272     5825     5464     7052    10071    12858    13605 
   12854    12096    11388    10061     9435    10258    10315     8669 
    5903     2725     1379     1701      -94    -4087    -7666   -11304 
  -14316   -13728    -9987    -5543    -1540     1090     2196     2797 
    3792     5548     7668    10106    12536    14085    16433    19942 
   21899    23627    26559    27452    26005    24790    23244    20378 
   17356    14189     9609     3457    -3122    -8221   -11516   -13996 
  -15642   -17359   -20931   -25320   -28190   -29650   -29640   -27715 
  -24995   -20260   -12471    -4171     3720    11673    18582    23638 
   27256    29411    29255    26690    21641    13944     5919      918 
     -55     2224     6374    10670    13186    13327    13331    14350 
   14836    14123    12776    11365     9505     5674     -842    -8799 
  -16021   -21085   -23728   -23992   -22009   -18971   -16048   -12791 
   -9138    -6124    -2806     3207    11022    17559    22678    27934 
   33262    37827    40865    41712    40583    37866    33804    29423 
   24665    18345    11242     4870     -194    -3076    -3528    -2710 
   -2045    -2450    -3311    -3302    -2232     -376     1385     2639 
    5665    10729    13898    13437    10728     5938     -364    -5179 
   -7520    -9265   -11302   -14256   -18369   -21136   -20568   -17725 
  -13374    -7582    -1991     1958     5412     9702    13960    17248 
   19099    19444    19572    19935    19782    18823    17263    15940 
   15869    17014    17861    16511    12887     9428     7917     7488 
    6663     4301     -457    -7263   -14607   -20947   -25157   -27202 
  -28431   -29115   -27876   -24592   -20636   -16529   -10929    -2756 
    6345    14349    21147    26758    30589    32678    33916    34684 
   34623    33837    32476    30562    27886    23167    16452    10393 
    6411     3923     2841     2562     1881      865      147      679 
    2058     1775      156     -990    -2624    -5175    -7871   -10384 
  -12112   -13182   -14789   -17124   -18882   -18846   -16432   -11736 
   -5803      -95     4263     7075     9173    11654    14845    18553 
   22608    26514    29675    32001    33500    33983    34086    34813 
   35549    34456    31533    28825    26036    22535    20544    18461 
   13878     9900     6589     1683    -3271    -7896   -13321   -18979 
  -24391   -29479   -32505   -32822   -31951   -29855   -26543   -22690 
  -18009   -13072    -8758    -4777    -1047     1968     4422     6122 
    6675     6859     6899     6200     5603     5935     5638     4005 
    2519     2184     3501     6019     8611    11074    13332    15159 
   16771    17860    17764    18180    19820    20213    20714    23414 
   25617    26430    27337    27954    27804    27368    26052    23183 
   19553    14871     8749     2835    -2227    -7167   -12097   -16719 
  -20182   -22805   -25101   -24795   -22754   -22462   -22347   -20522 
  -17529   -12862    -6836    -1078     3994     8797    12811    15466 
   16561    16586    16484    16016    15275    14453    13007    10368 
    5742      -75    -5603    -9904   -11105    -9863    -9248    -8360 
   -7076    -7848    -8110    -6880    -6023    -3215     1929     7369 
   12519    16156    17506    18157    19619    21112    22477    23661 
   22968    20343    17172    14643    12887     9906     5205     1428 
     581     2870     7040    11304    15180    18266    20317    22276 
   24138    25351    25852    24977    22572    18685    13244     7750 
    2866    -1780    -5085    -7065    -8406    -8849    -9255   -10084 
  -10485   -10696   -11641   -12756   -12914   -12268   -11862   -12274 
  -12283   -11271   -10700   -10400    -9081    -7033    -4176     -238 
    3159     5144     6922     9333    12216    14991    17188    18636 
   19565    20480    21608    21828    19692    17342    16457    15036 
