Origin Time       2025/01/13 21:19:00
Lat.              31.8
Long.             131.6
Depth. (km)       30
Mag.              6.9
Station Code      MYZ007
Station Lat.      32.2351
Station Long.     131.1155
Station Height(m) 306
Record Time       2025/01/13 21:19:44
Sampling Freq(Hz) 100Hz
Duration Time(s)  91
Dir.              U-D
Scale Factor      7845(gal)/8223790
Max. Acc. (gal)   7.610
Last Correction   2025/01/13 21:19:43
Memo.             
[...]
   13051    13050    13051    13050    13049    13050    13051    13050 
   13047    13047    13051    13053    13051    13050    13050    13050 
   13050    13047    13049    13049    13049    13050    13050    13050 
   13050    13049    13049    13051    13051    13047    13049    13051 
   13051    13050    13049    13049    13050    13050    13051    13051 
   13049    13047    13049    13051    13051    13049    13050    13050 
   13047    13049    13051    13051    13050    13051    13051    13049 
   13049    13051    13053    13050    13049    13050    13050    13049 
   13050    13053    13051    13049    13049    13051    13050    13047 
   13050    13053    13050    13049    13051    13050    13050    13051 
   13050    13050    13053    13051    13050    13051    13053    13051 
   13050    13049    13049    13050    13051    13050    13049    13051 
   13050    13049    13049    13049    13050    13050    13049    13049 
   13050    13051    13053    13053    13051    13050    13050    13051 
   13053    13050    13049    13050    13050    13050    13051    13051 
   13050    13051    13050    13049    13050    13050    13051    13050 
   13049    13049    13051    13053    13051    13049    13049    13050 
   13050    13050    13050    13049    13049    13050    13049    13049 
   13050    13051    13049    13047    13050    13051    13050    13049 
   13050    13049    13049    13051    13051    13050    13050    13050 
   13050    13049    13047    13051    13051    13047    13049    13051 
   13050    13049    13049    13047    13049    13051    13050    13049 
   13050    13049    13049    13050    13050    13049    13049    13051 
   13053    13050    13049    13049    13050    13051    13050    13049 
   13050    13050    13050    13051    13050    13049    13051    13050 
   13047    13051    13054    13049    13049    13053    13050    13047 
   13049    13051    13051    13049    13049    13051    13051    13050 
   13050    13049    13049    13049    13050    13051    13050    13050 
   13050    13050    13050    13050    13050    13050    13049    13047 
   13049    13049    13049    13051    13051    13046    13047    13050 
   13049    13047    13050    13050    13050    13050    13049    13050 
   13054    13051    13050    13051    13050    13050    13050    13050 
   13050    13050    13047    13046    13041    13030    13012    12992 
   12969    12957    12965    12996    13039    13078    13097    13076 
   13024    13009    13061    13112    13081    12995    12935    12919 
   12934    12985    12999    12896    12787    12849    13069    13239 
   13205    13082    13050    13019    12885    12781    12795    12873 
   13005    13208    13406    13423    13082    12690    12812    13234 
   13316    13213    13205    12961    12544    12580    13031    13207 
   13053    13159    13479    13366    12937    12949    13366    13408 
   13099    13247    13644    13340    12664    12536    12617    12417 
   12401    12816    13216    13207    12860    12611    12600    12668 
   12949    13386    13429    12969    12484    12231    12054    12010 
   12499    13278    13473    13135    12984    12772    12197    12077 
   12744    13383    13490    13043    12259    11819    11767    11577 
   11669    12302    12575    12532    13194    13842    13030    12071 
   12993    14288    13917    13180    12803    11233     9860    11600 
   14223    14049    12756    12880    12995    12299    12856    14786 
   15493    14507    13494    12495    11340    11229    11816    11929 
   12447    13425    12702    10955    11789    14883    16141    14820 
   13911    14341    14214    12625    10778    10712    12877    14748 
   14733    14296    14382    14932    15534    14511    12174    11421 
   12372    12604    11917    12248    14045    15144    14899    15874 
   17982    17880    15433    13007    11541    11115    10894    10153 
   10524    12684    14160    13980    14208    15392    15039    12545 
   11569    13279    13429    11007    10552    13212    14845    13501 
   12349    13826    15020    12962    10262    10929    14270    15917 
   13959    11310    10706    11584    12706    13140    12133    10887 
   11502    13468    14115    12872    12552    14052    13957    11585 
   11045    13000    13455    11654    11218    13294    14476    12997 
   11821    12939    13876    12487    11024    12236    14332    14339 
   13404    13799    14493    13743    12719    13041    13267    12263 
   12236    13956    15153    15368    15344    14365    12997    12992 
   13478    12892    12536    13354    13425    12430    12899    14671 
   14589    12514    11716    12889    13267    12411    12534    13074 
   12233    11556    12538    13528    13171    12010    11215    11592 
   12140    11595    10926    11061    11450    12137    13529    14960 
   15334    14586    13805    13417    13219    13956    15044    14443 
   13566    14473    14608    13011    12807    13351    11992    10935 
   12351    13649    12889    11824    11703    11588    11326    11612 
   11812    11437    11547    12857    14701    15603    14594    13146 
   13518    14870    14886    14061    14184    15002    15009    13718 
   12599    12625    12390    12070    13120    13328    11495    11040 
   12382    12401    11619    12333    13860    14586    13975    12372 
   11766    13416    14810    13693    12037    11875    11920    10818 
    9510     9937    12614    14816    13667    10998    10727    12411 
   12420    10914    11664    14503    15452    14918    16357    17822 
   16012    13926    14571    15893    16011    14481    11773    10566 
   11520    12272    12557    13228    13495    13171    13112    13062 
   12286    11877    13085    13890    12387    11543    14189    16973 
   15631    12529    12355    13859    13599    12683    12600    12120 
   11329    11215    11352    11651    12258    12190    10980    10227 
   11383    12715    12715    14245    18401    20173    17004    13652 
   14445    17151    16776    13670    13244    15303    14199    11037 
   11241    13292    12582    10114     9822    12006    13375    12984 
   13302    13551    10886     8232     9755    12910    13998    14164 
   14638    13861    11761    10959    13132    15988    15059    11272 
   10881    13724    13248     9699     9617    13159    13790    10821 
   10948    14539    15044    13598    16155    19676    18585    16232 
   16695    16281    12231     8997     9967    12704    14813    15746 
   14273    11518    11410    13583    13923    12356    11464    11433 
   11718    11969    10994     9119     8491     9551    10675    11105 
   11584    12102    11869    12177    14600    16221    13846    10642 
   10748    12696    14106    15735    17385    16632    13871    12625 
   13149    12521    11340    11942    13059    13595    14565    14991 
   14126    13940    14840    15473    15641    15136    13628    12251 
   12621    14261    14377    12413    11662    13003    13147    11342 
   10859    12602    13390    11954    10754    10859    11142    11641 
   12839    14218    14935    14104    12787    13748    15834    15249 
   12993    12664    14307    15898    16484    16351    15809    14327 
   12796    13520    15076    13969    11512    11188    12573    13494 
   13392    12802    12565    12644    12478    13045    14515    14377 
   12471    11966    13120    13510    13212    13248    12653    11087 
   10022     9744     9207     8911    10066    11547    12037    13196 
   15724    16209    13001     9873     9763    11051    12113    13123 
   13371    12401    11797    12482    13410    13919    14258    14349 
   14553    15576    16197    15241    14436    14454    13397    11913 
   12114    12438    11230    10998    13088    14546    13953    13333 
   13362    13151    12750    12124    11658    12718    14191    13759 
   12775    13332    13976    13058    12105    12992    14027    12640 
   10883    11793    13043    12116    11786    14193    16902    17645 
   17157    16668    15712    13846    12744    13463    14017    12784 
   11164    10805    11333    11988    12830    13478    13178    12449 
   12316    12842    14015    15411    15645    14646    13447    12536 
   12806    13811    13275    11985    12378    13266    13147    13373 
   14119    13701    12383    11542    10686     9563     9900    11978 
   13699    14033    13963    14238    13666    11192     9221    10366 
   12669    13386    13259    13444    13288    12858    13705    15126 
   14261    12252    12499    13369    12303    11195    11248    11178 
   11099    11637    12143    12390    12903    13663    14247    14318 
   14027    14388    15500    16024    15823    15541    14512    12945 
   12584    12997    12218    11203    11913    12869    12384    12285 
   13508    13725    12866    13783    15890    16287    15599    15425 
   14898    14126    14436    14661    13047    10929    10417    10727 
   10435    10727    12375    13726    13842    13238    12592    12325 
   12251    12619    13676    14110    13629    13884    14284    12519 
    9769     9417    11241    12483    12804    13099    13221    13706 
   14685    14615    13779    13759    13420    11638    10825    12703 
   14554    13782    12723    13929    14636    12776    12297    15009 
   16073    13581    11912    12757    13057    12015    12000    12904 
   12059    10233    10859    13031    13097    11340    10492    11195 
   11869    11568    12132    14724    16657    16167    15360    15728 
   15803    14331    13020    13913    15519    15458    14296    13373 
   12568    11596    11183    12459    14553    14685    12950    12756 
   14434    14334    12209    12259    14808    15623    14254    14111 
   15291    14656    11886    10173    10862    11542    10411     9181 
    9913    11206    10818     9849     9545     8972     9420    12330 
   14087    12271    10278    10370    10959    11067    11789    14030 
   15649    14046    12127    14007    17200    17748    16501    14702 
   11901     9630    10245    12793    14054    13297    12803    13393 
   13780    13906    14287    14121    13239    13144    14442    15546 
   14951    13309    12016    11379    11861    13667    14621    13490 
   12429    12179    11480    11057    10940     9528     8884    11134 
   12762    12259    13290    15340    14980    13980    14393    13961 
   11966    10471    10224    10972    12428    13248    12819    13055 
   14692    14890    12708    11574    12799    13663    13463    14111 
   14937    13265     9877     8692    10496    12181    12738    13711 
   14488    13838    13120    13208    12741    11218    10050    10025 
   10435    11666    14673    16977    15763    13833    14307    14540 
   12509    11070    11637    11861    11214    12040    14389    15471 
   14638    14156    15093    15946    15587    15030    15115    14674 
   12791    11115    11479    12187    10824     9675    11514    13365 
   12673    12456    13880    13888    12361    11946    12559    12324 
   11014    10335    11614    13466    13837    13536    13865    13340 
   11570    11369    13140    14288    14253    13554    12449    12677 
   14152    14069    13026    13377    13113    10893    10573    13544 
   15415    14104    12830    13184    12845    11484    11414    12248 
   11767    10658    11412    13809    14721    13126    12131    13285 
   13740    12502    12218    13057    13127    13165    14115    14463 
   13265    12050    12445    13595    13842    13601    13414    12661 
   12135    12768    13086    12456    12896    14823    15502    13651 
   11816    12202    13387    13181    11956    11604    12761    14095 
   14420    14270    14466    14931    15074    14041    12064    11067 
   11742    12402    11924    11094    10997    11572    12264    13323 
   14401    13896    12621    13447    15342    14968    13257    12943 
   13713    14114    13792    13583    14208    14485    14106    14813 
   15718    14771    13525    13941    15226    15773    15086    14584 
   15144    14986    13717    13878    15884    17042    16376    15650 
   15712    16173    17181    17697    16093    14045    14068    14770 
   13880    12773    13527    14631    14084    13265    13344    12596 
   10601     9751    10551    10870    10709    11654    12511    11981 
   12054    14025    16052    16093    14220    12339    11599    11299 
   11337    12532    14303    14727    13311    12515    13891    14986 
   14261    13621    13432    12464    11653    11697    11183    10150 
   10274    11227    11537    11526    11676    11161    10281    10177 
   10436    10455    10515    10748    11114    11130    11065    12730 
   14779    13342    10338    10355    11696    11493    11524    12340 
   12110    11462    11134     9910     8162     7335     7547     8835 
   10739    11749    12330    13616    13622    11283     9359     9023 
    8687     8205     8513     9570    10478    10557    10897    12459 
   13369    12510    11835    11847    10982    10104    11257    13197 
   13155    11573    11215    12078    11807    11133    12800    15904 
   17259    16526    15714    15261    14145    13212    13725    13728 
   11988    11496    13324    13996    12411    11583    12537    13358 
   13749    14659    14990    13597    11709    10720    11121    13132 
   15453    15946    14540    12760    11645    11697    13109    15394 
   17000    17041    17841    20650    21028    16441    11564     9508 
    8611     9563    13845    17895    18034    16583    17194    18686 
   18088    15797    13905    12841    12070    11923    12656    12904 
   12302    13135    15768    17321    16266    13815    12545    14473 
   17859    18709    16310    13641    13003    13567    12954    10801 
    9983    12776    17123    19796    20272    17994    12414     7715 
    8352    11295    11230     8981     8675    11133    13255    13081 
   12997    14241    14424    14712    17491    18517    15209    12965 
   13953    14056    12744    13092    14914    15240    12808    10170 
   10747    12889    11600     8095     8788    12658    12897    11296 
   13772    16249    13401    10674    12498    13423    10427     8567 
    9653     9432     7843     9181    12669    13834    12536    11754 
   11345     9624     8465     9813    11391    11485    11511    12174 
   12685    12499    12256    13428    15147    14191    10797     9540 
   11967    14081    13630    12954    13012    12506    11963    12247 
   12410    11826    11450    12344    13729    14184    14582    15726 
   15682    14311    13554    11978     9378    10149    13625    14818 
   14675    15473    15086    13525    13775    15574    16132    14945 
   13992    13675    12079    10084    11511    15471    16371    13576 
   11850    12085    11527    11182    13767    17463    18173    15944 
   14828    16050    16706    16402    17371    18222    15934    12582 
   12965    16031    16227    14241    15045    16872    16278    16198 
   17571    16509    14256    15225    16931    14442    10338    10415 
   13656    14530    12255    10750    11716    13401    14238    14496 
   14596    13784    12746    13767    15547    14948    13366    13398 
   13873    13208    11740    10201     9603    10490    11776    12177 
   12023    12237    12083    11113    11399    12615    11079     7983 
    7894     9408     8965     8630    11191    13998    14087    14392 
   17397    18904    16889    15346    14705    12931    12028    12775 
   13358    14188    14909    14037    13671    15531    16829    15341 
   12687    11718    13288    14904    14358    13335    13101    12141 
   11470    13648    16082    14257    10003     8880    11029    12291 
   12839    14817    14913    11213     9776    13279    15296    13396 
   12613    13440    12037     9752    10033    11766    12150    10906 
    9864     9973    10076    10023    10768    11125    10531    11331 
   13950    15718    15329    13930    12868    12533    12606    12553 
   12549    13699    15730    16833    17115    17539    17203    15813 
   14608    14266    14851    15323    14100    12168    11515    11411 
   11333    12853    14926    14825    13977    14663    15045    13593 
   12043    11828    12622    13726    14516    14449    13435    12306 
   12723    14937    16285    15061    13316    12583    12222    12870 
   14796    15441    13983    13258    14642    15777    14427    12395 
   13166    15396    15026    13551    14519    15587    14044    12892 
   14003    14539    13905    14547    15691    14845    12881    11975 
   11943    11433    10828    11735    13452    13724    13116    13185 
   12954    12349    13138    14045    12333     9803    10161    11905 
   11372    10635    12976    14894    13143    11628    12637    12729 
   11388    11437    12120    11565    11214    11988    11917    10255 
    9196    10372    12658    13964    13410    11863    11558    13477 
   14949    13707    11777    11230    11476    12046    12349    11340 
   10396    11421    12654    11915    10964    11728    12607    12326 
   12433    13728    14763    14588    14071    14436    15051    14293 
   13011    13054    13981    15082    15550    13493    10376    10211 
   12799    14974    15552    15098    13909    11944    10982    13058 
   14991    12753    10092    11423    13068    12067    12004    13555 
   12604     9566     9331    13018    16397    15499    11853    10585 
   12762    14324    13205    11718    11564    11340    10629    11554 
   13255    12610    11421    12946    14764    14052    13408    14607 
   14319    11909    12012    14698    14937    13081    12900    13081 
   12046    12401    13961    13645    12515    12999    13826    13421 
   13184    14700    15589    12536     8989    10362    13203    12413 
   11217    12062    11770    10948    12800    14883    13536    10932 
   11146    13906    16168    17254    18497    19383    18139    15263 
   13728    15006    16432    15612    14881    16502    17571    15074 
   12244    13402    15358    12866     8870     9055    12236    14254 
   14455    14305    14141    13043    11576    11920    13721    14362 
   13693    13601    13927    13285    12957    14620    15520    13655 
   13103    15147    14395    10785    10490    12849    12614    11503 
   13306    15426    14866    13729    13894    13556    11838    11264 
   12461    12220    10737    12195    15005    13721    10260     9694 
   10643    10809    11753    12927    12282    11269    11398    11639 
   11788    12341    12467    12117    12776    13903    13227    11839 
   12802    14631    13799    11597    11496    13136    13297    11160 
   10357    13366    16141    14597    12175    13270    15392    14431 
   11828    11749    13967    14322    12399    12143    13972    14723 
   14548    15282    15329    13012    10783    11715    14103    13738 
   11234    10488    11075    10717    10856    12361    13146    13290 
   14026    13803    12348    12063    12687    12082    11005    11711 
   13625    13861    12401    12372    13663    13014    10944    10913 
   12764    13054    11140    10617    12681    13289    11623    12236 
   14917    14794    12380    12104    13929    14037    11776    10569 
