Origin Time       2025/01/13 21:19:00
Lat.              31.8
Long.             131.6
Depth. (km)       30
Mag.              6.9
Station Code      MYZ007
Station Lat.      32.2351
Station Long.     131.1155
Station Height(m) 306
Record Time       2025/01/13 21:19:44
Sampling Freq(Hz) 100Hz
Duration Time(s)  91
Dir.              N-S
Scale Factor      7845(gal)/8223790
Max. Acc. (gal)   10.438
Last Correction   2025/01/13 21:19:43
Memo.             
[...]
   -5618    -5618    -5618    -5617    -5617    -5618    -5618    -5617 
   -5620    -5618    -5616    -5617    -5620    -5617    -5617    -5618 
   -5618    -5618    -5617    -5618    -5618    -5617    -5617    -5620 
   -5620    -5618    -5620    -5618    -5617    -5617    -5616    -5617 
   -5622    -5618    -5616    -5621    -5620    -5614    -5617    -5620 
   -5617    -5617    -5620    -5618    -5617    -5618    -5618    -5617 
   -5620    -5621    -5618    -5617    -5617    -5621    -5621    -5616 
   -5617    -5620    -5617    -5614    -5617    -5620    -5618    -5618 
   -5616    -5616    -5617    -5617    -5617    -5618    -5620    -5620 
   -5618    -5617    -5620    -5621    -5617    -5617    -5621    -5617 
   -5614    -5616    -5617    -5617    -5618    -5618    -5621    -5620 
   -5617    -5620    -5622    -5621    -5618    -5617    -5616    -5617 
   -5620    -5617    -5617    -5620    -5621    -5618    -5620    -5621 
   -5617    -5616    -5620    -5620    -5617    -5618    -5620    -5618 
   -5616    -5617    -5618    -5618    -5617    -5620    -5620    -5618 
   -5618    -5620    -5617    -5617    -5618    -5618    -5618    -5620 
   -5620    -5618    -5617    -5618    -5618    -5617    -5620    -5621 
   -5618    -5618    -5620    -5618    -5617    -5617    -5616    -5617 
   -5618    -5618    -5618    -5621    -5618    -5618    -5622    -5621 
   -5618    -5621    -5618    -5616    -5621    -5620    -5613    -5614 
   -5620    -5618    -5616    -5617    -5618    -5617    -5617    -5618 
   -5618    -5618    -5618    -5618    -5620    -5617    -5616    -5621 
   -5620    -5616    -5617    -5618    -5617    -5618    -5618    -5617 
   -5618    -5618    -5616    -5616    -5617    -5618    -5620    -5618 
   -5618    -5620    -5617    -5614    -5618    -5620    -5616    -5614 
   -5617    -5620    -5618    -5616    -5618    -5618    -5618    -5620 
   -5620    -5617    -5618    -5617    -5618    -5621    -5616    -5614 
   -5618    -5618    -5616    -5618    -5621    -5618    -5617    -5618 
   -5620    -5620    -5616    -5616    -5617    -5618    -5620    -5618 
   -5616    -5618    -5621    -5618    -5618    -5620    -5617    -5616 
   -5618    -5618    -5617    -5617    -5618    -5618    -5617    -5617 
   -5620    -5620    -5620    -5618    -5621    -5625    -5630    -5637 
   -5651    -5668    -5683    -5687    -5672    -5636    -5593    -5559 
   -5553    -5595    -5663    -5697    -5664    -5587    -5541    -5586 
   -5683    -5759    -5768    -5711    -5645    -5656    -5729    -5757 
   -5665    -5505    -5431    -5520    -5668    -5772    -5842    -5873 
   -5822    -5668    -5447    -5283    -5277    -5414    -5710    -6068 
   -6126    -5751    -5293    -5093    -5265    -5755    -6235    -6327 
   -5971    -5428    -5061    -5047    -5314    -5734    -6107    -6130 
   -5703    -5131    -4827    -4926    -5332    -5906    -6399    -6550 
   -6345    -5910    -5409    -5143    -5255    -5614    -6091    -6446 
   -6366    -5857    -5166    -4692    -4837    -5570    -6435    -6922 
   -6829    -6345    -5649    -4935    -4677    -5154    -6039    -6825 
   -7092    -6583    -5526    -4580    -4295    -4963    -6384    -7601 
   -7813    -7176    -6143    -5148    -4812    -5282    -5961    -6377 
   -6605    -6566    -5840    -4780    -4386    -4899    -6079    -7746 
   -8748    -7624    -5103    -3434    -3593    -5116    -7040    -8059 
   -7312    -5221    -3267    -2839    -4199    -6754    -9085    -9356 
   -7597    -5582    -4114    -3472    -4770    -7650    -9100    -7225 
   -3829    -1911    -2606    -4870    -6926    -7965    -8330    -7896 
   -5788    -2857    -1691    -3161    -5686    -7096    -6454    -5378 
   -5576    -6174    -6138    -5868    -5811    -5956    -5499    -3910 
   -2454    -2218    -2848    -4081    -5672    -7153    -8236    -8205 
   -6921    -5724    -5228    -4742    -4213    -4221    -4753    -5277 
   -5721    -6409    -6687    -5769    -4849    -5130    -5686    -5502 
   -4920    -4868    -5589    -6046    -5738    -5637    -6313    -6790 
   -5664    -3642    -3362    -5593    -8148    -8505    -6250    -3831 
   -3820    -5648    -6967    -6820    -6166    -6069    -5850    -4494 
   -3445    -4681    -7256    -8716    -7985    -6103    -4927    -4822 
   -4855    -4953    -5923    -7434    -7811    -6664    -5266    -4222 
   -3676    -4110    -5418    -6790    -7230    -6332    -4946    -4234 
   -4847    -6365    -7145    -6469    -5166    -3871    -3295    -4270 
   -6223    -7604    -7510    -6343    -5076    -4274    -4402    -5379 
   -6050    -6014    -6066    -6399    -6342    -5541    -4723    -4758 
   -5427    -6345    -7227    -7049    -5601    -4295    -4037    -4850 
   -6351    -7222    -6972    -6662    -6608    -6478    -6187    -5444 
   -4575    -4203    -4175    -4554    -5401    -5930    -5861    -5452 
   -4774    -4436    -4565    -4472    -4839    -6291    -7265    -7001 
   -6613    -6515    -6353    -6056    -5728    -5574    -5896    -6812 
   -7557    -7237    -6324    -5641    -5039    -4255    -3739    -4041 
   -5123    -6328    -6652    -5767    -4707    -4341    -4334    -4261 
   -4378    -5367    -6987    -7473    -6195    -4571    -3778    -4484 
   -6382    -7607    -7441    -6821    -5891    -4603    -3734    -3572 
   -4233    -6277    -8363    -7661    -4725    -3250    -4544    -6548 
   -7392    -7257    -7371    -7489    -5805    -2897    -2250    -5103 
   -8676    -9801    -8070    -5699    -4419    -3850    -3572    -3794 
   -4239    -4955    -6133    -6540    -5491    -4336    -3966    -4653 
   -6760    -8893    -9259    -7971    -5864    -4087    -3704    -4517 
   -6026    -7771    -8668    -7793    -5458    -3538    -3742    -5163 
   -5456    -4284    -4032    -6091    -7954    -7132    -5017    -3893 
   -4608    -6709    -7901    -7157    -6486    -6588    -6239    -5567 
   -5611    -6482    -7110    -6446    -4680    -2531     -591     -148 
   -2471    -6411    -8603    -7083    -3883    -2662    -3997    -5857 
   -7381    -8333    -8014    -6727    -5347    -4596    -5015    -5995 
   -6613    -6921    -6894    -6393    -6112    -6022    -5004    -3526 
   -3218    -4132    -5418    -6694    -7460    -7422    -6525    -4410 
   -2619    -3697    -6265    -7312    -7145    -7214    -7406    -6945 
   -5980    -5674    -5954    -5638    -4920    -4180    -2929    -1846 
   -2045    -3175    -4816    -7132    -8989    -8613    -6508    -4702 
   -3597    -2748    -3388    -6376    -9153    -8900    -6659    -4878 
   -4203    -4503    -5352    -6084    -7118    -8513    -8685    -7149 
   -5324    -4421    -4774    -5795    -6708    -7443    -7277    -5687 
   -4681    -5755    -7303    -7384    -5494    -2806    -1636    -2967 
   -5876    -8478    -8737    -6751    -4587    -3678    -4464    -5860 
   -5935    -5158    -4834    -4333    -3650    -3626    -3771    -4082 
   -5383    -7078    -7662    -6215    -3700    -2988    -5130    -7820 
   -9034    -8793    -7438    -5104    -2991    -2664    -4207    -6589 
   -8361    -8230    -6490    -4386    -2737    -2448    -4090    -6357 
   -7184    -6439    -5614    -5497    -5490    -4791    -3852    -3792 
   -4626    -5722    -6516    -6102    -4573    -3851    -4919    -6394 
   -6740    -5717    -4368    -4330    -5609    -6426    -6265    -5968 
   -5506    -5155    -5849    -6802    -6575    -5208    -3322    -2153 
   -3389    -6652    -9591   -10728   -10161    -8490    -6160    -3800 
   -2577    -3007    -4417    -6257    -8290    -9733    -9558    -7554 
   -4824    -3229    -4118    -6886    -9105    -9019    -7048    -4742 
   -3215    -2631    -2976    -4261    -5877    -7063    -7184    -6080 
   -4974    -4923    -5466    -6226    -7030    -6959    -5733    -4648 
   -4734    -5481    -6201    -6610    -6131    -5074    -4494    -4075 
   -3503    -3840    -5418    -7240    -8203    -8000    -7422    -6875 
   -5977    -5263    -5358    -5598    -5459    -4881    -3769    -3038 
   -3404    -3867    -4048    -4668    -5506    -6045    -6320    -6482 
   -6704    -6826    -6647    -6538    -6567    -5979    -4465    -2980 
   -2824    -4243    -6185    -7334    -6752    -4550    -2628    -2571 
   -3859    -5710    -7280    -7399    -6664    -6133    -5381    -4629 
   -4769    -5377    -5809    -6247    -6612    -6536    -6323    -6482 
   -6758    -6596    -5960    -5220    -4819    -4870    -5367    -6816 
   -8649    -8644    -6378    -3908    -2893    -3684    -5267    -6272 
   -6358    -5697    -5096    -5339    -5634    -5568    -5860    -6484 
   -7117    -7649    -7497    -6304    -4665    -3523    -3430    -4302 
   -5408    -5964    -5821    -5142    -4309    -4082    -4669    -5497 
   -6084    -6138    -5626    -5185    -5297    -5448    -5243    -5354 
   -6219    -6910    -6579    -5872    -5625    -5379    -4503    -3306 
   -2309    -2173    -3441    -5179    -6015    -6107    -6461    -7280 
   -7626    -7017    -6274    -5721    -5031    -4552    -4494    -4754 
   -5533    -6405    -6556    -5868    -4811    -4299    -4839    -5528 
   -5540    -5944    -7821    -9686    -9574    -7786    -5675    -4706 
   -5796    -7333    -7203    -6072    -5351    -5167    -5347    -5813 
   -6550    -7122    -6658    -5586    -5017    -4529    -3596    -3186 
   -3630    -3771    -3416    -3628    -4837    -6756    -8351    -8318 
   -7144    -6512    -7281    -8765    -8824    -6656    -4357    -3835 
   -5186    -7005    -7145    -5456    -3823    -3331    -3902    -4982 
   -5925    -6211    -5375    -4106    -3869    -4492    -4900    -5116 
   -5711    -6912    -7850    -6960    -4615    -2774    -2178    -2901 
   -5039    -7321    -7888    -6566    -4743    -3433    -2766    -2906 
   -3978    -5514    -6444    -5998    -4995    -4762    -5173    -5347 
   -5256    -5676    -6605    -7117    -7214    -7531    -8121    -9063 
   -9630    -8083    -4912    -2845    -3002    -4391    -5869    -6664 
   -6708    -6507    -6295    -6505    -7364    -7503    -5911    -3804 
   -2988    -4641    -8361   -11354   -11060    -8005    -4685    -3044 
   -3227    -4135    -5152    -6566    -8068    -8425    -7117    -4984 
   -3163    -2605    -4126    -7261    -9741    -9918    -8244    -5663 
   -3360    -2901    -4089    -5317    -5915    -5815    -5448    -5918 
   -6728    -6261    -5337    -5684    -6469    -6527    -6107    -4930 
   -3245    -2849    -4081    -5583    -6651    -6748    -5474    -3704 
   -2617    -2384    -2470    -2894    -4287    -6191    -7206    -6639 
   -4583    -1768      332      249    -2180    -5221    -6759    -6376 
   -4664    -2320    -1125    -2290    -4386    -5865    -6612    -6565 
   -5818    -4737    -3661    -3055    -2640    -2173    -2760    -4585 
   -6100    -6890    -7551    -7952    -8226    -8888    -9525    -9439 
   -8799    -8202    -7622    -6858    -6416    -6801    -7866    -9007 
   -9327    -8332    -6573    -5162    -4704    -5069    -6177    -7739 
   -8506    -7989    -7283    -6808    -6245    -5840    -5416    -4687 
   -4338    -4753    -5321    -5440    -4912    -3801    -2709    -2544 
   -3466    -5084    -6960    -7734    -6237    -3568    -1872    -2671 
   -6021    -9327    -9846    -8263    -6685    -5580    -4600    -3985 
   -4301    -5378    -6083    -5865    -5512    -5914    -7291    -9107 
  -10401   -10862   -10585    -9410    -7612    -5840    -4777    -5155 
   -6474    -7160    -7083    -7299    -7495    -6743    -5292    -3566 
   -2083    -1860    -2997    -4639    -5890    -6189    -6095    -6286 
   -6340    -5907    -5076    -3920    -3040    -2695    -2018     -820 
    -340    -1587    -4320    -6924    -7537    -6345    -5319    -5269 
   -5093    -3937    -2671    -2809    -4476    -6539    -8197    -9401 
  -10276   -10359    -8662    -5355    -2542    -2230    -4075    -6043 
   -6828    -6465    -5454    -4623    -4820    -5826    -6754    -7403 
   -7692    -7026    -5409    -3753    -3361    -4823    -6516    -6643 
   -5609    -4303    -3377    -3457    -3921    -4298    -5040    -5410 
   -4619    -3622    -3542    -4521    -5536    -5144    -3141     -577 
     781     -664    -4409    -7803    -8638    -7527    -6677    -6210 
   -4791    -2955    -2297    -3052    -3982    -3834    -2620    -1255 
    -947    -2454    -4753    -5971    -5614    -4592    -3489    -2209 
   -1690    -3100    -5188    -5964    -5269    -4178    -4247    -6088 
   -8425    -9625    -8696    -5875    -2936    -1694    -2794    -5135 
   -6581    -6556    -6008    -5463    -5254    -5643    -6025    -5806 
   -5414    -5246    -4727    -3636    -2980    -3520    -4733    -5491 
   -4777    -2428      280     1557      521    -2450    -5845    -7902 
   -7931    -6021    -3099    -1919    -4499    -9163   -12939   -14368 
  -13316   -11079    -9412    -8714    -9134   -10994   -12691   -12042 
   -9552    -7042    -5147    -4198    -4639    -6165    -8355   -10505 
  -11095    -9925    -8549    -7750    -7628    -8418    -9396    -9337 
   -7603    -4203     -446     1669     1582      201    -1459    -2702 
   -3291    -3493    -3762    -4695    -6276    -7119    -6550    -5848 
   -5668    -5217    -4326    -4027    -5034    -6504    -7318    -7501 
   -7630    -8479   -10196   -11564   -11835   -11695   -12066   -13072 
  -13603   -12548   -10146    -7402    -5528    -5061    -5053    -4959 
   -5305    -5886    -6096    -6056    -5967    -5748    -5375    -4982 
   -4706    -4126    -2627    -1035     -722    -1202    -1938    -3883 
   -6810    -8803    -8229    -4371     1399     5325     4897     1333 
   -2641    -4978    -5101    -4656    -5466    -6844    -7063    -5745 
   -3847    -3067    -4132    -5170    -4544    -3271    -2606    -3076 
   -4708    -5672    -4482    -3087    -4160    -7194    -9409    -9039 
   -6720    -4752    -4788    -5470    -4471    -2133     -120      191 
   -2527    -6889    -8901    -7222    -4328    -2925    -3478    -4344 
   -4253    -4029    -4255    -3875    -2582     -803     1024      824 
   -2790    -7608   -10743   -11107    -8892    -5464    -2940    -2813 
   -4907    -7807    -9513    -8158    -4726    -2743    -2907    -3022 
   -2855    -3078    -3113    -3585    -5194    -5953    -4531    -2749 
   -2720    -4483    -6953    -9628   -11655   -11479    -9342    -6639 
   -4020    -2446    -2560    -3886    -5687    -6967    -7472    -7786 
   -7843    -7796    -8394    -9676   -10712   -10123    -7902    -6335 
   -7153    -9144    -9558    -7187    -3919    -2983    -5946   -11288 
  -15379   -15745   -13248   -10224    -8380    -8623   -10324   -12083 
  -13354   -13390   -11661    -9301    -7280    -6293    -7137    -8051 
   -7187    -6162    -5873    -5400    -5553    -6833    -7877    -7770 
   -6205    -3681    -1829    -1551    -2694    -5007    -6976    -6185 
   -3365    -2107    -3117    -4369    -5035    -4801    -3705    -2999 
   -3392    -4814    -6793    -7966    -7830    -6955    -5385    -3771 
   -3200    -3053    -2085     -546     -101    -1579    -3321    -3951 
   -4112    -3993    -3862    -4954    -6380    -5890    -4270    -4166 
   -5944    -7952    -8734    -8006    -6940    -6783    -7114    -6469 
   -4580    -2906    -2883    -4965    -8040    -9408    -8012    -5763 
   -4282    -3879    -4594    -5435    -5150    -4314    -3948    -3901 
   -4132    -4785    -5682    -6551    -6498    -4841    -2061      629 
    1254    -1333    -5301    -7581    -7094    -5098    -2879     -618 
    1027      985     -542    -2976    -5803    -7808    -8904    -9751 
   -9506    -8270    -7534    -6709    -5270    -5082    -6037    -5845 
   -4621    -3989    -4449    -5530    -5996    -5408    -5200    -5834 
   -5931    -5213    -4135    -2335     -616     -741    -3111    -6651 
   -9001    -8307    -5416    -2443    -1587    -4093    -7587    -8571 
   -7144    -5012    -2516     -170      824      306    -1354    -3873 
   -6057    -7171    -8008    -8792    -8934    -8445    -7773    -7441 
   -7186    -5489    -2353     -499    -1702    -5162    -9228   -11990 
  -12063    -9872    -7052    -5181    -5252    -6849    -7879    -7195 
   -6301    -6349    -6598    -6546    -6200    -5625    -5576    -6670 
   -8071    -8491    -7912    -6910    -6079    -6552    -8267    -9661 
   -9980    -9192    -7604    -6268    -5637    -5497    -6076    -7303 
   -8264    -8039    -6323    -3870    -2539    -3924    -7306   -10327 
  -12071   -12829   -12282   -10770    -9297    -7677    -5540    -3736 
   -3488    -4946    -6008    -4272    -1123       62    -1067    -3024 
   -5063    -5915    -4791    -3088    -2145    -2536    -5283    -9624 
  -12305   -11583    -8692    -5967    -5346    -6087    -5549    -3757 
   -2474    -1664    -1129    -1358    -1814    -2343    -4214    -7279 
   -9053    -8380    -7105    -6485    -5414    -3343    -1324     -210 
    -202     -881    -1233    -1389    -2689    -4819    -5848    -5105 
   -3732    -3123    -3920    -5564    -6513    -5996    -4989    -4287 
   -3406    -1961     -722    -1381    -4388    -7344    -7830    -6168 
   -4456    -4688    -6681    -7962    -7465    -7177    -8390    -9580 
   -9188    -7038    -3873    -1566    -1240    -2091    -3561    -5505 
   -7260    -9018   -11350   -13400   -14023   -12667    -9211    -5659 
   -4513    -5005    -4988    -3960    -2959    -3422    -5104    -6544 
   -7122    -6204    -3658    -1472    -1328    -2277    -3127    -4170 
   -4828    -4044    -3204    -3866    -4900    -4499    -2214        2 
   -1252    -6072    -9906    -9181    -5529    -2952    -2772    -3754 
   -5190    -7030    -9124   -11399   -13069   -13023   -11419    -9153 
   -6907    -5486    -5668    -7341    -8672    -7912    -6538    -6515 
   -6650    -6335    -6835    -7404    -7072    -6859    -6953    -6805 
   -6860    -7375    -7788    -7222    -5767    -5782    -8118    -9061 
   -6415    -2992    -1161    -1000    -2463    -4487    -5566    -5988 
   -6696    -7330    -6313    -2754     1416     2955     1048    -2330 
   -5227    -7210    -8546    -9057    -8294    -6944    -6636    -7585 
   -7919    -6674    -5121    -3778    -2911    -4587    -8622   -11191 
   -9563    -4274     1435     3516      297    -6546   -13220   -16121 
  -14459   -10116    -5039     -843      449    -1679    -5212    -7352 
   -6929    -5563    -4648    -3534    -2938    -4329    -6191    -6446 
   -5522    -4621    -4607    -6041    -7726    -7805    -6548    -5009 
   -3423    -2207    -1989    -3500    -6512    -8464    -7722    -6295 
   -6126    -6571    -7091    -7788    -7661    -6489    -6108    -7392 
   -9178   -10120    -9454    -7539    -6033    -6065    -6887    -7584 
   -8521    -9219    -8279    -6403    -5279    -5236    -5946    -6245 
   -4803    -2793    -2220    -2486    -2268    -2083    -2772    -4068 
   -5023    -4831    -3897    -3133    -2543    -2457    -3735    -5697 
   -6498    -5281    -3269    -2863    -4800    -7146    -7730    -6419 
   -4696    -3865    -3809    -3643    -3615    -4784    -6710    -7724 
   -7195    -5742    -4531    -5204    -7527    -8479    -6759    -4243 
   -2577    -2000    -1937    -2408    -4368    -7230    -9382   -10363 
  -10045    -8748    -7739    -7553    -7900    -8388    -8128    -7044 
   -6156    -5296    -4025    -3316    -4058    -6060    -7863    -7474 
   -4719    -1530     -282    -2147    -5455    -6940    -5745    -4077 
