Origin Time       2025/01/13 21:19:00
Lat.              31.8
Long.             131.6
Depth. (km)       30
Mag.              6.9
Station Code      MYZ008
Station Lat.      32.1056
Station Long.     131.3931
Station Height(m) 59
Record Time       2025/01/13 21:19:39
Sampling Freq(Hz) 100Hz
Duration Time(s)  147
Dir.              U-D
Scale Factor      7845(gal)/8223790
Max. Acc. (gal)   89.282
Last Correction   2025/01/13 21:19:38
Memo.             
[...]
   19768    19766    19765    19765    19766    19769    19770    19768 
   19762    19762    19766    19769    19769    19769    19765    19761 
   19765    19769    19766    19764    19765    19768    19766    19766 
   19765    19762    19764    19768    19766    19766    19766    19762 
   19764    19769    19766    19766    19768    19765    19768    19768 
   19764    19765    19765    19764    19765    19768    19765    19765 
   19766    19765    19765    19768    19766    19765    19764    19764 
   19765    19768    19768    19765    19765    19766    19766    19766 
   19769    19768    19765    19764    19766    19766    19768    19769 
   19766    19764    19765    19766    19769    19766    19764    19764 
   19766    19768    19766    19765    19765    19765    19768    19769 
   19766    19764    19762    19764    19768    19769    19765    19761 
   19764    19768    19769    19770    19768    19764    19764    19769 
   19769    19765    19764    19766    19764    19764    19769    19768 
   19764    19764    19764    19765    19769    19768    19762    19762 
   19765    19768    19766    19762    19762    19765    19765    19768 
   19769    19766    19762    19762    19764    19768    19769    19768 
   19765    19762    19764    19769    19769    19765    19764    19764 
   19768    19769    19766    19766    19765    19764    19765    19768 
   19766    19764    19762    19764    19769    19772    19768    19765 
   19764    19762    19764    19769    19769    19762    19761    19765 
   19766    19768    19766    19764    19764    19764    19766    19766 
   19764    19764    19766    19769    19768    19765    19765    19765 
   19765    19765    19765    19766    19768    19766    19765    19764 
   19765    19765    19765    19766    19766    19766    19766    19764 
   19762    19764    19762    19749    19723    19685    19626    19548 
   19465    19403    19386    19423    19499    19584    19656    19703 
   19731    19759    19792    19795    19768    19739    19739    19788 
   19820    19660    19171    18430    17745    17544    18114    19283 
   20426    21037    21159    21061    20842    20383    19504    18544 
   18318    19110    20413    21303    20775    18634    16193    15427 
   17192    20266    22438    22697    21964    21566    21533    20804 
   19006    17416    17659    20038    23121    24408    22369    18434 
   15961    16938    20194    22623    22268    20417    19676    20426 
   20861    19720    17547    16047    16779    19642    22441    22603 
   19641    15940    14720    16919    20453    22600    22819    22688 
   23052    22810    20906    17783    14832    13653    15568    20514 
   25822    27180    22781    16077    12306    12999    15692    17852 
   19246    20753    22081    21797    19487    16326    13543    12075 
   13204    17312    21910    23133    19989    15445    13000    13875 
   17367    21200    21744    17593    12627    12085    16301    20981 
   23053    23535    24012    22972    17786     9834     4977     7375 
   15133    23005    27156    27109    24433    20960    18624    18337 
   18030    15442    12868    14724    20857    26148    26380    22098 
   17277    15931    19125    24063    27117    27074    24605    21505 
   20353    21247    21078    18489    15994    16803    21860    28167 
   30167    25829    19901    18411    21892    26184    27549    25161 
   20873    18257    20200    25909    30403    28148    19650    13423 
   16499    25317    31329    30604    24417    16827    13383    17562 
   26632    32740    30796    24147    18866    16023    13976    13139 
   14485    17543    21755    26376    27953    22627    13356     8626 
   12325    20802    27981    29565    25609    19506    14141    11199 
   10970    11487    11807    13367    15219    14175    11072    10253 
   12933    15753    15647    13824    13663    16154    19413    21301 
   21494    20841    19089    16225    14937    17108    19539    18380 
   15938    17301    21937    24074    20706    15423    13567    16726 
   22794    27885    28097    22613    15785    14100    19126    25616 
   28525    28374    28013    27514    24467    17651     9036     3704 
    6936    18187    29847    34403    30631    23128    18154    17743 
   18063    16320    14983    16923    21568    26237    27364    22469 
   14257     9855    13149    20283    24818    25479    25952    28116 
   29593    28239    24979    21173    17574    16974    22609    31553 
   35174    29177    18311    10650    10563    14917    16731    15175 
   16623    23742    30597    29801    19122     3866    -4558     1374 
   16806    29938    33431    28953    22697    18916    18368    20925 
   25828    29276    27827    22810    16899    10648     3304    -3739 
   -4777     3831    17374    25979    22492    10358     2263     6551 
   18860    29100    31375    26738    20169    14878    11808    12441 
   14987    15477    15471    17961    20711    21091    21242    25481 
   34261    41805    41237    31695    18435     7142      280    -2813 
   -2027     5081    17392    28749    33127    29026    22684    21857 
   25115    26285    25942    28204    28948    18524    -1189   -12490 
   -3593    12802    17028    12214    18200    39332    56319    50700 
   26368     6073     8545    28644    44666    44798    36472    29425 
   23706    16035     6700      256     1294     9408    21791    35205 
   43452    39968    25141    10573     9786    21748    32811    34696 
   30017    21552     8734    -4939   -13439   -14943    -8546     8037 
   31342    49046    50376    37879    22974    13238     9508    10281 
   14067    19051    24248    29397    30916    25342    16205    11268 
   16838    30564    39479    34600    21713    14035    18017    25623 
   24645    16087    12760    19326    22605    10218    -8534   -12694 
    3944    26720    38352    35438    27622    25675    30883    35386 
   31839    19973     5028    -5093    -2694    12294    29045    36529 
   33565    26014    20775    20656    21886    20266    18064    21300 
   29242    30558    18481     2455    -6068    -6278     -318    11770 
   27221    38678    39645    32969    27861    26774    24341    17088 
    8781     8137    17227    25060    21253     9270     1375     4078 
   11009    13946    14987    20198    28752    34449    32942    25438 
   18474    18285    24405    31311    33234    27770    18412    11530 
   12171    20655    28927    27028    15992     8302    12630    22154 
   25674    25155    29856    38557    40541    31148    16706     6166 
    4113     9513    18688    29381    39274    43206    36560    20834 
    5116     -180     6575    16251    18411    12293     7672    12795 
   22786    26846    23896    21087    21833    22968    21398    21346 
   28129    34878    30955    19981    13464    15060    20650    24414 
   22306    15333     8411     5648     7249     9888    11897    14644 
   17901    20796    22488    18135     5316    -6027     -866    23383 
   49519    53449    29263    -3345   -22310   -23549   -13771     3447 
   28023    55647    75119    75514    54122    18303   -15280   -27364 
  -10690    22779    49392    48712    21836    -4533    -5117    16260 
   35638    36809    23450    10596     8459    15205    22356    22472 
   15481     9915    13539    23469    28960    23757    14457    14139 
   26883    42453    47478    37739    19191     2758    -2050     6767 
   24282    41266    46105    34844    15781     -271    -6377    -1021 
   11497    24875    33396    34574    31094    26481    21274    15164 
   10184     9360    12949    17473    18700    16780    15353    15828 
   16862    15927    12722    12249    17662    24927    27453    21373 
   10989     6440    11248    20163    28641    35357    37538    31861 
   20822    11858     8102     6517     5386     7130    14987    28263 
   39282    38084    22002     -170   -14345   -12758     1270    19842 
   36016    42735    35970    20576     7198     3672     9510    18457 
   26585    34155    41075    45022    43108    34655    23367    15658 
   14968    18750    20903    16553     7839     3248     8478    20664 
   31792    37720    40477    39614    31122    16370     3608     2143 
   15489    35171    45636    40633    28224    18513    15400    17431 
   20402    21767    21502    20611    21373    22746    19591    12804 
   11009    18416    29197    34152    27776    12762     -444    -2884 
    6157    20007    29749    32502    31318    28613    26947    29330 
   32792    30052    21625    16047    16988    21774    27463    30642 
   29018    25070    24405    29296    35001    35140    27233    13599 
    2647     4914    20958    34866    29470    10112    -1048     4266 
   11846     8352    -1209    -4522     1422    13116    28894    45243 
   53457    47187    29349     9243    -4199    -7015    -1410     8567 
   21342    32455    31725    16571    -1066    -9277    -6451     3820 
   17263    28686    33633    32427    28204    20552     9907     4997 
   13524    30904    44462    42325    23060      938    -7121     2458 
   21308    37625    41785    31638    14962     3859     3434     9166 
   16090    22377    27819    35104    43661    44211    31004    12775 
    2767     5780    17979    29799    30805    20216     7308     -880 
   -3704     -922     8680    23225    36081    38884    27637     7296 
  -10928   -16776    -5466    20495    51075    71505    69971    47164 
   15430   -10596   -19275    -7191    17601    42106    55094    49850 
   28653     3044   -14559   -16710    -2133    19575    30477    21609 
    3457    -6454    -2550     6762    12622    14786    17419    21666 
   25239    26121    24007    20669    18631    18530    21331    27855 
   32498    28771    20659    17254    21192    29957    40559    46751 
   41071    25905    14808    18133    30599    37330    32726    26460 
   29161    37858    38610    25035     8708     5022    15539    29205 
   35954    34182    27584    22778    24682    28027    23846    12879 
    2867    -1630    -1903    -1057    -1254    -2786     -916     8775 
   20644    25969    24254    21389    23094    29072    32420    27284 
   16329     9514    13914    28161    46145    58178    54272    35884 
   18520    14904    21220    26006    24225    19287    18438    23452 
   26123    19576     6748    -4017    -4504     6135    20310    31125 
   33034    22206     5728    -1771     5436    17624    21967    15352 
    4248    -1966    -2629    -5058    -8536    -5680     5090    19885 
   33173    39082    35020    26177    24062    34211    47007    48903 
   38439    24476    14785    10800    11071    14515    20032    26921 
   32490    31762    23282    11059     1466    -2209    -1282     3109 
   10624    20282    30634    39669    45584    45042    35008    19488 
    8714    10800    24835    42695    54903    52420    34582    14881 
    4989     3542     6366    12145    20011    28588    34731    35442 
   31005    24534    19839    19307    22856    27650    28134    20059 
    7268     -314     2617    12043    18739    15751     5313    -2855 
   -2188     5140    13035    17221    16895    13236     8831     8704 
   15352    23232    25262    23194    25717    37957    55845    65947 
   54568    24815    -3524   -13834    -5517    10168    21594    24769 
   25064    30033    37038    36198    26401    15319     6558     -267 
   -2199     3920    16105    29544    37454    31683    14264      525 
     -90     8376    20583    32998    42044    45512    40203    24383 
    2650   -17226   -26221   -15387    14925    49503    68056    62753 
   43487    23107     5328    -8013    -9892     3295    23307    35102 
   29907    14400     3445     4002    11862    19626    23749    28267 
   38851    49241    44910    25131     5491    -3384    -3640      298 
    5802     8268     5313     3292     8151    17109    26368    31152 
   25022    14399    16151    34618    57099    69813    66549    48566 
   25485    10076     8479    15336    18804    16067    16497    22042 
   18597    -3785   -30807   -36078   -13593    14786    25621    16911 
    5424     5047    10967    13602    18480    37069    65018    78456 
   59763    28587    24486    52625    72800    47436   -14318   -60440 
  -48547     2338    35066    24219    -5383   -15310     5150    27213 
   21768      -52    -7426     9547    36309    52755    50554    36613 
   21851    16718    29432    53968    71967    69515    41080    -3426 
  -32625   -25004     6413    31808    30461    10320    -1768     6511 
   28135    50380    63472    66197    62932    58286    51502    38391 
   19133    -1242    -9963     4122    31369    48347    38842     7474 
  -26165   -46249   -41901   -10461    29871    52255    44805    19120 
      55     1281    11497    10230    -3422    -9185     4467    27604 
   45727    51671    45392    35127    34049    42930    44922    29276 
    6064    -7890    -6111     7334    26568    45937    60509    66884 
   62511    52678    49033    52402    51192    35100     3110   -29069 
  -36344   -13058    17761    27745    11034   -13747   -27048   -22411 
   -9718    -8276   -20648   -29188   -19338     8676    39973    59105 
   63190    52785    30854     9504    -1479      480    14289    29538 
   35370    32487    22950     6789   -11499   -26605   -33974   -25547 
    5949    52482    88619    91210    57423     8735   -22315   -17447 
   16815    60694    96448   113358   104807    71776    28323    -8179 
  -31102   -41613   -37812   -16792    16344    46657    53379    26561 
  -14894   -39884   -35388    -8033    25402    45809    45928    32859 
   17957     9016     5503     5451    13729    32518    52529    61408 
   54429    35175    13687     1877     3596    14678    30345    46276 
   56949    55968    40842    15861   -10881   -28216   -26518    -9416 
    7987    18782    30420    43966    45828    30797    10882    -3326 
   -7159     2312    18859    34383    50188    61975    55297    27741 
   -5418   -24652   -19186     1904    19476    28543    37407    47866 
   50665    38750    18075      556    -7171    -2189    11643    19099 
   11848     1641     2326    12552    21718    23712    21361    19387 
   17832    16324    18914    27511    36386    36501    22422     1728 
   -9235    -6829      -71     4955     7102     9394    13656    15619 
   13497    10723    11994    21482    38084    53531    56093    41203 
   20582    12035    22002    41278    52866    45543    26657    18099 
   30145    47787    52995    44894    30447    13582    -1039    -5960 
    1617    14818    24899    30184    33210    33721    28912    19626 
   12083    13878    27707    45149    51910    41870    21236     1696 
   -6234     2184    22071    41883    51437    47074    34709    25365 
   21047    12951    -1669   -13743   -15881    -9464      203     8422 
   12795    12532     8586     5456     7371    12961    17201    16355 
   11466     8711    12494    17678    14948     3881    -4646     1240 
   20159    34788    30684    12102    -6988   -17401   -16293    -3592 
   16403    31278    27901     9863    -1258     9040    29764    40608 
   36578    25822    14539     4656    -1726    -3188     -793     5181 
   19013    44234    70798    76842    51979    11927   -14088    -9445 
   15268    36691    42406    34237    21200    15940    24042    35603 
   39252    37125    38655    49743    66395    75188    67027    45940 
   26320    26576    49642    71581    65701    31579    -7483   -29957 
  -32489   -23951   -11817     3003    21135    41937    61588    66451 
   42457    -3780   -44112   -50414   -18717    26685    54607    51409 
   27087      870   -16081   -22048   -17456    -5135    10157    26862 
   42665    51422    49025    34774    11997    -8332   -12448     3041 
   25203    35761    27144     8953    -1583      961     8993    17620 
   25708    29882    28023    23035    20872    22478    22543    21354 
   25243    33492    37594    32111    20186    10870    12695    25108 
   34487    28193    12004     2451     7904    21721    29732    28578 
   27074    26194    19782     8953    -1975    -9184    -4467    17892 
   48911    66638    55937    27927     8649     8340    15261    16039 
   11380    11564    18692    22682    19273    16856    20448    23512 
   18964     8457      -76      760    10733    20433    21701    17383 
   15086    15847    15333    12185    10843    16549    27552    36161 
   36254    25485     8195    -4626    -6096      882     9796    18959 
   29938    37185    33026    21489    12267     8560     8039     9910 
   17644    30793    40632    41104    34943    28112    24219    21865 
   17701    13481    16295    29027    43232    46845    36946    20686 
    8120     5512    13410    28539    41783    42496    31156    18666 
   14323    17095    17907    14338    15175    25305    37476    41917 
   36070    24679    15800    15040    19881    22173    18582    15098 
   17274    22353    26989    31951    34738    29419    16378     5784 
    6709    15102    20115    17007     8411     1459     3488    13706 
   21442    17186     4097    -5424    -3615     5591    11935    10231 
    6273     7992    14048    17431    15888    13412    14840    21752 
   30456    33338    25975    12910     3527     2236     5697     9329 
   12272    15425    18573    21897    26796    33070    39253    44086 
   46125    44608    38524    27661    17000    13347    17425    23147 
   24436    20387    13898     9679    11681    19048    26362    26779 
   16750     1040   -10481   -11827    -3080    13122    32382    48975 
   57410    53098    36687    17170     5556     7708    22148    39564 
   48672    45956    36023    25269    17618    13506    13111    16978 
   21745    21478    14293     5327     2236     6532    11653    11599 
    8155     6629     7693     8541     8872     9714    11068    14291 
   21219    29465    32013    25000    14293     8660     9030    10291 
    9441     7032     4749     4351     7422    15120    24768    30164 
   29010    24429    21216    22621    27426    33195    38514    39359 
   33075    24587    20035    19514    20599    21574    21462    22474 
   27191    32296    32211    27359    23741    25348    29555    30229 
   24979    18987    18667    23271    28586    33319    35772    31473 
   19534     6012    -3073    -6766    -5660      538    11215    22825 
   30349    31348    26929    19626    10935     2351    -1198     4774 
   18473    34092    45034    45894    36296    21431     8752     4742 
   11881    26395    40541    48227    46521    35226    20073    10476 
    9949    14543    19811    23616    25290    26038    28148    32433 
   37216    38418    32400    21188    11064     7128    11796    22597 
   30894    29992    22457    14006     7175     4175     8002    17625 
   25111    23228    13817     2718    -6673   -12471   -12602    -3847 
   13105    28306    31571    24102    16302    16465    22931    28868 
   31353    31239    29890    28378    25429    18955    11018     6893 
    9489    16109    20622    19330    13896    10200    14254    24561 
   32773    35280    35128    33493    28343    18732     6944    -1528 
   -2323     3804    14505    27668    38024    39650    32845    25681 
