Origin Time       2025/01/13 21:19:00
Lat.              31.8
Long.             131.6
Depth. (km)       30
Mag.              6.9
Station Code      MYZ020
Station Lat.      32.4557
Station Long.     131.1472
Station Height(m) 600
Record Time       2025/01/13 21:19:47
Sampling Freq(Hz) 100Hz
Duration Time(s)  121
Dir.              U-D
Scale Factor      7845(gal)/8223790
Max. Acc. (gal)   11.947
Last Correction   2025/01/13 21:19:46
Memo.             
[...]
    7811     7665     7684     7855     8037     8071     8005     8016 
    8116     8166     8160     8197     8237     8203     8154     8168 
    8171     8067     7977     8033     8094     7929     7596     7375 
    7441     7720     8037     8236     8191     7943     7761     7807 
    7946     8048     8181     8347     8426     8370     8168     7790 
    7335     7105     7250     7533     7655     7615     7538     7474 
    7507     7777     8272     8768     9090     9283     9394     9316 
    9055     8876     8899     8916     8787     8704     8814     8870 
    8640     8334     8203     8081     7820     7589     7466     7376 
    7531     8253     9301     9984     9957     9531     9184     9089 
    9123     9074     8846     8645     8816     9312     9626     9437 
    8950     8476     8148     8070     8271     8482     8411     8240 
    8356     8679     8789     8633     8519     8573     8621     8468 
    8106     7734     7514     7295     6902     6667     6974     7523 
    7839     7998     8284     8615     8685     8353     7782     7271 
    6961     6903     7277     8097     8915     9267     9167     8984 
    9003     9126     9019     8473     7565     6686     6384     6787 
    7361     7651     7746     7805     7915     8195     8467     8426 
    8328     8534     8756     8607     8257     7915     7619     7672 
    8259     8888     9088     9142     9310     9119     8330     7728 
    7956     8436     8480     8448     8826     9350     9728    10050 
   10180     9822     9282     9213     9666    10116    10210     9911 
    9171     8039     6933     6242     5869     5601     5549     5952 
    6716     7233     6955     6200     5759     5903     6453     7182 
    7755     8117     8764     9879    10743    10692     9940     9153 
    8842     9143     9717     9965     9533     8637     7792     7129 
    6439     5894     5921     6500     7338     8341     9312     9688 
    9139     8136     7551     7655     8002     8360     8939     9730 
   10540    11327    11888    11726    10675     9194     7975     7503 
    7734     8024     7684     6663     5567     5030     5120     5416 
    5699     6272     7298     8320     8923     9223     9235     8534 
    6844     4758     3672     4437     6450     8664    10531    11487 
   11006     9683     9094     9919    10998    11045    10466    10200 
    9875     8887     8009     8036     8560     9427    11109    13073 
   13830    12704    10424     8125     6470     5644     5628     6380 
    7717     8850     8683     7136     5366     4298     3850     3920 
    5049     7141     8413     7388     5197     3855     3573     3789 
    5001     7520    10057    11365    12015    12987    13624    12789 
   11194    10490    10812    11180    11410    11826    12037    11493 
   10531     9645     8571     7252     6640     7257     8256     8781 
    8729     8121     7280     6828     6674     6231     5605     5335 
    5591     6340     7431     8391     8965     9479    10152    10592 
   10338     9369     7900     6242     5082     5130     6103     6934 
    7387     8127     9061     9416     9213     8765     7712     6196 
    5487     6219     7547     8650     9551    10374    11071    11689 
   12125    11867    10540     8542     6739     5517     4672     4294 
    4876     6377     8244    10108    11480    11672    10561     8754 
    7244     6786     7042     7076     6910     7416     8440     8668 
    7942     7643     8334     9007     8941     8764     9165     9558 
    9170     8475     8158     7971     7750     8056     8976     9730 
    9829     9499     9047     8630     8349     8075     7643     7399 
    7755     8168     7724     6675     6068     6010     5877     5821 
    6370     7182     7665     7971     8519     9234     9445     8684 
    7676     7557     8078     8181     8055     8637     9621    10156 
   10660    11902    13200    13282    12140    10677     9255     7901 
    7009     6752     6818     7101     7527     7707     7582     7614 
    7807     7627     7106     6932     7385     7965     8047     7501 
    6616     5821     5555     6095     7311     8418     8488     7676 
    7198     7777     8993    10204    11168    11884    12268    12082 
   11327    10210     8469     6021     4209     4565     6434     7751 
    7819     7566     7758     8226     8356     7892     7211     6833 
    7014     7824     9117    10292    10494     9659     8733     8214 
    7738     7581     8556    10206    11074    10729     9787     8325 
    6126     4081     3655     5124     7329     9011     9647     9281 
    8316     7368     6975     7365     8472    10017    11326    11456 
   10164     8414     7487     7831     8746     9158     8853     8565 
    8931     9755    10230     9919     9366     9296     9460     9046 
    7888     6413     4934     3866     3848     5003     6772     8451 
    9533    10126    10737    11088    10349     8808     7696     7550 
    8032     8634     8673     7805     6893     7134     8571    10219 
   11014    10494     9184     8125     7792     7928     8263     8668 
    9163     9886    10413    10089     9216     8546     8112     7700 
    7600     8032     8538     8644     8468     8106     7194     5852 
    5089     5320     5745     5826     5833     5902     5981     6224 
    6673     7144     7767     8984    10571    11430    10982     9953 
    9335     9371     9782    10287    10663    10698    10359     9844 
    9201     8216     6940     5927     5593     5796     6380     7398 
    8444     8891     8891     8885     8640     7858     6975     6772 
    7452     8216     8241     7717     7196     6798     6643     6995 
    7828     8977    10281    11330    11668    11111     9813     8430 
    7919     8595     9752    10501    10685    10551     9999     8914 
    7699     6774     6133     5637     5368     5683     6713     7894 
    8645     9047     9220     9042     8816     9028     9462     9587 
    9481     9494     9481     9097     8478     7932     7337     6579 
    6042     5895     5975     6475     7437     8341     8888     8966 
    8421     7767     7808     8344     8725     9297    10635    11961 
   12024    10894     9558     8492     7811     7932     8783     9325 
    8974     8259     7668     7021     6216     5706     5830     6377 
    7140     8208     9327     9868     9819     9626     9007     7474 
    5663     4579     4336     4785     6096     7874     9092     9166 
    8325     7245     6624     6694     7125     7744     8787     9973 
   10427     9977     9369     9116     9088     8978     8676     8483 
    8861     9551     9737     9282     8544     7354     5671     4382 
    4212     4611     4719     4715     5308     6725     8860    11299 
   13008    12954    11105     8584     6824     6355     6716     7614 
    9146    10806    11692    11659    11196    10681    10363    10230 
    9861     8968     7631     6085     4747     3873     3272     3051 
    3888     5819     7558     7993     7537     7283     7684     8267 
    8351     8108     8206     8789     9760    11070    12085    11928 
   10714     9308     8102     7126     6740     7196     8118     9038 
    9753     9929     9130     7434     5705     5155     6261     8062 
    9255     9720    10106    10635    11075    11142    10519     9104 
    7381     6138     5892     6671     8113     9562    10075     8986 
    6947     5591     5792     7126     8926    10748    12081    12525 
   12144    11115     9306     6613     3848     2644     3599     5381 
    6704     7681     8554     9074     9377     9864    10272    10062 
    9699    10110    10644     9706     7492     5594     4639     4581 
    5827     8255    10577    11753    12093    12324    12229    11155 
    9563     8756     9181    10004    10075     9084     8068     8043 
    8536     8833     9143     9256     8430     7168     6478     5798 
    4256     2902     3136     4376     5435     6369     7389     7793 
    7281     6822     7157     7839     8410     9026     9517     9127 
    7573     5656     4436     4492     5899     8050    10008    11399 
   12206    12287    11664    10673     9728     9130     8884     8739 
    8579     8596     8980     9633    10200    10146     9412     8954 
    9653    11113    12162    11755     9590     6716     4935     4874 
    5529     6038     6548     7182     7688     8147     8773     9119 
    8575     7584     7227     7681     8212     8448     8591     8672 
    8488     8046     7452     6633     5675     5155     5599     6901 
    8676    10574    11924    11911    10558     8908     7911     7673 
    7886     8314     8606     8401     7767     7041     6455     6045 
    5543     4783     4234     4580     5934     7771     9323    10112 
   10349    10473    10477    10291    10165    10023     9549     9016 
    8874     8876     8676     8619     8908     9013     8642     7974 
    6980     5823     5270     5861     7203     8452     9220     9630 
    9817     9787     9520     9038     8517     8189     8023     7496 
    6039     4013     2689     2925     4634     7207     9394     9937 
    9049     7906     7075     6586     6519     6979     7915     8546 
    7778     5821     4151     3769     4644     6609     9786    13603 
   16360    16978    16148    14550    11718     7825     4706     4128 
    6220     9756    13096    14729    13792    10804     7366     4900 
    3927     4175     5044     6403     8633    11169    12063    10438 
    8136     7581     8966    10503    10804     9865     8046     6030 
    5138     5629     5903     4823     3447     3647     6056     9641 
   12534    13319    12106    10253     8895     8168     7871     7978 
    8202     8208     8422     9090     9082     7655     5915     4914 
    4417     4360     5134     6405     7597     9012    10925    12482 
   12918    12577    11761    10199     8432     7782     8356     8757 
    8013     6393     4677     3457     3118     4209     7175    11187 
   14071    14327    12387     9193     4974      453    -2158    -1034 
    3161     8468    13636    17343    17585    14349    10882     9794 
   10008     9531     8295     6550     3624     -170    -2816    -2636 
     193     4190     7550     9224     9921    11057    12536    12779 
   10706     6845     2751      -70     -496     2139     7194    12505 
   16031    17389    17458    16594    14118    10339     7422     6660 
    6670     5969     4963     4105     3169     2988     5209     9860 
   14450    16680    17097    17186    16569    13972     9117     3429 
    -270     -274     2492     6404     9975    11337    10095     8256 
    7658     8100     8465     8414     8232     7843     7221     6643 
    5829     4276     2511     1957     3522     6654    10220    13521 
   15705    15616    13294    10465     8591     7808     8171     9706 
   11133    10991     9520     7689     5670     3489     1736      774 
     403      630     1605     2874     4079     5508     7013     8194 
    9375    10609    10913     9641     7767     7030     7998     9597 
   10351     9702     8441     7766     7847     7886     7346     6521 
    5859     5495     5842     7275     8703     8256     5844     3369 
    2366     2997     5157     8725    12305    13691    12546    11083 
   11379    13248    15187    16324    16667    16152    14785    13265 
   12086    10854     9491     8556     8001     7437     6879     5850 
    3615     1136      670     2976     6446     9104    10385    10825 
   10864    10719    10662    10366     9323     8603     9788    12366 
   14631    15759    15273    12816     9402     6925     6129     6268 
    6596     6787     6389     5590     5464     5953     5586     4225 
    3848     5952     9936    14265    17662    19153    18354    15670 
   12015     8680     6654     5900     6165     7641     9994    11732 
   11381     8849     5296     2284     1071     1661     2705     3196 
    3397     3774     4306     4675     4270     3172     3075     5066 
    7647     9059     9435     9397     9082     9120    10210    11496 
   11465    10100     8374     6561     4405     2020      -99    -1545 
   -2045    -1181     1269     4569     7273     8349     8245     8618 
   10247    12275    14118    16050    17614    17757    16476    14917 
   14014    13674    13408    13158    12629    10762     7234     3341 
     417    -1023     -569     1560     3943     5447     6316     7090 
    7636     7526     6474     4561     2760     2687     4942     8235 
   10925    12667    13768    14004    12910    10883     9355     9266 
    9909     9963     9153     8248     7923     8170     8646     9255 
   10210    11294    11677    10858     9147     7380     6563     7246 
    9054    11136    12950    14191    14241    12644    10033     7873 
    7198     7843     8934     9873    10589    11260    12241    13408 
   13555    11732     8795     6390     5124     4612     4725     5602 
    6771     7574     8029     8251     7912     6959     6162     6286 
    6925     7002     6249     5373     4747     3716     1991      924 
    1813     4033     6361     8428     9801     9729     8680     8306 
    9067     9675     9310     8602     8581     9796    11757    12923 
   12285    10862    10308    10670    11175    11859    12664    12618 
   11272     9659     8819     8289     7096     5427     4348     4348 
    4801     5385     6912     9784    13312    16895    19874    20794 
   18756    14951    11491     9190     7470     5911     4735     4144 
    4133     4846     6193     7218     6813     5287     4456     5494 
    7381     8684     9626    10930    12274    12970    12806    11774 
    9747     6975     4869     5092     7186     8572     7439     4282 
    1267     1058     4402     8760    11345    12001    11406     9524 
    7280     6261     6320     6115     5161     4050     3757     4461 
    5024     4861     4974     6033     7462     8711     9456     9121 
    7622     5826     4569     3871     3568     3774     4359     5206 
    6864     9783    13421    16287    16835    15093    12865    11631 
   11183    10727    10239    10030     9734     8884     8031     7909 
    8000     7433     6596     6616     7950    10073    12278    14432 
   16263    16648    15093    12987    11898    11550    10785     9391 
    7838     6432     5435     5092     5440     6323     7533     8880 
   10143    11048    11209    10075     7569     4738     2833     2133 
    2538     4131     6385     8417    10049    11227    11709    11988 
   12475    12382    11213     9736     8349     6516     4531     3677 
    3861     3530     2639     2812     4218     5478     6447     8135 
   10393    12326    14200    16340    17139    15156    12012    10338 
   10077     9435     8392     8537    10050    11584    12360    12093 
   10261     7352     5374     5552     6764     7414     7446     7435 
    7130     6004     4515     3627     3268     2918     3464     6006 
    9639    12555    14011    14184    13414    11986    10241     8703 
    7992     8360     9242     9882    10320    10820    10816     9594 
    7651     6085     4765     2832      760      -54      851     2771 
    4585     5471     5377     4648     3734     3362     3951     5063 
    6083     6979     8136     9657    10844    10593     8768     6615 
    5159     4369     4178     4693     5657     6539     6786     6427 
    6216     6493     7037     7998     9391    10457    10635    10347 
   10241    10466    11134    12379    13648    14176    14139    14238 
   14511    14328    13381    11990    10457     8853     7645     7581 
    8456     8847     7906     6629     6295     6416     5606     3600 
    1289     -166      -27     1305     3063     5389     8378    11078 
   12972    14701    16410    16954    15666    13872    13203    13362 
   13238    12893    12745    12237    10797     9054     8101     8083 
    8244     8236     8571     9444    10108     9798     8633     7546 
    7398     8091     8910     9385     9217     8001     5910     4005 
    3237     3537     4126     4463     4577     4600     4546     4611 
    5247     6752     8920    11299    13375    14450    14303    13525 
   12347    10435     8176     6567     5853     5510     5556     6608 
    8484    10058    10615    10264     9094     6920     4152     2047 
    1399     1757     2421     3400     5058     7558    10700    13610 
   15067    14723    13431    12032    10498     8660     7065     6320 
    6288     6666     7292     7630     7202     6617     6932     8004 
    8623     8233     7377     6512     5460     4000     2211      579 
     -51      658     2150     3936     5981     8078     9907    11346 
   11967    11137     9423     8667     9694    11257    12082    12251 
   12039    11259    10135     9431     9294     8896     7672     6193 
    5405     5525     5922     5895     5478     5362     6170     7981 
   10307    12343    13481    13736    13448    12645    11061     8676 
    5995     4033     3883     5362     6588     6259     5105     4083 
    3237     3007     4591     8037    11438    13176    13761    14188 
   14226    13589    12915    12814    13103    13269    13107    12629 
   11755    10473     9080     8017     7360     6787     6133     5449 
    4833     4707     5445     6573     7441     8046     8268     7869 
    7537     8155     9398    10346    10666    10396     9319     7290 
    4869     3127     2681     3333     4833     7037     9190    10449 
   10979    11290    11298    10970    10879    11387    11982    12109 
   11929    11691    11091     9809     8229     7113     6748     7029 
    7793     8395     7807     5968     4116     3060     2411     2045 
    2666     4471     6658     8365     9471    10241    10480    10037 
    9778    10752    12677    14256    14804    14643    13959    12575 
   10731     8993     7811     7358     7299     7121     6779     6343 
    5618     4583     3649     3380     4083     5455     6786     7722 
    8405     8622     7885     6683     6185     6646     7398     8075 
    8838     9647    10224    10712    11422    12066    12177    11778 
   11026    10079     9432     9385     9540     9460     9189     8988 
    8966     8787     8097     7225     6617     6222     6002     6129 
    6639     7460     8479     9386     9779     9464     8482     7187 
    6226     5850     5741     5725     5796     5807     5728     5429 
    4581     3514     3129     3585     4163     4428     4683     5229 
    5836     6324     7069     8310     9594    10335    10458    10266 
   10087    10208    10737    11187    10924    10058     9080     8085 
    7226     7160     8046     8820     8471     7341     6412     6112 
    6366     7068     7916     8418     8434     8282     8324     8567 
    8699     8789     9360    10521    11854    12815    12780    11573 
    9844     8267     6858     5313     3635     2282     1827     2477 
    3906     5522     7010     8545    10291    11981    13088    13015 
   11421     8891     6706     5486     4988     5283     6667     8515 
    9751    10116    10072    10033    10168    10446    10692    10463 
    9146     6944     5039     4143     4089     4757     6057     7431 
