Origin Time       2025/01/13 21:19:00
Lat.              31.8
Long.             131.6
Depth. (km)       30
Mag.              6.9
Station Code      MYZ001
Station Lat.      32.7050
Station Long.     131.3086
Station Height(m) 362
Record Time       2025/01/13 21:19:50
Sampling Freq(Hz) 100Hz
Duration Time(s)  113
Dir.              E-W
Scale Factor      7845(gal)/8223790
Max. Acc. (gal)   29.615
Last Correction   2025/01/13 21:19:49
Memo.             
[...]
   11448    11724    12352    13077    13436    13194    12654    12305 
   12329    12636    13096    13641    14108    14172    13651    12754 
   11807    10921    10149     9656     9545     9730    10093    10554 
   11021    11406    11654    11761    11776    11749    11713    11777 
   11983    12136    12054    11836    11599    11342    11179    11326 
   11888    12658    13277    13532    13397    12923    12251    11699 
   11549    11740    12091    12563    13173    13896    14584    14958 
   14868    14438    13905    13576    13716    14091    14158    13915 
   13701    13297    12336    11097    10100     9536     9354     9370 
    9448     9671    10107    10600    10912    10979    11014    11281 
   11743    12123    12256    12171    11909    11539    11334    11542 
   11961    12226    12329    12407    12424    12353    12307    12349 
   12460    12583    12685    12926    13429    13977    14407    14828 
   15136    15087    14868    14698    14378    13744    12918    12141 
   11622    11092    10039     8665     7599     6952     6608     6748 
    7497     8445     9138     9904    11180    12727    14215    15403 
   16125    16625    16996    16987    16575    15826    14839    14115 
   13981    13890    13363    12668    12067    11539    11040    10481 
    9884     9397     8841     7998     7416     7830     9054    10435 
   11659    12587    13213    13894    14716    15246    15271    14847 
   14141    13697    13891    14420    14775    14663    14003    12818 
   11333    10115     9540     9296     9107     9354    10314    11538 
   12595    13477    13940    13668    12951    12086    11087    10451 
   10686    11438    12106    12503    12661    12649    12379    11731 
   10955    10427    10215    10341    10937    11746    12105    12062 
   12317    12935    13572    14160    14461    14322    14094    13994 
   13953    13891    13462    12428    11171    10152     9377     8617 
    7889     7584     7879     8434     9018     9782    10789    11965 
   13339    14802    16027    16800    17031    16659    15971    15385 
   14810    14076    13537    13443    13513    13513    13401    13058 
   12483    11794    11045    10278     9517     8920     8753     8806 
    8783     9153    10276    11515    12266    12684    13126    13656 
   13998    13869    13510    13343    13270    13046    12961    13332 
   13794    13738    13043    12082    11250    10617    10080     9598 
    9127     8865     9312    10359    11271    11908    12582    13095 
   13123    12881    12749    12629    12171    11476    11114    11487 
   12321    13028    13433    13717    14046    14326    14233    13786 
   13412    13207    12892    12478    12167    11854    11341    10617 
    9805     9274     9282     9528     9729    10038    10563    11240 
   12043    12741    12966    13005    13497    14391    15175    15619 
   15807    15877    15809    15381    14611    14060    14065    14095 
   13609    12717    11591    10223     8785     7474     6299     5436 
    5148     5301     5641     6342     7720     9664    11695    13394 
   14592    15322    15665    15734    15811    16152    16864    17818 
   18505    18582    18148    17215    15900    14735    13942    13189 
   12204    11164    10501    10242     9923     9306     8472     7408 
    6286     5652     5814     6505     7315     8202     9404    10941 
   12514    13689    14131    13880    13351    12881    12555    12525 
   12974    13743    14516    15191    15774    16114    16013    15456 
   14450    12942    11155     9595     8509     7843     7731     8384 
    9645    10991    11943    12555    13151    13663    13907    13927 
   13603    12908    12276    12020    12204    13005    14223    14985 
   14806    14283    14013    13776    13366    12939    12387    11588 
   10941    10829    11198    11826    12307    12120    11107     9636 
    8221     7053     5972     5117     4870     5211     6272     8368 
   11028    13574    15832    17685    18866    19082    18416    17352 
   16310    15619    15344    15184    15036    15083    15314    15445 
   15237    14737    14112    13281    11989    10422     9127     8141 
    7105     6053     5309     5159     5881     7426     9238    10793 
   11929    12649    13043    13400    14008    14701    15215    15896 
   16857    17327    16904    15993    14697    12960    11422    10744 
   10747    10922    10926    10578    10112     9944    10162    10665 
   11357    12148    12928    13502    13734    13706    13554    13316 
   13023    12769    12617    12465    12195    11940    11865    11920 
   12100    12353    12293    11615    10670    10099    10102    10482 
   10993    11260    11017    10396     9734     9301     9154     9200 
    9580    10558    11842    12868    13666    14656    15931    17189 
   17996    17988    17343    16861    16970    17099    16737    16194 
   15577    14555    13466    12793    12120    10921     9209     7253 
    5367     3774     2556     1633     1228     1926     3640     5860 
    8588    11533    13801    15026    15685    16428    17373    17975 
   17774    17176    17016    17392    17652    17392    16794    16132 
   15442    14871    14513    13961    13014    11927    10739     9632 
    9045     8765     8364     8068     8117     8329     8657     8980 
    8939     8707     8824     9315     9967    11038    12802    14843 
   16335    16730    16133    15151    14381    14062    13971    13697 
   13115    12370    11767    11572    11558    11373    11114    10910 
   10521     9671     8621     8131     8565     9439    10153    10550 
   10778    11115    11650    12182    12646    13230    13919    14542 
   15098    15541    15688    15618    15504    15264    14832    14331 
   13768    13120    12699    12780    13050    13004    12559    11788 
   10787     9903     9352     8974     8812     8972     8954     8441 
    8044     8139     8295     8334     8527     9076    10154    11870 
   14153    16722    18978    20291    20607    20410    19935    18905 
   17170    15012    12980    11533    10752    10613    10951    11207 
   10837     9894     9040     8826     9159     9684    10106    10239 
   10185    10183    10444    11115    11928    12444    12784    13181 
   13235    12677    11961    11495    11290    11307    11468    11696 
   11974    12104    11900    11462    10867    10308    10214    10712 
   11699    13122    14662    15830    16406    16440    16175    15873 
   15352    14231    12757    11646    11217    11353    11905    12731 
   13753    14751    15074    14337    12996    11610    10265     9000 
    8074     7709     7835     8178     8548     9023     9779    10687 
   11304    11450    11449    11541    11488    11196    11070    11298 
   11684    12235    13035    14018    15120    16000    16185    15873 
   15645    15665    15809    16055    16195    15754    14854    14121 
   13477    12444    11173     9802     8159     6681     5891     5656 
    6039     7458     9616    11669    13146    13648    12833    11256 
    9977     9431     9371     9553     9996    10681    11564    12856 
   14683    16559    17732    17910    17362    16475    15291    13817 
   12379    11011     9701     8995     8984     9115     9190     9150 
    8849     8768     9566    10889    11958    12793    13598    14108 
   14411    15120    16390    17537    17793    16930    15381    14017 
   13109    12204    11356    10843    10543    10669    11318    11974 
   12472    12891    12883    12432    11871    10972     9583     8325 
    7518     6835     6257     6111     6556     7631     9288    11263 
   13078    14327    15134    15762    15812    14929    13689    12830 
   12510    12654    13138    13757    14517    15377    15935    16116 
   16168    15849    15066    14399    13914    13185    12286    11375 
   10426     9705     9316     9154     9512    10242    10546    10519 
   10717    10843    10732    11021    11878    12698    13284    13975 
   14870    15812    16382    16173    15458    14513    13136    11585 
   10416     9609     8760     7728     6880     6737     7398     8395 
    9398    10710    12465    14104    15013    15029    14481    13946 
   13844    14184    14656    15070    15407    15499    15253    15041 
   15106    14674    12795     9976     7288     5022     3761     4131 
    5533     7280     9058    10324    11369    13119    15228    16710 
   17343    17145    16313    15290    14315    13705    13479    13228 
   13053    13045    12636    11736    10914    10342     9991    10142 
   10671    10976    11057    11160    11172    11673    13285    15037 
   15642    14944    13401    11685    10579    10481    11105    11938 
   12564    12502    11780    11124    10862    10712    10584    10357 
    9643     8766     8638     9274    10331    12133    14411    16285 
   17658    18507    18482    17905    17269    16483    15340    13842 
   12125    10548     9576     9404    10270    12182    14139    15322 
   15685    15034    13680    12619    12027    11394    10901    11269 
   12652    14253    15279    15834    16150    15904    14832    13119 
   11229     9486     8186     8016     9062    10480    11866    13190 
   14129    14551    14704    14883    15156    15098    14257    13070 
   12492    12482    12245    11685    11157    10872    11168    12333 
   14278    16491    18243    19128    18989    17907    16707    16112 
   15727    15088    14458    14050    13868    13671    12615    10411 
    8043     6124     4484     3225     2388     1798     1556     1676 
    1984     2762     4355     6498     8700    10648    12217    13401 
   14129    14346    14219    14003    13734    13590    14112    15230 
   16357    17243    17475    16788    15645    14392    13185    12488 
   12545    12951    13252    13567    14152    14632    14570    14281 
   14073    13583    12528    11199     9867     8351     6474     4545 
    3221     3171     4531     6421     7800     8893    10655    12896 
   14330    14470    13944    13082    11848    10777    10636    11643 
   13435    15183    16151    16623    17088    16900    15566    13826 
   12093    10107     8133     6664     5742     5221     4920     4712 
    4733     5125     5840     6683     7265     7372     7381     7946 
    9327    11024    12429    13491    14149    14270    14496    15580 
   17205    18567    19195    18697    17115    15209    13495    12052 
   11184    10801    10216     9545     9383     9562    10033    11097 
   12339    13270    13995    14500    14678    14921    15623    16579 
   17378    17853    18218    18887    19980    21286    22484    22883 
   21876    19823    17632    15932    14917    14358    13783    12850 
   11616    10415     9468     8683     7769     6670     5584     4903 
    5336     7152     9841    12928    15811    17694    18493    18554 
   18027    17192    16421    15722    14881    14017    13664    14031 
   14613    14905    14598    13308    11441    10085     9243     8163 
    6991     6180     5583     5148     4953     4602     3844     2853 
    1763     1031     1231     2241     3719     5512     7361     9084 
   10642    11823    12433    12545    12340    11919    11271    10484 
   10049    10349    11025    11533    11547    10697     9032     7331 
    6203     5516     4926     4284     3658     3451     4214     5904 
    7825     9641    11672    13782    15273    16201    17275    18615 
   19838    20603    20607    20048    19487    19098    19226    20398 
   22092    23349    24097    24521    24378    23409    21703    19793 
   18187    16933    15719    14088    11978     9968     8611     8164 
    8978    11029    13320    14747    15300    15732    16411    17342 
   18422    19155    19458    19643    19048    17416    15966    15084 
   14019    12893    12231    11686    10959    10316     9640     8638 
    7396     5892     4059     2074      166    -1345    -2015    -1483 
     421     3427     6934    10791    14966    18604    21174    23199 
   24852    25678    25293    23595    21037    18060    14715    11245 
    8137     5776     3862     1648     -552    -2091    -3369    -4155 
   -3769    -3183    -2884    -1987     -560     1264     3257     4572 
    5868     7523     8731     9788    10615    10631    10585    11457 
   13648    16837    19788    21938    23977    26129    27715    27969 
   26662    24436    22077    19846    17749    15466    12555     9275 
    6277     3634     1377      120     -113     -174     -228      422 
    1827     3122     4083     5224     6219     6785     7974    10246 
   13059    16510    20263    23080    24611    25338    25321    24317 
   22476    20262    18015    15930    14065    12546    11612    11113 
   10777    10948    12232    14702    18040    21730    24665    25947 
   25695    24030    21308    18708    16744    15396    14979    15167 
   15660    16843    18110    18887    19427    18852    16559    13173 
    9019     4567      518    -2816    -5243    -6754    -7711    -8036 
   -7032    -5217    -3523     -888     3080     6502     8970    11769 
   15076    18787    23139    27584    31349    33918    34882    34533 
   33372    31178    27747    23269    17946    12460     7318     2006 
   -3577    -8302   -10948   -11954   -12847   -13360   -12847   -12343 
  -11654    -9390    -5194      769     7148    12351    16920    21662 
   26257    30692    35163    38880    41229    42912    43209    40913 
   37801    34380    29170    23967    20275    16900    13686    10440 
    6700     3326     1030     -729    -2960    -5017    -5979    -6424 
   -5999    -4467    -3346    -2951    -2015     -218     2002     4865 
    8487    12409    16533    20667    24119    26900    29486    31322 
   31579    30518    28302    24659    20615    17350    14554    12166 
   10588     9400     8124     6859     5643     4101     2026     -167 
   -1779    -2322    -2072    -1777    -1452     -475     1252     3503 
    6274     9443    12619    15249    16923    18021    19263    20663 
   21859    22950    24017    24534    24217    23502    22705    21776 
   20672    18922    15800    11639     7516     4009     1429      319 
     733     1792     2902     4283     5890     7441     8946    10416 
   12260    15086    18397    21331    23974    26680    29253    31025 
   31406    30412    28205    24773    20417    15850    11843     8762 
    6415     4565     3229     2236     1196      282      128      854 
    2089     3321     3858     3312     2276     1921     2833     4787 
    7452    10373    12964    15094    16741    17581    17550    16858 
   15927    15398    15307    15164    14921    14663    14384    14118 
   13606    12749    11691    10208     8469     7163     6313     5865 
    6228     7126     7882     8414     8864     9329     9965    10716 
   11242    11335    11159    10987    10908    11101    11842    13104 
   14839    16907    18576    19376    19627    19483    18763    17462 
   15623    13541    11911    10984    10424    10142    10349    10849 
   11268    11628    12128    12888    13873    14763    15272    15325 
   14882    13868    12222    10085     7736     5437     3572     2452 
    1968     1892     2060     2224     2469     3330     5005     7194 
    9649    12054    13899    15159    16208    17092    17851    18817 
   19878    20368    19842    18409    16474    14388    12426    10854 
    9782     9204     9022     8934     9063     9995    11595    13232 
   14702    15827    16471    16808    17026    17288    17626    17747 
   17373    16727    16251    15797    14962    13880    12788    11631 
   10478     9398     8399     7735     7549     7483     7353     7593 
    8270     8731     8707     8271     7338     6258     5464     4824 
    4573     5265     6625     8195    10138    12498    14886    17142 
   19458    21643    23148    23878    24098    23866    23183    22308 
   21406    20264    18821    17278    15664    13975    12406    11160 
   10332     9791     9208     8360     7341     6489     6037     6073 
    6833     8448    10662    12939    14638    15666    16467    17158 
   17888    18922    19793    19992    19785    19494    19122    18639 
   17925    16823    15371    13684    11923    10300     8872     7780 
    7447     7933     8800     9751    10875    12178    13049    13014 
   12594    12426    12559    12854    13117    13504    14526    16190 
   17960    19290    19878    19932    19878    19507    18295    16533 
   14728    12660    10407     8586     7240     6291     5944     5881 
    5679     5520     5499     5259     4770     4573     5015     5734 
    6130     6212     6473     6963     7398     7897     8712     9645 
   10458    11226    11832    12037    11892    11452    10983    10993 
   11485    12032    12356    12640    13408    14747    16241    17662 
   18806    19294    19122    18621    17828    16598    14998    13359 
   12051    11222    10852    10720    10327     9374     8262     7638 
    7726     8522     9864    11408    13144    15356    17717    19218 
   19282    18131    16078    13545    11288     9697     8650     7913 
    7177     6366     5692     5182     4835     4855     5200     5644 
    6188     6790     7373     7963     8430     8850     9625    10759 
   12087    13718    15448    16849    18038    19342    20598    21494 
   21967    21965    21560    20988    20254    19336    18539    18099 
   17911    17803    17593    17045    16094    14810    13231    11404 
    9283     6698     3666      409    -2767    -5240    -6334    -5975 
   -4391    -1804     1035     3333     5138     6673     7977     9475 
   11458    13555    15376    16773    17540    17666    17485    17105 
   16541    16370    16980    17973    19089    20429    21652    22292 
   22508    22346    21412    19872    18225    16420    14436    12696 
   11171     9371     7385     5710     4552     4140     4677     5756 
    6682     7036     6702     5895     5036     4336     3728     3265 
    3206     3769     4947     6523     8125     9445    10528    11664 
   12787    13506    13647    13186    12361    11811    11857    12237 
   12781    13406    13809    13845    13706    13563    13400    13063 
   12514    12015    11973    12584    13556    14504    15461    16460 
   17250    17626    17466    16740    15608    14212    12617    11057 
    9802     8760     7739     6886     6493     6732     7549     8656 
    9826    10943    11788    12220    12367    12511    12715    12629 
   12019    11130    10218     9180     7950     6839     6096     5557 
    5094     4876     5157     6161     7875    10037    12440    14839 
   16891    18427    19453    20073    20353    20166    19521    18702 
   17901    17204    16852    17034    17568    18061    18337    18461 
   18473    18418    18499    18835    19348    20051    20895    21514 
   21699    21616    21273    20455    19105    17239    14955    12537 
   10027     7288     4614     2488      949     -214     -866     -548 
     807     2613     4297     5755     7117     8383     9360    10021 
   10660    11634    12942    14115    14733    14902    14985    15060 
   14859    14269    13586    13203    13382    13961    14358    14355 
