Origin Time       2025/01/13 21:19:00
Lat.              31.8
Long.             131.6
Depth. (km)       30
Mag.              6.9
Station Code      MYZ018
Station Lat.      31.3987
Station Long.     131.3054
Station Height(m) 12
Record Time       2025/01/13 21:19:47
Sampling Freq(Hz) 100Hz
Duration Time(s)  103
Dir.              E-W
Scale Factor      7845(gal)/8223790
Max. Acc. (gal)   39.254
Last Correction   2025/01/13 21:19:46
Memo.             
[...]
    7183     6791     6651     6708     6928     7442     8372     9768 
   11716    14251    17234    20401    23469    26204    28486    30312 
   31684    32549    32854    32591    31819    30701    29328    27633 
   25586    23282    20865    18508    16278    14071    11735     9234 
    6647     4163     2045      504     -326     -506     -346     -183 
    -214     -635    -1490    -2492    -3334    -4012    -4708    -5456 
   -6048    -6254    -5911    -4806    -2890     -602     1557     3481 
    5196     6627     7839     9043    10335    11665    12928    14018 
   14864    15468    15863    16017    15876    15438    14728    13818 
   12814    11851    11156    10951    11340    12255    13455    14724 
   15930    16821    17122    16942    16671    16424    16029    15460 
   14870    14378    13992    13657    13277    12695    11774    10528 
    9109     7631     6106     4536     2921     1179     -743    -2812 
   -4889    -6748    -8222    -9244    -9671    -9387    -8467    -7083 
   -5462    -3812    -2177     -542     1063     2691     4423     6172 
    7770     9165    10409    11703    13219    14848    16366    17647 
   18551    18922    18706    17999    17062    16183    15456    14806 
   14238    13797    13473    13278    13270    13489    13845    14164 
   14432    14755    15138    15554    16009    16480    16881    17104 
   17043    16627    15800    14559    13034    11423     9892     8615 
    7685     6859     5701     4077     2242      499     -905    -1791 
   -2236    -2569    -3040    -3666    -4390    -5119    -5591    -5520 
   -4923    -4033    -2978    -1783     -444     1016     2536     4089 
    5670     7206     8650    10145    11917    13999    16140    17987 
   19317    20128    20578    20891    21176    21323    21196    20734 
   19966    19082    18308    17771    17444    17172    16850    16465 
   15940    15148    14067    12795    11534    10417     9416     8503 
    7685     6885     6004     5066     4201     3515     2955     2365 
    1637      862      286       39       24       28     -149     -538 
    -893     -997     -988    -1053    -1050     -654      271     1487 
    2658     3784     5062     6527     8089     9697    11260    12544 
   13242    13316    13147    13190    13626    14338    15132    15954 
   16846    17829    19002    20487    22185    23742    24818    25371 
   25504    25257    24713    23992    23126    22098    20877    19525 
   18187    16931    15774    14677    13535    12379    11323    10276 
    9111     7905     6787     5787     4833     3861     2875     1958 
    1212      612       70     -349     -535     -487     -268      -45 
     -43     -367    -1046    -1960    -2720    -2995    -2810    -2301 
   -1447     -195     1269     2623     3808     5076     6605     8372 
   10343    12487    14650    16699    18690    20702    22704    24609 
   26266    27507    28251    28653    28939    29057    28826    28337 
   27761    26924    25566    23823    21897    19687    17177    14667 
   12442    10473     8548     6542     4384     1964     -681    -3308 
   -5749    -8027   -10049   -11476   -12172   -12447   -12680   -12972 
  -13155   -13063   -12604   -11642   -10069    -7933    -5439    -2744 
     136     3068     5768     8077     9948    11391    12488    13242 
   13528    13227    12479    11774    11565    11951    12872    14308 
   16092    17857    19386    20682    21631    22075    22192    22308 
   22399    22179    21570    20710    19597    18173    16506    14677 
   12850    11279    10062     9197     8776     8880     9337     9849 
   10239    10411    10330    10076     9668     8997     8040     6943 
    5802     4537     3175     1950     1031      344     -213     -594 
    -795    -1032    -1561    -2486    -3673    -4783    -5495    -5697 
   -5437    -4860    -4133    -3308    -2332    -1111      475     2417 
    4437     6145     7414     8503     9859    11851    14563    17706 
   20721    23064    24439    24867    24754    24655    24852    25327 
   25883    26127    25662    24540    23386    22821    22863    23016 
   22864    22314    21298    19683    17518    15124    12874    10887 
    8914     6615     4021     1539     -492    -1983    -2945    -3464 
   -3627    -3508    -3298    -3148    -2844    -1988     -580      877 
    1941     2640     3327     4248     5344     6478     7585     8517 
    8943     8580     7422     5641     3507     1391     -452    -2041 
   -3441    -4444    -4660    -3858    -1958      920     4239     7311 
    9819    11750    13236    14631    16309    18358    20667    23039 
   25118    26508    27109    27175    27083    27068    26966    26171 
   24273    21533    18418    15210    12270     9836     7738     5853 
    4282     2960     1722      633      -33      -55      583     1723 
    3049     4199     5020     5621     6153     6728     7497     8472 
    9459    10278    10935    11539    11983    11847    10836     9161 
    7341     5764     4530     3454     2326     1313      739      621 
     843     1447     2363     3307     3989     4284     4379     4720 
    5667     7261     9288    11396    13215    14513    15380    16098 
   16997    18388    20213    21917    23009    23487    23646    23900 
   24599    25590    26187    25801    24390    22347    20193    18393 
   17174    16252    15074    13348    11182     8916     6959     5613 
    4974     4720     4299     3507     2515     1486      600      121 
     153      519      889     1028      878      441     -244    -1039 
   -1790    -2259    -2080    -1015      865     3285     5925     8529 
   10890    12826    14343    15651    16957    18333    19664    20613 
   20852    20289    18948    16911    14446    12012    10053     8630 
    7362     6002     4691     3603     2940     2938     3439     4059 
    4594     4735     4140     3156     2690     3218     4456     5952 
    7485     8923    10149    11199    12220    13266    14202    14798 
   14964    14712    13975    12850    11780    11118    10862    10986 
   11442    11809    11604    10889    10142     9656     9294     8737 
    7839     6650     5142     3191      935    -1138    -2558    -3146 
   -3075    -2826    -2843    -3065    -3030    -2474    -1601     -675 
     214      939     1370     1680     2231     3241     4665     6253 
    7765     9193    10706    12395    14145    15830    17524    19383 
   21267    22717    23441    23654    23827    24287    25058    25860 
   26352    26358    25834    24822    23444    21817    20119    18527 
   16910    14940    12691    10635     9089     8019     7248     6635 
    6077     5356     4144     2254     -176    -2713    -4908    -6712 
   -8324    -9705   -10585   -10777   -10361    -9612    -8665    -7423 
   -5802    -3811    -1480     1050     3611     6227     8968    11701 
   14254    16576    18755    20883    22855    24433    25489    26014 
   26048    25648    24814    23585    22245    21089    20109    19174 
   18323    17640    16999    16060    14535    12540    10566     8961 
    7642     6453     5514     4970     4710     4522     4310     4099 
    3902     3667     3450     3385     3426     3473     3519     3484 
    3249     2848     2479     2343     2409     2546     2832     3419 
    4387     5790     7547     9444    11276    12762    13560    13529 
   12854    11946    11160    10467     9745     9286     9456    10139 
   10899    11429    11715    11886    11981    11929    11755    11682 
   11963    12667    13587    14494    15425    16465    17473    18277 
   18873    19199    18962    17882    16029    13814    11712     9963 
    8545     7391     6575     6203     6165     6176     6031     5671 
    5119     4421     3570     2551     1418      240     -911    -1960 
   -2874    -3593    -3983    -3982    -3658    -3086    -2397    -1703 
    -938      -10     1098     2388     3719     4807     5522     6061 
    6771     7874     9296    10832    12492    14511    17001    19754 
   22423    24853    27012    28742    29829    30226    30125    29864 
   29682    29428    28753    27614    26142    24248    21825    19012 
   16055    13127    10297     7655     5379     3527     2030      891 
      35     -699    -1440    -2332    -3373    -4426    -5508    -6558 
   -7334    -7867    -8287    -8433    -8205    -7704    -6906    -5703 
   -4091    -2103      172     2498     4534     5985     6813     7260 
    7572     7921     8406     8920     9343     9764    10318    11001 
   11711    12379    13031    13679    14297    14998    16002    17321 
   18682    19788    20416    20382    19616    18196    16279    14081 
   11817     9644     7643     5823     4310     3441     3487     4467 
    6124     7943     9445    10571    11476    12112    12336    12258 
   12117    11973    11666    11022    10056     8930     7838     6932 
    6224     5605     4986     4345     3798     3616     3982     4804 
    5786     6660     7366     7911     8194     8117     7769     7439 
    7387     7531     7574     7360     6975     6650     6597     6928 
    7627     8448     9113     9578     9786     9539     8781     7677 
    6459     5413     4789     4676     5097     6180     8035    10508 
   13235    15876    18168    19859    20829    21158    20964    20325 
   19381    18396    17643    17161    16777    16299    15608    14837 
   14204    13647    12953    12009    10716     9007     6984     4889 
    2972     1360       70     -835    -1294    -1366    -1054     -149 
    1514     3739     6054     8075     9717    11040    12000    12592 
   12937    13047    12812    12170    11245    10296     9508     8947 
    8648     8534     8418     8144     7713     7267     6936     6762 
    6748     6968     7468     8118     8753     9404    10210    11090 
   11831    12399    12887    13324    13664    13830    13840    13883 
   14172    14798    15719    16794    17853    18797    19552    19904 
   19660    18960    18030    16907    15682    14624    13886    13338 
   12738    12079    11623    11381    10987    10254     9385     8565 
    7786     7040     6359     5776     5356     5065     4668     3964 
    2852     1264     -614    -2315    -3446    -3963    -4097    -4091 
   -4005    -3775    -3338    -2663    -1814     -919     -112      491 
     900     1321     2008     3132     4680     6501     8425    10235 
   11686    12698    13378    13828    14052    14058    13921    13803 
   13880    14165    14601    15171    15755    16156    16302    16198 
   15772    14989    13969    12897    11975    11326    10905    10690 
   10781    11244    12052    12999    13738    14069    14015    13724 
   13400    13076    12582    11861    11033    10108     8939     7504 
    6054     4887     4039     3381     2860     2502     2296     2145 
    2034     2215     2991     4396     6189     8004     9556    10833 
   11854    12455    12577    12351    11853    11041     9931     8733 
    7669     6667     5506     4218     2980     1810      791      183 
     190      980     2583     4656     6754     8722    10532    12013 
   13059    13765    14196    14342    14123    13397    12170    10606 
    8812     6841     4789     2803      996     -641    -2234    -3807 
   -5085    -5741    -5686    -4907    -3333     -969     2093     5637 
    9252    12591    15426    17539    18848    19408    19332    18873 
   18323    17845    17502    17243    16970    16725    16600    16613 
   16795    17176    17555    17578    17111    16313    15407    14497 
   13590    12671    11670    10598     9721     9396     9837    11041 
   12764    14658    16414    17751    18538    18932    19106    19117 
   19010    18801    18416    17713    16599    15176    13637    12043 
   10347     8506     6501     4376     2253      193    -1744    -3275 
   -4137    -4399    -4253    -3856    -3258    -2440    -1452     -243 
    1318     3171     5101     6924     8584    10066    11277    12249 
   13136    14014    14870    15611    16012    15913    15368    14505 
   13458    12347    11145     9745     8129     6382     4633     2899 
     999    -1177    -3446    -5559    -7319    -8446    -8691    -8005 
   -6420    -4133    -1614      816     3279     5944     8749    11599 
   14432    17124    19568    21803    23946    26022    27969    29706 
   31063    31768    31607    30477    28339    25281    21633    17815 
   14026    10291     6747     3565      669    -2150    -4862    -7236 
   -9147   -10548   -11395   -11650   -11240   -10098    -8302    -6158 
   -4001    -1985     -256      946     1464     1340      797      210 
       0      456     1613     3415     5929     9194    12974    16897 
   20730    24273    27238    29465    30931    31641    31696    31233 
   30333    29134    27738    26052    24028    21790    19410    16895 
   14358    12050    10138     8526     7133     6153     5764     5883 
    6399     7314     8537     9861    11049    11803    11946    11518 
   10575     9186     7531     5813     4197     2857     1872     1140 
     579      135     -283     -696    -1059    -1335    -1557    -1871 
   -2427    -3299    -4453    -5759    -7110    -8365    -9244    -9509 
   -9202    -8614    -7959    -7142    -5923    -4240    -2146      349 
    3146     6042     8895    11596    14126    16654    19484    22860 
   26731    30815    34863    38650    41922    44598    46792    48590 
   49852    50336    50020    49068    47560    45474    42712    39171 
   34894    29941    24421    18786    13478     8544     3923     -442 
   -4494    -7886   -10458   -12429   -13937   -15044   -15854   -16444 
  -17280   -18997   -21381   -23697   -25666   -27180   -27997   -27938 
  -26835   -24733   -22034   -18981   -15615   -12162    -8856    -5796 
   -3034     -553     1710     3865     6050     8390    10967    13791 
   16807    19859    22843    25805    28672    31217    33307    34920 
   36112    37025    37731    38088    37935    37527    37268    36957 
   36171    34798    32779    30111    26916    23282    19399    15537 
   11842     8432     5463     3045     1236       21     -676     -924 
    -881     -784     -805    -1026    -1420    -1950    -2731    -3788 
   -4947    -6112    -7187    -7925    -8158    -7889    -7132    -5849 
   -4035    -1721      926     3538     5821     7759     9440    10870 
   12029    12957    13756    14642    15722    16818    17644    18044 
   18034    17767    17382    16903    16379    15947    15697    15650 
   15731    15769    15627    15318    14962    14535    13930    13302 
   12866    12640    12569    12598    12742    13036    13462    14040 
   14763    15581    16436    17204    17760    18022    17972    17756 
   17543    17363    17219    17172    17261    17446    17583    17439 
   16873    15820    14146    11812     8966     5771     2340    -1144 
   -4374    -7018    -8904   -10015   -10523   -10770   -10957   -11114 
  -11296   -11468   -11398   -10890    -9887    -8457    -6832    -5235 
   -3746    -2404    -1138      345     2311     4704     7342    10249 
   13424    16753    20232    23731    26850    29332    31059    31842 
   31641    30613    28926    26723    24192    21556    19064    16926 
   15271    14129    13344    12653    11955    11179    10183     8905 
    7365     5663     3916     2164      457    -1092    -2370    -3240 
   -3580    -3362    -2704    -1825     -847      274     1509     2736 
    3960     5254     6721     8533    10611    12499    13703    14026 
   13516    12248    10417     8472     6804     5474     4399     3526 
    2874     2446     2058     1466      577     -700    -2521    -4872 
   -7499    -9981   -11799   -12468   -11753    -9652    -6207    -1517 
    4131    10336    16688    22801    28324    33027    36732    39201 
   40427    40603    39704    37732    35132    32609    30674    29188 
   27641    25888    24040    22149    20343    18751    17388    16202 
   15044    13798    12528    11288    10058     8681     6853     4473 
    1691    -1377    -4656    -7947   -10944   -13382   -15030   -15680 
  -15194   -13528   -10835    -7461    -3740       74     3777     7123 
    9826    11716    12723    12927    12487    11450     9991     8490 
    7240     6320     5795     5783     6104     6399     6436     5971 
    4990     3856     2816     1975     1518     1629     2349     3568 
    5127     6809     8426     9926    11288    12557    13830    15093 
   16301    17412    18335    19072    19647    20021    20233    20328 
   20140    19435    18184    16576    14916    13502    12507    11975 
   11898    12224    12775    13285    13514    13382    12887    11948 
   10478     8433     5867     2941     -187    -3253    -5844    -7743 
   -8953    -9467    -9282    -8417    -6940    -4946    -2438      649 
    4185     7874    11514    14937    17961    20505    22449    23581 
   23762    23017    21563    19853    18401    17462    16964    16780 
   16798    16875    17034    17321    17527    17404    16815    15762 
   14384    12725    10833     8928     7171     5614     4297     3163 
    2099     1024     -106    -1290    -2478    -3636    -4660    -5341 
   -5572    -5320    -4503    -3086    -1113     1293     3933     6658 
    9305    11591    13242    14192    14642    14804    14743    14543 
   14227    13664    12880    12071    11334    10650     9980     9383 
    9028     9043     9475    10266    11303    12499    13664    14565 
   15091    15153    14647    13552    11907     9880     7801     5945 
    4457     3450     2959     2913     3215     3834     4716     5641 
    6355     6821     7164     7508     7854     8141     8460     8953 
    9648    10470    11317    12159    13009    13825    14554    15214 
   15828    16389    16892    17362    17803    18118    18184    17964 
   17477    16771    15863    14769    13548    12217    10728     9085 
    7376     5753     4413     3456     2830     2450     2187     1872 
    1412      777      -18     -870    -1595    -2045    -2092    -1637 
    -618     1032     3360     6247     9468    12802    16033    19028 
   21748    24073    25805    26885    27338    27236    26669    25616 
   24079    22202    20035    17528    14708    11703     8665     5624 
    2569     -342    -2897    -4943    -6392    -7256    -7614    -7480 
   -6878    -5948    -4877    -3800    -2812    -1946    -1125     -170 
    1104     2771     4870     7348     9968    12513    14885    16988 
   18706    19992    20846    21222    21073    20424    19363    18061 
   16648    15147    13655    12324    11186    10195     9394     8884 
    8656     8653     8891     9383    10111    10967    11751    12347 
   12819    13284    13745    14108    14278    14230    14003    13633 
   13192    12787    12440    12133    11900    11682    11325    10717 
    9861     8834     7708     6575     5548     4658     3920     3399 
    3136     3113     3269     3559     4002     4637     5506     6639 
    7939     9248    10463    11503    12291    12764    12869    12609 
   12039    11202    10115     8773     7165     5333     3338     1270 
    -723    -2531    -4066    -5224    -5899    -5983    -5444    -4349 
   -2735     -631     1818     4413     6974     9371    11539    13408 
