Origin Time       2025/01/13 21:19:00
Lat.              31.8
Long.             131.6
Depth. (km)       30
Mag.              6.9
Station Code      MYZ005
Station Lat.      32.4286
Station Long.     131.6009
Station Height(m) 26
Record Time       2025/01/13 21:19:45
Sampling Freq(Hz) 100Hz
Duration Time(s)  96
Dir.              E-W
Scale Factor      7845(gal)/8223790
Max. Acc. (gal)   19.930
Last Correction   2025/01/13 21:19:45
Memo.             
[...]
    1567     2077     2326     1873     1420     1587     1907     2173 
    2502     2473     1960     1556     1594     1811     1888     1703 
    1304      959     1248     2278     2816     2023      819      136 
     363     1474     2423     2444     1988     1711     1840     2062 
    2177     2342     2258     1705     1285     1493     2108     2562 
    2455     1894     1336     1084     1069     1117     1302     1885 
    2502     2249     1333     1098     1784     2045     1547     1491 
    1813     1620     1520     2025     2320     2149     2093     2142 
    1746     1221     1467     1958     1740     1614     2195     2582 
    2216     1189       59      -29     1107     2127     2091     1570 
    1119      421     -280       28     1503     2810     2911     2289 
    1424      835     1339     2201     2681     3105     2805     1593 
     999     1926     3303     3083     1254      279     1065     2101 
    2488     2474     2232     1872     1621     1561     1803     2324 
    2709     2712     2508     2154     1294      211      495     2304 
    3289     2523     1220       85     -152      886     1980     2787 
    3504     2744      765      -16      641     1183     1371     1718 
    1819     1526     1783     2311     1921     1306     1502     2070 
    2501     2432     1776     1264     1382     1949     2511     2443 
    1590      295     -633      577     4171     6654     5155     1529 
    -691     -244     1522     2209     1225      151       43      913 
    1962     1960     1432     1341     1235     1463     2556     3449 
    3375     2236      190    -1135     -238     1765     2934     2766 
    1572      414      575     1514     2218     2818     2901     2377 
    2378     2581     2037     1337      924      656      819     1309 
    1772     2505     3441     3828     3778     3771     3168     1518 
     139      579     2232     3078     2317      692     -504     -284 
     788     2095     3851     4334     2490      938      824     1251 
    2752     4276     3472     1390      157     -240      114     1189 
    1975     2126     2112     1888     1599     2039     2679     2031 
     778      337      116       29     1258     2824     2737     1830 
    1532     1210      787      878      827      503      913     1904 
    2543     2627     2047     1250     1787     3504     4175     3196 
    1813      961      992     1383     1490     1933     2629     2149 
     899      594     1113     1714     2462     2656     1880     1417 
    1458      945      473     1038     2000     2346     1960     1672 
    1857     1641     1235     1717     2147     1566     1120     1459 
    1942     2269     2586     2781     2157      955      939     2157 
    2876     3053     3138     2620     2131     2226     1865     1178 
    1339     2020     2454     2628     2315     1398      804      980 
    1057      776      735     1344     2465     2789     1817     1521 
    2485     2462     1024      315     1055     2033     2305     1690 
     982     1271     1818     1298      198     -448     -229      973 
    2536     3306     2859     1736      896     1085     1927     2371 
    2214     1718     1090     1291     2690     3829     3723     2691 
     992     -452     -436      390      823      854     1232     2462 
    3183     2392     1690     1541     1077      864     1117     1756 
    3188     4063     2851      781      -32      872     2110     2003 
     805      322     1337     3010     4396     4849     3653     1389 
      28      359     1464     2463     2716     1667      179      232 
    2137     3905     4050     3076     2022     1416     1368     1350 
     926     1009     2431     3807     3289     1545      434       64 
     106     1344     2910     2724     1290      334      346     1107 
    2080     2855     2798     1352      240     1290     2722     2525 
    1563      612     -263     -164      881     2155     3735     4391 
    3096     1510      355     -141     1729     4144     3311      913 
     697     2344     3599     3321     2189     1223      244      -91 
    1169     2419     1877      550      503     1965     3369     3831 
    3515     2295      472     -561      -44     1038     1282      542 
     -81      554     2606     4446     3771     1309      410     1665 
    2515     1988     1482     1827     2332     2218     1907     1958 
    1691      970      726      749      715     1390     2787     4260 
    5409     5775     5070     3316     1368      488      471      604 
    1096     1757     2276     2882     3134     2664     2138     1802 
    1039     -469    -1679    -1271     -141      152       22      279 
     816     1399     1831     1926     1744     1275      306     -469 
     353     2740     5115     6079     4930     2054     -434     -854 
    -263      247     1202     2238     2894     3843     4259     2882 
    1024      502     1502     2918     3169     2056     1194     2047 
    3777     4244     3508     2728     1497       58     -238      375 
     824     1101     1431     1510     1248      915      568       -1 
    -545     -309      421      918     1772     2633     2301     1991 
    2494     2462     2003     1987     2662     4180     5047     4160 
    3195     2670     1360      240      750     1848     2451     2806 
    2682     1690      994     1810     2874     2812     2697     2844 
    2173     1628     1726      498    -1405    -1421     -378      650 
    2050     2624     2293     2281     1992     1714     2326     2400 
    1221      549     1760     3657     4109     3291     2674     2758 
    3515     4344     4155     2770     1125      442     1605     3591 
    3684     1718      132     -206      704     2296     2288      982 
     900     1723     2658     3501     2563      399     -294      654 
    2397     4008     3889     2841     2080      683       18     2004 
    4189     3906     1931      210     -363      240     1652     2116 
     745     -511     -317     1206     2803     1981      167     1251 
    3585     3765     2928     2516     1688      730     1468     3670 
    4398     2851     1054     -419     -916      367     1362     2101 
    3516     2106     -561     1182     3071      584     -552     1857 
    3647     3844     2839     1806     3001     3986     2338     1707 
    3554     3761     1028     -885      706     3531     3910     2521 
    2112     2101     1418     2258     5140     6150     4476     3754 
    3539     1968     1991     4155     5158     4047      581    -2349 
     615     5856     6673     5659     5717     4125     1738     2188 
    4415     6257     6717     3724     -112      649     3462     3792 
    3678     4398     4194     2686      422      220     3707     6378 
    5931     5609     6353     6914     7231     6813     4903     2898 
    3154     5251     7442     9317     9541     7325     5304     5144 
    6056     7466     6979     3253      919     2442     3701     2733 
    1409      697      795     1381     1810     2751     3924     3434 
    2340     2910     3555     2193     -252    -2087    -2160     -996 
    -706    -1498    -2608    -4261    -4719    -2334       94       27 
    -406      275      392      518     1790     1480     -453      -10 
    1401      -24    -1745    -1830    -3099    -4735    -4063    -2587 
   -1686    -1182    -1194    -1047     -936    -1603    -1482      552 
    2153     1746     1811     3033     2134     -619    -1983    -2980 
   -5277    -6628    -5647    -2550     2439     6264     6794     6320 
    4830     1019    -1077      332     1278     1818     3169     1998 
    -731      241     4938    10250    14200    14396    11384     9994 
   10584     9310     7877     8352     6556     1659    -2643    -6658 
  -10887   -12648   -11472    -8441    -4536    -3036    -4124    -2833 
     349     1132      691     -314    -2724    -3499    -3018    -4132 
   -4479    -3084    -1534     1432     5283     7535     8387     9135 
   10913    13278    14758    16096    16421    13860    11499    10604 
    8060     5020     3866     3457     2845     1300    -1215    -3817 
   -7485   -11246   -11264    -7075     -697     5734     8984     8405 
    6474     3808      384    -2295    -4058    -6234    -8959   -10339 
   -9146    -7543    -6990    -5728    -4664    -5803    -6474    -6084 
   -8627   -12818   -13572   -10810    -6745    -2513     -243     -329 
    -153      467      248     1021     3450     5309     6326     6662 
    5661     4457     3541     1845     -631    -3487    -6466    -8554 
   -8773    -7812    -7469    -7580    -6242    -4229    -4644    -7307 
   -8857    -8326    -7661    -7612    -6903    -5081    -3349    -2143 
    -268     3939    10006    13798    13694    13459    14108    13030 
   10366     7614     4849     2261      473      -21     1189     3580 
    5692     7072     8276     9601    10659    10743    10064     8687 
    5971     2952     1374     2640     7384    11411     9815     6018 
    5881     7711     7408     6145     6258     6562     5841     4756 
    3489     2567     2701     1971    -1421    -4966    -5449    -4641 
   -5718    -6887    -5796    -4209    -3069    -1472     -895    -2735 
   -4147    -2141     1776     5644     9798    13032    12972    10396 
    7820     5437     2448     -625    -3541    -6394    -8349    -9023 
   -9212    -9563   -10339   -11701   -12125    -9632    -5829    -3618 
   -2934    -2346     -927     1210     2963     3970     3848     1891 
     402     2069     4799     6183     7258     8262     8390     7754 
    5788     3091     2284     3748     5628     6619     5992     4054 
    2089     1096     1760     3445     4583     6080     9109    11267 
   10967    10257    11049    13591    16264    16274    14046    13231 
   14449    14654    12802     9864     5863     2664     2544     2251 
    -920    -2945    -1845     -989    -1328    -1414     -765     1139 
    3122     3191     2532     1713     -857    -3235    -2358      423 
    2126     1837      496     -819    -1525    -1347    -1684    -3558 
   -4536    -3692    -3878    -5651    -7240    -8125    -7992    -7458 
   -7672    -6709    -3084      683     3299     5643     7248     8862 
   11842    14185    14196    12808    10966    10030    10365    10087 
    9269     8938     7920     6928     6856     4337     -931    -4591 
   -6193    -7110    -6558    -5853    -6585    -6066    -2119     2319 
    4189     4760     5406     5298     4761     5036     6605     8880 
    8969     5643     3072     3439     3470     2307     1846     1175 
    -271     -467      924     2288     2567     1583     -251    -2455 
   -4256    -5047    -5749    -7333    -8837    -8222    -4500      706 
    4303     5941     8344    10893     9845     6801     6500     8530 
    9799     9304     7149     3946     1219        4     -248    -1023 
   -2868    -4122    -3599    -2323     -467     1622     1934     1123 
     683    -1100    -3557    -2286     3183     9094    13008    14480 
   14265    13474    12294    11333    10802     9047     5830     2624 
    -160    -2404    -3523    -3530    -3705    -5813    -9660   -13320 
  -15658   -15881   -13379    -9505    -5915    -3303    -3078    -5073 
   -5962    -4153    -1594     -311     -781    -2180    -2822    -1231 
    2014     4059     3534     2447     2500     3580     5904     9290 
   12170    13217    12033     9131     5891     3289     1354      -94 
   -1505    -3315    -4711    -4407    -2721    -1405    -1501    -2053 
   -1871    -1143      928     5462     9617    10091     8546     8128 
    8824     8625     7048     5555     3969     1143     -985     -253 
    2012     3476     2997     1675     1121     -427    -3430    -3692 
   -1061      554     2084     5124     7055     7357     7674     7771 
    8208     9387     9628     9116     9113     9070     8563     7653 
    6345     4735     2025    -1684    -4388    -5724    -6129    -3997 
     356     4197     6941     8241     7477     6875     7380     6698 
    4560     2687     1622     1071      201    -1246    -1794    -1287 
   -1536    -2416    -2297    -1212     -311       32      641     2658 
    5471     6801     6261     4685     1329    -2465    -3541    -2878 
   -2173     -226     2025     2474     1729      373    -1428    -2720 
   -3932    -5628    -6277    -4850    -2477     -868      -94     1327 
    2916     2976     2956     5043     8259    11010    12722    12135 
    9045     5856     3878     2309     1686     2606     3072     1773 
    -419    -3191    -6054    -7746    -8573    -9578   -10795   -12023 
  -12349   -10039    -5119     -110     2679     3699     5375     8163 
    9737     9250     8128     6756     4810     3284     2832     2490 
    1445     -611    -3831    -6782    -7256    -5328    -3566    -3566 
   -3875    -3211    -2478    -1806     -513      869     2004     3472 
    5543     7573     8263     7423     6870     7884     9263     9452 
    8837     9001    10463    11047     8367     3870      642     -730 
    -824      279     1722     2560     3310     4799     7173    10473 
   13751    14794    13545    12050    10274     7140     3207     -436 
   -3427    -5783    -6558    -4313      518     5217     6606     3890 
    -124    -1606      614     4050     5483     3780      -44    -3200 
   -3605    -2721    -2789    -3750    -4469    -4148    -3793    -6168 
  -11615   -16920   -19145   -17305   -12425    -7341    -3674     -502 
    2930     6457    10173    13477    14752    13952    12340     8792 
    1863    -5903   -11452   -14153   -13510    -9936    -5626    -2448 
   -1318    -1282      589     5555    11107    13269    11068     8272 
    7865     8233     7709     6736     5564     4885     5109     4758 
    3376     1853      113    -1318     -924     1516     4434     5906 
    5413     3645     1464     -310    -1579    -2948    -4756    -6810 
   -8360    -8614    -7600    -5528    -2621      176     2430     4865 
    7589     9995    12209    14231    14756    12469     7792     2818 
   -1005    -4094    -6679    -7894    -7362    -6224    -6064    -6895 
   -7481    -7074    -5948    -5232    -5501    -5688    -4741    -3325 
   -3053    -3985    -3784     -789     3595     6843     7530     5744 
    3493     3474     6068     8996    10559    11634    13182    13999 
   12953    10794     8642     6787     4760     2043     -372     -457 
    1363     2278     1725      980       -2     -607      461     2386 
    3990     4988     5055     4610     4363     4545     5377     6397 
    6795     6276     4482     1858     -113    -1109    -1846    -2689 
   -3685    -4430    -4585    -4518    -4579    -4652    -4405    -3391 
   -1217     1495     3032     2924     2787     4008     6536     9020 
    9440     7551     5887     6848    10006    13101    14161    11997 
    7354     2899     -410    -3450    -5597    -5933    -4677    -1675 
    2506     5688     6606     5589     3229      766     -191      426 
    1233     1035     -699    -3649    -6372    -7398    -6694    -5389 
   -4162    -2439      545     3959     6064     7269     9432    11851 
   11952     9529     6747     5142     4862     5236     5390     4773 
    3057      577    -1221    -1456    -1313    -1744    -1768    -1030 
    -147     1296     3237     4374     4249     3191     1962     1912 
    2970     4066     4959     4801     3298     2313     1961      827 
     160     1001     1566      891     -413    -2269    -4247    -4838 
   -3107      155     3032     4361     4538     4356     4351     4198 
    2832      943      735     2633     5186     6924     7125     6372 
    5683     4594     1903    -1849    -4592    -5617    -6015    -6467 
   -7160    -7943    -7641    -6008    -4568    -3715    -2327     -391 
    1676     4696     8486    11253    12681    13932    15122    15619 
   15059    12838     9151     5657     3088      847    -1062    -2515 
   -3716    -4333    -4189    -3343    -1354     1371     3434     4486 
    4951     4590     3163     1389      -55    -1512    -3407    -5814 
   -8761   -11229   -11846   -11025   -10003    -8812    -6517    -2614 
    1879     5298     7284     8521     9273     9566     9706     9958 
   10659    12113    13857    15079    15792    16487    16841    16043 
   14134    11323     6991     1595    -2760    -5468    -8023   -11395 
  -15256   -18297   -18990   -17658   -16108   -14940   -13528   -11573 
   -8978    -6073    -4492    -5302    -6930    -7449    -6508    -3871 
     294     4395     7327     9024     9512     9668    10297    10521 
    9798     9207     9418     9775     9614     9367    10080    11857 
   13414    13585    12675    11956    11736    10932     8992     6590 
    4604     3638     3654     3825     3172     1092    -2236    -5726 
   -7842    -7500    -5364    -3416    -2625    -2317    -1378      537 
    2290     2733     2411     2072     1594     1223     1398     1822 
    2178     2701     3141     2465      526    -1147    -1482    -1746 
   -3391    -5243    -5317    -3535     -953     1293     1957      704 
   -1293    -2439    -1999     -491     1105     2412     4143     7026 
   10085    11612    10975     8718     6443     5537     5217     3846 
    1868      899     1058     1845     3181     4094     3267      508 
   -3080    -5575    -6369    -6625    -6486    -5440    -4133    -2766 
    -924      642      996      194    -1282    -3157    -5348    -7069 
   -7485    -7044    -5767    -2783     1254     4850     7496     9018 
    9471     9359     9050     8880     8996     9130     9259     9555 
    9710     9558     9393     8985     7753     5913     4172     2725 
    1466      919     1818     3700     5420     6743     7761     7817 
    6588     4816     3343     2211      627    -2029    -5189    -7650 
   -8862    -9188    -9219    -9455    -9896    -9894    -9278    -8419 
   -7242    -5822    -4992    -4884    -4074    -1579     2042     5790 
    8332     8726     7639     5799     3387     1401      688     1084 
    2182     2806     1942      828     1231     3256     6087     8514 
    9544     9695     9828     9378     7817     5894     4356     3410 
    2739     1267    -1351    -3483    -3404    -1787     -765    -1148 
   -2242    -3511    -4797    -5579    -5251    -4105    -3075    -2698 
   -2623    -1902     -238     1613     3302     5065     6631     7740 
    8833    10222    11765    13181    13986    13532    11473     8060 
    3728     -777    -4291    -6388    -7150    -6241    -4006    -1208 
    2169     5328     6589     6075     5576     6019     6662     6534 
    5891     5784     6261     6045     4796     3676     2799     1370 
    -271    -1907    -3883    -5227    -5004    -3564     -758     3114 
    6031     6594     5101     2482     -290    -2631    -4500    -5979 
   -6864    -7195    -7886    -9009    -8815    -6754    -4490    -2998 
   -1925     -741     1174     3727     5606     5933     5391     4939 
    4410     3032     1140      129      171      214      261     1159 
    3076     5159     6072     5290     3854     3372     4376     5917 
    6833     6745     6210     6242     7055     8079     8922     9200 
    8687     7909     7577     7797     8212     8343     7364     4626 
