Origin Time       2025/01/13 21:19:00
Lat.              31.8
Long.             131.6
Depth. (km)       30
Mag.              6.9
Station Code      MYZ018
Station Lat.      31.3987
Station Long.     131.3054
Station Height(m) 12
Record Time       2025/01/13 21:19:47
Sampling Freq(Hz) 100Hz
Duration Time(s)  103
Dir.              U-D
Scale Factor      7845(gal)/8223790
Max. Acc. (gal)   24.561
Last Correction   2025/01/13 21:19:46
Memo.             
[...]
  -10092   -10376   -11342   -12564   -13284   -13150   -12379   -11403 
  -10613   -10353   -10748   -11399   -11523   -10600    -8915    -7474 
   -7210    -8139    -9298    -9424    -7830    -5003    -2141       -4 
    1391     2223     2701     3285     4349     5574     6191     5767 
    4355     2309      360     -684     -730     -488     -490     -560 
    -510     -603    -1059    -1772    -2582    -3311    -3667    -3510 
   -3140    -3096    -3624    -4540    -5553    -6504    -7435    -8552 
   -9942   -11415   -12611   -13113   -12734   -11888   -11229   -10795 
  -10191    -9495    -9112    -8878    -8256    -7299    -6631    -6509 
   -6625    -6891    -7631    -8858   -10091   -10929   -11292   -11105 
  -10237    -8796    -7184    -5732    -4484    -3375    -2371    -1401 
    -317      877     1865     2330     2382     2509     3114     4158 
    5071     5088     3838     1603     -900    -2767    -3295    -2690 
   -2123    -2600    -4081    -5892    -7404    -8236    -8248    -7534 
   -6426    -5364    -4662    -4437    -4661    -5283    -6312    -7555 
   -8567    -9007    -8876    -8537    -8510    -9131   -10384   -11736 
  -12305   -11716   -10650   -10153   -10692   -11947   -13097   -13188 
  -11661    -8937    -6269    -4696    -4326    -4753    -5556    -6162 
   -6011    -5174    -4220    -3488    -2882    -2134    -1027      417 
    1752     2365     2112     1449      832      453      411      518 
     112    -1256    -3138    -4563    -5062    -5130    -5536    -6493 
   -7730    -8949    -9859   -10035    -9153    -7329    -5084    -3044 
   -1690    -1227    -1611    -2625    -3892    -5020    -5883    -6718 
   -7804    -9116   -10300   -10863   -10600    -9896    -9394    -9382 
   -9686    -9952    -9926    -9636    -9374    -9458    -9848    -9969 
   -9108    -7234    -5198    -3879    -3314    -2690    -1142     1270 
    3385     3974     2852      935     -438     -337     1086     2729 
    3477     2824      822    -1768    -3481    -3256    -1630     -211 
      14     -604    -1089     -878     -283       75      -90     -908 
   -2358    -3862    -4607    -4498    -4406    -5405    -7793   -10909 
  -13732   -15531   -16204   -16191   -15974   -15796   -15832   -16121 
  -16380   -16205   -15385   -13995   -12326   -10760    -9585    -8833 
   -8392    -8170    -8054    -7906    -7576    -6871    -5725    -4445 
   -3487    -2957    -2559    -2097    -1703    -1308     -396     1354 
    3627     5821     7466     8271     8110     7063     5368     3431 
    1804      715     -236    -1375    -2335    -2681    -2682    -2870 
   -3253    -3545    -3836    -4386    -4996    -5277    -5348    -5481 
   -5395    -4788    -4075    -4001    -4866    -6482    -8455   -10192 
  -11129   -11261   -10906   -10114    -9132    -8992   -10497   -13070 
  -15541   -17440   -18586   -18353   -16515   -14049   -12109   -10808 
   -9637    -8472    -7361    -5946    -4014    -1989     -148     1729 
    3488     4368     3971     2812     1841     1605     1914     2330 
    2546     2151      834     -924    -2188    -2660    -2712    -2658 
   -2574    -2396    -1831     -633      738     1336      774     -514 
   -2002    -3680    -5814    -8213   -10345   -12023   -13267   -13927 
  -13946   -13362   -12046   -10230    -8742    -7948    -7319    -6705 
   -6953    -8526   -10465   -11344   -10665    -9070    -7719    -7493 
   -8506   -10212   -11840   -12622   -11974    -9864    -6875    -3577 
    -191     2984     5436     6538     5476     1903    -2934    -6690 
   -7992    -7384    -6261    -5753    -6486    -8272    -9875    -9927 
   -8275    -6057    -4581    -4357    -4842    -4855    -3547    -1143 
    1162     1972      693    -1915    -4376    -5520    -4847    -2667 
    -257      837      106    -1796    -3950    -5599    -6188    -5506 
   -3794    -1907    -1189    -2385    -4908    -7688   -10041   -11412 
  -11349   -10253    -9602   -10681   -13080   -15102   -15707   -15331 
  -14845   -14596   -14470   -14103   -13086   -11265    -8726    -5738 
   -2968    -1144     -209      629     1899     3316     4318     4939 
    5782     6964     7680     7176     5687     3921     2143      306 
   -1513    -3199    -4739    -6123    -7164    -7452    -6714    -5285 
   -3989    -3573    -4255    -5591    -6698    -6671    -5094    -2558 
    -355      468     -498    -2772    -4739    -4846    -3246    -1478 
    -858    -1599    -3006    -4260    -5108    -5836    -6636    -7258 
   -7462    -7501    -8068    -9830   -12537   -14886   -15989   -16255 
  -16407   -16707   -17176   -17518   -17059   -15485   -13382   -11545 
  -10071    -8441    -6208    -3431     -653     1545     2839     3148 
    2789     2358     2255     2562     3041     3323     3542     4156 
    4808     4413     2686      641     -643    -1096    -1571    -3022 
   -5385    -7186    -6899    -4679    -2165     -989    -1957    -4727 
   -7655    -8699    -6966    -3381     -195      378    -2189    -6264 
   -9358    -9877    -8014    -5551    -4437    -5236    -7118    -9018 
  -10211   -10489   -10517   -11314   -13014   -14855   -16094   -16094 
  -14250   -10864    -7437    -5427    -5184    -6119    -7354    -8152 
   -8152    -7456    -6538    -5900    -5671    -5678    -5871    -6230 
   -6571    -6774    -6727    -6039    -4411    -2184     -164     1019 
    1132       86    -1915    -4228    -6231    -7501    -7472    -5782 
   -3140    -1061     -611    -1752    -3716    -5584    -6575    -6304 
   -5011    -3431    -2424    -2598    -3831    -5000    -4725    -2656 
     164     2131     2047     -220    -3433    -5513    -5182    -3217 
   -1618    -1532    -2567    -3809    -4603    -4788    -4687    -4491 
   -4014    -3400    -3275    -3802    -4426    -4827    -5165    -5278 
   -4730    -3630    -2762    -2879    -4099    -5995    -7893    -8866 
   -8233    -6656    -5879    -6733    -8415    -9913   -10694   -10184 
   -8260    -6149    -5489    -6442    -7576    -7581    -6459    -5094 
   -4257    -4135    -4432    -4576    -4077    -3141    -2606    -2899 
   -3554    -4043    -4299    -4224    -3585    -2623    -1814    -1058 
     105     1533     2339     1714     -280    -2648    -4186    -4475 
   -4221    -4550    -6054    -8552   -11434   -13865   -14891   -14062 
  -12167   -10717   -10629   -11715   -13054   -13651   -13080   -11688 
  -10149    -8818    -7450    -5786    -4353    -3983    -4468    -4688 
   -4176    -3542    -3352    -3515    -3743    -4093    -4849    -6048 
   -7273    -7896    -7549    -6486    -5244    -3994    -2581    -1220 
    -598    -1005    -1826    -2101    -1301      405     2300     3542 
    3753     3198     2296     1154     -410    -2462    -4569    -6077 
   -6698    -6602    -6169    -5771    -5626    -5751    -5942    -5887 
   -5339    -4309    -3373    -3478    -4934    -7069    -9181   -11199 
  -13223   -14891   -15568   -15017   -13601   -11794    -9977    -8750 
   -8696    -9624   -10523   -10450    -9261    -7447    -5474    -3639 
   -2376    -1991    -2110    -2101    -1865    -1599    -1368    -1458 
   -2415    -4230    -6050    -7057    -7192    -6735    -5690    -3983 
   -1850      309     2189     3639     4666     5209     4895     3468 
    1520      264      190      236    -1113    -4135    -7715   -10415 
  -11411   -10932    -9983    -9420    -9428    -9960   -10968   -11970 
  -12252   -11809   -11427   -11627   -12054   -12104   -11747   -11360 
  -11105   -10935   -10852   -10809   -10466    -9352    -7346    -4858 
   -2581    -1093     -441      -67      567     1476     2312     2714 
    2650     2538     2809     3384     3773     3643     3013     1989 
     853      160      189      688     1333     1883     2065     1711 
     838     -427    -1908    -3439    -4981    -6701    -8820   -11092 
  -12579   -12455   -11159   -10233   -10705   -12148   -13504   -14061 
  -13533   -12043   -10260    -9054    -8873    -9494   -10230   -10377 
   -9809    -9224    -9302    -9671    -9390    -8280    -7122    -6731 
   -7245    -8163    -8634    -7900    -5921    -3562    -1838     -976 
    -437      307     1340     2471     3298     3192     1908      178 
    -930    -1155    -1057    -1302    -2427    -4592    -7184    -9155 
   -9979   -10033   -10058   -10396   -10832   -10932   -10373    -9163 
   -7542    -5626    -3446    -1324      180      760      469     -535 
   -2085    -3821    -5337    -6615    -7947    -9300   -10181   -10278 
   -9791    -9019    -8120    -7319    -6775    -6471    -6478    -6814 
   -7045    -6525    -5173    -3761    -3308    -4163    -5620    -6481 
   -6137    -5081    -4185    -3724    -3499    -3451    -3705    -4190 
   -4557    -4525    -4241    -4199    -4754    -5759    -6659    -6967 
   -6625    -5892    -5044    -4388    -4201    -4349    -4353    -3943 
   -3203    -2245    -1081      209     1360     2015     1969     1372 
     735      511      573      413     -299    -1559    -2970    -3931 
   -4333    -4738    -5533    -6438    -6994    -7040    -6689    -6305 
   -6261    -6497    -6675    -6747    -6968    -7472    -8206    -9082 
   -9829   -10027    -9609    -8922    -8205    -7453    -6724    -6237 
   -6192    -6583    -7141    -7519    -7569    -7511    -7657    -7850 
   -7553    -6619    -5483    -4671    -4542    -5254    -6484    -7483 
   -7726    -7248    -6238    -4819    -3310    -2188    -1567     -959 
     203     1811     3146     3716     3532     2690     1173     -808 
   -2790    -4557    -6284    -8031    -9493   -10355   -10575   -10247 
   -9435    -8268    -7024    -5890    -4811    -3634    -2439    -1606 
   -1347    -1343    -1229    -1105    -1097     -958     -511      -79 
    -191    -1017    -2196    -3171    -3773    -4432    -5725    -7762 
   -9946   -11389   -11718   -11380   -11049   -10979   -11063   -11118 
  -10898   -10291    -9705    -9759   -10291   -10179    -8640    -6330 
   -4762    -4806    -5987    -7213    -7782    -7591    -6912    -6281 
   -6218    -6960    -8267    -9356    -9486    -8664    -7442    -6270 
   -5375    -4851    -4545    -4075    -3207    -2092    -1077     -379 
      14      352      896     1580     2110     2339     2301     1899 
     954     -444    -1915    -3184    -4253    -5132    -5645    -5744 
   -5671    -5647    -5647    -5562    -5335    -5000    -4722    -4741 
   -5202    -5918    -6330    -6066    -5597    -5786    -6903    -8471 
   -9780   -10347   -10099    -9358    -8671    -8475    -8735    -9100 
   -9406    -9652    -9563    -8814    -7682    -6906    -6891    -7418 
   -8074    -8772    -9637   -10361   -10193    -8872    -6998    -5185 
   -3361    -1124     1543     4122     6064     7152     7360     6642 
    5094     3113     1128     -700    -2417    -4108    -5844    -7595 
   -9053    -9714    -9378    -8326    -6863    -5150    -3396    -1750 
    -325      552      519     -487    -2284    -4469    -6519    -8240 
   -9877   -11611   -13296   -14598   -15151   -14635   -13008   -10731 
   -8552    -6899    -5617    -4376    -3289    -2832    -3096    -3581 
   -3874    -4072    -4445    -5109    -6147    -7657    -9428   -10876 
  -11519   -11206    -9915    -7805    -5412    -3275    -1453      259 
    1833     3025     3638     3545     2613      796    -1698    -4475 
   -7126    -9324   -10976   -12181   -12858   -12727   -11707   -10077 
   -8070    -5566    -2673     -282      531     -477    -2593    -4833 
   -6507    -7271    -7173    -6793    -6863    -7427    -7699    -6937 
   -5128    -2766     -427     1256     1790     1227       48    -1409 
   -3041    -4702    -6254    -7682    -8961    -9934   -10428   -10376 
   -9782    -8567    -6546    -3639     -311     2331     3326     2668 
    1092     -638    -1954    -2461    -2147    -1555    -1348    -1653 
   -2115    -2515    -2934    -3474    -4077    -4515    -4553    -4182 
   -3734    -3785    -4800    -6810    -9427   -12073   -14152   -15298 
  -15487   -14883   -13755   -12488   -11419   -10484    -9256    -7616 
   -6011    -4835    -4035    -3458    -3126    -3080    -3233    -3445 
   -3726    -4256    -5150    -6354    -7722    -8957    -9622    -9396 
   -8371    -7042    -5938    -5293    -5117    -5429    -6205    -7152 
   -7823    -7982    -7747    -7416    -7279    -7561    -8357    -9533 
  -10825   -11920   -12339   -11701   -10200    -8352    -6467    -4564 
   -2619     -734      996     2637     4248     5705     6704     6990 
    6628     5906     4963     3707     2133      535     -750    -1613 
   -2077    -2135    -1872    -1378     -521      715     1876     2490 
    2569     2278     1530      234    -1448    -3362    -5471    -7615 
   -9335   -10214   -10389   -10467   -10941   -11916   -13333   -15120 
  -16989   -18381   -18913   -18866   -18860   -19128   -19402   -19226 
  -18256   -16545   -14473   -12349   -10339    -8565    -6999    -5386 
   -3523    -1609     -172      406      184     -436     -958     -961 
    -294      756     1594     1910     1944     2043     2319     2733 
    3200     3688     4355     5360     6485     7258     7595     7877 
    8379     9015     9494     9444     8581     6814     4206     1121 
   -1892    -4677    -7469   -10335   -13009   -15106   -16343   -16625 
  -16038   -14939   -13857   -13101   -12590   -12104   -11666   -11599 
  -12318   -13981   -16231   -18519   -20497   -22022   -23143   -23916 
  -24124   -23517   -22195   -20470   -18482   -16031   -12792    -8765 
   -4255      479     5332    10098    14264    17424    19604    20644 
   20017    17752    14800    12154    10038     8348     7203     6440 
    5544     4321     2909     1552      523      -99     -411     -494 
    -449     -399     -513     -990    -1956    -3433    -5170    -6686 
   -7935    -9344   -10994   -12552   -13848   -15066   -16465   -18022 
  -19503   -20730   -21632   -22324   -23026   -23785   -24301   -24007 
  -22632   -20475   -17865   -14920   -11866    -9049    -6623    -4598 
   -3024    -1906    -1093     -427       91      417      562      688 
    1048     1638     2133     2388     2629     3055     3611     4074 
    4201     3834     3017     2096     1497     1291     1156      787 
     240     -309     -959    -1838    -2690    -3191    -3325    -3227 
   -3046    -2945    -2982    -3073    -3114    -3183    -3645    -4729 
   -6223    -7765    -9092   -10158   -11115   -11948   -12357   -12083 
  -11164    -9927    -8664    -7375    -5984    -4688    -3856    -3627 
   -3816    -4189    -4580    -4860    -5061    -5432    -6180    -7245 
   -8333    -9167    -9564    -9437    -9045    -8899    -9215    -9710 
  -10029   -10069    -9882    -9509    -9058    -8746    -8785    -9181 
   -9698   -10170   -10677   -11244   -11627   -11512   -10741    -9435 
   -7905    -6389    -4928    -3473    -1941     -278     1489     3229 
    4733     5821     6443     6631     6504     6293     6123     5733 
    4726     3069     1102     -824    -2581    -4216    -5644    -6602 
   -7047    -7148    -7036    -6801    -6435    -5850    -5151    -4780 
   -5120    -6004    -6909    -7419    -7412    -7169    -7176    -7597 
   -8166    -8527    -8496    -8116    -7707    -7709    -8314    -9320 
  -10363   -11223   -11959   -12609   -12885   -12491   -11422    -9791 
   -7716    -5408    -3186    -1267      456     2238     3944     5101 
    5578     5772     6110     6615     6995     6957     6301     4963 
    3057      756    -1759    -4290    -6681    -8837   -10665   -11847 
  -11865   -10565    -8391    -6027    -3994    -2477    -1377     -495 
     198      495      268     -367    -1269    -2305    -3315    -4320 
   -5532    -7079    -8864   -10642   -12154   -13294   -14103   -14690 
  -15276   -16038   -16787   -17099   -16812   -16173   -15484   -14918 
  -14555   -14393   -14350   -14265   -14034   -13725   -13332   -12654 
  -11550    -9977    -7901    -5435    -2971     -861      950     2733 
    4422     5609     6079     5927     5271     4199     2845     1489 
     514       36     -175     -310     -375     -365     -315     -283 
    -426     -954    -1938    -3222    -4635    -6172    -7774    -9208 
  -10285   -11040   -11605   -11969   -11939   -11438   -10606    -9637 
   -8586    -7314    -5809    -4340    -3142    -2245    -1572     -980 
    -425     -128     -329    -1020    -2002    -3007    -3832    -4438 
   -4914    -5341    -5719    -6054    -6485    -7144    -7812    -8078 
   -7902    -7620    -7457    -7426    -7545    -7816    -8095    -8145 
   -7731    -6683    -5148    -3638    -2554    -1841    -1223     -611 
    -141       67       -1     -380    -1129    -2145    -3126    -3874 
   -4503    -5227    -6050    -6848    -7523    -7836    -7453    -6419 
   -5262    -4483    -4191    -4220    -4365    -4507    -4599    -4617 
   -4610    -4746    -5054    -5212    -4893    -4212    -3464    -2754 
   -2243    -2145    -2405    -2863    -3446    -4118    -4923    -5894 
   -6926    -7861    -8602    -9112    -9370    -9393    -9190    -8803 
   -8337    -7786    -7057    -6259    -5718    -5583    -5629    -5611 
   -5605    -5848    -6403    -7101    -7786    -8380    -8711    -8590 
   -8091    -7403    -6538    -5503    -4545    -3835    -3258    -2670 
   -2093    -1669    -1493    -1482    -1467    -1377    -1264    -1243 
   -1441    -1972    -2860    -3991    -5154    -6126    -6778    -7125 
   -7281    -7268    -7026    -6593    -6045    -5410    -4769    -4280 
   -4079    -4104    -4078    -3744    -3063    -2151    -1227     -591 
    -506     -981    -1763    -2542    -3102    -3349    -3298    -2978 
   -2421    -1787    -1333    -1271    -1622    -2223    -2878    -3483 
   -4051    -4719    -5611    -6705    -7929    -9208   -10409   -11375 
  -12000   -12280   -12306   -12163   -11875   -11443   -10941   -10435 
   -9828    -9023    -8121    -7244    -6380    -5449    -4403    -3308 
   -2301    -1436     -777     -457     -423     -448     -425     -376 
    -294     -151      -13       35      -40     -287     -774    -1498 
   -2401    -3464    -4685    -5998    -7240    -8230    -8961    -9636 
  -10408   -11149   -11620   -11774   -11738   -11595   -11404   -11213 
  -10956   -10561   -10008    -9269    -8353    -7365    -6380    -5314 
   -4048    -2670    -1412     -392      317      608      475        0 
    -749    -1652    -2554    -3410    -4283    -5161    -5906    -6485 
   -7057    -7692    -8241    -8606    -8881    -9128    -9265    -9296 
   -9282    -9065    -8372    -7180    -5751    -4314    -2872    -1408 
    -117      746     1085      961      548       10     -673    -1642 
   -2866    -4139    -5256    -6084    -6569    -6766    -6783    -6636 
   -6245    -5616    -4942    -4410    -4006    -3604    -3154    -2701 
   -2371    -2316    -2551    -2986    -3522    -4071    -4527    -4833 
   -5004    -5022    -4787    -4318    -3781    -3312    -2990    -2843 
   -2897    -3196    -3703    -4230    -4676    -5196    -5999    -7072 
   -8209    -9185    -9863   -10168   -10114    -9861    -9593    -9306 
   -8826    -8016    -6980    -5921    -4885    -3811    -2720    -1752 
   -1013     -445        8      209       36     -400     -872    -1312 
   -1923    -2949    -4411    -6151    -7946    -9579   -10929   -11963 
  -12657   -13086   -13404   -13575   -13428   -12951   -12333   -11689 
