Origin Time       2025/01/13 21:19:00
Lat.              31.8
Long.             131.6
Depth. (km)       30
Mag.              6.9
Station Code      MYZ015
Station Lat.      31.7182
Station Long.     131.0624
Station Height(m) 146
Record Time       2025/01/13 21:19:42
Sampling Freq(Hz) 100Hz
Duration Time(s)  133
Dir.              N-S
Scale Factor      7845(gal)/8223790
Max. Acc. (gal)   36.143
Last Correction   2025/01/13 21:19:42
Memo.             
[...]
   -5865    -5852    -5848    -5853    -5868    -5881    -5883    -5883 
   -5875    -5864    -5867    -5869    -5872    -5880    -5883    -5877 
   -5865    -5864    -5872    -5871    -5867    -5869    -5867    -5865 
   -5872    -5873    -5871    -5873    -5877    -5876    -5872    -5871 
   -5868    -5864    -5869    -5884    -5879    -5863    -5859    -5856 
   -5864    -5880    -5876    -5864    -5864    -5875    -5875    -5867 
   -5873    -5887    -5887    -5876    -5869    -5868    -5871    -5875 
   -5873    -5869    -5865    -5856    -5850    -5863    -5876    -5880 
   -5877    -5872    -5875    -5877    -5875    -5876    -5881    -5881 
   -5872    -5864    -5861    -5865    -5867    -5863    -5863    -5865 
   -5863    -5871    -5879    -5881    -5891    -5888    -5869    -5864 
   -5865    -5864    -5869    -5875    -5875    -5872    -5867    -5857 
   -5853    -5861    -5876    -5887    -5890    -5886    -5876    -5859 
   -5856    -5871    -5881    -5880    -5869    -5860    -5861    -5865 
   -5865    -5865    -5875    -5884    -5879    -5863    -5850    -5857 
   -5876    -5884    -5881    -5873    -5864    -5875    -5884    -5869 
   -5867    -5880    -5877    -5868    -5865    -5859    -5864    -5877 
   -5869    -5871    -5880    -5872    -5872    -5879    -5871    -5871 
   -5873    -5861    -5860    -5875    -5887    -5886    -5873    -5863 
   -5863    -5863    -5863    -5872    -5883    -5880    -5871    -5859 
   -5848    -5856    -5875    -5887    -5894    -5892    -5871    -5848 
   -5850    -5871    -5879    -5873    -5871    -5876    -5873    -5854 
   -5856    -5879    -5894    -5890    -5880    -5875    -5868    -5861 
   -5859    -5857    -5869    -5887    -5880    -5865    -5865    -5872 
   -5875    -5869    -5861    -5861    -5864    -5864    -5865    -5876 
   -5895    -5899    -5871    -5846    -5854    -5871    -5877    -5883 
   -5880    -5873    -5867    -5861    -5867    -5876    -5888    -5887 
   -5863    -5853    -5868    -5873    -5871    -5869    -5875    -5881 
   -5873    -5864    -5865    -5869    -5873    -5873    -5868    -5863 
   -5857    -5859    -5869    -5877    -5872    -5877    -5884    -5877 
   -5872    -5875    -5877    -5872    -5873    -5881    -5868    -5850 
   -5865    -5881    -5873    -5867    -5872    -5876    -5868    -5863 
   -5868    -5877    -5879    -5868    -5856    -5856    -5865    -5879 
   -5891    -5884    -5864    -5859    -5867    -5867    -5869    -5887 
   -5886    -5865    -5853    -5856    -5869    -5872    -5865    -5871 
   -5876    -5877    -5886    -5887    -5875    -5867    -5869    -5877 
   -5871    -5857    -5856    -5863    -5871    -5883    -5886    -5868 
   -5857    -5865    -5873    -5868    -5863    -5869    -5883    -5884 
   -5875    -5872    -5877    -5880    -5881    -5881    -5867    -5861 
   -5872    -5871    -5865    -5865    -5863    -5867    -5863    -5857 
   -5872    -5879    -5869    -5863    -5868    -5881    -5886    -5881 
   -5883    -5883    -5872    -5861    -5860    -5871    -5876    -5869 
   -5873    -5880    -5873    -5857    -5846    -5854    -5875    -5883 
   -5879    -5873    -5867    -5861    -5859    -5863    -5881    -5894 
   -5883    -5871    -5867    -5869    -5881    -5890    -5892    -5881 
   -5859    -5848    -5850    -5860    -5876    -5890    -5891    -5873 
   -5846    -5845    -5865    -5876    -5887    -5888    -5873    -5864 
   -5856    -5849    -5864    -5881    -5887    -5891    -5883    -5868 
   -5877    -5888    -5875    -5869    -5876    -5868    -5852    -5857 
   -5868    -5869    -5877    -5879    -5864    -5863    -5863    -5863 
   -5877    -5886    -5873    -5864    -5861    -5867    -5877    -5880 
   -5877    -5871    -5865    -5868    -5868    -5871    -5880    -5880 
   -5875    -5865    -5854    -5859    -5869    -5879    -5891    -5888 
   -5873    -5860    -5857    -5873    -5886    -5873    -5861    -5864 
   -5863    -5849    -5844    -5861    -5881    -5886    -5884    -5879 
   -5876    -5881    -5877    -5864    -5864    -5871    -5869    -5867 
   -5861    -5857    -5867    -5871    -5868    -5877    -5877    -5867 
   -5871    -5879    -5884    -5890    -5876    -5852    -5840    -5852 
   -5873    -5891    -5895    -5883    -5867    -5864    -5871    -5867 
   -5860    -5863    -5873    -5877    -5872    -5867    -5867    -5872 
   -5875    -5867    -5864    -5868    -5869    -5872    -5880    -5886 
   -5881    -5873    -5865    -5867    -5871    -5867    -5863    -5859 
   -5856    -5861    -5865    -5859    -5850    -5860    -5881    -5896 
   -5900    -5888    -5873    -5875    -5871    -5845    -5826    -5832 
   -5854    -5884    -5915    -5935    -5933    -5903    -5849    -5814 
   -5837    -5886    -5898    -5856    -5796    -5759    -5769    -5841 
   -5931    -5999    -6016    -5961    -5875    -5809    -5773    -5787 
   -5842    -5887    -5891    -5854    -5803    -5780    -5806    -5875 
   -5952    -5977    -5929    -5845    -5757    -5680    -5656    -5721 
   -5865    -6031    -6127    -6096    -5945    -5702    -5460    -5381 
   -5564    -5937    -6292    -6451    -6366    -6130    -5886    -5721 
   -5678    -5730    -5718    -5559    -5421    -5497    -5752    -5994 
   -6077    -6000    -5895    -5908    -6065    -6264    -6282    -5910 
   -5301    -4943    -5104    -5614    -6174    -6552    -6565    -6164 
   -5579    -5224    -5309    -5603    -5767    -5755    -5661    -5502 
   -5383    -5518    -5881    -6053    -5656    -5005    -4942    -5702 
   -6529    -6687    -6241    -5711    -5508    -5805    -6555    -7418 
   -7805    -7233    -5933    -4965    -5058    -5807    -6342    -6141 
   -5331    -4521    -4279    -4788    -5660    -6058    -5431    -4168 
   -3376    -3848    -5239    -6469    -6917    -6870    -6766    -6512 
   -6002    -5528    -5282    -5305    -5692    -6334    -7036    -7719 
   -7970    -7371    -6286    -5366    -4874    -4816    -4954    -5003 
   -5046    -5073    -4594    -3603    -3032    -3437    -4347    -5306 
   -6454    -7798    -8756    -8770    -7997    -7078    -6412    -6064 
   -6207    -6797    -7164    -6810    -6002    -5336    -5305    -5931 
   -6509    -6235    -5115    -3964    -3603    -4062    -4652    -4765 
   -4330    -3646    -3326    -4148    -6157    -8279    -9448    -9445 
   -8716    -7942    -7403    -6952    -6642    -6610    -6728    -6843 
   -6814    -6516    -6104    -5904    -6095    -6455    -6389    -5557 
   -4189    -2833    -2208    -2779    -4355    -6253    -7596    -7757 
   -6902    -5887    -5510    -5841    -6455    -7265    -8294    -9170 
   -9497    -9109    -8006    -6355    -4442    -2695    -1605    -1475 
   -2295    -3796    -5525    -6805    -6995    -6124    -5011    -4515 
   -4720    -5008    -4931    -4641    -4671    -5449    -6810    -8024 
   -8218    -7119    -5663    -5003    -5188    -5686    -6230    -6637 
   -6612    -6043    -5260    -4606    -4148    -4205    -5190    -6646 
   -7546    -7295    -5879    -4086    -3443    -4602    -6528    -7974 
   -8444    -8004    -7176    -6380    -5674    -5289    -4915    -3457 
   -1085      375     -244    -2492    -5057    -6524    -6332    -5221 
   -4371    -4575    -6099    -8480   -10443   -10779    -9594    -8062 
   -7211    -7439    -8429    -9082    -8253    -5913    -3289    -2072 
   -3111    -5254    -6601    -6864    -6683    -6165    -5584    -5697 
   -6727    -7979    -8540    -8194    -7329    -6272    -5394    -4942 
   -4603    -4170    -3650    -3107    -3397    -5042    -6906    -7713 
   -6907    -4522    -1722     -136     -465    -2209    -4287    -5948 
   -7032    -7828    -8781    -9979   -11287   -12307   -12016    -9896 
   -7033    -4993    -4494    -5123    -5891    -6142    -5566    -4276 
   -3264    -3310    -4032    -4837    -5760    -7207    -9161   -10789 
  -11128    -9640    -6296    -2104     1055     1722     -278    -3616 
   -6257    -7133    -6601    -5621    -5096    -5451    -6386    -7098 
   -7047    -6552    -6346    -6718    -7175    -6980    -5918    -4075 
   -1810     -183     -236    -2058    -4799    -7099    -8164    -8320 
   -8230    -8479    -9394   -10536   -11011   -10224    -8363    -6490 
   -5526    -5231    -4810    -3989    -3164    -2987    -3789    -5174 
   -6397    -7024    -7088    -7030    -7387    -8056    -8321    -7865 
   -7172    -6640    -5908    -4591    -3307    -3059    -3597    -3751 
   -3304    -3044    -3456    -4642    -6566    -8274    -8453    -7307 
   -6137    -5826    -6679    -8249    -9379    -9224    -7862    -6066 
   -4598    -3600    -2951    -2543    -2056    -1599    -2185    -4639 
   -8251   -10912   -11137    -9240    -6650    -5162    -5653    -7380 
   -9211   -10112    -9455    -8000    -6597    -4676    -1771     1251 
    3303     3838     2585     -260    -3790    -6844    -8552    -8534 
   -7069    -4918    -2893    -2061    -3353    -6216    -9175   -11265 
  -12046   -11578   -10314    -8549    -6554    -4571    -2829    -2185 
   -3619    -6782    -9923   -11400   -10758    -8567    -5776    -3053 
   -1128    -1036    -2551    -4095    -4874    -5123    -5177    -5409 
   -6096    -7184    -8114    -7823    -5869    -3554    -2965    -4810 
   -7591    -9229    -8877    -6820    -3773     -901      338     -665 
   -2833    -4596    -5837    -7481    -9477   -10617   -10303    -9054 
   -7325    -5012    -2332     -729    -1737    -4835    -8133   -10338 
  -10831    -9769    -8415    -7846    -7852    -7304    -5514    -3246 
   -1945    -2440    -4345    -6640    -8657    -9540    -8302    -5355 
   -2461    -1275    -2292    -4558    -6597    -7573    -7434    -6844 
   -6789    -7619    -8672    -8596    -6613    -3777    -2019    -2478 
   -4920    -7892    -9884   -10396    -9761    -8689    -7730    -6821 
   -5513    -3654    -2049    -1888    -3461    -6151    -8910   -10422 
  -10088    -8297    -5729    -3643    -3156    -3712    -4253    -4676 
   -5270    -6332    -7894    -9177    -8991    -6839    -3682    -1165 
    -341    -1637    -4576    -7626    -9471    -9902    -9273    -7911 
   -6258    -4792    -3730    -3091    -2678    -2425    -3029    -4988 
   -7105    -7549    -6124    -4060    -2420    -1991    -3465    -6141 
   -7722    -7096    -5695    -5378    -6637    -8455    -9252    -8726 
   -7780    -6694    -5393    -4707    -5198    -5809    -5680    -5714 
   -6728    -8010    -8456    -7828    -6700    -5391    -3923    -3117 
   -3585    -4094    -3451    -2361    -1950    -2606    -4104    -5440 
   -5497    -4587    -4158    -5054    -7126    -9185    -9467    -7769 
   -5684    -4411    -4221    -5265    -7267    -9105    -9541    -8112 
   -5421    -2995    -2284    -3327    -4715    -5082    -4753    -5471 
   -8110   -11319   -13051   -12503    -9954    -6393    -3715    -3628 
   -6033    -8860    -9856    -8781    -7015    -5470    -4387    -3943 
   -3840    -3453    -2799    -2774    -4363    -7672   -11510   -14152 
  -14644   -12694    -8259    -2681     1471     2760     1780      -78 
   -1734    -2729    -3577    -5236    -7446    -9082    -9671    -9112 
   -7736    -6693    -6731    -7530    -8669    -9802    -9606    -6771 
   -2415      762     1603     1170      923      611    -1530    -5738 
   -9990   -12834   -14542   -15283   -14420   -12154    -9278    -5798 
   -2197      -27       31    -1062    -1840    -1846    -2038    -3222 
   -4572    -4495    -2706     -507      850      764    -1167    -4646 
   -8212   -10245   -10284    -9281    -8461    -8093    -7915    -8271 
   -9648   -11280   -11423    -9616    -7349    -5786    -4618    -3441 
   -2519    -2147    -1960    -1642    -2357    -5568   -10463   -14350 
  -15283   -13365    -9872    -6227    -4081    -4907    -8521   -12745 
  -15055   -14463   -11801    -8495    -5649    -3796    -2559     -818 
    1960     4553     4959     2039    -3862   -10562   -14717   -14238 
   -9879    -4330     -529     -349    -3122    -5999    -7222    -7680 
   -8777   -10525   -11950   -12020   -10336    -7777    -5409    -3200 
   -1128      -54     -569    -2022    -3331    -4191    -4637    -4477 
   -4108    -4689    -6577    -8307    -8124    -6390    -5219    -5508 
   -6265    -6810    -7206    -7149    -6365    -5471    -5416    -6187 
   -7040    -7920    -9058    -9863    -9802    -8806    -6616    -3504 
    -463     2064     4213     5557     5308     2980    -1518    -7177 
  -11803   -13490   -12186    -9859    -8407    -8235    -8630    -8359 
   -7250    -6748    -7950   -10270   -11921   -11650    -9895    -7839 
   -6220    -5591    -6859   -10451   -15561   -20683   -24163   -24711 
  -22257   -17662   -11637    -5336     -780     1405     2619     3642 
    3561     1223    -3060    -7065    -8469    -6647    -2920      232 
     994    -1313    -6764   -13323   -17545   -18384   -17550   -17089 
  -17829   -19111   -20197   -20583   -19380   -17257   -16614   -18188 
  -20368   -21389   -20609   -17969   -13474    -8141    -3631     -688 
     907     1837     2554     2616     1183    -1699    -4568    -6007 
   -6012    -5086    -3469    -1598     -174      243     -174     -211 
     805     1614     1275     1244     3231     6853    10706    14011 
   16534    18234    18901    18577    18249    18535    18682    17574 
   14909    11572     8843     7180     6219     5690     5537     5606 
    5895     6624     7470     7564     7029     6980     7873     9517 
   11561    13216    13532    11719     7365     1027    -5998   -13108 
  -20730   -28826   -36243   -41532   -43760   -42994   -40294   -37177 
  -34740   -32929   -30524   -25992   -18747    -9553     -268     6847 
   10735    12086    12293    12469    12555    11497     9162     6723 
    4891     3315     1429    -1140    -4517    -8253   -11631   -14547 
  -17104   -18983   -20086   -20310   -19110   -16757   -14744   -14143 
  -14810   -16137   -17410   -17633   -16151   -13356   -10077    -6870 
   -4251    -2839    -2952    -4232    -5775    -7241    -9479   -12897 
  -16206   -17491   -15514   -10523    -4502      -52     1138    -1163 
   -5651    -9699   -11292   -10872   -10419   -11272   -13559   -16814 
  -20204   -22806   -24004   -23758   -22758   -21859   -21537   -21462 
  -20561   -18099   -14099    -9486    -5931    -4472    -5053    -6793 
   -7948    -7389    -5815    -4675    -4927    -6470    -8550   -10552 
  -11500   -10631    -8716    -6975    -5880    -5408    -5205    -4882 
   -4243    -3121    -1509       -4      564      333      276      814 
    1524     1831     1355      352      -63      819     2648     5054 
    7689     9796    10786    10663     9933     8715     6686     4160 
    1476    -1498    -4203    -5587    -5478    -4779    -4541    -5138 
   -6569    -8800   -11041   -11970   -11288    -9514    -7038    -4515 
   -2728    -2097    -2911    -5375    -9616   -15691   -22859   -29299 
  -33732   -36247   -36726   -34600   -30399   -25454   -20521   -15850 
  -11448    -6951    -2315     1957     5730     9084    11418    12189 
   11902    11356    10870    10343     9486     8499     7975     7950 
    7971     7863     7979     8868    10754    13466    16341    18142 
   17842    15280    10840     5386       52    -4425    -7651    -9382 
   -9576    -8496    -7018    -6110    -5944    -6261    -6735    -6786 
   -6022    -4506    -2363      145     2361     3546     3538     2359 
    -517    -5205   -10748   -16190   -20968   -24752   -27588   -29704 
  -31391   -32902   -34106   -34506   -33693   -31806   -29197   -25681 
  -21114   -16069   -10836    -5151      966     7036    12029    15217 
   16800    16615    13886     8608     2330    -2405    -4272    -4113 
   -2903     -865     1372     3048     4228     5142     5555     5206 
    3929     1440    -2226    -6448   -10743   -14798   -17766   -19059 
  -19326   -19697   -21161   -23928   -26669   -28188   -28597   -27994 
  -26419   -24286   -21736   -18559   -14593   -10111    -5779    -2222 
     315     2285     3935     4403     3528     2902     3757     5926 
    8472    10087     9904     7943     4815     1564     -850    -2064 
   -2412    -2668    -3376    -4380    -4835    -3981    -2076     -257 
     -75    -2759    -7954   -13806   -18450   -20741   -20441   -18288 
  -15311   -12619   -11213   -10744    -9938    -8465    -7130    -6957 
   -8338   -10563   -12417   -13401   -14050   -15167   -17112   -19498 
  -21334   -21636   -20251   -18164   -16109   -13435    -9369    -4162 
    1236     5764     8576     9140     7281     3465     -824    -3900 
   -5719    -7770   -11030   -15040   -18350   -19705   -18835   -16006 
  -12364   -10075    -9895    -9856    -7699    -3546      602     3573 
    5566     6567     6450     5552     4365     3360     2490     1533 
    1124     1779     2565     2583     2681     3693     5028     6454 
    8492    10805    12015    10804     7213     2992      305      -33 
    1267     3341     5547     6862     6451     4685     2427       60 
   -1865    -2704    -2570    -1800     -608      908     3073     5582 
    7069     6477     3773     -149    -4395    -8974   -14054   -19013 
  -22806   -25276   -27688   -30932   -34234   -36628   -37878   -37561 
  -35063   -31037   -27116   -23908   -21149   -18698   -16287   -13825 
  -11618    -9863    -8672    -8008    -7438    -6409    -4571    -2155 
    -301     -195    -1732    -3735    -4847    -3954     -631     4699 
   10536    14854    17058    17647    16551    14015    10991     7974 
    4854     1161    -3307    -7479    -9682    -9543    -8149    -6367 
   -4180    -1426     1444     3609     5229     7195     9371    10756 
   10666     8860     5265      -59    -6924   -14933   -23053   -29933 
  -35087   -38618   -40389   -40680   -39985   -37952   -34333   -29687 
  -24486   -19211   -14083    -8116    -1015     5659    10777    14254 
   16183    17010    16920    15576    13116     9949     6081     1698 
   -2147    -4253    -4475    -3375    -1659     -306       16     -789 
   -2465    -4318    -5757    -6755    -7569    -8263    -8711    -9737 
  -12615   -16507   -19823   -22881   -26092   -29008   -31282   -32228 
  -31029   -27715   -23407   -19279   -15741   -13444   -13169   -14638 
  -16881   -18590   -17903   -13710    -7227     -506     5412     9882 
   12356    12517    10530     7211     3045    -1332    -4371    -5501 
   -5283    -3607     -684     1647     1444    -1221    -4530    -6928 
   -7364    -5472    -2266     1359     4747     6951     8586    11449 
   15993    20656    22995    21547    16591     9815     3588     -664 
   -3231    -4828    -5794    -6948    -8618    -9321    -8469    -7214 
   -6035    -5310    -5717    -6941    -8162    -8849    -9136   -10023 
  -12687   -17100   -21255   -23237   -23145   -21594   -18862   -15749 
  -12962   -10139    -6436    -1903     2408     6066     9564    12719 
   14708    15433    15314    14403    12486     9556     5634      622 
   -5073   -10341   -14150   -16278   -17131   -16879   -15346   -12731 
   -9666    -6771    -4371    -2481    -1181     -824    -1575    -3375 
   -6169    -9304   -11712   -13311   -14864   -16591   -18090   -19129 
  -19734   -19676   -18557   -16147   -12189    -6575       60     6335 
   10863    13065    12583     8716     1748    -6353   -13714   -19738 
  -24258   -27390   -29843   -31720   -32358   -31618   -29870   -27824 
