Origin Time       2025/01/13 21:19:00
Lat.              31.8
Long.             131.6
Depth. (km)       30
Mag.              6.9
Station Code      MYZ016
Station Lat.      31.6131
Station Long.     131.3745
Station Height(m) 9
Record Time       2025/01/13 21:19:39
Sampling Freq(Hz) 100Hz
Duration Time(s)  147
Dir.              E-W
Scale Factor      7845(gal)/8223790
Max. Acc. (gal)   63.717
Last Correction   2025/01/13 21:19:39
Memo.             
[...]
   -2261    -2262    -2268    -2268    -2269    -2270    -2266    -2265 
   -2268    -2268    -2269    -2268    -2268    -2269    -2272    -2270 
   -2269    -2270    -2263    -2261    -2272    -2272    -2263    -2266 
   -2270    -2268    -2269    -2269    -2263    -2263    -2266    -2266 
   -2266    -2268    -2266    -2266    -2266    -2263    -2262    -2263 
   -2263    -2265    -2265    -2261    -2262    -2265    -2266    -2273 
   -2276    -2272    -2269    -2268    -2268    -2268    -2265    -2265 
   -2270    -2272    -2270    -2270    -2269    -2262    -2259    -2266 
   -2273    -2270    -2265    -2266    -2269    -2265    -2258    -2257 
   -2263    -2270    -2272    -2270    -2269    -2266    -2263    -2263 
   -2263    -2270    -2278    -2268    -2258    -2265    -2269    -2262 
   -2265    -2270    -2272    -2272    -2270    -2268    -2268    -2272 
   -2266    -2262    -2269    -2273    -2269    -2268    -2269    -2268 
   -2266    -2263    -2259    -2263    -2270    -2265    -2257    -2258 
   -2266    -2269    -2270    -2273    -2272    -2268    -2270    -2274 
   -2272    -2263    -2262    -2268    -2270    -2268    -2266    -2263 
   -2261    -2265    -2269    -2268    -2266    -2270    -2269    -2261 
   -2262    -2272    -2272    -2265    -2261    -2261    -2265    -2269 
   -2269    -2270    -2272    -2262    -2258    -2266    -2272    -2269 
   -2270    -2273    -2269    -2270    -2273    -2266    -2261    -2262 
   -2261    -2261    -2268    -2270    -2265    -2263    -2265    -2266 
   -2269    -2269    -2263    -2263    -2265    -2263    -2268    -2270 
   -2262    -2258    -2265    -2270    -2272    -2269    -2265    -2266 
   -2266    -2263    -2265    -2270    -2266    -2262    -2269    -2276 
   -2272    -2270    -2273    -2270    -2266    -2265    -2263    -2262 
   -2266    -2270    -2268    -2263    -2263    -2263    -2268    -2272 
   -2272    -2270    -2270    -2269    -2266    -2265    -2262    -2259 
   -2265    -2272    -2273    -2274    -2272    -2266    -2265    -2265 
   -2265    -2265    -2266    -2265    -2266    -2265    -2259    -2259 
   -2262    -2261    -2262    -2265    -2270    -2274    -2269    -2262 
   -2263    -2266    -2265    -2265    -2266    -2268    -2268    -2265 
   -2263    -2265    -2265    -2269    -2269    -2265    -2266    -2269 
   -2269    -2269    -2269    -2268    -2266    -2266    -2268    -2265 
   -2261    -2261    -2266    -2273    -2276    -2273    -2265    -2262 
   -2259    -2258    -2262    -2265    -2263    -2270    -2273    -2265 
   -2262    -2266    -2263    -2261    -2269    -2273    -2269    -2272 
   -2270    -2265    -2269    -2270    -2261    -2259    -2268    -2270 
   -2268    -2268    -2268    -2265    -2263    -2269    -2272    -2270 
   -2272    -2270    -2268    -2268    -2262    -2258    -2262    -2269 
   -2273    -2270    -2266    -2263    -2268    -2274    -2273    -2266 
   -2263    -2263    -2263    -2269    -2274    -2265    -2257    -2261 
   -2268    -2273    -2273    -2268    -2261    -2262    -2270    -2272 
   -2265    -2266    -2265    -2261    -2262    -2265    -2266    -2268 
   -2263    -2263    -2270    -2272    -2262    -2261    -2268    -2273 
   -2274    -2276    -2276    -2272    -2262    -2255    -2259    -2266 
   -2269    -2272    -2274    -2266    -2258    -2265    -2272    -2268 
   -2262    -2261    -2263    -2268    -2268    -2262    -2261    -2263 
   -2265    -2268    -2272    -2270    -2268    -2270    -2270    -2263 
   -2265    -2268    -2263    -2268    -2270    -2261    -2263    -2273 
   -2273    -2265    -2263    -2266    -2266    -2263    -2263    -2266 
   -2263    -2259    -2263    -2272    -2273    -2269    -2262    -2262 
   -2272    -2274    -2269    -2266    -2266    -2268    -2269    -2272 
   -2274    -2270    -2262    -2257    -2259    -2262    -2266    -2273 
   -2269    -2263    -2263    -2265    -2263    -2262    -2265    -2269 
   -2270    -2273    -2268    -2258    -2258    -2262    -2265    -2270 
   -2273    -2268    -2266    -2273    -2274    -2270    -2268    -2261 
   -2257    -2263    -2276    -2274    -2270    -2272    -2270    -2266 
   -2258    -2253    -2259    -2272    -2273    -2270    -2266    -2263 
   -2266    -2269    -2268    -2272    -2272    -2262    -2259    -2261 
   -2257    -2258    -2265    -2270    -2276    -2274    -2265    -2261 
   -2262    -2265    -2268    -2269    -2263    -2266    -2277    -2278 
   -2272    -2266    -2262    -2259    -2263    -2269    -2270    -2270 
   -2272    -2272    -2268    -2257    -2257    -2270    -2272    -2265 
   -2263    -2261    -2259    -2268    -2274    -2272    -2265    -2261 
   -2259    -2265    -2266    -2266    -2274    -2277    -2269    -2259 
   -2262    -2272    -2273    -2268    -2263    -2261    -2263    -2265 
   -2269    -2276    -2272    -2268    -2278    -2281    -2266    -2262 
   -2265    -2259    -2258    -2265    -2266    -2263    -2268    -2272 
   -2268    -2263    -2265    -2262    -2259    -2265    -2270    -2270 
   -2269    -2273    -2269    -2259    -2259    -2263    -2268    -2269 
   -2263    -2265    -2270    -2268    -2268    -2270    -2270    -2261 
   -2257    -2266    -2273    -2278    -2281    -2272    -2261    -2261 
   -2262    -2268    -2273    -2268    -2259    -2263    -2266    -2269 
   -2276    -2272    -2262    -2263    -2266    -2262    -2258    -2261 
   -2263    -2268    -2269    -2263    -2263    -2272    -2268    -2263 
   -2270    -2268    -2259    -2261    -2263    -2266    -2272    -2274 
   -2274    -2273    -2266    -2261    -2263    -2269    -2268    -2263 
   -2262    -2262    -2268    -2278    -2281    -2276    -2269    -2257 
   -2251    -2261    -2268    -2262    -2261    -2273    -2282    -2293 
   -2304    -2297    -2276    -2257    -2241    -2230    -2243    -2278 
   -2307    -2315    -2305    -2293    -2301    -2334    -2355    -2331 
   -2262    -2184    -2137    -2160    -2254    -2369    -2443    -2424 
   -2349    -2308    -2330    -2380    -2432    -2457    -2425    -2351 
   -2243    -2123    -2052    -2052    -2116    -2223    -2322    -2390 
   -2408    -2351    -2297    -2316    -2369    -2398    -2349    -2227 
   -2115    -2039    -1988    -2010    -2097    -2146    -2153    -2232 
   -2394    -2512    -2502    -2421    -2347    -2253    -2106    -2027 
   -2100    -2178    -2116    -1998    -1991    -2116    -2235    -2270 
   -2331    -2501    -2652    -2640    -2492    -2319    -2193    -2180 
   -2338    -2583    -2721    -2706    -2644    -2543    -2386    -2307 
   -2409    -2619    -2779    -2790    -2651    -2467    -2385    -2551 
   -2986    -3461    -3657    -3437    -2998    -2740    -2867    -3184 
   -3341    -3171    -2733    -2253    -2064    -2266    -2578    -2785 
   -2957    -3149    -3244    -3140    -2914    -2695    -2490    -2343 
   -2390    -2629    -2847    -2802    -2353    -1688    -1269    -1263 
   -1501    -1846    -2133    -2168    -2027    -1873    -1684    -1487 
   -1425    -1583    -1902    -2065    -1674     -830     -232     -399 
    -992    -1236    -1042    -1009    -1378    -1841    -2203    -2430 
   -2446    -2276    -2088    -1965    -1879    -1869    -2011    -2300 
   -2725    -3140    -3213    -2816    -2079    -1198     -696    -1273 
   -2701    -3738    -3692    -3018    -2365    -2033    -2076    -2367 
   -2755    -3264    -3906    -4294    -3897    -2972    -2404    -2558 
   -3033    -3195    -2759    -2142    -2002    -2409    -2822    -2930 
   -2913    -2766    -2338    -1954    -2072    -2583    -2978    -2933 
   -2478    -1873    -1429    -1170     -901     -611     -463     -610 
   -1177    -2122    -3045    -3427    -3154    -2481    -1613     -834 
    -646    -1061    -1297     -915     -535     -854    -1539    -1687 
   -1088     -355     -105     -731    -2309    -4010    -4598    -3863 
   -2875    -2787    -3734    -4819    -5019    -3942    -2057     -500 
    -295    -1617    -3754    -5545    -6164    -5771    -5073    -4456 
   -3951    -3474    -2847    -2242    -2238    -2848    -3321    -3082 
   -2296    -1725    -2026    -2949    -3609    -3523    -2941    -2335 
   -1875    -1490    -1383    -1783    -2151    -1814    -1092     -599 
    -190      423      864      580     -433    -1637    -2359    -2311 
   -1844    -1686    -2290    -3289    -3709    -2970    -1447      -29 
     545       32    -1300    -2917    -4315    -5100    -5130    -4484 
   -3144    -1421     -444    -1107    -3044    -5152    -6382    -6112 
   -4526    -2533     -967     -193     -372    -1328    -2273    -2436 
   -1939    -1640    -2191    -3422    -4494    -4615    -3766    -2625 
   -1849    -1683    -1993    -2259    -1954    -1337    -1198    -1768 
   -2473    -2647    -2215    -1695    -1621    -2135    -3049    -3952 
   -4348    -4104    -3601    -3103    -2384    -1202      139      974 
     884      -63    -1539    -3014    -3827    -3564    -2427    -1047 
      60      675      749      372     -241     -791    -1275    -2084 
   -3179    -3844    -3538    -2631    -2174    -2857    -4407    -5926 
   -6666    -6534    -5815    -4807    -3859    -3214    -2857    -2810 
   -3055    -3364    -3572    -3736    -3936    -4190    -4531    -4877 
   -4955    -4500    -3520    -2416    -1597     -873      166     1308 
    1899     1579      592     -434    -1173    -1892    -2735    -3199 
   -2720    -1422      -64      637      553       58     -442     -695 
    -571      -90      467      595      -20    -1147    -2187    -2619 
   -2273    -1390     -521     -234     -826    -2339    -4556    -6826 
   -8154    -7776    -5898    -3538    -1513     -271     -249    -1223 
   -2178    -2640    -2911    -3153    -3354    -3476    -3356    -3198 
   -3531    -4387    -5184    -5333    -4696    -3505    -2012     -594 
      49     -549    -2016    -3368    -3827    -3396    -2635    -2080 
   -1996    -2346    -2848    -3285    -3601    -3665    -3238    -2231 
   -1031     -363     -606    -1370    -2012    -2193    -1792     -984 
    -321     -186     -535    -1264    -2328    -3515    -4274    -4175 
   -3580    -3273    -3585    -4189    -4499    -4031    -2706    -1108 
    -164     -437    -1721    -3198    -3986    -3801    -3063    -2274 
   -1768    -1917    -2714    -3523    -3854    -3685    -3021    -1906 
    -696      -70     -580    -1879    -3034    -3778    -4337    -4348 
   -3206    -1183      592     1228      838      147     -328     -445 
    -554    -1431    -3200    -4953    -5868    -6031    -5922    -5528 
   -4459    -2978    -1911    -1426    -1023     -652     -873    -1831 
   -2694    -2617    -1899    -1398    -1444    -1891    -2463    -2864 
   -3091    -3485    -4255    -5147    -5686    -5740    -5616    -5437 
   -5073    -4629    -4302    -4108    -4017    -3931    -3686    -3125 
   -1957       45     2624     5038     6575     7056     6739     5764 
    4075     2002      476      324     1474     3222     4905     6025 
    6157     5171     3437     1445     -596    -2315    -2818    -1609 
     437     1640     1047     -935    -3294    -5530    -7838   -10156 
  -12031   -13362   -14381   -15071   -15083   -14141   -12372   -10230 
   -8359    -7335    -7155    -7287    -7331    -7196    -6600    -5244 
   -3638    -2722    -2926    -4131    -5671    -6388    -5540    -3511 
   -1301      460     1543     1659      676    -1196    -3543    -5602 
   -6424    -5846    -4824    -4288    -4253    -4251    -3998    -3531 
   -2924    -2191    -1331     -387      328      529      441      479 
     918     2008     3720     5459     6762     8086    10126    12820 
   15795    18920    21861    24050    25242    25547    25084    23822 
   21782    19365    17327    16426    16744    17275    16827    15080 
   12652    10459     8947     7990     7299     6286     4394     1827 
    -853    -3420    -5873    -8368   -10980   -13375   -15430   -17610 
  -20185   -22960   -25644   -27885   -29327   -29822   -29439   -28279 
  -26219   -22964   -18777   -14682   -11611   -10004   -10184   -12239 
  -15709   -19957   -24358   -27958   -29826   -29562   -26952   -22015 
  -15507    -8463    -1406     5240    10589    13768    14477    12876 
    9481     5251     1183    -2648    -6922   -11646   -15903   -18985 
  -20665   -20556   -18060   -13089    -6328     1352     9109    16123 
   21787    25421    26514    25454    22805    18675    13495     8236 
    3883     1139      251     1104     3194     5501     7095     7689 
    7265     6228     5798     6959     9265    11237    11470     9379 
    5505     1044    -3132    -6764    -9761   -11896   -12877   -12881 
  -12988   -14467   -17667   -22061   -26617   -30083   -31839   -32173 
  -31660   -31047   -31044   -31423   -31071   -29361   -26678   -23394 
  -19487   -15322   -11786    -9663    -9113    -9659   -10532   -10439 
   -7690    -1659     6602    15218    22254    26223    26716    24437 
   20254    14693     8614     3591     1169     1773     4437     7639 
   10146    11265    11072    10652    11365    13764    17548    21581 
   24143    24241    21840    16950     9896     1741    -6168   -12630 
  -16727   -18122   -17313   -15230   -12661   -10417    -9435   -10174 
  -12054   -13668   -13895   -12668   -10135    -6096     -905     4788 
   10638    15844    19363    20436    18496    13864     7889     1957 
   -3100    -7003    -9437    -9572    -6582     -515     7626    16351 
   23710    27768    27252    21243     9505    -6632   -24511   -41040 
  -54012   -62976   -68185   -69061   -64906   -56907   -47648   -38799 
  -30318   -21509   -12523    -3813     4390    10951    14655    15358 
   13171     8521     2876    -2073    -5221    -5359    -1472     5960 
   15203    24321    31429    35151    35479    32992    27672    19881 
   11553     5205     2419     3568     8001    14314    21019    26878 
   30994    32921    32336    29019    23477    17263    12108     8887 
    7689     8050     8924     9003     7349     3951     -581    -5721 
  -10828   -14878   -17170   -17635   -16768   -15955   -16665   -19159 
  -22491   -25332   -26657   -25814   -22585   -17527   -11884    -7291 
   -5100    -5553    -7904   -10759   -12483   -12163    -9790    -5638 
     -97     6200    12195    16426    17818    16532    14107    12536 
   12664    13919    15226    15531    14288    11880     9035     5921 
    2172    -2496    -7607   -11924   -14517   -15503   -15619   -15464 
  -15364   -15641   -16445   -17749   -19573   -21733   -23782   -25380 
  -26400   -26694   -26040   -24601   -23055   -21941   -21532   -22203 
  -23950   -25871   -26608   -25182   -21447   -15894    -9406    -3052 
    2416     6845    10168    12050    12152    10466     7623     4706 
    2623     1969     3100     6060    10482    15466    19846    22823 
   24044    23356    21127    18512    16564    15325    14258    12970 
   11128     8341     4626      700    -2492    -4386    -4834    -4012 
   -2404     -730      202     -132    -1734    -4355    -7726   -11404 
  -14804   -17695   -20150   -22091   -23629   -25110   -26511   -27341 
  -26939   -24914   -21656   -18123   -15195   -13329   -12640   -12973 
  -14000   -15506   -17261   -18725   -19383   -19145   -18161   -16654 
  -15095   -14000   -13350   -12492   -10673    -7593    -3435     1505 
    6932    12276    16726    19529    20137    18621    15998    13486 
   11801    11369    12393    14467    16687    18519    20119    21517 
   22358    22567    22364    21747    20478    18233    14728    10111 
    4897     -548    -5994   -11060   -15203   -17682   -17652   -14484 
   -8039      870    10382    18582    24397    27170    26229    21494 
   14052     5636    -2151    -8041   -11391   -12536   -12472   -12143 
  -11929   -11735   -11431   -10928   -10129    -9248    -8727    -8719 
   -9238   -10404   -12055   -13953   -16036   -17987   -19664   -21415 
  -22925   -22979   -20711   -16209   -10193    -3782     1795     5459 
    6366     4171    -1035    -8664   -17363   -25327   -30696   -32092 
  -29207   -22635   -13617    -4083     4136    10315    14642    17643 
   19863    21645    23272    24969    26574    27562    27483    25945 
   22640    17976    13193     9671     8043     7763     7911     8125 
    8298     8074     7237     6000     4676     3504     2535     1618 
     666     -422    -1911    -3900    -6154    -8475   -10794   -12783 
  -14004   -14462   -14355   -13663   -12089    -9035    -4243     1593 
    7331    12074    15348    16943    16551    13743     8274      429 
   -8688   -17402   -24210   -28366   -30222   -31004   -31810   -32887 
  -33551   -32319   -27635   -19083    -7707     4631    15870    23971 
   27295    25371    18936     9139    -2311   -12841   -20443   -25068 
  -27834   -29554   -30291   -29706   -27633   -24183   -19278   -12796 
   -5344     1991     8348    12926    14980    14145    10662     5553 
     325    -3465    -4537    -2484     2276     9109    16818    23630 
   28275    30048    28771    25386    21158    16510    11412     6035 
     816    -3705    -7196    -9882   -12514   -15705   -19365   -22837 
  -25191   -25656   -24337   -22048   -19406   -16561   -13549   -10540 
   -7985    -6443    -5969    -6351    -7597    -9416   -11229   -12862 
  -14227   -14639   -13270    -9969    -5429     -923     2451     4357 
    5131     5682     7168    10222    14742    20220    25917    30929 
   34337    35328    33430    28718    21714    13416     5081    -2560 
   -9451   -15546   -20594   -24532   -27603   -30034   -32019   -33728 
  -35302   -36836   -38014   -38425   -38333   -38202   -37712   -36082 
  -32929   -28463   -23267   -17880   -12502    -7194    -2164     2342 
    6328     9857    12843    15543    18355    20898    22446    22674 
   21617    19565    16933    14233    11936    10319     9838    11003 
   13545    16341    18307    18891    18013    16081    13722    11391 
    9239     6991     4386     1771     -409    -2346    -4814    -8584 
  -13851   -20406   -27664   -34040   -37708   -37789   -34138   -27130 
  -17928    -8561    -1297     2585     2829     -577    -7187   -15755 
  -24503   -31592   -35820   -36767   -34734   -30732   -25506   -19367 
  -13082    -7257    -1540     4646    11315    18048    24367    29528 
   32286    31511    26759    18291     7342    -3672   -12031   -16085 
  -15668   -11385    -4194     4542    13508    21737    28221    32027 
   32837    31013    27449    22781    17091    10805     4575    -1119 
   -5794    -9232   -11121   -11034    -9383    -6837    -3630     -346 
    2115     3357     3235     1603     -972    -3221    -4509    -4831 
   -4027    -2477    -1163     -463     -113       52       56     -149 
    -541     -753     -610      -40     1560     4325     7362     9890 
   11680    12675    12977    13038    13127    12522    10022     5135 
   -1699    -9833   -18832   -28063   -36256   -41913   -44016   -42125 
  -36221   -27062   -16483    -6708      688     5057     6486     5636 
    3342      410    -2381    -4757    -7084    -9555   -11746   -12930 
  -12623   -11025    -8812    -6478    -4330    -3161    -3886    -6265 
   -9180   -12039   -14762   -16997   -18188   -18131   -17433   -17138 
  -17579   -17905   -16625   -12486    -5332     3750    13053    21035 
   27264    32363    36749    40028    41806    42665    43823    46008 
