Origin Time       2025/01/13 21:19:00
Lat.              31.8
Long.             131.6
Depth. (km)       30
Mag.              6.9
Station Code      MYZ020
Station Lat.      32.4557
Station Long.     131.1472
Station Height(m) 600
Record Time       2025/01/13 21:19:47
Sampling Freq(Hz) 100Hz
Duration Time(s)  121
Dir.              E-W
Scale Factor      7845(gal)/8223790
Max. Acc. (gal)   29.645
Last Correction   2025/01/13 21:19:46
Memo.             
[...]
    4271     3889     3518     2775     1588      517      202      672 
    1414     2091     2803     3553     3927     3643     3125     3130 
    3862     4762     5278     5443     5586     5911     6308     6385 
    6058     5854     6197     6758     6868     6304     5421     4828 
    4974     5732     6424     6508     6106     5648     5220     4649 
    4079     3813     3680     3310     2774     2355     2089     1709 
     913     -179    -1082    -1475    -1404    -1089     -738     -392 
     -76      148      322      463      518      527      556      746 
    1289     2107     2955     3813     4945     6563     8397     9794 
   10511    10808    10611     9508     7735     6147     5071     4097 
    2982     2103     2045     2995     4426     5462     5610     5092 
    4436     3859     3159     2080      611     -958    -2007    -1992 
   -1027      307     1414     1931     1968     1861     1771     1780 
    1899     1837     1197      -98    -1740    -3294    -4290    -4095 
   -2313      672     4091     7346     9776    10719     9900     7757 
    5678     5049     5902     7578     9667    11462    12162    11732 
   10565     9205     8440     8486     8702     8282     6814     4714 
    2852     1748     1680     2675     4024     4862     4930     4314 
    3156     1502     -652    -2824    -4189    -4468    -4005    -3210 
   -2438    -2095    -2424    -3188    -3765    -3894    -3975    -4212 
   -4206    -3712    -2899    -1750      -71     1941     3936     5956 
    8116    10114    11472    11873    11315    10293     9553     9661 
   10944    13332    16137    18342    18986    17294    13254     8253 
    4108     1306     -704    -1985    -2249    -1707     -702      423 
     838     -126    -2033    -3894    -5157    -5792    -6076    -6124 
   -5552    -4013    -1676      957     3277     4692     4842     3936 
    2681     1617      584     -623    -1107      425     3767     7422 
   10363    12467    13774    14121    13347    11722     9913     8305 
    6768     5408     4882     5675     7335     8841     9607     9595 
    8640     6507     3372     -265    -3804    -6543    -7920    -7641 
   -5680    -2721      -28     1603     2052     1255     -622    -2628 
   -3547    -2976    -1283     1115     3925     6696     8702     9432 
    8957     7647     5985     4461     3449     3125     3119     2887 
    2578     2764     3684     4942     5598     5046     3703     2184 
     549    -1016    -1772    -1148      719     3337     6220     8779 
   10264    10092     8293     5790     3842     2764     1898     1003 
     689     1490     3281     5470     7373     8424     8283     7311 
    6381     5822     5337     4702     3932     3369     3514     4434 
    5616     6124     4950     2010    -1274    -3213    -3429    -2652 
   -1543     -318      973     1987     2091     1313      562      407 
     611      838     1125     1912     3500     5348     6758     7935 
    9458    11194    12339    12220    10750     8428     6068     4403 
    3856     4463     5566     6018     5350     4068     2791     1981 
    1553      351    -2467    -6097    -8861    -9333    -7222    -3800 
    -754     1069     1603      980     -662    -2606    -3167     -874 
    3693     7828     9101     7785     6192     6106     7546     9378 
   10768    11697    11696     9811     6336     2968     1364     1956 
    3904     6189     8195     9313     8910     6860     3929     1530 
     560      454      251       31      522     1923     3584     4629 
    4714     4118     3339     2605     1728      629     -261     -334 
     614     2114     3257     3423     2830     2124     1578     1155 
    1027     1490     2570     3798     4557     4837     5244     6115 
    6957     6966     5942     4442     3217     2810     3323     4279 
    4966     5162     5243     5470     5610     5398     4891     4212 
    3308     2134      805     -392     -988     -533      955     2994 
    4943     6142     6048     4506     2065      -36     -668      189 
    1540     2555     3253     4048     4950     5366     4919     4009 
    2984     1671      226     -724     -969     -646      229     1363 
    2272     3007     3850     4581     4671     3977     3169     3146 
    4020     5254     6486     7682     8885     9872    10008     8760 
    6273     3379      999     -500    -1019     -168     2065     4591 
    5991     5776     4611     3504     2903     2635     2359     1962 
    1502     1016      699      908     1868     3441     5030     6008 
    6210     5679     4660     3821     3751     4275     4635     4236 
    3159     2011     1389     1607     2427     3121     3304     3078 
    2504     1894     1802     2222     2822     3400     3504     2924 
    2224     1921     2030     2443     2944     3315     3707     4403 
    5263     5738     5463     4661     3786     2974     2166     1584 
    1622     2353     3423     4248     4280     3523     2604     2214 
    2830     4573     6709     7715     6625     4230     2259     1568 
    1854     2745     4145     5713     6940     7427     7007     6172 
    5595     4882     3152      851     -378      216     1757     3268 
    4652     5949     6741     6381     4513     1988      695     1582 
    3642     5354     6204     6405     5886     4190     1405    -1277 
   -2489    -2043     -737      722     2061     3233     4114     4126 
    2781      604    -1258    -2016    -1664     -756      467     2363 
    5017     7639     9012     8475     6517     4324     2786     2119 
    2162     2907     4527     6575     8009     8379     8108     7757 
    7555     7299     6613     5567     4657     4075     3726     3894 
    5017     6818     8276     8376     6791     4052      940    -2164 
   -4887    -6473    -6355    -4712    -2667    -1601    -1607    -1331 
     198     2485     4376     5100     4592     3204     1347      -60 
     433     3211     6858     9514    10212     9132     7160     5220 
    3882     3244     3192     3753     5031     6754     8074     8326 
    7734     6936     6296     5706     4618     2664      407     -940 
    -291     2269     4980     6103     5705     4656     3480     2847 
    3321     4413     4985     4236     2224     -287    -2673    -4657 
   -5764    -5555    -4187    -2281     -677      136      583     1069 
    1175      589     -344    -1054     -900      457     2570     4752 
    7032     9720    12123    12947    12128    11080    10824    10974 
   10754     9788     8203     6793     6409     7113     8397     9651 
   10330    10237     9528     8303     6434     3994     1773      623 
     423      463      220     -595    -1798    -2656    -2875    -3009 
   -3353    -3400    -2849    -2324    -2548    -3280    -3689    -3515 
   -3014    -2178     -938      336     1244     1915     2690     3474 
    3991     4399     5031     5930     6837     7326     7078     6280 
    5404     4687     4398     4963     6355     7969     9127     9626 
    9817    10022    10150     9814     8704     7047     5553     4776 
    4839     5621     6697     7531     7893     7647     6571     4608 
    2080     -415    -2498    -4205    -5653    -6643    -6586    -5123 
   -2760     -561      831     1545     1868     1771     1170      464 
     445     1395     2828     4191     5293     6285     7331     8091 
    7979     7121     6390     6447     7267     8536     9976    10925 
   10385     8151     5220     2712      947     -245     -719      176 
    2839     6598     9771    10651     8754     5086     1344    -1085 
   -1818    -1444     -913     -765     -599      332     2057     4168 
    6351     7946     8182     7132     5595     4337     3777     3866 
    4394     5451     7132     8931     9933     9737     8884     8010 
    7215     6650     6546     6482     5702     3998     2110     1557 
    3310     6581     9483    10426     9094     6484     3767     1548 
    -129    -1669    -3283    -4460    -4506    -3457    -2276    -1887 
   -1931    -1116      913     2721     2748     1007    -1444    -3709 
   -5482    -6791    -7227    -6033    -3231      383     4216     7672 
    9512     8702     5709     2093     -760    -2149    -1877     -238 
    1827     3335     4027     4147     3977     3662     2991     1692 
     130    -1027    -1467     -885      990     3647     6006     7341 
    7564     7051     6377     5891     5571     5242     4664     3693 
    2829     3041     4772     7792    11577    15264    17622    17390 
   14052     8553     3022     -600    -1861    -1691    -1274    -1113 
    -576     1431     4676     7396     8237     7214     4506     -364 
   -7290   -14202   -17995   -17066   -12498    -6895    -2651     -436 
     949     2639     4652     6934     9948    13513    15423    12677 
    5251    -2655    -6363    -4577     1005     8078    14563    18924 
   20690    19932    17236    14085    10987     6335     -892    -8722 
  -13873   -14872   -12282    -6822      349     6403     8822     7581 
    3958     -614    -4394    -6374    -7233    -8060    -8946    -8926 
   -6671    -1903     3746     8060    10254    11209    11942    12221 
   10924     7982     5491     6010    10031    15889    21550    25537 
   27008    26172    24185    22156    20204    17467    13684     9979 
    7125     4904     3484     3262     4059     5582     7241     7630 
    5907     3067      638    -1227    -3612    -7072   -10762   -13447 
  -14350   -13169   -10427    -7237    -4533    -3138    -3127    -2884 
    -819     2539     5275     5879     4411     2760     2910     4563 
    5441     4052     1351     -638    -1032     -368      448      839 
     575     -217     -876     -598      911     3377     6197     8410 
    8988     7528     4514     1117    -1764    -4151    -6033    -6795 
   -5715    -2758      849     3699     5751     7923    10453    12394 
   12896    12046    10115     7064     3388      576      -33     1722 
    4687     6839     6990     5841     4588     3715     3424     3886 
    4918     5701     4885     1811    -2685    -6987    -9572    -9753 
   -7932    -5117    -2408     -444      880     2262     4401     6853 
    7992     6677     3561      618     -618     -290      496     1131 
    1971     3765     6687    10002    12845    15043    16803    17649 
   16433    12989     8548     4383     1444      612     2297     5729 
    9049    10632    10187     8341     6085     4360     3125     1973 
    1651     2609     3294     1991    -1071    -4113    -5397    -4610 
   -2733     -803      440      291    -1468    -4135    -6605    -8280 
   -9140    -9097    -7928    -5472    -1749     2488     6056     8471 
   10108    11678    13560    15394    16549    16841    16950    17848 
   19303    19784    18129    14604    10743     8222     7420     7781 
    8937    10085    10057     8725     6754     4820     3372     2122 
     599     -919    -1822    -1776     -843      637     2486     4382 
    5162     3554     -761    -6914   -12791   -16362   -17558   -17668 
  -17365   -16285   -13799   -10065    -6513    -4344    -3246    -2528 
   -2304    -3107    -4635    -5567    -4815    -2245     1449     5351 
    9192    13197    16943    19435    20699    21907    23815    25578 
   25101    21377    15850    10708     7030     4923     4205     4480 
    4963     4538     2401     -970    -3913    -5094    -4839    -4695 
   -5805    -7821    -9340    -9499    -9032    -9364   -10764   -11738 
  -10511    -6754    -1445     4461    10446    15572    18274    17253 
   12337     4895    -2527    -7696   -10361   -11639   -11620    -9193 
   -4094     2430     8689    13360    15612    15412    13641    11565 
   10203     9626     9111     8529     8815    10343    11674    11080 
    8491     5204     2694     1946     3063     5462     8372    10754 
   11537    10369     7472     3457     -672    -4259    -7047    -8785 
   -9814   -10849   -11757   -11452    -9000    -4445     1336     7352 
   12927    17562    20590    21465    20148    16727    11546     6011 
    2064      953     2795     6443    10023    12391    13880    15211 
   15947    14867    11839     8216     5346     3522     2624     2886 
    4310     6029     7099     7426     7371     6820     4972     1305 
   -3180    -6493    -7670    -7622    -7383    -6513    -4541    -2382 
   -1023     -604    -1166    -2918    -6026    -9940   -12449   -11043 
   -5973     -228     3512     4849     5192     5985     7720    10246 
   13066    15433    16352    15068    12197     9439     8087     8527 
   10173    11580    11500     9821     7816     7335     8811    10658 
   10882     8556     4375      -13    -3592    -6299    -8148    -9139 
   -9699   -10386   -11133   -11192    -9867    -7248    -4082     -804 
    2725     6579    10293    13134    14812    15707    16268    16449 
   15903    14314    11353     7148     2700     -514    -1348      172 
    2910     5684     7965     9440     9400     7345     3893      -54 
   -4180    -7916   -10435   -11529   -11078    -9086    -6308    -3335 
     -91     3569     7496    10885    12814    13209    12318    10359 
    7894     5063     1404    -2790    -6226    -7730    -7373    -6627 
   -6840    -8028    -9798   -12012   -13995   -14777   -13983   -11497 
   -7634    -3851    -1680    -1138    -1001       56     2701     6430 
    9981    12638    14712    16819    19404    22589    26181    29984 
   33230    34485    33353    30692    27371    24237    22126    21230 
   20865    19573    16129    10933     5471      756    -2754    -4757 
   -5509    -5908    -6971    -9076   -11773   -14454   -16773   -18547 
  -19448   -19176   -18022   -16366   -14033   -10658    -6544    -2929 
   -1100    -1134    -1468     -457     1842     4338     6336     7788 
    9148    10936    13140    15306    17010    18189    19309    20781 
   22388    23674    23955    22488    19350    15159    10250     5236 
    1660      791     2255     4465     5895     5838     4264     1355 
   -2686    -7275   -11215   -13666   -14782   -14894   -13733   -10836 
   -6889    -3789    -2749    -3419    -4750    -5806    -6184    -6138 
   -5954    -5574    -4675    -2280     2500     8741    14106    17005 
   17779    17752    17313    15809    13267    10758     9296     9154 
    9705    10056     9768     8793     7407     5988     4804     4091 
    3568     2497      737    -1096    -2269    -2227     -832     1382 
    3010     2465     -264    -3723    -6782    -8939    -9976   -10242 
  -10125    -9462    -8237    -6619    -4446    -1672     1329     3932 
    5703     6754     7326     7499     7504     7692     8118     8405 
    8228     8013     8252     8830     9648    10582    11210    11241 
   10372     8090     4530      627    -2782    -4912    -4924    -2733 
     855     4576     7191     8037     7036     4711     2033     -197 
   -1436    -1445     -801     -386     -112      938     3075     5626 
    7807     9433    10881    12395    13458    13155    11229     8143 
    4480      762    -2581    -5302    -7277    -8317    -8051    -6281 
   -3807    -2184    -1899    -1954    -1368      133     2138     3740 
    4710     6018     8324    10940    12885    13887    14135    13738 
   12687    11473    11140    12251    14235    16077    17265    17844 
   17957    17649    16823    15620    14501    13375    11549     8665 
    4827       87    -5521   -11481   -16695   -19997   -20962   -20259 
  -19140   -18495   -18225   -17577   -15944   -13377   -10579    -8079 
   -5640    -2844      396     3847     7214    10478    13728    16831 
   19534    21760    23685    25493    26993    27494    26380    23579 
   19342    14133     8507     2797    -2787    -7879   -12150   -15398 
  -17099   -16694   -14651   -12098    -9529    -6702    -3319      326 
    3191     4310     3603     1544    -1243    -3616    -3970    -1366 
    3496     8653    12071    12896    11889    10399     9459     9390 
    9204     7784     5676     4249     4226     5529     7431     8951 
    9490     8974     7649     6258     5825     6681     8298     9753 
   10015     8495     5474     1676    -2111    -4818    -5232    -2872 
    1150     4653     6216     6087     5378     4756     3996     2909 
    1688      475     -642    -1665    -2381    -2177     -927      756 
    2331     3670     4676     4963     4298     3072     2037     1642 
    1782     1979     2018     2172     2504     2779     2801     2312 
    1267      -29    -1239    -2135    -2583    -2432    -1520      417 
    3639     7797    11913    15070    16884    17297    16193    13505 
    9882     6889     5427     4753     4009     3335     3179     3769 
    5125     7064     9336    11491    12665    12190    10203     7684 
    5815     4847     4421     4688     5857     7489     8873     9528 
    9292     8208     6297     3468       10    -3208    -5449    -6741 
   -7738    -9112   -11011   -12748   -13162   -11654    -8629    -5085 
   -1965      295     1570     1906     1701     1414     1453     2205 
    3549     4935     6228     7859    10146    12704    14783    16193 
   17158    17416    16371    13926    10822     8286     7075     6913 
    7091     7020     6327     5027     3267     1050    -1401    -3693 
   -5644    -7123    -7898    -7797    -7034    -6316    -6146    -6478 
   -7138    -7823    -8064    -7619    -6489    -4720    -2388      267 
    2733     4288     4306     2890     1142      403     1229     3078 
    4773     5359     4881     4280     4302     5200     7133     9775 
   12193    13621    13784    12587    10295     7786     5894     4664 
    3669     2883     2797     3593     4785     5578     5408     4234 
    2354      261    -1572    -2941    -3630    -3435    -2647    -1908 
   -1661    -1811    -1579     -151     2168     4172     5171     5611 
    6258     7180     7861     7873     6957     4889     1810    -1260 
   -2787    -1872     1109     4792     7722     9351    10204    11080 
   12299    13528    13964    13014    10822     7898     4823     2280 
     692       99      367     1221     2143     2609     2574     2420 
    2378     2145     1221     -263    -1587    -2056    -1117     1350 
    4625     7507     9175     9570     8851     6893     3736       93 
   -2910    -4280    -3665    -1497     1418     4310     6690     8268 
    8613     7457     5265     3015     1656     1641     2574     3477 
    3607     3057     2589     2767     3522     4575     5586     6042 
    5584     4356     2937     2026     2035     2826     3889     4753 
    5239     5393     5140     4352     3227     1941      295    -1624 
   -3219    -4166    -4471    -3955    -2573     -716     1008     2174 
    2913     3719     4718     5533     5945     6181     6523     6970 
    7267     7248     6810     5757     4347     3468     4016     6269 
    9471    12309    14054    14793    14844    14438    13529    11718 
    8788     5278     1891    -1468    -5282    -9333   -12853   -15260 
  -16401   -16513   -15878   -14401   -11869    -8622    -5598    -3663 
   -3037    -3256    -3740    -4210    -4252    -3195     -864     2223 
    5463     8573    11468    14145    16568    18476    19618    20128 
   20301    20301    20277    20297    20186    19780    19025    17701 
