Origin Time       2025/01/13 21:19:00
Lat.              31.8
Long.             131.6
Depth. (km)       30
Mag.              6.9
Station Code      MYZ017
Station Lat.      31.4639
Station Long.     131.2281
Station Height(m) 9
Record Time       2025/01/13 21:19:42
Sampling Freq(Hz) 100Hz
Duration Time(s)  139
Dir.              N-S
Scale Factor      7845(gal)/8223790
Max. Acc. (gal)   84.696
Last Correction   2025/01/13 21:19:43
Memo.             
[...]
    2191     2197     2200     2193     2208     2207     2192     2205 
    2212     2201     2196     2192     2201     2209     2201     2204 
    2209     2208     2212     2208     2197     2197     2196     2191 
    2187     2191     2199     2203     2204     2205     2208     2205 
    2197     2191     2196     2208     2199     2196     2211     2195 
    2187     2199     2189     2203     2219     2192     2191     2205 
    2196     2195     2199     2199     2203     2200     2200     2208 
    2207     2207     2204     2193     2197     2209     2205     2199 
    2193     2193     2211     2208     2188     2197     2207     2193 
    2195     2203     2208     2203     2188     2199     2211     2192 
    2193     2209     2199     2189     2195     2195     2203     2214 
    2203     2195     2196     2188     2187     2201     2214     2205 
    2197     2196     2192     2199     2201     2196     2196     2197 
    2209     2226     2204     2193     2208     2195     2185     2199 
    2195     2207     2205     2188     2215     2219     2185     2189 
    2195     2193     2200     2188     2187     2196     2196     2208 
    2208     2195     2196     2196     2200     2211     2199     2196 
    2205     2200     2201     2209     2212     2212     2197     2187 
    2193     2193     2193     2197     2195     2191     2185     2192 
    2205     2197     2204     2222     2207     2207     2220     2207 
    2199     2189     2185     2199     2191     2185     2195     2187 
    2191     2189     2178     2216     2230     2203     2214     2218 
    2204     2209     2208     2201     2189     2188     2201     2180 
    2172     2204     2204     2199     2207     2197     2200     2200 
    2193     2212     2212     2201     2212     2208     2204     2199 
    2182     2188     2199     2195     2201     2218     2215     2199 
    2199     2205     2192     2187     2195     2187     2188     2199 
    2200     2211     2209     2205     2219     2207     2187     2195 
    2196     2193     2195     2188     2193     2196     2192     2199 
    2203     2205     2204     2196     2207     2212     2192     2199 
    2211     2195     2193     2203     2203     2209     2200     2185 
    2192     2191     2189     2201     2205     2211     2207     2201 
    2208     2195     2189     2201     2189     2187     2201     2200 
    2196     2199     2212     2219     2201     2193     2196     2196 
    2207     2204     2189     2192     2197     2201     2207     2207 
    2204     2195     2197     2207     2200     2196     2192     2191 
    2207     2214     2200     2189     2193     2200     2204     2209 
    2209     2197     2191     2196     2201     2204     2203     2199 
    2196     2192     2195     2203     2199     2200     2203     2189 
    2189     2203     2200     2199     2208     2211     2199     2188 
    2199     2207     2200     2200     2193     2189     2193     2199 
    2216     2212     2189     2188     2196     2208     2209     2196 
    2200     2197     2189     2209     2207     2189     2200     2197 
    2197     2215     2200     2187     2192     2184     2191     2205 
    2201     2200     2199     2196     2208     2211     2205     2208 
    2205     2195     2191     2195     2199     2204     2214     2222 
    2216     2208     2212     2218     2216     2219     2224     2216 
    2218     2242     2251     2241     2243     2247     2241     2241 
    2238     2232     2238     2249     2242     2226     2222     2214 
    2189     2181     2197     2209     2214     2203     2170     2138 
    2103     2072     2065     2068     2069     2065     2053     2065 
    2106     2142     2151     2120     2072     2020     1957     1950 
    2038     2151     2214     2205     2172     2157     2178     2251 
    2362     2470     2525     2520     2527     2578     2604     2566 
    2524     2517     2508     2470     2411     2332     2270     2227 
    2168     2124     2122     2128     2122     2070     1968     1869 
    1825     1884     2041     2164     2141     2008     1892     1894 
    2030     2269     2473     2524     2493     2444     2413     2447 
    2458     2401     2330     2222     2112     2099     2216     2389 
    2465     2404     2296     2182     2072     1966     1877     1837 
    1838     1883     1948     1956     1926     1923     1915     1848 
    1813     1910     2104     2299     2359     2184     1900     1711 
    1688     1888     2293     2668     2826     2826     2716     2481 
    2266     2147     2034     2039     2292     2623     2816     2809 
    2694     2592     2521     2577     2736     2771     2660     2521 
    2319     2089     2056     2382     2903     3229     3130     2512 
    1393      317       13      483     1140     1540     1617     1520 
    1366     1243     1159     1058     1021     1113     1244     1420 
    1714     2023     2180     2344     2736     3099     3183     3173 
    3095     2781     2442     2432     2650     2668     2377     2157 
    2278     2556     2843     3187     3549     3867     3904     3349 
    2470     1799     1609     2083     3169     4334     5028     4981 
    4125     2700     1367      803      982     1343     1563     1580 
    1491     1602     1865     1846     1355      569      -59      -58 
     611     1588     2478     3065     3338     3272     2853     2319 
    1903     1599     1425     1397     1517     1917     2519     3052 
    3404     3495     3333     3294     3609     3782     3253     2373 
    1977     2185     2448     2451     2142     1587     1215     1297 
    1525     1521     1129      561      334      622     1244     1989 
    2489     2646     2809     3021     3024     2826     2551     2254 
    2116     2386     3126     4002     4388     3958     2917     1652 
     587      120      367     1111     2023     2833     3384     3653 
    3738     3742     3680     3561     3443     3230     2837     2450 
    2218     2162     2234     2278     2110     1493      492     -379 
    -769     -611      -41      491      665      643      676      773 
     870     1035     1273     1405     1305     1044      849      895 
    1217     2006     3360     4766     5474     5235     4464     3708 
    3219     2970     2901     3096     3454     3638     3707     3950 
    4194     4025     3375     2331      895     -491    -1013     -390 
    1066     2841     4449     5578     5684     4383     2300      459 
    -344      267     1779     3171     3813     3593     2614     1395 
     612      198      -48      274     1177     2131     2759     2685 
    1726      429     -440     -715     -638     -291      398     1499 
    3028     4750     6084     6355     5348     3620     2034     1225 
    1506     2489     3146     3078     2767     2502     2450     3015 
    3931     4205     3624     2825     1993     1098      403       -6 
      12      746     1887     2947     3835     4194     3713     2932 
    2374     1926     1464      961      418      356     1406     3229 
    4914     5854     5441     3497     1306      189      -54        4 
     257      522      789     1470     2633     3731     4187     3924 
    3397     3011     2640     2177     1782     1537     1709     2608 
    3894     4851     4880     3672     1840      812     1105     1767 
    1968     1529      483     -490     -562      113      877     1262 
    1102      699      391      190       79      139      623     1737 
    3275     4874     6023     6084     5130     4090     3686     3774 
    3875     3715     3086     2033     1243     1198     1391     1378 
    1436     1593     1613     1688     1900     2127     2444     2525 
    2004     1489     1524     1644     1431     1143     1138     1493 
    2166     3114     4001     4122     3231     2052     1377     1251 
    1336     1432     1491     1520     1680     2122     2702     3291 
    3748     3649     3014     2467     2074     1597     1410     1787 
    2378     2789     2936     3091     3542     4067     4058     3175 
    1864      904      669     1341     2870     4432     5173     5161 
    4692     3667     2258      985      -22     -828    -1030     -386 
     345      325     -236     -664     -568      237     1583     2988 
    4198     4988     4941     4048     2893     1949     1229      706 
     657     1478     3233     5483     7371     7803     6164     3256 
     846      -81      238     1213     2269     3136     3866     4248 
    4077     3530     2695     1719      936      394      -79     -494 
    -506      442     2322     4162     4949     4411     2974     1368 
     210     -221       62      799     1580     1894     1258      -35 
    -850     -606      291     1389     2326     2641     2257     1676 
    1568     2376     3978     5605     6582     7041     7281     7114 
    6237     4662     2768     1031      -68      -71      899     2080 
    2955     3546     3836     3520     2506     1132     -118     -935 
   -1409    -1433     -507     1017     1923     1437     -399    -2766 
   -4519    -4773    -3013       16     2640     4133     4553     4058 
    3362     3181     3609     4450     5449     6455     7439     8155 
    7979     6454     3827     1097     -598     -963     -463      371 
    1077     1580     2184     2835     3061     2581     1660     1089 
    1567     3044     4695     5544     5232     3917     1973      220 
    -546     -311      468     1377     2142     2874     3765     4496 
    4653     4456     4178     3389     1703     -549    -2579    -3418 
   -2529     -484     1440     2377     2253     1304      313      481 
    1887     3612     5192     6453     7011     6644     5535     4029 
    2158      -89    -2045    -2640    -1499      639     2775     4387 
    5428     5903     5583     4488     3053     1715      969     1343 
    3090     5566     7136     6697     4673     2166       25    -1297 
   -1676    -1660    -2150    -3076    -3512    -3005    -1688      221 
    2192     3412     3634     3163     2250     1360     1098     1667 
    3002     4781     6471     7696     8082     7487     6454     5567 
    4909     4255     3331     2004      564      -35     1028     3389 
    5842     7186     6646     4426     1536    -1263    -3537    -4893 
   -5293    -4860    -3827    -2556    -1088      425     1305     1163 
     248     -934    -1783    -2137    -2182    -1767     -909      178 
    1795     3877     5549     6340     6535     6435     6015     5063 
    3709     2612     2134     1958     1933     2504     3873     5252 
    5618     5049     4617     5194     6712     8185     8712     8216 
    6859     4897     2830     1066      -75     -534     -562      -85 
    1089     2488     3376     3450     2579      940     -359     -209 
     961     1946     2432     2465     1879      901     -253    -1462 
   -2311    -2794    -2983    -2470    -1296       20     1313     2673 
    4186     5782     7111     7813     7786     7376     7090     7144 
    7607     8401     9481    11048    12856    13980    13826    12618 
   10727     8436     6327     5013     4657     4881     5063     4741 
    3358      479    -3132    -6319    -9065   -11700   -13953   -15547 
  -16555   -17084   -17265   -17459   -18111   -19257   -20293   -20345 
  -19056   -16877   -14386   -11893    -9564    -7329    -5046    -2739 
    -297     2374     5017     7713    11072    15002    18652    21348 
   22684    22491    21246    19873    19094    19367    20842    22871 
   24394    24671    23260    20117    15692    10532     4976     -525 
   -5119    -8052    -9107    -8669    -7616    -6673    -5938    -5308 
   -4764    -4163    -3728    -4160    -5752    -8152   -10598   -12567 
  -14258   -15618   -16086   -15538   -14320   -12619   -10118    -6419 
   -1929     2139     4629     5223     4540     3713     3769     5293 
    8425    12482    16459    19774    21859    22554    22482    22323 
   22734    24258    26786    29743    32875    36090    38537    39132 
   37677    34472    29938    24711    19284    14037     9424     5641 
    2485     -433    -3105    -5281    -7338    -9734   -12665   -16344 
  -20092   -23147   -26077   -29131   -31468   -32579   -32432   -30856 
  -27873   -24295   -21126   -18616   -16866   -16283   -16816   -17990 
  -19381   -20407   -20375   -18619   -14620    -8770    -2457     3173 
    8075    12475    16116    19062    21703    24216    27106    30707 
   34677    38785    42549    44848    45087    43546    40239    34823 
   27766    20424    13834     7896     2442    -1960    -5437    -8525 
  -11092   -13479   -16220   -19103   -22036   -25211   -28317   -30869 
  -33238   -36231   -39846   -43464   -46727   -49681   -51911   -52208 
  -49873   -45215   -38682   -30478   -20819   -10467     -476     8811 
   17396    25074    32082    38507    43623    47464    51169    55243 
   59327    62905    65080    64646    61049    55102    48620    43239 
   39430    36857    35490    34851    33505    30879    26730    20352 
   12241     3388    -5601   -13563   -19684   -24262   -27658   -30017 
  -31772   -33698   -36402   -40100   -44968   -50693   -56371   -61169 
  -64195   -64650   -62650   -58959   -53971   -47872   -41049   -33489 
  -25404   -17882   -11311    -5166      739     6858    14123    22403 
   30586    38210    45559    53030    60878    68924    76692    83566 
   88653    90983    90032    85811    78263    68088    57400    47696 
   39526    33482    28236    21174    12145     2303    -8216   -18665 
  -27679   -34846   -39988   -42716   -42973   -41550   -40131   -40209 
  -42741   -48166   -55738   -63902   -71338   -77217   -81043   -82456 
  -80824   -75874   -68075   -57558   -44977   -31922   -18750    -5107 
    8324    20426    30376    37805    43032    46599    48824    50251 
   51536    52768    53769    54537    54986    55059    55190    55474 
   54924    52983    50492    48216    46257    44697    43328    41403 
   37656    31406    23622    15125     5872    -3705   -13119   -22081 
  -30024   -36578   -42026   -46986   -51835   -56771   -61909   -66910 
  -71329   -74757   -76083   -73934   -67922   -58488   -46049   -31544 
  -17086    -4773     4708    12017    17880    21824    23701    24960 
   26354    27908    30380    33770    37026    39611    41832    44074 
   46130    47968    50018    52254    54548    56860    58421    58433 
   56959    54253    50071    43873    35619    25944    15502     4754 
   -5962   -16251   -25315   -32644   -38647   -43626   -47341   -49962 
  -51969   -53306   -53493   -52550   -51067   -49280   -46847   -43565 
  -39545   -34697   -29259   -23998   -18928   -14007    -9968    -6615 
   -3276     -369     1996     4583     7658    10986    14546    18432 
   22573    26978    31843    37116    42492    47517    51652    54696 
   56529    56844    55408    52104    47110    40936    34391    28213 
   22090    15493     8899     2747    -2890    -7630   -11298   -14130 
  -16171   -17539   -18517   -19313   -20316   -21802   -23653   -25922 
  -28745   -31723   -34365   -36724   -38462   -38831   -38138   -36956 
  -35217   -32730   -28595   -21671   -12123    -1402     8592    16225 
   20263    20294    17633    14368    11742    10320    10249    11275 
   13285    16008    18603    20432    21528    22014    22146    22257 
   22327    22586    23233    24133    25456    27067    28428    29297 
   29461    28651    26499    22667    17622    12484     8056     4326 
    1148    -1331    -3488    -5848    -8052    -9733   -11196   -12525 
  -13424   -13845   -13709   -12788   -11268    -9624    -8410    -8279 
   -9512   -11997   -15403   -19224   -23174   -27037   -30439   -32902 
  -33774   -32969   -31012   -27535   -21687   -13790    -5031     3773 
   12046    18647    22546    23745    22731    20135    16954    14351 
   13074    13189    14110    14704    14639    14816    15437    16069 
   16877    18025    19584    21560    23801    26616    29787    32348 
   33994    34595    33987    32508    30234    26901    22650    18150 
   13702     8642     2646    -3842   -10538   -17049   -22825   -27610 
  -31387   -34354   -36273   -36772   -36559   -36235   -35320   -33886 
  -32671   -31608   -30408   -29556   -29288   -29038   -28424   -27475 
  -26377   -25670   -25940   -26950   -27198   -25131   -20306   -12860 
   -3534     6266    15600    23905    30258    34106    36308    38132 
   39745    40909    41559    41652    41472    40703    38713    36007 
   32655    27801    21728    15363     9545     5290     2705     1166 
     554      687     1023     1094      274    -1432    -2933    -3847 
   -4637    -5049    -4735    -4147    -3740    -3368    -2469     -581 
    2326     5946     9938    14164    18590    22847    25722    25820 
   23114    19064    14913    11057     8290     7508     8588    10791 
   12653    12684    10766     6972     1522    -4000    -7940   -10015 
  -10971   -11124   -10222    -8662    -6863    -5408    -5455    -6740 
   -8831   -12656   -17608   -21899   -25185   -27471   -28302   -27774 
  -26158   -23407   -19932   -16105   -11404    -5725       59     5100 
    8714    10613    11152    10667     9512     8533     8453     9262 
   10620    12267    14084    15967    17377    18007    18139    17439 
   15750    14040    12673    11308     9730     7283     3829      247 
   -3269    -6953   -10503   -13814   -17307   -21303   -25413   -28741 
  -30684   -30805   -29018   -26110   -22635   -18589   -14570   -11090 
   -7562    -3315     1804     7858    14625    21571    28135    33771 
   37989    40437    40940    39488    36765    34231    33054    33408 
   34574    35334    35033    33724    30925    26061    19511    12352 
    6264     2196     -302    -1088     -137      985     1331      845 
   -1031    -3990    -6845    -9070   -10303   -10311    -9337    -7551 
   -5775    -5962    -9769   -16854   -24763   -31442   -36541   -39560 
  -39445   -35961   -30246   -24256   -19074   -14685   -11615   -10422 
  -10057    -8526    -4476     2339    10980    19411    25621    28895 
   29322    27337    24393    22059    20380    18358    15354    11476 
    7662     5313     4500     4087     4256     5489     6308     5414 
    3524     1736       83    -1830    -3835    -5512    -6367    -6064 
   -4941    -3190     -727     1807     3387     3493     2311      468 
   -1468    -3092    -3487    -1757     1827     6756    12429    17217 
   20401    22970    25810    29484    33643    36575    37262    35939 
   32460    26538    19668    14700    13290    15151    19016    23016 
   25105    24154    20169    13729     6478      653    -3157    -5278 
   -5061    -2592      141     1120     -557    -4738    -9971   -14530 
  -18192   -21425   -23973   -26065   -28764   -32313   -36012   -38786 
  -39677   -39222   -38531   -37538   -36234   -34620   -31714   -27014 
  -20756   -13343    -5769      864     6019     9872    12737    14305 
   14296    13074    11303     9806     9413    10812    14648    20862 
   27936    33936    38064    40455    41422    41107    39434    36805 
   34257    32597    31882    31315    29393    24771    16758     5185 
   -8703   -22079   -32374   -38148   -39220   -36744   -32636   -28917 
