Origin Time       2025/01/13 21:19:00
Lat.              31.8
Long.             131.6
Depth. (km)       30
Mag.              6.9
Station Code      MYZ019
Station Lat.      32.5008
Station Long.     131.4444
Station Height(m) 142
Record Time       2025/01/13 21:19:46
Sampling Freq(Hz) 100Hz
Duration Time(s)  104
Dir.              N-S
Scale Factor      7845(gal)/8223790
Max. Acc. (gal)   13.783
Last Correction   2025/01/13 21:19:45
Memo.             
[...]
    2928     2929     2929     2928     2929     2929     2928     2926 
    2929     2929     2925     2925     2930     2932     2928     2925 
    2928     2932     2930     2928     2926     2926     2929     2930 
    2928     2925     2929     2933     2933     2929     2925     2928 
    2932     2930     2926     2926     2928     2929     2928     2926 
    2926     2929     2930     2928     2928     2929     2929     2933 
    2934     2929     2924     2928     2933     2932     2928     2926 
    2929     2934     2933     2925     2924     2929     2932     2930 
    2926     2925     2929     2932     2929     2926     2928     2929 
    2929     2929     2928     2926     2928     2932     2930     2928 
    2926     2930     2930     2929     2928     2928     2929     2930 
    2930     2928     2926     2926     2930     2930     2925     2925 
    2928     2929     2930     2929     2925     2926     2932     2932 
    2928     2924     2926     2932     2933     2929     2924     2925 
    2932     2930     2926     2926     2929     2933     2933     2929 
    2924     2926     2932     2932     2928     2924     2922     2926 
    2930     2929     2922     2920     2921     2924     2921     2914 
    2911     2911     2907     2902     2895     2891     2889     2883 
    2876     2874     2876     2884     2893     2903     2916     2926 
    2936     2943     2945     2947     2944     2933     2914     2891 
    2867     2844     2826     2818     2818     2824     2840     2864 
    2883     2894     2901     2913     2928     2938     2947     2963 
    3001     3040     3036     2998     2979     3002     3049     3084 
    3073     3032     3002     2986     2960     2910     2830     2740 
    2695     2752     2890     3002     3015     2941     2856     2847 
    2917     3006     3072     3088     2997     2799     2641     2663 
    2829     2956     2922     2783     2685     2700     2824     2995 
    3099     3036     2866     2791     2917     3134     3269     3219 
    2997     2712     2532     2592     2864     3125     3132     2907 
    2714     2704     2767     2760     2655     2523     2457     2455 
    2421     2313     2188     2128     2205     2412     2633     2771 
    2822     2818     2802     2808     2760     2587     2408     2425 
    2640     2812     2739     2496     2286     2196     2184     2227 
    2338     2477     2587     2675     2782     2867     2844     2755 
    2691     2678     2756     2964     3183     3222     3040     2802 
    2728     2871     3051     3057     2910     2814     2874     2956 
    2937     2947     3176     3585     3997     4243     4143     3724 
    3342     3260     3304     3223     3102     3137     3219     3117 
    2879     2727     2764     2940     3107     3072     2751     2300 
    2038     2181     2617     3041     3311     3456     3447     3226 
    2856     2504     2358     2505     2770     2828     2605     2317 
    2187     2270     2450     2569     2624     2708     2833     2911 
    2847     2727     2849     3346     3897     4014     3530     2816 
    2471     2689     3092     3192     2857     2523     2775     3539 
    4105     4050     3712     3580     3623     3593     3492     3346 
    3068     2772     2721     2863     2839     2581     2517     2826 
    3107     3122     3096     3103     2924     2539     2344     2670 
    3171     3179     2583     1884     1605     1868     2355     2679 
    2671     2342     1896     1653     1660     1686     1707     1996 
    2563     2960     2937     2875     3149     3530     3627     3427 
    3149     3036     3242     3624     3863     3821     3551     3195 
    2875     2579     2411     2646     3138     3226     2566     1659 
    1412     2106     2911     2905     2301     1906     1995     2474 
    3136     3489     3258     2776     2600     2979     3508     3526 
    3048     2640     2488     2385     2396     2837     3569     3780 
    2975     1796     1229     1440     1921     2299     2587     2909 
    3230     3346     3183     2997     3049     3430     4093     4581 
    4284     3268     2301     2168     2986     3870     3844     3215 
    2945     3123     3246     3194     3055     2913     3041     3626 
    4237     3939     2442     1082     1509     3306     4349     3447 
    1501      311      772     2076     2799     2463     1637     1183 
    1703     2988     4039     4170     3858     3954     4342     4171 
    3291     2583     2668     3137     3281     2866     2172     1966 
    2943     4610     5475     4766     3321     2452     2717     3867 
    5005     5028     3859     2714     2643     3325     3670     3260 
    2631     2245     1956     1688     1606     1641     1773     2184 
    2740     3003     2677     1965     1520     1807     2745     3797 
    4278     3952     3288     2801     2450     1969     1548     1493 
    1402      747       37      184     1177     2475     3800     4772 
    4830     3946     3049     3206     4276     5080     4758     3457 
    2039     1309     1345     1649     1830     2149     3090     4256 
    4479     3420     2180     2083     3364     4914     5323     4342 
    2934     1972     1682     2074     2987     3886     4288     4225 
    3889     3179     2108     1300     1402     2176     2770     2847 
    2818     3079     3573     4171     4909     5486     5036     3353 
    1818     1894     3086     3601     2749     1679     1552     2166 
    2905     3663     4284     4276     3546     2797     2679     2971 
    3289     3747     4220     4097     3379     2790     2575     2521 
    2798     3489     4045     3987     3311     2374     1917     2376 
    3370     4290     4567     3925     2938     2463     2808     3627 
    3920     2947     1447      672      727      989     1289     1993 
    3260     4567     5035     4212     2710     1765     1842     2390 
    2951     3466     3834     4035     4162     4037     3532     2902 
    2409     2056     1741     1566     1661     1742     1495     1328 
    1823     2677     3130     3063     2840     2830     3204     3532 
    3245     2559     2120     2238     2563     2257     1183      379 
     527     1252     1914     2076     1891     2174     3258     4422 
    4837     4286     3314     3003     3793     4941     5583     5440 
    4726     4077     4066     4402     4099     2845     1520     1127 
    1736     2498     2722     2636     2866     3580     4190     3983 
    3221     2897     3580     5086     6525     6621     5101     3271 
    2424     2544     2776     2397     1356      144     -638     -587 
     229     1213     1794     2145     2934     4109     4835     4681 
    3925     3144     2826     2995     3244     3056     2157      990 
     576     1389     2556     2964     2647     1995     1208      994 
    1779     2799     3231     3207     3335     3720     3928     3952 
    4338     5169     6031     6843     7573     7716     6791     4918 
    2793     1204      592     1039     1965     2209     1553     1250 
    2061     3154     3539     3339     3279     3650     4099     4210 
    3736     2594     1356      986     1556     2108     1799      707 
    -276     -406      216     1152     2270     3368     3829     3387 
    2713     2721     3771     5479     6781     6593     4945     3137 
    2363     2585     3094     3362     3181     2778     2558     2452 
    2157     2002     2770     4382     5425     4807     3462     3087 
    3959     5418     6924     7631     6941     5705     5467     6524 
    7333     6223     3694     1896     1856     2442     2053      434 
   -1379    -2187    -1409      432     1868     1680      164    -1071 
    -814      567     1850     2277     1983     1701     2157     3402 
    4558     4563     3422     2138     1491     1699     2606     3626 
    4027     3611     3078     3443     4733     5791     5798     5179 
    4715     4692     4878     4542     3091     1104     -184     -488 
    -398     -172      342     1170     1858     1644      783      780 
    2232     3905     4413     3677     2825     3048     4475     6180 
    7126     6644     4734     2702     2033     2398     2520     2153 
    1752     1325      776      672     1530     2691     3021     2347 
    1625     1810     2762     3765     4573     5101     5084     4581 
    4148     4079     3705     2334      750      365     1198     2137 
    2497     2458     2574     3017     3416     3603     3816     4071 
    4118     3952     3699     3368     3148     3222     3273     2724 
    1435       98     -330      153      572      315     -264     -356 
     656     2628     4556     5215     4170     2416     1441     1692 
    2621     3551     4016     3939     3661     3595     3769     3682 
    3021     2301     2361     3445     4727     4916     3836     2789 
    2884     3802     4537     4658     4334     3640     2600     1609 
    1120     1248     2008     3119     3592     2714     1456     1560 
    3253     4826     4436     2161      240      517     2219     3439 
    3680     3542     3441     3589     3781     3414     2701     2531 
    3126     3939     4275     3896     3284     2982     3144     3831 
    4781     5297     5069     4425     3797     3375     2961     2388 
    1979     2016     2322     2799     3726     4880     5132     3937 
    2527     2296     2983     3439     3142     2355     1721     1989 
    3408     5109     5562     4135     2022      932     1182     1602 
    1169      187     -375       76     1756     4083     5302     4325 
    2373     1397     1844     2658     2651     1656      537      373 
    1642     3508     4199     3065     1611     1624     2941     3969 
    3734     2681     2114     2883     4137     4276     3175     2361 
    2961     4337     5165     4953     4024     3037     2536     2362 
    2069     1827     2074     2403     1810      338     -733     -510 
     805     2571     4172     5080     4869     3720     2740     2752 
    3219     3495     4028     5047     5640     5343     4950     5005 
    4969     4221     2976     2042     1873     2018     1888     1821 
    2506     3662     4332     4216     3759     3435     3399     3338 
    2903     2278     1906     2170     3115     3866     3245     1339 
    -257     -141     1192     1962     1289       51     -159     1244 
    3091     3801     3046     1864     1853     3694     5867     5992 
    3996     2578     3732     6184     7199     5629     2623      218 
    -552      -45      984     1746     1556      858      955     2030 
    3005     3284     3063     2629     2334     2511     3100     3736 
    4027     3713     2999     2727     3412     4318     4372     3454 
    2284     1763     2358     3489     3854     2943     1814     1964 
    3605     5254     5286     3597     1485      452     1158     2864 
    3927     3492     2512     2247     2509     2416     1900     1440 
    1127      934     1066     1215      621     -340     -167     1584 
    3410     3751     3013     2813     3699     4912     6085     7234 
    7528     6367     5003     4922     5680     6058     5992     5956 
    5849     5340     4671     4496     4756     4716     4294     3919 
    3659     3458     3447     4055     5540     6669     5574     2754 
     587     -137     -529    -1202    -1811    -2200    -2466    -2288 
   -1320     -113      487      873     2226     4291     5421     5103 
    4602     4904     5890     7568     9945    11680    11156     8802 
    6334     4564     3690     4243     5942     6995     6131     4333 
    3566     4943     7959    10405    10160     7645     5337     5053 
    6319     7103     5853     2933      221     -805     -363      252 
      74     -731    -1223     -737      392      911       40    -1048 
    -523     1559     3341     3287     1572     -213     -692      121 
    1205     1441      446     -932    -1436     -959     -534     -693 
    -699      513     3022     5440     6097     5003     3838     3982 
    5297     6515     6480     5229     3642     2363     1717     1767 
    1938     1551      776      594     1844     4104     5940     6413 
    5575     3942     2111      791      770     2007     3096     2743 
    1406      720     1453     2635     2947     2296     1853     3040 
    5984     8773     9293     7900     6859     7339     8401     8621 
    7689     6394     5356     4519     3785     3086     2201     1216 
     841     1809     3699     5020     4968     4391     4599     5861 
    7306     7611     6120     3788     2176     1669     1680     1794 
    1829     1544     1093     1287     2436     3553     3662     3003 
    2173     1290      538      326      691     1205     1316      901 
     355     -396    -1845    -3530    -4090    -2878     -615     1429 
    2475     2674     2909     4024     6004     7983     8978     8549 
    6929     4652     2215      340     -153      626     1406      942 
    -797    -2686    -3558    -3180    -2133    -1135     -689    -1156 
   -2582    -4344    -5568    -5819    -5073    -3653    -2120     -938 
    -558    -1237    -2249    -2211     -687     1242     2196     1783 
     900     1046     3009     6316     9796    12141    12467    11175 
    9983    10273    11790    13373    13959    13026    11175     9703 
    9278     9547     9634     8912     7851     7645     8727    10689 
   13070    15321    16839    17377    16988    15795    13857    11335 
    8814     7098     6451     6033     4372      865    -3339    -6246 
   -6771    -5532    -4178    -4325    -6390    -8839    -9406    -7387 
   -4198    -2127    -2462    -4279    -5670    -5931    -5690    -5779 
   -6737    -8465   -10004   -10228    -9034    -7542    -6941    -7250 
   -7327    -5934    -3033     -220      780      149     -363      552 
    2646     4517     5150     4962     5065     6087     8017    10214 
   11369    11068    10635    10779    10693    10011     9126     8044 
    6296     3631      683    -1127     -797      970     2309     2192 
    1259      876     1776     3460     4973     6003     6720     7080 
    7088     7312     8240     9582    10706    11142    10658     9350 
    7797     6907     7186     8303     9618    10625    10859    10062 
    8556     6956     5634     4604     3654     2648     1811     1584 
    2069     2443     1728      322     -392      160     1317     2103 
    2056     1445     1009     1047     1027      440     -384     -463 
     687     1926     1510     -488    -2143    -1958      -93     1809 
    1609    -1116    -4037    -4344    -1617     2062     4303     4264 
    2825     1405      687      687     1399     2579     3769     4865 
    5841     6026     4854     3181     2458     3088     4598     6265 
    7236     7327     7365     7840     8538     9358     9915     9418 
    7770     5751     4055     2830     1977     1350      865      477 
    -194    -1202    -1529     -765     -302    -1063    -2010    -2176 
   -2042    -2272    -2878    -3550    -3821    -3508    -2909    -1961 
     -40     3176     7221    10779    12209    10924     8383     7157 
    8390    10601    11632    11002     9880     9397     9379     8947 
    7866     6404     4536     2362      421    -1134    -2567    -3781 
   -4314    -3919    -2934    -2000    -1458    -1331    -1556    -2015 
   -2593    -3105    -3100    -2293    -1063      118     1260     2281 
    2814     3133     4151     5590     5848     4596     3253     2722 
    2575     2239     1948     2130     2411     2258     1884     1776 
    2146     3011     4298     5618     6174     5679     4849     4355 
    4167     4095     4379     5306     6401     6867     6588     5887 
    4935     3686     1894     -237    -1742    -2139    -1958    -1929 
   -2516    -3454    -3703    -2511     -205     2041     3079     2678 
    1653     1054     1165     1441     1737     2629     4040     4947 
    4830     4220     3954     4482     5583     6878     8237     9197 
    9174     8488     7919     7743     7797     7674     7032     6261 
    6138     6863     8144     9540    10331    10022     9054     8441 
    8903    10183    11049    10507     8819     6677     4093     1174 
    -918    -1159       -4     1236     1285     -711    -4168    -7007 
   -7576    -5991    -3663    -2236    -2457    -3578    -4166    -3511 
   -1993     -360      939     1973     2845     2990     2031      760 
     322     1329     3480     5381     5751     4907     4222     4338 
    4556     3970     2712     1707     1466     1651     1845     2305 
    3686     6077     8883    11396    12679    11597     8299     4868 
    3060     2440     1802      650    -1166    -3526    -5686    -6812 
   -6690    -5850    -5217    -5328    -5840    -6162    -6072    -5382 
   -3792    -1416     1111     3352     5211     6170     5697     4459 
    3744     3958     4437     4509     4221     3838     3272     2590 
    2567     4102     6930     9676    11213    11119     9774     8631 
    8803     9236     7873     4526     1304       31      714     2349 
    3528     3030     1217      126     1317     4175     6808     8117 
    8313     7992     7751     7990     8387     8137     6816     5053 
    4245     4949     6095     6369     5671     4880     4784     5409 
    5956     5813     5606     6103     6957     7441     7168     6274 
    5335     4438     3130     1606      845     1462     2747     3203 
    2393     1548     1949     3499     5101     5729     4968     3256 
    1622      577     -557    -2586    -5159    -7331    -8695    -9204 
   -8931    -8429    -8127    -7607    -6376    -4654    -3013    -1865 
   -1340    -1254    -1177     -693       70      588      847     1429 
    2721     4521     6048     6420     5636     4518     3623     3025 
    2795     2905     3198     3657     4136     4056     3181     2415 
    2859     4513     6408     7514     7433     6652     6303     7194 
    8958    10463    10848    10152     9101     8128     6974     5170 
    2559     -228    -2060    -2455    -2110    -2064    -2623    -3165 
   -2640     -463     2573     4885     5722     5420     4696     4270 
    4592     5606     6812     7609     7572     6710     5603     4818 
    4270     3333     1572     -592    -2054    -1998     -990     -719 
   -1956    -3411    -3245    -1210     1248     2644     2625     1788 
     797      -29     -508     -635     -751    -1140    -1559    -1590 
   -1240     -670      109      843     1317     1933     3157     4872 
    6546     7851     8919     9813    10327    10620    11248    12318 
   13185    13049    11777     9899     7871     5763     3624     1664 
     205     -309      264     1327     1764      814    -1231    -3171 
   -3844    -3207    -2349    -2043    -1760     -299     2749     6205 
    8305     8519     7803     7269     7323     7852     8457     8576 
    8063     7489     7360     7148     5937     4066     2972     3052 
    3055     1864      -72    -1271     -800      989     2890     3469 
    2268      480     -627    -1124    -1715    -2681    -3584    -3960 
   -4064    -4280    -4149    -2910     -619     1957     4148     5643 
    6458     6868     7148     7277     6978     6114     4837     3341 
