Origin Time       2025/01/13 21:19:00
Lat.              31.8
Long.             131.6
Depth. (km)       30
Mag.              6.9
Station Code      MYZ013
Station Lat.      31.9086
Station Long.     131.4188
Station Height(m) 6
Record Time       2025/01/13 21:19:37
Sampling Freq(Hz) 100Hz
Duration Time(s)  164
Dir.              N-S
Scale Factor      7845(gal)/8223790
Max. Acc. (gal)   144.437
Last Correction   2025/01/13 21:19:36
Memo.             
[...]
    1505     1490     1458     1467     1497     1495     1485     1485 
    1474     1471     1480     1479     1491     1521     1499     1449 
    1463     1522     1521     1471     1478     1513     1493     1458 
    1463     1486     1493     1513     1525     1482     1458     1472 
    1479     1493     1505     1497     1486     1494     1499     1474 
    1444     1463     1516     1526     1494     1471     1459     1464 
    1502     1503     1474     1476     1506     1516     1489     1472 
    1485     1480     1483     1512     1497     1464     1480     1499 
    1482     1474     1489     1490     1490     1501     1494     1482 
    1480     1486     1480     1475     1483     1502     1512     1501 
    1485     1482     1479     1464     1463     1487     1501     1493 
    1489     1480     1475     1482     1483     1486     1507     1505 
    1478     1472     1472     1470     1485     1506     1513     1502 
    1479     1479     1493     1474     1453     1482     1516     1514 
    1498     1475     1456     1464     1490     1505     1507     1513 
    1502     1470     1451     1476     1498     1472     1452     1489 
    1543     1522     1466     1467     1480     1468     1470     1485 
    1499     1510     1498     1483     1483     1486     1483     1475 
    1475     1495     1516     1494     1467     1483     1499     1490 
    1479     1471     1476     1497     1495     1485     1486     1487 
    1490     1485     1474     1478     1486     1491     1506     1513 
    1494     1467     1463     1482     1502     1506     1506     1498 
    1479     1464     1466     1476     1487     1498     1503     1495 
    1485     1480     1482     1489     1493     1489     1487     1493 
    1501     1495     1482     1475     1479     1486     1489     1490 
    1487     1479     1486     1498     1494     1489     1480     1462 
    1471     1499     1506     1495     1482     1476     1489     1497 
    1490     1487     1487     1486     1489     1489     1482     1482 
    1483     1482     1485     1497     1501     1490     1482     1485 
    1486     1482     1485     1493     1491     1491     1489     1483 
    1485     1483     1479     1479     1479     1480     1487     1486 
    1485     1495     1499     1489     1485     1487     1486     1482 
    1483     1489     1494     1493     1486     1480     1482     1485 
    1480     1480     1487     1491     1490     1491     1487     1482 
    1480     1482     1487     1497     1498     1494     1483     1468 
    1468     1479     1489     1495     1503     1502     1498     1493 
    1486     1483     1482     1486     1495     1495     1486     1483 
    1490     1495     1495     1489     1482     1482     1478     1472 
    1480     1494     1498     1495     1485     1472     1475     1487 
    1499     1505     1491     1474     1474     1486     1495     1494 
    1482     1476     1483     1479     1479     1494     1503     1494 
    1480     1476     1483     1494     1499     1494     1489     1483 
    1471     1472     1483     1489     1499     1503     1493     1493 
    1503     1502     1487     1475     1479     1497     1505     1501 
    1487     1478     1483     1487     1476     1474     1485     1493 
    1489     1474     1471     1487     1498     1497     1494     1480 
    1474     1485     1493     1485     1479     1490     1490     1474 
    1474     1491     1494     1490     1491     1489     1489     1490 
    1491     1493     1491     1490     1490     1490     1491     1486 
    1482     1478     1476     1485     1494     1495     1497     1495 
    1486     1486     1483     1468     1475     1499     1497     1487 
    1490     1480     1468     1474     1486     1498     1499     1491 
    1485     1475     1476     1498     1512     1499     1479     1470 
    1464     1466     1480     1499     1505     1487     1468     1476 
    1495     1497     1495     1497     1486     1479     1483     1482 
    1483     1493     1490     1480     1491     1503     1493     1485 
    1491     1490     1478     1472     1476     1487     1495     1497 
    1501     1493     1474     1474     1495     1507     1506     1491 
    1475     1478     1482     1474     1478     1495     1501     1497 
    1490     1489     1489     1475     1467     1480     1491     1493 
    1502     1502     1483     1475     1476     1480     1491     1495 
    1493     1491     1490     1489     1490     1490     1483     1480 
    1485     1480     1479     1494     1502     1494     1483     1476 
    1471     1466     1479     1509     1518     1503     1487     1480 
    1474     1471     1486     1505     1503     1487     1472     1475 
    1493     1497     1489     1490     1487     1471     1453     1464 
    1498     1512     1499     1489     1478     1475     1483     1487 
    1495     1494     1482     1482     1487     1485     1489     1491 
    1485     1490     1498     1486     1474     1472     1478     1490 
    1505     1505     1486     1471     1479     1497     1510     1512 
    1483     1445     1439     1468     1505     1514     1495     1480 
    1489     1493     1486     1494     1503     1487     1472     1482 
    1495     1494     1483     1482     1489     1482     1479     1490 
    1493     1487     1487     1490     1490     1490     1490     1478 
    1466     1466     1480     1505     1513     1498     1490     1482 
    1471     1476     1494     1497     1490     1485     1482     1479 
    1485     1506     1518     1502     1480     1470     1462     1470 
    1489     1487     1478     1478     1482     1486     1493     1491 
    1486     1494     1514     1528     1536     1557     1599     1657 
    1709     1725     1663     1503     1267      923      407     -148 
    -279      548     2242     3778     4040     3046     1819     1098 
     911     1134     1667     2208     2324     1580     -167    -2093 
   -2713    -1436      880     2749     3059     2046     1201     1753 
    3407     4403     3437     1422      236      488     1077      691 
    -228       24     2004     4051     3842     1428     -476      -27 
    1532     1760      257    -1057     -634     1310     3144     2999 
    1336     1036     3501     6446     6590     3732     1096     1675 
    4756     6411     3987     -949    -4895    -5745    -3515      211 
    3134     3659     2331     1123     1008     1065      372      433 
    3192     6689     6544     1899    -3306    -4972    -2334     2280 
    5070     3723      180    -1274      503     2498     2222      290 
   -1090     -210     2451     4106     2563     -892    -3184    -3281 
   -2725    -2647    -1690     1337     4658     6281     6762     7211 
    7307     6400     4749     2729      171    -2494    -3723    -2351 
     228      418    -2582    -4723    -3231       74     2805     4199 
    4199     3289     2396     2351     2979     3084     2376     1555 
     734        4      155     2002     5030     6424     4413     1904 
    1918     2417      595    -2022    -2635    -1350      125      946 
    1485     2619     4244     5548     6393     6199     3827      -35 
   -3276    -4635    -3616     -259     3732     5467     2550    -4218 
   -8847    -5629     3645    11578    11128      823   -11792   -16455 
  -10783     -677     7091    10408    11051    10728    10045     8892 
    6648     3399      282    -1186      194     3936     7395     7696 
    4120    -1452    -6102    -8245    -8232    -5686      171     6183 
    7681     4490     -216    -2983    -1792     2012     5478     6574 
    4980     2552      473    -2550    -7323   -11956   -12325    -6102 
    3391    10440    12613    11900    11041     9790     6759     2205 
   -2886    -6756    -6328     -746     5535     6134       17    -6366 
   -7268    -3750     2045    10960    21354    26561    22342    12351 
    1895    -7167   -11963    -9487    -3761    -2097    -5155    -6756 
   -3508      376      677    -1865    -4668    -4590      295     7535 
   11820    10844     7028     3145     1213     3069     7919    12025 
   11006     3298    -6219    -9895    -6724    -2061      681     1333 
    1264     3446     8132    10801     8542     3358    -1792    -5174 
   -6616    -6534    -5111    -4889    -6338    -3672     5887    16754 
   21833    19072    11030     1212    -8495   -17716   -24260   -25837 
  -23564   -18095    -9483     -243     7376    12528    13296     7504 
    -973    -1478     9559    22524    29427    31205    28993    21396 
   10183     1698      162     3130     5867     5471     2370      579 
    1192     -406    -5652   -10813   -13687   -13086    -8116     -999 
    5537     9304     6953    -1377    -9047    -9693    -4696      190 
    3550     5894     4000     -872     -152     8125    15649    13393 
     202   -13710   -17610   -11244    -2003      658    -5674   -11913 
   -8089     5219    16171    14521     5285     1308     5590    10872 
   12714    12328     9930     6540     5610     5165     -222    -9589 
  -17408   -19386   -14056    -5764    -2519    -7327   -15342   -18492 
  -15130   -12370   -12550    -8927     2431    16933    25848    26306 
   25567    28040    28001    21799    12957     4604    -2250    -6538 
   -8449    -8290    -3276     5918    11310     9747     6129     4455 
    5668     7522     8340    11313    17261    21914    22658    19431 
   12136     1374    -9217   -15098   -15489   -13401   -14620   -21249 
  -23647   -11979     7982    20788    17749     4769    -5845   -10064 
  -13379   -19089   -21477   -13116     4028    19697    23047    10079 
   -9609   -21236   -18685    -5092    10233    18141    18481    18805 
   23953    28981    25046    10557    -5103   -10732    -6926    -1611 
    3037     7195     8579     5865     -900    -8603   -11263    -7060 
   -1626    -1937    -7060    -8938    -2775     7327    13028    10359 
    3624      264     1849     3510       71    -8811   -16729   -17481 
  -11160     -309    11851    19155    16892     8753     3442     6447 
   16293    24576    23518    15047     7106     3234      272    -4556 
   -8907   -11182   -14747   -23151   -35667   -44410   -39441   -21378 
   -1179    10768    12220     8206     1968    -4899    -5717     2461 
   12013    15118     9140    -4253   -16977   -20630   -15037    -5764 
    1682     5719     9848    16852    24297    28506    29137    29647 
   33282    36894    32767    18396     1537    -5811     -622     5759 
    2556    -4060     -152    15533    29515    27770     9529   -10590 
  -17055    -8492     6104    19252    26963    28050    24356    16845 
    6231    -5324   -17821   -30445   -38215   -38349   -33729   -30747 
  -34423   -40657   -39764   -29605   -16556    -7087    -4533   -10019 
  -22551   -38163   -51239   -55912   -48294   -33669   -24287   -24601 
  -27897   -28155   -27290   -28686   -29596   -26133   -19772   -15063 
  -14898   -15133    -8820      990     6135     6011     5271     8761 
   17103    23672    23488    19822    19024    22991    25466    20788 
   13994    13244    18881    25525    30041    34296    41373    50538 
   56619    57327    57392    60143    62033    58700    51239    42921 
   33230    21909    11481     1524    -8847   -15705   -15079    -8684 
   -3100    -4866   -13900   -22701   -25524   -22998   -16804    -7867 
    1688    10639    19890    26607    24750    15026     1637   -13162 
  -22287   -19951   -11853    -3785     6308    17116    21830    19175 
   12992     7624     9103    19060    29647    30886    19271    -1382 
  -24580   -44694   -57105   -59547   -54708   -46896   -39081   -33160 
  -23598    -1722    29690    58888    74073    71089    59867    51634 
   46238    42171    42403    47214    52319    51302    43983    40470 
   45369    49665    45118    32576    15028    -4063   -18507   -26380 
  -31417   -34805   -34130   -28645   -23808   -30156   -50716   -73791 
  -86760   -87871   -83034   -78250   -74831   -70540   -61605   -49920 
  -43829   -44918   -49557   -53746   -51536   -41617   -25895    -8980 
    -256    -2972   -12448   -23144   -31673   -39363   -48583   -56474 
  -55541   -43213   -27093   -14311    -6031    -2798    -3003    -1189 
    6519    19438    34136    48369    63188    77997    88524    93514 
   93487    87278    80769    82640    90599    97892   100969    98871 
   92583    79378    55474    24135    -6411   -26295   -24871     1692 
   40774    68959    71610    54714    36185    28289    30391    35351 
   38651    37015    26794    10899    -4665   -19670   -36448   -55174 
  -75419   -94246  -105754  -107847  -102517   -92996   -82637   -69701 
  -49292   -21756     5429    20910    17437      -98   -18675   -27405 
  -24362   -17529   -15230   -18127   -23739   -31010   -37548   -39765 
  -38778   -36648   -30046   -18369    -7747    -1004     5690    13220 
   17902    19792    19511    16112    13169    13836    17631    24457 
   33791    43572    50984    56101    62804    72827    84878    98250 
  110092   114412   108395    92836    70349    47834    31985    24055 
   23009    26873    33523    43200    52384    52629    42202    25303 
    6030    -7608   -10632    -7534    -1509     5659     7283      558 
  -11556   -26910   -41872   -55692   -69745   -79934   -87158   -94155 
  -95882   -95045  -101922  -111665  -106832   -85791   -59221   -26227 
    8619    30886    41212    41143    26430     4314   -19946   -49060 
  -80258  -107578  -127579  -140807  -148992  -149940  -144065  -136377 
 -126037  -109198   -85672   -57176   -29428    -7159    13589    38383 
   66491    91886   106817   104260    81490    46966    18759    10696 
   21462    38792    55395    72994    91991   109861   123172   128046 
  126239   125780   130685   131545   115946    85293    48487    14183 
   -9335   -21158   -25301   -25589   -26580   -27164   -23132   -15350 
   -5236     3883     6889     5472     6879    17226    32321    42731 
   46722    41690    22751    -6991   -39685   -65715   -77053   -74524 
  -65065   -55113   -47603   -42765   -40672   -38911   -32634   -21481 
  -10138    -3021    -1657    -2347    -1113    -1197    -6149   -15071 
  -27643   -41531   -50457   -51579   -43526   -21132    13246    48610 
   79478   100828   101058    78572    51564    36452    32327    37266 
   53746    76141    95339   105163   101873    89019    73549    58932 
   46003    33092    20517    11840     4614    -8915   -31807   -58945 
  -76003   -66302   -32344     2074    19955    16189   -10134   -36985 
  -39048   -28879   -25752   -26626   -32543   -48647   -68940   -89136 
 -104596  -103175   -84071   -57939   -28966     1935    27935    41874 
   45716    47931    56108    71339    84604    86150    75763    60031 
   48339    45312    43897    36255    21415     -999   -28152   -52524 
  -70198   -80581   -83037   -80624   -78718   -78449   -79238   -81449 
  -80476   -70760   -55742   -41647   -27521    -9977     7372    17211 
   18954    17041    13906    10843     9097     9996    14858    21875 
   29382    39559    51846    61492    64131    58245    47232    35770 
   28794    31311    40269    47065    47505    41812    33016    26366 
   24297    24495    24499    24551    24525    21278    13070     2826 
   -5730    -9516    -5080     7992    23930    34020    33524    24821 
   15762    13176    15919    19732    22626    22053    18092    12991 
    5553    -2948    -8089   -11329   -18809   -33189   -50454   -64092 
  -69198   -62818   -46113   -24818    -6097     4557     6103      569 
  -10147   -24123   -39222   -52677   -60015   -58488   -50475   -40309 
  -31491   -26954   -25569   -20754    -8561     6540    17643    22862 
   23480    18987    10643     4345     1489    -3073   -10139   -16706 
  -21487   -21918   -17230    -9786     -679     7361    12306    15882 
   17797    16667    12471     5395    -1798    -5599    -5290    -1426 
    4885    12514    21263    31005    39464    39750    25266     -742 
  -25216   -35008   -25974    -2115    29627    58071    72396    72715 
   65380    53727    41673    35629    36973    42064    48780    54804 
   57229    56349    53385    47702    37658    23356     7412    -7511 
  -18065   -21419   -20116   -19398   -22307   -29965   -40024   -46838 
  -46697   -40645   -34323   -33725   -39283   -48756   -60831   -72054 
  -78649   -80852   -80685   -79024   -75915   -70938   -63059   -51351 
  -36769   -22451   -11182    -4781    -4251    -6498    -6682    -4418 
      -8     7692    15492    19165    18750    15466     9833     1308 
  -10650   -23233   -31205   -30936   -22647    -8760     9736    32533 
   57334    80839   100190   112525   114903   105853    87075    64137 
   44828    34803    34271    38533    42498    44585    44674    41863 
   36391    30377    26057    24929    28412    36092    44378    49272 
   47989    41330    32590    21687     9458      180    -4938    -5837 
   -2192     2872     4803     -739   -13829   -27476   -37143   -43654 
  -46822   -46800   -45751   -45736   -47553   -50340   -53775   -58909 
  -66235   -75288   -84121   -90416   -94517   -98173  -101744  -102609 
  -94915   -74563   -42807    -4569    31121    53711    58691    49207 
   33056    17262     2087   -15780   -34989   -48423   -50519   -41766 
  -26339   -10794     -662     5098    10446    15614    20503    27969 
   41234    62071    86755   107819   121128   124168   117751   108854 
  101191    94416    91679    94196    96672    93663    82537    64666 
   46707    33713    24231    14107     1397   -11329   -20201   -24285 
  -24571   -21740   -16983   -13045   -12711   -17190   -26307   -39671 
  -55414   -69992   -82624   -94608  -104966  -111902  -115612  -117587 
 -118887  -119283  -117159  -111665  -103715   -94223   -84083   -73458 
  -60446   -43132   -23302    -7101      229     -541    -3496    -3611 
    -826     4240    12098    20409    26346    29373    30006    31407 
   38238    52448    72212    92745   109327   119423   121554   115661 
  104801    93712    84356    75867    68268    61697    55960    52012 
   50456    50356    50533    51236    53553    57538    61582    63632 
   62937    57994    46684    31843    18935     9641     2528    -5136 
  -14258   -21805   -24969   -23032   -17321   -12221   -11739   -15992 
  -22335   -27284   -28443   -27353   -27978   -31383   -36356   -42460 
  -48435   -52573   -54893   -56883   -60646   -66884   -73345   -76168 
  -74362   -71165   -69095   -68407   -68559   -68875   -69457   -69669 
  -68683   -67711   -68277   -71135   -76485   -81484   -80295   -70147 
  -53265   -32165    -9999     9050    24048    34969    40937    43367 
   44660    46865    50629    55242    60092    62712    61661    59368 
   58490    61740    70077    79542    85619    87620    88230    90126 
   94306   100916   108240   113468   113922   106663    91399    73253 
   59055    50625    45378    41249    35606    24850     8332   -11603 
  -30850   -43503   -47313   -46843   -46479   -47790   -54066   -67961 
  -85908  -100313  -104985   -98624   -85361   -70941   -58626   -48435 
  -40861   -38304   -40512   -43405   -41752   -33583   -23996   -20271 
  -24726   -35777   -49962   -61192   -65281   -63526   -57767   -48212 
  -36352   -24441   -15349   -11836   -12943   -14307   -10598       48 
