Origin Time       2025/01/13 21:19:00
Lat.              31.8
Long.             131.6
Depth. (km)       30
Mag.              6.9
Station Code      MYZ005
Station Lat.      32.4286
Station Long.     131.6009
Station Height(m) 26
Record Time       2025/01/13 21:19:45
Sampling Freq(Hz) 100Hz
Duration Time(s)  96
Dir.              N-S
Scale Factor      7845(gal)/8223790
Max. Acc. (gal)   22.775
Last Correction   2025/01/13 21:19:45
Memo.             
[...]
   -3325    -3034    -2851    -3057    -3535    -3898    -4160    -4193 
   -3342    -1881    -1232    -1792    -2488    -2944    -3430    -3402 
   -2893    -2843    -3148    -3057    -2612    -2386    -2517    -2547 
   -2509    -2809    -2828    -1969    -1189    -1526    -2493    -2909 
   -2616    -2474    -2749    -2866    -2604    -2143    -1695    -1884 
   -2705    -2617    -1208     -596    -1633    -2135    -1366    -1278 
   -2018    -2246    -2420    -2924    -2596    -1530    -1413    -2322 
   -2612    -1822     -963     -511     -290     -457     -977    -1644 
   -2627    -3427    -3076    -1918    -1483    -2473    -3596    -3392 
   -2230    -1350    -1428    -2392    -3360    -3172    -2234    -2181 
   -2802    -2772    -2547    -3333    -5198    -6285    -4807    -2470 
   -1648    -1900    -2254    -2172    -1348     -594     -575    -1221 
   -2740    -4484    -4619    -3140    -2245    -2702    -3358    -3582 
   -3396    -3001    -2574    -1764     -892     -920    -1524    -1930 
   -2458    -3640    -4853    -5005    -4523    -4131    -3487    -3113 
   -3117    -1819      106      -48    -1358     -823      457     -299 
   -1799    -2434    -3747    -5314    -5034    -3962    -3870    -4063 
   -3088     -984      619      900      685      314     -820    -2833 
   -4637    -4870    -3588    -2444    -2419    -2459    -1684     -801 
    -438     -824    -2027    -2779    -2002     -932    -1169    -2502 
   -3609    -4027    -4514    -4880    -4136    -2686    -1737    -1680 
   -1796    -1239     -198      425       79     -787    -1653    -2787 
   -3912    -4374    -4403    -4410    -4261    -3041     -229     2409 
    3095     2521     1370     -741    -3015    -4131    -4321    -4415 
   -4301    -3693    -3061    -3076    -3773    -3906    -2597    -1313 
   -1111     -830     -392    -1205    -2805    -3370    -2994    -2897 
   -2948    -3393    -5074    -6058    -4419    -2235    -1337    -1239 
   -2011    -2833    -1921     -184      265     -657    -2007    -3304 
   -4249    -4438    -4126    -3724    -3099    -2929    -3213    -2355 
   -1112    -1399    -2091    -1977    -2087    -2191    -1259    -1008 
   -2594    -3897    -4109    -4114    -3221    -1302     -278    -1059 
   -2470    -3314    -3036    -1871    -1522    -2462    -2845    -2313 
   -1772    -1258    -1397    -2340    -2674    -2485    -2687    -2682 
   -2644    -3190    -3129    -2382    -2632    -3593    -3913    -3835 
   -3796    -3696    -3755    -3454    -1973     -392     -562    -2370 
   -3400    -2112     -878    -1960    -3156    -2727    -2431    -2619 
   -1991    -1448    -2133    -2968    -2886    -2533    -2735    -2475 
    -924      -22     -731     -984     -453    -1028    -2466    -3078 
   -2917    -2991    -3369    -3704    -3750    -3516    -3871    -4973 
   -5371    -4287    -2536    -1544    -1738    -1625     -637     -733 
   -2363    -3140    -2736    -3010    -3136    -1977    -1676    -2871 
   -3364    -3125    -3329    -3176    -2215    -1691    -2330    -3272 
   -3186    -1807      -45     1304     1732      760     -855    -1887 
   -2821    -3963    -3942    -2978    -2594    -2440    -1763     -637 
     557      599     -904    -2752    -3933    -3618    -2457    -2666 
   -3716    -3794    -3396    -2747    -2153    -2745    -3356    -3119 
   -2879    -1533     1081     2070      409    -2099    -3863    -4168 
   -3184    -2320    -2793    -4020    -4635    -4283    -3543    -2914 
   -2228    -1020      201        5    -1783    -3262    -2866    -1730 
   -1979    -3049    -2953    -2106    -1894    -2296    -2913    -3028 
   -1979    -1111    -2243    -4278    -4762    -4066    -3901    -3580 
   -2250     -938     -103      101     -734    -1397    -1123    -1356 
   -2560    -3685    -3875    -2431     -452     -341    -1649    -2488 
   -2836    -2899    -2770    -2955    -3013    -2851    -3222    -3190 
   -2095    -1583    -2047    -3082    -4993    -5350    -2488     -345 
   -1628    -3615    -3724    -2430    -1421    -1088     -477     -371 
   -1993    -3404    -2835    -2228    -3188    -4087    -3906    -3971 
   -4540    -4249    -3018    -2586    -3746    -4696    -4118    -3294 
   -2960    -2652    -3235    -4527    -4090    -2386    -2397    -3632 
   -3724    -3241    -3481    -3586    -3017    -2574    -2320    -1617 
    -602     -704    -2571    -3794    -2864    -2189    -3215    -4156 
   -3451    -1327      996     2080     1001    -1482    -3180    -3500 
   -3834    -3950    -2563     -658      234     -194    -2056    -3877 
   -3040     -143     1125     -712    -3229    -4110    -3753    -3451 
   -3187    -1938      -13      795     -467    -3149    -5198    -4720 
   -2930    -2597    -4036    -5539    -5285    -3065    -1590    -2366 
   -3171    -3088    -3115    -2486    -1065     -660    -1267    -1640 
   -2114    -3117    -3769    -3230    -1657       29      639     -448 
   -2023    -2492    -2701    -3304    -2594    -1121    -1364    -2247 
   -1892    -1725    -2450    -2254    -1075     -997    -2197    -2818 
   -2718    -2619    -1514     -251    -1428    -3087    -2373    -1611 
   -2596    -4213    -5994    -6197    -3956    -2471    -3141    -4372 
   -5474    -5466    -3838    -2444    -2215    -1806    -1069    -1582 
   -3019    -3315    -3030    -4097    -5028    -4241    -3643    -3276 
   -1386     -336    -1853    -2528    -1674    -2205    -3030    -2295 
   -1003      653     1225    -1263    -4170    -4730    -3925    -2883 
   -2006    -2203    -3437    -3933    -3227    -3262    -4745    -6183 
   -6585    -6262    -5487    -4576    -3986    -3315    -2944    -3507 
   -3268    -1431      764     2394     1692    -1136    -2195     -658 
     530       81    -2072    -4473    -4099    -2255    -2292    -2830 
   -2448    -2212    -1898    -1574    -1416     -742     -938    -2517 
   -3098    -2465    -2150    -1337      573      967    -1047    -1881 
    -831    -1059    -2228    -2227     -688     1953     3017      966 
   -1246    -2358    -3892    -5208    -4977    -3484    -2304    -2646 
   -3167    -3551    -4843    -4495    -2150    -2170    -4410    -5684 
   -5061    -2147     -711    -4718    -7558    -4207    -1572    -2149 
   -1444     -580     -766      121      191    -1796    -2998    -3221 
   -3219    -1236     1718     2230      648     -818    -2431    -4321 
   -4683    -3782    -4650    -7735    -9433    -7639    -5053    -3900 
   -1846     1375     1239    -2675    -6126    -6878    -4533    -1985 
   -3083    -4965    -4743    -4918    -4293     -124     2677      487 
   -1208      -75      -71     -579     -157    -1158    -2378    -1956 
   -2308    -3303    -2512     -638      434    -1161    -4868    -5960 
   -3470    -2137    -3346    -4413    -4611    -3418      342     2848 
     483    -2196    -1328     -432    -1989    -3865    -5389    -6921 
   -6481    -4249    -2069      326     1472      716     1320     2956 
    2258      369      194      905      731     -216    -1270    -1800 
   -2401    -3424    -3316    -2281    -1599    -1111     -751      180 
    1777     2197     1853     1784      -13    -2970    -3090     -712 
     -14    -1443    -1786    -1516    -3018    -3593    -2639    -5071 
   -8833    -8502    -7820    -9448    -8749    -6061    -5098    -4496 
   -3566    -4060    -4178    -2305    -1324    -2612    -4445    -6151 
   -6447    -4036    -1063     1163     4144     6980     7696     7265 
    6087     4075     4330     7171     8280     7272     6185     3426 
    -319     -703      252    -2215    -6124    -9832   -13250   -12407 
   -8378    -7311    -8930   -10674   -12951   -13591   -11175    -9366 
   -8430    -5864    -4680    -6289    -6432    -4876    -4418    -3600 
   -1081     1385     3546     5229     5266     6332    10122    12646 
   13564    15225    14570    11476    10247     9805     7904     5391 
    2596      449    -1084    -5108   -12306   -18647   -20355   -18407 
  -15827   -12413    -8445    -6524    -4756    -1132      -27    -2585 
   -4441    -4995    -5182    -3615     -765     1032      467    -1923 
   -4604    -7496   -10314   -10264    -6448    -1675     1949     3875 
    4341     5098     6281     5370     2069    -1769    -5962   -10616 
  -14476   -17034   -19167   -20032   -16490    -9963    -7489    -9921 
  -11038   -10309   -10891   -10633    -7800    -5015    -2980    -1027 
    -248     -344     -612    -2189    -3935    -3150    -1000      120 
     704      980      445     1121     4677     9267    12629    14682 
   15831    15626    14179    11847     8202     4599     3337     2030 
   -2995    -8637    -9896    -7888    -6207    -5568    -4730    -2984 
    -795      781     1281     1665     1752     -473    -4035    -6227 
   -7419    -8487    -8634    -8144    -9019   -11097   -11122    -7713 
   -2604     2307     5842     7416     7564     7172     5377     2228 
     321     -442    -2373    -6106   -11006   -14519   -14358   -12908 
  -13971   -16756   -17930   -16621   -12969    -7345    -2729     -540 
    1786     3936     2577    -1116    -3283    -3913    -4773    -5323 
   -4812    -4054    -3048    -1308     -832    -3310    -5632    -4364 
   -1093     2038     5023     5940     3456     1143     1721     2856 
    3011     4071     5441     4384     2914     4066     5351     4417 
    2920     1302    -1144    -2608    -2278    -2432    -3700    -4633 
   -5713    -8864   -13464   -15676   -13531    -9576    -6057    -2810 
    -194     1857     4434     5679     3257     -182    -1921    -3489 
   -5413    -6438    -7568    -9995   -12893   -14723   -13786   -10606 
   -7730    -5678    -3758    -1007     3316     6786     8037     9277 
   10260    10161    10636    10400     7375     4153     2006    -2439 
   -9252   -13841   -15121   -14821   -12793   -11446   -12893   -11713 
   -5849    -2457    -3497    -3670    -1740      548     3368     5647 
    5683     4992     4741     3740     1846     -795    -4159    -6372 
   -5886    -3908    -2354     -568     2139     2701      -60    -3002 
   -5460    -8019    -9115    -9223   -10068   -11292   -12082   -11315 
   -8554    -5902    -3645      133     3318     2945      912    -1155 
   -3996    -6088    -5737    -3802    -1354      421     1183     2386 
    3499     3489     4205     5236     4363     3510     3685     2459 
     645     -410    -2423    -3604     -248     5161     8060     8810 
    8815     7534     6519     7079     5725      245    -6442   -11680 
  -14152   -13213   -11870   -12704   -13194   -11936   -10532    -8266 
   -5012    -3499    -3951    -4241    -3539    -2189     -785     -241 
   -1879    -4737    -5412    -3827    -2654    -2147    -2241    -4275 
   -7145    -8307    -8433    -8723    -8449    -9477   -13674   -16663 
  -13910    -7256     -749     3645     5996     7244     8082     8806 
    9169     8418     7118     6448     4920     1159    -2957    -6223 
   -8496    -8839    -8414    -9049    -9602    -9066    -8567    -8413 
   -8024    -7923    -8710    -9895   -10251    -9061    -7391    -6216 
   -4924    -3159    -1323      245     1171     1231     1016     2106 
    5410     8981    10423    10278     9188     6365     2629    -1078 
   -5451    -9823   -12792   -14671   -15553   -13967    -9354    -4719 
   -3515    -3908    -2378      278     2457     4031     4086     2936 
    2910     4615     6227     6281     5254     4067     2227    -1089 
   -4302    -4209    -1497     -706    -2554    -3528    -2266      172 
    2824     4375     3013    -1358    -4857    -3589      380     2563 
    2656     2486      834    -4001    -8781   -10046    -9833    -9769 
   -8742    -7697    -7715    -8228    -8349    -6131    -2894    -2889 
   -3991    -2872    -3491    -6574    -6323    -2705      -52     1399 
    2185     1517      324     -290     -599    -1147    -2133    -3121 
   -4090    -5266    -5078    -2587      -70     1352     2489     1985 
    -209    -1445    -2080    -2748    -1756     -190     1090     3854 
    6404     6249     4789     3034      820     -930    -1732    -1952 
   -2258    -3577    -5557    -6257    -4788    -2763    -2176    -3362 
   -5489    -7805   -10181   -11661   -10845    -9882   -11470   -13072 
  -12603   -12208   -11674    -8854    -5034    -2270     -498      256 
     -28      166     1417     1717       63    -1614    -2313    -2988 
   -2543      247     2357     1636      554      -13    -1714    -3192 
   -2785    -2164    -1833     -147     2818     6054     9269    11562 
   11892    10597     8491     5736     2668      579      194      143 
   -1410    -4598    -7811    -9066    -8492    -8665   -11103   -14276 
  -16060   -16305   -15623   -13716   -10412    -7015    -5547    -6353 
   -7975    -9335    -9512    -7585    -4283    -1227      788     1891 
    2636     3346     4016     4464     4297     3672     3385     3539 
    3408     2779     2451     2720     1937    -1301    -5648    -9279 
  -12071   -14148   -15188   -14715   -12739   -10669    -9246    -7395 
   -4837    -2073     1456     5840     9471    10893    10269     8619 
    6907     5926     5718     5999     6781     6777     4414     1148 
    -414      -94      413     -498    -3215    -6876    -9917   -10993 
  -10385    -9385    -8178    -6459    -5080    -4013    -1455     2312 
    5032     5744     3730     -854    -4749    -4739     -789     4260 
    6389     4284      230    -3630    -6426    -7836    -8764   -10397 
  -12603   -14947   -18373   -23094   -26280   -26003   -23422   -18191 
   -9533     -450     6501    11469    14083    15125    16789    18094 
   15788     9258     1042    -5823    -9288    -9165    -7812    -7896 
   -9035    -8876    -6963    -4654    -3146    -3819    -6489    -8081 
   -7380    -6276    -5077    -3809    -4183    -4818    -2216     2887 
    7608    11242    13257    13150    12715    13238    13404    11989 
    8675     3807     -630    -2994    -4108    -5873    -9525   -14486 
  -18644   -20532   -20131   -18270   -16109   -13699    -9896    -5008 
   -1208      -60    -1478    -3653    -4430    -3646    -2378    -1348 
    -756     -359       14      238      186      -71     -319     -178 
    1305     4248     6405     5988     4496     4325     5717     7831 
   10143    11250     9807     7010     4496     1786    -1278    -3397 
   -4615    -6216    -8363   -10551   -12139   -11897    -9722    -8060 
   -9011   -11403   -13130   -13404   -12016    -9998    -8857    -8209 
   -7207    -5740    -3775    -2058    -1397    -1402    -1525    -1960 
   -3191    -4837    -5509    -4579    -3006    -2031    -1570     -704 
      74     -661    -2729    -4703    -6199    -7923    -9602    -9706 
   -7638    -4014      521     4329     4891     2182     -440     -213 
    2083     4008     4544     4315     3894     3063     1834     1498 
    2527     3022     2647     3102     3612     2879     1543     -874 
   -4606    -7130    -7042    -5622    -4214    -3960    -5520    -8167 
  -11234   -14164   -15133   -13228   -10493    -9050    -8548    -7496 
   -5201    -2261      -47      369     -626    -1826    -2924    -3723 
   -3624    -3172    -2554     -469     2875     5863     7977     8869 
    8090     6629     5351     3939     3469     4912     6166     6129 
    6034     5314     3414     1664      -78    -2621    -4900    -6095 
   -6928    -8552   -11151   -12359   -10658    -8845    -8136    -6578 
   -5201    -4911    -3348    -1209    -1408    -2982    -3712    -3905 
   -4353    -5038    -6496    -9120   -11232   -11013    -9518    -8519 
   -7595    -6184    -4915    -3847    -2509     -800     1258     3257 
    4471     5057     5729     6335     6504     6357     5525     3836 
    2643     2673     2261      110    -2879    -5798    -8434    -9999 
  -10301   -10619   -11192   -10756    -9180    -7377    -5385    -2921 
    -436     1540     2556     2425     2016     1979     2114     2582 
    2882     2182     1440     1464     1321      363    -1066    -2539 
   -3609    -3628    -2983    -3564    -5800    -8106   -10125   -11888 
  -12131   -10763    -9189    -8140    -7372    -6099    -3755     -812 
    1691     2698     1575     -737    -2281    -2710    -3408    -4996 
   -7113    -9350   -10899   -11403   -11538   -11634   -11317   -10062 
   -7767    -5078    -2312      689     3456     5535     6841     6933 
    6052     5080     4082     3410     3820     4506     4089     2582 
     545    -1710    -3119    -2729    -1345      442     2941     4828 
    4968     4801     5042     4507     2798      -24    -3917    -7855 
  -11259   -14193   -15468   -14208   -12074   -11203   -11593   -12154 
  -12619   -12807   -12128   -10623    -8536    -6269    -5027    -5212 
   -5736    -5759    -5193    -4375    -3707    -2652     -770      706 
     603     -639    -1695    -1104     1448     4787     7599     8984 
    9055     8658     7560     5416     2789     -432    -4311    -7696 
   -9525    -9526    -8337    -7419    -7477    -7987    -8133    -6986 
   -4797    -3518    -3527    -3146    -2253    -1881    -1345      391 
    2690     4596     6191     8162    10658    12372    11678     8881 
    5849     3518     1730      666     -162    -1787    -3327    -3577 
   -3427    -3407    -2824    -2092    -2178    -3327    -5518    -8166 
  -10493   -12243   -12938   -12561   -11939   -10542    -6964    -2018 
    1964     3844     3775     2343      148    -2308    -4365    -5845 
   -6866    -6685    -4868    -2259      194     1506     1011     -121 
    -120     1152     2505     2717     1429     -967    -4482    -9020 
  -13089   -15322   -15975   -15434   -13659   -11195    -8665    -5810 
   -2535       25     1318     2307     3148     3095     2706     2833 
    2898     2558     2752     3958     5663     7067     7287     6265 
    4745     2867      518    -1858    -4064    -6143    -7254    -6867 
   -6239    -6486    -7153    -7362    -6589    -5054    -3923    -4172 
   -5197    -5548    -4738    -3083    -1125      147      206     -382 
    -897     -653      880     2718     3225     2457     1300      -20 
   -1046    -1264    -1209    -1764    -3653    -6825    -9315    -9278 
   -7283    -4658    -2566    -2197    -3190    -3802    -3703    -4252 
   -5675    -6428    -5818    -4773    -4001    -3431    -3195    -3240 
   -2785    -1764     -808      -87     -167    -1312    -2197    -2246 
   -2872    -4984    -7480    -8554    -7533    -4860    -1256     2355 
    5362     7503     8602     9150     9564     9414     8540     6562 
    2424    -2972    -6736    -7651    -7196    -7360    -8743   -10245 
  -10351    -8789    -6637    -4986    -4314    -4522    -4531    -3288 
   -1197     1316     4411     6837     6930     4776     1090    -3052 
   -5803    -6529    -5917    -4665    -4193    -5715    -8386   -10724 
  -12437   -13386   -12827   -11421   -11244   -12032   -11180    -7884 
   -3639      318     3388     4658     3870     2396     1512      818 
    -876    -3711    -6207    -6851    -5645    -3624    -1324     1642 
    5163     7982     8837     7418     4853     3222     3227     3168 
    1664     -364    -1559    -1718    -1632    -2671    -5331    -8279 
  -10015   -10134    -8910    -7462    -7190    -7927    -8133    -6929 
   -4676    -1929      757     2334     2350     2015     2505     3237 
