Origin Time       2025/01/13 21:19:00
Lat.              31.8
Long.             131.6
Depth. (km)       30
Mag.              6.9
Station Code      MYZ003
Station Lat.      32.5659
Station Long.     131.6602
Station Height(m) 6
Record Time       2025/01/13 21:19:47
Sampling Freq(Hz) 100Hz
Duration Time(s)  120
Dir.              E-W
Scale Factor      7845(gal)/8223790
Max. Acc. (gal)   39.821
Last Correction   2025/01/13 21:19:47
Memo.             
[...]
    1186     1188     1188     1186     1181     1181     1185     1179 
    1177     1181     1189     1194     1192     1179     1166     1171 
    1192     1193     1178     1177     1185     1181     1173     1181 
    1186     1181     1189     1192     1182     1185     1192     1194 
    1190     1186     1186     1183     1182     1179     1178     1193 
    1205     1200     1201     1204     1201     1196     1188     1185 
    1186     1204     1210     1181     1150     1151     1159     1152 
    1165     1202     1212     1205     1221     1243     1256     1247 
    1217     1212     1223     1240     1252     1240     1216     1169 
    1105     1082     1119     1171     1178     1134     1070     1026 
    1036     1082     1119     1143     1142     1120     1104     1125 
    1205     1287     1320     1329     1355     1409     1429     1371 
    1275     1175     1089     1030      996      999     1017     1015 
     996     1032     1146     1221     1224     1258     1359     1466 
    1507     1483     1404     1264     1147     1121     1123     1066 
     918      719      562      552      710      919     1093     1210 
    1252     1267     1301     1372     1479     1547     1521     1422 
    1279     1132     1015      942      916      978     1152     1324 
    1383     1379     1402     1463     1478     1408     1321     1236 
    1109      993      951      905      769      611      496      429 
     453      542      681      938     1266     1572     1849     2097 
    2304     2400     2315     2097     1880     1746     1674     1594 
    1486     1383     1335     1282     1112      897      812      849 
     895      904      822      656      579      677      849      886 
     633      279      121      137      226      379      665     1120 
    1466     1479     1417     1482     1533     1499     1421     1323 
    1264     1223     1186     1313     1568     1702     1661     1495 
    1233      947      730      788     1194     1667     1964     2018 
    1864     1694     1576     1399     1129      776      465      452 
     635      658      518      423      410      492      688     1009 
    1485     1857     1842     1597     1410     1440     1687     2012 
    2317     2455     2288     2003     1791     1512     1162      936 
     843      793      738      629      461      229       37      105 
     342      407      136     -353     -625     -182      799     1513 
    1490     1016      598      598     1101     1692     1948     2053 
    2366     2828     3207     3392     3365     3217     3049     2835 
    2388     1489      422      -44      206      457      345       64 
    -282     -544     -481     -214      147      868     1895     2612 
    2752     2695     2647     2349     1698      889       54     -781 
   -1413    -1497     -955     -168      310      359      423      873 
    1628     2362     2803     3001     3106     2910     2143     1368 
    1431     1930     1910     1553     1559     1796     1721     1395 
    1248     1170      751      297      639     1714     2273     1638 
     853     1063     1599     1047     -421    -1399    -1506    -1541 
   -1443     -167     1985     3240     3167     3153     3591     3126 
    1341     -180     -128     1008     2205     3180     3786     3561 
    2405      940       -6     -292     -468     -731     -537      475 
    1647     2061     1659      797     -256     -839     -414      395 
     565      -71     -818     -797      -24      722     1287     1800 
    1910     1661     1425     1155      805      490      398     1008 
    2257     3275     3612     3276     2461     2054     2573     3269 
    3624     3850     3844     3643     3716     3831     3318     2417 
    1896     1818     1804     1752     1421      307    -1652    -3634 
   -4337    -3311    -1539     -360     -422    -1406    -2506    -3380 
   -3940    -3612    -2072      110     2334     4162     4812     3850 
    2050      999     1690     3272     4071     3937     3982     4445 
    4565     4298     4324     4284     3082      957     -596     -739 
     356     2047     3217     3073     2065     1183      889      627 
    -510    -2060    -2442    -1372     -162      178     -166     -342 
       2      429      749     1198     1641     1807     1821     1979 
    2265     2085     1227      745     1281     1760     1228      256 
    -494    -1291    -1825    -1008      822     2135     2255     1634 
    1355     2131     3115     3075     2250     1671     1605     1509 
     981      283     -248     -565     -249      996     2334     2870 
    2736     2397     2168     2420     3360     4336     4118     2601 
     970      130      387     1557     2552     2496     1830     1310 
    1260     1597     1471      121    -1804    -3010    -3098    -2772 
   -2685    -2586    -2177    -1714    -1247     -772     -612     -503 
     187     1632     3609     5290     5900     5729     5431     5286 
    5256     5225     5038     4106     1980     -423    -1244      238 
    2602     4093     4236     3156     1386     -364    -2188    -3831 
   -4005    -2644    -1112       71     1102     1649     1350      626 
     359      692      738      -31     -936     -830      766     2921 
    4056     3925     3383     2475     1174      746     1875     3179 
    3184     2317     2076     2791     3457     3611     3445     2767 
    1701      805      341      638     1451     1362      121     -804 
   -1224    -2250    -3547    -3619    -2200     -522      540     1069 
     935       93     -460       44      997     1474     1169      472 
     318     1040     1786     2081     2466     2899     2592     1773 
    2006     3978     6207     7002     6091     4013     1885      807 
     461      168      282      796     1027      870      329     -641 
   -1406    -1448     -774      410     1278     1212      932     1154 
    1517     1471      861       -5     -460     -517     -936    -1421 
    -893      -13     -193     -657      121     1602     2435     2538 
    2424     2196     1877     1972     3073     4675     5405     4706 
    3107     1560      858      606       90      240     1979     3947 
    4523     4010     3238     1991      210     -870     -592      244 
    1215     2085     2057     1335      884      315    -1313    -3357 
   -4561    -4941    -4729    -3372     -986     1117     1891     1637 
    1405     1462     1460     1584     2189     3192     4190     4842 
    5138     5273     5468     5734     5871     5692     5138     4189 
    2897     1536      391     -599    -1625    -2447    -2598    -2288 
   -2209    -2469    -2810    -3542    -4531    -4568    -3383    -1777 
      54     1987     3742     5348     6390     6624     6623     6488 
    5884     4538     2158     -513    -2308    -3516    -4599    -4760 
   -3516    -1367     1155     3225     4267     4887     5274     5148 
    5529     6870     7786     7835     7449     5898     2953      168 
   -1267    -1968    -3030    -4278    -4746    -4333    -3473    -2173 
    -783      128      706      587     -994    -3053    -4233    -4878 
   -5182    -4221    -1881      793     3396     6477     9574    10693 
    9270     7307     6284     5914     5946     6372     6948     7588 
    7400     4919      503    -4126    -8027   -10713   -11171    -8505 
   -3411     1871     5266     6390     6234     5212     2986       43 
   -2444    -3824    -4116    -3411    -1593     1109     3497     3875 
    1796    -1024    -2408    -1637      322     1902     2749     3816 
    5390     6527     6201     4199     1298    -1405    -3406    -4603 
   -4633    -3276    -1043     1296     3144     4244     4845     5296 
    5698     6106     6485     6426     5211     2718      175    -1108 
   -1242     -854     -322     -211     -719    -1412    -2053    -2336 
   -1529      591     2990     4091     3532     2524     2158     2328 
    2239     1179     -603    -1860    -1937    -1225     -114      893 
    1437     1998     2959     4105     5074     5414     5185     4785 
    3885     2473     1296      279     -760    -1344    -1868    -2895 
   -3585    -3132    -1787      -93     1370     2168     2241     1629 
     460     -646     -692      599     2212     2677     1579      336 
     430     1328     2045     2793     3705     4333     4326     3627 
    2871     2771     2860     2434     1921     1949     2074     1290 
    -719    -3067    -4606    -5445    -6334    -6971    -6585    -4976 
   -2376      544     3090     5111     6453     6366     4243     1235 
    -279      459     2477     4942     7119     8606     9572     9694 
    8633     6606     3786     1205      333      919     1962     3092 
    3661     2913      905    -1421    -2893    -3693    -5007    -6457 
   -6569    -5416    -4017    -2425     -402     1393     1875      810 
    -812    -1960    -2400    -2315    -1489      517     3153     5389 
    6922     7555     7032     5718     4675     4980     6161     6330 
    4999     3535     2701     2203     1800     1615     1728     1397 
      59    -1223    -1764    -2673    -4446    -5904    -6318    -6235 
   -5522    -3208     -337      618     -606    -2347    -3242    -2825 
   -1757     -380     2245     5873     8726     9969     9998     9529 
    8838     7690     6794     6740     6084     4225     2906     3079 
    4101     4222     1709    -1907    -3935    -4662    -5162    -5474 
   -5162    -3572    -1594     -442      847     2524     3117     2601 
    1767     1046     1341     2430     2673     2147     2666     4104 
    3705      488    -2920    -5004    -6685    -7198    -5741    -4186 
   -3045    -1092     1004     2610     4618     6671     7487     6824 
    5061     3254     2851     3951     5651     7011     7219     6308 
    4468     1885       33     -222     -144     -916    -2241    -3032 
   -2938    -2731    -2821    -3195    -3924    -4460    -4401    -4240 
   -3705    -1891      716     3177     5428     6837     6912     7125 
    8533     9906     9659     7614     5278     3562     1308    -1225 
   -2027    -1360     -669      -98      260      473     1306     2593 
    3365     3885     5347     7550     8527     7553     6473     6080 
    4716     1796    -1845    -5744    -9166   -11684   -13433   -13247 
   -9903    -4966     -742     2675     5402     6829     7356     6789 
    3973      -87    -2884    -3318    -1795      891     3927     6014 
    6039     4742     3491     2566     2073     1956     1680     1597 
    2820     5073     6627     7015     7209     7156     6034     3870 
    1856      851     -315    -2122    -2826    -2759    -3730    -4472 
   -2976     -232     1382      861    -1003    -2994    -4464    -5077 
   -4166    -1043     3276     6469     7939     8881     9764     9786 
    8298     6824     7792     9985    10555    10701    12285    13914 
   14484    13792    11384     7720     3138    -1138    -2724    -2632 
   -3042    -3121    -2299    -1008      561     1189      492      -29 
     442     1606     2647     2884     2979     3442     3936     5246 
    7055     6882     4592     2111      407      128     1186     2740 
    4500     5236     3734     2349     3981     7520     9894     8860 
    4432       58    -1177     -934    -2076    -3825    -4423    -4735 
   -6015    -7755    -8796    -8391    -7192    -6745    -7304    -7913 
   -7780    -6758    -5481    -4561    -4081    -4129    -4792    -5652 
   -5219    -1979     2566     5524     7379     9344     9582     7653 
    6228     6266     6528     6257     5640     4827     2473    -1973 
   -6052    -8328    -9505    -9805   -10195   -11728   -13081   -13080 
  -12760   -12969   -13213   -13243   -13406   -13656   -13428   -11932 
   -8660    -4116      529     4016     5400     5422     5786     6143 
    5205     3982     4018     4568     4388     3792     3807     5131 
    7474     9578    10558    10342     9161     7728     7230     8820 
   12425    16202    18436    19209    19843    21124    22148    21880 
   20790    19647    18161    15754    12568     8941     5613     3786 
    3160     2390     1305     -130    -2623    -5547    -7699    -9802 
  -12263   -13716   -14523   -15736   -16359   -16162   -15738   -14451 
  -12267    -9690    -6727    -3746     -557     3136     6142     8031 
    9544    10093     9493     9417    10419    10756     9065     6189 
    3111     -144    -2552    -3126    -2259     -448     1259     1626 
     467    -2565    -8010   -15414   -23211   -29574   -34017   -36714 
  -36694   -33835   -29636   -24333   -18077   -13061   -10575   -10107 
  -11068   -12482   -13263   -12789   -10434    -5972     -233     5173 
    8812    10081     9423     8333     7769     7587     8433    10964 
   14558    19017    24201    28703    31112    31557    31186    28621 
   21413    11824     3241    -4055    -8843   -10165   -10301    -9936 
   -7564    -4097    -1259      645     1628     2165     2469     1999 
    1412     1879     2822     3329     3581     3127     1269     -662 
   -1337    -2081    -4324    -7861   -12345   -16359   -17734   -16888 
  -15257   -12081    -6982    -2035     1663     5188     8542    11178 
   14077    17433    20248    22963    26516    30292    33382    36085 
   38399    39054    37554    34754    31224    27247    22690    16798 
   10262     4995     1336    -1501    -3724    -5591    -7811   -10863 
  -15225   -20953   -27024   -32422   -36481   -38866   -40189   -40543 
  -38828   -35249   -31417   -27664   -23638   -19926   -16715   -13302 
   -9648    -6176    -2376     2056     6436    10728    14998    18713 
   22235    25836    28313    29300    30177    31360    31558    30403 
   29358    29185    28718    26979    24721    23471    22985    21081 
   17817    15226    12658     8714     4035     -994    -6168   -10832 
  -15627   -21238   -26545   -30630   -33893   -36366   -37573   -37265 
  -35222   -31449   -26507   -21517   -16837   -11075    -3851     2798 
    7943    12830    17699    21555    24615    27452    29535    30947 
   32362    33046    31712    28147    23194    18176    13689     9475 
    5606     2178    -1158    -4276    -6457    -7651    -9090   -11499 
  -13208   -12671   -11159   -10203    -9863    -9876    -9659    -9167 
   -9495   -10679   -11777   -12653   -12915   -12035   -10929   -10079 
   -8403    -6188    -4641    -2581     1059     4650     7345    10187 
   13400    16105    17894    19585    22127    25378    28817    31839 
   33527    33598    32590    31193    29407    26034    20510    13818 
    7144     1449    -3191    -7591   -11939   -15691   -18110   -19267 
  -20395   -21502   -21107   -19128   -16708   -14091   -11314    -9505 
   -9020    -8117    -6170    -4954    -4712    -4055    -3172    -2791 
   -3021    -4174    -5930    -7132    -6922    -5113    -1923     2525 
    7670    11902    14401    16052    17452    17968    16756    13957 
   10906     8241     4899      292    -4467    -8050    -9973   -10266 
   -9346    -7892    -5684    -2079     1975     4789     6095     6481 
    5958     4800     4224     4302     3771     2654     1965     1850 
    2056     2363     2236     1594     1205     1409     1649     1779 
    2538     4064     5169     4997     4106     3148     2118      967 
    -330    -1902    -3746    -5856    -8268   -10943   -13528   -15364 
  -16102   -15653   -13784   -11141    -9258    -8244    -6493    -3240 
     799     4846     7862     8629     7550     5931     3861     1312 
    -634    -1151     -240     1737     3824     5096     5829     6613 
    7137     6961     5969     4260     2997     3118     3268     2022 
     203     -742     -403      580     1590     3349     6569    10228 
   13196    15330    16227    15422    13459    10976     7935     4342 
     510    -2714    -4314    -4711    -4780    -4082    -2762    -1702 
    -550      314     -602    -2655    -4029    -4384    -3792    -1921 
     769     3366     5599     7136     7371     6241     4159     2177 
    1532     1602      824     -442    -1119    -1100     -132     1728 
    3368     4394     5386     6357     7095     7834     8243     7403 
    5271     2866     1043     -117     -723     -792     -521       32 
     664      568     -484    -2039    -4023    -6210    -8066    -9400 
   -9896    -9109    -7117    -4233    -1070     1310     2609     3225 
    2814     1197     -533    -1390    -1301     -622       52      326 
     241     -157     -729     -965     -336     1185     2717     3225 
    2922     2752     3071     3735     4572     5499     6307     6480 
    5788     4536     2971     1202     -365    -1071     -683      214 
    1181     2612     4293     4828     3819     2577     2227     3183 
    5386     7415     7607     6524     5699     5498     6116     7528 
    8712     9502    10498    11483    11882    10743     7819     4862 
    2760      442    -2327    -4880    -7176    -9296   -11047   -12856 
  -15331   -17859   -19695   -20742   -20190   -17636   -14218   -10574 
   -6274    -1424     3057     6435     8540     9751    10966    12733 
   14650    16012    16260    15115    12846    10038     6955     3419 
    -658    -5049    -9714   -14886   -20281   -25085   -28134   -27708 
  -23251   -17155   -11607    -5202     2975    10721    17066    22561 
   26418    27851    27205    25105    22029    18211    14127    10582 
    7568     4437     1321    -1775    -5470    -9039   -10974   -10948 
   -9512    -7863    -7045    -6285    -4756    -3522    -3354    -3481 
   -3129    -1991     -103     2053     4476     7477    10377    12397 
   13473    13050    10662     6547     1057    -3932    -5926    -5171 
   -3315    -1034     1248     2903     3183     1850     -251    -2695 
   -5980    -9666   -12586   -14548   -15619   -15277   -13486   -10756 
   -7190    -3087       51      762     -684    -3295    -6674   -10368 
  -13328   -14235   -12506    -9239    -5458     -384     5942    11522 
   15360    17820    19253    19975    19953    19080    17508    15396 
   13034    10377     6988     3319      490    -1458    -3275    -5251 
   -7109    -8154    -8044    -7195    -6081    -5150    -4588    -4445 
   -5116    -6231    -6604    -5892    -4380    -2030     1324     5416 
    9229    11585    11880    10373     8139     6262     5242     4949 
    4868     4754     4538     4198     4090     4504     5220     5921 
    6384     5876     3784      814    -1433    -1405      776     3073 
    4519     6034     8364    10875    11700     9890     6546     3006 
    -214    -3071    -5653    -7695    -8336    -7223    -5714    -5239 
   -5290    -4734    -3634    -2760    -2546    -2910    -3028    -2257 
   -1611    -1526     -337     2438     5620     8479    10160    10477 
   10617    10924    10767    10089     9319     8388     6362     2691 
   -1634    -5321    -7919    -9219    -9304    -8499    -6681    -4079 
   -1688     -121     1078     2513     3936     5009     5645     5433 
    4600     4688     6802    10025    13134    16333    19666    22531 
   24773    26207    26792    26572    24821    21377    16675    10598 
    4318       -5    -2259    -3879    -5950    -8688   -11497   -14049 
  -16514   -18877   -21531   -25230   -29475   -32404   -33138   -32348 
