Origin Time       2025/01/13 21:19:00
Lat.              31.8
Long.             131.6
Depth. (km)       30
Mag.              6.9
Station Code      MYZ002
Station Lat.      32.6978
Station Long.     131.6833
Station Height(m) 18
Record Time       2025/01/13 21:19:50
Sampling Freq(Hz) 100Hz
Duration Time(s)  98
Dir.              U-D
Scale Factor      7845(gal)/8223790
Max. Acc. (gal)   16.209
Last Correction   2025/01/13 21:19:49
Memo.             
[...]
    5876     5877     5881     5880     5877     5877     5877     5877 
    5876     5876     5883     5881     5876     5877     5879     5877 
    5879     5881     5879     5875     5877     5879     5881     5881 
    5877     5880     5883     5876     5875     5880     5880     5877 
    5877     5879     5877     5877     5883     5884     5879     5879 
    5880     5879     5877     5876     5879     5881     5879     5880 
    5881     5879     5876     5876     5877     5879     5876     5877 
    5879     5877     5880     5880     5876     5876     5881     5883 
    5877     5873     5880     5880     5877     5879     5880     5877 
    5876     5876     5879     5879     5879     5881     5879     5873 
    5875     5879     5877     5880     5883     5876     5872     5879 
    5880     5876     5879     5881     5875     5873     5876     5879 
    5877     5876     5883     5884     5877     5879     5880     5875 
    5875     5883     5879     5876     5881     5880     5879     5880 
    5879     5877     5881     5879     5875     5876     5879     5879 
    5879     5877     5876     5876     5879     5883     5881     5877 
    5877     5871     5869     5880     5881     5879     5884     5881 
    5873     5880     5886     5879     5873     5876     5879     5877 
    5876     5879     5881     5879     5873     5872     5879     5886 
    5881     5879     5877     5871     5869     5877     5881     5879 
    5880     5881     5876     5872     5876     5881     5881     5879 
    5876     5880     5880     5876     5876     5877     5873     5871 
    5883     5887     5873     5883     5891     5865     5868     5888 
    5873     5869     5884     5881     5876     5881     5886     5877 
    5875     5879     5872     5871     5879     5880     5877     5880 
    5880     5876     5879     5881     5876     5875     5881     5879 
    5871     5875     5881     5881     5880     5881     5880     5876 
    5872     5873     5877     5880     5877     5883     5883     5873 
    5879     5879     5869     5877     5886     5880     5877     5884 
    5883     5871     5876     5880     5865     5873     5895     5886 
    5873     5884     5881     5871     5877     5877     5869     5875 
    5888     5886     5869     5873     5891     5879     5863     5879 
    5886     5872     5879     5892     5876     5867     5884     5887 
    5873     5879     5891     5877     5863     5875     5883     5876 
    5879     5881     5879     5883     5881     5877     5877     5876 
    5872     5872     5877     5883     5883     5881     5879     5868 
    5873     5887     5877     5873     5880     5876     5876     5877 
    5871     5873     5879     5873     5871     5871     5868     5868 
    5865     5868     5877     5876     5869     5868     5868     5875 
    5879     5873     5871     5875     5868     5868     5875     5867 
    5849     5850     5859     5864     5888     5910     5900     5890 
    5892     5892     5892     5902     5900     5881     5867     5857 
    5842     5837     5846     5854     5863     5884     5900     5903 
    5903     5892     5890     5933     6018     6106     6164     6169 
    6091     5933     5772     5671     5653     5714     5788     5811 
    5809     5811     5803     5772     5733     5699     5722     5838 
    6002     6150     6230     6191     6023     5807     5670     5690 
    5830     5979     6054     6011     5817     5553     5363     5310 
    5398     5594     5832     6052     6172     6119     5925     5697 
    5572     5675     5957     6251     6471     6538     6340     5976 
    5728     5690     5725     5751     5753     5697     5624     5617 
    5676     5759     5826     5865     5899     5960     6026     6016 
    5864     5628     5421     5274     5246     5456     5854     6234 
    6485     6624     6586     6257     5784     5444     5231     5065 
    5044     5202     5481     5890     6323     6551     6509     6156 
    5539     5034     4869     4992     5462     6165     6659     6736 
    6563     6288     6065     6115     6285     6254     6119     5989 
    5694     5292     5026     5024     5431     6201     6986     7564 
    7670     6926     5688     4916     5016     5668     6486     7171 
    7281     6571     5583     5165     5439     5891     6219     6481 
    6643     6458     5944     5520     5314     5013     4657     4679 
    5174     5881     6554     6860     6504     5741     5103     4661 
    4263     4135     4567     5370     6227     7088     7831     8004 
    7308     6022     4687     3804     3805     4735     6038     6903 
    6972     6577     6208     5854     5144     4436     4675     5861 
    7207     8187     8380     7750     6822     5730     4522     4037 
    4793     6153     7141     6974     5686     4548     4515     5227 
    6103     6764     6708     6054     5454     4939     4320     3888 
    3889     4499     5805     7222     8283     8934     8564     7150 
    5945     5236     4372     3632     3526     4109     5593     7639 
    8966     8692     7180     5370     3867     2856     2544     3364 
    5390     7623     8806     8691     7665     6060     4448     3404 
    2874     2744     3341     4833     6705     7835     7399     6060 
    5282     5395     5586     5555     5636     5907     6370     6849 
    6679     5965     5746     6146     6673     7260     7349     6366 
    5053     4396     4531     5197     6015     6480     6637     7040 
    7483     7344     6794     6042     4579     2702     2282     4126 
    6567     8259     9328     9626     9147     8586     7794     6126 
    4044     2512     1931     2258     3341     5224     7385     8205 
    7338     6400     5915     5337     5209     5894     6646     7191 
    7591     7647     7746     7803     6600     4741     4371     5065 
    5036     4708     5085     5894     7285     9728    11946    11977 
    9448     5373     1358     -886     -766     1285     4770     8468 
   10667    10820     9147     6157     3419     2112     1737     2177 
    4120     7018     9553    10809     9964     7145     4058     1972 
     484     -598     -206     1902     4328     6110     7551     9166 
   11013    12283    11462     8101     3805      441    -1223     -819 
    1644     5108     8166    10068    10355     8463     4873     1802 
    1586     4622     8860    11184    10454     8290     6154     4519 
    3966     3952     3510     3492     4471     5336     5733     6134 
    6716     7666     8576     8703     8121     7068     5675     4421 
    3531     2953     2821     3762     6947    11414    13223    11006 
    7628     4757     2027      174      336     2408     5579     8704 
   10176     9297     7231     5163     3658     3547     4779     6197 
    6906     6577     6158     7067     8865    10565    11813    11202 
    7701     2882    -1031    -2605     -621     4561     9714    11692 
   10233     6435     1833    -1011     -346     3287     8124    11871 
   12664    10739     7545     4294     2566     3105     4580     5602 
    5999     6458     7485     8144     7600     6600     5779     5351 
    5883     6847     6523     4515     2335     1601     2655     4641 
    6620     8004     8360     7924     7461     7186     6831     6177 
    5175     4448     5000     6520     7487     7634     7516     6569 
    5008     4272     4384     4588     4702     4614     4671     5533 
    7101     8679     9637     9400     7547     4622     2438     2567 
    4530     6480     7233     6651     5220     4023     3690     3771 
    3993     4625     5543     6193     6199     5765     5710     6566 
    7464     7157     6075     5267     4622     4143     4552     5921 
    7817     9702    10426     9154     6542     4043     3041     4104 
    5967     7059     7365     6787     4939     3437     3962     5382 
    5969     5591     4749     4149     4518     5821     7510     9124 
   10081     9730     8170     6517     5814     5552     4463     2709 
    1386     1232     2778     5636     8355     9706     9076     6868 
    4627     3585     3735     4415     5190     6153     7346     8349 
    9016     9772    10353     9618     7273     4558     3006     3200 
    4614     5860     5900     5614     6301     7145     6894     6131 
    5479     4453     3125     2342     2454     3134     3715     3762 
    3889     5051     7253     9690    11476    12071    11352     9250 
    6083     3121     1803     2667     5246     8044     9304     8677 
    6964     4715     2693     2061     3068     5055     7549     9877 
   10613     9020     6316     4448     4236     5294     6810     7723 
    7464     6454     5143     3813     2934     2737     3111     3680 
    4153     4649     4868     4386     4039     4440     4644     4533 
    5208     6528     7466     7952     8456     8891     8982     8676 
    7782     6552     5686     5235     4877     4789     5869     8850 
   12345    13522    11226     6650     1900    -1290    -2431    -1475 
    1738     6041     9184     9733     7680     4853     3823     5158 
    7230     8195     7236     5077     3244     2374     2404     3647 
    5783     7156     6855     5899     5370     5319     5891     6748 
    6384     4837     4414     6030     8041     8964     8700     7697 
    6669     5876     4853     4183     4703     5336     5252     5278 
    5926     6755     6619     4862     2708     1626     2079     4209 
    7152     8779     7973     6218     5622     6238     6799     6658 
    6211     6245     6535     6133     5086     4446     5189     7188 
    8964     9216     7942     5984     4432     3817     3689     3744 
    4558     6192     7812     9186    10309    10330     8540     5742 
    4029     4552     5853     5940     4895     3936     3403     2951 
    2709     3125     4193     5471     6400     6833     7098     7272 
    7560     8125     8050     6898     5827     5512     5462     5652 
    6512     7749     8761     9155     8919     8491     7352     4581 
    1345     -384      -79     2195     5942     9186     9967     8519 
    6380     4650     3538     2496     1579     1780     3562     6435 
    8846     9040     7352     5482     4152     3601     4463     6797 
    9459    10409     8271     4384     1719     1668     3977     7738 
   10330     9475     6655     4171     2335     1971     3944     6651 
    8286     8568     7234     4918     3551     3721     4781     6471 
    7601     6103     2319     -702     -684     2536     7649    12048 
   13460    11605     7396     2363     -838     -322     2529     5271 
    7423     8953     9408     9269     8955     8094     6687     5314 
    4757     5427     6783     7858     7982     7238     6490     6601 
    7669     8685     8037     5383     2650     2180     4114     6751 
    8849     9556     8437     7315     8077     9408     9197     7249 
    4629     2670     2043     2324     2925     3673     4249     4081 
    3734     5139     8772    12216    12611     9101     3372    -1377 
   -2656     -174     4168     7789     9639    10231     9886     8299 
    5304     1806      113     1582     4872     8058    10138    10540 
    9100     6324     3888     3569     5077     6853     7555     5953 
    2438       52     1371     5151     8164     9019     7889     5621 
    4287     5158     7618    10212    10562     7797     4895     4171 
    4274     4301     4985     5887     5845     4707     3692     4148 
    5547     6308     5719     4070     2370     1946     3757     7199 
   10075    11141    10705     9062     6756     4754     3429     2571 
    2388     3684     6385     8618     8758     7264     5603     4747 
    4693     4880     5142     5460     5336     5007     5868     7952 
    9535     9837     8927     6596     3823     2385     2887     5271 
    8505     9936     8734     7375     7377     8000     8797     8961 
    6737     1644    -4596    -7973    -5163     1930     8804    12888 
   13128    10512     8680     9860    12016    11740     8005     2565 
   -1529    -1490     2583     7209    10129    11701    11246     7992 
    3890     1135     -276     -884     -576      423     1836     4976 
   10720    15870    16580    13429     8661     3746     1206     2000 
    3461     4128     5522     8550    12239    14617    14278    12024 
    9058     5479     2560     1688     1382      106    -1521    -2741 
   -1867     3478    11171    15334    14172    10440     5622      849 
    -936      939     4811     9867    13882    13335     8753     4396 
    2775     3414     4792     5278     4649     3823     2519     1067 
    2076     6165    10189    11088     8413     3898     -414    -3345 
   -4222    -3026      237     5499    10855    14485    16467    16069 
   12727     8652     5208     1794     -441     -461      811     4117 
    9763    13606    13257    12201    11936     9278     4066     -280 
   -1863      376     6255    11539    12560    10952     8380     4737 
    2681     3936     5865     6187     5173     4689     5956     7299 
    6829     5184     4618     6162     7612     7026     5487     3969 
    2517     1755     2079     3404     5799     8627     9994     9329 
    8424     7626     5719     3168      758    -1529    -2377     -109 
    4553     9289    12229    12421    10652     9120     7858     5259 
    2616     2076     3414     6589    11697    16255    17232    14029 
    7236    -2106    -9960   -11113    -5537     2305     8754    11487 
   10332     9001    10615    13197    13066     9493     3662    -2700 
   -6444    -5459     -810     5985    13181    17216    16448    13031 
    8646     4002     1649     3171     6351     8735     9656     8314 
    5044     2921     3501     4680     5039     4706     3194     1270 
     660     1385     3199     6380    10427    14265    16117    14469 
    9967     4738      954     -396      236     2394     4857     5377 
    4216     3859     4691     5702     7470    10264    11799     9995 
    6089     3233     3314     5598     7614     7572     5776     3815 
    2920     2972     3099     3026     3613     5852     9483    12877 
   13941    12132     8806     4947     1574      413     1456     3021 
    3997     3994     3169     2485     2992     5309     9189    12341 
   11936     8299     4307     1971     1566     2508     4552     7546 
    9705     9147     6485     3577     1479       59     -711      349 
    3634     7809    11547    13393    11857     7808     4602     4394 
    6246     8299     8591     5584     1237     -778       98     2991 
    7557    11842    13683    12868     9767     5613     2797     2621 
    4587     6993     7645     6058     4212     4182     5994     7277 
    6203     4325     3210     2269     2008     3186     4645     5710 
    6700     7319     6664     4226     1212    -1131    -2570    -1426 
    3005     8009    11846    13907    12037     6608     2203     1696 
    3724     6228     8098     8660     8172     7180     5788     4396 
    3181     1537     -450    -1637    -1688    -1117      244     2317 
    4020     5444     7519     9115     9144     8548     6664     2675 
    -646     -807     2205     7149    10446     9337     6309     5185 
    5967     7159     8540     9136     7470     4048      901       39 
    1817     4823     8021    10513    10854     9458     8538     8020 
    5563     1455    -1190     -564     3535    10103    15284    15445 
   11448     5946      837    -1702    -1408      217     3592     7985 
    9926     9086     8098     7905     8301     8953     9170     8849 
    8097     6747     5443     5319     6124     6872     8382    11565 
   14165    13651    10659     6683     2758     1347     4237     9086 
   12469    13475    12177     8846     4911     2203     1930     3912 
    6544     8727    10338    10827     9749     7878     6582     6272 
    5749     3904     1409     -591    -2241    -3910    -5020    -4645 
   -2524      140     2000     3638     6393     9954    12519    12650 
   10083     5610     1263     -230     2384     7384    12121    15338 
   16002    13336     8962     5749     4718     5431     7578     9973 
   11191    11253     9971     6921     2848    -1242    -4079    -4167 
   -1499     2041     4463     5400     5651     5931     6461     6983 
    6836     5367     3056     1366     1394     3072     5016     6112 
    6232     5123     3474     2921     3654     5115     6917     7673 
    6841     6493     7632     8683     9228     9861     9718     8630 
    8579    10474    12251    11886    10075     8311     6664     5081 
    4669     5991     8174    10501    12375    12483    10431     6974 
    2070    -3249    -5265    -2392     2677     7299    10315    10525 
    7655     3196     -934    -3090    -2191     1082     4889     8406 
   11299    12123     9863     5865     2671     2011     3713     5977 
    6871     5682     3458     1858     1898     4351     8436    11244 
   11564    10918    10099     8569     6629     4986     3457     1961 
     969     1129     3222     7036    11412    14677    14764    11518 
    6910     3015     1421     2000     3133     4268     5755     7361 
    8961    10430    10343     7461     3223      623     1375     4830 
    8743    11419    12522    11530     8676     6529     6343     6106 
    4861     3585     2138      490      178     1799     4229     6359 
    7499     7511     7323     7572     7596     7203     7384     8226 
    8409     7452     6023     4403     3060     3075     4433     5699 
    5697     4444     2462      -58    -2585    -3577    -2057     1224 
    5355     9555    11974    11160     7963     4583     2817     3700 
    7267    11819    15230    16912    16715    14305    11056     9058 
    8410     8278     8202     7325     5320     3191     1894     1715 
    2670     3902     3842     2562     1591     1620     3014     5548 
    7878    10068    12825    14933    15473    15022    13473    10837 
    8737     7847     6569     3954     1250     -224     -743     -812 
     398     3260     6210     8174     8962     7614     4799     3009 
    2633     3022     4411     6241     7871     9705    11878    14202 
   16160    16367    13837     9143     4513     3059     5305     7790 
    7960     6797     4908     1672    -1684    -3292    -2768     -554 
    1922     3061     3333     4257     5879     7284     8344     9216 
    9321     8226     6520     4548     1856    -1004    -2666    -2772 
   -1575      521     2718     4761     6705     7821     7479     5913 
    3723     1837     1030      908      627      274      525     1734 
    4143     8033    12681    16370    17991    17477    15418    12931 
   10781     8953     7542     6728     5891     4261     1987     -125 
   -1425    -1968    -2018    -1486     -739     -406     -383     -263 
     588     2847     5983     8607    10173    11327    12583    13516 
   13547    12501    10983    10296    10561    10449     9370     7789 
    6157     5105     5437     6814     7604     6759     4538     1817 
    -172    -1036    -1757    -2232    -1005     1610     4041     5984 
    7362     7796     8043     9153    11281    13701    15040    14902 
   14152    13157    11642     9694     7854     6355     5017     3720 
