Origin Time       2025/01/13 21:19:00
Lat.              31.8
Long.             131.6
Depth. (km)       30
Mag.              6.9
Station Code      MYZ009
Station Lat.      32.0461
Station Long.     130.8115
Station Height(m) 230
Record Time       2025/01/13 21:19:49
Sampling Freq(Hz) 100Hz
Duration Time(s)  188
Dir.              N-S
Scale Factor      7845(gal)/8223790
Max. Acc. (gal)   29.156
Last Correction   2025/01/13 21:19:49
Memo.             
[...]
    9564     9532     9601     9632     9572     9567     9591     9537 
    9474     9494     9613     9798     9896     9749     9481     9304 
    9301     9459     9597     9624     9663     9648     9494     9398 
    9425     9428     9397     9325     9189     9120     9197     9348 
    9506     9616     9606     9487     9328     9189     9170     9293 
    9447     9556     9587     9549     9522     9544     9567     9582 
    9626     9628     9506     9351     9274     9347     9579     9829 
    9977     9929     9624     9247     9138     9370     9678     9840 
    9817     9620     9379     9217     9220     9510     9876     9967 
    9775     9381     8976     9011     9467     9891    10168    10165 
    9722     9371     9477     9706    10000    10223    10076    10029 
   10197    10080    10019    10106     9832     9522     9387     9174 
    9135     9292     9283     9282     9440     9526     9738    10037 
    9856     9466     9321     9374     9675     9965     9995    10030 
   10196    10396    10524    10462    10191     9882     9811     9994 
   10061     9887     9801     9980    10351    10746    10817    10542 
   10066     9236     8360     8112     8403     8830     9181     9251 
    9355     9883    10316    10083     9211     8002     7233     7619 
    8873    10123    10608    10118     9262     8731     8653     8949 
    9454     9898    10288    10687    10797    10439     9937     9709 
    9891    10172    10125     9842     9713     9765     9791     9667 
    9331     8985     8868     8712     8343     8162     8406     8901 
    9477     9763     9282     8432     8201     8873     9900    10466 
   10366    10241    10250    10098     9984     9890     9610     9593 
    9936    10260    10569    10666    10431    10235     9961     9512 
    9350     9450     9490     9661    10081    10454    10416     9645 
    8575     8143     8361     8692     8885     8958     9317    10103 
   10731    10814    10446     9718     9020     8895     9271     9764 
   10166    10339    10461    10716    10751    10509    10497    10663 
   10538    10098     9651     9456     9432     9161     8479     7692 
    7285     7796     9061     9991     9949     9244     8494     8340 
    8847     9381     9715    10092    10299    10025     9369     8630 
    8320     8529     8680     8608     8615     8846     9302     9720 
    9802     9678     9556     9524     9705     9936     9910     9728 
    9813    10503    11469    11731    10845     9450     8646     8984 
    9791    10214    10102     9455     8631     8442     8954     9323 
    8958     8187     7978     8721     9535     9497     8703     7807 
    7508     8048     8969     9591     9558     9144     9011     9448 
   10150    10740    11107    11180    10887    10415    10041     9915 
   10239    11043    11784    11769    10903     9776     9084     9036 
    9332     9553     9582     9814    10488    11222    11719    11978 
   11967    11623    10837     9718     8712     8185     8353     9090 
    9629     9427     8802     8236     7955     7886     7865     8137 
    8903     9926    10812    10852     9702     8229     7279     6895 
    7219     8162     9070     9605     9744     9583     9389     9180 
    8892     8579     8276     8275     8861     9802    10837    11840 
   12414    12201    11280    10196     9679     9914    10427    10723 
   10515     9757     8742     7858     7404     7399     7639     8046 
    8415     8289     7665     7236     7607     8789    10446    11890 
   12282    11685    11080    11140    11720    12199    12208    12010 
   11859    11763    11753    11685    11465    11269    11225    11254 
   10990    10080     8700     7358     6516     6286     6426     6894 
    7732     8496     8742     8608     8626     9220    10111    10621 
   10557    10149     9678     9324     9132     9301    10015    10860 
   11265    11160    10746    10173     9553     8938     8486     8514 
    8923     9099     8851     8584     8657     9175     9953    10588 
   10787    10586    10355    10338    10328    10196    10006     9629 
    9086     8851     9201     9788    10261    10820    11743    12611 
   12517    11195     9502     8444     8171     8114     7746     7186 
    7064     7786     9047     9930     9729     8731     7819     7531 
    7684     7704     7628     8303     9991    11684    12255    11503 
   10233     9725    10473    11618    12021    11404    10451    10126 
   10728    11569    11599    10443     8703     7210     6397     6473 
    7503     9059    10343    10652     9756     8295     7489     7869 
    8905     9917    10593    10893    10837    10403     9720     9208 
    9285     9872    10415    10621    10709    10824    10847    10538 
    9715     8715     8091     7762     7353     6983     7130     8028 
    9387    10497    10681     9991     9269     9312    10238    11692 
   13140    13887    13529    12490    11574    11103    10872    10678 
   10507    10335     9996     9319     8409     7654     7398     7731 
    8371     8818     8814     8417     7831     7385     7396     7948 
    8876     9906    10736    10959    10401     9537     9018     8988 
    9128     9069     8764     8437     8376     8850     9772    10471 
   10177     8881     7492     6743     6516     6481     6777     7789 
    9321    10326    10035     8972     8241     8368     9216    10359 
   11202    11303    10798    10110     9533     9313     9610    10206 
   10588    10386     9829     9682    10474    11797    12633    12367 
   11330    10341     9882     9860     9990    10081     9960     9501 
    8789     8093     7776     8064     8738     9321     9613     9682 
    9597     9478     9499     9687     9875     9969    10120    10430 
   10736    10775    10408     9803     9371     9370     9553     9377 
    8698     7965     7649     7933     8746     9849    11040    12031 
   12318    11693    10571     9568     9047     9007     9252     9553 
    9701     9709     9950    10746    11762    12094    11155     9327 
    7724     7353     8175     9116     9315     8968     8815     9270 
   10099    10594    10160     8973     7896     7734     8714    10270 
   11365    11414    10817    10278     9949     9440     8529     7568 
    7111     7412     8237     8914     8920     8526     8434     9005 
   10122    11515    12945    14085    14453    13764    12384    11090 
   10399    10220    10060     9667     9475     9980    10879    11458 
   11543    11360    10966    10384     9784     9315     8985     8754 
    8603     8514     8405     8104     7439     6439     5540     5377 
    6157     7445     8637     9427     9821    10015    10272    10733 
   11237    11286    10530     9385     8721     8838     9315     9699 
    9902     9921     9617     8912     8012     7400     7522     8376 
    9603    10754    11362    11164    10436     9849     9741     9788 
    9616     9483     9907    10878    11858    12272    11844    10651 
    9128     7967     7715     8226     8721     8725     8491     8363 
    8553     9171     9865    10027     9551     8870     8517     8984 
   10424    12275    13597    13811    13109    12144    11450    11241 
   11448    11772    11963    11947    11520    10368     8631     7029 
    6208     6188     6528     6860     7015     7003     7121     7661 
    8473     9045     9111     9013     9132     9358     9528     9697 
    9860     9996    10106    10037     9678     9163     8787     8741 
    8974     9414    10107    10944    11600    11735    11114     9818 
    8376     7492     7422     7636     7481     6995     6635     6640 
    6961     7423     8054     9085    10465    11807    12835    13494 
   13805    13829    13721    13601    13413    13057    12515    11873 
   11236    10623    10017     9479     9089     8849     8714     8671 
    8754     8839     8596     7844     6839     6172     6224     6851 
    7605     8036     8019     7871     7882     8054     8332     8571 
    8584     8538     8727     9235    10056    10979    11580    11556 
   10902     9873     8788     7904     7473     7577     7881     7911 
    7654     7545     7827     8303     8787     9354     9944    10339 
   10544    10601    10501    10459    10647    10821    10594     9975 
    9312     8770     8193     7473     6837     6700     7210     7952 
    8321     8239     8195     8572     9247     9814     9873     9358 
    8753     8680     9182     9645     9359     8263     7078     6567 
    6835     7550     8428     9288    10054    10700    11114    11119 
   10578     9657     8806     8314     8178     8268     8442     8611 
    8834     9229     9755    10142    10204    10112    10176    10443 
   10789    11196    11711    12283    12814    13185    13311    13335 
   13482    13698    13716    13466    13178    13039    12946    12741 
   12436    12087    11637    11074    10548    10242    10222    10381 
   10521    10513    10273     9774     9219     9077     9714    10821 
   11533    11304    10304     9107     8414     8602     9393    10158 
   10516    10517    10417    10409    10505    10585    10643    10881 
   11361    11881    12270    12534    12642    12402    11792    11045 
   10297     9528     8764     8140     7827     7958     8546     9328 
    9834     9841     9566     9292     9107     9111     9454    10069 
   10729    11340    11880    12140    11758    10571     8927     7533 
    6839     6762     7014     7446     8036     8726     9278     9447 
    9288     9221     9710    10860    12359    13764    14728    15088 
   14885    14303    13632    13220    13182    13186    12915    12455 
   12090    12004    12210    12618    13012    13063    12658    12118 
   11850    11848    11669    10849     9246     7068     4831     3117 
    2173     1827     1783     1840     1914     1981     2069     2189 
    2281     2263     2035     1575     1066      760      758     1023 
    1516     2162     2790     3306     3793     4314     4816     5319 
    5999     7045     8437     9838    10764    11051    11132    11627 
   12737    14123    15244    15759    15769    15726    15981    16503 
   17007    17232    17057    16386    15130    13464    11929    11115 
   11253    11979    12490    12085    10670     8658     6588     4957 
    4036     3662     3447     3105     2668     2447     2683     3375 
    4310     5175     5745     5890     5487     4626     3701     3106 
    2990     3203     3381     3136     2295     1075       18     -297 
     418     2002     3950     5678     6832     7449     7813     8154 
    8467     8675     8833     9012     9121     9084     9151     9852 
   11415    13402    15182    16602    17899    19160    20223    20969 
   21471    21913    22428    22908    23089    22866    22297    21473 
   20493    19329    17878    16214    14675    13668    13383    13616 
   13975    14146    14002    13674    13460    13536    13828    14157 
   14434    14750    15202    15624    15588    14725    13078    11169 
    9618     8667     8117     7672     7245     7005     7117     7483 
    7813     7877     7607     7222     7202     7854     9042    10388 
   11418    11749    11364    10528     9607     8938     8571     8189 
    7438     6278     5030     4045     3495     3419     3723     4243 
    4928     5728     6511     7225     7867     8356     8557     8401 
    7924     7361     7141     7539     8310     8869     8781     7952 
    6612     5186     4137     3788     4052     4484     4835     5273 
    6096     7391     8845    10095    11078    11894    12649    13339 
   13814    14054    14285    14658    15083    15410    15611    15766 
   15915    15959    15715    15014    13859    12573    11630    11303 
   11541    12016    12306    12166    11711    11296    11159    11200 
   11063    10423     9335     8222     7636     7881     8561     8715 
    7661     5576     3353     1935     1576     1823     2088     2080 
    1962     2085     2558     3217     3788     3933     3445     2474 
    1424      634      186      -63     -426    -1244    -2455    -3442 
   -3469    -2192       91     2627     4733     6168     7132     8032 
    9049    10030    10864    11751    13089    15041    17246    18976 
   19670    19404    18809    18428    18249    17933    17402    16914 
   16633    16517    16556    16807    17292    17909    18509    19192 
   20216    21496    22527    22704    21728    19942    18040    16548 
   15666    15174    14665    14013    13286    12449    11292     9659 
    7707     5707     3793     2155     1088      793     1321     2401 
    3287     3177     1887      -52    -1850    -2847    -2673    -1310 
     824     3080     5077     6847     8573    10377    12240    14173 
   16305    18571    20579    21895    22400    22308    21902    21324 
   20556    19498    18111    16389    14391    12411    10822     9765 
    9053     8320     7369     6349     5582     5454     6291     8064 
   10266    12159    13290    13791    13936    13651    12692    11137 
    9560     8727     9085    10566    12646    14477    15400    15473 
   15245    15072    14856    14455    13960    13528    13275    13269 
   13581    14257    15132    15843    16027    15341    13567    11016 
    8517     6772     5807     4997     3638     1537    -1046    -3842 
   -6629    -9200   -11499   -13625   -15647   -17539   -19226   -20506 
  -20964   -20143   -17825   -14284   -10288    -6644    -3767    -1499 
     723     3188     5564     7400     8676     9815    11180    12810 
   14624    16384    17625    18057    17829    17151    16206    15449 
   15265    15373    15201    14451    13050    11237     9540     8361 
    7898     8144     8946    10112    11156    11315    10442     9301 
    8648     8629     8981     9304     9401     9536    10220    11685 
   13541    15087    15913    16062    15865    15801    16123    16706 
   17359    17841    17857    17504    17316    17594    18114    18438 
   18243    17586    16779    15969    15152    14438    14002    13937 
   14253    14908    15826    16771    17311    17113    16162    14682 
   13107    11979    11472    11187    10566     9359     7749     6161 
    5081     4730     4942     5595     6816     8577    10439    11886 
   12695    12920    12811    12710    12957    13724    14885    16050 
   16865    17297    17506    17543    17200    16360    15323    14582 
   14511    15187    16283    17197    17363    16630    15372    14068 
   12864    11599    10104     8468     6812     5143     3635     2565 
    2072     2070     2300     2469     2274     1516      403     -541 
    -994     -950     -517       93      650     1158     1784     2617 
    3607     4423     4633     4287     3977     4295     5490     7365 
    9310    10671    11122    10789    10034     9132     8252     7442 
    6592     5618     4594     3739     3372     3689     4479     5270 
    5756     5941     6019     6156     6467     7168     8479    10477 
   13122    16209    19267    21687    22975    23031    22195    20965 
   19770    18905    18442    18165    17826    17429    17146    17001 
   16737    16002    14627    12793    10984     9683     9128     9209 
    9549     9837    10068    10413    10828    10921    10269     8792 
    6804     4830     3273     2208     1478      878      299     -236 
    -542     -357      508     2070     3948     5329     5491     4382 
    2614      895     -407    -1063     -892      -21     1136     2065 
    2436     2424     2431     2631     3006     3481     3990     4496 
    4891     5125     5166     4849     4264     3827     3696     3670 
    3487     3118     2887     3079     3649     4517     5775     7531 
    9782    12320    14710    16615    18231    20052    22088    23963 
   25662    27486    29631    32050    34429    36437    37886    38541 
   38167    36769    34592    32028    29516    27043    24347    21702 
   19352    17153    15336    14061    13003    12015    10947     9494 
    7773     5976     4124     2481     1209      143     -688    -1046 
    -915     -430      283     1075     1956     2910     3661     4000 
    3932     3580     3133     2693     2168     1474      708       20 
    -500     -772     -824     -818     -892    -1229    -1922    -2739 
   -3233    -2916    -1663      130     2065     3883     5267     6041 
    6432     6806     7268     7819     8575     9486    10254    10658 
   10638    10230     9504     8530     7600     7227     7743     8891 
   10000    10682    11053    11306    11568    11919    12334    12826 
   13414    14026    14566    14870    14855    14681    14380    13787 
   12928    12037    11381    11142    11222    11300    11065    10416 
    9637     9144     8985     8881     8626     8172     7543     6825 
    6116     5512     5081     4835     4693     4592     4544     4568 
    4567     4384     4051     3709     3499     3573     3989     4795 
    6141     8059    10234    12187    13680    14891    16175    17648 
   19045    20071    20764    21346    21868    22153    22069    21686 
   21161    20781    20812    21158    21568    21863    21820    21280 
   20436    19631    18981    18422    17788    16893    15697    14300 
   12914    11844    11313    11237    11371    11595    12036    12896 
   14175    15680    17140    18237    18694    18469    17744    16713 
   15539    14399    13386    12441    11421    10345     9409     8824 
    8630     8707     9015     9525    10014    10157     9747     8772 
    7292     5404     3314     1205     -819    -2613    -3964    -4623 
   -4422    -3258    -1074     1917     5140     7881     9508     9749 
    8842     7338     5850     4816     4264     4024     4016     4066 
    4004     4045     4469     5250     6277     7492     8819    10037 
   10840    11178    11176    10998    10866    10843    10746    10401 
    9834     9278     9050     9278     9720     9979     9855     9354 
    8668     8202     8355     9208    10395    11318    11720    11804 
   11830    11820    11538    10821     9780     8644     7668     7044 
    6694     6281     5470     4193     2721     1453      637      302 
     375      650      873     1009     1170     1437     1842     2274 
    2517     2469     2124     1537      923      508      241      -14 
    -145       33      587     1471     2488     3499     4527     5589 
    6650     7542     8021     8128     8208     8541     9130     9776 
   10389    11141    12193    13427    14477    14980    14868    14458 
   14143    14110    14287    14457    14530    14693    15238    16291 
   17590    18612    19017    18877    18496    18029    17347    16241 
   14670    12783    10743     8603     6355     4122     2228      994 
     492      648     1463     2998     5251     7979    10642    12760 
   14162    14848    14894    14474    13809    13203    13000    13459 
   14666    16355    18048    19326    19913    19834    19417    19039 
   18937    19003    18927    18593    18199    18095    18559    19546 
   20652    21443    21772    21729    21460    21039    20368    19236 
   17491    15175    12563    10064     8025     6639     5923     5752 
    5929     6343     7028     8012     9248    10656    12069    13238 
