Origin Time       2025/01/13 21:19:00
Lat.              31.8
Long.             131.6
Depth. (km)       30
Mag.              6.9
Station Code      MYZ017
Station Lat.      31.4639
Station Long.     131.2281
Station Height(m) 9
Record Time       2025/01/13 21:19:42
Sampling Freq(Hz) 100Hz
Duration Time(s)  139
Dir.              U-D
Scale Factor      7845(gal)/8223790
Max. Acc. (gal)   24.363
Last Correction   2025/01/13 21:19:43
Memo.             
[...]
   33667    33817    32842    31205    29257    27473    26674    27348 
   29072    30998    32530    33381    33420    32670    31328    29679 
   28081    27032    26873    27472    28526    29849    31205    32225 
   32753    32984    33057    32860    32209    31087    29970    29570 
   30079    31244    32645    33554    33328    31946    29826    27565 
   25899    25581    26889    29103    30904    31584    31618    31756 
   32057    32347    32786    33313    33462    33126    32755    32803 
   33114    32852    31549    29853    28489    27414    26536    26245 
   26859    27945    28593    28463    28093    28167    29064    30746 
   32582    33601    33227    31756    30040    28798    28590    30007 
   32872    35596    36402    34952    32169    29130    26709    25641 
   26238    28050    30304    32644    34727    35672    34840    32598 
   29841    27368    25866    25894    27259    29069    30844    32593 
   33739    33430    31949    30403    29290    28498    27994    27828 
   27926    28054    28093    28358    29293    30836    32233    32663 
   32067    30986    29810    28948    29031    30188    31860    33512 
   34873    35451    34473    31966    29151    27087    25942    25589 
   25933    26890    28393    30217    32012    33523    34441    34329 
   33027    31027    29317    28699    29254    30576    32066    33137 
   33570    33455    32683    31132    29369    28228    27724    27434 
   27594    28590    29910    30790    31298    31849    32233    31990 
   31125    29968    28968    28640    29334    31017    32996    34186 
   34053    32887    31274    29789    28811    28432    28551    28895 
   29119    29338    29957    30815    31386    31452    30920    29771 
   28305    27056    26743    27926    30443    33583    36379    37648 
   36815    34649    32292    30225    28655    27861    27797    27854 
   27465    27064    27525    28633    29442    29860    30389    30724 
   30087    28761    28026    28537    29855    31450    33203    34935 
   36088    36266    35708    34693    33129    31166    29443    28544 
   28482    28798    29157    29408    29209    28402    27364    26809 
   27291    28532    29724    30553    31055    31160    31036    31094 
   31552    32389    33431    34256    34246    32961    30488    27583 
   25455    25096    26572    28962    31087    32310    32487    31703 
   30528    29708    29405    29423    29817    30624    31321    31337 
   30890    30474    30113    29987    30684    31951    32613    32296 
   31831    31533    30574    28651    26896    26559    27818    29884 
   31610    32337    32281    31594    30072    28108    26600    26206 
   27352    29899    32751    34870    36130    36428    35118    32055 
   28576    26686    27203    29207    31220    32344    32379    31675 
   30925    30558    30441    30387    30385    30307    30007    29801 
   30435    32165    34075    34850    34106    32499    30595    28475 
   26721    26376    27454    28822    29668    30095    30491    30959 
   31383    31743    31718    30604    28603    27172    27306    28352 
   28993    28890    28759    29112    29766    30591    31761    33089 
   33860    33551    32375    31013    29978    29413    29347    29824 
   30627    31320    31820    32043    31392    29741    28151    27839 
   28879    30511    32258    33860    34807    34713    33717    32367 
   31226    30551    30415    30653    30735    30316    29739    29635 
   30294    31536    32873    33687    33473    32175    30361    28856 
   28112    27897    27560    26798    26144    26288    27116    27976 
   28512    28655    28409    27924    27653    28379    30586    33658 
   36224    37222    36440    34468    32258    30593    30041    30820 
   32215    33100    33103    32301    30703    28764    27326    26936 
   27457    28063    28242    28528    29494    31055    33061    35457 
   37737    38719    37322    33851    29909    26654    24044    22183 
   21726    22566    24048    26202    29097    32007    34006    34523 
   33548    31587    29166    27102    26585    27965    30335    32559 
   34014    34549    34122    32976    31887    31537    31784    31896 
   31432    30650    30149    30416    31423    32278    32067    30966 
   29702    28377    26592    24683    23988    25411    28452    31810 
   34202    35044    34892    34601    34141    33110    31997    31884 
   32776    33357    32969    32521    32873    33571    33419    31716 
   28868    25787    23095    21473    21934    24869    29295    33480 
   36170    36911    35658    32973    30208    28514    27927    28042 
   28883    30643    32954    34757    35205    34416    32819    30654 
   28471    27133    27059    27886    28949    29944    30844    31261 
   30731    29674    28938    28428    27646    27018    27237    28213 
   29158    29361    29137    29384    30087    30474    30245    29624 
   28946    28540    28595    29236    30365    31341    31476    30586 
   28987    27623    27692    29378    31912    34673    36922    37651 
   36633    34645    32701    31338    30307    29154    27857    26620 
   25872    26354    28197    30281    31455    31914    32513    33123 
   32977    32262    31649    30858    29450    28220    28090    28607 
   29062    29643    30356    30643    30514    30438    30364    29821 
   28848    28194    28351    29070    30230    31959    33683    34242 
   33103    30855    28659    27319    26886    27060    27591    28246 
   28738    28723    28227    28235    29844    32621    35091    36456 
   36794    36316    35090    33138    30861    29070    28105    27792 
   28462    30496    33268    35544    36445    35781    33983    32117 
   31180    30985    30707    30106    29502    29305    29627    30302 
   31310    32447    32996    32557    31433    30026    28555    27283 
   26635    26943    28127    29570    30349    30195    29863    29890 
   30015    30037    30042    30060    29929    29407    28578    27996 
   28345    30005    32294    33633    33102    31297    29835    30021 
   31622    33359    34272    33963    32421    30481    29594    30308 
   31743    32787    32763    31175    28062    24830    23526    24756 
   27387    30318    33156    35583    37296    38295    38572    37862 
   35912    33064    30522    29339    29415    30240    31446    32009 
   30535    27039    23356    21397    21774    24042    27440    31185 
   34288    35895    36005    35353    34601    33751    32391    30570 
   28942    27935    27367    27113    27554    29023    31052    32848 
   34180    34942    34690    33367    31486    29540    27703    25953 
   24429    23557    23558    24142    25123    26743    29108    31811 
   34175    35793    36651    36907    36991    37338    37797    37837 
   37233    36055    34229    31712    29242    27994    28009    27961 
   26816    24601    21801    19237    18102    19218    22366    26693 
   31303    35104    37188    37604    36802    34931    32213    29276 
   26900    25423    24445    23587    23041    22940    22952    22856 
   23074    24366    26735    28838    29425    29076    29350    30674 
   32043    32336    31352    29851    28760    28582    29454    31020 
   32427    32894    32301    31040    29222    26763    24503    24085 
   25960    28228    29083    29334    30636    33301    36649    39779 
   42044    43074    42722    41254    39221    37339    36306    36197 
   36471    36713    36911    37019    36624    35599    34391    33222 
   31865    30137    28158    26345    25232    25022    25062    24358 
   22936    21840    21951    23342    25473    27784    29797    30723 
   30142    28853    27980    27996    29027    30886    32746    33732 
   33671    32958    32016    30700    28231    24765    22168    22037 
   24354    28237    32653    36340    37957    37206    35029    32559 
   31068    31394    32834    34402    35785    36416    36058    35761 
   36373    37245    37216    35964    33980    31907    30063    28327 
   26735    25579    24688    23777    23126    23144    24023    25880 
   28173    29481    29031    27494    25867    25138    26339    29296 
   32458    34357    34298    32441    29473    26165    23562    22176 
   21277    20451    20578    22260    24638    26651    28421    30672 
   33408    36024    38719    42255    46047    48371    48438    46828 
   44355    41553    38896    36645    34481    31652    27768    23282 
   18940    15537    13976    14613    16942    20250    24201    28956 
   34423    39433    42444    42911    41442    39143    37188    36418 
   36742    37326    37693    37814    37137    34970    31977    29710 
   28499    27365    25810    24352    23658    23846    24711    26249 
   28289    30385    32575    35172    37882    40039    41326    41499 
   39907    36440    32250    28358    25087    23020    22385    22788 
   23571    23341    21605    19669    18450    18106    18638    19772 
   21348    23359    25965    29223    32472    34778    35495    34954 
   34530    35128    36663    38546    39860    39811    38245    35824 
   33552    32341    32698    34037    35235    35617    34902    33355 
   31739    30427    29315    28539    28354    28571    28637    28169 
   27329    26404    25050    23036    21305    21018    22451    25346 
   28868    31529    32563    32537    31989    31108    30599    31190 
   32368    32818    32401    32204    32344    31946    31000    30273 
   29979    29801    29749    30308    31926    34111    35307    34298 
   31105    26778    22886    20533    19984    21082    23280    25702 
   27726    29385    30928    32390    33864    35368    36493    36721 
   35986    34869    33787    32371    30739    30141    31166    32782 
   33400    32089    29061    25311    22076    20275    20004    21030 
   23453    27237    31429    34587    36073    36173    35236    33829 
   32938    33045    33797    34743    35644    36198    36022    35090 
   33926    32746    30970    28413    25979    24317    23028    21880 
   21424    21884    22762    23803    25358    27642    30326    32958 
   35370    37551    39418    41177    43610    47078    50465    51992 
   50633    46496    40729    34655    28906    23712    19178    15273 
   12310    10882    11345    13620    17189    21381    25483    28957 
   31830    34042    35041    34978    35141    36602    38940    40603 
   40390    38408    35494    31892    27371    22404    18068    15106 
   13525    13003    13667    15685    18341    20916    23745    27029 
   29866    31560    32749    34400    36574    38813    41018    43187 
   44982    45972    45979    44894    42294    38138    33670    30226 
   28136    27596    28555    29902    31052    32883    35640    37694 
   37014    33312    28364    24204    22113    22685    25694    30354 
   35476    39374    40694    39252    35908    32312    30145    29497 
   28864    27237    25293    24528    25335    26692    28012    29424 
   30658    31288    31365    31379    31776    32287    32061    30539 
   28047    25533    23728    23168    24510    27627    31282    34163 
   35660    36080    36094    36201    36958    38410    39442    38975 
   36861    33504    30006    27920    27675    28413    29320    29843 
   29639    29111    28714    28255    28111    29212    30942    31916 
   32582    33916    35268    35738    35583    35253    34055    30777 
   26103    22792    22542    24255    26273    28549    31232    33219 
   33380    31961    30858    32202    36161    40756    43753    44200 
   42165    37554    30627    23414    18123    14871    13154    13555 
   16301    20158    23402    24980    24796    23205    20622    17964 
   16580    17219    19650    23039    26110    27945    28881    29552 
   29997    30657    32302    34638    36815    38869    41395    44132 
   45409    43692    39324    33943    29020    25423    23818    24800 
   27769    30681    32023    31742    30311    28444    27155    26921 
   27446    28293    29080    29662    30241    31072    32213    33362 
   34375    35359    35622    34533    33039    32081    31016    28813 
   25272    21170    18007    17383    20387    26717    34038    39334 
   41129    39866    36610    32436    29139    28740    31280    34489 
   36229    36202    34912    32189    27778    22584    18382    16781 
   18713    24340    32814    41955    48442    49491    44887    37114 
   29975    26678    28112    32711    37662    40502    40126    36383 
   30352    24981    22851    23745    26087    29025    32287    35634 
   38240    38967    38083    36517    33743    29479    25640    24337 
   25486    27365    28638    28977    28300    26522    23858    21011 
   19056    18854    20652    24098    28005    30939    32821    34457 
   35691    35949    35537    35052    34399    32988    30431    26987 
   23525    21203    21435    25135    31530    38348    42850    43251 
   39579    33160    25922    19734    16251    17046    22353    30357 
   38418    44240    46402    44346    38349    30094    22438    18127 
   18674    23865    31943    40169    46114    48766    48112    44857 
   40325    35494    30794    27016    25083    24993    25983    27549 
   29524    31329    32312    32942    34349    36612    38847    40459 
   41073    39985    36736    32346    29033    27540    26063    23171 
   19716    16735    14048    11585    10042    10270    12884    17856 
   24559    32317    40502    48124    53721    56043    54846    50769 
   45027    39299    34813    31556    28687    25382    21905    19611 
   19306    20507    22156    23458    24710    26835    29562    31436 
   32098    32552    33165    33369    32594    30748    28665    27531 
   27859    29319    30840    31591    31928    32719    34474    37095 
   39810    41134    39415    34619    28518    22168    15777    11175 
   10575    13201    16305    18739    21282    24259    27028    29601 
   32601    35673    37115    35495    31479    27143    24354    24632 
   28571    34978    41565    45762    45308    39721    30927    22162 
   16600    15724    18557    23176    28040    31689    33076    32744 
   32258    32449    33166    34126    35514    37476    39040    39164 
   38510    38252    38016    36452    33282    29805    27299    25942 
   25752    27060    29662    32247    33062    31612    29205    27614 
   28208    31446    36293    40992    44024    44231    41855    38886 
   37014    36481    36865    37266    36412    33556    28977    23722 
   18816    14712    11861    10874    11815    14455    18802    24719 
   31644    38214    42276    42697    40475    37161    33617    30311 
   27515    25420    23850    22018    19718    17790    16605    15807 
   15685    16904    19071    21170    23183    26184    30684    35625 
   39613    41937    42071    39829    36256    33421    32671    33363 
   33941    33482    31957    29864    28050    27464    28248    29702 
   31326    32981    34753    37052    40081    43046    44396    43202 
   40035    36509    33858    31953    30379    29331    28640    27540 
   25679    23291    21087    20241    21235    23066    24433    25078 
   25909    27832    30230    31504    31090    29722    28476    28417 
   30260    33795    38013    41789    44323    45023    43598    40370 
   35951    31009    26423    22874    20557    19552    20202    23047 
   27804    32660    35926    37748    39086    40255    41208    42174 
   43302    44174    44149    42766    39798    35657    31503    28356 
   26227    24321    22212    20355    19392    19423    19845    20077 
   20281    21074    22970    26191    30245    33710    35650    36495 
   36533    35445    33411    30785    27708    24856    22944    21716 
   20769    20344    20807    22146    23642    24389    24734    26015 
   28757    32212    35387    37863    39723    40868    40759    39110 
   36525    33963    31837    30118    28840    27849    26939    26372 
   26352    26676    27122    27615    28640    30778    33400    35249 
   35982    36167    36104    35193    33169    31276    30742    31299 
   32306    33571    34651    34767    33598    31506    28991    26298 
   23626    21647    21357    23087    25986    28634    29997    30065 
   29417    28188    26723    26354    27891    30518    32910    34236 
   34110    32684    30770    29311    28883    29513    30713    31812 
   32124    31295    29624    27153    23595    20119    18870    20312 
   23089    25921    28331    30168    31340    31876    31831    31182 
   30207    29840    30707    31974    32297    31476    30314    29548 
   29394    29633    30107    30983    32364    33963    34989    34605 
   32842    30632    28960    28441    29417    31742    34655    37172 
   38654    39141    39001    38187    36468    34434    33114    32645 
   32613    33072    34106    35166    35465    34682    32823    30032 
   27379    26399    27048    27797    27603    26632    25577    24800 
   24395    24767    26130    27913    29473    30626    31486    32420 
   33782    35546    37272    38238    38005    36930    35583    34078 
   32535    31342    30477    29405    28113    27378    27726    29161 
   31577    34495    36990    38226    38101    37597    37764    38558 
   39425    39783    38759    36028    32498    29245    26339    23107 
   19485    16509    14951    14647    15531    17948    21836    26514 
   31091    34866    37652    39602    40664    40639    39428    37262 
   34819    32763    31536    31137    30642    29274    27386    25425 
   23746    22842    22651    23087    24452    26330    27608    27970 
   28494    30218    32570    34125    34265    33031    30465    27216 
   24726    24028    24939    26744    28930    30800    31310    30257 
   28651    27537    27448    28606    30704    32734    33945    34641 
   35353    35930    35868    35020    33758    32333    30728    29462 
   29380    30597    32483    34435    35892    35869    33806    30612 
   27912    26612    26285    26065    25960    26304    26836    27359 
   28069    28933    29581    29668    29045    27689    25623    23337 
   22010    22601    24985    28194    30906    32016    31565    30592 
   29965    30057    31056    32998    35457    37579    38813    39361 
   39792    40460    41156    41256    40155    37477    33374    29091 
   26443    26064    27025    28460    30122    31388    31386    30219 
   29087    28753    28426    26952    24629    22751    21957    21860 
   21972    22461    23656    25154    26171    26484    26491    26514 
   26519    26520    26875    27949    29859    32614    35600    37376 
   37191    35862    34454    33187    31853    30519    29389    28332 
   27213    26370    26114    26424    27426    28941    29830    29359 
   28391    27932    27976    28626    30508    33497    36348    37986 
   38503    38448    37543    35233    32008    28773    25955    24111 
   23911    25251    27391    29431    30662    30925    30303    29124 
   28475    29133    30403    31295    31868    32684    33777    34697 
   35149    34974    34022    32514    30967    29874    29637    30543 
   32589    35039    36984    38539    40235    41640    41764    40443 
   38338    35858    33264    31224    29907    28413    26430    25083 
