Origin Time       2025/01/13 21:19:00
Lat.              31.8
Long.             131.6
Depth. (km)       30
Mag.              6.9
Station Code      MYZ002
Station Lat.      32.6978
Station Long.     131.6833
Station Height(m) 18
Record Time       2025/01/13 21:19:50
Sampling Freq(Hz) 100Hz
Duration Time(s)  98
Dir.              N-S
Scale Factor      7845(gal)/8223790
Max. Acc. (gal)   37.833
Last Correction   2025/01/13 21:19:49
Memo.             
[...]
   -5724    -5255    -4816    -4606    -4654    -4855    -5248    -5903 
   -6642    -7122    -7087    -6570    -5933    -5551    -5544    -5794 
   -6062    -6114    -5877    -5464    -4995    -4579    -4360    -4288 
   -4201    -4176    -4306    -4517    -4881    -5425    -5841    -5968 
   -6054    -6304    -6669    -7032    -7300    -7400    -7128    -6230 
   -4839    -3566    -2890    -2782    -3106    -3829    -4716    -5414 
   -5834    -6029    -5995    -5783    -5489    -5302    -5478    -6010 
   -6534    -6712    -6498    -6011    -5416    -5094    -5467    -6435 
   -7360    -7535    -6755    -5493    -4337    -3576    -3545    -4483 
   -5887    -6839    -6966    -6485    -5541    -4193    -2889    -2293 
   -2627    -3619    -4953    -6381    -7507    -7971    -7886    -7568 
   -7060    -6397    -5954    -6108    -6628    -6736    -5884    -4306 
   -2759    -1921    -1914    -2286    -2798    -3954    -6000    -8158 
   -9493    -9707    -8926    -7489    -5753    -4020    -3005    -3534 
   -5389    -7357    -8353    -7900    -6247    -4349    -3079    -2840 
   -3802    -5516    -6899    -7302    -6920    -6265    -5643    -4878 
   -3800    -3049    -3630    -5510    -7541    -8540    -7913    -6075 
   -4394    -3744    -3804    -4294    -5481    -7353    -9132    -9579 
   -8217    -6135    -4722    -4352    -4634    -4945    -4969    -5109 
   -5773    -6687    -7196    -6759    -5274    -3388    -2338    -2793 
   -4137    -5408    -6138    -6274    -6193    -6100    -5490    -4395 
   -3815    -4239    -5431    -7110    -8491    -8465    -7037    -5397 
   -4374    -4001    -4240    -4953    -5976    -7373    -8638    -8788 
   -7744    -6097    -4064    -2239    -1937    -3299    -4824    -5405 
   -5143    -4380    -3450    -2849    -2805    -3343    -4747    -6907 
   -8911    -9973   -10058    -9482    -8361    -6520    -4305    -2849 
   -2659    -3007    -3348    -3754    -3947    -3667    -3454    -3890 
   -5080    -6556    -7187    -6647    -6362    -7256    -8218    -7944 
   -6394    -4191    -2097     -720      -56       12     -958    -3206 
   -6079    -8645   -10172   -10424   -10026    -9709    -9360    -8368 
   -6269    -3123      157     2232     2230       17    -3734    -7326 
   -9086    -9113    -8721    -8359    -7780    -7391    -7825    -9394 
  -12181   -15144   -16066   -13494    -8064    -1960     2701     5313 
    6453     5996     3030    -1715    -5556    -6841    -6110    -4807 
   -4714    -7063   -11358   -15724   -18165   -17497   -13721    -8228 
   -3063      652     2570     2169     -333    -3424    -5688    -6729 
   -7155    -8009    -9450   -10251    -9223    -6650    -3694    -1108 
     631     1024     -126    -2867    -7005   -11256   -13404   -11942 
   -7217    -1339     2751     3126      189    -4332    -9201   -13564 
  -15934   -15075   -11726    -7952    -5391    -4733    -5470    -6474 
   -6912    -5707    -2172     2340     5458     5694     3289       37 
   -2613    -4625    -6154    -7182    -7948    -8619    -9239    -9926 
  -10542   -10594    -9930    -8887    -7438    -5432    -3643    -3098 
   -3808    -4868    -5053    -3798    -1914     -522     -124     -851 
   -2301    -3958    -5872    -7857    -9184    -9526    -9119    -8151 
   -6515    -4108    -1329      888     1406     -676    -5277   -10971 
  -15704   -17932   -17070   -13428    -8247    -3358     -103     1355 
    1154     -799    -3674    -5691    -5337    -2366     1498     3870 
    3508      365    -4644   -10075   -14594   -16771   -15492   -11782 
   -8577    -7836    -9004   -10077    -9579    -7626    -5213    -3032 
   -1204      338     1517     2060     1880     1289      472     -839 
   -2816    -5184    -7659   -10026   -11819   -12742   -13061   -13015 
  -12486   -11412    -9948    -8174    -6110    -4043    -2593    -2139 
   -2397    -2647    -2191    -1030      -10      294      -86    -1246 
   -3015    -4758    -6223    -7348    -7758    -7410    -6836    -6679 
   -7223    -7909    -8059    -8174    -9074   -10181   -10361    -9783 
   -9269    -8590    -7038    -4837    -2883    -1733    -1219     -749 
      55     1043     1796     1899      999    -1097    -4239    -7832 
  -10875   -12622   -13325   -13541   -13103   -11601    -9250    -6710 
   -4490    -2884    -2130    -2147    -2312    -1917     -866      288 
     924      949      639     -315    -2720    -6482   -10314   -12791 
  -13444   -13080   -12482   -11132    -8631    -6274    -5274    -4850 
   -3869    -2747    -2481    -3306    -4672    -5764    -6305    -6876 
   -7773    -8233    -7534    -5841    -3703    -1475      742     2556 
    2805      616    -3094    -6258    -7947    -8941    -9937   -10403 
   -9364    -6640    -3397    -1540    -2010    -3925    -5834    -7129 
   -7990    -8600    -8656    -7994    -7341    -7549    -8410    -8708 
   -7488    -5038    -2339     -280      265    -1329    -4764    -8561 
  -10619    -9913    -7522    -5127    -3234    -1485     -124     -218 
   -2268    -5564    -8722   -10142    -8889    -5622    -2280     -881 
   -2228    -5248    -7906    -8951    -8553    -7291    -5251    -2639 
    -708    -1151    -4218    -8082   -10579   -11155   -10538    -9279 
   -7474    -5161    -2721    -1040     -619    -1135    -2316    -4433 
   -7677   -11110   -12595   -10797    -7056    -4287    -4168    -5941 
   -8060    -9929   -11105   -10436    -7377    -2832     1767     5130 
    6323     5340     2941     -490    -4797    -8718   -10777   -11140 
  -10839   -10563   -10642   -10625   -10044    -9576    -9645    -9111 
   -6673    -2818      112       90    -2258    -4294    -4623    -4189 
   -4033    -4164    -4368    -4644    -5225    -6214    -7206    -7873 
   -8014    -7072    -4912    -2614    -1486    -1667    -2558    -3993 
   -5921    -7801    -8943    -8761    -7161    -5088    -4105    -5155 
   -7749   -10272   -10936    -8897    -5116    -1649       75     -159 
   -1605    -2970    -3832    -5368    -8151   -10411   -10164    -7720 
   -5344    -4845    -5741    -6511    -6604    -6350    -6201    -6006 
   -4924    -3048    -1883    -2427    -4176    -6007    -6671    -4957 
    -760     4218     7545     7659     4556     -591    -6555   -12858 
  -18698   -22249   -22698   -21072   -18675   -16541   -14787   -12139 
   -7736    -2392     2270     4930     5354     4441     3341     2550 
    1588      -78    -1780    -2367    -2066    -2482    -4603    -7759 
  -10501   -11761   -11441   -10214    -9207    -9751   -11981   -14409 
  -15673   -14809   -10681    -3790     2995     7074     7631     4787 
    -549    -6355   -10635   -12326   -11044    -7820    -5265    -4938 
   -6176    -7952    -9441    -9524    -7893    -5471    -3246    -1892 
   -1372     -699      201       66    -1304    -2925    -4571    -6442 
   -8075    -9007    -9483    -9956   -10493   -10804   -10365    -8847 
   -6849    -5277    -4044    -2631    -1051      252      550     -680 
   -3322    -6813    -9957   -11149    -9714    -6543    -3407    -1837 
   -2168    -3422    -4099    -3256    -1382       71      276     -361 
   -1333    -3211    -6739   -11227   -14874   -16302   -15734   -14643 
  -13884   -12596    -9450    -4831     -889     1054     2020     3551 
    5630     7165     7257     5451     1748    -2997    -7152    -9741 
  -11287   -12688   -14324   -16222   -18025   -18841   -17440   -13045 
   -6488       -5     4554     6377     4881      263    -5301    -9011 
   -9644    -7443    -3936    -2138    -3990    -8154   -11927   -13500 
  -12302    -8838    -3761     2209     6961     7992     5080       98 
   -5518   -11441   -16487   -18507   -16856   -13154    -9765    -7896 
   -7060    -6694    -6724    -6457    -4942    -2145     1020     3229 
    3731     2964     1472     -696    -3090    -5125    -7160   -10234 
  -14521   -17936   -17871   -14585   -10527    -7160    -4490    -2139 
      58     1771     2439     1705     -186    -1988    -2343    -1729 
   -2218    -4646    -7724   -10003   -11038   -11400   -11850   -11422 
   -8391    -3662       25     1273      182    -2594    -5734    -7593 
   -7585    -6875    -7190    -8958   -10982   -12046   -11992   -10667 
   -7600    -3240     1237     4828     6605     6318     4779     2415 
    -909    -4526    -7940   -11686   -15174   -16911   -17199   -17386 
  -17478   -16359   -13412    -9096    -4600    -1244      487     1672 
    3942     7142     9036     8077     4935     1316     -986    -1260 
   -1243    -3345    -7663   -12077   -14767   -15653   -15070   -13024 
  -10563    -9243    -9096    -8984    -8008    -5597    -2092      336 
    -241    -3046    -6658   -10813   -13882   -13046    -8110    -1888 
    2016     1270    -2968    -6519    -6597    -4270    -1771      106 
    1379     1926     1339     -757    -3829    -7079   -10697   -14521 
  -16605   -15624   -13819   -14546   -17504   -19098   -16590   -10905 
   -5718    -2751      629     6750    13475    17174    16860    13859 
    9640     4611    -1976   -10538   -19287   -25513   -28171   -27378 
  -23444   -18031   -13375    -9335    -4259     1399     5405     6411 
    4882     3049     3157     5026     6918     7570     6241     2643 
   -2674    -8490   -13865   -18173   -19969   -18291   -14671   -12054 
  -12756   -16329   -19248   -18939   -16151   -12374    -7684    -1410 
    6057    12421    14939    12933     8152     2629    -2155    -4411 
   -3126     -271      584    -1655    -5347    -9301   -13302   -17131 
  -20459   -21833   -19114   -12290    -3989     2543     4938     2963 
    -949    -3747    -4456    -4587    -6191    -9628   -12984   -13810 
  -12179   -10551    -9929    -8865    -5895     -734     5745    11569 
   15164    16884    16964    13329     4117    -9101   -22208   -31571 
  -35460   -34136   -29832   -24848   -19785   -14902   -10048    -3680 
    4469    12235    17703    20520    20796    18360    13122     5381 
   -3397   -10444   -14769   -18262   -22087   -25182   -26184   -24462 
  -20169   -14319    -8538    -4129    -1198     1032     3262     5184 
    5779     5181     4174     2114    -1648    -5961    -9634   -12928 
  -15978   -17145   -14771    -9747    -4228      838     4962     6716 
    5107     1248    -2770    -6111    -9432   -12914   -15415   -15969 
  -14615   -12123    -9202    -5528     -976     2806     3867     1922 
   -1390    -3681    -4094    -3970    -4750    -6787    -9929   -13340 
  -15577   -15611   -13231    -9247    -5130    -2114     -757     -641 
   -1252    -2551    -3672    -3416    -2142    -1219    -1628    -3443 
   -5980    -8788   -11514   -12725   -11369    -8876    -7636    -8137 
   -8810    -8228    -6511    -4473    -2073     1505     6004     9148 
    8355     3222    -4001   -10062   -12768   -12243   -10234    -8351 
   -7199    -6340    -5113    -3738    -2951    -2886    -3117    -3516 
   -4295    -5413    -6997    -9718   -13188   -14791   -12440    -7927 
   -5046    -4870    -5250    -4260    -2003      213      942     -228 
   -1923    -2636    -2486    -2265    -2767    -5181    -9336   -12540 
  -12433    -9790    -7067    -5547    -5000    -4491    -3079    -1275 
   -1148    -3591    -6633    -7632    -6160    -4303    -4410    -6332 
   -8064    -8815    -9262    -9871   -10619   -10740    -8565    -3959 
     155     1023    -1744    -7416   -13809   -17568   -17385   -14619 
  -11294    -8835    -7315    -6362    -6439    -7474    -7754    -5665 
   -1571     2903     6701     9135     8988     5455     -540    -6812 
  -11655   -14651   -15994   -15912   -14847   -13267   -11099    -8700 
   -7423    -7763    -8546    -8503    -7375    -5977    -5620    -6396 
   -6517    -4328     -230     3402     3936     1000    -2914    -5397 
   -6812    -8542    -9886    -9171    -6926    -5552    -6669    -9775 
  -12792   -13489   -10558    -4045     3813     9116     9450     5605 
     190    -3716    -4067    -1949     -538    -1269    -3530    -6922 
  -10810   -13678   -14241   -11950    -7188    -1398     3685     7057 
    8600     8757     8549     8405     7298     4745     1876     -722 
   -4232    -9664   -15812   -19899   -19939   -16033    -9917    -3688 
    1031     2821      911    -3364    -6799    -6974    -4741    -2938 
   -2874    -4082    -6335    -9872   -14669   -19800   -23156   -22576 
  -17695   -10184    -2014     5327    10012    10758     7992     2982 
   -2216    -5138    -5406    -5251    -6880   -10497   -15287   -20514 
  -24699   -25960   -23167   -16194    -6758     1972     7569     8893 
    6133     1246    -3851    -8359   -10966   -10628    -8729    -7599 
   -8259   -10615   -13911   -16768   -17895   -16368   -11619    -4847 
    1198     5003     6535     5632     2731     -292    -1933    -2116 
    -850     1513     2743      564    -4642   -10335   -14068   -15105 
  -13747    -9880    -3735     3141     8611    11071    10643     8584 
    5040     -179    -5359    -8309    -9051    -9185    -9653   -10018 
   -8943    -5864    -2269      247     1460     1421      708      546 
     873       95    -3434   -10503   -20160   -29833   -37035   -40394 
  -39266   -33613   -24286   -12748     -737     9807    17215    20507 
   19873    16973    13770    11161     8816     5891     2023    -2890 
   -8954   -15730   -22356   -27585   -29482   -26856   -21165   -15530 
  -12295   -11908   -12897   -13339   -12598   -10736    -8033    -5795 
   -5200    -5733    -6760    -8496   -10110    -9732    -6509     -739 
    6886    15616    24483    31376    34157    32815    28092    19604 
    7361    -6447   -18354   -25728   -28073   -27140   -25130   -22457 
  -18625   -13738    -7453      757     9579    16660    20993    22850 
   22724    21103    17983    13107     7469     3045      229    -2926 
   -8468   -16583   -25735   -33797   -39006   -40450   -38367   -34138 
  -29223   -24306   -19811   -16050   -12830   -10027    -8083    -7173 
   -6563    -5436    -3504     -585     3369     7790    11411    12661 
   10705     6178      785    -3634    -6409    -8433   -10708   -13551 
  -17045   -21035   -24983   -27957   -28988   -27606   -23674   -17653 
  -10841    -3875     3582    10585    15228    17138    16939    15303 
   13386    11874    10038     6731     2265    -1336    -3221    -4966 
   -7990   -12316   -17447   -22905   -28343   -32821   -34653   -33212 
  -29462   -23899   -16124    -6700     2477     9190    12232    12766 
   13479    15480    16721    14601     9162     2200    -4901   -11585 
  -17577   -21793   -22842   -21058   -17959   -14342   -10636    -7106 
   -3439      286     3902     7993    12316    14994    14081     9059 
    1502    -5892   -11622   -15863   -18480   -18044   -13676    -6438 
    1655     8629    13416    16533    18624    19205    17523    13278 
    6747    -1237    -9694   -17802   -25046   -31121   -35787   -38666 
  -39025   -36146   -29999   -21393   -11878    -3345     3136     7688 
   10462    11022     8904     4696      297    -2857    -5135    -7722 
  -11219   -15408   -19627   -22864   -24277   -23971   -22416   -19568 
  -15126    -9300    -2978     2640     6616     9283    11589    13155 
   12762    10012     5890     1984    -1323    -5008    -9202   -12609 
  -14195   -13771   -11488    -7840    -3597      430     3488     5067 
    4893     2597    -2006    -8330   -15188   -21195   -25127   -26399 
  -24981   -21193   -15593    -8538     -564     6762    11678    13950 
   15055    16260    16737    14253     7352    -3441   -15612   -25944 
  -32265   -34140   -32715   -29713   -26383   -23506   -21257   -18823 
  -15013    -9346    -2293     5040    10795    13169    12128     9101 
    5490     2320       51    -1676    -3546    -6022    -8795   -10390 
   -9103    -4731     1096     6431    10166    11934    11911    10914 
    9578     7339     3159    -3335   -11653   -20591   -28545   -34072 
  -36302   -34882   -30071   -22828   -14459    -6374      504     6065 
   10231    12968    14625    15245    14168    10598     4530    -2713 
   -9385   -14638   -18257   -20120   -20657   -20717   -20900   -21458 
  -21871   -20696   -16691    -9852    -1471     6616    12789    15925 
   15749    13220     9863     6108     1256    -4537    -9753   -13223 
  -14858   -14845   -13363   -10785    -7468    -3785     -572     1283 
    1433      -70    -2496    -4523    -5611    -6777    -9277   -12907 
  -16332   -18369   -18334   -16087   -12316    -8114    -3843      907 
    6053    10697    13745    14355    12093     7086      348    -6571 
  -12542   -17111   -20027   -20919   -19797   -17346   -13836    -8822 
   -2813     2524     6268     8627     9738     9448     8002     6332 
    5617     6259     7337     7346     5201      619    -5910   -13402 
  -20879   -27841   -33559   -36364   -34740   -28393   -18573    -8182 
    -251     3948     4841     3600     1513     -851    -3773    -7470 
  -11758   -16044   -19195   -20109   -18436   -14130    -7273      789 
    7727    12082    13771    13570    12922    13049    13671    13437 
   11491     7933     3059    -2968    -9351   -14670   -18123   -19592 
  -19229   -18208   -18053   -18904   -19850   -19820   -18139   -15311 
  -12352    -9620    -7079    -4527    -1711     1108     3569     5772 
    7577     8306     7271     4110     -756    -6052   -10636   -14091 
  -16002   -15804   -13579   -10373    -7452    -5317    -4066    -3933 
   -4573    -5086    -5265    -6008    -8039   -10463   -11610   -10882 
   -8741    -5811    -2851     -446     1425     2747     2990     2025 
     527    -1070    -3065    -5522    -7457    -7597    -5670    -2563 
     -29      101    -2462    -6338   -10029   -12742   -14404   -15654 
  -17343   -19371   -20190   -18172   -13262    -6901     -924     3627 
    6890     9055     9817     8811     5514     -322    -7830   -15479 
  -21894   -26052   -27352   -25944   -22509   -17590   -11473    -4617 
    1925     7080    10417    11902    11850    10737     8838     6114 
    2104    -3470    -9794   -15237   -18527   -19596   -19041   -16806 
  -12816    -8141    -3871     -341     2205     3881     5390     6772 
    6876     4650       54    -6123   -12722   -18891   -24367   -28518 
  -29771   -26774   -19588    -9871       43     8851    15977    20290 
   21249    19619    15959    10277     2998    -4880   -12193   -18306 
  -23184   -26546   -27579   -25196   -18557    -8413     2154     9548 
   12208    11013     8114     5319     2760     -197    -3484    -6887 
  -10809   -15633   -20802   -24632   -25185   -21685   -14791    -6085 
    1819     6457     7153     4602      384    -3473    -5876    -7021 
   -7317    -6805    -6003    -5679    -5836    -6068    -5648    -3678 
    -453     2602     4553     5343     5273     4801     3986     2463 
     271    -2523    -6280   -10949   -15797   -19858   -22195   -22239 
  -20306   -17759   -15689   -13433    -9942    -5443     -510     4148 
    6867     6353     3002    -1941    -7323   -12517   -17311   -21311 
  -24206   -25726   -25065   -21475   -15326    -8336    -2382     2108 
    5626     8384    10748    12973    14488    14746    13464    10584 
    7356     5265     3854     1899     -834    -4172    -7757   -10462 
  -11448   -11361   -11476   -12487   -14253   -15766   -15834   -14310 
  -12002    -9367    -5984    -1831     1517     2211      251    -2731 
