Origin Time       2025/01/13 21:19:00
Lat.              31.8
Long.             131.6
Depth. (km)       30
Mag.              6.9
Station Code      MYZ008
Station Lat.      32.1056
Station Long.     131.3931
Station Height(m) 59
Record Time       2025/01/13 21:19:39
Sampling Freq(Hz) 100Hz
Duration Time(s)  147
Dir.              E-W
Scale Factor      7845(gal)/8223790
Max. Acc. (gal)   96.233
Last Correction   2025/01/13 21:19:38
Memo.             
[...]
   12046    -9980   -27903   -36173   -34601   -24923    -6993    17760 
   41553    53566    48840    30784     7049   -14609   -30186   -39434 
  -42024   -37273   -25659    -7963    12991    30740    39883    39093 
   29312    13648    -2997   -16224   -23620   -25481   -23009   -16443 
   -7009     3429    14817    26009    32266    28590    14254    -4986 
  -19768   -24348   -20725   -13844    -4908     6443    17784    25786 
   29072    28494    24098    14328     1031   -11107   -20016   -25450 
  -26982   -24021   -15152    -1021    13726    25060    31293    31044 
   23862    10586    -5201   -16453   -19315   -16938   -13190    -7970 
     990    14731    28945    35498    30730    16710    -2319   -19969 
  -30627   -32514   -26330   -14127     1741    18391    30163    31950 
   25018    14102     2782    -6026   -10947   -12548   -12671   -13123 
  -11921    -5775     4102    14089    21265    22693    17250     7102 
   -4268   -12812   -16521   -16448   -11234      267    11518    14987 
   11071     3092    -7981   -19629   -25583   -20655    -6601     8997 
   20938    29450    35102    36968    34551    27561    16128      727 
  -18323   -38385   -53843   -60342   -57855   -47802   -29609    -3969 
   24210    49508    69142    80855    80439    65260    38450     6723 
  -22905   -45193   -57615   -58021   -47056   -30642   -11701     8375 
   21506    24395    22003    13536    -3067   -22196   -35957   -37941 
  -27627   -11124     8768    32242    53203    63186    61393    52783 
   39591    21351      918   -14559   -18806   -11882      245    12646 
   25631    38885    46225    41733    26731     7751    -9933   -24856 
  -34366   -33463   -20862      108    22985    39390    44307    37872 
   23716     6945   -10274   -25834   -33527   -31199   -24231   -18284 
  -14412    -8781     1189    11727    16420    11338     -838   -11196 
  -13940   -11403    -5910     3951    14882    18492    11072    -2856 
  -15368   -23110   -27904   -29609   -26613   -20595   -14006    -7546 
   -2922    -2042    -3577    -5733    -7913    -8114    -4353     3069 
   10924    13559     8641     1638      945     8837    18642    22616 
   19485    11680     1842    -6474   -11217   -13363   -13117    -9425 
   -3203     2886     5954     5452     5620    10693    19584    28657 
   35762    40486    41678    35992    21892     3642   -11939   -20984 
  -22935   -18129    -7404     6714    19778    28219    31217    27742 
   15616    -4699   -28688   -50527   -67709   -81800   -91338   -90585 
  -77734   -55609   -27334     3557    33504    56990    64146    50413 
   23746    -7402   -40745   -71209   -90772   -94586   -79361   -45739 
   -3931    33696    61422    76503    77329    65858    44672    16206 
  -12653   -32348   -39064   -35314   -24844   -11902     1845    18283 
   35938    48922    50295    37397    18628     3711    -7246   -14450 
  -13724    -3530    12511    27365    35523    35660    26796     8471 
  -15719   -40115   -60284   -72797   -74719   -64557   -43506   -16559 
    8954    27359    36297    35685    26578    11875    -2810   -13026 
  -17392   -14625    -4766     9215    24227    38195    47518    47467 
   38414    24808     7258   -13452   -29417   -33675   -26979   -10829 
   14570    42234    60382    65203    63026    58770    49057    29970 
    5331   -16515   -27526   -22476    -2897    23724    49222    67745 
   76975    76326    63130    35943      207   -35707   -66411   -86721 
  -90432   -76543   -48698   -12950    17644    30581    26620    13714 
   -1499   -13209   -21212   -30186   -39040   -43000   -42048   -37381 
  -25813    -4634    21019    41208    48833    42118    24865     4055 
  -15194   -31106   -43598   -52162   -52648   -38149    -9239    20352 
   35856    35752    28656    20115     8410   -11534   -41443   -71925 
  -90969   -95739   -84118   -54139   -13884    26164    59609    78320 
   75590    55229    28579     2786   -21097   -41299   -52500   -46233 
  -19550    16363    45964    60625    60112    51160    38649    21992 
    3736   -10532   -18092   -19734   -19793   -21006   -19985   -12640 
    1455    19399    36348    49261    56438    53859    38102    11217 
  -18319   -40005   -48373   -41843   -21370     5401    31182    53466 
   66091    63964    51169    35930    27109    29988    39170    43144 
   38155    30464    23415    13339       43    -9961   -11642    -5412 
    5204    13691    13096     3519    -9663   -24139   -38973   -49557 
  -49455   -37963   -23338   -10168     4259    17500    25825    28873 
   25562    18501     6879   -14770   -39131   -54525   -59988   -57824 
  -51112   -42601   -29011    -9559     8248    18605    19572     9335 
   -9220   -27391   -36652   -32618   -17294     -210     8625     8837 
    6889     4588    -1637   -12004   -21235   -23716   -19203   -11821 
   -2138    10720    20761    20044     8446    -4554    -7418      872 
    8530     4352    -7195    -8527     9313    35695    55949    65419 
   67995    69624    66436    47838    17764    -7392   -16695   -10324 
    -174     2681     2145     2640      -16    -6570   -17909   -35966 
  -51406   -52459   -38600   -15192    12995    42163    68755    86482 
   86609    65743    30676    -7092   -38018   -57001   -63073   -54639 
  -30904     -888    23035    37268    42982    44428    47029    45720 
   30697     2452   -29088   -51715   -59485   -55683   -42394   -17011 
   17594    48122    60327    53654    40470    31653    28900    27913 
   25894    23438    17968     1829   -26670   -55937   -74474   -80323 
  -70048   -41604    -8938    10053    15565    20455    26045    19616 
   -2793   -27159   -35294   -25273   -13441    -7827     1314    18320 
   33872    37894    27936    10235    -8654   -28418   -45203   -50413 
  -45593   -37017   -19980     7803    32678    40166    26684      251 
  -22257   -31623   -32499   -27087   -11915    11761    37439    57146 
   66796    66860    55530    35271    19122    12964     5854    -9046 
  -23252   -30595   -34442   -35980   -33648   -29411   -26041   -25255 
  -26779   -24379   -12372     4291    15106    15666    11249     9171 
    8067     2091    -6354   -10673   -12073   -15377   -20571   -26077 
  -30126   -29485   -23711   -13180     3330    24036    45121    61107 
   64701    54317    34407    12097    -1501     -714     8691    22423 
   38431    47568    43912    30770    11024    -9591   -19584   -16005 
   -8035    -4125    -6262   -11826   -16560   -19637   -19403    -8576 
   13188    35185    48060    46823    31487    11188    -3375    -9174 
   -8136    -1706    11142    30283    47560    49515    31715     6597 
  -12329   -24077   -29427   -27935   -21733    -8689    10889    27623 
   34468    30384    19379     9354      419   -13111   -27599   -35162 
  -36497   -37423   -40259   -43353   -44559   -40733   -29419   -14561 
   -1547    10921    25394    38607    42331    30017     6543   -12978 
  -17363    -8905     1147     6079     8502    10551     9936     5599 
   -1317    -9301   -17852   -25718   -25816   -13694     2728    15276 
   24217    31465    33346    21868    -1877   -25628   -41798   -52968 
  -62476   -65890   -54654   -28745     2189    28480    42627    41513 
   30222    14420    -5591   -27491   -43239   -47592   -42415   -31187 
  -15583     5013    31052    57069    74067    77913    72337    63000 
   48577    24629    -5290   -31125   -43864   -40142   -24822    -5643 
   12499    26389    36356    44815    47144    36040    14694    -6277 
  -20167   -26076   -24621   -15256     2262    22854    36900    38959 
   30947    18913     7921    -2234   -12343   -18978   -17963    -7904 
    7109    19008    23930    24233    21636    14588     2543   -11011 
  -19369   -18655   -12140    -3755     6274    16201    20096    13242 
   -1556   -17714   -34379   -53303   -68204   -69400   -56562   -36911 
  -14308    12155    40961    64643    73110    62938    41374    12711 
  -24148   -58010   -73103   -67167   -43178    -5840    34812    69666 
   89262    86765    66995    38669     6073   -27847   -59169   -83178 
  -95617   -93085   -71856   -32665    13132    51883    79110    94662 
   96327    85240    67491    46344    21366    -4881   -27961   -44693 
  -51970   -49334   -39472   -25205   -10832    -1803     1969     6770 
   13462    14979     8573    -1618   -10959   -16787   -18239   -12795 
    2238    23122    41685    51618    51390    42832    27361     7056 
  -13558   -30284   -39480   -39714   -36597   -35869   -35610   -31122 
  -19449    -3354     9180    15558    19020    18858    10119    -8152 
  -26384   -31156   -20470    -2376    16719    33678    46947    54171 
   51088    38133    21374     6022    -4577   -11446   -19587   -27437 
  -29590   -28348   -28340   -28381   -26320   -23738   -21234   -15742 
   -6222     4490    14627    26561    42275    54978    53153    35495 
   12696    -7101   -24652   -40363   -49405   -46264   -31542   -14165 
    1233    19711    39730    50183    43912    23163       98   -12353 
  -14539   -14026   -13302   -11574    -8789    -5279     -972     4499 
   10235    13676    12548     6129    -4398   -14917   -19460   -15388 
   -7325    -2720    -3083    -3213     1462     9396    14054    11341 
    3929    -3674    -9514   -12623   -11627    -6374      554     6311 
   13032    24381    36555    42843    40398    27487     6237   -15728 
  -33698   -45711   -47463   -37859   -20395     1630    22677    35903 
   39386    34458    22395     7271    -4437    -9675    -9714    -5906 
    1155     8074     9373     2668   -10149   -23959   -32533   -32602 
  -25250   -14516    -4295     3543     7469     7133     7253    14627 
   28956    41773    45187    38303    24903     6565   -15981   -36748 
  -48124   -46471   -33204   -14744     2340    14775    19747    16561 
    8741    -1055   -11163   -16854   -13437    -1354    14612    29999 
   42466    49426    47968    38132    23053     5582   -11884   -24818 
  -28877   -23953   -12614     2176    17181    28922    33122    27175 
   14019    -1000   -14748   -24632   -27591   -21952    -7753    13281 
   36259    53041    56825    46167    25038     1148   -19295   -33343 
  -37585   -30601   -15236     4195    21535    30751    30649    23615 
   12561     -336   -13640   -24673   -30777   -32412   -31013   -26320 
  -17640    -5548     6872    14084    11800     1038   -12730   -22825 
  -24214   -16792    -4318    10651    25771    35351    35255    27072 
   13254    -4769   -24073   -40167   -46435   -39066   -25039   -14230 
   -7283      -74     7562    11124     7920     3210     2980     4914 
    4897     4576     7129    11542    14268    12873     6016    -5815 
  -17864   -22665   -16468    -2965    12264    28329    44783    54369 
   48262    27249     1517   -19442   -32179   -35387   -26694    -5672 
   21209    40761    42588    26275    -1275   -29913   -50375   -57828 
  -52959   -41555   -30173   -20791   -10323     3839    19217    31079 
   36887    37025    33964    30213    25597    17258     2370   -17672 
  -35773   -45412   -45484   -36761   -20864    -3059    11593    23089 
   32530    38479    38862    30694    10307   -21811   -57237   -81182 
  -81565   -57480   -16530    30740    71234    91589    87781    68683 
   44909    22576     7091     1691     5001    11975    15248    10403 
    -715   -13381   -23985   -31634   -36724   -39005   -37037   -29068 
  -14631     4581    22079    29394    26248    21525    22869    28298 
   29019    20675     7420    -5377   -15271   -20853   -19876    -9801 
    6875    21694    27364    23533    16495    10898     3364    -9541 
  -22796   -29161   -27226   -18824    -4703    13545    30393    38124 
   32649    18794     7456     4429     6561     8723     7106      118 
   -8565   -12374    -8166      186     5494     5817     4928     4619 
    2401    -3261   -10046   -15946   -22091   -29231   -34886   -34825 
  -28408   -20029   -11981    -2454     9695    24291    39121    49319 
   51753    46246    32715    12463    -9277   -25814   -33894   -34830 
  -31207   -24011   -12482     5061    28301    51300    65793    67857 
   58033    39680    18631     -166   -13479   -19298   -19529   -18284 
  -17032   -13409    -4225     9764    23306    29797    25008    10012 
  -10806   -32409   -48205   -52717   -45933   -31174   -11381    10785 
   31159    45409    53015    55858    54294    46572    31068     9755 
  -12536   -31615   -44336   -48651   -44811   -33993   -17697      328 
   15484    24000    21473     6685   -11882   -22619   -21999   -12048 
    5337    27468    50453    68395    73693    63005    40324    12746 
  -14886   -41000   -63354   -77365   -79921   -72238   -58255   -41157 
  -23210    -6235    10222    24750    31939    29980    21084     6428 
  -13167   -35461   -54221   -61191   -53244   -33172    -6457    20676 
   41885    51120    46191    30064     8031   -13387   -28382   -35768 
  -38223   -36641   -28719   -14025     4122    20839    31604    35783 
   35363    30375    21080     8424    -6898   -20131   -26794   -29061 
  -28570   -23018   -11570     3827    19830    34437    47621    57160 
   58928    52191    39457    22518     2610   -17150   -32001   -39031 
  -38047   -28617   -11084    11670    35802    55960    66363    64409 
   49875    24926    -3183   -26524   -42765   -50791   -46498   -28841 
   -3034    23341    43876    56999    65055    66206    54688    30203 
   -1845   -36072   -67385   -90198   -99435   -91135   -64864   -26460 
   15283    51987    76335    85068    78709    59854    30901    -5958 
  -41936   -67505   -81380   -82884   -70926   -48971   -20391    11128 
   37457    53495    63437    71325    74374    69697    56263    33660 
    7207   -15237   -30431   -37471   -37235   -31538   -19457    -1645 
   17791    35239    46467    46719    36070    19750     1034   -18701 
  -34253   -42745   -47112   -47042   -39282   -23989    -4239    15147 
   30550    40624    41790    31760    15570      735    -6912    -5316 
      28     3418     6565    11250    14030    11711     4457    -7172 
  -23467   -43514   -63155   -76231   -77851   -66387   -44726   -17921 
    8685    29701    42804    46587    39582    25340     7882   -11859 
  -29521   -39367   -39403   -29419   -12371     5498    19562    27754 
   29093    22798     9699    -5483   -17718   -25228   -27660   -25162 
  -18848    -9502     2342    13575    19618    19248    14126     6469 
      62    -1732      750     5078     9822    15766    24192    33361 
   38724    36435    25836    10187    -5756   -17887   -23375   -22779 
  -17946   -10254    -2127     5641    11659    11947     7067     1456 
   -2613    -3804     -573     7669    20671    36224    50448    60683 
   65803    64650    55552    37582    13190   -11611   -31152   -42676 
  -45202   -39672   -29023   -15506     -615    14087    27152    35966 
   38700    35487    25631     9386    -8996   -23881   -32057   -32683 
  -25783   -13000     2347    16622    26725    31217    29671    21732 
    8475    -7414   -21744   -29982   -31529   -28486   -21147   -10820 
   -1605     3406     4311     4318     6378    10050    13770    16235 
   15754    11510     3693    -6705   -16486   -22011   -23780   -24792 
  -23863   -17408    -5547     9525    24468    34827    39502    39071 
   31808    15927    -8109   -35526   -58530   -71869   -72349   -59003 
  -36277   -10871     9838    19584    17298     4957   -11954   -24595 
  -28822   -25587   -15795    -1467    12973    22281    22817    15479 
    4203    -7061   -14991   -19832   -24101   -26543   -23923   -14802 
     699    19183    34771    42928    40686    28154    11233    -2427 
   -9207    -9402    -4168     5151    14901    21213    24335    25635 
   25220    24617    24626    22883    18141    12182     7241     4660 
    4425     6089     9491    14013    18679    22859    26310    27923 
   26141    20220    10046    -2215   -13031   -20680   -23728   -20089 
   -9285     5764    19465    28274    32209    30966    24152    13223 
     332   -11106   -17174   -17055   -12953    -7599    -3416    -1880 
   -3503    -8627   -15936   -22242   -25423   -24410   -18273    -8001 
    3643    14300    22493    27180    27213    22102    13221     2101 
  -10195   -21138   -28690   -32904   -32243   -25308   -14798    -2859 
   10584    23386    31133    30107    19966     3510   -15284   -31557 
  -41638   -43916   -37879   -25050    -8263     9350    25008    37601 
   45821    47217    41449    29149     9063   -16402   -39305   -53489 
  -55138   -40984   -13070    21285    54334    78615    87666    79191 
   56612    27450    -2524   -29304   -46510   -52303   -50170   -40648 
  -24123    -3400    17361    31691    35969    31769    21455     8253 
   -3423   -10655   -12073    -7628      519     9235    16420    20827 
   21431    18589    13493     6407    -1927   -10012   -17089   -22377 
  -25231   -25712   -24116   -21305   -17740   -13649   -10176    -7473 
   -4714    -2142     -896    -1497    -3041    -3838    -2254     1933 
    7530    13273    18161    22111    24301    22177    15732     6930 
   -4159   -16542   -27517   -35905   -41019   -42075   -38927   -31241 
  -20460    -9877    -1011     6465    12962    18566    22697    24329 
   23754    22869    22594    22453    22704    23457    22867    19620 
   14571     8437     2199    -1599    -2073     -923      -17    -1027 
   -3550    -4959    -4108    -1040     4261    10909    16988    19940 
   18412    14000     9892     7959     7186     5871     3793      985 
   -1387     -897     2066     5343     7553     6914     3063    -3095 
  -10820   -17878   -22748   -24736   -22118   -15565    -7159     2583 
   11357    15026    12113     3603    -8009   -17849   -21913   -18732 
   -8313     6052    19773    30191    34971    31996    21663     6925 
   -8984   -23256   -33361   -38334   -38047   -31739   -19653    -4040 
   11709    23398    27230    22461    11553    -1976   -13967   -20101 
  -17983    -8278     5433    18574    28063    32328    30942    25402 
   18003    10139     3024    -1633    -3350    -3792    -4891    -7551 
  -10720   -10944    -5674     4047    15300    25840    33597    35417 
   29276    16086    -1250   -18804   -33046   -41909   -44907   -42507 
  -34666   -22785   -11481    -3657     1615     5652     9620    13497 
   15859    17408    19342    20760    21308    21409    20148    16038 
    8540    -1516   -12220   -21682   -28217   -29317   -22677    -9313 
    5526    16888    23581    24402    17412     4286   -10863   -24071 
  -31918   -33008   -27184   -15102      216    14940    26252    32224 
   31846    25459    15492     4997    -4344   -11508   -15664   -15816 
  -10382      265    12912    24586    33497    37786    36158    29301 
   19336     8561    -1383    -9802   -14912   -13948    -6678     4681 
   17035    26388    29787    27309    20916    12235     1779    -9799 
  -20714   -29123   -33920   -33947   -28034   -16262     -457    16401 
   30198    36651    34464    25817    13416     -599   -14026   -25236 
  -33802   -39349   -40182   -34503   -22951    -8491     6021    19199 
   30635    39704    44589    42952    33231    15500    -6795   -27980 
  -44375   -54058   -55224   -48232   -35505   -19804    -4309     8116 
