Origin Time       2025/01/13 21:19:00
Lat.              31.8
Long.             131.6
Depth. (km)       30
Mag.              6.9
Station Code      MYZ011
Station Lat.      31.9951
Station Long.     131.2559
Station Height(m) 24
Record Time       2025/01/13 21:19:40
Sampling Freq(Hz) 100Hz
Duration Time(s)  128
Dir.              E-W
Scale Factor      7845(gal)/8223790
Max. Acc. (gal)   51.841
Last Correction   2025/01/13 21:19:39
Memo.             
[...]
    3281     3279     3272     3272     3281     3280     3273     3277 
    3277     3272     3275     3277     3275     3279     3281     3276 
    3271     3272     3276     3277     3276     3276     3277     3276 
    3277     3277     3272     3272     3276     3280     3280     3276 
    3272     3277     3283     3275     3272     3280     3279     3273 
    3276     3276     3276     3277     3275     3276     3275     3272 
    3277     3280     3271     3273     3281     3276     3273     3277 
    3276     3280     3281     3275     3279     3279     3275     3280 
    3277     3272     3279     3279     3273     3273     3275     3276 
    3276     3279     3280     3276     3279     3280     3272     3273 
    3276     3275     3279     3277     3275     3276     3273     3275 
    3280     3277     3276     3277     3276     3275     3276     3276 
    3277     3277     3273     3271     3276     3279     3279     3277 
    3275     3277     3279     3275     3273     3276     3275     3275 
    3281     3279     3275     3279     3277     3273     3277     3279 
    3271     3271     3279     3280     3276     3277     3280     3276 
    3271     3275     3283     3277     3275     3283     3277     3267 
    3273     3281     3276     3276     3277     3276     3276     3275 
    3277     3277     3269     3269     3276     3279     3280     3275 
    3267     3276     3283     3272     3277     3284     3269     3269 
    3279     3272     3272     3279     3277     3276     3275     3273 
    3276     3276     3276     3276     3275     3275     3277     3279 
    3275     3272     3276     3280     3279     3276     3275     3272 
    3275     3277     3277     3277     3273     3273     3277     3272 
    3271     3280     3277     3275     3279     3273     3269     3277 
    3279     3273     3273     3273     3276     3281     3277     3275 
    3277     3275     3273     3277     3280     3275     3271     3276 
    3276     3273     3276     3277     3275     3273     3276     3277 
    3275     3275     3277     3280     3279     3275     3273     3275 
    3276     3279     3279     3276     3275     3277     3280     3276 
    3279     3285     3284     3284     3291     3299     3314     3338 
    3357     3368     3372     3370     3364     3360     3403     3520 
    3654     3707     3631     3480     3364     3370     3483     3589 
    3608     3539     3420     3346     3397     3484     3503     3518 
    3565     3559     3483     3418     3446     3578     3734     3753 
    3589     3446     3524     3723     3778     3586     3195     2789 
    2704     3049     3408     3345     2953     2604     2450     2512 
    2817     3126     3065     2712     2539     2691     2859     2810 
    2594     2419     2559     3036     3546     3781     3539     3092 
    3242     3951     4228     4020     3913     3599     3102     3298 
    3909     4032     3977     4094     3916     3492     3407     3653 
    3848     3998     4035     3731     3763     4673     5375     5313 
    5312     5092     4226     4032     4770     4980     4773     5157 
    5678     5791     5684     5266     4680     4788     5576     5537 
    4213     3408     4032     4626     4357     4018     4077     4267 
    4607     5574     6566     5691     3391     2762     4162     5023 
    4959     5017     4390     2673     1728     2749     4282     3788 
     652    -2388    -2058     1302     4194     4410     2778      436 
   -1707    -1458     1285     2677     1039     -893    -1158      292 
    3196     5887     6727     6046     4213     2182     2412     4634 
    5863     5242     3458     1606     1764     3396     3825     3059 
    1598     -537     -423     2768     4228     1902     -820    -1629 
    -681      918     1794     2276     3210     3661     2953     2211 
    2685     4018     4311     2766     1081      824     1979     3523 
    3385     1009     -202     2600     6839     7838     4603      -28 
   -2905    -2269     1830     6739     8923     7395     3986     1593 
    2496     5760     7834     7326     5846     5071     5764     7167 
    7663     7484     7495     6620     4425     2994     3828     5640 
    6397     6280     6812     7693     7601     6875     6129     4826 
    2867      652    -1108     -627     2533     6042     7982     8116 
    6768     4992     3684     2801     2285     1779      918      820 
    2650     5328     6203     3971      832     -368       10      808 
    1945     1861     -629    -3045    -2547      722     4677     6520 
    4349     -346    -3373    -2254     1235     4091     5269     4681 
    2899     1736     1745     2349     4044     5888     5787     4368 
    2425     -139     -170     4206     8201     8259     6532     4380 
    2091     2336     6204    10351    11047     8230     5175     4993 
    7587    10147    10130     7071     2636     -372     -430     1682 
    4452     6012     4811     2123      645      862     1745     2535 
    2984     3511     3908     3478     3145     3750     4118     3198 
    1135    -1042    -1614     -540      174     -166    -1301    -3553 
   -4988    -3096      176     1969     2515     2104      795      220 
    1611     4321     6130     4687      946    -1127       17     1984 
    2424     1193     -364       83     4113     9857    13666    13894 
   10960     6798     4423     4486     5178     6318     8105     9005 
    8904     8660     7786     6990     6446     3276    -1512    -2019 
    2199     5718     6147     4677     2656     2253     5231     9733 
   11857    10296     7106     4818     4907     7219     9126     7878 
    3900     -668    -4239    -5235    -2976      426     2174     2316 
    2708     3901     5316     6021     4791     2277     1224     2959 
    6596    10180    10773     6914     1387    -1075     1078     4590 
    5491     3281      481      315     3955     8548     9672     6149 
     940    -2473    -2940    -1278      951     2455     2313     -271 
   -4014    -5221    -2370     1507     2720      850    -1894    -3306 
   -2313     1390     6759     9933     7862     4317     5220     9227 
   11249     9894     5871     2193     3952     9325    10836     7821 
    4669     1987      -68      696     2924     3169     1362     -460 
     -17     3045     4918     3115     -268    -4216    -8679   -10164 
   -6332     -318     3870     4714     2905     1275     2284     5200 
    7645     8398     7788     7518     9668    13360    14771    12280 
    7862     3809     1705     2019     2767     1915      649     1148 
    2864     3538     2423      594     -707     -471     1518     3666 
    4236     3997     5424     9263    12748    12198     7659     2899 
     135    -1090     -117     3235     5336     3470      267    -1294 
   -2447    -4486    -5644    -4949    -3782    -3083    -2926    -2533 
     -71     3456     4230     3262     4869     7349     6831     5390 
    5674     6249     6574     7785     9355    10192    10304    10029 
    9306     7731     5277     2270    -1248    -4854    -7415    -8035 
   -6723    -4444    -2192     -554     -149     -168     1590     4342 
    4653     2097    -1684    -5489    -6235    -2872      -81     -313 
    -869     -338     1317     3935     4742     3283     4430     9432 
   14118    17389    19804    18530    12799     7083     5007     6099 
    8133     9512    10085    10179     9759     8864     7411     5433 
    3649     2336     1695     3389     7551    10474     9325     5073 
    -402    -5313    -7626    -7271    -5718    -3042      595     3084 
    3412     2428      279    -2282    -2698     -386     1929     2228 
    1485     1802     4070     6756     6616     2874     -599     -584 
    1850     4548     5725     3977       64    -3834    -5925    -5248 
   -3180    -2635    -3954    -4783    -3635     -457     3882     7079 
    7647     7095     7593     9809    13111    15650    16240    16421 
   17570    18650    18469    15504     7867    -1594    -6367    -5355 
   -3264    -3136    -5460    -9620   -12237   -10469    -6656    -4800 
   -5115    -5059    -4078    -4257    -5497    -4579     -670     3584 
    6493     8337    10245    13832    18342    19893    16501    10197 
    3912     -151     -658     1368     3044     3546     4293     5050 
    5228     5823     5827     3300      214     -384     1775     5827 
    9657    10432     8837     7962     8272     8047     6589     5012 
    4904     6165     6917     6301     5678     6381     7642     7375 
    4995     2193      546      602     1995     2647      859    -1954 
   -3577    -3896    -3650    -3069    -2737    -3667    -6258    -9398 
  -10698    -8904    -5294    -1844      452     1740     2990     5000 
    7919    11755    16170    20001    22017    21909    20903    20947 
   21853    21135    17983    14031     9949     5368     1962     1877 
    3422     3538     2643     2265     2394     3742     6733     8567 
    6624     2462     -734    -1309      504     2394     1888     -525 
   -1917      -67     4332     8865    12621    16035    18751    20511 
   21775    22100    20501    17146    13198     9805     7296     4777 
    1224    -3222    -7730   -11746   -15039   -17477   -19562   -22177 
  -24345   -23492   -19462   -15349   -13770   -14250   -13751    -9505 
   -1879     6760    14998    21667    24744    23377    18207    10035 
     980    -5856    -9871   -12667   -14623   -15681   -16783   -17772 
  -18007   -17712   -15433    -9860    -3906     -677      243     -882 
   -4544    -8706   -11396   -13030   -12837   -10106    -7950    -8810 
  -10747   -11990   -13166   -14104   -13616   -11499    -8055    -3395 
    2386     9620    18647    27666    32289    29602    21298    11516 
    4621     4268    10056    16995    21138    22025    19715    14465 
    7782     1539    -2060    -1755      345     1221      417    -1402 
   -3331    -3451    -1355      548      257    -1493    -2529    -2037 
   -1590    -2883    -5931    -9397   -10457    -5999     4421    17451 
   27371    30052    26253    19822    14177    10323     6899     3955 
    4450     9042    14274    17755    19900    21539    22593    21132 
   15820    10158     9019    12306    16426    19179    20308    19623 
   17837    17344    18744    20059    21104    23193    25012    24584 
   23215    22809    23117    23715    23449    19965    14280    10678 
   10250     9894     7387     3298    -1405    -6079    -9906   -13678 
  -18604   -22601   -23159   -21745   -20105   -16564   -10180    -3264 
    2199     5724     6485     4441     2255     2870     5367     5547 
    1264    -4459    -7855    -9242   -10091   -10203    -9931   -10226 
  -10962   -11273    -9707    -5775    -2558    -3322    -6322    -8105 
   -9030   -11169   -14489   -17491   -18920   -18426   -16121   -11183 
   -4172     -365    -4504   -13795   -21432   -24008   -22449   -19435 
  -17810   -18584   -19928   -19904   -18196   -14655   -10632    -9821 
  -12707   -14762   -12988    -8681    -3527     2141     7649    12002 
   15070    16757    16765    15990    15704    15854    16069    16783 
   18414    20395    21574    21537    20691    19425    18636    19542 
   21926    24587    26948    28178    26854    23537    20641    18673 
   16217    12830     8775     4302      757     -411     1059     4842 
    8818     9123     5190     1462     1371     3600     5908     8120 
   10385    12051    13051    15237    20268    26037    28686    27641 
   25408    24035    23552    23005    22234    21146    18339    13443 
    8565     5395     3877     3217     1962     -741    -3713    -6124 
   -9227   -13248   -15741   -14704   -10544    -4236     3654    10952 
   13860    11615     8432     8244    11003    15529    21309    27098 
   31222    32562    30669    26438    21401    16174    11718     9953 
   10991    11969     9541     3028    -5206   -12324   -17139   -20717 
  -25240   -31172   -36775   -41176   -44952   -46909   -44716   -39514 
  -35109   -32518   -29455   -24286   -17061    -8785    -1844     2079 
    4396     6747     8145     7481     5146     1448    -3051    -6161 
   -5255      271     8306    15866    21286    24741    26929    27749 
   26819    24283    20493    15492     9359     3165    -1939    -6536 
  -11778   -17809   -25127   -34414   -43582   -49098   -50145   -47682 
  -41542   -32120   -22454   -15184   -10281    -7137    -4463      248 
    6897    11998    13165    10867     7068     3836     1899     1227 
    1853     1972     -778    -4315    -3559     3105    12556    20302 
   24132    25338    25259    23704    22457    24267    27475    28163 
   26836    27078    30153    34969    39289    39796    35074    26974 
   17236     6474    -3153    -9007   -11792   -13860   -15812   -18063 
  -20761   -21555   -18388   -12672    -7327    -3858    -1467     1902 
    6913    12008    15785    17753    17713    17181    18161    19931 
   21224    22405    22661    20544    17583    16339    16735    17057 
   15974    13365    10619     8916     7777     7094     7469     7807 
    7379     7607     7798     5555     2266      739      -52    -1663 
   -1998     1479     7909    14112    17470    16915    12137     3817 
   -5710   -14797   -23697   -31639   -36736   -38911   -39779   -40849 
  -41898   -40765   -35761   -26408   -13001     1809    14346    23252 
   28850    32200    34720    36127    35962    36351    39117    43565 
   48644    53357    56539    57620    55521    49837    43200    36682 
   27352    15522     5313    -3512   -13336   -21598   -25783   -28804 
  -32946   -36166   -37048   -36201   -33070   -27480   -22214   -19260 
  -16714   -12772    -8471    -4777    -1399     1995     5483     8077 
    9063    10378    13680    17763    21296    23706    24815    26241 
   28001    26034    18638     9382     1543    -3802    -5757    -5065 
   -4926    -7387   -10899   -12610   -12012   -10397    -7893    -6023 
   -8006   -10903    -9040    -5258    -4591    -5324    -5501    -6147 
   -7052    -7588    -7357    -4962    -1576     -638    -1233       10 
    2149     2443     1445     1042     1165      839      849     3692 
    9774    15583    17859    17234    17527    21767    28012    31313 
   29794    25824    21470    16850    13324    12523    12460     9956 
    5424     1239    -2083    -4332    -4425    -2848     -106     3989 
    6407     4733     2980     4371     5869     5364     3526     -496 
   -6134    -9860   -10080    -7894    -4599    -1983    -1918    -3666 
   -4252    -2142     1674     5530     7827     6748     1595    -4126 
   -4225     1603     5871     3781    -1331    -4816    -5923    -6123 
   -6808    -7977    -8698    -8613    -7236    -3642     2091     8287 
   12059    11408     7483     2558    -2525    -5683    -3280     3678 
    9227     9992     8016     6135     4280     1595     -920    -1746 
    -137     3435     6852     8565     8490     6475     4230     4708 
    6419     6326     7345    13597    22866    30141    31982    26573 
   16201     6111    -1696    -8062   -13078   -16768   -18189   -15025 
   -8618    -4850    -6725   -10636   -11407    -6933     1390     9479 
   13132    10864     4488    -1561    -2436     3638    13443    21400 
   24501    22982    17844    11210     7481     9494    14111    15967 
   13478     7979     1502    -3813    -7950   -12145   -16237   -20478 
  -25462   -28854   -27965   -24667   -23112   -23834   -23160   -17972 
   -8784     1892    11878    19862    25502    29215    32197    35706 
   39329    42438    45206    46117    43931    40671    37909    34993 
   31634    26661    17911     6933    -1975    -7051    -8989    -8662 
   -7164    -6332    -8185   -13406   -21116   -29570   -35860   -37172 
  -33704   -28741   -25834   -25640   -25227   -21834   -15720    -7902 
    1181     9553    14156    14270    12276    11203    12696    16526 
   21419    26260    29462    28884    25034    21690    21433    22995 
   22520    16956     7776      190    -2358     -683     3028     6519 
    6781     3014    -1732    -4353    -4243    -3404    -5401   -10885 
  -15989   -18048   -18485   -18499   -17726   -16816   -15703   -12189 
   -6253    -1217     1298     2934     5009     7277     9113     9784 
    9667    11202    15481    19427    19541    15961    11045     6783 
    3632      468    -3327    -6278    -6700    -4606     -675     3894 
    6443     5629     3446     2072     2376     5398    11387    18601 
   24956    29833    33351    34250    31199    26225    22160    18596 
   15583    15472    16987    15142     8793     1675    -3522    -6783 
   -8496    -9551   -10689   -10687    -8376    -5212    -3956    -5707 
   -8873   -11252   -11809   -10296    -7177    -2974     2431     7734 
   10295    10103     9701     9830     8993     6369     2575     -283 
     815     6077    10874    11098     8280     4591     -940    -6831 
   -9589   -10166   -11866   -14667   -15951   -14440   -11389    -8491 
   -5441    -1586     1432     2444     2461     1725      -25    -1622 
   -1830      -56     4549    11362    17377    20493    20551    17325 
   11105     4295      450      907     2990     3707     3755     5016 
    7030     8785    10152    10238     8888     8148     8183     6318 
    2118    -2205    -5927    -9810   -13540   -15450   -14638   -12421 
  -10188    -6997    -1509     5462    12071    16918    18867    17612 
   14256    10511     7925     7487     8703     9578     8522     5325 
     832    -2893    -4639    -6335   -10084   -14724   -17817   -18169 
  -15026    -8522    -1038     4932     9001    12136    15361    19003 
   22962    27796    33238    35910    32822    26076    20390    17878 
   17026    14926     9837     2659    -4149    -9151   -12286   -13270 
  -11700    -8969    -8062   -10233   -12843   -12121    -7778    -2845 
    -325    -1312    -3909    -4881    -4179    -4449    -5675    -5401 
   -3532    -1009     3515     9493    12144     9482     5260     3052 
    3763     7177    11738    15950    19510    21115    19369    15670 
   12310    10405    10654    11924    11160     7727     4274     3275 
    5440     9288    11524    10153     6669     4318     4063     3306 
     112    -4359    -8737   -11990   -12507   -10754    -9486   -10301 
  -12856   -15970   -18808   -21671   -24399   -24788   -20690   -13486 
   -7528    -5143    -4230    -1881     2396     8495    16596    24300 
   28302    29043    28200    25258    20587    16862    15547    15468 
   14983    13556    12002    12035    14087    16228    16403    14368 
   11307     8536     6478     4966     4141     4160     4039     2084 
   -1701    -5235    -7250    -8233    -8058    -5761    -1347     4401 
   10177    14251    16282    16301    12621     5471     -900    -3846 
   -5236    -6768    -7229    -5487    -2795     -989     -229     -359 
   -2709    -7651   -12259   -13393   -11145    -7719    -5763    -7607 
  -12388   -15444   -13778    -8907    -3188     1721     4407     6242 
   10547    17010    21799    23310    22615    20185    16328    12260 
    9424     9023    11061    14096    16734    18442    18793    16757 
   11052     2172    -6293   -10979   -12444   -13090   -13510   -12825 
  -10897    -8899    -7750    -6651    -4511    -1779     1075     4201 
