Origin Time       2025/01/13 21:19:00
Lat.              31.8
Long.             131.6
Depth. (km)       30
Mag.              6.9
Station Code      MYZ017
Station Lat.      31.4639
Station Long.     131.2281
Station Height(m) 9
Record Time       2025/01/13 21:19:42
Sampling Freq(Hz) 100Hz
Duration Time(s)  139
Dir.              E-W
Scale Factor      7845(gal)/8223790
Max. Acc. (gal)   55.307
Last Correction   2025/01/13 21:19:43
Memo.             
[...]
  -28410   -30322   -30171   -28641   -26428   -23217   -18993   -14578 
  -10233    -4914     2326    10890    19739    28590    36686    42871 
   46943    48868    48298    45701    42337    38881    35133    31360 
   28274    25633    22860    20340    18619    17521    16591    15630 
   14303    11650     7285     2018    -3461    -8989   -14539   -19894 
  -24367   -27723   -30724   -34110   -37912   -41690   -44790   -46228 
  -45045   -41574   -37204   -32447   -26881   -20617   -14148    -7452 
     -56     8599    18634    29116    38732    46915    53520    58221 
   60849    61852    62068    61948    61160    59404    57029    54283 
   50905    46754    41854    36144    29739    23029    16510    10312 
    3716    -4000   -12340   -20232   -27000   -32256   -35907   -37864 
  -37687   -35542   -32713   -30450   -28719   -26673   -24467   -22720 
  -20887   -18400   -15523   -13089   -11651   -10068    -7562    -5344 
   -3645    -1532      735     2656     4279     5579     7007     9178 
   12201    16116    20553    24475    27160    28752    29602    29685 
   28944    27276    24738    22346    20529    17903    14087    10631 
    8233     6578     5629     4999     4190     3466     3264     3708 
    4540     5346     6224     7587     9616    12249    15309    18318 
   20398    21030    20364    18528    15589    11622     6825     2475 
     469     1012     2037     2124     2648     4499     5593     5101 
    4742     4137     1875     -581    -1557    -1615    -1236      -48 
    1799     3624     4831     4973     3662      950    -2216    -5170 
   -8113   -10377   -10831    -9672    -7850    -6102    -4407    -2481 
    -621     1271     3136     3532     1752    -1314    -5134    -9842 
  -15156   -19943   -22897   -23384   -21628   -18778   -15647   -11770 
   -7453    -3929    -1105     1671     4149     5961     7157     7950 
    8235     8000     8388    10038    12395    15657    19637    23317 
   26507    28664    28786    27124    24586    21716    19076    17409 
   16731    16087    14573    11939     8496     4677      706    -2999 
   -5956    -8268    -9927   -10467   -10288   -10224   -10069    -9544 
   -9285    -9489    -9089    -7662    -6226    -4550    -1242     2839 
    5795     8240    11411    14111    14577    13066    11017     8992 
    6527     3511       59    -3925    -7724   -10318   -11696   -12075 
  -11284    -9613    -8112    -7483    -7119    -6426    -6345    -7639 
   -9207   -10087   -10588   -10381    -8464    -5062    -1615      939 
    2708     3711     4036     4542     5624     6971     8795    11241 
   13745    16038    18094    19819    21737    23885    25018    25019 
   25235    25591    24660    22634    21026    19899    18418    16879 
   16328    17464    19982    22860    25088    25848    24813    21752 
   16397     9613     2801    -3311    -8043   -11056   -13342   -16051 
  -19001   -21583   -23912   -26046   -27614   -28321   -27471   -24381 
  -19738   -14455    -8515    -2265     3339     7599    10334    12440 
   15302    18863    21975    24125    25110    24459    22265    19692 
   18473    19650    22805    26848    31272    35895    39287    40104 
   39208    37107    33084    27999    23097    18237    13039     7018 
     253    -6111   -11550   -16294   -20200   -22815   -23885   -23558 
  -22204   -20598   -19832   -20205   -20810   -20692   -19538   -17354 
  -14719   -12536   -10600    -7773    -3511     1350     5238     7703 
    9699    11747    13460    14701    15742    16467    16297    14590 
   11335     7830     5672     5425     6885     9418    11938    13194 
   12117     8349     2284    -5022   -11672   -15975   -17485   -16208 
  -12245    -7531    -5265    -5803    -7265    -9393   -11871   -12673 
  -10802    -6986    -2091     3018     7335    10957    14997    19263 
   22778    25917    29276    32259    34207    35418    35969    35110 
   32836    30150    28339    28532    30173    31272    30890    29128 
   25756    20858    14871     7692      -91    -7024   -12818   -18188 
  -23453   -28081   -31117   -32856   -34846   -37791   -40811   -42056 
  -39933   -34780   -28641   -22670   -16228    -8945    -1587     5258 
   11826    18076    22933    25397    25339    23755    22909    23938 
   25581    26698    27274    27333    26781    25446    23117    19731 
   15674    11885     8919     6853     6025     6709     8486     9988 
    9602     7015     3321     -207    -2970    -5306    -7778   -10323 
  -13227   -17447   -22955   -28867   -34581   -39370   -42271   -42681 
  -40340   -35085   -27056   -17100    -6691     2770    10678    16787 
   20719    22870    24030    23847    21822    18445    14308    10249 
    7651     7206     8820    12393    16929    19946    19823    18613 
   19423    22210    26199    31658    37238    41534    44347    44396 
   40400    32660    22319    11080      730    -7443   -12420   -13836 
  -12997   -11438    -8816    -5046    -1946     -135     1472     2235 
     657    -2301    -4780    -6617    -8077    -8847    -8955    -8712 
   -7998    -6053    -2377     1956     5319     7365     7982     6566 
    3798     1474      577      826      981      433      252      982 
    2115     3696     5274     5818     5641     5667     6134     7265 
    8706     8780     6848     4256     1686    -1154    -4194    -7470 
  -10917   -14165   -17151   -19323   -19377   -16491   -10504    -1555 
    8978    18732    26607    32206    34506    33640    30755    26191 
   20517    15290    11676     9617     8405     7462     6242     4206 
    1826      170     -562     -773     -540      406     2249     4718 
    6833     7635     7543     7603     7819     7264     4999      851 
   -4182    -8583   -11658   -14127   -16856   -19232   -19800   -18022 
  -14458    -9780    -4406      919     5201     8476    11873    16048 
   20652    25355    29898    33177    34153    33176    31326    29301 
   27066    24470    21851    19213    16193    13197    10478     7125 
    2488    -3002    -8608   -13683   -17810   -21250   -24363   -26396 
  -26531   -25458   -24185   -22765   -20972   -18933   -17120   -16078 
  -15705   -15287   -14218   -12012    -8800    -5703    -3345    -1198 
    1285     4004     6349     7815     8861    10509    12818    15018 
   17055    19585    22539    24857    25984    26136    25049    22739 
   20637    20038    20484    20611    19977    18931    17342    15403 
   13926    12680    11190    10046     9432     8838     8314     8040 
    7659     6813     5680     4845     4874     5799     6988     7906 
    8232     7615     6384     5235     4039     2378      638     -450 
    -565       74      665      573      175     -326    -1576    -3311 
   -4388    -4429    -3376    -1113     2004     5552     9373    13419 
   17343    20275    21536    21116    19495    17244    14474    11013 
    6929     2851      -87    -1683    -3163    -5324    -8000   -10851 
  -13258   -14615   -14850   -14234   -13093   -11538    -9526    -7246 
   -5104    -3549    -2886    -2886    -2957    -2992    -3391    -4178 
   -4873    -5421    -6247    -7060    -6928    -5701    -3997    -1980 
     639     3523     5597     6216     5917     5713     6054     7049 
    9024    11946    15261    18547    21078    21509    19151    14485 
    8129      692    -6786   -13486   -19014   -22658   -23507   -21290 
  -16600   -10235    -2637     5518    12930    18543    22075    23654 
   23701    22500    20056    17170    15138    14050    13117    12085 
   11067     9921     8448     6669     4716     2778     1252     1084 
    3169     7263    12461    17736    21721    23592    23526    21888 
   18777    14152     8591     3676      685     -442     -471     -182 
    -255    -1062    -2735    -4976    -6952    -8159    -8819    -9234 
   -9273    -8596    -7175    -4963    -1624     2814     8037    13537 
   18160    21003    22289    22432    21358    19178    16632    14265 
   11836     9182     6646     4328     2096       74    -1753    -3946 
   -6878   -10018   -12398   -13409   -12761   -10523    -7317    -3974 
   -1444       -1     1389     2849     3073     2045      403    -1975 
   -4455    -5790    -5478    -3861    -1669      831     3766     6845 
    9316    10579    10951    11130    11133    10789    10494    10655 
   10999    10983    10505     9598     7933     5433     2546     -461 
   -3439    -5935    -7504    -7904    -6921    -4503    -1058     2511 
    5212     6845     7909     8386     7997     7051     5972     4945 
    4059     3500     3639     4872     7627    11685    15564    18323 
   20648    22473    22644    21243    18782    15372    11989     9370 
    7294     6046     6130     7558    10187    13613    16964    19365 
   20682    21123    20578    19178    17298    14835    11439     6947 
    1304    -5273   -12178   -19002   -25423   -30732   -34619   -37195 
  -38242   -37554   -35387   -32297   -28553   -24096   -19380   -15215 
  -11739    -8714    -6127    -3885    -1811      333     3127     6994 
   11654    16538    21250    25479    29011    31769    33632    34350 
   33744    31923    29427    27175    25843    25336    25224    25158 
   24549    22561    19268    15774    12448     8827     4815      643 
   -3322    -6801    -9786   -12172   -13548   -13625   -12644   -11294 
  -10431   -10451   -10926   -11277   -11083   -10242    -9362    -8468 
   -6895    -5555    -5602    -6130    -6629    -7749    -8992    -9470 
   -8908    -6879    -3322      892     4774     8212    11780    15638 
   19561    23445    27076    30036    32034    33473    34931    36000 
   36034    34898    32217    27495    20927    13535     6448       99 
   -5348    -9447   -11938   -13192   -13834   -14037   -13849   -13815 
  -14176   -14208   -13281   -11561    -9088    -5602    -1393     2751 
    5933     7449     7292     5972     4137     2721     2496     3073 
    3541     4450     7218    11398    15338    18381    20159    20405 
   19935    19549    18929    17208    14031    10196     6544     3126 
     257    -1185     -795      854     2795     4213     4326     2806 
      24    -3699    -7890   -11462   -13451   -13360   -10970    -6556 
    -913     4855     9709    13455    16267    17737    17903    17582 
   16989    16114    15380    14831    14281    13956    14148    14415 
   13636    11464     8360     4104    -1586    -7962   -14229   -20378 
  -26532   -32239   -36771   -39843   -41493   -41690   -40454   -37991 
  -34978   -32150   -29278   -25879   -22149   -18168   -14071   -10373 
   -6696    -2539     1367     4946     9315    14585    19989    25359 
   30762    35723    39594    42144    43401    43594    43294    42843 
   42217    41524    40799    39425    36429    31357    24395    16243 
    8469     2664    -1005    -2943    -2656      128     4255     8267 
   11425    13332    13703    12965    12472    12858    13394    13683 
   13599    12537    10682     8978     8125     8532     9784    10898 
   11630    12056    11657    10025     7364     3835     -383    -4827 
   -9379   -14041   -18368   -22181   -25856   -29548   -32841   -34866 
  -34754   -32374   -28399   -23693   -18787   -13695    -8552    -4237 
   -1599     -432       85      108     -616    -1526    -1887    -1466 
     193     3535     8482    14308    19485    22985    25158    26419 
   26809    26828    26994    27163    27336    27915    28782    29592 
   30404    31070    31028    29832    27270    23141    17309    10241 
    3060    -3473    -9553   -15441   -20390   -23575   -25470   -26527 
  -26509   -25971   -25799   -26262   -27183   -27924   -27799   -26279 
  -23001   -18179   -12256    -5871     -205     4016     7003     9238 
   11277    13570    16395    19888    23565    26715    29130    30835 
   31754    31777    31052    29971    28602    26802    24549    21783 
   18338    13995     8973     4060     -426    -4685    -8517   -11709 
  -14539   -17224   -19488   -21008   -21755   -21527   -19944   -17019 
  -12754    -7028     -442     6484    13948    21259    26990    30663 
   32702    33740    34225    34136    33407    32211    30038    26002 
   20412    14305     8750     4696     2289     1655     2987     5285 
    7419     9174    10188     9580     6768     2077    -3558    -9242 
  -14022   -17104   -18397   -18110   -16391   -13436    -9454    -5144 
   -1831     -457     -927    -2621    -5283    -8997   -13446   -17751 
  -20903   -22177   -21382   -19059   -16228   -13360   -10177    -6822 
   -4213    -3234    -4225    -6810    -9917   -12488   -14019   -14200 
  -12637    -9139    -4085     1944     8820    16316    23602    30086 
   35514    39488    42249    44856    47672    49945    51162    51486 
   50706    48243    44466    40342    36262    32267    28188    23531 
   17973    11264     3384    -4772   -11931   -17397   -21350   -24420 
  -26887   -28756   -30052   -30940   -31893   -33037   -33998   -34484 
  -34194   -33041   -31201   -28345   -23963   -18253   -11593    -3601 
    6033    16251    25569    33284    39023    42510    43947    43893 
   42932    41758    40950    40313    39249    37153    33124    26762 
   18370     8742     -336    -7411   -12267   -14685   -14844   -13898 
  -12881   -12382   -12495   -13107   -14658   -17429   -20754   -23749 
  -25829   -26900   -27276   -27055   -26152   -24449   -21540   -17059 
  -10704    -2565     6535    16355    27122    38092    47999    55750 
   60558    62073    60145    54945    46828    36640    26430    17423 
    9124     1842    -3680    -7653   -10253   -11846   -13246   -14666 
  -15911   -17159   -18716   -20472   -22107   -23259   -23747   -24160 
  -25123   -26296   -27238   -27986   -28308   -27604   -25493   -22195 
  -18397   -14223    -9016    -2875     3148     8406    12865    16842 
   20584    23596    25593    27280    28607    28339    26408    24262 
   22717    21639    21432    23044    26446    30761    35748    41416 
   46746    50664    53041    53769    52789    50687    47591    42653 
   35831    28416    21199    14350     7913     1556    -4704   -10967 
  -17512   -23310   -27168   -29041   -29168   -27949   -25860   -23352 
  -21579   -21702   -23884   -27693   -32184   -36279   -39270   -40525 
  -39752   -36960   -32582   -27774   -22549   -16267   -10584    -6658 
   -2625     2446     7705    13023    18261    22627    25520    26823 
   27202    27232    26164    23633    20756    17818    14409    11705 
   10874    11183    11699    12451    13482    14601    15823    16972 
   17637    17856    18103    18692    19483    20038    19908    18787 
   16823    14732    12853    10886     8942     7109     5165     3338 
    1401    -1115    -3717    -6006    -8172   -10282   -12106   -13200 
  -13510   -13467   -13231   -13178   -14273   -16746   -19761   -22966 
  -26561   -29924   -32174   -33328   -33567   -32323   -28914   -23437 
  -16371    -8062     1189    10778    19350    25856    30545    33732 
   35090    34495    32617    30812    30265    30858    31623    32082 
   32096    31479    30619    30330    30834    31652    32298    32476 
   32162    31536    30184    27556    24190    20655    16617    12118 
    8029     4677     1497    -1686    -4696    -8229   -13144   -18944 
  -24621   -29916   -34659   -38389   -40743   -41492   -40522   -37789 
  -33362   -27865   -22513   -18084   -14134   -10022    -6118    -3080 
    -961      386     1102     1588     2394     3778     5755     8343 
   11307    14399    17381    19469    20322    20706    21035    21000 
   20740    20889    21683    22955    24637    26127    26063    23904 
   20259    15315     8842     1547    -5031    -9895   -12987   -14473 
  -14272   -12459    -9833    -7217    -4737    -2592    -1306    -1082 
   -1737    -2806    -3649    -3708    -2558     -210     2799     5903 
    8776    11115    12193    11570     9849     7589     5201     3600 
    3483     5355     9483    14960    20209    24063    26015    25833 
   23315    18793    13136     7090     1525    -2285    -3974    -4236 
   -3230     -901     2162     5497     8756    11371    12991    13308 
   11935     8795     4140    -1425    -6978   -11800   -15619   -18134 
  -19018   -18432   -16946   -15183   -13632   -12360   -11227   -10204 
   -8764    -5979    -1516     4395    11043    17248    22315    26407 
   29606    31094    30065    27217    24071    21466    19026    16135 
   13541    12397    13030    16202    22103    28944    34875    39042 
   41095    40412    36273    29655    21924    13089     3709    -5154 
  -13456   -21000   -27149   -32090   -35914   -38045   -38983   -39274 
  -38086   -35401   -32274   -28891   -24884   -20364   -16108   -13014 
  -11159   -10154    -9919   -10091    -9944    -9240    -7939    -5645 
   -2315     1487     5543     9892    14216    18295    22219    25847 
   28480    29404    28786    27160    24544    20856    16146    10701 
    5514     1467    -1296    -2492    -1746      618     3881     7105 
    9390    10628    10828     9756     8058     6918     6732     7132 
    7750     8370     8807     8880     8135     6462     4807     4117 
    4314     4780     5459     7226    10411    14058    17755    21705 
   25110    27145    27838    26916    23653    17837    10347     2728 
   -3767    -8564   -11399   -12105   -10816    -7452    -1861     4387 
    8858    11134    11792    10539     7832     4892     1703    -2138 
   -5886    -8376    -9423    -9637    -9139    -7971    -7006    -6791 
   -7213    -8475   -10443   -12125   -12923   -12777   -11350    -8486 
   -4734     -765     2983     6211     9070    11893    14445    16326 
   17510    18172    18742    19587    20470    21066    21069    20031 
   18187    15606    11290     5429     -464    -6145   -11631   -15642 
  -17347   -16919   -14250    -9201    -2519     3948     8152     9941 
   10648    10299     8608     6937     6216     6265     7137     8565 
    9876    10777    11348    11927    12800    14050    15762    17806 
   19557    20270    19823    18725    17452    16059    14170    11739 
    9424     7338     4919     2575     1244      812     1019     2253 
    4386     6532     8016     8595     8039     6183     3154     -826 
   -5408   -10110   -14481   -17811   -19764   -20806   -21127   -20737 
  -19962   -18862   -17367   -15533   -13332   -10825    -8085    -4999 
   -1561     1831     4687     6816     8035     8025     6747     4384 
    1228    -1931    -4160    -5155    -4965    -3478     -731     2898 
    6952    10993    14459    16837    18442    20008    20989    20637 
   19985    19905    19665    18921    18193    17674    17058    16189 
   15350    14681    14150    13896    13433    12170    10864    10354 
   10023     9261     8383     7565     6473     4621     1890    -1174 
   -3990    -5996    -6585    -5665    -3307      268     4131     7433 
    9899    11284    11304     9872     7431     4627     1620    -1119 
   -2786    -3497    -3388    -2168     -394     1345     3184     4833 
    5606     5437     4754     3731     2369      868     -679    -2538 
   -4857    -7246    -9235   -10773   -11878   -12371   -12085   -10925 
   -8919    -6285    -3276     -234     2381     4401     5973     7290 
    8553     9792    10881    11944    12962    13736    14682    15969 
