Origin Time       2025/01/13 21:19:00
Lat.              31.8
Long.             131.6
Depth. (km)       30
Mag.              6.9
Station Code      NGS013
Station Lat.      32.5810
Station Long.     129.7597
Station Height(m) 5
Record Time       2025/01/13 21:20:24
Sampling Freq(Hz) 100Hz
Duration Time(s)  63
Dir.              E-W
Scale Factor      7845(gal)/8223790
Max. Acc. (gal)   1.182
Last Correction   2025/01/13 21:20:25
Memo.             
[...]
   -1556    -1455    -1386    -1374    -1382    -1363    -1312    -1256 
   -1217    -1194    -1192    -1208    -1231    -1254    -1293    -1351 
   -1413    -1463    -1517    -1586    -1642    -1668    -1661    -1637 
   -1641    -1688    -1749    -1798    -1813    -1782    -1722    -1663 
   -1618    -1588    -1570    -1544    -1486    -1412    -1359    -1333 
   -1339    -1377    -1428    -1486    -1541    -1583    -1614    -1637 
   -1657    -1682    -1709    -1738    -1769    -1791    -1794    -1788 
   -1776    -1753    -1718    -1694    -1698    -1715    -1722    -1715 
   -1702    -1694    -1691    -1687    -1686    -1687    -1691    -1687 
   -1675    -1676    -1715    -1784    -1844    -1858    -1818    -1742 
   -1669    -1630    -1629    -1653    -1671    -1674    -1659    -1628 
   -1610    -1622    -1649    -1674    -1684    -1684    -1687    -1686 
   -1669    -1663    -1682    -1707    -1715    -1705    -1705    -1728 
   -1749    -1755    -1746    -1733    -1725    -1732    -1737    -1726 
   -1696    -1645    -1588    -1559    -1572    -1606    -1629    -1647 
   -1668    -1680    -1674    -1655    -1648    -1665    -1699    -1737 
   -1776    -1817    -1860    -1892    -1894    -1864    -1825    -1796 
   -1780    -1765    -1734    -1695    -1659    -1634    -1624    -1610 
   -1587    -1570    -1552    -1506    -1426    -1344    -1291    -1269 
   -1277    -1302    -1310    -1298    -1302    -1333    -1389    -1462 
   -1543    -1610    -1657    -1699    -1741    -1764    -1768    -1787 
   -1827    -1845    -1814    -1750    -1687    -1642    -1602    -1557 
   -1507    -1455    -1418    -1426    -1479    -1556    -1625    -1672 
   -1715    -1763    -1804    -1850    -1894    -1923    -1935    -1922 
   -1895    -1875    -1868    -1865    -1857    -1849    -1857    -1884 
   -1907    -1904    -1877    -1852    -1844    -1844    -1819    -1759 
   -1688    -1630    -1583    -1547    -1530    -1526    -1510    -1474 
   -1429    -1410    -1439    -1495    -1532    -1528    -1499    -1486 
   -1514    -1567    -1601    -1599    -1566    -1506    -1445    -1391 
   -1359    -1367    -1399    -1433    -1474    -1529    -1610    -1709 
   -1809    -1891    -1937    -1948    -1953    -1958    -1961    -1966 
   -1973    -1961    -1917    -1846    -1783    -1771    -1806    -1834 
   -1819    -1761    -1698    -1660    -1644    -1630    -1611    -1593 
   -1561    -1506    -1447    -1410    -1402    -1414    -1428    -1441 
   -1468    -1495    -1521    -1561    -1614    -1672    -1728    -1767 
   -1792    -1821    -1848    -1873    -1904    -1931    -1927    -1884 
   -1818    -1755    -1702    -1649    -1597    -1559    -1544    -1534 
   -1520    -1501    -1495    -1518    -1566    -1609    -1614    -1572 
   -1514    -1480    -1472    -1476    -1476    -1464    -1458    -1468 
   -1491    -1529    -1580    -1637    -1691    -1745    -1799    -1849 
   -1894    -1925    -1942    -1964    -1998    -2033    -2057    -2057 
   -2030    -1998    -1979    -1983    -2002    -2015    -2027    -2052 
   -2073    -2072    -2052    -2022    -1993    -1953    -1887    -1799 
   -1701    -1618    -1583    -1575    -1553    -1506    -1456    -1429 
   -1420    -1409    -1391    -1360    -1317    -1259    -1169    -1075 
   -1038    -1051    -1094    -1154    -1215    -1273    -1318    -1339 
   -1347    -1341    -1318    -1300    -1275    -1219    -1142    -1075 
   -1069    -1143    -1242    -1304    -1329    -1337    -1355    -1418 
   -1522    -1652    -1783    -1875    -1899    -1875    -1860    -1885 
   -1922    -1919    -1876    -1834    -1823    -1833    -1840    -1823 
   -1776    -1715    -1672    -1652    -1640    -1618    -1606    -1626 
   -1680    -1757    -1823    -1845    -1836    -1819    -1818    -1844 
   -1881    -1906    -1915    -1908    -1883    -1857    -1840    -1831 
   -1817    -1786    -1750    -1725    -1688    -1632    -1564    -1495 
   -1448    -1439    -1452    -1462    -1455    -1448    -1466    -1505 
   -1545    -1572    -1561    -1506    -1437    -1395    -1386    -1398 
   -1426    -1456    -1470    -1480    -1499    -1514    -1520    -1532 
   -1579    -1649    -1694    -1707    -1719    -1749    -1792    -1821 
   -1840    -1873    -1908    -1923    -1918    -1896    -1871    -1871 
   -1899    -1922    -1903    -1834    -1749    -1694    -1686    -1699 
   -1691    -1644    -1578    -1530    -1529    -1575    -1629    -1642 
   -1601    -1543    -1512    -1521    -1560    -1590    -1574    -1530 
   -1497    -1482    -1490    -1521    -1580    -1667    -1732    -1733 
   -1694    -1691    -1771    -1898    -1996    -2020    -1983    -1918 
   -1856    -1806    -1765    -1723    -1680    -1637    -1598    -1571 
   -1576    -1628    -1709    -1786    -1826    -1806    -1749    -1701 
   -1659    -1615    -1571    -1529    -1497    -1471    -1445    -1431 
   -1448    -1514    -1621    -1736    -1829    -1875    -1875    -1840 
   -1775    -1703    -1656    -1632    -1598    -1522    -1417    -1348 
   -1356    -1416    -1472    -1499    -1509    -1516    -1525    -1551 
   -1606    -1676    -1738    -1780    -1799    -1817    -1840    -1853 
   -1863    -1887    -1907    -1902    -1869    -1825    -1813    -1849 
   -1887    -1880    -1846    -1831    -1872    -1952    -2029    -2073 
   -2068    -2018    -1960    -1918    -1881    -1807    -1696    -1614 
   -1595    -1606    -1609    -1582    -1555    -1582    -1667    -1763 
   -1827    -1849    -1864    -1915    -1983    -2023    -2023    -2002 
   -1977    -1942    -1894    -1837    -1776    -1748    -1771    -1795 
   -1761    -1665    -1549    -1479    -1483    -1520    -1532    -1510 
   -1468    -1433    -1424    -1432    -1459    -1493    -1503    -1486 
   -1451    -1425    -1420    -1394    -1336    -1275    -1242    -1251 
   -1287    -1305    -1304    -1331    -1387    -1422    -1402    -1337 
   -1277    -1267    -1301    -1335    -1328    -1263    -1161    -1073 
   -1044    -1086    -1156    -1212    -1258    -1317    -1387    -1445 
   -1491    -1532    -1540    -1517    -1512    -1556    -1638    -1718 
   -1779    -1822    -1837    -1814    -1763    -1705    -1668    -1680 
   -1726    -1777    -1806    -1802    -1782    -1779    -1814    -1869 
   -1927    -1975    -1976    -1927    -1879    -1873    -1927    -2011 
   -2068    -2084    -2085    -2083    -2080    -2081    -2092    -2114 
   -2120    -2097    -2062    -2029    -2007    -1989    -1949    -1880 
   -1819    -1790    -1773    -1750    -1726    -1714    -1725    -1750 
   -1782    -1803    -1786    -1726    -1676    -1686    -1718    -1721 
   -1683    -1609    -1532    -1478    -1455    -1479    -1522    -1551 
   -1566    -1563    -1539    -1529    -1541    -1529    -1479    -1431 
   -1418    -1460    -1548    -1641    -1701    -1721    -1733    -1764 
   -1790    -1777    -1741    -1701    -1659    -1615    -1568    -1521 
   -1495    -1507    -1545    -1572    -1579    -1602    -1680    -1811 
   -1941    -2031    -2079    -2083    -2049    -1998    -1945    -1860 
   -1728    -1584    -1474    -1416    -1413    -1421    -1401    -1366 
   -1352    -1379    -1420    -1426    -1397    -1362    -1331    -1294 
   -1259    -1237    -1235    -1248    -1273    -1296    -1332    -1426 
   -1595    -1769    -1845    -1799    -1702    -1614    -1533    -1460 
   -1410    -1387    -1378    -1362    -1350    -1383    -1480    -1622 
   -1775    -1888    -1929    -1921    -1904    -1880    -1833    -1773 
   -1717    -1671    -1640    -1615    -1593    -1559    -1506    -1453 
   -1418    -1385    -1341    -1309    -1293    -1297    -1317    -1350 
   -1391    -1417    -1420    -1422    -1432    -1443    -1433    -1383 
   -1325    -1317    -1362    -1397    -1379    -1348    -1371    -1440 
   -1502    -1537    -1568    -1620    -1657    -1653    -1645    -1683 
   -1737    -1757    -1745    -1750    -1802    -1861    -1879    -1836 
   -1764    -1719    -1705    -1709    -1748    -1786    -1742    -1636 
   -1563    -1579    -1644    -1676    -1672    -1678    -1721    -1787 
   -1846    -1880    -1911    -1952    -1985    -2003    -2008    -2019 
   -2035    -2029    -1985    -1927    -1877    -1846    -1823    -1783 
   -1723    -1661    -1610    -1590    -1599    -1599    -1580    -1575 
   -1610    -1679    -1755    -1780    -1718    -1622    -1580    -1593 
   -1606    -1606    -1587    -1547    -1505    -1490    -1529    -1633 
   -1753    -1822    -1842    -1860    -1887    -1910    -1929    -1942 
   -1939    -1910    -1876    -1876    -1906    -1937    -1953    -1949 
   -1935    -1937    -1966    -1995    -1988    -1952    -1918    -1915 
   -1944    -1989    -2041    -2096    -2157    -2191    -2154    -2047 
   -1935    -1875    -1841    -1792    -1719    -1630    -1534    -1464 
   -1471    -1556    -1653    -1705    -1713    -1694    -1661    -1637 
   -1632    -1649    -1661    -1642    -1597    -1544    -1501    -1486 
   -1502    -1524    -1516    -1470    -1414    -1390    -1409    -1463 
   -1509    -1507    -1494    -1530    -1598    -1641    -1657    -1667 
   -1655    -1621    -1598    -1590    -1575    -1539    -1475    -1385 
   -1294    -1260    -1306    -1383    -1433    -1448    -1455    -1470 
   -1486    -1505    -1513    -1480    -1406    -1327    -1266    -1239 
   -1250    -1274    -1275    -1244    -1204    -1190    -1229    -1294 
   -1344    -1385    -1453    -1560    -1645    -1656    -1634    -1652 
   -1706    -1749    -1744    -1706    -1688    -1721    -1783    -1823 
   -1795    -1740    -1719    -1734    -1749    -1734    -1676    -1622 
   -1618    -1651    -1702    -1745    -1755    -1750    -1759    -1780 
   -1809    -1838    -1864    -1873    -1863    -1861    -1903    -1968 
   -2004    -1993    -1962    -1952    -1968    -1992    -2002    -1976 
   -1912    -1836    -1776    -1744    -1726    -1713    -1686    -1642 
   -1590    -1549    -1533    -1536    -1547    -1553    -1552    -1541 
   -1520    -1495    -1480    -1480    -1483    -1474    -1448    -1420 
   -1429    -1512    -1652    -1764    -1773    -1709    -1657    -1676 
   -1741    -1791    -1791    -1732    -1624    -1516    -1448    -1418 
   -1410    -1418    -1440    -1467    -1480    -1452    -1385    -1310 
   -1259    -1233    -1209    -1193    -1229    -1331    -1453    -1551 
   -1593    -1602    -1626    -1682    -1744    -1779    -1757    -1711 
   -1684    -1680    -1699    -1741    -1764    -1732    -1684    -1682 
   -1733    -1788    -1795    -1742    -1661    -1584    -1536    -1529 
   -1574    -1644    -1690    -1688    -1640    -1551    -1449    -1374 
   -1339    -1339    -1339    -1305    -1235    -1163    -1127    -1111 
   -1082    -1043    -1017    -1024    -1044    -1043    -1019    -1012 
   -1046    -1120    -1208    -1259    -1246    -1189    -1135    -1132 
   -1189    -1269    -1332    -1378    -1436    -1537    -1669    -1780 
   -1848    -1881    -1883    -1864    -1836    -1800    -1767    -1744 
   -1725    -1707    -1691    -1675    -1656    -1649    -1655    -1660 
   -1659    -1629    -1555    -1464    -1399    -1383    -1414    -1467 
   -1521    -1578    -1634    -1699    -1792    -1894    -1954    -1954 
   -1935    -1942    -1979    -2035    -2087    -2095    -2069    -2049 
   -2041    -2023    -1977    -1919    -1885    -1879    -1871    -1823 
   -1749    -1684    -1655    -1664    -1698    -1729    -1746    -1752 
   -1732    -1688    -1674    -1715    -1771    -1782    -1738    -1678 
   -1628    -1598    -1583    -1560    -1514    -1448    -1366    -1293 
   -1248    -1212    -1178    -1169    -1194    -1239    -1287    -1329 
   -1360    -1389    -1436    -1498    -1532    -1524    -1520    -1561 
   -1624    -1655    -1656    -1647    -1628    -1595    -1561    -1547 
   -1555    -1563    -1561    -1557    -1560    -1567    -1570    -1580 
   -1622    -1691    -1753    -1788    -1803    -1818    -1846    -1884 
   -1890    -1846    -1800    -1806    -1858    -1917    -1950    -1962 
   -1981    -2041    -2135    -2211    -2243    -2249    -2261    -2301 
   -2353    -2386    -2394    -2369    -2316    -2280    -2281    -2280 
   -2249    -2196    -2127    -2053    -1999    -1957    -1908    -1857 
   -1815    -1790    -1777    -1755    -1698    -1626    -1574    -1543 
   -1494    -1410    -1340    -1341    -1405    -1479    -1539    -1586 
   -1640    -1702    -1759    -1814    -1873    -1925    -1953    -1948 
   -1910    -1857    -1817    -1814    -1841    -1869    -1887    -1888 
   -1884    -1880    -1864    -1831    -1791    -1753    -1744    -1755 
   -1736    -1671    -1590    -1528    -1487    -1448    -1414    -1386 
   -1359    -1324    -1279    -1239    -1216    -1200    -1190    -1202 
   -1237    -1294    -1351    -1371    -1360    -1356    -1378    -1408 
   -1431    -1468    -1529    -1584    -1611    -1611    -1602    -1587 
   -1553    -1512    -1476    -1476    -1524    -1584    -1602    -1566 
   -1529    -1540    -1591    -1649    -1699    -1741    -1786    -1834 
   -1883    -1904    -1891    -1868    -1863    -1880    -1902    -1921 
   -1980    -2084    -2181    -2243    -2272    -2305    -2373    -2448 
   -2508    -2543    -2542    -2519    -2494    -2457    -2404    -2351 
   -2293    -2227    -2173    -2145    -2137    -2134    -2107    -2057 
   -1995    -1930    -1890    -1869    -1826    -1738    -1636    -1547 
   -1470    -1397    -1323    -1240    -1156    -1093    -1066    -1059 
   -1043    -1005     -954     -913     -891     -864     -804     -704 
    -579     -471     -413     -405     -417     -418     -415     -440 
    -492     -552     -602     -641     -665     -675     -683     -691 
    -685     -669     -657     -650     -641     -638     -668     -730 
    -801     -861     -897     -918     -938     -946     -940     -951 
   -1005    -1073    -1121    -1159    -1210    -1289    -1394    -1491 
   -1545    -1551    -1530    -1513    -1516    -1529    -1547    -1564 
   -1574    -1571    -1576    -1615    -1686    -1765    -1842    -1904 
   -1942    -1960    -1969    -1981    -2022    -2089    -2158    -2211 
   -2255    -2286    -2299    -2305    -2309    -2312    -2331    -2357 
   -2366    -2350    -2308    -2272    -2274    -2311    -2357    -2382 
   -2359    -2288    -2216    -2181    -2176    -2187    -2192    -2189 
   -2195    -2203    -2204    -2207    -2204    -2181    -2146    -2104 
   -2073    -2073    -2084    -2083    -2073    -2066    -2077    -2112 
   -2158    -2201    -2246    -2285    -2292    -2259    -2204    -2149 
   -2091    -2007    -1912    -1844    -1794    -1737    -1668    -1603 
   -1555    -1525    -1505    -1475    -1429    -1391    -1394    -1431 
   -1474    -1512    -1557    -1610    -1656    -1690    -1709    -1710 
   -1703    -1705    -1713    -1709    -1684    -1655    -1633    -1626 
   -1638    -1665    -1692    -1702    -1690    -1668    -1660    -1672 
   -1692    -1690    -1644    -1587    -1578    -1637    -1726    -1790 
   -1811    -1818    -1830    -1842    -1852    -1864    -1861    -1831 
   -1776    -1710    -1652    -1620    -1617    -1621    -1613    -1590 
   -1560    -1540    -1522    -1501    -1486    -1487    -1498    -1498 
   -1494    -1494    -1506    -1540    -1598    -1669    -1736    -1792 
   -1838    -1857    -1863    -1884    -1907    -1921    -1919    -1904 
   -1883    -1860    -1854    -1861    -1852    -1818    -1777    -1745 
   -1710    -1660    -1595    -1533    -1486    -1467    -1475    -1486 
   -1485    -1490    -1516    -1557    -1613    -1661    -1696    -1714 
   -1698    -1647    -1583    -1522    -1468    -1420    -1382    -1362 
   -1335    -1286    -1240    -1205    -1169    -1142    -1142    -1177 
   -1228    -1262    -1282    -1305    -1340    -1410    -1499    -1570 
   -1615    -1652    -1691    -1732    -1744    -1723    -1691    -1661 
   -1649    -1657    -1652    -1621    -1580    -1548    -1552    -1587 
   -1620    -1632    -1625    -1614    -1605    -1572    -1521    -1470 
   -1421    -1379    -1343    -1296    -1255    -1239    -1223    -1196 
   -1175    -1159    -1148    -1148    -1161    -1197    -1263    -1331 
   -1377    -1391    -1401    -1429    -1476    -1534    -1584    -1607 
   -1625    -1659    -1699    -1741    -1780    -1814    -1842    -1861 
   -1883    -1927    -1984    -2022    -2035    -2034    -2029    -2038 
   -2069    -2112    -2160    -2196    -2197    -2174    -2165    -2172 
   -2169    -2138    -2070    -1975    -1864    -1761    -1674    -1601 
   -1529    -1448    -1368    -1301    -1250    -1217    -1208    -1227 
   -1254    -1270    -1278    -1291    -1313    -1348    -1387    -1409 
   -1401    -1378    -1356    -1359    -1393    -1439    -1468    -1479 
   -1487    -1512    -1545    -1578    -1609    -1641    -1675    -1699 
   -1715    -1717    -1709    -1710    -1709    -1682    -1655    -1657 
   -1682    -1706    -1717    -1719    -1732    -1767    -1811    -1853 
   -1892    -1921    -1944    -1962    -1966    -1953    -1921    -1877 
   -1842    -1825    -1819    -1834    -1863    -1892    -1927    -1975 
   -2020    -2052    -2057    -2045    -2030    -2000    -1944    -1872 
   -1794    -1721    -1676    -1660    -1664    -1676    -1674    -1649 
   -1618    -1598    -1590    -1574    -1532    -1471    -1405    -1336 
   -1282    -1252    -1233    -1215    -1206    -1229    -1293    -1378 
   -1458    -1521    -1584    -1641    -1688    -1730    -1760    -1764 
   -1757    -1748    -1748    -1772    -1807    -1833    -1848    -1848 
   -1846    -1869    -1915    -1962    -1983    -1976    -1964    -1954 
   -1945    -1926    -1908    -1911    -1923    -1922    -1912    -1908 
   -1915    -1934    -1962    -1983    -1983    -1953    -1902    -1845 
   -1796    -1767    -1756    -1753    -1740    -1706    -1665    -1640 
   -1638    -1649    -1652    -1647    -1640    -1637    -1648    -1659 
   -1652    -1628    -1591    -1553    -1503    -1435    -1352    -1260 
   -1158    -1070    -1005     -950     -911     -899     -901     -905 
    -911     -931     -981    -1048    -1109    -1179    -1271    -1367 
   -1445    -1514    -1582    -1655    -1733    -1809    -1872    -1917 
   -1952    -1977    -1989    -1998    -2011    -2037    -2061    -2069 
   -2080    -2093    -2091    -2070    -2056    -2056    -2064    -2073 
   -2064    -2016    -1939    -1873    -1838    -1822    -1804    -1780 
   -1745    -1690    -1625    -1572    -1543    -1528    -1516    -1505 
   -1507    -1529    -1564    -1614    -1675    -1737    -1798    -1858 
   -1915    -1972    -2023    -2069    -2118    -2155    -2157    -2126 
   -2079    -2030    -1993    -1971    -1957    -1942    -1910    -1854 
   -1791    -1730    -1690    -1674    -1674    -1674    -1652    -1614 
   -1594    -1607    -1636    -1651    -1626    -1582    -1563    -1567 
   -1566    -1548    -1516    -1478    -1437    -1391    -1333    -1263 
   -1182    -1094    -1020     -972     -931     -892     -857     -824 
    -807     -826     -882     -953    -1013    -1058    -1101    -1151 
   -1206    -1256    -1291    -1313    -1325    -1337    -1360    -1379 
   -1379    -1370    -1378    -1421    -1491    -1556    -1584    -1574 
   -1548    -1543    -1564    -1597    -1634    -1660    -1667    -1678 
   -1701    -1728    -1755    -1769    -1768    -1773    -1787    -1811 
   -1841    -1865    -1888    -1914    -1937    -1962    -1980    -1976 
