Origin Time       2025/01/13 21:19:00
Lat.              31.8
Long.             131.6
Depth. (km)       30
Mag.              6.9
Station Code      NGS008
Station Lat.      32.9233
Station Long.     130.1846
Station Height(m) 7
Record Time       2025/01/13 21:20:33
Sampling Freq(Hz) 100Hz
Duration Time(s)  79
Dir.              N-S
Scale Factor      7845(gal)/8223790
Max. Acc. (gal)   1.868
Last Correction   2025/01/13 21:20:34
Memo.             
[...]
    3561     3592     3564     3520     3500     3500     3503     3491 
    3450     3393     3358     3369     3402     3404     3358     3292 
    3238     3214     3211     3204     3168     3113     3073     3075 
    3119     3183     3252     3323     3399     3480     3530     3523 
    3485     3454     3438     3438     3460     3501     3543     3572 
    3599     3663     3763     3844     3865     3831     3766     3697 
    3670     3705     3774     3836     3881     3912     3942     3975 
    3996     3991     3974     3962     3966     3973     3979     3994 
    4001     3975     3908     3793     3649     3505     3380     3283 
    3215     3171     3160     3187     3222     3258     3314     3380 
    3418     3393     3323     3262     3249     3280     3327     3370 
    3426     3514     3634     3771     3894     3969     3990     3987 
    3997     4018     4041     4062     4062     4043     4048     4091 
    4151     4203     4220     4190     4140     4118     4140     4170 
    4159     4094     4004     3946     3943     3977     4005     3990 
    3936     3883     3842     3788     3712     3627     3520     3376 
    3215     3079     2997     2972     2987     3011     3019     3002 
    2982     2998     3069     3175     3271     3321     3318     3289 
    3285     3314     3348     3369     3365     3330     3294     3291 
    3323     3375     3422     3441     3408     3343     3294     3298 
    3356     3447     3538     3595     3616     3631     3651     3681 
    3703     3674     3584     3469     3377     3325     3292     3261 
    3231     3215     3252     3366     3527     3666     3750     3771 
    3753     3719     3684     3655     3615     3541     3445     3380 
    3384     3454     3543     3605     3623     3612     3616     3646 
    3655     3627     3589     3570     3578     3597     3588     3532 
    3457     3391     3345     3312     3271     3199     3117     3060 
    3048     3068     3095     3113     3125     3145     3163     3172 
    3202     3256     3318     3393     3485     3561     3592     3596 
    3601     3603     3582     3550     3514     3495     3522     3595 
    3678     3744     3781     3789     3796     3836     3908     3973 
    4025     4079     4125     4144     4131     4101     4077     4060 
    4018     3916     3766     3601     3469     3404     3388     3372 
    3330     3267     3207     3183     3196     3234     3280     3315 
    3316     3288     3260     3253     3260     3262     3267     3280 
    3304     3349     3429     3527     3613     3667     3701     3711 
    3694     3663     3623     3569     3487     3391     3321     3292 
    3308     3361     3431     3493     3539     3569     3581     3561 
    3491     3373     3215     3044     2905     2816     2775     2776 
    2809     2849     2890     2937     2984     3022     3052     3061 
    3048     3022     2986     2944     2925     2926     2910     2872 
    2824     2779     2767     2794     2843     2886     2905     2905 
    2920     2964     3022     3055     3049     3032     3034     3071 
    3150     3262     3366     3442     3489     3510     3500     3477 
    3458     3437     3392     3325     3256     3219     3226     3269 
    3321     3357     3395     3466     3569     3690     3821     3940 
    4023     4060     4085     4125     4178     4226     4257     4245 
    4193     4141     4129     4129     4095     4025     3947     3890 
    3878     3910     3956     3974     3962     3948     3939     3923 
    3892     3848     3801     3767     3763     3786     3816     3834 
    3832     3805     3744     3647     3518     3369     3218     3086 
    2972     2857     2736     2655     2651     2706     2790     2880 
    2965     3055     3161     3279     3366     3408     3434     3461 
    3488     3523     3576     3646     3723     3781     3790     3758 
    3716     3673     3627     3581     3530     3468     3403     3364 
    3376     3424     3450     3415     3330     3231     3169     3148 
    3117     3036     2921     2822     2782     2806     2851     2849 
    2775     2652     2538     2466     2442     2454     2466     2457 
    2448     2481     2579     2751     2949     3114     3229     3322 
    3426     3561     3716     3843     3906     3925     3952     4032 
    4168     4340     4500     4626     4734     4845     4946     5034 
    5098     5134     5147     5158     5181     5206     5201     5134 
    5009     4858     4703     4545     4386     4232     4099     4010 
    3978     3982     4002     4023     4032     4028     4024     4014 
    3998     3971     3932     3893     3871     3882     3917     3954 
    3969     3963     3951     3951     3963     3975     3959     3905 
    3835     3767     3715     3678     3655     3639     3635     3661 
    3709     3750     3763     3759     3742     3699     3630     3546 
    3453     3350     3250     3173     3123     3102     3115     3148 
    3180     3229     3310     3433     3565     3650     3674     3661 
    3630     3596     3557     3489     3387     3277     3192     3140 
    3121     3140     3184     3233     3276     3315     3348     3365 
    3354     3311     3254     3198     3153     3123     3100     3067 
    3022     2978     2941     2911     2875     2825     2786     2779 
    2806     2844     2879     2918     2953     2963     2938     2899 
    2872     2862     2856     2853     2862     2911     3022     3160 
    3289     3415     3553     3692     3813     3923     4014     4072 
    4097     4108     4113     4105     4072     4018     3958     3920 
    3920     3936     3928     3877     3797     3720     3667     3650 
    3654     3645     3624     3616     3627     3643     3657     3663 
    3666     3662     3654     3654     3651     3634     3595     3531 
    3446     3360     3289     3234     3169     3084     2991     2901 
    2832     2801     2802     2814     2822     2820     2817     2818 
    2833     2867     2902     2909     2886     2853     2825     2810 
    2809     2808     2794     2774     2754     2737     2727     2724 
    2732     2740     2744     2755     2787     2845     2929     3025 
    3110     3168     3187     3171     3146     3146     3179     3226 
    3264     3285     3292     3294     3314     3356     3391     3387 
    3342     3272     3196     3142     3137     3190     3276     3364 
    3445     3528     3613     3690     3762     3823     3862     3886 
    3912     3942     3987     4043     4086     4113     4124     4125 
    4133     4152     4160     4145     4095     4016     3928     3852 
    3800     3777     3769     3747     3716     3693     3692     3712 
    3744     3770     3767     3724     3665     3624     3609     3613 
    3632     3663     3693     3712     3724     3734     3735     3721 
    3684     3615     3528     3453     3407     3376     3341     3303 
    3276     3256     3237     3215     3183     3136     3082     3036 
    3005     2987     2978     2957     2917     2868     2836     2833 
    2852     2884     2925     2976     3060     3192     3350     3488 
    3580     3638     3680     3735     3831     3955     4078     4178 
    4248     4302     4356     4410     4448     4444     4380     4266 
    4128     3996     3874     3761     3662     3572     3483     3410 
    3357     3327     3318     3325     3343     3373     3422     3500 
    3605     3723     3836     3931     4013     4093     4167     4224 
    4252     4249     4222     4189     4166     4153     4148     4147 
    4148     4153     4163     4171     4172     4162     4140     4099 
    4037     3970     3904     3855     3847     3867     3909     3977 
    4045     4091     4099     4068     3994     3888     3762     3615 
    3445     3276     3132     3018     2934     2871     2828     2810 
    2812     2821     2843     2868     2898     2951     3028     3102 
    3152     3176     3199     3233     3262     3284     3285     3252 
    3211     3202     3225     3264     3302     3312     3289     3253 
    3225     3202     3184     3179     3172     3148     3122     3118 
    3130     3146     3159     3160     3150     3144     3146     3160 
    3184     3214     3248     3288     3349     3439     3557     3693 
    3828     3950     4062     4163     4234     4259     4226     4140 
    4033     3929     3831     3742     3659     3586     3519     3464 
    3435     3426     3412     3395     3388     3402     3435     3476 
    3499     3510     3531     3568     3607     3640     3654     3631 
    3572     3499     3433     3381     3338     3292     3246     3215 
    3213     3246     3306     3364     3399     3411     3411     3416 
    3434     3447     3450     3435     3403     3369     3343     3325 
    3299     3254     3184     3102     3036     2998     2990     3006 
    3019     3011     2980     2937     2893     2848     2802     2759 
    2716     2679     2670     2700     2755     2824     2894     2952 
    3007     3080     3172     3256     3312     3349     3373     3389 
    3412     3450     3492     3519     3534     3538     3530     3520 
    3514     3505     3495     3476     3441     3392     3335     3276 
    3211     3134     3055     3006     2992     2997     3019     3068 
    3138     3223     3318     3410     3468     3476     3443     3392 
    3341     3298     3257     3195     3111     3029     2983     2992 
    3044     3102     3142     3171     3196     3229     3249     3240 
    3203     3154     3126     3142     3203     3287     3365     3422 
    3466     3500     3511     3507     3505     3507     3520     3569 
    3651     3746     3842     3933     4021     4090     4143     4205 
    4284     4372     4468     4563     4644     4703     4745     4768 
    4769     4750     4719     4669     4608     4560     4533     4513 
    4479     4432     4365     4279     4191     4114     4050     3991 
    3939     3896     3859     3819     3761     3689     3618     3555 
    3504     3450     3383     3299     3203     3102     3017     2953 
    2899     2844     2785     2724     2681     2668     2668     2660 
    2631     2575     2511     2442     2355     2255     2172     2128 
    2123     2151     2218     2311     2405     2502     2608     2700 
    2770     2828     2882     2944     3014     3087     3156     3226 
    3311     3418     3534     3634     3701     3735     3753     3770 
    3789     3797     3784     3750     3709     3680     3663     3670 
    3696     3728     3769     3816     3858     3905     3962     4017 
    4055     4068     4071     4070     4075     4095     4122     4140 
    4148     4145     4141     4151     4186     4240     4298     4341 
    4367     4384     4401     4406     4391     4364     4314     4247 
    4190     4155     4132     4116     4108     4102     4097     4090 
    4083     4075     4066     4056     4039     4008     3978     3948 
    3904     3846     3771     3681     3578     3462     3341     3235 
    3156     3103     3073     3049     3022     3002     2992     2982 
    2971     2952     2907     2829     2727     2624     2535     2458 
    2398     2357     2328     2323     2355     2427     2512     2579 
    2613     2600     2539     2455     2377     2309     2249     2193 
    2155     2153     2191     2254     2338     2438     2550     2677 
    2820     2968     3113     3250     3376     3487     3591     3678 
    3750     3824     3913     3997     4060     4118     4187     4264 
    4355     4456     4537     4584     4600     4607     4634     4689 
    4753     4800     4827     4855     4896     4932     4941     4916 
    4878     4843     4819     4801     4784     4753     4700     4630 
    4549     4460     4369     4280     4185     4093     4023     3985 
    3969     3969     3987     4012     4020     4000     3962     3912 
    3863     3843     3854     3881     3927     4010     4118     4224 
    4318     4391     4433     4455     4463     4453     4401     4295 
    4168     4047     3942     3871     3831     3789     3738     3686 
    3646     3620     3589     3530     3433     3304     3173     3069 
    3001     2952     2901     2840     2758     2658     2577     2529 
    2498     2467     2440     2421     2417     2442     2498     2566 
    2616     2625     2589     2531     2479     2440     2393     2320 
    2241     2176     2141     2150     2211     2300     2404     2516 
    2628     2736     2843     2938     3001     3018     2999     2963 
    2924     2887     2860     2852     2864     2902     2965     3051 
    3149     3257     3362     3435     3464     3462     3454     3457 
    3474     3501     3527     3547     3569     3607     3659     3713 
    3758     3790     3813     3828     3851     3888     3921     3948 
    3959     3950     3928     3906     3889     3865     3823     3754 
    3659     3559     3478     3419     3385     3368     3373     3418 
    3496     3593     3709     3840     3966     4072     4163     4245 
    4294     4294     4259     4203     4137     4078     4017     3942 
    3856     3785     3748     3742     3735     3708     3649     3559 
    3453     3341     3219     3086     2953     2837     2745     2681 
    2663     2695     2756     2828     2895     2944     2968     2957 
    2893     2762     2569     2331     2084     1864     1695     1582 
    1529     1528     1570     1648     1748     1848     1935     2008 
    2080     2154     2219     2273     2332     2412     2513     2629 
    2740     2841     2929     3003     3083     3190     3312     3430 
    3537     3628     3704     3784     3883     3982     4058     4114 
    4149     4159     4152     4129     4093     4036     3958     3871 
    3786     3719     3678     3647     3609     3577     3545     3510 
    3488     3473     3451     3435     3429     3431     3454     3493 
    3532     3574     3609     3624     3626     3622     3615     3599 
    3578     3554     3523     3492     3478     3478     3480     3477 
    3468     3460     3478     3530     3589     3643     3704     3762 
    3811     3852     3871     3843     3763     3653     3532     3407 
    3276     3134     2994     2872     2771     2706     2690     2697 
    2709     2745     2812     2884     2960     3049     3150     3261 
    3392     3543     3703     3852     3994     4129     4248     4345 
    4426     4484     4513     4515     4504     4477     4430     4365 
    4293     4210     4122     4041     3975     3917     3869     3835 
    3815     3798     3780     3753     3713     3672     3626     3577 
    3535     3495     3456     3424     3418     3441     3481     3518 
    3553     3600     3654     3708     3767     3817     3843     3847 
    3838     3823     3812     3809     3815     3823     3836     3852 
    3882     3931     3994     4063     4126     4190     4256     4325 
    4411     4504     4587     4656     4699     4704     4689     4668 
    4631     4576     4526     4495     4484     4499     4537     4576 
    4598     4594     4560     4494     4401     4313     4248     4195 
    4153     4131     4121     4117     4110     4095     4066     4012 
    3936     3852     3766     3676     3599     3535     3466     3393 
    3310     3195     3049     2890     2741     2606     2493     2413 
    2367     2355     2378     2430     2493     2551     2593     2616 
    2612     2574     2513     2451     2400     2376     2390     2428 
    2471     2517     2567     2619     2671     2722     2763     2790 
    2812     2835     2866     2903     2936     2959     2982     3007 
    3022     3029     3046     3082     3129     3172     3208     3244 
    3276     3292     3287     3271     3244     3196     3133     3059 
    2961     2843     2721     2613     2532     2493     2502     2547 
    2602     2658     2713     2754     2772     2785     2797     2806 
    2814     2829     2863     2924     3009     3117     3242     3381 
    3534     3692     3843     3982     4099     4191     4286     4395 
    4509     4614     4699     4764     4810     4846     4891     4953 
    5022     5081     5134     5186     5233     5270     5296     5297 
    5263     5205     5138     5069     4997     4923     4850     4777 
    4695     4604     4506     4395     4261     4102     3915     3719 
    3550     3426     3339     3281     3244     3206     3150     3082 
    3011     2933     2832     2717     2600     2490     2394     2319 
    2259     2207     2172     2177     2218     2273     2331     2394 
    2475     2571     2683     2808     2921     3017     3092     3144 
    3172     3175     3153     3119     3082     3045     3011     2976 
    2941     2921     2933     2957     2976     2992     3007     3028 
    3061     3100     3134     3156     3177     3217     3275     3341 
    3412     3472     3500     3504     3503     3504     3510     3510 
    3496     3478     3477     3487     3492     3484     3456     3400 
    3329     3254     3176     3088     3003     2938     2898     2883 
    2901     2947     3011     3084     3169     3276     3391     3495 
    3588     3670     3739     3802     3862     3909     3948     3993 
    4037     4068     4079     4067     4029     3970     3906     3858 
    3829     3824     3824     3816     3801     3771     3736     3708 
    3665     3596     3526     3470     3435     3431     3464     3500 
    3496     3451     3387     3312     3222     3117     2992     2845 
    2693     2570     2484     2428     2404     2407     2425     2452 
    2490     2548     2625     2713     2806     2903     3001     3094 
    3181     3273     3364     3456     3551     3638     3696     3728 
    3744     3753     3759     3775     3805     3839     3871     3906 
    3943     3978     4013     4043     4055     4045     4021     4001 
    3994     4004     4024     4060     4116     4187     4272     4364 
    4450     4513     4541     4533     4504     4471     4442     4421 
    4401     4365     4301     4210     4105     3997     3890     3786 
    3693     3622     3585     3599     3661     3748     3839     3912 
    3955     3982     4005     4028     4044     4048     4055     4083 
    4133     4207     4298     4369     4399     4391     4355     4295 
    4233     4183     4141     4097     4048     3998     3947     3896 
    3851     3812     3769     3721     3684     3646     3592     3527 
    3456     3364     3248     3119     2986     2859     2748     2658 
    2589     2533     2496     2477     2466     2452     2428     2385 
    2324     2253     2180     2120     2087     2074     2072     2072 
    2072     2083     2120     2181     2255     2336     2403     2448 
    2496     2555     2623     2698     2781     2871     2967     3075 
    3198     3321     3411     3462     3478     3465     3437     3424 
    3441     3472     3519     3572     3620     3666     3704     3711 
    3684     3628     3562     3491     3410     3335     3279     3237 
    3204     3184     3176     3172     3163     3156     3154     3148 
    3130     3113     3091     3061     3025     2980     2933     2893 
    2871     2855     2840     2830     2828     2837     2872     2943 
