Origin Time       2025/01/13 21:19:00
Lat.              31.8
Long.             131.6
Depth. (km)       30
Mag.              6.9
Station Code      NGS010
Station Lat.      32.7351
Station Long.     129.8765
Station Height(m) 77
Record Time       2025/01/13 21:20:26
Sampling Freq(Hz) 100Hz
Duration Time(s)  69
Dir.              E-W
Scale Factor      7845(gal)/8223790
Max. Acc. (gal)   1.508
Last Correction   2025/01/13 21:20:27
Memo.             
    -518     -803    -1038    -1156    -1196    -1088     -739     -464 
    -557     -781    -1001    -1193    -1158     -903     -584     -394 
    -518     -843    -1109    -1150     -942     -669     -533     -638 
    -984    -1354    -1497    -1287     -845     -480     -344     -372 
    -530     -741     -854     -776     -471      -41      221      162 
    -148     -603    -1050    -1279    -1120     -693     -396     -357 
    -434     -571     -697     -708     -515     -152      145      191 
       6     -249     -442     -557     -569     -464     -326     -270 
    -318     -387     -383     -319     -256     -207     -180     -229 
    -367     -515     -643     -819    -1007    -1011     -820     -626 
    -488     -396     -454     -704     -931     -963     -858     -643 
    -388     -261     -272     -315     -338     -337     -318     -356 
    -541     -832    -1134    -1332    -1285     -955     -476     -108 
      13      -40     -229     -542     -788     -769     -529     -180 
     157      278      126     -116     -303     -419     -525     -679 
    -865    -1051    -1220    -1278    -1074     -604      -86      303 
     486      330     -156     -675     -974    -1121    -1236    -1243 
   -1175    -1208    -1289    -1281    -1162     -986     -820     -669 
    -546     -576     -733     -818     -811     -764     -598     -322 
    -152     -249     -550     -926    -1318    -1637    -1759    -1688 
   -1462    -1112     -704     -309      -56      -55     -244     -546 
    -882     -981     -770     -572     -548     -669     -892     -992 
    -760     -372     -147     -186     -457     -880    -1250    -1325 
   -1070     -643     -237      -43     -113     -299     -449     -499 
    -469     -414     -294     -117      -52     -186     -477     -853 
   -1104    -1051     -842     -637     -413     -241     -202     -283 
    -413     -502     -479     -322     -197     -220     -384     -661 
    -926    -1063    -1042     -886     -625     -360     -279     -472 
    -845    -1152    -1213     -904     -241      342      432      112 
    -384     -935    -1204     -990     -673     -569     -558     -572 
    -589     -302      229      481      437      336      125     -179 
    -430     -642     -799     -832     -832     -739     -471     -226 
    -143     -130     -176     -351     -683    -1107    -1337    -1317 
   -1359    -1451    -1397    -1262    -1105     -876     -666     -627 
    -756     -931    -1034    -1050     -918     -683     -577     -572 
    -592     -841    -1242    -1383    -1251    -1071     -765     -360 
    -257     -571     -958    -1235    -1345    -1117     -618     -159 
      36      -99     -402     -662     -924    -1105    -1032     -880 
    -789     -711     -753     -845     -799     -697     -461     -124 
    -110     -418     -697     -909     -922     -625     -411     -417 
    -471     -580     -514     -233      -91        4       51     -213 
    -492     -634     -888    -1200    -1513    -1713    -1413     -673 
      16      452      564      271     -186     -564     -826     -973 
   -1093    -1177    -1020     -621     -184       97      -21     -565 
   -1104    -1333    -1341    -1146     -700     -222       10       86 
     108     -118     -521    -1007    -1652    -2030    -1849    -1404 
    -761       -8      471      585      421      -70     -683    -1028 
   -1090     -954     -553     -101      109      121      -66     -475 
    -831     -947     -888     -649     -259      120      294      141 
    -198     -587     -999    -1117     -735     -194      214      415 
     189     -375     -818     -978     -885     -550     -251     -229 
    -415     -722    -1074    -1305    -1246     -855     -315      136 
     422      523      434      136     -375     -922    -1281    -1382 
   -1274    -1100    -1023    -1032     -936     -630     -248       16 
      60     -135     -426     -598     -565     -371     -171     -157 
    -414     -795    -1067    -1205    -1267    -1232    -1123     -938 
    -639     -298      -79     -106     -341     -603     -761     -834 
    -907     -997    -1104    -1248    -1352    -1379    -1341    -1193 
   -1019     -970    -1086    -1337    -1622    -1802    -1771    -1478 
   -1009     -572     -318     -295     -429     -600     -772     -934 
   -1084    -1251    -1402    -1439    -1279     -926     -523     -282 
    -232     -324     -575     -885    -1061    -1030     -756     -292 
      55       58     -279     -853    -1398    -1682    -1699    -1436 
    -939     -348      270      773      974      776      174     -635 
   -1356    -1787    -1822    -1448     -851     -288        1     -102 
    -383     -594     -704     -668     -508     -369     -311     -288 
    -268     -253     -226     -203     -164      -62       66      148 
     116      -44     -271     -454     -511     -500     -486     -461 
    -363      -98      243      434      334      -68     -596     -978 
   -1024     -688     -179      167      189     -109     -598    -1063 
   -1390    -1522    -1435    -1193     -881     -649     -595     -637 
    -723     -801     -789     -733     -716     -781     -915     -951 
    -789     -529     -274     -129     -170     -292     -418     -494 
    -442     -292      -62      217      371      206     -315     -999 
   -1513    -1611    -1285     -739     -299     -141     -172     -264 
    -349     -421     -584     -878    -1143    -1190     -994     -652 
    -334     -234     -361     -596     -807     -901     -957     -969 
    -850     -660     -463     -332     -361     -479     -623     -822 
   -1000    -1093    -1109    -1003     -834     -737     -726     -780 
    -847     -868     -878     -916     -984    -1101    -1313    -1563 
   -1707    -1737    -1652    -1424    -1154     -888     -607     -429 
    -414     -500     -693     -924    -1009     -931     -753     -457 
    -141       75      198      144     -101     -365     -513     -442 
    -112      241      275      -33     -432     -683     -652     -380 
    -105      -47     -287     -746    -1165    -1337    -1227     -882 
    -434       -1      329      388       93     -441     -976    -1248 
   -1107     -611        1      430      453       54     -573    -1104 
   -1267    -1005     -483       14      275      318      314      380 
     506      558      391      -43     -700    -1337    -1555    -1200 
    -510      139      468      376      -91     -722    -1173    -1235 
   -1016     -758     -602     -565     -627     -702     -630     -363 
     -71       48      -28     -226     -490     -738     -872     -907 
    -911     -868     -718     -460     -216     -139     -233     -399 
    -595     -832    -1090    -1343    -1563    -1667    -1530    -1139 
    -680     -379     -298     -329     -378     -480     -687     -993 
   -1395    -1804    -1976    -1713    -1085     -395       10      -49 
    -521    -1173    -1759    -2124    -2181    -1892    -1367     -785 
    -264       87      201      114      -93     -359     -637     -920 
   -1212    -1451    -1528    -1363     -969     -464      -35      157 
     102      -83     -255     -352     -423     -561     -805    -1075 
   -1210    -1142     -931     -684     -542     -571     -699     -853 
   -1027    -1169    -1166    -1034     -926     -940    -1092    -1356 
   -1607    -1617    -1263     -676     -170       13     -121     -372 
    -537     -554     -531     -592     -716     -805     -793     -672 
    -492     -307     -140      -10       60       82       40     -117 
    -422     -811    -1125    -1229    -1102     -815     -481     -220 
     -79      -20      -22     -167     -475     -823    -1039     -996 
    -661     -175      214      311       99     -228     -440     -454 
    -324     -141      -48     -128     -261     -283     -197     -128 
    -156     -241     -286     -207      -37       45      -94     -427 
    -805    -1038    -1027     -843     -681     -710     -926    -1159 
   -1232    -1062     -731     -423     -280     -322     -483     -669 
    -827     -932     -988     -999     -911     -669     -315      -39 
     -51     -356     -746     -962     -886     -633     -403     -314 
    -371     -502     -623     -673     -680     -720     -788     -785 
    -702     -629     -642     -745     -878     -954     -878     -650 
    -407     -318     -407     -569     -703     -758     -757     -773 
    -828     -885     -880     -774     -639     -581     -621     -699 
    -720     -615     -434     -341     -448     -700     -912     -945 
    -793     -580     -468     -553     -764     -878     -703     -278 
     108      198       -5     -325     -577     -652     -544     -336 
    -148      -81     -141     -216     -179      -44       48      -24 
    -271     -571     -749     -681     -372       27      306      356 
     203      -36     -251     -400     -503     -589     -700     -807 
    -812     -710     -595     -553     -619     -772     -928     -984 
    -935     -897     -926     -945     -897     -859     -957    -1200 
   -1475    -1649    -1633    -1409    -1057     -737     -598     -631 
    -706     -754     -784     -780     -774     -816     -864     -828 
    -672     -479     -454     -731    -1204    -1607    -1679    -1327 
    -745     -267     -110     -271     -569     -784     -792     -594 
    -276       18      187      226      189       97      -14      -83 
    -117     -187     -311     -444     -556     -649     -716     -737 
    -707     -643     -560     -490     -471     -484     -465     -364 
    -168       75      275      330      202      -41     -275     -418 
    -442     -348     -220     -147     -101      -32       -4     -130 
    -427     -787    -1062    -1142    -1019     -818     -710     -803 
   -1065    -1336    -1447    -1301     -962     -612     -414     -411 
    -538     -683     -774     -793     -768     -797     -969    -1224 
   -1402    -1345    -1031     -626     -368     -344     -418     -440 
    -403     -357     -313     -241     -133      -43      -63     -247 
    -573     -918    -1127    -1144    -1074    -1085    -1246    -1414 
   -1410    -1248    -1024     -777     -572     -450     -392     -368 
    -357     -341     -279     -132       81      291      415      355 
      90     -264     -571     -742     -756     -641     -463     -314 
    -228     -170     -132     -151     -238     -329     -340     -261 
    -171     -152     -228     -359     -502     -619     -661     -607 
    -538     -542     -619     -747     -942    -1152    -1225    -1046 
    -695     -345     -140     -170     -406     -691     -872     -886 
    -742     -527     -406     -486     -704     -904    -1005    -1042 
   -1055    -1034     -940     -773     -552     -317     -140      -68 
    -116     -253     -422     -577     -718     -859     -993    -1080 
   -1085    -1003     -861     -726     -669     -702     -754     -730 
    -600     -419     -243     -114      -93     -186     -303     -332 
    -218       -5      172      203       89     -120     -348     -504 
    -553     -527     -467     -411     -437     -595     -830    -1040 
   -1174    -1186    -1051     -831     -652     -610     -710     -862 
    -950     -935     -859     -776     -758     -874    -1093    -1282 
   -1318    -1154     -857     -598     -523     -669     -936    -1146 
   -1167    -1013     -793     -631     -612     -733     -899    -1005 
    -996     -899     -783     -702     -683     -720     -784     -869 
    -993    -1131    -1232    -1251    -1165     -996     -792     -642 
    -621     -735     -899     -961     -855     -666     -511     -475 
    -596     -830    -1040    -1116    -1057     -909     -712     -546 
    -495     -569     -680     -708     -610     -453     -352     -376 
    -538     -814    -1111    -1306    -1344    -1229    -1013     -795 
    -687     -737     -855     -904     -805     -531     -137      226 
     409      342       89     -183     -326     -306     -216     -163 
    -184     -243     -274     -265     -221     -128      -32      -25 
    -151     -375     -662     -973    -1209    -1267    -1147     -938 
    -762     -739     -876    -1030    -1051     -923     -735     -560 
    -415     -321     -271     -229     -197     -201     -229     -272 
    -369     -534     -727     -901    -1016    -1042     -985     -904 
    -851     -811     -750     -697     -675     -683     -729     -777 
    -789     -758     -654     -450     -183       54      193      244 
     218       85     -156     -449     -692     -768     -622     -305 
      60      333      427      375      270      135      -58     -272 
    -459     -625     -774     -895     -978    -1027    -1065    -1100 
   -1102    -1059    -1044    -1100    -1135    -1051     -823     -492 
    -174      -31     -151     -442     -702     -824     -838     -796 
    -761     -765     -783     -785     -805     -865     -904     -853 
    -699     -488     -295     -203     -265     -481     -796    -1101 
   -1293    -1345    -1321    -1298    -1300    -1286    -1181     -957 
    -677     -461     -399     -488     -665     -864     -984     -946 
    -746     -446     -124      149      313      342      270      164 
      97       83      110      162      189      144       58      -24 
     -95     -157     -233     -388     -677    -1074    -1449    -1634 
   -1557    -1310    -1047     -896     -907     -990    -1001     -900 
    -757     -673     -727     -922    -1138    -1212    -1075     -772 
    -418     -174     -151     -298     -479     -594     -631     -635 
    -648     -684     -731     -757     -749     -745     -805     -928 
   -1054    -1138    -1167    -1139    -1050     -904     -756     -661 
    -626     -664     -764     -842     -824     -741     -692     -719 
    -768     -764     -677     -550     -445     -396     -441     -572 
    -672     -619     -434     -232     -118     -156     -334     -549 
    -645     -567     -390     -243     -248     -441     -715     -930 
    -992     -900     -770     -723     -765     -819     -814     -666 
    -344       51      329      376      233        2     -222     -372 
    -386     -255      -60       98      183      191      120      -13 
    -175     -329     -453     -527     -523     -423     -283     -194 
    -209     -344     -603     -923    -1166    -1231    -1143    -1020 
    -957     -953     -943     -886     -807     -796     -912    -1109 
   -1308    -1456    -1502    -1437    -1325    -1201    -1069     -969 
    -924     -926     -994    -1131    -1243    -1196     -930     -567 
    -287     -171     -198     -298     -355     -292     -144      -21 
       4      -49     -144     -265     -394     -471     -454     -367 
    -257     -191     -278     -540     -858    -1096    -1177    -1074 
    -845     -612     -463     -402     -402     -411     -396     -403 
    -492     -648     -827     -996    -1107    -1127    -1078    -1011 
    -961     -949     -945     -896     -796     -680     -627     -733 
    -959    -1161    -1250    -1220    -1107     -951     -785     -633 
    -513     -440     -421     -445     -506     -589     -656     -666 
    -614     -530     -459     -438     -463     -476     -425     -310 
    -197     -168     -264     -465     -688     -805     -776     -666 
    -527     -429     -436     -504     -567     -602     -585     -538 
    -540     -626     -754     -859     -893     -865     -818     -762 
    -680     -575     -463     -375     -355     -414     -506     -577 
    -602     -562     -484     -426     -444     -560     -724     -851 
    -904     -886     -791     -646     -506     -426     -450     -571 
    -738     -899     -985     -969     -878     -764     -668     -604 
    -564     -562     -607     -660     -670     -615     -490     -318 
    -148      -20       37       17      -89     -318     -641     -922 
   -1067    -1073     -943     -727     -500     -314     -216     -216 
    -272     -340     -390     -407     -407     -419     -442     -422 
    -324     -172      -10      149      279      321      256       87 
    -159     -384     -469     -357      -58      321      579      581 
     360       41     -268     -507     -630     -633     -564     -461 
    -346     -259     -240     -287     -340     -351     -349     -372 
    -434     -562     -757     -951    -1077    -1093     -992     -822 
    -676     -634     -696     -757     -708     -550     -363     -236 
    -234     -326     -398     -380     -315     -288     -355     -530 
    -758     -931     -992     -959     -895     -850     -846     -874 
    -896     -868     -788     -699     -641     -589     -473     -271 
     -63       33      -25     -180     -357     -518     -611     -603 
    -515     -399     -302     -274     -359     -557     -830    -1139 
   -1413    -1560    -1533    -1359    -1111     -876     -738     -720 
    -768     -823     -872     -897     -885     -861     -884     -974 
   -1127    -1287    -1352    -1286    -1140     -967     -824     -754 
    -747     -783     -838     -901     -967     -990     -942     -839 
    -697     -548     -432     -361     -325     -302     -317     -399 
    -533     -656     -716     -691     -598     -483     -409     -402 
    -448     -526     -621     -712     -800     -885     -957    -1016 
   -1047    -1012     -936     -893     -893     -916     -934     -930 
    -911     -908     -943    -1005    -1077    -1143    -1178    -1175 
   -1147    -1097    -1031     -974     -950     -962     -999    -1055 
   -1120    -1155    -1132    -1040     -862     -611     -355     -143 
      -4       16     -112     -333     -534     -662     -703     -635 
    -517     -427     -371     -329     -295     -268     -292     -423 
    -649     -920    -1142    -1219    -1186    -1100     -931     -704 
    -540     -487     -476     -450     -448     -450     -402     -372 
    -414     -471     -545     -657     -756     -814     -847     -876 
    -893     -895     -909     -927     -897     -805     -681     -579 
    -527     -503     -477     -441     -415     -417     -406     -359 
    -307     -290     -290     -278     -259     -245     -202     -108 
      10      110      135       45     -109     -252     -363     -445 
    -477     -459     -446     -500     -639     -812     -945     -999 
    -970     -874     -766     -680     -606     -533     -460     -415 
    -419     -479     -576     -631     -571     -406     -206      -66 
     -64     -206     -400     -548     -606     -599     -568     -568 
    -629     -697     -687     -587     -456     -346     -295     -321 
    -414     -549     -707     -853     -940     -942     -843     -673 
    -527     -476     -492     -515     -515     -488     -453     -421 
    -390     -363     -322     -249     -132       -5       72       93 
      72        8      -93     -213     -352     -498     -626     -711 
    -731     -673     -571     -495     -477     -530     -669     -846 
    -992    -1061    -1046     -980     -876     -703     -467     -236 
     -83      -32      -74     -186     -311     -413     -472     -457 
    -367     -230      -86       17       55       20     -102     -286 
