Origin Time       2025/01/13 21:19:00
Lat.              31.8
Long.             131.6
Depth. (km)       30
Mag.              6.9
Station Code      NGS013
Station Lat.      32.5810
Station Long.     129.7597
Station Height(m) 5
Record Time       2025/01/13 21:20:24
Sampling Freq(Hz) 100Hz
Duration Time(s)  63
Dir.              N-S
Scale Factor      7845(gal)/8223790
Max. Acc. (gal)   1.292
Last Correction   2025/01/13 21:20:25
Memo.             
[...]
   -1547    -1603    -1667    -1734    -1795    -1836    -1868    -1892 
   -1907    -1917    -1912    -1898    -1887    -1867    -1827    -1776 
   -1707    -1624    -1537    -1451    -1367    -1290    -1210    -1129 
   -1055     -985     -922     -876     -855     -851     -858     -886 
    -926     -961     -994    -1027    -1059    -1090    -1117    -1144 
   -1167    -1173    -1163    -1150    -1138    -1132    -1150    -1181 
   -1219    -1258    -1291    -1316    -1333    -1352    -1375    -1402 
   -1433    -1474    -1521    -1574    -1640    -1711    -1790    -1890 
   -1992    -2103    -2222    -2313    -2385    -2436    -2451    -2447 
   -2419    -2359    -2285    -2195    -2106    -2031    -1957    -1887 
   -1823    -1761    -1699    -1641    -1583    -1526    -1475    -1428 
   -1377    -1320    -1254    -1185    -1129    -1090    -1061    -1050 
   -1048    -1044    -1039    -1039    -1030    -1011     -992     -977 
    -973     -976     -977     -984     -997    -1012    -1026    -1039 
   -1046    -1036    -1020    -1013    -1019    -1026    -1031    -1034 
   -1038    -1047    -1065    -1081    -1081    -1065    -1035     -997 
    -969     -951     -936     -918     -907     -922     -959    -1003 
   -1040    -1073    -1104    -1134    -1150    -1146    -1124    -1094 
   -1065    -1034    -1012    -1001    -1000    -1016    -1044    -1074 
   -1112    -1170    -1235    -1300    -1359    -1418    -1478    -1533 
   -1583    -1625    -1648    -1655    -1647    -1626    -1607    -1599 
   -1607    -1630    -1656    -1674    -1680    -1678    -1679    -1686 
   -1687    -1687    -1686    -1679    -1664    -1642    -1615    -1582 
   -1552    -1533    -1516    -1494    -1482    -1483    -1489    -1498 
   -1506    -1512    -1517    -1518    -1516    -1520    -1526    -1530 
   -1530    -1529    -1536    -1557    -1578    -1590    -1588    -1571 
   -1545    -1520    -1499    -1475    -1448    -1422    -1393    -1371 
   -1363    -1348    -1345    -1362    -1375    -1391    -1408    -1408 
   -1417    -1428    -1425    -1425    -1433    -1440    -1453    -1474 
   -1494    -1499    -1491    -1472    -1436    -1397    -1368    -1350 
   -1344    -1344    -1327    -1298    -1260    -1212    -1162    -1116 
   -1084    -1059    -1042    -1039    -1048    -1071    -1120    -1189 
   -1270    -1359    -1455    -1563    -1667    -1748    -1810    -1853 
   -1881    -1900    -1910    -1903    -1883    -1850    -1807    -1769 
   -1744    -1721    -1694    -1663    -1621    -1566    -1499    -1429 
   -1362    -1293    -1221    -1146    -1067    -1000     -951     -919 
    -908     -920     -949     -992    -1055    -1124    -1185    -1237 
   -1274    -1297    -1321    -1351    -1393    -1447    -1498    -1537 
   -1563    -1575    -1588    -1615    -1641    -1660    -1675    -1676 
   -1661    -1630    -1591    -1548    -1506    -1472    -1440    -1399 
   -1358    -1316    -1287    -1275    -1263    -1256    -1264    -1271 
   -1285    -1318    -1354    -1382    -1401    -1402    -1391    -1375 
   -1352    -1327    -1300    -1275    -1254    -1235    -1225    -1235 
   -1273    -1332    -1402    -1466    -1513    -1541    -1552    -1552 
   -1549    -1547    -1553    -1567    -1575    -1574    -1566    -1559 
   -1552    -1553    -1575    -1606    -1645    -1691    -1744    -1806 
   -1869    -1911    -1939    -1962    -1983    -2008    -2041    -2073 
   -2103    -2118    -2100    -2066    -2026    -1971    -1908    -1846 
   -1783    -1715    -1644    -1572    -1499    -1426    -1355    -1282 
   -1212    -1155    -1109    -1066    -1021     -976     -928     -878 
    -835     -805     -778     -750     -727     -704     -680     -669 
    -676     -687     -700     -718     -727     -731     -734     -741 
    -757     -781     -797     -805     -820     -839     -862     -901 
    -959    -1028    -1100    -1175    -1239    -1281    -1306    -1327 
   -1347    -1371    -1405    -1447    -1491    -1537    -1590    -1655 
   -1734    -1815    -1891    -1956    -2006    -2045    -2074    -2097 
   -2114    -2123    -2122    -2107    -2081    -2047    -2007    -1966 
   -1927    -1890    -1850    -1810    -1768    -1723    -1676    -1634 
   -1597    -1568    -1544    -1517    -1493    -1470    -1455    -1453 
   -1455    -1452    -1449    -1452    -1468    -1499    -1530    -1557 
   -1574    -1580    -1578    -1557    -1521    -1485    -1449    -1422 
   -1397    -1368    -1341    -1313    -1274    -1237    -1206    -1175 
   -1152    -1139    -1128    -1119    -1111    -1100    -1089    -1070 
   -1042    -1019    -1009    -1013    -1031    -1047    -1063    -1090 
   -1127    -1173    -1231    -1291    -1347    -1401    -1448    -1485 
   -1509    -1514    -1497    -1468    -1437    -1406    -1371    -1329 
   -1270    -1194    -1117    -1043     -970     -911     -858     -805 
    -758     -712     -672     -646     -633     -630     -643     -665 
    -696     -738     -783     -834     -888     -939     -989    -1038 
   -1089    -1142    -1201    -1266    -1333    -1404    -1472    -1536 
   -1602    -1669    -1740    -1804    -1849    -1869    -1863    -1837 
   -1803    -1765    -1726    -1690    -1651    -1605    -1563    -1520 
   -1468    -1410    -1351    -1293    -1242    -1198    -1162    -1127 
   -1102    -1092    -1094    -1108    -1129    -1155    -1193    -1242 
   -1294    -1341    -1379    -1401    -1412    -1425    -1439    -1452 
   -1474    -1491    -1498    -1497    -1493    -1495    -1497    -1495 
   -1501    -1506    -1506    -1507    -1513    -1513    -1506    -1497 
   -1486    -1460    -1424    -1383    -1336    -1293    -1258    -1233 
   -1224    -1227    -1236    -1259    -1304    -1370    -1441    -1505 
   -1557    -1607    -1657    -1709    -1763    -1818    -1873    -1927 
   -1983    -2045    -2115    -2188    -2265    -2334    -2382    -2411 
   -2423    -2417    -2405    -2393    -2376    -2343    -2286    -2218 
   -2143    -2066    -1981    -1877    -1756    -1628    -1498    -1370 
   -1255    -1155    -1069     -993     -931     -885     -853     -830 
    -823     -828     -838     -849     -861     -877     -897     -932 
    -980    -1027    -1070    -1105    -1136    -1170    -1209    -1250 
   -1278    -1289    -1286    -1278    -1263    -1243    -1224    -1205 
   -1186    -1167    -1142    -1112    -1075    -1016     -939     -857 
    -776     -702     -631     -554     -476     -402     -340     -295 
    -278     -287     -317     -360     -415     -477     -537     -591 
    -641     -684     -726     -769     -810     -843     -866     -886 
    -915     -955    -1007    -1059    -1111    -1163    -1224    -1298 
   -1385    -1474    -1559    -1642    -1725    -1799    -1865    -1911 
   -1938    -1950    -1948    -1942    -1933    -1912    -1890    -1864 
   -1827    -1794    -1764    -1738    -1722    -1707    -1690    -1671 
   -1652    -1634    -1622    -1617    -1614    -1618    -1618    -1613 
   -1607    -1594    -1568    -1540    -1507    -1479    -1464    -1455 
   -1449    -1447    -1443    -1436    -1420    -1408    -1409    -1413 
   -1421    -1439    -1460    -1479    -1497    -1514    -1534    -1548 
   -1559    -1571    -1584    -1599    -1622    -1652    -1686    -1719 
   -1752    -1776    -1782    -1768    -1740    -1703    -1664    -1624 
   -1576    -1522    -1462    -1404    -1355    -1318    -1285    -1255 
   -1240    -1239    -1244    -1258    -1285    -1323    -1368    -1431 
   -1502    -1579    -1656    -1728    -1784    -1833    -1876    -1912 
   -1942    -1961    -1960    -1934    -1900    -1868    -1831    -1798 
   -1769    -1744    -1723    -1718    -1722    -1719    -1706    -1686 
   -1657    -1621    -1583    -1553    -1532    -1509    -1483    -1464 
   -1449    -1444    -1459    -1482    -1510    -1544    -1571    -1591 
   -1606    -1610    -1599    -1580    -1559    -1536    -1503    -1468 
   -1429    -1377    -1323    -1271    -1213    -1161    -1116    -1070 
   -1028     -997     -974     -957     -939     -927     -923     -928 
    -943     -977    -1024    -1080    -1143    -1204    -1263    -1329 
   -1391    -1443    -1493    -1540    -1580    -1620    -1651    -1680 
   -1718    -1761    -1810    -1861    -1907    -1944    -1958    -1948 
   -1914    -1860    -1792    -1714    -1628    -1543    -1460    -1374 
   -1296    -1236    -1190    -1158    -1138    -1123    -1112    -1111 
   -1112    -1109    -1098    -1078    -1050    -1024    -1000     -980 
    -965     -959     -963     -977    -1005    -1046    -1082    -1121 
   -1163    -1205    -1247    -1287    -1321    -1340    -1347    -1350 
   -1340    -1325    -1313    -1296    -1270    -1242    -1213    -1188 
   -1159    -1132    -1112    -1085    -1065    -1062    -1070    -1084 
   -1098    -1108    -1111    -1104    -1082    -1057    -1035    -1017 
   -1009    -1003     -989     -967     -940     -920     -918     -931 
    -963    -1016    -1074    -1138    -1204    -1260    -1310    -1351 
   -1379    -1404    -1429    -1451    -1467    -1478    -1487    -1490 
   -1487    -1490    -1497    -1517    -1543    -1557    -1566    -1557 
   -1525    -1489    -1443    -1389    -1335    -1281    -1233    -1205 
   -1183    -1166    -1151    -1138    -1127    -1120    -1116    -1119 
   -1124    -1127    -1123    -1111    -1085    -1054    -1028    -1005 
    -984     -977     -977     -977     -978     -974     -970     -962 
    -953     -946     -936     -920     -909     -897     -878     -855 
    -827     -797     -764     -727     -702     -680     -654     -627 
    -595     -561     -529     -498     -477     -479     -496     -534 
    -591     -652     -711     -770     -827     -885     -949    -1016 
   -1080    -1147    -1220    -1286    -1351    -1418    -1482    -1549 
   -1618    -1687    -1763    -1838    -1903    -1961    -2012    -2047 
   -2069    -2083    -2093    -2103    -2108    -2108    -2097    -2076 
   -2047    -2015    -1983    -1954    -1930    -1911    -1888    -1863 
   -1836    -1787    -1726    -1663    -1588    -1518    -1462    -1416 
   -1383    -1363    -1355    -1358    -1363    -1379    -1408    -1439 
   -1466    -1493    -1520    -1544    -1567    -1594    -1618    -1632 
   -1633    -1621    -1602    -1587    -1576    -1560    -1544    -1525 
   -1495    -1466    -1431    -1385    -1336    -1293    -1252    -1217 
   -1193    -1179    -1181    -1198    -1228    -1274    -1335    -1408 
   -1489    -1572    -1653    -1734    -1811    -1883    -1946    -2000 
   -2056    -2099    -2126    -2158    -2187    -2205    -2224    -2228 
   -2220    -2209    -2185    -2145    -2088    -2015    -1933    -1846 
   -1765    -1694    -1630    -1579    -1532    -1490    -1458    -1435 
   -1417    -1412    -1420    -1440    -1466    -1486    -1497    -1495 
   -1480    -1462    -1439    -1404    -1363    -1321    -1275    -1227 
   -1182    -1144    -1116    -1088    -1058    -1043    -1031    -1009 
    -990     -970     -935     -901     -866     -831     -800     -777 
    -765     -768     -774     -784     -807     -832     -858     -891 
    -922     -949     -984    -1026    -1070    -1117    -1152    -1179 
   -1212    -1229    -1229    -1228    -1224    -1216    -1209    -1202 
   -1190    -1175    -1162    -1154    -1150    -1158    -1169    -1186 
   -1216    -1242    -1260    -1281    -1290    -1294    -1306    -1310 
   -1305    -1294    -1281    -1271    -1269    -1274    -1287    -1304 
   -1324    -1345    -1366    -1386    -1405    -1416    -1420    -1420 
   -1410    -1389    -1367    -1348    -1325    -1309    -1297    -1279 
   -1264    -1247    -1217    -1185    -1158    -1136    -1127    -1129 
   -1135    -1151    -1171    -1182    -1190    -1204    -1221    -1247 
   -1282    -1327    -1377    -1428    -1480    -1529    -1578    -1629 
   -1679    -1726    -1772    -1818    -1864    -1919    -1981    -2039 
   -2093    -2141    -2176    -2208    -2232    -2245    -2250    -2245 
   -2226    -2197    -2169    -2150    -2141    -2141    -2150    -2161 
   -2162    -2153    -2138    -2115    -2095    -2070    -2035    -2003 
   -1979    -1953    -1927    -1900    -1863    -1822    -1786    -1748 
   -1713    -1684    -1661    -1647    -1641    -1632    -1621    -1613 
   -1603    -1587    -1568    -1549    -1530    -1506    -1471    -1431 
   -1389    -1351    -1317    -1283    -1251    -1227    -1205    -1181 
   -1161    -1140    -1113    -1084    -1042     -992     -951     -913 
    -874     -843     -822     -799     -773     -753     -735     -722 
    -716     -716     -715     -718     -720     -724     -731     -739 
    -753     -766     -784     -803     -819     -838     -859     -877 
    -895     -903     -903     -903     -893     -870     -843     -808 
    -772     -742     -718     -699     -680     -662     -648     -633 
    -626     -630     -635     -641     -646     -653     -669     -691 
    -714     -746     -784     -824     -865     -907     -949     -988 
   -1034    -1075    -1107    -1147    -1189    -1228    -1281    -1333 
   -1381    -1426    -1456    -1482    -1494    -1493    -1491    -1483 
   -1467    -1453    -1439    -1421    -1401    -1383    -1367    -1347 
   -1332    -1329    -1329    -1336    -1345    -1356    -1372    -1395 
   -1429    -1472    -1520    -1572    -1629    -1687    -1745    -1807 
   -1875    -1946    -2018    -2084    -2151    -2227    -2301    -2369 
   -2439    -2504    -2559    -2605    -2640    -2666    -2691    -2713 
   -2727    -2728    -2718    -2702    -2681    -2651    -2614    -2563 
   -2506    -2451    -2389    -2331    -2281    -2228    -2173    -2116 
   -2053    -1991    -1933    -1869    -1800    -1736    -1667    -1588 
   -1517    -1453    -1389    -1329    -1275    -1224    -1181    -1146 
   -1113    -1086    -1070    -1054    -1034    -1016     -994     -969 
    -940     -911     -882     -857     -832     -810     -784     -757 
    -731     -710     -687     -665     -653     -648     -642     -646 
    -662     -684     -711     -745     -777     -812     -850     -892 
    -940     -990    -1038    -1080    -1116    -1148    -1178    -1201 
   -1220    -1237    -1255    -1267    -1275    -1285    -1282    -1277 
   -1273    -1259    -1243    -1229    -1215    -1202    -1197    -1193 
   -1189    -1185    -1178    -1169    -1166    -1169    -1178    -1192 
   -1202    -1212    -1224    -1232    -1243    -1266    -1293    -1321 
   -1354    -1386    -1416    -1431    -1437    -1451    -1456    -1451 
   -1441    -1425    -1398    -1360    -1320    -1279    -1236    -1194 
   -1156    -1124    -1102    -1086    -1071    -1059    -1050    -1044 
   -1042    -1036    -1039    -1044    -1040    -1042    -1050    -1048 
   -1047    -1048    -1048    -1050    -1050    -1055    -1057    -1057 
   -1062    -1062    -1057    -1054    -1051    -1048    -1046    -1040 
   -1048    -1066    -1080    -1094    -1115    -1134    -1147    -1166 
   -1182    -1197    -1219    -1244    -1270    -1298    -1317    -1324 
   -1328    -1331    -1331    -1336    -1347    -1358    -1367    -1382 
   -1399    -1409    -1414    -1416    -1413    -1410    -1408    -1399 
   -1385    -1375    -1370    -1368    -1372    -1371    -1370    -1371 
   -1372    -1383    -1394    -1401    -1413    -1428    -1433    -1437 
   -1440    -1444    -1453    -1468    -1487    -1509    -1536    -1560 
   -1580    -1598    -1609    -1609    -1611    -1614    -1617    -1625 
   -1630    -1632    -1636    -1634    -1637    -1642    -1641    -1637 
   -1634    -1628    -1617    -1606    -1599    -1593    -1584    -1584 
   -1591    -1594    -1602    -1617    -1628    -1641    -1653    -1657 
   -1659    -1661    -1661    -1661    -1665    -1672    -1683    -1688 
   -1688    -1686    -1683    -1678    -1678    -1676    -1671    -1660 
   -1645    -1628    -1606    -1591    -1586    -1582    -1578    -1580 
   -1583    -1580    -1582    -1584    -1582    -1583    -1582    -1575 
   -1572    -1568    -1557    -1552    -1543    -1529    -1521    -1518 
   -1517    -1518    -1528    -1545    -1563    -1579    -1599    -1617 
   -1629    -1645    -1659    -1672    -1686    -1695    -1702    -1707 
   -1705    -1705    -1709    -1706    -1703    -1699    -1684    -1663 
   -1641    -1609    -1579    -1555    -1522    -1491    -1464    -1437 
   -1414    -1389    -1366    -1354    -1348    -1345    -1351    -1362 
   -1364    -1368    -1378    -1387    -1402    -1425    -1445    -1463 
   -1475    -1487    -1502    -1516    -1524    -1524    -1517    -1501 
   -1475    -1448    -1418    -1385    -1345    -1297    -1247    -1204 
   -1162    -1127    -1094    -1058    -1027    -1000     -969     -949 
    -934     -912     -901     -899     -891     -886     -882     -873 
    -873     -881     -885     -891     -899     -900     -895     -895 
    -897     -897     -901     -903     -899     -901     -903     -907 
    -916     -924     -938     -961     -981    -1001    -1020    -1040 
   -1063    -1077    -1080    -1082    -1082    -1077    -1073    -1071 
   -1070    -1074    -1086    -1094    -1101    -1113    -1124    -1134 
   -1147    -1166    -1190    -1217    -1248    -1282    -1309    -1344 
   -1381    -1404    -1426    -1451    -1464    -1480    -1497    -1512 
   -1533    -1552    -1570    -1597    -1615    -1632    -1647    -1649 
   -1644    -1641    -1637    -1632    -1622    -1609    -1593    -1570 
   -1541    -1513    -1483    -1462    -1441    -1421    -1412    -1409 
   -1401    -1394    -1397    -1398    -1398    -1404    -1404    -1398 
   -1395    -1389    -1375    -1355    -1331    -1312    -1298    -1285 
   -1277    -1273    -1264    -1255    -1247    -1242    -1240    -1242 
   -1246    -1244    -1242    -1247    -1255    -1260    -1270    -1287 
   -1306    -1331    -1367    -1408    -1448    -1491    -1529    -1563 
   -1598    -1626    -1653    -1680    -1699    -1718    -1734    -1744 
   -1755    -1767    -1782    -1799    -1819    -1841    -1857    -1869 
   -1877    -1883    -1884    -1880    -1873    -1871    -1872    -1871 
   -1867    -1865    -1869    -1876    -1883    -1891    -1892    -1884 
   -1872    -1854    -1829    -1802    -1773    -1734    -1690    -1644 
   -1599    -1552    -1510    -1478    -1448    -1422    -1402    -1375 
   -1345    -1316    -1287    -1266    -1254    -1242    -1232    -1221 
   -1216    -1220    -1227    -1236    -1248    -1266    -1287    -1302 
   -1318    -1341    -1360    -1377    -1398    -1417    -1432    -1445 
   -1451    -1460    -1468    -1467    -1471    -1475    -1471    -1470 
   -1466    -1456    -1449    -1440    -1425    -1409    -1387    -1363 
   -1341    -1321    -1301    -1279    -1258    -1232    -1198    -1167 
   -1138    -1107    -1075    -1042    -1013     -992     -973     -958 
    -947     -943     -942     -945     -946     -949     -955     -965 
    -972     -982     -997    -1007    -1015    -1023    -1034    -1043 
   -1059    -1084    -1102    -1124    -1151    -1171    -1192    -1213 
   -1236    -1259    -1279    -1297    -1313    -1328    -1337    -1345 
   -1362    -1375    -1386    -1401    -1416    -1432    -1453    -1475 
   -1501    -1525    -1547    -1567    -1586    -1602    -1617    -1634 
   -1649    -1660    -1671    -1684    -1690    -1688    -1692    -1688 
   -1674    -1661    -1653    -1641    -1624    -1605    -1587    -1568 
