Origin Time       2025/01/13 21:19:00
Lat.              31.8
Long.             131.6
Depth. (km)       30
Mag.              6.9
Station Code      NGS019
Station Lat.      32.9003
Station Long.     129.9583
Station Height(m) 2
Record Time       2025/01/13 21:20:30
Sampling Freq(Hz) 100Hz
Duration Time(s)  70
Dir.              N-S
Scale Factor      7845(gal)/8223790
Max. Acc. (gal)   4.286
Last Correction   2025/01/13 21:20:32
Memo.             
[...]
   -9953    -9969   -10018   -10098   -10199   -10327   -10489   -10674 
  -10886   -11125   -11375   -11615   -11839   -12059   -12256   -12418 
  -12573   -12707   -12799   -12853   -12862   -12818   -12717   -12559 
  -12353   -12106   -11850   -11596   -11335   -11083   -10844   -10606 
  -10372   -10125    -9884    -9659    -9448    -9267    -9121    -9023 
   -8962    -8918    -8914    -8947    -9007    -9101    -9220    -9367 
   -9553    -9759    -9979   -10224   -10488   -10741   -10975   -11186 
  -11376   -11547   -11697   -11817   -11904   -11956   -11978   -11969 
  -11938   -11873   -11777   -11662   -11523   -11377   -11236   -11086 
  -10943   -10818   -10705   -10625   -10586   -10577   -10586   -10602 
  -10625   -10643   -10640   -10615   -10561   -10482   -10376   -10254 
  -10129   -10021    -9957    -9931    -9937    -9980   -10017   -10037 
  -10066   -10080   -10065   -10029    -9963    -9895    -9823    -9733 
   -9636    -9524    -9400    -9298    -9225    -9173    -9158    -9190 
   -9255    -9367    -9539    -9751   -10002   -10281   -10555   -10845 
  -11137   -11389   -11614   -11769   -11835   -11823   -11701   -11500 
  -11245   -10917   -10578   -10247    -9919    -9644    -9404    -9171 
   -8988    -8842    -8716    -8644    -8615    -8618    -8679    -8777 
   -8907    -9086    -9277    -9470    -9687    -9887   -10058   -10218 
  -10343   -10449   -10540   -10600   -10646   -10690   -10739   -10805 
  -10882   -10953   -11029   -11113   -11194   -11263   -11313   -11325 
  -11292   -11236   -11176   -11099   -11009   -10913   -10806   -10706 
  -10619   -10559   -10548   -10577   -10644   -10759   -10917   -11110 
  -11308   -11483   -11610   -11676   -11685   -11632   -11519   -11348 
  -11109   -10818   -10489   -10139    -9790    -9435    -9096    -8784 
   -8505    -8302    -8183    -8144    -8221    -8403    -8671    -9009 
   -9370    -9730   -10080   -10385   -10635   -10836   -10984   -11079 
  -11142   -11195   -11240   -11277   -11296   -11315   -11354   -11391 
  -11443   -11518   -11603   -11719   -11847   -11970   -12085   -12170 
  -12231   -12248   -12208   -12127   -11989   -11811   -11614   -11383 
  -11137   -10908   -10683   -10478   -10305   -10165   -10054    -9984 
   -9950    -9948    -9987   -10058   -10152   -10255   -10362   -10477 
  -10588   -10683   -10771   -10833   -10881   -10922   -10928   -10921 
  -10932   -10949   -10971   -10993   -10987   -10957   -10917   -10872 
  -10847   -10831   -10800   -10760   -10692   -10585   -10481   -10363 
  -10219   -10096    -9984    -9861    -9764    -9672    -9607    -9625 
   -9691    -9799    -9984   -10204   -10426   -10663   -10897   -11101 
  -11267   -11398   -11506   -11601   -11676   -11739   -11789   -11799 
  -11788   -11753   -11654   -11515   -11346   -11137   -10925   -10731 
  -10543   -10388   -10287   -10237   -10230   -10270   -10361   -10477 
  -10598   -10758   -10933   -11071   -11198   -11322   -11408   -11472 
  -11526   -11568   -11608   -11647   -11699   -11780   -11873   -11982 
  -12117   -12241   -12336   -12413   -12459   -12474   -12476   -12457 
  -12428   -12413   -12382   -12326   -12248   -12125   -11969   -11786 
  -11565   -11307   -11017   -10713   -10408   -10095    -9783    -9487 
   -9208    -8958    -8750    -8573    -8441    -8357    -8322    -8360 
   -8469    -8625    -8826    -9072    -9342    -9628    -9917   -10197 
  -10463   -10706   -10937   -11176   -11414   -11616   -11812   -12021 
  -12201   -12355   -12496   -12595   -12638   -12633   -12579   -12469 
  -12285   -12040   -11754   -11423   -11094   -10791   -10505   -10276 
  -10108    -9988    -9933    -9925    -9953   -10023   -10108   -10200 
  -10331   -10486   -10644   -10802   -10941   -11063   -11152   -11157 
  -11110   -11018   -10829   -10585   -10323   -10014    -9717    -9463 
   -9229    -9061    -8964    -8910    -8907    -8951    -9027    -9148 
   -9308    -9494    -9741   -10021   -10287   -10555   -10804   -10995 
  -11157   -11287   -11365   -11415   -11461   -11497   -11535   -11574 
  -11585   -11587   -11578   -11514   -11412   -11264   -11038   -10794 
  -10528   -10250   -10023    -9814    -9609    -9436    -9277    -9135 
   -9034    -8954    -8904    -8915    -8972    -9046    -9166    -9325 
   -9495    -9676    -9850   -10014   -10179   -10314   -10436   -10567 
  -10648   -10696   -10725   -10687   -10613   -10527   -10401   -10278 
  -10170   -10054    -9964    -9888    -9817    -9783    -9756    -9715 
   -9701    -9672    -9603    -9549    -9490    -9413    -9374    -9369 
   -9406    -9509    -9651    -9836   -10083   -10349   -10611   -10878 
  -11115   -11295   -11465   -11639   -11796   -11956   -12118   -12268 
  -12428   -12553   -12648   -12726   -12734   -12691   -12622   -12486 
  -12320   -12152   -11950   -11726   -11496   -11252   -11001   -10747 
  -10507   -10274   -10044    -9833    -9651    -9490    -9363    -9288 
   -9252    -9246    -9305    -9414    -9555    -9745    -9949   -10142 
  -10334   -10497   -10625   -10733   -10827   -10912   -10976   -11020 
  -11055   -11079   -11101   -11126   -11172   -11237   -11314   -11416 
  -11533   -11655   -11792   -11921   -12032   -12117   -12187   -12249 
  -12272   -12259   -12218   -12117   -11954   -11746   -11491   -11207 
  -10895   -10567   -10264    -9999    -9790    -9634    -9509    -9431 
   -9402    -9408    -9439    -9498    -9568    -9632    -9721    -9845 
   -9987   -10156   -10312   -10427   -10520   -10570   -10585   -10584 
  -10527   -10455   -10424   -10396   -10396   -10432   -10459   -10481 
  -10492   -10492   -10480   -10405   -10300   -10200   -10071    -9937 
   -9834    -9728    -9621    -9545    -9493    -9454    -9470    -9540 
   -9639    -9786    -9977   -10201   -10465   -10743   -11024   -11300 
  -11551   -11766   -11935   -12051   -12123   -12151   -12135   -12071 
  -11983   -11871   -11728   -11585   -11443   -11299   -11184   -11074 
  -10972   -10922   -10901   -10906   -10937   -10971   -11013   -11051 
  -11097   -11164   -11237   -11326   -11415   -11484   -11539   -11557 
  -11537   -11487   -11404   -11299   -11175   -11055   -10937   -10824 
  -10740   -10669   -10616   -10596   -10585   -10606   -10648   -10667 
  -10687   -10693   -10667   -10635   -10592   -10543   -10492   -10427 
  -10362   -10316   -10273   -10216   -10158   -10111   -10073   -10038 
  -10018   -10025   -10057   -10116   -10188   -10269   -10374   -10476 
  -10554   -10605   -10601   -10546   -10484   -10423   -10354   -10314 
  -10324   -10365   -10428   -10534   -10685   -10852   -11018   -11205 
  -11426   -11666   -11915   -12150   -12343   -12492   -12590   -12617 
  -12561   -12447   -12289   -12078   -11840   -11568   -11254   -10957 
  -10666   -10339   -10037    -9786    -9526    -9286    -9119    -8991 
   -8908    -8889    -8918    -9027    -9192    -9348    -9535    -9744 
   -9946   -10179   -10386   -10527   -10671   -10798   -10855   -10921 
  -10989   -11007   -11013   -10995   -10956   -10905   -10810   -10724 
  -10673   -10602   -10531   -10492   -10459   -10432   -10424   -10426 
  -10424   -10409   -10401   -10390   -10354   -10314   -10266   -10200 
  -10130   -10050    -9960    -9886    -9836    -9801    -9772    -9778 
   -9813    -9826    -9850    -9913    -9961   -10011   -10080   -10149 
  -10215   -10250   -10237   -10218   -10173   -10083    -9988    -9873 
   -9748    -9672    -9625    -9601    -9624    -9656    -9702    -9801 
   -9923   -10064   -10237   -10428   -10647   -10897   -11146   -11379 
  -11608   -11828   -12032   -12217   -12367   -12486   -12568   -12602 
  -12592   -12510   -12370   -12204   -12009   -11816   -11626   -11426 
  -11237   -11052   -10871   -10713   -10546   -10374   -10231   -10125 
  -10072   -10075   -10123   -10207   -10304   -10399   -10493   -10575 
  -10629   -10678   -10747   -10840   -10986   -11172   -11361   -11562 
  -11767   -11939   -12069   -12131   -12132   -12089   -11974   -11821 
  -11650   -11437   -11203   -10947   -10687   -10463   -10239   -10027 
   -9857    -9718    -9620    -9556    -9528    -9553    -9612    -9690 
   -9815    -9973   -10146   -10345   -10566   -10793   -11022   -11249 
  -11472   -11711   -11934   -12086   -12198   -12266   -12272   -12252 
  -12175   -12035   -11890   -11711   -11483   -11260   -11024   -10755 
  -10461   -10138    -9828    -9549    -9296    -9090    -8947    -8851 
   -8785    -8758    -8772    -8804    -8829    -8835    -8883    -9003 
   -9157    -9316    -9478    -9664    -9910   -10185   -10450   -10723 
  -11034   -11345   -11642   -11939   -12212   -12451   -12621   -12698 
  -12685   -12565   -12340   -12013   -11578   -11097   -10600   -10053 
   -9516    -9026    -8576    -8220    -7982    -7873    -7902    -8008 
   -8164    -8386    -8637    -8926    -9259    -9599    -9952   -10288 
  -10601   -10929   -11225   -11481   -11730   -11900   -11992   -12090 
  -12159   -12182   -12183   -12145   -12102   -12042   -11934   -11823 
  -11688   -11537   -11411   -11279   -11129   -10994   -10839   -10662 
  -10505   -10361   -10211   -10069    -9934    -9829    -9775    -9740 
   -9733    -9796    -9907   -10031   -10180   -10357   -10548   -10773 
  -11043   -11327   -11614   -11889   -12177   -12460   -12660   -12780 
  -12830   -12791   -12729   -12602   -12374   -12116   -11793   -11418 
  -11047   -10642   -10262    -9963    -9663    -9387    -9169    -8964 
   -8792    -8656    -8498    -8363    -8297    -8249    -8235    -8271 
   -8309    -8364    -8463    -8603    -8793    -9058    -9390    -9747 
  -10129   -10539   -10941   -11364   -11792   -12159   -12518   -12865 
  -13154   -13393   -13537   -13568   -13502   -13308   -13023   -12704 
  -12316   -11881   -11460   -11047   -10648   -10250    -9873    -9540 
   -9231    -8993    -8823    -8700    -8662    -8704    -8787    -8916 
   -9086    -9279    -9487    -9666    -9823    -9999   -10142   -10257 
  -10408   -10575   -10759   -10974   -11175   -11380   -11581   -11734 
  -11871   -11959   -11967   -11947   -11848   -11661   -11462   -11223 
  -10937   -10644   -10311    -9983    -9717    -9487    -9300    -9138 
   -9015    -8972    -8918    -8846    -8853    -8892    -8949    -9055 
   -9165    -9300    -9458    -9580    -9709    -9833    -9941   -10072 
  -10147   -10137   -10081    -9946    -9764    -9607    -9445    -9305 
   -9213    -9138    -9112    -9150    -9236    -9379    -9562    -9814 
  -10139   -10449   -10752   -11091   -11443   -11821   -12228   -12617 
  -12973   -13279   -13544   -13755   -13872   -13938   -13981   -13971 
  -13923   -13842   -13709   -13556   -13363   -13108   -12820   -12503 
  -12178   -11850   -11484   -11122   -10816   -10547   -10318   -10118 
   -9941    -9807    -9694    -9599    -9545    -9490    -9470    -9490 
   -9504    -9568    -9664    -9749    -9910   -10122   -10332   -10589 
  -10859   -11119   -11403   -11658   -11867   -12071   -12231   -12340 
  -12421   -12460   -12474   -12457   -12366   -12208   -11986   -11692 
  -11392   -11110   -10831   -10598   -10431   -10335   -10328   -10388 
  -10501   -10670   -10871   -11094   -11344   -11592   -11824   -12056 
  -12279   -12479   -12667   -12811   -12897   -12933   -12861   -12681 
  -12469   -12236   -11973   -11691   -11371   -11025   -10686   -10342 
   -9995    -9680    -9396    -9157    -9009    -8946    -8950    -9022 
   -9154    -9339    -9547    -9742    -9938   -10154   -10373   -10597 
  -10856   -11142   -11429   -11678   -11881   -12039   -12118   -12123 
  -12070   -11990   -11938   -11843   -11647   -11426   -11209   -10979 
  -10750   -10520   -10303   -10088    -9834    -9539    -9232    -8947 
   -8707    -8494    -8257    -8032    -7879    -7776    -7731    -7778 
   -7911    -8125    -8406    -8738    -9112    -9466    -9783   -10091 
  -10363   -10589   -10800   -11006   -11192   -11354   -11477   -11556 
  -11616   -11665   -11692   -11689   -11642   -11570   -11488   -11383 
  -11290   -11233   -11173   -11115   -11065   -10997   -10941   -10882 
  -10791   -10724   -10667   -10571   -10481   -10411   -10328   -10235 
  -10135   -10042    -9971    -9917    -9894    -9887    -9900    -9968 
  -10083   -10220   -10384   -10581   -10808   -11030   -11232   -11425 
  -11569   -11665   -11730   -11730   -11664   -11533   -11327   -11086 
  -10818   -10503   -10180    -9868    -9552    -9231    -8889    -8557 
   -8272    -8040    -7874    -7754    -7655    -7604    -7612    -7674 
   -7804    -7977    -8168    -8364    -8564    -8799    -9036    -9271 
   -9560    -9869   -10179   -10515   -10821   -11056   -11249   -11418 
  -11566   -11693   -11763   -11761   -11697   -11574   -11412   -11238 
  -11065   -10920   -10800   -10690   -10605   -10536   -10473   -10420 
  -10376   -10350   -10338   -10327   -10311   -10299   -10280   -10219 
  -10119   -10017    -9919    -9844    -9807    -9814    -9849    -9919 
  -10049   -10206   -10382   -10600   -10829   -11056   -11252   -11389 
  -11520   -11630   -11718   -11842   -11959   -12051   -12160   -12283 
  -12417   -12567   -12744   -12958   -13182   -13409   -13612   -13751 
  -13864   -13936   -13907   -13821   -13698   -13498   -13212   -12829 
  -12364   -11890   -11421   -10918   -10369    -9801    -9288    -8860 
   -8469    -8116    -7842    -7676    -7646    -7746    -7946    -8225 
   -8587    -9013    -9471    -9953   -10488   -11063   -11631   -12181 
  -12710   -13236   -13760   -14203   -14542   -14824   -15003   -15083 
  -15145   -15134   -15009   -14841   -14596   -14212   -13749   -13242 
  -12671   -12046   -11415   -10828   -10238    -9612    -9042    -8538 
   -8073    -7728    -7497    -7304    -7183    -7140    -7136    -7214 
   -7383    -7614    -7923    -8309    -8752    -9250    -9786   -10339 
  -10909   -11472   -11985   -12429   -12800   -13077   -13243   -13297 
  -13252   -13140   -12953   -12698   -12397   -12023   -11581   -11109 
  -10642   -10219    -9780    -9283    -8815    -8386    -7943    -7538 
   -7219    -6968    -6777    -6673    -6667    -6770    -6959    -7203 
   -7533    -7947    -8405    -8904    -9427    -9950   -10481   -11006 
  -11508   -11997   -12483   -12919   -13302   -13651   -13923   -14129 
  -14289   -14374   -14393   -14358   -14241   -14038   -13755   -13390 
  -12972   -12525   -12037   -11497   -10908   -10260    -9571    -8899 
   -8280    -7735    -7267    -6875    -6574    -6358    -6235    -6231 
   -6334    -6532    -6843    -7257    -7761    -8325    -8912    -9508 
  -10102   -10674   -11202   -11653   -12031   -12378   -12675   -12897 
  -13074   -13196   -13275   -13327   -13305   -13235   -13158   -13034 
  -12865   -12673   -12444   -12199   -11951   -11670   -11389   -11128 
  -10845   -10601   -10426   -10253   -10122   -10048    -9973    -9954 
   -9998   -10053   -10173   -10339   -10504   -10712   -10945   -11175 
  -11431   -11689   -11942   -12195   -12384   -12525   -12634   -12675 
  -12673   -12653   -12592   -12496   -12371   -12183   -11955   -11736 
  -11518   -11298   -11114   -10979   -10882   -10824   -10787   -10770 
  -10782   -10781   -10747   -10690   -10593   -10467   -10323   -10137 
   -9906    -9640    -9364    -9096    -8819    -8548    -8303    -8063 
   -7831    -7642    -7508    -7437    -7422    -7449    -7527    -7654 
   -7786    -7921    -8078    -8241    -8415    -8610    -8807    -9001 
   -9202    -9412    -9617    -9817   -10022   -10222   -10404   -10592 
  -10791   -11002   -11223   -11450   -11680   -11886   -12042   -12160 
  -12235   -12231   -12137   -11970   -11739   -11437   -11083   -10717 
  -10374   -10087    -9844    -9634    -9466    -9350    -9316    -9383 
   -9540    -9782   -10085   -10420   -10773   -11121   -11457   -11796 
  -12108   -12363   -12548   -12623   -12599   -12525   -12413   -12291 
  -12183   -12042   -11865   -11685   -11487   -11306   -11198   -11121 
  -11060   -11016   -10940   -10840   -10750   -10648   -10551   -10449 
  -10319   -10200   -10080    -9927    -9778    -9641    -9528    -9463 
   -9443    -9437    -9448    -9505    -9626    -9794    -9969   -10119 
  -10224   -10295   -10327   -10334   -10336   -10315   -10265   -10210 
  -10145   -10080   -10035    -9998    -9958    -9927    -9900    -9904 
   -9944    -9988   -10048   -10135   -10246   -10382   -10531   -10686 
  -10844   -10962   -11045   -11136   -11215   -11272   -11313   -11335 
  -11346   -11360   -11384   -11415   -11443   -11479   -11529   -11600 
  -11693   -11821   -11985   -12136   -12258   -12359   -12399   -12356 
  -12251   -12083   -11861   -11610   -11340   -11045   -10756   -10459 
  -10149    -9865    -9613    -9391    -9236    -9134    -9058    -9042 
   -9092    -9173    -9267    -9374    -9493    -9613    -9724    -9841 
   -9967   -10076   -10177   -10299   -10430   -10548   -10677   -10831 
  -10984   -11098   -11202   -11304   -11352   -11338   -11286   -11199 
  -11091   -10952   -10767   -10540   -10261    -9944    -9616    -9266 
   -8889    -8538    -8241    -7987    -7794    -7676    -7628    -7661 
   -7763    -7936    -8194    -8521    -8900    -9332    -9813   -10326 
  -10829   -11300   -11743   -12154   -12545   -12930   -13286   -13597 
  -13875   -14130   -14341   -14474   -14527   -14485   -14327   -14050 
  -13674   -13201   -12652   -12070   -11469   -10852   -10238    -9630 
   -9031    -8476    -8000    -7591    -7249    -6980    -6783    -6667 
   -6627    -6663    -6793    -7006    -7294    -7650    -8040    -8448 
   -8870    -9309    -9765   -10215   -10651   -11075   -11466   -11828 
  -12160   -12448   -12694   -12881   -12996   -13061   -13068   -13000 
  -12883   -12737   -12545   -12318   -12066   -11757   -11403   -11030 
  -10647   -10287    -9954    -9661    -9441    -9283    -9189    -9178 
   -9238    -9344    -9509    -9734    -9999   -10277   -10574   -10903 
  -11250   -11614   -12009   -12406   -12814   -13228   -13575   -13857 
  -14099   -14250   -14308   -14310   -14238   -14080   -13859   -13566 
  -13178   -12742   -12276   -11776   -11291   -10810   -10312    -9855 
   -9456    -9105    -8815    -8575    -8376    -8235    -8147    -8101 
   -8105    -8147    -8208    -8306    -8448    -8650    -8928    -9231 
   -9568    -9998   -10486   -10995   -11515   -12027   -12518   -12968 
  -13363   -13693   -13914   -14023   -14042   -13975   -13836   -13628 
  -13367   -13082   -12749   -12370   -11979   -11576   -11146   -10733 
  -10363   -10025    -9756    -9582    -9475    -9433    -9441    -9467 
   -9525    -9585    -9609    -9632    -9639    -9594    -9544    -9512 
   -9494    -9509    -9518    -9529    -9585    -9652    -9703    -9752 
   -9794    -9841    -9900    -9992   -10131   -10307   -10505   -10708 
  -10906   -11113   -11326   -11530   -11719   -11875   -11986   -12059 
  -12091   -12082   -12043   -11996   -11928   -11847   -11773   -11695 
  -11620   -11580   -11556   -11542   -11533   -11483   -11392   -11277 
  -11140   -10984   -10818   -10650   -10467   -10261   -10054    -9863 
   -9675    -9489    -9308    -9142    -9019    -8935    -8887    -8897 
   -8965    -9066    -9211    -9389    -9574    -9753    -9926   -10108 
  -10295   -10461   -10615   -10755   -10887   -11022   -11140   -11221 
  -11267   -11268   -11234   -11195   -11136   -11029   -10899   -10783 
  -10689   -10586   -10457   -10314   -10168   -10019    -9859    -9679 
