Origin Time       2025/01/13 21:19:00
Lat.              31.8
Long.             131.6
Depth. (km)       30
Mag.              6.9
Station Code      NGS001
Station Lat.      33.3617
Station Long.     129.5377
Station Height(m) 134
Record Time       2025/01/13 21:20:50
Sampling Freq(Hz) 100Hz
Duration Time(s)  79
Dir.              E-W
Scale Factor      7845(gal)/8223790
Max. Acc. (gal)   2.209
Last Correction   2025/01/13 21:20:52
Memo.             
[...]
   -7990    -7912    -7862    -7842    -7851    -7889    -7952    -8039 
   -8144    -8263    -8390    -8511    -8625    -8722    -8792    -8830 
   -8837    -8806    -8737    -8637    -8507    -8355    -8198    -8041 
   -7890    -7751    -7624    -7514    -7419    -7341    -7276    -7226 
   -7191    -7173    -7172    -7188    -7227    -7288    -7357    -7426 
   -7496    -7565    -7626    -7674    -7711    -7747    -7786    -7820 
   -7858    -7902    -7960    -8028    -8094    -8152    -8194    -8208 
   -8189    -8137    -8060    -7971    -7874    -7770    -7673    -7591 
   -7514    -7453    -7408    -7372    -7349    -7344    -7353    -7380 
   -7415    -7453    -7497    -7545    -7591    -7642    -7689    -7717 
   -7734    -7735    -7709    -7658    -7592    -7518    -7441    -7362 
   -7291    -7222    -7148    -7080    -7022    -6968    -6934    -6925 
   -6940    -6988    -7067    -7161    -7271    -7384    -7489    -7584 
   -7659    -7707    -7719    -7693    -7636    -7549    -7434    -7300 
   -7155    -7002    -6851    -6701    -6561    -6444    -6363    -6322 
   -6323    -6373    -6467    -6594    -6739    -6897    -7060    -7221 
   -7379    -7523    -7643    -7738    -7804    -7827    -7813    -7774 
   -7703    -7603    -7485    -7357    -7225    -7099    -6988    -6898 
   -6835    -6801    -6794    -6809    -6845    -6897    -6952    -7014 
   -7083    -7155    -7226    -7290    -7345    -7385    -7412    -7433 
   -7447    -7458    -7469    -7489    -7520    -7561    -7614    -7673 
   -7738    -7800    -7855    -7909    -7965    -8017    -8068    -8121 
   -8164    -8199    -8220    -8221    -8203    -8162    -8098    -8014 
   -7915    -7805    -7692    -7577    -7461    -7346    -7236    -7136 
   -7051    -6988    -6953    -6945    -6961    -6999    -7053    -7118 
   -7186    -7254    -7321    -7375    -7416    -7438    -7442    -7431 
   -7402    -7356    -7307    -7263    -7223    -7194    -7180    -7177 
   -7183    -7203    -7231    -7264    -7298    -7330    -7364    -7389 
   -7406    -7416    -7420    -7425    -7430    -7427    -7430    -7439 
   -7449    -7456    -7461    -7476    -7499    -7518    -7538    -7561 
   -7577    -7593    -7608    -7608    -7605    -7603    -7588    -7569 
   -7554    -7530    -7501    -7477    -7452    -7430    -7419    -7412 
   -7411    -7425    -7449    -7479    -7512    -7551    -7599    -7650 
   -7708    -7774    -7835    -7879    -7909    -7920    -7909    -7882 
   -7844    -7800    -7751    -7708    -7669    -7628    -7589    -7549 
   -7497    -7433    -7350    -7257    -7168    -7091    -7037    -7015 
   -7025    -7064    -7138    -7230    -7326    -7415    -7485    -7528 
   -7547    -7550    -7543    -7530    -7508    -7481    -7449    -7412 
   -7364    -7308    -7249    -7184    -7128    -7088    -7065    -7063 
   -7090    -7140    -7213    -7311    -7419    -7537    -7661    -7774 
   -7875    -7966    -8040    -8109    -8174    -8229    -8286    -8343 
   -8398    -8451    -8503    -8549    -8587    -8617    -8637    -8645 
   -8638    -8621    -8587    -8538    -8478    -8406    -8326    -8239 
   -8141    -8037    -7925    -7805    -7677    -7549    -7429    -7326 
   -7246    -7196    -7180    -7195    -7238    -7304    -7384    -7472 
   -7561    -7642    -7707    -7762    -7804    -7832    -7847    -7844 
   -7828    -7803    -7761    -7705    -7646    -7577    -7501    -7422 
   -7339    -7254    -7168    -7080    -6993    -6916    -6853    -6818 
   -6816    -6841    -6898    -6987    -7095    -7213    -7327    -7431 
   -7519    -7595    -7657    -7700    -7723    -7728    -7717    -7693 
   -7666    -7641    -7626    -7624    -7638    -7666    -7704    -7747 
   -7803    -7869    -7938    -8002    -8064    -8127    -8183    -8235 
   -8280    -8322    -8361    -8395    -8421    -8440    -8444    -8430 
   -8405    -8364    -8309    -8243    -8175    -8116    -8067    -8043 
   -8046    -8070    -8109    -8162    -8228    -8303    -8383    -8459 
   -8525    -8579    -8618    -8633    -8626    -8596    -8550    -8488 
   -8411    -8322    -8232    -8139    -8043    -7951    -7863    -7780 
   -7704    -7639    -7592    -7570    -7565    -7572    -7591    -7611 
   -7628    -7635    -7631    -7619    -7604    -7587    -7568    -7553 
   -7542    -7534    -7528    -7518    -7499    -7473    -7443    -7415 
   -7391    -7373    -7366    -7366    -7369    -7373    -7373    -7360 
   -7329    -7287    -7236    -7171    -7102    -7033    -6966    -6893 
   -6812    -6725    -6633    -6538    -6439    -6338    -6242    -6162 
   -6106    -6077    -6081    -6110    -6164    -6238    -6324    -6411 
   -6490    -6561    -6616    -6650    -6656    -6637    -6593    -6525 
   -6442    -6355    -6273    -6201    -6142    -6103    -6085    -6084 
   -6103    -6141    -6199    -6274    -6366    -6488    -6640    -6808 
   -6984    -7167    -7341    -7504    -7654    -7776    -7869    -7929 
   -7958    -7962    -7944    -7913    -7878    -7844    -7812    -7782 
   -7750    -7713    -7677    -7642    -7605    -7576    -7562    -7565 
   -7588    -7627    -7676    -7727    -7771    -7809    -7838    -7861 
   -7886    -7916    -7944    -7983    -8041    -8113    -8197    -8291 
   -8386    -8469    -8534    -8577    -8594    -8576    -8533    -8468 
   -8388    -8301    -8216    -8139    -8068    -8010    -7960    -7909 
   -7852    -7776    -7676    -7560    -7427    -7279    -7121    -6971 
   -6836    -6723    -6639    -6585    -6556    -6547    -6552    -6570 
   -6594    -6620    -6643    -6660    -6670    -6673    -6669    -6659 
   -6644    -6624    -6596    -6563    -6529    -6492    -6457    -6435 
   -6431    -6448    -6482    -6532    -6601    -6679    -6756    -6828 
   -6897    -6961    -7017    -7065    -7110    -7153    -7200    -7250 
   -7307    -7379    -7457    -7542    -7631    -7716    -7794    -7867 
   -7932    -7992    -8044    -8098    -8152    -8205    -8256    -8306 
   -8348    -8375    -8398    -8414    -8421    -8430    -8448    -8480 
   -8530    -8594    -8668    -8746    -8819    -8889    -8947    -8995 
   -9034    -9063    -9086    -9111    -9131    -9146    -9153    -9148 
   -9138    -9126    -9105    -9084    -9065    -9049    -9038    -9035 
   -9039    -9051    -9067    -9081    -9090    -9082    -9053    -9012 
   -8957    -8893    -8830    -8768    -8704    -8635    -8561    -8484 
   -8398    -8307    -8228    -8158    -8091    -8032    -7979    -7927 
   -7870    -7804    -7722    -7634    -7546    -7454    -7358    -7268 
   -7186    -7115    -7063    -7034    -7028    -7044    -7078    -7121 
   -7152    -7157    -7129    -7059    -6949    -6809    -6646    -6484 
   -6336    -6220    -6149    -6120    -6131    -6169    -6215    -6255 
   -6284    -6295    -6288    -6270    -6253    -6237    -6237    -6268 
   -6328    -6413    -6517    -6633    -6755    -6868    -6961    -7033 
   -7080    -7096    -7078    -7030    -6963    -6880    -6786    -6690 
   -6605    -6540    -6502    -6497    -6523    -6575    -6648    -6729 
   -6812    -6887    -6951    -7010    -7065    -7121    -7186    -7272 
   -7375    -7493    -7623    -7750    -7866    -7971    -8062    -8144 
   -8216    -8278    -8337    -8402    -8473    -8548    -8627    -8707 
   -8770    -8812    -8833    -8823    -8787    -8725    -8634    -8521 
   -8397    -8271    -8141    -8017    -7905    -7808    -7723    -7657 
   -7607    -7574    -7568    -7582    -7616    -7672    -7747    -7842 
   -7955    -8087    -8232    -8384    -8548    -8715    -8874    -9027 
   -9165    -9274    -9354    -9405    -9425    -9412    -9370    -9297 
   -9197    -9074    -8934    -8775    -8596    -8410    -8220    -8028 
   -7836    -7653    -7479    -7325    -7188    -7065    -6960    -6870 
   -6794    -6727    -6663    -6604    -6544    -6475    -6403    -6326 
   -6239    -6142    -6048    -5962    -5888    -5825    -5779    -5755 
   -5746    -5748    -5757    -5773    -5790    -5809    -5829    -5838 
   -5834    -5823    -5810    -5794    -5775    -5757    -5738    -5714 
   -5687    -5660    -5643    -5636    -5640    -5670    -5724    -5791 
   -5877    -5984    -6099    -6215    -6328    -6432    -6519    -6596 
   -6666    -6731    -6787    -6840    -6897    -6960    -7030    -7111 
   -7196    -7284    -7373    -7464    -7558    -7650    -7738    -7832 
   -7931    -8032    -8139    -8240    -8325    -8397    -8457    -8505 
   -8534    -8553    -8565    -8577    -8594    -8618    -8654    -8703 
   -8769    -8841    -8912    -8980    -9036    -9084    -9123    -9146 
   -9165    -9180    -9185    -9185    -9180    -9161    -9126    -9066 
   -8985    -8888    -8776    -8657    -8538    -8424    -8322    -8240 
   -8179    -8140    -8122    -8120    -8128    -8143    -8163    -8175 
   -8175    -8174    -8159    -8121    -8066    -7987    -7890    -7778 
   -7650    -7501    -7339    -7165    -6986    -6812    -6646    -6500 
   -6390    -6324    -6305    -6332    -6396    -6490    -6602    -6721 
   -6839    -6939    -7009    -7053    -7069    -7067    -7056    -7042 
   -7029    -7030    -7052    -7083    -7128    -7183    -7245    -7310 
   -7372    -7427    -7480    -7526    -7568    -7605    -7641    -7674 
   -7708    -7736    -7755    -7769    -7770    -7762    -7747    -7726 
   -7701    -7678    -7659    -7639    -7619    -7595    -7566    -7538 
   -7512    -7491    -7477    -7479    -7492    -7516    -7546    -7578 
   -7611    -7635    -7645    -7641    -7619    -7588    -7557    -7528 
   -7500    -7481    -7469    -7460    -7454    -7450    -7443    -7427 
   -7393    -7338    -7272    -7192    -7103    -7017    -6928    -6833 
   -6739    -6640    -6543    -6454    -6374    -6305    -6253    -6214 
   -6195    -6193    -6205    -6245    -6308    -6393    -6505    -6636 
   -6775    -6918    -7056    -7186    -7304    -7406    -7481    -7527 
   -7545    -7533    -7491    -7422    -7333    -7227    -7123    -7029 
   -6949    -6889    -6849    -6839    -6858    -6902    -6970    -7059 
   -7164    -7280    -7407    -7541    -7665    -7777    -7877    -7954 
   -8009    -8039    -8041    -8020    -7978    -7921    -7850    -7771 
   -7699    -7634    -7582    -7550    -7541    -7551    -7588    -7649 
   -7724    -7809    -7889    -7951    -7997    -8020    -8009    -7969 
   -7900    -7808    -7708    -7605    -7504    -7407    -7325    -7258 
   -7206    -7167    -7146    -7148    -7169    -7219    -7299    -7403 
   -7528    -7676    -7835    -7993    -8140    -8274    -8376    -8445 
   -8482    -8482    -8445    -8383    -8299    -8201    -8095    -7983 
   -7869    -7753    -7630    -7504    -7383    -7269    -7169    -7092 
   -7044    -7025    -7037    -7082    -7152    -7237    -7329    -7414 
   -7485    -7534    -7560    -7562    -7545    -7507    -7457    -7400 
   -7339    -7280    -7227    -7176    -7129    -7084    -7040    -6998 
   -6964    -6939    -6921    -6914    -6921    -6949    -7002    -7078 
   -7179    -7307    -7452    -7605    -7765    -7923    -8067    -8194 
   -8302    -8390    -8456    -8500    -8529    -8545    -8552    -8550 
   -8545    -8546    -8552    -8560    -8572    -8586    -8603    -8618 
   -8633    -8653    -8672    -8688    -8704    -8721    -8730    -8738 
   -8741    -8739    -8737    -8725    -8699    -8662    -8611    -8549 
   -8471    -8378    -8284    -8197    -8117    -8054    -8009    -7982 
   -7978    -7996    -8043    -8113    -8198    -8297    -8403    -8511 
   -8615    -8710    -8787    -8843    -8876    -8877    -8851    -8802 
   -8730    -8645    -8553    -8463    -8380    -8310    -8251    -8203 
   -8170    -8144    -8128    -8121    -8116    -8102    -8089    -8075 
   -8058    -8039    -8021    -8001    -7979    -7959    -7940    -7923 
   -7909    -7898    -7892    -7884    -7873    -7863    -7855    -7844 
   -7834    -7828    -7821    -7819    -7816    -7807    -7792    -7763 
   -7713    -7642    -7554    -7453    -7348    -7256    -7188    -7149 
   -7140    -7171    -7244    -7348    -7473    -7614    -7762    -7908 
   -8040    -8159    -8264    -8349    -8409    -8441    -8441    -8409 
   -8348    -8259    -8140    -8002    -7859    -7715    -7572    -7438 
   -7321    -7221    -7140    -7074    -7024    -6982    -6944    -6912 
   -6882    -6856    -6831    -6802    -6782    -6772    -6763    -6766 
   -6783    -6801    -6825    -6858    -6889    -6916    -6937    -6951 
   -6948    -6933    -6906    -6863    -6810    -6754    -6689    -6624 
   -6562    -6505    -6465    -6439    -6424    -6428    -6458    -6500 
   -6550    -6609    -6671    -6735    -6804    -6856    -6897    -6952 
   -6997    -7014    -7033    -7033    -7006    -6972    -6929    -6875 
   -6828    -6789    -6748    -6717    -6704    -6694    -6689    -6690 
   -6686    -6673    -6648    -6609    -6544    -6461    -6363    -6254 
   -6138    -6025    -5918    -5822    -5740    -5670    -5613    -5572 
   -5540    -5521    -5522    -5545    -5587    -5648    -5726    -5823 
   -5941    -6073    -6215    -6358    -6494    -6616    -6721    -6806 
   -6868    -6914    -6945    -6967    -6978    -6980    -6976    -6964 
   -6944    -6918    -6893    -6871    -6848    -6821    -6798    -6782 
   -6767    -6758    -6748    -6743    -6744    -6745    -6748    -6755 
   -6762    -6772    -6790    -6808    -6831    -6860    -6901    -6955 
   -7022    -7106    -7214    -7349    -7510    -7695    -7898    -8110 
   -8330    -8550    -8762    -8965    -9155    -9328    -9486    -9625 
   -9734    -9810    -9855    -9864    -9834    -9774    -9693    -9586 
   -9464    -9347    -9228    -9123    -9040    -8972    -8918    -8881 
   -8858    -8851    -8851    -8862    -8881    -8907    -8938    -8973 
   -9004    -9019    -9012    -8986    -8942    -8876    -8792    -8700 
   -8614    -8540    -8480    -8448    -8445    -8468    -8514    -8573 
   -8645    -8725    -8797    -8850    -8884    -8888    -8864    -8814 
   -8746    -8660    -8557    -8444    -8324    -8195    -8068    -7950 
   -7844    -7746    -7653    -7562    -7472    -7379    -7288    -7204 
   -7122    -7048    -6986    -6936    -6899    -6878    -6872    -6880 
   -6897    -6925    -6967    -7011    -7053    -7095    -7128    -7157 
   -7188    -7213    -7238    -7268    -7294    -7322    -7354    -7381 
   -7407    -7434    -7462    -7495    -7522    -7542    -7555    -7554 
   -7538    -7508    -7462    -7406    -7345    -7294    -7260    -7246 
   -7263    -7308    -7381    -7481    -7604    -7739    -7879    -8012 
   -8129    -8226    -8303    -8361    -8399    -8419    -8434    -8445 
   -8451    -8453    -8451    -8437    -8421    -8405    -8383    -8359 
   -8334    -8307    -8289    -8286    -8294    -8309    -8333    -8357 
   -8378    -8394    -8391    -8371    -8333    -8279    -8209    -8122 
   -8027    -7929    -7834    -7746    -7669    -7605    -7558    -7530 
   -7512    -7508    -7518    -7535    -7557    -7576    -7592    -7604 
   -7605    -7597    -7581    -7558    -7524    -7477    -7412    -7330 
   -7233    -7121    -6995    -6866    -6735    -6605    -6489    -6389 
   -6308    -6250    -6207    -6180    -6162    -6156    -6164    -6180 
   -6192    -6207    -6222    -6232    -6247    -6266    -6291    -6328 
   -6378    -6439    -6515    -6604    -6702    -6808    -6917    -7024 
   -7115    -7183    -7225    -7241    -7227    -7182    -7114    -7029 
   -6929    -6828    -6729    -6642    -6566    -6504    -6462    -6440 
   -6439    -6458    -6490    -6529    -6582    -6647    -6720    -6799 
   -6883    -6968    -7055    -7134    -7200    -7263    -7322    -7371 
   -7412    -7454    -7497    -7542    -7589    -7639    -7695    -7761 
   -7828    -7896    -7963    -8027    -8083    -8128    -8155    -8170 
   -8175    -8167    -8155    -8140    -8121    -8102    -8086    -8073 
   -8058    -8051    -8048    -8050    -8059    -8079    -8101    -8125 
   -8151    -8179    -8209    -8239    -8267    -8295    -8321    -8344 
   -8357    -8360    -8352    -8330    -8289    -8230    -8151    -8054 
   -7946    -7827    -7711    -7604    -7512    -7439    -7392    -7375 
   -7384    -7414    -7457    -7515    -7584    -7650    -7705    -7755 
   -7796    -7817    -7824    -7819    -7798    -7771    -7739    -7701 
   -7662    -7622    -7582    -7543    -7500    -7457    -7420    -7385 
   -7356    -7341    -7342    -7360    -7393    -7442    -7507    -7582 
   -7669    -7757    -7839    -7912    -7973    -8023    -8060    -8081 
   -8089    -8086    -8071    -8050    -8024    -7993    -7956    -7920 
   -7888    -7867    -7858    -7855    -7865    -7893    -7928    -7966 
   -8009    -8047    -8078    -8101    -8112    -8117    -8114    -8108 
   -8100    -8089    -8075    -8058    -8033    -7996    -7948    -7896 
   -7835    -7773    -7716    -7663    -7615    -7576    -7549    -7531 
   -7524    -7527    -7537    -7551    -7570    -7591    -7608    -7623 
   -7638    -7649    -7651    -7649    -7647    -7641    -7630    -7623 
   -7620    -7626    -7639    -7654    -7672    -7693    -7707    -7709 
   -7704    -7688    -7659    -7618    -7554    -7481    -7403    -7318 
   -7234    -7163    -7106    -7061    -7034    -7024    -7025    -7034 
   -7051    -7067    -7083    -7096    -7103    -7106    -7102    -7083 
   -7055    -7015    -6961    -6897    -6820    -6727    -6623    -6511 
   -6392    -6266    -6138    -6014    -5898    -5784    -5684    -5603 
   -5540    -5497    -5485    -5499    -5540    -5606    -5697    -5805 
   -5926    -6056    -6193    -6331    -6466    -6598    -6724    -6841 
   -6941    -7018    -7086    -7142    -7175    -7192    -7202    -7199 
   -7190    -7177    -7164    -7152    -7137    -7122    -7109    -7099 
   -7094    -7090    -7087    -7088    -7096    -7107    -7122    -7142 
   -7169    -7202    -7238    -7280    -7326    -7375    -7433    -7499 
   -7568    -7645    -7728    -7816    -7905    -7994    -8081    -8164 
   -8244    -8317    -8383    -8446    -8506    -8559    -8603    -8642 
   -8677    -8706    -8727    -8745    -8758    -8766    -8772    -8776 
   -8777    -8776    -8775    -8775    -8775    -8779    -8785    -8793 
   -8806    -8816    -8823    -8824    -8816    -8795    -8761    -8722 
   -8672    -8607    -8538    -8465    -8382    -8295    -8210    -8128 
   -8047    -7971    -7900    -7839    -7792    -7755    -7730    -7715 
   -7709    -7708    -7708    -7705    -7696    -7678    -7653    -7618 
   -7576    -7531    -7484    -7433    -7381    -7330    -7277    -7227 
   -7183    -7142    -7109    -7084    -7071    -7068    -7078    -7098 
   -7132    -7177    -7231    -7291    -7357    -7429    -7497    -7562 
   -7622    -7669    -7703    -7726    -7736    -7738    -7728    -7712 
   -7689    -7663    -7634    -7603    -7572    -7538    -7504    -7472 
   -7441    -7414    -7387    -7368    -7366    -7377    -7398    -7429 
   -7466    -7514    -7565    -7612    -7654    -7692    -7724    -7751 
   -7774    -7792    -7801    -7808    -7812    -7813    -7813    -7808 
   -7805    -7807    -7798    -7789    -7788    -7786    -7786    -7794 
   -7808    -7825    -7852    -7888    -7932    -7989    -8052    -8124 
   -8202    -8283    -8367    -8449    -8525    -8596    -8660    -8710 
   -8748    -8777    -8792    -8788    -8770    -8738    -8692    -8637 
   -8572    -8500    -8429    -8359    -8287    -8221    -8167    -8128 
