Origin Time       2025/01/13 21:19:00
Lat.              31.8
Long.             131.6
Depth. (km)       30
Mag.              6.9
Station Code      NGS009
Station Lat.      32.8457
Station Long.     130.0216
Station Height(m) 25
Record Time       2025/01/13 21:20:30
Sampling Freq(Hz) 100Hz
Duration Time(s)  72
Dir.              U-D
Scale Factor      7845(gal)/8223790
Max. Acc. (gal)   1.276
Last Correction   2025/01/13 21:20:31
Memo.             
  -13011   -12938   -12891   -12895   -12943   -13012   -13085   -13144 
  -13166   -13126   -13018   -12869   -12721   -12603   -12553   -12569 
  -12625   -12714   -12830   -12934   -12985   -12969   -12901   -12808 
  -12707   -12638   -12621   -12636   -12645   -12622   -12569   -12496 
  -12410   -12345   -12339   -12388   -12471   -12559   -12637   -12695 
  -12727   -12730   -12700   -12630   -12526   -12390   -12251   -12154 
  -12132   -12197   -12337   -12518   -12699   -12833   -12895   -12892 
  -12841   -12760   -12679   -12619   -12609   -12646   -12708   -12781 
  -12854   -12891   -12868   -12780   -12648   -12523   -12448   -12438 
  -12502   -12610   -12712   -12766   -12761   -12725   -12684   -12631 
  -12571   -12513   -12465   -12436   -12432   -12459   -12495   -12515 
  -12521   -12513   -12491   -12465   -12447   -12456   -12517   -12623 
  -12754   -12872   -12924   -12899   -12842   -12800   -12795   -12841 
  -12927   -13023   -13113   -13200   -13270   -13312   -13316   -13282 
  -13212   -13108   -12968   -12803   -12642   -12528   -12490   -12541 
  -12649   -12750   -12822   -12846   -12804   -12721   -12645   -12591 
  -12546   -12503   -12453   -12398   -12357   -12351   -12384   -12444 
  -12501   -12542   -12557   -12533   -12483   -12441   -12440   -12490 
  -12590   -12730   -12889   -13038   -13151   -13227   -13282   -13312 
  -13311   -13286   -13247   -13198   -13147   -13077   -12982   -12880 
  -12780   -12694   -12634   -12613   -12622   -12644   -12642   -12604 
  -12544   -12478   -12429   -12436   -12495   -12572   -12653   -12739 
  -12829   -12924   -13018   -13078   -13072   -12989   -12879   -12789 
  -12746   -12754   -12803   -12860   -12897   -12914   -12910   -12873 
  -12795   -12673   -12533   -12424   -12383   -12393   -12402   -12352 
  -12212   -12012   -11821   -11696   -11669   -11743   -11909   -12131 
  -12367   -12584   -12753   -12857   -12906   -12908   -12869   -12777 
  -12625   -12441   -12291   -12212   -12222   -12316   -12422   -12491 
  -12518   -12517   -12506   -12521   -12580   -12676   -12802   -12964 
  -13163   -13393   -13608   -13759   -13840   -13846   -13792   -13716 
  -13643   -13591   -13555   -13504   -13401   -13228   -12992   -12727 
  -12482   -12303   -12205   -12171   -12177   -12197   -12236   -12313 
  -12426   -12537   -12591   -12576   -12511   -12434   -12391   -12405 
  -12471   -12571   -12691   -12812   -12901   -12916   -12835   -12685 
  -12523   -12402   -12344   -12355   -12410   -12492   -12607   -12757 
  -12927   -13101   -13254   -13371   -13459   -13543   -13648   -13770 
  -13869   -13903   -13828   -13640   -13382   -13105   -12834   -12580 
  -12339   -12108   -11919   -11799   -11747   -11770   -11854   -11965 
  -12075   -12183   -12291   -12386   -12452   -12484   -12490   -12460 
  -12386   -12289   -12194   -12129   -12124   -12186   -12314   -12498 
  -12683   -12818   -12877   -12847   -12730   -12560   -12395   -12263 
  -12159   -12089   -12051   -12027   -12029   -12056   -12075   -12058 
  -11992   -11897   -11816   -11782   -11819   -11929   -12086   -12237 
  -12351   -12426   -12469   -12494   -12528   -12595   -12692   -12811 
  -12950   -13092   -13213   -13309   -13383   -13410   -13390   -13343 
  -13282   -13225   -13189   -13173   -13181   -13207   -13232   -13236 
  -13212   -13163   -13100   -13036   -12991   -12966   -12954   -12942 
  -12931   -12927   -12931   -12957   -13014   -13108   -13239   -13382 
  -13504   -13549   -13483   -13329   -13132   -12919   -12726   -12590 
  -12515   -12492   -12501   -12518   -12537   -12553   -12545   -12517 
  -12488   -12452   -12401   -12344   -12282   -12216   -12154   -12117 
  -12129   -12174   -12217   -12262   -12306   -12339   -12390   -12471 
  -12538   -12564   -12530   -12421   -12268   -12140   -12081   -12082 
  -12117   -12185   -12263   -12317   -12340   -12339   -12332   -12330 
  -12340   -12376   -12430   -12472   -12518   -12584   -12671   -12773 
  -12872   -12955   -13020   -13057   -13078   -13099   -13108   -13107 
  -13100   -13074   -13016   -12935   -12872   -12854   -12881   -12946 
  -13022   -13081   -13127   -13158   -13159   -13136   -13101   -13080 
  -13099   -13177   -13309   -13464   -13617   -13744   -13811   -13813 
  -13757   -13652   -13520   -13404   -13323   -13266   -13223   -13196 
  -13192   -13198   -13182   -13112   -12982   -12816   -12649   -12507 
  -12390   -12310   -12285   -12321   -12420   -12555   -12675   -12739 
  -12717   -12602   -12426   -12229   -12051   -11919   -11831   -11784 
  -11790   -11854   -11942   -12010   -12046   -12024   -11936   -11830 
  -11763   -11770   -11854   -11979   -12101   -12198   -12276   -12348 
  -12426   -12514   -12594   -12673   -12757   -12827   -12864   -12864 
  -12841   -12807   -12748   -12672   -12622   -12607   -12623   -12687 
  -12804   -12957   -13112   -13213   -13240   -13198   -13100   -12976 
  -12877   -12831   -12849   -12926   -13035   -13138   -13190   -13155 
  -13043   -12904   -12773   -12665   -12599   -12594   -12642   -12719 
  -12810   -12906   -12993   -13047   -13059   -13043   -13012   -12978 
  -12961   -12962   -12977   -13004   -13030   -13036   -13001   -12915 
  -12803   -12692   -12595   -12526   -12480   -12447   -12414   -12387 
  -12393   -12442   -12518   -12604   -12694   -12775   -12856   -12949 
  -13049   -13136   -13190   -13204   -13174   -13095   -12989   -12889 
  -12804   -12746   -12717   -12710   -12733   -12764   -12777   -12788 
  -12807   -12823   -12835   -12852   -12850   -12819   -12784   -12760 
  -12753   -12777   -12811   -12818   -12788   -12726   -12645   -12582 
  -12553   -12533   -12490   -12422   -12334   -12249   -12213   -12240 
  -12313   -12402   -12486   -12555   -12615   -12679   -12758   -12849 
  -12945   -13036   -13117   -13185   -13236   -13275   -13305   -13316 
  -13301   -13244   -13132   -12960   -12741   -12509   -12301   -12154 
  -12098   -12136   -12249   -12414   -12588   -12737   -12842   -12892 
  -12885   -12843   -12808   -12804   -12843   -12927   -13023   -13108 
  -13177   -13213   -13209   -13167   -13080   -12950   -12807   -12694 
  -12641   -12637   -12660   -12692   -12698   -12641   -12522   -12349 
  -12140   -11932   -11763   -11659   -11632   -11673   -11772   -11911 
  -12050   -12150   -12193   -12177   -12125   -12067   -12016   -11978 
  -11955   -11950   -11956   -11955   -11944   -11925   -11900   -11893 
  -11921   -11966   -12017   -12078   -12154   -12241   -12337   -12425 
  -12482   -12515   -12545   -12582   -12629   -12664   -12661   -12646 
  -12652   -12672   -12706   -12772   -12864   -12955   -13053   -13143 
  -13196   -13208   -13186   -13143   -13099   -13062   -13039   -13038 
  -13047   -13057   -13073   -13095   -13112   -13122   -13109   -13065 
  -12988   -12899   -12826   -12776   -12734   -12696   -12665   -12645 
  -12653   -12680   -12712   -12750   -12775   -12780   -12777   -12775 
  -12814   -12924   -13077   -13242   -13392   -13493   -13549   -13587 
  -13629   -13705   -13818   -13926   -14000   -14030   -14025   -14010 
  -13996   -13977   -13945   -13864   -13706   -13467   -13185   -12911 
  -12685   -12534   -12472   -12474   -12499   -12529   -12550   -12563 
  -12582   -12622   -12688   -12773   -12861   -12946   -13012   -13059 
  -13093   -13088   -13028   -12923   -12791   -12675   -12609   -12588 
  -12604   -12637   -12653   -12645   -12615   -12564   -12509   -12476 
  -12478   -12498   -12522   -12544   -12553   -12553   -12560   -12572 
  -12577   -12565   -12534   -12492   -12451   -12402   -12334   -12251 
  -12168   -12110   -12083   -12085   -12100   -12106   -12091   -12054 
  -11998   -11939   -11881   -11817   -11751   -11703   -11688   -11708 
  -11765   -11857   -11979   -12121   -12245   -12332   -12375   -12393 
  -12413   -12453   -12521   -12622   -12739   -12841   -12922   -12993 
  -13059   -13119   -13151   -13151   -13119   -13059   -12984   -12908 
  -12842   -12779   -12715   -12657   -12613   -12587   -12582   -12588 
  -12590   -12583   -12573   -12560   -12533   -12502   -12487   -12488 
  -12482   -12468   -12449   -12422   -12382   -12328   -12272   -12220 
  -12174   -12158   -12179   -12220   -12294   -12414   -12546   -12653 
  -12741   -12829   -12912   -12985   -13049   -13108   -13150   -13169 
  -13185   -13216   -13258   -13304   -13340   -13366   -13393   -13423 
  -13447   -13456   -13428   -13363   -13298   -13258   -13247   -13271 
  -13309   -13336   -13342   -13317   -13254   -13155   -13046   -12954 
  -12901   -12900   -12960   -13063   -13180   -13277   -13328   -13319 
  -13263   -13197   -13131   -13072   -13031   -13019   -13024   -13027 
  -13015   -12985   -12915   -12788   -12631   -12480   -12361   -12299 
  -12309   -12378   -12464   -12525   -12537   -12491   -12383   -12235 
  -12091   -11981   -11927   -11935   -11992   -12081   -12164   -12216 
  -12224   -12181   -12093   -11985   -11885   -11809   -11767   -11757 
  -11767   -11796   -11835   -11870   -11888   -11901   -11919   -11942 
  -11983   -12052   -12132   -12214   -12280   -12310   -12294   -12249 
  -12194   -12147   -12125   -12140   -12187   -12237   -12256   -12231 
  -12167   -12101   -12060   -12047   -12066   -12120   -12186   -12251 
  -12310   -12364   -12417   -12469   -12511   -12542   -12567   -12590 
  -12619   -12669   -12729   -12779   -12816   -12845   -12868   -12901 
  -12958   -13038   -13136   -13239   -13335   -13406   -13441   -13448 
  -13429   -13400   -13374   -13350   -13328   -13300   -13259   -13217 
  -13169   -13107   -13028   -12934   -12831   -12749   -12708   -12712 
  -12746   -12788   -12823   -12842   -12833   -12795   -12750   -12712 
  -12700   -12744   -12841   -12958   -13078   -13185   -13234   -13215 
  -13153   -13066   -12961   -12856   -12762   -12691   -12637   -12588 
  -12555   -12549   -12552   -12540   -12525   -12511   -12495   -12495 
  -12501   -12484   -12449   -12402   -12360   -12343   -12355   -12390 
  -12428   -12457   -12488   -12507   -12502   -12494   -12491   -12488 
  -12492   -12498   -12502   -12506   -12509   -12519   -12542   -12568 
  -12582   -12575   -12553   -12530   -12521   -12532   -12564   -12607 
  -12656   -12708   -12761   -12814   -12870   -12939   -13011   -13068 
  -13096   -13093   -13068   -13035   -13012   -12995   -12987   -13004 
  -13061   -13153   -13270   -13381   -13450   -13458   -13409   -13328 
  -13240   -13163   -13090   -13030   -12989   -12966   -12955   -12953 
  -12943   -12912   -12858   -12799   -12744   -12706   -12694   -12696 
  -12717   -12758   -12796   -12814   -12823   -12804   -12749   -12685 
  -12640   -12617   -12607   -12602   -12592   -12587   -12592   -12596 
  -12596   -12599   -12610   -12631   -12671   -12719   -12781   -12853 
  -12911   -12947   -12970   -12977   -12973   -12977   -12993   -13028 
  -13081   -13117   -13122   -13107   -13078   -13034   -12976   -12915 
  -12860   -12808   -12765   -12739   -12735   -12737   -12719   -12690 
  -12664   -12645   -12636   -12627   -12622   -12633   -12653   -12668 
  -12688   -12714   -12729   -12731   -12727   -12714   -12696   -12681 
  -12672   -12672   -12683   -12710   -12745   -12771   -12776   -12764 
  -12758   -12764   -12764   -12771   -12791   -12806   -12808   -12806 
  -12806   -12808   -12818   -12837   -12860   -12872   -12873   -12873 
  -12879   -12885   -12879   -12847   -12806   -12760   -12729   -12719 
  -12721   -12734   -12757   -12775   -12796   -12826   -12837   -12825 
  -12803   -12772   -12727   -12679   -12641   -12602   -12575   -12582 
  -12610   -12650   -12699   -12733   -12749   -12753   -12742   -12723 
  -12695   -12653   -12610   -12590   -12602   -12636   -12679   -12723 
  -12760   -12781   -12793   -12795   -12775   -12750   -12714   -12649 
  -12582   -12537   -12511   -12501   -12492   -12474   -12448   -12432 
  -12430   -12438   -12464   -12503   -12536   -12556   -12563   -12571 
  -12594   -12627   -12664   -12710   -12777   -12857   -12934   -13011 
  -13082   -13142   -13200   -13257   -13301   -13333   -13336   -13315 
  -13278   -13225   -13162   -13093   -13000   -12877   -12752   -12633 
  -12530   -12451   -12380   -12302   -12217   -12124   -12031   -11952 
  -11886   -11827   -11766   -11695   -11612   -11537   -11466   -11408 
  -11379   -11371   -11379   -11402   -11439   -11491   -11546   -11600 
  -11664   -11742   -11826   -11921   -12019   -12110   -12197   -12275 
  -12334   -12397   -12463   -12514   -12550   -12575   -12582   -12577 
  -12571   -12563   -12555   -12536   -12510   -12472   -12418   -12364 
  -12314   -12271   -12252   -12249   -12251   -12255   -12259   -12244 
  -12221   -12204   -12197   -12204   -12243   -12320   -12410   -12486 
  -12549   -12610   -12658   -12683   -12696   -12715   -12741   -12772 
  -12826   -12916   -13023   -13130   -13215   -13259   -13266   -13258 
  -13252   -13255   -13271   -13311   -13350   -13374   -13383   -13387 
  -13385   -13370   -13346   -13312   -13246   -13136   -13004   -12879 
  -12756   -12638   -12545   -12484   -12445   -12407   -12367   -12339 
  -12310   -12301   -12347   -12430   -12515   -12602   -12680   -12744 
  -12803   -12870   -12943   -13007   -13050   -13081   -13113   -13147 
  -13190   -13247   -13300   -13355   -13412   -13452   -13464   -13432 
  -13347   -13231   -13105   -12989   -12899   -12847   -12830   -12826 
  -12810   -12777   -12737   -12704   -12679   -12672   -12695   -12731 
  -12769   -12810   -12847   -12874   -12888   -12883   -12868   -12849 
  -12833   -12823   -12819   -12819   -12818   -12814   -12820   -12831 
  -12838   -12852   -12860   -12850   -12833   -12803   -12775   -12750 
  -12706   -12649   -12599   -12559   -12546   -12561   -12587   -12617 
  -12636   -12642   -12650   -12646   -12636   -12640   -12654   -12675 
  -12718   -12784   -12856   -12931   -13003   -13049   -13072   -13078 
  -13069   -13059   -13057   -13050   -13039   -13024   -12996   -12946 
  -12887   -12829   -12783   -12758   -12765   -12804   -12868   -12941 
  -13009   -13051   -13065   -13059   -13031   -12982   -12928   -12874 
  -12831   -12799   -12773   -12757   -12752   -12754   -12749   -12721 
  -12687   -12673   -12675   -12690   -12733   -12785   -12839   -12881 
  -12887   -12869   -12834   -12776   -12723   -12685   -12661   -12673 
  -12710   -12742   -12779   -12815   -12857   -12924   -13000   -13066 
  -13115   -13134   -13122   -13086   -13030   -12954   -12872   -12799 
  -12741   -12694   -12661   -12642   -12625   -12603   -12584   -12565 
  -12541   -12540   -12567   -12610   -12672   -12748   -12820   -12883 
  -12928   -12950   -12954   -12945   -12931   -12924   -12931   -12934 
  -12920   -12901   -12889   -12877   -12860   -12826   -12771   -12698 
  -12619   -12540   -12479   -12455   -12459   -12479   -12499   -12505 
  -12490   -12463   -12457   -12475   -12496   -12529   -12560   -12573 
  -12567   -12534   -12475   -12414   -12378   -12371   -12378   -12375 
  -12372   -12390   -12406   -12399   -12388   -12386   -12388   -12395 
  -12390   -12363   -12322   -12280   -12226   -12166   -12113   -12067 
  -12033   -12025   -12027   -12017   -12004   -11975   -11934   -11894 
  -11859   -11839   -11846   -11875   -11925   -12000   -12098   -12197 
  -12267   -12301   -12301   -12266   -12229   -12232   -12260   -12289 
  -12330   -12393   -12455   -12509   -12564   -12629   -12685   -12718 
  -12725   -12718   -12714   -12721   -12737   -12746   -12748   -12753 
  -12765   -12776   -12781   -12788   -12814   -12837   -12853   -12873 
  -12877   -12874   -12879   -12868   -12857   -12870   -12889   -12915 
  -12950   -12973   -12980   -12969   -12938   -12899   -12856   -12816 
  -12799   -12807   -12839   -12881   -12914   -12924   -12915   -12892 
  -12861   -12839   -12833   -12831   -12834   -12850   -12880   -12901 
  -12908   -12908   -12903   -12895   -12884   -12856   -12804   -12758 
  -12745   -12762   -12793   -12818   -12810   -12769   -12733   -12698 
  -12648   -12600   -12580   -12580   -12604   -12664   -12739   -12812 
  -12889   -12968   -13027   -13065   -13082   -13084   -13076   -13073 
  -13074   -13085   -13112   -13128   -13122   -13107   -13082   -13053 
  -13046   -13063   -13088   -13127   -13171   -13184   -13154   -13100 
  -13028   -12953   -12883   -12815   -12748   -12700   -12675   -12663 
  -12685   -12749   -12806   -12837   -12852   -12838   -12799   -12772 
  -12765   -12762   -12772   -12796   -12814   -12812   -12808   -12791 
  -12758   -12748   -12769   -12798   -12839   -12901   -12953   -12992 
  -13035   -13061   -13062   -13063   -13054   -13022   -12985   -12942 
  -12887   -12841   -12798   -12745   -12688   -12633   -12572   -12526 
  -12518   -12540   -12584   -12642   -12684   -12688   -12656   -12586 
  -12487   -12393   -12320   -12253   -12205   -12195   -12217   -12256 
  -12316   -12379   -12422   -12451   -12471   -12471   -12461   -12464 
  -12471   -12486   -12528   -12577   -12622   -12672   -12706   -12710 
  -12708   -12717   -12729   -12765   -12830   -12880   -12900   -12903 
  -12873   -12822   -12779   -12723   -12650   -12580   -12501   -12429 
  -12394   -12379   -12383   -12425   -12480   -12522   -12556   -12576 
  -12569   -12544   -12515   -12492   -12479   -12484   -12502   -12536 
  -12594   -12652   -12691   -12725   -12749   -12760   -12758   -12741 
  -12715   -12694   -12672   -12642   -12617   -12594   -12565   -12519 
  -12464   -12405   -12345   -12291   -12240   -12179   -12108   -12036 
  -11985   -11950   -11929   -11946   -12006   -12083   -12166   -12260 
  -12349   -12414   -12471   -12528   -12560   -12565   -12555   -12545 
  -12556   -12579   -12598   -12634   -12691   -12737   -12772   -12815 
  -12858   -12903   -12945   -12970   -12991   -13015   -13024   -13020 
  -13011   -12989   -12969   -12958   -12954   -12953   -12954   -12961 
  -12968   -12960   -12934   -12897   -12854   -12802   -12758   -12734 
  -12710   -12685   -12681   -12667   -12613   -12541   -12461   -12375 
  -12312   -12263   -12212   -12170   -12158   -12164   -12181   -12209 
  -12235   -12241   -12239   -12243   -12237   -12226   -12229   -12244 
  -12259   -12267   -12275   -12286   -12294   -12299   -12297   -12295 
  -12302   -12316   -12343   -12390   -12437   -12469   -12480   -12461 
  -12424   -12387   -12361   -12360   -12397   -12461   -12540   -12627 
  -12730   -12842   -12961   -13081   -13198   -13293   -13371   -13454 
  -13510   -13510   -13487   -13464   -13414   -13333   -13254   -13177 
  -13088   -13000   -12930   -12862   -12792   -12719   -12634   -12550 
  -12492   -12456   -12436   -12445   -12483   -12519   -12552   -12598 
  -12642   -12681   -12726   -12764   -12796   -12827   -12838   -12835 
  -12834   -12831   -12827   -12823   -12804   -12772   -12745   -12719 
  -12695   -12695   -12706   -12703   -12680   -12646   -12610   -12559 
  -12494   -12447   -12422   -12407   -12409   -12424   -12448   -12491 
  -12537   -12561   -12571   -12572   -12569   -12571   -12572   -12575 
  -12596   -12634   -12671   -12700   -12727   -12738   -12730   -12726 
  -12748   -12791   -12838   -12892   -12947   -12980   -12993   -13007 
  -13009   -13003   -13007   -13014   -13016   -13023   -13036   -13051 
  -13063   -13066   -13072   -13072   -13042   -13000   -12982   -12976 
