Origin Time       2025/01/13 21:19:00
Lat.              31.8
Long.             131.6
Depth. (km)       30
Mag.              6.9
Station Code      NGS010
Station Lat.      32.7351
Station Long.     129.8765
Station Height(m) 77
Record Time       2025/01/13 21:20:26
Sampling Freq(Hz) 100Hz
Duration Time(s)  69
Dir.              U-D
Scale Factor      7845(gal)/8223790
Max. Acc. (gal)   1.307
Last Correction   2025/01/13 21:20:27
Memo.             
   -4731    -4896    -4874    -4743    -4527    -4360    -4483    -4753 
   -4864    -4819    -4702    -4552    -4434    -4402    -4465    -4617 
   -4808    -4935    -4974    -4990    -4932    -4849    -4915    -5103 
   -5301    -5440    -5416    -5273    -5171    -5128    -5077    -5028 
   -4977    -4870    -4707    -4527    -4411    -4388    -4383    -4394 
   -4434    -4390    -4207    -3977    -3861    -3920    -4067    -4218 
   -4324    -4383    -4387    -4306    -4226    -4236    -4298    -4342 
   -4355    -4405    -4461    -4434    -4369    -4347    -4419    -4583 
   -4735    -4843    -4881    -4785    -4602    -4457    -4411    -4432 
   -4477    -4583    -4739    -4845    -4828    -4770    -4770    -4788 
   -4738    -4634    -4506    -4325    -4129    -4017    -3960    -3896 
   -3882    -3931    -3948    -3977    -4054    -4093    -4171    -4324 
   -4450    -4653    -4923    -5012    -4915    -4781    -4656    -4588 
   -4518    -4391    -4347    -4344    -4310    -4368    -4487    -4608 
   -4773    -4895    -4861    -4687    -4472    -4338    -4338    -4444 
   -4629    -4823    -4934    -4947    -4882    -4769    -4611    -4374 
   -4120    -3990    -3955    -3917    -3947    -4083    -4206    -4276 
   -4384    -4482    -4464    -4394    -4349    -4351    -4395    -4417 
   -4428    -4450    -4407    -4375    -4491    -4675    -4846    -4977 
   -5023    -5015    -4968    -4860    -4754    -4668    -4567    -4486 
   -4426    -4394    -4460    -4623    -4800    -4905    -4901    -4858 
   -4812    -4707    -4560    -4403    -4245    -4141    -4098    -4085 
   -4122    -4159    -4101    -4004    -3958    -3920    -3816    -3686 
   -3612    -3588    -3619    -3800    -4114    -4367    -4479    -4568 
   -4680    -4722    -4631    -4465    -4347    -4352    -4446    -4483 
   -4402    -4326    -4340    -4414    -4550    -4750    -4928    -4999 
   -4938    -4785    -4675    -4735    -4939    -5233    -5595    -5871 
   -5869    -5564    -5105    -4743    -4622    -4680    -4828    -5007 
   -5123    -5111    -4951    -4676    -4406    -4191    -4013    -4044 
   -4351    -4633    -4688    -4611    -4465    -4253    -4120    -4151 
   -4160    -4136    -4255    -4301    -4094    -3896    -3823    -3811 
   -3952    -4232    -4546    -4811    -4885    -4803    -4787    -4838 
   -4752    -4564    -4471    -4467    -4475    -4498    -4550    -4645 
   -4676    -4584    -4544    -4549    -4405    -4212    -4136    -4147 
   -4270    -4440    -4469    -4332    -4163    -4099    -4166    -4348 
   -4621    -4837    -4938    -5034    -5020    -4716    -4239    -3829 
   -3613    -3603    -3771    -4047    -4251    -4329    -4378    -4403 
   -4428    -4461    -4396    -4275    -4244    -4272    -4383    -4614 
   -4758    -4714    -4680    -4762    -4866    -4926    -4896    -4773 
   -4675    -4621    -4492    -4263    -3958    -3657    -3497    -3515 
   -3728    -4093    -4367    -4452    -4483    -4473    -4442    -4525 
   -4621    -4610    -4707    -5038    -5441    -5728    -5737    -5421 
   -4927    -4433    -4102    -4056    -4234    -4504    -4766    -4911 
   -4872    -4648    -4344    -4121    -4045    -4104    -4226    -4380 
   -4573    -4757    -4860    -4866    -4818    -4725    -4553    -4329 
   -4199    -4212    -4218    -4197    -4222    -4217    -4139    -4055 
   -4010    -4008    -4079    -4295    -4622    -4947    -5201    -5243 
   -5017    -4646    -4230    -3946    -3933    -4151    -4534    -4963 
   -5208    -5163    -4939    -4695    -4522    -4473    -4607    -4866 
   -5078    -5158    -5067    -4772    -4423    -4213    -4116    -4152 
   -4386    -4644    -4756    -4750    -4619    -4387    -4267    -4360 
   -4583    -4818    -4947    -4968    -4945    -4888    -4838    -4878 
   -4984    -5055    -5034    -4914    -4753    -4664    -4679    -4725 
   -4734    -4671    -4540    -4383    -4239    -4166    -4191    -4279 
   -4452    -4683    -4826    -4791    -4573    -4224    -3892    -3730 
   -3742    -3855    -4008    -4147    -4207    -4152    -4037    -3951 
   -3932    -3996    -4104    -4197    -4212    -4074    -3809    -3605 
   -3627    -3877    -4224    -4480    -4511    -4321    -4017    -3693 
   -3461    -3422    -3580    -3886    -4214    -4406    -4430    -4348 
   -4217    -4106    -4077    -4155    -4313    -4504    -4722    -4919 
   -4985    -4872    -4656    -4426    -4261    -4236    -4332    -4460 
   -4568    -4630    -4638    -4634    -4683    -4753    -4730    -4571 
   -4371    -4226    -4174    -4214    -4329    -4499    -4658    -4685 
   -4556    -4368    -4217    -4189    -4364    -4715    -5082    -5293 
   -5337    -5293    -5202    -5131    -5111    -5098    -5113    -5200 
   -5317    -5397    -5385    -5285    -5193    -5192    -5265    -5340 
   -5348    -5287    -5233    -5259    -5348    -5362    -5205    -4924 
   -4630    -4448    -4403    -4405    -4403    -4429    -4463    -4429 
   -4286    -4012    -3669    -3466    -3582    -3989    -4496    -4846 
   -4908    -4761    -4536    -4334    -4221    -4203    -4261    -4359 
   -4471    -4561    -4536    -4361    -4110    -3927    -3913    -4006 
   -4102    -4151    -4118    -4089    -4133    -4205    -4244    -4214 
   -4152    -4156    -4271    -4463    -4607    -4595    -4452    -4276 
   -4179    -4233    -4369    -4473    -4513    -4482    -4429    -4430 
   -4444    -4395    -4272    -4139    -4060    -4008    -3952    -3915 
   -3890    -3939    -4135    -4388    -4550    -4584    -4522    -4418 
   -4332    -4295    -4311    -4368    -4477    -4639    -4779    -4842 
   -4833    -4773    -4737    -4781    -4869    -4914    -4870    -4785 
   -4715    -4712    -4766    -4774    -4693    -4588    -4529    -4538 
   -4581    -4561    -4472    -4399    -4401    -4515    -4696    -4822 
   -4835    -4760    -4679    -4631    -4553    -4434    -4315    -4225 
   -4197    -4205    -4226    -4243    -4233    -4255    -4363    -4542 
   -4801    -5067    -5204    -5217    -5174    -5088    -5019    -5015 
   -5049    -5113    -5209    -5305    -5364    -5306    -5090    -4788 
   -4546    -4476    -4564    -4676    -4695    -4556    -4271    -3954 
   -3758    -3793    -4024    -4329    -4588    -4669    -4554    -4356 
   -4147    -4018    -4052    -4195    -4332    -4365    -4290    -4175 
   -4079    -4089    -4244    -4445    -4550    -4502    -4344    -4186 
   -4117    -4151    -4256    -4375    -4472    -4563    -4649    -4698 
   -4718    -4738    -4769    -4845    -4969    -5067    -5050    -4860 
   -4534    -4209    -4043    -4128    -4429    -4766    -4935    -4880 
   -4719    -4573    -4459    -4359    -4305    -4324    -4413    -4548 
   -4672    -4707    -4623    -4456    -4284    -4203    -4255    -4406 
   -4563    -4626    -4573    -4467    -4396    -4452    -4675    -4947 
   -5089    -5043    -4846    -4545    -4221    -3997    -3973    -4147 
   -4407    -4607    -4627    -4440    -4145    -3901    -3755    -3701 
   -3757    -3888    -3996    -4054    -4124    -4230    -4324    -4355 
   -4310    -4198    -4070    -4027    -4128    -4320    -4507    -4642 
   -4698    -4666    -4581    -4476    -4382    -4355    -4442    -4614 
   -4772    -4835    -4783    -4658    -4567    -4588    -4687    -4760 
   -4752    -4683    -4602    -4554    -4583    -4660    -4661    -4538 
   -4390    -4332    -4364    -4421    -4445    -4444    -4476    -4565 
   -4673    -4756    -4784    -4753    -4698    -4649    -4591    -4491 
   -4351    -4245    -4266    -4401    -4572    -4714    -4742    -4610 
   -4382    -4153    -3987    -3942    -4032    -4199    -4351    -4429 
   -4449    -4448    -4455    -4500    -4590    -4664    -4658    -4580 
   -4491    -4432    -4384    -4311    -4207    -4121    -4158    -4342 
   -4540    -4602    -4522    -4387    -4303    -4329    -4423    -4495 
   -4519    -4522    -4513    -4538    -4660    -4823    -4950    -5047 
   -5135    -5179    -5135    -4989    -4787    -4619    -4564    -4611 
   -4658    -4608    -4442    -4193    -3943    -3813    -3881    -4125 
   -4423    -4610    -4614    -4504    -4401    -4374    -4442    -4569 
   -4681    -4742    -4745    -4720    -4729    -4774    -4822    -4849 
   -4884    -4951    -5028    -5053    -4958    -4769    -4637    -4676 
   -4869    -5124    -5343    -5439    -5383    -5251    -5115    -4955 
   -4762    -4583    -4453    -4342    -4224    -4102    -3996    -3931 
   -3956    -4085    -4252    -4387    -4429    -4313    -4051    -3775 
   -3631    -3672    -3852    -4058    -4185    -4202    -4160    -4137 
   -4167    -4217    -4268    -4328    -4382    -4437    -4521    -4623 
   -4696    -4719    -4691    -4614    -4525    -4500    -4575    -4715 
   -4853    -4912    -4855    -4714    -4591    -4579    -4675    -4810 
   -4912    -4941    -4901    -4819    -4708    -4612    -4588    -4673 
   -4839    -4990    -5050    -5000    -4842    -4631    -4486    -4459 
   -4482    -4476    -4425    -4357    -4314    -4303    -4303    -4287 
   -4252    -4222    -4212    -4205    -4182    -4143    -4102    -4054 
   -3981    -3879    -3793    -3784    -3846    -3901    -3910    -3935 
   -4010    -4114    -4239    -4368    -4442    -4457    -4482    -4556 
   -4672    -4822    -4959    -5007    -4934    -4801    -4720    -4750 
   -4866    -5017    -5171    -5313    -5418    -5472    -5463    -5395 
   -5331    -5347    -5458    -5593    -5649    -5589    -5443    -5262 
   -5088    -4946    -4835    -4734    -4644    -4583    -4564    -4569 
   -4569    -4553    -4544    -4569    -4599    -4560    -4450    -4337 
   -4257    -4189    -4077    -3900    -3713    -3636    -3740    -3958 
   -4155    -4259    -4274    -4251    -4253    -4302    -4374    -4421 
   -4426    -4390    -4295    -4160    -4041    -4004    -4072    -4233 
   -4425    -4563    -4599    -4575    -4587    -4691    -4824    -4899 
   -4882    -4773    -4602    -4436    -4318    -4232    -4163    -4128 
   -4133    -4156    -4182    -4212    -4241    -4278    -4342    -4421 
   -4448    -4356    -4180    -4041    -4031    -4152    -4349    -4542 
   -4672    -4710    -4664    -4575    -4496    -4464    -4465    -4468 
   -4450    -4415    -4353    -4253    -4163    -4172    -4332    -4572 
   -4762    -4824    -4774    -4666    -4550    -4457    -4417    -4434 
   -4486    -4560    -4629    -4629    -4527    -4382    -4299    -4329 
   -4437    -4560    -4666    -4746    -4799    -4814    -4780    -4711 
   -4625    -4546    -4506    -4496    -4499    -4509    -4503    -4471 
   -4442    -4445    -4472    -4476    -4403    -4256    -4075    -3913 
   -3835    -3867    -3967    -4087    -4212    -4334    -4429    -4463 
   -4449    -4423    -4410    -4430    -4503    -4621    -4739    -4818 
   -4827    -4770    -4720    -4742    -4812    -4877    -4911    -4911 
   -4901    -4907    -4909    -4861    -4739    -4585    -4441    -4318 
   -4237    -4226    -4270    -4338    -4425    -4509    -4537    -4495 
   -4398    -4278    -4171    -4104    -4067    -4063    -4110    -4214 
   -4333    -4428    -4503    -4581    -4679    -4800    -4922    -4993 
   -4970    -4868    -4769    -4762    -4862    -5000    -5078    -5027 
   -4834    -4585    -4402    -4337    -4402    -4576    -4758    -4814 
   -4704    -4494    -4266    -4114    -4104    -4202    -4315    -4361 
   -4318    -4228    -4135    -4082    -4102    -4182    -4271    -4337 
   -4369    -4356    -4317    -4310    -4372    -4502    -4680    -4858 
   -4985    -5047    -5053    -5026    -5003    -5023    -5112    -5251 
   -5362    -5398    -5362    -5271    -5154    -5069    -5063    -5104 
   -5136    -5150    -5144    -5094    -4999    -4900    -4828    -4785 
   -4764    -4742    -4692    -4623    -4554    -4503    -4494    -4526 
   -4569    -4594    -4561    -4453    -4317    -4249    -4287    -4396 
   -4495    -4513    -4448    -4342    -4213    -4117    -4126    -4234 
   -4371    -4469    -4467    -4347    -4182    -4070    -4055    -4102 
   -4178    -4264    -4326    -4360    -4387    -4410    -4430    -4450 
   -4472    -4529    -4619    -4676    -4642    -4536    -4432    -4382 
   -4386    -4429    -4469    -4457    -4415    -4407    -4437    -4461 
   -4456    -4452    -4490    -4571    -4684    -4815    -4922    -4984 
   -5030    -5063    -5086    -5132    -5205    -5273    -5312    -5305 
   -5240    -5105    -4924    -4761    -4665    -4634    -4622    -4553 
   -4387    -4185    -4035    -3969    -3956    -3921    -3825    -3728 
   -3682    -3684    -3727    -3794    -3846    -3867    -3870    -3847 
   -3781    -3701    -3674    -3727    -3819    -3905    -3975    -4017 
   -4025    -4032    -4062    -4110    -4170    -4229    -4274    -4270 
   -4228    -4202    -4224    -4280    -4351    -4403    -4441    -4487 
   -4538    -4567    -4554    -4515    -4486    -4492    -4541    -4608 
   -4650    -4639    -4577    -4502    -4455    -4410    -4317    -4176 
   -4043    -3962    -3960    -4032    -4153    -4302    -4448    -4572 
   -4660    -4696    -4683    -4652    -4648    -4692    -4785    -4900 
   -4969    -4946    -4872    -4804    -4752    -4722    -4712    -4673 
   -4585    -4494    -4392    -4253    -4112    -4001    -3925    -3901 
   -3954    -4066    -4190    -4294    -4380    -4465    -4546    -4598 
   -4611    -4595    -4550    -4499    -4456    -4415    -4388    -4406 
   -4494    -4646    -4830    -4984    -5044    -4980    -4814    -4611 
   -4463    -4428    -4473    -4513    -4483    -4387    -4290    -4253 
   -4288    -4360    -4437    -4502    -4537    -4542    -4536    -4518 
   -4492    -4483    -4502    -4530    -4564    -4599    -4626    -4642 
   -4652    -4641    -4615    -4564    -4479    -4396    -4351    -4353 
   -4415    -4514    -4602    -4658    -4684    -4681    -4657    -4619 
   -4561    -4464    -4329    -4180    -4047    -3948    -3897    -3882 
   -3888    -3893    -3871    -3843    -3838    -3844    -3847    -3865 
   -3908    -3974    -4082    -4248    -4432    -4557    -4585    -4544 
   -4477    -4441    -4479    -4579    -4684    -4745    -4758    -4780 
   -4862    -4993    -5140    -5277    -5385    -5454    -5479    -5451 
   -5382    -5331    -5347    -5409    -5440    -5378    -5217    -4996 
   -4770    -4617    -4575    -4622    -4700    -4749    -4716    -4595 
   -4430    -4274    -4168    -4140    -4168    -4212    -4261    -4311 
   -4348    -4380    -4417    -4449    -4498    -4561    -4590    -4546 
   -4455    -4359    -4320    -4364    -4469    -4580    -4649    -4653 
   -4638    -4668    -4734    -4814    -4899    -4962    -4996    -5017 
   -5017    -4978    -4907    -4851    -4850    -4893    -4943    -4970 
   -4949    -4889    -4835    -4796    -4752    -4684    -4598    -4521 
   -4475    -4467    -4476    -4479    -4464    -4438    -4411    -4411 
   -4449    -4491    -4472    -4351    -4166    -4002    -3928    -3969 
   -4089    -4210    -4276    -4280    -4233    -4168    -4126    -4125 
   -4174    -4279    -4430    -4592    -4725    -4797    -4826    -4857 
   -4922    -5016    -5131    -5248    -5331    -5356    -5319    -5219 
   -5078    -4941    -4847    -4804    -4779    -4737    -4669    -4588 
   -4511    -4468    -4459    -4442    -4386    -4295    -4190    -4102 
   -4074    -4114    -4197    -4288    -4368    -4415    -4436    -4467 
   -4518    -4565    -4587    -4567    -4496    -4396    -4297    -4230 
   -4224    -4272    -4352    -4437    -4509    -4561    -4581    -4565 
   -4544    -4545    -4571    -4592    -4594    -4581    -4549    -4503 
   -4464    -4430    -4396    -4365    -4320    -4249    -4179    -4124 
   -4095    -4104    -4129    -4137    -4141    -4167    -4198    -4233 
   -4278    -4324    -4364    -4415    -4471    -4509    -4527    -4533 
   -4518    -4486    -4448    -4423    -4423    -4436    -4453    -4477 
   -4522    -4595    -4685    -4754    -4774    -4742    -4666    -4572 
   -4490    -4438    -4426    -4457    -4511    -4563    -4587    -4540 
   -4414    -4264    -4136    -4043    -3994    -3985    -3989    -3996 
   -4016    -4060    -4116    -4141    -4114    -4045    -3982    -3962 
   -3973    -3986    -3994    -4001    -4031    -4101    -4207    -4302 
   -4351    -4365    -4374    -4422    -4517    -4630    -4752    -4868 
   -4936    -4962    -4968    -4946    -4876    -4766    -4660    -4600 
   -4610    -4668    -4727    -4752    -4729    -4679    -4637    -4626 
   -4649    -4684    -4693    -4665    -4622    -4577    -4550    -4557 
   -4583    -4594    -4572    -4510    -4419    -4317    -4205    -4087 
   -4005    -3986    -4036    -4151    -4297    -4414    -4469    -4469 
   -4425    -4372    -4361    -4390    -4418    -4429    -4428    -4433 
   -4455    -4486    -4519    -4541    -4529    -4495    -4461    -4413 
   -4356    -4340    -4367    -4401    -4441    -4491    -4519    -4507 
   -4465    -4409    -4368    -4365    -4384    -4396    -4394    -4374 
   -4348    -4337    -4349    -4384    -4441    -4517    -4604    -4684 
   -4726    -4723    -4684    -4621    -4550    -4487    -4421    -4365 
   -4359    -4403    -4460    -4503    -4523    -4507    -4461    -4417 
   -4396    -4401    -4415    -4422    -4409    -4396    -4418    -4471 
   -4514    -4522    -4514    -4522    -4556    -4603    -4649    -4689 
   -4718    -4737    -4761    -4785    -4804    -4814    -4803    -4776 
   -4738    -4689    -4637    -4596    -4583    -4591    -4588    -4545 
   -4472    -4407    -4372    -4363    -4359    -4341    -4322    -4344 
   -4419    -4511    -4581    -4622    -4641    -4653    -4666    -4661 
   -4615    -4542    -4465    -4391    -4329    -4284    -4249    -4225 
   -4230    -4268    -4325    -4392    -4460    -4533    -4644    -4800 
   -4959    -5063    -5080    -5019    -4928    -4869    -4858    -4880 
   -4946    -5031    -5049    -5022    -5036    -5053    -5020    -5011 
   -5044    -5063    -5080    -5123    -5142    -5089    -5030    -5028 
   -5063    -5113    -5173    -5212    -5206    -5178    -5157    -5135 
   -5097    -5046    -4968    -4853    -4735    -4623    -4525    -4477 
   -4490    -4538    -4600    -4621    -4564    -4465    -4353    -4240 
   -4140    -4077    -4068    -4093    -4109    -4114    -4109    -4094 
   -4090    -4109    -4139    -4178    -4234    -4293    -4342    -4396 
   -4460    -4536    -4619    -4706    -4793    -4877    -4931    -4935 
   -4909    -4900    -4923    -4970    -5009    -5005    -4965    -4932 
   -4928    -4919    -4877    -4804    -4720    -4660    -4638    -4622 
   -4575    -4486    -4363    -4218    -4060    -3915    -3816    -3773 
   -3785    -3832    -3879    -3924    -3986    -4060    -4132    -4189 
   -4217    -4222    -4221    -4226    -4241    -4268    -4315    -4364 
   -4382    -4356    -4297    -4253    -4264    -4305    -4333    -4344 
   -4333    -4311    -4301    -4306    -4338    -4401    -4461    -4494 
   -4488    -4456    -4422    -4410    -4429    -4473    -4542    -4618 
   -4683    -4720    -4727    -4711    -4696    -4696    -4699    -4691 
   -4665    -4637    -4618    -4604    -4584    -4552    -4515    -4473 
   -4423    -4371    -4318    -4266    -4217    -4189    -4203    -4278 
   -4402    -4534    -4639    -4699    -4714    -4679    -4602    -4534 
   -4511    -4544    -4604    -4625    -4569    -4469    -4375    -4321 
   -4322    -4364    -4405    -4418    -4396    -4367    -4360    -4384 
