Origin Time       2025/01/13 21:19:00
Lat.              31.8
Long.             131.6
Depth. (km)       30
Mag.              6.9
Station Code      NGS005
Station Lat.      33.0370
Station Long.     129.9173
Station Height(m) 3
Record Time       2025/01/13 21:20:32
Sampling Freq(Hz) 100Hz
Duration Time(s)  77
Dir.              E-W
Scale Factor      7845(gal)/8223790
Max. Acc. (gal)   2.605
Last Correction   2025/01/13 21:20:33
Memo.             
[...]
   20266    20205    20135    20082    20034    20011    20038    20074 
   20125    20196    20262    20344    20407    20432    20493    20568 
   20603    20644    20711    20780    20849    20889    20908    20922 
   20923    20930    20946    20931    20907    20903    20877    20833 
   20795    20738    20656    20563    20434    20267    20106    19965 
   19800    19638    19539    19464    19403    19376    19333    19305 
   19337    19360    19367    19391    19400    19415    19430    19395 
   19363    19338    19287    19261    19263    19268    19325    19406 
   19484    19604    19732    19828    19932    20044    20142    20250 
   20379    20515    20640    20742    20829    20896    20950    20993 
   21012    21028    21043    21031    21010    20984    20927    20835 
   20723    20628    20556    20474    20417    20393    20337    20274 
   20231    20179    20150    20160    20170    20174    20171    20158 
   20142    20125    20121    20133    20150    20167    20169    20144 
   20129    20113    20077    20058    20061    20066    20075    20075 
   20071    20075    20070    20070    20089    20093    20094    20112 
   20121    20132    20154    20173    20212    20268    20333    20420 
   20510    20609    20729    20839    20945    21046    21132    21208 
   21259    21288    21313    21307    21280    21274    21262    21238 
   21232    21217    21174    21130    21058    20953    20839    20722 
   20587    20437    20308    20187    20042    19904    19793    19670 
   19568    19496    19417    19356    19334    19315    19302    19298 
   19305    19337    19372    19414    19476    19503    19525    19580 
   19597    19575    19572    19593    19642    19714    19799    19888 
   19950    20005    20069    20094    20097    20121    20142    20170 
   20237    20308    20355    20401    20449    20471    20441    20403 
   20398    20426    20486    20540    20551    20563    20594    20602 
   20606    20617    20615    20634    20672    20695    20702    20698 
   20690    20686    20660    20637    20630    20617    20598    20588 
   20594    20633    20683    20722    20771    20812    20821    20810 
   20807    20819    20807    20775    20756    20718    20667    20626 
   20548    20456    20406    20359    20313    20298    20294    20290 
   20281    20250    20221    20191    20151    20119    20067    20002 
   19966    19909    19834    19792    19737    19662    19633    19627 
   19624    19641    19666    19724    19823    19930    20047    20178 
   20312    20445    20545    20613    20676    20733    20795    20879 
   20973    21051    21095    21127    21154    21138    21107    21097 
   21087    21080    21080    21061    21045    21031    20984    20934 
   20900    20864    20831    20780    20702    20629    20555    20471 
   20398    20325    20259    20217    20191    20179    20178    20175 
   20169    20152    20127    20110    20088    20069    20073    20061 
   20023    19984    19924    19854    19792    19747    19739    19724 
   19685    19661    19623    19566    19542    19529    19516    19529 
   19542    19558    19579    19584    19587    19580    19556    19558 
   19575    19585    19624    19674    19711    19754    19807    19863 
   19926    19975    20016    20052    20094    20143    20155    20123 
   20089    20056    20016    19969    19903    19845    19786    19688 
   19581    19502    19442    19414    19392    19372    19375    19379 
   19394    19434    19464    19485    19529    19581    19631    19685 
   19753    19854    19966    20056    20132    20220    20337    20451 
   20542    20659    20804    20947    21072    21173    21282    21398 
   21474    21521    21562    21575    21579    21590    21586    21581 
   21575    21550    21527    21492    21424    21361    21281    21170 
   21078    20985    20866    20768    20665    20541    20429    20314 
   20204    20120    20034    19951    19877    19799    19749    19708 
   19637    19558    19491    19434    19404    19400    19425    19472 
   19539    19629    19726    19853    19997    20100    20185    20278 
   20362    20457    20563    20665    20769    20833    20864    20895 
   20865    20799    20763    20699    20617    20588    20556    20482 
   20403    20305    20204    20155    20125    20088    20067    20058 
   20039    20019    20015    20029    20027    19990    19962    19954 
   19931    19907    19919    19923    19886    19865    19857    19831 
   19832    19854    19838    19812    19781    19703    19623    19562 
   19477    19406    19380    19373    19396    19452    19519    19606 
   19704    19811    19961    20119    20274    20470    20661    20811 
   20961    21115    21246    21371    21509    21645    21749    21826 
   21894    21921    21925    21926    21898    21872    21857    21816 
   21783    21771    21717    21629    21540    21436    21313    21174 
   21023    20864    20691    20513    20328    20154    20020    19903 
   19804    19755    19728    19716    19747    19789    19830    19897 
   19962    20024    20086    20119    20158    20214    20237    20262 
   20308    20322    20328    20341    20322    20302    20317    20321 
   20312    20328    20348    20356    20375    20397    20397    20403 
   20420    20414    20398    20372    20306    20220    20123    19997 
   19872    19769    19664    19572    19487    19399    19344    19309 
   19294    19337    19415    19516    19662    19831    20000    20175 
   20349    20507    20638    20752    20850    20920    20983    21051 
   21108    21158    21190    21166    21111    21031    20895    20752 
   20625    20471    20313    20175    20040    19903    19770    19669 
   19600    19531    19476    19435    19379    19334    19305    19280 
   19322    19418    19525    19677    19850    20004    20143    20245 
   20322    20393    20440    20487    20540    20572    20602    20632 
   20633    20610    20588    20567    20537    20517    20509    20506 
   20533    20595    20655    20731    20838    20919    20979    21038 
   21062    21042    21003    20935    20852    20769    20675    20580 
   20488    20385    20293    20197    20090    20008    19950    19912 
   19919    19950    19988    20047    20112    20178    20258    20333 
   20403    20484    20567    20644    20713    20764    20794    20792 
   20772    20734    20650    20552    20459    20340    20220    20101 
   19973    19870    19777    19668    19565    19444    19305    19199 
   19105    19013    18956    18910    18844    18773    18713    18658 
   18604    18577    18589    18611    18643    18704    18782    18883 
   19012    19148    19295    19445    19573    19707    19846    19958 
   20048    20129    20182    20221    20270    20325    20368    20399 
   20453    20503    20509    20525    20553    20536    20529    20564 
   20596    20648    20727    20795    20838    20856    20848    20799 
   20704    20611    20503    20376    20290    20198    20075    19981 
   19893    19785    19711    19669    19650    19660    19687    19731 
   19782    19820    19851    19857    19839    19845    19858    19872 
   19935    20042    20150    20241    20318    20387    20441    20488 
   20547    20598    20663    20780    20912    21038    21185    21330 
   21454    21563    21629    21660    21656    21597    21508    21398 
   21273    21165    21051    20922    20803    20676    20530    20382 
   20231    20086    19939    19769    19603    19449    19296    19152 
   19018    18922    18881    18863    18866    18894    18928    18954 
   18971    18976    18979    18983    18974    18970    18994    19044 
   19113    19199    19317    19462    19603    19754    19926    20086 
   20263    20461    20648    20829    21003    21166    21313    21419 
   21492    21554    21579    21570    21555    21524    21489    21458 
   21415    21375    21334    21277    21232    21195    21161    21145 
   21130    21128    21136    21112    21072    21018    20931    20838 
   20726    20571    20403    20229    20038    19847    19677    19543 
   19458    19431    19461    19525    19612    19722    19830    19921 
   20002    20065    20100    20125    20151    20177    20216    20259 
   20294    20316    20317    20314    20309    20299    20317    20351 
   20398    20482    20559    20614    20684    20748    20790    20837 
   20888    20947    21007    21050    21088    21114    21109    21085 
   21034    20962    20891    20800    20695    20605    20518    20426 
   20348    20282    20225    20170    20117    20079    20035    20002 
   20001    19985    19958    19958    19943    19915    19894    19863 
   19838    19827    19823    19842    19876    19917    19966    19989 
   19997    20009    19996    19986    20012    20050    20123    20233 
   20345    20476    20615    20725    20803    20846    20871    20891 
   20907    20950    21010    21047    21091    21119    21101    21081 
   21064    21028    21011    21003    20979    20947    20904    20838 
   20752    20633    20506    20372    20210    20050    19904    19749 
   19603    19472    19345    19232    19128    19048    18998    18956 
   18936    18940    18956    18999    19049    19090    19141    19186 
   19233    19306    19372    19444    19548    19660    19784    19931 
   20071    20210    20347    20476    20607    20727    20846    20973 
   21073    21162    21261    21332    21379    21409    21411    21396 
   21366    21335    21327    21342    21378    21424    21452    21479 
   21514    21502    21460    21436    21386    21321    21281    21230 
   21159    21081    20980    20861    20727    20591    20460    20322 
   20210    20133    20065    20031    20029    20024    20035    20054 
   20047    20040    20039    20040    20054    20061    20074    20101 
   20109    20110    20110    20092    20074    20059    20032    20017 
   20001    19969    19936    19893    19845    19807    19761    19703 
   19639    19569    19502    19430    19360    19325    19317    19311 
   19327    19361    19386    19426    19476    19516    19570    19622 
   19662    19705    19739    19780    19834    19897    19988    20077 
   20158    20259    20339    20389    20437    20459    20460    20449 
   20414    20364    20291    20205    20127    20032    19938    19862 
   19765    19672    19635    19618    19607    19633    19685    19749 
   19819    19905    20012    20113    20223    20364    20488    20592 
   20710    20810    20884    20953    21000    21039    21078    21103 
   21118    21119    21100    21080    21057    21047    21058    21065 
   21080    21104    21100    21084    21055    20995    20926    20850 
   20761    20680    20596    20518    20460    20403    20351    20306 
   20250    20194    20150    20101    20066    20042    20013    20000 
   20005    20025    20059    20094    20139    20189    20229    20277 
   20321    20345    20367    20371    20349    20339    20316    20272 
   20247    20223    20209    20228    20255    20290    20340    20399 
   20479    20545    20588    20618    20614    20580    20537    20478 
   20401    20304    20183    20052    19923    19796    19680    19560 
   19442    19332    19213    19094    18982    18863    18760    18689 
   18625    18584    18565    18551    18558    18580    18603    18640 
   18681    18709    18751    18792    18831    18879    18922    18979 
   19057    19130    19211    19306    19406    19519    19627    19737 
   19869    19990    20110    20248    20366    20464    20569    20675 
   20783    20881    20979    21099    21193    21266    21352    21412 
   21442    21462    21454    21429    21404    21370    21342    21307 
   21271    21254    21223    21176    21143    21103    21057    21034 
   21008    20977    20966    20952    20931    20915    20889    20860 
   20825    20780    20748    20719    20699    20704    20700    20686 
   20679    20663    20650    20652    20655    20669    20676    20645 
   20594    20520    20414    20286    20142    19996    19854    19710 
   19588    19479    19356    19256    19180    19111    19071    19057 
   19067    19101    19140    19197    19275    19353    19430    19503 
   19566    19638    19696    19737    19791    19831    19857    19907 
   19954    20000    20074    20156    20243    20340    20434    20540 
   20656    20757    20871    20992    21093    21185    21255    21292 
   21313    21309    21281    21246    21215    21209    21224    21251 
   21304    21355    21377    21390    21389    21375    21362    21334 
   21319    21325    21319    21312    21315    21292    21253    21203 
   21146    21093    21037    20991    20962    20920    20885    20868 
   20845    20829    20829    20831    20837    20841    20822    20779 
   20714    20623    20514    20405    20305    20208    20127    20083 
   20051    20023    20019    20015    20002    20025    20063    20096 
   20151    20229    20314    20394    20463    20515    20533    20517 
   20494    20459    20425    20414    20420    20449    20507    20564 
   20621    20692    20757    20812    20871    20931    20987    21026 
   21053    21066    21039    20993    20952    20888    20807    20748 
   20687    20601    20515    20429    20328    20217    20097    19977 
   19858    19746    19654    19575    19510    19465    19404    19315 
   19221    19086    18905    18721    18532    18337    18157    17995 
   17861    17751    17656    17590    17545    17540    17575    17620 
   17705    17844    17991    18165    18373    18580    18775    18962 
   19145    19321    19484    19672    19885    20094    20317    20536 
   20713    20869    21001    21080    21124    21141    21136    21128 
   21105    21072    21027    20956    20873    20779    20668    20576 
   20503    20437    20401    20380    20367    20409    20487    20571 
   20673    20788    20904    21018    21114    21201    21267    21320 
   21377    21415    21447    21500    21523    21523    21525    21502 
   21459    21412    21352    21297    21247    21201    21170    21134 
   21099    21073    21015    20943    20880    20776    20646    20534 
   20422    20309    20214    20147    20096    20040    19998    19967 
   19919    19877    19855    19831    19826    19847    19872    19920 
   19975    19998    20020    20047    20059    20079    20105    20135 
   20185    20227    20258    20285    20279    20263    20259    20240 
   20232    20248    20256    20264    20264    20241    20214    20174 
   20128    20098    20070    20061    20066    20056    20059    20065 
   20047    20040    20028    20000    19984    19965    19947    19944 
   19935    19934    19951    19971    20008    20054    20089    20128 
   20158    20158    20160    20160    20154    20163    20173    20181 
   20190    20190    20189    20177    20150    20143    20139    20132 
   20135    20119    20082    20050    19988    19917    19865    19799 
   19731    19684    19631    19575    19525    19489    19488    19516 
   19579    19674    19785    19908    20028    20132    20239    20348 
   20449    20567    20679    20772    20860    20919    20947    20956 
   20919    20865    20826    20777    20730    20698    20659    20623 
   20587    20529    20476    20426    20376    20358    20360    20382 
   20428    20470    20506    20528    20528    20538    20544    20542 
   20578    20618    20642    20682    20714    20730    20742    20736 
   20736    20754    20767    20788    20814    20825    20838    20838 
   20821    20800    20756    20713    20679    20632    20587    20551 
   20503    20448    20379    20304    20235    20155    20065    19986 
   19905    19835    19780    19714    19651    19607    19550    19496 
   19464    19449    19475    19533    19606    19710    19827    19940 
   20052    20146    20231    20321    20405    20488    20587    20687 
   20783    20868    20946    21034    21115    21193    21280    21369 
   21473    21589    21694    21806    21907    21976    22063    22148 
   22198    22253    22311    22350    22385    22416    22443    22465 
   22462    22450    22432    22397    22362    22338    22329    22331 
   22318    22291    22269    22225    22141    22032    21895    21752 
   21594    21415    21247    21091    20925    20771    20621    20470 
   20331    20196    20070    19958    19853    19791    19761    19723 
   19699    19680    19647    19639    19641    19626    19619    19620 
   19619    19624    19626    19637    19660    19678    19711    19757 
   19784    19803    19813    19797    19774    19761    19755    19761 
   19778    19803    19820    19818    19808    19791    19764    19753 
   19747    19742    19768    19791    19795    19803    19792    19765 
   19741    19708    19685    19668    19642    19627    19595    19541 
   19503    19457    19404    19371    19336    19295    19272    19261 
   19260    19265    19279    19307    19337    19359    19387    19414 
   19434    19457    19479    19500    19533    19558    19576    19611 
   19650    19691    19745    19812    19884    19934    19969    20009 
   20012    19986    19982    19965    19926    19901    19885    19869 
   19861    19840    19820    19809    19791    19774    19753    19722 
   19693    19642    19576    19523    19454    19377    19300    19198 
   19084    18981    18868    18762    18675    18623    18613    18634 
   18689    18770    18863    18985    19110    19232    19383    19549 
   19716    19903    20096    20299    20509    20704    20895    21065 
   21200    21331    21439    21504    21555    21578    21555    21524 
   21474    21386    21294    21208    21109    21014    20929    20845 
   20758    20676    20609    20559    20521    20501    20518    20552 
   20586    20619    20645    20667    20687    20690    20683    20683 
   20690    20683    20663    20644    20619    20590    20572    20559 
   20557    20591    20614    20623    20646    20649    20622    20590 
   20556    20530    20494    20443    20399    20331    20245    20167 
   20056    19931    19824    19707    19587    19485    19391    19309 
   19251    19222    19211    19205    19221    19260    19283    19310 
   19354    19390    19430    19487    19541    19599    19668    19735 
   19803    19872    19934    19982    20020    20043    20039    20011 
   19974    19926    19854    19777    19691    19591    19499    19410 
   19323    19256    19211    19197    19206    19233    19286    19353 
   19435    19548    19661    19762    19892    20036    20171    20318 
   20474    20615    20737    20830    20908    20966    20996    21019 
   21028    21019    21012    20989    20938    20895    20862    20822 
   20787    20756    20707    20649    20586    20517    20439    20359 
   20293    20233    20177    20140    20112    20085    20066    20034 
   20002    19997    19984    19963    19969    19978    19981    19981 
   19978    19965    19928    19888    19854    19796    19745    19711 
   19668    19658    19689    19726    19786    19865    19939    20021 
   20100    20170    20243    20298    20353    20421    20455    20467 
   20487    20487    20495    20524    20544    20584    20638    20672 
   20711    20758    20810    20880    20961    21072    21193    21293 
