Origin Time       2025/01/13 21:19:00
Lat.              31.8
Long.             131.6
Depth. (km)       30
Mag.              6.9
Station Code      NGS005
Station Lat.      33.0370
Station Long.     129.9173
Station Height(m) 3
Record Time       2025/01/13 21:20:32
Sampling Freq(Hz) 100Hz
Duration Time(s)  77
Dir.              U-D
Scale Factor      7845(gal)/8223790
Max. Acc. (gal)   1.224
Last Correction   2025/01/13 21:20:33
Memo.             
[...]
   11510    11516    11514    11529    11554    11564    11574    11589 
   11584    11589    11605    11605    11610    11630    11634    11623 
   11616    11610    11597    11574    11556    11527    11473    11416 
   11349    11260    11182    11105    11021    10964    10926    10891 
   10876    10878    10886    10893    10906    10936    10956    10968 
   11002    11018    11010    11026    11038    11032    11049    11078 
   11107    11153    11213    11279    11344    11412    11499    11577 
   11642    11715    11776    11820    11862    11888    11897    11915 
   11935    11939    11931    11921    11905    11875    11857    11857 
   11854    11865    11886    11890    11900    11923    11915    11898 
   11908    11904    11880    11870    11865    11846    11838    11847 
   11842    11821    11821    11812    11776    11766    11769    11742 
   11727    11728    11708    11691    11692    11681    11669    11669 
   11665    11645    11630    11619    11588    11551    11526    11484 
   11426    11376    11317    11238    11163    11087    10999    10930 
   10887    10847    10822    10825    10833    10851    10885    10921 
   10960    11011    11071    11121    11163    11207    11238    11260 
   11288    11303    11307    11314    11318    11313    11303    11300 
   11296    11281    11275    11273    11254    11252    11268    11263 
   11263    11280    11284    11292    11307    11311    11310    11300 
   11284    11265    11232    11196    11172    11142    11118    11103 
   11079    11065    11070    11059    11044    11040    11024    10994 
   10964    10937    10913    10879    10840    10805    10771    10752 
   10758    10777    10821    10883    10943    11014    11098    11179 
   11267    11371    11483    11583    11676    11782    11878    11956 
   12042    12116    12170    12217    12247    12260    12266    12260 
   12252    12237    12212    12197    12178    12141    12109    12079 
   12044    12012    11959    11901    11859    11804    11738    11681 
   11620    11553    11487    11418    11356    11306    11264    11233 
   11213    11207    11210    11199    11190    11198    11202    11210 
   11237    11265    11296    11340    11381    11425    11479    11542 
   11603    11658    11723    11785    11823    11869    11917    11943 
   11977    12009    12008    12004    11997    11966    11928    11888 
   11838    11774    11707    11662    11615    11557    11535    11522 
   11484    11469    11465    11441    11422    11414    11403    11391 
   11388    11391    11375    11349    11331    11283    11221    11186 
   11136    11064    11024    10987    10932    10894    10875    10852 
   10841    10849    10864    10885    10924    10997    11068    11138 
   11241    11333    11398    11485    11569    11624    11691    11759 
   11809    11851    11889    11920    11932    11938    11955    11959 
   11958    11982    12001    12015    12052    12081    12096    12123 
   12136    12132    12135    12125    12105    12090    12078    12066 
   12047    12028    12019    11996    11969    11962    11952    11946 
   11961    11973    11985    12012    12035    12047    12066    12093 
   12117    12137    12167    12198    12221    12243    12253    12247 
   12235    12218    12194    12177    12163    12148    12129    12113 
   12094    12062    12009    11954    11888    11809    11732    11645 
   11551    11473    11398    11322    11264    11211    11149    11095 
   11049    11006    10966    10936    10922    10917    10928    10971 
   11011    11045    11105    11160    11200    11256    11317    11362 
   11404    11441    11470    11496    11522    11554    11585    11622 
   11668    11700    11727    11763    11784    11786    11790    11781 
   11745    11697    11647    11593    11529    11475    11441    11410 
   11388    11377    11361    11356    11362    11357    11352    11360 
   11356    11345    11344    11341    11334    11322    11313    11303 
   11288    11281    11279    11277    11299    11322    11329    11344 
   11360    11352    11342    11344    11337    11321    11304    11287 
   11253    11213    11180    11136    11079    11040    10995    10930 
   10891    10863    10814    10782    10773    10751    10728    10724 
   10732    10733    10737    10762    10781    10800    10837    10862 
   10876    10916    10940    10935    10943    10952    10940    10922 
   10912    10909    10912    10926    10962    10990    11017    11068 
   11117    11157    11225    11295    11349    11422    11508    11581 
   11653    11734    11816    11886    11950    12021    12079    12120 
   12155    12167    12162    12158    12124    12083    12077    12067 
   12051    12050    12055    12055    12043    12031    12020    11988 
   11962    11948    11920    11892    11874    11846    11809    11767 
   11719    11670    11620    11573    11529    11483    11452    11431 
   11410    11416    11438    11448    11468    11495    11507    11515 
   11523    11515    11500    11485    11470    11445    11421    11423 
   11429    11427    11449    11468    11473    11491    11500    11493 
   11493    11488    11477    11465    11443    11418    11387    11357 
   11344    11318    11294    11299    11294    11281    11298    11310 
   11310    11329    11350    11372    11396    11423    11461    11485 
   11503    11534    11553    11564    11585    11599    11604    11616 
   11623    11623    11619    11612    11607    11597    11585    11580 
   11569    11557    11545    11529    11522    11529    11527    11533 
   11551    11561    11561    11568    11568    11566    11561    11546 
   11541    11537    11515    11491    11473    11446    11410    11364 
   11321    11279    11230    11196    11172    11138    11118    11115 
   11110    11124    11153    11184    11226    11280    11330    11383 
   11437    11492    11545    11591    11645    11700    11745    11796 
   11848    11888    11925    11952    11962    11963    11951    11935 
   11912    11878    11848    11811    11772    11750    11727    11713 
   11719    11713    11715    11732    11738    11742    11742    11720 
   11693    11655    11600    11550    11492    11437    11398    11345 
   11299    11273    11226    11184    11171    11142    11115    11107 
   11099    11098    11103    11111    11137    11160    11179    11217 
   11252    11284    11319    11344    11376    11422    11453    11487 
   11539    11581    11611    11651    11696    11734    11765    11803 
   11843    11869    11892    11916    11929    11938    11932    11923 
   11919    11912    11902    11890    11871    11855    11835    11807 
   11796    11781    11750    11728    11700    11662    11639    11605 
   11572    11566    11554    11542    11549    11545    11538    11547 
   11558    11576    11604    11638    11685    11723    11749    11785 
   11816    11843    11874    11890    11898    11900    11884    11863 
   11844    11811    11786    11769    11751    11745    11734    11723 
   11722    11705    11688    11677    11643    11608    11592    11554 
   11507    11475    11438    11402    11377    11368    11365    11358 
   11369    11388    11394    11416    11450    11464    11492    11534 
   11551    11568    11589    11596    11605    11614    11612    11603 
   11583    11569    11554    11533    11542    11558    11564    11599 
   11628    11618    11623    11630    11600    11573    11557    11529 
   11506    11495    11484    11473    11465    11466    11466    11464 
   11481    11510    11529    11556    11585    11601    11620    11647 
   11666    11670    11677    11684    11668    11654    11651    11623 
   11596    11585    11541    11491    11469    11433    11380    11349 
   11331    11314    11291    11280    11283    11271    11265    11271 
   11254    11237    11236    11217    11194    11186    11167    11138 
   11114    11090    11065    11037    11017    11005    10995    11003 
   11018    11036    11079    11130    11169    11230    11310    11375 
   11434    11506    11569    11610    11643    11676    11682    11677 
   11684    11666    11635    11632    11623    11592    11587    11591 
   11569    11553    11561    11562    11554    11560    11573    11578 
   11592    11627    11659    11688    11734    11774    11804    11847 
   11892    11916    11936    11966    11983    11983    11989    11996 
   11979    11963    11955    11917    11875    11851    11813    11770 
   11749    11722    11689    11672    11655    11632    11608    11596 
   11592    11576    11573    11578    11558    11547    11553    11535 
   11520    11522    11499    11468    11445    11412    11377    11346 
   11327    11314    11292    11279    11269    11241    11222    11213 
   11184    11168    11161    11129    11101    11083    11047    11010 
   10987    10967    10949    10933    10941    10966    10979    11017 
   11079    11128    11188    11272    11345    11430    11531    11624 
   11713    11804    11884    11947    11996    12040    12066    12069 
   12067    12048    12006    11973    11935    11875    11826    11777 
   11704    11620    11539    11448    11340    11236    11148    11045 
   10947    10881    10810    10743    10717    10700    10673    10683 
   10708    10719    10746    10785    10814    10839    10866    10901 
   10928    10964    11016    11057    11106    11173    11226    11277 
   11340    11380    11414    11453    11479    11499    11526    11556 
   11591    11627    11670    11724    11773    11820    11873    11916 
   11951    11979    11996    12009    12025    12039    12048    12055 
   12060    12067    12064    12059    12046    12015    11982    11951 
   11909    11869    11820    11765    11719    11666    11604    11557 
   11512    11468    11431    11400    11381    11365    11349    11341 
   11319    11279    11240    11186    11125    11079    11029    10984 
   10963    10948    10943    10951    10966    10997    11020    11032 
   11061    11086    11092    11107    11118    11125    11137    11137 
   11134    11140    11137    11130    11126    11121    11121    11115 
   11107    11111    11117    11118    11130    11142    11155    11169 
   11176    11182    11198    11200    11190    11184    11179    11157 
   11136    11130    11119    11097    11087    11087    11083    11083 
   11083    11090    11106    11114    11126    11144    11145    11149 
   11157    11146    11141    11148    11136    11121    11117    11110 
   11102    11083    11079    11097    11083    11064    11083    11079 
   11065    11092    11117    11138    11183    11226    11264    11314 
   11373    11425    11464    11520    11583    11619    11655    11699 
   11720    11732    11743    11742    11740    11735    11727    11720 
   11723    11742    11769    11792    11834    11889    11929    11977 
   12042    12096    12150    12214    12271    12318    12370    12421 
   12469    12514    12560    12595    12618    12648    12667    12663 
   12669    12669    12642    12621    12592    12541    12488    12436 
   12370    12289    12208    12137    12051    11952    11878    11797 
   11701    11627    11551    11470    11408    11349    11300    11281 
   11272    11267    11280    11298    11308    11313    11317    11322 
   11321    11307    11299    11295    11283    11277    11281    11281 
   11286    11296    11300    11304    11315    11319    11317    11321 
   11314    11295    11279    11254    11222    11194    11156    11109 
   11070    11028    10972    10924    10879    10829    10778    10725 
   10685    10643    10590    10561    10540    10511    10505    10521 
   10530    10557    10609    10655    10701    10770    10840    10908 
   10991    11087    11178    11269    11365    11443    11502    11556 
   11595    11601    11599    11595    11569    11522    11485    11452 
   11400    11360    11337    11300    11267    11248    11213    11176 
   11164    11144    11119    11122    11126    11121    11125    11138 
   11153    11163    11175    11200    11219    11240    11283    11318 
   11350    11403    11442    11470    11522    11566    11600    11651 
   11709    11763    11813    11861    11911    11943    11961    11989 
   12006    12002    11998    11977    11946    11921    11880    11830 
   11796    11765    11724    11680    11646    11619    11587    11564 
   11547    11529    11529    11543    11554    11581    11631    11669 
   11703    11750    11793    11820    11838    11859    11862    11838 
   11820    11797    11740    11689    11635    11556    11493    11446 
   11372    11304    11252    11186    11117    11055    10997    10941 
   10879    10833    10800    10755    10721    10701    10674    10656 
   10652    10638    10625    10625    10625    10625    10625    10624 
   10629    10646    10673    10704    10737    10775    10808    10841 
   10889    10932    10956    10983    11016    11038    11049    11057 
   11074    11088    11092    11105    11115    11121    11132    11133 
   11125    11132    11141    11134    11134    11144    11140    11133 
   11137    11148    11152    11160    11184    11205    11219    11249 
   11276    11298    11335    11377    11421    11479    11538    11603 
   11670    11732    11796    11855    11911    11971    12024    12085 
   12158    12216    12276    12348    12403    12457    12519    12568 
   12610    12645    12672    12699    12711    12718    12731    12730 
   12735    12753    12753    12757    12773    12766    12758    12757 
   12737    12712    12684    12638    12576    12502    12429    12349 
   12252    12172    12102    12020    11956    11900    11836    11782 
   11727    11674    11638    11597    11561    11542    11522    11511 
   11510    11504    11511    11522    11529    11539    11541    11535 
   11535    11524    11512    11510    11493    11476    11460    11441 
   11425    11399    11368    11356    11346    11327    11319    11313 
   11300    11296    11300    11311    11322    11334    11361    11384 
   11396    11416    11430    11431    11450    11469    11465    11468 
   11477    11480    11483    11487    11492    11499    11497    11502 
   11504    11495    11491    11489    11479    11477    11473    11457 
   11448    11438    11419    11400    11381    11362    11340    11315 
   11299    11280    11253    11234    11222    11202    11175    11142 
   11115    11090    11055    11021    10991    10963    10941    10924 
   10913    10916    10925    10948    10978    11006    11045    11090 
   11128    11169    11211    11240    11267    11294    11313    11321 
   11321    11337    11352    11341    11341    11356    11346    11340 
   11346    11331    11319    11314    11298    11281    11271    11263 
   11264    11252    11240    11238    11217    11191    11184    11178 
   11167    11159    11159    11169    11180    11194    11215    11236 
   11260    11291    11322    11361    11398    11434    11477    11504 
   11518    11545    11562    11564    11578    11589    11595    11608 
   11623    11635    11647    11664    11695    11724    11749    11786 
   11819    11836    11861    11880    11880    11881    11877    11859 
   11844    11834    11823    11811    11804    11811    11803    11789 
   11797    11788    11766    11773    11769    11745    11736    11728 
   11697    11662    11639    11616    11577    11549    11534    11493 
   11461    11450    11414    11377    11375    11361    11338    11340 
   11344    11338    11353    11383    11408    11443    11496    11553 
   11604    11669    11739    11790    11843    11904    11948    11993 
   12046    12086    12121    12159    12198    12226    12243    12268 
   12287    12291    12305    12307    12294    12294    12279    12240 
   12220    12195    12144    12100    12060    12015    11969    11923 
   11888    11851    11809    11785    11749    11700    11677    11649 
   11610    11587    11560    11522    11492    11468    11443    11408 
   11379    11357    11317    11276    11252    11214    11175    11159 
   11130    11097    11083    11071    11052    11045    11047    11049 
   11044    11047    11065    11071    11075    11097    11103    11115 
   11149    11159    11169    11203    11214    11219    11246    11264 
   11269    11283    11303    11327    11350    11376    11403    11425 
   11456    11485    11500    11529    11564    11577    11585    11603 
   11607    11596    11588    11581    11558    11529    11508    11473 
   11434    11422    11399    11364    11367    11377    11373    11389 
   11414    11430    11443    11453    11483    11504    11506    11547 
   11588    11596    11642    11696    11720    11776    11836    11855 
   11893    11944    11973    11992    12017    12042    12059    12081 
   12113    12135    12140    12148    12150    12136    12114    12078 
   12031    11982    11934    11888    11824    11758    11712    11649 
   11574    11527    11464    11387    11331    11259    11180    11132 
   11070    10993    10943    10897    10836    10790    10754    10708 
   10666    10640    10615    10590    10584    10582    10575    10590 
   10620    10646    10683    10732    10775    10836    10903    10960 
   11032    11107    11187    11283    11364    11437    11530    11620 
   11703    11786    11861    11919    11978    12040    12078    12096 
   12121    12139    12133    12129    12114    12079    12052    12024 
   11971    11921    11885    11848    11826    11797    11753    11732 
   11724    11695    11654    11626    11611    11591    11568    11565 
   11561    11557    11589    11623    11637    11666    11703    11723 
   11743    11761    11763    11757    11755    11747    11716    11697 
   11685    11646    11624    11630    11600    11568    11566    11550 
   11527    11519    11507    11499    11502    11502    11496    11506 
   11533    11546    11543    11568    11601    11596    11587    11589 
   11566    11537    11508    11457    11403    11357    11306    11245 
   11184    11138    11095    11033    10986    10955    10905    10862 
   10839    10812    10791    10783    10773    10770    10773    10782 
   10798    10806    10825    10852    10864    10889    10925    10940 
   10959    10993    11021    11051    11065    11082    11117    11134 
   11140    11167    11191    11198    11207    11222    11240    11252 
   11256    11267    11284    11300    11317    11319    11325    11348 
   11362    11361    11368    11381    11387    11380    11375    11379 
   11371    11354    11349    11342    11330    11322    11313    11303 
   11291    11287    11294    11292    11294    11310    11313    11310 
   11325    11338    11341    11353    11369    11383    11388    11399 
   11425    11442    11449    11479    11511    11529    11558    11595 
   11619    11645    11673    11696    11716    11740    11769    11782 
   11789    11817    11836    11839    11858    11878    11882    11890 
   11907    11923    11931    11936    11950    11955    11950    11948 
   11951    11942    11925    11907    11890    11866    11827    11797 
   11777    11740    11709    11701    11686    11659    11643    11646 
   11638    11615    11614    11627    11623    11626    11643    11657 
   11665    11673    11680    11689    11689    11688    11695    11682 
