Origin Time       2025/01/13 21:19:00
Lat.              31.8
Long.             131.6
Depth. (km)       30
Mag.              6.9
Station Code      NGS011
Station Lat.      32.7843
Station Long.     130.2023
Station Height(m) 38
Record Time       2025/01/13 21:20:07
Sampling Freq(Hz) 100Hz
Duration Time(s)  131
Dir.              U-D
Scale Factor      7845(gal)/8223790
Max. Acc. (gal)   3.092
Last Correction   2025/01/13 21:20:07
Memo.             
[...]
  -14482   -14490   -14481   -14469   -14461   -14462   -14472   -14473 
  -14472   -14480   -14499   -14528   -14570   -14627   -14693   -14771 
  -14874   -15010   -15184   -15379   -15572   -15758   -15947   -16132 
  -16303   -16459   -16599   -16734   -16862   -16968   -17042   -17101 
  -17162   -17217   -17265   -17301   -17313   -17296   -17246   -17169 
  -17065   -16939   -16803   -16671   -16540   -16407   -16294   -16214 
  -16164   -16133   -16113   -16110   -16128   -16158   -16183   -16198 
  -16208   -16217   -16214   -16198   -16174   -16133   -16079   -16021 
  -15978   -15969   -15982   -16008   -16047   -16098   -16156   -16210 
  -16251   -16279   -16303   -16328   -16352   -16370   -16374   -16371 
  -16378   -16390   -16394   -16378   -16336   -16272   -16210   -16152 
  -16092   -16023   -15946   -15874   -15813   -15766   -15734   -15697 
  -15646   -15573   -15480   -15396   -15340   -15304   -15294   -15306 
  -15334   -15381   -15445   -15511   -15589   -15693   -15834   -16008 
  -16197   -16371   -16525   -16665   -16794   -16897   -16961   -16978 
  -16954   -16902   -16827   -16735   -16629   -16513   -16394   -16270 
  -16128   -15971   -15826   -15704   -15614   -15560   -15539   -15542 
  -15566   -15601   -15654   -15731   -15817   -15905   -15998   -16081 
  -16124   -16117   -16069   -15977   -15850   -15703   -15547   -15402 
  -15282   -15194   -15141   -15113   -15110   -15129   -15145   -15153 
  -15167   -15199   -15257   -15341   -15439   -15549   -15666   -15790 
  -15921   -16062   -16208   -16359   -16514   -16669   -16821   -16950 
  -17043   -17115   -17167   -17190   -17184   -17151   -17097   -17034 
  -16961   -16881   -16806   -16729   -16640   -16546   -16468   -16411 
  -16367   -16321   -16256   -16164   -16051   -15930   -15801   -15668 
  -15533   -15406   -15304   -15238   -15201   -15176   -15140   -15082 
  -15017   -14964   -14928   -14914   -14940   -15014   -15140   -15303 
  -15479   -15657   -15832   -15997   -16156   -16309   -16445   -16569 
  -16683   -16775   -16837   -16873   -16899   -16929   -16978   -17047 
  -17128   -17209   -17277   -17324   -17340   -17331   -17312   -17298 
  -17284   -17258   -17228   -17189   -17123   -17032   -16923   -16788 
  -16640   -16491   -16345   -16202   -16066   -15946   -15836   -15720 
  -15595   -15468   -15336   -15194   -15049   -14904   -14758   -14620 
  -14486   -14359   -14249   -14168   -14108   -14050   -13998   -13969 
  -13976   -14018   -14095   -14196   -14303   -14403   -14496   -14584 
  -14673   -14769   -14890   -15047   -15232   -15427   -15630   -15824 
  -15985   -16105   -16201   -16286   -16368   -16468   -16596   -16735 
  -16866   -16987   -17103   -17221   -17343   -17463   -17583   -17701 
  -17798   -17855   -17871   -17848   -17799   -17734   -17652   -17547 
  -17424   -17293   -17166   -17050   -16934   -16808   -16665   -16511 
  -16362   -16218   -16077   -15946   -15834   -15739   -15668   -15630 
  -15624   -15650   -15703   -15773   -15853   -15930   -15996   -16059 
  -16109   -16137   -16139   -16106   -16039   -15959   -15880   -15808 
  -15758   -15738   -15734   -15732   -15730   -15736   -15759   -15805 
  -15874   -15961   -16063   -16183   -16313   -16436   -16541   -16627 
  -16686   -16711   -16704   -16660   -16582   -16498   -16422   -16349 
  -16287   -16244   -16213   -16183   -16155   -16119   -16073   -16028 
  -15985   -15938   -15865   -15750   -15610   -15466   -15333   -15215 
  -15113   -15024   -14952   -14914   -14899   -14891   -14899   -14931 
  -14971   -15016   -15068   -15124   -15178   -15241   -15326   -15433 
  -15561   -15699   -15827   -15925   -16002   -16060   -16090   -16090 
  -16058   -15984   -15867   -15707   -15522   -15345   -15192   -15067 
  -14982   -14944   -14945   -14975   -15020   -15066   -15110   -15160 
  -15210   -15257   -15306   -15350   -15392   -15445   -15515   -15595 
  -15687   -15792   -15888   -15971   -16038   -16081   -16104   -16120 
  -16135   -16152   -16178   -16221   -16271   -16330   -16409   -16497 
  -16576   -16649   -16707   -16731   -16722   -16695   -16649   -16579 
  -16507   -16448   -16383   -16308   -16239   -16158   -16051   -15939 
  -15831   -15712   -15604   -15518   -15429   -15344   -15280   -15242 
  -15237   -15273   -15345   -15444   -15561   -15692   -15826   -15942 
  -16046   -16143   -16224   -16282   -16328   -16374   -16422   -16455 
  -16456   -16437   -16407   -16362   -16314   -16291   -16286   -16298 
  -16340   -16407   -16497   -16596   -16687   -16757   -16798   -16796 
  -16738   -16633   -16503   -16363   -16225   -16089   -15959   -15844 
  -15741   -15658   -15607   -15579   -15577   -15616   -15688   -15772 
  -15850   -15916   -15982   -16067   -16171   -16278   -16391   -16511 
  -16613   -16681   -16731   -16769   -16807   -16856   -16914   -16978 
  -17043   -17096   -17134   -17161   -17182   -17200   -17220   -17253 
  -17302   -17361   -17404   -17419   -17413   -17394   -17367   -17338 
  -17311   -17289   -17278   -17274   -17269   -17251   -17216   -17163 
  -17100   -17038   -16960   -16856   -16745   -16629   -16491   -16333 
  -16166   -15993   -15822   -15655   -15503   -15364   -15233   -15114 
  -15020   -14959   -14916   -14882   -14866   -14874   -14908   -14964 
  -15028   -15091   -15161   -15232   -15292   -15350   -15411   -15484 
  -15573   -15677   -15777   -15866   -15950   -16031   -16089   -16113 
  -16106   -16081   -16050   -16012   -15971   -15934   -15881   -15812 
  -15746   -15688   -15635   -15592   -15560   -15537   -15519   -15496 
  -15477   -15469   -15464   -15461   -15462   -15471   -15488   -15502 
  -15506   -15502   -15491   -15466   -15415   -15337   -15242   -15133 
  -15021   -14920   -14837   -14778   -14754   -14756   -14779   -14829 
  -14899   -14974   -15043   -15110   -15171   -15205   -15194   -15142 
  -15071   -14986   -14897   -14816   -14748   -14700   -14678   -14685 
  -14716   -14773   -14854   -14951   -15053   -15159   -15265   -15367 
  -15465   -15566   -15676   -15800   -15928   -16043   -16140   -16222 
  -16281   -16317   -16345   -16371   -16384   -16386   -16384   -16394 
  -16414   -16445   -16480   -16518   -16557   -16594   -16622   -16636 
  -16633   -16614   -16578   -16537   -16501   -16459   -16416   -16379 
  -16351   -16329   -16308   -16283   -16266   -16263   -16268   -16276 
  -16283   -16281   -16270   -16256   -16233   -16200   -16163   -16133 
  -16108   -16094   -16090   -16086   -16089   -16112   -16155   -16209 
  -16263   -16297   -16305   -16293   -16252   -16186   -16106   -16011 
  -15904   -15803   -15705   -15606   -15523   -15464   -15421   -15407 
  -15418   -15430   -15450   -15492   -15543   -15599   -15681   -15782 
  -15877   -15970   -16066   -16139   -16181   -16197   -16182   -16137 
  -16079   -16015   -15946   -15867   -15786   -15705   -15623   -15541 
  -15472   -15421   -15387   -15375   -15388   -15417   -15450   -15492 
  -15545   -15601   -15657   -15711   -15753   -15784   -15804   -15807 
  -15785   -15747   -15708   -15681   -15662   -15634   -15592   -15538 
  -15476   -15414   -15356   -15295   -15236   -15176   -15115   -15059 
  -15018   -14994   -14983   -14987   -15016   -15074   -15138   -15196 
  -15264   -15334   -15400   -15477   -15566   -15655   -15746   -15839 
  -15925   -15996   -16051   -16086   -16104   -16119   -16143   -16173 
  -16205   -16249   -16291   -16321   -16347   -16372   -16393   -16417 
  -16453   -16486   -16515   -16559   -16619   -16692   -16769   -16848 
  -16930   -16999   -17051   -17101   -17139   -17162   -17184   -17205 
  -17224   -17242   -17261   -17274   -17267   -17238   -17192   -17128 
  -17047   -16958   -16864   -16768   -16690   -16630   -16578   -16519 
  -16456   -16380   -16283   -16163   -16033   -15900   -15770   -15662 
  -15574   -15491   -15415   -15356   -15310   -15276   -15249   -15232 
  -15214   -15196   -15183   -15165   -15134   -15094   -15043   -14974 
  -14897   -14824   -14751   -14678   -14631   -14615   -14623   -14658 
  -14728   -14825   -14935   -15056   -15194   -15336   -15476   -15614 
  -15751   -15878   -15997   -16110   -16216   -16309   -16402   -16498 
  -16592   -16684   -16765   -16827   -16880   -16931   -16977   -17011 
  -17035   -17047   -17041   -17023   -17001   -16964   -16903   -16831 
  -16750   -16657   -16561   -16474   -16390   -16314   -16260   -16222 
  -16183   -16147   -16117   -16085   -16043   -16002   -15961   -15909 
  -15851   -15797   -15741   -15681   -15635   -15603   -15584   -15591 
  -15628   -15696   -15793   -15920   -16069   -16220   -16370   -16524 
  -16672   -16804   -16922   -17023   -17093   -17136   -17163   -17170 
  -17154   -17131   -17093   -17038   -16970   -16880   -16777   -16677 
  -16591   -16521   -16464   -16424   -16391   -16340   -16259   -16166 
  -16069   -15974   -15894   -15823   -15750   -15677   -15607   -15531 
  -15449   -15373   -15311   -15265   -15237   -15221   -15213   -15210 
  -15205   -15192   -15167   -15110   -15020   -14897   -14755   -14602 
  -14446   -14296   -14160   -14031   -13923   -13845   -13799   -13788 
  -13813   -13863   -13940   -14044   -14161   -14285   -14418   -14559 
  -14706   -14840   -14941   -15017   -15067   -15093   -15094   -15072 
  -15037   -14998   -14964   -14947   -14952   -14976   -15018   -15079 
  -15145   -15215   -15282   -15321   -15337   -15334   -15319   -15306 
  -15291   -15282   -15283   -15295   -15321   -15358   -15407   -15472 
  -15556   -15657   -15765   -15871   -15977   -16079   -16182   -16283 
  -16379   -16472   -16567   -16661   -16753   -16850   -16956   -17064 
  -17170   -17282   -17408   -17547   -17698   -17853   -17991   -18106 
  -18198   -18258   -18288   -18292   -18265   -18215   -18150   -18058 
  -17933   -17776   -17595   -17394   -17178   -16953   -16721   -16486 
  -16259   -16044   -15851   -15691   -15558   -15452   -15380   -15344 
  -15326   -15311   -15286   -15242   -15188   -15134   -15083   -15034 
  -14995   -14970   -14958   -14962   -14995   -15066   -15167   -15280 
  -15400   -15514   -15614   -15708   -15807   -15897   -15975   -16039 
  -16087   -16119   -16123   -16087   -16025   -15948   -15867   -15789 
  -15730   -15701   -15692   -15691   -15697   -15703   -15704   -15718 
  -15743   -15777   -15819   -15857   -15876   -15885   -15890   -15897 
  -15908   -15932   -15974   -16032   -16101   -16174   -16241   -16293 
  -16335   -16363   -16372   -16366   -16353   -16335   -16312   -16291 
  -16281   -16286   -16314   -16372   -16453   -16545   -16649   -16760 
  -16877   -17003   -17128   -17251   -17369   -17466   -17532   -17577 
  -17606   -17639   -17689   -17755   -17821   -17883   -17948   -18015 
  -18079   -18135   -18189   -18234   -18256   -18256   -18242   -18198 
  -18122   -18031   -17926   -17805   -17676   -17545   -17409   -17281 
  -17167   -17069   -16983   -16911   -16852   -16804   -16773   -16768 
  -16767   -16752   -16721   -16669   -16596   -16511   -16410   -16290 
  -16162   -16031   -15890   -15743   -15592   -15433   -15267   -15107 
  -14963   -14831   -14704   -14570   -14427   -14278   -14126   -13973 
  -13822   -13672   -13525   -13379   -13242   -13130   -13051   -13001 
  -12991   -13034   -13116   -13225   -13366   -13536   -13728   -13938 
  -14168   -14416   -14682   -14955   -15222   -15477   -15714   -15912 
  -16074   -16205   -16294   -16343   -16362   -16341   -16268   -16151 
  -16006   -15849   -15689   -15550   -15439   -15353   -15302   -15284 
  -15292   -15322   -15375   -15450   -15542   -15654   -15782   -15912 
  -16032   -16150   -16260   -16363   -16472   -16592   -16713   -16829 
  -16939   -17030   -17103   -17163   -17217   -17261   -17292   -17312 
  -17315   -17296   -17265   -17228   -17189   -17153   -17112   -17070 
  -17039   -17032   -17049   -17085   -17135   -17186   -17226   -17253 
  -17261   -17244   -17212   -17167   -17104   -17019   -16916   -16796 
  -16665   -16540   -16416   -16294   -16185   -16097   -16025   -15969 
  -15938   -15931   -15938   -15950   -15966   -15977   -15973   -15957 
  -15928   -15892   -15855   -15823   -15803   -15804   -15828   -15870 
  -15924   -15979   -16019   -16032   -16025   -16002   -15963   -15913 
  -15869   -15827   -15784   -15745   -15712   -15676   -15641   -15604 
  -15552   -15477   -15392   -15294   -15179   -15056   -14932   -14808 
  -14690   -14589   -14499   -14415   -14351   -14301   -14256   -14220 
  -14202   -14191   -14191   -14207   -14242   -14296   -14368   -14457 
  -14569   -14696   -14823   -14953   -15091   -15229   -15360   -15481 
  -15584   -15658   -15703   -15718   -15700   -15666   -15637   -15614 
  -15601   -15615   -15653   -15697   -15739   -15790   -15838   -15873 
  -15908   -15942   -15969   -15998   -16036   -16081   -16128   -16186 
  -16252   -16318   -16386   -16455   -16510   -16556   -16603   -16649 
  -16694   -16745   -16812   -16897   -16999   -17118   -17246   -17373 
  -17486   -17574   -17628   -17649   -17645   -17610   -17550   -17474 
  -17394   -17323   -17266   -17228   -17215   -17232   -17275   -17344 
  -17431   -17524   -17620   -17713   -17790   -17841   -17872   -17884 
  -17878   -17856   -17825   -17770   -17691   -17609   -17523   -17432 
  -17347   -17273   -17204   -17150   -17109   -17070   -17030   -16983 
  -16908   -16796   -16652   -16476   -16272   -16051   -15820   -15572 
  -15311   -15056   -14805   -14551   -14299   -14041   -13788   -13548 
  -13331   -13143   -12987   -12862   -12780   -12739   -12739   -12780 
  -12856   -12960   -13085   -13228   -13371   -13506   -13633   -13751 
  -13859   -13968   -14081   -14181   -14268   -14343   -14393   -14422 
  -14440   -14451   -14462   -14480   -14505   -14544   -14600   -14667 
  -14737   -14812   -14895   -14985   -15076   -15174   -15273   -15371 
  -15472   -15573   -15672   -15778   -15904   -16039   -16183   -16349 
  -16526   -16696   -16870   -17050   -17219   -17374   -17529   -17676 
  -17807   -17932   -18048   -18145   -18234   -18314   -18373   -18416 
  -18451   -18472   -18474   -18474   -18472   -18466   -18465   -18466 
  -18462   -18461   -18453   -18428   -18388   -18333   -18257   -18166 
  -18072   -17975   -17875   -17779   -17683   -17583   -17481   -17377 
  -17274   -17173   -17077   -16988   -16904   -16821   -16742   -16660 
  -16568   -16478   -16386   -16275   -16146   -15997   -15826   -15643 
  -15457   -15265   -15070   -14879   -14702   -14546   -14419   -14330 
  -14277   -14261   -14283   -14326   -14377   -14434   -14496   -14555 
  -14612   -14665   -14708   -14742   -14766   -14787   -14805   -14816 
  -14835   -14864   -14898   -14943   -14997   -15053   -15111   -15168 
  -15219   -15261   -15283   -15279   -15264   -15238   -15187   -15122 
  -15061   -14997   -14931   -14864   -14791   -14721   -14662   -14611 
  -14578   -14573   -14590   -14615   -14646   -14675   -14701   -14728 
  -14758   -14797   -14848   -14914   -15006   -15114   -15230   -15358 
  -15495   -15635   -15784   -15940   -16102   -16267   -16425   -16576 
  -16719   -16837   -16922   -16976   -16993   -16973   -16926   -16853 
  -16758   -16659   -16560   -16464   -16378   -16297   -16232   -16186 
  -16158   -16147   -16159   -16202   -16275   -16379   -16505   -16646 
  -16807   -16970   -17126   -17269   -17396   -17504   -17591   -17660 
  -17713   -17747   -17767   -17784   -17795   -17809   -17833   -17856 
  -17875   -17898   -17913   -17913   -17903   -17871   -17810   -17729 
  -17626   -17506   -17370   -17221   -17059   -16885   -16699   -16506 
  -16306   -16105   -15915   -15735   -15569   -15427   -15303   -15199 
  -15118   -15055   -15012   -14987   -14980   -14985   -15002   -15036 
  -15071   -15109   -15152   -15196   -15248   -15318   -15403   -15507 
  -15628   -15765   -15911   -16062   -16216   -16364   -16491   -16598 
  -16684   -16742   -16772   -16780   -16764   -16735   -16707   -16672 
  -16625   -16571   -16514   -16451   -16387   -16332   -16282   -16239 
  -16216   -16205   -16198   -16204   -16224   -16255   -16293   -16339 
  -16384   -16420   -16448   -16463   -16452   -16417   -16352   -16260 
  -16154   -16043   -15936   -15851   -15792   -15758   -15746   -15754 
  -15777   -15809   -15849   -15893   -15934   -15977   -16019   -16058 
  -16094   -16129   -16158   -16177   -16183   -16187   -16198   -16213 
  -16231   -16248   -16255   -16255   -16254   -16233   -16205   -16178 
  -16147   -16116   -16083   -16043   -16000   -15963   -15924   -15885 
  -15853   -15828   -15808   -15790   -15777   -15762   -15743   -15724 
  -15697   -15658   -15610   -15554   -15489   -15419   -15348   -15269 
  -15183   -15101   -15016   -14926   -14843   -14767   -14688   -14607 
  -14524   -14442   -14355   -14264   -14172   -14077   -13988   -13915 
  -13859   -13817   -13791   -13779   -13780   -13803   -13852   -13917 
  -13991   -14076   -14170   -14276   -14391   -14508   -14634   -14773 
  -14926   -15079   -15221   -15348   -15454   -15543   -15627   -15700 
  -15766   -15838   -15919   -15997   -16079   -16167   -16249   -16325 
  -16409   -16503   -16591   -16680   -16767   -16829   -16868   -16889 
  -16885   -16864   -16833   -16791   -16744   -16702   -16663   -16629 
  -16605   -16595   -16590   -16583   -16584   -16588   -16587   -16580 
  -16568   -16542   -16510   -16472   -16426   -16372   -16312   -16251 
  -16186   -16120   -16050   -15979   -15919   -15873   -15842   -15824 
  -15822   -15828   -15839   -15859   -15888   -15915   -15948   -15988 
  -16016   -16035   -16052   -16059   -16059   -16066   -16079   -16098 
  -16128   -16166   -16204   -16240   -16271   -16290   -16297   -16298 
  -16289   -16267   -16243   -16210   -16168   -16133   -16096   -16048 
  -15996   -15939   -15876   -15807   -15739   -15676   -15622   -15583 
  -15554   -15535   -15526   -15526   -15526   -15525   -15519   -15508 
  -15485   -15456   -15423   -15387   -15350   -15321   -15302   -15295 
  -15306   -15333   -15371   -15417   -15465   -15516   -15574   -15637 
  -15704   -15786   -15890   -16011   -16146   -16302   -16470   -16632 
  -16787   -16939   -17081   -17213   -17343   -17456   -17555   -17644 
  -17706   -17730   -17713   -17659   -17575   -17460   -17327   -17182 
  -17026   -16873   -16738   -16610   -16492   -16398   -16324   -16259 
  -16217   -16198   -16183   -16174   -16174   -16175   -16181   -16191 
  -16209   -16232   -16259   -16289   -16318   -16329   -16317   -16299 
  -16272   -16235   -16197   -16160   -16128   -16109   -16098   -16092 
  -16096   -16102   -16108   -16117   -16131   -16147   -16158   -16163 
  -16177   -16197   -16216   -16236   -16255   -16270   -16279   -16278 
  -16267   -16254   -16232   -16202   -16173   -16141   -16106   -16078 
  -16055   -16039   -16039   -16056   -16082   -16120   -16174   -16236 
  -16297   -16359   -16420   -16463   -16487   -16505   -16511   -16506 
  -16490   -16465   -16429   -16386   -16344   -16297   -16248   -16208 
  -16168   -16127   -16098   -16082   -16066   -16055   -16048   -16044 
  -16047   -16055   -16062   -16060   -16047   -16019   -15977   -15924 
  -15862   -15792   -15722   -15655   -15592   -15535   -15483   -15426 
  -15364   -15306   -15249   -15192   -15144   -15103   -15070   -15047 
  -15043   -15055   -15074   -15101   -15134   -15159   -15176   -15196 
