Origin Time       2025/01/13 21:19:00
Lat.              31.8
Long.             131.6
Depth. (km)       30
Mag.              6.9
Station Code      NGS014
Station Lat.      32.6104
Station Long.     130.1851
Station Height(m) 2
Record Time       2025/01/13 21:20:07
Sampling Freq(Hz) 100Hz
Duration Time(s)  95
Dir.              U-D
Scale Factor      7845(gal)/8223790
Max. Acc. (gal)   4.399
Last Correction   2025/01/13 21:20:09
Memo.             
[...]
     704      463      189      -67     -244     -315     -338     -391 
    -484     -604     -757     -923    -1112    -1341    -1543    -1676 
   -1773    -1825    -1846    -1908    -1989    -2035    -2035    -1956 
   -1776    -1526    -1202     -797     -382      -20      292      549 
     765      999     1259     1513     1767     1996     2130     2181 
    2178     2084     1934     1821     1728     1618     1499     1347 
    1159      990      838      685      558      437      292      168 
      82       16       -4       45      170      380      630      834 
     997     1144     1229     1227     1167     1038      828      589 
     355      137      -59     -261     -472     -664     -839     -996 
   -1055     -958     -746     -480     -190       86      334      575 
     792      950     1059     1119     1129     1086      961      761 
     534      271       -5     -218     -356     -396     -292     -105 
      83      282      440      486      448      363      226       89 
     -14     -120     -247     -375     -513     -670     -801     -843 
    -756     -522     -178      211      615     1012     1364     1649 
    1872     2053     2193     2263     2251     2168     2006     1792 
    1606     1462     1312     1165     1013      783      463      117 
    -272     -699    -1047    -1286    -1448    -1485    -1375    -1179 
    -919     -648     -415     -168      125      448      827     1251 
    1659     2014     2262     2371     2397     2386     2312     2195 
    2092     2014     1976     2018     2147     2374     2674     2943 
    3118     3204     3154     2932     2589     2137     1536      811 
      13     -823    -1622    -2328    -2922    -3307    -3447    -3419 
   -3237    -2917    -2563    -2235    -1957    -1783    -1678    -1514 
   -1256     -918     -457       71      577     1069     1541     1941 
    2268     2497     2569     2498     2336     2057     1657     1181 
     669      195     -184     -473     -625     -615     -537     -452 
    -356     -318     -380     -481     -598     -716     -795     -845 
    -900     -924     -892     -814     -654     -399     -101      234 
     646     1136     1691     2255     2733     3111     3411     3592 
    3639     3586     3430     3167     2821     2390     1919     1529 
    1269     1117     1080     1134     1237     1422     1692     1984 
    2262     2490     2600     2552     2367     2056     1657     1242 
     811      365      -45     -398     -677     -865     -957     -966 
    -884     -707     -472     -210       54      280      468      627 
     731      797      891     1000     1112     1286     1512     1732 
    1956     2157     2280     2332     2303     2170     1960     1668 
    1269      785      238     -376    -1012    -1603    -2139    -2589 
   -2893    -3091    -3234    -3295    -3275    -3175    -2970    -2709 
   -2448    -2193    -1983    -1840    -1733    -1675    -1668    -1634 
   -1561    -1497    -1432    -1347    -1255    -1148    -1040     -989 
    -999    -1042    -1119    -1170    -1097     -931     -730     -499 
    -283     -106       91      317      542      789     1054     1318 
    1588     1818     1979     2143     2369     2605     2786     2897 
    2941     2924     2820     2627     2386     2096     1736     1356 
    1015      689      384      159        2     -120     -163     -110 
     -12      130      297      403      469      535      567      569 
     564      511      426      364      315      294      357      494 
     689      959     1233     1452     1629     1713     1653     1480 
    1209      841      430        8     -448     -892    -1243    -1482 
   -1603    -1586    -1460    -1273    -1031     -783     -585     -429 
    -298     -191     -102      -43       -4       62      156      275 
     444      639      812      967     1105     1201     1270     1318 
    1339     1358     1385     1359     1260     1102      874      588 
     264     -129     -572     -985    -1344    -1634    -1822    -1935 
   -1984    -1944    -1845    -1726    -1578    -1435    -1337    -1266 
   -1242    -1306    -1408    -1495    -1571    -1603    -1560    -1467 
   -1340    -1193    -1044     -878     -672     -454     -232       17 
     275      521      777     1030     1244     1429     1584     1713 
    1849     1989     2101     2224     2361     2430     2419     2367 
    2269     2146     2033     1896     1734     1583     1414     1202 
     977      756      568      440      336      238      199      218 
     280      419      619      830     1073     1341     1575     1759 
    1885     1894     1775     1580     1312      993      680      359 
      51     -171     -313     -391     -383     -318     -248     -191 
    -171     -211     -291     -396     -496     -530     -496     -407 
    -217       91      459      839     1216     1537     1792     2022 
    2189     2270     2297     2249     2119     1961     1775     1551 
    1314     1047      731      410      117     -148     -363     -504 
    -577     -564     -465     -322     -149       60      288      526 
     774      985     1124     1206     1220     1142      994      788 
     534      274        5     -294     -606     -935    -1312    -1694 
   -2030    -2331    -2569    -2686    -2677    -2527    -2241    -1885 
   -1495    -1075     -669     -301       36      297      463      561 
     581      530      471      409      328      271      267      295 
     356      452      568      677      734      703      606      467 
     280       72     -136     -341     -496     -572     -623     -702 
    -778     -816     -846     -857     -773     -607     -411     -180 
      54      261      465      643      788      934     1057     1150 
    1255     1332     1333     1278     1147      907      589      241 
     -93     -321     -423     -453     -417     -315     -190      -52 
      99      255      409      541      626      703      795      878 
     962     1061     1147     1209     1264     1310     1325     1316 
    1289     1219     1097      909      619      248     -194     -715 
   -1216    -1641    -1987    -2173    -2184    -2093    -1896    -1587 
   -1221     -803     -319      175      646     1081     1441     1702 
    1875     1926     1837     1678     1498     1297     1119      996 
     905      834      765      654      530      438      361      301 
     279      259      216      180      157      151      149       89 
     -39     -182     -346     -568     -780     -935    -1066    -1151 
   -1161    -1156    -1174    -1175    -1134    -1048     -919     -756 
    -535     -248       45      322      625      940     1246     1580 
    1944     2330     2716     2980     3067     3040     2894     2597 
    2181     1688     1150      603       90     -375     -800    -1189 
   -1547    -1838    -2018    -2115    -2178    -2176    -2088    -1957 
   -1768    -1493    -1169     -816     -425      -13      425      869 
    1254     1568     1814     1941     1948     1877     1730     1543 
    1374     1193      992      796      588      390      255      163 
      97       68       24      -70     -184     -330     -517     -692 
    -847     -982    -1062    -1096    -1105    -1057     -943     -800 
    -626     -419     -213        0      218      403      581      795 
    1007     1197     1408     1644     1887     2157     2452     2731 
    2991     3223     3368     3430     3447     3411     3343     3275 
    3181     3063     2949     2830     2674     2469     2208     1917 
    1622     1306      967      637      302      -32     -314     -546 
    -739     -830     -795     -691     -518     -268      -20      180 
     364      508      596      662      696      679      615      486 
     306      141      -12     -160     -233     -207      -75      180 
     523      916     1356     1796     2187     2502     2702     2745 
    2644     2415     2073     1671     1239      758      267     -178 
    -594    -1012    -1431    -1854    -2276    -2651    -2971    -3222 
   -3366    -3423    -3416    -3319    -3159    -2974    -2721    -2392 
   -2014    -1575    -1121     -747     -432     -143       60      186 
     276      291      205       64     -109     -322     -537     -718 
    -835     -857     -791     -653     -436     -143      209      641 
    1127     1599     2031     2412     2689     2841     2903     2876 
    2740     2542     2309     2057     1815     1582     1333     1098 
     857      568      265      -40     -363     -666     -962    -1282 
   -1593    -1871    -2120    -2297    -2371    -2351    -2209    -1926 
   -1532    -1054     -514       44      615     1192     1714     2147 
    2501     2748     2867     2898     2849     2701     2455     2097 
    1611     1031      387     -322    -1050    -1728    -2331    -2847 
   -3252    -3545    -3715    -3728    -3604    -3383    -3080    -2725 
   -2346    -1933    -1470     -985     -494      -13      427      846 
    1254     1630     2019     2458     2891     3284     3626     3862 
    3978     4009     3944     3765     3485     3103     2633     2150 
    1672     1210      831      530      284      133       43      -56 
    -128     -149     -183     -224     -256     -334     -445     -544 
    -646     -742     -816     -886     -909     -828     -660     -396 
     -35      372      793     1228     1624     1962     2282     2555 
    2736     2852     2910     2903     2889     2905     2926     2968 
    3061     3169     3246     3279     3276     3244     3169     3025 
    2817     2554     2209     1800     1350      835      236     -382 
    -955    -1486    -1971    -2370    -2674    -2916    -3115    -3265 
   -3365    -3407    -3387    -3325    -3230    -3107    -2938    -2705 
   -2450    -2178    -1826    -1391     -949     -515      -83      309 
     596      749      822      911     1017     1077     1135     1271 
    1466     1660     1825     1934     1946     1852     1686     1478 
    1183      724      160     -376     -930    -1580    -2222    -2756 
   -3237    -3647    -3904    -4045    -4085    -3947    -3684    -3331 
   -2844    -2286    -1717    -1124     -561      -63      382      734 
     992     1204     1382     1561     1775     1965     2091     2187 
    2262     2289     2268     2195     2020     1734     1370      899 
     317     -311     -934    -1475    -1868    -2130    -2274    -2276 
   -2178    -2035    -1786    -1390     -905     -379      160      656 
    1089     1433     1665     1845     2047     2289     2596     2959 
    3295     3586     3873     4128     4353     4581     4773     4882 
    4922     4869     4689     4384     3963     3470     2968     2446 
    1917     1425      919      368     -156     -635    -1066    -1401 
   -1638    -1823    -1950    -2007    -2031    -2011    -1908    -1748 
   -1560    -1329    -1071     -815     -542     -257       29      345 
     670      938     1142     1318     1470     1584     1674     1719 
    1707     1644     1506     1293     1038      702      271     -191 
    -677    -1173    -1610    -1972    -2255    -2405    -2416    -2312 
   -2083    -1742    -1350     -939     -568     -268      -45       37 
     -18     -103     -197     -349     -517     -652     -773     -878 
    -935     -966    -1007    -1028     -993     -889     -695     -423 
    -103      282      727     1188     1669     2168     2632     3063 
    3451     3743     3916     3970     3901     3721     3424     3018 
    2560     2058     1502      924      369     -141     -560     -866 
   -1112    -1323    -1464    -1557    -1653    -1738    -1810    -1877 
   -1896    -1854    -1802    -1736    -1649    -1571    -1479    -1344 
   -1192    -1026     -845     -695     -580     -445     -287     -143 
       4      148      272      422      618      845     1142     1513 
    1903     2304     2682     2964     3141     3218     3165     3006 
    2779     2465     2066     1630     1166      668      157     -326 
    -753    -1104    -1383    -1574    -1617    -1501    -1282     -973 
    -568     -121      356      854     1290     1633     1900     2068 
    2158     2192     2139     2018     1845     1602     1337     1096 
     864      660      514      415      342      268      187      117 
      78       63       66      126      268      471      738     1034 
    1286     1479     1614     1664     1644     1584     1436     1185 
     884      523       93     -355     -803    -1232    -1568    -1799 
   -1942    -1971    -1903    -1794    -1618    -1377    -1111     -795 
    -414      -44      288      599      842     1001     1112     1161 
    1142     1067      900      614      243     -198     -688    -1165 
   -1614    -2043    -2411    -2693    -2909    -3059    -3175    -3267 
   -3285    -3214    -3073    -2844    -2520    -2155    -1771    -1368 
    -988     -638     -301       -8      216      380      469      459 
     378      257      112       -1      -59     -112     -145     -148 
    -144     -108      -12      106      252      453      670      878 
    1098     1285     1404     1487     1530     1532     1551     1580 
    1576     1547     1495     1387     1223     1017      778      525 
     265       -4     -267     -519     -776     -996    -1134    -1193 
   -1138     -920     -565      -94      507     1204     1935     2662 
    3323     3889     4364     4703     4877     4922     4841     4633 
    4348     4013     3619     3188     2748     2296     1856     1439 
    1040      700      444      244       81      -55     -194     -342 
    -467     -556     -602     -572     -483     -369     -206        5 
     249      540      839     1109     1375     1638     1841     1960 
    2011     1968     1826     1615     1328      978      621      265 
     -64     -313     -473     -562     -545     -444     -329     -199 
     -56       67      182      301      402      476      518      518 
     475      378      228       64      -72     -172     -222     -209 
    -152      -58       86      234      355      469      558      615 
     699      822      953     1116     1304     1464     1595     1696 
    1745     1765     1773     1742     1669     1561     1402     1181 
     920      621      297      -18     -330     -658     -994    -1352 
   -1725    -2062    -2365    -2639    -2829    -2930    -2974    -2925 
   -2794    -2624    -2405    -2142    -1873    -1597    -1304    -1032 
    -800     -598     -449     -364     -307     -286     -315     -353 
    -384     -437     -495     -549     -623     -689     -720     -737 
    -726     -693     -692     -720     -754     -805     -866     -905 
    -946     -999    -1024    -1019     -992     -913     -814     -714 
    -561     -368     -187       -5      163      292      418      534 
     603      649      685      676      642      634      631      634 
     689      780      881      999     1090     1146     1212     1267 
    1289     1328     1375     1399     1447     1507     1536     1563 
    1587     1568     1540     1518     1464     1402     1379     1379 
    1383     1382     1366     1358     1389     1431     1468     1525 
    1576     1606     1656     1718     1760     1811     1884     1958 
    2054     2170     2263     2328     2380     2404     2408     2416 
    2413     2403     2393     2355     2288     2216     2137     2056 
    2018     2008     2003     2022     2056     2083     2119     2145 
    2116     2054     1969     1845     1713     1602     1483     1370 
    1289     1210     1132     1073     1005      936      905      907 
     940     1021     1113     1193     1285     1359     1355     1293 
    1189     1032      869      718      534      329      120     -125 
    -406     -700    -1013    -1314    -1557    -1757    -1925    -2035 
   -2097    -2122    -2093    -2046    -2008    -1972    -1953    -1977 
   -2026    -2100    -2218    -2331    -2431    -2558    -2678    -2760 
   -2836    -2897    -2916    -2918    -2903    -2841    -2766    -2700 
   -2613    -2515    -2425    -2311    -2157    -1981    -1761    -1494 
   -1205     -881     -523     -174      168      499      776      989 
    1154     1231     1208     1123      961      714      423       97 
    -257     -583     -861    -1098    -1252    -1314    -1324    -1252 
   -1100     -916     -704     -471     -249      -32      178      351 
     503      657      773      854      928      970      974      976 
     969      938      907      877      838      818      834      870 
     947     1066     1170     1270     1381     1441     1466     1479 
    1437     1352     1251     1113      961      818      668      514 
     376      247      120        5      -98     -195     -248     -233 
    -175      -72       64      201      360      562      765      963 
    1183     1391     1584     1784     1949     2060     2123     2124 
    2077     2019     1927     1786     1609     1397     1166      950 
     747      549      386      280      203      144      143      195 
     268      360      436      479      511      530      534      549 
     569      600      664      735      807      905     1011     1080 
    1131     1151     1102     1021      919      769      606      445 
     255       55     -141     -369     -604     -805     -999    -1167 
   -1278    -1370    -1455    -1509    -1559    -1602    -1591    -1536 
   -1432    -1239     -976     -700     -423     -129      171      460 
     703      876      986     1031      997      916      804      657 
     498      345      194       70       -6      -51      -64      -45 
     -14       13       47       85      121      180      272      391 
     557      778     1024     1279     1539     1773     1981     2162 
    2281     2339     2362     2328     2241     2139     2026     1894 
    1772     1686     1624     1574     1517     1456     1393     1285 
    1124      942      707      411      120     -155     -448     -724 
    -951    -1142    -1281    -1328    -1298    -1213    -1055     -839 
    -581     -275       47      353      660      951     1206     1435 
    1613     1714     1775     1806     1782     1733     1680     1594 
    1478     1352     1186      980      777      576      367      170 
     -36     -248     -423     -569     -703     -793     -851     -912 
    -958     -989    -1016    -1008     -946     -857     -729     -562 
    -394     -201       18      221      417      622      783      888 
     973     1019     1013      978      908      796      666      527 
     360      190       25     -151     -315     -441     -530     -569 
    -579     -606     -648     -675     -693     -706     -695     -681 
    -670     -643     -615     -580     -503     -391     -263      -93 
     121      357      615      869     1090     1296     1490     1648 
    1787     1907     1983     2037     2088     2103     2079     2038 
    1977     1879     1756     1625     1479     1325     1179     1017 
     837      657      469      297      155       -5     -184     -344 
    -499     -641     -737     -808     -866     -913     -973    -1040 
   -1100    -1181    -1283    -1360    -1410    -1426    -1389    -1325 
