Origin Time       2025/01/13 21:19:00
Lat.              31.8
Long.             131.6
Depth. (km)       30
Mag.              6.9
Station Code      NGS003
Station Lat.      33.2016
Station Long.     129.4124
Station Height(m) 25
Record Time       2025/01/13 21:20:57
Sampling Freq(Hz) 100Hz
Duration Time(s)  60
Dir.              U-D
Scale Factor      7845(gal)/8223790
Max. Acc. (gal)   1.047
Last Correction   2025/01/13 21:20:58
Memo.             
[...]
    8143     8158     8181     8209     8239     8263     8279     8284 
    8276     8262     8252     8251     8253     8260     8271     8280 
    8287     8297     8305     8307     8305     8298     8291     8289 
    8286     8286     8295     8313     8332     8349     8372     8401 
    8432     8465     8509     8550     8591     8633     8672     8707 
    8735     8760     8779     8791     8793     8792     8789     8781 
    8766     8746     8726     8711     8704     8704     8704     8704 
    8703     8696     8684     8671     8653     8641     8638     8640 
    8649     8669     8692     8716     8745     8758     8754     8745 
    8727     8706     8691     8684     8676     8667     8656     8634 
    8610     8587     8560     8540     8527     8523     8527     8540 
    8553     8567     8577     8584     8587     8596     8614     8635 
    8667     8710     8752     8793     8834     8864     8878     8878 
    8865     8850     8833     8818     8810     8797     8784     8773 
    8765     8761     8764     8779     8797     8807     8807     8796 
    8768     8722     8672     8629     8598     8580     8580     8588 
    8599     8603     8591     8560     8515     8453     8386     8328 
    8271     8220     8176     8139     8105     8078     8052     8027 
    8001     7982     7969     7959     7958     7958     7950     7938 
    7931     7927     7923     7923     7931     7943     7948     7940 
    7921     7893     7855     7816     7777     7749     7734     7726 
    7720     7722     7726     7728     7728     7726     7719     7715 
    7717     7734     7762     7798     7838     7878     7913     7940 
    7958     7966     7969     7970     7962     7950     7935     7915 
    7889     7862     7830     7798     7771     7743     7719     7697 
    7677     7658     7643     7635     7639     7650     7668     7690 
    7715     7738     7762     7788     7815     7844     7875     7913 
    7958     8005     8051     8091     8122     8147     8166     8179 
    8191     8206     8222     8237     8255     8271     8284     8290 
    8289     8283     8276     8264     8253     8245     8247     8252 
    8259     8270     8279     8283     8280     8275     8267     8260 
    8262     8275     8297     8320     8348     8376     8401     8426 
    8456     8484     8509     8530     8554     8571     8580     8587 
    8587     8584     8583     8579     8575     8565     8554     8546 
    8532     8515     8500     8484     8472     8471     8478     8495 
    8511     8521     8527     8529     8523     8521     8525     8537 
    8554     8580     8611     8638     8658     8675     8687     8689 
    8681     8668     8649     8629     8607     8584     8557     8532 
    8507     8484     8460     8438     8418     8398     8376     8359 
    8348     8345     8348     8355     8365     8375     8384     8399 
    8413     8425     8437     8446     8455     8463     8475     8486 
    8494     8500     8503     8505     8507     8509     8506     8499 
    8487     8467     8432     8392     8355     8318     8278     8244 
    8222     8210     8212     8221     8236     8251     8260     8259 
    8253     8251     8251     8259     8276     8302     8334     8368 
    8403     8436     8465     8496     8521     8538     8553     8563 
    8567     8563     8540     8507     8471     8428     8383     8345 
    8310     8275     8244     8222     8214     8216     8220     8229 
    8247     8259     8266     8270     8268     8259     8243     8226 
    8216     8208     8206     8217     8236     8263     8298     8329 
    8359     8386     8401     8406     8414     8425     8441     8476 
    8517     8552     8588     8629     8657     8673     8677     8672 
    8657     8640     8619     8598     8580     8568     8560     8560 
    8569     8583     8603     8633     8664     8699     8731     8756 
    8768     8762     8746     8726     8708     8702     8704     8715 
    8734     8745     8741     8725     8698     8664     8627     8596 
    8576     8563     8559     8560     8560     8549     8530     8507 
    8482     8455     8429     8411     8395     8375     8357     8340 
    8322     8313     8317     8337     8365     8392     8418     8444 
    8456     8460     8461     8457     8445     8433     8424     8413 
    8403     8397     8392     8387     8380     8376     8375     8372 
    8372     8371     8371     8375     8379     8387     8409     8441 
    8478     8513     8538     8550     8550     8540     8523     8503 
    8479     8456     8442     8441     8453     8471     8486     8492 
    8490     8480     8467     8446     8422     8398     8371     8345 
    8330     8328     8332     8347     8361     8375     8390     8395 
    8388     8374     8353     8328     8299     8276     8264     8256 
    8252     8241     8222     8199     8170     8136     8100     8060 
    8024     7994     7967     7942     7916     7886     7854     7821 
    7798     7790     7789     7790     7797     7812     7828     7844 
    7863     7881     7900     7919     7938     7962     7989     8014 
    8036     8050     8050     8039     8016     7987     7958     7931 
    7915     7915     7927     7951     7982     8009     8035     8052 
    8050     8031     8008     7978     7947     7923     7902     7893 
    7894     7904     7924     7952     7982     8014     8048     8075 
    8094     8102     8098     8085     8066     8051     8043     8040 
    8044     8054     8064     8079     8097     8116     8136     8154 
    8171     8194     8224     8256     8294     8329     8357     8382 
    8402     8414     8429     8442     8453     8467     8486     8506 
    8527     8553     8577     8598     8611     8617     8613     8607 
    8600     8591     8584     8587     8596     8615     8642     8671 
    8699     8731     8765     8797     8823     8841     8849     8843 
    8833     8823     8814     8806     8802     8800     8802     8803 
    8803     8804     8804     8799     8792     8781     8765     8756 
    8753     8756     8766     8783     8799     8811     8815     8810 
    8800     8789     8777     8770     8768     8768     8770     8769 
    8766     8762     8758     8758     8764     8769     8773     8777 
    8781     8775     8753     8726     8699     8668     8640     8610 
    8573     8537     8503     8473     8453     8442     8444     8451 
    8453     8451     8442     8428     8414     8403     8392     8380 
    8365     8349     8330     8314     8301     8297     8298     8302 
    8303     8302     8294     8280     8268     8257     8247     8237 
    8228     8222     8218     8213     8213     8216     8217     8222 
    8239     8253     8264     8271     8274     8271     8263     8252 
    8247     8245     8252     8266     8283     8301     8320     8334 
    8345     8352     8352     8349     8344     8336     8332     8329 
    8318     8299     8283     8257     8229     8209     8195     8189 
    8186     8185     8182     8175     8167     8163     8163     8170 
    8187     8212     8241     8274     8305     8332     8349     8364 
    8378     8390     8406     8425     8441     8449     8448     8444 
    8438     8437     8437     8437     8441     8440     8432     8418 
    8402     8386     8372     8361     8363     8372     8386     8402 
    8421     8438     8448     8451     8453     8449     8438     8426 
    8411     8392     8382     8375     8370     8371     8374     8374 
    8371     8367     8360     8351     8345     8348     8359     8375 
    8394     8415     8432     8430     8422     8413     8394     8372 
    8360     8349     8340     8334     8329     8317     8301     8286 
    8276     8270     8270     8276     8291     8309     8328     8348 
    8363     8365     8363     8360     8364     8370     8376     8387 
    8398     8409     8419     8425     8434     8448     8455     8456 
    8456     8448     8432     8409     8386     8363     8337     8317 
    8303     8295     8287     8282     8282     8287     8299     8324 
    8357     8390     8419     8448     8472     8487     8496     8503 
    8503     8505     8511     8521     8534     8550     8564     8576 
    8581     8573     8552     8519     8484     8452     8425     8403 
    8397     8402     8415     8428     8436     8437     8437     8433 
    8430     8429     8429     8429     8432     8436     8440     8448 
    8452     8449     8442     8429     8409     8387     8365     8345 
    8329     8317     8307     8301     8301     8298     8291     8274 
    8247     8212     8170     8125     8079     8029     7981     7944 
    7915     7889     7874     7865     7854     7842     7823     7796 
    7767     7728     7693     7676     7669     7669     7686     7711 
    7728     7744     7758     7769     7778     7786     7797     7816 
    7836     7851     7858     7858     7848     7832     7813     7797 
    7789     7785     7788     7798     7807     7816     7832     7847 
    7857     7869     7884     7897     7915     7933     7950     7960 
    7973     7983     7992     7996     7997     7996     7994     7996 
    8006     8027     8060     8105     8154     8201     8249     8294 
    8328     8353     8372     8386     8392     8395     8401     8407 
    8415     8425     8434     8449     8467     8483     8506     8532 
    8557     8588     8618     8642     8665     8681     8691     8691 
    8684     8671     8656     8640     8623     8607     8598     8590 
    8581     8576     8575     8571     8560     8546     8534     8522 
    8511     8505     8500     8492     8480     8467     8452     8438 
    8432     8429     8432     8442     8459     8475     8494     8515 
    8533     8546     8559     8573     8584     8592     8599     8610 
    8622     8630     8637     8641     8638     8633     8621     8602 
    8579     8560     8541     8521     8499     8479     8461     8448 
    8436     8428     8424     8417     8410     8405     8397     8384 
    8368     8352     8337     8326     8326     8337     8348     8363 
    8379     8386     8388     8384     8370     8351     8329     8298 
    8262     8222     8181     8141     8109     8082     8058     8040 
    8028     8020     8019     8028     8043     8062     8082     8100 
    8112     8121     8131     8135     8140     8151     8170     8195 
    8224     8256     8287     8316     8337     8352     8363     8375 
    8383     8395     8411     8425     8433     8437     8436     8430 
    8422     8409     8397     8384     8374     8365     8356     8343 
    8324     8307     8291     8276     8270     8270     8274     8282 
    8291     8303     8318     8334     8345     8349     8347     8345 
    8340     8336     8337     8338     8340     8345     8348     8345 
    8333     8310     8280     8244     8206     8168     8139     8117 
    8104     8097     8100     8110     8120     8124     8127     8128 
    8131     8133     8139     8154     8174     8198     8228     8262 
    8291     8314     8329     8337     8343     8348     8353     8360 
    8371     8386     8399     8411     8425     8440     8451     8463 
    8480     8499     8522     8548     8568     8583     8590     8586 
    8575     8560     8548     8536     8529     8537     8549     8563 
    8577     8590     8596     8600     8594     8580     8565     8545 
    8521     8491     8463     8440     8415     8386     8349     8306 
    8262     8217     8170     8127     8090     8062     8048     8047 
    8047     8050     8052     8060     8071     8083     8095     8108 
    8118     8128     8135     8139     8136     8132     8133     8135 
    8137     8140     8141     8143     8143     8145     8151     8152 
    8152     8152     8147     8133     8110     8082     8052     8023 
    7996     7975     7963     7958     7962     7971     7983     7997 
    8014     8032     8047     8059     8068     8073     8075     8079 
    8083     8089     8095     8100     8100     8095     8091     8087 
    8086     8089     8093     8104     8118     8143     8174     8208 
    8240     8275     8310     8341     8370     8391     8407     8424 
    8434     8444     8461     8482     8499     8523     8546     8564 
    8587     8607     8622     8640     8657     8669     8676     8677 
    8671     8660     8649     8637     8621     8610     8606     8608 
    8621     8638     8657     8681     8708     8734     8757     8781 
    8802     8816     8827     8837     8846     8861     8877     8891 
    8900     8904     8907     8905     8903     8900     8896     8889 
    8884     8878     8874     8876     8880     8887     8896     8908 
    8920     8927     8937     8946     8950     8951     8949     8943 
    8939     8937     8932     8930     8930     8935     8942     8939 
    8927     8908     8883     8853     8822     8788     8754     8719 
    8694     8672     8644     8610     8575     8541     8507     8475 
    8446     8422     8399     8376     8351     8325     8301     8278 
    8259     8245     8235     8229     8226     8221     8212     8197 
    8171     8137     8095     8048     7997     7940     7881     7825 
    7774     7720     7669     7626     7582     7542     7507     7476 
    7445     7414     7384     7361     7344     7330     7321     7314 
    7308     7304     7300     7296     7292     7291     7290     7284 
    7279     7275     7272     7265     7258     7260     7268     7277 
    7296     7321     7346     7364     7376     7387     7393     7392 
    7392     7396     7398     7404     7416     7429     7443     7462 
    7479     7496     7514     7523     7534     7550     7565     7585 
    7612     7643     7680     7720     7758     7798     7842     7884 
    7921     7956     7989     8017     8043     8067     8086     8104 
    8122     8151     8185     8222     8267     8320     8375     8430 
    8483     8537     8594     8648     8699     8749     8796     8842 
    8889     8932     8972     9013     9051     9084     9116     9144 
    9169     9190     9208     9221     9234     9246     9256     9265 
    9275     9289     9302     9320     9344     9370     9397     9416 
    9428     9432     9431     9428     9429     9433     9435     9439 
    9443     9441     9436     9429     9418     9409     9401     9393 
    9390     9391     9389     9381     9369     9351     9333     9320 
    9309     9294     9281     9271     9258     9236     9209     9175 
    9138     9097     9053     9013     8981     8953     8930     8905 
    8880     8853     8823     8784     8738     8687     8635     8587 
    8540     8502     8471     8451     8440     8428     8411     8391 
    8364     8328     8290     8253     8221     8195     8172     8151 
    8131     8108     8085     8060     8033     8005     7978     7948 
    7920     7893     7865     7835     7805     7776     7747     7720 
    7697     7674     7649     7620     7596     7569     7539     7514 
    7495     7477     7465     7462     7464     7468     7473     7481 
    7492     7500     7506     7515     7530     7546     7566     7587 
    7605     7622     7634     7646     7651     7654     7654     7651 
    7655     7661     7665     7665     7666     7663     7655     7650 
    7653     7658     7662     7674     7688     7703     7720     7738 
    7754     7771     7794     7824     7861     7904     7946     7989 
    8036     8081     8117     8152     8185     8214     8243     8270 
    8290     8316     8345     8374     8403     8440     8478     8517 
    8554     8595     8634     8671     8702     8729     8746     8758 
    8772     8788     8806     8827     8856     8888     8918     8945 
    8969     8995     9024     9058     9088     9116     9144     9167 
    9181     9192     9198     9200     9198     9196     9190     9185 
    9185     9188     9189     9193     9192     9186     9178     9165 
    9150     9135     9116     9094     9078     9067     9053     9038 
    9030     9013     8992     8978     8966     8947     8934     8924 
    8915     8901     8887     8866     8834     8795     8756     8714 
    8672     8635     8600     8568     8540     8513     8484     8460 
    8438     8415     8395     8382     8378     8380     8383     8386 
    8387     8388     8386     8378     8360     8334     8310     8287 
    8266     8248     8239     8235     8235     8233     8228     8228 
    8232     8232     8239     8245     8247     8248     8247     8236 
    8222     8205     8185     8172     8160     8151     8149     8148 
    8145     8139     8128     8116     8095     8075     8056     8041 
    8028     8017     8009     8004     8002     8006     8013     8016 
    8024     8036     8048     8062     8071     8081     8089     8093 
    8094     8095     8098     8098     8095     8089     8078     8062 
    8044     8025     8004     7982     7966     7952     7936     7919 
    7902     7885     7870     7857     7846     7836     7827     7820 
    7819     7819     7816     7812     7807     7805     7807     7809 
    7815     7823     7839     7857     7875     7901     7927     7951 
    7977     8002     8029     8056     8079     8105     8136     8164 
    8191     8217     8239     8256     8274     8293     8307     8321 
    8332     8343     8352     8356     8361     8372     8383     8388 
    8398     8413     8428     8440     8449     8457     8465     8468 
    8471     8479     8488     8502     8521     8541     8564     8586 
    8607     8630     8646     8656     8667     8676     8680     8681 
    8679     8673     8673     8673     8671     8673     8683     8688 
    8695     8703     8712     8726     8739     8752     8766     8788 
    8808     8827     8847     8865     8878     8889     8900     8908 
    8914     8914     8908     8900     8889     8874     8861     8847 
    8833     8820     8811     8799     8785     8773     8756     8734 
    8707     8679     8652     8621     8594     8573     8554     8536 
    8521     8509     8500     8498     8496     8495     8499     8500 
    8496     8494     8494     8487     8473     8468     8461     8449 
    8438     8425     8410     8398     8387     8376     8371     8365 
    8359     8352     8344     8334     8325     8317     8306     8294 
    8282     8268     8256     8248     8236     8226     8222     8217 
    8212     8210     8210     8210     8210     8209     8206     8203 
    8197     8194     8194     8191     8189     8189     8189     8194 
    8201     8208     8217     8230     8245     8262     8276     8290 
    8305     8321     8332     8337     8343     8348     8357     8367 
    8375     8383     8391     8395     8397     8397     8390     8382 
    8380     8379     8376     8380     8388     8395     8403     8409 
    8406     8405     8403     8392     8380     8372     8364     8353 
    8343     8333     8326     8318     8309     8297     8284     8270 
    8249     8229     8209     8183     8160     8140     8124     8113 
    8106     8100     8094     8085     8073     8062     8044     8027 
    8010     7993     7978     7966     7954     7939     7925     7921 
    7919     7913     7913     7917     7920     7924     7931     7933 
