Origin Time       2025/01/13 21:19:00
Lat.              31.8
Long.             131.6
Depth. (km)       30
Mag.              6.9
Station Code      NGS003
Station Lat.      33.2016
Station Long.     129.4124
Station Height(m) 25
Record Time       2025/01/13 21:20:57
Sampling Freq(Hz) 100Hz
Duration Time(s)  60
Dir.              N-S
Scale Factor      7845(gal)/8223790
Max. Acc. (gal)   1.386
Last Correction   2025/01/13 21:20:58
Memo.             
[...]
   -3291    -3146    -2998    -2863    -2752    -2687    -2685    -2744 
   -2853    -2995    -3146    -3291    -3426    -3539    -3611    -3634 
   -3619    -3574    -3512    -3442    -3366    -3284    -3196    -3102 
   -3015    -2945    -2889    -2852    -2841    -2837    -2835    -2848 
   -2879    -2916    -2957    -3001    -3046    -3107    -3181    -3254 
   -3322    -3379    -3400    -3387    -3342    -3268    -3169    -3055 
   -2930    -2814    -2724    -2670    -2658    -2694    -2782    -2920 
   -3090    -3272    -3451    -3609    -3727    -3792    -3801    -3754 
   -3650    -3492    -3298    -3099    -2918    -2781    -2702    -2686 
   -2736    -2849    -3006    -3183    -3368    -3546    -3703    -3825 
   -3906    -3944    -3929    -3862    -3748    -3593    -3415    -3235 
   -3063    -2901    -2768    -2673    -2619    -2610    -2651    -2739 
   -2863    -3005    -3163    -3327    -3473    -3585    -3651    -3661 
   -3622    -3543    -3434    -3308    -3190    -3091    -3011    -2948 
   -2913    -2913    -2936    -2983    -3041    -3096    -3153    -3206 
   -3235    -3237    -3215    -3169    -3111    -3044    -2967    -2891 
   -2825    -2772    -2741    -2732    -2745    -2779    -2820    -2864 
   -2911    -2951    -2974    -2980    -2971    -2953    -2925    -2884 
   -2836    -2786    -2743    -2718    -2709    -2722    -2767    -2833 
   -2913    -2999    -3079    -3142    -3181    -3190    -3163    -3103 
   -3024    -2932    -2832    -2729    -2643    -2593    -2587    -2628 
   -2708    -2814    -2922    -3018    -3095    -3146    -3179    -3192 
   -3194    -3181    -3163    -3145    -3126    -3102    -3088    -3091 
   -3107    -3146    -3199    -3252    -3299    -3338    -3369    -3407 
   -3454    -3510    -3568    -3619    -3659    -3680    -3672    -3640 
   -3591    -3530    -3468    -3407    -3354    -3326    -3326    -3346 
   -3388    -3451    -3523    -3593    -3653    -3688    -3689    -3662 
   -3615    -3549    -3470    -3389    -3311    -3242    -3192    -3148 
   -3109    -3090    -3091    -3115    -3172    -3253    -3342    -3431 
   -3512    -3584    -3631    -3640    -3620    -3580    -3523    -3462 
   -3407    -3365    -3335    -3326    -3335    -3358    -3393    -3431 
   -3464    -3489    -3505    -3514    -3520    -3522    -3520    -3524 
   -3527    -3528    -3519    -3492    -3453    -3410    -3366    -3327 
   -3287    -3249    -3222    -3213    -3226    -3265    -3335    -3430 
   -3543    -3661    -3770    -3865    -3928    -3956    -3964    -3950 
   -3921    -3893    -3865    -3838    -3815    -3788    -3750    -3697 
   -3616    -3501    -3370    -3237    -3119    -3040    -3002    -3018 
   -3098    -3235    -3408    -3599    -3782    -3932    -4021    -4041 
   -3985    -3855    -3674    -3466    -3249    -3049    -2889    -2768 
   -2694    -2668    -2682    -2733    -2822    -2945    -3094    -3260 
   -3429    -3588    -3727    -3832    -3890    -3890    -3832    -3728 
   -3588    -3426    -3260    -3094    -2938    -2809    -2720    -2685 
   -2700    -2758    -2849    -2959    -3065    -3176    -3281    -3373 
   -3465    -3561    -3653    -3743    -3824    -3877    -3892    -3867 
   -3804    -3712    -3609    -3501    -3400    -3312    -3240    -3181 
   -3142    -3119    -3111    -3119    -3140    -3163    -3176    -3177 
   -3179    -3181    -3184    -3180    -3168    -3152    -3133    -3106 
   -3078    -3049    -3024    -2992    -2955    -2917    -2879    -2828 
   -2763    -2694    -2623    -2556    -2501    -2450    -2408    -2393 
   -2417    -2479    -2582    -2714    -2853    -2982    -3092    -3171 
   -3200    -3168    -3069    -2911    -2701    -2458    -2218    -2016 
   -1881    -1826    -1852    -1950    -2103    -2285    -2467    -2629 
   -2752    -2829    -2874    -2895    -2897    -2891    -2884    -2874 
   -2870    -2880    -2897    -2913    -2933    -2955    -2978    -3007 
   -3044    -3090    -3150    -3230    -3316    -3397    -3464    -3512 
   -3535    -3523    -3480    -3410    -3323    -3237    -3148    -3057 
   -2980    -2926    -2894    -2890    -2917    -2965    -3042    -3148 
   -3267    -3393    -3520    -3631    -3699    -3712    -3669    -3568 
   -3419    -3245    -3065    -2894    -2755    -2658    -2608    -2620 
   -2694    -2814    -2965    -3138    -3302    -3431    -3516    -3545 
   -3515    -3447    -3352    -3227    -3099    -2978    -2878    -2821 
   -2810    -2839    -2899    -2990    -3099    -3222    -3361    -3507 
   -3651    -3790    -3923    -4048    -4151    -4213    -4233    -4212 
   -4141    -4039    -3917    -3788    -3653    -3519    -3412    -3346 
   -3325    -3346    -3402    -3473    -3555    -3636    -3700    -3730 
   -3716    -3661    -3574    -3472    -3370    -3281    -3217    -3195 
   -3225    -3302    -3414    -3539    -3670    -3790    -3883    -3948 
   -3987    -4005    -3998    -3955    -3881    -3785    -3676    -3565 
   -3474    -3404    -3358    -3348    -3370    -3418    -3478    -3542 
   -3599    -3643    -3672    -3681    -3667    -3631    -3568    -3480 
   -3376    -3256    -3129    -3002    -2883    -2776    -2695    -2647 
   -2628    -2639    -2679    -2739    -2808    -2871    -2921    -2957 
   -2968    -2940    -2882    -2799    -2694    -2579    -2474    -2394 
   -2346    -2332    -2357    -2417    -2509    -2627    -2755    -2882 
   -2997    -3087    -3136    -3140    -3099    -3017    -2913    -2816 
   -2741    -2705    -2716    -2759    -2832    -2925    -3021    -3103 
   -3173    -3222    -3241    -3227    -3176    -3087    -2978    -2872 
   -2786    -2733    -2733    -2781    -2860    -2956    -3046    -3119 
   -3165    -3184    -3179    -3152    -3102    -3034    -2957    -2875 
   -2797    -2725    -2675    -2670    -2708    -2790    -2907    -3045 
   -3181    -3298    -3384    -3433    -3437    -3402    -3335    -3252 
   -3164    -3088    -3040    -3025    -3051    -3114    -3221    -3358 
   -3501    -3628    -3724    -3770    -3759    -3704    -3613    -3507 
   -3400    -3314    -3252    -3225    -3242    -3300    -3389    -3505 
   -3634    -3748    -3835    -3885    -3883    -3829    -3746    -3647 
   -3543    -3450    -3375    -3308    -3248    -3192    -3142    -3105 
   -3083    -3084    -3110    -3168    -3264    -3389    -3545    -3721 
   -3902    -4074    -4226    -4345    -4421    -4455    -4442    -4374 
   -4252    -4093    -3901    -3686    -3478    -3296    -3160    -3090 
   -3084    -3129    -3222    -3358    -3516    -3682    -3838    -3959 
   -4036    -4060    -4036    -3973    -3875    -3766    -3663    -3569 
   -3491    -3443    -3430    -3446    -3489    -3547    -3613    -3678 
   -3726    -3751    -3758    -3746    -3707    -3643    -3566    -3484 
   -3408    -3353    -3318    -3306    -3327    -3380    -3446    -3514 
   -3566    -3586    -3573    -3523    -3438    -3327    -3198    -3064 
   -2940    -2832    -2743    -2674    -2627    -2606    -2616    -2654 
   -2720    -2822    -2951    -3088    -3222    -3339    -3426    -3473 
   -3483    -3453    -3383    -3272    -3126    -2964    -2808    -2677 
   -2583    -2542    -2559    -2631    -2745    -2895    -3055    -3199 
   -3312    -3380    -3392    -3345    -3248    -3115    -2970    -2836 
   -2735    -2683    -2687    -2741    -2836    -2964    -3107    -3254 
   -3395    -3514    -3593    -3630    -3624    -3566    -3462    -3322 
   -3153    -2972    -2798    -2644    -2520    -2439    -2400    -2397 
   -2430    -2489    -2563    -2635    -2701    -2754    -2770    -2747 
   -2689    -2597    -2493    -2403    -2335    -2303    -2322    -2385 
   -2490    -2629    -2781    -2924    -3046    -3144    -3211    -3241 
   -3233    -3181    -3092    -2983    -2856    -2716    -2579    -2459 
   -2353    -2277    -2246    -2251    -2295    -2380    -2498    -2646 
   -2820    -3011    -3203    -3381    -3527    -3628    -3672    -3647 
   -3554    -3402    -3202    -2978    -2759    -2575    -2448    -2393 
   -2427    -2546    -2736    -2974    -3227    -3468    -3672    -3813 
   -3882    -3886    -3828    -3723    -3593    -3453    -3323    -3229 
   -3172    -3156    -3180    -3237    -3304    -3370    -3423    -3462 
   -3489    -3518    -3545    -3569    -3589    -3603    -3609    -3612 
   -3616    -3616    -3608    -3596    -3576    -3534    -3466    -3372 
   -3250    -3115    -2979    -2848    -2728    -2633    -2567    -2543 
   -2575    -2679    -2844    -3057    -3299    -3541    -3751    -3901 
   -3963    -3936    -3832    -3662    -3439    -3191    -2953    -2764 
   -2646    -2614    -2681    -2836    -3061    -3322    -3581    -3809 
   -3977    -4064    -4064    -3985    -3839    -3655    -3453    -3253 
   -3078    -2944    -2853    -2805    -2798    -2837    -2920    -3042 
   -3188    -3339    -3485    -3609    -3701    -3755    -3765    -3735 
   -3672    -3586    -3493    -3397    -3312    -3252    -3218    -3213 
   -3242    -3307    -3399    -3514    -3640    -3771    -3889    -3985 
   -4047    -4063    -4036    -3974    -3885    -3782    -3672    -3551 
   -3430    -3329    -3256    -3217    -3222    -3284    -3397    -3554 
   -3742    -3942    -4132    -4291    -4398    -4433    -4390    -4271 
   -4087    -3856    -3601    -3350    -3126    -2960    -2872    -2866 
   -2936    -3071    -3246    -3441    -3628    -3786    -3893    -3937 
   -3917    -3838    -3711    -3558    -3391    -3215    -3049    -2910 
   -2810    -2756    -2748    -2776    -2829    -2902    -2982    -3046 
   -3092    -3115    -3106    -3080    -3055    -3034    -3029    -3055 
   -3111    -3183    -3258    -3333    -3393    -3435    -3465    -3469 
   -3443    -3389    -3307    -3202    -3096    -2998    -2925    -2897 
   -2917    -2984    -3098    -3237    -3376    -3493    -3578    -3619 
   -3612    -3566    -3492    -3396    -3296    -3210    -3145    -3119 
   -3145    -3211    -3307    -3411    -3497    -3553    -3568    -3537 
   -3469    -3385    -3296    -3219    -3160    -3119    -3099    -3095 
   -3096    -3100    -3110    -3127    -3154    -3192    -3240    -3289 
   -3346    -3415    -3493    -3572    -3649    -3719    -3771    -3800 
   -3793    -3738    -3628    -3462    -3242    -2990    -2731    -2496 
   -2312    -2189    -2134    -2153    -2239    -2384    -2573    -2785 
   -2988    -3163    -3284    -3334    -3308    -3213    -3060    -2879 
   -2700    -2536    -2408    -2331    -2307    -2338    -2427    -2563 
   -2735    -2926    -3114    -3268    -3370    -3408    -3380    -3294 
   -3167    -3018    -2866    -2724    -2608    -2528    -2494    -2515 
   -2587    -2698    -2824    -2947    -3052    -3127    -3163    -3157 
   -3111    -3038    -2948    -2853    -2762    -2678    -2598    -2532 
   -2489    -2474    -2493    -2536    -2590    -2643    -2690    -2732 
   -2770    -2799    -2813    -2814    -2812    -2809    -2810    -2821 
   -2841    -2867    -2894    -2921    -2944    -2963    -2976    -2987 
   -3005    -3049    -3127    -3246    -3402    -3584    -3777    -3955 
   -4097    -4191    -4229    -4209    -4141    -4037    -3915    -3790 
   -3677    -3591    -3543    -3539    -3581    -3657    -3742    -3813 
   -3854    -3851    -3800    -3704    -3582    -3458    -3350    -3269 
   -3217    -3192    -3190    -3195    -3206    -3221    -3238    -3258 
   -3281    -3303    -3323    -3342    -3358    -3373    -3396    -3422 
   -3447    -3472    -3491    -3501    -3504    -3497    -3480    -3453 
   -3418    -3380    -3343    -3308    -3279    -3257    -3246    -3256 
   -3287    -3330    -3383    -3442    -3500    -3547    -3572    -3562 
   -3511    -3408    -3256    -3068    -2860    -2652    -2474    -2335 
   -2239    -2200    -2223    -2295    -2411    -2563    -2739    -2925 
   -3107    -3267    -3391    -3469    -3492    -3466    -3402    -3308 
   -3191    -3061    -2926    -2789    -2659    -2555    -2482    -2448 
   -2459    -2506    -2586    -2689    -2798    -2906    -3009    -3091 
   -3154    -3190    -3192    -3161    -3100    -3009    -2893    -2763 
   -2639    -2535    -2470    -2462    -2515    -2628    -2797    -3010 
   -3250    -3496    -3731    -3935    -4099    -4216    -4272    -4268 
   -4214    -4117    -3989    -3844    -3700    -3577    -3484    -3433 
   -3429    -3464    -3527    -3607    -3688    -3762    -3820    -3856 
   -3870    -3865    -3843    -3811    -3780    -3758    -3744    -3738 
   -3743    -3758    -3773    -3788    -3802    -3813    -3823    -3831 
   -3840    -3862    -3889    -3909    -3924    -3929    -3916    -3883 
   -3847    -3809    -3769    -3734    -3707    -3688    -3681    -3692 
   -3728    -3785    -3852    -3927    -4000    -4063    -4110    -4139 
   -4144    -4120    -4064    -3987    -3896    -3802    -3721    -3655 
   -3605    -3573    -3545    -3518    -3484    -3435    -3379    -3319 
   -3265    -3233    -3230    -3253    -3300    -3362    -3424    -3476 
   -3501    -3493    -3449    -3370    -3268    -3146    -3022    -2918 
   -2839    -2789    -2772    -2786    -2822    -2874    -2930    -2980 
   -3013    -3021    -3005    -2971    -2940    -2911    -2883    -2860 
   -2837    -2797    -2737    -2663    -2565    -2452    -2340    -2238 
   -2160    -2123    -2138    -2195    -2288    -2401    -2521    -2636 
   -2727    -2779    -2794    -2764    -2695    -2597    -2477    -2349 
   -2231    -2139    -2077    -2053    -2061    -2088    -2120    -2146 
   -2151    -2131    -2087    -2027    -1958    -1887    -1829    -1791 
   -1775    -1780    -1803    -1841    -1898    -1984    -2096    -2232 
   -2388    -2547    -2710    -2879    -3036    -3180    -3312    -3407 
   -3458    -3473    -3450    -3392    -3311    -3221    -3127    -3048 
   -2997    -2979    -2987    -3018    -3073    -3145    -3229    -3326 
   -3430    -3531    -3626    -3703    -3755    -3781    -3784    -3769 
   -3742    -3709    -3680    -3662    -3662    -3684    -3724    -3775 
   -3832    -3889    -3939    -3977    -3996    -3996    -3983    -3959 
   -3928    -3889    -3843    -3796    -3739    -3672    -3597    -3518 
   -3431    -3350    -3287    -3241    -3213    -3206    -3218    -3245 
   -3292    -3353    -3420    -3495    -3565    -3630    -3686    -3734 
   -3780    -3824    -3866    -3920    -3993    -4077    -4170    -4264 
   -4351    -4418    -4457    -4467    -4455    -4417    -4360    -4286 
   -4191    -4081    -3962    -3844    -3744    -3670    -3626    -3623 
   -3657    -3719    -3807    -3909    -4009    -4102    -4180    -4233 
   -4257    -4256    -4228    -4171    -4089    -3997    -3908    -3831 
   -3773    -3736    -3720    -3715    -3715    -3719    -3717    -3705 
   -3688    -3665    -3640    -3622    -3613    -3619    -3634    -3649 
   -3669    -3688    -3694    -3680    -3632    -3550    -3429    -3280 
   -3117    -2948    -2789    -2655    -2552    -2489    -2473    -2504 
   -2579    -2694    -2845    -3022    -3199    -3357    -3485    -3566 
   -3591    -3561    -3483    -3360    -3213    -3060    -2914    -2795 
   -2725    -2697    -2704    -2740    -2797    -2857    -2909    -2940 
   -2947    -2933    -2903    -2860    -2818    -2783    -2755    -2737 
   -2727    -2720    -2717    -2717    -2716    -2712    -2708    -2702 
   -2698    -2701    -2712    -2729    -2751    -2778    -2808    -2830 
   -2845    -2855    -2857    -2844    -2825    -2808    -2785    -2759 
   -2743    -2736    -2737    -2748    -2763    -2775    -2776    -2763 
   -2732    -2691    -2647    -2602    -2562    -2527    -2504    -2501 
   -2528    -2579    -2659    -2763    -2883    -3007    -3129    -3237 
   -3321    -3370    -3384    -3365    -3316    -3250    -3173    -3092 
   -3017    -2955    -2901    -2860    -2840    -2833    -2841    -2860 
   -2887    -2926    -2975    -3032    -3092    -3152    -3208    -3254 
   -3289    -3307    -3307    -3294    -3272    -3241    -3198    -3138 
   -3067    -2995    -2930    -2880    -2849    -2840    -2847    -2866 
   -2898    -2938    -2980    -3018    -3051    -3071    -3075    -3072 
   -3064    -3044    -3015    -2987    -2970    -2974    -3003    -3057 
   -3132    -3226    -3343    -3476    -3613    -3748    -3862    -3946 
   -3998    -4014    -3998    -3959    -3910    -3863    -3825    -3813 
   -3828    -3866    -3927    -4012    -4109    -4210    -4315    -4406 
   -4477    -4534    -4565    -4568    -4548    -4509    -4453    -4383 
   -4297    -4199    -4097    -3994    -3905    -3832    -3780    -3753 
   -3747    -3759    -3785    -3815    -3839    -3851    -3844    -3820 
   -3780    -3716    -3635    -3542    -3445    -3354    -3281    -3231 
   -3204    -3204    -3234    -3284    -3350    -3433    -3524    -3612 
   -3692    -3761    -3809    -3832    -3829    -3800    -3746    -3673 
   -3592    -3503    -3414    -3333    -3262    -3204    -3165    -3146 
   -3133    -3123    -3117    -3099    -3063    -3001    -2913    -2810 
   -2705    -2604    -2524    -2471    -2443    -2442    -2462    -2493 
   -2532    -2579    -2637    -2706    -2782    -2859    -2929    -2979 
   -3007    -3010    -2983    -2934    -2874    -2805    -2741    -2690 
   -2650    -2627    -2632    -2656    -2697    -2749    -2799    -2844 
   -2872    -2876    -2860    -2821    -2755    -2668    -2571    -2470 
   -2365    -2266    -2182    -2111    -2054    -2019    -2000    -2007 
   -2049    -2120    -2214    -2327    -2444    -2554    -2643    -2698 
   -2717    -2708    -2671    -2609    -2540    -2475    -2423    -2390 
   -2382    -2394    -2427    -2477    -2540    -2605    -2670    -2733 
   -2787    -2824    -2844    -2851    -2847    -2830    -2814    -2795 
   -2776    -2770    -2774    -2785    -2806    -2843    -2893    -2953 
   -3021    -3091    -3156    -3217    -3268    -3307    -3341    -3373 
   -3403    -3427    -3442    -3437    -3408    -3362    -3304    -3237 
   -3165    -3100    -3053    -3029    -3026    -3045    -3088    -3149 
   -3219    -3295    -3373    -3442    -3492    -3519    -3528    -3527 
   -3520    -3512    -3514    -3532    -3576    -3635    -3709    -3797 
   -3882    -3951    -4002    -4037    -4052    -4044    -4017    -3979 
   -3936    -3893    -3863    -3854    -3858    -3870    -3889    -3910 
   -3920    -3909    -3871    -3811    -3728    -3632    -3528    -3429 
   -3341    -3265    -3207    -3176    -3173    -3194    -3231    -3283 
   -3337    -3383    -3419    -3449    -3465    -3470    -3470    -3469 
   -3473    -3477    -3484    -3496    -3508    -3515    -3526    -3546 
   -3569    -3593    -3634    -3684    -3735    -3788    -3840    -3883 
   -3912    -3920    -3908    -3870    -3811    -3739    -3658    -3578 
   -3516    -3474    -3454    -3457    -3478    -3514    -3561    -3615 
   -3667    -3712    -3734    -3723    -3685    -3616    -3512    -3387 
   -3249    -3121    -3019    -2944    -2897    -2878    -2882    -2905 
   -2943    -2984    -3018    -3045    -3057    -3046    -3018    -2980 
   -2937    -2897    -2867    -2851    -2851    -2868    -2897    -2938 
   -2991    -3045    -3094    -3137    -3164    -3175    -3172    -3145 
   -3098    -3038    -2974    -2917    -2875    -2855    -2870    -2911 
   -2970    -3041    -3118    -3191    -3248    -3283    -3292    -3275 
   -3233    -3168    -3087    -2998    -2906    -2822    -2754    -2714 
   -2708    -2727    -2770    -2835    -2913    -2991    -3065    -3122 
