Origin Time       2025/01/13 21:19:00
Lat.              31.8
Long.             131.6
Depth. (km)       30
Mag.              6.9
Station Code      NGS012
Station Lat.      32.7883
Station Long.     130.3463
Station Height(m) 100
Record Time       2025/01/13 21:20:04
Sampling Freq(Hz) 100Hz
Duration Time(s)  136
Dir.              E-W
Scale Factor      7845(gal)/8223790
Max. Acc. (gal)   5.766
Last Correction   2025/01/13 21:20:05
Memo.             
[...]
   14249    14423    14547    14650    14736    14751    14681    14550 
   14366    14164    13999    13873    13795    13784    13756    13640 
   13493    13336    13144    12939    12734    12525    12329    12171 
   12082    12075    12145    12278    12429    12557    12668    12771 
   12810    12744    12638    12573    12569    12623    12741    12922 
   13157    13402    13578    13676    13745    13772    13720    13612 
   13513    13450    13392    13313    13255    13274    13339    13435 
   13610    13852    14094    14350    14661    15006    15325    15554 
   15687    15759    15803    15795    15743    15700    15664    15596 
   15504    15398    15276    15148    14999    14829    14656    14481 
   14315    14158    13999    13873    13842    13896    13995    14135 
   14319    14519    14733    14955    15113    15156    15110    14982 
   14763    14521    14322    14164    14035    13910    13801    13756 
   13753    13788    13905    14054    14203    14419    14700    14949 
   15157    15345    15498    15651    15846    16019    16101    16129 
   16158    16150    16075    15963    15817    15630    15462    15352 
   15242    15103    14982    14879    14746    14617    14530    14440 
   14349    14296    14249    14202    14207    14245    14295    14388 
   14504    14613    14717    14808    14850    14805    14666    14424 
   14100    13744    13354    12934    12545    12181    11809    11495 
   11296    11205    11203    11254    11326    11406    11450    11454 
   11491    11565    11627    11734    11935    12163    12398    12669 
   12945    13176    13377    13570    13736    13875    14014    14170 
   14334    14469    14559    14621    14644    14638    14674    14774 
   14877    15002    15188    15365    15491    15553    15502    15344 
   15115    14829    14542    14334    14177    14025    13915    13855 
   13782    13679    13574    13443    13252    13027    12822    12649 
   12502    12382    12259    12070    11811    11535    11276    10990 
   10677    10404    10179    10000     9929     9984    10135    10385 
   10713    11068    11430    11807    12198    12576    12888    13131 
   13333    13490    13598    13699    13807    13911    14000    14010 
   13929    13864    13852    13845    13853    13914    14022    14142 
   14273    14453    14682    14939    15213    15502    15816    16119 
   16328    16428    16433    16339    16171    15934    15620    15263 
   14891    14543    14257    14073    14002    13983    13956    13919 
   13887    13861    13828    13776    13691    13593    13540    13548 
   13599    13732    13988    14328    14686    15059    15430    15739 
   15986    16201    16367    16453    16452    16357    16166    15889 
   15564    15238    14931    14625    14332    14089    13906    13790 
   13755    13780    13849    13961    14049    14045    13990    13940 
   13888    13865    13892    13910    13887    13856    13806    13726 
   13666    13641    13648    13709    13805    13880    13941    13994 
   13972    13821    13563    13232    12874    12540    12262    12108 
   12100    12193    12370    12626    12941    13293    13656    14002 
   14319    14617    14885    15097    15250    15300    15213    15001 
   14705    14389    14102    13832    13591    13421    13306    13215 
   13139    13078    13034    12989    12923    12841    12725    12552 
   12344    12118    11904    11723    11531    11330    11157    11006 
   10889    10836    10844    10914    11049    11257    11564    11952 
   12401    12926    13505    14052    14550    15041    15489    15830 
   16085    16289    16440    16544    16590    16579    16553    16530 
   16524    16556    16596    16596    16544    16413    16193    15900 
   15531    15095    14662    14297    13987    13720    13529    13373 
   13176    12977    12829    12715    12648    12681    12839    13097 
   13429    13824    14224    14547    14770    14931    15017    14994 
   14924    14875    14817    14751    14737    14782    14858    14947 
   15033    15110    15182    15264    15392    15581    15832    16135 
   16456    16756    17010    17176    17201    17078    16834    16488 
   16031    15488    14929    14343    13716    13097    12499    11921 
   11414    11037    10794    10646    10575    10581    10652    10797 
   10989    11187    11398    11634    11893    12158    12378    12555 
   12694    12737    12700    12681    12683    12681    12739    12893 
   13086    13278    13452    13598    13724    13832    13890    13922 
   14007    14152    14323    14517    14706    14868    14987    15044 
   15082    15130    15151    15138    15105    15051    14972    14879 
   14782    14662    14521    14389    14239    14072    13917    13755 
   13603    13498    13419    13362    13355    13374    13404    13477 
   13613    13790    13963    14076    14116    14114    14083    14035 
   13971    13890    13836    13814    13764    13666    13563    13455 
   13317    13208    13161    13122    13088    13074    13042    13009 
   13028    13078    13154    13277    13416    13555    13730    13923 
   14088    14231    14339    14378    14369    14335    14280    14239 
   14231    14237    14235    14197    14092    13942    13778    13587 
   13379    13193    13038    12911    12837    12831    12911    13070 
   13281    13551    13883    14239    14592    14937    15271    15580 
   15853    16078    16252    16383    16468    16492    16468    16410 
   16274    16048    15782    15488    15163    14844    14577    14377 
   14214    14068    13971    13926    13868    13757    13626    13481 
   13302    13132    13003    12889    12810    12791    12803    12847 
   12945    13077    13234    13435    13683    13952    14264    14623 
   14991    15373    15751    16081    16363    16587    16735    16819 
   16825    16726    16553    16341    16090    15795    15483    15188 
   14921    14677    14459    14268    14114    13983    13825    13659 
   13513    13348    13161    12964    12730    12476    12251    12062 
   11915    11830    11790    11776    11774    11754    11696    11619 
   11520    11385    11234    11090    10989    10968    11001    11076 
   11211    11383    11580    11848    12198    12609    13063    13506 
   13873    14156    14358    14458    14499    14531    14517    14465 
   14436    14439    14457    14478    14478    14469    14455    14423 
   14415    14457    14494    14497    14473    14415    14305    14156 
   14000    13828    13629    13424    13213    13008    12838    12698 
   12599    12556    12559    12625    12745    12887    13041    13194 
   13327    13447    13582    13722    13856    14025    14238    14447 
   14677    14970    15276    15577    15905    16201    16402    16528 
   16553    16453    16270    16001    15634    15211    14748    14253 
   13778    13348    12962    12607    12283    12032    11861    11735 
   11662    11624    11587    11558    11504    11384    11206    11003 
   10813    10662    10585    10609    10720    10895    11151    11484 
   11846    12239    12695    13167    13599    13990    14337    14632 
   14872    15041    15151    15211    15207    15174    15167    15182 
   15202    15250    15310    15350    15371    15367    15341    15288 
   15176    15006    14801    14539    14235    13963    13718    13448 
   13169    12911    12675    12460    12305    12241    12268    12395 
   12617    12899    13204    13474    13695    13884    14003    14044 
   14081    14157    14262    14427    14650    14891    15142    15411 
   15693    15947    16155    16321    16411    16416    16359    16240 
   16052    15799    15483    15145    14804    14480    14215    14002 
   13841    13774    13767    13768    13791    13829    13868    13942 
   14068    14233    14432    14661    14882    15051    15151    15176 
   15120    15007    14854    14674    14534    14457    14423    14413 
   14396    14366    14343    14310    14269    14266    14291    14284 
   14251    14220    14157    14041    13891    13737    13625    13560 
   13536    13593    13740    13921    14127    14351    14527    14656 
   14806    14963    15105    15279    15472    15608    15693    15734 
   15704    15633    15549    15438    15327    15240    15164    15109 
   15049    14941    14786    14594    14350    14106    13913    13743 
   13583    13466    13362    13265    13211    13181    13130    13072 
   13028    12992    12943    12879    12819    12784    12764    12744 
   12742    12758    12787    12853    12957    13088    13296    13606 
   13961    14308    14617    14841    14964    14995    14924    14782 
   14628    14443    14214    13996    13784    13535    13266    12958 
   12596    12228    11847    11433    11047    10729    10440    10149 
    9904     9722     9570     9495     9562     9747    10034    10412 
   10835    11277    11709    12087    12403    12669    12911    13149 
   13360    13559    13787    14017    14227    14473    14748    15007 
   15268    15537    15788    16043    16301    16472    16499    16401 
   16164    15768    15257    14690    14062    13400    12756    12163 
   11669    11303    11059    10952    10983    11121    11377    11727 
   12112    12522    12937    13296    13589    13803    13919    13976 
   14010    13996    13944    13891    13846    13801    13764    13745 
   13748    13770    13791    13829    13914    14013    14099    14231 
   14415    14594    14785    14987    15174    15344    15500    15654 
   15812    15940    16040    16135    16186    16187    16173    16100 
   15925    15699    15441    15134    14801    14458    14088    13682 
   13246    12802    12378    11982    11622    11333    11125    10984 
   10951    11041    11207    11452    11786    12194    12660    13173 
   13718    14293    14858    15387    15869    16248    16524    16757 
   16930    17020    17113    17209    17231    17220    17209    17145 
   17042    16923    16749    16533    16320    16094    15832    15529 
   15190    14833    14436    13990    13570    13244    12991    12818 
   12768    12788    12827    12914    13018    13082    13140    13208 
   13246    13259    13294    13333    13350    13346    13319    13282 
   13263    13267    13339    13510    13752    14027    14328    14629 
   14905    15152    15361    15510    15593    15600    15511    15340 
   15090    14759    14389    14003    13609    13255    12960    12708 
   12507    12340    12171    12012    11882    11750    11604    11465 
   11334    11229    11179    11182    11252    11385    11535    11691 
   11873    12071    12271    12479    12676    12860    13039    13185 
   13289    13373    13421    13406    13342    13261    13190    13134 
   13104    13115    13155    13219    13296    13389    13490    13566 
   13606    13616    13555    13421    13258    13069    12860    12671 
   12526    12415    12349    12347    12387    12464    12553    12627 
   12710    12804    12900    13042    13247    13483    13753    14060 
   14361    14629    14868    15082    15265    15438    15608    15770 
   15904    15982    16013    16015    15969    15890    15835    15793 
   15738    15703    15697    15670    15616    15561    15485    15377 
   15269    15168    15056    14949    14878    14860    14883    14906 
   14925    14928    14879    14793    14720    14663    14616    14605 
   14620    14601    14575    14590    14604    14593    14602    14620 
   14625    14666    14773    14953    15232    15588    15988    16414 
   16826    17201    17517    17710    17752    17674    17489    17194 
   16833    16455    16052    15641    15269    14905    14496    14075 
   13667    13242    12793    12364    11974    11591    11211    10876 
   10575    10268     9971     9710     9470     9251     9119     9096 
    9165     9346     9655    10073    10613    11283    12037    12831 
   13660    14493    15291    16023    16626    17051    17325    17483 
   17514    17448    17354    17254    17150    17058    16980    16903 
   16833    16784    16750    16722    16687    16657    16646    16629 
   16590    16548    16483    16398    16333    16259    16137    16011 
   15892    15751    15601    15480    15387    15310    15265    15255 
   15252    15256    15269    15282    15286    15277    15269    15267 
   15233    15156    15043    14885    14675    14400    14057    13662 
   13235    12793    12343    11886    11445    11020    10605    10230 
    9922     9675     9472     9309     9197     9143     9144     9197 
    9281     9374     9512     9726     9998    10345    10810    11346 
   11898    12484    13093    13684    14273    14871    15450    15978 
   16441    16807    17066    17240    17324    17307    17205    17042 
   16850    16633    16368    16077    15784    15430    14989    14494 
   13954    13385    12853    12391    12020    11761    11618    11574 
   11585    11627    11682    11726    11753    11767    11767    11769 
   11781    11811    11889    12005    12085    12105    12089    12023 
   11890    11701    11476    11244    11016    10798    10613    10484 
   10416    10440    10555    10713    10910    11182    11512    11882 
   12299    12756    13221    13701    14191    14659    15095    15500 
   15859    16150    16391    16619    16829    17000    17169    17373 
   17610    17865    18142    18461    18805    19140    19445    19688 
   19857    19955    19958    19840    19610    19251    18767    18203 
   17578    16910    16262    15672    15128    14650    14261    13948 
   13710    13566    13486    13424    13378    13362    13356    13332 
   13290    13236    13146    13038    12949    12895    12900    12961 
   13063    13216    13381    13551    13744    13926    14106    14322 
   14546    14755    14960    15133    15261    15360    15406    15391 
   15346    15275    15161    15032    14893    14723    14520    14308 
   14112    13953    13825    13716    13622    13532    13433    13339 
   13270    13227    13194    13200    13248    13298    13336    13350 
   13333    13305    13265    13208    13151    13084    12995    12899 
   12791    12672    12553    12438    12322    12202    12067    11916 
   11776    11630    11423    11168    10901    10596    10258     9942 
    9667     9424     9221     9061     8922     8792     8668     8550 
    8457     8398     8353     8334     8361     8430     8561     8765 
    8996     9262     9589     9926    10264    10642    11029    11414 
   11847    12302    12737    13192    13678    14160    14656    15182 
   15680    16098    16457    16765    16999    17142    17227    17269 
   17255    17232    17238    17209    17123    16996    16791    16478 
   16092    15670    15222    14775    14385    14058    13756    13500 
   13323    13190    13089    13034    13012    13023    13082    13178 
   13294    13443    13617    13794    13987    14203    14436    14701 
   15001    15325    15674    16042    16414    16796    17172    17501 
   17767    17975    18125    18234    18312    18357    18382    18400 
   18401    18388    18341    18250    18141    18014    17864    17707 
   17566    17451    17356    17263    17170    17086    17000    16881 
   16754    16649    16549    16459    16403    16366    16328    16289 
   16216    16065    15857    15622    15341    15025    14723    14453 
   14206    13983    13787    13636    13529    13436    13355    13290 
   13224    13140    13038    12928    12833    12760    12688    12591 
   12472    12334    12159    11969    11793    11607    11388    11168 
   10944    10693    10446    10230    10031     9867     9763     9725 
    9749     9828     9934    10072    10253    10465    10704    10990 
   11313    11651    12006    12349    12676    12992    13266    13478 
   13640    13756    13821    13849    13875    13917    13976    14060 
   14172    14299    14438    14593    14728    14809    14855    14851 
   14760    14605    14419    14208    13963    13686    13409    13169 
   12969    12803    12695    12673    12729    12834    12974    13104 
   13184    13243    13284    13266    13235    13227    13196    13144 
   13120    13119    13135    13188    13305    13474    13652    13845 
   14035    14183    14310    14400    14423    14443    14469    14469 
   14513    14615    14674    14717    14809    14870    14874    14917 
   14990    15016    15017    15036    15032    14960    14875    14810 
   14716    14612    14547    14493    14442    14416    14401    14384 
   14354    14307    14262    14210    14138    14083    14037    13956 
   13873    13834    13802    13729    13617    13500    13383    13235 
   13077    12964    12874    12792    12780    12837    12908    13041 
   13252    13463    13645    13809    13919    13986    14033    14064 
   14106    14152    14175    14181    14170    14135    14106    14088 
   14067    14058    14079    14096    14111    14143    14164    14145 
   14110    14072    14023    13994    14035    14133    14281    14513 
   14783    15053    15314    15511    15642    15739    15773    15745 
   15704    15660    15606    15554    15527    15520    15522    15531 
   15556    15593    15650    15716    15778    15842    15917    15990 
   16035    16044    16015    15935    15785    15568    15311    15017 
   14677    14327    13973    13585    13184    12804    12429    12064 
   11746    11457    11194    11002    10872    10779    10733    10714 
   10700    10698    10712    10741    10794    10866    10948    11068 
   11233    11410    11587    11753    11885    11985    12052    12082 
   12096    12102    12106    12101    12058    11952    11796    11577 
   11280    10947    10631    10330    10076     9909     9830     9850 
    9980    10187    10436    10713    10997    11260    11487    11672 
   11820    11947    12036    12093    12158    12224    12267    12324 
   12407    12484    12556    12648    12753    12849    12934    13004 
   13045    13047    13032    12999    12928    12845    12776    12704 
   12645    12644    12687    12706    12726    12798    12879    12941 
   13043    13176    13286    13404    13595    13833    14046    14260 
   14501    14719    14905    15103    15303    15481    15654    15843 
   16048    16248    16428    16619    16821    17005    17200    17410 
   17590    17728    17825    17884    17941    17992    18000    17991 
   17992    17979    17952    17909    17836    17745    17644    17537 
   17451    17389    17348    17347    17379    17413    17442    17477 
   17509    17521    17521    17524    17509    17473    17419    17331 
   17209    17051    16839    16586    16310    16017    15718    15435 
   15198    15013    14879    14808    14816    14894    15020    15183 
   15368    15561    15755    15948    16125    16256    16353    16422 
   16428    16382    16320    16225    16109    16012    15938    15880 
   15820    15746    15654    15523    15379    15232    15025    14796 
   14567    14280    13969    13664    13315    12927    12538    12135 
   11704    11261    10825    10392     9979     9634     9356     9127 
    8988     8943     8965     9076     9288     9575     9909    10276 
   10658    11033    11394    11734    12056    12372    12658    12899 
