Origin Time       2025/01/13 21:19:00
Lat.              31.8
Long.             131.6
Depth. (km)       30
Mag.              6.9
Station Code      NGS019
Station Lat.      32.9003
Station Long.     129.9583
Station Height(m) 2
Record Time       2025/01/13 21:20:30
Sampling Freq(Hz) 100Hz
Duration Time(s)  70
Dir.              E-W
Scale Factor      7845(gal)/8223790
Max. Acc. (gal)   3.421
Last Correction   2025/01/13 21:20:32
Memo.             
[...]
   10197    10126    10087    10066    10027     9987     9934     9848 
    9756     9676     9606     9553     9513     9471     9432     9379 
    9294     9185     9049     8889     8734     8603     8513     8478 
    8488     8553     8677     8833     9004     9167     9289     9375 
    9425     9436     9432     9414     9385     9362     9323     9252 
    9162     9039     8893     8756     8648     8598     8611     8688 
    8826     9009     9228     9466     9702     9930    10125    10285 
   10427    10548    10655    10740    10781    10781    10746    10656 
   10531    10378    10192     9996     9806     9617     9441     9269 
    9096     8949     8824     8719     8633     8552     8494     8459 
    8425     8415     8428     8456     8523     8621     8748     8922 
    9111     9300     9489     9660     9805     9927    10026    10104 
   10174    10227    10261    10292    10316    10335    10350    10339 
   10316    10280    10214    10141    10073     9987     9891     9787 
    9653     9505     9350     9169     8991     8834     8692     8583 
    8507     8460     8461     8503     8579     8685     8792     8876 
    8949     9004     9032     9050     9059     9058     9055     9042 
    9001     8950     8885     8808     8741     8681     8645     8638 
    8627     8610     8598     8560     8503     8461     8444     8476 
    8573     8719     8922     9162     9421     9698     9965    10215 
   10453    10660    10837    10995    11121    11213    11275    11298 
   11294    11267    11206    11128    11038    10926    10806    10690 
   10582    10497    10439    10380    10327    10277    10208    10123 
   10023     9902     9768     9630     9499     9387     9302     9235 
    9186     9158     9148     9162     9193     9224     9255     9290 
    9329     9374     9412     9447     9486     9517     9544     9567 
    9566     9541     9497     9440     9396     9373     9377     9408 
    9450     9498     9549     9589     9613     9628     9618     9575 
    9506     9405     9269     9104     8926     8748     8583     8433 
    8311     8230     8194     8201     8251     8345     8487     8668 
    8876     9100     9346     9614     9875    10115    10336    10517 
   10647    10733    10763    10725    10631    10482    10287    10066 
    9844     9620     9408     9225     9058     8916     8830     8785 
    8793     8872     8974     9090     9248     9409     9559     9711 
    9833     9922    10006    10079    10157    10230    10262    10274 
   10264    10208    10137    10065     9996     9946     9921     9906 
    9888     9860     9813     9749     9672     9582     9508     9466 
    9456     9472     9495     9529     9578     9634     9715     9817 
    9937    10088    10243    10388    10530    10642    10716    10758 
   10759    10720    10635    10497    10309    10084     9846     9612 
    9393     9216     9081     8986     8946     8957     9024     9150 
    9300     9458     9637     9829    10035    10272    10497    10693 
   10883    11030    11122    11186    11203    11175    11125    11033 
   10897    10732    10542    10346    10157     9981     9819     9674 
    9543     9416     9286     9155     9019     8896     8791     8696 
    8617     8540     8472     8434     8426     8446     8488     8549 
    8649     8792     8959     9163     9394     9632     9880    10133 
   10380    10616    10814    10963    11049    11064    11021    10933 
   10820    10696    10571    10450    10322    10196    10071     9931 
    9779     9609     9424     9234     9039     8860     8708     8580 
    8473     8372     8270     8170     8066     7958     7850     7744 
    7655     7597     7576     7603     7674     7784     7913     8047 
    8185     8325     8451     8559     8646     8718     8770     8791 
    8792     8779     8743     8694     8631     8554     8464     8383 
    8329     8293     8287     8310     8345     8409     8492     8575 
    8656     8734     8807     8862     8892     8897     8877     8843 
    8807     8777     8779     8807     8845     8901     8970     9040 
    9113     9197     9293     9402     9522     9641     9741     9810 
    9852     9867     9850     9815     9783     9760     9741     9740 
    9760     9790     9828     9863     9877     9880     9861     9810 
    9741     9651     9531     9387     9238     9086     8922     8742 
    8576     8422     8293     8205     8162     8170     8230     8328 
    8472     8669     8891     9111     9319     9490     9603     9666 
    9679     9641     9564     9477     9390     9306     9240     9201 
    9161     9119     9084     9045     9000     8957     8937     8942 
    8969     9034     9123     9217     9316     9400     9474     9544 
    9591     9629     9663     9699     9747     9801     9860     9906 
    9938     9983    10008    10023    10058    10080    10110    10181 
   10257    10350    10489    10642    10791    10940    11071    11192 
   11311    11412    11479    11520    11565    11600    11605    11577 
   11526    11460    11353    11190    11030    10879    10673    10462 
   10291    10102     9919     9799     9698     9639     9661     9691 
    9701     9730     9765     9799     9821     9811     9828     9864 
    9842     9790     9733     9628     9471     9286     9112     8964 
    8819     8714     8679     8687     8761     8893     9040     9221 
    9428     9624     9819     9998    10149    10288    10399    10489 
   10577    10638    10678    10690    10658    10609    10536    10407 
   10270    10160    10062    10022    10056    10134    10237    10341 
   10424    10477    10486    10465    10408    10307    10166     9985 
    9783     9599     9439     9316     9247     9225     9261     9363 
    9513     9697     9896    10080    10228    10322    10372    10399 
   10381    10322    10237    10104     9933     9737     9494     9220 
    8954     8689     8434     8217     8054     7963     7935     7943 
    7998     8078     8156     8245     8332     8426     8534     8630 
    8730     8856     8984     9138     9332     9543     9767    10010 
   10241    10439    10604    10713    10760    10750    10662    10493 
   10277    10027     9741     9464     9228     9039     8916     8883 
    8918     8995     9115     9262     9418     9583     9744     9894 
   10022    10116    10173    10172    10104     9984     9821     9624 
    9412     9197     8988     8802     8648     8536     8468     8425 
    8406     8418     8440     8463     8510     8577     8658     8758 
    8865     8972     9093     9217     9346     9491     9648     9811 
    9969    10116    10264    10400    10504    10590    10660    10694 
   10710    10705    10670    10612    10508    10358    10210    10064 
    9907     9779     9682     9589     9524     9485     9418     9343 
    9252     9113     8970     8829     8679     8571     8478     8378 
    8309     8247     8172     8097     8001     7902     7834     7781 
    7753     7767     7794     7831     7892     7955     8041     8174 
    8328     8518     8733     8935     9140     9320     9443     9532 
    9571     9552     9509     9431     9310     9193     9082     8949 
    8812     8683     8542     8413     8311     8236     8209     8214 
    8236     8298     8378     8452     8549     8642     8734     8850 
    8964     9086     9244     9425     9643     9883    10111    10327 
   10515    10650    10741    10797    10809    10786    10737    10646 
   10512    10369    10216    10053     9919     9828     9776     9782 
    9848     9960    10114    10289    10459    10620    10746    10808 
   10836    10839    10800    10737    10663    10584    10517    10453 
   10400    10399    10423    10461    10539    10644    10764    10903 
   11022    11097    11148    11173    11160    11115    11036    10921 
   10768    10570    10334    10064     9774     9466     9138     8802 
    8486     8213     7977     7774     7612     7487     7400     7365 
    7354     7366     7407     7458     7546     7678     7811     7966 
    8158     8345     8537     8727     8874     8988     9080     9154 
    9235     9320     9418     9549     9699     9857    10015    10154 
   10282    10416    10532    10617    10675    10701    10712    10714 
   10677    10609    10528    10415    10291    10161    10008     9849 
    9690     9524     9375     9254     9150     9058     8976     8901 
    8843     8799     8769     8764     8776     8777     8783     8819 
    8876     8965     9086     9205     9325     9437     9526     9595 
    9629     9628     9594     9513     9387     9244     9100     8961 
    8846     8787     8779     8819     8899     9004     9139     9289 
    9420     9540     9651     9728     9752     9729     9651     9521 
    9377     9242     9127     9069     9066     9121     9254     9447 
    9684     9984    10316    10666    11021    11338    11595    11793 
   11912    11950    11907    11767    11551    11280    10952    10579 
   10176     9747     9310     8893     8496     8132     7836     7622 
    7470     7388     7399     7507     7695     7954     8263     8586 
    8915     9242     9543     9809    10069    10318    10515    10685 
   10822    10890    10920    10901    10817    10705    10562    10397 
   10233    10045     9841     9639     9432     9258     9121     8986 
    8884     8835     8795     8753     8731     8711     8689     8679 
    8671     8687     8725     8756     8797     8881     9015     9197 
    9412     9666     9967    10293    10650    11030    11402    11762 
   12098    12352    12528    12646    12671    12615    12498    12287 
   12001    11641    11199    10728    10235     9721     9220     8738 
    8279     7878     7531     7237     6986     6775     6610     6501 
    6447     6448     6493     6571     6681     6836     7033     7249 
    7492     7774     8085     8432     8816     9208     9603     9992 
   10341    10642    10898    11101    11240    11283    11230    11121 
   10951    10701    10401    10071     9717     9385     9113     8919 
    8811     8764     8779     8872     9009     9174     9352     9506 
    9640     9756     9844     9934    10021    10085    10153    10195 
   10201    10222    10238    10250    10276    10268    10235    10210 
   10146    10039     9923     9772     9570     9337     9067     8761 
    8451     8131     7807     7547     7352     7206     7138     7153 
    7253     7445     7727     8074     8455     8869     9319     9776 
   10218    10625    10971    11263    11506    11681    11794    11855 
   11859    11811    11730    11622    11458    11242    10982    10679 
   10353    10015     9664     9289     8912     8567     8257     8002 
    7815     7686     7626     7614     7647     7774     7977     8252 
    8625     9040     9468     9925    10341    10682    10959    11119 
   11178    11176    11103    10975    10804    10575    10309    10030 
    9753     9528     9359     9209     9103     9066     9059     9096 
    9196     9278     9337     9425     9531     9670     9841     9963 
   10056    10196    10345    10482    10605    10654    10665    10690 
   10694    10682    10652    10585    10511    10447    10385    10311 
   10212    10122    10068    10035    10004     9949     9863     9751 
    9630     9553     9479     9321     9135     8965     8765     8577 
    8422     8243     8070     7920     7784     7716     7696     7682 
    7693     7703     7720     7742     7734     7739     7761     7769 
    7801     7838     7871     7951     8052     8182     8397     8696 
    9061     9485     9954    10420    10856    11273    11628    11858 
   11985    12054    12036    11917    11731    11468    11137    10808 
   10481    10098     9693     9305     8924     8592     8332     8102 
    7908     7749     7624     7591     7670     7827     8009     8186 
    8378     8580     8787     9015     9211     9327     9408     9486 
    9562     9641     9688     9668     9589     9491     9445     9498 
    9603     9698     9771     9795     9767     9726     9645     9506 
    9354     9180     8978     8797     8649     8534     8483     8484 
    8509     8604     8812     9065     9342     9660     9979    10272 
   10532    10755    10948    11101    11205    11271    11291    11265 
   11187    11049    10879    10673    10434    10227    10061     9890 
    9733     9587     9439     9321     9217     9104     9024     8982 
    8995     9086     9167     9228     9339     9477     9644     9819 
    9936    10017    10068    10069    10053    10018     9992    10017 
   10031     9996     9925     9815     9675     9505     9319     9143 
    8950     8738     8575     8444     8313     8236     8212     8212 
    8253     8343     8453     8565     8712     8920     9143     9385 
    9674     9973    10266    10528    10716    10856    10962    11010 
   11017    10993    10943    10852    10700    10525    10335    10107 
    9925     9796     9647     9497     9343     9146     8934     8699 
    8456     8274     8125     7970     7825     7690     7592     7503 
    7403     7361     7369     7379     7435     7564     7767     8070 
    8419     8769     9107     9440     9795    10108    10326    10509 
   10686    10864    11060    11221    11345    11507    11677    11842 
   12013    12159    12309    12483    12644    12816    12947    13008 
   13078    13115    13068    13001    12910    12776    12633    12463 
   12264    12037    11751    11454    11157    10817    10488    10184 
    9838     9460     9089     8731     8445     8243     8082     7966 
    7889     7851     7873     7947     8083     8289     8533     8833 
    9196     9572     9964    10355    10679    10953    11221    11481 
   11755    12017    12213    12337    12383    12341    12228    12036 
   11785    11506    11176    10818    10462    10099     9757     9444 
    9134     8841     8599     8419     8278     8152     8041     7928 
    7816     7750     7727     7713     7715     7727     7778     7915 
    8109     8336     8617     8951     9321     9699    10042    10312 
   10504    10648    10752    10809    10810    10727    10562    10349 
   10103     9811     9468     9096     8746     8468     8274     8128 
    7992     7859     7758     7727     7750     7769     7770     7785 
    7809     7823     7840     7879     7946     8037     8124     8212 
    8329     8457     8581     8702     8835     8955     9005     8981 
    8920     8839     8753     8642     8476     8278     8058     7835 
    7642     7481     7383     7344     7327     7354     7427     7530 
    7680     7877     8082     8264     8387     8430     8403     8325 
    8190     8013     7817     7622     7479     7431     7457     7549 
    7704     7878     8100     8406     8719     9003     9255     9433 
    9533     9564     9517     9414     9270     9104     8941     8785 
    8658     8571     8509     8507     8575     8677     8820     8985 
    9150     9317     9458     9543     9597     9655     9699     9711 
    9741     9794     9828     9888    10011    10162    10358    10601 
   10831    11026    11217    11389    11538    11662    11749    11807 
   11831    11803    11740    11649    11516    11371    11209    11057 
   11007    11045    11094    11180    11340    11537    11747    11958 
   12131    12263    12352    12372    12332    12247    12098    11875 
   11637    11433    11246    11068    10898    10741    10635    10567 
   10485    10399    10316    10228    10139    10022     9868     9683 
    9466     9259     9063     8860     8687     8559     8451     8372 
    8324     8290     8291     8359     8494     8698     8992     9337 
    9657     9909    10087    10218    10324    10370    10332    10276 
   10226    10116     9931     9722     9518     9343     9162     8953 
    8789     8718     8711     8756     8815     8865     8953     9082 
    9189     9265     9325     9367     9362     9293     9192     9069 
    8900     8668     8378     8094     7851     7614     7430     7318 
    7231     7236     7312     7341     7431     7636     7798     7978 
    8230     8430     8665     9011     9316     9612     9981    10341 
   10724    11159    11554    11939    12313    12594    12807    12961 
   13014    12970    12830    12586    12258    11871    11438    10968 
   10494    10049     9641     9275     8945     8648     8394     8203 
    8077     7997     7981     8021     8089     8191     8337     8536 
    8779     8976     9143     9375     9566     9659     9760     9817 
    9830     9883     9923     9937     9929     9894     9872     9844 
    9787     9715     9609     9486     9383     9309     9273     9275 
    9292     9310     9367     9460     9572     9724     9886    10041 
   10224    10431    10654    10886    11071    11205    11317    11377 
   11372    11314    11182    10987    10766    10534    10308    10107 
    9915     9729     9556     9398     9259     9153     9082     9027 
    8997     9001     9016     9019     9007     8988     8976     8943 
    8872     8818     8768     8661     8541     8445     8356     8272 
    8145     7943     7730     7541     7380     7244     7105     6983 
    6889     6758     6616     6524     6469     6482     6613     6832 
    7107     7420     7753     8124     8532     8941     9343     9740 
   10088    10381    10646    10866    11032    11146    11194    11163 
   11068    10909    10692    10450    10188     9902     9605     9302 
    9016     8773     8579     8438     8353     8307     8322     8418 
    8598     8862     9175     9521     9922    10350    10758    11164 
   11572    11943    12243    12476    12637    12717    12726    12671 
   12550    12406    12258    12064    11821    11566    11303    11010 
   10686    10361    10100     9925     9778     9648     9556     9508 
    9510     9555     9598     9637     9690     9763     9857     9992 
   10174    10381    10600    10814    11016    11217    11399    11535 
   11647    11755    11853    11919    11912    11794    11569    11260 
   10899    10528    10162     9796     9447     9119     8799     8506 
    8264     8062     7886     7739     7597     7469     7387     7362 
    7404     7489     7581     7665     7734     7773     7820     7916 
    8058     8249     8465     8642     8779     8883     8966     9105 
    9321     9551     9744     9872     9931     9923     9859     9784 
    9722     9641     9536     9400     9232     9076     8938     8818 
    8739     8684     8617     8542     8455     8347     8244     8151 
    8056     7970     7870     7744     7626     7534     7469     7457 
    7496     7555     7653     7801     7981     8199     8460     8719 
    8965     9194     9367     9487     9582     9632     9645     9641 
    9618     9575     9528     9493     9456     9404     9331     9231 
    9112     8969     8784     8575     8360     8136     7927     7738 
    7581     7491     7445     7430     7473     7573     7716     7915 
    8171     8478     8838     9248     9705    10191    10689    11199 
   11701    12154    12542    12847    13038    13113    13073    12911 
   12653    12309    11870    11358    10800    10220     9661     9135 
