Origin Time       2025/01/13 21:19:00
Lat.              31.8
Long.             131.6
Depth. (km)       30
Mag.              6.9
Station Code      NGS010
Station Lat.      32.7351
Station Long.     129.8765
Station Height(m) 77
Record Time       2025/01/13 21:20:26
Sampling Freq(Hz) 100Hz
Duration Time(s)  69
Dir.              N-S
Scale Factor      7845(gal)/8223790
Max. Acc. (gal)   1.651
Last Correction   2025/01/13 21:20:27
Memo.             
    8689     8487     8187     7817     7561     7501     7582     7753 
    7969     8171     8279     8263     8121     7873     7642     7462 
    7311     7292     7434     7647     7870     8059     8252     8395 
    8294     8025     7861     7832     7842     7843     7825     7824 
    7848     7919     8023     8162     8413     8648     8703     8644 
    8449     8117     7832     7724     7788     7836     7807     7839 
    7877     7808     7666     7585     7720     7973     8176     8266 
    8198     8031     7797     7578     7599     7855     8151     8340 
    8317     8090     7746     7412     7267     7389     7665     7911 
    8074     8249     8425     8437     8309     8209     8098     7923 
    7832     7908     8024     8137     8316     8463     8451     8268 
    7954     7641     7406     7253     7279     7472     7701     7913 
    8077     8155     8139     7998     7798     7731     7776     7815 
    7938     8156     8387     8567     8613     8517     8275     7959 
    7763     7711     7726     7854     8074     8260     8329     8309 
    8289     8263     8182     8094     8031     7911     7823     7975 
    8306     8565     8626     8530     8344     8043     7686     7469 
    7433     7466     7539     7659     7746     7750     7754     7797 
    7786     7699     7707     7919     8203     8384     8442     8414 
    8293     8124     8006     7966     7975     7973     7928     7878 
    7776     7618     7565     7627     7715     7904     8178     8328 
    8283     8155     8054     8068     8271     8610     8938     9096 
    8986     8642     8213     7894     7807     7897     8004     7950 
    7704     7438     7287     7317     7601     8040     8430     8650 
    8633     8418     8158     7955     7870     7921     8025     8079 
    8055     7965     7863     7836     7820     7777     7740     7615 
    7422     7277     7236     7385     7685     7940     8033     8033 
    8019     7974     7915     7943     8081     8182     8179     8106 
    7975     7890     7929     8039     8197     8374     8405     8172 
    7812     7489     7291     7260     7435     7749     7971     8091 
    8164     8098     8040     8136     8283     8484     8723     8895 
    8954     8799     8383     7838     7379     7182     7261     7553 
    7952     8294     8461     8502     8499     8453     8344     8198 
    8101     7971     7796     7743     7819     8037     8313     8442 
    8428     8278     7992     7641     7308     7129     7133     7161 
    7200     7334     7501     7739     8086     8448     8700     8764 
    8668     8413     8002     7589     7294     7222     7472     7835 
    8136     8387     8375     7998     7488     7034     6778     6872 
    7315     7974     8648     9066     9089     8800     8324     7893 
    7753     7794     7863     7996     8135     8270     8492     8746 
    8873     8893     8826     8625     8425     8257     7987     7581 
    7187     7123     7414     7797     8226     8565     8559     8275 
    7915     7614     7503     7609     7844     8113     8355     8496 
    8461     8241     7898     7573     7447     7560     7815     8040 
    8066     7974     7955     8023     8164     8383     8587     8661 
    8592     8456     8284     8098     7982     7992     8154     8418 
    8576     8521     8311     7956     7506     7142     6984     6987 
    7138     7464     7850     8228     8617     8856     8803     8559 
    8236     7927     7746     7747     7869     7939     7870     7704 
    7491     7318     7275     7298     7285     7333     7500     7678 
    7870     8094     8256     8341     8351     8195     7893     7570 
    7269     7063     7044     7148     7339     7639     7973     8240 
    8343     8252     8079     7920     7790     7695     7661     7758 
    8021     8359     8596     8625     8422     8095     7815     7615 
    7481     7464     7555     7708     7896     8093     8305     8515 
    8660     8650     8444     8097     7731     7485     7458     7614 
    7852     8113     8365     8575     8677     8662     8550     8409 
    8361     8390     8432     8517     8583     8613     8691     8802 
    8897     8891     8630     8144     7612     7226     7157     7500 
    8124     8758     9186     9255     8949     8421     7848     7411 
    7281     7452     7784     8129     8344     8399     8325     8172 
    8028     7950     7956     8050     8203     8336     8395     8397 
    8409     8449     8421     8284     8124     8017     7986     8039 
    8105     8110     8094     8050     7940     7821     7703     7581 
    7488     7487     7680     8033     8348     8525     8542     8395 
    8182     8017     7960     8013     8067     8032     7896     7716 
    7638     7670     7673     7600     7474     7346     7345     7519 
    7809     8147     8436     8603     8615     8465     8175     7793 
    7387     7017     6758     6710     6928     7314     7663     7855 
    7865     7762     7650     7558     7504     7457     7365     7292 
    7300     7410     7611     7832     8036     8158     8105     7909 
    7607     7280     7130     7269     7677     8202     8599     8766 
    8711     8472     8168     7863     7574     7403     7418     7631 
    8009     8409     8708     8903     9000     8978     8775     8401 
    8002     7707     7650     7901     8290     8613     8707     8503 
    8158     7854     7627     7518     7569     7742     7989     8257 
    8500     8687     8737     8608     8378     8141     7971     7916 
    7954     8051     8203     8397     8553     8607     8532     8286 
    7911     7542     7283     7196     7315     7609     8005     8405 
    8703     8792     8619     8311     8043     7813     7646     7628 
    7740     7951     8194     8338     8340     8191     7960     7797 
    7736     7770     7894     8009     8070     8148     8307     8537 
    8722     8739     8561     8247     7890     7574     7381     7384 
    7566     7862     8181     8403     8445     8276     7916     7523 
    7295     7291     7462     7728     7981     8101     7967     7654 
    7392     7272     7285     7415     7573     7707     7785     7794 
    7844     7938     7927     7749     7456     7188     7052     7076 
    7329     7776     8202     8430     8444     8349     8193     7956 
    7722     7603     7608     7636     7630     7662     7774     7888 
    7969     8089     8267     8378     8309     8097     7848     7615 
    7407     7288     7341     7554     7840     8152     8453     8656 
    8715     8684     8627     8565     8499     8440     8370     8276 
    8183     8101     8027     7969     7943     7954     7959     7933 
    7963     8163     8532     8870     8935     8704     8382     8158 
    8097     8148     8185     8114     7932     7674     7434     7335 
    7449     7749     8131     8488     8721     8764     8646     8436 
    8176     7954     7893     8017     8224     8394     8432     8289 
    8047     7870     7840     7939     8108     8283     8387     8356 
    8216     8028     7823     7630     7543     7618     7742     7769 
    7672     7508     7381     7362     7457     7655     7898     8070 
    8117     8098     8122     8244     8392     8475     8455     8307 
    8025     7672     7349     7132     7068     7225     7623     8140 
    8554     8704     8596     8349     8067     7840     7755     7827 
    7974     8140     8283     8336     8298     8284     8360     8479 
    8554     8556     8498     8387     8221     8023     7821     7665 
    7662     7923     8368     8746     8889     8785     8465     8019 
    7655     7569     7794     8181     8491     8579     8433     8144 
    7878     7754     7753     7807     7881     7943     7954     7890 
    7771     7619     7458     7334     7295     7339     7445     7588 
    7746     7925     8120     8278     8380     8444     8457     8399 
    8264     8090     7950     7927     8032     8170     8226     8179 
    8081     8002     8000     8082     8213     8320     8318     8158 
    7912     7740     7730     7854     8046     8236     8345     8314 
    8171     8025     7981     8095     8348     8580     8586     8270 
    7734     7215     6928     6940     7175     7485     7766     7982 
    8105     8105     7985     7789     7564     7372     7299     7354 
    7496     7673     7797     7803     7701     7547     7408     7345 
    7364     7431     7547     7746     8019     8291     8429     8307 
    7963     7605     7411     7400     7501     7676     7889     8093 
    8255     8374     8442     8418     8255     7970     7638     7331 
    7130     7094     7217     7437     7686     7932     8148     8287 
    8326     8283     8163     7987     7823     7738     7757     7863 
    8009     8089     8051     7986     8013     8162     8394     8614 
    8716     8648     8425     8182     8091     8176     8311     8380 
    8326     8131     7861     7663     7631     7719     7863     8089 
    8392     8657     8775     8787     8818     8877     8866     8743 
    8544     8283     7983     7735     7630     7690     7889     8176 
    8451     8580     8527     8363     8160     7942     7708     7474 
    7256     7101     7091     7237     7443     7587     7574     7412 
    7221     7115     7118     7215     7398     7614     7794     7904 
    7940     7931     7908     7867     7778     7641     7537     7565 
    7720     7890     7955     7874     7695     7477     7281     7186 
    7252     7469     7770     8060     8283     8442     8579     8703 
    8795     8841     8862     8888     8916     8912     8816     8572 
    8229     7960     7882     7958     8087     8187     8208     8102 
    7859     7545     7263     7114     7161     7415     7798     8140 
    8301     8251     8027     7734     7573     7684     7990     8298 
    8441     8357     8139     7946     7896     7989     8133     8275 
    8380     8401     8353     8311     8299     8303     8313     8338 
    8386     8452     8509     8534     8519     8457     8340     8139 
    7857     7573     7419     7497     7790     8160     8456     8600 
    8598     8487     8297     8083     7946     7958     8091     8252 
    8356     8376     8364     8378     8370     8290     8179     8078 
    7982     7871     7731     7589     7531     7573     7624     7608 
    7512     7389     7344     7450     7700     8000     8217     8266 
    8181     8044     7915     7828     7794     7786     7770     7701 
    7564     7435     7434     7605     7898     8212     8446     8530 
    8444     8252     8077     8025     8106     8222     8295     8321 
    8318     8293     8259     8212     8155     8120     8104     8105 
    8132     8155     8109     7986     7824     7688     7611     7599 
    7666     7801     7933     7992     7966     7894     7834     7813 
    7816     7805     7785     7805     7889     7989     8029     7978 
    7851     7713     7623     7628     7762     7978     8186     8322 
    8370     8367     8391     8461     8500     8413     8187     7898 
    7646     7547     7672     7931     8151     8235     8181     8035 
    7869     7750     7713     7739     7784     7815     7823     7813 
    7804     7812     7873     8025     8245     8430     8495     8448 
    8340     8218     8129     8082     8054     7996     7888     7781 
    7743     7763     7832     7986     8175     8259     8208     8095 
    7985     7923     7946     8063     8235     8367     8386     8305 
    8155     7939     7712     7553     7470     7450     7523     7676 
    7854     8025     8154     8183     8077     7862     7635     7484 
    7431     7457     7538     7638     7719     7785     7867     7938 
    7908     7708     7385     7072     6880     6855     6990     7230 
    7501     7734     7923     8101     8232     8282     8299     8311 
    8299     8253     8209     8244     8363     8488     8557     8540 
    8455     8353     8257     8191     8178     8217     8291     8361 
    8387     8352     8278     8203     8137     8060     7960     7815 
    7636     7537     7597     7769     7987     8203     8305     8214 
    7942     7560     7199     7003     7047     7299     7614     7846 
    7932     7885     7777     7697     7695     7774     7882     7960 
    8028     8095     8156     8253     8414     8584     8692     8723 
    8684     8594     8479     8353     8267     8287     8417     8611 
    8799     8912     8914     8768     8480     8139     7842     7642 
    7593     7717     7911     8020     7959     7735     7442     7209 
    7090     7072     7132     7210     7249     7269     7280     7250 
    7183     7119     7083     7067     7072     7092     7102     7113 
    7167     7291     7472     7680     7882     8009     8006     7911 
    7817     7830     7990     8249     8502     8677     8734     8631 
    8390     8094     7831     7674     7682     7817     8025     8287 
    8565     8847     9146     9410     9590     9695     9726     9648 
    9460     9234     9057     8955     8900     8864     8827     8791 
    8746     8671     8565     8449     8343     8256     8178     8094 
    8006     7924     7863     7854     7871     7840     7734     7589 
    7462     7403     7453     7609     7817     8008     8133     8143 
    7993     7703     7371     7110     6967     6921     6986     7176 
    7430     7689     7916     8062     8100     8085     8105     8179 
    8248     8301     8394     8560     8773     8984     9143     9221 
    9207     9103     8912     8653     8363     8097     7898     7780 
    7727     7697     7680     7715     7786     7828     7777     7645 
    7524     7484     7516     7616     7793     8031     8253     8364 
    8309     8110     7847     7618     7520     7620     7886     8179 
    8378     8455     8437     8401     8424     8519     8660     8806 
    8905     8908     8814     8665     8517     8378     8229     8098 
    8055     8098     8164     8195     8148     8012     7824     7627 
    7449     7317     7237     7190     7192     7280     7453     7681 
    7925     8147     8311     8361     8249     8016     7777     7642 
    7658     7836     8105     8344     8482     8500     8407     8276 
    8202     8226     8299     8325     8241     8073     7893     7770 
    7742     7793     7850     7843     7753     7619     7504     7439 
    7431     7491     7612     7742     7839     7912     7950     7921 
    7836     7757     7750     7825     7923     7987     8019     8027 
    8025     8040     8077     8100     8073     7987     7884     7821 
    7842     7911     7946     7897     7750     7503     7225     6995 
    6845     6809     6912     7101     7318     7496     7547     7468 
    7318     7165     7106     7183     7342     7530     7709     7847 
    7921     7929     7909     7908     7913     7870     7755     7642 
    7589     7597     7670     7790     7897     7954     7954     7913 
    7862     7801     7720     7655     7651     7726     7858     8001 
    8113     8176     8186     8144     8070     8013     8017     8066 
    8139     8228     8318     8417     8518     8607     8703     8781 
    8784     8712     8592     8434     8243     8036     7893     7896 
    8020     8162     8251     8263     8217     8164     8145     8168 
    8210     8225     8185     8106     8032     8006     8059     8167 
    8264     8295     8257     8181     8101     8083     8152     8235 
    8249     8172     8027     7854     7717     7655     7632     7574 
    7454     7300     7148     7044     7056     7231     7524     7827 
    8066     8241     8378     8484     8545     8536     8457     8356 
    8286     8276     8332     8417     8442     8351     8158     7944 
    7803     7758     7811     7955     8145     8313     8434     8486 
    8418     8243     8044     7901     7835     7819     7855     7983 
    8171     8341     8473     8554     8563     8511     8442     8418 
    8469     8564     8660     8726     8766     8812     8845     8847 
    8842     8795     8680     8534     8384     8240     8128     8063 
    8033     8019     8002     7993     7994     7996     7970     7888 
    7765     7651     7582     7584     7668     7798     7929     8036 
    8104     8122     8078     7996     7938     7915     7908     7921 
    7929     7911     7875     7847     7840     7854     7877     7901 
    7906     7877     7820     7773     7774     7832     7932     8041 
    8101     8090     8056     8047     8066     8090     8091     8073 
    8060     8063     8067     8070     8064     8032     7965     7838 
    7653     7474     7349     7306     7357     7464     7580     7676 
    7730     7757     7774     7780     7782     7831     7950     8102 
    8228     8284     8257     8175     8063     7944     7854     7830 
    7834     7809     7755     7692     7634     7626     7678     7750 
    7808     7827     7786     7731     7739     7850     8051     8274 
    8434     8498     8467     8374     8294     8275     8278     8251 
    8194     8154     8193     8316     8445     8522     8536     8487 
    8401     8309     8237     8199     8195     8210     8195     8125 
    8031     7963     7954     8012     8122     8248     8341     8368 
    8309     8164     7993     7879     7865     7917     7955     7915 
    7796     7630     7445     7298     7242     7304     7461     7638 
    7739     7701     7558     7400     7300     7268     7257     7242 
    7231     7219     7245     7337     7452     7546     7600     7577 
    7470     7323     7207     7168     7234     7399     7619     7827 
    7974     8051     8032     7983     8020     8082     8167     8406 
    8683     8826     8897     8962     9011     9011     8972     8953 
    8950     8957     9027     9134     9182     9178     9209     9262 
    9242     9151     9034     8900     8743     8590     8495     8448 
    8405     8375     8313     8145     7913     7712     7615     7655 
    7808     8012     8175     8226     8182     8089     7970     7838 
    7734     7693     7700     7720     7731     7735     7773     7863 
    7994     8105     8108     7977     7766     7550     7404     7387 
    7514     7735     7967     8141     8203     8087     7797     7460 
    7210     7094     7078     7115     7186     7261     7292     7257 
    7188     7126     7084     7056     7029     7001     6993     7047 
    7191     7410     7627     7747     7739     7670     7609     7585 
    7611     7663     7703     7735     7770     7816     7893     7992 
    8093     8197     8271     8278     8213     8110     8017     7975 
    7979     7997     8032     8077     8098     8085     8041     7974 
    7894     7827     7808     7840     7879     7886     7857     7790 
    7677     7558     7510     7555     7663     7785     7873     7893 
    7832     7704     7564     7507     7603     7844     8144     8418 
    8617     8691     8623     8456     8251     8070     7952     7917 
    7973     8100     8247     8363     8438     8484     8509     8502 
    8442     8333     8201     8079     8028     8075     8194     8359 
    8506     8554     8463     8241     7958     7703     7538     7472 
