Origin Time       2025/01/13 21:19:00
Lat.              31.8
Long.             131.6
Depth. (km)       30
Mag.              6.9
Station Code      NGS003
Station Lat.      33.2016
Station Long.     129.4124
Station Height(m) 25
Record Time       2025/01/13 21:20:57
Sampling Freq(Hz) 100Hz
Duration Time(s)  60
Dir.              E-W
Scale Factor      7845(gal)/8223790
Max. Acc. (gal)   1.453
Last Correction   2025/01/13 21:20:58
Memo.             
[...]
   -7334    -7269    -7213    -7172    -7161    -7188    -7241    -7308 
   -7381    -7446    -7493    -7511    -7487    -7427    -7339    -7234 
   -7121    -7010    -6921    -6863    -6840    -6855    -6913    -7013 
   -7136    -7265    -7391    -7491    -7543    -7537    -7450    -7273 
   -7026    -6732    -6419    -6124    -5884    -5728    -5674    -5736 
   -5908    -6168    -6474    -6789    -7076    -7298    -7431    -7468 
   -7407    -7257    -7041    -6787    -6529    -6292    -6089    -5933 
   -5823    -5753    -5718    -5713    -5736    -5786    -5850    -5925 
   -6011    -6102    -6195    -6291    -6378    -6455    -6509    -6528 
   -6512    -6473    -6411    -6327    -6230    -6130    -6035    -5949 
   -5869    -5798    -5749    -5728    -5728    -5748    -5780    -5817 
   -5856    -5902    -5944    -5976    -6000    -6015    -6007    -5981 
   -5940    -5881    -5817    -5749    -5683    -5634    -5610    -5611 
   -5648    -5722    -5821    -5941    -6068    -6197    -6323    -6434 
   -6519    -6570    -6581    -6552    -6496    -6419    -6326    -6230 
   -6139    -6062    -6011    -5995    -6021    -6079    -6157    -6255 
   -6376    -6509    -6635    -6735    -6787    -6778    -6713    -6600 
   -6451    -6284    -6118    -5985    -5917    -5922    -5998    -6127 
   -6296    -6489    -6677    -6826    -6916    -6933    -6879    -6770 
   -6623    -6465    -6323    -6223    -6177    -6196    -6273    -6385 
   -6511    -6642    -6759    -6840    -6872    -6862    -6806    -6717 
   -6610    -6496    -6385    -6289    -6220    -6188    -6196    -6242 
   -6319    -6415    -6525    -6648    -6770    -6883    -6984    -7063 
   -7111    -7129    -7114    -7074    -7022    -6970    -6926    -6894 
   -6876    -6867    -6864    -6870    -6878    -6894    -6906    -6909 
   -6906    -6903    -6895    -6886    -6875    -6860    -6845    -6831 
   -6817    -6812    -6813    -6818    -6829    -6847    -6867    -6890 
   -6913    -6941    -6974    -7006    -7038    -7063    -7071    -7057 
   -7024    -6970    -6907    -6849    -6801    -6767    -6754    -6756 
   -6770    -6790    -6810    -6817    -6795    -6745    -6677    -6594 
   -6508    -6426    -6358    -6323    -6327    -6372    -6462    -6586 
   -6732    -6890    -7042    -7160    -7230    -7245    -7192    -7080 
   -6916    -6713    -6494    -6286    -6115    -5991    -5921    -5921 
   -5987    -6115    -6286    -6473    -6650    -6802    -6905    -6941 
   -6914    -6824    -6681    -6504    -6315    -6141    -6007    -5923 
   -5899    -5944    -6049    -6188    -6338    -6477    -6579    -6628 
   -6623    -6571    -6485    -6381    -6278    -6195    -6146    -6146 
   -6192    -6273    -6381    -6501    -6609    -6700    -6774    -6821 
   -6829    -6817    -6787    -6741    -6691    -6643    -6602    -6588 
   -6601    -6637    -6698    -6779    -6878    -6991    -7098    -7182 
   -7236    -7257    -7240    -7176    -7074    -6943    -6782    -6606 
   -6442    -6301    -6199    -6145    -6141    -6184    -6270    -6388 
   -6523    -6655    -6764    -6840    -6868    -6845    -6767    -6647 
   -6515    -6384    -6265    -6185    -6161    -6187    -6264    -6380 
   -6509    -6632    -6737    -6818    -6868    -6882    -6856    -6791 
   -6700    -6594    -6494    -6409    -6354    -6330    -6339    -6378 
   -6440    -6516    -6596    -6674    -6741    -6789    -6809    -6806 
   -6789    -6759    -6731    -6706    -6686    -6677    -6669    -6655 
   -6628    -6586    -6527    -6454    -6374    -6301    -6246    -6220 
   -6232    -6280    -6355    -6454    -6562    -6663    -6747    -6808 
   -6837    -6829    -6791    -6736    -6673    -6605    -6550    -6517 
   -6504    -6508    -6520    -6532    -6539    -6535    -6515    -6498 
   -6500    -6515    -6535    -6563    -6604    -6648    -6685    -6702 
   -6694    -6664    -6621    -6569    -6509    -6447    -6396    -6365 
   -6366    -6399    -6451    -6519    -6597    -6683    -6767    -6833 
   -6882    -6905    -6894    -6864    -6814    -6740    -6660    -6583 
   -6516    -6462    -6431    -6426    -6448    -6488    -6528    -6565 
   -6596    -6616    -6621    -6616    -6602    -6581    -6559    -6542 
   -6532    -6542    -6569    -6613    -6674    -6744    -6820    -6899 
   -6967    -7022    -7063    -7084    -7078    -7049    -7002    -6940 
   -6872    -6798    -6716    -6637    -6570    -6505    -6440    -6384 
   -6334    -6292    -6270    -6273    -6293    -6326    -6355    -6377 
   -6400    -6419    -6427    -6421    -6396    -6349    -6288    -6208 
   -6115    -6018    -5925    -5846    -5792    -5768    -5782    -5830 
   -5913    -6019    -6131    -6239    -6331    -6393    -6416    -6396 
   -6332    -6243    -6149    -6064    -6000    -5967    -5958    -5981 
   -6029    -6088    -6154    -6218    -6269    -6311    -6343    -6373 
   -6411    -6451    -6490    -6538    -6598    -6671    -6754    -6840 
   -6917    -6980    -7030    -7060    -7068    -7052    -7005    -6932 
   -6843    -6739    -6633    -6539    -6458    -6400    -6372    -6372 
   -6399    -6458    -6544    -6648    -6762    -6872    -6972    -7052 
   -7106    -7134    -7125    -7076    -7006    -6916    -6809    -6705 
   -6631    -6602    -6625    -6690    -6791    -6906    -7009    -7084 
   -7122    -7103    -7034    -6925    -6779    -6606    -6428    -6268 
   -6143    -6066    -6038    -6056    -6110    -6197    -6307    -6421 
   -6540    -6658    -6754    -6825    -6876    -6894    -6879    -6839 
   -6778    -6704    -6628    -6562    -6519    -6504    -6515    -6542 
   -6579    -6619    -6656    -6690    -6713    -6728    -6744    -6770 
   -6808    -6862    -6934    -7018    -7101    -7175    -7230    -7260 
   -7258    -7227    -7167    -7084    -6982    -6868    -6756    -6655 
   -6570    -6507    -6465    -6446    -6447    -6465    -6494    -6528 
   -6555    -6574    -6586    -6575    -6542    -6500    -6451    -6397 
   -6340    -6285    -6241    -6210    -6197    -6200    -6208    -6227 
   -6266    -6316    -6369    -6421    -6465    -6486    -6490    -6466 
   -6404    -6311    -6191    -6058    -5927    -5805    -5699    -5629 
   -5605    -5640    -5738    -5883    -6050    -6216    -6359    -6463 
   -6513    -6509    -6457    -6370    -6259    -6143    -6053    -5999 
   -5981    -6006    -6072    -6172    -6297    -6440    -6579    -6689 
   -6755    -6772    -6737    -6662    -6562    -6446    -6332    -6249 
   -6207    -6212    -6265    -6357    -6478    -6616    -6755    -6882 
   -6983    -7042    -7060    -7038    -6987    -6914    -6832    -6750 
   -6671    -6600    -6546    -6515    -6507    -6524    -6565    -6616 
   -6675    -6743    -6806    -6858    -6894    -6910    -6916    -6922 
   -6932    -6948    -6979    -7029    -7096    -7173    -7242    -7292 
   -7311    -7290    -7221    -7106    -6944    -6748    -6555    -6384 
   -6246    -6161    -6135    -6169    -6253    -6367    -6500    -6633 
   -6755    -6849    -6902    -6916    -6886    -6810    -6693    -6544 
   -6382    -6230    -6093    -5979    -5892    -5840    -5829    -5863 
   -5944    -6061    -6200    -6349    -6496    -6633    -6750    -6841 
   -6905    -6934    -6944    -6934    -6912    -6883    -6847    -6805 
   -6766    -6732    -6718    -6732    -6766    -6812    -6871    -6934 
   -6990    -7028    -7037    -7011    -6945    -6849    -6739    -6633 
   -6550    -6504    -6505    -6550    -6635    -6750    -6868    -6979 
   -7068    -7128    -7159    -7159    -7125    -7068    -6998    -6924 
   -6853    -6798    -6754    -6718    -6696    -6677    -6656    -6646 
   -6643    -6648    -6669    -6704    -6752    -6818    -6897    -6970 
   -7026    -7061    -7068    -7041    -6982    -6893    -6783    -6659 
   -6536    -6435    -6358    -6318    -6316    -6342    -6393    -6473 
   -6566    -6660    -6755    -6836    -6893    -6922    -6924    -6898 
   -6855    -6795    -6720    -6642    -6567    -6497    -6440    -6404 
   -6384    -6372    -6369    -6366    -6351    -6323    -6281    -6228 
   -6178    -6134    -6099    -6084    -6087    -6103    -6119    -6134 
   -6151    -6168    -6178    -6192    -6201    -6210    -6219    -6228 
   -6245    -6272    -6303    -6334    -6365    -6397    -6430    -6465 
   -6505    -6547    -6583    -6613    -6636    -6648    -6650    -6639 
   -6613    -6570    -6505    -6424    -6330    -6227    -6130    -6050 
   -5995    -5972    -5984    -6034    -6115    -6215    -6328    -6436 
   -6523    -6575    -6590    -6567    -6511    -6423    -6318    -6214 
   -6129    -6076    -6065    -6099    -6164    -6262    -6384    -6500 
   -6601    -6679    -6720    -6724    -6700    -6648    -6577    -6498 
   -6423    -6365    -6334    -6328    -6338    -6358    -6381    -6399 
   -6404    -6400    -6389    -6377    -6372    -6374    -6381    -6397 
   -6419    -6443    -6469    -6485    -6482    -6465    -6434    -6392 
   -6339    -6281    -6235    -6205    -6196    -6208    -6232    -6265 
   -6318    -6381    -6454    -6542    -6642    -6748    -6862    -6975 
   -7079    -7168    -7241    -7290    -7312    -7308    -7269    -7199 
   -7109    -7009    -6913    -6835    -6778    -6739    -6718    -6718 
   -6728    -6733    -6727    -6712    -6683    -6646    -6602    -6556 
   -6516    -6484    -6467    -6471    -6486    -6505    -6532    -6561 
   -6588    -6620    -6648    -6664    -6669    -6662    -6640    -6609 
   -6571    -6521    -6466    -6415    -6367    -6332    -6316    -6318 
   -6340    -6389    -6459    -6538    -6619    -6691    -6752    -6791 
   -6805    -6790    -6743    -6675    -6602    -6532    -6474    -6435 
   -6413    -6409    -6432    -6477    -6529    -6583    -6628    -6650 
   -6636    -6593    -6528    -6453    -6370    -6292    -6232    -6197 
   -6191    -6210    -6243    -6274    -6295    -6301    -6296    -6273 
   -6232    -6185    -6133    -6076    -6025    -5984    -5954    -5937 
   -5938    -5964    -6018    -6095    -6189    -6291    -6392    -6485 
   -6565    -6620    -6644    -6636    -6597    -6534    -6454    -6374 
   -6312    -6276    -6269    -6299    -6362    -6442    -6523    -6598 
   -6660    -6694    -6698    -6673    -6620    -6550    -6471    -6393 
   -6320    -6258    -6210    -6178    -6166    -6180    -6210    -6251 
   -6305    -6372    -6446    -6524    -6608    -6697    -6781    -6845 
   -6891    -6913    -6898    -6844    -6764    -6671    -6574    -6481 
   -6405    -6351    -6320    -6319    -6342    -6381    -6430    -6474 
   -6500    -6502    -6480    -6434    -6367    -6293    -6224    -6168 
   -6130    -6124    -6147    -6196    -6276    -6385    -6509    -6632 
   -6750    -6849    -6917    -6947    -6944    -6917    -6870    -6817 
   -6771    -6733    -6717    -6727    -6752    -6793    -6843    -6890 
   -6928    -6949    -6951    -6928    -6882    -6812    -6725    -6632 
   -6535    -6440    -6363    -6304    -6258    -6237    -6238    -6258 
   -6305    -6374    -6461    -6563    -6675    -6790    -6902    -7002 
   -7084    -7145    -7179    -7188    -7188    -7184    -7188    -7203 
   -7223    -7250    -7280    -7294    -7279    -7233    -7155    -7045 
   -6916    -6775    -6637    -6519    -6432    -6386    -6382    -6420 
   -6496    -6594    -6694    -6787    -6868    -6929    -6968    -6990 
   -7002    -7020    -7042    -7078    -7137    -7217    -7310    -7408 
   -7497    -7576    -7643    -7688    -7696    -7676    -7631    -7566 
   -7484    -7383    -7273    -7171    -7075    -6988    -6917    -6858 
   -6806    -6770    -6744    -6723    -6708    -6694    -6678    -6667 
   -6658    -6647    -6647    -6662    -6683    -6709    -6733    -6759 
   -6781    -6785    -6770    -6744    -6710    -6678    -6660    -6662 
   -6682    -6724    -6787    -6866    -6941    -7005    -7045    -7052 
   -7018    -6943    -6831    -6685    -6523    -6359    -6208    -6080 
   -5977    -5910    -5880    -5883    -5903    -5934    -5967    -5995 
   -6014    -6022    -6021    -6010    -5995    -5979    -5960    -5950 
   -5950    -5954    -5960    -5967    -5976    -5988    -6002    -6022 
   -6049    -6073    -6103    -6139    -6176    -6218    -6261    -6300 
   -6343    -6381    -6408    -6420    -6413    -6388    -6347    -6299 
   -6253    -6212    -6177    -6160    -6162    -6181    -6220    -6272 
   -6320    -6359    -6380    -6377    -6353    -6312    -6261    -6201 
   -6147    -6108    -6093    -6108    -6151    -6222    -6312    -6412 
   -6509    -6601    -6675    -6727    -6755    -6760    -6750    -6733 
   -6714    -6702    -6694    -6682    -6669    -6656    -6642    -6624 
   -6602    -6578    -6552    -6521    -6480    -6432    -6384    -6331 
   -6282    -6239    -6200    -6164    -6126    -6083    -6039    -5994 
   -5942    -5881    -5815    -5748    -5682    -5621    -5575    -5540 
   -5513    -5501    -5506    -5524    -5553    -5602    -5661    -5728 
   -5799    -5865    -5926    -5985    -6034    -6070    -6099    -6118 
   -6134    -6150    -6157    -6156    -6153    -6146    -6138    -6127 
   -6114    -6107    -6104    -6104    -6116    -6149    -6201    -6280 
   -6378    -6486    -6604    -6725    -6841    -6948    -7032    -7092 
   -7132    -7145    -7129    -7091    -7034    -6964    -6885    -6802 
   -6727    -6669    -6633    -6621    -6637    -6687    -6768    -6876 
   -7013    -7164    -7312    -7437    -7531    -7587    -7600    -7577 
   -7527    -7462    -7407    -7372    -7368    -7402    -7470    -7569 
   -7688    -7808    -7917    -8010    -8074    -8095    -8081    -8037 
   -7967    -7875    -7771    -7668    -7570    -7484    -7414    -7358 
   -7319    -7294    -7276    -7260    -7249    -7245    -7249    -7250 
   -7254    -7256    -7244    -7221    -7188    -7140    -7084    -7025 
   -6964    -6910    -6872    -6855    -6863    -6897    -6949    -7026 
   -7122    -7217    -7296    -7354    -7381    -7366    -7310    -7221 
   -7109    -6990    -6878    -6783    -6724    -6705    -6725    -6779 
   -6859    -6951    -7038    -7106    -7141    -7132    -7071    -6971 
   -6844    -6702    -6563    -6438    -6334    -6250    -6181    -6129 
   -6084    -6038    -5989    -5938    -5886    -5833    -5784    -5748 
   -5730    -5737    -5771    -5818    -5876    -5931    -5975    -6010 
   -6031    -6035    -6033    -6025    -6014    -6021    -6049    -6093 
   -6153    -6219    -6280    -6328    -6353    -6347    -6305    -6228 
   -6124    -6004    -5880    -5772    -5692    -5653    -5661    -5719 
   -5823    -5956    -6103    -6242    -6350    -6417    -6438    -6403 
   -6312    -6183    -6030    -5876    -5744    -5651    -5609    -5620 
   -5684    -5794    -5933    -6088    -6242    -6376    -6480    -6544 
   -6573    -6565    -6519    -6448    -6363    -6272    -6191    -6130 
   -6085    -6065    -6070    -6102    -6149    -6201    -6254    -6301 
   -6346    -6388    -6427    -6462    -6493    -6523    -6544    -6561 
   -6575    -6592    -6612    -6633    -6651    -6670    -6685    -6689 
   -6686    -6679    -6659    -6633    -6608    -6577    -6540    -6509 
   -6482    -6463    -6463    -6475    -6500    -6543    -6597    -6652 
   -6700    -6736    -6751    -6739    -6700    -6639    -6558    -6467 
   -6382    -6305    -6246    -6214    -6203    -6218    -6259    -6312 
   -6373    -6442    -6509    -6573    -6620    -6658    -6693    -6718 
   -6736    -6752    -6762    -6766    -6774    -6787    -6797    -6806 
   -6824    -6849    -6882    -6921    -6961    -7001    -7036    -7064 
   -7086    -7102    -7118    -7138    -7165    -7196    -7233    -7283 
   -7345    -7404    -7452    -7485    -7503    -7492    -7456    -7396 
   -7319    -7237    -7156    -7079    -7015    -6971    -6948    -6944 
   -6959    -6990    -7028    -7072    -7121    -7172    -7221    -7263 
   -7298    -7317    -7310    -7291    -7261    -7214    -7153    -7087 
   -7013    -6934    -6859    -6791    -6735    -6690    -6660    -6642 
   -6623    -6601    -6581    -6559    -6532    -6507    -6478    -6446 
   -6417    -6394    -6378    -6369    -6363    -6362    -6361    -6355 
   -6354    -6354    -6359    -6373    -6393    -6420    -6450    -6481 
   -6515    -6546    -6567    -6578    -6579    -6563    -6535    -6500 
   -6461    -6421    -6385    -6357    -6332    -6313    -6305    -6300 
   -6292    -6286    -6291    -6300    -6311    -6326    -6343    -6361 
   -6382    -6408    -6427    -6438    -6443    -6439    -6424    -6405 
   -6382    -6353    -6323    -6296    -6269    -6250    -6247    -6254 
   -6276    -6312    -6363    -6417    -6471    -6534    -6593    -6636 
   -6666    -6681    -6670    -6643    -6600    -6536    -6466    -6400 
   -6334    -6278    -6250    -6243    -6255    -6289    -6336    -6385 
   -6432    -6473    -6494    -6497    -6482    -6453    -6415    -6378 
   -6347    -6324    -6307    -6300    -6304    -6311    -6320    -6334 
   -6349    -6363    -6385    -6408    -6430    -6451    -6474    -6494 
   -6512    -6532    -6556    -6586    -6625    -6667    -6712    -6760 
   -6805    -6840    -6866    -6876    -6870    -6851    -6822    -6793 
   -6770    -6758    -6752    -6758    -6778    -6801    -6826    -6856 
   -6879    -6893    -6899    -6895    -6882    -6868    -6845    -6817 
   -6791    -6764    -6737    -6718    -6702    -6691    -6689    -6698 
   -6717    -6741    -6768    -6795    -6825    -6852    -6870    -6883 
   -6887    -6880    -6867    -6848    -6826    -6799    -6772    -6744 
   -6713    -6685    -6655    -6613    -6567    -6524    -6474    -6428 
   -6393    -6363    -6346    -6347    -6357    -6373    -6396    -6417 
   -6431    -6434    -6424    -6400    -6365    -6319    -6266    -6210 
   -6150    -6089    -6030    -5969    -5914    -5867    -5826    -5794 
   -5769    -5757    -5757    -5764    -5776    -5795    -5818    -5845 
   -5873    -5896    -5914    -5926    -5933    -5935    -5938    -5938 
   -5938    -5949    -5971    -6003    -6052    -6112    -6180    -6250 
   -6324    -6400    -6469    -6529    -6586    -6637    -6677    -6706 
   -6731    -6750    -6760    -6764    -6763    -6759    -6756    -6741 
   -6723    -6708    -6696    -6686    -6685    -6697    -6723    -6756 
   -6797    -6843    -6891    -6934    -6967    -6987    -6997    -6991 
   -6976    -6966    -6959    -6959    -6971    -6997    -7033    -7078 
   -7130    -7184    -7227    -7265    -7296    -7317    -7331    -7338 
   -7339    -7344    -7354    -7372    -7393    -7414    -7429    -7434 
   -7433    -7420    -7392    -7350    -7294    -7223    -7141    -7057 
   -6976    -6898    -6829    -6771    -6725    -6701    -6691    -6694 
   -6717    -6752    -6790    -6821    -6848    -6874    -6889    -6893 
   -6890    -6879    -6856    -6828    -6798    -6767    -6739    -6712 
   -6693    -6681    -6677    -6682    -6694    -6709    -6729    -6752 
   -6772    -6787    -6793    -6782    -6760    -6731    -6693    -6652 
   -6620    -6594    -6578    -6571    -6570    -6571    -6578    -6586 
   -6590    -6589    -6586    -6577    -6555    -6527    -6493    -6450 
   -6409    -6370    -6326    -6284    -6246    -6208    -6174    -6151 
   -6138    -6134    -6145    -6172    -6211    -6255    -6305    -6355 
   -6404    -6448    -6482    -6504    -6511    -6504    -6488    -6465 
   -6442    -6420    -6401    -6385    -6381    -6386    -6396    -6416 
