Origin Time       2025/01/13 21:19:00
Lat.              31.8
Long.             131.6
Depth. (km)       30
Mag.              6.9
Station Code      NGS019
Station Lat.      32.9003
Station Long.     129.9583
Station Height(m) 2
Record Time       2025/01/13 21:20:30
Sampling Freq(Hz) 100Hz
Duration Time(s)  70
Dir.              U-D
Scale Factor      7845(gal)/8223790
Max. Acc. (gal)   1.462
Last Correction   2025/01/13 21:20:32
Memo.             
[...]
  -13695   -13657   -13618   -13585   -13555   -13548   -13558   -13566 
  -13571   -13566   -13555   -13545   -13529   -13517   -13524   -13543 
  -13566   -13598   -13633   -13653   -13660   -13655   -13622   -13563 
  -13479   -13371   -13258   -13165   -13088   -13027   -12989   -12980 
  -12987   -13001   -13032   -13082   -13144   -13220   -13297   -13369 
  -13439   -13502   -13554   -13606   -13667   -13732   -13805   -13872 
  -13927   -13972   -13998   -14002   -13987   -13963   -13937   -13917 
  -13894   -13872   -13853   -13832   -13817   -13814   -13809   -13813 
  -13836   -13859   -13886   -13922   -13957   -13992   -14026   -14048 
  -14072   -14107   -14146   -14189   -14224   -14241   -14235   -14207 
  -14162   -14107   -14044   -13975   -13896   -13814   -13747   -13690 
  -13620   -13533   -13436   -13329   -13216   -13100   -12991   -12885 
  -12785   -12703   -12644   -12596   -12555   -12523   -12511   -12518 
  -12534   -12548   -12552   -12561   -12586   -12629   -12695   -12780 
  -12883   -12999   -13111   -13215   -13325   -13429   -13520   -13594 
  -13647   -13683   -13709   -13721   -13734   -13775   -13834   -13894 
  -13944   -13977   -13990   -13987   -13975   -13956   -13933   -13898 
  -13837   -13767   -13701   -13640   -13587   -13554   -13544   -13554 
  -13582   -13618   -13641   -13652   -13664   -13674   -13682   -13699 
  -13716   -13721   -13714   -13694   -13666   -13641   -13609   -13559 
  -13505   -13454   -13400   -13344   -13286   -13219   -13149   -13080 
  -13018   -12976   -12950   -12935   -12934   -12954   -13000   -13066 
  -13147   -13240   -13342   -13446   -13551   -13664   -13783   -13900 
  -14000   -14073   -14133   -14181   -14214   -14238   -14260   -14272 
  -14269   -14247   -14211   -14165   -14121   -14091   -14064   -14029 
  -13996   -13971   -13954   -13957   -13983   -14017   -14050   -14075 
  -14096   -14115   -14129   -14145   -14166   -14168   -14145   -14119 
  -14094   -14056   -13999   -13930   -13852   -13756   -13657   -13581 
  -13518   -13463   -13420   -13397   -13386   -13378   -13373   -13363 
  -13354   -13343   -13336   -13350   -13379   -13401   -13409   -13404 
  -13392   -13400   -13446   -13521   -13621   -13738   -13857   -13972 
  -14079   -14179   -14264   -14334   -14400   -14455   -14484   -14482 
  -14450   -14393   -14326   -14256   -14177   -14083   -13968   -13829 
  -13660   -13483   -13317   -13171   -13054   -12969   -12924   -12910 
  -12903   -12912   -12945   -12973   -13007   -13078   -13203   -13370 
  -13527   -13653   -13794   -13963   -14139   -14314   -14474   -14598 
  -14669   -14692   -14678   -14631   -14566   -14496   -14415   -14320 
  -14204   -14045   -13873   -13748   -13657   -13564   -13473   -13390 
  -13304   -13213   -13149   -13123   -13107   -13099   -13090   -13058 
  -13022   -12995   -12954   -12922   -12908   -12892   -12885   -12897 
  -12914   -12945   -12996   -13053   -13101   -13159   -13234   -13300 
  -13363   -13431   -13467   -13460   -13441   -13406   -13342   -13282 
  -13248   -13207   -13150   -13109   -13066   -13014   -12972   -12931 
  -12870   -12808   -12762   -12739   -12733   -12726   -12729   -12756 
  -12804   -12856   -12903   -12945   -12982   -13012   -13053   -13134 
  -13240   -13354   -13448   -13497   -13527   -13575   -13649   -13730 
  -13803   -13879   -13954   -14019   -14064   -14076   -14033   -13937 
  -13833   -13747   -13683   -13645   -13594   -13485   -13329   -13190 
  -13115   -13115   -13180   -13292   -13431   -13576   -13707   -13809 
  -13882   -13929   -13959   -13995   -14048   -14102   -14150   -14191 
  -14195   -14148   -14079   -14017   -13959   -13922   -13929   -13950 
  -13959   -13932   -13856   -13753   -13649   -13558   -13485   -13436 
  -13419   -13423   -13409   -13359   -13269   -13139   -13009   -12924 
  -12873   -12845   -12845   -12846   -12845   -12845   -12823   -12781 
  -12752   -12762   -12834   -12947   -13086   -13252   -13420   -13578 
  -13749   -13933   -14108   -14273   -14426   -14550   -14638   -14713 
  -14801   -14887   -14941   -14956   -14940   -14909   -14885   -14881 
  -14887   -14887   -14867   -14833   -14779   -14696   -14609   -14535 
  -14461   -14385   -14319   -14262   -14216   -14191   -14184   -14179 
  -14170   -14166   -14170   -14195   -14229   -14242   -14219   -14149 
  -14031   -13898   -13774   -13672   -13594   -13522   -13436   -13309 
  -13144   -12996   -12888   -12803   -12757   -12735   -12681   -12606 
  -12540   -12488   -12482   -12536   -12623   -12719   -12808   -12891 
  -12966   -13039   -13139   -13270   -13400   -13522   -13629   -13716 
  -13786   -13825   -13829   -13821   -13817   -13824   -13813   -13761 
  -13686   -13613   -13541   -13454   -13328   -13174   -13041   -12945 
  -12866   -12798   -12742   -12706   -12699   -12737   -12815   -12908 
  -13014   -13140   -13263   -13373   -13495   -13632   -13756   -13853 
  -13922   -13960   -13972   -13957   -13927   -13903   -13886   -13872 
  -13873   -13868   -13814   -13697   -13537   -13366   -13213   -13109 
  -13054   -13031   -13012   -12984   -12942   -12900   -12868   -12852 
  -12858   -12891   -12945   -13028   -13126   -13200   -13235   -13252 
  -13281   -13332   -13408   -13501   -13586   -13640   -13660   -13671 
  -13694   -13738   -13799   -13867   -13922   -13948   -13940   -13914 
  -13879   -13829   -13765   -13709   -13679   -13695   -13744   -13801 
  -13837   -13848   -13855   -13875   -13910   -13964   -14034   -14103 
  -14152   -14170   -14157   -14138   -14149   -14180   -14214   -14251 
  -14276   -14280   -14269   -14243   -14193   -14111   -13987   -13832 
  -13680   -13552   -13427   -13274   -13089   -12912   -12788   -12712 
  -12679   -12681   -12679   -12663   -12667   -12707   -12766   -12842 
  -12933   -13019   -13097   -13161   -13215   -13289   -13375   -13437 
  -13467   -13477   -13467   -13473   -13514   -13582   -13659   -13716 
  -13740   -13753   -13780   -13830   -13895   -13954   -13998   -14021 
  -14029   -14018   -13990   -13946   -13882   -13803   -13730   -13667 
  -13612   -13564   -13531   -13521   -13528   -13531   -13524   -13516 
  -13513   -13510   -13501   -13485   -13471   -13466   -13474   -13501 
  -13543   -13590   -13628   -13639   -13624   -13602   -13589   -13595 
  -13626   -13684   -13757   -13814   -13845   -13863   -13880   -13906 
  -13942   -13977   -14000   -14025   -14067   -14133   -14226   -14337 
  -14438   -14519   -14573   -14582   -14557   -14521   -14482   -14442 
  -14408   -14384   -14347   -14272   -14161   -14052   -13972   -13937 
  -13942   -13960   -13969   -13977   -13984   -13976   -13969   -13979 
  -14003   -14033   -14057   -14064   -14049   -14010   -13942   -13849 
  -13756   -13686   -13629   -13568   -13521   -13505   -13509   -13516 
  -13520   -13531   -13558   -13597   -13659   -13748   -13859   -13971 
  -14046   -14095   -14164   -14237   -14285   -14314   -14334   -14353 
  -14359   -14327   -14251   -14157   -14062   -13975   -13898   -13840 
  -13801   -13774   -13745   -13701   -13639   -13581   -13540   -13510 
  -13487   -13473   -13446   -13385   -13290   -13171   -13042   -12937 
  -12879   -12843   -12811   -12784   -12746   -12675   -12577   -12482 
  -12421   -12411   -12438   -12482   -12538   -12609   -12688   -12754 
  -12785   -12799   -12823   -12869   -12933   -13005   -13076   -13147 
  -13227   -13311   -13401   -13490   -13570   -13647   -13726   -13811 
  -13905   -13994   -14061   -14106   -14131   -14153   -14168   -14192 
  -14254   -14338   -14400   -14435   -14438   -14413   -14393   -14396 
  -14415   -14426   -14385   -14300   -14220   -14146   -14050   -13945 
  -13853   -13770   -13705   -13679   -13676   -13679   -13705   -13748 
  -13803   -13875   -13937   -13980   -14030   -14073   -14083   -14060 
  -14008   -13945   -13879   -13809   -13741   -13675   -13608   -13529 
  -13440   -13351   -13273   -13219   -13200   -13194   -13177   -13149 
  -13119   -13090   -13058   -13027   -13004   -12988   -12982   -12962 
  -12912   -12868   -12860   -12869   -12873   -12874   -12883   -12892 
  -12922   -12996   -13095   -13192   -13294   -13409   -13536   -13683 
  -13849   -14006   -14134   -14243   -14345   -14435   -14524   -14616 
  -14685   -14712   -14705   -14673   -14625   -14554   -14459   -14368 
  -14295   -14233   -14170   -14098   -14015   -13936   -13859   -13786 
  -13728   -13679   -13626   -13570   -13518   -13467   -13421   -13389 
  -13377   -13397   -13462   -13560   -13664   -13774   -13887   -13984 
  -14069   -14162   -14266   -14351   -14391   -14397   -14418   -14472 
  -14535   -14577   -14586   -14570   -14538   -14494   -14447   -14409 
  -14372   -14314   -14234   -14130   -14014   -13917   -13851   -13805 
  -13786   -13798   -13813   -13805   -13795   -13832   -13913   -14007 
  -14099   -14185   -14251   -14291   -14311   -14307   -14283   -14250 
  -14216   -14179   -14127   -14058   -13983   -13892   -13791   -13679 
  -13554   -13428   -13317   -13228   -13167   -13126   -13096   -13084 
  -13092   -13124   -13180   -13236   -13289   -13351   -13417   -13470 
  -13514   -13559   -13599   -13629   -13653   -13679   -13701   -13706 
  -13697   -13691   -13689   -13674   -13639   -13585   -13509   -13427 
  -13344   -13239   -13112   -13000   -12908   -12816   -12723   -12646 
  -12600   -12590   -12614   -12660   -12725   -12812   -12915   -13028 
  -13150   -13277   -13402   -13528   -13671   -13834   -14004   -14168 
  -14304   -14407   -14501   -14605   -14712   -14812   -14883   -14902 
  -14855   -14759   -14651   -14540   -14420   -14304   -14202   -14092 
  -13975   -13868   -13780   -13714   -13671   -13630   -13554   -13443 
  -13323   -13221   -13161   -13146   -13144   -13130   -13085   -12999 
  -12897   -12831   -12829   -12889   -12977   -13054   -13104   -13124 
  -13146   -13200   -13282   -13377   -13466   -13521   -13506   -13427 
  -13323   -13247   -13216   -13204   -13185   -13149   -13076   -12964 
  -12857   -12798   -12780   -12798   -12847   -12914   -12981   -13032 
  -13068   -13100   -13142   -13188   -13220   -13227   -13216   -13189 
  -13155   -13132   -13117   -13097   -13076   -13057   -13045   -13045 
  -13062   -13089   -13104   -13111   -13112   -13113   -13134   -13176 
  -13235   -13300   -13354   -13392   -13424   -13458   -13506   -13576 
  -13653   -13729   -13801   -13859   -13914   -13971   -14013   -14035 
  -14042   -14027   -14000   -13972   -13936   -13886   -13832   -13764 
  -13679   -13585   -13491   -13414   -13356   -13311   -13262   -13207 
  -13150   -13095   -13053   -13036   -13041   -13063   -13113   -13186 
  -13273   -13365   -13466   -13568   -13664   -13757   -13852   -13945 
  -14026   -14099   -14165   -14229   -14291   -14347   -14408   -14474 
  -14532   -14582   -14642   -14706   -14770   -14829   -14885   -14926 
  -14935   -14906   -14847   -14764   -14670   -14570   -14459   -14341 
  -14220   -14096   -13969   -13834   -13694   -13558   -13431   -13317 
  -13215   -13128   -13065   -13012   -12973   -12951   -12949   -12953 
  -12962   -12991   -13036   -13092   -13166   -13266   -13385   -13514 
  -13636   -13741   -13834   -13900   -13942   -13977   -14022   -14081 
  -14143   -14195   -14237   -14256   -14239   -14212   -14181   -14139 
  -14095   -14045   -13981   -13917   -13860   -13807   -13761   -13730 
  -13702   -13662   -13612   -13544   -13454   -13356   -13270   -13198 
  -13135   -13092   -13059   -13030   -13008   -13011   -13036   -13078 
  -13142   -13224   -13311   -13392   -13463   -13525   -13582   -13628 
  -13648   -13645   -13637   -13614   -13578   -13548   -13533   -13522 
  -13517   -13509   -13481   -13433   -13390   -13351   -13321   -13311 
  -13312   -13325   -13343   -13355   -13360   -13350   -13332   -13320 
  -13312   -13302   -13288   -13262   -13235   -13212   -13196   -13198 
  -13231   -13288   -13356   -13432   -13510   -13581   -13652   -13728 
  -13799   -13869   -13948   -14025   -14095   -14160   -14210   -14245 
  -14270   -14287   -14292   -14274   -14239   -14211   -14177   -14115 
  -14031   -13944   -13864   -13810   -13775   -13748   -13725   -13691 
  -13651   -13621   -13610   -13632   -13676   -13724   -13774   -13838 
  -13918   -14007   -14100   -14191   -14272   -14343   -14412   -14469 
  -14508   -14523   -14501   -14450   -14386   -14312   -14223   -14116 
  -14002   -13884   -13763   -13645   -13540   -13431   -13296   -13143 
  -12989   -12854   -12749   -12669   -12604   -12549   -12492   -12447 
  -12429   -12436   -12465   -12517   -12571   -12621   -12671   -12729 
  -12802   -12883   -12969   -13049   -13109   -13162   -13225   -13289 
  -13342   -13375   -13383   -13375   -13359   -13350   -13369   -13405 
  -13428   -13421   -13393   -13363   -13355   -13381   -13435   -13498 
  -13570   -13641   -13697   -13730   -13756   -13776   -13792   -13807 
  -13807   -13782   -13730   -13664   -13591   -13510   -13413   -13300 
  -13173   -13030   -12889   -12776   -12691   -12623   -12563   -12501 
  -12452   -12421   -12403   -12401   -12405   -12418   -12452   -12498 
  -12544   -12584   -12617   -12652   -12699   -12757   -12822   -12891 
  -12964   -13043   -13132   -13223   -13313   -13408   -13500   -13586 
  -13668   -13748   -13837   -13925   -13984   -14029   -14100   -14207 
  -14316   -14404   -14482   -14573   -14651   -14712   -14783   -14843 
  -14866   -14885   -14935   -15005   -15072   -15111   -15128   -15147 
  -15153   -15144   -15137   -15124   -15106   -15097   -15079   -15053 
  -15037   -15018   -14982   -14941   -14906   -14867   -14821   -14763 
  -14686   -14589   -14490   -14408   -14335   -14238   -14115   -13996 
  -13886   -13757   -13628   -13509   -13397   -13286   -13184   -13111 
  -13058   -13001   -12954   -12937   -12946   -12973   -13009   -13055 
  -13100   -13135   -13174   -13221   -13269   -13319   -13370   -13420 
  -13460   -13490   -13510   -13528   -13544   -13571   -13598   -13603 
  -13593   -13571   -13541   -13516   -13500   -13490   -13474   -13446 
  -13416   -13386   -13336   -13255   -13157   -13077   -13028   -12997 
  -12962   -12922   -12884   -12862   -12852   -12838   -12833   -12845 
  -12869   -12900   -12935   -12960   -12968   -12984   -13032   -13101 
  -13171   -13231   -13270   -13301   -13342   -13386   -13402   -13390 
  -13383   -13394   -13408   -13412   -13402   -13381   -13366   -13362 
  -13358   -13346   -13312   -13258   -13207   -13163   -13132   -13108 
  -13074   -13028   -13004   -13009   -13034   -13073   -13128   -13194 
  -13262   -13323   -13370   -13393   -13400   -13423   -13491   -13587 
  -13676   -13736   -13778   -13818   -13867   -13919   -13965   -13998 
  -14015   -14026   -14041   -14058   -14068   -14056   -14031   -14008 
  -13980   -13938   -13888   -13834   -13772   -13706   -13662   -13651 
  -13648   -13636   -13622   -13618   -13629   -13648   -13639   -13601 
  -13559   -13536   -13536   -13541   -13531   -13513   -13500   -13479 
  -13448   -13416   -13386   -13354   -13333   -13338   -13344   -13346 
  -13355   -13367   -13382   -13417   -13478   -13556   -13645   -13732 
  -13813   -13891   -13964   -14038   -14122   -14207   -14283   -14337 
  -14377   -14412   -14428   -14435   -14442   -14438   -14411   -14380 
  -14345   -14307   -14266   -14220   -14177   -14145   -14119   -14096 
  -14065   -14019   -13980   -13948   -13906   -13859   -13810   -13767 
  -13741   -13733   -13726   -13709   -13670   -13610   -13543   -13489 
  -13455   -13431   -13421   -13436   -13456   -13460   -13448   -13432 
  -13419   -13414   -13424   -13440   -13446   -13429   -13402   -13389 
  -13393   -13405   -13420   -13444   -13485   -13535   -13581   -13616 
  -13640   -13666   -13709   -13768   -13829   -13871   -13891   -13899 
  -13906   -13917   -13933   -13952   -13979   -13996   -13998   -13995 
  -13991   -13984   -13988   -13999   -14018   -14048   -14079   -14106 
  -14123   -14125   -14119   -14118   -14123   -14135   -14150   -14161 
  -14170   -14187   -14207   -14224   -14235   -14230   -14211   -14189 
  -14170   -14150   -14130   -14111   -14077   -14030   -13984   -13934 
  -13873   -13813   -13755   -13703   -13663   -13628   -13589   -13545 
  -13509   -13491   -13483   -13468   -13440   -13408   -13371   -13321 
  -13275   -13248   -13236   -13238   -13254   -13271   -13275   -13267 
  -13266   -13275   -13289   -13300   -13296   -13282   -13289   -13324 
  -13367   -13413   -13452   -13468   -13467   -13460   -13466   -13495 
  -13541   -13586   -13626   -13670   -13714   -13745   -13763   -13774 
  -13787   -13807   -13829   -13844   -13846   -13838   -13833   -13846 
  -13869   -13879   -13863   -13825   -13774   -13720   -13671   -13624 
  -13589   -13582   -13586   -13572   -13539   -13498   -13468   -13447 
  -13419   -13386   -13351   -13316   -13293   -13289   -13290   -13284 
  -13261   -13223   -13177   -13130   -13081   -13038   -13012   -13008 
  -13020   -13034   -13031   -13003   -12976   -12988   -13039   -13097 
  -13134   -13150   -13174   -13215   -13271   -13355   -13448   -13527 
  -13574   -13593   -13602   -13620   -13643   -13667   -13707   -13759 
  -13807   -13838   -13829   -13776   -13706   -13660   -13656   -13671 
  -13684   -13691   -13683   -13648   -13589   -13517   -13464   -13446 
  -13437   -13428   -13425   -13427   -13410   -13373   -13331   -13305 
  -13296   -13296   -13320   -13385   -13474   -13555   -13603   -13621 
  -13629   -13637   -13648   -13682   -13740   -13798   -13842   -13865 
  -13865   -13859   -13851   -13840   -13837   -13837   -13830   -13822 
  -13802   -13757   -13698   -13653   -13636   -13625   -13594   -13563 
  -13551   -13528   -13485   -13447   -13417   -13394   -13389   -13392 
  -13405   -13435   -13475   -13502   -13510   -13514   -13531   -13540 
  -13543   -13571   -13620   -13652   -13671   -13690   -13693   -13671 
  -13640   -13597   -13544   -13494   -13450   -13402   -13355   -13312 
  -13273   -13243   -13220   -13205   -13200   -13211   -13234   -13261 
  -13288   -13321   -13369   -13435   -13509   -13566   -13608   -13643 
  -13668   -13695   -13733   -13775   -13811   -13832   -13837   -13842 
  -13848   -13860   -13883   -13915   -13952   -13983   -13992   -13988 
  -13984   -13977   -13976   -13986   -13990   -13983   -13959   -13915 
  -13864   -13809   -13753   -13701   -13645   -13591   -13541   -13493 
  -13451   -13420   -13389   -13359   -13342   -13329   -13323   -13321 
  -13315   -13306   -13305   -13317   -13335   -13344   -13352   -13373 
  -13386   -13392   -13409   -13435   -13448   -13463   -13481   -13500 
  -13524   -13549   -13567   -13585   -13605   -13613   -13616   -13620 
  -13622   -13625   -13625   -13626   -13639   -13659   -13680   -13711 
  -13747   -13783   -13824   -13857   -13872   -13884   -13895   -13879 
  -13841   -13799   -13745   -13674   -13602   -13537   -13475   -13414 
  -13367   -13328   -13290   -13252   -13216   -13181   -13154   -13134 
  -13115   -13095   -13074   -13058   -13042   -13038   -13055   -13077 
  -13090   -13112   -13139   -13159   -13186   -13231   -13284   -13333 
  -13383   -13439   -13504   -13585   -13671   -13749   -13807   -13852 
  -13898   -13941   -13979   -14025   -14067   -14095   -14116   -14131 
  -14139   -14142   -14130   -14111   -14098   -14083   -14057   -14033 
