Origin Time       2025/01/13 21:19:00
Lat.              31.8
Long.             131.6
Depth. (km)       30
Mag.              6.9
Station Code      NGS001
Station Lat.      33.3617
Station Long.     129.5377
Station Height(m) 134
Record Time       2025/01/13 21:20:50
Sampling Freq(Hz) 100Hz
Duration Time(s)  79
Dir.              N-S
Scale Factor      7845(gal)/8223790
Max. Acc. (gal)   1.976
Last Correction   2025/01/13 21:20:52
Memo.             
[...]
    3430     3596     3747     3871     3964     4021     4043     4037 
    4010     3975     3928     3858     3774     3682     3581     3472 
    3369     3275     3192     3136     3106     3098     3103     3117 
    3133     3146     3153     3153     3152     3146     3138     3132 
    3127     3119     3107     3091     3067     3032     2976     2902 
    2817     2729     2647     2578     2531     2508     2511     2535 
    2577     2633     2702     2781     2864     2947     3017     3065 
    3083     3076     3051     3009     2956     2905     2856     2810 
    2767     2728     2697     2674     2659     2655     2666     2691 
    2732     2787     2856     2928     3005     3092     3181     3264 
    3341     3408     3470     3531     3588     3649     3719     3794 
    3871     3939     3985     4005     3998     3959     3889     3793 
    3677     3551     3437     3330     3237     3164     3113     3079 
    3061     3057     3064     3087     3123     3176     3249     3331 
    3423     3526     3635     3746     3859     3969     4055     4113 
    4143     4131     4071     3973     3838     3685     3528     3369 
    3218     3088     2978     2895     2847     2824     2830     2863 
    2906     2959     3019     3076     3127     3165     3180     3161 
    3105     3010     2879     2721     2550     2374     2208     2062 
    1946     1868     1833     1837     1867     1918     1973     2029 
    2080     2116     2134     2146     2149     2139     2122     2097 
    2072     2042     2018     2006     2003     2007     2026     2057 
    2092     2137     2187     2228     2263     2285     2280     2263 
    2249     2218     2178     2147     2104     2061     2041     2031 
    2030     2050     2088     2134     2189     2246     2303     2363 
    2423     2474     2516     2540     2547     2546     2532     2508 
    2484     2465     2450     2438     2430     2430     2436     2439 
    2434     2430     2430     2434     2451     2488     2550     2637 
    2748     2884     3029     3168     3296     3397     3462     3493 
    3493     3469     3435     3392     3341     3294     3257     3230 
    3218     3222     3230     3235     3235     3223     3196     3168 
    3142     3121     3105     3100     3107     3125     3157     3199 
    3249     3311     3377     3433     3464     3473     3454     3404 
    3337     3256     3163     3078     3013     2968     2948     2951 
    2972     3009     3053     3098     3136     3163     3177     3180 
    3167     3142     3117     3095     3080     3079     3091     3125 
    3179     3252     3349     3460     3570     3676     3761     3807 
    3819     3797     3748     3680     3600     3516     3433     3349 
    3267     3187     3111     3036     2963     2907     2866     2843 
    2843     2857     2880     2905     2922     2932     2934     2933 
    2944     2978     3036     3126     3246     3387     3534     3676 
    3797     3893     3962     4000     4008     3991     3950     3890 
    3821     3748     3673     3603     3545     3500     3464     3441 
    3433     3437     3451     3497     3581     3692     3836     4009 
    4187     4361     4522     4652     4745     4799     4807     4765 
    4680     4563     4419     4270     4131     4014     3937     3906 
    3910     3944     4000     4066     4131     4183     4214     4214 
    4178     4109     4010     3892     3758     3613     3461     3312 
    3179     3065     2982     2934     2917     2922     2947     2978 
    2997     2998     2975     2932     2871     2805     2739     2679 
    2632     2604     2585     2573     2565     2560     2569     2583 
    2601     2621     2646     2675     2702     2727     2748     2766 
    2779     2793     2806     2821     2839     2857     2875     2887 
    2895     2891     2871     2841     2799     2751     2705     2666 
    2637     2617     2606     2604     2601     2600     2593     2571 
    2532     2488     2439     2393     2366     2370     2412     2497 
    2623     2779     2959     3152     3346     3528     3688     3809 
    3881     3904     3881     3815     3708     3565     3403     3234 
    3057     2883     2728     2602     2517     2489     2520     2608 
    2755     2947     3163     3384     3600     3796     3951     4062 
    4126     4144     4112     4035     3920     3782     3634     3483 
    3343     3219     3113     3026     2961     2921     2916     2952 
    3028     3127     3249     3389     3535     3670     3788     3881 
    3940     3959     3946     3909     3856     3793     3727     3649 
    3561     3470     3376     3283     3199     3118     3046     2986 
    2932     2887     2855     2821     2786     2747     2701     2644 
    2577     2502     2425     2350     2280     2222     2185     2174 
    2197     2250     2320     2404     2493     2571     2631     2678 
    2709     2721     2714     2685     2639     2582     2520     2455 
    2389     2324     2262     2207     2161     2128     2115     2122 
    2153     2203     2265     2330     2394     2450     2488     2502 
    2488     2443     2380     2301     2220     2150     2089     2039 
    2006     1984     1969     1966     1971     1977     1984     1991 
    2003     2015     2022     2033     2049     2057     2050     2038 
    2023     2007     2002     2015     2046     2095     2157     2231 
    2311     2390     2463     2531     2586     2628     2662     2694 
    2721     2749     2795     2863     2959     3079     3218     3370 
    3523     3655     3758     3823     3848     3832     3778     3694 
    3584     3460     3327     3186     3048     2924     2818     2748 
    2718     2727     2775     2860     2975     3106     3245     3392 
    3539     3677     3797     3888     3944     3969     3966     3937 
    3883     3817     3746     3665     3578     3491     3411     3348 
    3308     3292     3304     3357     3442     3547     3667     3793 
    3916     4027     4122     4191     4225     4212     4156     4068 
    3943     3786     3619     3454     3300     3163     3053     2982 
    2951     2957     2999     3071     3171     3283     3400     3504 
    3574     3599     3578     3516     3422     3300     3161     3021 
    2880     2754     2646     2555     2489     2451     2436     2439 
    2451     2467     2493     2525     2567     2620     2685     2759 
    2849     2955     3059     3163     3271     3364     3438     3497 
    3527     3537     3530     3499     3446     3387     3322     3260 
    3206     3161     3132     3118     3113     3113     3122     3136 
    3145     3156     3173     3188     3194     3191     3176     3148 
    3111     3075     3038     3013     3011     3034     3082     3156 
    3257     3377     3507     3638     3762     3871     3963     4037 
    4093     4125     4137     4129     4099     4045     3978     3906 
    3821     3734     3649     3561     3472     3397     3335     3285 
    3249     3221     3202     3200     3217     3241     3281     3341 
    3414     3495     3578     3672     3767     3848     3920     3983 
    4025     4052     4064     4056     4035     4002     3956     3910 
    3867     3825     3796     3786     3788     3801     3834     3871 
    3909     3946     3973     3983     3973     3931     3859     3767 
    3662     3549     3433     3314     3210     3132     3078     3052 
    3060     3091     3140     3202     3268     3327     3383     3433 
    3474     3503     3505     3478     3426     3358     3280     3207 
    3138     3084     3060     3060     3082     3130     3196     3277 
    3373     3458     3522     3562     3569     3545     3493     3408 
    3302     3187     3069     2957     2853     2760     2689     2639 
    2610     2598     2601     2612     2633     2663     2694     2733 
    2775     2797     2799     2785     2741     2678     2609     2542 
    2478     2420     2370     2332     2304     2286     2280     2280 
    2285     2290     2290     2282     2265     2242     2215     2178 
    2131     2076     2018     1961     1900     1840     1782     1733 
    1703     1694     1709     1745     1804     1885     1973     2064 
    2151     2220     2270     2300     2305     2295     2266     2230 
    2196     2161     2135     2128     2128     2151     2201     2266 
    2342     2431     2523     2608     2687     2754     2801     2829 
    2836     2814     2768     2704     2623     2531     2438     2349 
    2266     2204     2168     2153     2157     2191     2253     2335 
    2439     2554     2662     2760     2843     2902     2941     2961 
    2961     2952     2934     2909     2890     2876     2860     2855 
    2856     2857     2863     2878     2905     2952     3026     3122 
    3242     3399     3578     3771     3981     4199     4411     4610 
    4783     4924     5032     5103     5136     5138     5100     5035 
    4947     4837     4711     4577     4437     4299     4168     4039 
    3917     3812     3723     3654     3603     3558     3524     3507 
    3491     3476     3464     3442     3410     3376     3338     3292 
    3242     3195     3152     3114     3073     3026     2978     2929 
    2886     2849     2822     2812     2816     2832     2860     2894 
    2928     2967     3007     3049     3095     3134     3165     3198 
    3219     3221     3214     3203     3180     3150     3119     3072 
    3011     2949     2879     2803     2736     2670     2620     2593 
    2583     2600     2640     2700     2775     2864     2953     3036 
    3113     3179     3230     3272     3296     3304     3306     3292 
    3265     3230     3191     3156     3121     3082     3038     2987 
    2926     2859     2789     2721     2664     2628     2612     2617 
    2648     2695     2763     2848     2930     3011     3082     3122 
    3142     3142     3111     3068     3018     2955     2890     2821 
    2743     2668     2605     2544     2492     2459     2443     2443 
    2463     2496     2540     2601     2675     2747     2812     2872 
    2924     2965     2998     3015     3019     3009     2982     2937 
    2875     2805     2735     2664     2600     2546     2501     2455 
    2412     2367     2328     2301     2285     2290     2322     2373 
    2455     2565     2690     2830     2975     3114     3242     3354 
    3445     3514     3564     3599     3628     3657     3685     3708 
    3724     3731     3717     3678     3623     3550     3458     3360 
    3260     3161     3069     2987     2921     2870     2826     2791 
    2759     2722     2677     2621     2562     2497     2432     2378 
    2331     2289     2266     2257     2247     2243     2246     2247 
    2255     2272     2286     2307     2334     2362     2403     2452 
    2504     2566     2637     2710     2786     2863     2932     2994 
    3048     3087     3113     3127     3144     3165     3199     3257 
    3334     3419     3512     3611     3694     3758     3801     3823 
    3821     3798     3755     3701     3651     3604     3555     3512 
    3470     3424     3379     3331     3279     3226     3179     3126 
    3073     3025     2971     2920     2882     2855     2847     2862 
    2901     2963     3046     3144     3256     3379     3507     3635 
    3754     3855     3933     3985     4009     4012     3993     3956 
    3917     3885     3862     3854     3861     3886     3936     4005 
    4081     4155     4216     4256     4271     4252     4193     4101 
    3985     3848     3701     3547     3388     3235     3096     2968 
    2859     2774     2717     2689     2686     2710     2760     2841 
    2947     3063     3194     3331     3470     3603     3721     3821 
    3898     3948     3969     3958     3919     3850     3754     3634 
    3499     3352     3195     3042     2905     2785     2685     2613 
    2566     2542     2538     2542     2543     2538     2524     2509 
    2496     2482     2481     2504     2547     2614     2708     2816 
    2934     3065     3198     3319     3422     3501     3551     3565 
    3535     3466     3368     3244     3102     2956     2813     2674 
    2547     2440     2355     2292     2258     2254     2276     2323 
    2390     2473     2573     2679     2781     2876     2963     3028 
    3071     3098     3105     3082     3032     2959     2868     2760 
    2640     2512     2378     2249     2127     2007     1894     1794 
    1710     1644     1595     1559     1545     1547     1566     1601 
    1653     1726     1813     1908     2016     2124     2226     2326 
    2413     2486     2540     2571     2577     2563     2535     2493 
    2446     2404     2376     2371     2386     2413     2459     2525 
    2605     2694     2785     2875     2964     3044     3111     3164 
    3195     3200     3184     3144     3078     2995     2914     2845 
    2793     2772     2790     2848     2948     3087     3262     3462 
    3674     3892     4098     4288     4463     4614     4735     4827 
    4892     4922     4911     4865     4799     4710     4607     4503 
    4407     4324     4257     4217     4199     4206     4237     4284 
    4334     4391     4446     4491     4533     4565     4590     4610 
    4633     4656     4677     4702     4731     4768     4807     4846 
    4889     4928     4959     4993     5024     5054     5086     5116 
    5136     5152     5159     5155     5142     5111     5061     5001 
    4928     4835     4725     4603     4471     4325     4166     4000 
    3839     3688     3551     3437     3341     3272     3234     3217 
    3214     3218     3227     3234     3244     3252     3256     3257 
    3252     3237     3223     3203     3167     3119     3064     2997 
    2920     2837     2749     2659     2573     2496     2430     2373 
    2327     2292     2269     2259     2261     2265     2262     2249 
    2220     2172     2111     2039     1960     1880     1807     1741 
    1680     1626     1583     1548     1516     1489     1467     1445 
    1422     1404     1387     1374     1364     1359     1359     1372 
    1397     1428     1472     1532     1601     1679     1765     1860 
    1960     2065     2174     2289     2398     2504     2606     2705 
    2799     2889     2970     3045     3114     3175     3222     3256 
    3273     3276     3262     3225     3171     3107     3037     2964 
    2889     2813     2743     2681     2624     2575     2540     2517 
    2506     2515     2544     2596     2662     2741     2832     2929 
    3025     3122     3215     3295     3361     3411     3435     3434 
    3420     3393     3360     3323     3285     3254     3233     3218 
    3208     3203     3192     3183     3181     3168     3150     3141 
    3130     3119     3115     3119     3132     3150     3175     3208 
    3246     3287     3333     3376     3411     3438     3454     3454 
    3441     3418     3380     3327     3268     3195     3113     3024 
    2926     2828     2735     2643     2559     2496     2454     2434 
    2440     2477     2540     2632     2745     2874     3013     3152 
    3283     3399     3488     3550     3586     3582     3543     3481 
    3391     3285     3176     3064     2961     2876     2801     2743 
    2712     2698     2706     2733     2763     2797     2833     2863 
    2894     2920     2934     2945     2951     2945     2945     2945 
    2940     2943     2957     2978     3017     3069     3126     3187 
    3248     3292     3321     3329     3310     3261     3191     3106 
    3011     2909     2810     2728     2659     2606     2582     2586 
    2613     2671     2756     2863     2990     3127     3264     3396 
    3520     3631     3720     3790     3847     3886     3912     3939 
    3963     3987     4012     4035     4058     4075     4089     4105 
    4117     4125     4126     4120     4105     4081     4043     3997 
    3942     3882     3824     3766     3708     3657     3616     3586 
    3566     3557     3555     3564     3573     3582     3596     3611 
    3628     3653     3684     3721     3765     3805     3843     3883 
    3915     3925     3923     3913     3883     3835     3782     3724 
    3663     3607     3554     3512     3484     3470     3477     3504 
    3545     3593     3649     3705     3761     3809     3843     3865 
    3878     3877     3862     3838     3802     3757     3704     3643 
    3577     3516     3460     3404     3353     3306     3267     3231 
    3200     3179     3164     3156     3161     3175     3192     3215 
    3241     3264     3283     3294     3295     3287     3260     3215 
    3160     3092     3007     2906     2797     2682     2570     2465 
    2363     2280     2222     2189     2182     2195     2220     2261 
    2309     2355     2398     2440     2470     2482     2479     2461 
    2420     2355     2272     2173     2058     1933     1819     1715 
    1621     1551     1505     1478     1471     1474     1487     1513 
    1537     1559     1582     1602     1614     1625     1632     1641 
    1645     1647     1649     1656     1667     1676     1695     1726 
    1763     1803     1848     1894     1937     1977     2011     2039 
    2062     2087     2112     2137     2164     2197     2232     2265 
    2299     2335     2367     2401     2444     2494     2554     2625 
    2712     2805     2905     3011     3115     3215     3307     3385 
    3449     3495     3522     3535     3534     3523     3508     3487 
    3466     3453     3445     3449     3469     3504     3555     3623 
    3707     3802     3906     4018     4136     4251     4355     4446 
    4523     4580     4617     4629     4622     4599     4560     4510 
    4453     4387     4320     4252     4179     4113     4060     4020 
    3993     3985     3989     3997     4017     4041     4060     4079 
    4102     4121     4129     4131     4121     4098     4059     4006 
    3944     3873     3788     3696     3597     3496     3395     3295 
    3199     3113     3034     2960     2894     2836     2782     2733 
    2691     2655     2623     2598     2585     2575     2566     2556 
    2550     2547     2543     2540     2539     2536     2532     2535 
    2542     2552     2566     2585     2610     2639     2662     2677 
    2682     2682     2668     2640     2604     2560     2508     2452 
    2408     2366     2336     2330     2342     2374     2434     2512 
    2602     2705     2809     2905     2988     3053     3096     3122 
    3132     3127     3117     3102     3091     3086     3087     3103 
    3138     3186     3241     3311     3383     3450     3518     3576 
    3619     3647     3655     3646     3619     3576     3522     3462 
    3396     3331     3280     3240     3208     3188     3177     3175 
    3180     3184     3187     3198     3213     3231     3257     3281 
    3298     3308     3310     3300     3279     3252     3226     3200 
    3177     3159     3149     3153     3165     3187     3217     3260 
    3314     3375     3437     3493     3541     3574     3588     3584 
    3565     3535     3492     3441     3392     3345     3300     3267 
    3237     3213     3200     3192     3184     3175     3167     3156 
