Origin Time       2025/01/13 21:19:00
Lat.              31.8
Long.             131.6
Depth. (km)       30
Mag.              6.9
Station Code      NGS014
Station Lat.      32.6104
Station Long.     130.1851
Station Height(m) 2
Record Time       2025/01/13 21:20:07
Sampling Freq(Hz) 100Hz
Duration Time(s)  95
Dir.              E-W
Scale Factor      7845(gal)/8223790
Max. Acc. (gal)   15.474
Last Correction   2025/01/13 21:20:09
Memo.             
[...]
   -9799    -9410    -8957    -8415    -7773    -7025    -6131    -5113 
   -3994    -2735    -1371       -8     1316     2552     3611     4482 
    5213     5805     6238     6508     6623     6652     6675     6669 
    6585     6413     6099     5599     4953     4160     3199     2141 
    1057      -54    -1188    -2295    -3308    -4137    -4704    -5003 
   -5039    -4837    -4483    -4040    -3505    -2894    -2197    -1401 
    -531      398     1401     2448     3497     4492     5354     6050 
    6565     6840     6880     6731     6358     5725     4861     3838 
    2728     1607      550     -390    -1159    -1695    -2008    -2141 
   -2114    -1992    -1823    -1588    -1294     -950     -544     -110 
     329      837     1410     1992     2596     3233     3912     4685 
    5509     6292     7003     7573     7885     7919     7738     7366 
    6843     6203     5467     4702     3960     3218     2486     1813 
    1216      745      469      395      487      677      849      935 
     946      861      652      379      117     -124     -349     -557 
    -757     -954    -1175    -1471    -1825    -2204    -2633    -3099 
   -3557    -3993    -4372    -4623    -4749    -4801    -4787    -4706 
   -4557    -4287    -3856    -3279    -2567    -1761     -961     -232 
     429     1027     1595     2187     2775     3342     3917     4465 
    4963     5454     5899     6239     6494     6687     6816     6889 
    6924     6937     6945     6956     6924     6825     6659     6388 
    6030     5641     5194     4680     4122     3478     2751     2003 
    1263      546     -124     -765    -1405    -2033    -2641    -3218 
   -3723    -4152    -4496    -4687    -4696    -4538    -4228    -3793 
   -3267    -2683    -2080    -1464     -834     -178      465     1051 
    1579     2016     2357     2656     2909     3105     3310     3546 
    3786     4012     4180     4256     4226     4045     3666     3103 
    2384     1525      585     -344    -1202    -1956    -2551    -2963 
   -3221    -3349    -3334    -3203    -3011    -2793    -2594    -2430 
   -2300    -2222    -2107    -1885    -1594    -1182     -600       72 
     792     1520     2172     2749     3287     3778     4256     4733 
    5134     5408     5536     5478     5256     4980     4693     4376 
    4032     3650     3210     2749     2292     1864     1525     1281 
    1097     1001     1015     1107     1274     1502     1737     1972 
    2219     2461     2681     2864     2963     2957     2867     2679 
    2381     1968     1420      757       76     -576    -1197    -1744 
   -2207    -2606    -2930    -3200    -3462    -3690    -3888    -4112 
   -4356    -4584    -4814    -5031    -5175    -5239    -5221    -5065 
   -4731    -4248    -3655    -2992    -2297    -1521     -634      271 
    1150     2015     2798     3461     4044     4556     4961     5263 
    5463     5525     5482     5391     5254     5062     4833     4630 
    4522     4486     4490     4522     4529     4476     4374     4198 
    3940     3666     3379     3017     2610     2199     1738     1244 
     742      198     -365     -880    -1328    -1705    -1944    -1992 
   -1884    -1680    -1462    -1287    -1129     -958     -799     -658 
    -548     -449     -290      -18      368      903     1576     2331 
    3141     3946     4646     5208     5630     5915     6092     6176 
    6142     6006     5819     5582     5289     4961     4599     4226 
    3898     3597     3299     3033     2793     2551     2328     2135 
    1968     1842     1725     1556     1345     1131      913      696 
     514      359      175      -54     -329     -648     -969    -1240 
   -1472    -1667    -1841    -2072    -2386    -2771    -3211    -3632 
   -3986    -4283    -4498    -4598    -4617    -4590    -4527    -4455 
   -4387    -4315    -4239    -4160    -4082    -4039    -4067    -4148 
   -4271    -4425    -4545    -4583    -4513    -4295    -3924    -3426 
   -2816    -2111    -1340     -519      338     1175     1952     2679 
    3346     3935     4486     4973     5340     5590     5690     5613 
    5414     5148     4819     4459     4113     3793     3497     3213 
    2920     2643     2412     2226     2103     2068     2070     2060 
    2035     1949     1757     1509     1242     1004      903      958 
    1115     1371     1721     2137     2596     3017     3306     3450 
    3457     3339     3161     2943     2695     2496     2416     2452 
    2562     2704     2824     2870     2844     2739     2560     2381 
    2189     1954     1773     1734     1826     2054     2370     2636 
    2799     2906     2936     2867     2709     2457     2174     1941 
    1719     1514     1390     1297     1161     1015      889      792 
     743      696      594      449      247      -29     -321     -623 
    -966    -1273    -1480    -1607    -1632    -1557    -1441    -1264 
   -1019     -772     -523     -279     -101       32      143      191 
     178      133       68       -4      -49      -66      -59       10 
     166      365      592      847     1086     1306     1553     1831 
    2118     2396     2650     2909     3200     3474     3736     4064 
    4455     4887     5394     5931     6411     6825     7122     7257 
    7268     7155     6886     6455     5842     5061     4166     3183 
    2135     1075       51     -899    -1721    -2370    -2847    -3148 
   -3273    -3299    -3280    -3210    -3090    -2938    -2787    -2686 
   -2640    -2589    -2492    -2350    -2158    -1927    -1710    -1514 
   -1302    -1054     -746     -382        2      406      812     1169 
    1497     1830     2131     2394     2664     2945     3230     3550 
    3896     4251     4610     4920     5151     5351     5549     5741 
    5898     5979     5944     5761     5432     4982     4468     3928 
    3379     2839     2335     1876     1458     1067      683      275 
    -160     -600    -1021    -1414    -1773    -2096    -2331    -2447 
   -2504    -2515    -2458    -2389    -2332    -2281    -2274    -2335 
   -2465    -2674    -2887    -3002    -3040    -3033    -2918    -2712 
   -2506    -2303    -2112    -1998    -1953    -1945    -1966    -2015 
   -2072    -2096    -2052    -1944    -1776    -1510    -1104     -557 
     117      927     1858     2864     3923     4997     6042     7052 
    7977     8749     9363     9799    10045    10162    10193    10126 
    9988     9780     9432     8938     8322     7533     6561     5456 
    4202     2824     1399      -72    -1584    -3044    -4419    -5697 
   -6781    -7682    -8471    -9099    -9560    -9914   -10115   -10147 
  -10044    -9805    -9452    -9011    -8471    -7832    -7111    -6305 
   -5425    -4500    -3508    -2435    -1347     -291      729     1691 
    2581     3407     4135     4745     5251     5625     5863     6030 
    6112     6058     5925     5772     5575     5341     5125     4911 
    4650     4364     4062     3739     3397     3017     2565     2057 
    1544     1088      707      333      -95     -579    -1100    -1620 
   -2065    -2415    -2670    -2781    -2697    -2438    -2073    -1626 
   -1098     -481      240     1009     1775     2551     3302     4001 
    4664     5238     5671     6030     6349     6600     6810     6984 
    7060     7033     6964     6871     6771     6656     6492     6303 
    6106     5838     5471     4999     4401     3704     2965     2208 
    1502      900      365     -103     -499     -864    -1213    -1539 
   -1863    -2216    -2605    -3025    -3478    -3937    -4363    -4733 
   -5007    -5136    -5115    -4930    -4579    -4086    -3454    -2710 
   -1915    -1084     -228      607     1402     2143     2795     3333 
    3754     4010     4078     4021     3848     3528     3133     2718 
    2270     1852     1548     1381     1374     1544     1861     2312 
    2866     3431     3982     4531     5034     5447     5783     6018 
    6139     6211     6272     6316     6359     6374     6288     6093 
    5819     5448     5008     4542     4020     3433     2830     2218 
    1636     1155      751      378       16     -380     -847    -1351 
   -1838    -2277    -2610    -2782    -2775    -2592    -2262    -1842 
   -1358     -838     -330      139      537      831     1035     1179 
    1247     1208     1071      826      490      143     -159     -372 
    -445     -405     -291      -98      122      299      410      449 
     413      348      288      234      214      238      278      318 
     372      422      429      407      380      355      346      341 
     310      271      238      205      184      193      216      275 
     368      441      499      564      603      594      553      483 
     413      382      364      359      403      459      495      545 
     565      523      469      396      272      108     -135     -472 
    -800    -1061    -1297    -1495    -1660    -1831    -1975    -2070 
   -2133    -2142    -2087    -1968    -1760    -1449    -1084     -727 
    -414     -143       99      345      616      904     1198     1512 
    1841     2185     2560     2955     3345     3712     3987     4137 
    4147     3942     3511     2953     2328     1686     1117      654 
     310      155      194      390      742     1232     1807     2438 
    3105     3781     4453     5081     5637     6134     6517     6705 
    6725     6590     6250     5742     5134     4433     3681     2938 
    2199     1449      742      109     -429     -830    -1109    -1331 
   -1486    -1586    -1678    -1742    -1775    -1818    -1850    -1850 
   -1842    -1822    -1759    -1653    -1503    -1289    -1011     -673 
    -249      253      830     1494     2204     2918     3636     4333 
    4945     5437     5790     5967     5989     5887     5644     5279 
    4858     4426     4021     3662     3325     2974     2628     2313 
    2042     1865     1807     1819     1849     1840     1719     1498 
    1208      837      433       59     -286     -553     -680     -666 
    -503     -171      299      838     1395     1957     2532     3138 
    3747     4321     4828     5182     5359     5406     5296     4999 
    4545     3987     3402     2828     2215     1526      800       60 
    -720    -1534    -2340    -3129    -3894    -4604    -5239    -5818 
   -6331    -6772    -7148    -7396    -7464    -7371    -7117    -6690 
   -6120    -5431    -4637    -3784    -2893    -1977    -1120     -356 
     360     1023     1606     2092     2407     2509     2436     2195 
    1784     1271      708      130     -394     -839    -1201    -1435 
   -1526    -1482    -1293    -1000     -681     -344       22      399 
     787     1197     1614     2091     2682     3352     4090     4911 
    5748     6574     7399     8131     8672     9009     9128     9000 
    8653     8132     7495     6848     6223     5563     4899     4266 
    3640     3069     2592     2147     1680     1156      538     -124 
    -772    -1437    -2108    -2731    -3335    -3936    -4496    -5058 
   -5626    -6114    -6515    -6864    -7123    -7246    -7215    -7032 
   -6713    -6246    -5638    -4976    -4290    -3584    -2959    -2434 
   -1921    -1422     -992     -567      -91      395      851     1242 
    1536     1772     1962     2056     2054     2023     1962     1871 
    1796     1771     1815     1949     2139     2373     2686     3056 
    3429     3804     4197     4572     4932     5317     5711     6114 
    6547     6961     7322     7630     7835     7901     7877     7767 
    7542     7283     7065     6817     6470     6035     5503     4881 
    4205     3491     2740     1976     1236      544     -116     -743 
   -1296    -1752    -2153    -2486    -2682    -2781    -2870    -2929 
   -2952    -2997    -3072    -3167    -3315    -3503    -3647    -3707 
   -3655    -3473    -3204    -2890    -2538    -2172    -1787    -1336 
    -796     -148      637     1525     2463     3438     4391     5250 
    6016     6677     7180     7535     7754     7832     7805     7707 
    7555     7384     7206     7014     6820     6656     6528     6424 
    6346     6235     6019     5694     5252     4683     4009     3240 
    2353     1363      272     -946    -2251    -3596    -4934    -6191 
   -7312    -8267    -9019    -9579    -9984   -10237   -10349   -10350 
  -10260   -10057    -9710    -9209    -8537    -7688    -6723    -5660 
   -4502    -3311    -2122     -926      233     1312     2317     3235 
    4051     4762     5319     5692     5921     6022     5983     5811 
    5516     5128     4698     4202     3603     2947     2285     1629 
    1016      436     -136     -660    -1112    -1512    -1837    -2043 
   -2120    -2052    -1833    -1509    -1109     -681     -305       33 
     390      731     1054     1422     1825     2242     2729     3267 
    3790     4337     4899     5394     5800     6095     6218     6164 
    5958     5628     5211     4725     4156     3514     2808     2037 
    1247      496     -222     -928    -1545    -1981    -2242    -2371 
   -2370    -2219    -1907    -1401     -697       94      850     1579 
    2374     3229     4045     4814     5587     6324     7006     7688 
    8305     8753     9059     9240     9292     9238     9039     8622 
    7974     7115     6108     5035     3901     2652     1270     -172 
   -1590    -3009    -4479    -5977    -7437    -8779   -10014   -11179 
  -12216   -13109   -13926   -14613   -15039   -15180   -15051   -14623 
  -13959   -13132   -12128   -10966    -9629    -8063    -6335    -4461 
   -2388     -179     2099     4374     6482     8392    10174    11794 
   13221    14439    15361    15984    16422    16726    16864    16869 
   16791    16584    16194    15666    15056    14391    13691    12907 
   11981    10928     9728     8365     6882     5281     3607     1948 
     299    -1352    -2971    -4518    -5953    -7233    -8322    -9159 
   -9644    -9728    -9454    -8869    -8025    -7025    -5950    -4865 
   -3890    -3084    -2386    -1760    -1206     -720     -319      -17 
     206      336      359      275       71     -195     -479     -827 
   -1221    -1587    -1938    -2269    -2517    -2668    -2700    -2540 
   -2178    -1647     -994     -299      361      959     1555     2201 
    2878     3599     4334     5020     5670     6259     6745     7165 
    7550     7906     8251     8546     8745     8831     8811     8684 
    8425     8010     7433     6737     6037     5366     4683     4004 
    3354     2718     2087     1432      739       52     -623    -1285 
   -1880    -2377    -2697    -2767    -2713    -2659    -2558    -2427 
   -2342    -2251    -2161    -2180    -2259    -2327    -2471    -2731 
   -3011    -3237    -3358    -3325    -3107    -2767    -2386    -1988 
   -1557    -1073     -573      -74      461      992     1455     1869 
    2196     2367     2430     2415     2280     2079     1879     1667 
    1463     1305     1171     1074     1019      972      955      978 
    1005     1040     1094     1119     1080      989      842      656 
     522      452      413      467      622      811     1044     1332 
    1614     1879     2097     2180     2106     1919     1621     1213 
     745      251     -249     -699    -1063    -1329    -1478    -1548 
   -1590    -1590    -1551    -1514    -1460    -1366    -1242    -1066 
    -837     -615     -403     -148      157      504      865     1216 
    1564     1880     2157     2431     2701     2947     3173     3404 
    3616     3766     3858     3916     3904     3805     3611     3271 
    2809     2272     1632      912      162     -614    -1354    -1984 
   -2493    -2843    -2992    -2947    -2720    -2339    -1869    -1351 
    -805     -282      201      658     1057     1345     1540     1668 
    1728     1726     1671     1536     1320     1069      808      583 
     426      310      230      237      317      434      619      872 
    1163     1534     1980     2450     2956     3505     4064     4644 
    5262     5875     6450     6987     7452     7840     8174     8430 
    8595     8672     8667     8596     8457     8210     7836     7342 
    6708     5895     4891     3708     2403     1043     -340    -1703 
   -2990    -4180    -5270    -6234    -7076    -7801    -8375    -8775 
   -9016    -9101    -9038    -8854    -8590    -8257    -7866    -7431 
   -6948    -6385    -5746    -5026    -4203    -3291    -2274    -1147 
      31     1227     2455     3662     4800     5884     6878     7736 
    8460     9015     9371     9579     9668     9626     9494     9304 
    9028     8687     8311     7900     7483     7071     6625     6157 
    5691     5198     4676     4141     3562     2963     2393     1842 
    1320      862      442       21     -402     -845    -1287    -1676 
   -2030    -2378    -2683    -2947    -3208    -3461    -3730    -4045 
   -4361    -4656    -4931    -5136    -5255    -5327    -5337    -5328 
   -5359    -5340    -5215    -5038    -4819    -4511    -4120    -3716 
   -3312    -2910    -2548    -2211    -1896    -1621    -1362    -1136 
    -955     -762     -535     -299      -52      202      438      664 
     923     1210     1528     1911     2342     2791     3257     3700 
    4078     4374     4545     4580     4526     4405     4237     4072 
    3877     3613     3331     3072     2832     2620     2431     2277 
    2187     2149     2151     2192     2211     2177     2119     2030 
    1903     1771     1651     1545     1493     1529     1651     1838 
    2081     2336     2566     2781     2955     3033     3036     2965 
    2794     2536     2201     1791     1327      835      334     -141 
    -550     -885    -1131    -1252    -1251    -1146     -977     -792 
    -606     -394     -148      114      394      691     1003     1360 
    1760     2180     2621     3055     3441     3793     4137     4475 
    4795     5082     5293     5387     5390     5313     5166     4982 
    4752     4438     4086     3709     3265     2758     2204     1594 
     931      248     -440    -1113    -1746    -2330    -2853    -3299 
   -3670    -3966    -4166    -4245    -4210    -4071    -3832    -3493 
   -3018    -2419    -1771    -1061     -268      549     1398     2274 
    3127     3966     4783     5522     6138     6621     6967     7171 
    7230     7123     6856     6436     5852     5121     4282     3343 
    2340     1323      283     -777    -1802    -2791    -3778    -4741 
   -5660    -6540    -7353    -8050    -8604    -8985    -9153    -9100 
   -8816    -8291    -7566    -6686    -5641    -4461    -3215    -1929 
    -643      614     1875     3100     4256     5363     6378     7275 
    8095     8823     9421     9923    10338    10640    10822    10872 
   10785    10570    10255     9873     9433     8949     8419     7844 
    7267     6677     6056     5449     4820     4151     3505     2882 
    2295     1806     1417     1120      946      893      913      974 
    1036     1051     1021      936      734      419       37     -396 
    -877    -1378    -1910    -2493    -3092    -3680    -4228    -4677 
   -5009    -5232    -5320    -5282    -5161    -4947    -4641    -4278 
   -3858    -3343    -2743    -2054    -1275     -453      388     1235 
