Origin Time       2025/01/13 21:19:00
Lat.              31.8
Long.             131.6
Depth. (km)       30
Mag.              6.9
Station Code      NGS011
Station Lat.      32.7843
Station Long.     130.2023
Station Height(m) 38
Record Time       2025/01/13 21:20:07
Sampling Freq(Hz) 100Hz
Duration Time(s)  131
Dir.              N-S
Scale Factor      7845(gal)/8223790
Max. Acc. (gal)   6.443
Last Correction   2025/01/13 21:20:07
Memo.             
[...]
    2447     2353     2319     2339     2390     2466     2574     2718 
    2894     3073     3225     3342     3441     3522     3572     3584 
    3557     3495     3415     3338     3258     3159     3048     2933 
    2818     2718     2633     2558     2505     2498     2556     2659 
    2771     2872     2972     3072     3172     3268     3349     3407 
    3449     3478     3504     3538     3582     3632     3686     3734 
    3748     3726     3673     3605     3530     3464     3418     3403 
    3434     3522     3639     3780     3948     4132     4329     4558 
    4820     5100     5375     5620     5823     5995     6130     6234 
    6322     6381     6381     6313     6200     6064     5910     5738 
    5560     5381     5192     5007     4846     4711     4603     4526 
    4468     4429     4405     4378     4344     4321     4317     4311 
    4286     4224     4121     3996     3871     3755     3634     3492 
    3342     3195     3044     2906     2801     2713     2643     2621 
    2646     2701     2799     2938     3079     3207     3326     3437 
    3539     3636     3726     3798     3851     3915     4008     4110 
    4206     4259     4243     4175     4063     3908     3716     3495 
    3261     3048     2862     2694     2547     2438     2381     2373 
    2390     2407     2396     2359     2323     2296     2272     2254 
    2251     2263     2290     2339     2407     2462     2478     2459 
    2423     2381     2331     2276     2227     2184     2126     2062 
    2011     1966     1921     1887     1871     1872     1904     1965 
    2053     2195     2403     2659     2924     3161     3375     3573 
    3763     3954     4144     4309     4432     4523     4615     4730 
    4865     5005     5146     5283     5391     5458     5503     5547 
    5595     5648     5690     5710     5706     5684     5656     5629 
    5609     5609     5630     5665     5692     5695     5680     5655 
    5620     5570     5506     5432     5343     5235     5130     5044 
    4973     4918     4865     4789     4702     4622     4561     4519 
    4483     4437     4365     4252     4109     3935     3715     3449 
    3148     2832     2520     2219     1926     1641     1371     1129 
     928      772      653      576      554      596      704      850 
    1003     1150     1310     1502     1715     1931     2139     2324 
    2502     2694     2884     3056     3188     3269     3318     3356 
    3393     3419     3414     3372     3299     3213     3133     3063 
    2998     2959     2963     2999     3056     3117     3167     3218 
    3284     3365     3451     3530     3597     3654     3701     3757 
    3821     3898     4004     4136     4293     4469     4650     4820 
    4955     5044     5111     5163     5197     5217     5235     5256 
    5270     5258     5228     5179     5093     4970     4828     4696 
    4591     4523     4517     4561     4634     4731     4842     4947 
    5039     5115     5165     5184     5186     5196     5208     5206 
    5186     5147     5092     5020     4931     4841     4756     4665 
    4558     4433     4286     4125     3944     3723     3466     3196 
    2910     2598     2281     1960     1622     1285      977      711 
     487      307      180       86       13      -28      -37      -25 
      16       75      141      218      288      338      361      371 
     387      409      432      467      519      600      735      916 
    1136     1406     1715     2046     2390     2737     3065     3361 
    3620     3846     4028     4152     4228     4279     4322     4371 
    4415     4449     4477     4502     4522     4544     4571     4604 
    4639     4658     4666     4684     4716     4760     4804     4831 
    4838     4824     4801     4792     4791     4796     4820     4866 
    4936     5027     5120     5220     5328     5416     5472     5499 
    5490     5452     5400     5343     5286     5228     5174     5117 
    5043     4943     4828     4723     4646     4596     4552     4482 
    4382     4270     4163     4086     4039     3994     3950     3924 
    3916     3910     3923     3971     4040     4112     4183     4232 
    4255     4268     4276     4283     4301     4307     4276     4199 
    4077     3923     3754     3577     3391     3195     2979     2751 
    2527     2311     2106     1925     1780     1692     1649     1620 
    1598     1590     1595     1629     1696     1798     1930     2083 
    2272     2516     2798     3106     3438     3771     4101     4410 
    4661     4851     5005     5130     5229     5309     5364     5390 
    5390     5379     5355     5302     5227     5148     5070     4996 
    4915     4793     4648     4496     4325     4155     4035     3952 
    3892     3855     3829     3820     3840     3900     3997     4102 
    4194     4280     4351     4399     4440     4459     4456     4434 
    4376     4293     4216     4151     4081     3996     3900     3805 
    3704     3595     3493     3381     3248     3121     3009     2901 
    2805     2717     2623     2527     2444     2382     2327     2265 
    2203     2153     2110     2081     2077     2085     2084     2085 
    2100     2128     2174     2247     2340     2431     2512     2592 
    2673     2763     2862     2951     3036     3142     3271     3415 
    3581     3759     3942     4132     4325     4496     4617     4683 
    4722     4747     4757     4735     4676     4603     4529     4441 
    4332     4210     4105     4028     3962     3904     3848     3767 
    3659     3551     3442     3327     3214     3106     3009     2911 
    2818     2739     2658     2581     2515     2458     2416     2376 
    2326     2282     2249     2226     2235     2273     2316     2343 
    2371     2413     2454     2492     2527     2546     2562     2597 
    2656     2739     2833     2932     3045     3173     3310     3435 
    3535     3604     3654     3701     3750     3792     3828     3863 
    3906     3970     4047     4128     4209     4291     4384     4494 
    4612     4723     4806     4860     4897     4926     4943     4954 
    4957     4951     4923     4855     4758     4625     4456     4271 
    4074     3861     3647     3454     3285     3144     3042     2992 
    2997     3042     3118     3206     3299     3395     3488     3578 
    3655     3693     3692     3651     3559     3424     3271     3099 
    2906     2709     2520     2346     2197     2072     1968     1887 
    1819     1744     1647     1530     1404     1275     1158     1066 
    1003      959      950      990     1070     1182     1332     1518 
    1718     1919     2122     2323     2509     2674     2840     3021 
    3191     3343     3496     3650     3804     3969     4151     4342 
    4533     4720     4889     5028     5144     5227     5265     5263 
    5232     5181     5105     4999     4873     4733     4576     4413 
    4253     4099     3967     3871     3804     3762     3759     3794 
    3851     3915     3994     4097     4212     4321     4410     4459 
    4472     4475     4469     4457     4449     4452     4459     4469 
    4488     4509     4526     4544     4560     4571     4569     4550 
    4510     4456     4402     4348     4286     4202     4097     3975 
    3844     3709     3577     3441     3291     3157     3056     2967 
    2893     2848     2837     2844     2876     2952     3053     3149 
    3248     3349     3443     3538     3634     3717     3790     3869 
    3958     4047     4121     4187     4243     4284     4318     4347 
    4378     4411     4441     4467     4499     4545     4603     4666 
    4725     4777     4806     4800     4781     4766     4770     4808 
    4873     4950     5032     5112     5193     5275     5344     5393 
    5425     5425     5381     5286     5150     4977     4784     4595 
    4426     4276     4145     4037     3954     3889     3828     3757 
    3669     3580     3505     3435     3365     3302     3233     3153 
    3072     3003     2951     2920     2911     2910     2911     2934 
    2995     3073     3148     3221     3294     3350     3399     3451 
    3501     3545     3588     3631     3681     3742     3797     3840 
    3886     3944     4004     4055     4090     4102     4091     4058 
    4005     3939     3865     3786     3708     3634     3555     3465 
    3377     3295     3213     3134     3056     2971     2879     2771 
    2639     2490     2332     2161     1971     1776     1598     1432 
    1281     1167     1097     1074     1109     1183     1275     1393 
    1532     1682     1838     2006     2182     2357     2535     2725 
    2913     3103     3283     3431     3561     3680     3771     3836 
    3879     3898     3893     3862     3819     3763     3681     3581 
    3491     3415     3348     3285     3231     3171     3100     3036 
    2975     2907     2845     2791     2740     2702     2694     2710 
    2754     2824     2899     2971     3045     3121     3203     3296 
    3393     3488     3569     3620     3649     3649     3603     3530 
    3454     3364     3260     3153     3045     2934     2832     2747 
    2656     2551     2440     2317     2200     2114     2049     1993 
    1949     1911     1869     1822     1780     1741     1688     1622 
    1540     1422     1275     1119      957      791      649      544 
     463      407      383      394      452      572      749      969 
    1221     1494     1786     2092     2404     2724     3051     3379 
    3704     4013     4298     4556     4800     5038     5273     5494 
    5686     5853     6018     6176     6315     6435     6532     6590 
    6606     6592     6562     6527     6477     6416     6347     6268 
    6189     6114     6045     5998     5968     5944     5935     5958 
    5998     6046     6104     6156     6191     6211     6218     6214 
    6193     6162     6130     6099     6080     6085     6104     6124 
    6157     6203     6253     6311     6372     6417     6438     6430 
    6384     6293     6169     6008     5810     5591     5348     5085 
    4823     4575     4334     4093     3867     3669     3484     3306 
    3148     3013     2880     2741     2596     2435     2269     2123 
    1993     1873     1769     1675     1571     1462     1358     1274 
    1216     1194     1208     1252     1337     1462     1624     1823 
    2053     2281     2492     2675     2829     2953     3048     3110 
    3145     3165     3177     3188     3208     3242     3291     3346 
    3407     3489     3589     3682     3765     3832     3866     3875 
    3897     3940     3986     4032     4074     4105     4122     4126 
    4117     4094     4066     4031     3994     3964     3932     3889 
    3851     3824     3797     3789     3813     3858     3920     4008 
    4121     4259     4418     4595     4793     5009     5224     5429 
    5617     5767     5865     5918     5933     5907     5842     5751 
    5640     5509     5358     5198     5046     4899     4760     4639 
    4531     4421     4305     4179     4039     3909     3797     3696 
    3607     3534     3473     3429     3411     3411     3415     3423 
    3433     3426     3395     3343     3265     3168     3084     3018 
    2960     2909     2860     2812     2762     2705     2633     2551 
    2455     2342     2215     2077     1929     1776     1617     1447 
    1269     1080      873      662      454      245       43     -155 
    -351     -523     -656     -747     -804     -822     -811     -772 
    -696     -591     -461     -295      -93      144      411      703 
     994     1263     1510     1740     1942     2114     2254     2358 
    2423     2457     2469     2467     2459     2454     2452     2454 
    2475     2531     2609     2698     2803     2909     3003     3096 
    3192     3280     3357     3434     3530     3643     3763     3883 
    4002     4109     4187     4230     4252     4253     4234     4210 
    4201     4199     4201     4205     4210     4216     4229     4255 
    4301     4374     4464     4575     4712     4862     5019     5182 
    5333     5468     5598     5711     5805     5894     5977     6046 
    6112     6173     6220     6261     6282     6269     6234     6197 
    6176     6192     6242     6307     6394     6507     6632     6771 
    6921     7057     7157     7217     7236     7219     7177     7106 
    7005     6874     6710     6507     6270     6012     5733     5422 
    5090     4743     4375     3983     3581     3179     2791     2436 
    2115     1821     1571     1385     1255     1175     1158     1194 
    1251     1313     1370     1410     1429     1420     1375     1302 
    1216     1125     1047      981      916      849      788      727 
     653      565      467      353      228      103      -14     -125 
    -213     -271     -309     -326     -325     -307     -280     -253 
    -241     -249     -264     -291     -325     -344     -356     -368 
    -357     -298     -186      -32      151      359      583      823 
    1077     1333     1579     1829     2091     2361     2632     2905 
    3177     3457     3753     4050     4347     4652     4961     5271 
    5578     5868     6143     6400     6628     6820     6974     7087 
    7165     7215     7242     7252     7253     7265     7300     7352 
    7430     7549     7707     7897     8120     8376     8656     8942 
    9224     9494     9734     9946    10118    10235    10307    10330 
   10295    10214    10092     9931     9745     9544     9324     9092 
    8861     8627     8379     8118     7848     7569     7279     6967 
    6617     6219     5782     5325     4854     4378     3912     3456 
    3018     2614     2243     1894     1567     1259      955      662 
     394      139     -118     -364     -589     -789     -965    -1121 
   -1256    -1359    -1431    -1478    -1506    -1510    -1495    -1470 
   -1424    -1348    -1250    -1134     -992     -827     -654     -477 
    -298     -128       28      184      351      515      679      835 
     980     1116     1256     1395     1537     1688     1849     2030 
    2242     2478     2737     3017     3307     3599     3892     4197 
    4517     4834     5139     5432     5721     5999     6259     6515 
    6778     7040     7285     7514     7720     7900     8054     8195 
    8329     8444     8530     8592     8645     8687     8716     8734 
    8745     8741     8708     8642     8536     8380     8172     7917 
    7615     7273     6903     6525     6162     5823     5503     5206 
    4927     4657     4395     4128     3850     3561     3250     2910 
    2550     2176     1796     1429     1092      783      494      228 
      -9     -236     -459     -664     -859    -1058    -1248    -1425 
   -1582    -1715    -1837    -1942    -2016    -2058    -2072    -2054 
   -1999    -1908    -1787    -1629    -1433    -1200     -938     -658 
    -365      -59      251      575      926     1286     1640     1991 
    2332     2659     2968     3252     3512     3762     3987     4175 
    4322     4433     4526     4612     4692     4776     4870     4953 
    5016     5081     5146     5192     5233     5289     5347     5410 
    5486     5562     5645     5756     5891     6052     6241     6443 
    6652     6856     7047     7229     7404     7565     7711     7821 
    7889     7916     7892     7827     7731     7600     7431     7236 
    7011     6751     6461     6158     5842     5517     5190     4865 
    4542     4221     3906     3601     3304     3022     2760     2532 
    2347     2200     2093     2029     1995     1984     1992     2014 
    2042     2060     2066     2072     2066     2053     2041     2033 
    2043     2076     2120     2170     2218     2259     2296     2327 
    2344     2349     2346     2339     2330     2322     2317     2313 
    2307     2300     2303     2319     2342     2362     2378     2398 
    2435     2490     2556     2640     2754     2890     3051     3240 
    3434     3626     3823     4006     4178     4345     4495     4621 
    4726     4804     4851     4866     4868     4854     4804     4720 
    4611     4469     4297     4099     3883     3651     3414     3186 
    2972     2782     2623     2497     2398     2323     2266     2220 
    2181     2147     2127     2124     2126     2131     2145     2151 
    2137     2104     2062     2008     1949     1896     1848     1807 
    1777     1760     1764     1790     1822     1865     1912     1958 
    2016     2093     2192     2320     2469     2632     2813     3003 
    3194     3381     3555     3709     3846     3958     4044     4109 
    4162     4201     4221     4220     4205     4176     4140     4095 
    4052     4020     3996     3977     3975     3982     3998     4036 
    4086     4144     4207     4272     4342     4406     4455     4506 
    4556     4588     4618     4658     4704     4764     4839     4912 
    4988     5085     5185     5282     5397     5513     5605     5684 
    5757     5817     5854     5877     5896     5903     5898     5887 
    5871     5849     5836     5838     5845     5864     5895     5930 
    5967     6007     6043     6070     6084     6068     6021     5954 
    5861     5734     5590     5445     5292     5124     4957     4776 
    4557     4317     4068     3796     3500     3198     2893     2586 
    2290     2007     1738     1491     1266     1054      850      657 
     472      294      136        0     -121     -224     -317     -410 
    -495     -575     -665     -761     -847     -926    -1007    -1088 
   -1161    -1220    -1271    -1317    -1345    -1344    -1310    -1246 
   -1147    -1012     -843     -648     -434     -201       49      310 
     579      862     1148     1439     1737     2046     2367     2689 
    3006     3331     3666     3993     4315     4644     4963     5263 
    5545     5810     6062     6304     6532     6733     6899     7036 
    7148     7230     7284     7312     7319     7304     7252     7172 
    7088     7001     6912     6822     6740     6660     6577     6492 
    6415     6340     6262     6184     6104     6022     5941     5859 
    5771     5691     5628     5567     5494     5414     5329     5236 
    5138     5038     4936     4827     4712     4600     4488     4378 
    4267     4156     4059     3969     3879     3804     3748     3699 
    3653     3616     3588     3574     3578     3597     3636     3703 
    3793     3892     3997     4105     4202     4284     4359     4414 
    4440     4452     4463     4465     4457     4456     4459     4459 
    4463     4460     4432     4383     4313     4210     4085     3944 
    3793     3647     3519     3412     3322     3249     3211     3213 
    3242     3306     3411     3541     3682     3844     4021     4213 
    4415     4618     4815     5009     5197     5374     5525     5647 
    5740     5798     5823     5825     5807     5780     5742     5697 
    5651     5605     5559     5506     5443     5377     5301     5209 
    5108     4988     4845     4676     4484     4278     4052     3812 
    3569     3318     3059     2794     2520     2236     1953     1671 
    1387     1112      858      631      423      243       99      -12 
