Origin Time       2025/01/13 21:19:00
Lat.              31.8
Long.             131.6
Depth. (km)       30
Mag.              6.9
Station Code      NGS014
Station Lat.      32.6104
Station Long.     130.1851
Station Height(m) 2
Record Time       2025/01/13 21:20:07
Sampling Freq(Hz) 100Hz
Duration Time(s)  95
Dir.              N-S
Scale Factor      7845(gal)/8223790
Max. Acc. (gal)   14.233
Last Correction   2025/01/13 21:20:09
Memo.             
[...]
     504      446      382      344      315      234      101     -108 
    -449     -903    -1409    -1900    -2274    -2486    -2592    -2617 
   -2597    -2620    -2682    -2710    -2694    -2604    -2376    -2015 
   -1579    -1108     -635     -205      157      442      642      764 
     773      638      421      187      -56     -249     -309     -224 
     -40      137      210      193      126       41       41      234 
     589      988     1312     1468     1435     1208      777      214 
    -326     -766    -1098    -1297    -1377    -1420    -1464    -1498 
   -1512    -1472    -1364    -1246    -1119     -926     -706     -525 
    -388     -317     -321     -361     -429     -562     -772    -1043 
   -1362    -1668    -1899    -2026    -1987    -1760    -1421    -1070 
    -828     -818    -1016    -1341    -1749    -2134    -2380    -2443 
   -2292    -1945    -1537    -1181     -901     -734     -683     -672 
    -643     -576     -423     -191       62      324      591      846 
    1104     1316     1412     1435     1460     1506     1613     1799 
    2020     2257     2471     2555     2489     2323     2022     1572 
    1048      492      -59     -533     -909    -1210    -1452    -1661 
   -1875    -2104    -2354    -2605    -2803    -2909    -2907    -2748 
   -2377    -1848    -1236     -588      -12      382      606      683 
     622      518      441      411      475      602      697      747 
     751      688      619      596      585      600      680      804 
     954     1089     1108      938      589       94     -476    -1000 
   -1401    -1648    -1723    -1688    -1632    -1586    -1575    -1613 
   -1647    -1659    -1675    -1648    -1530    -1347    -1077     -699 
    -264      184      607      926     1113     1194     1151      962 
     672      330        8     -202     -275     -232      -81       82 
     117       14     -183     -464     -734     -891     -946     -922 
    -828     -761     -819    -1017    -1335    -1682    -1979    -2259 
   -2566    -2883    -3215    -3524    -3732    -3808    -3727    -3468 
   -3072    -2585    -2019    -1435     -909     -437       13      407 
     710      932     1048     1043      955      823      693      621 
     603      626      697      818     1000     1293     1665     2041 
    2388     2636     2713     2624     2378     1965     1424      778 
      27     -757    -1464    -2064    -2506    -2725    -2781    -2759 
   -2682    -2620    -2610    -2589    -2527    -2411    -2173    -1784 
   -1289     -735     -197      232      487      554      417      109 
    -261     -607     -849     -913     -830     -688     -568     -549 
    -638     -799    -1043    -1325    -1544    -1695    -1780    -1738 
   -1583    -1367    -1121     -912     -773     -657     -558     -483 
    -344     -101      167      410      629      803      938     1077 
    1221     1385     1622     1911     2193     2457     2681     2868 
    3059     3252     3423     3516     3412     3029     2351     1381 
     240     -835    -1661    -2149    -2262    -2088    -1825    -1647 
   -1659    -1910    -2323    -2731    -3033    -3169    -3064    -2743 
   -2340    -1984    -1768    -1734    -1813    -1887    -1883    -1769 
   -1580    -1397    -1271    -1239    -1358    -1595    -1834    -1983 
   -1979    -1825    -1603    -1348    -1067     -800     -496      -64 
     468     1059     1717     2365     2868     3118     3032     2635 
    2068     1431      768      156     -359     -808    -1162    -1374 
   -1506    -1590    -1606    -1602    -1570    -1455    -1271    -1032 
    -766     -557     -480     -584     -872    -1271    -1660    -1966 
   -2184    -2278    -2255    -2228    -2246    -2255    -2223    -2093 
   -1819    -1458    -1092     -751     -488     -299      -83      203 
     530      882     1216     1462     1579     1466     1046      448 
    -126     -538     -643     -419      -10      469      942     1304 
    1525     1648     1703     1699     1632     1501     1291     1003 
     646      286       36      -94     -232     -465     -824    -1297 
   -1775    -2146    -2367    -2384    -2178    -1850    -1471    -1071 
    -722     -459     -278     -209     -224     -243     -243     -228 
    -157      -40       43       66       22      -95     -241     -365 
    -430     -342      -82      251      587      857      946      814 
     486      -12     -589    -1094    -1405    -1433    -1154     -654 
     -40      611     1223     1732     2128     2431     2646     2763 
    2748     2573     2269     1898     1525     1223     1019      870 
     677      309     -314    -1159    -2131    -3105    -3906    -4368 
   -4464    -4268    -3885    -3437    -3037    -2741    -2601    -2620 
   -2721    -2837    -2955    -3006    -2932    -2747    -2421    -1927 
   -1394    -1013     -855     -927    -1179    -1491    -1769    -1914 
   -1744    -1178     -303      735     1729     2466     2887     2994 
    2801     2412     1929     1382      862      438       86     -209 
    -464     -676     -785     -822     -895    -1027    -1198    -1398 
   -1583    -1705    -1749    -1705    -1570    -1402    -1267    -1170 
   -1147    -1251    -1428    -1599    -1717    -1701    -1553    -1389 
   -1247    -1142    -1152    -1252    -1329    -1352    -1302    -1132 
    -872     -568     -253      -13       87       81       72      147 
     359      760     1286     1804     2250     2565     2694     2632 
    2380     2010     1634     1308     1054      865      672      430 
     136     -244     -654     -980    -1223    -1406    -1510    -1605 
   -1771    -2008    -2342    -2736    -3021    -3091    -2948    -2598 
   -2165    -1807    -1553    -1386    -1298    -1197     -942     -495 
     114      884     1764     2633     3395     3950     4221     4206 
    3889     3258     2446     1607      841      233     -243     -704 
   -1196    -1757    -2419    -3099    -3726    -4240    -4488    -4384 
   -3978    -3289    -2389    -1463     -635       48      538      815 
     935      973      972      958      922      830      716      611 
     523      507      549      522      373      149     -122     -376 
    -511     -508     -375     -136       91      206      187       35 
    -237     -606    -1084    -1642    -2178    -2605    -2868    -2894 
   -2681    -2335    -1950    -1609    -1422    -1439    -1647    -2004 
   -2381    -2616    -2647    -2466    -2073    -1551    -1046     -688 
    -588     -772    -1167    -1713    -2316    -2841    -3202    -3327 
   -3163    -2728    -2122    -1437     -751     -141      407      970 
    1528     2062     2596     3072     3426     3622     3613     3446 
    3234     3030     2816     2555     2211     1798     1383      962 
     487      -22     -553    -1078    -1536    -1922    -2272    -2570 
   -2813    -3013    -3096    -3010    -2833    -2627    -2386    -2134 
   -1879    -1610    -1362    -1123     -820     -469     -151       90 
     206      147      -18     -198     -341     -309       -4      475 
     988     1436     1705     1772     1698     1501     1201      862 
     504      155     -129     -375     -621     -838    -1020    -1198 
   -1362    -1485    -1556    -1545    -1398    -1085     -604      -29 
     499      881     1044      946      643      252     -122     -342 
    -314     -113      124      341      483      471      302       10 
    -324     -569     -677     -693     -629     -506     -359     -149 
     140      459      746      959     1038      934      635      149 
    -444    -1003    -1448    -1779    -1989    -2069    -2002    -1804 
   -1556    -1320    -1075     -812     -564     -322      -67      190 
     480      795     1065     1293     1487     1574     1486     1209 
     768      271     -143     -369     -311       63      639     1215 
    1626     1777     1642     1300      861      400      -29     -414 
    -799    -1210    -1671    -2188    -2677    -3042    -3268    -3337 
   -3264    -3145    -3042    -2975    -3011    -3175    -3411    -3665 
   -3862    -3917    -3869    -3790    -3627    -3310    -2894    -2408 
   -1845    -1246     -643      -37      538     1043     1441     1707 
    1895     2069     2209     2303     2373     2434     2515     2631 
    2722     2740     2720     2679     2596     2450     2166     1652 
     931       67     -930    -1979    -2947    -3770    -4413    -4858 
   -5165    -5377    -5524    -5661    -5794    -5840    -5722    -5395 
   -4838    -4129    -3422    -2797    -2289    -1919    -1593    -1209 
    -745     -130      669     1529     2295     2848     3099     3109 
    3028     2953     2984     3219     3630     4153     4738     5252 
    5583     5691     5547     5169     4656     4090     3505     2925 
    2304     1559      718     -140     -988    -1791    -2528    -3188 
   -3720    -4064    -4220    -4210    -4067    -3852    -3616    -3353 
   -3080    -2817    -2508    -2127    -1714    -1305     -943     -676 
    -480     -314     -186     -118     -112     -170     -288     -460 
    -723    -1044    -1296    -1444    -1522    -1563    -1688    -1976 
   -2349    -2760    -3195    -3553    -3785    -3951    -4091    -4234 
   -4425    -4594    -4614    -4426    -3966    -3218    -2274    -1242 
    -210      760     1710     2694     3672     4567     5320     5807 
    5896     5599     5035     4363     3723     3163     2675     2251 
    1827     1332      795      338       63       41      311      791 
    1355     1934     2444     2802     2987     2978     2781     2463 
    2060     1567     1008      345     -477    -1390    -2295    -3172 
   -3983    -4731    -5470    -6153    -6685    -7032    -7183    -7144 
   -6917    -6490    -5910    -5240    -4492    -3713    -3003    -2385 
   -1836    -1335     -827     -256      379     1042     1723     2380 
    2911     3250     3345     3156     2716     2138     1556     1092 
     808      697      785     1082     1494     1918     2301     2582 
    2708     2664     2423     1983     1428      803       90     -680 
   -1472    -2293    -3102    -3817    -4407    -4861    -5170    -5340 
   -5350    -5184    -4874    -4455    -3931    -3333    -2693    -2019 
   -1377     -876     -556     -405     -365     -303     -159       36 
     283      545      754      940     1129     1286     1485     1838 
    2338     2938     3626     4329     4928     5382     5706     5925 
    6041     6026     5875     5587     5119     4473     3761     3042 
    2350     1794     1429     1150      880      600      256     -172 
    -703    -1343    -2007    -2592    -3057    -3395    -3624    -3828 
   -4066    -4369    -4801    -5371    -6003    -6632    -7179    -7512 
   -7573    -7393    -6995    -6408    -5701    -4918    -4095    -3335 
   -2693    -2141    -1703    -1394    -1140     -889     -627     -322 
       8      322      615      877     1115     1368     1595     1722 
    1767     1775     1787     1829     1865     1834     1711     1485 
    1159      796      426       13     -434     -855    -1235    -1549 
   -1725    -1725    -1583    -1343    -1071     -773     -371      144 
     718     1316     1891     2393     2825     3156     3298     3252 
    3110     2907     2663     2417     2151     1842     1524     1239 
    1034      927      847      703      450       91     -310     -654 
    -889    -1000     -974     -864     -742     -608     -457     -276 
     -14      342      772     1228     1624     1903     2072     2141 
    2138     2123     2110     2045     1890     1651     1355      985 
     491     -112     -738    -1331    -1896    -2448    -2999    -3584 
   -4222    -4891    -5552    -6174    -6702    -7061    -7206    -7106 
   -6740    -6173    -5491    -4753    -4039    -3377    -2712    -2002 
   -1219     -338      611     1582     2504     3292     3917     4399 
    4765     5046     5273     5431     5467     5329     4981     4394 
    3593     2648     1609      540     -486    -1458    -2408    -3393 
   -4480    -5636    -6771    -7840    -8792    -9541   -10084   -10459 
  -10670   -10733   -10694   -10559   -10334   -10026    -9583    -8919 
   -8023    -6932    -5671    -4313    -2951    -1626     -373      768 
    1800     2713     3484     4153     4776     5389     6042     6714 
    7326     7852     8268     8452     8355     8102     7786     7398 
    6928     6423     5929     5424     4888     4301     3537     2479 
    1212     -112    -1437    -2747    -3960    -5008    -5871    -6524 
   -6947    -7156    -7191    -7063    -6786    -6390    -5904    -5408 
   -4946    -4476    -3966    -3375    -2640    -1782     -850      125 
    1026     1730     2238     2567     2733     2821     2913     3052 
    3299     3657     4006     4216     4203     3944     3487     2893 
    2235     1614     1111      764      607      672      918     1298 
    1807     2370     2911     3461     3986     4376     4626     4787 
    4888     4962     5016     5024     4981     4877     4641     4220 
    3604     2771     1757      677     -421    -1525    -2552    -3500 
   -4418    -5262    -6034    -6847    -7747    -8730    -9794   -10820 
  -11668   -12278   -12611   -12676   -12534   -12235   -11808   -11271 
  -10604    -9776    -8764    -7539    -6100    -4509    -2847    -1119 
     685     2525     4347     6095     7735     9265    10629    11765 
   12687    13425    13980    14345    14485    14372    14021    13447 
   12658    11664    10493     9162     7680     6135     4596     3021 
    1377     -276    -1848    -3257    -4450    -5364    -5977    -6367 
   -6640    -6855    -7042    -7202    -7290    -7273    -7206    -7126 
   -6986    -6791    -6567    -6251    -5822    -5313    -4745    -4147 
   -3531    -2872    -2222    -1706    -1379    -1186    -1036     -870 
    -645     -292      244      915     1587     2180     2619     2825 
    2844     2770     2643     2528     2500     2528     2540     2467 
    2239     1857     1390      889      390      -60     -434     -741 
   -1020    -1339    -1757    -2277    -2832    -3338    -3699    -3900 
   -4018    -4064    -4002    -3888    -3775    -3642    -3468    -3233 
   -2902    -2511    -2127    -1741    -1348    -1003     -730     -562 
    -546     -657     -862    -1143    -1460    -1844    -2339    -2926 
   -3562    -4203    -4776    -5231    -5535    -5648    -5564    -5297 
   -4845    -4201    -3435    -2648    -1871    -1136     -496       67 
     571      990     1351     1678     1983     2328     2728     3125 
    3516     3917     4286     4619     4950     5254     5508     5688 
    5721     5603     5397     5107     4760     4425     4082     3704 
    3326     2938     2478     1942     1347      703       48     -600 
   -1254    -1863    -2394    -2878    -3321    -3735    -4160    -4553 
   -4881    -5184    -5429    -5567    -5624    -5599    -5463    -5239 
   -4934    -4511    -3983    -3411    -2787    -2122    -1470     -830 
    -205      382      928     1417     1831     2216     2625     3059 
    3495     3931     4338     4681     4947     5100     5124     5078 
    5004     4930     4874     4799     4673     4472     4120     3561 
    2795     1848      723     -553    -1937    -3392    -4826    -6115 
   -7203    -8033    -8554    -8793    -8783    -8544    -8133    -7589 
   -6893    -6015    -5008    -3943    -2872    -1844     -868       67 
     959     1845     2745     3593     4311     4843     5136     5193 
    5039     4661     4068     3308     2431     1528      660     -172 
    -939    -1665    -2411    -3141    -3817    -4425    -4915    -5256 
   -5428    -5443    -5337    -5147    -4969    -4857    -4803    -4831 
   -4885    -4877    -4810    -4654    -4363    -3974    -3492    -2897 
   -2236    -1539     -777       22      805     1524     2165     2754 
    3337     3916     4438     4903     5332     5698     5998     6253 
    6434     6519     6488     6258     5748     4947     3928     2795 
    1636      499     -588    -1603    -2528    -3365    -4101    -4725 
   -5238    -5602    -5792    -5840    -5772    -5609    -5383    -5089 
   -4716    -4291    -3784    -3163    -2448    -1642     -724      267 
    1254     2189     3042     3781     4402     4889     5235     5463 
    5545     5421     5123     4727     4264     3727     3156     2610 
    2118     1686     1266      769      168     -511    -1240    -1979 
   -2683    -3288    -3723    -3985    -4106    -4086    -3919    -3636 
   -3231    -2668    -2000    -1300     -622      -22      531     1071 
    1549     1991     2439     2857     3241     3609     3906     4071 
    4079     3890     3495     2921     2189     1358      502     -351 
   -1150    -1830    -2389    -2849    -3252    -3670    -4114    -4507 
   -4838    -5144    -5410    -5606    -5732    -5768    -5684    -5489 
   -5192    -4774    -4288    -3808    -3330    -2844    -2359    -1830 
   -1227     -577      108      804     1452     2076     2682     3200 
    3615     3898     3974     3847     3558     3141     2708     2349 
    2057     1825     1640     1452     1223      938      596      218 
    -141     -454     -714     -886     -955     -930     -788     -531 
    -232       58      305      475      579      627      625      618 
     635      656      649      603      500      324       79     -213 
    -526     -820    -1092    -1368    -1642    -1900    -2158    -2421 
   -2671    -2874    -2972    -2940    -2798    -2581    -2307    -1993 
   -1663    -1368    -1186    -1136    -1206    -1422    -1768    -2172 
   -2602    -3019    -3304    -3395    -3311    -3042    -2610    -2088 
   -1514     -963     -538     -251      -81       -9       51      162 
     322      573      950     1408     1895     2389     2839     3199 
    3484     3693     3816     3870     3834     3681     3433     3076 
    2570     1919     1147      280     -625    -1549    -2527    -3523 
   -4448    -5274    -6003    -6612    -7123    -7543    -7844    -8031 
   -8100    -8036    -7867    -7615    -7250    -6763    -6151    -5371 
   -4402    -3254    -1939     -511      949     2384     3738     5016 
    6235     7345     8316     9150     9774    10118    10141     9778 
    9058     8144     7179     6255     5427     4685     4012     3395 
    2791     2146     1449      761      112     -545    -1224    -1910 
   -2629    -3353    -4006    -4610    -5158    -5586    -5917    -6199 
   -6428    -6624    -6778    -6837    -6755    -6494    -6031    -5385 
   -4583    -3639    -2593    -1536     -542      333     1061     1665 
    2181     2602     2929     3176     3321     3323     3157     2808 
    2317     1771     1198      626      113     -348     -793    -1224 
   -1659    -2133    -2623    -3096    -3523    -3858    -4083    -4216 
   -4252    -4199    -4089    -3897    -3580    -3141    -2563    -1845 
   -1039     -144      861     1911     2949     3977     4932     5763 
    6467     7014     7375     7543     7488     7214     6820     6350 
    5779     5131     4411     3568     2623     1669      702     -357 
   -1560    -2913    -4344    -5745    -7048    -8176    -9051    -9676 
  -10095   -10339   -10461   -10473   -10343   -10034    -9481    -8621 
