Origin Time       2025/01/13 21:19:00
Lat.              31.8
Long.             131.6
Depth. (km)       30
Mag.              6.9
Station Code      NGS001
Station Lat.      33.3617
Station Long.     129.5377
Station Height(m) 134
Record Time       2025/01/13 21:20:50
Sampling Freq(Hz) 100Hz
Duration Time(s)  79
Dir.              U-D
Scale Factor      7845(gal)/8223790
Max. Acc. (gal)   1.368
Last Correction   2025/01/13 21:20:52
Memo.             
[...]
  -14588   -14682   -14773   -14856   -14931   -14993   -15040   -15070 
  -15086   -15090   -15080   -15059   -15025   -14983   -14937   -14893 
  -14854   -14825   -14809   -14804   -14816   -14836   -14854   -14872 
  -14891   -14899   -14904   -14908   -14912   -14916   -14920   -14926 
  -14935   -14943   -14945   -14941   -14935   -14925   -14913   -14905 
  -14894   -14883   -14878   -14872   -14868   -14879   -14899   -14921 
  -14945   -14964   -14972   -14971   -14959   -14935   -14902   -14870 
  -14836   -14810   -14797   -14794   -14806   -14836   -14874   -14920 
  -14970   -15018   -15063   -15102   -15138   -15164   -15180   -15192 
  -15196   -15192   -15187   -15171   -15149   -15132   -15113   -15095 
  -15086   -15074   -15061   -15061   -15067   -15072   -15080   -15087 
  -15084   -15070   -15040   -14993   -14936   -14874   -14806   -14748 
  -14710   -14685   -14685   -14715   -14760   -14817   -14881   -14944 
  -14998   -15043   -15078   -15107   -15137   -15171   -15209   -15252 
  -15309   -15372   -15442   -15515   -15583   -15646   -15703   -15751 
  -15788   -15815   -15834   -15843   -15846   -15844   -15835   -15817 
  -15797   -15770   -15735   -15697   -15660   -15619   -15584   -15560 
  -15545   -15542   -15545   -15542   -15539   -15529   -15506   -15480 
  -15454   -15422   -15388   -15358   -15333   -15314   -15304   -15299 
  -15294   -15296   -15307   -15317   -15326   -15342   -15358   -15372 
  -15383   -15387   -15381   -15376   -15367   -15353   -15340   -15325 
  -15307   -15295   -15290   -15286   -15286   -15296   -15313   -15326 
  -15344   -15363   -15381   -15396   -15407   -15414   -15415   -15410 
  -15411   -15418   -15422   -15433   -15452   -15466   -15485   -15507 
  -15523   -15527   -15522   -15508   -15485   -15460   -15435   -15410 
  -15384   -15352   -15311   -15263   -15207   -15149   -15093   -15040 
  -14995   -14960   -14931   -14908   -14886   -14863   -14841   -14825 
  -14810   -14798   -14796   -14800   -14812   -14833   -14864   -14902 
  -14939   -14974   -15009   -15033   -15048   -15056   -15063   -15068 
  -15072   -15076   -15080   -15086   -15097   -15114   -15136   -15165 
  -15196   -15229   -15260   -15287   -15307   -15317   -15317   -15300 
  -15261   -15206   -15141   -15068   -14997   -14935   -14885   -14848 
  -14825   -14812   -14806   -14805   -14806   -14809   -14804   -14789 
  -14764   -14729   -14690   -14655   -14623   -14597   -14585   -14577 
  -14575   -14584   -14592   -14602   -14617   -14642   -14670   -14698 
  -14725   -14748   -14762   -14773   -14781   -14785   -14785   -14783 
  -14786   -14806   -14839   -14866   -14893   -14933   -14971   -14995 
  -15016   -15039   -15064   -15086   -15102   -15118   -15134   -15151 
  -15163   -15168   -15168   -15168   -15164   -15153   -15137   -15121 
  -15107   -15095   -15090   -15090   -15093   -15095   -15097   -15094 
  -15091   -15090   -15098   -15125   -15165   -15214   -15271   -15330 
  -15383   -15427   -15462   -15485   -15496   -15495   -15483   -15458 
  -15426   -15394   -15358   -15325   -15300   -15277   -15245   -15209 
  -15167   -15124   -15082   -15039   -14994   -14952   -14916   -14887 
  -14863   -14843   -14829   -14817   -14808   -14800   -14790   -14779 
  -14770   -14755   -14729   -14696   -14662   -14623   -14577   -14535 
  -14500   -14473   -14453   -14445   -14443   -14443   -14445   -14446 
  -14450   -14457   -14467   -14485   -14508   -14535   -14565   -14596 
  -14625   -14648   -14665   -14677   -14690   -14708   -14727   -14751 
  -14782   -14820   -14856   -14895   -14933   -14960   -14972   -14975 
  -14971   -14963   -14951   -14937   -14929   -14926   -14921   -14916 
  -14913   -14908   -14897   -14891   -14893   -14899   -14910   -14926 
  -14945   -14959   -14970   -14983   -14999   -15014   -15036   -15066 
  -15098   -15134   -15172   -15207   -15241   -15273   -15300   -15323 
  -15345   -15367   -15384   -15395   -15399   -15395   -15377   -15350 
  -15321   -15290   -15261   -15237   -15215   -15201   -15190   -15179 
  -15171   -15163   -15157   -15160   -15171   -15191   -15219   -15246 
  -15271   -15277   -15272   -15259   -15238   -15214   -15194   -15174 
  -15156   -15140   -15122   -15111   -15106   -15101   -15106   -15120 
  -15126   -15128   -15124   -15114   -15094   -15064   -15033   -15005 
  -14979   -14959   -14943   -14932   -14928   -14925   -14922   -14921 
  -14917   -14916   -14910   -14899   -14885   -14866   -14841   -14816 
  -14797   -14782   -14774   -14777   -14781   -14786   -14797   -14809 
  -14818   -14831   -14843   -14850   -14852   -14855   -14856   -14854 
  -14852   -14862   -14885   -14917   -14955   -14999   -15045   -15086 
  -15113   -15133   -15145   -15155   -15161   -15168   -15176   -15187 
  -15199   -15218   -15237   -15259   -15292   -15337   -15385   -15441 
  -15502   -15557   -15603   -15633   -15645   -15646   -15639   -15627 
  -15622   -15623   -15628   -15645   -15672   -15703   -15736   -15774 
  -15812   -15843   -15871   -15889   -15894   -15897   -15894   -15884 
  -15869   -15847   -15813   -15770   -15716   -15658   -15600   -15533 
  -15465   -15407   -15358   -15321   -15300   -15295   -15307   -15325 
  -15341   -15356   -15364   -15360   -15345   -15314   -15276   -15236 
  -15190   -15148   -15103   -15051   -14995   -14936   -14868   -14801 
  -14739   -14681   -14628   -14586   -14554   -14532   -14526   -14532 
  -14548   -14571   -14597   -14616   -14627   -14635   -14636   -14632 
  -14623   -14612   -14596   -14571   -14544   -14523   -14505   -14484 
  -14457   -14427   -14401   -14374   -14354   -14346   -14349   -14354 
  -14362   -14368   -14372   -14376   -14376   -14370   -14359   -14345 
  -14332   -14327   -14323   -14326   -14335   -14346   -14357   -14368 
  -14378   -14386   -14396   -14407   -14415   -14424   -14442   -14467 
  -14499   -14534   -14570   -14601   -14629   -14650   -14656   -14656 
  -14650   -14642   -14636   -14631   -14628   -14635   -14652   -14682 
  -14719   -14764   -14824   -14886   -14945   -15001   -15051   -15091 
  -15126   -15161   -15198   -15237   -15277   -15318   -15357   -15395 
  -15426   -15446   -15462   -15477   -15489   -15500   -15515   -15534 
  -15552   -15564   -15570   -15576   -15581   -15587   -15597   -15611 
  -15626   -15639   -15651   -15655   -15651   -15638   -15616   -15588 
  -15549   -15496   -15444   -15387   -15326   -15271   -15222   -15184 
  -15160   -15145   -15140   -15141   -15141   -15138   -15137   -15130 
  -15114   -15095   -15074   -15040   -14994   -14947   -14891   -14833 
  -14778   -14727   -14688   -14663   -14644   -14632   -14634   -14638 
  -14646   -14665   -14690   -14721   -14754   -14779   -14798   -14809 
  -14813   -14813   -14810   -14805   -14801   -14801   -14801   -14793 
  -14775   -14748   -14706   -14656   -14602   -14551   -14511   -14488 
  -14477   -14481   -14501   -14531   -14563   -14592   -14611   -14620 
  -14620   -14613   -14605   -14598   -14594   -14596   -14600   -14609 
  -14624   -14635   -14640   -14644   -14644   -14638   -14634   -14639 
  -14656   -14685   -14732   -14794   -14866   -14932   -14991   -15047 
  -15093   -15129   -15163   -15191   -15214   -15236   -15260   -15287 
  -15318   -15344   -15364   -15383   -15400   -15417   -15435   -15452 
  -15465   -15480   -15493   -15506   -15519   -15529   -15543   -15564 
  -15583   -15608   -15638   -15661   -15684   -15703   -15709   -15708 
  -15699   -15677   -15647   -15616   -15581   -15543   -15518   -15496 
  -15475   -15458   -15442   -15422   -15406   -15388   -15372   -15357 
  -15337   -15311   -15287   -15264   -15244   -15230   -15223   -15218 
  -15219   -15228   -15240   -15256   -15276   -15295   -15311   -15326 
  -15341   -15354   -15367   -15373   -15372   -15365   -15353   -15336 
  -15313   -15291   -15265   -15234   -15199   -15160   -15120   -15078 
  -15033   -14991   -14951   -14912   -14878   -14845   -14809   -14786 
  -14771   -14759   -14755   -14766   -14787   -14817   -14858   -14908 
  -14963   -15016   -15067   -15118   -15164   -15206   -15249   -15290 
  -15322   -15356   -15394   -15431   -15468   -15502   -15535   -15574 
  -15610   -15635   -15651   -15662   -15665   -15662   -15660   -15655 
  -15641   -15620   -15595   -15561   -15518   -15462   -15392   -15313 
  -15230   -15145   -15061   -14983   -14910   -14836   -14762   -14697 
  -14643   -14594   -14544   -14504   -14476   -14449   -14423   -14403 
  -14391   -14380   -14366   -14353   -14337   -14322   -14308   -14297 
  -14291   -14291   -14291   -14293   -14297   -14299   -14292   -14284 
  -14277   -14272   -14266   -14264   -14268   -14272   -14278   -14295 
  -14312   -14332   -14358   -14382   -14408   -14435   -14461   -14485 
  -14513   -14543   -14574   -14605   -14636   -14665   -14693   -14717 
  -14737   -14762   -14786   -14808   -14829   -14847   -14863   -14885 
  -14908   -14926   -14945   -14960   -14962   -14958   -14948   -14928 
  -14909   -14891   -14871   -14855   -14844   -14829   -14818   -14812 
  -14805   -14801   -14793   -14781   -14769   -14755   -14739   -14725 
  -14720   -14716   -14716   -14727   -14743   -14760   -14783   -14809 
  -14839   -14871   -14905   -14937   -14970   -14999   -15029   -15059 
  -15083   -15105   -15129   -15156   -15178   -15202   -15233   -15265 
  -15300   -15337   -15372   -15404   -15433   -15456   -15468   -15468 
  -15460   -15445   -15425   -15404   -15387   -15376   -15376   -15385 
  -15400   -15419   -15441   -15458   -15471   -15483   -15493   -15502 
  -15510   -15515   -15514   -15510   -15506   -15499   -15496   -15503 
  -15518   -15541   -15576   -15616   -15654   -15693   -15727   -15749 
  -15758   -15757   -15749   -15732   -15715   -15700   -15687   -15678 
  -15682   -15699   -15720   -15743   -15768   -15795   -15817   -15836 
  -15850   -15855   -15854   -15846   -15830   -15808   -15776   -15735 
  -15695   -15653   -15604   -15561   -15520   -15477   -15438   -15404 
  -15368   -15330   -15292   -15256   -15225   -15198   -15176   -15159 
  -15145   -15134   -15126   -15115   -15107   -15101   -15095   -15093 
  -15093   -15088   -15076   -15060   -15032   -14991   -14945   -14894 
  -14835   -14771   -14709   -14651   -14596   -14542   -14489   -14439 
  -14395   -14354   -14316   -14287   -14260   -14234   -14211   -14189 
  -14172   -14154   -14137   -14129   -14131   -14138   -14148   -14161 
  -14177   -14192   -14207   -14224   -14246   -14277   -14310   -14347 
  -14391   -14431   -14476   -14526   -14574   -14624   -14677   -14729 
  -14779   -14828   -14875   -14925   -14976   -15026   -15078   -15128 
  -15171   -15210   -15246   -15275   -15298   -15317   -15331   -15338 
  -15342   -15342   -15337   -15333   -15326   -15315   -15310   -15306 
  -15296   -15288   -15283   -15279   -15283   -15302   -15333   -15368 
  -15408   -15457   -15514   -15569   -15623   -15676   -15716   -15745 
  -15765   -15776   -15778   -15782   -15792   -15812   -15844   -15884 
  -15930   -15979   -16028   -16073   -16119   -16159   -16194   -16228 
  -16252   -16263   -16262   -16251   -16232   -16209   -16177   -16137 
  -16096   -16044   -15990   -15931   -15861   -15788   -15709   -15619 
  -15530   -15446   -15360   -15279   -15213   -15159   -15111   -15076 
  -15053   -15030   -15014   -15005   -14997   -14995   -15001   -15002 
  -15001   -14997   -14989   -14976   -14959   -14939   -14920   -14901 
  -14878   -14854   -14831   -14808   -14781   -14755   -14732   -14710 
  -14688   -14665   -14642   -14612   -14582   -14554   -14521   -14489 
  -14455   -14422   -14389   -14361   -14338   -14320   -14304   -14292 
  -14280   -14268   -14253   -14233   -14210   -14191   -14173   -14156 
  -14143   -14138   -14135   -14137   -14142   -14149   -14153   -14157 
  -14168   -14176   -14184   -14195   -14210   -14224   -14238   -14247 
  -14256   -14266   -14277   -14284   -14293   -14307   -14326   -14353 
  -14386   -14426   -14466   -14504   -14540   -14569   -14593   -14616 
  -14638   -14654   -14670   -14688   -14705   -14724   -14748   -14777 
  -14804   -14835   -14868   -14901   -14932   -14963   -14991   -15018 
  -15043   -15061   -15070   -15072   -15078   -15090   -15109   -15132 
  -15167   -15215   -15271   -15331   -15394   -15454   -15515   -15570 
  -15612   -15645   -15670   -15689   -15705   -15719   -15735   -15755 
  -15780   -15807   -15835   -15867   -15904   -15936   -15967   -15996 
  -16015   -16028   -16038   -16038   -16028   -16017   -16005   -15989 
  -15969   -15951   -15934   -15916   -15898   -15878   -15858   -15842 
  -15823   -15799   -15780   -15766   -15759   -15763   -15773   -15786 
  -15812   -15844   -15873   -15901   -15930   -15947   -15952   -15948 
  -15935   -15908   -15870   -15830   -15789   -15746   -15704   -15665 
  -15630   -15597   -15566   -15542   -15519   -15498   -15481   -15469 
  -15452   -15427   -15403   -15377   -15341   -15304   -15272   -15245 
  -15229   -15225   -15226   -15230   -15238   -15246   -15250   -15250 
  -15242   -15228   -15209   -15184   -15153   -15122   -15094   -15056 
  -15016   -14974   -14925   -14875   -14825   -14769   -14708   -14655 
  -14604   -14553   -14513   -14473   -14431   -14396   -14362   -14327 
  -14297   -14278   -14268   -14264   -14266   -14277   -14288   -14295 
  -14296   -14289   -14280   -14264   -14239   -14211   -14176   -14130 
  -14080   -14025   -13963   -13898   -13837   -13778   -13725   -13683 
  -13652   -13628   -13613   -13617   -13632   -13652   -13686   -13732 
  -13784   -13838   -13895   -13952   -14013   -14072   -14126   -14180 
  -14235   -14288   -14334   -14374   -14415   -14453   -14482   -14513 
  -14544   -14569   -14594   -14623   -14650   -14685   -14725   -14774 
  -14827   -14881   -14943   -15007   -15068   -15124   -15176   -15221 
  -15250   -15272   -15291   -15302   -15304   -15307   -15313   -15326 
  -15352   -15383   -15418   -15452   -15484   -15514   -15543   -15574 
  -15606   -15634   -15660   -15681   -15696   -15704   -15701   -15685 
  -15657   -15622   -15580   -15535   -15488   -15446   -15411   -15384 
  -15369   -15365   -15365   -15367   -15369   -15372   -15369   -15358 
  -15350   -15342   -15333   -15326   -15325   -15327   -15342   -15364 
  -15392   -15429   -15468   -15508   -15557   -15603   -15645   -15684 
  -15719   -15754   -15788   -15816   -15842   -15867   -15892   -15915 
  -15938   -15954   -15959   -15962   -15962   -15954   -15940   -15924 
  -15901   -15873   -15843   -15808   -15768   -15728   -15687   -15638 
  -15588   -15541   -15491   -15448   -15410   -15373   -15342   -15315 
  -15288   -15265   -15240   -15215   -15201   -15182   -15160   -15145 
  -15129   -15105   -15082   -15057   -15028   -14998   -14976   -14958 
  -14937   -14920   -14904   -14883   -14864   -14848   -14833   -14824 
  -14821   -14824   -14835   -14851   -14868   -14889   -14909   -14928 
  -14945   -14958   -14966   -14971   -14975   -14979   -14980   -14979 
  -14978   -14974   -14963   -14948   -14928   -14902   -14877   -14852 
  -14828   -14809   -14797   -14786   -14779   -14774   -14769   -14759 
  -14747   -14735   -14720   -14705   -14689   -14673   -14658   -14647 
  -14636   -14627   -14623   -14623   -14623   -14619   -14619   -14627 
  -14635   -14643   -14650   -14658   -14667   -14675   -14681   -14689 
  -14698   -14704   -14709   -14716   -14719   -14721   -14725   -14727 
  -14723   -14716   -14708   -14697   -14686   -14679   -14682   -14694 
  -14716   -14744   -14782   -14828   -14877   -14926   -14978   -15021 
  -15059   -15093   -15111   -15118   -15126   -15130   -15128   -15125 
  -15126   -15130   -15138   -15155   -15182   -15210   -15237   -15264 
  -15292   -15318   -15338   -15358   -15377   -15394   -15408   -15421 
  -15435   -15454   -15472   -15487   -15506   -15530   -15552   -15570 
  -15585   -15595   -15599   -15595   -15577   -15552   -15520   -15481 
  -15438   -15395   -15349   -15300   -15256   -15213   -15171   -15129 
  -15084   -15033   -14975   -14910   -14840   -14764   -14690   -14619 
  -14557   -14508   -14470   -14442   -14428   -14423   -14420   -14420 
  -14419   -14415   -14405   -14393   -14376   -14353   -14322   -14284 
  -14247   -14210   -14176   -14149   -14122   -14103   -14100   -14107 
  -14125   -14153   -14188   -14229   -14273   -14316   -14358   -14401 
  -14435   -14469   -14505   -14536   -14565   -14594   -14621   -14650 
  -14678   -14704   -14723   -14746   -14774   -14796   -14816   -14839 
  -14855   -14867   -14879   -14889   -14894   -14897   -14898   -14899 
  -14904   -14913   -14924   -14936   -14953   -14975   -15003   -15040 
  -15083   -15128   -15180   -15237   -15292   -15342   -15395   -15445 
  -15487   -15527   -15569   -15606   -15641   -15674   -15705   -15735 
  -15765   -15790   -15811   -15828   -15843   -15857   -15867   -15877 
  -15884   -15889   -15897   -15901   -15901   -15896   -15886   -15877 
  -15865   -15849   -15828   -15807   -15785   -15761   -15735   -15714 
  -15697   -15681   -15665   -15655   -15646   -15639   -15635   -15630 
  -15624   -15620   -15614   -15608   -15604   -15599   -15589   -15576 
  -15554   -15531   -15504   -15476   -15444   -15406   -15371   -15340 
  -15304   -15272   -15249   -15229   -15217   -15215   -15219   -15226 
  -15236   -15244   -15253   -15260   -15261   -15260   -15253   -15238 
  -15215   -15194   -15169   -15140   -15107   -15075   -15044   -15017 
  -14990   -14960   -14926   -14891   -14856   -14813   -14762   -14712 
  -14662   -14608   -14559   -14521   -14488   -14463   -14445   -14426 
  -14412   -14403   -14389   -14366   -14345   -14324   -14296   -14265 
  -14229   -14189   -14148   -14104   -14060   -14022   -13988   -13961 
  -13948   -13941   -13946   -13963   -13986   -14011   -14035   -14060 
  -14083   -14104   -14121   -14133   -14148   -14162   -14173   -14181 
  -14189   -14195   -14197   -14199   -14202   -14207   -14218   -14229 
  -14242   -14261   -14283   -14301   -14323   -14343   -14368   -14397 
  -14434   -14474   -14524   -14581   -14635   -14689   -14744   -14801 
  -14856   -14910   -14963   -15021   -15078   -15130   -15183   -15234 
  -15284   -15331   -15375   -15414   -15452   -15493   -15530   -15568 
  -15611   -15650   -15687   -15728   -15765   -15792   -15819   -15842 
  -15855   -15863   -15870   -15876   -15880   -15880   -15881   -15882 
  -15884   -15882   -15878   -15870   -15855   -15839   -15819   -15792 
  -15766   -15739   -15705   -15672   -15634   -15593   -15547   -15502 
  -15457   -15412   -15368   -15327   -15287   -15252   -15219   -15188 
  -15164   -15141   -15120   -15099   -15079   -15057   -15040   -15022 
  -15005   -14995   -14989   -14985   -14985   -14986   -14986   -14986 
  -14986   -14989   -14994   -14998   -15003   -15012   -15022   -15034 
  -15047   -15060   -15084   -15110   -15133   -15164   -15195   -15222 
  -15250   -15273   -15292   -15306   -15315   -15323   -15330   -15333 
  -15337   -15342   -15345   -15352   -15356   -15354   -15349   -15344 
  -15331   -15310   -15283   -15253   -15219   -15183   -15148   -15115 
  -15086   -15053   -15021   -14993   -14959   -14918   -14881   -14840 
  -14798   -14759   -14724   -14694   -14669   -14648   -14635   -14629 
  -14625   -14624   -14628   -14631   -14629   -14629   -14628   -14621 
