Origin Time       2025/01/13 21:19:00
Lat.              31.8
Long.             131.6
Depth. (km)       30
Mag.              6.9
Station Code      NGS012
Station Lat.      32.7883
Station Long.     130.3463
Station Height(m) 100
Record Time       2025/01/13 21:20:04
Sampling Freq(Hz) 100Hz
Duration Time(s)  136
Dir.              N-S
Scale Factor      7845(gal)/8223790
Max. Acc. (gal)   6.249
Last Correction   2025/01/13 21:20:05
Memo.             
[...]
    -228     -124      -14       79      126      144      128       35 
    -113     -294     -569     -970    -1462    -2016    -2620    -3258 
   -3901    -4480    -4973    -5373    -5637    -5775    -5853    -5900 
   -5896    -5838    -5763    -5692    -5589    -5402    -5134    -4806 
   -4445    -4072    -3697    -3352    -3059    -2797    -2539    -2295 
   -2106    -1987    -1902    -1814    -1740    -1691    -1665    -1701 
   -1823    -2014    -2259    -2546    -2836    -3091    -3311    -3480 
   -3578    -3643    -3734    -3859    -4001    -4153    -4315    -4472 
   -4654    -4870    -5070    -5212    -5275    -5256    -5181    -5078 
   -4931    -4722    -4494    -4260    -3998    -3712    -3431    -3172 
   -2879    -2527    -2169    -1829    -1495    -1178     -885     -625 
    -407     -222      -55       67       97       20     -178     -523 
    -981    -1478    -2000    -2538    -2997    -3331    -3577    -3773 
   -3944    -4101    -4226    -4342    -4465    -4531    -4518    -4471 
   -4379    -4221    -4036    -3838    -3623    -3443    -3352    -3345 
   -3385    -3422    -3422    -3380    -3323    -3308    -3372    -3537 
   -3786    -4078    -4417    -4831    -5290    -5744    -6146    -6467 
   -6709    -6893    -7036    -7161    -7248    -7236    -7128    -7011 
   -6920    -6793    -6635    -6512    -6415    -6284    -6115    -5934 
   -5729    -5452    -5090    -4679    -4226    -3751    -3310    -2940 
   -2656    -2473    -2374    -2324    -2312    -2351    -2442    -2562 
   -2689    -2785    -2828    -2863    -2943    -3060    -3202    -3346 
   -3464    -3535    -3566    -3574    -3581    -3616    -3724    -3915 
   -4148    -4347    -4479    -4518    -4409    -4162    -3832    -3420 
   -2929    -2412    -1927    -1480    -1080     -783     -588     -444 
    -383     -426     -510     -611     -760     -962    -1198    -1432 
   -1660    -1915    -2201    -2498    -2802    -3088    -3311    -3464 
   -3582    -3651    -3685    -3719    -3715    -3645    -3534    -3389 
   -3233    -3109    -3051    -3057    -3073    -3088    -3167    -3350 
   -3628    -3951    -4245    -4467    -4577    -4567    -4453    -4218 
   -3842    -3387    -2943    -2542    -2165    -1827    -1536    -1279 
   -1131    -1161    -1329    -1599    -1979    -2451    -2987    -3541 
   -4052    -4471    -4776    -4966    -5070    -5103    -5050    -4939 
   -4792    -4568    -4276    -3975    -3659    -3348    -3102    -2928 
   -2820    -2799    -2851    -2920    -2997    -3095    -3235    -3435 
   -3670    -3931    -4259    -4657    -5111    -5621    -6156    -6667 
   -7095    -7400    -7585    -7636    -7537    -7327    -7048    -6725 
   -6409    -6099    -5749    -5350    -4922    -4475    -4006    -3537 
   -3098    -2673    -2268    -1965    -1799    -1721    -1701    -1750 
   -1842    -1917    -1964    -1973    -1887    -1748    -1653    -1598 
   -1564    -1611    -1753    -1956    -2187    -2413    -2600    -2712 
   -2725    -2629    -2432    -2158    -1829    -1494    -1198     -935 
    -714     -554     -436     -365     -379     -456     -538     -630 
    -795    -1050    -1367    -1734    -2141    -2563    -2987    -3393 
   -3738    -4005    -4221    -4384    -4488    -4568    -4668    -4795 
   -4927    -5053    -5182    -5324    -5486    -5651    -5787    -5881 
   -5915    -5875    -5782    -5683    -5632    -5647    -5679    -5688 
   -5675    -5586    -5406    -5206    -5040    -4939    -4939    -4997 
   -5026    -4980    -4857    -4671    -4414    -4070    -3635    -3144 
   -2632    -2133    -1702    -1401    -1232    -1189    -1274    -1448 
   -1679    -1975    -2301    -2606    -2914    -3279    -3693    -4109 
   -4472    -4738    -4873    -4855    -4702    -4446    -4124    -3770 
   -3418    -3090    -2803    -2573    -2398    -2255    -2135    -2072 
   -2060    -2046    -2030    -2046    -2066    -2047    -2018    -2003 
   -1976    -1925    -1848    -1699    -1474    -1229    -1009     -837 
    -761     -819     -990    -1255    -1626    -2095    -2594    -3065 
   -3481    -3809    -4052    -4240    -4356    -4371    -4317    -4241 
   -4152    -4050    -3960    -3894    -3839    -3778    -3715    -3693 
   -3726    -3759    -3798    -3892    -4035    -4202    -4388    -4573 
   -4756    -4942    -5103    -5219    -5287    -5306    -5263    -5146 
   -4981    -4815    -4658    -4531    -4494    -4561    -4700    -4903 
   -5152    -5406    -5667    -5969    -6313    -6662    -6990    -7288 
   -7541    -7726    -7842    -7877    -7807    -7605    -7277    -6840 
   -6291    -5638    -4945    -4266    -3595    -2948    -2381    -1915 
   -1545    -1250    -1016     -846     -733     -665     -635     -626 
    -618     -631     -681     -756     -859    -1001    -1167    -1323 
   -1451    -1579    -1707    -1815    -1919    -2043    -2189    -2322 
   -2408    -2458    -2477    -2447    -2353    -2200    -2033    -1911 
   -1865    -1881    -1941    -2025    -2103    -2154    -2166    -2116 
   -1993    -1829    -1657    -1498    -1364    -1262    -1216    -1248 
   -1339    -1467    -1629    -1827    -2089    -2404    -2701    -2978 
   -3264    -3554    -3839    -4116    -4391    -4676    -4977    -5305 
   -5661    -6039    -6443    -6836    -7161    -7412    -7612    -7742 
   -7765    -7703    -7576    -7387    -7187    -7002    -6813    -6623 
   -6438    -6261    -6100    -5962    -5844    -5710    -5514    -5242 
   -4889    -4468    -4025    -3588    -3153    -2758    -2417    -2095 
   -1783    -1510    -1298    -1147    -1044    -1000    -1011    -1026 
    -984     -897     -839     -815     -789     -780     -811     -864 
    -923    -1012    -1154    -1290    -1362    -1414    -1458    -1420 
   -1293    -1148    -1028     -930     -870     -865     -886     -955 
   -1158    -1510    -1965    -2462    -2936    -3387    -3842    -4280 
   -4683    -5043    -5344    -5575    -5730    -5790    -5752    -5653 
   -5518    -5346    -5130    -4861    -4548    -4264    -4075    -3996 
   -4040    -4230    -4523    -4842    -5162    -5474    -5769    -6029 
   -6200    -6284    -6297    -6207    -6003    -5686    -5251    -4737 
   -4197    -3712    -3357    -3140    -3049    -3092    -3218    -3365 
   -3531    -3717    -3878    -3962    -3959    -3885    -3726    -3510 
   -3285    -3064    -2847    -2606    -2308    -1979    -1649    -1325 
   -1039     -820     -660     -562     -535     -540     -573     -649 
    -719     -753     -793     -872    -1009    -1227    -1497    -1788 
   -2085    -2359    -2569    -2729    -2875    -3013    -3157    -3306 
   -3431    -3539    -3634    -3672    -3619    -3511    -3365    -3177 
   -2987    -2809    -2639    -2524    -2484    -2486    -2520    -2586 
   -2662    -2727    -2798    -2879    -2952    -3014    -3037    -2992 
   -2914    -2839    -2739    -2602    -2470    -2386    -2374    -2442 
   -2589    -2789    -2974    -3107    -3229    -3333    -3393    -3476 
   -3661    -3936    -4286    -4715    -5167    -5580    -5952    -6272 
   -6527    -6731    -6866    -6916    -6920    -6886    -6791    -6651 
   -6471    -6257    -6021    -5763    -5483    -5211    -4981    -4792 
   -4631    -4523    -4434    -4302    -4179    -4133    -4153    -4243 
   -4413    -4633    -4882    -5125    -5320    -5470    -5567    -5603 
   -5601    -5551    -5485    -5470    -5485    -5460    -5404    -5320 
   -5165    -4923    -4598    -4180    -3674    -3088    -2471    -1875 
   -1314     -826     -423      -98      128      236      218      124 
       0     -145     -284     -400     -511     -600     -683     -819 
    -992    -1159    -1312    -1432    -1528    -1633    -1734    -1821 
   -1922    -2031    -2134    -2263    -2420    -2587    -2776    -2984 
   -3196    -3410    -3609    -3804    -3998    -4120    -4129    -4066 
   -3950    -3794    -3627    -3439    -3235    -3042    -2836    -2604 
   -2390    -2209    -2049    -1927    -1864    -1877    -1972    -2139 
   -2342    -2563    -2813    -3071    -3315    -3561    -3800    -4035 
   -4282    -4521    -4737    -4916    -5043    -5128    -5182    -5197 
   -5198    -5213    -5236    -5250    -5244    -5239    -5254    -5278 
   -5267    -5204    -5109    -4989    -4815    -4571    -4257    -3900 
   -3518    -3126    -2763    -2459    -2211    -2035    -1941    -1903 
   -1922    -1998    -2099    -2230    -2424    -2673    -2947    -3264 
   -3640    -4018    -4382    -4737    -5054    -5348    -5637    -5900 
   -6149    -6392    -6594    -6741    -6833    -6856    -6818    -6754 
   -6671    -6567    -6467    -6403    -6382    -6372    -6340    -6291 
   -6230    -6169    -6118    -6076    -6037    -5975    -5868    -5710 
   -5501    -5244    -4955    -4644    -4315    -3985    -3655    -3337 
   -3060    -2841    -2670    -2560    -2524    -2546    -2602    -2679 
   -2762    -2844    -2905    -2932    -2952    -2979    -3010    -3051 
   -3094    -3103    -3064    -2995    -2932    -2902    -2914    -2960 
   -3032    -3119    -3200    -3258    -3283    -3277    -3238    -3134 
   -2970    -2782    -2594    -2404    -2216    -2038    -1877    -1740 
   -1633    -1567    -1555    -1620    -1755    -1929    -2126    -2340 
   -2569    -2809    -3069    -3326    -3528    -3658    -3732    -3754 
   -3711    -3599    -3442    -3291    -3159    -3038    -2974    -2991 
   -3057    -3152    -3264    -3341    -3366    -3353    -3281    -3152 
   -3003    -2856    -2735    -2652    -2593    -2558    -2546    -2525 
   -2489    -2451    -2388    -2300    -2222    -2154    -2110    -2120 
   -2189    -2300    -2432    -2570    -2706    -2836    -2938    -2994 
   -2990    -2917    -2782    -2609    -2444    -2326    -2262    -2273 
   -2390    -2601    -2866    -3149    -3412    -3615    -3730    -3774 
   -3782    -3773    -3761    -3759    -3759    -3746    -3735    -3738 
   -3728    -3705    -3669    -3622    -3601    -3635    -3707    -3815 
   -3942    -4033    -4059    -4006    -3865    -3639    -3370    -3099 
   -2837    -2601    -2415    -2290    -2232    -2238    -2301    -2397 
   -2504    -2593    -2628    -2628    -2604    -2544    -2455    -2351 
   -2246    -2150    -2069    -2027    -2043    -2120    -2270    -2511 
   -2814    -3159    -3541    -3902    -4193    -4409    -4571    -4692 
   -4766    -4792    -4777    -4729    -4679    -4631    -4580    -4568 
   -4588    -4592    -4615    -4693    -4781    -4846    -4919    -4969 
   -4941    -4858    -4723    -4506    -4226    -3924    -3604    -3285 
   -3003    -2779    -2617    -2517    -2488    -2529    -2621    -2778 
   -2997    -3225    -3441    -3647    -3817    -3905    -3912    -3859 
   -3721    -3511    -3273    -3013    -2747    -2509    -2305    -2161 
   -2097    -2108    -2188    -2331    -2539    -2791    -3075    -3358 
   -3597    -3771    -3859    -3847    -3769    -3643    -3469    -3287 
   -3140    -3018    -2921    -2857    -2803    -2744    -2701    -2694 
   -2717    -2766    -2852    -2956    -3048    -3145    -3267    -3406 
   -3534    -3659    -3800    -3929    -4039    -4159    -4295    -4450 
   -4644    -4870    -5092    -5269    -5406    -5524    -5587    -5557 
   -5445    -5294    -5101    -4869    -4650    -4459    -4247    -4010 
   -3808    -3663    -3543    -3433    -3352    -3277    -3181    -3065 
   -2922    -2771    -2614    -2434    -2254    -2107    -1981    -1868 
   -1748    -1611    -1503    -1431    -1363    -1332    -1363    -1431 
   -1529    -1678    -1869    -2073    -2272    -2461    -2625    -2779 
   -2924    -3026    -3082    -3088    -3052    -3009    -2995    -3025 
   -3110    -3269    -3501    -3773    -4050    -4315    -4560    -4762 
   -4897    -4963    -4988    -5004    -5019    -5040    -5077    -5121 
   -5154    -5148    -5112    -5061    -4969    -4838    -4692    -4548 
   -4417    -4328    -4324    -4407    -4557    -4769    -5020    -5273 
   -5516    -5715    -5836    -5872    -5850    -5821    -5802    -5792 
   -5826    -5915    -6018    -6116    -6212    -6293    -6351    -6385 
   -6412    -6443    -6481    -6509    -6515    -6502    -6438    -6268 
   -6018    -5711    -5298    -4791    -4288    -3824    -3353    -2897 
   -2532    -2263    -2053    -1891    -1786    -1736    -1741    -1786 
   -1846    -1919    -1988    -2049    -2114    -2177    -2218    -2224 
   -2201    -2169    -2143    -2169    -2266    -2388    -2496    -2573 
   -2589    -2539    -2459    -2382    -2328    -2320    -2363    -2443 
   -2556    -2709    -2893    -3105    -3325    -3514    -3655    -3738 
   -3774    -3793    -3801    -3800    -3808    -3825    -3844    -3871 
   -3924    -3986    -4036    -4085    -4135    -4159    -4135    -4072 
   -3967    -3816    -3635    -3423    -3160    -2868    -2581    -2280 
   -1966    -1671    -1418    -1210    -1040     -907     -788     -668 
    -554     -441     -342     -301     -317     -386     -515     -710 
    -961    -1262    -1591    -1927    -2272    -2621    -2959    -3294 
   -3642    -3975    -4275    -4545    -4768    -4939    -5077    -5161 
   -5194    -5190    -5108    -4924    -4662    -4310    -3874    -3385 
   -2843    -2243    -1610     -957     -301      341      961     1533 
    2033     2442     2749     2948     3038     3032     2940     2786 
    2587     2331     2000     1610     1150      599      -31     -729 
   -1474    -2257    -3071    -3894    -4698    -5474    -6211    -6890 
   -7499    -8037    -8510    -8904    -9223    -9485    -9686    -9826 
   -9936   -10003    -9992    -9896    -9710    -9425    -9039    -8592 
   -8140    -7699    -7294    -6956    -6686    -6484    -6358    -6286 
   -6215    -6119    -6015    -5898    -5752    -5601    -5474    -5383 
   -5352    -5382    -5427    -5475    -5533    -5574    -5583    -5579 
   -5553    -5476    -5344    -5174    -4970    -4743    -4513    -4282 
   -4047    -3798    -3511    -3172    -2812    -2447    -2085    -1771 
   -1552    -1421    -1335    -1275    -1264    -1277    -1273    -1283 
   -1321    -1314    -1248    -1163    -1050     -923     -854     -872 
    -965    -1129    -1367    -1651    -1956    -2293    -2663    -3051 
   -3460    -3861    -4228    -4579    -4931    -5279    -5609    -5910 
   -6200    -6481    -6731    -6970    -7211    -7425    -7582    -7682 
   -7742    -7757    -7712    -7605    -7399    -7045    -6561    -5980 
   -5317    -4575    -3805    -3084    -2432    -1881    -1468    -1136 
    -830     -608     -507     -434     -324     -214      -99       37 
     144      232      340      421      460      495      507      475 
     433      383      294      175       17     -210     -476     -724 
    -969    -1263    -1567    -1819    -2072    -2317    -2478    -2583 
   -2659    -2650    -2551    -2432    -2311    -2127    -1898    -1674 
   -1439    -1189     -955     -762     -615     -504     -450     -475 
    -557     -692     -888    -1139    -1418    -1715    -2058    -2447 
   -2859    -3277    -3667    -4025    -4364    -4677    -4957    -5192 
   -5395    -5584    -5734    -5861    -6002    -6133    -6235    -6326 
   -6397    -6436    -6451    -6454    -6442    -6409    -6338    -6210 
   -6033    -5782    -5435    -5044    -4634    -4190    -3734    -3295 
   -2880    -2479    -2085    -1710    -1370    -1070     -816     -631 
    -548     -548     -602     -733     -949    -1219    -1536    -1892 
   -2245    -2590    -2947    -3280    -3584    -3875    -4153    -4433 
   -4734    -5050    -5358    -5640    -5881    -6065    -6183    -6234 
   -6232    -6201    -6135    -6025    -5895    -5744    -5559    -5355 
   -5147    -4966    -4830    -4734    -4699    -4756    -4892    -5084 
   -5316    -5567    -5783    -5935    -6021    -6031    -5989    -5933 
   -5860    -5784    -5745    -5724    -5692    -5670    -5649    -5598 
   -5502    -5320    -5036    -4687    -4288    -3838    -3368    -2909 
   -2474    -2065    -1664    -1262     -873     -502     -124      257 
     599      889     1139     1318     1413     1441     1418     1351 
    1235     1090      924      722      486      214     -129     -549 
   -1030    -1559    -2110    -2659    -3187    -3673    -4105    -4509 
   -4897    -5266    -5605    -5907    -6183    -6415    -6556    -6600 
   -6554    -6427    -6228    -5979    -5707    -5406    -5058    -4685 
   -4309    -3928    -3558    -3217    -2884    -2544    -2224    -1946 
   -1692    -1486    -1368    -1312    -1275    -1266    -1287    -1317 
   -1343    -1378    -1435    -1497    -1582    -1733    -1944    -2157 
   -2350    -2551    -2740    -2890    -3045    -3213    -3362    -3543 
   -3788    -4056    -4329    -4608    -4903    -5200    -5479    -5751 
   -6035    -6291    -6492    -6656    -6791    -6894    -6984    -7068 
   -7133    -7180    -7211    -7199    -7140    -7052    -6928    -6764 
   -6593    -6432    -6277    -6139    -6035    -5960    -5880    -5779 
   -5647    -5471    -5228    -4914    -4534    -4093    -3604    -3095 
   -2600    -2141    -1725    -1389    -1156    -1042    -1050    -1150 
   -1312    -1513    -1732    -1952    -2162    -2355    -2512    -2632 
   -2728    -2787    -2795    -2764    -2697    -2597    -2479    -2353 
   -2208    -2065    -1933    -1809    -1710    -1672    -1699    -1750 
   -1833    -2003    -2197    -2362    -2540    -2713    -2857    -2965 
   -3003    -2984    -2918    -2794    -2644    -2466    -2255    -2029 
   -1767    -1485    -1198     -909     -631     -364     -147      -24 
       9      -40     -179     -387     -623     -881    -1163    -1436 
   -1692    -1939    -2161    -2361    -2567    -2793    -3022    -3235 
   -3438    -3643    -3854    -4059    -4247    -4428    -4617    -4787 
   -4916    -5011    -5086    -5158    -5235    -5331    -5454    -5610 
   -5786    -5967    -6151    -6330    -6473    -6583    -6662    -6687 
   -6644    -6551    -6439    -6313    -6176    -6049    -5937    -5825 
   -5709    -5579    -5456    -5373    -5321    -5269    -5212    -5162 
   -5124    -5070    -4984    -4896    -4824    -4754    -4692    -4637 
   -4573    -4486    -4341    -4140    -3906    -3645    -3364    -3099 
   -2845    -2585    -2332    -2110    -1894    -1663    -1436    -1233 
   -1078     -970     -874     -797     -781     -820     -909    -1066 
   -1278    -1518    -1763    -2019    -2277    -2485    -2624    -2714 
   -2756    -2740    -2678    -2559    -2382    -2185    -1985    -1818 
   -1687    -1560    -1451    -1370    -1302    -1271    -1279    -1314 
   -1404    -1567    -1783    -2038    -2324    -2621    -2914    -3190 
   -3451    -3726    -4009    -4283    -4569    -4878    -5169    -5404 
   -5574    -5649    -5609    -5487    -5317    -5100    -4845    -4583 
   -4344    -4113    -3859    -3603    -3395    -3261    -3215    -3241 
   -3288    -3357    -3477    -3593    -3628    -3599    -3543    -3443 
   -3318    -3230    -3177    -3127    -3092    -3087    -3111    -3186 
   -3325    -3522    -3763    -4010    -4271    -4594    -4922    -5174 
   -5348    -5447    -5443    -5351    -5185    -4924    -4583    -4203 
   -3809    -3430    -3082    -2754    -2462    -2232    -2052    -1888 
   -1756    -1664    -1578    -1497    -1428    -1362    -1304    -1263 
   -1262    -1314    -1393    -1487    -1610    -1740    -1867    -2003 
   -2143    -2277    -2390    -2493    -2609    -2743    -2882    -3028 
