Origin Time       2025/01/13 21:19:00
Lat.              31.8
Long.             131.6
Depth. (km)       30
Mag.              6.9
Station Code      NGS009
Station Lat.      32.8457
Station Long.     130.0216
Station Height(m) 25
Record Time       2025/01/13 21:20:30
Sampling Freq(Hz) 100Hz
Duration Time(s)  72
Dir.              E-W
Scale Factor      7845(gal)/8223790
Max. Acc. (gal)   1.958
Last Correction   2025/01/13 21:20:31
Memo.             
[...]
    -259     -282     -288     -292     -283     -263     -237     -194 
    -133      -64       13       95      180      268      353      422 
     472      506      538      583      649      719      774      792 
     758      664      503      302       95      -97     -265     -407 
    -530     -630     -695     -715     -693     -631     -545     -454 
    -371     -292     -222     -143      -40       75      191      290 
     357      390      382      337      272      201      126       64 
      25        2        9       54      133      232      329      413 
     472      506      526      550      581      619      654      668 
     637      561      436      261       67     -126     -319     -492 
    -634     -739     -792     -770     -664     -472     -220       47 
     286      461      565      608      608      575      521      449 
     352      249      171      129      113      112      105       76 
      21      -60     -151     -218     -245     -220     -139      -10 
     153      341      531      712      862      963     1016     1021 
     973      881      753      585      386      183       -2     -152 
    -249     -287     -264     -184      -68       66      197      307 
     400      479      533      577      622      658      685      692 
     656      580      465      310      120     -101     -344     -585 
    -804     -974    -1058    -1027     -891     -673     -396      -83 
     236      529      766      934     1026     1042      990      888 
     746      576      384      184       -5     -172     -292     -355 
    -375     -367     -345     -306     -251     -187     -102       10 
     143      290      440      580      712      827      923      997 
    1044     1070     1088     1090     1063      997      874      693 
     477      236      -24     -274     -502     -702     -850     -934 
    -936     -834     -638     -373      -76      197      425      606 
     731      808      841      831      793      735      658      583 
     523      477      437      406      383      376      378      367 
     325      249      144       28      -79     -170     -233     -267 
    -287     -302     -301     -280     -238     -164      -66       52 
     178      290      379      440      456      415      318      183 
      16     -170     -341     -469     -545     -567     -544     -486 
    -402     -317     -233     -148      -64       21      113      207 
     301      379      426      438      417      364      279      166 
      22     -121     -232     -298     -317     -290     -236     -168 
     -95      -25       47      132      232      345      461      567 
     661      735      785      804      773      687      561      418 
     267      130       25      -56     -112     -128     -102      -43 
      47      160      287      407      496      550      571      557 
     518      469      417      359      294      233      183      151 
     125      109      106      122      172      255      345      422 
     459      446      407      351      271      175       56      -93 
    -238     -356     -436     -464     -438     -376     -299     -238 
    -211     -205     -207     -210     -198     -164     -101      -20 
      64      147      222      282      310      311      291      253 
     206      148       81       22       -5      -13       -6       14 
      51       97      139      159      149      105       33      -37 
     -90     -113      -94      -37       28       85      126      147 
     156      166      170      162      133       85       20      -67 
    -179     -310     -453     -588     -697     -768     -804     -826 
    -838     -845     -839     -796     -702     -562     -398     -236 
     -98        4       70      113      148      175      184      163 
      98       -9     -147     -295     -440     -568     -676     -754 
    -811     -843     -846     -819     -765     -684     -576     -461 
    -357     -272     -218     -193     -195     -226     -275     -330 
    -388     -448     -513     -587     -641     -653     -621     -535 
    -400     -229      -33      166      345      502      626      707 
     754      773      760      730      685      634      598      581 
     592      646      733      826      913      988     1034     1043 
    1012      947      864      776      689      598      500      403 
     317      251      206      180      179      197      214      224 
     217      207      214      240      280      326      361      369 
     342      302      270      256      268      305      346      378 
     398      415      441      480      533      581      606      594 
     549      484      403      311      207       93      -32     -157 
    -283     -406     -510     -583     -619     -616     -583     -521 
    -429     -324     -216     -120      -37       35       97      147 
     190      211      198      153      102       85      116      190 
     302      426      529      599      641      657      641      594 
     514      413      297      175       74        5      -39      -56 
     -41        8       89      175      245      299      332      336 
     301      211       66     -116     -313     -502     -657     -762 
    -807     -791     -719     -600     -444     -267      -83      106 
     288      444      568      653      699      711      681      615 
     529      441      365      305      264      244      245      255 
     267      280      294      311      333      364      402      433 
     452      445      398      315      213      113       24      -56 
    -117     -164     -213     -248     -270     -288     -298     -302 
    -303     -302     -297     -291     -282     -257     -217     -156 
     -85       -9       56      101      116       98       48      -18 
     -87     -152     -205     -243     -261     -252     -217     -149 
     -44       85      218      334      417      457      436      349 
     220       64      -94     -230     -332     -400     -445     -467 
    -457     -423     -364     -274     -166      -55       54      157 
     248      318      364      371      345      306      256      207 
     162      114       74       48       47       74      105      129 
     149      149      121       72        2      -83     -174     -261 
    -344     -417     -477     -519     -535     -515     -457     -365 
    -249     -133      -28       58      113      151      180      199 
     217      232      240      243      251      257      256      251 
     238      218      190      153      109       63       18      -12 
     -22      -16       -2        8       13       16       14       12 
      14       24       41       66       83       95      105      126 
     167      199      209      206      195      166      110       27 
     -83     -221     -373     -522     -649     -743     -789     -774 
    -689     -541     -345     -122      106      317      490      616 
     700      751      784      805      814      818      823      827 
     828      812      783      751      712      664      621      579 
     541      506      471      445      427      417      417      419 
     407      384      357      324      276      216      141       68 
       8      -32      -52      -48      -12       47      117      191 
     267      341      407      449      460      442      400      346 
     290      241      206      180      162      144      124       95 
      67       54       63       89      128      180      256      356 
     471      595      724      839      928      980      976      922 
     841      741      627      521      438      391      388      417 
     472      550      637      724      808      869      909      934 
     920      864      764      631      495      368      260      186 
     152      155      191      248      314      391      468      535 
     581      589      564      519      450      367      295      236 
     184      141      101       71       48       17      -14      -28 
     -31      -39      -48      -68     -103     -141     -175     -202 
    -217     -218     -211     -190     -167     -156     -148     -139 
    -126     -105      -75      -33       18       82      155      224 
     278      326      379      422      452      471      473      467 
     461      465      472      469      449      405      338      261 
     178       99       36      -12      -44      -48      -22       29 
      89      157      248      349      433      503      565      607 
     619      603      550      468      373      260      121      -22 
    -147     -247     -318     -351     -344     -294     -194      -63 
      75      209      338      454      542      584      576      531 
     461      369      255      113      -43     -187     -301     -380 
    -418     -421     -390     -328     -261     -209     -151      -86 
     -14       59      133      211      294      380      456      507 
     529      511      469      422      368      324      299      279 
     271      291      334      394      454      508      545      561 
     549      491      372      205        2     -222     -448     -660 
    -839     -963    -1026    -1028     -976     -884     -770     -658 
    -560     -476     -419     -399     -418     -476     -562     -653 
    -730     -789     -823     -811     -770     -722     -666     -621 
    -602     -610     -652     -731     -835     -965    -1112    -1258 
   -1398    -1522    -1609    -1663    -1692    -1680    -1632    -1561 
   -1482    -1406    -1333    -1263    -1206    -1170    -1144    -1140 
   -1170    -1217    -1271    -1331    -1375    -1399    -1405    -1372 
   -1298    -1182    -1032     -869     -714     -568     -448     -364 
    -322     -319     -345     -394     -454     -503     -533     -538 
    -506     -440     -356     -257     -148      -27      112      261 
     399      521      625      693      720      697      627      523 
     390      238       94      -33     -133     -184     -189     -149 
     -79       24      166      324      486      668      855     1030 
    1186     1312     1402     1462     1494     1509     1513     1512 
    1503     1493     1482     1474     1482     1516     1556     1594 
    1622     1634     1629     1584     1502     1399     1263     1094 
     913      723      542      382      244      136       54       -9 
     -45      -59      -54      -31        0       33       67       98 
     125      156      183      189      186      187      187      201 
     216      225      245      255      249      264      288      311 
     337      361      407      464      510      567      631      692 
     754      811      842      838      808      746      660      554 
     437      355      302      232      191      221      279      345 
     437      542      639      742      842      915      976     1011 
    1004      973      916      837      765      708      675      687 
     742      831      934     1023     1096     1148     1200     1259 
    1312     1343     1362     1387     1398     1356     1270     1142 
     962      753      525      286       55     -163     -360     -506 
    -608     -673     -673     -619     -554     -495     -445     -415 
    -413     -459     -542     -623     -719     -845     -950    -1008 
   -1035    -1019     -961     -880     -770     -638     -503     -351 
    -186      -32      106      224      319      402      460      502 
     533      537      517      487      442      379      292      180 
      48      -87     -234     -375     -477     -535     -567     -577 
    -560     -510     -441     -365     -278     -179      -89      -13 
      54      105      126      113       72       13      -68     -172 
    -279     -363     -432     -490     -511     -486     -426     -329 
    -191      -35      126      286      434      562      658      716 
     734      715      654      561      465      375      287      218 
     180      180      229      324      460      639      838     1032 
    1201     1317     1371     1375     1331     1248     1139     1012 
     878      756      652      577      531      508      506      504 
     494      479      459      442      453      481      511      553 
     600      629      635      633      618      595      577      542 
     472      379      271      145        9     -126     -261     -390 
    -514     -634     -737     -811     -865     -900     -922     -949 
    -990    -1044    -1107    -1185    -1273    -1350    -1425    -1505 
   -1571    -1629    -1696    -1757    -1806    -1842    -1838    -1787 
   -1705    -1575    -1395    -1194     -978     -768     -598     -464 
    -360     -309     -307     -344     -410     -496     -591     -681 
    -766     -845     -896     -912     -899     -843     -741     -602 
    -438     -271     -112       40      190      328      445      540 
     591      594      565      503      410      309      206      112 
      49       12       -8        1       28       63      122      187 
     245      302      336      333      306      264      213      168 
     136      110       98       97       91       79       62       40 
      10      -51     -129     -202     -288     -382     -460     -538 
    -603     -623     -599     -523     -390     -201       40      334 
     670     1026     1375     1691     1935     2092     2161     2130 
    1995     1771     1486     1188      908      650      434      272 
     166      110      109      170      287      452      646      842 
    1017     1159     1246     1269     1246     1163     1017      842 
     658      452      233       43      -87     -179     -226     -216 
    -187     -156     -112      -81      -78      -85     -105     -144 
    -190     -245     -307     -356     -403     -472     -544     -583 
    -577     -550     -506     -432     -337     -234     -122        1 
     122      222      315      388      423      438      442      427 
     395      344      287      233      178      126       97       91 
      91       97       93       63       27      -27     -112     -193 
    -267     -348     -414     -454     -477     -477     -450     -405 
    -345     -292     -233     -163     -126     -129     -136     -148 
    -190     -259     -328     -413     -521     -608     -669     -716 
    -718     -665     -591     -488     -334     -148       41      237 
     426      594      734      839      899      916      899      835 
     741      642      544      440      352      299      271      290 
     379      517      697      927     1158     1367     1552     1671 
    1706     1686     1602     1436     1221      976      696      418 
     175      -29     -171     -236     -241     -198     -114       -9 
     109      221      306      371      405      411      415      407 
     386      371      355      336      326      326      328      321 
     303      267      221      168       95       28      -16      -64 
     -99      -83      -33       40      136      218      276      292 
     243      144       24     -117     -287     -467     -634     -787 
    -915    -1026    -1102    -1109    -1077    -1030     -932     -805 
    -683     -552     -427     -325     -224     -143      -94      -66 
     -63      -86      -90      -76      -86      -83      -24       35 
      93      191      287      365      434      463      449      399 
     306      197       91      -20     -135     -229     -321     -410 
    -459     -483     -496     -484     -475     -472     -464     -465 
    -468     -449     -430     -422     -391     -351     -324     -267 
    -191     -133      -56       28       60       74       75       25 
     -44     -113     -211     -326     -437     -542     -614     -653 
    -668     -626     -540     -444     -317     -179      -68       51 
     184      283      364      456      514      542      577      573 
     535      527      504      465      468      475      473      513 
     572      652      783      919     1059     1236     1406     1530 
    1648     1737     1756     1738     1690     1586     1466     1344 
    1190     1040      916      783      658      562      469      383 
     317      247      180      125       64       12      -35     -103 
    -175     -238     -321     -398     -440     -460     -465     -437 
    -380     -311     -218      -98       27      152      271      356 
     410      442      430      388      337      260      176      124 
      78       28       21       60      105      193      342      496 
     638      781      877      907      904      858      772      692 
     615      544      517      523      538      584      654      720 
     772      803      792      729      614      446      228      -28 
    -297     -560     -808    -1011    -1150    -1227    -1227    -1166 
   -1061     -908     -737     -583     -440     -311     -226     -182 
    -151     -153     -197     -252     -325     -422     -508     -577 
    -660     -745     -807     -866     -922     -965    -1011    -1046 
   -1043    -1032    -1012     -951     -858     -750     -618     -463 
    -298     -133       45      236      409      565      715      838 
     923      986     1034     1048     1032     1000      946      873 
     785      697      621      549      481      422      373      333 
     295      259      236      224      216      221      251      292 
     332      373      419      448      449      437      417      386 
     352      325      305      287      278      275      265      260 
     272      282      291      319      353      369      372      367 
     341      288      224      149       75       17      -16      -17 
      14       83      183      290      402      511      595      672 
     751      815      868      918      955      984      992      972 
     940      915      892      885      899      923      945      947 
     936      920      896      861      828      787      733      684 
     634      581      544      519      511      542      598      656 
     735      830      896      922      919      869      756      598 
     400      160     -106     -388     -676     -942    -1174    -1372 
   -1502    -1552    -1561    -1541    -1490    -1440    -1399    -1352 
   -1314    -1289    -1271    -1266    -1260    -1251    -1247    -1243 
   -1236    -1244    -1252    -1237    -1213    -1182    -1123    -1039 
    -955     -872     -780     -675     -571     -479     -387     -306 
    -251     -202     -155     -118      -81      -27       49      151 
     263      373      475      565      648      707      735      745 
     733      699      652      594      531      460      375      306 
     252      199      174      168      168      190      226      265 
     303      333      371      419      459      502      561      619 
     677      753      831      899      951      982      990      977 
     931      857      773      702      654      631      630      648 
     676      696      697      692      683      669      664      665 
     662      673      697      729      773      837      908      993 
