Origin Time       2025/01/13 21:19:00
Lat.              31.8
Long.             131.6
Depth. (km)       30
Mag.              6.9
Station Code      NGS005
Station Lat.      33.0370
Station Long.     129.9173
Station Height(m) 3
Record Time       2025/01/13 21:20:32
Sampling Freq(Hz) 100Hz
Duration Time(s)  77
Dir.              N-S
Scale Factor      7845(gal)/8223790
Max. Acc. (gal)   1.910
Last Correction   2025/01/13 21:20:33
Memo.             
[...]
   -2349    -2389    -2397    -2380    -2389    -2428    -2457    -2454 
   -2434    -2430    -2458    -2467    -2435    -2398    -2370    -2362 
   -2365    -2326    -2280    -2278    -2304    -2338    -2355    -2354 
   -2349    -2349    -2362    -2381    -2390    -2392    -2343    -2249 
   -2164    -2081    -2038    -2070    -2104    -2091    -2038    -1988 
   -2006    -2025    -1977    -1953    -1979    -1981    -1969    -1971 
   -1992    -2025    -2011    -1964    -1938    -1927    -1921    -1903 
   -1853    -1792    -1718    -1624    -1541    -1485    -1456    -1441 
   -1381    -1321    -1335    -1347    -1308    -1289    -1325    -1374 
   -1421    -1479    -1552    -1655    -1772    -1848    -1881    -1926 
   -1989    -2034    -2060    -2084    -2123    -2195    -2273    -2300 
   -2277    -2246    -2216    -2169    -2091    -2023    -1987    -1923 
   -1825    -1769    -1771    -1769    -1740    -1726    -1768    -1802 
   -1765    -1736    -1782    -1830    -1830    -1845    -1929    -2015 
   -2041    -2081    -2192    -2284    -2317    -2328    -2328    -2346 
   -2365    -2328    -2263    -2193    -2131    -2124    -2137    -2103 
   -2049    -2027    -2058    -2085    -2050    -2008    -2004    -2010 
   -2034    -2073    -2116    -2176    -2204    -2205    -2209    -2184 
   -2168    -2189    -2176    -2142    -2128    -2151    -2215    -2253 
   -2257    -2281    -2301    -2295    -2284    -2278    -2257    -2209 
   -2181    -2192    -2196    -2187    -2173    -2157    -2153    -2135 
   -2097    -2084    -2058    -1998    -1958    -1941    -1935    -1925 
   -1881    -1864    -1902    -1907    -1861    -1813    -1773    -1755 
   -1741    -1690    -1652    -1668    -1688    -1725    -1798    -1867 
   -1939    -2020    -2073    -2107    -2142    -2189    -2243    -2269 
   -2303    -2378    -2438    -2473    -2508    -2547    -2590    -2597 
   -2552    -2525    -2543    -2551    -2531    -2513    -2536    -2617 
   -2704    -2756    -2789    -2809    -2822    -2801    -2724    -2646 
   -2578    -2506    -2430    -2332    -2230    -2141    -2049    -1976 
   -1902    -1818    -1782    -1768    -1755    -1792    -1848    -1923 
   -2050    -2118    -2126    -2180    -2236    -2254    -2266    -2282 
   -2307    -2335    -2326    -2273    -2243    -2255    -2228    -2123 
   -2011    -1957    -1934    -1917    -1919    -1923    -1929    -1965 
   -2019    -2073    -2119    -2178    -2247    -2249    -2200    -2203 
   -2215    -2203    -2208    -2182    -2143    -2145    -2128    -2116 
   -2157    -2195    -2176    -2092    -2020    -2027    -2073    -2133 
   -2172    -2174    -2196    -2251    -2315    -2378    -2423    -2430 
   -2396    -2340    -2290    -2254    -2238    -2220    -2178    -2170 
   -2219    -2249    -2232    -2209    -2176    -2138    -2079    -1944 
   -1809    -1745    -1686    -1607    -1559    -1537    -1533    -1525 
   -1485    -1449    -1440    -1435    -1421    -1401    -1405    -1441 
   -1455    -1463    -1513    -1572    -1630    -1703    -1759    -1803 
   -1865    -1933    -2000    -2079    -2184    -2295    -2363    -2419 
   -2482    -2538    -2612    -2687    -2722    -2763    -2821    -2864 
   -2903    -2933    -2937    -2910    -2840    -2752    -2677    -2604 
   -2536    -2481    -2413    -2336    -2280    -2226    -2164    -2106 
   -2047    -2006    -1987    -1980    -1984    -2008    -2061    -2118 
   -2145    -2172    -2216    -2265    -2326    -2388    -2428    -2455 
   -2444    -2405    -2373    -2339    -2309    -2274    -2219    -2181 
   -2126    -2035    -1980    -1923    -1844    -1802    -1771    -1744 
   -1765    -1792    -1826    -1888    -1939    -2000    -2088    -2142 
   -2184    -2247    -2296    -2338    -2373    -2366    -2362    -2382 
   -2376    -2357    -2357    -2328    -2268    -2218    -2172    -2115 
   -2066    -2014    -1929    -1858    -1823    -1769    -1723    -1710 
   -1683    -1674    -1691    -1684    -1702    -1749    -1776    -1818 
   -1861    -1879    -1908    -1914    -1898    -1937    -1979    -1985 
   -2011    -2023    -2007    -2015    -2029    -2019    -2007    -1985 
   -1950    -1923    -1911    -1908    -1929    -1995    -2084    -2164 
   -2250    -2350    -2427    -2469    -2484    -2481    -2482    -2461 
   -2415    -2389    -2366    -2326    -2273    -2212    -2173    -2139 
   -2087    -2057    -2042    -2025    -2026    -2029    -2042    -2084 
   -2104    -2107    -2116    -2093    -2065    -2035    -1976    -1945 
   -1919    -1860    -1821    -1773    -1698    -1652    -1605    -1540 
   -1521    -1525    -1522    -1545    -1578    -1598    -1611    -1621 
   -1636    -1642    -1632    -1630    -1632    -1626    -1642    -1656 
   -1661    -1695    -1736    -1792    -1864    -1926    -2003    -2089 
   -2149    -2207    -2263    -2305    -2354    -2393    -2398    -2398 
   -2423    -2457    -2482    -2505    -2538    -2566    -2578    -2590 
   -2593    -2598    -2609    -2593    -2579    -2581    -2556    -2517 
   -2447    -2309    -2153    -1977    -1776    -1599    -1425    -1240 
   -1096     -969     -855     -793     -756     -751     -781     -800 
    -843     -934    -1031    -1146    -1283    -1417    -1552    -1694 
   -1830    -1962    -2093    -2220    -2328    -2434    -2550    -2632 
   -2658    -2674    -2681    -2658    -2644    -2644    -2636    -2613 
   -2577    -2539    -2494    -2440    -2412    -2393    -2365    -2361 
   -2338    -2272    -2227    -2169    -2087    -2039    -1983    -1908 
   -1892    -1898    -1890    -1896    -1896    -1885    -1881    -1887 
   -1908    -1923    -1925    -1938    -1949    -1957    -1989    -2035 
   -2083    -2137    -2216    -2301    -2369    -2457    -2552    -2616 
   -2690    -2774    -2830    -2903    -2986    -3048    -3142    -3241 
   -3294    -3357    -3407    -3388    -3362    -3326    -3241    -3157 
   -3083    -3007    -2943    -2867    -2813    -2801    -2758    -2712 
   -2685    -2589    -2465    -2367    -2242    -2133    -2076    -2008 
   -1952    -1949    -1952    -1939    -1953    -1983    -1992    -2002 
   -2025    -2025    -2015    -2019    -2008    -1996    -1979    -1945 
   -1937    -1935    -1918    -1931    -1960    -1977    -2015    -2046 
   -2054    -2074    -2077    -2060    -2065    -2080    -2085    -2084 
   -2062    -2038    -2011    -1964    -1930    -1906    -1854    -1800 
   -1744    -1680    -1653    -1640    -1620    -1636    -1659    -1668 
   -1706    -1761    -1830    -1930    -2038    -2133    -2218    -2295 
   -2343    -2365    -2405    -2434    -2413    -2405    -2403    -2359 
   -2328    -2309    -2265    -2230    -2195    -2139    -2097    -2049 
   -1971    -1898    -1833    -1772    -1719    -1660    -1602    -1555 
   -1514    -1502    -1514    -1529    -1551    -1566    -1567    -1568 
   -1571    -1580    -1599    -1598    -1605    -1620    -1615    -1638 
   -1664    -1653    -1661    -1659    -1628    -1630    -1636    -1633 
   -1659    -1672    -1683    -1710    -1714    -1725    -1746    -1753 
   -1783    -1821    -1854    -1930    -2035    -2137    -2232    -2316 
   -2408    -2494    -2547    -2577    -2594    -2608    -2616    -2604 
   -2600    -2604    -2594    -2598    -2609    -2605    -2602    -2600 
   -2577    -2538    -2486    -2439    -2419    -2404    -2376    -2346 
   -2315    -2289    -2258    -2199    -2147    -2114    -2052    -2002 
   -1966    -1906    -1869    -1879    -1899    -1944    -1984    -2006 
   -2060    -2120    -2158    -2191    -2193    -2169    -2139    -2101 
   -2066    -2030    -1988    -1945    -1895    -1854    -1838    -1836 
   -1834    -1810    -1798    -1831    -1867    -1902    -1958    -1980 
   -1995    -2050    -2080    -2083    -2092    -2043    -1961    -1917 
   -1873    -1825    -1787    -1705    -1609    -1540    -1466    -1413 
   -1371    -1291    -1221    -1173    -1123    -1108    -1116    -1113 
   -1108    -1105    -1100    -1108    -1139    -1162    -1131    -1082 
   -1050    -1012     -976     -958     -940     -936     -943     -936 
    -935     -962     -994    -1031    -1066    -1093    -1142    -1212 
   -1279    -1356    -1428    -1503    -1598    -1684    -1772    -1867 
   -1931    -1976    -2000    -2007    -2054    -2126    -2204    -2316 
   -2442    -2579    -2721    -2837    -2957    -3075    -3156    -3241 
   -3327    -3384    -3431    -3461    -3464    -3456    -3439    -3395 
   -3330    -3269    -3210    -3127    -3053    -3010    -2963    -2909 
   -2875    -2836    -2797    -2779    -2744    -2720    -2729    -2712 
   -2693    -2697    -2668    -2637    -2614    -2556    -2505    -2458 
   -2377    -2331    -2328    -2317    -2343    -2415    -2484    -2560 
   -2651    -2740    -2833    -2926    -2992    -3046    -3119    -3191 
   -3226    -3258    -3308    -3330    -3333    -3331    -3303    -3272 
   -3229    -3138    -3032    -2926    -2817    -2718    -2616    -2525 
   -2465    -2408    -2355    -2297    -2212    -2138    -2068    -1956 
   -1829    -1722    -1621    -1509    -1394    -1297    -1223    -1142 
   -1053     -978     -918     -873     -838     -808     -800     -831 
    -889     -961    -1048    -1158    -1282    -1404    -1524    -1632 
   -1730    -1838    -1929    -1979    -2039    -2097    -2112    -2130 
   -2145    -2142    -2174    -2200    -2214    -2289    -2376    -2462 
   -2592    -2713    -2829    -2961    -3065    -3146    -3227    -3288 
   -3330    -3366    -3387    -3375    -3364    -3361    -3316    -3248 
   -3187    -3094    -2986    -2897    -2787    -2683    -2619    -2539 
   -2462    -2428    -2376    -2316    -2286    -2241    -2187    -2145 
   -2093    -2053    -2019    -1969    -1926    -1895    -1863    -1838 
   -1817    -1798    -1788    -1768    -1732    -1705    -1702    -1718 
   -1736    -1765    -1810    -1836    -1858    -1902    -1926    -1962 
   -2035    -2081    -2123    -2188    -2223    -2247    -2281    -2282 
   -2282    -2301    -2296    -2268    -2239    -2219    -2180    -2114 
   -2062    -2003    -1919    -1869    -1825    -1773    -1773    -1775 
   -1742    -1733    -1736    -1726    -1734    -1753    -1777    -1814 
   -1846    -1861    -1863    -1871    -1880    -1861    -1836    -1823 
   -1795    -1768    -1760    -1745    -1733    -1733    -1703    -1653 
   -1620    -1567    -1503    -1468    -1445    -1437    -1472    -1530 
   -1593    -1659    -1730    -1784    -1795    -1802    -1803    -1769 
   -1741    -1723    -1695    -1691    -1698    -1703    -1719    -1721 
   -1726    -1738    -1715    -1688    -1680    -1649    -1621    -1617 
   -1606    -1601    -1606    -1607    -1617    -1630    -1638    -1652 
   -1664    -1679    -1707    -1752    -1814    -1891    -1975    -2052 
   -2106    -2146    -2176    -2172    -2157    -2150    -2130    -2099 
   -2083    -2053    -2010    -1964    -1896    -1821    -1748    -1678 
   -1633    -1601    -1584    -1601    -1617    -1651    -1705    -1746 
   -1800    -1845    -1865    -1896    -1903    -1890    -1885    -1856 
   -1814    -1787    -1732    -1657    -1597    -1536    -1486    -1466 
   -1456    -1455    -1475    -1520    -1587    -1667    -1763    -1890 
   -2023    -2172    -2346    -2511    -2678    -2845    -2974    -3075 
   -3146    -3171    -3171    -3145    -3092    -3042    -2998    -2947 
   -2906    -2859    -2798    -2758    -2727    -2700    -2691    -2695 
   -2712    -2735    -2759    -2797    -2820    -2824    -2820    -2785 
   -2740    -2687    -2616    -2570    -2528    -2478    -2467    -2452 
   -2407    -2378    -2335    -2255    -2188    -2139    -2104    -2088 
   -2095    -2133    -2189    -2266    -2382    -2515    -2639    -2755 
   -2841    -2884    -2899    -2886    -2847    -2793    -2736    -2694 
   -2659    -2612    -2567    -2511    -2438    -2380    -2304    -2214 
   -2147    -2069    -1971    -1895    -1827    -1769    -1737    -1706 
   -1675    -1647    -1602    -1551    -1490    -1414    -1348    -1271 
   -1181    -1117    -1061    -1000     -962     -931     -900     -885 
    -889     -913     -943     -988    -1067    -1142    -1208    -1300 
   -1383    -1472    -1591    -1698    -1815    -1968    -2104    -2232 
   -2370    -2492    -2608    -2714    -2806    -2905    -2997    -3069 
   -3134    -3177    -3208    -3230    -3226    -3227    -3244    -3260 
   -3281    -3295    -3310    -3341    -3358    -3376    -3414    -3438 
   -3454    -3456    -3424    -3391    -3343    -3260    -3172    -3079 
   -2957    -2814    -2641    -2452    -2258    -2041    -1818    -1614 
   -1420    -1251    -1120    -1017     -949     -908     -877     -877 
    -900     -920     -945     -973    -1003    -1040    -1074    -1115 
   -1158    -1182    -1185    -1171    -1171    -1202    -1225    -1244 
   -1297    -1344    -1379    -1432    -1490    -1564    -1649    -1730 
   -1827    -1923    -2011    -2119    -2226    -2323    -2430    -2516 
   -2574    -2619    -2646    -2663    -2678    -2694    -2725    -2748 
   -2752    -2754    -2735    -2690    -2640    -2573    -2493    -2419 
   -2312    -2177    -2042    -1894    -1736    -1584    -1444    -1336 
   -1240    -1159    -1125    -1117    -1125    -1154    -1188    -1223 
   -1251    -1275    -1323    -1366    -1393    -1435    -1474    -1497 
   -1528    -1544    -1548    -1563    -1564    -1553    -1556    -1561 
   -1593    -1644    -1705    -1814    -1966    -2131    -2327    -2556 
   -2798    -3037    -3261    -3465    -3626    -3747    -3850    -3931 
   -3998    -4054    -4082    -4095    -4101    -4071    -4012    -3944 
   -3869    -3785    -3707    -3622    -3534    -3457    -3388    -3327 
   -3271    -3214    -3176    -3114    -3018    -2936    -2843    -2727 
   -2633    -2540    -2452    -2378    -2282    -2191    -2108    -2006 
   -1910    -1825    -1742    -1686    -1645    -1624    -1640    -1671 
   -1710    -1757    -1806    -1861    -1917    -1953    -1992    -2012 
   -1991    -1962    -1908    -1818    -1723    -1606    -1471    -1341 
   -1190    -1034     -893     -756     -641     -553     -487     -453 
    -448     -465     -492     -525     -581     -626     -638     -656 
    -662     -648     -662     -685     -693     -720     -745     -754 
    -768     -774     -789     -805     -819     -866     -940    -1016 
   -1113    -1229    -1331    -1432    -1525    -1597    -1664    -1725 
   -1771    -1810    -1840    -1876    -1906    -1914    -1935    -1958 
   -1969    -2004    -2041    -2087    -2172    -2259    -2342    -2439 
   -2527    -2613    -2698    -2768    -2843    -2898    -2934    -2972 
   -2976    -2948    -2918    -2866    -2797    -2735    -2677    -2627 
   -2582    -2544    -2525    -2509    -2502    -2517    -2528    -2551 
   -2605    -2662    -2725    -2802    -2859    -2903    -2956    -2990 
   -3009    -3025    -3013    -2988    -2970    -2937    -2897    -2840 
   -2762    -2694    -2621    -2532    -2474    -2430    -2371    -2327 
   -2303    -2296    -2293    -2296    -2327    -2359    -2382    -2417 
   -2442    -2455    -2465    -2452    -2450    -2463    -2457    -2462 
   -2474    -2465    -2459    -2431    -2371    -2320    -2257    -2199 
   -2173    -2151    -2154    -2177    -2191    -2224    -2269    -2296 
   -2331    -2370    -2392    -2419    -2442    -2451    -2459    -2448 
   -2417    -2371    -2293    -2215    -2147    -2054    -1961    -1887 
   -1809    -1733    -1653    -1572    -1502    -1421    -1351    -1302 
   -1254    -1227    -1215    -1181    -1152    -1134    -1121    -1140 
   -1171    -1204    -1250    -1286    -1320    -1355    -1367    -1385 
   -1413    -1420    -1436    -1459    -1472    -1494    -1499    -1483 
   -1476    -1471    -1463    -1451    -1439    -1441    -1451    -1462 
   -1505    -1564    -1628    -1707    -1777    -1853    -1957    -2052 
   -2139    -2234    -2311    -2393    -2486    -2552    -2616    -2681 
   -2716    -2756    -2803    -2845    -2897    -2948    -3001    -3068 
   -3121    -3164    -3215    -3257    -3299    -3333    -3337    -3338 
   -3341    -3342    -3354    -3362    -3366    -3362    -3321    -3260 
   -3194    -3109    -3021    -2924    -2813    -2705    -2585    -2462 
   -2358    -2238    -2112    -2006    -1891    -1779    -1674    -1552 
   -1443    -1350    -1246    -1162    -1115    -1071    -1035    -1019 
   -1027    -1057    -1101    -1158    -1213    -1263    -1331    -1390 
   -1432    -1498    -1563    -1591    -1617    -1636    -1640    -1641 
   -1633    -1634    -1663    -1691    -1744    -1833    -1926    -2033 
   -2143    -2241    -2335    -2403    -2458    -2542    -2624    -2698 
   -2789    -2867    -2944    -3007    -3021    -3009    -2964    -2874 
   -2776    -2679    -2587    -2524    -2469    -2424    -2400    -2381 
   -2371    -2381    -2393    -2419    -2462    -2497    -2529    -2558 
   -2575    -2573    -2547    -2508    -2462    -2390    -2311    -2241 
   -2162    -2087    -2007    -1896    -1788    -1687    -1553    -1429 
   -1331    -1246    -1190    -1148    -1125    -1135    -1132    -1136 
   -1166    -1181    -1190    -1212    -1246    -1301    -1356    -1421 
   -1510    -1586    -1642    -1695    -1730    -1761    -1780    -1795 
   -1831    -1873    -1918    -1988    -2054    -2122    -2211    -2290 
   -2369    -2455    -2525    -2587    -2640    -2681    -2717    -2717 
   -2697    -2694    -2668    -2609    -2569    -2525    -2459    -2398 
   -2334    -2265    -2219    -2188    -2154    -2116    -2085    -2065 
   -2046    -2038    -2054    -2084    -2134    -2203    -2265    -2330 
   -2393    -2444    -2501    -2539    -2548    -2562    -2551    -2504 
   -2450    -2369    -2270    -2191    -2112    -2042    -1995    -1958 
   -1934    -1919    -1903    -1890    -1876    -1867    -1869    -1881 
   -1919    -1979    -2033    -2099    -2178    -2251    -2342    -2440 
   -2517    -2592    -2652    -2693    -2741    -2775    -2789    -2812 
   -2832    -2853    -2891    -2913    -2921    -2930    -2920    -2905 
   -2886    -2841    -2791    -2727    -2641    -2566    -2496    -2425 
   -2376    -2324    -2286    -2263    -2243    -2243    -2246    -2234 
   -2239    -2257    -2278    -2320    -2357    -2380    -2394    -2386 
   -2366    -2322    -2235    -2134    -2018    -1876    -1734    -1598 
   -1464    -1347    -1229    -1117    -1031     -947     -873     -819 
    -769     -735     -704     -666     -641     -610     -583     -587 
    -589     -595     -618     -627     -639     -666     -675     -691 
    -729     -762     -823     -909     -989    -1071    -1148    -1200 
   -1229    -1237    -1224    -1204    -1178    -1162    -1161    -1175 
   -1217    -1274    -1336    -1413    -1480    -1541    -1624    -1714 
   -1813    -1945    -2091    -2243    -2403    -2556    -2717    -2880 
   -3021    -3152    -3258    -3331    -3384    -3403    -3403    -3402 
   -3379    -3349    -3330    -3300    -3264    -3223    -3171    -3114 
   -3046    -2979    -2926    -2868    -2822    -2798    -2764    -2739 
   -2737    -2741    -2771    -2818    -2864    -2930    -2999    -3051 
   -3096    -3129    -3167    -3217    -3244    -3271    -3299    -3306 
   -3306    -3292    -3253    -3210    -3153    -3068    -2972    -2863 
   -2743    -2619    -2477    -2335    -2220    -2119    -2039    -1984 
   -1937    -1915    -1911    -1912    -1952    -2020    -2091    -2181 
