Origin Time       2025/01/13 21:19:00
Lat.              31.8
Long.             131.6
Depth. (km)       30
Mag.              6.9
Station Code      NGS012
Station Lat.      32.7883
Station Long.     130.3463
Station Height(m) 100
Record Time       2025/01/13 21:20:04
Sampling Freq(Hz) 100Hz
Duration Time(s)  136
Dir.              U-D
Scale Factor      7845(gal)/8223790
Max. Acc. (gal)   3.259
Last Correction   2025/01/13 21:20:05
Memo.             
[...]
  -13610   -13431   -13281   -13169   -13093   -13057   -13032   -13020 
  -13058   -13151   -13255   -13315   -13309   -13266   -13194   -13089 
  -13015   -13035   -13151   -13351   -13597   -13824   -14022   -14203 
  -14323   -14368   -14358   -14299   -14191   -14038   -13860   -13693 
  -13582   -13554   -13582   -13660   -13776   -13876   -13932   -13933 
  -13873   -13797   -13728   -13652   -13593   -13582   -13590   -13599 
  -13649   -13729   -13803   -13906   -14080   -14314   -14580   -14839 
  -15048   -15187   -15250   -15238   -15161   -15017   -14790   -14524 
  -14260   -13991   -13760   -13605   -13510   -13494   -13556   -13645 
  -13720   -13756   -13745   -13741   -13799   -13907   -14060   -14264 
  -14493   -14709   -14872   -14999   -15129   -15263   -15398   -15510 
  -15549   -15496   -15353   -15122   -14828   -14500   -14185   -13929 
  -13706   -13483   -13242   -12969   -12715   -12559   -12533   -12648 
  -12903   -13240   -13603   -13965   -14258   -14438   -14517   -14481 
  -14349   -14184   -13983   -13726   -13458   -13220   -13038   -12951 
  -12980   -13100   -13304   -13578   -13886   -14185   -14435   -14628 
  -14773   -14831   -14771   -14615   -14376   -14080   -13775   -13502 
  -13292   -13132   -13035   -13014   -13038   -13080   -13113   -13111 
  -13089   -13051   -12997   -12949   -12910   -12891   -12919   -12964 
  -13012   -13105   -13254   -13431   -13593   -13734   -13867   -13953 
  -13976   -13965   -13941   -13923   -13914   -13919   -13925   -13891 
  -13834   -13790   -13756   -13711   -13621   -13505   -13394   -13269 
  -13149   -13038   -12930   -12857   -12800   -12702   -12588   -12532 
  -12555   -12661   -12864   -13108   -13328   -13554   -13795   -14018 
  -14222   -14369   -14462   -14524   -14509   -14427   -14337   -14250 
  -14179   -14125   -14054   -13941   -13819   -13748   -13733   -13776 
  -13864   -13945   -13996   -14021   -13991   -13918   -13833   -13753 
  -13710   -13694   -13687   -13710   -13744   -13734   -13662   -13587 
  -13544   -13502   -13452   -13413   -13424   -13516   -13649   -13810 
  -13986   -14125   -14227   -14308   -14368   -14396   -14377   -14322 
  -14242   -14141   -14026   -13865   -13679   -13551   -13486   -13458 
  -13446   -13423   -13424   -13477   -13595   -13788   -14004   -14235 
  -14472   -14634   -14719   -14763   -14723   -14589   -14405   -14197 
  -13991   -13780   -13568   -13396   -13238   -13065   -12915   -12792 
  -12706   -12665   -12609   -12506   -12384   -12272   -12236   -12310 
  -12487   -12792   -13196   -13620   -14011   -14347   -14650   -14925 
  -15167   -15361   -15464   -15419   -15213   -14863   -14436   -14006 
  -13625   -13369   -13278   -13313   -13441   -13636   -13824   -13981 
  -14126   -14251   -14368   -14474   -14530   -14536   -14521   -14463 
  -14334   -14165   -13995   -13849   -13748   -13691   -13655   -13609 
  -13535   -13456   -13414   -13435   -13522   -13667   -13855   -14060 
  -14269   -14482   -14673   -14813   -14926   -15009   -14991   -14856 
  -14665   -14436   -14177   -13944   -13814   -13822   -13927   -14099 
  -14357   -14651   -14875   -14975   -14948   -14806   -14590   -14359 
  -14162   -13967   -13753   -13562   -13412   -13304   -13243   -13221 
  -13205   -13154   -13080   -13018   -12980   -12997   -13047   -13131 
  -13316   -13556   -13779   -14004   -14226   -14396   -14489   -14511 
  -14493   -14454   -14409   -14386   -14359   -14281   -14129   -13907 
  -13640   -13366   -13122   -12899   -12675   -12482   -12322   -12181 
  -12123   -12186   -12366   -12683   -13097   -13558   -14060   -14570 
  -15040   -15421   -15684   -15815   -15801   -15660   -15419   -15111 
  -14789   -14463   -14123   -13809   -13556   -13347   -13138   -12930 
  -12746   -12617   -12559   -12587   -12706   -12889   -13113   -13346 
  -13543   -13691   -13795   -13846   -13832   -13763   -13676   -13586 
  -13498   -13464   -13518   -13635   -13745   -13809   -13834   -13811 
  -13732   -13659   -13660   -13726   -13815   -13953   -14165   -14399 
  -14615   -14787   -14836   -14748   -14605   -14447   -14301   -14203 
  -14137   -14075   -14025   -13984   -13926   -13859   -13797   -13709 
  -13579   -13429   -13282   -13184   -13144   -13130   -13153   -13208 
  -13270   -13374   -13505   -13589   -13610   -13602   -13564   -13471 
  -13369   -13317   -13309   -13346   -13406   -13435   -13431   -13444 
  -13537   -13724   -13934   -14115   -14273   -14395   -14458   -14497 
  -14548   -14582   -14580   -14558   -14521   -14474   -14434   -14392 
  -14335   -14280   -14247   -14246   -14284   -14362   -14474   -14620 
  -14773   -14895   -14986   -15044   -15064   -15056   -15014   -14902 
  -14704   -14465   -14230   -14017   -13822   -13652   -13555   -13548 
  -13570   -13570   -13532   -13424   -13282   -13194   -13151   -13117 
  -13126   -13177   -13254   -13406   -13660   -13961   -14231   -14404 
  -14432   -14307   -14057   -13737   -13390   -13041   -12692   -12360 
  -12097   -11917   -11800   -11749   -11782   -11913   -12123   -12372 
  -12629   -12873   -13062   -13132   -13042   -12839   -12606   -12398 
  -12247   -12164   -12154   -12229   -12398   -12658   -12995   -13375 
  -13765   -14143   -14467   -14690   -14812   -14862   -14864   -14859 
  -14845   -14787   -14706   -14638   -14524   -14323   -14076   -13838 
  -13670   -13614   -13659   -13748   -13853   -13968   -14084   -14181 
  -14292   -14458   -14646   -14806   -14929   -15022   -15067   -15060 
  -15044   -15009   -14916   -14791   -14661   -14509   -14359   -14281 
  -14299   -14413   -14612   -14828   -15025   -15218   -15373   -15452 
  -15465   -15412   -15333   -15292   -15279   -15237   -15148   -14972 
  -14686   -14339   -13975   -13610   -13298   -13065   -12904   -12819 
  -12773   -12730   -12722   -12762   -12835   -12972   -13165   -13351 
  -13506   -13624   -13693   -13705   -13699   -13707   -13724   -13778 
  -13859   -13899   -13953   -14030   -14054   -14060   -14054   -13987 
  -13888   -13760   -13525   -13198   -12818   -12391   -11997   -11696 
  -11515   -11510   -11673   -11935   -12252   -12610   -12977   -13325 
  -13672   -14031   -14392   -14748   -15079   -15379   -15653   -15885 
  -16027   -16040   -15924   -15696   -15384   -15021   -14625   -14208 
  -13788   -13389   -13046   -12783   -12596   -12488   -12479   -12577 
  -12781   -13069   -13375   -13668   -13968   -14237   -14418   -14513 
  -14542   -14505   -14428   -14343   -14245   -14129   -14042   -14040 
  -14135   -14320   -14559   -14827   -15099   -15342   -15523   -15650 
  -15736   -15788   -15801   -15777   -15723   -15653   -15546   -15381 
  -15179   -14974   -14793   -14661   -14562   -14431   -14226   -13925 
  -13495   -12942   -12336   -11772   -11327   -11044   -10906   -10886 
  -10984   -11196   -11484   -11809   -12137   -12449   -12708   -12872 
  -12943   -12965   -12973   -13008   -13099   -13225   -13348   -13471 
  -13639   -13838   -14057   -14287   -14499   -14688   -14820   -14824 
  -14702   -14501   -14257   -14014   -13810   -13664   -13608   -13671 
  -13832   -14031   -14246   -14470   -14682   -14850   -14959   -14998 
  -14962   -14856   -14701   -14548   -14451   -14401   -14380   -14403 
  -14474   -14580   -14686   -14775   -14854   -14901   -14866   -14751 
  -14594   -14408   -14241   -14148   -14123   -14142   -14193   -14270 
  -14354   -14435   -14493   -14493   -14401   -14218   -13972   -13683 
  -13359   -13034   -12750   -12540   -12417   -12421   -12572   -12856 
  -13279   -13822   -14403   -14955   -15394   -15646   -15704   -15603 
  -15350   -14944   -14436   -13913   -13409   -12926   -12486   -12112 
  -11805   -11558   -11367   -11232   -11165   -11161   -11206   -11281 
  -11375   -11493   -11628   -11765   -11928   -12136   -12353   -12580 
  -12815   -13014   -13161   -13277   -13336   -13335   -13325   -13320 
  -13282   -13234   -13220   -13261   -13365   -13524   -13722   -13937 
  -14114   -14231   -14301   -14310   -14226   -14068   -13848   -13576 
  -13320   -13144   -13077   -13122   -13263   -13466   -13694   -13910 
  -14092   -14249   -14376   -14459   -14505   -14532   -14542   -14524 
  -14485   -14445   -14396   -14326   -14245   -14177   -14152   -14173 
  -14227   -14314   -14450   -14628   -14827   -15018   -15194   -15358 
  -15502   -15600   -15666   -15724   -15745   -15697   -15585   -15414 
  -15190   -14929   -14642   -14330   -14007   -13678   -13340   -13014 
  -12726   -12479   -12293   -12190   -12163   -12199   -12276   -12375 
  -12517   -12715   -12947   -13207   -13474   -13707   -13884   -14006 
  -14030   -13930   -13760   -13539   -13265   -12992   -12762   -12598 
  -12529   -12533   -12577   -12665   -12746   -12764   -12739   -12704 
  -12661   -12641   -12687   -12787   -12947   -13198   -13517   -13872 
  -14253   -14612   -14908   -15126   -15267   -15358   -15423   -15452 
  -15456   -15446   -15403   -15338   -15253   -15125   -14976   -14843 
  -14731   -14640   -14567   -14515   -14500   -14532   -14596   -14654 
  -14690   -14681   -14609   -14501   -14391   -14297   -14235   -14227 
  -14287   -14399   -14536   -14688   -14832   -14922   -14925   -14839 
  -14667   -14416   -14111   -13776   -13427   -13090   -12831   -12671 
  -12619   -12715   -12965   -13316   -13722   -14127   -14465   -14712 
  -14854   -14875   -14787   -14621   -14401   -14133   -13840   -13537 
  -13235   -12934   -12629   -12329   -12055   -11827   -11668   -11592 
  -11604   -11680   -11800   -11965   -12168   -12426   -12749   -13101 
  -13443   -13749   -13971   -14062   -14057   -13971   -13767   -13485 
  -13185   -12893   -12641   -12437   -12283   -12194   -12174   -12236 
  -12380   -12586   -12839   -13134   -13448   -13753   -14021   -14268 
  -14501   -14698   -14847   -14939   -14945   -14879   -14754   -14575 
  -14359   -14110   -13841   -13590   -13396   -13309   -13366   -13548 
  -13829   -14191   -14601   -15009   -15383   -15693   -15912   -16039 
  -16078   -16023   -15898   -15746   -15576   -15391   -15210   -15039 
  -14859   -14690   -14550   -14431   -14337   -14264   -14212   -14208 
  -14276   -14373   -14465   -14561   -14662   -14773   -14901   -15018 
  -15109   -15160   -15107   -14918   -14635   -14304   -13954   -13626 
  -13348   -13130   -13005   -13001   -13120   -13343   -13628   -13937 
  -14264   -14567   -14800   -14947   -14987   -14904   -14723   -14494 
  -14266   -14067   -13894   -13716   -13498   -13231   -12928   -12621 
  -12336   -12101   -11939   -11859   -11862   -11942   -12077   -12247 
  -12437   -12626   -12802   -12950   -13063   -13143   -13182   -13188 
  -13204   -13236   -13266   -13312   -13370   -13419   -13470   -13525 
  -13587   -13705   -13892   -14095   -14260   -14377   -14428   -14431 
  -14439   -14461   -14507   -14594   -14702   -14848   -15052   -15275 
  -15487   -15695   -15882   -16009   -16062   -16004   -15815   -15518 
  -15120   -14625   -14096   -13581   -13101   -12685   -12360   -12152 
  -12066   -12096   -12237   -12509   -12889   -13320   -13751   -14139 
  -14415   -14532   -14501   -14362   -14134   -13828   -13473   -13093 
  -12718   -12366   -12013   -11674   -11394   -11165   -10987   -10878 
  -10844   -10903   -11064   -11308   -11611   -11938   -12253   -12540 
  -12769   -12918   -13001   -13046   -13050   -13011   -12969   -12955 
  -12922   -12847   -12768   -12669   -12557   -12471   -12407   -12376 
  -12414   -12510   -12642   -12803   -12987   -13186   -13404   -13629 
  -13868   -14130   -14391   -14628   -14850   -15030   -15144   -15209 
  -15226   -15172   -15066   -14943   -14825   -14750   -14724   -14731 
  -14790   -14913   -15080   -15272   -15466   -15624   -15723   -15747 
  -15693   -15562   -15363   -15110   -14839   -14593   -14419   -14330 
  -14331   -14431   -14644   -14975   -15387   -15812   -16209   -16540 
  -16777   -16923   -16983   -16962   -16876   -16740   -16540   -16263 
  -15913   -15498   -15052   -14609   -14166   -13740   -13343   -12978 
  -12667   -12418   -12228   -12094   -12019   -12000   -12024   -12090 
  -12190   -12309   -12452   -12591   -12703   -12800   -12889   -12974 
  -13055   -13113   -13122   -13043   -12885   -12684   -12432   -12131 
  -11824   -11546   -11330   -11199   -11156   -11215   -11381   -11631 
  -11939   -12280   -12637   -12989   -13319   -13603   -13842   -14048 
  -14193   -14243   -14233   -14197   -14126   -14031   -13945   -13896 
  -13927   -14044   -14246   -14524   -14824   -15102   -15337   -15516 
  -15618   -15637   -15599   -15530   -15464   -15427   -15387   -15317 
  -15238   -15145   -15005   -14810   -14569   -14299   -14021   -13745 
  -13487   -13258   -13058   -12895   -12804   -12788   -12822   -12907 
  -13043   -13203   -13383   -13564   -13718   -13868   -14000   -14088 
  -14162   -14231   -14284   -14328   -14365   -14376   -14355   -14324 
  -14285   -14229   -14168   -14089   -13980   -13856   -13716   -13541 
  -13344   -13124   -12853   -12555   -12279   -12040   -11858   -11758 
  -11728   -11747   -11807   -11894   -11997   -12123   -12282   -12467 
  -12665   -12858   -13038   -13217   -13397   -13582   -13795   -14019 
  -14214   -14366   -14489   -14590   -14669   -14727   -14779   -14825 
  -14866   -14902   -14920   -14910   -14875   -14812   -14710   -14570 
  -14407   -14245   -14100   -14000   -13994   -14094   -14280   -14563 
  -14945   -15371   -15784   -16171   -16525   -16833   -17077   -17216 
  -17240   -17172   -17014   -16757   -16424   -16036   -15612   -15180 
  -14755   -14350   -13994   -13717   -13548   -13493   -13536   -13671 
  -13891   -14180   -14477   -14729   -14922   -15053   -15117   -15122 
  -15061   -14948   -14808   -14638   -14440   -14234   -14013   -13770 
  -13517   -13255   -12980   -12723   -12509   -12333   -12208   -12152 
  -12158   -12213   -12330   -12482   -12629   -12762   -12857   -12884 
  -12853   -12776   -12667   -12564   -12505   -12486   -12514   -12580 
  -12663   -12757   -12839   -12892   -12943   -12984   -12996   -13003 
  -13008   -13011   -13039   -13096   -13155   -13213   -13266   -13294 
  -13308   -13306   -13271   -13217   -13153   -13050   -12920   -12799 
  -12688   -12592   -12518   -12482   -12503   -12599   -12783   -13057 
  -13414   -13833   -14268   -14694   -15084   -15400   -15638   -15801 
  -15874   -15859   -15774   -15623   -15406   -15132   -14829   -14530 
  -14258   -14033   -13837   -13663   -13510   -13373   -13252   -13166 
  -13103   -13053   -13023   -13034   -13089   -13174   -13279   -13413 
  -13563   -13699   -13822   -13946   -14046   -14112   -14156   -14157 
  -14129   -14110   -14103   -14098   -14103   -14096   -14081   -14076 
  -14068   -14038   -13995   -13941   -13869   -13780   -13684   -13581 
  -13464   -13354   -13263   -13211   -13227   -13319   -13478   -13690 
  -13900   -14076   -14220   -14311   -14337   -14319   -14261   -14172 
  -14081   -13994   -13906   -13841   -13813   -13801   -13787   -13782 
  -13771   -13737   -13687   -13630   -13564   -13501   -13460   -13440 
  -13443   -13475   -13536   -13617   -13694   -13755   -13799   -13836 
  -13860   -13860   -13837   -13776   -13664   -13505   -13300   -13053 
  -12773   -12486   -12237   -12071   -11990   -12012   -12133   -12334 
  -12592   -12874   -13143   -13373   -13558   -13721   -13860   -13979 
  -14103   -14231   -14361   -14489   -14589   -14646   -14648   -14585 
  -14492   -14399   -14299   -14193   -14092   -14017   -13979   -14002 
  -14108   -14278   -14492   -14747   -15001   -15223   -15412   -15556 
  -15645   -15673   -15628   -15515   -15341   -15120   -14854   -14558 
  -14265   -13991   -13744   -13527   -13321   -13113   -12904   -12722 
  -12571   -12449   -12364   -12317   -12310   -12336   -12406   -12538 
  -12699   -12864   -13027   -13174   -13315   -13468   -13609   -13709 
  -13788   -13863   -13929   -14003   -14072   -14125   -14165   -14191 
  -14207   -14230   -14247   -14250   -14247   -14223   -14138   -14002 
  -13830   -13636   -13454   -13302   -13184   -13109   -13082   -13103 
  -13186   -13323   -13473   -13618   -13787   -13971   -14130   -14261 
  -14365   -14427   -14447   -14435   -14395   -14341   -14272   -14172 
  -14044   -13910   -13783   -13695   -13664   -13689   -13770   -13911 
  -14102   -14328   -14590   -14870   -15147   -15399   -15591   -15680 
  -15655   -15507   -15246   -14909   -14527   -14154   -13841   -13594 
  -13429   -13381   -13419   -13506   -13640   -13798   -13952   -14106 
  -14262   -14409   -14532   -14629   -14686   -14696   -14665   -14584 
  -14467   -14347   -14231   -14122   -14018   -13883   -13725   -13575 
  -13437   -13335   -13288   -13279   -13305   -13358   -13401   -13427 
  -13431   -13387   -13301   -13189   -13068   -12938   -12798   -12673 
  -12565   -12461   -12372   -12294   -12220   -12163   -12127   -12127 
  -12187   -12293   -12422   -12580   -12764   -12973   -13203   -13443 
  -13680   -13905   -14102   -14256   -14346   -14377   -14368   -14335 
  -14303   -14284   -14280   -14304   -14359   -14449   -14585   -14746 
  -14916   -15117   -15314   -15471   -15591   -15658   -15657   -15589 
  -15458   -15280   -15086   -14887   -14686   -14490   -14318   -14168 
  -14045   -13963   -13918   -13925   -13990   -14076   -14165   -14251 
  -14322   -14368   -14391   -14364   -14268   -14118   -13932   -13707 
  -13464   -13230   -13019   -12864   -12773   -12723   -12692   -12675 
  -12669   -12680   -12704   -12769   -12888   -13030   -13201   -13414 
  -13645   -13890   -14115   -14274   -14357   -14355   -14261   -14098 
  -13899   -13680   -13463   -13257   -13057   -12880   -12742   -12630 
  -12540   -12471   -12414   -12364   -12320   -12286   -12282   -12306 
  -12353   -12428   -12529   -12636   -12718   -12768   -12772   -12725 
  -12652   -12572   -12501   -12449   -12415   -12414   -12469   -12577 
  -12726   -12922   -13169   -13443   -13726   -14022   -14312   -14589 
  -14848   -15072   -15250   -15392   -15492   -15546   -15542   -15464 
  -15341   -15184   -14994   -14800   -14617   -14443   -14284   -14139 
  -14004   -13891   -13810   -13764   -13748   -13749   -13765   -13788 
  -13821   -13875   -13936   -13986   -14008   -13987   -13923   -13838 
  -13726   -13597   -13447   -13271   -13100   -12946   -12789   -12637 
  -12503   -12384   -12287   -12213   -12164   -12156   -12195   -12270 
  -12355   -12429   -12474   -12486   -12461   -12383   -12239   -12042 
  -11804   -11545   -11298   -11097   -10953   -10872   -10868   -10952 
  -11125   -11373   -11676   -12029   -12415   -12789   -13147   -13498 
  -13818   -14102   -14365   -14590   -14774   -14918   -15012   -15039 
  -15014   -14952   -14856   -14743   -14638   -14554   -14490   -14450 
  -14432   -14434   -14457   -14505   -14589   -14704   -14831   -14967 
  -15118   -15273   -15419   -15557   -15665   -15723   -15743   -15734 
  -15696   -15654   -15628   -15607   -15580   -15539   -15487   -15430 
  -15363   -15295   -15269   -15287   -15338   -15419   -15508   -15580 
  -15620   -15604   -15511   -15349   -15130   -14871   -14600   -14337 
  -14083   -13837   -13603   -13398   -13231   -13105   -13016   -12949 
  -12914   -12920   -12955   -13024   -13144   -13302   -13456   -13587 
  -13709   -13814   -13880   -13900   -13887   -13846   -13780   -13667 
