Origin Time       2025/01/13 21:19:00
Lat.              31.8
Long.             131.6
Depth. (km)       30
Mag.              6.9
Station Code      NGS008
Station Lat.      32.9233
Station Long.     130.1846
Station Height(m) 7
Record Time       2025/01/13 21:20:33
Sampling Freq(Hz) 100Hz
Duration Time(s)  79
Dir.              U-D
Scale Factor      7845(gal)/8223790
Max. Acc. (gal)   1.502
Last Correction   2025/01/13 21:20:34
Memo.             
[...]
   -8869    -8838    -8799    -8753    -8692    -8618    -8545    -8480 
   -8415    -8360    -8328    -8310    -8293    -8287    -8307    -8340 
   -8374    -8409    -8438    -8459    -8478    -8511    -8557    -8599 
   -8645    -8711    -8773    -8806    -8822    -8819    -8780    -8710 
   -8638    -8569    -8482    -8392    -8318    -8236    -8149    -8083 
   -8029    -7971    -7915    -7867    -7825    -7781    -7749    -7742 
   -7740    -7738    -7757    -7798    -7848    -7913    -8000    -8102 
   -8209    -8325    -8449    -8556    -8627    -8677    -8710    -8704 
   -8673    -8648    -8627    -8598    -8560    -8529    -8502    -8469 
   -8441    -8426    -8407    -8386    -8387    -8402    -8409    -8419 
   -8444    -8461    -8460    -8460    -8472    -8479    -8479    -8494 
   -8518    -8529    -8538    -8556    -8571    -8565    -8546    -8519 
   -8473    -8410    -8359    -8329    -8301    -8280    -8283    -8301 
   -8318    -8340    -8371    -8394    -8399    -8417    -8448    -8463 
   -8473    -8492    -8496    -8478    -8461    -8457    -8449    -8432 
   -8419    -8406    -8378    -8344    -8317    -8283    -8232    -8182 
   -8145    -8108    -8067    -8036    -8008    -7967    -7917    -7873 
   -7821    -7758    -7693    -7636    -7578    -7524    -7489    -7465 
   -7433    -7398    -7372    -7341    -7296    -7263    -7242    -7215 
   -7188    -7180    -7179    -7171    -7168    -7177    -7188    -7196 
   -7213    -7241    -7268    -7296    -7339    -7391    -7441    -7497 
   -7566    -7628    -7678    -7740    -7817    -7888    -7954    -8031 
   -8105    -8162    -8209    -8260    -8306    -8332    -8353    -8382 
   -8403    -8422    -8459    -8499    -8530    -8560    -8603    -8649 
   -8687    -8739    -8810    -8868    -8915    -8969    -9022    -9062 
   -9094    -9132    -9165    -9184    -9209    -9252    -9290    -9317 
   -9355    -9396    -9410    -9412    -9421    -9420    -9400    -9382 
   -9377    -9355    -9310    -9262    -9205    -9120    -9020    -8924 
   -8823    -8712    -8607    -8513    -8413    -8313    -8233    -8174 
   -8120    -8075    -8060    -8059    -8052    -8054    -8068    -8071 
   -8062    -8066    -8079    -8086    -8083    -8083    -8079    -8059 
   -8031    -7998    -7946    -7881    -7830    -7793    -7762    -7747 
   -7758    -7774    -7790    -7820    -7858    -7885    -7897    -7912 
   -7929    -7940    -7951    -7967    -7977    -7975    -7971    -7970 
   -7960    -7943    -7928    -7915    -7896    -7878    -7877    -7888 
   -7904    -7932    -7974    -8010    -8035    -8052    -8056    -8032 
   -7993    -7952    -7909    -7862    -7830    -7817    -7816    -7823 
   -7842    -7854    -7850    -7844    -7844    -7839    -7830    -7834 
   -7861    -7896    -7935    -7993    -8064    -8129    -8193    -8267 
   -8344    -8419    -8500    -8587    -8660    -8716    -8777    -8833 
   -8869    -8900    -8931    -8945    -8941    -8942    -8951    -8947 
   -8939    -8941    -8942    -8928    -8908    -8901    -8897    -8877 
   -8857    -8845    -8826    -8796    -8773    -8764    -8752    -8737 
   -8737    -8748    -8752    -8760    -8781    -8796    -8793    -8796 
   -8812    -8823    -8833    -8850    -8865    -8864    -8868    -8883 
   -8888    -8887    -8897    -8914    -8915    -8912    -8920    -8922 
   -8895    -8853    -8818    -8777    -8721    -8673    -8646    -8622 
   -8590    -8568    -8557    -8534    -8510    -8495    -8471    -8433 
   -8395    -8359    -8313    -8257    -8210    -8166    -8116    -8078 
   -8055    -8031    -8005    -7989    -7979    -7951    -7909    -7869 
   -7819    -7749    -7677    -7614    -7558    -7514    -7499    -7519 
   -7557    -7600    -7662    -7736    -7801    -7858    -7921    -7974 
   -8005    -8040    -8083    -8121    -8163    -8212    -8257    -8293 
   -8321    -8349    -8364    -8365    -8370    -8371    -8360    -8344 
   -8332    -8318    -8294    -8267    -8249    -8229    -8199    -8174 
   -8145    -8097    -8043    -8000    -7954    -7897    -7844    -7804 
   -7763    -7723    -7696    -7680    -7655    -7631    -7628    -7636 
   -7651    -7693    -7766    -7835    -7890    -7963    -8048    -8121 
   -8187    -8257    -8318    -8360    -8402    -8456    -8507    -8548 
   -8591    -8634    -8660    -8672    -8694    -8721    -8733    -8742 
   -8772    -8803    -8823    -8850    -8885    -8904    -8907    -8912 
   -8912    -8893    -8865    -8837    -8797    -8748    -8707    -8679 
   -8644    -8600    -8569    -8549    -8526    -8510    -8506    -8506 
   -8502    -8506    -8525    -8544    -8559    -8576    -8588    -8576 
   -8554    -8530    -8492    -8434    -8367    -8291    -8202    -8110 
   -8028    -7952    -7882    -7825    -7790    -7763    -7746    -7753 
   -7785    -7831    -7884    -7946    -8016    -8082    -8155    -8237 
   -8310    -8368    -8415    -8452    -8467    -8459    -8438    -8405 
   -8340    -8256    -8171    -8087    -8008    -7946    -7894    -7838 
   -7774    -7724    -7681    -7627    -7574    -7539    -7510    -7483 
   -7481    -7514    -7557    -7604    -7672    -7746    -7811    -7886 
   -7985    -8079    -8160    -8252    -8341    -8406    -8452    -8496 
   -8525    -8530    -8536    -8552    -8565    -8579    -8603    -8638 
   -8672    -8702    -8733    -8761    -8779    -8792    -8815    -8835 
   -8845    -8858    -8874    -8883    -8885    -8893    -8900    -8900 
   -8903    -8907    -8900    -8884    -8877    -8877    -8866    -8854 
   -8853    -8853    -8841    -8837    -8849    -8856    -8843    -8822 
   -8785    -8718    -8631    -8546    -8446    -8326    -8213    -8124 
   -8047    -7978    -7928    -7894    -7851    -7804    -7774    -7749 
   -7709    -7677    -7668    -7662    -7651    -7653    -7663    -7668 
   -7669    -7678    -7695    -7708    -7728    -7766    -7804    -7831 
   -7859    -7894    -7915    -7919    -7927    -7944    -7955    -7965 
   -7986    -8010    -8028    -8054    -8091    -8131    -8172    -8225 
   -8282    -8329    -8370    -8405    -8425    -8432    -8438    -8453 
   -8464    -8471    -8479    -8487    -8482    -8471    -8463    -8444 
   -8414    -8391    -8379    -8364    -8347    -8334    -8320    -8293 
   -8262    -8235    -8209    -8190    -8182    -8181    -8171    -8156 
   -8148    -8136    -8109    -8075    -8047    -8012    -7959    -7905 
   -7861    -7809    -7753    -7711    -7677    -7641    -7615    -7616 
   -7623    -7631    -7659    -7695    -7717    -7738    -7769    -7805 
   -7839    -7870    -7908    -7950    -7985    -8021    -8066    -8093 
   -8109    -8143    -8185    -8214    -8245    -8291    -8334    -8372 
   -8421    -8475    -8510    -8530    -8560    -8595    -8619    -8644 
   -8679    -8698    -8702    -8706    -8703    -8679    -8637    -8592 
   -8546    -8486    -8424    -8372    -8318    -8262    -8218    -8189 
   -8156    -8125    -8116    -8117    -8112    -8116    -8144    -8175 
   -8201    -8236    -8283    -8329    -8365    -8406    -8446    -8465 
   -8479    -8505    -8515    -8506    -8496    -8482    -8442    -8388 
   -8334    -8276    -8210    -8147    -8090    -8036    -7981    -7938 
   -7905    -7873    -7840    -7819    -7800    -7776    -7759    -7762 
   -7773    -7778    -7792    -7809    -7816    -7815    -7831    -7854 
   -7866    -7881    -7916    -7956    -7993    -8043    -8106    -8163 
   -8210    -8267    -8325    -8372    -8418    -8463    -8500    -8532 
   -8565    -8602    -8629    -8644    -8661    -8673    -8673    -8668 
   -8668    -8661    -8644    -8626    -8615    -8598    -8573    -8563 
   -8553    -8536    -8526    -8533    -8534    -8529    -8536    -8553 
   -8561    -8563    -8575    -8587    -8587    -8587    -8590    -8579 
   -8557    -8542    -8537    -8523    -8509    -8510    -8526    -8536 
   -8542    -8560    -8563    -8544    -8521    -8487    -8424    -8347 
   -8279    -8210    -8131    -8058    -8002    -7947    -7884    -7832 
   -7798    -7766    -7735    -7716    -7700    -7672    -7641    -7620 
   -7603    -7580    -7568    -7578    -7593    -7615    -7661    -7716 
   -7757    -7792    -7832    -7871    -7908    -7954    -8010    -8058 
   -8097    -8152    -8214    -8264    -8313    -8367    -8407    -8430 
   -8456    -8490    -8510    -8525    -8550    -8572    -8580    -8598 
   -8630    -8662    -8691    -8721    -8754    -8779    -8792    -8811 
   -8829    -8835    -8839    -8845    -8841    -8829    -8822    -8824 
   -8822    -8812    -8819    -8833    -8831    -8831    -8846    -8860 
   -8857    -8857    -8869    -8873    -8869    -8874    -8877    -8865 
   -8854    -8856    -8851    -8833    -8815    -8793    -8757    -8710 
   -8664    -8611    -8545    -8480    -8428    -8382    -8336    -8303 
   -8282    -8249    -8218    -8205    -8195    -8172    -8144    -8124 
   -8104    -8081    -8066    -8062    -8051    -8035    -8029    -8023 
   -7998    -7970    -7950    -7911    -7850    -7797    -7757    -7709 
   -7658    -7615    -7581    -7538    -7499    -7483    -7470    -7453 
   -7450    -7454    -7446    -7433    -7426    -7416    -7388    -7353 
   -7326    -7292    -7246    -7203    -7168    -7119    -7056    -7002 
   -6957    -6905    -6852    -6820    -6791    -6756    -6736    -6732 
   -6728    -6731    -6759    -6805    -6862    -6939    -7041    -7155 
   -7264    -7384    -7510    -7623    -7724    -7828    -7925    -8006 
   -8073    -8141    -8209    -8255    -8293    -8334    -8368    -8391 
   -8424    -8461    -8487    -8509    -8542    -8572    -8590    -8614 
   -8649    -8680    -8711    -8752    -8800    -8845    -8891    -8946 
   -8995    -9026    -9054    -9076    -9078    -9063    -9047    -9028 
   -8997    -8959    -8930    -8892    -8843    -8799    -8764    -8721 
   -8675    -8638    -8607    -8569    -8534    -8509    -8478    -8433 
   -8392    -8359    -8317    -8275    -8252    -8240    -8229    -8226 
   -8239    -8251    -8256    -8266    -8282    -8283    -8276    -8279 
   -8283    -8282    -8283    -8290    -8290    -8286    -8287    -8291 
   -8289    -8280    -8280    -8286    -8283    -8286    -8306    -8328 
   -8343    -8365    -8397    -8418    -8433    -8459    -8486    -8491 
   -8492    -8505    -8511    -8509    -8514    -8518    -8509    -8502 
   -8502    -8496    -8476    -8451    -8434    -8414    -8388    -8378 
   -8388    -8399    -8405    -8419    -8442    -8453    -8451    -8452 
   -8449    -8432    -8421    -8426    -8426    -8422    -8434    -8459 
   -8476    -8499    -8541    -8591    -8637    -8688    -8750    -8807 
   -8850    -8900    -8947    -8980    -9009    -9043    -9063    -9061 
   -9049    -9028    -8978    -8904    -8824    -8742    -8650    -8559 
   -8484    -8411    -8336    -8271    -8220    -8163    -8106    -8062 
   -8023    -7979    -7947    -7931    -7920    -7901    -7884    -7870 
   -7847    -7819    -7803    -7796    -7785    -7786    -7808    -7838 
   -7870    -7906    -7948    -7979    -8004    -8035    -8066    -8086 
   -8109    -8136    -8151    -8156    -8172    -8193    -8201    -8205 
   -8218    -8232    -8236    -8241    -8251    -8248    -8233    -8225 
   -8225    -8214    -8205    -8214    -8230    -8230    -8232    -8247 
   -8256    -8252    -8257    -8267    -8257    -8236    -8228    -8228 
   -8218    -8205    -8202    -8198    -8182    -8174    -8182    -8183 
   -8179    -8189    -8208    -8217    -8232    -8264    -8294    -8305 
   -8318    -8336    -8337    -8325    -8325    -8329    -8320    -8309 
   -8313    -8322    -8332    -8349    -8376    -8395    -8403    -8418 
   -8434    -8438    -8438    -8451    -8461    -8463    -8469    -8488 
   -8511    -8532    -8557    -8587    -8608    -8625    -8649    -8665 
   -8662    -8658    -8657    -8644    -8618    -8602    -8590    -8567 
   -8540    -8523    -8505    -8469    -8440    -8418    -8388    -8356 
   -8337    -8321    -8298    -8280    -8275    -8270    -8259    -8256 
   -8262    -8260    -8256    -8266    -8279    -8282    -8283    -8293 
   -8299    -8295    -8295    -8303    -8297    -8279    -8264    -8244 
   -8209    -8164    -8120    -8067    -7998    -7932    -7870    -7796 
   -7719    -7654    -7589    -7519    -7454    -7411    -7373    -7329 
   -7294    -7271    -7240    -7206    -7195    -7196    -7192    -7196 
   -7225    -7257    -7284    -7330    -7387    -7430    -7466    -7511 
   -7557    -7596    -7639    -7690    -7738    -7774    -7812    -7857 
   -7893    -7920    -7955    -7990    -8016    -8043    -8083    -8131 
   -8174    -8221    -8271    -8306    -8330    -8355    -8372    -8370 
   -8355    -8347    -8340    -8322    -8313    -8321    -8322    -8316 
   -8325    -8340    -8344    -8355    -8386    -8417    -8433    -8451 
   -8475    -8484    -8483    -8483    -8482    -8469    -8460    -8465 
   -8473    -8480    -8494    -8522    -8557    -8600    -8656    -8722 
   -8781    -8839    -8914    -8989    -9053    -9120    -9200    -9270 
   -9331    -9404    -9478    -9537    -9593    -9651    -9702    -9738 
   -9771    -9799    -9814    -9819    -9826    -9825    -9810    -9792 
   -9779    -9761    -9732    -9695    -9659    -9613    -9556    -9504 
   -9454    -9387    -9315    -9256    -9194    -9113    -9036    -8973 
   -8903    -8819    -8741    -8667    -8581    -8490    -8398    -8295 
   -8178    -8062    -7951    -7832    -7707    -7587    -7474    -7356 
   -7236    -7129    -7028    -6929    -6848    -6783    -6729    -6693 
   -6683    -6700    -6721    -6754    -6816    -6886    -6953    -7036 
   -7137    -7230    -7312    -7403    -7491    -7560    -7618    -7680 
   -7727    -7753    -7777    -7805    -7816    -7812    -7811    -7803 
   -7777    -7747    -7716    -7676    -7626    -7573    -7527    -7476 
   -7416    -7368    -7325    -7275    -7230    -7202    -7182    -7163 
   -7156    -7165    -7172    -7175    -7188    -7209    -7222    -7238 
   -7276    -7327    -7373    -7435    -7526    -7619    -7712    -7828 
   -7955    -8070    -8182    -8307    -8426    -8527    -8622    -8716 
   -8802    -8861    -8910    -8961    -8997    -9023    -9057    -9089 
   -9111    -9136    -9171    -9204    -9221    -9240    -9266    -9277 
   -9278    -9290    -9304    -9304    -9300    -9304    -9305    -9296 
   -9290    -9289    -9282    -9277    -9281    -9286    -9283    -9282 
   -9281    -9273    -9261    -9251    -9240    -9227    -9212    -9207 
   -9200    -9185    -9170    -9158    -9134    -9100    -9073    -9046 
   -9000    -8946    -8903    -8858    -8808    -8760    -8725    -8688 
   -8645    -8608    -8586    -8553    -8510    -8473    -8429    -8372 
   -8322    -8275    -8212    -8141    -8077    -8012    -7933    -7858 
   -7794    -7728    -7658    -7601    -7551    -7496    -7443    -7403 
   -7365    -7318    -7280    -7257    -7230    -7194    -7156    -7126 
   -7092    -7052    -7018    -6988    -6948    -6912    -6886    -6851 
   -6808    -6778    -6762    -6737    -6710    -6702    -6705    -6698 
   -6696    -6712    -6729    -6739    -6762    -6798    -6835    -6868 
   -6916    -6971    -7021    -7074    -7140    -7213    -7280    -7353 
   -7435    -7514    -7577    -7643    -7715    -7766    -7808    -7863 
   -7917    -7956    -8001    -8060    -8116    -8163    -8225    -8295 
   -8352    -8407    -8473    -8536    -8590    -8648    -8710    -8764 
   -8806    -8847    -8888    -8910    -8915    -8926    -8937    -8935 
   -8934    -8942    -8950    -8951    -8961    -8978    -8989    -8997 
   -9013    -9030    -9036    -9043    -9053    -9054    -9042    -9034 
   -9026    -9008    -8989    -8978    -8965    -8943    -8931    -8932 
   -8931    -8927    -8935    -8949    -8957    -8962    -8980    -8996 
   -9000    -9001    -9005    -9003    -8996    -8991    -8984    -8966 
   -8945    -8932    -8916    -8885    -8856    -8834    -8803    -8764 
   -8730    -8700    -8661    -8619    -8583    -8537    -8480    -8434 
   -8397    -8348    -8291    -8253    -8226    -8194    -8164    -8154 
   -8141    -8125    -8127    -8141    -8149    -8156    -8174    -8198 
   -8214    -8229    -8257    -8279    -8289    -8301    -8317    -8332 
   -8345    -8360    -8370    -8365    -8367    -8376    -8371    -8349 
   -8336    -8326    -8303    -8272    -8252    -8232    -8194    -8148 
   -8114    -8077    -8031    -7987    -7951    -7912    -7867    -7828 
   -7808    -7786    -7763    -7758    -7758    -7754    -7761    -7778 
   -7800    -7817    -7839    -7866    -7885    -7904    -7942    -7983 
   -8010    -8037    -8081    -8122    -8158    -8199    -8244    -8274 
   -8294    -8317    -8333    -8334    -8325    -8316    -8299    -8267 
   -8235    -8214    -8187    -8152    -8128    -8109    -8085    -8068 
   -8064    -8062    -8055    -8056    -8064    -8060    -8051    -8054 
   -8055    -8050    -8043    -8046    -8050    -8048    -8058    -8079 
   -8091    -8106    -8132    -8154    -8166    -8190    -8225    -8256 
   -8280    -8321    -8370    -8409    -8451    -8506    -8560    -8598 
   -8630    -8664    -8684    -8695    -8707    -8711    -8699    -8684 
   -8675    -8657    -8623    -8590    -8567    -8527    -8473    -8426 
   -8384    -8334    -8286    -8251    -8222    -8190    -8166    -8155 
   -8145    -8137    -8140    -8154    -8158    -8160    -8181    -8206 
   -8221    -8239    -8263    -8276    -8279    -8289    -8299    -8293 
   -8278    -8275    -8267    -8245    -8226    -8220    -8203    -8175 
   -8159    -8152    -8132    -8109    -8108    -8106    -8087    -8078 
   -8085    -8081    -8071    -8074    -8081    -8082    -8083    -8090 
   -8097    -8095    -8095    -8105    -8112    -8112    -8120    -8132 
   -8132    -8124    -8124    -8120    -8095    -8071    -8059    -8040 
   -8009    -7986    -7974    -7948    -7917    -7898    -7884    -7855 
   -7832    -7832    -7835    -7834    -7854    -7892    -7927    -7962 
   -8008    -8060    -8106    -8151    -8209    -8266    -8313    -8370 
   -8433    -8486    -8523    -8559    -8590    -8603    -8606    -8613 
   -8608    -8590    -8575    -8560    -8530    -8500    -8482    -8459 
   -8415    -8382    -8363    -8334    -8297    -8271    -8259    -8240 
   -8220    -8213    -8210    -8197    -8186    -8187    -8183    -8168 
   -8159    -8154    -8136    -8116    -8108    -8101    -8087    -8079 
   -8077    -8071    -8060    -8059    -8067    -8070    -8082    -8110 
   -8144    -8176    -8220    -8272    -8320    -8361    -8410    -8461 
   -8499    -8536    -8581    -8622    -8649    -8676    -8708    -8731 
   -8739    -8749    -8761    -8762    -8753    -8750    -8752    -8735 
   -8722    -8723    -8719    -8706    -8707    -8715    -8712    -8706 
   -8710    -8716    -8708    -8703    -8711    -8714    -8710    -8716 
   -8726    -8723    -8721    -8730    -8741    -8739    -8739    -8748 
   -8749    -8738    -8729    -8722    -8704    -8676    -8649    -8622 
   -8583    -8540    -8505    -8467    -8418    -8383    -8365    -8338 
   -8309    -8291    -8278    -8257    -8235    -8218    -8201    -8174 
   -8152    -8141    -8118    -8086    -8062    -8040    -8008    -7971 
   -7942    -7909    -7871    -7842    -7817    -7784    -7750    -7724 
   -7697    -7666    -7646    -7630    -7608    -7581    -7565    -7564 
   -7558    -7550    -7558    -7576    -7591    -7611    -7643    -7682 
