Origin Time       2025/01/13 21:19:00
Lat.              31.8
Long.             131.6
Depth. (km)       30
Mag.              6.9
Station Code      NGS011
Station Lat.      32.7843
Station Long.     130.2023
Station Height(m) 38
Record Time       2025/01/13 21:20:07
Sampling Freq(Hz) 100Hz
Duration Time(s)  131
Dir.              E-W
Scale Factor      7845(gal)/8223790
Max. Acc. (gal)   4.711
Last Correction   2025/01/13 21:20:07
Memo.             
[...]
    2817     2847     2876     2890     2874     2816     2704     2542 
    2370     2228     2111     2000     1896     1799     1701     1613 
    1547     1507     1514     1571     1661     1769     1867     1930 
    1979     2035     2085     2118     2123     2091     2025     1961 
    1925     1903     1888     1888     1912     1942     1957     1948 
    1896     1782     1637     1526     1444     1354     1236     1089 
     946      838      764      707      668      641      637      669 
     711      734      761      801      828      823      819      864 
     962     1096     1269     1459     1629     1784     1918     2000 
    2015     1976     1907     1830     1783     1775     1779     1799 
    1845     1896     1944     1980     1988     1976     1961     1938 
    1908     1860     1765     1622     1468     1341     1263     1233 
    1248     1281     1298     1304     1296     1256     1198     1150 
    1135     1166     1227     1301     1379     1452     1522     1590 
    1656     1733     1818     1883     1888     1803     1632     1418 
    1201      990      807      668      560      467      378      287 
     214      191      241      355      495      641      774      874 
     922      919      905      924      981     1080     1216     1359 
    1486     1586     1634     1625     1574     1497     1382     1216 
    1043      911      818      772      792      866      976     1086 
    1156     1188     1206     1228     1248     1278     1328     1391 
    1448     1507     1580     1657     1709     1726     1728     1732 
    1718     1664     1575     1468     1364     1271     1198     1150 
    1115     1094     1089     1092     1090     1082     1093     1159 
    1279     1420     1568     1717     1860     2018     2203     2409 
    2620     2825     3014     3179     3289     3331     3337     3326 
    3277     3202     3148     3130     3119     3095     3052     2997 
    2941     2890     2853     2835     2814     2774     2700     2605 
    2511     2405     2281     2150     2018     1879     1728     1537 
    1302     1061      855      708      623      594      618      685 
     760      797      784      722      635      557      514      498 
     506      556      633      724      841      986     1140     1247 
    1266     1197     1054      847      610      387      211       98 
      35       13       41      113      189      261      352      469 
     591      699      792      851      855      814      761      719 
     700      723      815      963     1128     1278     1397     1475 
    1517     1526     1514     1512     1529     1586     1710     1892 
    2112     2361     2610     2832     2997     3102     3190     3281 
    3369     3453     3516     3535     3520     3484     3396     3225 
    2982     2704     2417     2126     1826     1530     1262     1009 
     768      537      329      180      132      189      322      492 
     691      909     1127     1337     1540     1729     1903     2070 
    2228     2355     2428     2461     2479     2486     2469     2442 
    2431     2423     2400     2370     2326     2255     2162     2050 
    1923     1786     1641     1499     1366     1258     1185     1144 
    1136     1167     1224     1264     1266     1225     1147     1031 
     888      733      581      442      305      172       74       12 
     -21      -18       29      133      292      496      739      993 
    1240     1482     1696     1865     2000     2118     2215     2304 
    2398     2488     2547     2560     2532     2475     2397     2290 
    2165     2033     1898     1760     1625     1505     1404     1320 
    1262     1231     1205     1156     1097     1063     1054     1043 
    1024     1001      985      980      984     1004     1043     1113 
    1229     1375     1516     1628     1717     1788     1833     1838 
    1825     1823     1854     1918     1992     2052     2087     2110 
    2134     2168     2200     2211     2187     2119     1995     1807 
    1575     1327     1089      878      688      504      341      226 
     176      184      221      259      290      319      359      423 
     494      526      521      499      469      441      425      415 
     411      413      425      456      500      552      619      715 
     847     1009     1201     1422     1657     1876     2081     2290 
    2504     2720     2949     3195     3439     3657     3825     3939 
    3997     3996     3939     3840     3697     3503     3257     2971 
    2667     2354     2029     1705     1410     1154      930      742 
     600      511      467      464      502      564      629      676 
     702      703      688      691      727      784      849      911 
     969     1023     1070     1107     1140     1169     1190     1212 
    1231     1243     1255     1258     1237     1189     1116     1031 
     963      931      936      988     1108     1287     1493     1702 
    1904     2093     2251     2380     2497     2613     2724     2817 
    2891     2955     3002     3034     3064     3096     3138     3191 
    3258     3331     3393     3447     3500     3565     3643     3715 
    3774     3815     3840     3859     3858     3820     3743     3631 
    3484     3302     3099     2880     2633     2359     2084     1815 
    1545     1273      996      726      484      274       81      -67 
    -145     -156     -105        5      157      326      495      650 
     769      851      908      946      993     1078     1200     1335 
    1463     1579     1675     1746     1795     1838     1880     1903 
    1894     1861     1827     1807     1803     1815     1845     1884 
    1938     2015     2104     2196     2269     2300     2278     2214 
    2118     1998     1848     1676     1498     1331     1190     1094 
    1026      947      858      781      722      673      639      627 
     633      639      648      669      703      730      738      730 
     703      642      557      463      361      267      195      141 
      97       76       85      116      164      245      368      508 
     645      768      872      949     1004     1040     1066     1080 
    1089     1112     1166     1246     1325     1399     1467     1513 
    1540     1553     1544     1540     1579     1668     1798     1957 
    2131     2303     2463     2610     2720     2781     2812     2825 
    2829     2820     2779     2681     2527     2335     2108     1858 
    1606     1364     1148      973      837      719      612      531 
     487      480      511      569      637      710      780      839 
     893      943      996     1070     1170     1281     1378     1451 
    1516     1574     1606     1606     1575     1525     1482     1458 
    1448     1443     1429     1404     1378     1370     1378     1386 
    1424     1521     1665     1830     1991     2119     2207     2268 
    2315     2346     2366     2396     2440     2482     2508     2506 
    2470     2404     2332     2276     2238     2224     2250     2319 
    2398     2455     2466     2416     2285     2068     1791     1497 
    1200      908      641      409      203       14     -156     -310 
    -446     -552     -614     -630     -592     -483     -295      -35 
     261      557      846     1117     1370     1633     1921     2216 
    2516     2810     3083     3330     3553     3748     3925     4079 
    4198     4288     4364     4411     4409     4364     4291     4176 
    4020     3854     3692     3523     3338     3150     2978     2833 
    2706     2594     2506     2421     2303     2154     1991     1811 
    1611     1395     1175      966      776      604      463      359 
     302      303      340      390      436      463      476      479 
     467      450      454      496      573      665      766      866 
     961     1069     1170     1219     1213     1167     1084      981 
     878      789      733      720      749      835      972     1117 
    1259     1386     1458     1456     1387     1256     1085      919 
     770      630      499      392      299      197       87      -17 
    -116     -211     -294     -349     -394     -456     -537     -603 
    -633     -621     -545     -407     -226      -18      198      415 
     637      841     1024     1206     1398     1590     1765     1904 
    2010     2100     2178     2223     2239     2251     2245     2204 
    2157     2110     2047     1980     1921     1873     1852     1858 
    1888     1942     2018     2110     2220     2334     2427     2501 
    2574     2640     2713     2803     2911     3030     3149     3265 
    3362     3414     3418     3376     3295     3210     3126     3033 
    2972     2952     2944     2951     2975     3002     3034     3071 
    3099     3102     3038     2913     2748     2547     2331     2111 
    1880     1656     1464     1306     1167     1030      909      820 
     757      720      707      700      706      723      738      741 
     729      697      670      652      631      621      621      637 
     685      743      784      820      853      878      922      989 
    1078     1179     1291     1425     1559     1656     1705     1707 
    1675     1630     1580     1518     1451     1395     1348     1290 
    1210     1128     1031      895      733      583      448      329 
     241      183      137      108      105      121      157      226 
     318      433      579      743      911     1071     1216     1341 
    1439     1507     1552     1568     1567     1578     1602     1630 
    1665     1728     1822     1925     2015     2095     2181     2265 
    2322     2355     2370     2365     2346     2327     2305     2272 
    2224     2193     2195     2201     2218     2286     2394     2508 
    2628     2763     2917     3069     3202     3337     3469     3554 
    3593     3603     3597     3582     3537     3468     3406     3362 
    3334     3315     3310     3315     3306     3273     3214     3109 
    2955     2762     2547     2331     2107     1865     1625     1390 
    1162      955      765      587      437      314      187       47 
    -101     -260     -433     -607     -764     -895     -988    -1026 
    -999     -926     -827     -714     -583     -442     -313     -191 
     -70       43      148      253      360      468      592      739 
     912     1098     1282     1463     1637     1779     1887     1977 
    2038     2057     2041     1989     1912     1817     1701     1564 
    1413     1262     1128     1020      936      862      791      737 
     707      704      730      778      843      915      976     1038 
    1105     1158     1204     1267     1345     1420     1476     1510 
    1522     1507     1480     1470     1495     1552     1638     1749 
    1864     1972     2081     2204     2316     2405     2493     2587 
    2667     2744     2843     2941     3011     3049     3052     3013 
    2928     2799     2629     2435     2234     2046     1892     1764 
    1652     1556     1475     1416     1371     1324     1254     1169 
    1082     1000      916      832      751      668      568      448 
     310      164       33      -76     -176     -248     -274     -261 
    -224     -144      -16      141      295      432      553      648 
     700      700      650      565      457      332      209       93 
     -10     -101     -182     -257     -305     -313     -283     -216 
    -108       25      168      315      464      619      780      946 
    1117     1297     1480     1656     1826     2006     2189     2357 
    2501     2632     2748     2847     2936     3032     3129     3203 
    3249     3281     3312     3350     3399     3460     3531     3615 
    3708     3793     3851     3882     3888     3862     3802     3707 
    3581     3424     3235     3028     2812     2589     2373     2172 
    1980     1803     1653     1539     1460     1410     1395     1409 
    1444     1480     1493     1478     1458     1440     1432     1441 
    1462     1480     1498     1521     1534     1524     1497     1460 
    1420     1389     1381     1402     1432     1459     1505     1560 
    1613     1678     1745     1802     1854     1900     1935     1954 
    1942     1914     1894     1873     1836     1767     1672     1579 
    1480     1374     1271     1188     1115     1042      966      882 
     788      696      615      548      519      550      638      762 
     905     1040     1143     1200     1229     1251     1252     1233 
    1219     1219     1219     1213     1200     1181     1150     1108 
    1066     1020      977      953      953      970     1000     1036 
    1074     1112     1162     1221     1275     1323     1382     1459 
    1547     1632     1711     1792     1871     1938     2000     2062 
    2124     2178     2234     2311     2404     2498     2596     2691 
    2772     2832     2860     2871     2891     2933     2999     3091 
    3211     3354     3495     3616     3723     3812     3881     3952 
    4043     4149     4255     4351     4445     4526     4580     4607 
    4612     4588     4537     4453     4329     4171     3986     3774 
    3537     3283     3015     2735     2462     2200     1946     1711 
    1503     1304     1107      918      714      477      216      -63 
    -351     -634     -911    -1181    -1455    -1737    -2016    -2284 
   -2536    -2764    -2961    -3129    -3253    -3329    -3376    -3395 
   -3362    -3276    -3156    -2997    -2786    -2531    -2238    -1912 
   -1561    -1188     -805     -426      -56      291      612      911 
    1178     1413     1615     1783     1912     2008     2057     2064 
    2047     2008     1948     1865     1767     1671     1574     1476 
    1399     1344     1306     1304     1345     1412     1495     1611 
    1755     1910     2077     2262     2463     2674     2884     3082 
    3271     3457     3631     3784     3905     3986     4027     4031 
    4005     3956     3890     3808     3719     3631     3553     3488 
    3431     3383     3333     3269     3188     3084     2961     2828 
    2691     2574     2471     2370     2276     2200     2141     2100 
    2073     2041     1991     1929     1856     1753     1625     1489 
    1343     1188     1044      923      823      738      658      596 
     560      533      502      479      469      463      457      453 
     442      429      423      430      463      522      607      712 
     834      963     1084     1188     1271     1337     1391     1444 
    1505     1576     1659     1753     1854     1968     2093     2218 
    2340     2463     2583     2708     2828     2925     3001     3057 
    3082     3071     3024     2940     2841     2743     2648     2573 
    2524     2490     2454     2412     2385     2389     2411     2454 
    2532     2643     2767     2895     3011     3095     3141     3153 
    3137     3103     3052     2976     2875     2756     2617     2450 
    2259     2069     1884     1721     1593     1487     1390     1310 
    1248     1200     1178     1205     1281     1412     1594     1806 
    2029     2245     2428     2573     2687     2771     2829     2879 
    2918     2947     2965     2976     2972     2932     2852     2744 
    2616     2465     2295     2123     1958     1799     1652     1520 
    1404     1297     1200     1125     1081     1062     1062     1074 
    1097     1124     1142     1140     1123     1100     1071     1030 
     977      913      849      774      688      603      521      429 
     334      255      199      171      176      216      287      383 
     499      635      780      919     1050     1163     1244     1279 
    1256     1177     1035      826      569      284      -17     -314 
    -575     -783     -934    -1024    -1059    -1054    -1019     -966 
    -911     -855     -796     -743     -696     -626     -514     -356 
    -159       78      352      634      907     1171     1418     1634 
    1829     2008     2166     2288     2362     2389     2367     2300 
    2204     2096     1977     1852     1729     1615     1518     1441 
    1386     1345     1312     1282     1262     1248     1224     1188 
    1151     1116     1078     1057     1066     1112     1198     1328 
    1487     1669     1867     2065     2257     2442     2617     2767 
    2898     3018     3129     3237     3350     3464     3566     3665 
    3766     3858     3936     4002     4051     4078     4086     4072 
    4040     4001     3962     3925     3894     3855     3785     3692 
    3580     3424     3229     3017     2798     2575     2366     2176 
    1999     1829     1665     1524     1402     1297     1212     1146 
    1096     1048      992      939      897      853      804      757 
     722      707      719      749      785      816      841      846 
     805      722      614      473      301      114      -72     -259 
    -436     -596     -737     -839     -899     -928     -935     -913 
    -869     -808     -734     -648     -558     -467     -364     -259 
    -156      -55       33      109      182      238      271      283 
     271      240      203      159      108       72       47       33 
      60      118      190      284      406      544      693      842 
     982     1127     1278     1422     1556     1679     1790     1887 
    1958     2003     2020     2002     1953     1896     1834     1761 
    1682     1607     1539     1475     1409     1328     1240     1161 
    1075      974      866      762      658      553      454      372 
     309      274      275      310      378      477      606      756 
     920     1084     1229     1366     1497     1609     1705     1780 
    1841     1915     2019     2134     2254     2386     2531     2678 
    2816     2930     3018     3088     3146     3196     3235     3257 
    3253     3237     3217     3175     3100     3013     2929     2852 
    2787     2739     2705     2695     2712     2744     2783     2821 
    2863     2916     2984     3069     3172     3283     3399     3516 
    3619     3694     3738     3748     3726     3674     3604     3514 
    3399     3280     3164     3033     2887     2737     2587     2443 
    2297     2150     2007     1868     1733     1614     1518     1441 
    1386     1363     1383     1443     1540     1687     1888     2119 
    2362     2606     2840     3049     3221     3358     3470     3557 
    3609     3628     3624     3604     3573     3530     3476     3419 
    3370     3329     3284     3225     3148     3056     2947     2817 
    2678     2538     2389     2226     2046     1849     1628     1368 
    1088      810      519      221      -60     -330     -592     -847 
   -1111    -1387    -1669    -1968    -2273    -2555    -2803    -3006 
   -3154    -3240    -3264    -3234    -3160    -3055    -2929    -2789 
   -2655    -2528    -2392    -2251    -2116    -1984    -1860    -1741 
   -1625    -1506    -1372    -1213    -1023     -789     -503     -175 
     182      549      912     1259     1586     1903     2219     2528 
    2844     3173     3500     3811     4112     4406     4672     4911 
    5130     5325     5497     5652     5782     5871     5925     5945 
