Origin Time       2025/01/13 21:19:00
Lat.              31.8
Long.             131.6
Depth. (km)       30
Mag.              6.9
Station Code      NGS008
Station Lat.      32.9233
Station Long.     130.1846
Station Height(m) 7
Record Time       2025/01/13 21:20:33
Sampling Freq(Hz) 100Hz
Duration Time(s)  79
Dir.              E-W
Scale Factor      7845(gal)/8223790
Max. Acc. (gal)   1.496
Last Correction   2025/01/13 21:20:34
Memo.             
[...]
   -6147    -6141    -6103    -6062    -6035    -6022    -6012    -5999 
   -5984    -5987    -6011    -6026    -6022    -6019    -6015    -5985 
   -5940    -5914    -5933    -5987    -6049    -6108    -6154    -6177 
   -6169    -6123    -6049    -5968    -5890    -5813    -5751    -5736 
   -5778    -5836    -5859    -5871    -5902    -5938    -5961    -5973 
   -5965    -5940    -5937    -5977    -6030    -6057    -6049    -6023 
   -5983    -5935    -5895    -5845    -5746    -5620    -5522    -5472 
   -5452    -5440    -5417    -5377    -5359    -5404    -5495    -5590 
   -5670    -5722    -5742    -5736    -5719    -5698    -5678    -5687 
   -5756    -5872    -6000    -6134    -6266    -6346    -6323    -6222 
   -6103    -5985    -5871    -5773    -5688    -5617    -5591    -5616 
   -5643    -5649    -5657    -5665    -5653    -5625    -5603    -5593 
   -5579    -5571    -5582    -5618    -5682    -5759    -5823    -5857 
   -5887    -5944    -6015    -6072    -6103    -6091    -6026    -5930 
   -5837    -5765    -5717    -5691    -5690    -5706    -5734    -5775 
   -5809    -5807    -5767    -5706    -5659    -5636    -5628    -5625 
   -5629    -5640    -5683    -5767    -5849    -5896    -5918    -5923 
   -5914    -5895    -5871    -5840    -5790    -5717    -5649    -5602 
   -5559    -5518    -5495    -5485    -5489    -5510    -5543    -5578 
   -5613    -5655    -5710    -5760    -5795    -5834    -5880    -5907 
   -5910    -5883    -5814    -5721    -5647    -5601    -5575    -5575 
   -5599    -5621    -5643    -5694    -5761    -5782    -5718    -5609 
   -5525    -5510    -5553    -5609    -5636    -5644    -5686    -5780 
   -5906    -6045    -6187    -6307    -6412    -6515    -6593    -6623 
   -6592    -6512    -6426    -6340    -6243    -6146    -6077    -6031 
   -6003    -5981    -5930    -5829    -5707    -5599    -5516    -5463 
   -5448    -5451    -5449    -5441    -5428    -5400    -5362    -5331 
   -5308    -5289    -5278    -5279    -5294    -5323    -5363    -5409 
   -5444    -5462    -5470    -5460    -5429    -5381    -5316    -5254 
   -5223    -5243    -5305    -5366    -5402    -5432    -5474    -5528 
   -5591    -5649    -5675    -5657    -5618    -5576    -5545    -5543 
   -5587    -5664    -5740    -5795    -5838    -5863    -5857    -5830 
   -5807    -5790    -5772    -5753    -5738    -5717    -5679    -5628 
   -5576    -5536    -5518    -5512    -5495    -5470    -5444    -5418 
   -5390    -5364    -5359    -5363    -5375    -5414    -5483    -5562 
   -5629    -5691    -5751    -5800    -5838    -5864    -5869    -5857 
   -5857    -5884    -5926    -5958    -5972    -5979    -5988    -5998 
   -6006    -5994    -5933    -5850    -5807    -5802    -5806    -5805 
   -5802    -5784    -5749    -5707    -5661    -5591    -5516    -5474 
   -5455    -5428    -5402    -5381    -5350    -5323    -5310    -5306 
   -5290    -5258    -5213    -5179    -5190    -5242    -5301    -5352 
   -5413    -5513    -5632    -5724    -5779    -5802    -5787    -5746 
   -5701    -5670    -5661    -5661    -5652    -5620    -5572    -5541 
   -5537    -5532    -5514    -5493    -5485    -5487    -5501    -5518 
   -5524    -5505    -5478    -5468    -5482    -5514    -5568    -5636 
   -5701    -5753    -5795    -5811    -5794    -5757    -5725    -5690 
   -5644    -5598    -5572    -5553    -5526    -5506    -5505    -5521 
   -5557    -5599    -5610    -5593    -5579    -5590    -5616    -5661 
   -5738    -5826    -5899    -5969    -6050    -6138    -6223    -6274 
   -6272    -6223    -6156    -6097    -6038    -5960    -5894    -5872 
   -5908    -6002    -6134    -6270    -6380    -6451    -6489    -6498 
   -6500    -6515    -6548    -6585    -6616    -6658    -6700    -6694 
   -6617    -6492    -6369    -6274    -6203    -6116    -5985    -5849 
   -5760    -5703    -5648    -5599    -5563    -5541    -5537    -5553 
   -5587    -5637    -5692    -5733    -5746    -5737    -5726    -5724 
   -5714    -5675    -5603    -5513    -5424    -5348    -5297    -5267 
   -5246    -5220    -5205    -5208    -5220    -5235    -5242    -5236 
   -5231    -5236    -5248    -5256    -5262    -5269    -5248    -5185 
   -5104    -5039    -4999    -4959    -4914    -4866    -4814    -4758 
   -4718    -4698    -4704    -4756    -4866    -5020    -5184    -5347 
   -5502    -5624    -5694    -5721    -5711    -5682    -5652    -5629 
   -5601    -5574    -5582    -5637    -5703    -5746    -5776    -5823 
   -5896    -5977    -6043    -6076    -6069    -6039    -6007    -5973 
   -5930    -5886    -5850    -5814    -5773    -5732    -5698    -5671 
   -5633    -5571    -5486    -5401    -5340    -5297    -5251    -5198 
   -5161    -5152    -5171    -5205    -5238    -5266    -5319    -5420 
   -5544    -5653    -5741    -5814    -5876    -5919    -5937    -5935 
   -5906    -5857    -5811    -5773    -5738    -5714    -5697    -5682 
   -5659    -5625    -5598    -5594    -5607    -5624    -5636    -5647 
   -5663    -5690    -5711    -5703    -5686    -5678    -5672    -5665 
   -5651    -5628    -5609    -5616    -5652    -5698    -5730    -5745 
   -5756    -5767    -5775    -5786    -5783    -5751    -5692    -5618 
   -5541    -5466    -5397    -5344    -5296    -5251    -5240    -5262 
   -5289    -5313    -5347    -5391    -5435    -5463    -5463    -5433 
   -5398    -5398    -5436    -5476    -5497    -5506    -5513    -5520 
   -5517    -5483    -5417    -5343    -5300    -5304    -5325    -5344 
   -5360    -5364    -5367    -5385    -5416    -5459    -5516    -5575 
   -5624    -5653    -5676    -5698    -5706    -5701    -5713    -5765 
   -5844    -5923    -5996    -6061    -6122    -6187    -6245    -6281 
   -6300    -6324    -6359    -6384    -6389    -6397    -6405    -6399 
   -6376    -6350    -6327    -6308    -6282    -6235    -6170    -6116 
   -6092    -6088    -6089    -6087    -6076    -6054    -6029    -6023 
   -6048    -6079    -6103    -6131    -6172    -6204    -6223    -6238 
   -6245    -6235    -6232    -6255    -6296    -6332    -6346    -6331 
   -6291    -6237    -6168    -6077    -5964    -5854    -5778    -5741 
   -5728    -5733    -5749    -5749    -5715    -5647    -5570    -5509 
   -5472    -5456    -5440    -5405    -5363    -5327    -5285    -5239 
   -5198    -5140    -5062    -4995    -4953    -4930    -4915    -4901 
   -4869    -4806    -4731    -4687    -4680    -4693    -4727    -4811 
   -4957    -5158    -5386    -5595    -5753    -5871    -5984    -6099 
   -6195    -6262    -6300    -6304    -6281    -6261    -6254    -6245 
   -6216    -6192    -6189    -6193    -6205    -6222    -6227    -6203 
   -6162    -6118    -6060    -5992    -5923    -5838    -5738    -5645 
   -5576    -5535    -5493    -5440    -5386    -5333    -5290    -5274 
   -5277    -5273    -5250    -5217    -5184    -5146    -5111    -5078 
   -5043    -5020    -5022    -5054    -5103    -5158    -5213    -5266 
   -5319    -5387    -5470    -5548    -5611    -5663    -5710    -5763 
   -5832    -5911    -5981    -6030    -6072    -6114    -6130    -6112 
   -6088    -6077    -6083    -6104    -6124    -6124    -6119    -6130 
   -6146    -6135    -6084    -6018    -5956    -5894    -5836    -5792 
   -5756    -5736    -5742    -5757    -5756    -5748    -5745    -5737 
   -5701    -5643    -5602    -5593    -5599    -5622    -5657    -5691 
   -5701    -5683    -5640    -5572    -5505    -5458    -5416    -5373 
   -5336    -5314    -5312    -5324    -5348    -5379    -5405    -5440 
   -5502    -5556    -5576    -5580    -5576    -5547    -5487    -5422 
   -5382    -5368    -5373    -5381    -5375    -5368    -5378    -5395 
   -5395    -5373    -5348    -5333    -5329    -5354    -5420    -5506 
   -5590    -5690    -5815    -5938    -6029    -6084    -6108    -6089 
   -6031    -5956    -5876    -5788    -5705    -5649    -5626    -5633 
   -5671    -5726    -5775    -5813    -5856    -5894    -5908    -5899 
   -5875    -5840    -5796    -5753    -5710    -5661    -5620    -5593 
   -5564    -5537    -5544    -5595    -5672    -5760    -5856    -5952 
   -6039    -6114    -6170    -6192    -6162    -6099    -6029    -5965 
   -5906    -5848    -5792    -5753    -5742    -5761    -5780    -5772 
   -5741    -5709    -5687    -5678    -5678    -5683    -5671    -5634 
   -5593    -5556    -5522    -5485    -5449    -5422    -5395    -5359 
   -5323    -5286    -5246    -5208    -5165    -5119    -5097    -5120 
   -5175    -5239    -5304    -5377    -5459    -5548    -5645    -5728 
   -5783    -5838    -5908    -5980    -6037    -6088    -6156    -6232 
   -6308    -6388    -6461    -6511    -6539    -6542    -6515    -6453 
   -6367    -6270    -6149    -6002    -5844    -5684    -5535    -5422 
   -5364    -5346    -5354    -5404    -5501    -5626    -5751    -5853 
   -5907    -5898    -5853    -5799    -5719    -5601    -5474    -5378 
   -5328    -5319    -5343    -5378    -5406    -5443    -5501    -5559 
   -5597    -5629    -5659    -5678    -5692    -5717    -5749    -5775 
   -5795    -5827    -5867    -5907    -5958    -6008    -6033    -6031 
   -6025    -6021    -6012    -5989    -5942    -5871    -5791    -5728 
   -5684    -5651    -5634    -5641    -5661    -5672    -5663    -5636 
   -5598    -5557    -5518    -5472    -5425    -5400    -5405    -5432 
   -5463    -5494    -5526    -5548    -5544    -5533    -5536    -5545 
   -5553    -5562    -5568    -5567    -5560    -5543    -5503    -5448 
   -5400    -5364    -5341    -5331    -5332    -5341    -5336    -5305 
   -5266    -5208    -5115    -5003    -4899    -4814    -4753    -4725 
   -4718    -4725    -4760    -4830    -4920    -5022    -5136    -5265 
   -5390    -5499    -5606    -5706    -5786    -5844    -5879    -5894 
   -5896    -5894    -5876    -5834    -5776    -5738    -5741    -5768 
   -5815    -5879    -5950    -6019    -6073    -6115    -6150    -6178 
   -6195    -6195    -6180    -6161    -6150    -6147    -6145    -6149 
   -6170    -6218    -6274    -6326    -6372    -6396    -6394    -6388 
   -6369    -6318    -6246    -6164    -6072    -5985    -5917    -5860 
   -5799    -5730    -5675    -5637    -5607    -5584    -5555    -5513 
   -5475    -5460    -5468    -5481    -5485    -5493    -5501    -5502 
   -5509    -5541    -5598    -5672    -5765    -5869    -5968    -6061 
   -6154    -6237    -6286    -6307    -6304    -6272    -6218    -6156 
   -6083    -5995    -5899    -5809    -5733    -5675    -5637    -5610 
   -5568    -5524    -5498    -5474    -5433    -5385    -5327    -5260 
   -5204    -5170    -5161    -5166    -5175    -5181    -5182    -5175 
   -5157    -5130    -5092    -5042    -5001    -4992    -5001    -5022 
   -5055    -5104    -5167    -5256    -5381    -5522    -5663    -5800 
   -5927    -6019    -6070    -6097    -6111    -6115    -6133    -6176 
   -6222    -6259    -6289    -6318    -6328    -6309    -6277    -6249 
   -6219    -6188    -6178    -6195    -6226    -6274    -6338    -6399 
   -6440    -6477    -6520    -6563    -6617    -6702    -6802    -6899 
   -6987    -7049    -7068    -7052    -7022    -6986    -6930    -6856 
   -6763    -6655    -6534    -6407    -6274    -6130    -5975    -5813 
   -5644    -5470    -5300    -5148    -5016    -4908    -4843    -4833 
   -4853    -4893    -4957    -5031    -5093    -5140    -5177    -5204 
   -5227    -5255    -5293    -5343    -5402    -5489    -5598    -5699 
   -5776    -5838    -5906    -5999    -6118    -6241    -6331    -6376 
   -6397    -6396    -6361    -6297    -6211    -6111    -6008    -5913 
   -5836    -5769    -5694    -5610    -5528    -5447    -5367    -5300 
   -5252    -5228    -5228    -5248    -5277    -5316    -5371    -5439 
   -5509    -5568    -5630    -5710    -5799    -5891    -5964    -5992 
   -5979    -5945    -5900    -5838    -5765    -5715    -5695    -5688 
   -5687    -5684    -5656    -5601    -5526    -5433    -5314    -5192 
   -5094    -5022    -4959    -4919    -4908    -4924    -4965    -5030 
   -5107    -5185    -5270    -5377    -5493    -5595    -5680    -5749 
   -5800    -5836    -5868    -5903    -5934    -5967    -6004    -6038 
   -6065    -6087    -6112    -6135    -6137    -6112    -6075    -6022 
   -5961    -5907    -5854    -5799    -5755    -5728    -5692    -5636 
   -5576    -5528    -5478    -5417    -5362    -5328    -5321    -5348 
   -5413    -5491    -5557    -5606    -5643    -5671    -5692    -5707 
   -5714    -5705    -5686    -5671    -5657    -5628    -5574    -5493 
   -5385    -5263    -5151    -5059    -4980    -4923    -4896    -4893 
   -4904    -4930    -4958    -4974    -4972    -4950    -4907    -4842 
   -4773    -4725    -4695    -4680    -4689    -4727    -4781    -4849 
   -4936    -5032    -5121    -5204    -5277    -5336    -5389    -5455 
   -5526    -5583    -5636    -5698    -5756    -5798    -5836    -5890 
   -5958    -6027    -6096    -6162    -6218    -6269    -6312    -6313 
   -6265    -6180    -6072    -5948    -5821    -5714    -5644    -5618 
   -5656    -5752    -5880    -6011    -6137    -6258    -6372    -6465 
   -6531    -6571    -6601    -6628    -6658    -6685    -6696    -6690 
   -6678    -6647    -6589    -6504    -6392    -6253    -6097    -5948 
   -5813    -5680    -5562    -5478    -5421    -5368    -5314    -5251 
   -5170    -5088    -5031    -4985    -4915    -4822    -4725    -4633 
   -4541    -4449    -4359    -4278    -4230    -4234    -4267    -4297 
   -4310    -4317    -4314    -4293    -4249    -4197    -4144    -4114 
   -4131    -4175    -4216    -4257    -4325    -4423    -4537    -4653 
   -4754    -4833    -4911    -5012    -5130    -5235    -5324    -5410 
   -5493    -5564    -5633    -5686    -5691    -5661    -5638    -5632 
   -5625    -5610    -5593    -5571    -5547    -5525    -5512    -5498 
   -5487    -5506    -5552    -5599    -5649    -5699    -5741    -5784 
   -5848    -5940    -6045    -6156    -6292    -6455    -6617    -6756 
   -6863    -6914    -6910    -6880    -6832    -6754    -6664    -6588 
   -6534    -6490    -6453    -6423    -6404    -6403    -6420    -6451 
   -6478    -6494    -6516    -6544    -6552    -6532    -6500    -6459 
   -6416    -6378    -6358    -6353    -6367    -6401    -6435    -6458 
   -6473    -6489    -6515    -6547    -6579    -6615    -6633    -6632 
   -6624    -6608    -6578    -6539    -6498    -6453    -6392    -6327 
   -6280    -6251    -6241    -6241    -6227    -6188    -6145    -6118 
   -6100    -6085    -6069    -6046    -6008    -5958    -5911    -5861 
   -5784    -5687    -5580    -5456    -5319    -5178    -5038    -4900 
   -4769    -4661    -4585    -4525    -4471    -4425    -4396    -4395 
   -4429    -4496    -4584    -4698    -4841    -4993    -5138    -5275 
   -5402    -5505    -5572    -5605    -5598    -5556    -5497    -5439 
   -5386    -5335    -5287    -5250    -5204    -5139    -5077    -5028 
   -4985    -4947    -4928    -4924    -4919    -4912    -4916    -4916 
   -4901    -4881    -4865    -4854    -4843    -4834    -4831    -4818 
   -4788    -4762    -4738    -4704    -4676    -4675    -4687    -4689 
   -4696    -4730    -4780    -4839    -4914    -4997    -5096    -5223 
   -5373    -5521    -5655    -5786    -5922    -6068    -6224    -6380 
   -6532    -6681    -6818    -6940    -7034    -7096    -7134    -7152 
   -7153    -7141    -7119    -7086    -7044    -6995    -6932    -6849 
   -6745    -6635    -6539    -6463    -6409    -6378    -6374    -6389 
   -6427    -6480    -6517    -6531    -6528    -6521    -6515    -6512 
   -6505    -6488    -6458    -6420    -6381    -6342    -6301    -6265 
   -6231    -6178    -6095    -5999    -5888    -5746    -5574    -5390 
   -5216    -5071    -4965    -4887    -4827    -4791    -4781    -4783 
   -4783    -4789    -4808    -4822    -4830    -4845    -4869    -4892 
   -4905    -4914    -4914    -4909    -4914    -4931    -4954    -4984 
   -5030    -5088    -5150    -5211    -5262    -5297    -5304    -5287 
   -5271    -5251    -5224    -5204    -5184    -5139    -5070    -4990 
   -4904    -4811    -4727    -4660    -4608    -4585    -4617    -4699 
   -4803    -4915    -5040    -5167    -5292    -5413    -5529    -5616 
   -5661    -5680    -5682    -5660    -5622    -5586    -5541    -5476 
   -5405    -5344    -5290    -5239    -5200    -5190    -5200    -5224 
   -5271    -5331    -5389    -5448    -5501    -5539    -5544    -5521 
   -5483    -5421    -5328    -5227    -5143    -5074    -5019    -4981 
   -4949    -4922    -4918    -4949    -5005    -5085    -5185    -5298 
   -5417    -5547    -5682    -5805    -5903    -5984    -6052    -6095 
   -6112    -6122    -6129    -6138    -6164    -6212    -6272    -6335 
   -6412    -6492    -6561    -6613    -6659    -6705    -6745    -6793 
   -6844    -6886    -6920    -6957    -6993    -7017    -7034    -7052 
   -7055    -7028    -6982    -6920    -6826    -6709    -6586    -6466 
   -6345    -6238    -6168    -6138    -6138    -6168    -6222    -6273 
   -6297    -6292    -6261    -6200    -6119    -6035    -5953    -5868 
   -5791    -5737    -5702    -5675    -5665    -5670    -5668    -5663 
   -5659    -5652    -5643    -5638    -5649    -5665    -5674    -5675 
   -5671    -5655    -5633    -5613    -5593    -5570    -5553    -5553 
   -5551    -5535    -5514    -5497    -5475    -5452    -5441    -5432 
   -5416    -5408    -5418    -5429    -5435    -5439    -5440    -5428 
   -5405    -5382    -5351    -5309    -5267    -5240    -5228    -5228 
   -5248    -5289    -5339    -5395    -5456    -5508    -5541    -5568 
   -5603    -5651    -5707    -5772    -5837    -5887    -5929    -5976 
   -6021    -6058    -6108    -6188    -6286    -6390    -6500    -6601 
   -6664    -6685    -6664    -6598    -6492    -6369    -6253    -6150 
   -6068    -6010    -5968    -5929    -5890    -5860    -5841    -5821 
   -5795    -5765    -5738    -5711    -5682    -5647    -5598    -5536 
   -5479    -5425    -5362    -5300    -5250    -5211    -5181    -5163 
   -5146    -5131    -5128    -5128    -5115    -5086    -5050    -5007 
   -4955    -4901    -4853    -4806    -4762    -4737    -4749    -4785 
   -4828    -4874    -4934    -5005    -5088    -5192    -5316    -5447 
   -5587    -5741    -5892    -6030    -6154    -6266    -6370    -6469 
   -6569    -6667    -6756    -6839    -6922    -6990    -7017    -7017 
   -7010    -6986    -6929    -6849    -6752    -6643    -6535    -6443 
   -6358    -6264    -6168    -6091    -6030    -5984    -5965    -5980 
   -6016    -6068    -6131    -6193    -6235    -6247    -6235    -6203 
   -6153    -6102    -6054    -5999    -5934    -5876    -5829    -5780 
   -5724    -5670    -5616    -5552    -5499    -5470    -5440    -5397 
   -5346    -5292    -5231    -5169    -5116    -5067    -5015    -4966 
   -4926    -4880    -4823    -4772    -4737    -4711    -4693    -4681 
   -4658    -4634    -4630    -4650    -4685    -4727    -4774    -4828 
   -4891    -4966    -5055    -5130    -5173    -5193    -5205    -5201 
   -5181    -5151    -5109    -5054    -5004    -4965    -4931    -4899 
   -4868    -4843    -4818    -4789    -4779    -4784    -4791    -4807 
   -4838    -4869    -4896    -4927    -4957    -4972    -4969    -4962 
   -4958    -4950    -4947    -4961    -4986    -5019    -5065    -5121 
