Origin Time       2025/01/13 21:19:00
Lat.              31.8
Long.             131.6
Depth. (km)       30
Mag.              6.9
Station Code      NGS009
Station Lat.      32.8457
Station Long.     130.0216
Station Height(m) 25
Record Time       2025/01/13 21:20:30
Sampling Freq(Hz) 100Hz
Duration Time(s)  72
Dir.              N-S
Scale Factor      7845(gal)/8223790
Max. Acc. (gal)   2.550
Last Correction   2025/01/13 21:20:31
Memo.             
[...]
    1206     1158     1109     1071     1030      997      985      980 
     997     1036     1071     1119     1171     1210     1252     1294 
    1321     1355     1385     1385     1362     1304     1202     1070 
     912      734      558      402      295      247      255      342 
     502      719      982     1244     1480     1692     1853     1960 
    2037     2074     2085     2083     2057     2019     1988     1960 
    1930     1899     1865     1854     1864     1883     1931     2015 
    2107     2203     2311     2423     2527     2635     2739     2824 
    2886     2922     2933     2925     2887     2820     2739     2647 
    2550     2463     2396     2335     2284     2254     2234     2218 
    2227     2255     2282     2308     2317     2299     2269     2234 
    2189     2157     2162     2191     2236     2313     2396     2454 
    2504     2547     2573     2593     2602     2585     2532     2448 
    2343     2222     2093     1979     1887     1819     1773     1764 
    1784     1819     1867     1918     1962     1993     2006     1993 
    1962     1907     1819     1702     1570     1437     1297     1165 
    1054      950      855      781      715      672      657      652 
     657      680      710      739      770      789      800      792 
     757      708      643      560      473      378      272      166 
      56      -37     -106     -166     -217     -260     -306     -359 
    -419     -490     -546     -587     -615     -619     -599     -568 
    -521     -457     -395     -324     -229     -120        6      157 
     325      504      695      880     1055     1225     1377     1509 
    1621     1713     1786     1833     1858     1877     1896     1908 
    1925     1965     2042     2158     2313     2502     2709     2910 
    3098     3258     3380     3464     3495     3454     3360     3221 
    3049     2857     2656     2482     2350     2235     2161     2147 
    2172     2222     2286     2350     2424     2497     2523     2506 
    2463     2376     2257     2133     2003     1888     1814     1775 
    1769     1810     1887     1979     2072     2150     2208     2255 
    2282     2286     2281     2263     2232     2205     2205     2247 
    2324     2417     2525     2667     2826     2955     3046     3111 
    3138     3141     3103     3026     2951     2874     2805     2767 
    2744     2710     2663     2601     2492     2316     2091     1814 
    1521     1239      967      734      564      441      369      371 
     430      544      707      877     1026     1158     1255     1305 
    1318     1300     1256     1210     1163     1116     1088     1069 
    1050     1044     1034      986      916      843      766      689 
     612      549      507      484      475      480      519      596 
     700      838     1007     1169     1314     1445     1539     1582 
    1563     1485     1390     1278     1151     1050      980      943 
     973     1034     1117     1258     1421     1571     1736     1907 
    2057     2197     2331     2442     2544     2646     2737     2837 
    2921     2964     2988     2992     2934     2818     2666     2485 
    2284     2080     1879     1684     1525     1397     1289     1223 
    1190     1165     1161     1177     1185     1217     1286     1355 
    1439     1549     1653     1761     1895     2011     2095     2169 
    2222     2242     2249     2242     2203     2137     2046     1919 
    1768     1617     1455     1306     1202     1135     1101     1100 
    1119     1150     1177     1181     1182     1202     1215     1210 
    1215     1224     1227     1227     1217     1209     1225     1267 
    1329     1414     1517     1634     1750     1861     1968     2057 
    2124     2187     2227     2223     2189     2133     2047     1953 
    1868     1791     1729     1702     1713     1744     1799     1899 
    2020     2141     2266     2389     2496     2587     2637     2640 
    2623     2579     2496     2385     2261     2145     2046     1973 
    1933     1911     1903     1907     1904     1873     1829     1773 
    1702     1640     1599     1570     1566     1609     1676     1756 
    1865     1988     2099     2212     2334     2448     2558     2662 
    2755     2829     2870     2867     2825     2741     2632     2519 
    2390     2266     2174     2101     2031     1987     1962     1930 
    1885     1845     1807     1765     1742     1756     1776     1790 
    1803     1803     1777     1725     1645     1548     1451     1354 
    1271     1213     1179     1171     1183     1209     1263     1332 
    1394     1455     1502     1536     1556     1541     1501     1456 
    1402     1351     1309     1271     1260     1286     1341     1440 
    1574     1718     1875     2025     2142     2236     2301     2332 
    2334     2295     2230     2168     2096     2007     1918     1825 
    1730     1644     1567     1503     1452     1422     1413     1412 
    1413     1421     1436     1451     1448     1433     1431     1435 
    1444     1471     1512     1547     1568     1586     1606     1618 
    1634     1652     1649     1648     1644     1610     1568     1516 
    1437     1363     1286     1209     1140     1066     1003      961 
     926      912      930      962     1023     1123     1243     1383 
    1547     1705     1838     1944     2011     2042     2042     2022 
    1991     1944     1883     1830     1776     1714     1652     1584 
    1524     1475     1425     1390     1364     1335     1318     1301 
    1270     1264     1281     1323     1409     1529     1680     1863 
    2039     2209     2369     2482     2554     2582     2544     2450 
    2312     2133     1934     1736     1547     1382     1242     1129 
    1050      989      949      934      943      970      994     1009 
    1021     1015      981      927      842      739      642      549 
     459      382      313      255      207      170      145      130 
     121      110       93       68       43       18       -5      -13 
     -12       -6       21       70      133      210      292      387 
     495      604      724      843      950     1067     1200     1324 
    1448     1568     1672     1772     1869     1958     2035     2084 
    2116     2126     2108     2089     2065     2031     2020     2026 
    2026     2031     2038     2043     2057     2073     2084     2091 
    2093     2080     2050     2026     2002     1979     1975     1988 
    2020     2080     2143     2199     2255     2301     2335     2353 
    2355     2353     2340     2324     2309     2301     2312     2339 
    2380     2446     2531     2614     2690     2768     2845     2910 
    2955     2970     2956     2918     2852     2770     2681     2592 
    2517     2466     2427     2401     2398     2409     2432     2479 
    2547     2617     2691     2762     2825     2886     2929     2951 
    2957     2952     2933     2905     2872     2841     2805     2762 
    2709     2652     2600     2542     2469     2386     2297     2191 
    2058     1896     1711     1509     1290     1063      838      629 
     441      283      160       72       14       -6       14       52 
     103      193      298      417      573      731      869     1012 
    1134     1229     1329     1405     1451     1490     1494     1448 
    1378     1275     1131      966      789      599      419      263 
     125        5      -91     -159     -211     -243     -234     -203 
    -159      -74       43      176      341      531      738      977 
    1244     1520     1788     2052     2312     2542     2729     2911 
    3091     3258     3422     3566     3701     3840     3939     3987 
    4018     4018     3959     3858     3735     3568     3361     3133 
    2879     2619     2362     2100     1842     1620     1448     1329 
    1262     1264     1336     1440     1590     1788     1972     2146 
    2323     2451     2544     2623     2650     2631     2597     2539 
    2470     2409     2343     2276     2227     2177     2112     2049 
    1976     1883     1780     1672     1560     1445     1331     1231 
    1167     1151     1182     1254     1367     1499     1622     1722 
    1788     1826     1834     1817     1804     1804     1814     1848 
    1902     1972     2060     2145     2227     2311     2370     2396 
    2389     2330     2208     2027     1794     1522     1225      919 
     625      365      156        4      -90     -126     -114      -67 
       6       98      203      329      471      626      800      993 
    1197     1399     1591     1771     1922     2031     2089     2092 
    2042     1948     1811     1642     1460     1283     1124      999 
     926      915      962     1065     1206     1366     1512     1626 
    1695     1695     1647     1574     1485     1409     1375     1385 
    1443     1547     1691     1865     2053     2250     2444     2613 
    2745     2837     2874     2847     2756     2608     2415     2197 
    1975     1756     1563     1413     1301     1236     1227     1258 
    1324     1422     1545     1682     1815     1937     2049     2133 
    2189     2228     2245     2235     2209     2169     2120     2076 
    2043     2026     2012     2004     2007     2010     2007     2006 
    2006     2003     2002     1996     1980     1956     1915     1848 
    1761     1653     1532     1412     1291     1177     1077      990 
     930      900      896      924      978     1054     1146     1244 
    1344     1429     1497     1553     1583     1582     1560     1514 
    1440     1348     1246     1135     1019      909      816      739 
     681      645      623      611      611      629      657      687 
     712      729      733      718      684      639      585      518 
     445      367      288      226      179      152      159      199 
     276      390      530      699      884     1066     1246     1413 
    1571     1733     1890     2037     2181     2307     2412     2496 
    2554     2590     2614     2632     2654     2686     2731     2782 
    2828     2859     2884     2901     2905     2906     2895     2863 
    2814     2743     2641     2512     2361     2199     2030     1856 
    1690     1528     1363     1212     1067      922      788      662 
     545      444      359      287      236      203      191      205 
     251      329      436      568      707      847      988     1119 
    1240     1356     1468     1584     1703     1830     1976     2145 
    2343     2574     2822     3080     3342     3586     3804     3978 
    4102     4179     4199     4166     4085     3958     3794     3604 
    3402     3203     3022     2864     2732     2629     2556     2497 
    2452     2416     2380     2347     2312     2280     2255     2231 
    2220     2220     2214     2214     2214     2193     2178     2166 
    2135     2108     2092     2066     2029     1988     1950     1912 
    1879     1871     1891     1925     1979     2039     2080     2107 
    2118     2089     2043     1988     1910     1822     1746     1686 
    1645     1620     1614     1642     1684     1736     1809     1885 
    1962     2047     2115     2153     2164     2138     2079     2006 
    1925     1845     1786     1746     1729     1729     1748     1780 
    1810     1826     1836     1841     1836     1833     1841     1849 
    1863     1898     1949     2008     2083     2178     2284     2384 
    2475     2547     2586     2596     2581     2547     2502     2444 
    2376     2299     2218     2120     2008     1895     1782     1671 
    1568     1476     1395     1317     1247     1193     1139     1098 
    1084     1086     1113     1167     1240     1329     1433     1545 
    1660     1772     1879     1976     2046     2096     2131     2145 
    2147     2150     2137     2118     2106     2087     2066     2050 
    2029     2000     1965     1919     1863     1780     1676     1567 
    1448     1321     1210     1128     1077     1070     1098     1150 
    1217     1285     1345     1394     1425     1443     1444     1431 
    1406     1371     1331     1289     1254     1235     1233     1248 
    1283     1336     1408     1489     1561     1624     1674     1702 
    1703     1686     1655     1618     1590     1568     1556     1560 
    1578     1607     1653     1711     1780     1858     1937     2011 
    2072     2111     2139     2150     2138     2112     2079     2033 
    1983     1926     1858     1783     1694     1582     1447     1293 
    1129      967      810      660      522      400      307      243 
     203      189      199      241      297      346      407      468 
     511      553      598      634      666      695      726      764 
     803      851      915      974     1027     1084     1139     1186 
    1224     1256     1287     1313     1328     1337     1341     1328 
    1300     1260     1212     1148     1080     1012      940      853 
     754      652      542      432      322      225      147       75 
      20      -12      -27      -24        0       41       99      167 
     240      318      383      436      480      508      523      531 
     546      577      622      681      762      865      986     1132 
    1293     1466     1647     1830     2023     2222     2413     2610 
    2813     3009     3198     3380     3551     3713     3863     4005 
    4135     4236     4307     4351     4359     4334     4284     4202 
    4090     3971     3846     3703     3558     3420     3279     3129 
    2980     2845     2718     2592     2474     2369     2258     2145 
    2035     1923     1814     1718     1632     1560     1510     1474 
    1451     1452     1476     1516     1567     1640     1725     1803 
    1877     1953     2004     2035     2058     2062     2062     2058 
    2035     2008     1985     1957     1933     1918     1902     1883 
    1844     1787     1719     1634     1545     1468     1390     1317 
    1262     1204     1143     1090     1043     1011      994      984 
     990     1012     1038     1075     1108     1131     1162     1193 
    1219     1255     1304     1360     1422     1482     1541     1594 
    1630     1653     1672     1687     1713     1753     1807     1884 
    1979     2077     2185     2303     2419     2516     2592     2650 
    2674     2654     2600     2509     2385     2246     2104     1976 
    1867     1773     1706     1665     1647     1652     1665     1676 
    1688     1696     1696     1699     1696     1676     1647     1615 
    1580     1552     1541     1544     1561     1593     1630     1682 
    1737     1780     1822     1852     1858     1852     1825     1776 
    1729     1680     1621     1552     1474     1390     1304     1213 
    1134     1070     1009      972      954      946      969     1027 
    1093     1181     1293     1404     1510     1614     1698     1752 
    1787     1802     1790     1753     1713     1671     1633     1611 
    1614     1629     1668     1736     1814     1902     1999     2093 
    2181     2249     2299     2342     2367     2378     2386     2394 
    2408     2424     2443     2471     2498     2517     2536     2543 
    2532     2505     2448     2361     2245     2096     1925     1740 
    1544     1343     1150      970      812      675      557      463 
     388      329      283      255      237      233      252      291 
     351      436      535      641      756      872      967     1053 
    1132     1192     1237     1271     1297     1323     1340     1348 
    1362     1378     1397     1435     1472     1520     1599     1698 
    1794     1894     1993     2093     2191     2270     2343     2407 
    2463     2520     2562     2600     2650     2681     2697     2714 
    2721     2728     2751     2781     2820     2872     2922     2963 
    2988     2992     2979     2937     2863     2770     2648     2494 
    2330     2162     1995     1838     1694     1557     1432     1320 
    1223     1136     1066     1012      976      955      958      977 
    1011     1073     1152     1251     1367     1490     1618     1744 
    1861     1965     2046     2104     2142     2146     2130     2116 
    2107     2107     2120     2147     2197     2258     2319     2385 
    2438     2467     2477     2454     2398     2335     2257     2165 
    2085     2023     1969     1925     1885     1848     1803     1753 
    1699     1636     1564     1493     1410     1313     1215     1119 
    1026      953      904      884      907      965     1050     1166 
    1297     1432     1574     1703     1818     1919     2000     2068 
    2124     2157     2172     2162     2122     2064     1981     1875 
    1759     1641     1533     1439     1355     1294     1254     1227 
    1213     1208     1208     1220     1235     1240     1248     1263 
    1266     1263     1269     1267     1264     1271     1286     1309 
    1340     1363     1387     1409     1416     1410     1391     1366 
    1339     1308     1275     1239     1198     1165     1123     1070 
    1027      985      940      900      862      830      807      789 
     777      769      766      764      762      776      795      804 
     811      822      822      810      801      796      793      800 
     823      857      901      967     1039     1101     1166     1235 
    1289     1335     1378     1420     1462     1501     1533     1570 
    1614     1657     1698     1736     1777     1825     1868     1911 
    1961     2007     2054     2103     2138     2170     2196     2195 
    2178     2157     2123     2079     2034     1989     1948     1910 
    1877     1852     1826     1804     1783     1755     1728     1701 
    1667     1629     1598     1576     1561     1561     1586     1626 
    1682     1763     1858     1960     2073     2200     2322     2444 
    2566     2679     2793     2905     3011     3105     3183     3249 
    3296     3318     3318     3304     3280     3242     3190     3132 
    3065     2995     2932     2870     2806     2749     2691     2631 
    2574     2515     2461     2419     2388     2367     2357     2354 
    2363     2374     2389     2403     2401     2393     2386     2371 
    2346     2312     2282     2259     2238     2215     2200     2199 
    2201     2199     2192     2184     2169     2138     2096     2042 
    1966     1871     1756     1609     1443     1279     1105      915 
     733      562      395      243      109      -18     -129     -210 
    -272     -311     -322     -306     -267     -207     -141      -62 
      28      120      220      329      433      540      645      739 
     832      916      984     1047     1105     1152     1193     1229 
    1273     1313     1351     1401     1451     1493     1548     1606 
    1655     1706     1760     1809     1861     1902     1931     1965 
    1992     2012     2035     2054     2077     2106     2131     2164 
    2204     2239     2284     2330     2361     2388     2413     2424 
    2425     2408     2378     2344     2296     2239     2185     2130 
    2081     2054     2042     2047     2066     2089     2112     2137 
    2147     2143     2124     2096     2060     2012     1965     1918 
