Origin Time       2025/01/13 21:19:00
Lat.              31.8
Long.             131.6
Depth. (km)       30
Mag.              6.9
Station Code      NGS013
Station Lat.      32.5810
Station Long.     129.7597
Station Height(m) 5
Record Time       2025/01/13 21:20:24
Sampling Freq(Hz) 100Hz
Duration Time(s)  63
Dir.              U-D
Scale Factor      7845(gal)/8223790
Max. Acc. (gal)   1.034
Last Correction   2025/01/13 21:20:25
Memo.             
   16502    16506    16507    16474    16411    16363    16337    16321 
   16303    16291    16274    16236    16198    16186    16200    16231 
   16287    16341    16359    16343    16309    16270    16245    16232 
   16217    16198    16181    16167    16155    16158    16182    16213 
   16241    16266    16270    16252    16224    16190    16158    16135 
   16123    16121    16148    16200    16217    16181    16140    16127 
   16125    16123    16110    16087    16081    16119    16177    16233 
   16303    16393    16470    16518    16552    16586    16609    16617 
   16626    16638    16642    16634    16614    16576    16521    16459 
   16417    16395    16364    16328    16303    16289    16294    16313 
   16325    16340    16359    16356    16326    16282    16247    16233 
   16235    16237    16235    16214    16183    16162    16139    16097 
   16040    15986    15952    15948    15962    15959    15938    15916 
   15889    15853    15838    15853    15869    15873    15866    15870 
   15901    15946    15986    16029    16083    16143    16190    16214 
   16231    16252    16274    16294    16313    16314    16298    16281 
   16285    16298    16299    16294    16282    16254    16216    16178 
   16137    16114    16121    16131    16121    16113    16137    16185 
   16229    16264    16291    16310    16318    16312    16297    16294 
   16301    16303    16295    16279    16271    16267    16259    16251 
   16240    16221    16202    16202    16205    16194    16179    16168 
   16167    16189    16233    16283    16317    16325    16325    16328 
   16341    16386    16456    16511    16541    16565    16582    16579 
   16579    16607    16644    16661    16657    16646    16645    16660 
   16671    16656    16630    16613    16584    16522    16456    16418 
   16414    16430    16437    16411    16376    16359    16355    16345 
   16328    16309    16275    16243    16255    16285    16272    16225 
   16186    16151    16114    16092    16090    16104    16128    16164 
   16201    16228    16244    16267    16298    16325    16345    16352 
   16345    16333    16317    16297    16266    16224    16189    16185 
   16193    16198    16205    16205    16182    16154    16135    16116 
   16096    16087    16078    16050    16009    15969    15947    15959 
   15985    15984    15951    15934    15950    15969    15989    16032 
   16082    16116    16148    16200    16255    16301    16328    16330 
   16317    16297    16270    16228    16182    16133    16079    16023 
   15986    15975    15989    16031    16093    16148    16194    16228 
   16255    16285    16318    16347    16363    16376    16405    16437 
   16443    16416    16375    16339    16328    16352    16383    16394 
   16395    16399    16382    16335    16279    16231    16181    16124 
   16086    16087    16119    16150    16170    16194    16224    16249 
   16283    16329    16364    16389    16417    16449    16475    16490 
   16503    16525    16546    16551    16544    16542    16551    16569 
   16588    16586    16541    16483    16451    16452    16464    16474 
   16482    16491    16476    16433    16390    16364    16343    16316 
   16287    16275    16278    16278    16271    16270    16264    16222 
   16159    16109    16071    16042    16035    16042    16040    16047 
   16066    16073    16086    16137    16208    16276    16347    16398 
   16407    16390    16376    16382    16406    16444    16491    16542 
   16590    16626    16649    16654    16642    16609    16540    16443 
   16351    16279    16214    16159    16123    16102    16082    16065 
   16071    16106    16147    16171    16164    16108    16027    15962 
   15915    15869    15838    15839    15871    15919    15970    16019 
   16060    16096    16136    16189    16227    16236    16228    16206 
   16175    16154    16148    16152    16173    16214    16275    16335 
   16372    16403    16451    16491    16494    16478    16452    16401 
   16314    16228    16212    16286    16383    16452    16501    16525 
   16524    16515    16497    16444    16389    16364    16356    16362 
   16401    16445    16459    16449    16449    16452    16424    16364 
   16320    16290    16260    16249    16263    16263    16222    16155 
   16101    16077    16051    16000    15921    15824    15735    15678 
   15662    15689    15741    15797    15858    15924    16009    16117 
   16221    16306    16383    16448    16484    16498    16502    16492 
   16460    16414    16374    16348    16321    16289    16271    16279 
   16303    16341    16383    16417    16452    16475    16479    16478 
   16490    16505    16502    16470    16436    16414    16403    16418 
   16444    16451    16457    16478    16490    16482    16453    16405 
   16340    16275    16233    16206    16156    16079    16029    16031 
   16035    16001    15944    15898    15877    15874    15898    15947 
   15997    16031    16056    16090    16117    16104    16062    16027 
   16024    16051    16083    16127    16187    16251    16291    16312 
   16362    16460    16548    16595    16632    16667    16692    16723 
   16758    16764    16729    16675    16614    16557    16533    16533 
   16503    16440    16386    16356    16333    16317    16309    16287 
   16239    16193    16166    16146    16137    16135    16092    16023 
   15994    16002    16005    16001    16002    16011    16029    16067 
   16105    16137    16193    16276    16360    16416    16420    16395 
   16397    16430    16471    16495    16510    16522    16510    16476 
   16449    16421    16366    16298    16245    16212    16193    16190 
   16181    16160    16158    16178    16210    16245    16263    16251 
   16235    16244    16263    16276    16301    16330    16330    16312 
   16294    16279    16272    16275    16282    16264    16205    16131 
   16078    16062    16060    16044    16011    15958    15888    15830 
   15801    15795    15805    15822    15834    15858    15912    15988 
   16075    16182    16293    16370    16403    16422    16449    16488 
   16532    16564    16579    16591    16594    16568    16530    16524 
   16533    16521    16497    16483    16498    16532    16552    16555 
   16586    16656    16729    16753    16710    16634    16576    16540 
   16526    16533    16555    16594    16656    16729    16775    16785 
   16783    16764    16741    16745    16771    16802    16841    16870 
   16858    16783    16669    16565    16488    16409    16294    16171 
   16089    16025    15947    15858    15766    15687    15645    15646 
   15665    15697    15747    15776    15781    15792    15807    15822 
   15819    15795    15782    15792    15803    15816    15834    15847 
   15862    15893    15938    15958    15925    15876    15853    15854 
   15877    15924    15984    16033    16077    16104    16112    16112 
   16106    16104    16132    16185    16217    16228    16241    16241 
   16218    16205    16208    16209    16213    16227    16264    16336 
   16405    16411    16362    16295    16220    16148    16097    16044 
   15978    15927    15890    15862    15867    15924    16027    16164 
   16308    16424    16502    16567    16623    16644    16637    16633 
   16625    16633    16692    16799    16919    17018    17054    17041 
   17023    16999    16938    16873    16845    16830    16800    16785 
   16815    16883    16939    16968    16999    17042    17046    16995 
   16912    16795    16646    16507    16401    16318    16233    16155 
   16100    16038    15950    15888    15876    15884    15892    15871 
   15816    15761    15749    15766    15751    15678    15599    15580 
   15600    15622    15658    15709    15751    15799    15861    15911 
   15932    15943    15955    15954    15924    15882    15863    15880 
   15912    15950    16016    16124    16272    16441    16600    16718 
   16798    16858    16887    16876    16849    16812    16746    16615 
   16437    16285    16200    16154    16109    16054    16001    15963 
   15944    15961    16000    16031    16050    16052    16047    16067 
   16136    16210    16236    16218    16202    16202    16193    16170 
   16141    16097    16055    16039    16013    15943    15870    15849 
   15866    15870    15854    15858    15884    15898    15913    15970 
   16060    16129    16167    16206    16245    16262    16266    16275 
   16268    16248    16252    16283    16293    16268    16251    16272 
   16318    16364    16383    16375    16357    16345    16352    16348 
   16316    16310    16386    16499    16555    16536    16514    16533 
   16560    16538    16491    16483    16505    16498    16484    16505 
   16521    16488    16440    16417    16402    16384    16387    16397 
   16399    16407    16409    16390    16394    16444    16470    16418 
   16356    16355    16376    16375    16374    16356    16295    16259 
   16289    16305    16278    16255    16247    16247    16264    16290 
   16325    16390    16490    16578    16615    16648    16691    16686 
   16619    16545    16475    16391    16306    16245    16209    16189 
   16181    16178    16182    16193    16189    16167    16164    16185 
   16204    16218    16228    16213    16170    16127    16133    16183 
   16208    16167    16100    16067    16059    16048    16038    16046 
   16058    16060    16075    16119    16162    16183    16200    16218 
   16241    16267    16285    16283    16262    16247    16274    16320 
   16352    16386    16422    16451    16476    16490    16457    16399 
   16382    16406    16418    16417    16425    16433    16438    16445 
   16452    16460    16451    16421    16386    16340    16286    16260 
   16282    16313    16321    16309    16275    16239    16228    16208 
   16143    16082    16074    16079    16039    15965    15909    15901 
   15917    15912    15885    15869    15859    15867    15928    16001 
   15992    15939    15946    16012    16089    16162    16202    16198 
   16197    16251    16328    16363    16364    16383    16414    16424 
   16417    16425    16425    16375    16305    16258    16214    16163 
   16136    16131    16114    16078    16040    16016    16011    16011 
   15993    15971    15982    16001    15978    15939    15928    15925 
   15904    15892    15921    15969    16004    16043    16117    16213 
   16275    16291    16291    16308    16367    16455    16510    16515 
   16513    16515    16506    16478    16432    16380    16344    16333 
   16347    16383    16434    16465    16445    16420    16438    16471 
   16486    16502    16528    16536    16526    16540    16588    16626 
   16646    16664    16669    16652    16615    16564    16495    16420 
   16352    16287    16218    16166    16151    16170    16190    16183 
   16158    16135    16127    16128    16108    16060    16031    16031 
   16047    16086    16156    16232    16283    16314    16366    16451 
   16537    16605    16659    16687    16680    16677    16698    16713 
   16713    16700    16665    16614    16556    16480    16383    16278 
   16177    16098    16055    16027    15977    15905    15846    15812 
   15772    15726    15704    15700    15707    15738    15785    15840 
   15913    16008    16120    16235    16332    16399    16438    16452 
   16448    16455    16491    16525    16528    16510    16494    16499 
   16528    16540    16505    16447    16398    16357    16328    16308 
   16282    16245    16208    16179    16159    16131    16090    16047 
   15996    15930    15855    15777    15703    15638    15579    15518 
   15464    15418    15364    15295    15229    15184    15178    15209 
   15265    15337    15406    15444    15465    15511    15584    15660 
   15749    15863    15985    16110    16239    16348    16443    16540 
   16630    16681    16686    16657    16614    16567    16526    16487 
   16438    16398    16397    16432    16479    16528    16564    16573 
   16567    16561    16564    16575    16607    16665    16738    16829 
   16938    17028    17064    17086    17134    17158    17122    17059 
   17008    16962    16900    16825    16745    16688    16673    16671 
   16642    16591    16536    16476    16421    16387    16367    16355 
   16356    16351    16345    16387    16457    16492    16471    16416 
   16339    16264    16209    16151    16070    15990    15919    15853 
   15811    15792    15776    15755    15742    15749    15766    15780 
   15780    15778    15816    15889    15946    15988    16048    16120 
   16164    16195    16243    16291    16325    16341    16351    16367 
   16402    16437    16438    16418    16409    16403    16380    16347 
   16320    16281    16212    16125    16038    15952    15886    15840 
   15795    15754    15746    15772    15804    15823    15846    15900 
   15975    16042    16092    16129    16170    16232    16306    16371 
   16411    16441    16490    16553    16599    16636    16676    16714 
   16752    16789    16815    16823    16830    16835    16833    16833 
   16846    16838    16792    16744    16703    16646    16569    16491 
   16407    16306    16213    16152    16108    16059    16000    15934 
   15876    15828    15804    15807    15822    15855    15904    15944 
   15973    16012    16055    16090    16117    16141    16164    16163 
   16123    16075    16056    16052    16046    16039    16044    16055 
   16058    16056    16066    16087    16105    16109    16116    16117 
   16083    16019    15946    15885    15844    15824    15823    15831 
   15828    15828    15855    15901    15939    15966    16008    16070 
   16137    16197    16237    16267    16309    16367    16430    16488 
   16540    16592    16626    16626    16619    16606    16561    16495 
   16422    16345    16264    16177    16086    15992    15892    15792 
   15704    15638    15585    15545    15529    15541    15569    15601 
   15655    15735    15797    15811    15812    15832    15858    15881 
   15930    15988    16025    16065    16131    16210    16282    16340 
   16395    16453    16499    16515    16503    16471    16433    16394 
   16351    16320    16317    16320    16314    16328    16360    16380 
   16387    16414    16467    16506    16511    16517    16529    16526 
   16498    16463    16441    16434    16441    16474    16518    16557 
   16594    16617    16609    16583    16561    16548    16537    16529 
   16526    16544    16590    16640    16664    16656    16638    16630 
   16623    16607    16591    16571    16532    16482    16438    16394 
   16344    16290    16227    16173    16140    16098    16036    15990 
   15977    15979    15988    16002    16016    16024    16054    16110 
   16168    16212    16245    16276    16316    16370    16432    16487 
   16519    16532    16549    16590    16644    16700    16762    16822 
   16872    16929    16996    17054    17092    17108    17096    17055 
   16996    16929    16849    16772    16696    16609    16519    16451 
   16393    16325    16259    16210    16167    16123    16110    16133 
   16143    16125    16119    16144    16194    16264    16335    16366 
   16370    16380    16397    16405    16393    16363    16333    16312 
   16278    16231    16201    16208    16224    16235    16243    16256 
   16274    16286    16289    16290    16278    16243    16224    16237 
   16243    16229    16229    16237    16209    16148    16096    16054 
   15990    15915    15862    15836    15813    15790    15792    15820 
   15855    15892    15927    15967    16015    16056    16087    16123 
   16168    16218    16270    16314    16336    16339    16335    16329 
   16329    16336    16328    16294    16260    16235    16200    16171 
   16181    16216    16244    16272    16321    16393    16460    16499 
   16505    16497    16479    16449    16433    16440    16440    16429 
   16421    16405    16363    16302    16247    16201    16152    16100 
   16051    16008    15966    15932    15915    15915    15916    15903 
   15890    15898    15919    15940    15969    16008    16063    16137 
   16217    16264    16285    16320    16374    16421    16448    16465 
   16484    16487    16459    16413    16359    16310    16271    16229 
   16195    16174    16150    16121    16101    16096    16105    16120 
   16129    16132    16141    16166    16220    16291    16345    16382 
   16418    16444    16443    16432    16422    16397    16363    16333 
   16281    16198    16110    16020    15932    15874    15850    15842 
   15842    15854    15885    15908    15920    15962    16023    16062 
   16092    16121    16152    16183    16214    16267    16335    16378 
   16402    16417    16409    16380    16341    16297    16263    16251 
   16241    16221    16216    16227    16224    16195    16175    16181 
   16202    16239    16270    16266    16240    16224    16225    16227 
   16220    16214    16228    16258    16283    16291    16290    16290 
   16287    16260    16212    16163    16127    16101    16067    16011 
   15959    15942    15952    15975    16002    16029    16047    16046 
   16043    16048    16035    15996    15955    15931    15921    15916 
   15905    15892    15893    15915    15940    15962    15993    16025 
   16050    16092    16162    16224    16262    16297    16340    16383 
   16421    16448    16464    16478    16490    16498    16502    16510 
   16519    16522    16510    16492    16478    16470    16472    16482 
   16486    16486    16487    16491    16494    16505    16522    16530 
   16529    16536    16553    16572    16582    16569    16544    16519 
   16498    16475    16444    16410    16379    16352    16329    16314 
   16303    16282    16244    16208    16179    16166    16177    16193 
   16204    16222    16259    16305    16348    16382    16403    16417 
   16441    16475    16497    16497    16487    16478    16476    16472 
   16453    16424    16398    16389    16395    16403    16406    16414 
   16428    16430    16425    16429    16445    16461    16471    16476 
   16482    16486    16490    16484    16461    16440    16424    16397 
   16371    16374    16384    16375    16347    16317    16287    16254 
   16208    16158    16117    16094    16087    16085    16074    16055 
   16043    16039    16032    16013    15985    15955    15934    15909 
   15873    15846    15839    15843    15861    15894    15931    15952 
   15974    16016    16063    16098    16123    16139    16160    16187 
   16218    16255    16289    16313    16322    16321    16328    16343 
   16355    16370    16386    16387    16368    16336    16302    16274 
   16254    16239    16232    16233    16239    16252    16285    16326 
   16355    16374    16387    16390    16383    16375    16357    16322 
   16282    16264    16266    16263    16245    16222    16201    16174 
   16133    16094    16078    16074    16074    16090    16127    16175 
   16235    16305    16380    16443    16491    16538    16573    16590 
   16600    16607    16615    16629    16638    16649    16664    16673 
   16691    16708    16710    16706    16692    16659    16623    16605 
   16594    16568    16538    16534    16546    16553    16571    16605 
   16623    16623    16625    16625    16619    16611    16602    16592 
   16595    16602    16594    16579    16564    16548    16529    16503 
