Origin Time       2025/01/13 21:19:00
Lat.              31.8
Long.             131.6
Depth. (km)       30
Mag.              6.9
Station Code      OIT012
Station Lat.      33.0666
Station Long.     131.3729
Station Height(m) 460
Record Time       2025/01/13 21:19:57
Sampling Freq(Hz) 100Hz
Duration Time(s)  124
Dir.              U-D
Scale Factor      7845(gal)/8223790
Max. Acc. (gal)   8.694
Last Correction   2025/01/13 21:19:57
Memo.             
[...]
     635      633      514      437      371      144     -255     -627 
    -785     -688     -502     -394     -233      144      599      878 
     881      803      831      820      672      514      361      106 
    -301     -727     -999    -1201    -1528    -1981    -2408    -2667 
   -2728    -2663    -2596    -2566    -2400    -2003    -1655    -1633 
   -1749    -1597    -1215    -1028    -1151    -1242    -1140    -1109 
   -1366    -1734    -1957    -2083    -2303    -2583    -2712    -2644 
   -2570    -2508    -2304    -2015    -1848    -1857    -1965    -2155 
   -2403    -2506    -2423    -2377    -2354    -2142    -1730    -1240 
    -808     -495     -261      -70       68       93      -95     -430 
    -646     -650     -634     -743     -935    -1124    -1301    -1553 
   -1852    -2030    -2150    -2467    -2968    -3343    -3396    -3277 
   -3276    -3404    -3427    -3322    -3325    -3511    -3672    -3593 
   -3357    -3204    -3109    -2794    -2165    -1462     -997     -820 
    -691     -488     -413     -618     -900    -1057    -1154    -1297 
   -1451    -1530    -1513    -1506    -1578    -1621    -1524    -1312 
   -1152    -1186    -1309    -1348    -1422    -1719    -2003    -1900 
   -1505    -1281    -1417    -1583    -1512    -1482    -1794    -2205 
   -2269    -1957    -1633    -1514    -1490    -1382    -1219    -1147 
   -1108     -881     -405      113      461      697      961     1236 
    1432     1494     1510     1582     1595     1391     1034      699 
     471      284       64     -141     -232     -267     -409     -629 
    -739     -719     -795    -1112    -1445    -1502    -1283     -976 
    -743     -650     -604     -484     -349     -337     -391     -292 
     -52       66      -41     -211     -330     -535     -922    -1286 
   -1470    -1594    -1811    -2025    -2064    -1948    -1771    -1545 
   -1264     -912     -554     -399     -510     -658     -592     -349 
    -194     -210     -183      -10      244      546      753      796 
     854      990     1000      757      423      128     -268     -938 
   -1803    -2554    -2968    -3169    -3400    -3585    -3460    -3086 
   -2782    -2643    -2489    -2153    -1768    -1602    -1668    -1772 
   -1827    -1944    -2228    -2594    -2876    -3056    -3203    -3308 
   -3335    -3260    -3098    -2918    -2725    -2484    -2196    -1926 
   -1794    -1769    -1687    -1532    -1421    -1432    -1479    -1351 
   -1008     -629     -301       68      525      918     1055      909 
     600      294       67     -195     -627    -1175    -1692    -2079 
   -2339    -2575    -2839    -2998    -2880    -2559    -2303    -2236 
   -2277    -2309    -2272    -2178    -2087    -1980    -1740    -1294 
    -787     -473     -392     -309      -78      224      457      554 
     618      799     1057     1194     1173     1227     1547     1863 
    1795     1501     1381     1470     1574     1664     1765     1809 
    1786     1779     1776     1684     1530     1433     1412     1441 
    1533     1626     1630     1602     1648     1711     1638     1466 
    1381     1370     1275     1115      977      839      677      487 
     209     -117     -315     -369     -526     -915    -1335    -1537 
   -1566    -1682    -1977    -2278    -2419    -2413    -2380    -2405 
   -2431    -2382    -2369    -2501    -2678    -2735    -2639    -2490 
   -2366    -2249    -2122    -2030    -2012    -2004    -1957    -1958 
   -2066    -2178    -2172    -2027    -1837    -1688    -1629    -1698 
   -1837    -1915    -1937    -2006    -2100    -2096    -1968    -1822 
   -1719    -1534    -1131     -683     -544     -784    -1120    -1350 
   -1626    -2095    -2592    -2955    -3281    -3711    -4202    -4648 
   -5065    -5536    -6137    -6859    -7519    -8001    -8386    -8656 
   -8698    -8537    -8290    -8032    -7658    -6982    -6065    -5178 
   -4375    -3493    -2563    -1815    -1304     -858     -328      292 
     918     1467     1931     2357     2755     3098     3372     3665 
    4060     4401     4469     4278     3942     3503     3025     2577 
    2178     1890     1717     1563     1363     1085      704      210 
    -421    -1108    -1714    -2231    -2651    -2883    -2926    -2889 
   -2889    -2937    -2983    -2995    -2955    -2845    -2713    -2685 
   -2812    -2975    -3094    -3281    -3703    -4264    -4646    -4787 
   -4972    -5298    -5448    -5224    -4932    -4834    -4704    -4322 
   -3797    -3308    -2878    -2386    -1729     -985     -376       64 
     560     1135     1516     1567     1495     1532     1606     1568 
    1574     1875     2489     3253     3997     4652     5258     5849 
    6353     6647     6727     6717     6721     6743     6700     6531 
    6307     6096     5840     5417     4818     4129     3377     2566 
    1787     1074      318     -506    -1215    -1607    -1791    -2031 
   -2307    -2398    -2344    -2342    -2466    -2721    -3145    -3744 
   -4394    -5031    -5706    -6347    -6805    -7083    -7269    -7356 
   -7219    -6856    -6488    -6297    -6208    -6042    -5756    -5451 
   -5236    -5011    -4558    -3924    -3345    -2948    -2704    -2528 
   -2355    -2111    -1777    -1449    -1219    -1074     -963     -886 
    -881     -861     -645     -187      310      637      761      735 
     592      302     -189     -803    -1375    -1875    -2357    -2752 
   -2938    -2938    -2878    -2778    -2540    -2209    -1927    -1718 
   -1591    -1617    -1848    -2285    -2736    -2971    -3045    -3118 
   -3196    -3250    -3280    -3213    -2964    -2578    -2150    -1760 
   -1460    -1250    -1159    -1273    -1510    -1649    -1663    -1656 
   -1557    -1298     -958     -577     -144      344      892     1422 
    1906     2500     3237     3923     4484     4992     5467     5815 
    5910     5763     5529     5329     5184     4974     4603     4191 
    3820     3284     2435     1513      891      549      193     -217 
    -460     -490     -546     -823    -1246    -1630    -1962    -2417 
   -3051    -3709    -4256    -4730    -5259    -5786    -6102    -6169 
   -6154    -6168    -6157    -6061    -5917    -5769    -5638    -5525 
   -5386    -5236    -5117    -4977    -4756    -4507    -4274    -4035 
   -3815    -3592    -3237    -2708    -2191    -1864    -1625    -1227 
    -630      -44      361      677     1070     1509     1779     1791 
    1729     1740     1638     1201      529     -116     -604     -927 
   -1115    -1262    -1426    -1572    -1682    -1848    -2150    -2461 
   -2543    -2475    -2565    -2795    -2909    -2852    -2785    -2789 
   -2802    -2814    -2882    -3018    -3217    -3472    -3824    -4257 
   -4581    -4710    -4749    -4715    -4565    -4287    -3852    -3302 
   -2782    -2371    -1992    -1566    -1150     -845     -619     -359 
     -32      244      446      745     1209     1746     2265     2679 
    2940     3126     3354     3581     3731     3915     4263     4658 
    4874     4950     5086     5305     5476     5559     5684     5983 
    6355     6592     6662     6702     6793     6858     6766     6511 
    6205     5922     5628     5263     4835     4355     3748     2980 
    2120     1244      396     -376    -1031    -1599    -2196    -2828 
   -3416    -3920    -4317    -4644    -4953    -5259    -5547    -5818 
   -6129    -6436    -6593    -6563    -6421    -6281    -6183    -6019 
   -5717    -5273    -4729    -4303    -4156    -4139    -4113    -4185 
   -4430    -4725    -4846    -4827    -4986    -5308    -5441    -5273 
   -4951    -4618    -4288    -3940    -3642    -3423    -3207    -2940 
   -2681    -2478    -2269    -2052    -1929    -1873    -1817    -1782 
   -1819    -1934    -2092    -2295    -2527    -2686    -2749    -2821 
   -2979    -3103    -3049    -2902    -2818    -2852    -2955    -3034 
   -3146    -3416    -3784    -4095    -4310    -4498    -4680    -4793 
   -4818    -4806    -4801    -4830    -4927    -5057    -5120    -5136 
   -5166    -5171    -5046    -4745    -4399    -4156    -3939    -3597 
   -3091    -2509    -1953    -1375     -706       27      751     1391 
    1969     2594     3213     3568     3542     3381     3368     3449 
    3404     3191     3024     3024     2948     2623     2266     2111 
    2172     2342     2509     2682     2897     3129     3319     3419 
    3461     3492     3462     3300     3057     2882     2825     2799 
    2760     2772     2918     3142     3257     3180     2974     2759 
    2565     2234     1717     1256      978      652      125     -378 
    -631     -737     -884    -1062    -1134    -1020     -828     -715 
    -642     -468     -139      228      495      711      992     1316 
    1570     1745     1892     1987     1985     1883     1709     1482 
    1179      762      241     -329     -939    -1580    -2168    -2635 
   -2960    -3098    -3096    -3113    -3177    -3148    -2961    -2833 
   -2941    -3118    -3179    -3204    -3314    -3404    -3284    -2944 
   -2565    -2288    -2077    -1841    -1657    -1680    -1887    -2134 
   -2317    -2447    -2604    -2751    -2771    -2694    -2673    -2766 
   -2903    -3042    -3203    -3426    -3747    -4081    -4293    -4399 
   -4491    -4561    -4580    -4558    -4511    -4488    -4486    -4429 
   -4360    -4360    -4356    -4174    -3771    -3338    -3038    -2797 
   -2484    -2114    -1782    -1534    -1359    -1177     -935     -693 
    -452     -152      151      338      341      168     -113     -415 
    -676     -853     -907     -881     -830     -719     -557     -364 
    -157      -17       45       97      140      172      213      280 
     353      371      361      430      564      681      781      922 
    1094     1167     1057      846      639      456      271       78 
     -85     -143      -95      -25       17       24      -33     -168 
    -346     -534     -788    -1167    -1563    -1823    -1971    -2169 
   -2471    -2679    -2644    -2517    -2511    -2670    -2895    -3015 
   -3022    -3107    -3265    -3295    -3188    -3073    -3019    -3005 
   -2914    -2747    -2641    -2612    -2543    -2354    -2064    -1763 
   -1490    -1255    -1129    -1135    -1204    -1248    -1189     -992 
    -657     -268       52      284      487      729     1053     1436 
    1850     2304     2803     3307     3715     3963     4128     4287 
    4421     4523     4604     4639     4603     4436     4041     3419 
    2697     2025     1379      697      102     -379     -907    -1497 
   -2097    -2658    -3122    -3608    -4144    -4590    -4999    -5491 
   -6025    -6467    -6697    -6740    -6758    -6806    -6799    -6675 
   -6539    -6593    -6841    -7090    -7204    -7234    -7245    -7113 
   -6662    -6030    -5516    -5108    -4590    -3959    -3365    -2810 
   -2196    -1539     -930     -453     -143       86      363      641 
     780      832     1004     1336     1674     1877     1985     2116 
    2266     2282     2091     1815     1603     1441     1232      955 
     681      461      229      -56     -232     -132      135      329 
     449      702     1101     1449     1632     1714     1786     1811 
    1655     1209      581       10     -460     -930    -1387    -1695 
   -1821    -1895    -1991    -2106    -2288    -2512    -2660    -2727 
   -2826    -3005    -3113    -3029    -2907    -2952    -3146    -3292 
   -3295    -3302    -3404    -3489    -3480    -3446    -3542    -3844 
   -4209    -4413    -4414    -4390    -4459    -4557    -4666    -4857 
   -5150    -5435    -5529    -5391    -5173    -4950    -4712    -4484 
   -4241    -3948    -3628    -3241    -2786    -2366    -2011    -1668 
   -1309     -973     -757     -699     -731     -827    -1026    -1291 
   -1543    -1737    -1822    -1849    -1935    -2010    -1935    -1730 
   -1487    -1259     -972     -519      -25      352      670      947 
    1093     1084      972      869      878     1003     1148     1251 
    1394     1655     1931     2145     2389     2776     3249     3678 
    4044     4371     4618     4766     4806     4711     4537     4376 
    4267     4159     3971     3688     3337     2956     2581     2238 
    1962     1777     1637     1351      835      326       17     -187 
    -410     -650     -869    -1104    -1413    -1711    -1899    -2010 
   -2122    -2246    -2361    -2427    -2361    -2126    -1833    -1530 
   -1138     -673     -259       51      310      537      653      610 
     432      114     -376     -969    -1456    -1729    -1884    -2073 
   -2307    -2504    -2710    -3030    -3439    -3816    -4052    -4091 
   -3944    -3701    -3396    -2944    -2332    -1696    -1165     -745 
    -372      -27      245      406      461      460      506      608 
     658      692      865     1188     1494     1622     1591     1537 
    1447     1121      598      182      -18      -79      -91     -140 
    -168      -93      -36     -163     -507     -955    -1354    -1779 
   -2413    -3184    -3890    -4483    -5034    -5582    -6043    -6338 
   -6567    -6858    -7198    -7488    -7658    -7750    -7888    -8105 
   -8289    -8390    -8500    -8621    -8629    -8545    -8483    -8421 
   -8276    -8048    -7754    -7364    -6812    -6158    -5516    -4831 
   -4020    -3180    -2420    -1661     -751      295     1294     2172 
    2995     3809     4606     5335     5992     6644     7256     7701 
    7928     8002     7986     7824     7454     6916     6296     5614 
    4869     4132     3439     2745     2057     1408      785      207 
    -253     -608     -958    -1293    -1501    -1574    -1618    -1699 
   -1734    -1663    -1638    -1849    -2207    -2461    -2539    -2583 
   -2660    -2635    -2409    -2126    -1973    -1903    -1773    -1557 
   -1283    -1044     -981     -963     -774     -533     -421     -388 
    -333     -251     -202     -164      -32      133      152        5 
    -199     -469     -924    -1470    -1867    -2111    -2370    -2663 
   -2843    -2857    -2845    -2940    -3141    -3379    -3591    -3774 
   -3964    -4125    -4182    -4176    -4220    -4332    -4391    -4284 
   -4044    -3751    -3445    -3094    -2627    -2096    -1645    -1263 
    -870     -488     -205     -116     -187     -326     -545     -816 
   -1088    -1424    -1829    -2182    -2398    -2492    -2527    -2479 
   -2263    -1999    -1864    -1790    -1605    -1302    -1032     -816 
    -534     -225      -21       86      241      518      845     1121 
    1302     1413     1537     1695     1806     1836     1831     1864 
    1938     1949     1852     1680     1509     1405     1182      639 
     -18     -567    -1078    -1640    -2155    -2511    -2673    -2659 
   -2633    -2754    -2930    -3029    -3090    -3221    -3458    -3728 
   -3963    -4194    -4430    -4607    -4725    -4810    -4855    -4951 
   -5116    -5256    -5348    -5347    -5259    -5085    -4698    -4059 
   -3250    -2353    -1444     -537      341     1065     1617     2037 
    2285     2405     2413     2220     1898     1632     1503     1405 
    1213      993      853      773      658      537      549      650 
     675      614      569      568      515      338       99      -89 
    -222     -400     -635     -826     -955    -1053    -1081    -1050 
    -989     -954    -1046    -1179    -1229    -1300    -1464    -1647 
   -1796    -1908    -2014    -2104    -2101    -2038    -2035    -2083 
   -2106    -2103    -2072    -2008    -1899    -1698    -1459    -1259 
   -1077     -909     -810     -784     -757     -683     -564     -479 
    -511     -602     -679     -796    -1007    -1247    -1379    -1452 
   -1630    -1880    -2069    -2178    -2265    -2425    -2629    -2690 
   -2620    -2623    -2700    -2732    -2737    -2749    -2786    -2863 
   -2917    -2920    -2932    -3021    -3210    -3360    -3316    -3200 
   -3142    -3015    -2718    -2343    -2027    -1822    -1638    -1368 
   -1050     -770     -581     -494     -426     -268      -59       87 
     190      383      639      761      734      702      648      530 
     479      525      508      421      446      626      815      924 
    1013     1151     1296     1335     1229     1043      896      850 
     803      652      475      390      318      136     -105     -344 
    -588     -797     -974    -1181    -1436    -1711    -1991    -2281 
   -2544    -2724    -2837    -2949    -3113    -3316    -3464    -3468 
   -3377    -3300    -3181    -2849    -2328    -1799    -1308     -788 
    -248      222      519      656      765      896      996     1021 
    1013     1044     1070      959      708      502      430      338 
     155       -4      -41       52      194      298      356      409 
     442      368      147     -130     -360     -554     -785    -1021 
   -1201    -1336    -1470    -1651    -1894    -2201    -2559    -2911 
   -3223    -3493    -3678    -3727    -3670    -3549    -3406    -3302 
   -3192    -3026    -2852    -2749    -2737    -2717    -2639    -2614 
   -2724    -2880    -2955    -2902    -2778    -2691    -2654    -2532 
   -2308    -2142    -2120    -2188    -2255    -2285    -2307    -2381 
   -2471    -2481    -2432    -2392    -2339    -2300    -2369    -2520 
   -2590    -2508    -2378    -2323    -2312    -2243    -2101    -1971 
   -1873    -1734    -1507    -1263    -1066     -864     -552     -116 
     341      704      993     1305     1613     1884     2184     2443 
    2590     2667     2664     2570     2438     2363     2440     2621 
    2760     2837     2928     3019     3051     3009     2909     2779 
    2613     2384     2112     1811     1530     1345     1247     1144 
     988      791      541      171     -336     -861    -1296    -1695 
   -2095    -2427    -2667    -2882    -3088    -3235    -3334    -3465 
   -3673    -3912    -4170    -4496    -4868    -5208    -5481    -5699 
   -5923    -6131    -6253    -6242    -6087    -5883    -5738    -5572 
   -5297    -5005    -4785    -4571    -4247    -3861    -3526    -3225 
   -2849    -2374    -1891    -1476    -1125     -824     -550     -292 
     -91       47      147      152       18     -184     -391     -621 
    -870    -1058    -1109    -1069    -1021     -934     -743     -500 
    -283     -106       68      237      365      460      540      641 
     751      774      658      472      305      186       75      -70 
    -218     -294     -332     -426     -546     -608     -606     -567 
    -473     -318     -156      -67     -112     -253     -407     -552 
    -685     -830    -1007    -1178    -1354    -1570    -1810    -2023 
   -2185    -2416    -2818    -3254    -3577    -3817    -4082    -4390 
   -4652    -4757    -4702    -4623    -4599    -4473    -4126    -3709 
   -3352    -2980    -2527    -2077    -1761    -1567    -1387    -1156 
    -895     -662     -454     -190      143      469      734      963 
    1204     1421     1539     1556     1575     1609     1576     1495 
    1390     1252     1109      947      716      454      228       59 
     -82     -245     -415     -556     -649     -758     -915     -974 
    -899     -847     -861     -903     -963    -1004    -1034    -1082 
   -1128    -1132    -1089    -1059    -1084    -1109    -1069    -1017 
