Origin Time       2025/01/13 21:19:00
Lat.              31.8
Long.             131.6
Depth. (km)       30
Mag.              6.9
Station Code      OIT007
Station Lat.      33.4169
Station Long.     131.6142
Station Height(m) 21
Record Time       2025/01/13 21:20:03
Sampling Freq(Hz) 100Hz
Duration Time(s)  106
Dir.              E-W
Scale Factor      7845(gal)/8223790
Max. Acc. (gal)   6.892
Last Correction   2025/01/13 21:20:02
Memo.             
[...]
   -2602    -2590    -2593    -2639    -2685    -2697    -2698    -2693 
   -2689    -2718    -2772    -2818    -2843    -2814    -2725    -2633 
   -2578    -2539    -2484    -2407    -2311    -2187    -2029    -1846 
   -1676    -1553    -1503    -1551    -1679    -1807    -1894    -1965 
   -2004    -1968    -1910    -1899    -1931    -1995    -2106    -2258 
   -2424    -2575    -2713    -2872    -3051    -3187    -3245    -3229 
   -3122    -2916    -2667    -2443    -2274    -2164    -2101    -2065 
   -2030    -1993    -1973    -1958    -1933    -1907    -1922    -1998 
   -2097    -2178    -2223    -2203    -2097    -1973    -1939    -2007 
   -2124    -2269    -2443    -2631    -2806    -2948    -3057    -3119 
   -3125    -3114    -3137    -3168    -3137    -3019    -2848    -2633 
   -2377    -2107    -1823    -1536    -1335    -1273    -1301    -1401 
   -1559    -1703    -1794    -1853    -1899    -1961    -2072    -2197 
   -2270    -2296    -2319    -2342    -2355    -2370    -2397    -2457 
   -2587    -2818    -3109    -3370    -3547    -3658    -3751    -3812 
   -3782    -3670    -3526    -3353    -3152    -2938    -2687    -2362 
   -2000    -1682    -1441    -1290    -1247    -1304    -1429    -1607 
   -1829    -2088    -2389    -2739    -3114    -3460    -3727    -3889 
   -3901    -3761    -3551    -3352    -3177    -3019    -2864    -2694 
   -2512    -2339    -2185    -2026    -1863    -1734    -1653    -1582 
   -1502    -1429    -1389    -1408    -1509    -1678    -1880    -2100 
   -2320    -2511    -2648    -2729    -2759    -2744    -2735    -2775 
   -2832    -2884    -2972    -3064    -3094    -3063    -2995    -2874 
   -2713    -2586    -2511    -2428    -2322    -2235    -2187    -2149 
   -2084    -1979    -1852    -1740    -1680    -1657    -1629    -1566 
   -1482    -1414    -1399    -1443    -1539    -1696    -1922    -2211 
   -2543    -2875    -3176    -3416    -3588    -3701    -3740    -3669 
   -3520    -3352    -3133    -2836    -2515    -2218    -1944    -1688 
   -1474    -1316    -1231    -1223    -1301    -1470    -1690    -1887 
   -2029    -2143    -2250    -2331    -2371    -2404    -2469    -2578 
   -2725    -2878    -3009    -3099    -3138    -3134    -3103    -3055 
   -2984    -2889    -2797    -2756    -2802    -2929    -3087    -3192 
   -3183    -3046    -2802    -2474    -2123    -1818    -1587    -1459 
   -1451    -1526    -1632    -1734    -1867    -2087    -2385    -2689 
   -2943    -3148    -3327    -3468    -3523    -3443    -3222    -2913 
   -2598    -2362    -2235    -2160    -2080    -1999    -1942    -1910 
   -1899    -1922    -1971    -2012    -2046    -2110    -2201    -2265 
   -2269    -2215    -2119    -2000    -1885    -1803    -1786    -1838 
   -1921    -2015    -2164    -2378    -2612    -2825    -2997    -3130 
   -3242    -3321    -3316    -3226    -3105    -2991    -2890    -2790 
   -2674    -2532    -2381    -2251    -2158    -2116    -2137    -2208 
   -2293    -2384    -2466    -2492    -2442    -2326    -2177    -2056 
   -2023    -2093    -2242    -2442    -2659    -2855    -2998    -3072 
   -3068    -2995    -2879    -2735    -2579    -2408    -2209    -1987 
   -1738    -1460    -1200    -1011     -918     -940    -1084    -1320 
   -1629    -1968    -2269    -2505    -2674    -2752    -2741    -2683 
   -2617    -2560    -2533    -2547    -2589    -2660    -2762    -2855 
   -2883    -2816    -2685    -2555    -2466    -2473    -2598    -2789 
   -2986    -3165    -3285    -3306    -3245    -3156    -3075    -3011 
   -2964    -2918    -2860    -2806    -2754    -2660    -2506    -2328 
   -2160    -2014    -1925    -1914    -1941    -1946    -1921    -1883 
   -1834    -1757    -1665    -1615    -1665    -1803    -1984    -2205 
   -2452    -2662    -2806    -2886    -2887    -2806    -2675    -2531 
   -2390    -2245    -2070    -1865    -1675    -1551    -1489    -1447 
   -1426    -1463    -1556    -1707    -1903    -2101    -2278    -2423 
   -2551    -2708    -2905    -3086    -3210    -3303    -3385    -3433 
   -3403    -3306    -3195    -3075    -2918    -2744    -2574    -2392 
   -2207    -2074    -2047    -2137    -2317    -2535    -2745    -2930 
   -3060    -3114    -3079    -2925    -2652    -2309    -1962    -1663 
   -1420    -1232    -1121    -1107    -1165    -1293    -1495    -1742 
   -2004    -2278    -2539    -2740    -2860    -2872    -2770    -2608 
   -2447    -2304    -2205    -2205    -2289    -2386    -2451    -2482 
   -2497    -2516    -2540    -2571    -2619    -2667    -2716    -2768 
   -2809    -2817    -2813    -2832    -2856    -2847    -2809    -2759 
   -2646    -2443    -2214    -2004    -1821    -1679    -1613    -1644 
   -1780    -1984    -2197    -2405    -2610    -2824    -3049    -3249 
   -3358    -3342    -3225    -3079    -2926    -2721    -2458    -2173 
   -1885    -1605    -1360    -1179    -1065     -999     -996    -1082 
   -1232    -1381    -1489    -1556    -1611    -1691    -1807    -1968 
   -2209    -2538    -2884    -3167    -3345    -3435    -3464    -3456 
   -3430    -3385    -3304    -3211    -3156    -3156    -3184    -3191 
   -3129    -2991    -2824    -2670    -2527    -2363    -2176    -1993 
   -1848    -1752    -1702    -1684    -1692    -1737    -1848    -2031 
   -2272    -2548    -2839    -3106    -3338    -3524    -3665    -3762 
   -3784    -3715    -3599    -3473    -3319    -3099    -2794    -2436 
   -2083    -1782    -1541    -1347    -1196    -1116    -1120    -1189 
   -1305    -1459    -1617    -1729    -1776    -1800    -1860    -1973 
   -2111    -2238    -2335    -2392    -2420    -2475    -2604    -2781 
   -2956    -3087    -3144    -3148    -3136    -3114    -3082    -3059 
   -3063    -3096    -3140    -3149    -3103    -3017    -2891    -2709 
   -2466    -2205    -2007    -1917    -1944    -2100    -2336    -2546 
   -2678    -2754    -2778    -2740    -2643    -2494    -2319    -2158 
   -2026    -1911    -1803    -1694    -1580    -1472    -1398    -1378 
   -1390    -1422    -1495    -1607    -1741    -1900    -2076    -2211 
   -2292    -2359    -2438    -2525    -2617    -2697    -2754    -2803 
   -2849    -2864    -2837    -2790    -2747    -2710    -2671    -2663 
   -2716    -2786    -2821    -2839    -2848    -2818    -2744    -2646 
   -2525    -2405    -2331    -2300    -2282    -2257    -2207    -2160 
   -2142    -2126    -2073    -1981    -1858    -1736    -1661    -1653 
   -1686    -1729    -1768    -1823    -1927    -2083    -2293    -2583 
   -2937    -3311    -3690    -4043    -4271    -4303    -4166    -3916 
   -3588    -3214    -2862    -2577    -2330    -2064    -1775    -1495 
   -1255    -1102    -1073    -1154    -1329    -1605    -1965    -2336 
   -2633    -2818    -2903    -2922    -2884    -2766    -2563    -2305 
   -2042    -1829    -1652    -1462    -1260    -1102    -1038    -1081 
   -1194    -1356    -1620    -2008    -2473    -2956    -3402    -3735 
   -3925    -3990    -3942    -3778    -3526    -3218    -2914    -2663 
   -2462    -2285    -2137    -2027    -1948    -1877    -1817    -1783 
   -1804    -1911    -2085    -2286    -2475    -2597    -2640    -2648 
   -2633    -2582    -2511    -2465    -2471    -2544    -2690    -2901 
   -3152    -3406    -3593    -3696    -3744    -3734    -3655    -3543 
   -3406    -3225    -3001    -2748    -2466    -2176    -1933    -1783 
   -1728    -1749    -1815    -1908    -2015    -2110    -2164    -2181 
   -2177    -2161    -2134    -2111    -2099    -2064    -1968    -1825 
   -1667    -1502    -1341    -1221    -1167    -1186    -1282    -1429 
   -1613    -1848    -2112    -2358    -2570    -2758    -2929    -3075 
   -3187    -3245    -3222    -3150    -3067    -2972    -2857    -2720 
   -2559    -2393    -2262    -2196    -2184    -2193    -2185    -2173 
   -2197    -2239    -2254    -2245    -2236    -2239    -2269    -2343 
   -2436    -2504    -2555    -2619    -2668    -2658    -2604    -2547 
   -2488    -2431    -2378    -2320    -2272    -2242    -2214    -2185 
   -2168    -2170    -2231    -2361    -2506    -2613    -2664    -2670 
   -2656    -2632    -2560    -2438    -2309    -2218    -2176    -2187 
   -2223    -2259    -2304    -2351    -2357    -2313    -2239    -2122 
   -1977    -1849    -1749    -1684    -1695    -1790    -1929    -2089 
   -2266    -2434    -2578    -2685    -2728    -2718    -2698    -2662 
   -2596    -2520    -2465    -2440    -2467    -2563    -2713    -2886 
   -3079    -3277    -3469    -3653    -3767    -3732    -3572    -3357 
   -3118    -2853    -2581    -2330    -2106    -1914    -1794    -1771 
   -1827    -1926    -2054    -2215    -2392    -2551    -2659    -2717 
   -2722    -2651    -2523    -2376    -2191    -1949    -1713    -1560 
   -1510    -1551    -1657    -1794    -1934    -2066    -2195    -2359 
   -2559    -2713    -2805    -2893    -2976    -3014    -3024    -3034 
   -3030    -2971    -2851    -2704    -2538    -2350    -2177    -2039 
   -1929    -1858    -1827    -1804    -1794    -1830    -1921    -2065 
   -2278    -2532    -2790    -3073    -3391    -3712    -4012    -4259 
   -4399    -4425    -4395    -4336    -4236    -4105    -3962    -3821 
   -3681    -3522    -3325    -3095    -2845    -2629    -2523    -2532 
   -2592    -2647    -2668    -2623    -2496    -2319    -2147    -2026 
   -1972    -1973    -1991    -1991    -1952    -1871    -1752    -1599 
   -1428    -1279    -1181    -1112    -1047     -999     -986     -994 
   -1026    -1097    -1205    -1344    -1544    -1829    -2165    -2481 
   -2714    -2848    -2897    -2883    -2843    -2776    -2674    -2550 
   -2424    -2313    -2236    -2176    -2097    -2008    -1919    -1818 
   -1696    -1584    -1517    -1497    -1501    -1525    -1575    -1625 
   -1676    -1741    -1773    -1706    -1564    -1426    -1316    -1215 
   -1119    -1040     -981     -930     -886     -881     -947    -1104 
   -1366    -1730    -2165    -2616    -3030    -3392    -3700    -3937 
   -4087    -4132    -4077    -3956    -3794    -3582    -3330    -3060 
   -2772    -2482    -2254    -2111    -2010    -1950    -1958    -1996 
   -2031    -2099    -2218    -2393    -2621    -2864    -3092    -3316 
   -3524    -3673    -3753    -3793    -3816    -3824    -3809    -3771 
   -3726    -3678    -3618    -3527    -3392    -3227    -3090    -3022 
   -3044    -3132    -3229    -3316    -3407    -3510    -3635    -3802 
   -4001    -4202    -4388    -4545    -4654    -4700    -4646    -4467 
   -4171    -3788    -3361    -2970    -2667    -2444    -2268    -2143 
   -2099    -2115    -2168    -2261    -2377    -2492    -2614    -2755 
   -2906    -3037    -3096    -3064    -2984    -2887    -2751    -2587 
   -2436    -2305    -2158    -1987    -1819    -1649    -1451    -1235 
   -1039     -897     -820     -799     -832     -913    -1000    -1059 
   -1105    -1156    -1208    -1264    -1337    -1418    -1514    -1624 
   -1726    -1804    -1842    -1813    -1729    -1617    -1478    -1308 
   -1116     -912     -704     -506     -298      -32      298      684 
    1109     1551     1958     2278     2452     2448     2265     1930 
    1506     1050      567       83     -329     -623     -814     -920 
    -953     -939     -901     -816     -653     -430     -198       -2 
     129      209      221      118     -122     -472     -864    -1242 
   -1593    -1910    -2184    -2425    -2625    -2770    -2901    -3051 
   -3200    -3341    -3453    -3499    -3503    -3503    -3483    -3438 
   -3404    -3400    -3411    -3431    -3451    -3449    -3427    -3403 
   -3373    -3337    -3338    -3399    -3518    -3690    -3888    -4055 
   -4167    -4245    -4317    -4383    -4426    -4438    -4452    -4504 
   -4580    -4664    -4758    -4827    -4819    -4739    -4627    -4500 
   -4372    -4249    -4137    -4045    -3975    -3935    -3923    -3909 
   -3866    -3790    -3699    -3601    -3489    -3370    -3281    -3222 
   -3160    -3075    -2979    -2920    -2926    -2994    -3109    -3271 
   -3465    -3685    -3932    -4191    -4430    -4619    -4765    -4897 
   -5038    -5185    -5324    -5456    -5566    -5597    -5514    -5317 
   -5007    -4602    -4137    -3651    -3187    -2749    -2313    -1872 
   -1460    -1104     -799     -535     -313     -151      -90     -136 
    -260     -438     -635     -810     -951    -1040    -1019     -866 
    -615     -292       78      421      669      811      842      745 
     515      151     -321     -859    -1452    -2114    -2826    -3530 
   -4158    -4666    -5030    -5224    -5250    -5138    -4914    -4604 
   -4274    -3970    -3686    -3408    -3141    -2899    -2701    -2560 
   -2496    -2498    -2511    -2478    -2384    -2227    -2004    -1718 
   -1374     -993     -616     -307     -133     -103     -191     -386 
    -684    -1067    -1520    -2008    -2469    -2857    -3176    -3435 
   -3654    -3848    -3986    -4037    -4013    -3923    -3765    -3572 
   -3384    -3215    -3072    -2970    -2920    -2918    -2943    -2980 
   -3056    -3172    -3275    -3325    -3326    -3295    -3244    -3165 
   -3030    -2821    -2558    -2272    -1999    -1773    -1587    -1410 
   -1263    -1186    -1183    -1266    -1448    -1701    -1964    -2197 
   -2367    -2457    -2494    -2501    -2490    -2489    -2506    -2498 
   -2417    -2251    -2014    -1699    -1306     -874     -445      -35 
     352      741     1167     1664     2226     2801     3346     3842 
    4253     4563     4761     4820     4734     4507     4125     3591 
    2949     2243     1499      765       85     -534    -1101    -1647 
   -2196    -2714    -3138    -3453    -3670    -3789    -3817    -3805 
   -3793    -3809    -3878    -4016    -4217    -4448    -4654    -4810 
   -4905    -4936    -4934    -4923    -4899    -4873    -4877    -4912 
   -4958    -5008    -5040    -5043    -5040    -5062    -5109    -5179 
   -5265    -5321    -5312    -5219    -5042    -4791    -4509    -4266 
   -4101    -4010    -4016    -4140    -4351    -4600    -4880    -5152 
   -5359    -5490    -5572    -5610    -5589    -5522    -5459    -5408 
   -5341    -5233    -5070    -4870    -4676    -4530    -4475    -4503 
   -4571    -4677    -4823    -4980    -5104    -5151    -5080    -4882 
   -4592    -4260    -3920    -3592    -3288    -3019    -2822    -2705 
   -2641    -2623    -2633    -2650    -2697    -2808    -2955    -3084 
   -3173    -3206    -3165    -3057    -2906    -2713    -2469    -2172 
   -1852    -1570    -1356    -1185    -1026     -864     -666     -391 
     -22      429      942     1468     1972     2431     2821     3140 
    3410     3649     3851     4002     4086     4101     4054     3948 
    3827     3713     3554     3311     3015     2685     2319     1929 
    1525     1136      784      472      207      -41     -325     -666 
   -1047    -1433    -1826    -2250    -2713    -3173    -3561    -3873 
   -4141    -4387    -4646    -4959    -5305    -5643    -5984    -6322 
   -6578    -6704    -6706    -6617    -6470    -6293    -6102    -5899 
   -5674    -5401    -5081    -4712    -4274    -3790    -3339    -2968 
   -2685    -2520    -2500    -2592    -2775    -3063    -3426    -3827 
   -4233    -4611    -4938    -5209    -5412    -5543    -5621    -5656 
   -5636    -5563    -5455    -5317    -5184    -5107    -5090    -5107 
   -5146    -5204    -5258    -5296    -5319    -5333    -5351    -5366 
   -5347    -5254    -5080    -4842    -4544    -4160    -3690    -3168 
   -2637    -2135    -1682    -1294     -976     -695     -426     -180 
       9      128      175      159       71      -82     -294     -537 
    -754     -912    -1012    -1067    -1085    -1094    -1129    -1188 
   -1242    -1266    -1247    -1193    -1113    -1039    -1004    -1007 
   -1047    -1138    -1254    -1327    -1332    -1290    -1209    -1078 
    -915     -739     -564     -410     -302     -249     -237     -243 
    -259     -294     -365     -473     -587     -707     -837     -939 
   -1020    -1109    -1181    -1200    -1171    -1116    -1058    -1035 
   -1089    -1232    -1428    -1614    -1753    -1844    -1884    -1838 
   -1705    -1506    -1277    -1078     -980     -994    -1054    -1070 
   -1020     -940     -870     -830     -850     -986    -1285    -1734 
   -2295    -2913    -3510    -4060    -4608    -5165    -5690    -6123 
   -6400    -6515    -6516    -6405    -6168    -5825    -5390    -4870 
   -4302    -3750    -3235    -2758    -2326    -1964    -1715    -1594 
   -1580    -1661    -1826    -2057    -2350    -2690    -3032    -3343 
   -3620    -3866    -4058    -4137    -4071    -3878    -3591    -3233 
   -2843    -2467    -2120    -1804    -1556    -1394    -1296    -1258 
   -1283    -1339    -1379    -1381    -1321    -1198    -1009     -769 
    -544     -413     -418     -594     -950    -1428    -1950    -2479 
   -2998    -3487    -3952    -4390    -4773    -5065    -5211    -5178 
   -5003    -4754    -4504    -4315    -4202    -4132    -4063    -3974 
   -3873    -3761    -3630    -3500    -3400    -3319    -3252    -3207 
   -3180    -3132    -3029    -2868    -2677    -2477    -2270    -2084 
   -1961    -1910    -1925    -2003    -2134    -2295    -2440    -2539 
   -2589    -2597    -2544    -2409    -2207    -1961    -1701    -1445 
   -1215    -1032     -913     -841     -808     -827     -873     -912 
    -962    -1077    -1282    -1545    -1798    -1972    -2026    -1939 
   -1721    -1426    -1104     -761     -410      -94      139      268 
     302      241       64     -216     -552     -936    -1382    -1854 
   -2293    -2650    -2911    -3076    -3159    -3190    -3180    -3140 
   -3075    -2998    -2921    -2849    -2759    -2655    -2578    -2554 
   -2570    -2623    -2725    -2862    -2986    -3067    -3086    -3045 
   -2972    -2907    -2889    -2937    -3036    -3171    -3326    -3460 
   -3534    -3531    -3449    -3308    -3137    -2975    -2870    -2825 
   -2825    -2862    -2916    -2944    -2924    -2871    -2801    -2729 
   -2670    -2631    -2620    -2625    -2636    -2655    -2675    -2687 
   -2674    -2616    -2523    -2428    -2354    -2273    -2147    -1971 
   -1736    -1444    -1128     -830     -577     -399     -299     -251 
    -237     -255     -292     -351     -445     -587     -807    -1140 
   -1572    -2074    -2648    -3294    -3986    -4680    -5298    -5790 
   -6112    -6219    -6115    -5880    -5576    -5240    -4920    -4660 
   -4469    -4330    -4241    -4222    -4271    -4367    -4509    -4683 
   -4835    -4924    -4923    -4819    -4629    -4395    -4144    -3882 
   -3599    -3258    -2843    -2392    -1956    -1564    -1239     -993 
    -831     -773     -819     -936    -1084    -1224    -1344    -1453 
   -1551    -1610    -1617    -1587    -1559    -1571    -1621    -1680 
   -1746    -1829    -1944    -2126    -2361    -2598    -2830    -3091 
   -3366    -3601    -3750    -3816    -3840    -3858    -3890    -3923 
   -3933    -3906    -3846    -3767    -3678    -3553    -3384    -3210 
   -3080    -3019    -3037    -3127    -3262    -3399    -3493    -3514 
   -3454    -3330    -3160    -2968    -2785    -2617    -2466    -2340 
   -2257    -2228    -2246    -2289    -2355    -2475    -2663    -2868 
   -3025    -3094    -3045    -2870    -2583    -2196    -1690    -1055 
