Origin Time       2025/01/13 21:19:00
Lat.              31.8
Long.             131.6
Depth. (km)       30
Mag.              6.9
Station Code      OIT010
Station Lat.      33.2317
Station Long.     131.5934
Station Height(m) 7
Record Time       2025/01/13 21:20:00
Sampling Freq(Hz) 100Hz
Duration Time(s)  161
Dir.              E-W
Scale Factor      7845(gal)/8223790
Max. Acc. (gal)   29.777
Last Correction   2025/01/13 21:20:00
Memo.             
[...]
   -6448    -7731    -8827    -9668   -10211   -10438   -10339    -9950 
   -9371    -8700    -8051    -7593    -7470    -7674    -8055    -8432 
   -8661    -8640    -8359    -7917    -7479    -7221    -7272    -7636 
   -8202    -8827    -9396    -9801    -9975    -9907    -9603    -9115 
   -8519    -7882    -7275    -6783    -6494    -6453    -6620    -6872 
   -7067    -7115    -7020    -6853    -6721    -6721    -6891    -7219 
   -7635    -8025    -8306    -8465    -8507    -8410    -8152    -7755 
   -7310    -6930    -6700    -6646    -6774    -7103    -7624    -8266 
   -8935    -9533    -9971   -10223   -10311   -10253   -10087    -9913 
   -9855    -9960   -10174   -10442   -10713   -10909   -10962   -10878 
  -10712   -10524   -10378   -10300   -10272   -10249   -10192   -10075 
   -9882    -9599    -9163    -8553    -7889    -7240    -6546    -5761 
   -4876    -3925    -3015    -2265    -1780    -1618    -1768    -2211 
   -2909    -3766    -4668    -5503    -6172    -6623    -6885    -6970 
   -6882    -6693    -6501    -6372    -6346    -6439    -6602    -6724 
   -6732    -6612    -6343    -5931    -5418    -4833    -4197    -3534 
   -2871    -2262    -1779    -1468    -1332    -1341    -1452    -1621 
   -1821    -2064    -2355    -2663    -2953    -3194    -3353    -3408 
   -3345    -3175    -2925    -2633    -2319    -1964    -1576    -1188 
    -801     -384       89      577      972     1162     1090      776 
     283     -302     -932    -1584    -2223    -2851    -3566    -4506 
   -5730    -7168    -8650   -10007   -11125   -11944   -12451   -12675 
  -12640   -12393   -12042   -11719   -11470   -11272   -11107   -10964 
  -10805   -10589   -10260    -9764    -9140    -8527    -8046    -7762 
   -7774    -8125    -8781    -9645   -10521   -11241   -11767   -12108 
  -12278   -12283   -12135   -11873   -11554   -11218   -10935   -10805 
  -10839   -10959   -11088   -11163   -11160   -11065   -10866   -10571 
  -10203    -9815    -9444    -9053    -8635    -8237    -7916    -7732 
   -7692    -7747    -7835    -7886    -7821    -7605    -7271    -6913 
   -6658    -6583    -6708    -7030    -7535    -8186    -8893    -9574 
  -10185   -10697   -11118   -11457   -11703   -11877   -12015   -12170 
  -12384   -12672   -13014   -13340   -13579   -13711   -13725   -13597 
  -13352   -13026   -12549   -11827   -10767    -9351    -7755    -6231 
   -4946    -3960    -3260    -2826    -2659    -2759    -3123    -3707 
   -4437    -5227    -5992    -6660    -7177    -7561    -7886    -8181 
   -8411    -8557    -8603    -8514    -8243    -7727    -6957    -5999 
   -4932    -3896    -3041    -2466    -2249    -2413    -2920    -3676 
   -4556    -5449    -6258    -6885    -7280    -7439    -7384    -7146 
   -6770    -6308    -5845    -5456    -5155    -4953    -4891    -4993 
   -5197    -5356    -5297    -4874    -4083    -3100    -2153    -1448 
   -1115    -1136    -1387    -1676    -1813    -1674    -1260     -684 
    -102      352      588      591      425      128     -314     -885 
   -1532    -2195    -2829    -3460    -4116    -4776    -5397    -5930 
   -6361    -6674    -6833    -6826    -6694    -6505    -6295    -6025 
   -5661    -5250    -4865    -4530    -4228    -3946    -3697    -3515 
   -3403    -3393    -3541    -3889    -4492    -5359    -6428    -7587 
   -8722    -9799   -10839   -11854   -12862   -13861   -14808   -15687 
  -16492   -17201   -17784   -18216   -18496   -18669   -18777   -18859 
  -18943   -18958   -18783   -18311   -17459   -16197   -14558   -12657 
  -10639    -8588    -6575    -4712    -3090    -1723     -583      406 
    1301     2084     2713     3122     3277     3187     2872     2349 
    1613      724     -221    -1217    -2300    -3474    -4680    -5809 
   -6782    -7558    -8114    -8483    -8752    -8993    -9255    -9505 
   -9634    -9582    -9316    -8849    -8266    -7650    -7065    -6556 
   -6154    -5904    -5834    -5975    -6396    -7159    -8221    -9429 
  -10639   -11754   -12700   -13451   -14044   -14551   -15026   -15446 
  -15758   -15921   -15925   -15738   -15319   -14677   -13837   -12884 
  -11931   -11055   -10281    -9556    -8795    -7966    -7075    -6169 
   -5290    -4433    -3558    -2602    -1537     -469      440     1100 
    1448     1513     1371     1040      534     -110     -858    -1668 
   -2496    -3267    -3879    -4244    -4330    -4199    -3954    -3690 
   -3437    -3218    -3102    -3136    -3279    -3457    -3628    -3802 
   -4075    -4602    -5452    -6628    -8077    -9679   -11288   -12683 
  -13657   -14170   -14308   -14233   -14195   -14407   -14953   -15835 
  -16960   -18157   -19259   -20088   -20557   -20730   -20704   -20605 
  -20507   -20368   -20152   -19804   -19180   -18169   -16752   -14997 
  -13053   -11090    -9211    -7449    -5872    -4536    -3481    -2752 
   -2330    -2176    -2235    -2447    -2795    -3300    -4036    -5076 
   -6428    -8002    -9639   -11128   -12232   -12842   -12999   -12806 
  -12437   -12075   -11881   -11938   -12167   -12395   -12438   -12147 
  -11466   -10420    -9099    -7641    -6169    -4696    -3171    -1563 
     147     1912     3646     5329     6902     8212     9074     9325 
    8880     7746     5948     3616     1034    -1510    -3813    -5760 
   -7303    -8383    -9008    -9328    -9497    -9609    -9682    -9555 
   -9085    -8278    -7134    -5763    -4369    -3088    -2050    -1339 
    -954     -881    -1075    -1458    -1956    -2536    -3253    -4190 
   -5405    -6967    -8884   -11002   -13123   -15086   -16721   -17894 
  -18542   -18671   -18451   -18106   -17712   -17280   -16869   -16511 
  -16170   -15769   -15190   -14291   -12969   -11267    -9342    -7387 
   -5605    -4129    -3109    -2717    -2936    -3677    -4833    -6104 
   -7237    -8116    -8625    -8706    -8351    -7635    -6712    -5710 
   -4733    -3839    -3080    -2583    -2432    -2535    -2727    -2866 
   -2890    -2798    -2559    -2091    -1414     -654       74      677 
    1138     1529     1888     2222     2581     2998     3400     3638 
    3541     2940     1729      -72    -2326    -4784    -7165    -9247 
  -10836   -11836   -12309   -12352   -12036   -11446   -10669    -9799 
   -8908    -7928    -6752    -5371    -3898    -2497    -1301     -423 
      17      -40     -565    -1420    -2432    -3458    -4419    -5305 
   -6161    -7048    -8004    -9042   -10125   -11182   -12109   -12775 
  -13120   -13193   -13096   -13019   -13154   -13647   -14573   -15851 
  -17305   -18758   -20016   -20968   -21559   -21770   -21672   -21400 
  -21081   -20806   -20567   -20301   -19961   -19450   -18667   -17622 
  -16428   -15233   -14179   -13344   -12754   -12355   -12055   -11819 
  -11662   -11638   -11751   -11942   -12164   -12340   -12414   -12318 
  -11924   -11218   -10295    -9279    -8316    -7500    -6920    -6685 
   -6818    -7187    -7614    -7933    -8031    -7884    -7472    -6763 
   -5795    -4634    -3414    -2254    -1162     -144      749     1543 
    2301     3044     3780     4472     4990     5233     5173     4801 
    4139     3254     2276     1337      523     -144     -715    -1271 
   -1939    -2801    -3834    -4996    -6172    -7198    -7955    -8320 
   -8289    -7944    -7291    -6345    -5217    -4140    -3387    -3161 
   -3554    -4563    -6120    -8051   -10099   -12012   -13601   -14823 
  -15668   -16129   -16286   -16233   -16083   -15952   -15889   -15893 
  -15896   -15757   -15360   -14612   -13397   -11666    -9429    -6766 
   -3870     -935     1860     4325     6318     7777     8769     9398 
    9713     9780     9651     9366     8976     8475     7800     6825 
    5421     3551     1302    -1171    -3680    -5975    -7871    -9296 
  -10173   -10534   -10498   -10120    -9493    -8826    -8324    -8089 
   -8058    -8086    -8056    -7916    -7670    -7391    -7092    -6755 
   -6419    -6099    -5798    -5522    -5239    -5015    -5007    -5289 
   -5860    -6654    -7543    -8426    -9266   -10004   -10617   -11132 
  -11585   -12047   -12513   -12884   -13043   -12785   -11970   -10590 
   -8681    -6370    -3870    -1463      573     2106     3126     3654 
    3747     3512     3042     2457     1926     1518     1225     1053 
     954      826      542       28     -657    -1325    -1796    -2022 
   -2006    -1782    -1464    -1155     -957     -990    -1316    -1885 
   -2593    -3300    -3878    -4255    -4391    -4322    -4180    -4050 
   -4000    -4113    -4383    -4861    -5668    -6903    -8630   -10802 
  -13292   -15925   -18519   -20908   -22932   -24463   -25398   -25675 
  -25309   -24336   -22864   -21127   -19321   -17536   -15762   -13946 
  -12108   -10326    -8684    -7277    -6166    -5368    -4912    -4858 
   -5258    -6124    -7410    -8970   -10716   -12606   -14536   -16407 
  -18117   -19538   -20603   -21269   -21482   -21232   -20583   -19695 
  -18779   -18018   -17563   -17491   -17732   -18099   -18342   -18245 
  -17805   -17190   -16560   -16016   -15650   -15460   -15371   -15292 
  -15039   -14465   -13562   -12310   -10712    -8866    -6825    -4637 
   -2440     -371     1495     3096     4426     5532     6459     7276 
    8014     8633     9080     9300     9242     8922     8372     7614 
    6619     5339     3763     1919     -116    -2247    -4386    -6372 
   -8058    -9379   -10346   -11003   -11410   -11650   -11772   -11746 
  -11468   -10758    -9441    -7454    -4957    -2254      394     2814 
    4949     6691     7902     8611     8874     8681     8055     7009 
    5645     4191     2813     1539      259    -1190    -2893    -4816 
   -6866    -8946   -10964   -12775   -14251   -15342   -16006   -16322 
  -16411   -16298   -16104   -15977   -16016   -16341   -16962   -17847 
  -18958   -20109   -21107   -21883   -22407   -22792   -23249   -23792 
  -24429   -25199   -25974   -26720   -27368   -27729   -27739   -27290 
  -26273   -24767   -22869   -20726   -18613   -16711   -15088   -13819 
  -12754   -11688   -10602    -9398    -8062    -6717    -5358    -4070 
   -2975    -2097    -1493    -1146    -1011    -1057    -1244    -1522 
   -1772    -1867    -1638    -1001      -47     1112     2332     3481 
    4514     5432     6291     7169     8179     9359    10640    11924 
   13078    14004    14635    14967    15071    14922    14536    13960 
   13104    11853    10054     7618     4671     1509    -1536    -4174 
   -6178    -7445    -7966    -7825    -7159    -6058    -4712    -3366 
   -2214    -1471    -1259    -1688    -2821    -4496    -6523    -8689 
  -10855   -13005   -15083   -17018   -18735   -20236   -21598   -22898 
  -24220   -25555   -26816   -27901   -28674   -28977   -28698   -27839 
  -26532   -24969   -23329   -21774   -20482   -19476   -18709   -18211 
  -17950   -17913   -18081   -18372   -18720   -18998   -19060   -18862 
  -18446   -17938   -17466   -17041   -16576   -16008   -15282   -14370 
  -13329   -12252   -11345   -10786   -10528   -10470   -10400   -10048 
   -9262    -7955    -6218    -4253    -2187     -155     1755     3570 
    5320     6983     8467     9603    10269    10432    10065     9235 
    8083     6701     5235     3835     2573     1458      449     -441 
   -1129    -1452    -1329     -785      194     1494     2876     4152 
    5111     5599     5572     5042     4027     2628      978     -877 
   -2812    -4698    -6430    -7801    -8757    -9306    -9475    -9417 
   -9207    -8919    -8633    -8302    -7900    -7388    -6763    -6106 
   -5481    -4923    -4457    -4112    -3937    -4051    -4544    -5440 
   -6740    -8344   -10127   -11956   -13664   -15184   -16488   -17629 
  -18713   -19768   -20822   -21829   -22686   -23404   -24012   -24470 
  -24690   -24559   -23938   -22736   -20984   -18792   -16387   -13946 
  -11605    -9543    -7709    -6008    -4432    -2913    -1490     -199 
     889     1568     1710     1310      500     -477    -1405    -2112 
   -2581    -2851    -3042    -3380    -4028    -4995    -6106    -7114 
   -7839    -8175    -8035    -7396    -6384    -5151    -3861    -2651 
   -1567     -673      -16      342      270     -205     -961    -1872 
   -2776    -3586    -4272    -4808    -5190    -5483    -5784    -6119 
   -6461    -6679    -6620    -6262    -5660    -4938    -4221    -3634 
   -3342    -3377    -3704    -4266    -4996    -5949    -7218    -8861 
  -10882   -13217   -15743   -18210   -20351   -22005   -23052   -23454 
  -23334   -22863   -22092   -21062   -19751   -18094   -16062   -13514 
  -10386    -6848    -3090      687     4240     7330     9694    11141 
   11692    11588    11126    10488     9711     8804     7804     6762 
    5730     4654     3472     2272     1115      162     -324     -361 
     -44      588     1382     2203     2945     3588     4228     4916 
    5609     6172     6523     6594     6249     5356     3819     1717 
    -723    -3276    -5765    -8106   -10189   -11938   -13348   -14465 
  -15453   -16407   -17307   -18102   -18696   -19101   -19356   -19333 
  -18913   -18060   -16760   -15079   -13181   -11260    -9512    -8104 
   -7144    -6710    -6833    -7434    -8287    -9170   -10008   -10700 
  -11157   -11430   -11538   -11542   -11492   -11265   -10822   -10268 
   -9670    -9027    -8291    -7470    -6786    -6496    -6664    -7338 
   -8488    -9972   -11738   -13705   -15765   -17903   -20147   -22634 
  -25454   -28410   -31212   -33606   -35448   -36763   -37658   -38195 
  -38419   -38321   -37827   -36913   -35441   -33322   -30711   -27754 
  -24622   -21529   -18574   -15851   -13404   -11238    -9358    -7692 
   -6223    -4953    -3828    -2775    -1660     -376     1030     2424 
    3650     4599     5289     5819     6286     6781     7368     8017 
    8629     9082     9306     9244     8865     8155     7025     5489 
    3651     1580     -596    -2795    -4943    -6905    -8630   -10087 
  -11226   -12031   -12459   -12444   -11935   -10921    -9421    -7507 
   -5292    -2860     -369     2056     4363     6450     8280     9786 
   10844    11456    11650    11445    10860     9894     8614     7177 
    5736     4320     2878     1391     -171    -1868    -3635    -5313 
   -6754    -7780    -8353    -8621    -8719    -8818    -9034    -9346 
   -9751   -10214   -10694   -11179   -11583   -11809   -11792   -11522 
  -11034   -10415    -9806    -9313    -8969    -8789    -8772    -8820 
   -8789    -8637    -8329    -7828    -7192    -6451    -5671    -4957 
   -4365    -3954    -3715    -3572    -3499    -3469    -3418    -3335 
   -3250    -3142    -3028    -2938    -2852    -2751    -2586    -2354 
   -2079    -1730    -1377    -1074     -846     -756     -735     -691 
    -623     -521     -368     -153       94      333      513      587 
     548      395      145     -205     -714    -1428    -2328    -3348 
   -4506    -5871    -7420    -9073   -10686   -12171   -13458   -14403 
  -14971   -15183   -15066   -14762   -14377   -13917   -13416   -12995 
  -12800   -12922   -13370   -14092   -15001   -15978   -16981   -17996 
  -18949   -19795   -20486   -21012   -21385   -21571   -21637   -21682 
  -21702   -21613   -21224   -20403   -19190   -17703   -16070   -14419 
  -12822   -11341   -10088    -9116    -8402    -7906    -7555    -7337 
   -7210    -7072    -6905    -6693    -6507    -6524    -6875    -7611 
   -8654    -9817   -10939   -11909   -12699   -13371   -14030   -14763 
  -15654   -16737   -17925   -19086   -20104   -20831   -21103   -20808 
  -20001   -18833   -17440   -15907   -14203   -12303   -10231    -7958 
   -5474    -2816       -2     2870     5601     8073    10251    12019 
   13274    13948    13981    13435    12441    11200     9868     8514 
    7234     6060     4958     3971     3103     2326     1690     1251 
    1032     1120     1647     2664     4066     5597     6978     8064 
    8861     9377     9612     9575     9256     8743     8133     7373 
    6401     5182     3690     1917     -122    -2384    -4799    -7209 
   -9483   -11638   -13674   -15610   -17412   -18945   -20196   -21138 
  -21706   -21964   -22009   -21959   -21965   -22207   -22755   -23554 
  -24621   -25876   -27103   -28135   -28822   -29080   -28902   -28356 
  -27650   -26910   -26138   -25316   -24435   -23535   -22643   -21772 
  -20884   -19822   -18558   -17176   -15684   -14111   -12522   -10966 
   -9535    -8298    -7327    -6720    -6486    -6654    -7225    -8083 
   -9115   -10139   -10956   -11514   -11772   -11716   -11493   -11225 
  -10964   -10805   -10795   -10868   -10926   -10822   -10368    -9474 
   -8162    -6498    -4622    -2631     -600     1306     2960     4326 
    5389     6119     6525     6651     6592     6490     6420     6367 
    6268     6000     5540     4955     4288     3601     2984     2475 
    2058     1649     1178      679      256       62      190      549 
    1067     1732     2432     3103     3697     4135     4421     4575 
    4645     4692     4704     4675     4594     4440     4230     3959 
    3600     3169     2613     1802      688     -724    -2388    -4148 
   -5938    -7736    -9478   -11178   -12862   -14548   -16248   -17860 
  -19306   -20534   -21505   -22257   -22832   -23222   -23399   -23338 
  -23086   -22702   -22121   -21213   -19981   -18414   -16557   -14604 
  -12602   -10625    -8904    -7553    -6701    -6393    -6489    -6880 
   -7410    -7954    -8505    -9069    -9724   -10519   -11365   -12140 
  -12739   -13100   -13251   -13266   -13101   -12746   -12303   -11805 
  -11244   -10573    -9687    -8583    -7419    -6389    -5563    -4920 
   -4422    -4044    -3848    -3871    -4075    -4432    -4869    -5343 
   -5844    -6313    -6725    -7119    -7547    -8060    -8664    -9300 
   -9931   -10546   -11075   -11476   -11695   -11678   -11529   -11310 
  -11001   -10592   -10033    -9293    -8374    -7300    -6122    -4880 
   -3645    -2439    -1277     -175      908     1949     2825     3477 
    3932     4190     4186     3863     3195     2276     1343      594 
     113      -94      -43      260      724     1219     1618     1826 
    1869     1780     1476      909      152     -695    -1512    -2203 
   -2818    -3445    -4121    -4880    -5705    -6582    -7481    -8307 
   -8922    -9240    -9275    -8993    -8375    -7496    -6443    -5385 
   -4542    -4063    -4017    -4388    -5085    -6004    -7056    -8162 
   -9292   -10484   -11769   -13176   -14662   -16104   -17404   -18488 
  -19315   -19893   -20220   -20375   -20480   -20602   -20790   -21097 
  -21519   -22009   -22501   -22879   -23047   -22950   -22569   -21965 
  -21216   -20406   -19666   -19070   -18661   -18396   -18133   -17756 
  -17150   -16303   -15296   -14143   -12868   -11481   -10023    -8623 
   -7358    -6274    -5412    -4754    -4234    -3778    -3268    -2511 
   -1412        9     1663     3380     5049     6582     7851     8780 
    9350     9520     9175     8235     6778     4965     2976     1024 
    -756    -2354    -3723    -4849    -5892    -6918    -7893    -8865 
   -9807   -10670   -11431   -12035   -12444   -12579   -12398   -12037 
  -11647   -11248   -10816   -10351    -9822    -9306    -8959    -8708 
   -8432    -8172    -7987    -7892    -7834    -7707    -7473    -7123 
   -6637    -6062    -5429    -4742    -4050    -3358    -2716    -2189 
