Origin Time       2025/01/13 21:19:00
Lat.              31.8
Long.             131.6
Depth. (km)       30
Mag.              6.9
Station Code      OIT005
Station Lat.      33.4524
Station Long.     131.1142
Station Height(m) 113
Record Time       2025/01/13 21:20:13
Sampling Freq(Hz) 100Hz
Duration Time(s)  83
Dir.              N-S
Scale Factor      7845(gal)/8223790
Max. Acc. (gal)   1.906
Last Correction   2025/01/13 21:20:13
Memo.             
[...]
   -3233    -3256    -3461    -3761    -4016    -4087    -3902    -3535 
   -3165    -2959    -2976    -3149    -3360    -3497    -3523    -3485 
   -3419    -3326    -3257    -3254    -3298    -3350    -3368    -3319 
   -3207    -3064    -2951    -2930    -3005    -3129    -3240    -3287 
   -3288    -3312    -3393    -3518    -3670    -3834    -3942    -3962 
   -3943    -3916    -3862    -3784    -3701    -3636    -3597    -3557 
   -3497    -3481    -3561    -3684    -3750    -3748    -3721    -3673 
   -3597    -3541    -3511    -3462    -3391    -3343    -3370    -3450 
   -3460    -3311    -3080    -2932    -2975    -3204    -3520    -3778 
   -3843    -3705    -3492    -3357    -3404    -3584    -3738    -3751 
   -3595    -3353    -3213    -3272    -3433    -3546    -3518    -3312 
   -2986    -2718    -2701    -2974    -3373    -3634    -3570    -3202 
   -2722    -2404    -2412    -2701    -3057    -3249    -3191    -2963 
   -2724    -2632    -2776    -3095    -3416    -3613    -3663    -3627 
   -3604    -3636    -3665    -3636    -3558    -3460    -3399    -3478 
   -3703    -3943    -4059    -3958    -3657    -3314    -3114    -3105 
   -3176    -3184    -3051    -2772    -2461    -2312    -2471    -2929 
   -3534    -4112    -4521    -4680    -4610    -4448    -4347    -4361 
   -4452    -4565    -4617    -4480    -4113    -3657    -3330    -3300 
   -3577    -3996    -4317    -4380    -4194    -3901    -3680    -3631 
   -3728    -3835    -3819    -3654    -3427    -3254    -3203    -3296 
   -3480    -3620    -3620    -3503    -3397    -3422    -3588    -3827 
   -4029    -4083    -3975    -3781    -3618    -3611    -3771    -3936 
   -3935    -3708    -3330    -2983    -2833    -2924    -3181    -3437 
   -3537    -3429    -3175    -2951    -2913    -3063    -3257    -3308 
   -3125    -2799    -2540    -2516    -2729    -3034    -3271    -3373 
   -3372    -3342    -3364    -3454    -3574    -3709    -3834    -3890 
   -3836    -3720    -3645    -3654    -3708    -3774    -3825    -3840 
   -3843    -3910    -4093    -4341    -4540    -4585    -4452    -4210 
   -3994    -3904    -3929    -3987    -3983    -3863    -3676    -3545 
   -3558    -3696    -3850    -3909    -3823    -3608    -3376    -3264 
   -3302    -3415    -3520    -3585    -3599    -3565    -3515    -3447 
   -3353    -3253    -3175    -3105    -3053    -3053    -3096    -3136 
   -3134    -3095    -3036    -2957    -2851    -2698    -2528    -2424 
   -2479    -2748    -3181    -3615    -3881    -3925    -3812    -3667 
   -3608    -3686    -3861    -4040    -4151    -4178    -4137    -4041 
   -3923    -3861    -3909    -4025    -4105    -4077    -3954    -3804 
   -3708    -3727    -3824    -3882    -3823    -3672    -3508    -3410 
   -3396    -3429    -3469    -3511    -3541    -3532    -3489    -3451 
   -3429    -3396    -3331    -3230    -3110    -3003    -2959    -3015 
   -3149    -3289    -3366    -3361    -3300    -3225    -3195    -3292 
   -3522    -3785    -3952    -3955    -3823    -3642    -3512    -3470 
   -3487    -3537    -3627    -3747    -3844    -3875    -3821    -3707 
   -3613    -3613    -3690    -3769    -3790    -3732    -3585    -3380 
   -3160    -2949    -2779    -2701    -2755    -2918    -3091    -3165 
   -3098    -2940    -2808    -2783    -2860    -2965    -3013    -2988 
   -2948    -2937    -2955    -2963    -2930    -2871    -2836    -2868 
   -2965    -3088    -3179    -3177    -3061    -2868    -2693    -2617 
   -2663    -2808    -2994    -3150    -3217    -3206    -3190    -3240 
   -3358    -3480    -3541    -3539    -3515    -3493    -3495    -3527 
   -3573    -3573    -3497    -3400    -3366    -3411    -3478    -3522 
   -3555    -3624    -3748    -3929    -4145    -4351    -4514    -4649 
   -4781    -4922    -5019    -4953    -4653    -4175    -3682    -3342 
   -3240    -3357    -3592    -3784    -3800    -3643    -3441    -3327 
   -3380    -3586    -3854    -4044    -4083    -4018    -3969    -4031 
   -4237    -4529    -4776    -4877    -4833    -4720    -4602    -4510 
   -4452    -4368    -4191    -3970    -3828    -3815    -3886    -3983 
   -4031    -3997    -3920    -3852    -3846    -3929    -4089    -4243 
   -4291    -4179    -3932    -3649    -3446    -3387    -3453    -3557 
   -3581    -3443    -3171    -2898    -2756    -2778    -2918    -3111 
   -3289    -3404    -3472    -3545    -3611    -3592    -3454    -3249 
   -3048    -2899    -2817    -2779    -2725    -2620    -2492    -2400 
   -2411    -2565    -2808    -2997    -3006    -2841    -2628    -2498 
   -2533    -2712    -2929    -3042    -2978    -2820    -2729    -2798 
   -3011    -3242    -3343    -3273    -3091    -2907    -2817    -2848 
   -2941    -3010    -3002    -2926    -2828    -2774    -2825    -2955 
   -3065    -3076    -3002    -2922    -2903    -2945    -3032    -3133 
   -3195    -3203    -3213    -3279    -3406    -3559    -3699    -3763 
   -3727    -3643    -3604    -3676    -3846    -4013    -4041    -3889 
   -3632    -3418    -3364    -3484    -3662    -3726    -3573    -3233 
   -2853    -2612    -2621    -2851    -3161    -3392    -3435    -3285 
   -3103    -3078    -3277    -3642    -3997    -4151    -4039    -3731 
   -3375    -3111    -3007    -3022    -3057    -3036    -2930    -2751 
   -2571    -2490    -2567    -2771    -2983    -3068    -2978    -2794 
   -2685    -2776    -3046    -3358    -3576    -3659    -3669    -3684 
   -3762    -3921    -4097    -4197    -4182    -4066    -3870    -3649 
   -3504    -3507    -3619    -3761    -3858    -3836    -3682    -3489 
   -3385    -3416    -3528    -3628    -3638    -3539    -3392    -3272 
   -3223    -3241    -3294    -3342    -3385    -3435    -3465    -3458 
   -3438    -3424    -3420    -3429    -3435    -3430    -3400    -3343 
   -3279    -3235    -3235    -3268    -3299    -3307    -3275    -3198 
   -3133    -3149    -3267    -3430    -3519    -3457    -3281    -3083 
   -2961    -2974    -3082    -3188    -3219    -3169    -3109    -3095 
   -3142    -3229    -3311    -3338    -3291    -3186    -3075    -3044 
   -3141    -3315    -3451    -3495    -3488    -3522    -3686    -3982 
   -4299    -4506    -4552    -4457    -4311    -4261    -4378    -4587 
   -4770    -4815    -4668    -4374    -4066    -3897    -3942    -4141 
   -4375    -4534    -4592    -4603    -4614    -4648    -4725    -4841 
   -4958    -5028    -5000    -4854    -4641    -4438    -4329    -4352 
   -4464    -4554    -4541    -4433    -4282    -4125    -4006    -3973 
   -4017    -4070    -4058    -3958    -3817    -3724    -3746    -3866 
   -3977    -3973    -3801    -3501    -3198    -2995    -2916    -2911 
   -2903    -2849    -2787    -2786    -2878    -3053    -3249    -3365 
   -3337    -3203    -3096    -3125    -3307    -3593    -3885    -4066 
   -4056    -3883    -3674    -3586    -3692    -3925    -4139    -4185 
   -4002    -3654    -3300    -3107    -3110    -3181    -3152    -2945 
   -2605    -2263    -2093    -2181    -2438    -2668    -2720    -2579 
   -2363    -2234    -2297    -2548    -2863    -3106    -3221    -3238 
   -3219    -3213    -3253    -3358    -3528    -3751    -3981    -4156 
   -4245    -4272    -4270    -4249    -4221    -4198    -4172    -4133 
   -4077    -4002    -3909    -3816    -3773    -3827    -3974    -4183 
   -4410    -4575    -4621    -4552    -4413    -4256    -4097    -3904 
   -3669    -3447    -3304    -3272    -3338    -3472    -3630    -3743 
   -3781    -3792    -3832    -3901    -3936    -3894    -3796    -3658 
   -3499    -3373    -3342    -3385    -3420    -3410    -3366    -3296 
   -3199    -3122    -3103    -3127    -3160    -3191    -3225    -3273 
   -3349    -3451    -3569    -3684    -3766    -3801    -3788    -3742 
   -3705    -3730    -3797    -3828    -3784    -3689    -3586    -3535 
   -3585    -3721    -3863    -3928    -3882    -3746    -3589    -3497 
   -3512    -3593    -3650    -3615    -3487    -3298    -3144    -3118 
   -3213    -3334    -3402    -3380    -3285    -3175    -3106    -3102 
   -3126    -3113    -3026    -2882    -2737    -2658    -2674    -2751 
   -2816    -2798    -2667    -2463    -2300    -2259    -2330    -2455 
   -2597    -2741    -2894    -3055    -3225    -3392    -3518    -3565 
   -3545    -3528    -3585    -3715    -3855    -3935    -3932    -3892 
   -3867    -3890    -3935    -3952    -3931    -3889    -3847    -3824 
   -3824    -3840    -3875    -3924    -3958    -3942    -3889    -3839 
   -3840    -3913    -4012    -4041    -3951    -3761    -3561    -3445 
   -3447    -3537    -3618    -3600    -3473    -3302    -3171    -3126 
   -3159    -3229    -3262    -3175    -2984    -2793    -2686    -2693 
   -2770    -2816    -2731    -2486    -2174    -1952    -1911    -2030 
   -2241    -2455    -2590    -2619    -2598    -2635    -2782    -3013 
   -3250    -3408    -3430    -3342    -3221    -3145    -3172    -3285 
   -3424    -3537    -3613    -3669    -3740    -3846    -3955    -4025 
   -4051    -4051    -4031    -3990    -3913    -3788    -3643    -3527 
   -3469    -3472    -3508    -3530    -3496    -3424    -3368    -3375 
   -3465    -3607    -3742    -3827    -3846    -3805    -3740    -3685 
   -3651    -3628    -3604    -3558    -3457    -3296    -3138    -3052 
   -3061    -3144    -3222    -3235    -3187    -3121    -3090    -3110 
   -3142    -3149    -3111    -3040    -2984    -2988    -3048    -3127 
   -3187    -3199    -3153    -3052    -2916    -2785    -2702    -2708 
   -2813    -2945    -3021    -3015    -2929    -2808    -2736    -2771 
   -2911    -3123    -3346    -3514    -3582    -3568    -3547    -3635 
   -3883    -4230    -4545    -4706    -4631    -4334    -3962    -3707 
   -3673    -3821    -4006    -4074    -3970    -3784    -3657    -3709 
   -3969    -4347    -4692    -4892    -4926    -4854    -4760    -4712 
   -4737    -4820    -4899    -4880    -4718    -4445    -4158    -3967 
   -3944    -4058    -4193    -4226    -4126    -3959    -3819    -3755 
   -3784    -3881    -4002    -4087    -4106    -4082    -4021    -3908 
   -3757    -3596    -3427    -3238    -3044    -2887    -2771    -2656 
   -2511    -2359    -2274    -2282    -2353    -2454    -2566    -2655 
   -2702    -2717    -2725    -2768    -2867    -3006    -3141    -3231 
   -3227    -3117    -2970    -2889    -2921    -3056    -3249    -3422 
   -3515    -3539    -3559    -3622    -3719    -3809    -3869    -3905 
   -3917    -3874    -3770    -3630    -3491    -3419    -3446    -3499 
   -3476    -3357    -3217    -3127    -3106    -3137    -3198    -3250 
   -3258    -3223    -3180    -3156    -3180    -3277    -3451    -3677 
   -3862    -3936    -3923    -3897    -3888    -3889    -3885    -3867 
   -3807    -3705    -3642    -3697    -3838    -3966    -4009    -3944 
   -3809    -3673    -3599    -3623    -3731    -3861    -3943    -3929 
   -3831    -3712    -3666    -3757    -3964    -4207    -4380    -4413 
   -4297    -4093    -3896    -3781    -3780    -3848    -3890    -3847 
   -3740    -3677    -3770    -4032    -4347    -4572    -4606    -4460 
   -4249    -4093    -4055    -4149    -4318    -4455    -4475    -4382 
   -4255    -4203    -4284    -4472    -4680    -4796    -4735    -4506 
   -4226    -4047    -4031    -4145    -4324    -4473    -4517    -4434 
   -4284    -4151    -4075    -4037    -3990    -3904    -3786    -3663 
   -3550    -3443    -3348    -3267    -3175    -3059    -2959    -2926 
   -2983    -3094    -3181    -3187    -3114    -3001    -2884    -2781 
   -2695    -2623    -2521    -2354    -2141    -1925    -1767    -1718 
   -1784    -1911    -2026    -2056    -1987    -1875    -1783    -1744 
   -1749    -1768    -1756    -1711    -1702    -1794    -1993    -2235 
   -2412    -2461    -2397    -2289    -2216    -2226    -2305    -2396 
   -2416    -2331    -2200    -2119    -2150    -2290    -2465    -2582 
   -2596    -2505    -2389    -2343    -2420    -2606    -2828    -2994 
   -3068    -3078    -3068    -3082    -3115    -3125    -3084    -3025 
   -3007    -3090    -3267    -3488    -3697    -3847    -3927    -3970 
   -4016    -4089    -4182    -4248    -4224    -4091    -3890    -3692 
   -3561    -3523    -3559    -3623    -3649    -3605    -3500    -3364 
   -3249    -3200    -3221    -3296    -3416    -3562    -3689    -3750 
   -3735    -3688    -3701    -3815    -4001    -4217    -4407    -4538 
   -4607    -4634    -4621    -4571    -4488    -4380    -4290    -4283 
   -4382    -4571    -4800    -4993    -5094    -5093    -5024    -4930 
   -4839    -4772    -4735    -4737    -4764    -4780    -4765    -4738 
   -4711    -4653    -4536    -4378    -4212    -4062    -3925    -3786 
   -3636    -3487    -3348    -3256    -3269    -3404    -3596    -3735 
   -3735    -3593    -3402    -3295    -3354    -3542    -3739    -3834 
   -3767    -3582    -3376    -3248    -3281    -3473    -3711    -3858 
   -3820    -3623    -3389    -3269    -3345    -3569    -3805    -3939 
   -3932    -3855    -3828    -3912    -4078    -4245    -4349    -4382 
   -4396    -4463    -4594    -4765    -4936    -5070    -5152    -5202 
   -5246    -5296    -5331    -5352    -5386    -5431    -5460    -5471 
   -5449    -5367    -5236    -5124    -5073    -5054    -5023    -4946 
   -4785    -4553    -4321    -4155    -4087    -4098    -4122    -4102 
   -4033    -3970    -3969    -4027    -4078    -4048    -3888    -3603 
   -3283    -3032    -2903    -2874    -2852    -2749    -2519    -2185 
   -1842    -1597    -1506    -1566    -1706    -1823    -1854    -1830 
   -1823    -1887    -2029    -2181    -2253    -2219    -2112    -1999 
   -1941    -1960    -2033    -2095    -2106    -2096    -2099    -2135 
   -2238    -2425    -2690    -2984    -3261    -3508    -3727    -3923 
   -4104    -4241    -4297    -4256    -4155    -4060    -4024    -4056 
   -4137    -4221    -4249    -4197    -4106    -4052    -4075    -4186 
   -4337    -4453    -4490    -4450    -4386    -4342    -4321    -4283 
   -4205    -4091    -3950    -3789    -3647    -3558    -3532    -3565 
   -3634    -3697    -3719    -3669    -3541    -3387    -3276    -3234 
   -3271    -3370    -3469    -3497    -3422    -3275    -3130    -3061 
   -3076    -3133    -3176    -3168    -3113    -3045    -2999    -2980 
   -2988    -3009    -3021    -3029    -3048    -3072    -3068    -3022 
   -2953    -2883    -2844    -2870    -2956    -3046    -3083    -3056 
   -2995    -2949    -2975    -3092    -3268    -3446    -3564    -3580 
   -3497    -3335    -3130    -2940    -2802    -2720    -2700    -2743 
   -2813    -2862    -2870    -2852    -2809    -2737    -2655    -2579 
   -2542    -2589    -2725    -2893    -3003    -2992    -2878    -2739 
   -2689    -2806    -3053    -3315    -3469    -3449    -3298    -3145 
   -3095    -3194    -3392    -3566    -3632    -3585    -3468    -3348 
   -3285    -3294    -3341    -3365    -3319    -3208    -3067    -2949 
   -2916    -2986    -3113    -3208    -3219    -3150    -3057    -2980 
   -2932    -2913    -2905    -2894    -2909    -2979    -3099    -3231 
   -3337    -3389    -3377    -3322    -3260    -3223    -3233    -3283 
   -3325    -3312    -3249    -3169    -3134    -3204    -3373    -3585 
   -3771    -3882    -3906    -3897    -3902    -3929    -3960    -3967 
   -3928    -3856    -3786    -3738    -3723    -3735    -3747    -3736 
   -3700    -3658    -3635    -3654    -3736    -3888    -4052    -4166 
   -4217    -4218    -4197    -4178    -4166    -4152    -4114    -4041 
   -3958    -3900    -3894    -3952    -4041    -4113    -4139    -4104 
   -4023    -3925    -3850    -3840    -3894    -3948    -3952    -3885 
   -3762    -3643    -3596    -3618    -3635    -3596    -3510    -3416 
   -3368    -3402    -3487    -3551    -3547    -3497    -3450    -3424 
   -3412    -3407    -3404    -3408    -3396    -3339    -3246    -3137 
   -3019    -2921    -2859    -2818    -2787    -2772    -2783    -2826 
   -2907    -3014    -3125    -3215    -3279    -3333    -3399    -3474 
   -3545    -3585    -3572    -3511    -3451    -3446    -3514    -3627 
   -3724    -3767    -3755    -3693    -3608    -3547    -3531    -3545 
   -3576    -3619    -3661    -3696    -3720    -3724    -3719    -3740 
   -3812    -3925    -4056    -4156    -4198    -4191    -4145    -4087 
   -4060    -4068    -4083    -4098    -4110    -4106    -4067    -4012 
   -3998    -4054    -4159    -4263    -4309    -4274    -4201    -4162 
   -4175    -4209    -4233    -4225    -4179    -4132    -4140    -4201 
   -4259    -4260    -4209    -4147    -4120    -4152    -4253    -4375 
   -4428    -4368    -4209    -4005    -3839    -3751    -3743    -3794 
   -3852    -3874    -3862    -3848    -3859    -3910    -3987    -4058 
   -4109    -4136    -4124    -4072    -3994    -3908    -3840    -3812 
   -3815    -3809    -3765    -3693    -3628    -3585    -3569    -3568 
   -3539    -3453    -3318    -3176    -3090    -3113    -3237    -3387 
   -3476    -3451    -3329    -3199    -3145    -3210    -3358    -3491 
   -3531    -3488    -3400    -3323    -3303    -3342    -3396    -3415 
   -3375    -3300    -3229    -3199    -3229    -3304    -3368    -3364 
   -3275    -3133    -3014    -2979    -3015    -3064    -3055    -2937 
   -2743    -2547    -2398    -2317    -2299    -2332    -2398    -2457 
   -2482    -2474    -2444    -2425    -2459    -2556    -2690    -2813 
   -2909    -2995    -3087    -3200    -3339    -3466    -3543    -3555 
   -3520    -3464    -3397    -3335    -3292    -3249    -3192    -3127 
   -3068    -3045    -3092    -3196    -3307    -3383    -3399    -3379 
   -3384    -3461    -3591    -3721    -3819    -3863    -3848    -3809 
   -3794    -3800    -3794    -3757    -3697    -3639    -3600    -3586 
   -3599    -3635    -3694    -3775    -3866    -3946    -3991    -3985 
   -3942    -3904    -3892    -3925    -4000    -4066    -4064    -3964 
   -3789    -3619    -3526    -3528    -3604    -3700    -3761    -3743 
   -3650    -3546    -3493    -3507    -3558    -3609    -3623    -3578 
   -3510    -3447    -3407    -3400    -3420    -3456    -3499    -3531 
   -3561    -3593    -3612    -3597    -3551    -3503    -3484    -3508 
   -3576    -3663    -3716    -3697    -3612    -3516    -3480    -3546 
   -3697    -3862    -3958    -3956    -3888    -3800    -3736    -3723 
   -3753    -3796    -3816    -3811    -3789    -3740    -3662    -3582 
   -3527    -3505    -3511    -3523    -3519    -3492    -3453    -3426 
   -3411    -3397    -3370    -3315    -3229    -3126    -3030    -2953 
   -2899    -2890    -2933    -3014    -3115    -3219    -3308    -3377 
   -3408    -3380    -3296    -3196    -3129    -3130    -3194    -3280 
   -3341    -3348    -3310    -3257    -3207    -3164    -3132    -3133 
   -3179    -3252    -3314    -3331    -3300    -3227    -3134    -3045 
   -2959    -2878    -2813    -2786    -2830    -2940    -3079    -3213 
   -3298    -3323    -3318    -3314    -3334    -3377    -3438    -3501 
   -3559    -3623    -3700    -3794    -3906    -4020    -4114    -4180 
   -4222    -4251    -4288    -4349    -4423    -4487    -4519    -4503 
   -4449    -4382    -4313    -4224    -4089    -3913    -3724    -3555 
   -3454    -3439    -3487    -3543    -3546    -3470    -3331    -3176 
   -3059    -3001    -2970    -2934    -2879    -2801    -2720    -2673 
