Origin Time       2025/01/13 21:19:00
Lat.              31.8
Long.             131.6
Depth. (km)       30
Mag.              6.9
Station Code      OIT015
Station Lat.      32.9733
Station Long.     131.3998
Station Height(m) 267
Record Time       2025/01/13 21:19:54
Sampling Freq(Hz) 100Hz
Duration Time(s)  117
Dir.              U-D
Scale Factor      7845(gal)/8223790
Max. Acc. (gal)   8.418
Last Correction   2025/01/13 21:19:54
Memo.             
[...]
   14230    14424    13764    13258    13892    15047    15682    15638 
   15210    14612    13919    13050    12083    11551    11766    12297 
   12760    13436    14427    15246    15666    15886    16036    16069 
   15820    15194    14462    14227    14646    14948    14558    14049 
   14046    14134    13664    12943    12795    13354    13963    14148 
   14227    14561    14743    14300    13655    13722    14558    14963 
   14107    12927    12730    13262    13301    12442    11566    11568 
   12106    12168    11573    11043    11134    11774    12469    12785 
   12853    13171    13798    14337    14632    14870    15180    15417 
   15376    15272    15450    15588    14993    13855    13159    13157 
   13201    13008    12912    13200    13711    13990    13838    13535 
   13412    13606    14106    14675    14814    14222    13351    13016 
   13288    13370    12865    12295    12251    12803    13475    13622 
   13409    13676    14378    14505    13863    13621    14632    16077 
   16465    15589    14481    13740    13116    12406    11709    11182 
   11001    11261    11809    12349    12775    13207    13675    14111 
   14432    14420    14071    13940    14318    14685    14693    14798 
   15277    15758    16154    16737    17234    17226    16927    16345 
   14893    12829    11469    11263    11248    10806    10372    10353 
   10665    11101    11475    11754    12110    12561    13057    13729 
   14384    14528    14265    14184    14439    14689    14593    14018 
   13373    13319    13625    13618    13466    13471    13491    13632 
   13906    13852    13524    13609    14310    15279    16372    17451 
   17945    17577    16873    16306    15695    14708    13323    11898 
   11006    11009    11553    11751    11400    11357    11947    12484 
   12791    13177    13285    12721    11911    11468    11701    12719 
   14104    14958    14964    14621    14245    13829    13525    13336 
   13092    13004    13221    13366    13235    13149    13410    13852 
   14076    14148    14461    15070    15682    16036    16146    16251 
   16371    16178    15527    14584    13486    12502    12050    12117 
   12224    12102    11951    11846    11519    11221    11747    13019 
   14042    14455    14735    15176    15506    15242    14432    13797 
   13810    14123    14180    14029    14041    14278    14553    14526 
   13996    13454    13313    13066    12344    11769    11935    12472 
   12613    12301    12224    12781    13598    14057    13967    13606 
   13254    12922    12506    12039    11692    11604    11848    12401 
   13016    13464    13760    13925    13976    14050    13998    13608 
   13501    14219    15001    15175    15230    15412    15356    15138 
   14959    14733    14651    14746    14505    13915    13637    13821 
   14037    14130    14180    14146    14079    14145    14330    14416 
   14327    14285    14364    14304    14050    13772    13412    12985 
   12783    12958    13447    13979    14076    13703    13544    13865 
   13961    13516    13184    13355    13819    14141    13940    13608 
   13844    14392    14543    14165    13545    12988    12737    12765 
   12772    12771    13119    13676    13848    13552    13278    13370 
   13761    14177    14472    14735    14921    14944    14943    14955 
   14835    14435    13745    13173    13069    13096    12852    12487 
   12272    12116    11831    11546    11689    12526    13695    14296 
   13817    12995    12949    13586    13979    13806    13498    13474 
   13794    14235    14331    13903    13645    14076    14532    14407 
   14181    14392    14766    14763    14278    13678    13248    12874 
   12545    12514    12726    12823    12726    12858    13490    14202 
   14489    14434    14451    14715    14897    14673    14141    13663 
   13640    13909    13821    13545    13919    14793    15044    14328 
   13639    13906    14650    14535    13205    11743    11217    11754 
   12745    13309    13066    12548    12522    12993    13398    13614 
   13855    14131    14478    14889    14894    14054    12834    12264 
   12718    13536    13786    13545    13969    15238    15965    15493 
   14727    14368    14288    14430    14656    14364    13684    13693 
   14423    14717    14318    14079    14311    14507    14108    12900 
   11310    10168     9786     9813    10018    10535    11458    12672 
   13851    14492    14469    14357    14665    15142    15264    15022 
   14908    15152    15368    15238    15133    15489    16055    16282 
   15903    15066    14443    14382    14099    13095    12168    11774 
   11286    10617    10654    11797    13390    14505    14837    14998 
   15592    16132    15781    14663    13524    12819    12590    12591 
   12515    12251    11842    11452    11545    12388    13316    13537 
   13374    13543    13861    13713    13321    13278    13167    12428 
   11796    12143    13263    14625    15822    16518    16803    16958 
   17022    16723    15720    14357    13516    12993    11905    10854 
   10902    11628    12456    13474    14435    15180    15865    16190 
   15938    15352    14389    13107    12179    11838    11805    12405 
   13994    15677    15998    14917    13783    12962    11665    10435 
   10535    11167    11003    11013    12399    14324    15664    16227 
   16110    15705    15489    15248    14731    14295    13925    13633 
   14207    15260    15290    14542    14462    15090    15222    14183 
   12718    11996    11892    11276    10062     9774    11358    13680 
   15431    16798    17861    17610    15955    14466    13973    13545 
   12491    11468    11335    12125    13279    14261    14715    14659 
   14575    14661    14246    12862    11530    11479    12087    11792 
   10501     9981    11568    14153    15813    16276    16213    15796 
   14964    13865    12814    12218    12177    12210    12175    12618 
   13466    14002    14504    15558    16229    15664    14860    14756 
   14940    14877    14562    14362    14661    15032    14337    12633 
   11653    12156    12860    12918    12950    13356    13774    13932 
   13737    13095    12490    12575    12872    12676    12420    12349 
   11707    10342     9289     9428    10588    11757    12083    11915 
   12235    13216    14397    15553    16447    16922    17539    18590 
   19106    18449    17447    16850    16615    16596    16302    15124 
   13397    12100    11651    11661    11604    11283    10875    10995 
   11840    12572    12599    12345    12424    13128    14311    15368 
   15743    15221    13787    11962    10948    11568    13359    15156 
   16114    16147    15726    15519    15820    16175    16100    15751 
   15495    15287    14557    13077    11821    11907    13061    14023 
   14148    13798    13109    11844    10589    10362    11101    11686 
   11352    10439     9983    10787    12629    14438    15627    16767 
   18260    19209    18450    15920    12856    10994    10935    11711 
   12394    12889    13311    13782    14473    15210    15539    15361 
   14848    14044    13019    11815    10358     9208     9612    11554 
   13230    13988    15133    16592    16760    15867    15438    15404 
   14756    13648    13158    13489    13630    13176    12957    13342 
   13640    13663    14261    15670    16688    16316    14947    13662 
   13171    13398    14018    14801    14804    13439    12243    12395 
   12596    12001    11880    13127    14837    15452    14418    13058 
   13096    14233    15033    15422    15900    15777    14662    13775 
   13948    14229    13528    12201    11207    10662    10007     9263 
    9255    10373    11892    12946    13401    13575    13836    14243 
   14261    13510    12613    12316    12506    12788    12935    12982 
   13706    15468    17010    17369    17074    16571    15796    14928 
   14071    13165    12418    12087    12333    13266    14378    14874 
   14890    15148    15618    15603    14868    13896    13169    12942 
   13115    13014    12363    12051    12845    13975    14137    13366 
   12564    11970    11236    10219     9385     9536    10756    12343 
   13876    15164    15651    15129    14507    14642    14883    14262 
   13331    13072    13239    13350    13684    14481    15396    15865 
   15641    15106    14958    15410    15738    15419    15276    15759 
   15782    14951    14285    14318    14845    15466    15346    13986 
   12033    10520     9913    10012    10322    10727    11610    12954 
   14208    15110    15778    16092    15444    13606    11943    12136 
   13595    14364    14115    13786    13473    12939    12606    12819 
   13495    14413    15128    15454    15654    15415    14287    13135 
   13014    13544    13876    13880    13950    14327    14683    14697 
   14582    14463    14164    13757    13429    13063    12565    12075 
   11622    11291    11578    12704    14091    14902    14712    14143 
   14412    15481    15959    15179    13984    13567    13973    13965 
   13111    12702    13367    13895    13340    12459    12341    12854 
   13371    13861    14476    15218    15822    15604    14474    13356 
   12846    12559    12010    11338    11254    12486    14731    16461 
   16795    16621    16737    16486    15287    13846    12995    12617 
   12251    12067    12644    13786    14565    14544    14231    14260 
   14345    13753    12625    11662    11215    11291    11581    11673 
   11653    11985    12758    13408    13338    12776    12614    13186 
   13814    13946    13842    13836    13969    14245    14527    14582 
   14507    14531    14353    13518    12255    11129    10525    10702 
   11727    13265    14617    15352    15799    16155    15880    14773 
   13216    11468    10114     9849    10261    10741    11691    13212 
   14366    14590    14403    14462    14810    14939    14467    13876 
   13806    14014    14165    14701    15851    16954    17259    16545 
   15188    13937    13034    12039    10719     9448     8937     9441 
    9967     9495     8920     9732    11485    12676    12943    12895 
   13122    13845    14496    14319    13657    13390    13531    13697 
   13832    13670    13026    12573    12761    13107    13518    14345 
   14985    14586    13549    12717    12151    11718    11558    11639 
   11799    11992    12191    12406    12588    12723    12881    12906 
   12668    12534    12823    13109    12858    12334    12024    11942 
   11898    11711    11449    11626    12591    13864    14589    14663 
   14729    15175    15799    16004    15452    14777    14754    15111 
   15122    14760    14548    14728    15169    15691    16167    16556 
   16606    16044    15184    14532    14283    14307    14185    14108 
   15037    16802    17780    17312    16425    15828    15268    14885 
   15009    15192    15010    14870    15145    15457    15344    14970 
   14690    14407    13863    13185    12753    12691    12864    13311 
   14187    15221    15668    15298    14947    15026    14824    14362 
   14731    15792    16195    15668    15029    14717    14698    14949 
   15484    16131    16302    15518    14288    13560    13332    13042 
   12841    13139    13724    14149    14237    14111    14040    14208 
   14674    15354    15873    15847    15456    15030    14220    12718 
   11415    11368    11955    11699    10596     9937    10314    11276 
   12048    12086    11713    11654    11900    11927    11645    11504 
   11809    12252    12440    12606    13047    13370    13273    13200 
   13286    12982    12229    11662    11646    12090    12754    13220 
   13188    12788    12337    12013    11788    11562    11380    11460 
   11821    12012    11736    11542    12164    13394    14146    13830 
   13097    12542    11781    10646     9863    10093    11232    12613 
   13595    13923    13775    13555    13459    13603    14274    15381 
   16217    16302    16009    16055    16713    17663    18439    18937 
   19361    19649    19507    18944    18203    17408    16618    15925 
   15345    14883    14585    14262    13775    13478    13621    13845 
   13738    13313    12918    12933    13358    13819    14119    14419 
   14858    15361    15799    16024    16028    16232    16985    17869 
   18307    18346    18130    17578    16765    15720    14280    12788 
   11994    11923    11897    11569    11102    10731    10567    10516 
   10393    10106     9622     8972     8332     7997     8181     8954 
   10335    12078    13545    14260    14316    14092    13956    14185 
   14666    14951    14850    14586    14557    14952    15411    15369 
   14777    14179    13896    13581    13080    12908    13336    13905 
   14091    13926    13636    13111    12259    11279    10324     9494 
    8927     8650     8487     8162     7639     7315     7619     8463 
    9292     9729     9956    10291    10736    11240    11907    12586 
   12874    12924    13485    14771    16023    16629    16972    17579 
   18351    19084    19722    20020    19876    19554    19056    18015 
   16700    15893    15550    15195    15009    15103    15030    14689 
   14353    14023    13537    12849    12110    11812    12050    11971 
   11146    10369    10165    10107     9899     9792     9923    10222 
   10810    11753    12870    14175    15705    17176    18347    19306 
   20074    20403    20356    20526    21072    21501    21752    22161 
   22513    22353    21586    20127    18104    16271    15207    14717 
   14133    12991    11750    11245    11236    10605     8969     7256 
    6631     7241     8440     9765    11009    11859    12159    12078 
   11929    12160    12978    13846    14285    14688    15396    15857 
   15615    15205    15095    14940    14762    15180    16008    16417 
   16310    16140    16077    16066    15884    14985    13293    11688 
   10681     9895     9294     8981     8419     7523     7003     6941 
    6723     6438     6712     7389     7928     8401     8969     9332 
    9294     9136     9263     9701    10084    10122     9871     9586 
    9568     9957    10519    11021    11520    11936    12191    12750 
   14015    15534    16502    16676    16417    16043    15654    15530 
   15917    16586    17238    17848    18193    17965    17321    16505 
   15588    14951    14974    15333    15364    14885    14154    13339 
   12401    11470    10903    10783    10860    11237    12270    13566 
   14260    14250    14148    14338    14674    14893    15059    15450 
   16090    16789    17521    18341    19165    19749    19854    19579 
   19290    19122    19006    18963    18860    18451    17837    17230 
   16590    15967    15527    15137    14621    14210    14183    14408 
   14484    14156    13660    13467    13564    13444    12818    11920 
   11246    11057    11034    10755    10438    10625    11198    11665 
   12116    12672    12893    12675    12437    12375    12437    12484 
   12395    12461    13019    13863    14712    15562    16279    16714 
   16991    17277    17632    17933    17740    16715    15211    13980 
   13305    12933    12730    12842    13359    14068    14563    14553 
   14019    13258    12745    12518    12100    11315    10517    10018 
    9902    10145    10740    11583    12220    12159    11418    10408 
    9505     8854     8409     8156     8216     8471     8571     8669 
    9270    10080    10562    11171    12348    13406    13784    13990 
   14544    15229    15701    15979    16281    16756    17301    17697 
   17976    18369    18841    19109    19136    19114    18971    18463 
   17689    16891    15994    15022    14416    14197    13691    12699 
   11955    11977    12220    11915    11080    10223     9697     9575 
    9801    10301    10894    11371    11800    12297    12760    13149 
   13644    14492    15612    16474    16717    16610    16586    16638 
   16526    16336    16306    16286    16002    15684    15784    16162 
   16194    15741    15340    15368    15670    16056    16482    16789 
   16754    16470    16290    16233    15951    15380    14781    14304 
   14076    14288    14728    14843    14509    14056    13640    13131 
   12325    11314    10686    10914    11718    12437    12773    12856 
   12853    12800    12638    12214    11465    10654    10189    10214 
   10613    11275    11944    12248    12235    12309    12575    12726 
   12503    12037    11627    11232    10613     9826     9184     8847 
    8752     8881     9271     9748    10147    10611    11261    11951 
   12479    12776    12991    13381    13918    14408    15025    16009 
   17054    17655    17763    17755    17814    17722    17478    17375 
   17313    17030    16798    16970    17243    17073    16497    16020 
   15898    15877    15472    14503    13443    12799    12487    12386 
   12572    12802    12866    13178    13998    14839    15206    15041 
   14494    13895    13504    13115    12521    12108    12309    12806 
   13038    12950    12646    12166    11769    11692    11746    11670 
   11553    11546    11557    11534    11699    12275    13077    13672 
   13923    14023    14256    14793    15484    16052    16345    16194 
   15514    14632    14058    13782    13269    12317    11346    10808 
   10719    10750    10660    10543    10554    10615    10539    10305 
   10017     9706     9460     9513     9995    10679    11267    11766 
   12326    13078    14158    15472    16713    17668    18334    18860 
   19363    19629    19348    18715    18327    18306    18185    17821 
   17467    17104    16636    16360    16513    16831    16893    16517 
   15742    14769    13887    13252    12934    12966    13112    13054 
   12904    12988    13232    13373    13467    13621    13718    13618 
   13088    12054    11059    10697    10852    11065    11169    11280 
   11564    12109    12823    13429    13803    14146    14504    14600 
   14396    14230    14364    14806    15375    15824    15994    15886 
   15562    15047    14451    13919    13343    12509    11526    10724 
   10277    10226    10535    10937    11152    11187    11118    10868 
   10369     9803     9472     9633    10507    11963    13466    14837 
   16309    17730    18701    19280    19849    20467    20783    20591 
   20078    19388    18536    17683    16978    16379    15807    15300 
   14908    14527    14073    13609    13107    12479    11780    11080 
   10424    10052    10227    10852    11611    12276    12757    13161 
   13689    14247    14686    15272    16171    17026    17693    18423 
   19067    19218    18964    18712    18612    18536    18335    17977 
   17458    16719    15738    14566    13271    11925    10731    10017 
    9891     9985     9823     9402     9070     8923     8808     8721 
    8812     9135     9539     9880    10242    10779    11399    11716 
   11643    11659    12118    12849    13562    14207    14758    15025 
   15013    14998    15072    15157    15277    15475    15734    16008 
   16043    15450    14372    13536    13263    13104    12690    12158 
   11724    11435    11157    10690    10012     9185     8245     7349 
    6520     5651     5152     5611     6801     8143     9594    11263 
   12869    14096    14931    15514    16100    16856    17483    17680 
