Origin Time       2025/01/13 21:19:00
Lat.              31.8
Long.             131.6
Depth. (km)       30
Mag.              6.9
Station Code      OIT007
Station Lat.      33.4169
Station Long.     131.6142
Station Height(m) 21
Record Time       2025/01/13 21:20:03
Sampling Freq(Hz) 100Hz
Duration Time(s)  106
Dir.              N-S
Scale Factor      7845(gal)/8223790
Max. Acc. (gal)   7.006
Last Correction   2025/01/13 21:20:02
Memo.             
[...]
   -6293    -6474    -6754    -7042    -7256    -7362    -7376    -7358 
   -7358    -7381    -7396    -7368    -7295    -7221    -7156    -7055 
   -6912    -6793    -6745    -6781    -6910    -7079    -7214    -7317 
   -7393    -7425    -7410    -7376    -7331    -7275    -7200    -7090 
   -6953    -6845    -6809    -6832    -6886    -6945    -6995    -7045 
   -7110    -7214    -7376    -7549    -7651    -7651    -7545    -7362 
   -7182    -7051    -6956    -6894    -6891    -6914    -6887    -6825 
   -6798    -6813    -6878    -7010    -7167    -7284    -7349    -7368 
   -7350    -7298    -7213    -7129    -7071    -7018    -6961    -6910 
   -6874    -6851    -6858    -6928    -7076    -7298    -7550    -7761 
   -7898    -7979    -8013    -8004    -7977    -7939    -7898    -7902 
   -7951    -7979    -7986    -7978    -7888    -7704    -7514    -7381 
   -7321    -7339    -7450    -7624    -7803    -7933    -7985    -7959 
   -7870    -7717    -7518    -7321    -7138    -6952    -6812    -6806 
   -6929    -7072    -7168    -7225    -7242    -7233    -7225    -7236 
   -7261    -7288    -7276    -7213    -7159    -7164    -7200    -7190 
   -7082    -6903    -6747    -6686    -6693    -6709    -6727    -6747 
   -6767    -6802    -6855    -6882    -6866    -6843    -6855    -6902 
   -6959    -7024    -7117    -7241    -7398    -7584    -7758    -7879 
   -7947    -7967    -7924    -7813    -7654    -7450    -7213    -6968 
   -6729    -6507    -6322    -6195    -6126    -6081    -6068    -6129 
   -6237    -6346    -6496    -6710    -6941    -7145    -7290    -7356 
   -7364    -7352    -7325    -7273    -7219    -7210    -7254    -7337 
   -7442    -7516    -7510    -7458    -7416    -7383    -7352    -7322 
   -7285    -7248    -7207    -7115    -6952    -6785    -6679    -6629 
   -6596    -6554    -6502    -6465    -6457    -6457    -6446    -6466 
   -6582    -6770    -6941    -7069    -7180    -7281    -7392    -7530 
   -7636    -7638    -7562    -7480    -7379    -7227    -7053    -6887 
   -6744    -6663    -6654    -6669    -6694    -6745    -6818    -6963 
   -7222    -7524    -7776    -7962    -8078    -8112    -8044    -7848 
   -7528    -7165    -6870    -6698    -6654    -6735    -6906    -7098 
   -7231    -7260    -7177    -6999    -6775    -6583    -6467    -6424 
   -6439    -6486    -6552    -6659    -6789    -6887    -6957    -7021 
   -7041    -6951    -6766    -6571    -6463    -6492    -6640    -6848 
   -7075    -7335    -7636    -7912    -8083    -8143    -8106    -7997 
   -7879    -7811    -7777    -7722    -7627    -7493    -7329    -7177 
   -7074    -6970    -6826    -6691    -6620    -6600    -6617    -6690 
   -6785    -6852    -6907    -6997    -7094    -7142    -7114    -7030 
   -6967    -6982    -7037    -7080    -7118    -7188    -7311    -7462 
   -7591    -7661    -7672    -7647    -7577    -7479    -7447    -7542 
   -7738    -7990    -8257    -8492    -8662    -8743    -8681    -8429 
   -8006    -7497    -7028    -6689    -6481    -6372    -6386    -6525 
   -6716    -6901    -7036    -7079    -7064    -7055    -7045    -7053 
   -7113    -7204    -7295    -7349    -7354    -7345    -7334    -7315 
   -7311    -7349    -7422    -7495    -7527    -7530    -7526    -7503 
   -7449    -7372    -7295    -7248    -7231    -7221    -7223    -7245 
   -7277    -7314    -7323    -7280    -7191    -7075    -6945    -6809 
   -6678    -6543    -6392    -6227    -6072    -5962    -5919    -5957 
   -6085    -6292    -6536    -6804    -7086    -7349    -7537    -7626 
   -7646    -7682    -7773    -7862    -7879    -7816    -7704    -7589 
   -7485    -7393    -7317    -7260    -7225    -7210    -7204    -7200 
   -7192    -7199    -7245    -7319    -7383    -7437    -7524    -7622 
   -7673    -7678    -7680    -7689    -7681    -7636    -7581    -7535 
   -7476    -7379    -7269    -7165    -7033    -6840    -6637    -6509 
   -6496    -6571    -6704    -6889    -7126    -7376    -7568    -7682 
   -7743    -7762    -7738    -7685    -7622    -7565    -7522    -7496 
   -7511    -7578    -7680    -7796    -7909    -7978    -7952    -7823 
   -7628    -7439    -7303    -7219    -7161    -7110    -7061    -7001 
   -6916    -6814    -6708    -6589    -6459    -6351    -6322    -6423 
   -6631    -6845    -6984    -7068    -7163    -7261    -7302    -7256 
   -7134    -6984    -6858    -6755    -6654    -6565    -6500    -6450 
   -6428    -6440    -6465    -6473    -6471    -6492    -6544    -6621 
   -6718    -6822    -6898    -6949    -6995    -7010    -6975    -6924 
   -6891    -6889    -6917    -6982    -7096    -7287    -7538    -7782 
   -7952    -8016    -7986    -7904    -7758    -7501    -7157    -6813 
   -6540    -6345    -6220    -6158    -6130    -6139    -6197    -6264 
   -6303    -6342    -6415    -6540    -6721    -6918    -7082    -7198 
   -7307    -7445    -7595    -7715    -7777    -7761    -7659    -7470 
   -7191    -6870    -6604    -6459    -6436    -6520    -6700    -6947 
   -7215    -7445    -7616    -7767    -7923    -8081    -8239    -8384 
   -8486    -8500    -8415    -8259    -8060    -7821    -7524    -7187 
   -6856    -6565    -6332    -6187    -6143    -6180    -6245    -6303 
   -6363    -6439    -6498    -6532    -6577    -6682    -6880    -7163 
   -7477    -7767    -8004    -8193    -8357    -8490    -8554    -8546 
   -8510    -8487    -8472    -8445    -8379    -8275    -8159    -8037 
   -7902    -7758    -7603    -7430    -7223    -6970    -6687    -6412 
   -6172    -5965    -5759    -5516    -5269    -5100    -5076    -5193 
   -5393    -5630    -5899    -6201    -6520    -6818    -7078    -7311 
   -7528    -7736    -7938    -8112    -8210    -8210    -8145    -8064 
   -7974    -7857    -7705    -7538    -7380    -7252    -7152    -7069 
   -6998    -6941    -6925    -6967    -7032    -7063    -7044    -7009 
   -6993    -6995    -7002    -7040    -7122    -7186    -7167    -7067 
   -6947    -6879    -6870    -6870    -6875    -6944    -7088    -7257 
   -7431    -7623    -7809    -7993    -8191    -8375    -8483    -8490 
   -8406    -8264    -8093    -7890    -7638    -7333    -7010    -6714 
   -6500    -6380    -6300    -6242    -6265    -6400    -6604    -6808 
   -6959    -7038    -7029    -6952    -6871    -6828    -6799    -6774 
   -6816    -6963    -7169    -7389    -7612    -7832    -8039    -8203 
   -8284    -8255    -8127    -7944    -7746    -7547    -7368    -7234 
   -7133    -7006    -6828    -6636    -6477    -6388    -6382    -6423 
   -6488    -6602    -6766    -6959    -7187    -7416    -7555    -7584 
   -7576    -7565    -7516    -7427    -7314    -7172    -7028    -6917 
   -6795    -6621    -6443    -6312    -6220    -6153    -6126    -6168 
   -6277    -6463    -6759    -7156    -7591    -7987    -8289    -8473 
   -8544    -8494    -8325    -8068    -7778    -7503    -7265    -7090 
   -7011    -7021    -7038    -7028    -7041    -7095    -7168    -7279 
   -7446    -7639    -7827    -7985    -8081    -8098    -8068    -8016 
   -7938    -7858    -7815    -7797    -7753    -7651    -7495    -7295 
   -7060    -6791    -6484    -6157    -5884    -5728    -5670    -5657 
   -5670    -5707    -5772    -5842    -5903    -5971    -6088    -6282 
   -6523    -6768    -7034    -7350    -7700    -8037    -8330    -8563 
   -8739    -8877    -8968    -9009    -9027    -9035    -9020    -8955 
   -8834    -8694    -8557    -8403    -8243    -8122    -8031    -7921 
   -7801    -7703    -7620    -7510    -7331    -7072    -6748    -6399 
   -6084    -5846    -5675    -5535    -5424    -5344    -5285    -5278 
   -5348    -5476    -5637    -5805    -5968    -6115    -6220    -6255 
   -6223    -6188    -6201    -6253    -6327    -6454    -6651    -6910 
   -7209    -7524    -7816    -8052    -8224    -8341    -8419    -8475 
   -8525    -8598    -8665    -8679    -8634    -8544    -8411    -8257 
   -8093    -7913    -7734    -7568    -7418    -7302    -7229    -7160 
   -7041    -6863    -6647    -6413    -6177    -5950    -5741    -5594 
   -5583    -5710    -5919    -6157    -6385    -6566    -6696    -6785 
   -6820    -6795    -6777    -6841    -6999    -7209    -7437    -7676 
   -7923    -8148    -8293    -8336    -8333    -8310    -8239    -8139 
   -8046    -7944    -7827    -7722    -7666    -7666    -7684    -7688 
   -7686    -7666    -7597    -7489    -7369    -7249    -7115    -6974 
   -6839    -6721    -6637    -6605    -6612    -6652    -6723    -6797 
   -6886    -7038    -7257    -7495    -7719    -7921    -8066    -8112 
   -8070    -7986    -7888    -7776    -7669    -7573    -7484    -7415 
   -7372    -7345    -7337    -7364    -7410    -7434    -7426    -7403 
   -7350    -7256    -7133    -6994    -6855    -6741    -6670    -6631 
   -6606    -6578    -6556    -6563    -6608    -6678    -6741    -6806 
   -6902    -7009    -7094    -7159    -7240    -7375    -7555    -7753 
   -7939    -8097    -8229    -8355    -8460    -8500    -8455    -8359 
   -8263    -8147    -7982    -7805    -7662    -7574    -7569    -7628 
   -7680    -7695    -7696    -7685    -7666    -7655    -7620    -7511 
   -7345    -7168    -6976    -6772    -6592    -6450    -6330    -6224 
   -6164    -6169    -6231    -6332    -6454    -6579    -6681    -6728 
   -6696    -6578    -6397    -6178    -5945    -5744    -5611    -5559 
   -5595    -5717    -5921    -6204    -6552    -6936    -7334    -7732 
   -8105    -8414    -8630    -8738    -8733    -8653    -8533    -8388 
   -8255    -8143    -8031    -7927    -7839    -7735    -7582    -7404 
   -7246    -7091    -6895    -6666    -6396    -6077    -5756    -5474 
   -5247    -5104    -5077    -5179    -5391    -5668    -5949    -6191 
   -6396    -6583    -6770    -6945    -7103    -7258    -7412    -7555 
   -7700    -7831    -7916    -7955    -7951    -7866    -7697    -7518 
   -7398    -7354    -7368    -7404    -7450    -7523    -7620    -7701 
   -7736    -7739    -7747    -7766    -7785    -7827    -7923    -8058 
   -8201    -8328    -8398    -8361    -8224    -8051    -7863    -7632 
   -7371    -7106    -6835    -6573    -6350    -6157    -5979    -5873 
   -5873    -5927    -6027    -6195    -6399    -6619    -6889    -7191 
   -7454    -7642    -7765    -7821    -7803    -7722    -7607    -7488 
   -7411    -7430    -7542    -7697    -7865    -8039    -8208    -8347 
   -8444    -8503    -8526    -8517    -8492    -8459    -8419    -8359 
   -8239    -8031    -7751    -7434    -7092    -6729    -6362    -6023 
   -5715    -5422    -5144    -4891    -4664    -4472    -4320    -4186 
   -4070    -4002    -3991    -4004    -4039    -4149    -4376    -4703 
   -5086    -5490    -5908    -6336    -6747    -7096    -7376    -7576 
   -7668    -7662    -7618    -7570    -7538    -7518    -7465    -7353 
   -7204    -7014    -6766    -6498    -6242    -5999    -5810    -5715 
   -5701    -5740    -5821    -5917    -5992    -6019    -6003    -5980 
   -5998    -6061    -6160    -6285    -6399    -6458    -6486    -6535 
   -6619    -6768    -7017    -7341    -7695    -8044    -8352    -8588 
   -8749    -8858    -8912    -8884    -8791    -8695    -8648    -8672 
   -8781    -8966    -9204    -9490    -9832   -10179   -10430   -10546 
  -10582   -10563   -10458   -10268   -10019    -9742    -9472    -9201 
   -8907    -8604    -8330    -8114    -7974    -7944    -8075    -8341 
   -8653    -8947    -9189    -9337    -9358    -9243    -9015    -8733 
   -8452    -8197    -7982    -7809    -7663    -7510    -7353    -7221 
   -7122    -7060    -7024    -6991    -6963    -6966    -6994    -7030 
   -7094    -7175    -7221    -7210    -7148    -7002    -6752    -6442 
   -6120    -5810    -5539    -5329    -5178    -5082    -5044    -5061 
   -5144    -5298    -5478    -5645    -5806    -5973    -6149    -6336 
   -6524    -6697    -6853    -7006    -7148    -7250    -7290    -7267 
   -7175    -6975    -6627    -6143    -5598    -5054    -4552    -4140 
   -3843    -3630    -3472    -3387    -3370    -3395    -3461    -3605 
   -3861    -4209    -4603    -5026    -5466    -5902    -6313    -6663 
   -6903    -7048    -7145    -7199    -7210    -7206    -7203    -7188 
   -7133    -7014    -6839    -6642    -6457    -6286    -6124    -5995 
   -5935    -5958    -6045    -6160    -6278    -6367    -6404    -6405 
   -6380    -6328    -6303    -6351    -6438    -6524    -6628    -6767 
   -6943    -7177    -7487    -7854    -8260    -8679    -9053    -9373 
   -9668    -9950   -10215   -10481   -10762   -11034   -11252   -11383 
  -11435   -11431   -11388   -11323   -11250   -11169   -11041   -10827 
  -10521   -10130    -9676    -9219    -8834    -8553    -8351    -8191 
   -8059    -7973    -7960    -8028    -8163    -8347    -8560    -8781 
   -8974    -9101    -9165    -9169    -9094    -8908    -8588    -8121 
   -7519    -6837    -6147    -5493    -4884    -4334    -3882    -3554 
   -3326    -3137    -2976    -2878    -2867    -2947    -3127    -3411 
   -3755    -4118    -4479    -4838    -5198    -5560    -5906    -6215 
   -6488    -6748    -7048    -7438    -7920    -8465    -9046    -9640 
  -10249   -10889   -11527   -12120   -12672   -13174   -13572   -13829 
  -13909   -13771   -13444   -13022   -12584   -12174   -11828   -11577 
  -11418   -11334   -11304   -11317   -11379   -11483   -11597   -11711 
  -11813   -11877   -11871   -11776   -11570   -11245   -10786   -10189 
   -9487    -8727    -7955    -7199    -6438    -5637    -4800    -3944 
   -3105    -2322    -1605     -954     -421      -66      120      168 
     109      -20     -213     -456     -730    -1030    -1355    -1695 
   -2011    -2241    -2381    -2447    -2427    -2347    -2262    -2166 
   -2053    -1942    -1846    -1772    -1755    -1831    -2006    -2263 
   -2598    -2992    -3414    -3832    -4206    -4482    -4617    -4650 
   -4657    -4641    -4600    -4598    -4696    -4912    -5228    -5624 
   -6084    -6601    -7145    -7659    -8112    -8523    -8918    -9263 
   -9532    -9751    -9953   -10160   -10389   -10611   -10781   -10882 
  -10887   -10756   -10477   -10089    -9697    -9377    -9136    -8958 
   -8819    -8714    -8660    -8668    -8722    -8803    -8899    -8980 
   -9005    -8951    -8788    -8484    -8073    -7612    -7126    -6620 
   -6130    -5706    -5374    -5125    -4939    -4810    -4758    -4851 
   -5136    -5594    -6174    -6856    -7630    -8459    -9271    -9987 
  -10543   -10939   -11218   -11407   -11502   -11512   -11450   -11275 
  -10976   -10594   -10176    -9778    -9428    -9121    -8845    -8607 
   -8410    -8229    -8020    -7776    -7530    -7303    -7091    -6894 
   -6717    -6547    -6386    -6254    -6147    -6060    -5977    -5876 
   -5768    -5701    -5703    -5765    -5859    -5964    -6084    -6227 
   -6405    -6631    -6880    -7122    -7342    -7534    -7690    -7819 
   -7931    -8032    -8120    -8181    -8197    -8164    -8105    -8031 
   -7929    -7828    -7770    -7762    -7805    -7884    -7944    -7970 
   -7989    -8010    -8001    -7932    -7781    -7524    -7175    -6774 
   -6361    -5950    -5566    -5221    -4923    -4679    -4476    -4294 
   -4129    -3998    -3924    -3906    -3909    -3921    -3969    -4074 
   -4241    -4475    -4760    -5065    -5375    -5686    -5980    -6247 
   -6515    -6828    -7194    -7587    -7996    -8399    -8769    -9074 
   -9285    -9385    -9387    -9320    -9220    -9089    -8900    -8660 
   -8425    -8251    -8118    -7960    -7758    -7555    -7406    -7302 
   -7196    -7099    -7082    -7164    -7280    -7346    -7296    -7132 
   -6916    -6673    -6401    -6143    -5944    -5811    -5753    -5780 
   -5869    -5975    -6083    -6230    -6423    -6631    -6829    -7011 
   -7199    -7441    -7735    -8040    -8326    -8576    -8772    -8899 
   -8977    -9031    -9055    -9020    -8918    -8769    -8590    -8345 
   -8020    -7650    -7285    -6948    -6636    -6376    -6203    -6108 
   -6073    -6083    -6124    -6204    -6357    -6608    -6957    -7391 
   -7884    -8403    -8922    -9391    -9763   -10031   -10215   -10335 
  -10413   -10465   -10484   -10466   -10439   -10453   -10546   -10705 
  -10883   -11068   -11252   -11399   -11466   -11423   -11253   -10970 
  -10615   -10230    -9807    -9332    -8831    -8322    -7804    -7277 
   -6723    -6138    -5555    -5005    -4506    -4078    -3747    -3526 
   -3423    -3423    -3485    -3601    -3781    -4002    -4224    -4417 
   -4577    -4743    -4938    -5143    -5335    -5541    -5795    -6081 
   -6372    -6648    -6886    -7078    -7229    -7345    -7443    -7508 
   -7523    -7501    -7454    -7400    -7381    -7399    -7418    -7429 
   -7439    -7419    -7339    -7214    -7038    -6798    -6542    -6324 
   -6146    -5989    -5844    -5692    -5552    -5440    -5343    -5251 
   -5171    -5132    -5151    -5217    -5337    -5557    -5906    -6363 
   -6906    -7493    -8046    -8499    -8839    -9047    -9088    -8964 
   -8719    -8399    -8040    -7661    -7268    -6851    -6405    -5969 
   -5591    -5293    -5074    -4919    -4787    -4664    -4558    -4468 
   -4407    -4415    -4513    -4676    -4892    -5136    -5332    -5435 
   -5482    -5506    -5514    -5521    -5526    -5525    -5540    -5593 
   -5674    -5761    -5871    -6026    -6215    -6408    -6616    -6840 
   -7051    -7237    -7422    -7654    -7943    -8210    -8384    -8483 
   -8532    -8537    -8526    -8510    -8459    -8313    -8063    -7740 
   -7356    -6906    -6405    -5859    -5292    -4753    -4293    -3966 
   -3815    -3838    -4009    -4284    -4626    -5012    -5414    -5803 
   -6183    -6567    -6949    -7304    -7615    -7870    -8051    -8155 
   -8187    -8168    -8101    -7993    -7890    -7824    -7784    -7782 
   -7844    -7959    -8110    -8289    -8456    -8556    -8553    -8442 
   -8213    -7865    -7439    -6982    -6500    -6007    -5540    -5109 
   -4733    -4442    -4276    -4244    -4352    -4617    -5039    -5580 
   -6173    -6740    -7222    -7589    -7854    -8040    -8163    -8220 
   -8194    -8102    -7993    -7913    -7908    -8001    -8171    -8394 
   -8658    -8938    -9211    -9487    -9786   -10110   -10435   -10724 
  -10956   -11122   -11206   -11206   -11122   -10964   -10758   -10536 
  -10305   -10052    -9788    -9551    -9355    -9200    -9059    -8895 
   -8696    -8502    -8348    -8245    -8185    -8144    -8087    -7986 
   -7844    -7690    -7553    -7437    -7361    -7364    -7435    -7531 
   -7639    -7792    -8010    -8294    -8642    -9035    -9410    -9703 
   -9861    -9833    -9597    -9204    -8739    -8249    -7762    -7303 
   -6866    -6446    -6079    -5776    -5530    -5383    -5385    -5548 
   -5856    -6270    -6752    -7287    -7870    -8432    -8865    -9109 
   -9158    -9032    -8765    -8402    -7986    -7561    -7172    -6847 
   -6575    -6338    -6141    -6012    -5964    -5981    -6023    -6035 
   -5981    -5852    -5660    -5460    -5302    -5200    -5181    -5278 
   -5454    -5647    -5841    -6043    -6243    -6440    -6647    -6855 
   -7042    -7210    -7365    -7514    -7645    -7742    -7801    -7850 
   -7933    -8071    -8225    -8355    -8457    -8536    -8581    -8588 
   -8540    -8429    -8259    -8037    -7770    -7442    -7049    -6633 
   -6258    -5954    -5686    -5412    -5142    -4930    -4810    -4753 
