Origin Time       2025/01/13 21:19:00
Lat.              31.8
Long.             131.6
Depth. (km)       30
Mag.              6.9
Station Code      OIT012
Station Lat.      33.0666
Station Long.     131.3729
Station Height(m) 460
Record Time       2025/01/13 21:19:57
Sampling Freq(Hz) 100Hz
Duration Time(s)  124
Dir.              E-W
Scale Factor      7845(gal)/8223790
Max. Acc. (gal)   17.996
Last Correction   2025/01/13 21:19:57
Memo.             
[...]
  -11292   -11003   -11099   -11669   -12604   -13537   -13960   -13683 
  -12954   -12141   -11452   -10970   -10844   -11173   -11751   -12272 
  -12610   -12810   -12961   -13053   -12978   -12730   -12356   -11915 
  -11612   -11719   -12248   -12904   -13321   -13290   -12818   -12160 
  -11691   -11549   -11561   -11530   -11394   -11268   -11362   -11746 
  -12229   -12537   -12533   -12245   -11805   -11426   -11307   -11487 
  -11780   -11970   -12037   -12056   -12085   -12151   -12194   -12181 
  -12170   -12156   -12137   -12201   -12360   -12501   -12537   -12545 
  -12665   -12831   -12756   -12295   -11692   -11334   -11425   -11913 
  -12586   -13093   -13142   -12679   -11915   -11271   -11190   -11711 
  -12417   -12896   -12966   -12592   -11939   -11326   -11005   -11007 
  -11214   -11502   -11754   -11838   -11774   -11785   -12021   -12407 
  -12772   -12901   -12641   -12147   -11788   -11830   -12243   -12668 
  -12738   -12356   -11666   -11049   -10866   -11110   -11512   -11785 
  -11772   -11574   -11380   -11233   -11190   -11396   -11817   -12231 
  -12442   -12411   -12287   -12266   -12391   -12611   -12830   -12904 
  -12789   -12641   -12622   -12673   -12630   -12444   -12144   -11827 
  -11647   -11693   -11938   -12343   -12857   -13342   -13505   -13019 
  -11909   -10662    -9822    -9688   -10245   -11106   -11757   -11935 
  -11722   -11406   -11229   -11236   -11385   -11588   -11724   -11801 
  -11912   -12124   -12445   -12823   -13116   -13170   -13000   -12750 
  -12507   -12274   -12029   -11738   -11396   -11071   -10893   -11043 
  -11543   -12106   -12401   -12351   -12117   -11924   -11961   -12299 
  -12726   -12827   -12515   -12177   -12110   -12240   -12384   -12430 
  -12208   -11604   -10890   -10501   -10524   -10824   -11253   -11574 
  -11632   -11520   -11403   -11388   -11545   -11873   -12236   -12455 
  -12561   -12750   -13053   -13413   -13810   -14050   -13828   -13149 
  -12421   -12116   -12360   -12839   -13119   -12903   -12221   -11464 
  -10959   -10791   -10967   -11290   -11441   -11411   -11468   -11727 
  -12009   -12136   -12112   -11967   -11718   -11487   -11410   -11504 
  -11685   -11830   -11858   -11834   -11904   -12082   -12189   -12090 
  -11835   -11551   -11402   -11519   -11838   -12145   -12317   -12425 
  -12610   -12881   -13132   -13251   -13131   -12750   -12256   -11850 
  -11670   -11746   -11961   -12055   -11765   -11072   -10305    -9967 
  -10376   -11388   -12492   -13220   -13306   -12776   -12075   -11720 
  -11915   -12498   -13036   -13186   -12973   -12676   -12640   -12977 
  -13385   -13428   -12923   -12052   -11240   -10930   -11348   -12259 
  -13086   -13405   -13198   -12664   -12106   -11862   -11985   -12183 
  -12216   -12091   -11909   -11786   -11865   -12094   -12256   -12244 
  -12052   -11720   -11414   -11448   -12008   -12853   -13502   -13660 
  -13320   -12609   -11772   -11194   -11202   -11784   -12536   -12966 
  -12864   -12306   -11538   -10953   -10914   -11349   -11808   -11967 
  -11839   -11553   -11245   -11118   -11345   -11804   -12121   -12135 
  -11998   -11824   -11655   -11632   -11800   -11985   -12040   -11992 
  -11939   -11954   -12050   -12159   -12210   -12280   -12509   -12860 
  -13142   -13223   -13151   -12976   -12645   -12232   -11939   -11816 
  -11816   -11904   -11915   -11664   -11205   -10755   -10482   -10496 
  -10820   -11329   -11842   -12248   -12432   -12245   -11794   -11477 
  -11503   -11639   -11562   -11250   -10974   -10957   -11263   -11913 
  -12734   -13329   -13493   -13269   -12726   -12017   -11437   -11138 
  -10971   -10827   -10897   -11304   -11853   -12321   -12622   -12609 
  -12143   -11292   -10330    -9637    -9559   -10156   -11145   -12120 
  -12771   -13012   -12968   -12823   -12746   -12887   -13273   -13718 
  -13957   -13886   -13608   -13223   -12780   -12434   -12353   -12371 
  -12052   -11259   -10466   -10358   -11130   -12258   -12960   -12918 
  -12332   -11520   -10843   -10598   -10697   -10770   -10723   -10866 
  -11402   -12121   -12723   -13007   -12771   -11966   -10936   -10251 
  -10307   -11021   -11917   -12555   -12785   -12680   -12398   -12131 
  -12042   -12160   -12348   -12395   -12232   -12077   -12307   -13047 
  -13972   -14558   -14355   -13313   -12079   -11489   -11736   -12280 
  -12464   -12216   -11944   -11786   -11624   -11576   -11720   -11707 
  -11198   -10413    -9906   -10157   -11403   -13298   -14885   -15352 
  -14694   -13601   -12820   -12533   -12353   -11932   -11333   -10848 
  -10652   -10790   -11302   -12163   -13139   -13864   -14118   -13903 
  -13362   -12746   -12275   -11882   -11372   -10817   -10600   -10917 
  -11518   -12066   -12425   -12577   -12530   -12317   -12077   -11916 
  -11776   -11666   -11732   -11901   -11920   -11781   -11767   -12164 
  -12976   -13791   -14042   -13531   -12576   -11668   -11083   -10812 
  -10778   -10986   -11350   -11735   -12052   -12299   -12582   -12935 
  -13139   -12950   -12351   -11541   -10804   -10395   -10504   -11153 
  -12019   -12631   -12793   -12649   -12379   -11988   -11524   -11236 
  -11167   -11098   -11064   -11322   -11888   -12513   -12937   -13031 
  -12815   -12407   -11919   -11431   -11165   -11322   -11626   -11497 
  -10771    -9872    -9437    -9964   -11461   -13284   -14455   -14381 
  -13248   -11743   -10678   -10636   -11539   -12762   -13697   -14018 
  -13774   -13348   -13131   -13217   -13397   -13402   -13128   -12606 
  -12069   -11905   -12252   -12916   -13566   -13794   -13370   -12407 
  -11221   -10269    -9895    -9999   -10226   -10318   -10265   -10322 
  -10709   -11284   -11746   -12023   -12360   -12916   -13292   -12946 
  -12019   -11133   -10678   -10781   -11557   -12960   -14455   -15268 
  -15079   -14062   -12540   -11070   -10350   -10727   -11931   -13219 
  -13806   -13405   -12378   -11333   -10625   -10311   -10349   -10478 
  -10265    -9686    -9329    -9771   -10948   -12301   -13177   -13147 
  -12432   -11730   -11406   -11396   -11732   -12374   -12785   -12660 
  -12573   -13065   -13772   -14054   -13788   -13221   -12506   -11794 
  -11425   -11616   -12167   -12563   -12306   -11331   -10127    -9432 
   -9724   -10849   -12114   -12733   -12359   -11334   -10377   -10104 
  -10635   -11580   -12584   -13439   -13682   -12964   -11773   -11026 
  -11118   -11727   -12328   -12680   -12889   -13159   -13539   -13797 
  -13568   -12769   -11678   -10751   -10442   -10812   -11380   -11796 
  -12208   -12764   -13150   -12901   -12048   -11014   -10195    -9904 
  -10158   -10516   -10775   -11303   -12228   -13030   -13296   -13053 
  -12376   -11480   -10817   -10671   -10952   -11425   -11996   -12642 
  -13205   -13556   -13632   -13315   -12627   -11939   -11569   -11448 
  -11592   -12172   -12857   -12977   -12455   -11943   -12013   -12663 
  -13549   -14173   -14056   -13193   -12087   -11242   -10914   -11151 
  -11686   -12136   -12441   -12731   -12830   -12480   -11784   -11047 
  -10535   -10497   -11097   -12140   -13109   -13741   -14212   -14586 
  -14574   -13975   -12907   -11673   -10708   -10362   -10615   -11264 
  -12105   -12735   -12711   -12060   -11327   -11034   -11238   -11709 
  -12294   -12748   -12700   -12179   -11742   -11853   -12495   -13460 
  -14485   -15017   -14523   -13104   -11433   -10303   -10195   -10999 
  -12204   -13170   -13451   -13124   -12669   -12523   -12710   -12837 
  -12615   -12097   -11475   -11033   -11028   -11578   -12602   -13581 
  -13846   -13169   -11789   -10254    -9274    -9275   -10153   -11531 
  -12951   -13911   -14015   -13213   -11842   -10478    -9709    -9776 
  -10357   -10875   -11095   -11199   -11250   -11020   -10453    -9755 
   -9027    -8417    -8262    -8657    -9451   -10573   -11844   -12826 
  -13163   -12885   -12305   -11745   -11407   -11368   -11475   -11558 
  -11847   -12594   -13614   -14566   -15149   -15152   -14740   -14262 
  -13738   -13096   -12399   -11695   -11091   -10791   -10990   -11781 
  -12857   -13601   -13579   -12742   -11502   -10494   -10085   -10284 
  -10790   -11237   -11626   -12087   -12432   -12434   -12206   -12017 
  -11904   -11650   -11227   -11059   -11623   -12826   -14031   -14785 
  -15048   -14870   -14274   -13444   -12706   -12224   -11873   -11649 
  -11726   -11858   -11574   -11011   -10848   -11442   -12403   -13084 
  -13128   -12437   -11202    -9976    -9259    -9227    -9814   -10724 
  -11562   -12036   -12006   -11534   -10883   -10481   -10714   -11561 
  -12526   -13158   -13459   -13644   -13802   -13936   -13922   -13544 
  -12856   -12164   -11645   -11341   -11434   -12051   -12957   -13662 
  -13757   -13174   -12275   -11665   -11630   -11898   -12098   -12108 
  -12019   -12073   -12417   -12935   -13367   -13335   -12611   -11512 
  -10698   -10633   -11361   -12475   -13327   -13470   -12961   -12275 
  -11934   -12231   -13080   -14003   -14473   -14256   -13451   -12367 
  -11411   -11032   -11484   -12522   -13489   -13701   -12883   -11473 
  -10249    -9605    -9497    -9756   -10150   -10454   -10550   -10384 
  -10029    -9786   -10033   -10843   -11762   -12202   -12066   -11716 
  -11421   -11267   -11438   -12002   -12676   -13124   -13197   -12933 
  -12523   -12118   -11804   -11761   -12035   -12260   -12086   -11728 
  -11569   -11547   -11504   -11610   -11908   -12069   -11908   -11599 
  -11256   -10886   -10741   -11064   -11718   -12405   -12910   -13038 
  -12653   -11928   -11308   -11182   -11811   -13165   -14592   -15230 
  -14743   -13428   -11905   -10817   -10646   -11367   -12388   -13034 
  -13004   -12438   -11665   -10935   -10453   -10390   -10671   -10916 
  -10752   -10199    -9728    -9809   -10547   -11682   -12613   -12687 
  -11851   -10758   -10157   -10376   -11238   -12275   -13007   -13180 
  -12833   -12177   -11446   -10962   -11133   -11997   -13014   -13613 
  -13583   -13020   -12141   -11209   -10594   -10530   -10781   -11002 
  -11142   -11156   -10758    -9926    -9227    -9155    -9629   -10255 
  -10773   -11098   -11126   -10837   -10494   -10427   -10689   -11074 
  -11375   -11450   -11164   -10559   -10044   -10004   -10331   -10743 
  -11199   -11588   -11664   -11481   -11269   -11130   -11163   -11464 
  -11988   -12538   -12843   -12756   -12368   -11955   -11789   -11925 
  -12162   -12159   -11603   -10632    -9949   -10139   -11138   -12491 
  -13655   -14104   -13594   -12379   -11084   -10265   -10111   -10548 
  -11342   -12136   -12623   -12722   -12594   -12394   -12087   -11699 
  -11542   -11939   -12785   -13679   -14335   -14621   -14465   -14004 
  -13582   -13455   -13651   -14014   -14283   -14218   -13841   -13459 
  -13396   -13710   -14177   -14513   -14597   -14546   -14640   -14976 
  -15292   -15304   -14948   -14312   -13679   -13478   -13977   -15018 
  -16104   -16749   -16846   -16626   -16249   -15830   -15688   -16038 
  -16630   -17072   -17196   -17043   -16765   -16506   -16240   -15912 
  -15606   -15365   -15120   -14870   -14709   -14736   -14993   -15410 
  -15832   -16131   -16182   -15958   -15670   -15570   -15734   -16104 
  -16452   -16468   -16105   -15649   -15400   -15427   -15634   -15923 
  -16102   -15858   -15093   -14054   -13108   -12557   -12592   -13198 
  -14107   -14905   -15326   -15342   -14914   -14026   -12955   -12060 
  -11461   -11240   -11383   -11562   -11502   -11299   -11159   -11091 
  -10875   -10293    -9432    -8599    -8095    -8164    -8816    -9714 
  -10377   -10368    -9505    -8131    -6974    -6625    -7145    -8174 
   -9086    -9192    -8332    -7146    -6555    -6976    -8014    -8992 
   -9459    -9194    -8367    -7485    -6902    -6613    -6417    -6081 
   -5517    -4858    -4295    -3955    -3838    -3804    -3665    -3323 
   -2868    -2504    -2300    -2157    -2070    -2160    -2411    -2641 
   -2771    -2880    -3015    -3140    -3281    -3541    -3913    -4263 
   -4503    -4661    -4768    -4816    -4865    -5011    -5314    -5825 
   -6524    -7265    -7911    -8328    -8363    -8156    -8174    -8603 
   -9197    -9788   -10430   -11169   -12002   -12834   -13543   -14054 
  -14264   -14148   -13875   -13547   -13182   -12877   -12729   -12722 
  -12690   -12478   -12160   -11907   -11730   -11534   -11218   -10723 
  -10173    -9801    -9709    -9867   -10104   -10238   -10346   -10500 
  -10611   -10806   -11357   -12299   -13394   -14349   -15022   -15441 
  -15812   -16444   -17417   -18530   -19556   -20333   -20727   -20722 
  -20521   -20455   -20634   -20876   -21024   -21030   -20788   -20363 
  -20096   -20142   -20322   -20544   -20907   -21415   -21805   -21841 
  -21600   -21288   -20977   -20664   -20356   -20102   -20055   -20316 
  -20667   -20679   -20067   -18885   -17541   -16629   -16541   -17196 
  -18173   -19084   -19710   -19947   -19867   -19720   -19716   -19801 
  -19741   -19357   -18662   -17865   -17309   -17247   -17635   -18187 
  -18547   -18427   -17790   -16953   -16355   -16275   -16750   -17543 
  -18191   -18327   -17980   -17463   -17135   -17209   -17618   -18152 
  -18639   -18874   -18562   -17649   -16507   -15614   -15241   -15464 
  -16148   -16919   -17373   -17386   -17022   -16360   -15522   -14616 
  -13770   -13170   -12796   -12276   -11338   -10134    -8949    -7885 
   -6974    -6303    -5806    -5243    -4463    -3461    -2295    -1066 
      48      881     1386     1610     1626     1597     1748     2203 
    2970     3944     4970     5902     6573     6826     6704     6388 
    6023     5753     5665     5547     5063     4149     2983     1813 
     843       62     -799    -2026    -3672    -5455    -6997    -8048 
   -8475    -8370    -8171    -8424    -9410   -10893   -12185   -12700 
  -12317   -11294   -10106    -9254    -9081    -9586   -10338   -10806 
  -10805   -10470   -10038    -9795   -10007   -10720   -11705   -12587 
  -13072   -13200   -13217   -13219   -13131   -12987   -12852   -12603 
  -12148   -11665   -11335   -11188   -11300   -11740   -12302   -12613 
  -12540   -12316   -12291   -12588   -13095   -13699   -14208   -14350 
  -14118   -13722   -13323   -13039   -12991   -13204   -13555   -13771 
  -13616   -13111   -12595   -12514   -13039   -13918   -14758   -15309 
  -15452   -15209   -14743   -14239   -13841   -13562   -13292   -13000 
  -12702   -12434   -12366   -12618   -13080   -13533   -13744   -13543 
  -12972   -12218   -11568   -11449   -12160   -13564   -15165   -16325 
  -16700   -16519   -16272   -16436   -17240   -18315   -18986   -18945 
  -18331   -17428   -16610   -16298   -16644   -17321   -17875   -18011 
  -17587   -16683   -15631   -14841   -14573   -14812   -15380   -16089 
  -16721   -17065   -17050   -16756   -16382   -16159   -16198   -16522 
  -17178   -18068   -18742   -18712   -17936   -16808   -15765   -15074 
  -14827   -14854   -14778   -14346   -13597   -12754   -12074   -11723 
  -11691   -11773   -11620   -10891    -9533    -7921    -6696    -6424 
   -7107    -8106    -8710    -8568    -7715    -6573    -5676    -5297 
   -5355    -5470    -5287    -4889    -4630    -4822    -5687    -7133 
   -8683    -9826   -10347   -10439   -10531   -10851   -11364   -12015 
  -12712   -13311   -13771   -14091   -14143   -13890   -13532   -13383 
  -13690   -14358   -15013   -15481   -15842   -16066   -16123   -16121 
  -16181   -16318   -16340   -15990   -15226   -14295   -13618   -13564 
  -14189   -15190   -16067   -16482   -16525   -16507   -16595   -16748 
  -16827   -16721   -16487   -16344   -16436   -16699   -16965   -17165 
  -17347   -17486   -17464   -17216   -16698   -15989   -15411   -15290 
  -15672   -16370   -17197   -18009   -18571   -18669   -18369   -18010 
  -17909   -18148   -18569   -18927   -18989   -18553   -17594   -16453 
  -15643   -15411   -15577   -15743   -15610   -15109   -14327   -13420 
  -12668   -12471   -12980   -13814   -14395   -14413   -13930   -13166 
  -12415   -11936   -11657   -11257   -10616    -9923    -9435    -9248 
   -9309    -9455    -9445    -9115    -8463    -7582    -6686    -6060 
   -5787    -5634    -5286    -4642    -3773    -2830    -2123    -1887 
   -1935    -1904    -1783    -1857    -2193    -2563    -2794    -2929 
   -3046    -3095    -3045    -3114    -3546    -4336    -5271    -6089 
   -6601    -6782    -6820    -6940    -7183    -7446    -7630    -7780 
   -8025    -8370    -8725    -9035    -9185    -9094    -8866    -8641 
   -8513    -8598    -8935    -9421    -9975   -10629   -11380   -12062 
  -12430   -12451   -12368   -12449   -12835   -13440   -13919   -14011 
  -13807   -13610   -13690   -14156   -14967   -15898   -16487   -16364 
  -15627   -14648   -13740   -13207   -13296   -13864   -14436   -14634 
  -14316   -13589   -12753   -12066   -11635   -11461   -11360   -11098 
  -10700   -10393   -10350   -10598   -11075   -11610   -11942   -11911 
  -11570   -11111   -10705   -10412   -10193    -9992    -9817    -9666 
   -9487    -9304    -9227    -9267    -9262    -8995    -8436    -7870 
   -7615    -7712    -8040    -8441    -8656    -8560    -8403    -8544 
   -8999    -9463    -9757    -9900    -9948   -10075   -10477   -11140 
  -11875   -12484   -12914   -13235   -13483   -13703   -14006   -14409 
  -14785   -15037   -15164   -15140   -15064   -15228   -15674   -16009 
  -15909   -15472   -14970   -14643   -14719   -15244   -15977   -16555 
  -16661   -16240   -15597   -15176   -15190   -15426   -15438   -14933 
  -13944   -12771   -11893   -11709   -12168   -12810   -13217   -13248 
  -13009   -12826   -12984   -13441   -13909   -14156   -14172   -14053 
  -13950   -14087   -14553   -15214   -15801   -16015   -15741   -15144 
  -14507   -14123   -14180   -14580   -15018   -15299   -15407   -15372 
  -15190   -14847   -14423   -14085   -14000   -14305   -14955   -15660 
  -16135   -16170   -15696   -14904   -14076   -13504   -13396   -13586 
  -13744   -13724   -13475   -13062   -12719   -12603   -12652   -12694 
  -12560   -12221   -11836   -11560   -11472   -11658   -12035   -12299 
  -12289   -12081   -11749   -11330   -10924   -10578   -10296   -10130 
  -10134   -10303   -10619   -11013   -11421   -11854   -12336   -12854 
  -13325   -13670   -13910   -14004   -13787   -13235   -12548   -11940 
  -11488   -11171   -10964   -10867   -10881   -10980   -11128   -11303 
  -11543   -11919   -12405   -12804   -12912   -12703   -12299   -11932 
  -11826   -11966   -12133   -12220   -12253   -12191   -12005   -11801 
  -11692   -11697   -11724   -11568   -11057   -10224    -9202    -8160 
   -7393    -7134    -7295    -7645    -8064    -8460    -8665    -8623 
   -8440    -8190    -7906    -7689    -7623    -7682    -7851    -8162 
   -8581    -9015    -9386    -9609    -9607    -9463    -9317    -9200 
   -9155    -9359    -9934   -10872   -11997   -12931   -13408   -13470 
  -13302   -13159   -13236   -13491   -13779   -13991   -14099   -14154 
  -14261   -14577   -15207   -15952   -16322   -15948   -14804   -13138 
  -11470   -10287    -9653    -9356    -9085    -8572    -7870    -7272 
   -6972    -6967    -7047    -6895    -6322    -5421    -4604    -4369 
   -4927    -6073    -7329    -8195    -8498    -8449    -8347    -8455 
   -8901    -9510   -10019   -10224    -9976    -9464    -9154    -9337 
   -9998   -10972   -12079   -13119   -13868   -14192   -14112   -13737 
