Origin Time       2025/01/13 21:19:00
Lat.              31.8
Long.             131.6
Depth. (km)       30
Mag.              6.9
Station Code      OIT018
Station Lat.      32.7980
Station Long.     131.9255
Station Height(m) 12
Record Time       2025/01/13 21:19:54
Sampling Freq(Hz) 100Hz
Duration Time(s)  94
Dir.              E-W
Scale Factor      7845(gal)/8223790
Max. Acc. (gal)   14.367
Last Correction   2025/01/13 21:19:53
Memo.             
[...]
   -4027    -3937    -3604    -3495    -3700    -3797    -3693    -3495 
   -3198    -2998    -3141    -3599    -4136    -4494    -4602    -4483 
   -4230    -4176    -4399    -4436    -4059    -3674    -3700    -3997 
   -4232    -4334    -4380    -4510    -4716    -4726    -4446    -4024 
   -3643    -3451    -3422    -3557    -3933    -4361    -4639    -4733 
   -4531    -4176    -3935    -3815    -3727    -3500    -3235    -3353 
   -3874    -4371    -4378    -3905    -3562    -3836    -4656    -5408 
   -5382    -4561    -3665    -3368    -3665    -4129    -4486    -4622 
   -4607    -4777    -5085    -4978    -4411    -3839    -3528    -3537 
   -3627    -3508    -3326    -3400    -3523    -3335    -3183    -3373 
   -3821    -4429    -4646    -4199    -3846    -4248    -5143    -5668 
   -5158    -3878    -2893    -2934    -3654    -4194    -4221    -4102 
   -4332    -4895    -5193    -4855    -4148    -3493    -3369    -3763 
   -3958    -3894    -3986    -3994    -3761    -3640    -3780    -3981 
   -4082    -3939    -3576    -3453    -3989    -4882    -5408    -5359 
   -4976    -4380    -3755    -3295    -2971    -2749    -2743    -3022 
   -3429    -3705    -3912    -4267    -4621    -4716    -4538    -4168 
   -3888    -3942    -4239    -4526    -4531    -4171    -3694    -3429 
   -3491    -3677    -3674    -3443    -3411    -3798    -4059    -4025 
   -4095    -3959    -3442    -3223    -3562    -4221    -5065    -5549 
   -5101    -4498    -4811    -5509    -5540    -4834    -3985    -3559 
   -3645    -3804    -3721    -3515    -3269    -3126    -3472    -4176 
   -4498    -4388    -4411    -4568    -4595    -4253    -3495    -2951 
   -3157    -3715    -3983    -4044    -4143    -4283    -4591    -4622 
   -3977    -3534    -3792    -4167    -4490    -4789    -4860    -4819 
   -4837    -4594    -3933    -3431    -3379    -3465    -3423    -3065 
   -2604    -2493    -2940    -3917    -4773    -5065    -5444    -6131 
   -6403    -5863    -4685    -3516    -3005    -2998    -2982    -2771 
   -2747    -3159    -3577    -3889    -4172    -4243    -4202    -4178 
   -4256    -4442    -4315    -3877    -3572    -3272    -2837    -2648 
   -2829    -3180    -3627    -4099    -4301    -4135    -4178    -4577 
   -4673    -4641    -5011    -5223    -4797    -4125    -3657    -3605 
   -3778    -3890    -3919    -3844    -3900    -4259    -4460    -4243 
   -3889    -3712    -4048    -4995    -5935    -6019    -5189    -4110 
   -3191    -2582    -2377    -2173    -1786    -1678    -2049    -2779 
   -3889    -5104    -5903    -6330    -6446    -5854    -4932    -4646 
   -4800    -4452    -3581    -2833    -2454    -2570    -3113    -3457 
   -3387    -3338    -3505    -3640    -3427    -3007    -2903    -3269 
   -3796    -4444    -5363    -6084    -6161    -5913    -5508    -4820 
   -4036    -3250    -2362    -1800    -2006    -2427    -2698    -3227 
   -3809    -4047    -4160    -4267    -4463    -4849    -5065    -4985 
   -4962    -5059    -4889    -4194    -3261    -2801    -3369    -4538 
   -5308    -5329    -4838    -4256    -4090    -4468    -4993    -5034 
   -4448    -3979    -4118    -4399    -4353    -3888    -3160    -2733 
   -2965    -3581    -4174    -4298    -3777    -3244    -3352    -3904 
   -4260    -4145    -3916    -3944    -4190    -4348    -4118    -3677 
   -3505    -3539    -3430    -3306    -3296    -3261    -3518    -4606 
   -6053    -6635    -6120    -5441    -5130    -5097    -5135    -4760 
   -3994    -3499    -3360    -3472    -3920    -4164    -3685    -3037 
   -2829    -2779    -2671    -2678    -2752    -2897    -3109    -3140 
   -3121    -3226    -3144    -2986    -3221    -3805    -4595    -5297 
   -5273    -4653    -4228    -4075    -3802    -3360    -2979    -3088 
   -3974    -5093    -5472    -4963    -4307    -4106    -4567    -5454 
   -5927    -5456    -4610    -4171    -4286    -4571    -4506    -4149 
   -3935    -3792    -3496    -3094    -2621    -2239    -2338    -3024 
   -4067    -5050    -5251    -4488    -3605    -3503    -4226    -4972 
   -4978    -4417    -4051    -4081    -3909    -3383    -3167    -3688 
   -4553    -4949    -4580    -4043    -4066    -4729    -5594    -6142 
   -5830    -4785    -3996    -3929    -4197    -4336    -4027    -3311 
   -2668    -2482    -2643    -3046    -3878    -4880    -5467    -5584 
   -5252    -4244    -3015    -2620    -3312    -4179    -4297    -3635 
   -2898    -2786    -3179    -3551    -3808    -3954    -4031    -4116 
   -4087    -4120    -4368    -4657    -4853    -4698    -4212    -3851 
   -3682    -3485    -3234    -3130    -3370    -3782    -4021    -3958 
   -3800    -4072    -4870    -5510    -5706    -5942    -6322    -6285 
   -5516    -4457    -3753    -3551    -3593    -3558    -3437    -3519 
   -3975    -4548    -4666    -4255    -3879    -3753    -3665    -3659 
   -3713    -3628    -3599    -3821    -4124    -4328    -4245    -3886 
   -3658    -3877    -4347    -4534    -4405    -4426    -4558    -4403 
   -4090    -3944    -3854    -3804    -3959    -3936    -3508    -3006 
   -2558    -2398    -2717    -3065    -3229    -3420    -3489    -3434 
   -3836    -4714    -5336    -5518    -5597    -5535    -5117    -4410 
   -3834    -3850    -4409    -4970    -4981    -4399    -3655    -3154 
   -3176    -3727    -4473    -4876    -4587    -4017    -3750    -3731 
   -3750    -4032    -4660    -5093    -5103    -4866    -4364    -3851 
   -3715    -3759    -3607    -3492    -3874    -4491    -4739    -4548 
   -4186    -3879    -3727    -3520    -3034    -2502    -2319    -2505 
   -2759    -2884    -2998    -3217    -3559    -4158    -4835    -5104 
   -5134    -5310    -5300    -4838    -4245    -3875    -3731    -3561 
   -3341    -3376    -3782    -4249    -4364    -4058    -3684    -3688 
   -4059    -4371    -4494    -4579    -4549    -4433    -4414    -4374 
   -4309    -4282    -4025    -3424    -2790    -2732    -3429    -4091 
   -4014    -3368    -2604    -2045    -1880    -2058    -2439    -2953 
   -3576    -4158    -4460    -4463    -4240    -3886    -3728    -4062 
   -4669    -4943    -4803    -4635    -4301    -3743    -3450    -3466 
   -3538    -3797    -4402    -5061    -5302    -5073    -4814    -5024 
   -5471    -5356    -4707    -4267    -4195    -4153    -3994    -3759 
   -3732    -4261    -5189    -6068    -6721    -7051    -6925    -6646 
   -6713    -7117    -7587    -7893    -7809    -7430    -7052    -6824 
   -6756    -6801    -6874    -6735    -6187    -5478    -4939    -4583 
   -4355    -4263    -4271    -4396    -4557    -4403    -4027    -3958 
   -4198    -4295    -4082    -3801    -3640    -3596    -3655    -3762 
   -3879    -4013    -4280    -4810    -5356    -5485    -5132    -4676 
   -4261    -3856    -3770    -3906    -3792    -3657    -3970    -4592 
   -5135    -5336    -5128    -4762    -4525    -4152    -3369    -2682 
   -2408    -2162    -1875    -1541     -885     -298     -432     -969 
   -1144     -675      260     1215     1906     2463     3005     3512 
    3904     3874     3030     1490      -56    -1247    -2218    -3053 
   -4006    -5209    -5991    -6007    -5988    -6245    -6388    -6373 
   -6138    -5610    -5387    -5938    -7044    -8398    -9649   -10443 
  -10860   -10987   -10551    -9526    -8159    -6628    -5297    -4575 
   -4360    -4267    -4158    -3994    -3754    -3696    -4033    -4533 
   -4999    -5647    -6509    -7234    -7638    -7570    -6720    -5231 
   -3611    -1929      -56     1756     3160     4009     4158     3368 
    1633     -494    -2174    -2839    -2637    -2327    -2407    -3019 
   -4198    -5436    -6312    -7041    -7422    -6917    -5657    -4132 
   -2655    -1416     -357      877     2292     3222     3214     2461 
    1078     -934    -3134    -4830    -5691    -5895    -5692    -5278 
   -4934    -4587    -4105    -3871    -4164    -4594    -4687    -4506 
   -4090    -3381    -2889    -3057    -3586    -4151    -4739    -5100 
   -4949    -4395    -3434    -2265    -1683    -2022    -2875    -3929 
   -4962    -5602    -5618    -5035    -4205    -3605    -3323    -3281 
   -3346    -3276    -3114    -3010    -2948    -2870    -2602    -2056 
   -1259     -230      758     1363     1269      195    -1467    -2853 
   -3379    -3068    -2636    -2656    -2952    -3175    -3295    -3599 
   -4209    -4658    -4488    -3735    -2641    -1570    -1101    -1678 
   -3010    -4340    -5130    -5070    -4418    -4147    -4793    -5998 
   -7257    -8371    -9309    -9865    -9705    -8885    -7766    -6521 
   -5367    -4752    -4947    -5725    -6632    -7547    -8475    -9121 
   -9373    -9517    -9652    -9607    -9369    -8843    -7657    -5678 
   -3450    -1902    -1389    -1514    -2064    -3045    -4070    -4799 
   -5269    -5202    -4244    -2859    -1644     -569      432     1237 
    1779     1973     1714      949     -332    -2211    -4652    -7250 
   -9593   -11394   -12425   -12796   -12717   -12156   -11010    -9293 
   -7236    -5233    -3649    -2498    -1385      -52     1341     2539 
    3061     2457     1005     -656    -2112    -2992    -3067    -2569 
   -2072    -2010    -2074    -1599     -696      -24      263      286 
    -121     -896    -1733    -2766    -4240    -6069    -7944    -9404 
  -10278   -10777   -11040   -11271   -11650   -11820   -11218    -9776 
   -7715    -5362    -3427    -2443    -2093    -1752    -1198     -452 
     558     1676     2601     3277     3246     2019      261    -1043 
   -1586    -1445     -924     -406     -211     -515    -1061    -1383 
   -1283     -869     -575     -842    -1611    -2571    -3511    -4364 
   -5248    -6351    -7631    -8899   -10258   -11719   -12700   -12802 
  -12151   -10863    -9231    -7707    -6394    -5400    -4950    -4936 
   -5154    -5556    -6084    -6745    -7435    -7747    -7468    -6768 
   -5891    -5100    -4540    -4191    -4078    -4163    -4299    -4546 
   -5061    -5651    -6010    -5965    -5221    -3766    -2261    -1310 
   -1097    -1763    -3121    -4502    -5482    -6129    -6451    -6226 
   -5362    -4095    -2862    -2034    -1622    -1236     -518      232 
     382     -259    -1656    -3646    -5557    -6739    -7040    -6544 
   -5590    -4610    -3674    -2754    -2022    -1572    -1405    -1506 
   -1602    -1501    -1607    -2273    -3021    -3287    -3196    -3156 
   -3454    -4176    -4899    -5016    -4544    -3997    -3919    -4700 
   -6253    -8056    -9837   -11681   -13338   -14192   -14033   -12857 
  -10697    -8102    -5713    -3800    -2609    -2389    -3264    -4822 
   -5972    -6169    -5871    -5452    -4814    -3723    -2145     -345 
    1483     3258     4631     5116     4590     3453     1972     -120 
   -2843    -5616    -8112   -10300   -11727   -11915   -10908    -9038 
   -6821    -4814    -3256    -1999     -907     -210       36      313 
     878     1707     2868     3987     4293     3388     1509     -661 
   -2315    -3003    -2835    -2035     -950     -303     -672    -2101 
   -4224    -6416    -8036    -8668    -8526    -8121    -7689    -7387 
   -7080    -6376    -5310    -4232    -3439    -3094    -3073    -3319 
   -3894    -4675    -5605    -6725    -7767    -8378    -8523    -8495 
   -8592    -8692    -8294    -7354    -6466    -5956    -5765    -5964 
   -6416    -6532    -5844    -4360    -2695    -1817    -2039    -2691 
   -2841    -2000     -456     1027     1803     1587      712     -222 
   -1240    -2506    -3697    -4531    -4806    -4222    -2990    -1772 
   -1111    -1582    -3620    -6666    -9544   -11647   -12888   -13281 
  -13119   -12703   -11911   -10550    -8603    -6286    -4224    -3001 
   -2830    -3538    -4415    -4904    -5140    -5258    -4943    -3977 
   -2678    -1447     -359      476      891      839      384     -205 
    -693    -1074    -1358    -1647    -2228    -3257    -4766    -6651 
   -8162    -8392    -7469    -6276    -5467    -5333    -5881    -6702 
   -7265    -7261    -6698    -5791    -4542    -2808     -804     1011 
    2393     3276     3599     3262     2083      172    -1618    -2332 
   -1918    -1001     -137      229      102       52      387      842 
     974      469     -762    -2527    -4175    -4957    -4743    -4027 
   -3287    -2880    -2959    -3210    -3180    -2575    -1418     -295 
     -52    -1239    -3743    -6744    -9207   -10589   -10956   -10416 
   -9000    -7010    -4943    -3076    -1555     -827    -1177    -2204 
   -3385    -4418    -5073    -5098    -4303    -2894    -1416     -394 
    -164     -549     -943     -981     -714     -384     -216     -326 
    -768    -1497    -2513    -3844    -5239    -6420    -7379    -8044 
   -8356    -8627    -9244   -10116   -10633   -10308    -9356    -8328 
   -7641    -7537    -7985    -8581    -8988    -9421   -10065   -10503 
  -10461   -10088    -9363    -8073    -6104    -3592    -1032      758 
    1070     -225    -2475    -4518    -5402    -4924    -3383    -1183 
    1065     2627     3049     2247      461    -1610    -3133    -3856 
   -4002    -3874    -3931    -4430    -5206    -6134    -7177    -7987 
   -8090    -7449    -6555    -6025    -6272    -7113    -7631    -7114 
   -5553    -3041       54     2725     3990     3589     2155      584 
    -662    -1647    -2806    -4368    -6299    -8588   -10623   -11560 
  -11503   -11250   -11387   -11753   -11642   -10768    -9666    -9036 
   -9086    -9537   -10239   -11354   -12648   -13443   -13373   -12325 
  -10191    -7096    -3395      521     4322     7711    10161    11021 
   10231     8540     6504     4009     1047    -1961    -4320    -5263 
   -4734    -3404    -1833     -626     -502    -1533    -3283    -5190 
   -6700    -7947    -9520   -11423   -12965   -13288   -11929    -9262 
   -6318    -3790    -1526      623     2214     2833     2506     1447 
     153     -923    -2181    -4014    -5594    -5773    -4384    -2193 
    -237     1046     2085     3238     4129     4066     2597     -214 
   -3881    -7510   -10049   -11133   -11125   -10390    -9108    -7470 
   -5751    -4297    -3285    -2282     -720     1236     3069     4494 
    5263     5259     4733     4086     3426     2488     1324      338 
    -529    -1671    -3028    -4139    -4685    -4711    -4469    -4336 
   -4598    -5086    -5501    -6104    -7215    -8613   -10056   -11479 
  -12745   -13760   -14500   -14778   -14222   -12756   -11072   -10111 
  -10107   -10513   -10381    -8964    -6366    -3481    -1498    -1140 
   -1873    -2401    -1899     -318     1873     3948     5313     5738 
    5433     4957     4496     3743     2574     1116     -460    -2058 
   -3748    -5549    -7447    -9387   -10875   -11396   -11277   -11130 
  -10901   -10304    -9236    -7615    -5725    -4147    -3187    -2716 
   -2261    -1664    -1448    -1858    -2327    -2250    -1343      594 
    3267     5701     6975     6670     4849     2193     -568    -3229 
   -5578    -7271    -8243    -8662    -8857    -9081    -9262    -9135 
   -8611    -7966    -7381    -6698    -6107    -6318    -7797   -10311 
  -13246   -15904   -17497   -17433   -15628   -12528    -8980    -5775 
   -3146    -1004      629     1613     1988     2284     2884     3285 
    2810     1205    -1410    -4256    -6335    -7356    -7528    -7024 
   -6258    -5879    -5976    -6245    -6686    -7271    -7499    -6959 
   -5958    -5298    -5470    -6158    -6718    -6887    -6575    -5641 
   -4294    -3076    -2421    -2270    -2031    -1200       -2      756 
     315    -1345    -3285    -4679    -5756    -6808    -7615    -8149 
   -8213    -7206    -5094    -2589     -612      322      405     -237 
   -1769    -3947    -6104    -7653    -8187    -7506    -5903    -4259 
   -3373    -3184    -3030    -2462    -1471     -386      329      434 
     116       -4      693     2015     3354     4739     6164     6744 
    5725     3375      631    -1675    -3392    -4866    -6455    -8222 
   -9783   -10737   -11091   -10978   -10532    -9776    -8487    -6671 
   -4919    -4052    -4521    -6054    -7958    -9528   -10183    -9589 
   -7801    -5188    -2180      706     2845     3977     4349     4305 
    3944     3298     2721     2650     2828     2400     1105     -348 
   -1271    -1497    -1198     -915    -1389    -2992    -5497    -8411 
  -11145   -12965   -13529   -13167   -12127   -10378    -8453    -7200 
   -6863    -7352    -8503    -9605    -9875    -9225    -7897    -6056 
   -4024    -2261    -1139     -842    -1163    -1563    -1601    -1271 
    -947     -851     -934    -1116    -1291    -1555    -2204    -3184 
   -4087    -4654    -4961    -5233    -5652    -6211    -6791    -7472 
   -8395    -9143    -9009    -8009    -6820    -5935    -5516    -5532 
   -5644    -5540    -5321    -5231    -5375    -5626    -5709    -5557 
   -5418    -5432    -5267    -4652    -3875    -3164    -2376    -1502 
    -649      247     1293     2501     3599     4045     3535     2220 
     413    -1591    -3609    -5625    -7597    -9358   -10675   -11257 
  -11011   -10173    -8923    -7308    -5495    -3854    -2789    -2520 
   -2960    -3682    -4330    -4872    -5293    -5553    -5514    -4876 
   -3632    -2255    -1243     -832    -1042    -1634    -2272    -2845 
   -3333    -3589    -3638    -3604    -3420    -2988    -2461    -1950 
   -1282     -533     -183     -549    -1706    -3473    -5358    -6868 
   -7739    -8024    -7952    -7677    -7366    -7150    -6930    -6535 
   -5867    -4909    -3824    -2839    -2010    -1333     -885     -688 
    -923    -1729    -2583    -2825    -2623    -2651    -3198    -4117 
   -5198    -6254    -6999    -7020    -6192    -4924    -3549    -2246 
   -1593    -2022    -3063    -3974    -4517    -4768    -4864    -5089 
   -5825    -7159    -8656    -9872   -10729   -11092   -10756    -9863 
   -8748    -7627    -6616    -5718    -4851    -4093    -3591    -3071 
   -1984     -264     1547     2884     3546     3439     2384      557 
   -1367    -2812    -3595    -3663    -2918    -1432      287     1587 
    2317     2682     2795     2678     2046      654    -1058    -2604 
   -3950    -5173    -6345    -7366    -7981    -8189    -8199    -8232 
   -8372    -8442    -8236    -7746    -7144    -6585    -6003    -5184 
   -4006    -2678    -1603     -924     -464      -17      533      864 
     228    -1568    -3942    -6303    -8390   -10149   -11443   -12020 
  -11944   -11610   -11372   -11237   -10879   -10138    -9171    -8112 
   -7007    -6043    -5481    -5433    -5829    -6469    -7052    -7277 
   -7096    -6751    -6462    -6222    -5971    -5752    -5541    -5131 
   -4288    -3153    -2236    -1877    -1948    -2061    -2077    -2195 
   -2506    -2894    -3323    -3780    -4126    -4293    -4351    -4407 
   -4665    -5184    -5620    -5613    -5065    -4077    -2941    -1976 
   -1286     -673        2      589     1008     1378     1710     1867 
    1818     1701     1512     1074      432     -124     -454     -621 
    -753    -1120    -1791    -2579    -3493    -4449    -5092    -5382 
   -5692    -6214    -6785    -7176    -7122    -6523    -5794    -5456 
   -5578    -5768    -5576    -4920    -4018    -3322    -3264    -3654 
   -4028    -4291    -4598    -5080    -5690    -6269    -6700    -6778 
   -6369    -5674    -5019    -4546    -4198    -3916    -3734    -3765 
