Origin Time       2025/01/13 21:19:00
Lat.              31.8
Long.             131.6
Depth. (km)       30
Mag.              6.9
Station Code      OIT016
Station Lat.      32.9748
Station Long.     131.9030
Station Height(m) 2
Record Time       2025/01/13 21:19:57
Sampling Freq(Hz) 100Hz
Duration Time(s)  124
Dir.              U-D
Scale Factor      7845(gal)/8223790
Max. Acc. (gal)   13.280
Last Correction   2025/01/13 21:19:56
Memo.             
[...]
   33621    33783    34072    34329    34585    34668    34213    33289 
   32251    31384    30990    30978    30946    31014    31455    31834 
   31796    31788    32166    32675    33133    33534    33682    33517 
   33301    33243    33430    33822    34157    34265    34141    33716 
   33192    33064    33219    32946    32089    31244    30987    31684 
   33389    35473    37061    37588    36875    35413    34061    33129 
   32528    32314    32298    32058    31672    31672    32281    33097 
   33662    34060    34406    34356    33853    33439    33335    33199 
   32888    32613    32414    32065    31455    30875    30847    31515 
   32413    33042    33436    33949    34618    35090    35202    35055 
   34662    34078    33443    32784    32211    31916    31899    32204 
   32881    33550    33835    33891    33897    33723    33270    32675 
   32356    32590    32985    33173    33446    34060    34865    35687 
   36296    36486    36400    36166    35623    34788    33941    33277 
   32935    32973    33119    32987    32444    31679    30996    30588 
   30504    30750    31286    31909    32370    32636    32826    33031 
   33432    34204    35000    35113    34408    33498    32977    32956 
   33183    33359    33502    33698    33683    33424    33482    33975 
   34294    34238    34229    34407    34442    34095    33658    33637 
   34002    34379    34786    35105    34855    34269    33898    33436 
   32613    31973    31851    31992    32343    33114    34006    34171 
   33426    32597    32144    31807    31596    31615    31511    31228 
   31261    31754    32336    32694    32748    32648    32649    32834 
   33176    33662    34099    34227    34057    33701    33262    33096 
   33461    33999    34287    34450    34688    34866    34940    35046 
   35064    34743    34161    33562    32927    32175    31504    31122 
   30977    31050    31336    31537    31498    31486    31654    31868 
   32092    32347    32355    31962    31733    32131    32805    33582 
   34689    35768    36414    36865    37093    36801    36244    35731 
   34966    33732    32493    31704    31028    29984    28884    28285 
   28258    28620    29135    29531    29799    30123    30431    30526 
   30485    30588    31052    31939    33203    34697    35970    36652 
   37088    37586    37712    37255    36675    36188    35618    35023 
   34545    34063    33558    33146    32660    31972    31256    30577 
   29918    29458    29150    28642    28012    27696    27688    27808 
   28209    28945    29802    30703    31725    32822    33555    33498 
   32983    32746    32971    33366    33840    34406    34834    34990 
   35112    35460    36032    36620    37054    37385    37566    37227 
   36157    34750    33712    33426    33629    33822    33772    33382 
   32707    32094    31715    31473    31448    31765    32278    32691 
   32826    32692    32333    31865    31660    31930    32335    32525 
   32578    32645    32706    32652    32343    31909    31785    32007 
   32354    33038    34157    35172    35586    35452    35268    35496 
   35912    36081    36181    36390    36481    36464    36448    36192 
   35540    34649    33743    32999    32502    32331    32517    32757 
   32724    32557    32570    32791    33112    33485    33828    34078 
   34317    34531    34546    34285    33902    33677    33741    33887 
   33813    33524    33250    32967    32489    31934    31469    31081 
   30996    31499    32343    33119    33752    34264    34653    34830 
   34614    34096    33565    33014    32448    32147    32123    32077 
   32039    32169    32225    32084    32061    32260    32597    33250 
   34218    35136    35762    36086    36185    36074    35668    35202 
   35059    34998    34619    34149    33848    33544    33181    32894 
   32749    32825    33042    33177    33220    33216    33010    32471 
   31650    30758    30118    29853    29843    30099    30580    30981 
   31314    31804    32277    32701    33413    34334    35051    35433 
   35530    35472    35490    35660    35865    36088    36409    36823 
   37376    38146    38888    39172    38871    38194    37497    37054 
   36755    36200    35336    34476    33566    32267    30743    29466 
   28560    27981    27878    28335    29107    29866    30454    30801 
   30859    30747    30724    30974    31407    31818    32192    32683 
   33493    34697    35903    36610    36976    37442    37855    37866 
   37654    37536    37415    37061    36498    35820    34997    33980 
   32829    31617    30296    28949    27986    27646    27768    28345 
   29363    30352    31077    31756    32173    31989    31656    31669 
   31665    31305    31032    31271    31784    32304    32918    33616 
   34318    35178    36089    36656    36945    37189    37227    37030 
   36771    36328    35606    34885    34349    33856    33280    32664 
   32120    31760    31738    32147    32670    32725    32273    31745 
   31213    30595    30145    30036    30231    30723    31276    31536 
   31453    31190    30915    30881    31224    31700    32082    32437 
   32706    32678    32410    32039    31540    30987    30470    30034 
   29982    30528    31440    32510    33650    34564    35181    35829 
   36587    37254    37755    38020    37936    37597    37158    36644 
   36116    35800    35945    36441    36883    37098    37208    37249 
   37118    36842    36590    36396    36169    35784    35056    34113 
   33457    33210    33052    32965    33056    33056    32896    32934 
   33261    33648    33828    33524    32768    31858    30939    30159 
   29852    30169    30923    31834    32616    33060    33357    33948 
   34892    35870    36763    37616    38368    39001    39510    39710 
   39595    39391    39094    38689    38372    38146    37768    36969 
   35581    33922    32563    31531    30549    29745    29331    28969 
   28312    27700    27531    27456    27085    26624    26292    25995 
   25714    25659    25995    26703    27749    29184    30943    32809 
   34468    35486    35641    35186    34358    33102    31500    29945 
   28831    28313    28152    27949    27622    27418    27564    28039 
   28564    28922    29257    29771    30433    31170    31989    32848 
   33785    34925    36205    37458    38553    39199    39185    38696 
   38026    37107    35745    34088    32356    30531    28815    27596 
   26882    26511    26547    27021    27751    28603    29489    30192 
   30657    31243    32247    33509    34665    35619    36574    37542 
   38257    38661    38749    38330    37561    36988    36879    37066 
   37235    37160    36961    36937    37110    37308    37548    38016 
   38755    39395    39501    39248    39006    38759    38574    38662 
   38831    38765    38402    37708    36675    35403    33961    32548 
   31577    31293    31575    32128    32676    33164    33690    34219 
   34597    34666    34244    33311    32124    30936    29801    28719 
   27865    27427    27211    26935    26802    27041    27297    27244 
   27044    26774    26356    26040    26109    26428    26824    27427 
   28356    29415    30360    31109    31635    31973    32204    32341 
   32402    32409    32289    32074    32034    32196    32115    31527 
   30728    30075    29640    29440    29524    29859    30411    31315 
   32717    34427    36159    37818    39324    40541    41395    41889 
   42087    42009    41646    41073    40281    39085    37563    36219 
   35378    34817    34176    33323    32292    31151    29975    28871 
   27993    27463    27361    27706    28328    29088    30134    31602 
   33359    35237    37085    38739    40180    41389    42157    42221 
   41428    39962    38365    36953    35629    34427    33512    32616 
   31363    29862    28339    26754    25166    23886    23195    23195 
   23797    24895    26422    28081    29477    30592    31652    32728 
   33843    35089    36393    37455    38175    38834    39711    40767 
   41756    42477    42989    43378    43321    42562    41370    39939 
   38233    36570    35370    34543    33789    33126    32873    33204 
   33806    34223    34383    34415    34261    33893    33632    33802 
   34352    35039    35661    36092    36335    36440    36421    36282 
   35985    35457    34763    34079    33508    33000    32310    31280 
   30299    29893    29957    30032    29965    29895    29914    29816 
   29241    28314    27611    27382    27540    28048    28709    29223 
   29662    30186    30696    31101    31209    30854    30487    30543 
   30827    31347    32333    33593    34855    35958    36737    37197 
   37382    37293    37026    36629    36077    35536    35239    35199 
   35255    35278    35317    35479    35707    35930    36216    36489 
   36323    35503    34503    33847    33463    33112    32779    32440 
   32031    31726    31765    32022    32155    32082    31936    31807 
   31652    31325    30838    30519    30643    31031    31387    31795 
   32422    33174    33882    34400    34628    34730    34940    35154 
   35203    35249    35414    35496    35310    34859    34188    33250 
   32082    30927    29907    28880    27804    26900    26496    26688 
   27125    27545    28039    28441    28489    28588    29258    30264 
   31153    31920    32697    33485    34250    34963    35646    36324 
   36921    37409    37870    38229    38233    37616    36189    34184 
   32278    30937    30102    29578    29268    29143    29277    29718 
   30468    31693    33498    35541    37405    39005    40344    41314 
   41802    41810    41492    41115    40698    40014    39179    38493 
   37844    37130    36636    36332    35718    34692    33696    32935 
   32200    31378    30700    30392    30288    29970    29324    28663 
   28174    27745    27440    27542    28069    28671    29127    29508 
   29822    29991    30009    29802    29276    28668    28476    28877 
   29619    30543    31583    32389    32763    33011    33300    33426 
   33502    33941    34639    35105    35245    35325    35475    35610 
   35544    35183    34670    34182    33736    33338    33048    32894 
   32848    32836    32856    33073    33555    34029    34240    34257 
   34233    34156    33966    33667    33331    33115    33258    33957 
   35125    36333    37222    37860    38396    38755    38902    38867 
   38433    37471    36324    35216    34056    33075    32549    32221 
   31912    31885    32158    32366    32358    32266    32136    31947 
   31668    31087    30146    29106    28050    26904    25903    25400 
   25436    26046    27425    29488    31803    33937    35648    36799 
   37211    36918    36127    34927    33536    32447    32020    32267 
   33035    34159    35471    36833    38149    39411    40663    41872 
   42978    43920    44560    44736    44371    43494    42238    40676 
   38816    36891    35147    33500    31891    30545    29639    29079 
   28514    27662    26566    25340    24147    23232    22702    22599 
   23001    23868    25011    26365    27961    29732    31522    33112 
   34258    34812    34817    34566    34468    34712    35027    35016 
   34754    34587    34442    34123    33895    34013    34356    34854 
   35484    35854    35533    34712    33868    33172    32707    32732 
   33424    34663    36120    37512    38755    39864    40825    41534 
   41875    41860    41559    40983    40036    38669    37008    35178 
   33226    31279    29411    27639    26110    24929    24101    23714 
   23838    24331    24841    25069    25024    24865    24613    24314 
   24229    24553    25189    25918    26653    27453    28344    29326 
   30476    31847    33365    34812    35965    36944    38034    39091 
   39758    40050    40147    40092    39923    39725    39498    39226 
   38917    38523    38070    37694    37439    37278    37227    37280 
   37449    37658    37563    36988    36246    35514    34479    33026 
   31633    30739    30331    30306    30693    31456    32381    33237 
   33885    34294    34564    34724    34612    34109    33338    32447 
   31480    30589    30009    29767    29700    29683    29605    29349 
   28958    28583    28308    28204    28378    28895    29748    30874 
   32117    33319    34407    35290    35784    35949    36190    36697 
   37158    37349    37453    37586    37585    37405    37199    36937 
   36485    35919    35403    34940    34418    33751    32948    32043 
   31047    30082    29344    28845    28443    28111    27981    28181 
   28638    29220    29971    30871    31652    32184    32603    32913 
   32972    32763    32354    31843    31494    31567    31995    32431 
   32611    32536    32364    32224    32103    31942    31773    31752 
   31984    32324    32603    32869    33232    33627    33891    34047 
   34294    34749    35375    36202    37363    38853    40428    41855 
   43035    43823    44050    43789    43289    42653    41820    40737 
   39425    37937    36301    34515    32737    31298    30316    29616 
   29164    29031    29011    28910    28914    29182    29589    30037 
   30646    31499    32373    32846    32738    32200    31365    30269 
   28983    27637    26393    25427    24834    24547    24432    24567 
   25159    26175    27295    28312    29280    30289    31395    32729 
   34348    35959    37168    38017    38853    39719    40501    41419 
   42655    43941    45019    45940    46711    47183    47191    46666 
   45746    44610    43239    41650    39999    38252    36292    34229 
   32155    30071    28177    26708    25571    24579    23834    23588 
   23882    24513    25288    26129    26900    27471    27967    28659 
   29629    30736    31810    32844    33793    34415    34663    34813 
   34994    35132    35201    35205    35168    35075    34678    33878 
   33034    32344    31675    31182    31113    31313    31595    32055 
   32746    33504    34121    34546    34987    35596    36126    36328 
   36329    36229    35892    35353    34808    34240    33529    32698 
   31828    30986    30281    29762    29288    28687    27919    26977 
   25884    24876    24263    24132    24413    25104    26192    27540 
   29058    30789    32753    34843    36819    38481    39760    40660 
   41204    41362    41146    40736    40221    39491    38497    37293 
   35883    34373    33076    32209    31772    31652    31657    31626 
   31590    31650    31776    31873    31982    32232    32555    32783 
   33021    33459    34005    34489    35031    35741    36437    36873 
   37018    36946    36629    36054    35440    34985    34565    33957 
   33133    32221    31403    30743    30138    29551    29126    28968 
   29035    29235    29511    29828    30188    30613    31056    31491 
   31927    32167    32061    31860    31819    31864    31934    32124 
   32385    32586    32679    32545    32121    31668    31446    31365 
   31318    31376    31483    31522    31607    31889    32327    32871 
   33509    34106    34603    35079    35432    35522    35530    35629 
   35700    35617    35399    35098    34784    34515    34303    34213 
   34414    34985    35785    36647    37494    38299    39101    39914 
   40533    40668    40227    39341    38217    36977    35716    34543 
   33446    32364    31185    29828    28575    27743    27461    27811 
   28464    29056    29670    30302    30809    31179    31499    31872 
   32243    32517    32707    32914    33170    33421    33612    33721 
   33828    33836    33490    32840    32148    31527    30908    30302 
   29798    29458    29313    29288    29311    29346    29242    28945 
   28561    28116    27585    27143    26914    26731    26612    26766 
   27055    27418    28078    29034    30172    31421    32653    33795 
   34836    35718    36367    36845    37143    37164    36977    36678 
   36337    36175    36366    36792    37261    37696    38070    38445 
   38869    39312    39754    40163    40452    40585    40668    40751 
   40698    40471    40135    39718    39243    38851    38677    38546 
   38222    37759    37266    36732    36167    35584    34985    34414 
   33876    33316    32717    32059    31247    30281    29312    28406 
   27615    27036    26717    26611    26638    26793    27095    27541 
   28115    28722    29300    29938    30670    31317    31702    31854 
   31853    31661    31409    31245    31048    30855    30789    30813 
   30939    31162    31541    32139    32837    33461    33925    34240 
   34380    34398    34492    34782    35252    35770    36174    36429 
   36612    36736    36738    36597    36390    36223    36036    35702 
   35221    34659    33993    33214    32517    32016    31560    31183 
   31020    30925    30869    31045    31503    32117    32745    33436 
   34311    35245    35966    36320    36398    36370    36235    35880 
   35360    34901    34553    34218    33995    34033    34219    34380 
   34514    34609    34645    34661    34616    34380    33970    33589 
   33331    33141    33092    33234    33408    33419    33227    32957 
   32620    32103    31495    30923    30376    29920    29616    29386 
   29153    29026    29137    29297    29288    29184    29172    29336 
   29636    30017    30472    31000    31611    32374    33332    34272 
   34947    35406    35716    35739    35469    35113    34738    34287 
   33844    33571    33463    33369    33207    33034    32879    32722 
   32707    32985    33377    33590    33613    33569    33453    33282 
   33189    33158    33091    33011    32984    32976    32904    32748 
   32582    32516    32598    32757    32956    33261    33670    34102 
   34589    35213    35897    36514    37077    37604    37991    38156 
   38022    37511    36644    35560    34438    33399    32497    31783 
   31333    31275    31644    32235    32830    33440    34115    34769 
   35280    35594    35661    35418    34923    34335    33700    32981 
   32266    31658    31143    30670    30231    29736    29039    28194 
   27411    26771    26230    25822    25629    25694    26028    26578 
   27271    28170    29297    30456    31503    32536    33686    34890 
   35981    36875    37512    37793    37723    37440    37056    36610 
   36162    35727    35208    34576    33907    33188    32356    31429 
   30524    29859    29527    29390    29382    29637    30146    30763 
   31491    32308    33108    33833    34398    34821    35195    35521 
   35749    35903    36120    36396    36551    36537    36456    36351 
   36175    35965    35780    35525    35128    34697    34284    33778 
   33173    32688    32513    32649    32999    33498    34095    34676 
   35189    35646    36076    36541    37075    37616    38065    38296 
   38186    37737    37071    36208    35063    33681    32278    31044 
   30068    29404    29066    28983    29026    29143    29319    29484 
   29604    29713    29822    29910    29956    29963    29990    30078 
   30194    30330    30578    30981    31414    31777    32116    32468 
   32795    33126    33548    34082    34672    35262    35793    36155 
   36243    36082    35802    35495    35105    34510    33758    33053 
   32506    32069    31712    31471    31301    31090    30856    30774 
