Origin Time       2025/01/13 21:19:00
Lat.              31.8
Long.             131.6
Depth. (km)       30
Mag.              6.9
Station Code      OIT015
Station Lat.      32.9733
Station Long.     131.3998
Station Height(m) 267
Record Time       2025/01/13 21:19:54
Sampling Freq(Hz) 100Hz
Duration Time(s)  117
Dir.              E-W
Scale Factor      7845(gal)/8223790
Max. Acc. (gal)   17.588
Last Correction   2025/01/13 21:19:54
Memo.             
[...]
   -7128    -7951    -8201    -7734    -6482    -4725    -3954    -5301 
   -7479    -8187    -6654    -4241    -2893    -2914    -3295    -3812 
   -4769    -5582    -5764    -5937    -6652    -7722    -8849    -9838 
  -10503   -10500    -9354    -7562    -6490    -6265    -6151    -6601 
   -7757    -7820    -5825    -3538    -2677    -2605    -2274    -2317 
   -3272    -3663    -2419    -1263    -2442    -5634    -8434    -9196 
   -8608    -7942    -7219    -6331    -5859    -6043    -6583    -7005 
   -6714    -5937    -5647    -5799    -5748    -5833    -6447    -7167 
   -7510    -7146    -6235    -5614    -5713    -6226    -6860    -7234 
   -6932    -6093    -4997    -3863    -3593    -4869    -6637    -7150 
   -6324    -5775    -6305    -7105    -7537    -7680    -7545    -7079 
   -6408    -5935    -6220    -7133    -7655    -7318    -6691    -6084 
   -5455    -5259    -5761    -6309    -6183    -5362    -4141    -2841 
   -2299    -3289    -5069    -6107    -6354    -6979    -7894    -7703 
   -6303    -5352    -5706    -6266    -5761    -4432    -3541    -3825 
   -5069    -6840    -8576    -9038    -7372    -4985    -4326    -5622 
   -7092    -7904    -8533    -8995    -8689    -7391    -5641    -4675 
   -5429    -7198    -8243    -7681    -5960    -4079    -3045    -3427 
   -4843    -6075    -6369    -6507    -7450    -8556    -8606    -7393 
   -5455    -3658    -2782    -2840    -3478    -4299    -4792    -5393 
   -7183    -9486   -10303    -9274    -7777    -6775    -6215    -5863 
   -5871    -6334    -6693    -6635    -6933    -7726    -7438    -5343 
   -3184    -2623    -3381    -4436    -4982    -4831    -4542    -4483 
   -4612    -5046    -5744    -6378    -6782    -6988    -7029    -6802 
   -6242    -5645    -5287    -5161    -5560    -6539    -6895    -5742 
   -4386    -4641    -5972    -6281    -5463    -5564    -6928    -7533 
   -6589    -5584    -5717    -6451    -6574    -5794    -5198    -5691 
   -6401    -6380    -6415    -7121    -7576    -6848    -5085    -3488 
   -3303    -4191    -4810    -4681    -4270    -4194    -4681    -5202 
   -5144    -4540    -3715    -2941    -2448    -2486    -3354    -4796 
   -5857    -6177    -6380    -6843    -7295    -7572    -7857    -8141 
   -8068    -7555    -7198    -7458    -7786    -7458    -6744    -6134 
   -5367    -4461    -4213    -4774    -5420    -5680    -5420    -4638 
   -3909    -4162    -5535    -6902    -7079    -6192    -5211    -4689 
   -4580    -4617    -4599    -4754    -5298    -5695    -5408    -4927 
   -4926    -5364    -5979    -6428    -6118    -4838    -3091    -1894 
   -2463    -4806    -7122    -8112    -8220    -8043    -7686    -7466 
   -7570    -7551    -7109    -6793    -7002    -7006    -6195    -5508 
   -6312    -8301    -9582    -9009    -7456    -6470    -6581    -7028 
   -6701    -5676    -5468    -6960    -9055   -10162    -9919    -8934 
   -7766    -6624    -5721    -5386    -5556    -5595    -5221    -5066 
   -5813    -7272    -8838   -10303   -11333   -11094    -9454    -7380 
   -5979    -6226    -8476   -11457   -13150   -12725   -11053    -9801 
   -9987   -11010   -11373   -10430    -9107    -8937   -10292   -11813 
  -12117   -11264    -9994    -8730    -7519    -6262    -5205    -4888 
   -5485    -6685    -7751    -7700    -6247    -4347    -3249    -3369 
   -4067    -4325    -3902    -3461    -3595    -4415    -5526    -6259 
   -6465    -6409    -6145    -5782    -5688    -6180    -7253    -8361 
   -8839    -8611    -8070    -7639    -7604    -7843    -7916    -7761 
   -7645    -7308    -6527    -6192    -7069    -8390    -8955    -8550 
   -7788    -7426    -7636    -7753    -7365    -6963    -6893    -6872 
   -6793    -6817    -6639    -5490    -3395    -1610     -889     -383 
     741     2058     2967     3385     3271     2682     2064     1876 
    1966     1702     1035      603      444       20     -483     -490 
    -371     -949    -1995    -2683    -3256    -4352    -5235    -4853 
   -3753    -3303    -3874    -4693    -5112    -5308    -5632    -5931 
   -6000    -5965    -5668    -4689    -3480    -3138    -3661    -3971 
   -3775    -3581    -3476    -3515    -4045    -4764    -4698    -3343 
   -1475     -814    -2205    -4422    -5711    -5817    -5543    -5192 
   -4395    -3100    -2069    -1980    -2243    -1779     -831     -523 
   -1086    -1858    -2436    -2801    -2967    -2979    -2839    -2762 
   -3608    -5877    -8459    -9725    -9456    -8764    -8483    -8402 
   -8228    -8316    -8873    -9468    -9767    -9796    -9660    -9656 
  -10233   -11408   -12444   -12563   -11812   -10729    -9661    -8896 
   -8947   -10191   -12237   -14029   -14816   -14872   -14864   -14955 
  -15121   -15514   -15997   -16110   -15525   -14218   -12753   -12050 
  -12163   -12046   -10957    -9309    -7889    -6970    -6496    -6612 
   -7358    -8183    -8509    -8475    -8595    -9082    -9822   -10723 
  -11898   -13340   -14582   -15039   -14428   -13070   -11986   -11866 
  -12240   -12430   -12206   -11421   -10254    -9244    -8594    -8073 
   -7422    -6430    -4989    -3350    -2054    -1368    -1066     -886 
    -793     -739     -699     -827    -1213    -1752    -2323    -2910 
   -3620    -4568    -5715    -6945    -8212    -9377   -10133   -10315 
  -10142    -9999    -9948    -9782    -9524    -9262    -8878    -8440 
   -8290    -8604    -9232    -9707    -9553    -8775    -7530    -5823 
   -4172    -3335    -3094    -2425     -823     1310     3501     5717 
    7803     9271     9996    10261    10239    10003     9528     8716 
    7898     7538     7223     6022     4037     2473     2018     2157 
    2101     1586      691     -534    -1917    -3079    -3878    -4538 
   -5171    -5718    -6259    -6959    -7754    -8310    -8343    -7938 
   -7452    -7198    -7312    -7728    -8251    -8608    -8496    -7921 
   -7431    -7408    -7468    -7125    -6467    -5606    -4347    -2899 
   -1987    -1981    -2427    -2353    -1333     -194       66     -540 
   -1518    -2679    -3944    -5238    -6627    -8127    -9576   -10716 
  -11232   -10967   -10146    -9300    -8895    -8911    -9223   -10185 
  -11932   -13702   -14798   -15276   -15161   -14239   -12711   -11176 
  -10208   -10011   -10177   -10249   -10303   -10359    -9844    -8371 
   -6334    -4222    -2303     -974     -530    -1077    -2899    -5923 
   -9038   -10787   -10588    -9126    -7749    -7530    -8648   -10334 
  -11677   -12480   -12954   -13127   -13315   -13941   -14362   -13540 
  -11913   -11028   -11499   -12478   -13135   -13571   -13888   -13424 
  -11583    -8745    -5930    -3894    -2666    -1975    -1908    -2359 
   -2367    -1204      502     1763     2493     2945     2994     2647 
    2308     2270     2573     2960     2914     2404     2027     2025 
    2111     2265     2756     3477     3894     3676     2988     2133 
    1354     1027     1287     1422      571    -1231    -3416    -5481 
   -6920    -7572    -8148    -9752   -12609   -15593   -17494   -18189 
  -18154   -17686   -16993   -16244   -15570   -15364   -16060   -17275 
  -17926   -17381   -15708   -13279   -10883    -9418    -9174    -9784 
  -10532   -10822   -10588    -9733    -8131    -6365    -4889    -3211 
   -1088      909     2150     2327     1632      648     -303    -1237 
   -2014    -2347    -2270    -2220    -2654    -3600    -4876    -6628 
   -8830   -10658   -11236   -10669    -9833    -9364    -9278    -9493 
  -10054   -10844   -11526   -11749   -11362   -10543    -9620    -8758 
   -7867    -6813    -5811    -5167    -4599    -3677    -2764    -2500 
   -2749    -2866    -2560    -2320    -2917    -4253    -5599    -6874 
   -8260    -9335    -9826   -10145   -10604   -11080   -11508   -11848 
  -11961   -12027   -12316   -12596   -12532   -12295   -12411   -13069 
  -13694   -13478   -12314   -10782    -9468    -8893    -9437   -10678 
  -11573   -11488   -10616    -9522    -8432    -7277    -6169    -5090 
   -3630    -1672      244     1404     1428      596     -419    -1169 
   -1510    -1436    -1012     -488     -433    -1209    -2371    -3080 
   -3018    -2562    -2280    -2560    -3451    -4488    -5020    -4966 
   -4812    -4803    -4835    -5076    -5718    -6459    -6966    -7217 
   -7167    -6771    -6330    -6351    -7164    -8596    -9879   -10257 
   -9741    -8748    -7376    -5625    -3996    -3168    -3021    -2747 
   -1993    -1039      -62      853     1435     1509     1088      257 
    -542     -633      133     1151     1468      402    -1641    -3442 
   -4294    -4356    -4217    -4480    -5289    -6480    -8044    -9876 
  -11389   -12090   -12272   -12559   -13147   -13771   -14027   -13720 
  -12853   -11565   -10218    -9109    -8199    -7387    -6635    -5713 
   -4498    -3445    -3094    -3242    -3069    -2020     -341     1193 
    1935     1830     1270      591     -128     -951    -1918    -3006 
   -4020    -4495    -4083    -3245    -3026    -3802    -4985    -6091 
   -7198    -8469    -9801   -10782   -11043   -10719   -10395   -10597 
  -11429   -12595   -13730   -14663   -15396   -15973   -16294   -16067 
  -15113   -13527   -11588    -9760    -8407    -7302    -5798    -3586 
   -1142      579     1036      745      680     1185     1763     1790 
    1069      -48     -845     -900     -664     -878    -1526    -1973 
   -1877    -1487    -1333    -1769    -2521    -3006    -3055    -2956 
   -3160    -3916    -4891    -5553    -5757    -5649    -5522    -5625 
   -5687    -5327    -4865    -5024    -6058    -7636    -9101    -9842 
   -9798    -9350    -8842    -8591    -8784    -9090    -9050    -8878 
   -9228   -10141   -10993   -11412   -11489   -11329   -10906   -10111 
   -9225    -9111   -10022   -11024   -11246   -10693    -9659    -8374 
   -7254    -6872    -7491    -8710    -9952   -11237   -12741   -14165 
  -15149   -15660   -15782   -15600   -15128   -14330   -13490   -13107 
  -13300   -13786   -14108   -13730   -12428   -10565    -8776    -7402 
   -6274    -5050    -3604    -2023     -394     1231     2732     4074 
    5506     7250     9000    10116    10323    10021     9749     9470 
    8842     7881     6755     5497     4268     3391     2891     2442 
    1865     1302      957      982     1252     1232      580     -459 
   -1532    -2420    -3032    -3623    -4450    -5324    -6030    -6725 
   -7704    -9123   -10856   -12495   -13672   -14427   -15117   -16019 
  -17101   -18088   -18573   -18372   -18064   -18458   -19440   -20289 
  -20683   -20688   -20348   -19589   -18341   -16707   -14854   -12907 
  -11025    -9335    -7825    -6274    -4437    -2467     -884     -121 
    -197     -591     -588       31      793     1096      805      221 
    -326     -606     -480     -120      130      222      156     -328 
   -1231    -2111    -2756    -3302    -3792    -4261    -4930    -5815 
   -6417    -6137    -4976    -3604    -2698    -2388    -2462    -2855 
   -3554    -4340    -4959    -5221    -5019    -4486    -4020    -4062 
   -4783    -5937    -7067    -7823    -8048    -7892    -7781    -7882 
   -7863    -7480    -6947    -6648    -6818    -7569    -8980   -10974 
  -13171   -15044   -16117   -16248   -15961   -15917   -16227   -16717 
  -17124   -16947   -15867   -14165   -12471   -11344   -10883   -10721 
  -10493   -10091    -9537    -8919    -8237    -7311    -6076    -4868 
   -4179    -4041    -3829    -3014    -1918    -1155     -688      -89 
     792     1871     3019     4106     4941     5252     5036     4785 
    5016     5795     6882     7889     8243     7530     5919     4044 
    2439     1156      -40    -1324    -2789    -4444    -6016    -7346 
   -8851   -10917   -13023   -14208   -14347   -14256   -14538   -15043 
  -15414   -15623   -15730   -15471   -14503   -12822   -10813    -8911 
   -7233    -5713    -4396    -3211    -1826     -174     1283     2111 
    2303     2122     1884     1768     1629     1224      373    -1057 
   -2862    -4526    -5829    -6836    -7626    -8413    -9383   -10540 
  -12008   -13830   -15619   -16911   -17385   -16876   -15781   -14979 
  -14982   -15421   -15488   -14890   -14106   -13459   -12672   -11601 
  -10536    -9566    -8305    -6411    -4050    -1628      604     2450 
    3705     4395     4662     4475     3796     2848     1809      523 
   -1189    -3121    -4799    -5890    -6569    -7400    -8584    -9910 
  -11449   -13296   -14955   -15738   -15462   -14512   -13413   -12492 
  -11842   -11358   -10916   -10494   -10187   -10192   -10563   -10955 
  -10968   -10567   -10015    -9603    -9386    -9119    -8440    -7160 
   -5512    -3950    -2693    -1714     -892     -171      238      249 
     130     -135     -996    -2447    -3819    -4560    -4633    -4209 
   -3476    -2729    -2494    -3277    -4927    -6538    -7252    -7048 
   -6727    -6898    -7141    -6686    -5431    -3808    -2249    -1074 
    -615    -1148    -2559    -4168    -5386    -6284    -6999    -7261 
   -7055    -6959    -7352    -7935    -8259    -8163    -7663    -6779 
   -5521    -4110    -2933    -2173    -1900    -2403    -3858    -5896 
   -7938    -9688   -11111   -12214   -12856   -12792   -12231   -11896 
  -12287   -13455   -15244   -17181   -18748   -19738   -19966   -19286 
  -17768   -15506   -12853   -10589    -9146    -8307    -7788    -7415 
   -7052    -6586    -5732    -4220    -2200       70     2405     4518 
    6188     7234     7449     7052     6759     7253     8654    10431 
   11865    12356    11468     9312     6628     4090     1964      413 
    -573    -1395    -2559    -4270    -6419    -8818   -11334   -13905 
  -16416   -18601   -20259   -21308   -21494   -20513   -18550   -16308 
  -14434   -13004   -11595    -9864    -7898    -5956    -4158    -2478 
    -936      214      684      587      321      144      253      615 
     587     -360    -1991    -3955    -6104    -8133    -9744   -10956 
  -12027   -13297   -14785   -15854   -15882   -15066   -14075   -13271 
  -12714   -12573   -12908   -13306   -13189   -12262   -10602    -8496 
   -6223    -4016    -2015     -125     1761     3379     4345     4684 
    4747     4822     5030     5355     5529     5221     4322     2964 
    1343     -325    -1795    -2717    -2708    -1729     -278      954 
    1617     1715     1173      -48    -1474    -2428    -2704    -2594 
   -2419    -2170    -1737    -1341    -1544    -2899    -5517    -8733 
  -11542   -13528   -14960   -16220   -17477   -18586   -19388   -20131 
  -21158   -22414   -23615   -24441   -24482   -23584   -22133   -20665 
  -19471   -18573   -17778   -16754   -15203   -12974   -10125    -7038 
   -4367    -2573    -1574     -918     -238      378      545      195 
    -210     -295     -141      203      940     1985     2776     2813 
    2154     1232      319     -399     -718     -791     -992    -1339 
   -1621    -1988    -2774    -3788    -4428    -4519    -4499    -4776 
   -5215    -5455    -5474    -5454    -5333    -5003    -4665    -4692 
   -5248    -6324    -7885    -9737   -11512   -13132   -14821   -16638 
  -18446   -20028   -21116   -21506   -20956   -19404   -17513   -16054 
  -14994   -13918   -12617   -11005    -9154    -7184    -5066    -2813 
    -441     2110     4783     7285     9126     9936     9805     9115 
    8302     7636     7083     6531     5890     4989     3639     1760 
    -396    -2303    -3527    -3974    -4010    -4214    -4773    -5445 
   -6129    -7002    -8116    -9185    -9972   -10481   -10729   -10783 
  -10879   -11082   -11091   -10741   -10323   -10161   -10276   -10461 
  -10293    -9464    -8230    -7199    -6821    -7177    -8002    -8945 
   -9737   -10184   -10326   -10473   -10802   -11202   -11404   -11183 
  -10650   -10216   -10098   -10106   -10025    -9811    -9378    -8577 
   -7495    -6485    -5827    -5502    -5300    -5135    -5104    -5076 
   -4704    -4081    -3667    -3507    -3121    -2311    -1489    -1088 
   -1221    -1800    -2509    -2999    -3164    -3021    -2628    -2191 
   -1995    -2158    -2570    -3125    -3856    -4781    -5722    -6340 
   -6373    -5908    -5312    -4943    -5059    -5699    -6627    -7642 
   -8793   -10014   -10856   -10870   -10007    -8590    -7118    -6045 
   -5587    -5568    -5379    -4557    -3423    -2635    -2334    -2131 
   -1665    -1108    -1021    -1634    -2668    -3789    -4739    -5352 
   -5751    -6272    -7145    -8198    -8964    -9267    -9358    -9490 
   -9809   -10362   -11079   -11742   -12025   -11800   -11350   -10990 
  -10602   -10037    -9499    -9049    -8324    -7071    -5478    -3979 
   -2795    -1657     -265     1224     2473     3199     3223     2587 
    1506      259     -843    -1614    -1984    -1942    -1707    -1759 
   -2349    -3308    -4517    -5996    -7520    -8721    -9440    -9864 
  -10401   -11314   -12455   -13468   -14161   -14602   -14933   -15211 
  -15304   -14868   -13649   -11794    -9726    -7807    -6134    -4719 
   -3692    -3075    -2686    -2436    -2212    -1606     -295     1412 
    2755     3175     2724     1858      797     -649    -2425    -3979 
   -4980    -5710    -6462    -7064    -7345    -7560    -8036    -8765 
   -9536   -10235   -10813   -11192   -11358   -11418   -11626   -12236 
  -13165   -14053   -14708   -15176   -15557   -15932   -16243   -16156 
  -15277   -13576   -11587    -9944    -8847    -8203    -7879    -7722 
   -7557    -7133    -6243    -4897    -3127    -1062      627     1147 
     465     -650    -1459    -1818    -1891    -1814    -1736    -1653 
   -1476    -1194     -733     -220     -166     -718    -1410    -1776 
   -1617    -1001     -160      653     1111      939      244     -735 
   -1972    -3416    -4932    -6435    -7658    -8282    -8436    -8479 
   -8545    -8702    -9151   -10019   -11140   -12220   -13035   -13354 
  -13032   -12258   -11383   -10632   -10039    -9663    -9717   -10257 
  -10864   -10964   -10353    -9262    -7923    -6407    -4986    -4023 
   -3442    -2891    -2189    -1336     -384      594     1506     2142 
    2343     2285     2230     2184     2050     1767     1277      506 
    -591    -1884    -3061    -3904    -4441    -4846    -5294    -5918 
   -6791    -7948    -9366   -10943   -12422   -13387   -13562   -13113 
  -12486   -11978   -11627   -11395   -11179   -10690    -9772    -8714 
   -7816    -7007    -6228    -5593    -4954    -4151    -3595    -3892 
   -5069    -6601    -7824    -8267    -7951    -7341    -6889    -6875 
   -7376    -8102    -8592    -8637    -8337    -7897    -7375    -6678 
   -5937    -5551    -5697    -6211    -6837    -7184    -7052    -6790 
   -6758    -6930    -7144    -7257    -7236    -7261    -7528    -8040 
   -8658    -9266    -9806   -10206   -10450   -10683   -11109   -11772 
  -12425   -12687   -12349   -11392    -9942    -8398    -7032    -5649 
   -4117    -2625    -1282     -130      697     1162     1354     1385 
    1273      951      548      336      197     -145     -611    -1088 
   -1611    -2026    -2000    -1409     -672     -433     -783    -1246 
   -1451    -1329    -1001     -777     -900    -1341    -1987    -2735 
   -3499    -4225    -4788    -5073    -5196    -5486    -6242    -7449 
   -8788    -9913   -10660   -11105   -11442   -11875   -12572   -13454 
  -14180   -14577   -14708   -14553   -14092   -13520   -13041   -12679 
