Origin Time       2025/01/13 21:19:00
Lat.              31.8
Long.             131.6
Depth. (km)       30
Mag.              6.9
Station Code      OIT009
Station Lat.      33.2568
Station Long.     131.3443
Station Height(m) 455
Record Time       2025/01/13 21:20:00
Sampling Freq(Hz) 100Hz
Duration Time(s)  157
Dir.              N-S
Scale Factor      7845(gal)/8223790
Max. Acc. (gal)   31.372
Last Correction   2025/01/13 21:19:59
Memo.             
[...]
     672      263     -294     -985    -1792    -2659    -3460    -4105 
   -4522    -4615    -4345    -3811    -3181    -2509    -1736     -916 
    -137      626     1343     1912     2328     2651     2868     2926 
    2847     2659     2435     2290     2219     2239     2407     2668 
    2910     2971     2741     2286     1676      850     -137    -1048 
   -1772    -2266    -2427    -2316    -2076    -1711    -1140     -410 
     220      641     1015     1333     1560     1823     2019     2025 
    1948     1787     1530     1220      810      363       20     -179 
    -230     -195     -130      -25      102      189      135     -124 
    -499     -793     -889     -742     -261      556     1512     2431 
    3237     3831     4162     4256     4216     4176     4185     4230 
    4348     4577     4853     5103     5314     5439     5451     5387 
    5251     5032     4726     4280     3740     3183     2521     1702 
     868      171     -321     -616     -746     -676     -433     -172 
      -9       56       97       86      -97     -433     -857    -1359 
   -1884    -2373    -2728    -2859    -2799    -2604    -2277    -1804 
   -1167     -432      224      710     1059     1270     1308     1194 
     996      745      411       62     -194     -363     -418     -346 
    -263     -160       36      261      463      665      831      946 
    1066     1134     1035      793      511      301      265      391 
     603      855     1121     1350     1474     1466     1379     1296 
    1278     1426     1763     2145     2473     2710     2718     2430 
    1914     1283      774      606      747     1136     1748     2446 
    3105     3624     3881     3825     3460     2828     2079     1318 
     549     -217     -888    -1397    -1796    -2166    -2546    -2920 
   -3141    -3098    -2867    -2477    -1834     -926      157     1266 
    2224     2907     3277     3362     3221     2941     2640     2394 
    2258     2323     2631     3122     3713     4352     4995     5555 
    5899     5880     5448     4706     3763     2667     1520      481 
    -329     -845    -1053    -1024     -843     -508       -2      594 
    1150     1586     1879     1999     1945     1752     1439     1043 
     511     -237    -1039    -1740    -2331    -2668    -2666    -2478 
   -2203    -1881    -1610    -1372    -1163    -1067    -1047    -1069 
   -1139    -1173    -1170    -1188    -1178    -1109     -972     -768 
    -550     -267      147      618     1129     1692     2249     2826 
    3423     3959     4413     4804     5124     5266     5179     4988 
    4687     4263     3874     3574     3326     3079     2747     2328 
    1845     1259      550     -247    -1016    -1665    -2143    -2330 
   -2200    -1885    -1431     -896     -454     -121      186      423 
     556      657      788      969     1185     1406     1628     1858 
    2047     2106     2022     1856     1672     1540     1502     1503 
    1510     1559     1595     1532     1402     1193      855      483 
     189       10      -37       -1       75      205      352      433 
     413      372      379      390      353      217      -10     -211 
    -318     -342     -267       -6      445      913     1297     1615 
    1817     1863     1791     1614     1362     1100      849      603 
     390      248      216      271      384      611      986     1466 
    1985     2454     2822     3121     3298     3261     2988     2535 
    1984     1433      958      607      409      382      525      792 
    1098     1420     1749     1998     2100     2003     1659     1107 
     386     -432    -1198    -1809    -2219    -2394    -2336    -2099 
   -1800    -1551    -1416    -1426    -1533    -1645    -1684    -1547 
   -1183     -680     -117      479      985     1269     1336     1246 
    1011      657      317      125      140      415      935     1640 
    2447     3221     3861     4274     4394     4284     4001     3616 
    3281     3059     2961     3065     3389     3839     4297     4747 
    5184     5449     5495     5460     5413     5389     5460     5682 
    6095     6660     7287     7959     8619     9119     9363     9390 
    9313     9217     9143     9109     9050     8900     8680     8355 
    7827     7152     6434     5678     4919     4222     3603     3136 
    2855     2604     2323     2107     1949     1799     1664     1521 
    1394     1317     1212     1066      966      870      639      247 
    -236     -772    -1345    -1934    -2552    -3156    -3627    -3963 
   -4210    -4386    -4540    -4649    -4703    -4784    -4845    -4814 
   -4766    -4764    -4812    -4943    -5123    -5211    -5250    -5394 
   -5495    -5485    -5449    -5271    -5074    -5109    -5130    -5005 
   -5013    -5228    -5559    -5795    -5697    -5471    -5270    -4959 
   -4626    -4210    -3616    -3117    -2821    -2636    -2573    -2666 
   -2903    -3192    -3429    -3496    -3283    -2790    -2045     -988 
     345     1794     3260     4653     5871     6866     7527     7854 
    7996     7974     7803     7581     7366     7246     7242     7211 
    7101     6929     6582     5937     4982     3688     2076      298 
   -1516    -3264    -4816    -6042    -6894    -7400    -7535    -7245 
   -6651    -5988    -5385    -4861    -4405    -3966    -3442    -2794 
   -2034     -985      433     1975     3523     5050     6450     7742 
    8810     9440     9695     9558     8938     7962     6681     5098 
    3234      997    -1506    -4009    -6466    -8822   -10845   -12409 
  -13448   -13934   -13949   -13536   -12777   -11866   -10847    -9714 
   -8596    -7619    -6793    -5989    -5092    -4139    -3171    -2124 
    -993      174     1452     2906     4421     5833     7121     8316 
    9343    10146    10756    11249    11736    12233    12727    13201 
   13564    13833    14013    13905    13393    12553    11556    10608 
    9833     9327     9143     9274     9661    10039    10235    10330 
   10226     9926     9656     9421     9236     9153     9089     9069 
    9074     8964     8800     8729     8764     8903     9220     9792 
   10573    11456    12360    13147    13736    14146    14288    14091 
   13612    12885    11938    10843     9687     8541     7369     6072 
    4675     3268     1903      643     -515    -1648    -2755    -3831 
   -4873    -5927    -7071    -8271    -9552   -10936   -12287   -13524 
  -14543   -15218   -15585   -15627   -15294   -14756   -14089   -13263 
  -12461   -11800   -11240   -10790   -10345    -9749    -9059    -8268 
   -7211    -5911    -4598    -3484    -2710    -2340    -2340    -2629 
   -3092    -3511    -3673    -3568    -3245    -2674    -1877     -927 
     112     1121     1937     2552     3060     3360     3303     2982 
    2513     1957     1305      471     -483    -1474    -2542    -3623 
   -4550    -5213    -5543    -5524    -5233    -4876    -4615    -4484 
   -4548    -4808    -5188    -5661    -6178    -6669    -7150    -7632 
   -8067    -8374    -8584    -8815    -8989    -8996    -8822    -8344 
   -7518    -6458    -5201    -3775    -2265     -776      600     1921 
    3202     4348     5401     6466     7562     8714     9963    11234 
   12417    13513    14507    15399    16209    16861    17409    17923 
   18266    18337    18087    17605    17028    16310    15511    14693 
   13757    12741    11643    10471     9382     8364     7364     6474 
    5659     4861     4068     3141     2070     1009      -91    -1285 
   -2412    -3473    -4565    -5536    -6366    -7240    -8055    -8766 
   -9622   -10601   -11426   -11986   -12252   -12216   -11882   -11136 
   -9873    -8168    -6214    -4194    -2280     -665      527     1364 
    1942     2278     2497     2806     3326     4141     5215     6359 
    7520     8692     9780    10748    11585    12240    12722    13140 
   13593    14094    14667    15318    15967    16505    16746    16510 
   15796    14731    13481    12214    11057    10114     9444     8985 
    8575     8055     7356     6494     5498     4409     3346     2369 
    1424      510     -395    -1329    -2243    -3118    -3924    -4653 
   -5447    -6284    -6993    -7627    -8257    -8808    -9343    -9942 
  -10501   -10966   -11341   -11581   -11678   -11597   -11319   -10924 
  -10482   -10150   -10076   -10201   -10465   -10822   -11155   -11321 
  -11186   -10660    -9701    -8324    -6655    -4815    -2855     -858 
    1043     2731     4132     5271     6245     7015     7476     7672 
    7740     7707     7546     7356     7140     6758     6319     6049 
    5888     5707     5526     5300     4931     4465     3916     3181 
    2261     1240      137    -1048    -2172    -3083    -3829    -4406 
   -4688    -4588    -4032    -3061    -1840     -413     1223     2959 
    4615     6027     7107     7890     8421     8695     8741     8559 
    8093     7380     6529     5610     4598     3512     2481     1570 
     805      224     -222     -611     -999    -1398    -1798    -2242 
   -2705    -3118    -3522    -3996    -4550    -5069    -5572    -6251 
   -6991    -7636    -8185    -8496    -8583    -8576    -8467    -8391 
   -8511    -8881    -9543   -10439   -11554   -12837   -14111   -15354 
  -16540   -17437   -17932   -18049   -17749   -17066   -16050   -14615 
  -12730   -10470    -7905    -5155    -2262      743     3690     6439 
    8924    11084    12870    14156    14866    15124    15099    14872 
   14435    13761    12858    11772    10507     9053     7561     6249 
    5233     4590     4293     4233     4425     4900     5549     6220 
    6775     7153     7476     7859     8264     8737     9360    10033 
   10646    11156    11507    11716    11780    11670    11460    11250 
   11106    10967    10770    10651    10785    11234    11948    12766 
   13533    14204    14774    15111    15201    15174    14920    14416 
   13772    12906    11904    10855     9678     8622     7927     7457 
    7114     6871     6624     6320     5972     5562     5008     4135 
    2859     1282     -556    -2560    -4449    -6257    -8082    -9621 
  -10801   -11677   -12036   -11935   -11542   -10832    -9813    -8553 
   -7311    -6446    -6035    -5964    -6273    -7010    -7933    -8776 
   -9439    -9853    -9938    -9601    -8826    -7753    -6579    -5432 
   -4342    -3377    -2574    -1902    -1341     -900     -696     -796 
   -1151    -1845    -2887    -4098    -5350    -6505    -7441    -8182 
   -8683    -8847    -8795    -8652    -8398    -8090    -7800    -7497 
   -7126    -6612    -5952    -5206    -4349    -3353    -2257    -1139 
     -89      823     1593     2205     2600     2887     3238     3681 
    4306     5147     6095     7171     8360     9487    10450    11196 
   11712    12078    12321    12482    12663    12923    13269    13583 
   13733    13663    13221    12264    10868     9220     7495     5908 
    4622     3655     3011     2671     2447     2114     1567      754 
    -237    -1237    -2192    -3107    -3962    -4698    -5216    -5491 
   -5580    -5478    -5165    -4687    -4109    -3476    -2836    -2236 
   -1692    -1212     -814     -508     -291     -133      -14      114 
     386      882     1576     2390     3215     4017     4795     5414 
    5688     5520     4959     4114     3082     1952      874       13 
    -567     -850     -811     -498       13      616     1140     1551 
    1904     2147     2272     2351     2452     2624     2805     2899 
    2930     2983     3133     3423     3800     4197     4600     4922 
    5101     5174     5098     4796     4291     3665     2961     2204 
    1397      615      -48     -660    -1266    -1822    -2362    -2917 
   -3445    -3855    -4067    -4040    -3730    -3114    -2258    -1285 
    -278      696     1537     2270     2991     3669     4249     4760 
    5248     5659     5800     5626     5205     4587     4005     3662 
    3543     3734     4314     5123     6019     6918     7701     8328 
    8734     8839     8644     8154     7426     6589     5695     4708 
    3643     2583     1576      641     -156     -807    -1347    -1695 
   -1800    -1800    -1740    -1547    -1420    -1575    -1815    -2234 
   -3192    -4384    -5540    -6768    -7885    -8781    -9494   -10010 
  -10395   -10737   -11088   -11322   -11307   -11009   -10350    -9234 
   -7746    -6137    -4544    -3080    -1885     -981     -392      -54 
     162      236      193      117       35       39       93     -143 
    -845    -1826    -3026    -4587    -6400    -8217    -9817   -10928 
  -11466   -11620   -11564   -11317   -10972   -10665   -10377   -10129 
   -9896    -9552    -9115    -8563    -7735    -6674    -5628    -4806 
   -4274    -3947    -3719    -3775    -4206    -4638    -4784    -4685 
   -4503    -4253    -3790    -3310    -2884    -2349    -2014    -1953 
   -1852    -1748    -1633    -1263     -534      464     1629     2932 
    4310     5649     6866     7844     8465     8750     8831     8837 
    8899     9082     9337     9709    10314    11064    11889    12884 
   13963    15041    16240    17533    18906    20428    21901    23251 
   24659    26055    27375    28652    29848    31109    32238    32726 
   32827    32844    32562    31916    30740    29037    27027    24551 
   21724    18970    16301    13629    10990     8359     5737     2909 
    -251    -3454    -6782   -10308   -13775   -17269   -20695   -23742 
  -26424   -28672   -30256   -31193   -31708   -31842   -31576   -31158 
  -30662   -30014   -29282   -28458   -27587   -26752   -25770   -24445 
  -22835   -20938   -18689   -16340   -14027   -11627    -9404    -7572 
   -6010    -4750    -3727    -2689    -1462       66     1827     3713 
    5655     7484     9126    10527    11589    12334    12768    12884 
   12843    12788    12758    12856    13126    13462    13756    13960 
   14029    13841    13298    12433    11298    10014     8856     7919 
    7231     7168     7713     8284     8810     9410     9759     9786 
    9562     8969     8194     7470     6831     6280     5845     5632 
    5656     5711     5694     5748     5850     6004     6524     7334 
    8198     9197    10138    10871    11519    11893    11858    11653 
   11410    11119    10890    10804    10898    11214    11641    12020 
   12271    12285    11924    11161    10139     8889     7321     5557 
    3730     1904      225    -1371    -2971    -4433    -5796    -7213 
   -8660   -10112   -11566   -13092   -14801   -16572   -18242   -19836 
  -21301   -22447   -23140   -23290   -22871   -21928   -20417   -18397 
  -16148   -13871   -11653    -9594    -7734    -6076    -4591    -3145 
   -1657     -166     1410     3041     4495     5852     7227     8409 
    9381    10183    10585    10524    10066     9246     8154     6932 
    5617     4170     2830     1871     1189      693      433      334 
     307      311      253      141      210      661     1429     2313 
    3262     4336     5421     6361     7094     7573     7924     8224 
    8303     8186     7998     7638     7014     6130     4923     3414 
    1729     -133    -2235    -4483    -6762    -9066   -11383   -13691 
  -15955   -18015   -19749   -21189   -22353   -23175   -23600   -23552 
  -22989   -21999   -20623   -18860   -16823   -14526   -11952    -9244 
   -6463    -3690    -1158     1011     2844     4394     5718     6952 
    8222     9352    10172    10724    10963    10909    10731    10438 
    9985     9526     9138     8704     8225     7727     7078     6218 
    5229     4155     2976     1742      545     -576    -1593    -2452 
   -3009    -3138    -3001    -2640    -1838     -641      760     2231 
    3700     5208     6558     7477     8106     8538     8677     8615 
    8453     8201     7933     7771     7724     7696     7618     7423 
    7060     6516     5807     5050     4294     3493     2756     2218 
    1840     1599     1490     1397     1155      681      286      329 
     517      666     1081     1642     2191     2841     3439     3898 
    4348     4731     5004     5239     5378     5351     5188     4818 
    4190     3464     2825     2254     1674     1120      661      248 
    -220     -723    -1258    -1976    -2944    -4135    -5535    -7057 
   -8664   -10347   -11929   -13259   -14305   -15029   -15465   -15673 
  -15662   -15399   -14801   -13786   -12233   -10110    -7561    -4746 
   -1823     1008     3663     6201     8604    10791    12749    14455 
   15901    17128    18126    18908    19592    20217    20761    21222 
   21655    22202    22875    23510    24030    24435    24619    24425 
   23749    22565    20871    18732    16336    13879    11519     9414 
    7696     6362     5332     4569     3994     3450     2803     2025 
    1252      589      -75     -831    -1541    -2139    -2820    -3661 
   -4579    -5563    -6616    -7723    -8788    -9622   -10181   -10555 
  -10790   -10945   -11005   -10989   -11070   -11209   -11330   -11545 
  -11821   -12102   -12402   -12633   -12765   -12868   -12955   -13005 
  -12965   -12837   -12699   -12505   -12210   -11897   -11535   -11110 
  -10702   -10235    -9649    -8968    -8158    -7250    -6291    -5275 
   -4260    -3269    -2293    -1420     -661      130      977     1827 
    2741     3728     4693     5595     6405     7034     7410     7539 
    7453     7128     6550     5823     5042     4206     3364     2552 
    1771     1089      612      309       74      -36       14      120 
     252      436      665     1016     1564     2286     3173     4252 
    5460     6648     7747     8764     9648    10307    10725    10964 
   11036    10989    10918    10791    10611    10561    10731    11025 
   11404    11838    12191    12384    12436    12336    12097    11812 
   11558    11372    11226    11055    10876    10702    10481    10220 
    9949     9663     9273     8669     7894     6948     5776     4414 
    2864     1162     -652    -2555    -4425    -6211    -7912    -9391 
  -10648   -11777   -12703   -13431   -14058   -14615   -15169   -15682 
  -16012   -16163   -16109   -15768   -15203   -14424   -13311   -11885 
  -10243    -8426    -6574    -4810    -3137    -1663     -498      329 
     841     1170     1345     1325     1175      918      567      194 
    -202     -668    -1197    -1767    -2355    -2933    -3518    -4197 
   -4996    -5898    -6957    -8066    -8982    -9811   -10669   -11288 
  -11593   -11720   -11639   -11376   -11040   -10550    -9834    -8982 
   -7992    -6872    -5776    -4723    -3716    -2860    -2196    -1694 
   -1205     -541      299     1196     2060     2826     3449     3881 
    4099     4141     4052     3843     3580     3362     3221     3175 
    3244     3438     3778     4234     4758     5320     5833     6235 
    6574     6939     7420     8133     9105    10274    11597    13028 
   14447    15709    16772    17622    18202    18539    18751    18851 
   18866    18955    19113    19214    19340    19541    19730    19924 
   20115    20236    20290    20313    20295    20066    19606    19084 
   18431    17583    16567    15299    13811    12199    10528     8872 
    7242     5671     4263     3129     2332     1860     1622     1503 
    1441     1412     1406     1362     1112      544     -251    -1170 
