Origin Time       2025/01/13 21:19:00
Lat.              31.8
Long.             131.6
Depth. (km)       30
Mag.              6.9
Station Code      OIT005
Station Lat.      33.4524
Station Long.     131.1142
Station Height(m) 113
Record Time       2025/01/13 21:20:13
Sampling Freq(Hz) 100Hz
Duration Time(s)  83
Dir.              E-W
Scale Factor      7845(gal)/8223790
Max. Acc. (gal)   1.852
Last Correction   2025/01/13 21:20:13
Memo.             
[...]
    6463     6624     6913     7196     7384     7423     7319     7157 
    7056     7125     7400     7778     8081     8163     8006     7750 
    7542     7438     7460     7599     7742     7708     7391     6895 
    6466     6296     6412     6698     6967     7059     6959     6836 
    6880     7125     7446     7705     7815     7720     7433     7118 
    7029     7249     7605     7881     7986     7900     7690     7531 
    7527     7616     7692     7708     7635     7468     7260     7119 
    7102     7169     7267     7364     7426     7400     7310     7263 
    7361     7634     8004     8299     8364     8159     7792     7483 
    7384     7447     7527     7496     7298     6984     6714     6640 
    6802     7101     7388     7528     7446     7191     6928     6843 
    7009     7308     7512     7479     7236     6970     6897     7069 
    7339     7501     7433     7145     6774     6508     6473     6666 
    6984     7245     7294     7133     6898     6760     6821     7047 
    7331     7541     7562     7411     7195     7010     6914     6937 
    7060     7217     7307     7290     7250     7296     7431     7587 
    7685     7673     7557     7398     7299     7381     7647     7919 
    7989     7792     7383     6924     6658     6705     6937     7142 
    7180     7001     6677     6393     6351     6625     7113     7607 
    7905     7908     7682     7402     7238     7263     7410     7572 
    7659     7603     7411     7203     7121     7175     7273     7357 
    7406     7415     7406     7381     7303     7141     6917     6712 
    6629     6732     6991     7276     7380     7190     6837     6612 
    6739     7187     7688     7966     7919     7626     7257     6984 
    6945     7171     7514     7726     7677     7452     7254     7256 
    7435     7620     7676     7620     7560     7514     7442     7346 
    7236     7126     7072     7111     7238     7416     7569     7618 
    7557     7423     7236     7042     6940     6957     7052     7179 
    7273     7246     7133     7092     7229     7501     7781     7900 
    7751     7379     6952     6669     6642     6824     7057     7225 
    7331     7434     7537     7642     7762     7835     7755     7504 
    7142     6790     6608     6666     6893     7144     7302     7334 
    7269     7176     7173     7341     7587     7731     7678     7460 
    7175     6940     6847     6913     7052     7155     7187     7195 
    7199     7200     7230     7304     7403     7493     7553     7609 
    7682     7747     7777     7755     7657     7506     7376     7317 
    7314     7319     7276     7186     7117     7128     7182     7221 
    7273     7356     7388     7295     7128     7003     7032     7248 
    7541     7705     7599     7273     6971     6924     7172     7561 
    7854     7873     7600     7211     6978     7038     7304     7568 
    7638     7437     7063     6760     6751     7044     7422     7651 
    7638     7407     7079     6866     6966     7376     7842     8095 
    8050     7758     7360     7068     7020     7173     7337     7319 
    7133     6951     6930     7138     7495     7809     7911     7732 
    7392     7130     7101     7271     7469     7507     7303     6953 
    6697     6729     7017     7338     7487     7414     7198     6968 
    6835     6825     6866     6871     6845     6862     6961     7111 
    7273     7434     7549     7537     7385     7192     7056     6984 
    6955     6956     6978     6974     6882     6717     6577     6570 
    6763     7128     7546     7809     7734     7358     6948     6770 
    6894     7206     7508     7627     7499     7211     6997     7086 
    7466     7885     8085     7947     7546     7106     6859     6918 
    7209     7492     7568     7418     7175     7034     7141     7456 
    7751     7813     7600     7246     6972     6930     7122     7372 
    7449     7288     7024     6858     6926     7186     7497     7769 
    7898     7827     7676     7623     7712     7874     8029     8097 
    8008     7784     7546     7387     7291     7223     7192     7194 
    7215     7273     7375     7499     7608     7681     7712     7705 
    7695     7722     7744     7672     7528     7422     7406     7442 
    7445     7331     7132     6995     7067     7329     7578     7632 
    7497     7257     6987     6836     6925     7192     7427     7454 
    7245     6912     6632     6579     6804     7126     7281     7165 
    6863     6543     6382     6482     6782     7075     7160     7033 
    6843     6724     6744     6907     7121     7253     7233     7099 
    6983     6975     7029     7041     6961     6812     6639     6507 
    6498     6643     6844     6961     6968     6974     7064     7184 
    7245     7223     7130     6994     6886     6882     7030     7307 
    7614     7844     7890     7666     7250     6879     6724     6797 
    7025     7299     7473     7446     7272     7137     7195     7454 
    7797     8063     8144     8066     7917     7726     7454     7090 
    6713     6477     6480     6673     6912     7037     6976     6793 
    6627     6615     6793     7051     7195     7115     6863     6606 
    6508     6608     6847     7142     7400     7554     7655     7770 
    7892     8002     8094     8143     8100     7975     7862     7811 
    7781     7754     7757     7770     7692     7465     7160     6907 
    6801     6852     7017     7202     7260     7115     6851     6644 
    6639     6875     7272     7663     7897     7952     7931     7890 
    7807     7684     7569     7488     7435     7365     7245     7098 
    6995     6978     7029     7141     7295     7430     7507     7531 
    7542     7607     7767     7965     8098     8094     7936     7678 
    7416     7242     7182     7159     7083     6961     6845     6777 
    6794     6886     6979     7063     7173     7326     7507     7669 
    7762     7815     7898     8039     8166     8168     7997     7690 
    7357     7144     7140     7272     7364     7306     7095     6817 
    6590     6492     6542     6705     6876     6921     6794     6623 
    6593     6750     6998     7269     7493     7592     7592     7627 
    7758     7900     7938     7820     7510     7053     6616     6326 
    6208     6222     6285     6339     6351     6293     6196     6135 
    6192     6404     6712     7010     7223     7315     7273     7149 
    7082     7214     7551     7925     8125     8079     7866     7599 
    7396     7357     7519     7774     7893     7762     7480     7227 
    7190     7465     7916     8293     8446     8388     8217     8070 
    8043     8117     8174     8113     7973     7854     7816     7857 
    7932     7993     8025     8005     7928     7861     7877     7998 
    8186     8345     8410     8392     8334     8272     8216     8197 
    8228     8252     8255     8279     8322     8330     8230     7966 
    7560     7152     6916     6918     7071     7218     7250     7153 
    6980     6855     6894     7117     7431     7684     7753     7631 
    7449     7365     7441     7627     7820     7884     7719     7379 
    7037     6836     6794     6871     7013     7153     7250     7308 
    7331     7315     7287     7303     7376     7446     7438     7329 
    7149     6960     6847     6870     7002     7113     7091     6940 
    6741     6639     6763     7087     7412     7537     7418     7155 
    6905     6825     6978     7240     7389     7265     6878     6403 
    6058     5996     6201     6511     6716     6664     6378     6065 
    5979     6199     6598     6968     7094     6893     6531     6262 
    6238     6455     6797     7080     7146     6964     6660     6412 
    6304     6322     6374     6366     6292     6201     6133     6097 
    6084     6073     6048     6025     6089     6291     6534     6679 
    6686     6617     6588     6708     6994     7308     7470     7418 
    7225     7001     6836     6818     6975     7187     7281     7225 
    7101     6993     6940     6947     6987     7018     7006     6945 
    6905     6984     7196     7458     7695     7859     7931     7939 
    7971     8104     8314     8540     8742     8862     8839     8667 
    8410     8167     7987     7851     7734     7639     7550     7445 
    7372     7392     7473     7500     7433     7362     7403     7568 
    7784     7946     7955     7817     7653     7572     7597     7709 
    7854     7943     7913     7785     7672     7653     7708     7785 
    7871     7939     7939     7870     7798     7771     7784     7788 
    7736     7614     7433     7253     7172     7223     7315     7314 
    7164     6906     6646     6548     6691     6952     7122     7091 
    6883     6610     6451     6546     6856     7183     7341     7269 
    7040     6816     6736     6805     6913     6947     6883     6790 
    6764     6872     7130     7501     7890     8191     8320     8247 
    8031     7788     7615     7543     7520     7472     7369     7244 
    7165     7195     7346     7574     7788     7923     7997     8066 
    8136     8160     8124     8048     7940     7831     7784     7839 
    7962     8094     8212     8294     8318     8293     8224     8098 
    7943     7846     7861     7952     8039     8040     7946     7808 
    7695     7650     7672     7739     7843     7931     7928     7821 
    7653     7464     7304     7225     7257     7380     7504     7566 
    7582     7600     7635     7681     7708     7705     7707     7751 
    7832     7902     7929     7943     7992     8098     8235     8344 
    8353     8210     7943     7676     7530     7537     7618     7655 
    7584     7443     7318     7276     7356     7511     7634     7645 
    7551     7398     7198     7017     6952     6994     7018     6916 
    6664     6313     5992     5860     5969     6196     6346     6311 
    6129     5930     5821     5822     5884     5930     5944     5992 
    6135     6382     6696     6978     7115     7061     6874     6666 
    6559     6627     6840     7088     7257     7267     7119     6926 
    6829     6901     7094     7264     7256     7036     6760     6643 
    6766     7015     7213     7225     7006     6663     6408     6358 
    6461     6585     6617     6513     6332     6228     6305     6529 
    6779     6906     6835     6637     6485     6511     6717     6980 
    7130     7033     6714     6404     6343     6601     7040     7419 
    7553     7412     7188     7160     7423     7819     8112     8143 
    7889     7464     7094     6976     7092     7260     7299     7129 
    6797     6474     6351     6516     6864     7161     7246     7132 
    6932     6786     6781     6907     7083     7242     7345     7376 
    7381     7429     7541     7680     7785     7834     7838     7847 
    7927     8079     8235     8336     8360     8320     8260     8235 
    8295     8445     8571     8519     8247     7865     7558     7462 
    7584     7817     8013     8070     8002     7923     7960     8167 
    8442     8610     8572     8340     7997     7712     7651     7820 
    8081     8286     8357     8268     8059     7871     7836     7956 
    8097     8101     7929     7662     7410     7250     7215     7267 
    7303     7218     6990     6727     6573     6577     6686     6802 
    6817     6701     6534     6409     6363     6346     6296     6204 
    6081     5945     5830     5764     5771     5863     6018     6169 
    6216     6124     5975     5898     5972     6188     6453     6625 
    6604     6428     6255     6239     6420     6717     7006     7187 
    7221     7149     7064     7042     7129     7331     7599     7817 
    7889     7797     7611     7447     7426     7608     7931     8275 
    8548     8680     8661     8572     8511     8529     8627     8761 
    8849     8820     8672     8459     8217     7979     7807     7747 
    7790     7873     7921     7898     7805     7705     7672     7724 
    7801     7816     7742     7604     7461     7373     7337     7303 
    7213     7022     6759     6509     6363     6372     6515     6689 
    6781     6736     6563     6331     6156     6114     6193     6309 
    6373     6339     6220     6102     6081     6178     6346     6482 
    6475     6336     6191     6138     6208     6381     6561     6633 
    6573     6455     6407     6497     6687     6876     6976     6941 
    6791     6620     6512     6480     6493     6494     6431     6304 
    6154     6049     6018     6018     6026     6037     6029     6023 
    6079     6204     6374     6539     6648     6675     6616     6524 
    6505     6609     6791     6975     7098     7129     7071     6974 
    6902     6905     6986     7098     7192     7233     7195     7106 
    7022     6963     6920     6901     6916     6951     7003     7045 
    7020     6941     6909     6978     7103     7202     7213     7110 
    6924     6750     6683     6737     6860     6990     7071     7083 
    7057     7041     7049     7057     7052     7015     6930     6837 
    6806     6880     7053     7260     7388     7353     7168     6936 
    6729     6562     6438     6358     6303     6255     6247     6328 
    6504     6709     6848     6876     6817     6733     6702     6764 
    6901     7056     7167     7210     7245     7353     7549     7789 
    8013     8191     8336     8478     8637     8789     8915     9039 
    9161     9223     9200     9123     9036     8991     9012     9070 
    9099     9034     8887     8757     8741     8827     8950     9042 
    9055     8969     8808     8648     8569     8599     8684     8753 
    8765     8696     8556     8395     8282     8264     8325     8388 
    8418     8430     8432     8398     8332     8263     8209     8127 
    7970     7766     7569     7389     7241     7160     7137     7096 
    6976     6813     6674     6578     6543     6600     6717     6810 
    6845     6847     6845     6889     7002     7144     7227     7190 
    7045     6874     6758     6708     6686     6682     6721     6820 
    6953     7094     7211     7264     7234     7183     7184     7234 
    7268     7248     7215     7210     7234     7312     7452     7587 
    7642     7608     7541     7495     7510     7582     7643     7597 
    7403     7105     6824     6673     6675     6777     6883     6910 
    6825     6637     6417     6293     6367     6616     6894     7034 
    6995     6859     6727     6662     6698     6820     6976     7133 
    7284     7431     7546     7604     7619     7645     7742     7956 
    8239     8496     8681     8764     8730     8608     8472     8403 
    8430     8484     8465     8334     8122     7897     7746     7722 
    7773     7794     7684     7393     6988     6632     6481     6597 
    6883     7167     7311     7242     6990     6706     6570     6644 
    6844     7005     7021     6898     6739     6663     6729     6885 
    7010     7015     6899     6723     6565     6488     6482     6490 
    6469     6440     6466     6571     6724     6885     7025     7102 
    7114     7114     7167     7304     7501     7678     7786     7840 
    7889     7974     8121     8321     8517     8613     8577     8475 
    8392     8380     8428     8475     8482     8438     8370     8316 
    8270     8160     7954     7703     7493     7375     7342     7341 
    7308     7188     6980     6767     6655     6697     6878     7113 
    7291     7335     7234     7033     6818     6708     6766     6943 
    7113     7171     7084     6909     6767     6774     6947     7173 
    7296     7242     7061     6860     6755     6813     7021     7294 
    7522     7604     7514     7345     7242     7290     7477     7735 
    7969     8086     8048     7884     7657     7447     7321     7271 
    7227     7145     7034     6956     6949     7010     7102     7190 
    7254     7291     7338     7437     7550     7587     7489     7303 
    7142     7075     7087     7148     7187     7119     6925     6670 
    6459     6365     6381     6450     6480     6404     6254     6118 
    6070     6129     6253     6384     6482     6532     6562     6600 
    6646     6710     6794     6883     6966     7036     7102     7173 
    7273     7414     7550     7636     7655     7596     7483     7379 
    7330     7350     7410     7446     7419     7348     7279     7264 
    7339     7506     7716     7905     8033     8114     8175     8233 
    8275     8306     8349     8388     8376     8305     8224     8174 
    8174     8243     8375     8478     8453     8321     8181     8113 
    8140     8213     8263     8236     8124     7981     7884     7862 
    7901     7943     7938     7873     7771     7676     7632     7662 
    7749     7823     7817     7736     7646     7632     7719     7825 
    7855     7750     7512     7203     6921     6739     6679     6728 
    6843     6974     7095     7202     7284     7331     7361     7407 
    7461     7497     7508     7497     7460     7398     7325     7240 
    7133     7024     6961     6990     7090     7173     7165     7061 
    6899     6733     6613     6548     6536     6569     6613     6655 
    6716     6794     6860     6895     6907     6912     6906     6851 
    6736     6613     6546     6559     6639     6762     6901     6994 
    6968     6847     6723     6663     6710     6891     7146     7379 
    7524     7545     7445     7292     7161     7091     7078     7106 
    7146     7157     7140     7132     7142     7163     7195     7226 
    7237     7225     7182     7107     7015     6903     6791     6748 
    6808     6926     7045     7121     7117     7052     6995     7013 
    7102     7202     7276     7315     7310     7261     7173     7048 
    6922     6848     6860     6959     7086     7171     7195     7218 
    7302     7437     7577     7692     7728     7636     7477     7383 
    7422     7542     7642     7670     7643     7608     7601     7636 
    7701     7750     7727     7618     7469     7314     7163     7048 
    6984     6936     6891     6871     6902     6974     7049     7106 
    7122     7069     6941     6764     6593     6477     6432     6440 
    6448     6396     6255     6061     5890     5805     5826     5919 
    5996     5962     5832     5709     5672     5745     5896     6046 
    6115     6095     6054     6058     6123     6241     6366     6438 
    6454     6470     6508     6538     6519     6451     6377     6358 
    6435     6579     6697     6731     6690     6623     6578     6581 
    6623     6689     6782     6895     6986     7003     6939     6829 
    6735     6712     6779     6882     6932     6909     6853     6817 
    6831     6920     7079     7254     7407     7531     7630     7705 
    7759     7801     7840     7892     7997     8194     8437     8617 
    8654     8545     8365     8214     8132     8116     8141     8159 
    8129     8062     8002     7996     8017     8012     7956     7847 
    7681     7500     7388     7365     7383     7400     7389     7326 
    7207     7082     7003     6956     6909     6897     6945     7017 
    7059     7047     6956     6794     6610     6454     6380     6428 
    6566     6705     6785     6808     6812     6839     6936     7113 
