Origin Time       2025/01/13 21:19:00
Lat.              31.8
Long.             131.6
Depth. (km)       30
Mag.              6.9
Station Code      OIT018
Station Lat.      32.7980
Station Long.     131.9255
Station Height(m) 12
Record Time       2025/01/13 21:19:54
Sampling Freq(Hz) 100Hz
Duration Time(s)  94
Dir.              U-D
Scale Factor      7845(gal)/8223790
Max. Acc. (gal)   10.417
Last Correction   2025/01/13 21:19:53
Memo.             
[...]
   14280    14145    14671    15534    15936    15851    15831    16291 
   16823    16629    15809    15155    15149    15512    15599    15477 
   15595    15642    15207    14607    14359    14547    14742    14559 
   14139    13921    14180    14871    15905    17007    17389    16916 
   16536    16575    16594    16486    16220    15801    15557    15577 
   15577    15361    14933    14532    14607    15110    15385    15323 
   15461    15653    15248    14596    14635    15180    15462    15665 
   16109    16353    16430    16779    17018    16922    17005    17307 
   17478    17436    16938    15878    15117    15624    16929    17431 
   16218    14037    12555    12725    13894    14727    14628    14106 
   13959    14288    14744    15296    15777    15570    14705    14158 
   14146    14116    14731    16401    17427    16745    15415    14656 
   14995    16054    16947    17666    18123    17594    16609    16313 
   16546    16742    16777    16478    15778    15086    15001    15727 
   16586    16447    15211    14139    14104    14527    14489    13926 
   13435    13554    14358    15620    17062    18027    17787    16772 
   16123    16004    15784    15439    15464    15611    15161    14416 
   14354    14789    14783    14620    14928    15291    15438    15473 
   15246    15237    16073    16966    16703    15445    14412    14443 
   15147    15503    15232    14824    14573    14435    14430    14566 
   14889    15460    15877    15928    16163    16592    16575    16217 
   16069    16368    17027    17082    15865    14840    15322    15994 
   15372    14253    14188    15257    16170    16078    15624    15730 
   15979    15479    14523    14121    14644    15607    16335    16533 
   16048    15098    14601    14953    15425    15596    16193    17614 
   18616    18006    16278    14459    13693    14611    15708    15435 
   14629    14632    15122    14976    14706    15704    17143    17478 
   17305    17475    17282    16534    16491    17131    16862    15927 
   15610    15249    14346    14006    14224    14079    14068    15142 
   16760    17797    18069    17406    15353    12854    11493    11499 
   12586    14651    16548    16741    15572    14881    15500    16695 
   17691    18207    18165    17879    17612    17041    15952    14716 
   13805    13423    13497    13753    14000    14419    14770    14247 
   13428    13726    14879    16248    17922    18778    17752    16178 
   15350    14901    14580    14519    14643    14844    14661    13869 
   13409    14187    15801    17182    17628    17172    16513    16402 
   16780    16956    16733    16557    16448    15820    14781    14308 
   14582    14870    14917    14814    14744    15048    15446    15570 
   15545    14989    13892    13498    14289    15599    16942    17815 
   17784    17151    16483    15819    14979    14432    14646    15110 
   15371    15437    15006    14308    14304    14967    15327    15056 
   14752    15057    15827    16429    16630    16579    16322    15843 
   15511    15812    16410    16561    16235    15805    15547    15577 
   15442    14751    14192    14345    14627    14762    15192    15820 
   16503    17362    17571    16623    15668    15113    14328    14008 
   14736    15433    15579    15943    16988    18382    19392    19440 
   18706    17668    16163    14212    12958    13020    13539    13760 
   13713    13566    13360    13243    13721    14962    16132    16498 
   16425    16503    16717    16860    16924    16892    16780    16529 
   15661    14501    14368    15114    15385    15030    14580    14335 
   14686    15369    15750    16164    16899    17212    16779    16147 
   15650    15302    15353    15989    16719    16988    16908    16590 
   16100    15979    16290    16438    16330    16254    16101    15570 
   14908    14655    14743    14978    15438    15759    15827    15884 
   15259    13922    13452    14307    15292    15723    15682    15406 
   15021    14272    13281    12957    13811    15352    16484    16245 
   14993    14195    14542    15307    15612    15579    15554    15257 
   14860    14962    15426    16191    17313    17830    17027    15746 
   15218    15512    15529    15033    15202    15981    15948    15040 
   14570    15129    15888    16090    16225    16660    16821    16487 
   15988    15510    15334    15499    15373    14723    14153    14079 
   14334    14704    14975    14785    14328    14488    15371    16212 
   16762    17226    17324    16372    14590    13500    13716    14211 
   14331    14345    14793    15755    16164    15526    15037    15398 
   16085    16713    17146    17185    16762    16039    15473    15427 
   15560    15307    14875    14845    14968    14619    14152    14378 
   15175    15847    16310    16603    16276    15618    15592    16158 
   16734    17047    16687    15726    14882    14283    13806    13915 
   14824    16050    16821    16652    15992    15411    14935    15114 
   16363    17585    17701    16985    16159    15677    15491    15070 
   14439    14157    14067    13902    13950    14301    14997    15795 
   15861    15318    15124    15372    15647    15857    16086    16389 
   16868    17636    17994    16996    15291    14293    14300    14937 
   15778    16255    16227    15981    15526    14696    13826    13755 
   14755    16015    16627    16213    14821    13383    13003    13459 
   14071    14963    16194    17280    17905    17806    16861    15808 
   15634    16252    16511    15882    15357    15515    15564    15151 
   14604    14015    13716    14057    14661    15034    15341    16096 
   17062    17263    16702    16190    15645    14855    14461    14611 
   14844    15101    15074    14315    13336    12889    13082    13467 
   13579    13756    14256    14557    14601    14705    14989    15728 
   16387    16129    15610    15408    15022    14550    14288    14084 
   14297    14847    14898    14619    14489    14265    14165    14590 
   15241    15668    15673    15649    15762    15371    15026    15878 
   17107    17425    16803    15766    15149    15234    15180    14667 
   14280    14106    13814    13398    13188    13583    14473    15118 
   15060    14524    13822    13036    12324    12005    12164    12622 
   13432    14485    15319    16027    16698    16730    16146    15583 
   15048    14364    13636    13053    12757    12511    12225    12523 
   13605    14682    15105    14943    14647    14496    14396    14385 
   14628    14872    14775    14554    14706    15171    15456    15719 
   16511    17520    18054    18110    17995    17918    17910    17882 
   17942    18003    17737    17521    17764    17645    16691    15988 
   15867    15400    14775    14721    14837    14912    15404    16141 
   16536    16494    16546    17311    18373    18906    19292    20051 
   20548    20177    19303    18666    18215    17240    15877    14879 
   14474    14501    14512    14233    13987    13886    13979    14547 
   15240    15611    16005    16665    17151    17035    16492    16139 
   16287    16594    16699    16754    16935    17041    17004    16891 
   16609    16463    16667    16536    15808    15082    14331    13203 
   11979    11101    10787    11134    12175    13765    15223    16019 
   16468    16872    17282    17895    18492    18782    19152    19800 
   20270    20513    20950    21328    21072    20468    20071    19692 
   19002    18362    18187    18081    17517    16733    16066    15349 
   14569    14094    13865    13284    12231    11394    11226    11361 
   11300    11094    10993    10925    10706    10239     9670     9518 
    9990    10650    11217    12024    13497    15329    16571    16692 
   16158    15782    16112    17220    18542    19504    20158    20746 
   21474    22275    22617    22495    22426    22272    21577    20316 
   18949    18265    18304    18122    17390    16649    15913    14716 
   13466    13150    13729    14251    14203    13784    13405    13211 
   13132    13220    13462    13999    15187    16665    17591    17871 
   18021    18380    18958    19673    20457    21135    21406    21174 
   20826    20513    19727    18432    17289    16638    16480    16704 
   16970    17037    16934    16711    16112    15018    14256    14462 
   14870    14833    14844    15028    14704    13872    13266    12807 
   11780    10389     9423     9061     9003     9097     9639    10756 
   11759    11998    11682    11362    11275    11353    11599    12236 
   13421    14872    15977    16229    15588    14688    14211    13980 
   13479    12830    12451    12349    12305    12460    13135    14048 
   14720    15260    15595    15426    15115    14809    14122    13251 
   12479    11673    11119    11140    11489    12212    13740    15701 
   17018    17354    17282    17147    16842    16433    16073    15735 
   15581    15871    16437    16947    17286    17336    17026    16530 
   16137    15997    15984    15815    15452    15201    15290    15608 
   15897    16000    15881    15691    15695    15862    16077    16484 
   16961    17155    17093    17084    17199    16908    15797    14535 
   13829    13531    13490    13675    13842    13876    13583    12919 
   12552    12722    12974    13485    14397    15228    15869    16266 
   16336    16722    17752    18948    19896    20418    20637    20549 
   19845    18878    18153    17508    17116    17167    16868    15647 
   14114    13051    12675    12857    13497    14600    15909    16725 
   16899    17116    17436    17432    17556    18149    18485    18031 
   17325    17496    18951    20507    20898    20443    20069    19936 
   19606    18778    17855    17316    16858    16036    14953    13890 
   12907    12070    11691    11796    11695    10743     9306     8559 
    8974     9560     9509     9327     9675    10692    12183    13716 
   14917    15665    16079    16444    16953    17836    19186    20456 
   21192    21532    21355    20417    19132    18131    17672    17591 
   17606    17697    17950    18268    18422    18314    18265    18758 
   19554    19650    18616    17288    16391    15500    14187    12919 
   12225    12006    11676    11021    10654    10724    10692    10737 
   11178    11433    11210    11161    11838    13028    14331    15881 
   17759    19278    19776    19291    18496    18327    18881    19502 
   20052    20520    20545    20256    20005    19587    18729    17683 
   16885    16448    16186    15903    15491    14995    14561    14276 
   14145    14035    13887    13829    13763    13525    13373    13564 
   14138    15055    15877    16071    15658    14993    14540    14802 
   15685    16363    16220    15454    14370    12950    11550    10586 
    9759     8873     8224     7766     7348     7229     7433     7476 
    7258     7331     8056     9390    11145    12993    14590    15828 
   16802    17471    17679    17562    17587    18090    18885    19603 
   20137    20318    19913    19214    18801    18833    18900    18557 
   18007    17799    17876    17514    16314    14948    14335    14331 
   14176    13811    13595    13363    12896    12609    12734    12677 
   11979    10947     9992     9363     9265     9752    10662    11557 
   12168    12769    13409    13878    14512    15842    17868    19854 
   20861    21168    21878    22874    23195    22775    22086    21186 
   20061    19056    18526    18334    18198    18138    18358    18987 
   19764    20125    19669    18378    16843    15611    14432    13346 
   13117    13857    14773    15118    14767    14229    13922    13929 
   14364    14837    14573    13934    13883    14125    13957    13792 
   14180    14786    15309    15994    16846    17636    18544    19579 
   20245    20514    20819    21184    21415    21555    21717    21780 
   21421    20580    19531    18447    17612    17443    17543    17100 
   16164    15014    13582    12252    11491    11163    11175    11746 
   12796    13845    14650    15408    16108    16386    16148    15746 
   15665    15859    15928    16070    16571    17185    17887    18709 
   19282    19577    19863    19998    19662    18794    17764    16957 
   16168    15349    15052    15273    15269    14735    14125    13998 
   14365    14816    15117    15075    14453    13500    12711    12148 
   11757    11728    11948    11811    11094    10169     9327     8748 
    8581     8735     9070     9499     9958    10681    12032    13921 
   15784    17211    18192    18789    19017    18932    18642    18400 
   18504    18944    19394    19681    19847    19749    19248    18373 
   17049    15377    13649    11778     9620     7786     7272     8214 
    9747    11095    12178    13080    13675    14106    14748    15570 
   16497    17505    18076    17932    17440    16772    16132    16092 
   16691    17448    18137    18520    18130    16942    15595    14615 
   13954    13494    13235    12980    12525    11691    10301     8901 
    8386     8785     9815    11530    13532    15276    16818    18166 
   19273    20468    21816    23025    23884    24233    24059    23232 
   21830    20833    21004    21892    22700    23001    22781    22324 
   21882    21466    20968    20439    20133    20013    19562    18638 
   17802    17382    16885    15572    13274    10721     8757     7519 
    6833     6563     6442     6324     6237     6103     5726     5058 
    4622     4885     5652     6914     8743    10631    12272    13595 
   14250    14380    14647    15256    15867    15986    15527    15024 
   14805    14727    14724    14909    15434    16249    17000    17608 
   18482    19677    20571    20812    20603    20129    19516    18920 
   18378    17864    17394    17035    16849    16798    16829    17076 
   17678    18396    18914    19408    20202    21185    22237    23337 
   23940    23450    22027    20115    18150    16758    16229    16177 
   16020    15434    14481    13485    12668    11971    11416    11179 
   11318    11763    12136    11924    11418    11560    12617    14075 
   15589    17215    18885    20112    20607    20690    20663    20537 
   20344    20004    19354    18596    18103    17848    17516    16950 
   16213    15457    14728    13907    13236    13240    13761    14042 
   13617    12461    10835     9112     7585     6643     6727     7851 
    9598    11387    12877    14315    15834    16996    17626    17915 
   17861    17539    17220    17149    17402    17639    17412    16853 
   16406    16127    15745    15222    14850    14693    14594    14737 
   15145    15383    15489    15564    15114    14154    13224    12321 
   11303    10404     9907    10008    10625    11516    12599    13597 
   14262    14939    15946    17161    18272    18821    18808    18920 
   19403    19984    20467    20453    19811    19064    18465    17991 
   17776    17647    17293    16698    15967    15354    15211    15518 
   15811    15781    15688    15873    16108    15831    14943    13975 
   13259    12571    11962    11855    12398    13559    15068    16290 
   16906    17057    16680    15608    14075    12530    11361    10854 
   11137    12168    13562    14706    15408    15866    16027    15727 
   15130    14586    14415    14759    15477    16286    16953    17375 
   17571    17541    17297    16954    16583    16179    15843    15745 
   15916    16139    16031    15537    15076    14899    14852    14858 
   14932    15002    15087    15259    15542    15925    16093    15670 
   14912    14442    14435    14609    14813    15036    15267    15591 
   16046    16463    16615    16498    16474    16831    17304    17628 
   17957    18230    18169    17828    17463    17304    17458    17919 
   18590    19165    19519    19738    19546    18758    17683    16514 
   15361    14436    13674    13015    12708    12912    13440    14015 
   14461    14628    14565    14463    14211    13852    13869    14451 
   15558    17176    18887    20135    20776    20933    20653    19950 
   19182    18848    18789    18544    18148    17675    17000    16224 
   15491    14771    14222    14069    14156    14103    13788    13363 
   13015    12933    13255    13860    14432    14852    15229    15480 
   15398    15159    15144    15558    16374    17149    17423    17281 
   16960    16622    16452    16403    16279    16019    15630    15156 
   14864    15055    15593    16125    16515    16644    16405    15931 
   15325    14624    14102    14085    14389    14389    14075    14013 
   14314    14782    15210    15268    15037    14891    14755    14569 
   14642    14891    14963    14958    15087    15388    15915    16479 
   16839    17115    17285    17139    16787    16291    15569    14881 
   14478    14222    14017    13911    13713    13120    12145    11113 
   10249     9649     9389     9352     9494     9992    10818    11803 
   12880    13969    15136    16521    17876    18769    19079    18971 
   18735    18562    18335    17910    17319    16588    15857    15434 
   15387    15564    15946    16479    16887    17058    17136    17096 
   16848    16610    16646    16756    16497    15952    15519    15252 
   15113    14959    14419    13540    12815    12444    12326    12420 
   12684    13086    13687    14463    15182    15627    15830    15939 
   16020    16092    16248    16606    17072    17471    17936    18577 
   19099    19307    19444    19591    19359    18523    17321    16013 
   14760    13761    13063    12526    12172    12285    12883    13536 
   14046    14619    15179    15460    15562    15700    15858    15979 
   16043    15998    15784    15371    14932    14666    14466    14220 
   14061    14037    14103    14331    14725    15087    15153    14893 
   14558    14322    14219    14291    14450    14584    14688    14677 
   14500    14362    14484    14898    15500    16070    16372    16318 
   15915    15352    15009    14976    14968    14882    14854    14886 
   14940    15028    15080    15094    15169    15377    15751    16158 
   16279    16027    15673    15368    14985    14592    14435    14476 
   14527    14571    14767    15292    16054    16729    17149    17277 
   17192    17142    17128    17010    17000    17289    17676    17992 
   18345    18798    19155    19269    19228    18995    18415    17548 
   16700    16166    15900    15624    15311    15068    14828    14585 
   14436    14416    14655    15275    15966    16298    16237    16042 
   15969    16128    16416    16672    16854    16875    16513    15773 
   15021    14512    14196    14037    14040    14072    13984    13714 
   13342    13061    12934    12912    12926    12802    12692    13047 
   13790    14384    14647    14789    14951    15226    15714    16231 
   16632    17116    17710    18246    18754    19236    19488    19318 
   18754    18119    17635    17073    16316    15654    15238    14953 
   14783    14786    14883    14898    14744    14496    14212    13938 
   13932    14345    14783    14972    15184    15612    16205    16800 
   17100    17073    17015    17057    17115    17112    17061    16984 
   16783    16429    16031    15558    14924    14116    13203    12482 
   12145    12047    12148    12502    13078    13821    14451    14818 
