Origin Time       2025/01/13 21:19:00
Lat.              31.8
Long.             131.6
Depth. (km)       30
Mag.              6.9
Station Code      OIT006
Station Lat.      33.4211
Station Long.     131.3173
Station Height(m) 91
Record Time       2025/01/13 21:20:15
Sampling Freq(Hz) 100Hz
Duration Time(s)  94
Dir.              N-S
Scale Factor      7845(gal)/8223790
Max. Acc. (gal)   2.870
Last Correction   2025/01/13 21:20:15
Memo.             
[...]
  -11392   -11442   -11395   -11294   -11222   -11211   -11277   -11418 
  -11566   -11693   -11850   -12029   -12133   -12120   -12032   -11923 
  -11855   -11878   -11961   -12027   -12063   -12075   -12074   -12113 
  -12235   -12417   -12613   -12799   -12974   -13159   -13359   -13543 
  -13698   -13833   -13953   -14073   -14223   -14381   -14462   -14447 
  -14413   -14384   -14331   -14253   -14121   -13903   -13670   -13481 
  -13265   -12988   -12734   -12538   -12384   -12332   -12393   -12457 
  -12483   -12506   -12514   -12498   -12495   -12476   -12399   -12310 
  -12222   -12087   -11908   -11704   -11479   -11227   -10916   -10528 
  -10123    -9796    -9595    -9479    -9355    -9194    -9069    -9005 
   -8964    -8937    -8943    -8995    -9100    -9244    -9402    -9590 
   -9809   -10004   -10146   -10246   -10322   -10424   -10598   -10829 
  -11063   -11248   -11329   -11311   -11280   -11317   -11387   -11416 
  -11353   -11187   -11014   -10968   -11059   -11179   -11245   -11240 
  -11214   -11249   -11358   -11480   -11580   -11700   -11889   -12160 
  -12460   -12667   -12719   -12685   -12675   -12729   -12810   -12841 
  -12773   -12656   -12564   -12503   -12430   -12305   -12143   -12008 
  -11902   -11796   -11695   -11595   -11507   -11483   -11518   -11539 
  -11492   -11372   -11238   -11153   -11121   -11122   -11132   -11115 
  -11065   -11007   -10951   -10882   -10809   -10750   -10697   -10665 
  -10686   -10771   -10917   -11114   -11303   -11408   -11450   -11480 
  -11491   -11502   -11546   -11601   -11620   -11584   -11491   -11372 
  -11283   -11226   -11156   -11091   -11082   -11105   -11111   -11079 
  -11037   -11045   -11130   -11265   -11412   -11556   -11680   -11780 
  -11866   -11963   -12070   -12175   -12243   -12218   -12125   -12051 
  -12021   -11988   -11931   -11853   -11758   -11669   -11601   -11535 
  -11469   -11412   -11373   -11375   -11421   -11502   -11610   -11728 
  -11804   -11824   -11832   -11862   -11898   -11905   -11855   -11765 
  -11650   -11514   -11376   -11260   -11173   -11129   -11128   -11136 
  -11140   -11138   -11113   -11075   -11055   -11016   -10895   -10705 
  -10523   -10415   -10395   -10404   -10359   -10241   -10138   -10150 
  -10269   -10416   -10531   -10596   -10608   -10624   -10716   -10855 
  -10955   -11016   -11097   -11238   -11438   -11634   -11766   -11867 
  -12036   -12307   -12611   -12869   -13066   -13205   -13305   -13389 
  -13456   -13479   -13477   -13474   -13446   -13339   -13163   -12951 
  -12725   -12518   -12357   -12225   -12112   -12025   -11951   -11869 
  -11790   -11724   -11651   -11572   -11515   -11514   -11583   -11677 
  -11731   -11761   -11799   -11811   -11793   -11780   -11784   -11862 
  -12069   -12348   -12603   -12783   -12888   -12985   -13119   -13254 
  -13340   -13375   -13390   -13417   -13424   -13354   -13223   -13103 
  -13034   -12988   -12928   -12847   -12766   -12715   -12704   -12719 
  -12765   -12854   -12937   -12951   -12899   -12810   -12704   -12592 
  -12455   -12270   -12056   -11809   -11529   -11273   -11086   -10926 
  -10779   -10666   -10578   -10517   -10501   -10496   -10489   -10550 
  -10710   -10906   -11061   -11140   -11132   -11067   -11025   -11041 
  -11060   -11022   -10955   -10930   -10970   -11024   -11024   -10921 
  -10720   -10480   -10243   -10010    -9810    -9698    -9666    -9657 
   -9693    -9822   -10006   -10197   -10382   -10521   -10606   -10697 
  -10835   -11001   -11169   -11340   -11489   -11612   -11749   -11924 
  -12137   -12388   -12667   -12933   -13154   -13313   -13410   -13447 
  -13454   -13456   -13436   -13359   -13209   -12984   -12712   -12472 
  -12325   -12256   -12221   -12217   -12243   -12282   -12322   -12355 
  -12370   -12356   -12325   -12290   -12274   -12290   -12293   -12224 
  -12109   -12005   -11923   -11848   -11746   -11577   -11353   -11125 
  -10928   -10781   -10690   -10640   -10606   -10586   -10597   -10658 
  -10779   -10912   -10972   -10994   -11063   -11202   -11380   -11554 
  -11696   -11823   -11981   -12177   -12360   -12490   -12573   -12652 
  -12749   -12843   -12920   -12992   -13051   -13046   -12978   -12911 
  -12880   -12883   -12912   -12931   -12919   -12914   -12908   -12853 
  -12781   -12779   -12850   -12957   -13066   -13132   -13153   -13193 
  -13257   -13248   -13136   -12968   -12775   -12579   -12376   -12141 
  -11854   -11520   -11160   -10817   -10520   -10287   -10130   -10015 
   -9888    -9783    -9748    -9764    -9787    -9783    -9710    -9597 
   -9528    -9532    -9567    -9609    -9661    -9737    -9853    -9994 
  -10116   -10226   -10350   -10477   -10582   -10669   -10719   -10731 
  -10747   -10768   -10768   -10785   -10856   -10960   -11080   -11217 
  -11362   -11507   -11647   -11773   -11850   -11853   -11796   -11704 
  -11578   -11446   -11338   -11226   -11079   -10939   -10821   -10709 
  -10639   -10681   -10836   -11032   -11206   -11313   -11333   -11333 
  -11376   -11442   -11493   -11539   -11595   -11672   -11770   -11867 
  -11939   -11974   -11977   -11966   -11954   -11929   -11885   -11821 
  -11767   -11774   -11835   -11909   -12010   -12132   -12224   -12276 
  -12321   -12393   -12537   -12752   -12933   -12974   -12903   -12808 
  -12745   -12703   -12665   -12645   -12645   -12690   -12804   -12951 
  -13086   -13224   -13377   -13532   -13698   -13868   -14002   -14089 
  -14149   -14166   -14137   -14079   -13986   -13841   -13683   -13562 
  -13466   -13371   -13261   -13122   -12960   -12785   -12604   -12471 
  -12448   -12510   -12571   -12575   -12534   -12479   -12429   -12382 
  -12306   -12185   -12052   -11923   -11763   -11550   -11272   -10933 
  -10578   -10260    -9996    -9778    -9589    -9423    -9285    -9175 
   -9103    -9080    -9097    -9128    -9163    -9197    -9202    -9197 
   -9240    -9321    -9390    -9439    -9483    -9521    -9559    -9612 
   -9676    -9726    -9761    -9826    -9975   -10235   -10570   -10918 
  -11232   -11472   -11632   -11739   -11786   -11763   -11736   -11780 
  -11869   -11936   -11959   -11948   -11944   -11998   -12104   -12163 
  -12135   -12104   -12141   -12235   -12391   -12590   -12737   -12820 
  -12934   -13108   -13267   -13339   -13285   -13122   -12946   -12830 
  -12735   -12615   -12483   -12360   -12262   -12189   -12121   -12044 
  -11971   -11915   -11869   -11843   -11874   -11963   -12067   -12167 
  -12290   -12448   -12634   -12841   -13038   -13185   -13265   -13286 
  -13275   -13254   -13240   -13235   -13219   -13158   -13024   -12853 
  -12727   -12665   -12622   -12557   -12464   -12366   -12314   -12339 
  -12433   -12571   -12680   -12691   -12617   -12507   -12370   -12170 
  -11878   -11538   -11227   -10964   -10690   -10350    -9963    -9613 
   -9373    -9255    -9242    -9310    -9436    -9614    -9856   -10146 
  -10396   -10539   -10585   -10581   -10596   -10669   -10768   -10863 
  -10960   -11091   -11257   -11408   -11491   -11495   -11449   -11398 
  -11379   -11398   -11418   -11408   -11392   -11388   -11379   -11371 
  -11392   -11476   -11643   -11862   -12048   -12154   -12201   -12240 
  -12316   -12447   -12594   -12712   -12772   -12756   -12675   -12550 
  -12386   -12218   -12098   -12024   -11998   -12004   -12009   -12058 
  -12187   -12325   -12428   -12503   -12525   -12486   -12395   -12226 
  -11994   -11776   -11592   -11431   -11321   -11261   -11206   -11164 
  -11183   -11265   -11364   -11458   -11538   -11565   -11547   -11543 
  -11539   -11465   -11330   -11173   -11016   -10914   -10933   -11034 
  -11138   -11214   -11260   -11298   -11389   -11535   -11659   -11711 
  -11704   -11685   -11680   -11681   -11692   -11762   -11946   -12220 
  -12492   -12703   -12856   -13007   -13235   -13536   -13780   -13863 
  -13787   -13608   -13387   -13176   -12947   -12648   -12303   -11982 
  -11700   -11449   -11209   -10959   -10736   -10596   -10508   -10419 
  -10347   -10307   -10273   -10228   -10165   -10091   -10065   -10122 
  -10230   -10353   -10488   -10629   -10768   -10912   -11049   -11144 
  -11176   -11172   -11155   -11125   -11082   -11018   -10916   -10774 
  -10631   -10530   -10469   -10396   -10257   -10083    -9946    -9880 
   -9880    -9934   -10026   -10122   -10168   -10164   -10191   -10304 
  -10462   -10605   -10714   -10812   -10949   -11151   -11329   -11418 
  -11472   -11554   -11665   -11804   -11966   -12075   -12113   -12150 
  -12202   -12266   -12390   -12556   -12677   -12715   -12702   -12684 
  -12679   -12669   -12619   -12515   -12394   -12313   -12272   -12240 
  -12183   -12094   -12017   -11983   -11970   -11974   -12006   -12047 
  -12086   -12141   -12189   -12201   -12197   -12183   -12160   -12139 
  -12148   -12195   -12232   -12228   -12195   -12151   -12129   -12178 
  -12289   -12421   -12522   -12564   -12560   -12537   -12494   -12411 
  -12317   -12267   -12279   -12349   -12459   -12586   -12712   -12812 
  -12852   -12803   -12665   -12479   -12290   -12124   -12002   -11946 
  -11928   -11909   -11907   -11948   -12013   -12074   -12125   -12193 
  -12302   -12429   -12540   -12623   -12676   -12710   -12766   -12857 
  -12930   -12962   -13000   -13061   -13146   -13267   -13381   -13437 
  -13440   -13387   -13281   -13122   -12883   -12560   -12220   -11911 
  -11638   -11423   -11283   -11159   -11030   -10941   -10906   -10912 
  -10962   -11017   -11033   -11029   -11032   -11018   -10964   -10903 
  -10876   -10885   -10918   -10957   -10970   -10978   -11044   -11163 
  -11280   -11373   -11452   -11514   -11531   -11484   -11380   -11241 
  -11087   -10966   -10876   -10791   -10732   -10744   -10821   -10930 
  -11051   -11159   -11232   -11279   -11334   -11439   -11578   -11681 
  -11726   -11734   -11735   -11799   -11947   -12120   -12290   -12482 
  -12657   -12760   -12804   -12793   -12733   -12681   -12667   -12654 
  -12607   -12496   -12328   -12145   -11975   -11824   -11700   -11599 
  -11511   -11476   -11487   -11472   -11384   -11215   -11010   -10864 
  -10821   -10833   -10840   -10797   -10693   -10596   -10588   -10642 
  -10662   -10635   -10616   -10648   -10777   -11005   -11234   -11398 
  -11549   -11742   -11950   -12133   -12253   -12275   -12226   -12198 
  -12233   -12303   -12375   -12460   -12563   -12648   -12688   -12711 
  -12739   -12787   -12877   -13008   -13131   -13236   -13365   -13491 
  -13566   -13598   -13620   -13640   -13684   -13757   -13813   -13811 
  -13765   -13702   -13625   -13522   -13382   -13208   -12991   -12731 
  -12471   -12220   -11932   -11623   -11323   -11010   -10683   -10412 
  -10206    -9998    -9768    -9558    -9391    -9301    -9302    -9342 
   -9359    -9363    -9391    -9444    -9495    -9549    -9660    -9860 
  -10126   -10411   -10667   -10881   -11102   -11356   -11591   -11734 
  -11781   -11796   -11848   -11962   -12109   -12228   -12263   -12231 
  -12197   -12174   -12151   -12128   -12069   -11971   -11900   -11838 
  -11708   -11515   -11318   -11155   -11068   -11075   -11068   -10964 
  -10814   -10669   -10525   -10382   -10200    -9945    -9674    -9447 
   -9271    -9139    -9047    -8962    -8861    -8780    -8768    -8829 
   -8927    -9020    -9096    -9196    -9362    -9586    -9828   -10046 
  -10200   -10285   -10343   -10436   -10625   -10920   -11238   -11496 
  -11703   -11904   -12106   -12285   -12382   -12376   -12293   -12179 
  -12078   -11997   -11889   -11732   -11566   -11445   -11403   -11446 
  -11518   -11551   -11584   -11673   -11819   -12005   -12206   -12384 
  -12537   -12722   -12984   -13289   -13581   -13819   -13984   -14104 
  -14207   -14262   -14226   -14108   -13972   -13861   -13775   -13710 
  -13647   -13560   -13463   -13406   -13405   -13406   -13362   -13277 
  -13176   -13072   -12960   -12845   -12758   -12715   -12717   -12758 
  -12822   -12881   -12922   -12951   -12985   -13001   -12995   -12982 
  -12946   -12842   -12687   -12538   -12418   -12326   -12236   -12123 
  -11994   -11885   -11815   -11781   -11761   -11769   -11813   -11858 
  -11884   -11900   -11920   -11966   -12044   -12128   -12202   -12274 
  -12337   -12403   -12495   -12587   -12614   -12580   -12522   -12475 
  -12468   -12476   -12429   -12312   -12147   -11947   -11746   -11581 
  -11461   -11381   -11317   -11253   -11219   -11221   -11229   -11215 
  -11171   -11107   -11061   -11047   -11033   -11010   -11028   -11107 
  -11209   -11292   -11342   -11353   -11373   -11469   -11641   -11831 
  -11975   -12043   -12070   -12118   -12213   -12340   -12468   -12563 
  -12631   -12721   -12837   -12918   -12942   -12946   -12941   -12945 
  -13008   -13066   -13015   -12879   -12744   -12626   -12480   -12282 
  -12032   -11776   -11607   -11562   -11570   -11537   -11450   -11365 
  -11333   -11377   -11480   -11556   -11534   -11457   -11422   -11438 
  -11446   -11438   -11431   -11426   -11450   -11504   -11527   -11485 
  -11414   -11345   -11277   -11213   -11140   -11036   -10917   -10822 
  -10768   -10731   -10678   -10632   -10647   -10733   -10855   -10967 
  -11034   -11053   -11059   -11109   -11232   -11408   -11605   -11793 
  -11969   -12166   -12393   -12626   -12818   -12941   -13026   -13119 
  -13217   -13288   -13309   -13290   -13231   -13162   -13123   -13059 
  -12893   -12641   -12360   -12077   -11777   -11425   -11001   -10543 
  -10119    -9788    -9558    -9382    -9225    -9077    -8949    -8849 
   -8776    -8725    -8700    -8696    -8723    -8822    -8980    -9151 
   -9321    -9497    -9695    -9937   -10184   -10397   -10601   -10831 
  -11082   -11319   -11492   -11574   -11623   -11722   -11885   -12046 
  -12137   -12152   -12141   -12189   -12340   -12568   -12800   -12974 
  -13097   -13219   -13358   -13498   -13594   -13602   -13497   -13293 
  -13059   -12861   -12698   -12526   -12316   -12069   -11812   -11576 
  -11352   -11092   -10793   -10521   -10342   -10242   -10157   -10015 
   -9788    -9563    -9451    -9454    -9493    -9528    -9559    -9636 
   -9811   -10064   -10320   -10557   -10814   -11114   -11410   -11646 
  -11824   -11985   -12154   -12341   -12528   -12652   -12710   -12789 
  -12916   -13030   -13103   -13122   -13078   -13008   -12972   -12961 
  -12916   -12811   -12690   -12582   -12480   -12372   -12236   -12077 
  -11951   -11896   -11889   -11862   -11773   -11654   -11545   -11439 
  -11331   -11191   -11002   -10817   -10687   -10621   -10600   -10601 
  -10631   -10709   -10801   -10864   -10912   -10953   -10983   -11022 
  -11088   -11169   -11234   -11267   -11253   -11180   -11082   -11024 
  -11025   -11053   -11088   -11141   -11210   -11287   -11384   -11497 
  -11632   -11807   -12000   -12212   -12459   -12730   -12993   -13232 
  -13439   -13609   -13745   -13846   -13903   -13899   -13859   -13829 
  -13801   -13728   -13610   -13478   -13362   -13261   -13131   -12966 
  -12789   -12627   -12499   -12383   -12232   -12055   -11908   -11801 
  -11696   -11570   -11449   -11367   -11319   -11273   -11218   -11145 
  -11055   -10984   -10959   -10957   -10962   -11002   -11101   -11229 
  -11337   -11380   -11356   -11294   -11229   -11203   -11215   -11195 
  -11107   -11011   -10972   -10994   -11055   -11132   -11209   -11315 
  -11491   -11701   -11881   -12019   -12150   -12298   -12472   -12648 
  -12787   -12862   -12835   -12702   -12538   -12402   -12287   -12179 
  -12074   -11983   -11932   -11913   -11881   -11809   -11731   -11678 
  -11664   -11699   -11763   -11824   -11874   -11897   -11867   -11792 
  -11716   -11705   -11749   -11778   -11789   -11826   -11889   -11965 
  -12010   -11997   -11967   -11965   -11977   -11952   -11870   -11761 
  -11646   -11529   -11423   -11323   -11210   -11088   -10957   -10814 
  -10667   -10503   -10297   -10077    -9886    -9729    -9594    -9485 
   -9412    -9394    -9443    -9547    -9680    -9828    -9979   -10125 
  -10280   -10459   -10659   -10870   -11091   -11303   -11481   -11593 
  -11614   -11569   -11535   -11557   -11635   -11773   -11940   -12059 
  -12091   -12098   -12140   -12210   -12290   -12349   -12333   -12256 
  -12199   -12204   -12224   -12202   -12154   -12117   -12109   -12137 
  -12212   -12293   -12326   -12330   -12345   -12360   -12356   -12328 
  -12262   -12172   -12098   -12060   -12029   -11989   -11948   -11923 
  -11917   -11929   -11942   -11943   -11923   -11874   -11809   -11738 
  -11658   -11561   -11468   -11408   -11392   -11418   -11453   -11465 
  -11468   -11500   -11574   -11665   -11747   -11823   -11890   -11936 
  -11975   -12047   -12150   -12267   -12411   -12560   -12663   -12749 
  -12864   -12980   -13054   -13103   -13150   -13181   -13186   -13157 
  -13077   -12978   -12891   -12810   -12717   -12599   -12448   -12271 
  -12090   -11936   -11811   -11701   -11595   -11481   -11385   -11329 
  -11314   -11338   -11379   -11422   -11477   -11551   -11627   -11669 
  -11653   -11591   -11518   -11470   -11449   -11434   -11426   -11426 
  -11418   -11415   -11442   -11485   -11523   -11561   -11585   -11592 
  -11615   -11665   -11722   -11773   -11834   -11912   -11993   -12071 
  -12148   -12190   -12170   -12106   -12019   -11921   -11834   -11758 
  -11676   -11593   -11557   -11570   -11616   -11699   -11797   -11863 
  -11874   -11836   -11776   -11735   -11739   -11777   -11831   -11877 
  -11905   -11916   -11890   -11847   -11816   -11776   -11722   -11676 
  -11654   -11684   -11780   -11919   -12066   -12202   -12312   -12399 
  -12475   -12532   -12556   -12533   -12471   -12386   -12279   -12171 
  -12063   -11934   -11799   -11678   -11569   -11484   -11453   -11465 
  -11479   -11446   -11361   -11259   -11183   -11159   -11156   -11118 
  -11014   -10863   -10717   -10604   -10508   -10393   -10223   -10014 
   -9819    -9674    -9560    -9445    -9321    -9215    -9153    -9155 
   -9211    -9270    -9300    -9317    -9385    -9540    -9729    -9867 
   -9941   -10006   -10115   -10287   -10485   -10655   -10795   -10978 
  -11259   -11599   -11942   -12264   -12530   -12725   -12896   -13061 
  -13186   -13265   -13304   -13294   -13261   -13234   -13209   -13163 
  -13086   -12985   -12876   -12775   -12672   -12565   -12472   -12388 
  -12324   -12295   -12280   -12266   -12275   -12290   -12276   -12259 
  -12266   -12272   -12264   -12258   -12262   -12290   -12356   -12436 
  -12501   -12553   -12626   -12727   -12837   -12933   -12988   -13004 
  -13012   -13030   -13049   -13045   -12995   -12900   -12807   -12765 
  -12760   -12741   -12690   -12602   -12494   -12409   -12353   -12270 
  -12147   -12037   -11944   -11839   -11727   -11597   -11460   -11365 
  -11325   -11306   -11269   -11199   -11129   -11083   -11072   -11103 
  -11136   -11128   -11110   -11114   -11130   -11156   -11206   -11287 
  -11391   -11493   -11572   -11618   -11664   -11746   -11848   -11921 
  -11946   -11938   -11908   -11888   -11885   -11866   -11808   -11727 
  -11614   -11458   -11292   -11148   -11020   -10903   -10809   -10736 
  -10675   -10633   -10611   -10571   -10508   -10453   -10419   -10415 
  -10467   -10578   -10696   -10767   -10787   -10791   -10820   -10881 
  -10936   -10960   -10984   -11061   -11192   -11329   -11437   -11529 
  -11630   -11745   -11863   -11986   -12117   -12264   -12414   -12529 
