Origin Time       2025/01/13 21:19:00
Lat.              31.8
Long.             131.6
Depth. (km)       30
Mag.              6.9
Station Code      OIT017
Station Lat.      32.8579
Station Long.     131.6576
Station Height(m) 251
Record Time       2025/01/13 21:20:00
Sampling Freq(Hz) 100Hz
Duration Time(s)  84
Dir.              N-S
Scale Factor      7845(gal)/8223790
Max. Acc. (gal)   7.105
Last Correction   2025/01/13 21:20:00
Memo.             
[...]
   12891    13266    13216    12607    11858    11503    11684    12055 
   12231    12199    12181    12139    11854    11661    12114    12633 
   12213    11256    10940    11450    11950    11951    11881    12074 
   12074    11437    10658    10570    11056    11462    11757    12275 
   12954    13182    12573    11765    11569    11846    12060    12106 
   12172    12276    12150    11562    10881    10963    11911    12618 
   12340    11530    10987    11052    11326    11244    11009    11175 
   11568    11595    11296    11330    12112    13073    12987    11712 
   10785    11064    11497    11286    11110    11535    11917    11485 
   10786    10848    11452    11851    12171    12563    12367    11318 
   10285     9988    10191    10690    11711    12900    13316    12787 
   12121    11842    11761    11750    11967    12368    12634    12641 
   12718    13057    13136    12596    11909    11558    11527    11593 
   11654    11911    12411    12650    12289    11736    11489    11518 
   11708    12159    12672    12789    12600    12507    12379    11993 
   11774    12181    12831    12895    12224    11547    11352    11344 
   11318    11533    11902    11939    11572    11221    11244    11584 
   11738    11389    10994    11095    11619    12121    12166    11726 
   11468    12078    13109    13406    12771    11969    11373    10908 
   10791    11389    12398    12842    12195    11128    10574    10477 
   10588    11388    12529    12633    11726    11097    11009    10790 
   10374    10368    10855    11233    11419    11898    12683    13319 
   13374    12753    11985    11565    11253    10887    10929    11496 
   12031    12166    12017    11709    11313    11053    11076    11268 
   11520    11801    11962    11839    11599    11545    11560    11307 
   11030    11341    12179    12750    12719    12677    12970    13055 
   12684    12252    11804    11229    10754    10617    10937    11502 
   11732    11396    10962    11043    11638    12093    11973    11701 
   11720    11557    10993    10926    11916    13170    13466    12501 
   11223    10671    10889    11381    11857    12074    11797    11307 
   11315    11954    12545    12518    11931    11218    10677    10363 
   10471    11205    12117    12509    12488    12550    12677    12695 
   12688    12780    12799    12637    12518    12426    12189    11977 
   11915    11817    11580    11303    11029    10759    10551    10443 
   10473    10577    10602    10728    11142    11502    11738    12469 
   13663    14214    13586    12537    11998    12043    11877    11090 
   10542    10943    11705    12172    12557    12976    12804    11828 
   10890    10797    11461    12326    13024    13225    12723    12052 
   11754    11646    11531    11407    11414    11677    11854    11682 
   11491    11611    11884    11913    11651    11341    11148    11107 
   11079    10875    10594    10520    10781    11213    11503    11462 
   11184    11067    11388    11811    11889    11838    12024    12218 
   12259    12332    12156    11452    10845    11105    11985    12397 
   11886    11257    11230    11485    11426    11194    11200    11205 
   10998    11048    11533    11966    12139    12124    11792    11303 
   11075    11041    10847    10419    10226    10883    12073    12673 
   12352    11956    12096    12366    12259    11847    11379    11137 
   11503    12337    12934    13005    12822    12429    11799    11398 
   11682    12305    12344    11566    10897    10983    11221    11006 
   10736    10903    11442    12137    12557    12289    11672    11288 
   11313    11695    12082    12082    11765    11416    11295    11576 
   11919    11820    11607    11774    11865    11345    10582    10305 
   10777    11319    11013    10261    10354    11353    12016    11848 
   11608    11847    12140    11800    11090    10998    11574    11813 
   11275    10731    10983    11711    12197    12332    12221    11913 
   11578    11504    11919    12414    12163    11242    10658    10851 
   11377    11766    11785    11510    11414    11676    11696    11164 
   10817    11230    11830    11797    11261    11075    11560    12108 
   12162    11955    12035    12424    12556    12132    11581    11313 
   11133    10893    10843    10953    11017    11225    11537    11580 
   11534    11696    11871    11884    11821    11788    11743    11657 
   11747    12136    12402    12137    11793    11997    12403    12199 
   11311    10409     9931     9853    10245    11033    11557    11389 
   11092    11412    12271    12927    13046    13147    13495    13689 
   13672    13695    13633    13365    13062    12752    12364    12028 
   11855    11955    12243    12222    11853    11701    11927    12198 
   12248    12048    11826    11821    11956    12000    11898    11700 
   11389    10940    10592    10721    11155    11381    11384    11373 
   11318    11218    11218    11371    11538    11632    11878    12328 
   12555    12434    12447    12839    13130    12752    12105    12239 
   13065    13273    12502    11820    11820    12006    11878    11458 
   11064    10905    11018    11526    12253    12591    12472    12476 
   12663    12499    11867    11188    10897    11102    11492    11736 
   11967    12375    12742    12806    12582    12241    11952    11631 
   11013    10153     9543     9738    10878    12171    12434    11634 
   10867    10696    10744    10754    10835    10845    10403     9652 
    9410    10053    11018    11801    12401    12922    13421    13782 
   13811    13510    12973    12495    12563    13159    13572    13298 
   12613    12077    11896    11975    12390    13097    13514    13358 
   13278    13791    14546    14975    14841    14206    13332    12533 
   11897    11199    10308     9568     9416     9705     9972    10127 
   10223    10295    10544    10925    11313    11966    12842    13452 
   13763    14072    14332    14362    14088    13559    13244    13466 
   13594    13070    12384    12117    12042    11630    10805    10014 
    9499     8919     8274     8128     8284     8039     7798     8488 
    9911    11275    12268    12845    13078    13251    13620    14258 
   14802    14733    14301    14131    14091    13718    13270    13180 
   13189    12814    12042    11327    11022    10835    10281     9410 
    8607     8163     8109     8182     8266     8698     9566    10282 
   10550    10922    11745    12577    12947    13014    13404    14257 
   14870    14736    14226    14106    14484    14782    14879    15140 
   15412    14935    13518    12194    11834    12031    12032    11816 
   11827    12168    12480    12394    11871    11304    11009    10737 
   10216     9621     9171     8822     8405     7884     7452     7402 
    7744     7994     7831     7713     8066     8615     9022     9414 
   10042    10786    11392    11988    12965    14461    16046    17103 
   17608    18013    18424    18700    18941    19161    18976    18125 
   17026    16298    15811    14995    13873    12939    12330    11735 
   11009    10451    10311    10361    10308    10098     9691     9169 
    8776     8422     7896     7592     8000     8869     9645    10188 
   10727    11376    11975    12448    12900    13127    12771    11950 
   10990    10062     9369     9042     9012     9189     9521     9933 
   10385    10891    11458    12171    12838    12950    12594    12228 
   11612    10376     9039     8364     8417     8954     9702    10261 
   10531    10750    10817    10480    10093    10187    10632    10953 
   10922    10786    10947    11392    11785    12135    12654    13088 
   13023    12648    12424    12444    12474    12333    12209    12421 
   12776    12738    12181    11399    10581     9744     9055     8766 
    8830     8976     9196     9562     9763     9616     9456     9529 
    9763     9956     9883     9768    10022    10381    10455    10584 
   11315    12641    13941    14596    14760    15159    15923    16382 
   16177    15735    15566    15641    15584    15257    14910    14735 
   14543    14187    13792    13306    12614    11912    11300    10752 
   10516    10666    10862    10864    10752    10775    11045    11155 
   10827    10563    10670    10731    10673    10929    11466    11862 
   11951    11789    11510    11281    11196    11277    11411    11318 
   11003    10779    10594    10215     9756     9413     9288     9441 
    9752    10211    11047    12085    12885    13464    14168    15145 
   16102    16498    16047    14964    13779    12849    12209    11776 
   11406    10990    10534    10098     9917    10164    10481    10619 
   10976    11664    12206    12453    12536    12359    11932    11566 
   11400    11209    10816    10443    10503    10964    11259    11287 
   11731    12764    13597    13695    13398    13163    12914    12337 
   11526    11071    11265    11572    11526    11344    11192    11048 
   11165    11705    12302    12681    13147    13778    14054    13868 
   13740    13790    13568    12995    12522    12421    12545    12715 
   12941    13254    13443    13180    12563    12231    12600    13262 
   13392    12768    11948    11333    10774    10266    10089    10322 
   10696    10862    10801    10824    11018    11125    10962    10605 
   10125     9433     8685     8402     8899     9830    10513    10663 
   10671    11061    11823    12388    12330    11896    11591    11483 
   11396    11445    11805    12208    12175    11691    11152    10852 
   10783    10731    10513    10200     9945     9774     9698     9967 
   10748    11604    12002    12013    11956    11997    12085    12047 
   11894    11796    11811    11884    12125    12771    13659    14260 
   14411    14507    14817    15094    15137    15060    14875    14632 
   14535    14511    14442    14546    14840    14921    14573    13925 
   13244    12802    12496    11974    11191    10389     9906     9991 
   10359    10482    10373    10328    10392    10482    10478    10231 
    9825     9517     9432     9605     9990    10328    10482    10589 
   10616    10368     9902     9472     9258     9254     9293     9231 
    9027     8749     8590     8648     8725     8532     8098     7946 
    8490     9424    10181    10600    10818    11036    11431    11971 
   12386    12587    12638    12401    11866    11373    11178    11190 
   11172    11059    11020    11183    11304    11063    10674    10543 
   10588    10677    11034    11596    11978    12236    12696    13355 
   13972    14407    14702    14828    14605    14156    13914    13861 
   13420    12378    11335    11034    11568    12341    12815    12947 
   12910    12981    13516    14515    15627    16551    17139    17363 
   17228    16834    16465    16160    15608    14677    13427    12132 
   11373    11213    10970    10361     9759     9452     9444     9602 
    9737     9687     9435     9170     9009     8729     8225     7940 
    8290     9099    10034    11130    12515    13929    14848    15007 
   14690    14328    13946    13405    12765    12240    12067    12317 
   12891    13548    13872    13640    12996    12256    11723    11464 
   11230    10713     9887     8989     8334     8149     8216     8131 
    7911     7674     7485     7645     8158     8563     8796     9293 
   10251    11511    12727    13502    13830    14133    14655    15187 
   15468    15560    15545    15159    14369    13672    13320    13130 
   13032    12958    12595    11785    10833    10288    10462    11119 
   11749    12141    12463    12731    12730    12468    12167    11867 
   11394    10652     9848     9459     9829    10658    11279    11487 
   11685    12148    12550    12492    12101    11831    11870    12064 
   12298    12534    12650    12625    12729    13169    13559    13427 
   12999    12684    12402    11875    11176    10870    11326    12051 
   12290    11929    11334    10759    10303    10073    10088    10319 
   10644    10635    10037     9258     8802     8618     8426     8280 
    8382     8669     8957     9234     9672    10400    11288    12222 
   13319    14396    15018    15286    15526    15461    14702    13597 
   12749    12264    12100    12372    13011    13716    14142    14297 
   14496    14665    14538    14156    13593    13026    12792    12901 
   13034    13096    13209    13319    13259    13041    12850    12831 
   12919    12989    12964    12691    12098    11371    10701    10031 
    9208     8333     7734     7555     7661     7924     8351     8922 
    9630    10611    11920    13292    14234    14503    14511    14816 
   15337    15646    15542    14993    14123    13332    12930    12721 
   12301    11622    10928    10280     9512     8599     7777     7265 
    7036     6960     6980     6980     6806     6438     5949     5441 
    5142     5340     6038     6866     7560     8268     9271    10660 
   12199    13328    13733    13679    13454    13059    12528    12156 
   12293    12889    13586    14210    14854    15539    16125    16584 
   17065    17512    17574    16969    15728    14131    12542    11250 
   10315     9558     8943     8799     9175     9590     9801     9988 
   10288    10731    11168    11346    11245    10855    10054     9034 
    8255     8093     8623     9450    10049    10409    10736    10917 
   10899    10987    11283    11487    11578    11963    12806    13980 
   15384    16800    18025    18905    19194    18981    18806    18873 
   18738    18123    17400    16974    16726    16197    15192    14017 
   12820    11234     9148     7107     5692     5115     5344     6268 
    7708     9339    10756    11815    12627    13235    13609    13730 
   13466    12772    12028    11596    11377    11330    11701    12433 
   13014    13084    12906    12899    13022    13011    12803    12517 
   12266    12028    11776    11666    11909    12433    12914    13161 
   13082    12555    11807    11396    11425    11418    11137    10813 
   10571    10228     9728     9351     9223     8997     8449     7861 
    7555     7557     7770     8144     8656     9312    10137    11026 
   11782    12453    13093    13329    12933    12249    11615    11142 
   10899    10732    10532    10498    10665    10771    10647    10323 
   10022    10181    11040    12189    13008    13340    13421    13516 
   13751    13986    13890    13309    12379    11222    10006     9043 
    8519     8452     8781     9267     9726    10249    10851    11211 
   11130    10971    11241    11966    12630    12650    12131    11828 
   12085    12575    13109    13783    14585    15377    16013    16405 
   16553    16483    16171    15718    15442    15471    15434    14917 
   13917    12708    11565    10639     9992     9710     9815    10120 
   10438    10758    11010    11074    11071    11080    10971    10845 
   11040    11554    12091    12595    13289    14091    14511    14324 
   13867    13447    12950    12174    11280    10704    10609    10687 
   10709    10898    11421    11911    11954    11691    11542    11551 
   11429    11092    10739    10431    10071     9722     9601     9761 
    9926     9821     9593     9551     9725     9961    10143    10138 
    9783     9190     8766     8783     9180     9736    10292    10768 
   10962    10705    10107     9373     8753     8671     9309    10212 
   10841    11281    11996    13116    14351    15426    16179    16418 
   15963    14856    13629    12908    12745    12814    12907    12964 
   12960    12950    12973    12945    12816    12583    12087    11335 
   10872    11145    11766    12172    12340    12344    12162    11973 
   11961    11966    11653    11011    10542    10740    11353    11695 
   11704    11777    11813    11470    11020    11005    11333    11495 
   11373    11236    11211    11211    11172    11098    11016    10994 
   11047    11094    11114    11202    11421    11693    11950    12171 
   12213    11898    11323    10793    10390     9975     9632     9568 
    9693     9711     9526     9367     9522     9954    10349    10507 
   10593    11034    11958    12907    13406    13394    12972    12185 
   11286    10725    10643    10733    10727    10747    11090    11742 
   12447    13112    13660    13834    13593    13302    13335    13587 
   13567    13012    12132    11233    10617    10562    10953    11414 
   11716    11774    11622    11449    11450    11592    11614    11323 
   10879    10760    11300    12255    13061    13436    13537    13537 
   13378    13028    12568    11993    11234    10319     9423     8830 
    8770     9211     9913    10633    11227    11709    12136    12452 
   12704    13074    13458    13493    13099    12637    12521    12800 
   13131    13063    12391    11317    10211     9293     8741     8706 
    8995     9138     8930     8683     8914     9698    10525    11025 
   11265    11308    11144    10872    10616    10481    10509    10567 
   10646    11034    11835    12703    13335    13887    14782    16119 
   17321    17680    17135    16147    15140    14256    13359    12326 
   11317    10477     9729     9057     8588     8329     8176     8078 
    7994     7973     8279     9120    10265    11240    11848    12268 
   12615    12881    13219    13798    14607    15502    16133    16178 
   15765    15265    14870    14712    14816    14746    14045    12847 
   11643    10813    10408    10212    10038     9795     9348     8685 
    8149     8162     8780     9698    10563    11230    11834    12475 
   13043    13483    13944    14546    15178    15655    15893    15715 
   14943    13771    12684    12113    12081    12051    11533    10732 
   10150    10004    10270    10681    10847    10759    10741    10959 
   11379    11935    12480    12822    13001    13219    13429    13402 
   13053    12461    11785    11252    11107    11457    12131    12698 
   12748    12395    12102    12070    12249    12587    12930    13012 
   12654    11938    11155    10644    10636    10975    11168    10894 
   10235     9528     9155     9204     9366     9347     9197     9103 
    9163     9477    10002    10524    10926    11142    11097    11022 
   11211    11492    11547    11344    10944    10361     9674     9024 
    8583     8560     8974     9576    10220    10948    11642    12144 
   12618    13227    13841    14331    14663    14724    14462    14053 
   13659    13297    12964    12626    12262    12010    12025    12206 
   12271    12140    12052    12131    12118    11799    11338    10975 
   10744    10588    10473    10443    10508    10554    10534    10538 
   10539    10389    10231    10521    11354    12282    12928    13305 
   13578    13783    13824    13706    13640    13632    13313    12533 
   11612    10921    10571    10438    10316    10191    10183    10384 
   10771    11124    11180    10999    10908    11080    11418    11848 
   12376    12830    13077    13263    13463    13479    13177    12669 
   12163    11867    11934    12336    12830    13109    13120    13109 
   13220    13327    13324    13281    13247    13103    12745    12312 
   12069    12036    11886    11411    10860    10619    10679    10735 
   10704    10719    10759    10767    10879    11152    11337    11265 
