Origin Time       2025/01/13 21:19:00
Lat.              31.8
Long.             131.6
Depth. (km)       30
Mag.              6.9
Station Code      OIT010
Station Lat.      33.2317
Station Long.     131.5934
Station Height(m) 7
Record Time       2025/01/13 21:20:00
Sampling Freq(Hz) 100Hz
Duration Time(s)  161
Dir.              N-S
Scale Factor      7845(gal)/8223790
Max. Acc. (gal)   28.532
Last Correction   2025/01/13 21:20:00
Memo.             
[...]
   27207    27000    27055    27344    27766    28193    28576    28902 
   29178    29435    29675    29897    30086    30230    30326    30384 
   30370    30172    29758    29187    28506    27735    26928    26199 
   25629    25212    24979    25004    25243    25529    25753    25878 
   25866    25728    25539    25419    25466    25659    25901    26119 
   26326    26554    26790    26989    27137    27267    27452    27756 
   28183    28699    29282    29922    30562    31114    31486    31600 
   31417    30940    30233    29413    28595    27870    27256    26698 
   26125    25535    24989    24498    24036    23604    23179    22728 
   22258    21810    21408    21062    20772    20488    20142    19723 
   19279    18821    18349    17883    17460    17103    16833    16650 
   16521    16411    16326    16231    16066    15816    15477    15109 
   14855    14816    15016    15445    16060    16785    17578    18435 
   19309    20148    20902    21513    22006    22418    22777    23106 
   23436    23834    24324    24871    25394    25817    26072    26086 
   25866    25513    25118    24759    24476    24348    24507    25064 
   26005    27140    28267    29304    30253    31155    31974    32640 
   33168    33624    34038    34385    34588    34501    34014    33166 
   32046    30724    29307    27897    26588    25481    24652    24090 
   23770    23746    24052    24700    25701    27010    28548    30226 
   31905    33430    34717    35749    36513    37060    37476    37867 
   38381    39063    39823    40586    41272    41790    42084    42080 
   41705    40937    39831    38496    37100    35795    34632    33590 
   32622    31700    30801    29897    28929    27862    26762    25756 
   24970    24460    24185    24088    24144    24343    24671    25070 
   25417    25632    25729    25748    25713    25663    25629    25645 
   25776    26055    26410    26731    26966    27124    27189    27106 
   26862    26480    26006    25469    24894    24295    23677    23055 
   22441    21782    21027    20200    19361    18539    17757    17054 
   16434    15854    15257    14605    13902    13182    12515    12010 
   11782    11874    12253    12874    13699    14704    15884    17182 
   18504    19809    21107    22412    23722    24991    26134    27047 
   27649    27911    27882    27657    27328    26975    26678    26480 
   26385    26383    26464    26613    26819    27090    27422    27754 
   28023    28258    28528    28857    29224    29542    29701    29660 
   29438    29095    28750    28525    28522    28794    29297    29925 
   30553    31037    31306    31401    31380    31276    31114    30920 
   30704    30473    30238    30006    29828    29789    29864    29974 
   30123    30346    30655    31016    31326    31503    31472    31241 
   30897    30476    29943    29232    28337    27340    26369    25533 
   24842    24256    23782    23444    23215    23032    22816    22481 
   22022    21519    21078    20835    20937    21490    22464    23743 
   25205    26688    28080    29331    30426    31391    32224    32902 
   33380    33637    33723    33658    33426    32965    32201    31141 
   29830    28375    26960    25689    24565    23611    22863    22354 
   22106    22098    22285    22632    23106    23664    24300    25027 
   25874    26860    27969    29166    30441    31788    33211    34713 
   36292    37939    39648    41365    43008    44483    45685    46473 
   46737    46473    45697    44413    42674    40558    38159    35500 
   32552    29357    25978    22515    19136    15965    13055    10482 
    8340     6681     5506     4735     4295     4182     4290     4506 
    4810     5194     5664     6230     6978     8016     9420    11205 
   13266    15572    18171    20995    23916    26775    29400    31641 
   33427    34784    35750    36416    36883    37183    37331    37300 
   37027    36481    35638    34555    33300    31877    30338    28836 
   27488    26302    25292    24510    23893    23323    22669    21791 
   20638    19218    17617    15958    14334    12857    11647    10864 
   10686    11192    12383    14177    16453    19072    21876    24761 
   27643    30410    32972    35248    37111    38502    39521    40277 
   40849    41347    41760    41976    41922    41580    40929    39889 
   38389    36487    34352    32212    30316    28803    27656    26784 
   26067    25404    24702    23928    23148    22439    21910    21745 
   22118    23082    24653    26754    29177    31684    33971    35791 
   36954    37342    37072    36285    35106    33797    32591    31580 
   30645    29554    28132    26302    24120    21697    19168    16733 
   14574    12826    11576    10854    10693    11187    12370    14042 
   15915    17802    19599    21200    22567    23800    25008    26276 
   27689    29319    31207    33258    35241    36948    38303    39387 
   40263    40918    41359    41580    41578    41350    40826    40007 
   38963    37822    36767    35934    35394    35082    34854    34614 
   34241    33644    32788    31669    30294    28645    26797    24921 
   23182    21670    20371    19234    18203    17209    16218    15228 
   14291    13504    12951    12687    12698    12928    13339    13890 
   14563    15349    16228    17134    17972    18612    18922    18893 
   18679    18509    18461    18480    18621    18981    19534    20267 
   21173    22194    23261    24285    25172    25814    26137    26212 
   26173    26056    25840    25548    25203    24813    24383    23926 
   23495    23182    23082    23255    23676    24285    25012    25798 
   26642    27571    28584    29681    30863    32097    33266    34238 
   34950    35340    35345    34994    34389    33654    32940    32385 
   32073    32061    32297    32659    33062    33407    33601    33578 
   33309    32805    32112    31356    30631    29914    29099    28030 
   26609    24753    22403    19631    16625    13668    11044     8964 
    7549     6836     6847     7589     9054    11171    13774    16690 
   19738    22778    25747    28578    31230    33675    35888    37878 
   39618    41046    42183    43031    43511    43605    43362    42822 
   42115    41409    40747    40105    39478    38853    38194    37447 
   36560    35473    34176    32682    30997    29191    27333    25528 
   23981    22887    22356    22342    22720    23373    24167    24997 
   25806    26501    27002    27332    27562    27749    27907    28026 
   28036    27814    27232    26246    24918    23371    21712    19965 
   18176    16460    14899    13516    12285    11169    10158     9240 
    8414     7743     7292     7090     7187     7578     8267     9344 
   10860    12780    14959    17220    19487    21752    24015    26319 
   28745    31287    33852    36371    38769    41002    43052    44864 
   46377    47547    48324    48645    48459    47833    46889    45751 
   44543    43305    42095    40999    40015    39091    38164    37168 
   36066    34830    33401    31734    29853    27828    25759    23762 
   21883    20100    18399    16779    15223    13730    12322    11001 
    9769     8712     7938     7603     7858     8703    10053    11763 
   13652    15610    17575    19475    21263    22937    24460    25779 
   26894    27827    28583    29160    29533    29654    29454    28917 
   28080    26997    25780    24578    23522    22697    22115    21759 
   21595    21641    22014    22783    23870    25151    26553    28004 
   29423    30797    32139    33389    34493    35436    36157    36597 
   36786    36791    36738    36807    37127    37732    38573    39559 
   40549    41351    41831    41949    41756    41349    40749    39964 
   38990    37781    36329    34712    33025    31328    29686    28162 
   26766    25532    24478    23523    22639    21830    21091    20457 
   19926    19448    19009    18613    18216    17768    17292    16764 
   16187    15649    15169    14724    14237    13587    12739    11747 
   10736     9876     9335     9186     9371     9810    10363    10824 
   11065    11020    10689    10125     9366     8480     7554     6704 
    6038     5651     5664     6162     7084     8260     9521    10781 
   12066    13451    14976    16723    18778    21099    23572    26094 
   28580    30998    33366    35662    37775    39614    41138    42338 
   43263    43935    44371    44640    44783    44788    44597    44131 
   43322    42205    40846    39235    37458    35680    34010    32609 
   31553    30836    30443    30348    30550    30989    31557    32127 
   32579    32894    33043    33030    32926    32772    32609    32460 
   32309    32124    31878    31549    31070    30408    29587    28606 
   27511    26407    25434    24682    24186    24005    24120    24468 
   24983    25573    26163    26766    27413    28082    28767    29413 
   30017    30669    31294    31735    31831    31429    30469    28983 
   27055    24800    22424    20142    18142    16613    15591    15032 
   14836    14891    15156    15576    16175    16985    18019    19361 
   20989    22860    24911    27013    29025    30751    32088    32931 
   33214    33030    32444    31633    30842    30211    29897    29893 
   30110    30461    30834    31191    31460    31644    31797    31931 
   32166    32605    33312    34307    35527    36934    38460    40022 
   41477    42635    43411    43738    43649    43278    42742    42244 
   41947    41891    42055    42317    42545    42626    42503    42098 
   41342    40289    39037    37764    36651    35819    35355    35191 
   35191    35195    35019    34560    33728    32493    30986    29376 
   27807    26320    24895    23519    22149    20738    19210    17501 
   15618    13626    11655     9823     8236     6957     5967     5228 
    4688     4279     3935     3557     3091     2532     1925     1393 
    1066     1017     1256     1764     2492     3302     4028     4587 
    4988     5314     5707     6277     7094     8194     9551    11134 
   12895    14690    16405    17990    19390    20510    21255    21668 
   21956    22347    22995    23944    25157    26528    27938    29300 
   30585    31783    32917    34110    35472    37042    38799    40618 
   42419    44205    45937    47576    49076    50329    51254    51844 
   52101    52065    51791    51320    50730    50049    49262    48321 
   47143    45760    44263    42735    41285    39961    38812    37779 
   36694    35456    33949    32134    30065    27853    25664    23652 
   21948    20580    19506    18667    17937    17247    16571    15842 
   14997    14050    13162    12496    12198    12363    12879    13603 
   14423    15217    15880    16306    16510    16584    16630    16777 
   17096    17548    17998    18293    18355    18171    17825    17462 
   17184    17014    16957    17109    17559    18382    19627    21209 
   23026    24949    26842    28633    30241    31646    32915    34165 
   35499    36845    38088    39155    39943    40396    40441    40046 
   39322    38487    37744    37153    36670    36209    35644    34865 
   33831    32628    31353    30005    28634    27306    26041    24818 
   23610    22442    21335    20299    19313    18346    17393    16398 
   15385    14485    13813    13508    13668    14293    15322    16634 
   18103    19635    21219    22863    24551    26271    27950    29479 
   30762    31718    32343    32584    32394    31777    30693    29146 
   27236    25118    23009    21142    19661    18585    17919    17679 
   17822    18306    19091    20140    21431    22952    24700    26601 
   28486    30148    31438    32363    32968    33270    33369    33339 
   33184    32867    32332    31587    30640    29494    28147    26628 
   25024    23414    21890    20536    19373    18445    17753    17182 
   16695    16372    16222    16328    16794    17579    18667    19981 
   21446    22977    24409    25732    26993    28266    29613    30951 
   32228    33376    34376    35270    36007    36579    36953    37098 
   37046    36826    36553    36300    36146    36236    36590    37191 
   37957    38740    39469    40061    40500    40832    41076    41277 
   41442    41596    41756    41863    41894    41759    41411    40922 
   40309    39637    38951    38225    37516    36811    36077    35351 
   34605    33774    32788    31633    30327    28892    27400    25884 
   24349    22815    21293    19781    18196    16495    14685    12798 
   10936     9232     7836     6806     6108     5724     5555     5518 
    5601     5711     5724     5530     5144     4714     4336     4062 
    3902     3839     3932     4206     4683     5448     6552     8109 
   10234    12920    16044    19407    22825    26184    29401    32444 
   35239    37674    39715    41334    42491    43235    43614    43630 
   43312    42722    41936    41018    40011    38938    37824    36649 
   35371    33967    32404    30658    28759    26792    24885    23143 
   21690    20613    19851    19275    18823    18513    18346    18345 
   18557    19028    19892    21239    23066    25327    27908    30678 
   33470    36116    38511    40544    42191    43501    44483    45189 
   45720    46099    46252    46159    45816    45189    44296    43129 
   41650    39897    37989    36072    34252    32512    30823    29158 
   27407    25486    23309    20796    18018    15056    12012     9034 
    6214     3650     1449     -325    -1664    -2604    -3180    -3410 
   -3202    -2439    -1090      858     3357     6272     9455    12766 
   16067    19224    22150    24838    27334    29683    31868    33858 
   35629    37122    38257    38944    39132    38797    37971    36751 
   35191    33394    31465    29459    27456    25500    23643    21953 
   20444    19117    17956    16997    16340    16083    16305    16997 
   18112    19533    21128    22874    24688    26422    27972    29299 
   30434    31363    32049    32532    32875    33127    33307    33393 
   33401    33369    33349    33401    33550    33755    33968    34195 
   34445    34707    34979    35244    35468    35631    35702    35640 
   35397    34983    34449    33820    33154    32466    31730    30985 
   30221    29439    28661    27865    27082    26383    25822    25411 
   25108    24931    24908    25018    25130    25151    25107    24983 
   24787    24541    24179    23716    23251    22893    22750    22863 
   23182    23602    24048    24468    24835    25193    25575    25969 
   26292    26387    26152    25573    24707    23672    22565    21465 
   20443    19570    18912    18473    18279    18376    18773    19429 
   20304    21343    22446    23541    24609    25652    26701    27746 
   28825    29975    31152    32331    33396    34250    34956    35586 
   36275    37100    37941    38751    39561    40323    41041    41740 
   42361    42843    43043    42839    42245    41311    40189    38989 
   37735    36427    35052    33682    32337    30997    29675    28360 
   27114    26045    25220    24682    24437    24484    24749    25162 
   25666    26088    26329    26345    26102    25683    25126    24510 
   23908    23264    22640    22075    21541    21050    20549    20071 
   19619    19156    18740    18331    17871    17313    16654    16077 
   15655    15385    15342    15515    15855    16306    16811    17325 
   17721    17921    17946    17845    17701    17594    17581    17641 
   17703    17716    17621    17359    16881    16212    15472    14781 
   14245    13979    14052    14457    15179    16187    17401    18725 
   20098    21471    22810    24162    25602    27174    28863    30596 
   32301    33913    35375    36679    37849    38880    39769    40548 
   41243    41868    42402    42739    42816    42684    42394    41990 
   41513    40941    40230    39421    38607    37855    37226    36748 
   36417    36221    36059    35772    35251    34446    33427    32305 
   31132    29895    28547    27059    25448    23769    22091    20466 
   18967    17622    16403    15306    14281    13262    12236    11223 
   10316     9651     9321     9406     9953    10960    12398    14265 
   16560    19199    22050    24999    27958    30852    33571    35964 
   37908    39347    40278    40761    40882    40622    39945    38821 
   37216    35249    33061    30742    28460    26346    24494    22959 
   21716    20750    20025    19565    19419    19596    20110    20848 
   21710    22677    23662    24700    25779    26778    27638    28220 
   28441    28368    28123    27803    27454    27153    26936    26827 
   26828    26827    26765    26600    26284    25839    25216    24378 
   23334    22176    21065    20121    19421    18963    18706    18597 
   18528    18496    18539    18688    19037    19668    20648    22014 
   23670    25400    26995    28362    29398    30044    30329    30261 
   29925    29498    29107    28838    28669    28552    28528    28636 
   28858    29122    29354    29543    29770    30102    30504    30950 
   31411    31878    32394    32953    33528    34094    34585    34992 
   35353    35753    36289    37015    37925    38935    39918    40729 
   41250    41446    41269    40691    39739    38454    36936    35291 
   33542    31710    29851    27985    26177    24572    23241    22196 
   21482    21127    21111    21406    21914    22492    23091    23716 
   24418    25312    26441    27745    29133    30505    31770    32879 
   33817    34531    34939    34939    34422    33381    31885    30007 
   27882    25652    23396    21165    19003    16972    15111    13435 
   11955    10681     9624     8827     8345     8220     8475     9093 
   10019    11164    12359    13414    14224    14771    15167    15554 
   16027    16640    17394    18292    19299    20375    21556    22862 
   24268    25724    27151    28555    29944    31271    32509    33647 
   34665    35532    36240    36788    37137    37234    37038    36544 
   35754    34668    33305    31685    29812    27695    25401    23068 
   20830    18827    17157    15835    14874    14300    14080    14100 
   14297    14654    15121    15715    16472    17415    18570    19953 
   21536    23168    24702    26115    27325    28236    28840    29181 
   29359    29496    29708    30059    30541    31106    31654    32113 
   32451    32645    32714    32644    32386    31968    31464    30985 
   30657    30503    30503    30682    31028    31450    31854    32113 
   32090    31807    31390    30909    30407    29876    29265    28584 
   27897    27202    26411    25488    24490    23514    22628    21884 
   21394    21271    21469    21888    22601    23620    24742    25867 
   27054    28252    29444    30748    32147    33534    34931    36289 
   37439    38392    39175    39684    39883    39803    39464    38905 
   38124    37122    35966    34720    33467    32247    31014    29793 
   28634    27438    26125    24860    23757    22670    21529    20453 
   19515    18724    18080    17548    17092    16721    16416    16132 
   15878    15696    15630    15736    16075    16672    17501    18522 
   19699    20968    22225    23394    24449    25344    26040    26570 
   26966    27203    27267    27176    26975    26696    26306    25744 
