Origin Time       2025/01/13 21:19:00
Lat.              31.8
Long.             131.6
Depth. (km)       30
Mag.              6.9
Station Code      OIT010
Station Lat.      33.2317
Station Long.     131.5934
Station Height(m) 7
Record Time       2025/01/13 21:20:00
Sampling Freq(Hz) 100Hz
Duration Time(s)  161
Dir.              U-D
Scale Factor      7845(gal)/8223790
Max. Acc. (gal)   12.888
Last Correction   2025/01/13 21:20:00
Memo.             
[...]
   13151    12949    12737    12523    12398    12357    12395    12619 
   13036    13539    14017    14304    14293    14084    13814    13571 
   13390    13212    13024    12935    12962    13000    12931    12744 
   12621    12668    12814    13054    13394    13722    13980    14195 
   14372    14530    14701    14837    14894    14889    14841    14782 
   14791    14844    14847    14816    14746    14515    14122    13732 
   13455    13227    12941    12638    12447    12402    12471    12653 
   12892    13074    13200    13324    13416    13444    13433    13458 
   13659    14085    14571    14955    15219    15311    15161    14879 
   14590    14235    13767    13309    13004    12843    12745    12688 
   12715    12822    12912    12865    12691    12572    12604    12707 
   12823    12958    13151    13441    13745    13932    13991    13988 
   13941    13842    13720    13637    13671    13869    14111    14181 
   14064    13848    13502    13115    12907    12911    13047    13313 
   13663    14027    14435    14905    15288    15373    15061    14480 
   13878    13362    12910    12648    12721    12980    13163    13208 
   13167    13115    13109    13123    13128    13182    13267    13313 
   13366    13468    13532    13441    13220    13007    12897    12872 
   12853    12799    12746    12768    12927    13182    13375    13478 
   13644    13896    14049    14037    13987    13999    14099    14269 
   14470    14656    14785    14893    15029    15128    15121    15084 
   15113    15182    15161    14980    14716    14424    14058    13566 
   13014    12596    12428    12430    12507    12567    12463    12150 
   11727    11292    10862    10482    10289    10358    10620    10952 
   11269    11506    11580    11502    11371    11225    11091    11026 
   11001    10929    10855    10868    10982    11209    11604    12104 
   12553    12891    13123    13298    13567    14027    14629    15213 
   15573    15626    15506    15383    15295    15245    15317    15481 
   15547    15402    15071    14608    14084    13585    13170    12860 
   12646    12583    12703    12911    13174    13558    13944    14154 
   14206    14204    14276    14431    14430    14153    13863    13829 
   14077    14515    15013    15429    15666    15715    15631    15479 
   15294    15055    14744    14380    13915    13356    12804    12262 
   11712    11300    11111    11079    11209    11576    12155    12843 
   13520    14061    14435    14617    14570    14358    14046    13637 
   13244    13019    12982    13122    13414    13801    14196    14463 
   14496    14335    14115    13965    13946    14003    14038    13977 
   13833    13686    13556    13393    13163    12876    12565    12226 
   11785    11286    10922    10795    10871    11121    11496    11886 
   12226    12505    12722    12892    12991    12996    12953    12931 
   12978    13069    13139    13203    13296    13360    13350    13348 
   13444    13609    13775    13894    13959    13983    13910    13645 
   13271    13015    12852    12564    12133    11670    11263    11011 
   10874    10697    10463    10253    10183    10274    10370    10392 
   10484    10762    11218    11734    12168    12505    12792    13035 
   13196    13282    13339    13404    13448    13413    13308    13173 
   12982    12733    12552    12537    12684    12960    13230    13359 
   13396    13369    13213    13000    12885    12939    13093    13180 
   13104    12916    12731    12613    12492    12318    12178    12182 
   12351    12629    12926    13188    13433    13713    14019    14303 
   14501    14570    14588    14662    14717    14652    14519    14392 
   14346    14442    14617    14759    14821    14786    14601    14292 
   14021    13930    14022    14262    14650    15107    15527    15861 
   16043    16023    15897    15774    15599    15267    14824    14424 
   14203    14212    14428    14755    15033    15099    14936    14675 
   14461    14381    14451    14619    14837    15024    15057    14932 
   14731    14539    14430    14361    14216    14017    13892    13888 
   13992    14207    14453    14611    14679    14752    14893    15117 
   15411    15745    16046    16249    16368    16391    16254    15965 
   15583    15099    14515    13890    13312    12924    12788    12762 
   12696    12600    12515    12455    12464    12555    12646    12718 
   12788    12764    12600    12438    12388    12367    12289    12190 
   12140    12183    12341    12576    12827    13130    13520    13905 
   14216    14415    14407    14206    13925    13601    13230    12854 
   12553    12347    12209    12163    12191    12154    11955    11674 
   11430    11256    11176    11244    11438    11673    11885    12027 
   12124    12301    12599    12928    13225    13510    13787    14026 
   14241    14476    14756    15030    15142    15076    15006    15060 
   15296    15696    16077    16312    16413    16337    16021    15522 
   14979    14527    14245    14145    14141    14138    14176    14312 
   14490    14634    14721    14793    14879    14945    14966    15012 
   15121    15219    15265    15342    15523    15743    15840    15722 
   15480    15306    15277    15296    15210    14978    14639    14183 
   13662    13274    13108    13096    13234    13521    13848    14158 
   14447    14628    14659    14632    14621    14588    14499    14424 
   14463    14647    14918    15184    15407    15593    15709    15750 
   15765    15727    15537    15190    14817    14499    14215    13929 
   13594    13212    12877    12669    12577    12556    12530    12426 
   12245    12054    11863    11646    11438    11318    11342    11547 
   11893    12244    12522    12742    12908    13045    13203    13419 
   13662    13811    13779    13606    13343    13016    12664    12325 
   12062    11913    11836    11739    11588    11443    11402    11495 
   11709    12024    12380    12739    13132    13551    13929    14227 
   14399    14416    14386    14415    14451    14490    14708    15124 
   15511    15723    15768    15615    15246    14725    14033    13127 
   12168    11414    10947    10673    10524    10574    10893    11376 
   11886    12426    13036    13678    14229    14515    14413    13969 
   13331    12641    11936    11205    10524     9968     9468     8988 
    8595     8309     8067     7834     7688     7742     7967     8230 
    8492     8789     9126     9460     9730     9926    10149    10454 
   10737    10845    10762    10586    10426    10373    10493    10855 
   11470    12205    12900    13467    13888    14212    14457    14574 
   14547    14461    14449    14520    14546    14418    14153    13852 
   13628    13498    13402    13344    13365    13401    13370    13271 
   13180    13123    13057    12957    12829    12661    12507    12447 
   12468    12525    12626    12798    13061    13379    13647    13849 
   14110    14540    15141    15844    16548    17130    17520    17766 
   17917    17921    17701    17271    16761    16260    15795    15394 
   15066    14828    14696    14638    14586    14496    14381    14269 
   14206    14234    14296    14327    14381    14559    14832    15076 
   15269    15411    15449    15399    15367    15373    15344    15252 
   15126    14921    14575    14106    13524    12787    11952    11142 
   10431     9880     9516     9319     9286     9414     9659     9954 
   10247    10516    10759    10940    10997    10901    10721    10554 
   10430    10273    10002     9668     9364     9057     8716     8464 
    8401     8521     8810     9213     9625    10006    10363    10658 
   10809    10787    10659    10524    10447    10463    10590    10822 
   11125    11448    11767    12112    12464    12795    13143    13513 
   13841    14143    14521    14971    15387    15753    16166    16684 
   17216    17562    17612    17454    17209    16958    16835    16899 
   17035    17203    17405    17548    17539    17365    17108    16854 
   16646    16565    16609    16619    16553    16479    16340    16071 
   15759    15485    15259    15137    15156    15225    15255    15287 
   15388    15526    15666    15811    15927    15985    16038    16167 
   16386    16654    16962    17271    17517    17660    17699    17718 
   17790    17849    17859    17884    17930    17925    17815    17540 
   17081    16529    15986    15500    15115    14885    14866    15061 
   15383    15726    16044    16282    16366    16383    16537    16869 
   17270    17678    18022    18229    18301    18225    17991    17668 
   17293    16843    16256    15465    14547    13633    12739    11862 
   11044    10277     9580     9093     8874     8803     8772     8785 
    8862     8995     9177     9396     9618     9833    10091    10467 
   10955    11569    12361    13189    13772    14003    14030    13938 
   13675    13289    12808    12210    11627    11172    10827    10628 
   10598    10602    10525    10373    10173     9977     9803     9614 
    9464     9424     9502     9726    10120    10624    11110    11497 
   11746    11832    11847    11847    11732    11484    11183    10859 
   10539    10296    10208    10365    10797    11431    12141    12781 
   13279    13648    13814    13741    13578    13424    13347    13485 
   13844    14256    14592    14829    15005    15194    15419    15596 
   15630    15462    15165    14870    14559    14170    13761    13491 
   13397    13335    13209    12962    12533    12063    11790    11747 
   11820    11996    12297    12576    12746    12918    13093    13088 
   12857    12519    12150    11835    11697    11722    11821    11934 
   12031    12156    12397    12788    13308    13896    14411    14673 
   14675    14546    14350    14079    13776    13535    13406    13365 
   13374    13406    13394    13332    13279    13227    13169    13182 
   13306    13487    13621    13656    13608    13485    13259    12935 
   12618    12436    12359    12287    12231    12244    12330    12461 
   12665    13024    13487    13937    14389    14851    15269    15662 
   16073    16436    16611    16564    16440    16367    16335    16306 
   16289    16283    16267    16183    16004    15745    15381    14887 
   14307    13699    13161    12833    12757    12857    13081    13410 
   13775    14127    14472    14755    14901    14909    14860    14841 
   14823    14710    14494    14237    14007    13927    13961    13900 
   13779    13767    13824    13833    13743    13554    13315    13000 
   12541    12015    11556    11144    10705    10300     9987     9756 
    9630     9679     9963    10436    10906    11225    11446    11651 
   11805    11847    11836    11923    12125    12278    12266    12131 
   11985    11900    11880    11924    12032    12193    12397    12592 
   12738    12853    12962    13076    13188    13354    13679    14192 
   14813    15406    15859    16125    16206    16146    16027    15961 
   16056    16340    16754    17204    17608    17926    18149    18276 
   18300    18176    17886    17483    17037    16606    16247    15965 
   15719    15552    15526    15585    15639    15714    15889    16164 
   16529    17000    17505    17955    18314    18571    18755    18862 
   18806    18523    18036    17401    16645    15800    14912    13949 
   12858    11693    10575     9602     8842     8345     8086     7974 
    7948     8021     8171     8324     8446     8533     8568     8584 
    8683     8910     9148     9292     9358     9354     9301     9298 
    9371     9417     9362     9258     9228     9355     9622     9992 
   10503    11124    11739    12290    12734    13036    13288    13629 
   14041    14432    14804    15128    15383    15670    16063    16529 
   17047    17621    18223    18805    19318    19726    20017    20200 
   20248    20105    19751    19203    18458    17554    16622    15800 
   15124    14532    13973    13478    13042    12583    12071    11535 
   11024    10579    10200     9902     9805    10049    10640    11452 
   12347    13193    13857    14266    14413    14370    14334    14509 
   14945    15557    16217    16864    17470    17979    18350    18596 
   18766    18898    19003    19098    19138    19071    18867    18458 
   17799    16965    16125    15426    14916    14632    14573    14661 
   14821    14997    15121    15153    15053    14787    14364    13860 
   13329    12741    12085    11460    10986    10615    10211     9769 
    9412     9185     9005     8797     8600     8519     8622     8850 
    9073     9180     9124     8931     8619     8125     7441     6710 
    6088     5572     5073     4503     3842     3125     2405     1748 
    1205      801      607      606      649      657      714      895 
    1163     1436     1644     1800     1931     1984     2008     2154 
    2466     2928     3550     4338     5278     6303     7344     8405 
    9470    10466    11398    12330    13308    14334    15345    16256 
   17050    17764    18441    19029    19415    19541    19442    19241 
   19024    18823    18709    18682    18685    18804    19121    19556 
   20001    20399    20740    21053    21343    21654    21986    22243 
   22408    22539    22648    22698    22619    22416    22176    21949 
   21772    21698    21744    21952    22326    22742    23145    23558 
   23935    24281    24637    25043    25527    26065    26565    26879 
   26982    26974    26855    26538    25984    25204    24241    23148 
   21990    20819    19714    18711    17826    17072    16401    15761 
   15142    14596    14185    13834    13483    13228    13157    13238 
   13362    13506    13724    14003    14283    14504    14629    14596 
   14353    13936    13389    12731    12027    11348    10686     9988 
    9301     8703     8216     7789     7288     6693     6085     5505 
    5035     4766     4715     4895     5314     5926     6579     7101 
    7399     7460     7283     6868     6254     5498     4660     3843 
    3199     2880     2903     3203     3732     4371     4959     5413 
    5730     5998     6293     6619     6983     7412     7862     8241 
    8564     8893     9227     9548     9879    10250    10674    11087 
   11375    11461    11315    10994    10650    10368    10173    10187 
   10481    11005    11720    12588    13536    14494    15371    16116 
   16748    17273    17683    17979    18175    18326    18489    18746 
   19136    19566    19953    20270    20467    20487    20305    19963 
   19538    19012    18327    17539    16752    16001    15346    14881 
   14612    14443    14304    14223    14250    14400    14570    14586 
   14445    14243    14037    13906    13894    14017    14278    14634 
   15068    15535    15981    16414    16837    17194    17429    17502 
   17361    17050    16753    16563    16420    16310    16326    16495 
   16677    16787    16756    16498    16066    15577    15099    14697 
   14459    14472    14732    15206    15865    16642    17405    18036 
   18543    18905    19072    19121    19130    19140    19151    19111 
   19002    18820    18555    18218    17825    17370    16857    16330 
   15788    15218    14654    14106    13563    12997    12391    11757 
   11133    10609    10216     9899     9676     9607     9648     9682 
    9649     9541     9321     8946     8421     7827     7261     6751 
    6319     5983     5729     5520     5294     5030     4760     4517 
    4333     4305     4492     4824     5228     5684     6166     6639 
    7090     7495     7803     8029     8240     8445     8641     8865 
    9188     9713    10486    11362    12154    12839    13441    13864 
   14046    14077    14037    13871    13581    13271    12976    12677 
   12379    12135    12021    11985    11925    11893    11988    12206 
   12482    12846    13309    13752    14112    14439    14746    15032 
   15364    15811    16360    16960    17563    18160    18738    19260 
   19696    20044    20355    20633    20837    20965    20980    20817 
   20461    19942    19332    18639    17887    17147    16384    15560 
   14696    13826    13057    12494    12106    11805    11580    11481 
   11497    11569    11699    11875    11986    12010    12029    12052 
   12035    11971    11924    11920    11897    11846    11804    11820 
   11927    12120    12394    12680    12895    13019    13058    13054 
   13030    13007    13057    13224    13454    13612    13632    13551 
   13390    13139    12838    12586    12410    12312    12306    12301 
   12247    12125    11805    11257    10559     9755     8946     8267 
    7774     7441     7285     7353     7558     7788     8025     8302 
    8622     8982     9437     9963    10478    10944    11321    11597 
   11785    11920    12052    12171    12286    12422    12606    12864 
   13140    13421    13740    14045    14270    14418    14530    14650 
   14823    15053    15307    15614    15993    16357    16607    16729 
   16768    16798    16880    17059    17316    17602    17910    18233 
   18528    18740    18824    18758    18558    18258    17934    17695 
   17598    17664    17847    18023    18133    18173    18188    18243 
   18345    18462    18601    18752    18875    18955    18983    18936 
   18805    18608    18324    17945    17512    17082    16741    16529 
   16399    16316    16256    16160    16023    15924    15893    15921 
   16048    16287    16580    16877    17178    17473    17683    17744 
   17625    17332    16931    16472    15965    15434    14882    14284 
   13648    12982    12322    11740    11260    10879    10575    10250 
    9871     9555     9432     9535     9749     9948    10180    10530 
   11002    11546    12150    12854    13609    14258    14690    14913 
   14968    14854    14589    14215    13734    13130    12394    11546 
   10644     9757     8920     8166     7549     7072     6673     6280 
    5848     5451     5211     5171     5335     5668     6104     6601 
    7159     7736     8245     8654     8955     9123     9184     9174 
    9171     9290     9607    10153    10864    11599    12231    12694 
   12928    12893    12654    12341    12086    11988    12023    12133 
   12303    12495    12631    12679    12711    12783    12841    12908 
   13036    13217    13506    13964    14501    14991    15375    15614 
   15738    15820    15869    15851    15781    15730    15765    15880 
   16024    16143    16205    16254    16339    16448    16584    16812 
   17172    17635    18108    18504    18801    19003    19153    19294 
   19441    19618    19799    19942    20069    20205    20267    20156 
   19896    19514    18967    18237    17343    16322    15241    14199 
   13228    12313    11464    10647     9855     9142     8502     7874 
    7191     6412     5607     4908     4342     3866     3505     3306 
    3244     3316     3516     3780     4040     4306     4615     4942 
    5256     5532     5744     5927     6111     6300     6548     6949 
    7561     8293     9032     9769    10509    11215    11840    12390 
   12889    13382    13902    14386    14827    15280    15726    16159 
   16617    17069    17444    17743    17941    17996    17945    17825 
   17666    17537    17470    17394    17231    17035    16862    16702 
