Origin Time       2025/01/13 21:19:00
Lat.              31.8
Long.             131.6
Depth. (km)       30
Mag.              6.9
Station Code      OIT011
Station Lat.      33.2468
Station Long.     131.8816
Station Height(m) 8
Record Time       2025/01/13 21:20:01
Sampling Freq(Hz) 100Hz
Duration Time(s)  105
Dir.              N-S
Scale Factor      7845(gal)/8223790
Max. Acc. (gal)   13.359
Last Correction   2025/01/13 21:20:00
Memo.             
[...]
  -33119   -32616   -32212   -31766   -31214   -30657   -30210   -29895 
  -29731   -29814   -30229   -30906   -31684   -32455   -33214   -33979 
  -34695   -35247   -35619   -35900   -36107   -36180   -36173   -36224 
  -36300   -36186   -35777   -35193   -34615   -34114   -33644   -33154 
  -32661   -32233   -31891   -31587   -31310   -31124   -31055   -31056 
  -31041   -30955   -30796   -30588   -30393   -30306   -30346   -30445 
  -30565   -30759   -31109   -31661   -32425   -33366   -34393   -35406 
  -36332   -37099   -37615   -37840   -37841   -37721   -37520   -37211 
  -36720   -35965   -34955   -33808   -32659   -31603   -30666   -29856 
  -29181   -28622   -28155   -27837   -27754   -27901   -28204   -28652 
  -29272   -30038   -30913   -31888   -32946   -34018   -34981   -35745 
  -36321   -36769   -37104   -37303   -37341   -37192   -36836   -36285 
  -35572   -34766   -33947   -33149   -32377   -31645   -30985   -30424 
  -29987   -29714   -29632   -29673   -29728   -29794   -29956   -30254 
  -30663   -31172   -31845   -32736   -33795   -34897   -35985   -37056 
  -38030   -38803   -39326   -39592   -39569   -39182   -38403   -37335 
  -36116   -34784   -33316   -31816   -30472   -29316   -28277   -27413 
  -26828   -26519   -26473   -26693   -27167   -27934   -29033   -30395 
  -31895   -33393   -34744   -35872   -36779   -37489   -37963   -38098 
  -37847   -37301   -36583   -35807   -35135   -34676   -34369   -34055 
  -33616   -33056   -32443   -31789   -31102   -30518   -30230   -30303 
  -30658   -31189   -31828   -32536   -33300   -34123   -34952   -35700 
  -36297   -36690   -36830   -36693   -36300   -35741   -35136   -34510 
  -33791   -32933   -32004   -31136   -30377   -29678   -29038   -28560 
  -28321   -28301   -28478   -28929   -29704   -30724   -31846   -32937 
  -33934   -34848   -35676   -36347   -36819   -37088   -37071   -36680 
  -35978   -35122   -34265   -33508   -32895   -32448   -32213   -32174 
  -32209   -32233   -32255   -32294   -32368   -32510   -32748   -33107 
  -33608   -34210   -34809   -35271   -35468   -35391   -35181   -34981 
  -34815   -34608   -34275   -33789   -33154   -32351   -31410   -30426 
  -29465   -28588   -27893   -27415   -27116   -26977   -27013   -27238 
  -27623   -28139   -28830   -29762   -30943   -32323   -33818   -35305 
  -36643   -37736   -38542   -39010   -39060   -38676   -37980   -37138 
  -36239   -35275   -34183   -32929   -31579   -30285   -29187   -28328 
  -27719   -27364   -27268   -27498   -28105   -29022   -30122   -31380 
  -32842   -34438   -35968   -37303   -38450   -39414   -40057   -40205 
  -39818   -38986   -37835   -36444   -34863   -33184   -31499   -29876 
  -28371   -27014   -25793   -24657   -23593   -22748   -22349   -22480 
  -23116   -24266   -25944   -28055   -30433   -32949   -35541   -38114 
  -40490   -42525   -44190   -45473   -46283   -46575   -46403   -45793 
  -44689   -43036   -40875   -38396   -35838   -33330   -30881   -28494 
  -26293   -24470   -23090   -22134   -21624   -21587   -21984   -22729 
  -23811   -25297   -27143   -29142   -31124   -33015   -34755   -36312 
  -37671   -38770   -39511   -39853   -39866   -39691   -39415   -39044 
  -38531   -37881   -37168   -36401   -35518   -34555   -33652   -32918 
  -32367   -31992   -31845   -31973   -32271   -32580   -32880   -33226 
  -33617   -34049   -34549   -35106   -35677   -36223   -36702   -37072 
  -37269   -37200   -36815   -36138   -35240   -34223   -33222   -32323 
  -31495   -30646   -29789   -29025   -28413   -27932   -27557   -27286 
  -27137   -27201   -27588   -28323   -29362   -30654   -32154   -33817 
  -35527   -37106   -38348   -39123   -39457   -39451   -39186   -38738 
  -38137   -37393   -36514   -35518   -34472   -33453   -32529   -31750 
  -31104   -30545   -30064   -29671   -29390   -29238   -29209   -29313 
  -29551   -29864   -30204   -30588   -31024   -31486   -31957   -32406 
  -32802   -33156   -33497   -33839   -34226   -34696   -35210   -35757 
  -36356   -36927   -37301   -37353   -37083   -36594   -35966   -35224 
  -34416   -33674   -33087   -32647   -32319   -32085   -31938   -31858 
  -31806   -31722   -31603   -31506   -31460   -31442   -31471   -31606 
  -31861   -32216   -32676   -33224   -33781   -34264   -34668   -35054 
  -35483   -35941   -36323   -36504   -36427   -36131   -35654   -35013 
  -34250   -33436   -32657   -31954   -31280   -30624   -30082   -29771 
  -29710   -29833   -30064   -30335   -30592   -30843   -31170   -31666 
  -32343   -33143   -33997   -34847   -35683   -36470   -37092   -37457 
  -37574   -37469   -37118   -36522   -35764   -34966   -34165   -33334 
  -32508   -31792   -31256   -30894   -30685   -30600   -30561   -30492 
  -30412   -30399   -30495   -30654   -30744   -30667   -30473   -30273 
  -30130   -29999   -29767   -29408   -29011   -28644   -28367   -28297 
  -28537   -29093   -29914   -30950   -32170   -33517   -34897   -36215 
  -37393   -38333   -38965   -39301   -39402   -39352   -39201   -38931 
  -38523   -38005   -37397   -36684   -35819   -34753   -33489   -32104 
  -30717   -29451   -28440   -27816   -27630   -27824   -28305   -28988 
  -29781   -30601   -31388   -32136   -32937   -33887   -34977   -36107 
  -37164   -38055   -38732   -39190   -39440   -39424   -39028   -38259 
  -37253   -36115   -34896   -33632   -32343   -31079   -29949   -29033 
  -28333   -27849   -27614   -27656   -27972   -28534   -29308   -30300 
  -31519   -32867   -34130   -35110   -35675   -35793   -35533   -34927 
  -33971   -32788   -31560   -30387   -29339   -28501   -27959   -27773 
  -27961   -28505   -29304   -30192   -31009   -31644   -32053   -32298 
  -32497   -32698   -32907   -33183   -33562   -33980   -34393   -34784 
  -35117   -35402   -35635   -35815   -36030   -36325   -36582   -36697 
  -36745   -36838   -36910   -36751   -36185   -35182   -33817   -32185 
  -30388   -28582   -27002   -25851   -25162   -24885   -24992   -25452 
  -26242   -27398   -28945   -30836   -32989   -35252   -37374   -39167 
  -40599   -41640   -42180   -42186   -41746   -40984   -40031   -38969 
  -37789   -36460   -35025   -33552   -32062   -30547   -29069   -27751 
  -26720   -26049   -25774   -25926   -26457   -27213   -28092   -29061 
  -30063   -31054   -32032   -32981   -33809   -34373   -34746   -35217 
  -35872   -36525   -37116   -37693   -38178   -38468   -38519   -38317 
  -37886   -37177   -36057   -34508   -32641   -30580   -28453   -26464 
  -24842   -23724   -23058   -22732   -22736   -23151   -23988   -25158 
  -26615   -28378   -30449   -32732   -35056   -37254   -39239   -40994 
  -42545   -43924   -45091   -45889   -46214   -46103   -45569   -44533 
  -42967   -40988   -38794   -36482   -34033   -31488   -29039   -26860 
  -24995   -23533   -22626   -22292   -22480   -23129   -24201   -25735 
  -27679   -29824   -32051   -34294   -36355   -38049   -39310   -40130 
  -40456   -40297   -39827   -39228   -38537   -37702   -36613   -35240 
  -33745   -32283   -30882   -29542   -28306   -27256   -26497   -26141 
  -26234   -26740   -27530   -28397   -29189   -29897   -30561   -31170 
  -31673   -32030   -32209   -32177   -31966   -31735   -31599   -31510 
  -31406   -31344   -31445   -31795   -32429   -33273   -34121   -34800 
  -35310   -35683   -35831   -35652   -35206   -34697   -34249   -33835 
  -33385   -32867   -32341   -31930   -31706   -31665   -31749   -31897 
  -32117   -32436   -32873   -33489   -34281   -35127   -35939   -36748 
  -37527   -38132   -38458   -38500   -38230   -37601   -36651   -35479 
  -34160   -32755   -31410   -30323   -29590   -29201   -29106   -29253 
  -29650   -30321   -31183   -32082   -32908   -33671   -34443   -35235 
  -35941   -36455   -36733   -36763   -36564   -36185   -35667   -35033 
  -34287   -33436   -32497   -31490   -30480   -29567   -28856   -28432 
  -28291   -28358   -28641   -29263   -30287   -31622   -33053   -34312 
  -35278   -35968   -36375   -36463   -36254   -35816   -35217   -34523 
  -33833   -33247   -32742   -32202   -31615   -31139   -30946   -31071 
  -31418   -31939   -32699   -33735   -34982   -36386   -37921   -39495 
  -40896   -41872   -42298   -42201   -41662   -40718   -39384   -37716 
  -35835   -33866   -31864   -29897   -28119   -26604   -25274   -24088 
  -23102   -22422   -22173   -22399   -23055   -24133   -25637   -27471 
  -29440   -31394   -33282   -35094   -36803   -38362   -39665   -40589 
  -41050   -41045   -40676   -40074   -39259   -38210   -36981   -35669 
  -34308   -32954   -31766   -30859   -30199   -29725   -29378   -29128 
  -29029   -29122   -29457   -30160   -31290   -32638   -33901   -34954 
  -35773   -36261   -36359   -36155   -35802   -35461   -35225   -35002 
  -34658   -34182   -33596   -32931   -32368   -32146   -32305   -32672 
  -33050   -33369   -33619   -33774   -33816   -33727   -33485   -33139 
  -32803   -32555   -32398   -32297   -32220   -32197   -32269   -32395 
  -32483   -32466   -32366   -32290   -32329   -32466   -32678   -33010 
  -33462   -33993   -34537   -34923   -34979   -34712   -34214   -33531 
  -32647   -31579   -30461   -29454   -28707   -28308   -28252   -28463 
  -28833   -29358   -30184   -31380   -32786   -34190   -35453   -36458 
  -37156   -37616   -37926   -38141   -38248   -38129   -37685   -36958 
  -36088   -35154   -34145   -33068   -31976   -30952   -30119   -29554 
  -29230   -29095   -29122   -29304   -29623   -30006   -30397   -30846 
  -31418   -32078   -32751   -33359   -33783   -33890   -33674   -33257 
  -32780   -32348   -32043   -31947   -32070   -32285   -32433   -32468 
  -32433   -32370   -32274   -32108   -31839   -31531   -31332   -31309 
  -31419   -31684   -32171   -32796   -33434   -34133   -34974   -35907 
  -36783   -37413   -37705   -37763   -37754   -37685   -37388   -36759 
  -35837   -34614   -33142   -31644   -30254   -28968   -27820   -26906 
  -26369   -26326   -26757   -27556   -28617   -29884   -31307   -32765 
  -34125   -35321   -36366   -37305   -38121   -38758   -39252   -39722 
  -40242   -40749   -41100   -41189   -40994   -40502   -39673   -38514 
  -37093   -35488   -33828   -32269   -30851   -29525   -28216   -26877 
  -25600   -24551   -23787   -23299   -23105   -23225   -23710   -24695 
  -26250   -28183   -30177   -32074   -33936   -35853   -37751   -39432 
  -40749   -41624   -41994   -41877   -41362   -40527   -39405   -38083 
  -36690   -35324   -34056   -32930   -31932   -31068   -30361   -29771 
  -29262   -28899   -28810   -29057   -29631   -30592   -31996   -33694 
  -35406   -36910   -38022   -38593   -38524   -37736   -36304   -34528 
  -32714   -31079   -29785   -28848   -28109   -27382   -26580   -25798 
  -25266   -25103   -25209   -25504   -26060   -26946   -28140   -29583 
  -31175   -32864   -34690   -36622   -38472   -40068   -41415   -42550 
  -43263   -43237   -42381   -40778   -38564   -35986   -33282   -30615 
  -28139   -25938   -24144   -22950   -22346   -22144   -22219   -22555 
  -23207   -24316   -26082   -28576   -31534   -34564   -37516   -40335 
  -42831   -44805   -46053   -46413   -45920   -44753   -43116   -41208 
  -39183   -37129   -35051   -32949   -30862   -28773   -26715   -24862 
  -23334   -22152   -21433   -21307   -21725   -22505   -23498   -24705 
  -26121   -27600   -29106   -30846   -32852   -34862   -36775   -38715 
  -40626   -42302   -43623   -44560   -45094   -45272   -45219   -44963 
  -44363   -43368   -42010   -40239   -38044   -35594   -33054   -30496 
  -28089   -26082   -24568   -23575   -23139   -23253   -23853   -24760 
  -25787   -26908   -28144   -29596   -31442   -33509   -35456   -37388 
  -39378   -41077   -42307   -43135   -43495   -43289   -42533   -41243 
  -39370   -37035   -34576   -32204   -29979   -27999   -26370   -25087 
  -24106   -23430   -23022   -22864   -22990   -23384   -24077   -25165 
  -26597   -28260   -30042   -31742   -33355   -34989   -36418   -37500 
  -38414   -39205   -39746   -39965   -39856   -39430   -38686   -37675 
  -36441   -34973   -33322   -31634   -30046   -28599   -27334   -26372 
  -25812   -25709   -26176   -27276   -28919   -30859   -32823   -34780 
  -36772   -38535   -39876   -40886   -41469   -41608   -41650   -41794 
  -41959   -42026   -41947   -41640   -40954   -39926   -38645   -37099 
  -35472   -33999   -32663   -31445   -30446   -29636   -28926   -28394 
  -28135   -28100   -28255   -28652   -29330   -30225   -31239   -32343 
  -33454   -34446   -35272   -35816   -35923   -35676   -35241   -34662 
  -34048   -33567   -33183   -32782   -32387   -32057   -31779   -31563 
  -31446   -31444   -31557   -31839   -32308   -32881   -33439   -33890 
  -34168   -34213   -33963   -33421   -32670   -31760   -30685   -29516 
  -28402   -27465   -26805   -26491   -26501   -26784   -27298   -27982 
  -28772   -29625   -30469   -31225   -31928   -32725   -33718   -34873 
  -36030   -37037   -37881   -38630   -39239   -39615   -39757   -39595 
  -38986   -37947   -36621   -35139   -33683   -32486   -31607   -30937 
  -30416   -30051   -29849   -29863   -30126   -30554   -30997   -31359 
  -31644   -31912   -32217   -32563   -32896   -33166   -33374   -33521 
  -33559   -33490   -33459   -33561   -33766   -34056   -34389   -34736 
  -35145   -35577   -35881   -35970   -35901   -35838   -35824   -35708 
  -35328   -34651   -33763   -32748   -31553   -30156   -28749   -27602 
  -26758   -26067   -25527   -25309   -25470   -25974   -26867   -28167 
  -29793   -31685   -33767   -35884   -37990   -40154   -42280   -44154 
  -45665   -46701   -47094   -46799   -45878   -44373   -42338   -39865 
  -37068   -34125   -31159   -28266   -25683   -23622   -22086   -21078 
  -20667   -20812   -21479   -22747   -24632   -26952   -29435   -32013 
  -34798   -37528   -39876   -41920   -43484   -44296   -44599   -44551 
  -43992   -42934   -41524   -39802   -37701   -35367   -33060   -30828 
  -28791   -27190   -26037   -25258   -24918   -25014   -25438   -26180 
  -27264   -28622   -30113   -31549   -32940   -34364   -35515   -36186 
  -36618   -36757   -36433   -35884   -35181   -34184   -32961   -31662 
  -30307   -28858   -27504   -26443   -25601   -24987   -24746   -24830 
  -25181   -25893   -26997   -28356   -29772   -31058   -32111   -32958 
  -33664   -34249   -34723   -35136   -35546   -35916   -36201   -36451 
  -36694   -36844   -36840   -36701   -36439   -36089   -35714   -35268 
  -34689   -34068   -33502   -32985   -32518   -32138   -31834   -31544 
  -31284   -31153   -31147   -31145   -31082   -31010   -31064   -31338 
  -31828   -32447   -33080   -33677   -34229   -34746   -35284   -35834 
  -36298   -36675   -37015   -37304   -37503   -37586   -37561   -37408 
  -37072   -36528   -35818   -35028   -34269   -33606   -32995   -32340 
  -31656   -31094   -30775   -30705   -30850   -31164   -31588   -32107 
  -32753   -33492   -34187   -34754   -35190   -35509   -35750   -35938 
  -36015   -35920   -35650   -35214   -34631   -33926   -33095   -32158 
  -31241   -30534   -30152   -30052   -30118   -30234   -30354   -30551 
  -30871   -31201   -31406   -31499   -31564   -31603   -31590   -31522 
  -31414   -31293   -31140   -30958   -30850   -30855   -30889   -30879 
  -30831   -30846   -31079   -31637   -32549   -33790   -35262   -36837 
  -38399   -39833   -41049   -41983   -42566   -42746   -42491   -41827 
  -40892   -39803   -38551   -37127   -35538   -33813   -32051   -30306 
  -28530   -26740   -25084   -23714   -22658   -21932   -21617   -21821 
  -22612   -23950   -25601   -27287   -28927   -30597   -32298   -33921 
  -35359   -36536   -37423   -38038   -38437   -38715   -38944   -39121 
  -39245   -39328   -39336   -39172   -38730   -37980   -36992   -35834 
  -34560   -33262   -32058   -31054   -30308   -29798   -29482   -29319 
  -29201   -29034   -28800   -28559   -28418   -28479   -28779   -29324 
  -30088   -30997   -31936   -32788   -33459   -33891   -34117   -34244 
  -34379   -34561   -34765   -34959   -35160   -35409   -35726   -36084 
  -36421   -36672   -36813   -36823   -36676   -36385   -36020   -35658 
  -35367   -35136   -34855   -34465   -33995   -33498   -32983   -32375 
  -31656   -30937   -30271   -29589   -28891   -28246   -27699   -27314 
  -27180   -27373   -27946   -28906   -30171   -31599   -33065   -34491 
  -35849   -37100   -38163   -38946   -39410   -39577   -39528   -39322 
  -38974   -38493   -37887   -37181   -36424   -35653   -34908   -34215 
  -33588   -33062   -32672   -32421   -32289   -32216   -32104   -31889 
  -31595   -31336   -31207   -31216   -31333   -31567   -31922   -32382 
  -32911   -33401   -33694   -33712   -33493   -33115   -32657   -32208 
  -31822   -31544   -31414   -31410   -31480   -31614   -31788   -31970 
  -32150   -32298   -32370   -32328   -32171   -31930   -31662   -31450 
  -31344   -31355   -31480   -31689   -31930   -32170   -32398   -32591 
  -32748   -32902   -33042   -33091   -32979   -32724   -32400   -32081 
  -31785   -31483   -31166   -30870   -30640   -30520   -30576   -30859 
  -31344   -31976   -32719   -33509   -34258   -34913   -35453   -35872 
  -36169   -36335   -36346   -36205   -35945   -35591   -35198   -34798 
  -34381   -33980   -33687   -33504   -33355   -33227   -33176   -33238 
  -33435   -33764   -34118   -34349   -34427   -34442   -34468   -34474 
  -34371   -34084   -33597   -32931   -32119   -31199   -30242   -29309 
  -28440   -27712   -27198   -26890   -26761   -26877   -27319   -28098 
  -29176   -30465   -31849   -33223   -34458   -35433   -36169   -36790 
  -37357   -37860   -38257   -38464   -38477   -38373   -38159   -37763 
  -37152   -36336   -35356   -34245   -32983   -31591   -30191   -28933 
  -27886   -27074   -26539   -26346   -26528   -27093   -27990   -29150 
  -30493   -31935   -33417   -34894   -36315   -37665   -38947   -40123 
  -41148   -41947   -42419   -42523   -42260   -41616   -40597   -39248 
  -37656   -35945   -34241   -32634   -31180   -29925   -28896   -28094 
  -27508   -27114   -26867   -26721   -26673   -26757   -26986   -27338 
  -27822   -28479   -29320   -30272   -31239   -32186   -33118   -34003 
  -34773   -35405   -35951   -36445   -36842   -37091   -37207   -37208 
  -37052   -36678   -36085   -35324   -34449   -33473   -32374   -31174 
  -29971   -28896   -28071   -27572   -27421   -27598   -28082   -28868 
  -29944   -31216   -32522   -33729   -34765   -35584   -36173   -36587 
  -36886   -37008   -36876   -36505   -35918   -35139   -34271   -33436 
  -32721   -32178   -31820   -31611   -31500   -31475   -31536   -31653 
  -31811   -32043   -32409   -32922   -33516   -34095   -34603   -35040 
  -35421   -35711   -35857   -35880   -35853   -35792   -35684   -35537 
  -35340   -35086   -34793   -34454   -34051   -33609   -33154   -32683 
  -32209   -31781   -31448   -31213   -31027   -30852   -30696   -30578 
  -30505   -30505   -30642   -30942   -31347   -31757   -32125   -32479 
  -32841   -33215   -33606   -34009   -34379   -34655   -34789   -34750 
  -34519   -34091   -33498   -32792   -32027   -31247   -30493   -29812 
  -29243   -28840   -28630   -28595   -28719   -29026   -29523   -30169 
  -30892   -31633   -32373   -33093   -33775   -34430   -35064   -35688 
  -36306   -36887   -37411   -37891   -38295   -38549   -38610   -38487 
  -38188   -37682   -36958   -36092   -35208   -34358   -33527   -32718 
  -31972   -31315   -30738   -30206   -29732   -29362   -29151   -29177 
