Origin Time       2025/01/13 21:19:00
Lat.              31.8
Long.             131.6
Depth. (km)       30
Mag.              6.9
Station Code      OIT008
Station Lat.      33.2548
Station Long.     131.0197
Station Height(m) 189
Record Time       2025/01/13 21:20:08
Sampling Freq(Hz) 100Hz
Duration Time(s)  88
Dir.              E-W
Scale Factor      7845(gal)/8223790
Max. Acc. (gal)   4.217
Last Correction   2025/01/13 21:20:07
Memo.             
[...]
     679      425      163      -94     -294     -297     -103      137 
     299      353      303      144      -60     -182     -141      -12 
     105      209      284      268      160        6     -167     -318 
    -437     -541     -596     -567     -492     -419     -325     -182 
     -60      -12       45      133      170      168      176      176 
     186      236      307      368      390      367      311      218 
     113        5     -163     -382     -549     -643     -683     -634 
    -488     -311     -151        1      132      221      297      351 
     369      419      513      596      641      606      486      297 
      45     -163     -216     -155      -55       75      195      261 
     295      324      369      469      595      652      610      525 
     427      307      182       75      -10      -70      -71       -6 
      56       63       63       81       62       37       74      170 
     291      390      429      421      395      361      329      303 
     299      321      310      249      186      122       62       41 
      12     -102     -243     -292     -255     -189      -79       85 
     222      295      360      422      433      395      321      221 
     155      172      234      288      321      318      291      263 
     234      189      118       78       91       81       24      -16 
     -31      -48      -36       27      106      148      155      140 
      81       10      -13      -39      -54       -5       55       98 
     184      319      403      384      330      265      144      -29 
    -187     -267     -257     -166        9      206      372      503 
     596      660      727      807      874      903      873      795 
     702      612      514      409      313      234      195      182 
     141      102      106      108       85       63       63       93 
      99       59       36       35       16       43      170      290 
     326      314      261      141      -14     -143     -234     -334 
    -452     -530     -584     -649     -685     -712     -772     -818 
    -851     -936    -1035    -1050     -942     -730     -469     -174 
     122      319      446      604      741      764      665      467 
     202      -82     -314     -426     -452     -457     -473     -494 
    -479     -460     -446     -337     -194     -183     -297     -441 
    -546     -587     -606     -616     -625     -611     -527     -409 
    -359     -369     -376     -423     -568     -756     -903     -992 
   -1042    -1066    -1055    -1021     -980     -923     -907     -982 
   -1015     -908     -773     -645     -450     -257     -187     -216 
    -288     -430     -650     -862     -997    -1105    -1215    -1270 
   -1289    -1363    -1501    -1597    -1620    -1647    -1647    -1537 
   -1402    -1300    -1151     -984     -864     -726     -569     -422 
    -251     -113      -70     -102     -217     -342     -407     -464 
    -488     -410     -319     -261     -198     -174     -221     -301 
    -375     -398     -371     -306     -164       48      280      494 
     656      823     1069     1331     1529     1680     1780     1748 
    1578     1383     1190      972      816      793      839      924 
    1071     1266     1503     1756     1945     2073     2166     2153 
    2030     1876     1687     1462     1252     1069      912      780 
     639      515      488      573      746     1003     1323     1655 
    1934     2134     2299     2435     2506     2529     2498     2373 
    2173     1980     1796     1614     1517     1468     1393     1377 
    1401     1371     1366     1402     1366     1297     1251     1152 
    1026      892      688      463      268      103        5      -31 
      -9       75      178      322      510      668      808      982 
    1107     1127     1120     1081      943      673      263     -202 
    -665    -1132    -1489    -1647    -1664    -1594    -1428    -1178 
    -932     -745     -611     -546     -537     -576     -687     -846 
   -1028    -1244    -1516    -1822    -2085    -2259    -2388    -2454 
   -2377    -2165    -1914    -1688    -1505    -1404    -1433    -1539 
   -1617    -1644    -1620    -1507    -1335    -1204    -1128    -1036 
    -896     -729     -523     -260      -35      105      206      199 
      97        6      -97     -221     -318     -375     -384     -371 
    -355     -314     -257     -213     -156      -62       14       18 
     -47     -202     -445     -745    -1028    -1201    -1279    -1262 
   -1123     -970     -897     -858     -834     -880     -963     -980 
    -888     -729     -541     -228      175      436      542      596 
     577      500      418      359      309      182      -12     -214 
    -506     -864    -1113    -1254    -1387    -1494    -1530    -1514 
   -1486    -1445    -1327    -1171    -1128    -1117    -1040    -1019 
   -1048    -1062    -1111    -1178    -1196    -1088     -832     -515 
    -166      137      271      299      252       44     -213     -406 
    -584     -723     -820     -926     -936     -822     -726     -633 
    -433     -217      -48      180      449      661      889     1143 
    1271     1209     1081      992      901      820      801      815 
     847      865      819      839      989     1101     1227     1462 
    1630     1698     1750     1749     1657     1530     1395     1215 
    1071     1012      897      801      859      936     1009     1186 
    1387     1533     1584     1584     1624     1555     1435     1487 
    1487     1443     1579     1584     1489     1678     1826     1792 
    1971     2111     2052     2164     2234     1958     1694     1744 
    1649     1229     1300     1512     1124     1212     1549     1139 
    1185     1471     1092     1135     1175      679      699      769 
     315      -25      -95     -319     -891    -1102     -934    -1231 
   -1277     -808     -816     -652     -160     -145      184      689 
     643      826     1019      733      567      394       -1     -291 
    -533     -784     -932    -1080    -1219    -1159    -1081    -1067 
    -778     -542     -498     -152       78       59      283      382 
     218      137       43      -86     -180     -220     -122       40 
     220      307      309      382      178     -224     -256     -376 
    -731     -738     -745     -903     -885     -955     -909     -754 
   -1073    -1231     -949     -957    -1000     -739     -567     -716 
    -945    -1030    -1217    -1410    -1259    -1055    -1030     -970 
    -901     -963    -1027    -1075    -1158    -1085     -920     -835 
    -685     -394     -209     -174      -29       47      -70       -5 
     121       17     -112     -176     -356     -653     -826     -801 
    -746     -611     -368     -174       32      282      406      507 
     606      530      437      359      240      240      276      356 
     546      688      886     1208     1509     1788     1987     2057 
    1996     1729     1320      908      553      276       76      -76 
    -135      -74      -29       29      197      340      502      837 
    1188     1495     1846     2064     2160     2332     2367     2115 
    1879     1734     1429      992      722      711      621      337 
     291      351      330      530      587      531      842      955 
     796      974     1042      754      629      480       90     -346 
    -773     -970    -1188    -1690    -1937    -1989    -2116    -2153 
   -2254    -2204    -1906    -1915    -1966    -1710    -1678    -1745 
   -1525    -1425    -1414    -1175    -1027     -997     -896     -855 
    -847     -850     -845     -731     -675     -699     -687     -788 
    -942     -970     -980     -873     -596     -414     -243      -21 
     106      337      638      831     1030     1117     1053      942 
     627      198     -141     -475     -716     -778     -793     -727 
    -541     -371     -311     -297     -198     -102      -82       17 
     198      292      317      406      540      646      791      908 
     909      967     1020      928      934     1017      973      938 
     981      963      761      633      776      637      422      629 
     499      106      136      -58     -550     -787    -1081    -1267 
   -1182    -1302    -1274    -1004    -1154    -1305    -1030    -1119 
   -1354     -888     -662     -994     -716     -449     -712     -513 
    -382     -537     -230     -199     -294      147      194       28 
     413      576      318      317      440      365      278      324 
     444      525      527      608      797      884     1017     1316 
    1490     1571     1575     1390     1225     1023      672      449 
     360      201      -47     -306     -565     -884    -1165    -1404 
   -1561    -1437    -1309    -1225     -895     -638     -523     -233 
      98      256      365      645      846      895     1198     1298 
    1086     1255     1287      981     1004     1030      905      920 
     859      858     1021     1085     1188     1290     1147     1015 
    1015      843      637      680      715      639      656      614 
     414      287      240      135      128      241      280      378 
     592      711      774      815      729      580      406      222 
     126       87       40      -14      -85     -125      -89      -44 
     -81     -159     -209     -338     -596     -807     -899     -936 
    -963     -978     -949     -980    -1148    -1246    -1231    -1259 
   -1220    -1063     -920     -762     -625     -550     -369     -140 
     -99      -14      210      238      257      434      421      353 
     359       91     -237     -409     -832    -1394    -1667    -2006 
   -2551    -2775    -2799    -2901    -2882    -2841    -2695    -2457 
   -2532    -2494    -2187    -2153    -2057    -1702    -1533    -1412 
   -1080     -703     -519     -440     -137      176      102     -133 
     -67        9     -427     -693     -542     -897    -1213     -953 
   -1088    -1309    -1035     -945    -1030    -1061    -1062     -920 
   -1070    -1336    -1248    -1341    -1620    -1611    -1526    -1594 
   -1613    -1262     -901     -992     -838     -336     -217     -220 
     -44      117      140       66      148      159       -2      102 
     224      133      159      210      164       40     -128      -83 
     -67     -243     -187     -112     -282     -311     -221     -325 
    -438     -303     -226     -402     -325       52      287      503 
     899     1306     1548     1603     1688     1784     1737     1674 
    1549     1308     1135     1001      838      702      602      571 
     538      432      471      645      692      778      989     1051 
     974      923      959     1026     1093     1300     1528     1660 
    1852     1989     1979     2020     2050     1933     1819     1741 
    1583     1377     1219     1140     1048      870      696      560 
     376      148      -12      -37      -62     -155     -152      -68 
     -36      -31      -39        6       44      -45      -85      -98 
    -249     -348     -430     -600     -626     -573     -599     -514 
    -328     -159       49      278      472      595      633      680 
     754      768      756      778      789      731      635      604 
     603      538      519      568      557      508      491      522 
     549      507      465      456      391      305      329      440 
     529      643      804      859      819      773      642      436 
     294      234      210      202      241      344      367      259 
     182       87      -82     -184     -295     -400     -392     -531 
    -804     -895     -908     -942     -855     -648     -365      -83 
     178      481      739      870      878      769      558      194 
    -113     -268     -623    -1000    -1104    -1260    -1472    -1466 
   -1289    -1116     -985     -727     -414     -167      201      603 
     864     1039     1089     1011      838      669      575      391 
     153        1     -228     -544     -591     -508     -642     -548 
    -282     -450     -537     -395     -564     -637     -513     -625 
    -729     -631     -614     -750     -665     -495     -569     -402 
    -159     -191      101      328      256      471      399      128 
     259      126      -39      330      344      218      804      961 
     739     1328     1478     1101     1398     1246      735      799 
     526       68      -48     -336     -575     -514     -448     -247 
     166      402      423      510      460      220      120      -35 
    -321     -468     -687     -896     -830     -777     -607     -205 
      67      348      638      729      845      901      810      826 
     810      645      562      527      356      228      307      360 
     311      445      766      874      780      781      754      618 
     486      444      577      675      712      932     1059      957 
    1008     1105      928      788      866      749      423      290 
     322      253      162      361      733      963     1169     1444 
    1723     1891     1830     1745     1645     1355     1117      884 
     465      201      124       -6      -54       74      228      368 
     453      315       45     -121     -348     -733    -1034    -1290 
   -1615    -1938    -2315    -2741    -3140    -3483    -3807    -4179 
   -4396    -4391    -4369    -4247    -3998    -3775    -3449    -3053 
   -2809    -2529    -2049    -1591    -1208     -760     -278      147 
     413      618      857      909      838      824      677      473 
     355       90     -166     -251     -619    -1109    -1285    -1566 
   -1966    -2123    -2126    -1971    -1931    -1996    -1746    -1587 
   -1595    -1389    -1183     -962     -499      -52      186      522 
    1082     1534     1725     1895     2419     2859     2790     2987 
    3183     2980     3218     3191     2646     2762     2889     2519 
    2323     2201     2050     1852     1580     1475     1428     1381 
    1422     1368     1171     1159     1397     1412     1335     1715 
    2204     2369     2484     2795     3103     3213     3222     3204 
    3302     3426     3238     3065     3061     2830     2598     2484 
    2209     2033     1985     1745     1494     1347     1183     1036 
     764      457      484      487      184       44       40      -98 
    -164     -141     -129      -70      -68     -139     -153     -267 
    -526     -689     -864    -1240    -1644    -1987    -2376    -2805 
   -3160    -3404    -3616    -3750    -3717    -3620    -3496    -3234 
   -2822    -2382    -1998    -1595    -1127     -769     -599     -492 
    -481     -623     -742     -745     -772     -796     -650     -419 
    -241      -39      190      371      531      687      814      950 
    1093     1120      974      765      459      -49     -637    -1213 
   -1799    -2297    -2691    -2994    -3142    -3138    -3032    -3019 
   -3102    -2979    -2754    -2677    -2555    -2281    -2123    -2137 
   -2120    -2091    -2204    -2411    -2501    -2532    -2690    -2748 
   -2511    -2214    -1867    -1313     -741     -314       66      379 
     464      390      333      189     -155     -452     -569     -783 
   -1202    -1350     -978     -827     -892     -348      245      483 
     715      703      958     1183      572      554      982      496 
     159      267      114       21       56      218      382      494 
     880      868      503      762      916      419      307      766 
     639      -59      -18      322     -121     -498     -256     -129 
    -330     -363      -82     -216     -583     -321     -287     -657 
    -415     -164     -197      -52        4      126      187     -176 
    -344     -363     -734    -1020    -1051    -1128    -1159    -1074 
   -1134    -1066     -646     -595     -707     -284      -41     -156 
     -29      128      294      494      405      534     1035     1032 
     913     1324     1513     1525     1652     1490     1552     1683 
    1229      978     1012      814      733      691      579      807 
     950      699      970     1498     1348     1436     1938     1927 
    1907     2047     1960     1894     1663     1399     1301      849 
     464      398      -56     -448     -434     -751     -923     -603 
    -665     -656     -210     -166     -133      214      298      382 
     630      672      635      654      616      522      426      432 
     471      346      187      126      -40     -214     -124      -36 
      13      276      422      402      537      637      556      438 
     422      449      319      189      184      112        4      -47 
     -79      -58       -5       81      222      313      409      575 
     657      677      734      750      683      494      299      328 
     287       36       66      286      230      180      302      292 
     232      103     -222     -353     -332     -552     -843     -880 
    -770    -1046    -1385    -1348    -1528    -1580    -1231    -1163 
   -1013     -534     -197       62      363      626      769      947 
    1274     1402     1379     1563     1846     1698     1070     1048 
    1309      630      314      870      774      450      681      849 
     837      893     1081     1377     1485     1482     1705     1888 
    1787     1718     1723     1610     1593     1613     1441     1486 
    1690     1579     1464     1629     1733     1579     1451     1572 
    1651     1453     1304     1498     1688     1482     1355     1659 
    1709     1345     1309     1517     1377      990      704      567 
     263     -396     -853     -878    -1100    -1458    -1440    -1269 
   -1185    -1150    -1155    -1096    -1089    -1266    -1493    -1765 
   -2072    -2312    -2577    -2806    -2786    -2729    -2835    -2786 
   -2555    -2465    -2474    -2343    -2068    -1894    -1884    -1740 
   -1486    -1521    -1733    -1763    -1798    -2002    -2047    -1840 
   -1691    -1652    -1491    -1266    -1205    -1223    -1129    -1008 
    -958     -889     -788     -789     -873     -918     -930     -978 
   -1026     -974     -873     -835     -826     -792     -743     -656 
    -564     -513     -422     -319     -276     -210     -166     -248 
    -310     -279     -338     -423     -363     -284     -213      -94 
     -39       14      106      164      278      388      445      614 
     834     1009     1250     1510     1728     1907     2003     2064 
    2101     2064     2020     1992     1922     1786     1593     1381 
    1125      823      508      257      159      114       93      121 
     108      133      182      136      155      230      245      264 
     248      189      184      120      -89     -195     -140     -114 
      18      207      301      626      924      861     1012     1383 
    1506     1549     1661     1737     1701     1591     1532     1482 
    1355     1163      955      797      614      429      274       21 
     -91      -62     -288     -503     -465     -522     -720     -907 
   -1038    -1113    -1237    -1332    -1333    -1370    -1425    -1458 
   -1499    -1566    -1644    -1683    -1714    -1794    -1827    -1783 
