Origin Time       2025/01/13 21:19:00
Lat.              31.8
Long.             131.6
Depth. (km)       30
Mag.              6.9
Station Code      OIT002
Station Lat.      33.5691
Station Long.     131.2675
Station Height(m) 8
Record Time       2025/01/13 21:20:13
Sampling Freq(Hz) 100Hz
Duration Time(s)  114
Dir.              N-S
Scale Factor      7845(gal)/8223790
Max. Acc. (gal)   5.897
Last Correction   2025/01/13 21:20:13
Memo.             
[...]
    2089     2247     2355     2432     2477     2490     2542     2689 
    2899     3087     3206     3280     3296     3188     3007     2841 
    2701     2635     2694     2801     2872     2936     3022     3129 
    3242     3350     3416     3424     3370     3245     3060     2830 
    2556     2297     2116     1993     1867     1678     1389     1044 
     747      565      481      487      581      729      930     1193 
    1432     1605     1755     1903     2081     2342     2655     2909 
    3018     2979     2875     2779     2693     2598     2497     2400 
    2343     2358     2439     2565     2733     2959     3214     3418 
    3493     3450     3354     3241     3127     3083     3134     3199 
    3226     3248     3287     3303     3276     3258     3276     3304 
    3322     3300     3203     3042     2856     2658     2451     2261 
    2114     2000     1881     1732     1559     1404     1329     1372 
    1493     1649     1803     1879     1844     1723     1517     1242 
     988      828      800      904     1061     1169     1190     1144 
    1077     1023      992     1036     1225     1494     1725     1868 
    1899     1819     1690     1586     1567     1595     1597     1593 
    1617     1663     1725     1787     1864     1992     2146     2280 
    2392     2466     2509     2585     2732     2899     3025     3102 
    3153     3190     3229     3288     3383     3514     3665     3796 
    3851     3778     3577     3325     3099     2936     2841     2775 
    2697     2612     2540     2492     2459     2451     2469     2488 
    2501     2502     2475     2428     2376     2343     2389     2508 
    2621     2677     2682     2668     2647     2586     2508     2478 
    2504     2571     2681     2805     2894     2947     3011     3113 
    3221     3304     3354     3383     3420     3469     3458     3303 
    2998     2651     2353     2084     1799     1528     1308     1169 
    1154     1246     1354     1447     1540     1622     1690     1753 
    1779     1740     1674     1621     1564     1480     1366     1255 
    1192     1162     1112     1016      851      635      400      133 
    -140     -359     -491     -517     -442     -301     -109      128 
     414      751     1097     1408     1715     2035     2284     2421 
    2501     2517     2474     2497     2656     2897     3175     3487 
    3770     3948     4045     4122     4179     4217     4270     4321 
    4310     4189     3928     3577     3245     2986     2772     2583 
    2428     2295     2147     1931     1624     1279      974      710 
     496      363      247      106      -28     -170     -356     -569 
    -761     -885     -930     -920     -839     -675     -457     -191 
     135      481      832     1225     1644     2030     2385     2744 
    3092     3339     3512     3786     4187     4573     4864     5026 
    5047     4989     4870     4669     4441     4243     4071     3952 
    3919     3931     3897     3766     3578     3412     3275     3103 
    2868     2613     2366     2126     1939     1846     1833     1918 
    2143     2473     2812     3090     3275     3360     3380     3424 
    3542     3682     3828     4006     4183     4307     4378     4405 
    4378     4280     4135     3944     3704     3453     3222     2995 
    2814     2735     2731     2731     2675     2532     2334     2149 
    2033     1996     1987     1972     2011     2127     2232     2266 
    2258     2249     2266     2327     2412     2477     2494     2478 
    2427     2332     2204     2014     1756     1499     1285     1098 
     938      804      703      639      629      697      839      973 
    1058     1138     1242     1348     1476     1645     1815     1948 
    2050     2103     2092     2038     1921     1717     1479     1285 
    1151     1075     1054     1089     1208     1405     1599     1746 
    1872     1960     1993     2029     2108     2211     2330     2467 
    2604     2714     2805     2884     2917     2866     2749     2598 
    2412     2205     2033     1950     1968     2035     2120     2241 
    2397     2574     2759     2941     3114     3275     3416     3528 
    3592     3588     3528     3422     3273     3100     2899     2670 
    2473     2361     2332     2362     2416     2478     2583     2754 
    2941     3082     3161     3213     3254     3245     3142     2986 
    2840     2712     2581     2438     2262     2073     1939     1890 
    1896     1910     1915     1945     2002     2076     2182     2322 
    2494     2705     2951     3242     3572     3892     4163     4388 
    4557     4621     4536     4317     4039     3778     3562     3384 
    3257     3169     3061     2914     2756     2598     2462     2385 
    2388     2451     2567     2728     2911     3106     3300     3484 
    3639     3750     3784     3684     3426     3078     2701     2297 
    1888     1529     1269     1116     1059     1081     1139     1201 
    1281     1370     1435     1490     1560     1632     1710     1825 
    1933     1950     1861     1714     1561     1443     1358     1273 
    1189     1151     1148     1128     1069      967      823      677 
     599      625      754      958     1193     1441     1703     1908 
    1952     1817     1578     1282      965      661      359       43 
    -226     -405     -530     -641     -708     -718     -641     -449 
    -222        1      201      329      452      615      788     1016 
    1254     1425     1614     1854     2127     2485     2932     3422 
    3893     4255     4459     4521     4496     4455     4441     4445 
    4457     4471     4453     4376     4245     4082     3929     3819 
    3713     3588     3429     3230     3051     2911     2756     2570 
    2396     2224     2022     1773     1467     1135      845      645 
     560      616      793     1005     1212     1426     1622     1790 
    1946     2097     2270     2488     2735     2972     3157     3268 
    3298     3269     3207     3102     2921     2671     2404     2199 
    2099     2103     2180     2300     2440     2556     2619     2639 
    2620     2524     2339     2131     1948     1768     1599     1495 
    1475     1521     1622     1763     1929     2123     2339     2544 
    2714     2855     2933     2916     2840     2767     2712     2682 
    2681     2689     2694     2673     2571     2378     2141     1911 
    1748     1684     1674     1683     1772     1945     2142     2366 
    2586     2697     2674     2589     2475     2349     2219     2093 
    1999     1929     1858     1795     1777     1815     1900     2060 
    2300     2574     2857     3138     3376     3534     3628     3713 
    3815     3875     3808     3577     3237     2890     2635     2517 
    2548     2708     2952     3208     3414     3545     3597     3581 
    3530     3480     3456     3449     3445     3435     3430     3451 
    3499     3569     3674     3784     3846     3820     3688     3461 
    3153     2795     2420     2030     1638     1300     1035      826 
     672      580      530      521      568      664      769      854 
     931     1036     1174     1316     1432     1487     1445     1327 
    1163      947      704      503      376      332      359      411 
     461      534      669      870     1128     1418     1722     2030 
    2312     2559     2806     3068     3338     3601     3829     3986 
    4072     4106     4083     4005     3889     3742     3581     3422 
    3223     2956     2640     2324     2042     1787     1524     1242 
     947      639      360      163       28      -66      -91      -35 
      85      240      419      646      934     1283     1688     2087 
    2394     2581     2690     2783     2879     2991     3137     3306 
    3497     3724     3928     4018     3998     3910     3759     3585 
    3434     3291     3136     2987     2863     2779     2739     2724 
    2747     2836     2978     3134     3258     3302     3260     3181 
    3103     3034     2978     2956     3002     3098     3157     3130 
    3041     2917     2782     2681     2616     2558     2493     2424 
    2340     2250     2182     2146     2151     2197     2246     2286 
    2309     2312     2331     2413     2536     2625     2624     2528 
    2371     2216     2120     2093     2123     2187     2219     2157 
    1984     1702     1318      919      615      454      438      552 
     720      897     1086     1281     1471     1661     1814     1887 
    1887     1827     1721     1583     1420     1240     1085      977 
     901      834      765      687      576      423      256      105 
      32      106      338      673     1040     1393     1686     1922 
    2134     2300     2388     2421     2408     2353     2303     2258 
    2205     2174     2193     2234     2254     2209     2080     1877 
    1649     1456     1320     1251     1279     1418     1667     2011 
    2403     2799     3180     3515     3793     4017     4166     4202 
    4129     4006     3909     3879     3912     3978     4055     4137 
    4260     4450     4692     4965     5247     5510     5726     5821 
    5737     5555     5363     5165     4962     4770     4579     4378 
    4153     3900     3623     3303     2955     2625     2316     2002 
    1686     1381     1108      926      861      868      888      899 
     905      912      916      903      831      657      390       97 
    -166     -367     -488     -533     -519     -457     -329     -130 
     113      391      726     1152     1655     2176     2667     3123 
    3547     3933     4274     4523     4650     4689     4668     4579 
    4433     4217     3919     3550     3136     2716     2320     1964 
    1687     1490     1313     1146     1008      893      791      677 
     525      341      163       10     -143     -309     -419     -410 
    -276      -44      270      638      994     1305     1582     1842 
    2101     2365     2655     3011     3446     3944     4477     4984 
    5389     5668     5845     5948     5969     5873     5664     5393 
    5116     4862     4608     4328     4010     3663     3330     3048 
    2816     2582     2288     1938     1605     1329     1119     1009 
    1016     1096     1240     1460     1715     1972     2236     2511 
    2801     3125     3470     3771     3983     4120     4178     4128 
    3989     3819     3662     3527     3393     3222     2995     2720 
    2397     2052     1717     1372     1011      675      365       76 
    -133     -237     -248     -136      113      433      760     1065 
    1298     1429     1464     1408     1256     1044      847      715 
     639      606      623      643      594      476      348      226 
      99      -24      -95      -85       -1      155      400      715 
    1039     1355     1672     1985     2307     2651     3009     3389 
    3816     4284     4772     5219     5570     5810     5919     5935 
    5950     5965     5919     5819     5691     5517     5292     5008 
    4641     4218     3813     3449     3105     2789     2512     2245 
    1968     1728     1530     1347     1217     1192     1244     1331 
    1422     1498     1559     1632     1749     1914     2106     2297 
    2459     2571     2631     2641     2635     2624     2597     2543 
    2470     2373     2261     2161     2081     2003     1925     1849 
    1792     1782     1826     1914     2012     2103     2181     2200 
    2107     1957     1860     1833     1844     1860     1825     1709 
    1575     1474     1389     1327     1318     1355     1439     1571 
    1702     1748     1683     1571     1483     1398     1282     1147 
    1001      850      723      641      622      676      796      966 
    1162     1324     1398     1389     1304     1158      999      877 
     804      810      924     1096     1229     1317     1393     1452 
    1497     1543     1572     1575     1580     1598     1629     1694 
    1814     1966     2107     2247     2397     2521     2643     2766 
    2795     2735     2624     2475     2351     2276     2253     2334 
    2509     2724     2965     3235     3535     3844     4140     4418 
    4672     4885     5036     5101     5062     4932     4770     4615 
    4465     4324     4159     3947     3739     3596     3522     3508 
    3531     3555     3581     3616     3632     3612     3582     3574 
    3586     3600     3603     3609     3649     3713     3761     3755 
    3673     3493     3257     3028     2824     2660     2567     2547 
    2586     2650     2686     2659     2575     2488     2424     2370 
    2315     2238     2101     1907     1695     1487     1287     1108 
     985      942      962     1005     1058     1121     1174     1205 
    1201     1140     1024      869      700      544      423      351 
     298      228      164      135      130      153      183      203 
     213      183       85      -93     -336     -599     -866    -1144 
   -1429    -1694    -1908    -2046    -2088    -2058    -2007    -1948 
   -1875    -1795    -1675    -1456    -1125     -697     -182      405 
     982     1452     1833     2193     2527     2797     3017     3199 
    3348     3461     3537     3586     3622     3620     3576     3520 
    3487     3487     3550     3721     4004     4374     4842     5385 
    5950     6504     7014     7465     7847     8148     8353     8451 
    8457     8422     8356     8228     8024     7753     7430     7064 
    6636     6158     5687     5270     4905     4584     4298     4044 
    3809     3566     3287     2944     2538     2096     1668     1269 
     874      467       48     -378     -787    -1124    -1359    -1483 
   -1522    -1493    -1374    -1166     -900     -562     -148      329 
     874     1456     2015     2505     2891     3149     3285     3331 
    3329     3319     3327     3356     3416     3489     3516     3474 
    3362     3173     2925     2640     2307     1926     1533     1134 
     679      148     -402     -924    -1399    -1765    -1980    -2077 
   -2091    -2025    -1871    -1637    -1345    -1008     -658     -315 
      40      399      730     1035     1317     1572     1803     2022 
    2232     2415     2563     2725     2906     3071     3211     3299 
    3304     3241     3129     3013     2967     2990     3028     3060 
    3092     3103     3096     3111     3145     3172     3163     3099 
    2982     2841     2689     2488     2230     1964     1723     1522 
    1382     1305     1270     1263     1271     1271     1267     1294 
    1339     1385     1453     1568     1760     2025     2299     2539 
    2770     3042     3384     3750     4095     4422     4726     4972 
    5142     5271     5389     5474     5539     5653     5818     5972 
    6108     6237     6313     6319     6259     6110     5881     5652 
    5422     5147     4810     4395     3908     3383     2822     2227 
    1652     1146      722      378       81     -206     -488     -756 
    -962    -1043    -1007     -895     -707     -483     -297     -155 
     -24      102      238      380      490      556      587      565 
     479      348      220      141      143      221      346      479 
     602      746      931     1154     1416     1683     1906     2069 
    2184     2257     2289     2280     2247     2218     2192     2164 
    2147     2147     2161     2189     2239     2324     2461     2648 
    2883     3150     3397     3557     3600     3539     3411     3242 
    3037     2810     2596     2424     2316     2282     2299     2343 
    2440     2608     2786     2914     2986     2988     2920     2832 
    2776     2775     2816     2887     2992     3098     3145     3114 
    3038     2975     2951     2982     3071     3167     3218     3252 
    3303     3364     3430     3522     3643     3784     3928     4062 
    4186     4337     4506     4652     4768     4857     4884     4820 
    4671     4457     4191     3885     3569     3271     2980     2687 
    2370     2004     1615     1271      984      737      531      351 
     182       37      -70     -167     -298     -488     -720     -947 
   -1163    -1354    -1456    -1449    -1383    -1255    -1030     -750 
    -467     -184       87      338      580      814     1055     1348 
    1679     1998     2309     2606     2832     2959     2980     2898 
    2766     2633     2525     2484     2524     2609     2698     2755 
    2760     2731     2700     2697     2728     2770     2797     2802 
    2786     2749     2708     2682     2678     2694     2727     2763 
    2782     2787     2797     2790     2749     2704     2687     2709 
    2766     2855     2968     3069     3125     3134     3122     3099 
    3036     2932     2839     2759     2651     2513     2401     2342 
    2327     2365     2447     2531     2613     2710     2791     2843 
    2871     2855     2789     2697     2581     2427     2243     2061 
    1890     1728     1617     1579     1594     1664     1810     2023 
    2282     2587     2940     3314     3661     3964     4226     4449 
    4652     4819     4918     4949     4903     4760     4548     4306 
    4060     3816     3543     3222     2887     2592     2332     2070 
    1787     1498     1225      966      693      380       49     -253 
    -527     -780     -997    -1169    -1275    -1304    -1279    -1221 
   -1146    -1071     -984     -842     -638     -394     -124      162 
     464      772     1067     1328     1544     1753     1998     2235 
    2409     2508     2512     2420     2309     2265     2316     2467 
    2701     2965     3206     3364     3403     3321     3136     2879 
    2610     2386     2239     2161     2127     2166     2301     2501 
    2736     2976     3172     3318     3427     3485     3472     3377 
    3195     2945     2662     2381     2115     1864     1634     1432 
    1258     1116      989      846      716      646      630      661 
     747      886     1112     1414     1725     2038     2354     2629 
    2902     3210     3522     3829     4151     4494     4877     5275 
    5637     5968     6286     6575     6849     7121     7342     7480 
    7533     7493     7373     7175     6882     6538     6200     5871 
    5535     5182     4799     4369     3886     3376     2880     2419 
    2012     1701     1482     1317     1166     1000      807      618 
     480      380      297      248      225      186      140      125 
     143      162      176      216      276      329      382      452 
     541      661      839     1039     1182     1259     1290     1254 
    1154     1036      891      689      465      249       33     -163 
    -299     -342     -292     -172        5      217      438      665 
     909     1188     1510     1861     2211     2515     2722     2837 
    2903     2943     2968     3013     3063     3072     3044     2999 
    2943     2882     2825     2783     2760     2740     2729     2751 
    2791     2837     2887     2934     3003     3084     3115     3067 
    2937     2737     2502     2273     2046     1825     1614     1397 
    1190     1009      808      592      423      311      229      175 
     139      109      114      180      307      473      675      924 
