Origin Time       2025/01/13 21:19:00
Lat.              31.8
Long.             131.6
Depth. (km)       30
Mag.              6.9
Station Code      OIT006
Station Lat.      33.4211
Station Long.     131.3173
Station Height(m) 91
Record Time       2025/01/13 21:20:15
Sampling Freq(Hz) 100Hz
Duration Time(s)  94
Dir.              U-D
Scale Factor      7845(gal)/8223790
Max. Acc. (gal)   1.623
Last Correction   2025/01/13 21:20:15
Memo.             
[...]
  -11317   -11325   -11318   -11286   -11240   -11175   -11072   -10970 
  -10920   -10885   -10822   -10793   -10843   -10921   -10975   -11025 
  -11118   -11259   -11414   -11560   -11681   -11778   -11839   -11853 
  -11830   -11780   -11691   -11546   -11352   -11138   -10939   -10766 
  -10624   -10536   -10512   -10494   -10444   -10424   -10467   -10494 
  -10490   -10521   -10547   -10515   -10489   -10516   -10558   -10608 
  -10683   -10732   -10723   -10701   -10694   -10682   -10692   -10754 
  -10831   -10905   -11011   -11126   -11190   -11209   -11210   -11206 
  -11202   -11209   -11240   -11294   -11342   -11372   -11377   -11360 
  -11340   -11318   -11253   -11149   -11049   -10955   -10839   -10719 
  -10619   -10544   -10494   -10469   -10462   -10478   -10517   -10577 
  -10646   -10709   -10764   -10814   -10831   -10791   -10741   -10710 
  -10669   -10608   -10570   -10567   -10577   -10597   -10638   -10674 
  -10700   -10736   -10794   -10852   -10891   -10906   -10914   -10945 
  -11005   -11098   -11210   -11302   -11360   -11407   -11448   -11485 
  -11522   -11537   -11518   -11483   -11430   -11358   -11302   -11290 
  -11323   -11376   -11425   -11481   -11557   -11608   -11614   -11619 
  -11655   -11684   -11669   -11653   -11658   -11649   -11614   -11577 
  -11527   -11449   -11367   -11331   -11335   -11327   -11300   -11292 
  -11308   -11318   -11319   -11306   -11275   -11276   -11317   -11344 
  -11364   -11410   -11446   -11443   -11425   -11404   -11345   -11236 
  -11110   -10991   -10885   -10775   -10627   -10439   -10277   -10162 
  -10084   -10064   -10120   -10215   -10309   -10417   -10555   -10708 
  -10863   -11007   -11128   -11230   -11330   -11427   -11520   -11581 
  -11581   -11538   -11470   -11368   -11271   -11229   -11198   -11132 
  -11071   -11053   -11047   -11011   -10968   -10930   -10866   -10758 
  -10629   -10508   -10370   -10199   -10025    -9876    -9757    -9671 
   -9622    -9602    -9613    -9657    -9718    -9769    -9821    -9891 
   -9983   -10093   -10223   -10362   -10482   -10585   -10712   -10859 
  -10978   -11052   -11088   -11078   -11043   -11038   -11078   -11125 
  -11175   -11269   -11403   -11515   -11595   -11659   -11685   -11674 
  -11668   -11653   -11601   -11542   -11476   -11358   -11205   -11055 
  -10908   -10768   -10687   -10692   -10721   -10719   -10701   -10687 
  -10663   -10647   -10663   -10692   -10713   -10736   -10732   -10682 
  -10635   -10619   -10604   -10597   -10635   -10694   -10720   -10709 
  -10694   -10682   -10671   -10690   -10729   -10746   -10729   -10701 
  -10656   -10571   -10465   -10415   -10454   -10497   -10505   -10530 
  -10579   -10633   -10705   -10806   -10909   -11003   -11107   -11196 
  -11237   -11229   -11175   -11084   -10964   -10809   -10635   -10486 
  -10393   -10347   -10293   -10201   -10125   -10108   -10126   -10152 
  -10204   -10277   -10338   -10382   -10415   -10446   -10509   -10608 
  -10705   -10795   -10883   -10960   -11034   -11126   -11218   -11296 
  -11368   -11419   -11452   -11489   -11527   -11534   -11514   -11485 
  -11437   -11369   -11307   -11242   -11179   -11153   -11144   -11102 
  -11047   -11017   -11003   -10975   -10959   -10984   -11017   -11026 
  -11038   -11061   -11076   -11061   -11001   -10886   -10755   -10659 
  -10570   -10453   -10351   -10307   -10253   -10165   -10133   -10193 
  -10264   -10309   -10363   -10400   -10389   -10363   -10365   -10378 
  -10382   -10376   -10366   -10365   -10386   -10419   -10439   -10457 
  -10480   -10480   -10438   -10373   -10288   -10174   -10065    -9983 
   -9899    -9796    -9699    -9637    -9625    -9667    -9747    -9841 
   -9953   -10096   -10253   -10401   -10540   -10666   -10774   -10889 
  -11010   -11111   -11200   -11288   -11357   -11396   -11415   -11416 
  -11394   -11357   -11308   -11241   -11173   -11117   -11055   -10980 
  -10894   -10797   -10713   -10654   -10596   -10538   -10504   -10484 
  -10461   -10459   -10498   -10546   -10575   -10625   -10710   -10798 
  -10886   -10979   -11048   -11052   -10997   -10921   -10835   -10735 
  -10650   -10602   -10566   -10507   -10417   -10311   -10219   -10199 
  -10243   -10284   -10296   -10300   -10309   -10332   -10395   -10484 
  -10551   -10598   -10663   -10728   -10777   -10844   -10945   -11041 
  -11119   -11199   -11273   -11317   -11333   -11330   -11295   -11227 
  -11168   -11137   -11113   -11086   -11076   -11084   -11090   -11114 
  -11151   -11149   -11102   -11052   -11009   -10962   -10921   -10886 
  -10851   -10820   -10783   -10731   -10678   -10643   -10631   -10646 
  -10671   -10692   -10723   -10759   -10790   -10837   -10909   -10975 
  -11029   -11090   -11140   -11145   -11134   -11138   -11119   -11038 
  -10940   -10885   -10876   -10895   -10945   -11013   -11079   -11157 
  -11245   -11279   -11240   -11176   -11099   -10975   -10829   -10705 
  -10582   -10455   -10359   -10293   -10237   -10206   -10234   -10308 
  -10399   -10517   -10669   -10806   -10891   -10932   -10953   -10974 
  -10997   -11014   -11030   -11030   -10980   -10883   -10783   -10712 
  -10663   -10644   -10667   -10705   -10717   -10719   -10733   -10758 
  -10794   -10845   -10883   -10898   -10933   -11001   -11053   -11075 
  -11105   -11137   -11142   -11138   -11152   -11161   -11142   -11125 
  -11144   -11176   -11202   -11227   -11245   -11273   -11338   -11425 
  -11529   -11645   -11713   -11719   -11720   -11751   -11778   -11765 
  -11711   -11659   -11634   -11620   -11616   -11642   -11688   -11711 
  -11693   -11677   -11699   -11730   -11745   -11755   -11765   -11753 
  -11719   -11659   -11550   -11385   -11188   -10974   -10752   -10561 
  -10420   -10307   -10207   -10127   -10041    -9948    -9899    -9915 
   -9950    -9990   -10056   -10150   -10228   -10284   -10350   -10405 
  -10423   -10428   -10440   -10443   -10444   -10482   -10559   -10635 
  -10690   -10727   -10723   -10659   -10571   -10505   -10444   -10363 
  -10303   -10282   -10238   -10141   -10057   -10021    -9980    -9929 
   -9913    -9927    -9949    -9980   -10008    -9999    -9965    -9953 
   -9950    -9941    -9963    -9992    -9949    -9863    -9825    -9815 
   -9760    -9683    -9652    -9672    -9714    -9767    -9845    -9971 
  -10110   -10208   -10288   -10386   -10482   -10554   -10605   -10636 
  -10639   -10609   -10567   -10540   -10540   -10539   -10497   -10427 
  -10385   -10401   -10470   -10548   -10616   -10690   -10771   -10835 
  -10879   -10935   -11001   -11028   -10990   -10930   -10885   -10833 
  -10767   -10714   -10689   -10670   -10638   -10601   -10573   -10548 
  -10539   -10571   -10650   -10744   -10816   -10849   -10870   -10912 
  -10989   -11079   -11151   -11198   -11233   -11264   -11304   -11338 
  -11340   -11296   -11196   -11041   -10868   -10704   -10540   -10382 
  -10238   -10114   -10019    -9969    -9971   -10011   -10091   -10212 
  -10349   -10477   -10601   -10736   -10866   -10982   -11102   -11222 
  -11300   -11350   -11423   -11507   -11561   -11584   -11583   -11562 
  -11541   -11535   -11538   -11543   -11557   -11588   -11631   -11685 
  -11766   -11871   -11966   -12046   -12135   -12225   -12286   -12306 
  -12287   -12247   -12217   -12168   -12059   -11919   -11789   -11673 
  -11566   -11477   -11411   -11364   -11315   -11242   -11152   -11068 
  -10980   -10885   -10831   -10802   -10758   -10728   -10743   -10746 
  -10714   -10677   -10619   -10494   -10347   -10264   -10224   -10170 
  -10120   -10096   -10079   -10077   -10107   -10147   -10185   -10238 
  -10301   -10376   -10485   -10638   -10808   -10948   -11051   -11125 
  -11157   -11133   -11056   -10966   -10878   -10771   -10665   -10589 
  -10525   -10476   -10469   -10500   -10536   -10596   -10709   -10849 
  -10983   -11133   -11306   -11470   -11611   -11716   -11789   -11847 
  -11877   -11858   -11827   -11815   -11793   -11751   -11715   -11682 
  -11655   -11641   -11604   -11520   -11422   -11319   -11191   -11071 
  -11002   -10987   -11009   -11067   -11173   -11314   -11465   -11615 
  -11751   -11847   -11889   -11894   -11880   -11844   -11797   -11763 
  -11738   -11699   -11651   -11627   -11630   -11624   -11589   -11561 
  -11560   -11542   -11483   -11412   -11361   -11314   -11241   -11153 
  -11071   -10993   -10932   -10899   -10868   -10862   -10909   -10960 
  -11005   -11099   -11217   -11275   -11303   -11357   -11394   -11388 
  -11404   -11465   -11516   -11537   -11554   -11551   -11515   -11470 
  -11423   -11344   -11229   -11115   -11032   -10953   -10856   -10771 
  -10721   -10677   -10608   -10531   -10462   -10376   -10272   -10179 
  -10098   -10034    -9995    -9958    -9904    -9869    -9876    -9871 
   -9806    -9725    -9687    -9683    -9663    -9633    -9624    -9614 
   -9576    -9524    -9495    -9497    -9483    -9423    -9360    -9317 
   -9265    -9211    -9208    -9258    -9313    -9367    -9443    -9520 
   -9582    -9647    -9720    -9779    -9838    -9927   -10041   -10150 
  -10257   -10363   -10440   -10465   -10463   -10473   -10492   -10517 
  -10571   -10648   -10709   -10751   -10824   -10926   -11003   -11041 
  -11072   -11101   -11117   -11117   -11094   -11052   -10989   -10925 
  -10885   -10847   -10766   -10683   -10656   -10655   -10659   -10704 
  -10763   -10785   -10786   -10802   -10825   -10841   -10852   -10849 
  -10828   -10810   -10805   -10777   -10712   -10639   -10544   -10407 
  -10262   -10146   -10033    -9918    -9844    -9805    -9764    -9745 
   -9788    -9876    -9967   -10075   -10216   -10363   -10493   -10625 
  -10774   -10920   -11071   -11242   -11403   -11512   -11595   -11674 
  -11712   -11689   -11655   -11638   -11588   -11480   -11356   -11234 
  -11114   -11014   -10941   -10870   -10801   -10748   -10705   -10685 
  -10712   -10775   -10851   -10948   -11064   -11152   -11207   -11263 
  -11335   -11406   -11452   -11484   -11511   -11497   -11431   -11345 
  -11268   -11202   -11146   -11103   -11086   -11094   -11098   -11080 
  -11056   -11009   -10914   -10812   -10736   -10639   -10501   -10372 
  -10270   -10196   -10160   -10149   -10115   -10054   -10011   -10004 
  -10014   -10048   -10114   -10188   -10253   -10342   -10459   -10557 
  -10635   -10743   -10870   -10974   -11078   -11210   -11337   -11425 
  -11491   -11543   -11569   -11596   -11649   -11692   -11686   -11653 
  -11600   -11515   -11419   -11350   -11294   -11232   -11186   -11173 
  -11159   -11106   -11055   -11032   -11002   -10963   -10953   -10955 
  -10932   -10913   -10895   -10832   -10752   -10724   -10716   -10681 
  -10654   -10663   -10666   -10643   -10628   -10635   -10636   -10624 
  -10633   -10666   -10678   -10674   -10700   -10735   -10743   -10756 
  -10781   -10767   -10724   -10704   -10713   -10727   -10740   -10774 
  -10843   -10949   -11063   -11155   -11253   -11369   -11462   -11503 
  -11499   -11475   -11446   -11438   -11461   -11481   -11488   -11496 
  -11481   -11434   -11411   -11427   -11418   -11383   -11376   -11387 
  -11384   -11360   -11327   -11298   -11260   -11207   -11141   -11068 
  -10994   -10912   -10822   -10767   -10766   -10797   -10836   -10874 
  -10918   -10978   -11029   -11065   -11099   -11125   -11118   -11079 
  -11029   -10989   -10960   -10924   -10867   -10809   -10781   -10774 
  -10746   -10683   -10620   -10571   -10515   -10451   -10422   -10428 
  -10431   -10440   -10480   -10523   -10565   -10636   -10724   -10790 
  -10851   -10921   -10979   -11029   -11090   -11138   -11161   -11209 
  -11290   -11361   -11408   -11422   -11395   -11356   -11330   -11296 
  -11227   -11153   -11110   -11060   -10960   -10840   -10732   -10612 
  -10463   -10330   -10243   -10179   -10116   -10087   -10108   -10146 
  -10168   -10214   -10303   -10389   -10438   -10476   -10527   -10574 
  -10611   -10669   -10751   -10824   -10889   -10976   -11087   -11192 
  -11280   -11357   -11425   -11491   -11557   -11604   -11623   -11639 
  -11670   -11684   -11661   -11632   -11618   -11583   -11518   -11458 
  -11411   -11344   -11248   -11168   -11115   -11041   -10920   -10804 
  -10723   -10651   -10586   -10547   -10525   -10516   -10516   -10504 
  -10474   -10442   -10407   -10357   -10300   -10269   -10265   -10249 
  -10208   -10166   -10134   -10110   -10112   -10161   -10230   -10291 
  -10366   -10453   -10503   -10503   -10471   -10407   -10316   -10234 
  -10189   -10161   -10133   -10126   -10165   -10230   -10308   -10396 
  -10474   -10531   -10562   -10592   -10636   -10678   -10720   -10787 
  -10858   -10908   -10972   -11048   -11087   -11113   -11176   -11232 
  -11223   -11209   -11234   -11241   -11209   -11190   -11186   -11169 
  -11159   -11176   -11186   -11165   -11155   -11157   -11134   -11110 
  -11134   -11168   -11160   -11152   -11183   -11199   -11172   -11140 
  -11105   -11049   -11014   -11025   -11041   -11045   -11070   -11128 
  -11198   -11269   -11364   -11476   -11577   -11664   -11747   -11830 
  -11907   -11975   -12043   -12104   -12155   -12217   -12283   -12336 
  -12380   -12407   -12395   -12361   -12324   -12283   -12243   -12197 
  -12144   -12097   -12052   -12004   -11965   -11942   -11905   -11846 
  -11797   -11754   -11685   -11612   -11553   -11472   -11362   -11263 
  -11195   -11133   -11053   -10978   -10905   -10800   -10667   -10547 
  -10434   -10311   -10165    -9995    -9818    -9643    -9486    -9386 
   -9329    -9277    -9225    -9180    -9147    -9150    -9188    -9240 
   -9301    -9366    -9427    -9489    -9570    -9666    -9755    -9833 
   -9898    -9948   -10018   -10120   -10235   -10346   -10440   -10507 
  -10546   -10561   -10570   -10597   -10625   -10627   -10624   -10638 
  -10640   -10616   -10596   -10605   -10619   -10612   -10629   -10697 
  -10787   -10887   -11011   -11132   -11225   -11299   -11354   -11380 
  -11396   -11410   -11404   -11392   -11384   -11369   -11345   -11344 
  -11368   -11384   -11385   -11392   -11399   -11400   -11414   -11443 
  -11458   -11443   -11434   -11438   -11427   -11410   -11411   -11398 
  -11338   -11280   -11236   -11165   -11083   -11047   -11029   -10957 
  -10864   -10817   -10795   -10774   -10768   -10766   -10740   -10704 
  -10686   -10673   -10648   -10635   -10627   -10594   -10536   -10469 
  -10388   -10284   -10193   -10139   -10096   -10041    -9990    -9952 
   -9914    -9882    -9884    -9917    -9936    -9942    -9975   -10025 
  -10057   -10084   -10139   -10201   -10245   -10307   -10412   -10517 
  -10596   -10681   -10787   -10863   -10887   -10913   -10955   -10975 
  -10972   -10963   -10945   -10918   -10882   -10840   -10822   -10833 
  -10845   -10852   -10878   -10912   -10932   -10956   -10998   -11037 
  -11075   -11125   -11178   -11227   -11287   -11362   -11433   -11476 
  -11510   -11546   -11562   -11543   -11506   -11473   -11442   -11404 
  -11365   -11325   -11267   -11199   -11138   -11088   -11036   -10978 
  -10932   -10887   -10816   -10735   -10673   -10606   -10524   -10454 
  -10408   -10351   -10273   -10228   -10258   -10328   -10395   -10482 
  -10611   -10743   -10868   -11030   -11215   -11356   -11452   -11562 
  -11673   -11726   -11730   -11739   -11759   -11766   -11758   -11735 
  -11685   -11620   -11564   -11496   -11395   -11284   -11195   -11125 
  -11060   -11002   -10966   -10952   -10956   -10983   -11032   -11091 
  -11146   -11191   -11219   -11241   -11275   -11314   -11356   -11403 
  -11445   -11473   -11507   -11545   -11561   -11551   -11539   -11547 
  -11570   -11583   -11585   -11593   -11593   -11561   -11504   -11427 
  -11346   -11268   -11175   -11068   -10975   -10899   -10817   -10735 
  -10667   -10598   -10521   -10458   -10424   -10417   -10423   -10415 
  -10382   -10355   -10349   -10351   -10346   -10336   -10320   -10299 
  -10289   -10282   -10254   -10219   -10206   -10212   -10215   -10199 
  -10161   -10120   -10088   -10069   -10077   -10111   -10146   -10174 
  -10212   -10237   -10234   -10227   -10220   -10179   -10115   -10093 
  -10110   -10119   -10137   -10197   -10266   -10316   -10361   -10407 
  -10422   -10404   -10404   -10428   -10435   -10435   -10450   -10461 
  -10443   -10420   -10408   -10373   -10315   -10277   -10247   -10193 
  -10149   -10141   -10152   -10165   -10191   -10251   -10343   -10436 
  -10525   -10627   -10733   -10831   -10935   -11055   -11168   -11272 
  -11376   -11465   -11523   -11568   -11601   -11614   -11611   -11618 
  -11619   -11605   -11596   -11605   -11612   -11600   -11583   -11570 
  -11543   -11524   -11541   -11558   -11549   -11550   -11573   -11572 
  -11538   -11506   -11475   -11416   -11335   -11261   -11196   -11122 
  -11038   -10967   -10913   -10859   -10789   -10716   -10662   -10635 
  -10625   -10635   -10670   -10720   -10762   -10783   -10789   -10786 
  -10779   -10775   -10781   -10798   -10831   -10875   -10925   -10974 
  -11020   -11055   -11074   -11088   -11101   -11082   -11025   -10959 
  -10906   -10862   -10833   -10833   -10837   -10813   -10778   -10750 
  -10716   -10673   -10632   -10593   -10555   -10530   -10516   -10492 
  -10443   -10390   -10342   -10287   -10233   -10193   -10149   -10087 
  -10018    -9950    -9894    -9875    -9898    -9930    -9964   -10006 
  -10044   -10077   -10133   -10208   -10284   -10355   -10427   -10497 
  -10557   -10620   -10697   -10774   -10835   -10870   -10891   -10922 
  -10957   -10990   -11017   -11037   -11047   -11048   -11061   -11084 
  -11098   -11107   -11118   -11122   -11140   -11182   -11230   -11268 
  -11298   -11321   -11346   -11373   -11406   -11453   -11503   -11531 
  -11546   -11561   -11584   -11611   -11627   -11626   -11618   -11596 
  -11558   -11518   -11489   -11465   -11429   -11392   -11381   -11385 
  -11377   -11373   -11403   -11465   -11530   -11577   -11612   -11649 
  -11676   -11703   -11751   -11813   -11854   -11880   -11901   -11909 
  -11894   -11871   -11831   -11734   -11577   -11419   -11279   -11126 
  -10971   -10835   -10685   -10517   -10390   -10301   -10207   -10111 
  -10037    -9969    -9909    -9867    -9834    -9798    -9763    -9736 
   -9715    -9703    -9714    -9763    -9825    -9880    -9938    -9999 
  -10046   -10077   -10114   -10172   -10242   -10319   -10403   -10476 
  -10524   -10558   -10592   -10643   -10710   -10760   -10786   -10809 
  -10839   -10860   -10856   -10840   -10827   -10808   -10781   -10748 
  -10724   -10710   -10696   -10673   -10654   -10642   -10627   -10624 
  -10642   -10671   -10713   -10779   -10845   -10891   -10945   -11029 
  -11107   -11165   -11222   -11260   -11254   -11238   -11237   -11229 
  -11210   -11202   -11188   -11151   -11122   -11113   -11090   -11053 
  -11026   -11005   -10967   -10910   -10848   -10777   -10678   -10569 
  -10470   -10369   -10273   -10195   -10112   -10018    -9926    -9842 
   -9774    -9741    -9741    -9753    -9780    -9848    -9934   -10000 
  -10057   -10127   -10199   -10273   -10362   -10439   -10513   -10609 
  -10710   -10801   -10898   -10999   -11083   -11140   -11186   -11232 
  -11263   -11277   -11294   -11314   -11333   -11353   -11372   -11384 
  -11395   -11411   -11431   -11438   -11427   -11410   -11398   -11391 
  -11371   -11327   -11281   -11250   -11218   -11180   -11153   -11137 
