Origin Time       2025/01/13 21:19:00
Lat.              31.8
Long.             131.6
Depth. (km)       30
Mag.              6.9
Station Code      OIT008
Station Lat.      33.2548
Station Long.     131.0197
Station Height(m) 189
Record Time       2025/01/13 21:20:08
Sampling Freq(Hz) 100Hz
Duration Time(s)  88
Dir.              N-S
Scale Factor      7845(gal)/8223790
Max. Acc. (gal)   4.586
Last Correction   2025/01/13 21:20:07
Memo.             
[...]
   14871    14925    14993    15016    15030    15060    15087    15128 
   15151    15114    15070    15060    15056    15048    15055    15066 
   15053    15006    14936    14856    14736    14597    14519    14519 
   14553    14611    14717    14845    14916    14925    14914    14881 
   14836    14840    14916    15014    15098    15155    15161    15132 
   15087    15020    14947    14866    14750    14646    14616    14674 
   14787    14886    14932    14908    14800    14693    14682    14754 
   14851    14899    14854    14746    14609    14484    14447    14542 
   14736    14983    15238    15442    15558    15607    15615    15565 
   15484    15417    15380    15363    15342    15321    15307    15279 
   15246    15233    15234    15276    15353    15394    15368    15300 
   15191    15080    15026    15017    15051    15130    15213    15300 
   15422    15533    15607    15631    15593    15530    15444    15309 
   15165    15036    14893    14748    14619    14489    14358    14242 
   14146    14056    13979    13941    13919    13876    13829    13787 
   13767    13819    13917    14038    14211    14374    14489    14593 
   14624    14581    14580    14635    14709    14798    14870    14928 
   15002    15078    15151    15226    15294    15344    15394    15456 
   15477    15429    15360    15271    15152    15059    15017    14995 
   14979    14989    15013    14991    14940    14937    14924    14823 
   14719    14685    14710    14818    15009    15213    15383    15495 
   15558    15630    15685    15681    15674    15680    15674    15670 
   15650    15592    15538    15498    15433    15354    15268    15153 
   15082    15149    15299    15442    15550    15600    15618    15655 
   15699    15747    15807    15853    15896    15944    15957    15936 
   15950    16012    16047    16000    15930    15850    15708    15580 
   15546    15584    15701    15863    15982    16047    16038    15954 
   15861    15742    15568    15418    15348    15300    15237    15226 
   15295    15327    15265    15190    15130    15091    15126    15198 
   15225    15179    15063    14943    14885    14875    14918    15010 
   15115    15201    15248    15291    15338    15323    15260    15232 
   15236    15252    15321    15423    15496    15537    15543    15480 
   15321    15082    14806    14528    14300    14189    14184    14229 
   14311    14401    14450    14462    14466    14485    14538    14594 
   14671    14794    14877    14852    14785    14692    14539    14388 
   14297    14256    14249    14264    14303    14359    14364    14285 
   14187    14104    14073    14131    14261    14427    14553    14588 
   14567    14492    14391    14373    14457    14588    14724    14791 
   14793    14762    14648    14493    14388    14299    14208    14129 
   14046    13987    13954    13934    13929    13915    13883    13852 
   13813    13764    13703    13614    13541    13543    13622    13757 
   13933    14157    14403    14615    14764    14827    14770    14644 
   14521    14404    14318    14261    14146    13983    13842    13726 
   13635    13576    13554    13618    13759    13894    14017    14138 
   14224    14304    14445    14656    14913    15167    15375    15545 
   15670    15709    15689    15664    15631    15591    15588    15660 
   15782    15936    16167    16452    16710    16988    17300    17559 
   17753    17898    18003    18068    18027    17892    17689    17358 
   16941    16515    16087    15712    15430    15198    15041    14993 
   15021    15125    15277    15427    15612    15842    16017    16123 
   16205    16218    16105    15909    15699    15480    15238    15010 
   14827    14661    14496    14377    14377    14501    14686    14922 
   15205    15472    15731    15986    16185    16352    16471    16475 
   16407    16308    16206    16146    16070    15966    15855    15718 
   15616    15560    15487    15434    15417    15376    15337    15412 
   15631    15952    16380    16816    17124    17308    17375    17325 
   17204    17019    16768    16490    16197    15912    15695    15483 
   15211    14951    14696    14401    14160    14092    14170    14323 
   14586    14921    15218    15504    15811    16078    16244    16312 
   16308    16190    15923    15604    15304    15013    14752    14524 
   14305    14099    13927    13844    13822    13846    13965    14079 
   14087    14044    13973    13845    13671    13549    13528    13555 
   13606    13683    13755    13753    13680    13597    13489    13392 
   13343    13270    13220    13224    13192    13139    13103    13061 
   12999    12889    12758    12615    12420    12248    12118    11998 
   11971    11997    12058    12244    12445    12618    12852    13042 
   13115    13140    13123    13089    13014    12892    12834    12793 
   12758    12827    12912    13028    13281    13570    13880    14303 
   14739    14998    15093    15114    14995    14759    14538    14293 
   13992    13706    13463    13275    13111    12981    12968    13047 
   13186    13483    13976    14489    15024    15680    16254    16731 
   17239    17664    17855    17803    17631    17177    16571    16294 
   15915    15348    15417    15618    15445    15924    16636    16606 
   16957    17659    17674    17852    18397    18588    18732    18985 
   18912    18535    18318    18054    17404    17109    17302    17153 
   17143    17751    17944    17857    18177    18123    17825    17847 
   17649    17386    17292    17053    16821    16567    16220    15934 
   15539    15138    14937    14751    14558    14450    14412    14393 
   14292    14330    14636    14836    15018    15400    15668    15867 
   16186    16548    17034    17446    17536    17672    17856    17567 
   17158    17001    16599    16043    15755    15612    15547    15499 
   15487    15705    15763    15512    15591    15749    15522    15462 
   15516    15381    15315    15225    15126    14975    14511    14137 
   13763    13090    12694    12403    11931    11919    12027    11835 
   12102    12502    12496    12889    13413    13444    13730    14141 
   14061    14017    14146    14013    13701    13555    13504    13113 
   12672    12660    12474    11952    11778    11701    11452    11441 
   11553    11724    12083    12390    12753    13252    13621    13867 
   14061    14223    14220    14000    13886    13764    13474    13273 
   13117    13019    13078    13112    13242    13575    13832    14025 
   14351    14697    14987    15271    15553    15815    15993    16160 
   16256    16110    16019    15916    15496    15206    15044    14611 
   14257    14121    13892    13709    13729    13703    13636    13814 
   14027    14040    14150    14395    14443    14341    14388    14563 
   14575    14532    14704    14737    14706    14968    15006    15075 
   15639    15859    15915    16445    16719    16700    17003    17262 
   17302    17433    17586    17687    17647    17443    17359    17221 
   16988    16919    16722    16563    16671    16534    16343    16472 
   16438    16245    16355    16444    16351    16471    16553    16399 
   16425    16484    16370    16374    16476    16536    16613    16752 
   16915    16976    17031    17150    17042    16856    16864    16713 
   16505    16522    16391    16208    16170    15935    15645    15466 
   15183    14952    14885    14840    14837    14856    14851    14883 
   14904    14862    14843    14793    14617    14392    14175    13945 
   13670    13420    13288    13252    13315    13482    13721    13940 
   14106    14296    14423    14455    14503    14517    14496    14513 
   14600    14634    14612    14833    15099    15017    14931    15153 
   15142    14724    14670    14706    14283    14219    14426    14304 
   14405    14600    14607    14801    14929    14943    15113    15130 
   14952    14952    14978    14715    14654    14709    14299    14254 
   14612    14480    14542    14952    15012    15070    15277    15306 
   15309    15373    15291    15133    15095    15099    15110    15221 
   15333    15412    15534    15522    15433    15603    15574    15191 
   15192    15121    14615    14492    14440    14141    14083    14018 
   13903    13942    13755    13564    13792    13852    13671    14041 
   14332    13944    14073    14372    13829    13716    13990    13563 
   13486    13871    13659    13618    13950    13659    13587    14114 
   14019    14050    14750    14871    14893    15485    15765    15793 
   16078    16171    16104    16247    16179    15966    16008    15708 
   15241    15323    15223    14898    15118    15292    15187    15348 
   15506    15430    15394    15435    15445    15438    15504    15606 
   15523    15357    15352    15244    15009    15075    15322    15414 
   15522    15809    16017    16097    16313    16498    16490    16591 
   16713    16606    16518    16557    16511    16355    16287    16274 
   16136    16062    16096    16098    16177    16202    16125    16109 
   15938    15666    15596    15468    15256    15267    15172    14854 
   14804    14748    14408    14426    14520    14195    14170    14270 
   13979    14017    14229    14061    14202    14538    14369    14376 
   14773    14713    14565    14816    14858    14901    15149    15137 
   15406    15719    15461    15618    15943    15728    15836    16098 
   15930    15861    15978    15943    15815    15811    15961    16063 
   15942    15726    15799    15763    15205    15088    15250    14733 
   14574    14872    14571    14492    14844    14767    14713    14827 
   14681    14523    14315    14053    13980    13857    13718    13716 
   13613    13396    13223    13159    13063    12879    12991    13262 
   13281    13447    13926    14312    14592    14976    15398    15466 
   15381    15550    15372    14964    14991    14756    14237    14118 
   13921    13632    13710    13805    13828    13992    14123    14243 
   14488    14665    14818    15178    15333    15218    15414    15526 
   15240    15175    15194    15007    14879    14735    14532    14385 
   14261    14164    14103    14185    14341    14350    14465    14694 
   14681    14702    14850    14752    14608    14558    14404    14304 
   14273    14143    14088    14075    13934    13838    13855    13853 
   13845    13952    14149    14247    14288    14359    14370    14388 
   14443    14492    14652    14881    15061    15276    15493    15641 
   15768    15886    16066    16325    16573    16860    17132    17277 
   17400    17452    17305    17131    17053    16908    16680    16568 
   16549    16497    16532    16673    16737    16753    16773    16718 
   16676    16680    16626    16538    16426    16275    16131    16013 
   15970    15969    15970    16039    16075    16042    16067    16082 
   16096    16204    16258    16206    16195    16116    15869    15642 
   15444    15169    14951    14836    14706    14601    14594    14597 
   14642    14782    14909    15041    15196    15263    15326    15444 
   15496    15516    15522    15442    15327    15238    15233    15353 
   15527    15738    16004    16202    16324    16448    16524    16548 
   16625    16748    16765    16690    16636    16447    16155    15935 
   15643    15368    15214    15018    14837    14733    14586    14374 
   14247    14187    14010    13907    13946    13882    13869    13941 
   13857    13783    13705    13455    13301    13248    13146    13242 
   13506    13721    13961    14165    14253    14330    14376    14359 
   14442    14639    14769    14889    15117    15211    15109    15082 
   15020    14732    14436    14229    13909    13522    13315    13090 
   12779    12788    12804    12469    12459    12664    12384    12282 
   12469    12148    12023    12224    11913    11785    11882    11595 
   11546    11604    11537    11826    11986    12046    12590    12807 
   12692    13213    13408    13055    13436    13680    13351    13500 
   13586    13338    13312    13275    13198    13220    13313    13603 
   13927    14146    14459    14845    15115    15438    15826    16114 
   16509    16726    16718    17100    17263    17092    17545    17886 
   17689    17955    18266    18099    18010    17914    17892    18017 
   17818    18142    18932    18839    19002    19774    19402    18792 
   18754    17953    16961    16578    16129    15844    15651    15368 
   15687    15697    15187    15638    15981    15469    15670    16124 
   15873    15762    15886    15714    15504    15364    15084    14710 
   14311    14007    13710    13296    13131    13215    13257    13360 
   13602    13945    14197    14293    14548    14754    14656    14702 
   14771    14596    14634    14725    14602    14661    14681    14462 
   14451    14580    14617    14823    15184    15415    15637    15963 
   16159    16231    16426    16708    16784    16726    16839    16879 
   16578    16316    16217    15884    15469    15396    15322    15074 
   15128    15272    15098    15036    15172    15039    14841    14782 
   14648    14565    14480    14319    14283    14165    14034    14026 
   13861    13818    13964    13883    14022    14571    14835    15097 
   15726    16056    16208    16371    16341    16483    16409    16121 
   16236    16101    15809    15889    15739    15543    15773    15816 
   15446    15302    15271    14791    14141    13656    13315    12773 
   11996    11627    11215    10592    10632    10567    10200    10616 
   10959    10732    10953    11421    11519    11542    11789    12015 
   12015    12166    12456    12449    12367    12506    12627    12478 
   12364    12723    13093    13174    13495    13986    14191    14247 
   14362    14370    14353    14598    14715    14620    14841    14932 
   14639    14527    14372    14049    13927    13767    13536    13570 
   13651    13647    13721    13783    13983    14338    14519    14856 
   15430    15708    15947    16397    16715    17032    17469    17784 
   18021    18218    18242    18175    18158    18056    17860    17766 
   17678    17525    17443    17462    17560    17658    17722    17841 
   17936    17941    17967    17968    17906    17899    17925    17969 
   18065    18192    18423    18671    18855    19090    19229    19187 
   19126    19001    18739    18416    18135    17925    17664    17432 
   17373    17350    17328    17366    17371    17331    17216    16980 
   16772    16626    16409    16148    15838    15446    15105    14801 
   14513    14332    14169    14046    14015    13896    13790    13841 
   13865    13864    13957    14064    14143    14247    14392    14528 
   14574    14534    14499    14431    14254    14065    13902    13706 
   13551    13463    13400    13373    13420    13571    13729    13798 
   13942    14274    14524    14607    14782    14920    14874    14872 
   14742    14521    14530    14264    13798    13751    13763    13572 
   13508    13828    14129    14094    14324    14666    14582    14536 
   14670    14567    14323    14311    14274    13946    14002    14299 
   13979    13744    14034    14138    14018    13941    14249    14659 
   14530    14713    15381    15391    15396    16133    16347    16042 
   16326    16374    15828    15631    15390    14856    14490    14119 
   13799    13590    13258    13089    13123    12964    12938    13320 
   13316    13162    13937    14235    13533    14099    14701    13733 
   13733    14320    13628    13302    13621    13468    13383    13528 
   13637    13927    14126    14320    14791    14760    14732    15512 
   15434    14912    15784    15927    14991    15601    16012    14959 
   15053    15450    14639    14534    14827    14419    14484    14752 
   14693    14902    15014    14902    14947    14925    14779    14656 
   14442    14351    14416    13998    13741    14035    13624    13259 
   13644    13447    13252    13667    13662    13625    14050    14165 
   14034    14292    14497    14287    14253    14511    14520    14284 
   14381    14681    14524    14392    14756    14912    14858    15145 
   15322    15187    15263    15379    15199    15120    15350    15402 
   15206    15230    15260    14941    14582    14353    14080    13710 
   13404    13252    13132    13058    13116    13315    13549    13714 
   13971    14223    14400    14709    14810    14787    15034    14964 
   14797    15132    15130    14910    15206    15245    14951    14974 
   14870    14667    14782    14665    14376    14470    14551    14334 
   14064    14146    14442    14177    14138    14802    14879    15005 
   15711    15758    15804    16317    16231    16044    16417    16511 
   16240    16403    16673    16536    16460    16627    16924    16977 
   16644    17027    17587    17084    17200    18033    17641    17270 
   17737    17496    17070    17286    17257    17074    17228    17250 
   17111    17130    17126    17004    16856    16713    16671    16498 
   16085    16027    16096    15619    15279    15388    15153    14725 
   14801    14987    14852    14918    15121    15103    15223    15163 
   14864    15021    14986    14496    14517    14667    14435    14439 
   14585    14586    14721    14713    14590    14881    15037    14806 
   14971    15207    15109    15237    15356    15365    15641    15738 
   15743    16006    16078    16075    16206    16127    16050    16023 
   15670    15369    15295    15021    14770    14767    14733    14677 
   14705    14817    15066    15255    15323    15522    15705    15645 
   15654    15811    15797    15754    15881    15900    15862    15990 
   16042    16038    16131    16139    16106    16098    16035    16020 
   16021    16009    16132    16281    16375    16499    16559    16526 
   16487    16453    16393    16275    16186    16127    16025    15961 
   15892    15782    15761    15780    15677    15556    15541    15446 
   15317    15296    15260    15277    15286    15223    15302    15346 
   15354    15456    15435    15408    15387    15195    15087    15064 
   14932    14841    14823    14721    14559    14436    14278    14130 
   14045    13859    13678    13531    13216    12937    12773    12498 
   12222    12035    11804    11623    11520    11356    11341    11481 
   11480    11557    11758    11797    11909    12070    12025    12070 
   12171    12064    12040    12209    12233    12170    12355    12528 
   12528    12777    13035    13111    13486    13873    14079    14519 
   14891    15007    15190    15286    15202    15175    15097    14867 
   14747    14658    14442    14378    14428    14378    14467    14615 
   14590    14663    14763    14739    14804    14820    14701    14682 
   14688    14601    14553    14570    14513    14430    14432    14431 
   14423    14474    14500    14503    14521    14459    14350    14324 
   14365    14422    14478    14573    14679    14690    14677    14705 
   14716    14719    14723    14732    14764    14763    14717    14720 
   14716    14631    14558    14499    14451    14511    14632    14762 
   14949    15094    15136    15211    15279    15318    15439    15557 
   15689    15919    16055    16112    16297    16486    16600    16769 
   16935    17050    17161    17180    17105    17055    16918    16627 
