Origin Time       2025/01/13 21:19:00
Lat.              31.8
Long.             131.6
Depth. (km)       30
Mag.              6.9
Station Code      OIT016
Station Lat.      32.9748
Station Long.     131.9030
Station Height(m) 2
Record Time       2025/01/13 21:19:57
Sampling Freq(Hz) 100Hz
Duration Time(s)  124
Dir.              E-W
Scale Factor      7845(gal)/8223790
Max. Acc. (gal)   31.898
Last Correction   2025/01/13 21:19:56
Memo.             
[...]
   -2439    -2847    -3055    -3079    -3024    -2914    -2781    -2749 
   -2882    -3013    -2878    -2336    -1478     -461      648     1804 
    2840     3496     3580     2995     1710      -74    -1817    -2992 
   -3497    -3541    -3322    -2906    -2250    -1320     -252      675 
    1236     1493     1668     1787     1733     1467     1005      473 
      62      -95        5      211      248      -20     -419     -670 
    -579        6      972     1946     2668     2940     2616     1945 
    1352     1017      899      892      901      845      677      468 
     368      513      828      994      815      425      -22     -454 
    -788    -1004    -1074     -916     -553     -139      117      -45 
    -778    -1973    -3292    -4244    -4405    -3754    -2712    -1746 
   -1074     -737     -693     -810     -909     -888     -629       -9 
     878     1767     2462     2862     2903     2593     1995     1228 
     405     -454    -1275    -1829    -1960    -1764    -1429    -1066 
    -720     -433     -280     -337     -499     -523     -310       28 
     387      688      814      738      612      492      243     -143 
    -421     -387      -82      276      426      268        2      -29 
     340      994     1630     1937     1775     1243      596      137 
      58      234      394      425      313       67     -155     -199 
    -206     -498    -1192    -2111    -3006    -3680    -4045    -4072 
   -3615    -2544    -1054      446     1674     2490     2816     2717 
    2324     1706     1011      480      252      315      654     1210 
    1753     2077     2172     2045     1617      814     -367    -1910 
   -3730    -5547    -6903    -7353    -6795    -5597    -4209    -2866 
   -1729     -992     -695     -654     -579     -199      572     1571 
    2569     3437     4077     4425     4492     4302     3900     3391 
    2920     2625     2567     2687     2844     2878     2671     2192 
    1555      945      387     -295    -1220    -2235    -3067    -3504 
   -3411    -2785    -1837     -938     -386     -202     -244     -437 
    -720     -904     -828     -546     -159      305      781     1235 
    1703     2124     2322     2170     1701     1040      297     -541 
   -1575    -2759    -3812    -4568    -5131    -5535    -5540    -4984 
   -4050    -3092    -2373    -1964    -1725    -1422     -928     -210 
     835     2141     3210     3607     3437     3045     2596     2069 
    1489     1031      819      679      444      179     -101     -531 
   -1146    -1782    -2200    -2344    -2376    -2428    -2461    -2299 
   -1709     -583      986     2737     4293     5278     5497     5107 
    4529     4079     3740     3348     2872     2392     1991     1744 
    1715     2026     2647     3153     3152     2640     1771      707 
    -387    -1443    -2439    -3289    -3852    -4117    -4261    -4357 
   -4267    -3928    -3460    -2944    -2313    -1493     -603      133 
     618      842      904      984     1109     1212     1325     1440 
    1363      874       -6    -1023    -1941    -2743    -3496    -4156 
   -4644    -4936    -5017    -4808    -4236    -3379    -2442    -1598 
    -957     -546     -260       17      311      638      955     1057 
     824      337     -318    -1008    -1501    -1648    -1505    -1263 
    -955     -464       98      332      -79    -1021    -2012    -2677 
   -2991    -3029    -2864    -2714    -2729    -2741    -2532    -2093 
   -1613    -1354    -1347    -1359    -1201     -866     -475     -143 
     148      589     1363     2435     3624     4761     5737     6480 
    6851     6708     6043     4920     3508     2068      714     -557 
   -1682    -2554    -3136    -3469    -3639    -3686    -3532    -3025 
   -2096     -805      731     2392     3998     5312     6197     6759 
    7230     7747     8284     8756     9123     9370     9440     9283 
    8911     8314     7411     6110     4390     2363      241    -1863 
   -3763    -5057    -5575    -5568    -5262    -4806    -4398    -4143 
   -4078    -4290    -4738    -5163    -5332    -5151    -4596    -3792 
   -3034    -2587    -2500    -2644    -2857    -2963    -2824    -2461 
   -2006    -1640    -1545    -1718    -1958    -2114    -2142    -2027 
   -1807    -1540    -1301    -1216    -1306    -1362    -1166     -769 
    -406     -284     -421     -707    -1086    -1456    -1652    -1707 
   -1780    -1869    -1890    -1811    -1672    -1568    -1449    -1139 
    -673     -220      176      514      784      996     1121     1096 
     957      859      940     1271     1858     2563     3191     3642 
    3921     4120     4364     4654     4838     4839     4730     4511 
    4033     3146     1836      179    -1726    -3665    -5254    -6129 
   -6129    -5364    -4139    -2793    -1555     -456      583     1625 
    2652     3549     4145     4307     4036     3477     2844     2370 
    2241     2551     3316     4441     5710     6887     7766     8137 
    7944     7383     6696     5969     5136     4066     2675     1026 
    -594    -1825    -2543    -2871    -2959    -2903    -2812    -2816 
   -3006    -3478    -4251    -5162    -6031    -6693    -6990    -6886 
   -6411    -5486    -3967    -1788      924     3825     6426     8372 
    9602    10243    10569    10848    11119    11249    11138    10737 
    9973     8765     7163     5360     3546     1841      306    -1038 
   -2169    -3055    -3704    -4245    -4965    -6145    -7843    -9857 
  -11901   -13740   -15159   -16009   -16268   -15975   -15153   -13783 
  -11907    -9744    -7568    -5586    -3993    -2866    -2134    -1729 
   -1533    -1274     -715      136     1044     1786     2297     2558 
    2532     2297     2012     1826     1819     1941     2066     2095 
    1922     1456      692     -291    -1362    -2358    -3167    -3728 
   -3954    -3738    -2971    -1541      490     2791     5003     6893 
    8270     8978     8972     8361     7418     6434     5625     5120 
    4893     4752     4614     4602     4738     4891     4977     4939 
    4669     4074     3192     2166     1078      -44    -1131    -2134 
   -3003    -3640    -4040    -4268    -4361    -4344    -4180    -3761 
   -3067    -2243    -1387     -548      237     1042     1900     2798 
    3748     4629     5283     5711     6011     6328     6735     7190 
    7550     7511     6770     5301     3357     1274     -756    -2681 
   -4506    -6327    -8237   -10143   -11776   -12777   -12873   -11985 
  -10303    -8235    -6178    -4438    -3119    -2066    -1185     -504 
      59      618     1185     1719     2099     2111     1657      900 
      33     -881    -1780    -2529    -3025    -3184    -3029    -2783 
   -2666    -2701    -2878    -3208    -3580    -3844    -3924    -3751 
   -3370    -2920    -2457    -1939    -1181      124     2041     4259 
    6407     8284     9799    10763    10916    10220     8891     7256 
    5609     4048     2656     1609      908      373     -143     -739 
   -1486    -2434    -3541    -4576    -5368    -5949    -6269    -6122 
   -5333    -3836    -1788      535     3087     5854     8625    11315 
   13971    16355    18068    18944    18922    17957    16248    14127 
   11919    10010     8573     7392     6147     4564     2457     -270 
   -3624    -7474   -11550   -15502   -19018   -21911   -23976   -24966 
  -24777   -23561   -21649   -19371   -17030   -14859   -12941   -11376 
  -10184    -9204    -8309    -7442    -6605    -5952    -5632    -5621 
   -5840    -6204    -6648    -7265    -8209    -9528   -11088   -12615 
  -13919   -14947   -15693   -16197   -16390   -16100   -15225   -13710 
  -11550    -8793    -5391    -1339     3049     7338    11256    14586 
   17020    18333    18549    17960    17049    16221    15669    15539 
   15935    16804    18042    19480    20854    21952    22670    22983 
   22833    22126    20790    18769    16150    13217    10359     7835 
    5694     3905     2412     1140       16     -976    -1798    -2439 
   -2867    -3048    -3042    -2963    -2945    -3172    -3746    -4576 
   -5502    -6424    -7322    -8272    -9277   -10201   -10948   -11550 
  -12102   -12638   -13120   -13522   -13813   -13986   -14123   -14349 
  -14673   -15061   -15456   -15612   -15299   -14454   -13112   -11415 
   -9479    -7461    -5620    -4129    -3091    -2536    -2419    -2748 
   -3411    -4162    -4841    -5335    -5499    -5283    -4675    -3643 
   -2119       12     2631     5422     8089    10353    12110    13409 
   14335    14967    15404    15784    16140    16487    16923    17455 
   18011    18592    19151    19573    19782    19464    18161    16051 
   13757    11423     8853     5949     2779     -178    -2492    -4330 
   -5791    -6762    -7376    -7786    -8091    -8357    -8522    -8559 
   -8505    -8390    -8214    -7962    -7569    -6922    -6075    -5235 
   -4492    -3827    -3227    -2689    -2165    -1516     -724      -86 
     109     -220    -1023    -2137    -3418    -4781    -6106    -7249 
   -8081    -8419    -8131    -7287    -6073    -4661    -3179    -1584 
     243     2254     4240     5931     7049     7476     7360     7041 
    6885     7028     7388     7905     8502     8911     8870     8226 
    6805     4646     2151     -180    -1946    -2952    -3213    -2839 
   -2026    -1080     -225      437      800      847      723      595 
     572      702      945     1256     1691     2326     3117     3964 
    5062     6721     8214     8132     6673     4972     3133     1688 
    1331     1023      396      638     1529     2019     2373     2875 
    2957     2644     2430     2269     2069     1968     1876     1659 
    1435     1274     1080      804      391     -263    -1011    -1556 
   -1752    -1568    -1132     -731     -623     -926    -1630    -2729 
   -4190    -5775    -7209    -8434    -9559   -10646   -11654   -12417 
  -12687   -12355   -11542   -10494    -9482    -8818    -8669    -8815 
   -8919    -8777    -8135    -6737    -4550    -1710     1479     4517 
    6936     8515     9285     9506     9471     9323     9092     8673 
    7869     6543     4781     2964     1485      469      -20       74 
     569     1155     1648     1945     1911     1406      355    -1120 
   -2714    -4093    -5050    -5524    -5548    -5200    -4450    -3288 
   -1946     -646      611     1803     2725     3138     2918     2139 
    1032     -222    -1587    -3036    -4291    -4776    -4233    -3083 
   -1814     -565      600     1463     1884     2029     2160     2367 
    2566     2687     2727     2705     2689     2735     2940     3454 
    4336     5431     6492     7292     7616     7438     6802     5614 
    3951     2054      -49    -2425    -5053    -7879   -10633   -12772 
  -13927   -13983   -12807   -10446    -7298    -3886     -589     2335 
    4596     5980     6527     6451     6022     5464     4857     4152 
    3334     2405     1300       35    -1202    -2241    -3063    -3802 
   -4666    -5810    -7277    -9047   -11001   -12953   -14832   -16598 
  -18115   -19263   -19917   -19839   -18890   -17128   -14575   -11273 
   -7470    -3539      152     3306     5760     7499     8653     9497 
   10257    10939    11445    11659    11429    10812    10161     9867 
   10076    10611    11230    11801    12194    12248    11804    10814 
    9455     7958     6374     4656     2886     1316      147     -642 
   -1216    -1701    -2064    -2176    -1973    -1495    -1016     -911 
   -1324    -2268    -3642    -5101    -6265    -6875    -6743    -5738 
   -3994    -1941       39     1669     2770     3357     3446     2982 
    2018      745     -723    -2236    -3368    -3674    -2997    -1501 
     419     2335     3831     4714     5105     5175     5107     5108 
    5228     5440     5732     6014     6092     5782     5073     4152 
    3240     2542     2415     3214     4876     6939     8866    10234 
   10746    10258     8924     7080     4907     2347     -626    -3770 
   -6646    -8806   -10004   -10385   -10427   -10548   -10908   -11573 
  -12568   -13810   -15160   -16465   -17651   -18690   -19588   -20412 
  -21192   -21853   -22288   -22318   -21703   -20293   -17996   -14764 
  -10642    -5849     -784     4068     8338    11986    15159    17890 
   20110    21732    22653    22866    22491    21635    20407    18945 
   17351    15731    14169    12607    11010     9544     8321     7300 
    6347     5136     3330      800    -2390    -5945    -9278   -11767 
  -13093   -13304   -12652   -11421    -9795    -7788    -5444    -2959 
    -506     1795     3813     5401     6377     6642     6259     5344 
    4006     2322      290    -1926    -3874    -5107    -5454    -5066 
   -4225    -3132    -1910     -652      549     1566     2303     2755 
    2957     2925     2779     2778     3094     3757     4737     6021 
    7493     8995    10478    11993    13647    15360    16787    17618 
   17609    16676    15013    12904    10598     8174     5548     2668 
    -411    -3531    -6489    -9143   -11565   -13986   -16464   -18922 
  -21230   -23210   -24823   -26059   -26820   -27079   -26912   -26303 
  -25114   -23355   -21207   -18874   -16475   -14068   -11749    -9618 
   -7777    -6374    -5518    -5189    -5301    -5721    -6211    -6524 
   -6532    -6251    -5697    -4826    -3678    -2288     -580     1525 
    4124     7245    10669    14071    17250    20089    22519    24603 
   26482    28254    29961    31487    32616    33250    33373    33014 
   32177    30736    28512    25309    21055    16108    11082     6350 
    2100    -1602    -4923    -7998   -10809   -13396   -15746   -17686 
  -19107   -20025   -20536   -20750   -20730   -20595   -20440   -20191 
  -19747   -19126   -18430   -17757   -17111   -16430   -15547   -14226 
  -12494   -10597    -8745    -7067    -5521    -3982    -2482    -1108 
     105     1158     2135     3072     3869     4499     5058     5614 
    6241     7032     7992     9155    10559    11996    13126    13776 
   13946    13651    12958    12082    11310    10902    10902    11142 
   11360    11237    10504     9115     7300     5323     3242     1077 
   -1104    -3179    -4954    -6420    -7680    -8662    -9309    -9736 
  -10057   -10273   -10272    -9842    -8932    -7784    -6697    -5709 
   -4653    -3609    -2822    -2334    -2056    -1933    -1922    -2008 
   -2286    -2758    -3146    -3244    -3138    -2968    -2677    -2266 
   -1861    -1459    -1024     -604     -186      222      607     1028 
    1509     2060     2674     3275     3855     4517     5381     6458 
    7584     8534     9104     9190     8807     8047     7175     6417 
    5736     4957     3898     2520      923     -834    -2718    -4700 
   -6837    -9174   -11547   -13730   -15628   -17169   -18230   -18732 
  -18580   -17707   -16194   -14146   -11696    -9072    -6490    -4085 
   -1946     -101     1544     3072     4445     5512     6034     5908 
    5354     4801     4603     4864     5491     6346     7319     8338 
    9391    10374    11165    11812    12275    12383    12110    11554 
   10814     9972     9081     8286     7766     7597     7781     8182 
    8696     9296     9903    10461    10929    11292    11539    11537 
   11142    10285     8923     6974     4436     1453    -1775    -5019 
   -8095   -10924   -13455   -15672   -17548   -19062   -20209   -20952 
  -21249   -21135   -20617   -19666   -18334   -16714   -14947   -13223 
  -11583    -9949    -8387    -7090    -6180    -5667    -5479    -5408 
   -5229    -4903    -4467    -3933    -3219    -2245    -1128      -89 
     722     1275     1601     1798     2112     2774     3775     4891 
    5827     6403     6642     6685     6597     6367     5958     5351 
    4633     4021     3805     4203     5219     6716     8546    10498 
   12283    13667    14515    14797    14597    14049    13244    12267 
   11230    10158     8991     7735     6466     5229     4005     2814 
    1749      803      -64     -826    -1426    -1834    -2114    -2427 
   -2945    -3715    -4639    -5607    -6508    -7211    -7696    -8013 
   -8151    -8137    -8132    -8293    -8761    -9626   -10801   -12097 
  -13400   -14685   -15947   -17208   -18534   -19969   -21429   -22631 
  -23314   -23311   -22368   -20424   -17786   -14839   -11997    -9518 
   -7314    -5243    -3242    -1282      780     3021     5366     7755 
   10046    12186    14106    15739    17119    18123    18681    18863 
   18769    18472    18042    17578    17158    16865    16668    16518 
   16405    16208    15948    15776    15742    15827    15920    15869 
   15562    15066    14509    13844    13038    12109    10993     9779 
    8532     7196     5817     4459     3036     1279     -859    -3194 
   -5587    -7847    -9954   -11959   -13797   -15466   -17008   -18445 
  -19668   -20537   -21004   -21147   -21182   -21324   -21775   -22519 
  -23336   -23994   -24220   -23896   -23029   -21645   -19862   -17825 
  -15642   -13389   -11110    -8779    -6442    -4224    -2174     -406 
     939     1892     2596     3229     3862     4514     5255     6041 
    6783     7460     8114     8858     9661    10409    11041    11496 
   11750    11815    11747    11570    11222    10751    10338    10204 
   10535    11345    12555    14037    15456    16505    17169    17496 
   17531    17290    16700    15777    14589    13223    11691     9940 
    8039     6068     4121     2174      164    -1800    -3670    -5308 
   -6578    -7555    -8309    -8969    -9724   -10625   -11537   -12243 
  -12602   -12603   -12380   -12051   -11635   -11119   -10530    -9957 
   -9385    -8610    -7558    -6409    -5379    -4510    -3815    -3419 
   -3331    -3437    -3597    -3670    -3539    -3086    -2284    -1151 
     216     1571     2720     3489     3773     3601     3145     2663 
    2301     2118     1999     1745     1300      660      -81     -811 
   -1490    -2029    -2374    -2578    -2695    -2744    -2631    -2315 
   -2022    -1877    -1684    -1337     -916     -518     -245     -128 
    -216     -610    -1232    -1929    -2578    -3044    -3319    -3377 
   -3105    -2384    -1205      160     1493     2741     3890     5028 
    6273     7669     9173    10686    12056    13208    14121    14708 
   14933    14812    14359    13547    12370    10999     9625     8349 
    7222     6220     5278     4360     3485     2675     1949     1337 
     770      132     -595    -1398    -2215    -2903    -3402    -3785 
   -4170    -4675    -5362    -6177    -7067    -7977    -8856    -9671 
  -10396   -11092   -11792   -12448   -13026   -13451   -13721   -13999 
  -14372   -14793   -15226   -15638   -15957   -16081   -15912   -15360 
  -14365   -12987   -11385    -9698    -8008    -6377    -4837    -3433 
   -2196    -1057       58     1142     2173     3145     4012     4714 
    5166     5302     5192     4973     4779     4766     5026     5556 
    6328     7237     8162     9018     9721    10222    10523    10656 
   10678    10617    10478    10303    10152    10088    10172    10431 
   10859    11415    11998    12486    12792    12843    12521    11727 
   10473     8861     7094     5409     3919     2663     1715     1086 
     724      564      545      648      859     1111     1301     1329 
