Origin Time       2025/01/13 21:19:00
Lat.              31.8
Long.             131.6
Depth. (km)       30
Mag.              6.9
Station Code      OIT017
Station Lat.      32.8579
Station Long.     131.6576
Station Height(m) 251
Record Time       2025/01/13 21:20:00
Sampling Freq(Hz) 100Hz
Duration Time(s)  84
Dir.              E-W
Scale Factor      7845(gal)/8223790
Max. Acc. (gal)   6.121
Last Correction   2025/01/13 21:20:00
Memo.             
[...]
  -10031   -10384   -10454    -9995    -9825   -10374   -10941   -10886 
  -10516   -10401   -10539   -10602   -10601   -10709   -10800   -10654 
  -10347   -10235   -10388   -10470   -10369   -10119    -9838   -10014 
  -10650   -10994   -10831   -10616   -10570   -10567   -10482   -10497 
  -10798   -10952   -10663   -10530   -10754   -10717   -10449   -10419 
  -10270    -9801    -9769   -10380   -10797   -10647   -10467   -10608 
  -10778   -10872   -11052   -11075   -10797   -10654   -10852   -10956 
  -10659   -10365   -10474   -10640   -10497   -10299   -10200   -10042 
   -9972   -10342   -10964   -11121   -10650   -10288   -10358   -10322 
   -9999    -9784    -9875   -10068    -9992    -9792   -10049   -10500 
  -10405    -9996    -9950   -10264   -10540   -10584   -10504   -10588 
  -10845   -10862   -10596   -10640   -11088   -11190   -10710   -10412 
  -10615   -10756   -10746   -10889   -10891   -10507   -10026    -9728 
   -9634    -9610    -9792   -10355   -10737   -10501   -10137   -10208 
  -10643   -10876   -10693   -10440   -10075    -9649    -9821   -10401 
  -10700   -10733   -10566   -10461   -10910   -11356   -11159   -10763 
  -10497   -10368   -10462   -10563   -10512   -10345    -9964    -9675 
   -9998   -10662   -10914   -10508    -9985   -10050   -10596   -10885 
  -10767   -10670   -10613   -10527   -10516   -10353   -10064   -10116 
  -10517   -10895   -10953   -10832   -11119   -11738   -11911   -11496 
  -11102   -11041   -10744    -9828    -9263    -9779   -10381   -10268 
  -10045   -10149   -10280   -10326   -10432   -10639   -10908   -11034 
  -10957   -10930   -10781   -10291   -10083   -10496   -10930   -10987 
  -10820   -10690   -10612   -10315    -9952   -10048   -10299   -10066 
   -9695    -9776   -10135   -10336   -10303   -10409   -10725   -10513 
   -9822    -9886   -10768   -11125   -10489   -10031   -10663   -11348 
  -10871   -10085   -10323   -11040   -10860   -10112   -10135   -10835 
  -11244   -11010   -10396   -10108   -10304   -10384   -10521   -10901 
  -10762   -10164   -10027   -10501   -11060   -11215   -10839   -10369 
  -10305   -10455   -10465   -10538   -10685   -10593   -10422   -10246 
   -9884    -9790   -10254   -10689   -10766   -10687   -10504   -10257 
  -10135   -10034    -9776    -9799   -10341   -10686   -10470   -10311 
  -10658   -11102   -11103   -10917   -11014   -11071   -10764   -10336 
   -9940    -9929   -10658   -11318   -10935    -9956    -9494    -9942 
  -10648   -10733   -10249    -9882    -9968   -10492   -11036   -11006 
  -10747   -10978   -11252   -10937   -10530   -10616   -10866   -10766 
  -10474   -10373   -10342   -10141    -9879    -9838   -10199   -10685 
  -10836   -10620   -10111    -9540    -9641   -10265   -10265    -9933 
  -10339   -10902   -10868   -10867   -11294   -11701   -11623   -11001 
  -10494   -10516   -10457   -10123   -10134   -10548   -10948   -11117 
  -10893   -10513   -10519   -10648   -10416   -10146   -10060    -9921 
   -9763    -9676    -9676   -10039   -10681   -10821   -10291   -10072 
  -10577   -11020   -11009   -10944   -10966   -10774   -10246    -9846 
  -10200   -10914   -10801   -10045    -9904   -10274   -10415   -10355 
  -10110    -9964   -10262   -10335   -10142   -10528   -11178   -11368 
  -10975   -10208    -9971   -10458   -10631   -10693   -11412   -11965 
  -11780   -11549   -11353   -10729   -10010    -9787    -9838    -9782 
   -9926   -10368   -10439    -9864    -9435    -9879   -10573   -10477 
   -9994   -10291   -11111   -11148   -10370   -10080   -10561   -10729 
  -10422   -10384   -10507   -10570   -10878   -11348   -11569   -10932 
   -9586    -9262   -10409   -10943   -10018    -9244    -9713   -10655 
  -10763   -10164   -10370   -11495   -11790   -10814   -10048   -10265 
  -10836   -11217   -11291   -11009   -10785   -11180   -11696   -11276 
  -10138    -9533    -9823   -10193   -10158   -10079   -10111   -10081 
  -10261   -10658   -10524    -9888    -9779   -10246   -10400   -10125 
  -10135   -10660   -10882   -10459   -10282   -10632   -10963   -11130 
  -11067   -10845   -10804   -10798   -10632   -10443   -10254   -10149 
  -10328   -10598   -10476   -10056   -10129   -10747   -10940   -10540 
  -10427   -10887   -11362   -11272   -10690   -10268   -10191   -10326 
  -10821   -11250   -11044   -10687   -10791   -11025   -10708   -10075 
  -10012   -10281   -10114   -10011   -10407   -10378    -9640    -9332 
   -9726   -10061   -10399   -11024   -11538   -11353   -10365    -9603 
   -9780    -9911    -9479    -9428   -10147   -10937   -11155   -10972 
  -11017   -11311   -11253   -10538    -9566    -9175    -9651   -10363 
  -10764   -10862   -10808   -10802   -10997   -11146   -10912   -10527 
  -10635   -11090   -10874   -10042    -9844   -10404   -10752   -10732 
  -10728   -10488    -9922    -9740   -10115   -10536   -10872   -11029 
  -10891   -10781   -10863   -11061   -11314   -11186   -10617   -10291 
  -10274   -10172   -10106   -10100    -9945    -9837    -9977   -10331 
  -10717   -10642   -10033    -9655   -10033   -10727   -10916   -10567 
  -10566   -11129   -11365   -10906   -10249    -9814    -9860   -10350 
  -10750   -10781   -10787   -10886   -10708   -10345   -10373   -10704 
  -10627   -10030    -9703   -10102   -10503   -10397   -10239   -10003 
   -9618    -9765   -10226   -10212    -9960    -9938   -10431   -11302 
  -11411   -10592   -10249   -10438   -10157    -9871   -10326   -11043 
  -11152   -10250    -9271    -9549   -10393   -10295    -9607    -9617 
  -10399   -10831   -10354    -9950   -10561   -11318   -11011   -10305 
  -10285   -10542   -10588   -10717   -10966   -11214   -11394   -11110 
  -10281    -9630    -9709   -10158   -10369   -10246   -10012    -9913 
  -10174   -10665   -10879   -10605   -10260   -10116    -9672    -8946 
   -9136   -10339   -10874   -10077    -9367    -9890   -10810   -10785 
  -10247   -10434   -10925   -10696   -10177    -9969    -9614    -8950 
   -8500    -8590    -9162    -9630    -9420    -9012    -9082    -9412 
   -9441    -8999    -8652    -9100    -9911   -10116    -9814    -9774 
  -10100   -10315   -10222   -10029    -9953   -10031   -10196   -10276 
  -10102    -9709    -9310    -9327    -9818    -9996    -9553    -9404 
   -9813    -9918    -9472    -9062    -9282   -10234   -11103   -11129 
  -10693   -10488   -10748   -11280   -11561   -11435   -11437   -11704 
  -11785   -11745   -11832   -11788   -11596   -11441   -11194   -10924 
  -10712   -10370   -10064    -9990    -9948    -9968   -10112   -10123 
  -10008    -9954   -10089   -10581   -11183   -11493   -11588   -11522 
  -11364   -11348   -11218   -11007   -11338   -11944   -12151   -12096 
  -11970   -11659   -11310   -11173   -11252   -11379   -11616   -12037 
  -12347   -12417   -12424   -12305   -12012   -11767   -11578   -11259 
  -11061   -11435   -12280   -13066   -13489   -13784   -14239   -14563 
  -14435   -14208   -14219   -14197   -13917   -13485   -12924   -12312 
  -11880   -11543   -11082   -10659   -10357    -9864    -9158    -8692 
   -8738    -9016    -9072    -8797    -8467    -8437    -8746    -8927 
   -8607    -8112    -7920    -8037    -8295    -8559    -8549    -8175 
   -7827    -7847    -8148    -8532    -8819    -8977    -9185    -9283 
   -9045    -8861    -9070    -9317    -9217    -8920    -8788    -8804 
   -8656    -8515    -8733    -9077    -9429    -9856    -9985    -9846 
   -9957   -10241   -10536   -10933   -11044   -10782   -10898   -11506 
  -11793   -11568   -11385   -11537   -12051   -12627   -12563   -11952 
  -11766   -12208   -12448   -12052   -11773   -12313   -12876   -12552 
  -12005   -12020   -12096   -11583   -10748   -10369   -10655   -10841 
  -10473   -10135   -10027    -9585    -8903    -8684    -9112    -9813 
  -10179    -9814    -9215    -9135    -9435    -9579    -9614    -9822 
  -10127   -10407   -10666   -10836   -10980   -11137   -11215   -11395 
  -11466   -10854   -10123   -10239   -10686   -10463    -9799    -9551 
   -9811    -9840    -9390    -9285    -9810    -9944    -9377    -9127 
   -9452    -9444    -8822    -8451    -9011    -9922   -10357   -10536 
  -11044   -11696   -11873   -11543   -11217   -11117   -11159   -11196 
  -11002   -10538   -10235   -10527   -11010   -11014   -10813   -10974 
  -11507   -12222   -12988   -13790   -14562   -15032   -15094   -14823 
  -14289   -13643   -12933   -12267   -11936   -11758   -11246   -10577 
  -10446   -10951   -11240   -10755   -10119    -9921    -9806    -9582 
   -9811   -10594   -11211   -11273   -11090   -11140   -11701   -12553 
  -13078   -12922   -12561   -12718   -13076   -12825   -12185   -11947 
  -12195   -12283   -11766   -11256   -11391   -11504   -10849    -9896 
   -9562   -10010   -10503   -10729   -11338   -12236   -12366   -11497 
  -10482    -9984    -9612    -8603    -7377    -6905    -6907    -6610 
   -6169    -6131    -6674    -7553    -8280    -8698    -9051    -9410 
   -9572    -9506    -9352    -9144    -8941    -8811    -8594    -8232 
   -7913    -7709    -7464    -7030    -6585    -6664    -7430    -8082 
   -8047    -7975    -8428    -8903    -8877    -8676    -8835    -9101 
   -8839    -8183    -7713    -7481    -7375    -7620    -8097    -8301 
   -8421    -9063    -9971   -10632   -11325   -12201   -12833   -12924 
  -12548   -12260   -12415   -12298   -11612   -11419   -11861   -11634 
  -10667   -10257   -10563   -10687   -10546   -10731   -11136   -10868 
   -9823    -9292    -9869   -10419   -10084    -9297    -8718    -8644 
   -8815    -8743    -8608    -8633    -8236    -7294    -6696    -7014 
   -7929    -8573    -8442    -8235    -8473    -8661    -9049   -10330 
  -11736   -12135   -11778   -11757   -12596   -13682   -14129   -13954 
  -13612   -13050   -12275   -11711   -11232   -10261    -9046    -8298 
   -8002    -7831    -7815    -7938    -8046    -8027    -7815    -7778 
   -8267    -8808    -9096    -9585   -10390   -11277   -11989   -11959 
  -11353   -11222   -11620   -11850   -11944   -12189   -12618   -13082 
  -13082   -12627   -12579   -13216   -13891   -14239   -14404   -14338 
  -13940   -13564   -13541   -13733   -13917   -13948   -13775   -13556 
  -13312   -12916   -12445   -11935   -11526   -11615   -12091   -12403 
  -12425   -12320   -12039   -11584   -11232   -11099   -10964   -10708 
  -10474   -10322   -10092    -9732    -9582    -9859   -10056    -9857 
   -9648    -9339    -8588    -7908    -7817    -8079    -8394    -8851 
   -9729   -10948   -11881   -12139   -12136   -12395   -12719   -12658 
  -12438   -12405   -12214   -11561   -10841   -10403    -9895    -8924 
   -7701    -6786    -6538    -6682    -6578    -6064    -5616    -5725 
   -6331    -6963    -7416    -7944    -8657    -9120    -9055    -9067 
   -9736   -10585   -11006   -11402   -12398   -13578   -14088   -14022 
  -13878   -13595   -13000   -12132   -11287   -10847   -10593   -10120 
   -9714    -9741   -10061   -10354   -10536   -10859   -11341   -11592 
  -11626   -11863   -12293   -12345   -11821   -11534   -12116   -12899 
  -13086   -12962   -13201   -13768   -14007   -13655   -13227   -13149 
  -13186   -12947   -12463   -12155   -12421   -13100   -13508   -13470 
  -13620   -14056   -14029   -13265   -12387   -12083   -12260   -12187 
  -11646   -11114   -10783   -10319    -9451    -8522    -8155    -8374 
   -8687    -8773    -8765    -8946    -9331    -9879   -10478   -10798 
  -10848   -10717   -10218    -9630    -9562    -9960   -10245   -10143 
   -9900    -9722    -9398    -8838    -8471    -8465    -8336    -7944 
   -7807    -8106    -8483    -8476    -7832    -7045    -6901    -7299 
   -7862    -8812   -10048   -10879   -10997   -10624   -10191    -9925 
   -9579    -8976    -8232    -7361    -6617    -6502    -6804    -6855 
   -6697    -6810    -7271    -7848    -8257    -8399    -8615    -8962 
   -9039    -9090    -9553   -10054   -10292   -10453   -10605   -10839 
  -11134   -11121   -10658    -9946    -9347    -9389   -10091   -10693 
  -10666   -10395   -10571   -11124   -11303   -10868   -10434   -10417 
  -10428   -10080    -9548    -9184    -9138    -9150    -9012    -9197 
   -9950   -10494   -10338   -10296   -11124   -12289   -12987   -13117 
  -12793   -12162   -11614   -11419   -11627   -11915   -11550   -10559 
  -10049   -10620   -11600   -12066   -11885   -11668   -11750   -11703 
  -11175   -10531   -10301   -10494   -10615   -10249    -9574    -9011 
   -8710    -8635    -8687    -8969    -9668   -10314   -10507   -10814 
  -11437   -11919   -12347   -12811   -13104   -13313   -13247   -12777 
  -12530   -12611   -12380   -11863   -11581   -11734   -11996   -11685 
  -10797   -10193   -10108    -9921    -9518    -9450    -9863   -10342 
  -10655   -10889   -11094   -11200   -11109   -11078   -11757   -12958 
  -13425   -12676   -11815   -11905   -12463   -12613   -12741   -13494 
  -14403   -14570   -13878   -13111   -12718   -12062   -10816    -9747 
   -9319    -9155    -9005    -8772    -8363    -8112    -8108    -7915 
   -7707    -7985    -8413    -8302    -7649    -7317    -8095    -9521 
  -10451   -10548   -10404   -10555   -10851   -10905   -11072   -12052 
  -13420   -13918   -13312   -12595   -12469   -12576   -12226   -11506 
  -11133   -11182   -10991   -10411    -9998    -9976   -10030   -10003 
   -9954    -9859    -9798    -9772    -9425    -8723    -8272    -8453 
   -8922    -9094    -8812    -8502    -8540    -8568    -8083    -7588 
   -8043    -9235   -10119   -10505   -11016   -11884   -12772   -13446 
  -14085   -14874   -15769   -16538   -16904   -16906   -16765   -16708 
  -16862   -16795   -16174   -15504   -15040   -14397   -13439   -12336 
  -11248   -10246    -9383    -8792    -8509    -8533    -8773    -8765 
   -8257    -7674    -7420    -7279    -6851    -6405    -6697    -7727 
   -8721    -9364    -9963   -10571   -10953   -11155   -11206   -10935 
  -10640   -10586   -10323    -9742    -9402    -9670   -10523   -11530 
  -11996   -11874   -11718   -11429   -10473    -9072    -7780    -6890 
   -6461    -6091    -5695    -5825    -6401    -6937    -7345    -7406 
   -7082    -6901    -7034    -7252    -7595    -8155    -8708    -8887 
   -8683    -8610    -8931    -9259    -9248    -9080    -9200    -9745 
  -10231   -10266   -10301   -10779   -11160   -10816   -10154    -9837 
   -9783    -9707    -9726   -10015   -10409   -10490   -10102    -9567 
   -9232    -9135    -9109    -9018    -9030    -9343    -9655    -9775 
  -10150   -10987   -11799   -12213   -12384   -12430   -12260   -12163 
  -12568   -13112   -13012   -12280   -11792   -12079   -12603   -12807 
  -12997   -13247   -13026   -12440   -12063   -11767   -11105   -10345 
  -10045    -9987    -9578    -8849    -8147    -7489    -6756    -6187 
   -6273    -6862    -7156    -7134    -7719    -9204   -10787   -11747 
  -12070   -12163   -12397   -12695   -12803   -12860   -12927   -12602 
  -11826   -11101   -10642   -10200    -9490    -8623    -8147    -8241 
   -8500    -8752    -9022    -9153    -9051    -8688    -8338    -8715 
   -9729   -10405   -10530   -10686   -11092   -11545   -11691   -11398 
  -11091   -11171   -11514   -11857   -12168   -12440   -12499   -12275 
  -11885   -11539   -11597   -11967   -12013   -11682   -11495   -11493 
  -11311   -10766   -10116    -9842    -9891    -9711    -9262    -9100 
   -9386    -9842   -10586   -11672   -12492   -12825   -13204   -13906 
  -14787   -15624   -16121   -16236   -16127   -15741   -15029   -14206 
  -13516   -12954   -12258   -11287   -10299    -9558    -8976    -8536 
   -8549    -8982    -9385    -9595    -9741    -9938   -10254   -10596 
  -10801   -10916   -11105   -11400   -11785   -12216   -12577   -12833 
  -12893   -12602   -12141   -11790   -11349   -10816   -10721   -10924 
  -10669   -10017    -9531    -9159    -8502    -7681    -7384    -7692 
   -7593    -6498    -5227    -4780    -4992    -5001    -4824    -5321 
   -6575    -7831    -8634    -9003    -9304    -9879   -10465   -10677 
  -10571   -10454   -10660   -10967   -10717   -10012    -9526    -9454 
   -9607    -9949   -10608   -11411   -11904   -12054   -12124   -12123 
  -12000   -11686   -10960    -9952    -9189    -8757    -8299    -7952 
   -8187    -8891    -9474    -9672    -9823   -10359   -11041   -11232 
  -11149   -11746   -12995   -13880   -14145   -14318   -14465   -14224 
  -13606   -13155   -13096   -12858   -12195   -11676   -11550   -11484 
  -11371   -11466   -11838   -12240   -12528   -12587   -12232   -11709 
  -11331   -10800    -9941    -9112    -8565    -8376    -8338    -7902 
   -7099    -6667    -6895    -7330    -7520    -7443    -7468    -7828 
   -8162    -8189    -8272    -8638    -9050    -9531   -10478   -12059 
  -13701   -14412   -13906   -12980   -12532   -12648   -12793   -12642 
  -12351   -12046   -11643   -11171   -10751   -10359    -9730    -8718 
   -7763    -7385    -7487    -7738    -8014    -8247    -8391    -8564 
   -8985    -9763   -10540   -10777   -10551   -10369   -10242    -9896 
   -9595    -9855   -10488   -10813   -10635   -10316   -10185   -10270 
  -10439   -10608   -10748   -10832   -10922   -11092   -11222   -11080 
  -10666   -10338   -10355   -10471   -10439   -10409   -10324    -9911 
   -9348    -9074    -9362   -10057   -10635   -10966   -11435   -12185 
  -13047   -13749   -13979   -13764   -13351   -12773   -11981   -11038 
  -10241    -9977   -10189   -10476   -10562   -10332    -9929    -9597 
   -9331    -9130    -9298   -10041   -10957   -11404   -11280   -11021 
  -10852   -10531   -10012    -9748    -9981   -10453   -10975   -11601 
  -12148   -12159   -11443   -10392    -9636    -9436    -9620   -10045 
  -10713   -11469   -12086   -12523   -12771   -12750   -12506   -12032 
  -11307   -10747   -10957   -11928   -12923   -13347   -13375   -13336 
  -13186   -12916   -12775   -12985   -13338   -13090   -11812   -10139 
   -9076    -8766    -8533    -7998    -7566    -7468    -7271    -6829 
   -6646    -6991    -7480    -7708    -7890    -8610    -9902   -11065 
  -11646   -11847   -11932   -11982   -11911   -11476   -10719    -9961 
   -9329    -8941    -9117    -9830   -10667   -11286   -11595   -11808 
  -12110   -12370   -12418   -12175   -11637   -11030   -10768   -11115 
  -11820   -12217   -11983   -11408   -10779   -10199    -9865    -9898 
  -10052   -10049    -9902    -9761    -9749    -9892   -10089   -10330 
  -10771   -11322   -11635   -11669   -11754   -12028   -12093   -11539 
  -10643    -9828    -9009    -8220    -7879    -8017    -8175    -8089 
   -7986    -8175    -8652    -9490   -10723   -11626   -11476   -10665 
  -10100   -10123   -10296   -10073    -9610    -9397    -9571   -10118 
  -10860   -11383   -11595   -11728   -11962   -12316   -12447   -12110 
  -11816   -11940   -11950   -11430   -10859   -10762   -10882   -10728 
  -10363   -10033    -9622    -8982    -8307    -7897    -7788    -7844 
   -8008    -8225    -8436    -8708    -9019    -9227    -9336    -9362 
   -9246    -9140    -9335    -9815   -10239   -10307   -10107   -10102 
  -10530   -11080   -11352   -11192   -10787   -10527   -10439   -10287 
  -10227   -10531   -10925   -10832   -10137    -9444    -9346    -9617 
   -9755    -9802    -9956   -10184   -10542   -11051   -11418   -11418 
  -11187   -10967   -10818   -10755   -10890   -11152   -11161   -10701 
  -10037    -9649    -9803   -10253   -10466   -10374   -10419   -10783 
