Origin Time       2025/01/13 21:19:00
Lat.              31.8
Long.             131.6
Depth. (km)       30
Mag.              6.9
Station Code      OIT018
Station Lat.      32.7980
Station Long.     131.9255
Station Height(m) 12
Record Time       2025/01/13 21:19:54
Sampling Freq(Hz) 100Hz
Duration Time(s)  94
Dir.              N-S
Scale Factor      7845(gal)/8223790
Max. Acc. (gal)   10.889
Last Correction   2025/01/13 21:19:53
Memo.             
[...]
   -2006    -1470     -251      827      930      194     -577    -1055 
   -1121     -942    -1175    -1822    -2322    -2566    -2407    -1622 
    -653     -148     -321    -1017    -1806    -2172    -1968    -1486 
   -1163    -1428    -2108    -2276    -1336      140     1074      940 
     -86    -1243    -1611     -986        6      334     -460    -1526 
   -1678     -828     -205     -629    -1360    -1784    -1910    -1209 
      13      384     -120     -511     -645     -799    -1023    -1746 
   -3088    -4028    -3986    -3446    -2976    -3052    -3670    -4063 
   -3519    -2106     -572      232      163       12      387      764 
     540      -60     -643     -881     -796     -934    -1224    -1143 
    -819     -692     -765     -815     -768     -415       85      -54 
    -858    -1675    -2335    -2887    -3296    -3534    -3348    -2347 
    -847        1     -245     -880    -1188     -924     -261      546 
    1202     1391     1244      595     -899    -2160    -2016    -1108 
    -527     -463     -634     -922    -1200    -1096     -783     -612 
    -274      240      525      432      157      224      495      284 
    -272     -962    -2127    -3233    -3207    -2573    -2470    -2479 
   -2018    -1564    -1057     -364     -594    -2189    -4079    -5540 
   -6265    -5490    -3283    -1163     -247     -187     -279     -454 
    -511      311     1763     2431     1804      729        4     -302 
    -495     -912    -1309     -999     -383     -444     -868    -1128 
   -1611    -2374    -2941    -3056    -2540    -1362     -344     -400 
    -915    -1177    -1539    -1618    -1147    -1337    -2506    -3438 
   -3717    -3495    -2259     -332     1084     1606     1317      514 
      28      103       10     -580    -1070    -1082     -859     -504 
     113     1039     1979     2376     2034     1362      753      195 
    -341    -1112    -2635    -4488    -5566    -5472    -4388    -2710 
   -1479    -1574    -2389    -2945    -3246    -3447    -3445    -3238 
   -2616    -1458     -332      -12     -623    -1305    -1058       13 
    1117     1683     1297      186     -465       59     1038     1395 
     831     -206    -1085    -1382    -1109    -1020    -1653    -2357 
   -2393    -1899    -1486    -1559    -1958    -2311    -2303    -1845 
   -1217     -664     -259     -305     -881    -1317    -1451    -1890 
   -2303    -2014    -1448    -1071     -646     -218       56      604 
    1155      680     -588    -1671    -2301    -2110    -1075     -495 
    -913    -1213     -885     -584     -602     -837    -1298    -1541 
   -1243     -830     -531     -313     -186     -113     -201     -572 
   -1185    -1807    -1953    -1493    -1055    -1005     -954     -842 
   -1111    -1730    -2292    -2602    -2409    -1638    -1069    -1255 
   -1594    -1507    -1086     -631     -533     -826     -912     -683 
    -837    -1466    -1877    -1529     -418      719     1074      473 
    -710    -1536    -1331     -616     -307     -754    -1548    -1723 
    -916     -337    -1285    -3061    -3955    -3411    -2008     -711 
    -526    -1185    -1309     -770     -461     -541     -722     -841 
    -911    -1136    -1651    -2254    -2631    -2656    -2170    -1313 
    -691     -415     -290     -338     -390     -155      159      -71 
    -733    -1105    -1236    -1413    -1367    -1008     -575     -305 
    -500    -1138    -1838    -2288    -2169    -1641    -1398    -1574 
   -1760    -1760    -1499    -1001     -679     -947    -1630    -2164 
   -2335    -2415    -2419    -2160    -2050    -2173    -1629     -349 
     572      731      542       35     -945    -1937    -2366    -2320 
   -1981    -1399    -1073    -1333    -1656    -1335     -411      295 
     145     -760    -1726    -2038    -1960    -2197    -2683    -3010 
   -2806    -2096    -1486    -1125     -862     -940    -1262    -1282 
    -912     -648     -823    -1109    -1016     -427      315      472 
    -184     -635     -168      359      -43    -1163    -2285    -3060 
   -3088    -2111     -928     -346     -149     -198     -673    -1328 
   -1726    -1561     -808       95      608      414     -456    -1516 
   -2204    -2398    -2423    -2623    -2798    -2558    -2181    -2212 
   -2702    -3134    -2799    -1667     -329      673     1125     1325 
    1425     1308      989       83    -1649    -3268    -3663    -3002 
   -1877     -573      143     -137     -743    -1124    -1364    -1826 
   -2451    -2806    -2837    -2675    -2550    -2662    -2573    -2011 
   -1687    -1930    -2014    -1476     -743     -283      -54     -241 
   -1181    -2232    -2556    -2313    -1792    -1009     -498     -548 
    -658     -739    -1073    -1518    -1784    -1849    -1798    -1583 
   -1242     -977     -801     -573     -491     -938    -1584    -1844 
   -1813    -1767    -1885    -2428    -3295    -3933    -3838    -3186 
   -2763    -2729    -2660    -2475    -2083    -1536    -1247    -1078 
    -687     -278      -62       -1      -45     -152     -513    -1291 
   -1922    -1765    -1013     -329     -268     -888    -1545    -1483 
    -792     -163       83      149      233      121     -352     -834 
   -1057     -895     -353       -9     -438    -1686    -3064    -3580 
   -3316    -3087    -3288    -3924    -4328    -3572    -1991     -731 
    -174      -40      -32      -13     -129     -549    -1132    -1598 
   -1753    -1404     -569      365     1071     1425     1522     1543 
    1472     1246      745     -132    -1116    -1836    -2191    -2072 
   -1254      175     1718     2828     3026     2386     1776     1745 
    1814     1328      467     -190     -429     -229      153      195 
    -423    -1391    -1950    -1880    -1497    -1144     -965     -548 
     294     1032     1397     1615     1804     1861     1620     1155 
     992     1210     1167      872      710      270     -607    -1224 
   -1281    -1155    -1093    -1159    -1588    -2305    -2799    -2990 
   -3184    -3538    -4070    -4444    -4249    -3817    -3649    -3593 
   -3496    -3388    -2988    -2045     -815      -21     -183     -993 
   -1667    -1674    -1147     -637     -600    -1178    -2034    -2597 
   -2708    -2612    -2423    -1995    -1227     -261      592     1107 
    1264     1170      999      633     -388    -1860    -2824    -2830 
   -2394    -2061    -1715    -1088      -58     1467     3111     4187 
    4676     4874     4635     3916     3022     2095     1019     -301 
   -1925    -3943    -5931    -7013    -7184    -7260    -7283    -6639 
   -5405    -3858    -1885     -268     -214    -1402    -2868    -4279 
   -5313    -5508    -4710    -3423    -2505    -2061    -1520     -610 
     444     1286     1641     1332      606      194      553     1478 
    2490     3254     3528     3059     2047      943     -205    -1229 
   -1914    -2570    -3358    -3859    -3785    -3388    -2964    -2667 
   -2605    -2675    -2631    -2347    -2218    -2627    -3292    -3908 
   -4037    -3076    -1223      785     2400     3333     3619     3389 
    2855     2700     3316     4028     4083     3577     3122     3072 
    3175     2990     2324     1449      916      888     1055     1166 
     951      124    -1182    -2641    -4156    -5759    -7479    -9115 
  -10173   -10384   -10207   -10304   -10719   -11018   -10770    -9828 
   -8272    -6434    -4997    -4159    -3429    -2689    -2002    -1070 
      -9      585      413     -392    -1370    -1950    -1745     -931 
    -507    -1021    -1818    -2319    -2500    -2334    -1923    -1560 
   -1235     -724       20      955     1873     2242     1717      665 
    -114     -144      363      878     1046      764      203     -375 
    -842    -1111    -1136    -1053    -1047    -1047     -696      125 
     831      650     -434    -1618    -1930    -1075      271     1401 
    2334     3252     4006     4279     3843     2790     1389      -12 
   -1140    -2228    -3416    -4287    -4608    -4529    -4279    -4322 
   -4904    -5404    -4988    -3721    -2524    -2106    -2524    -3537 
   -4571    -4990    -4776    -4261    -3588    -2901    -2430    -2074 
   -1494     -535      567     1220     1017      356       52      427 
    1139     1647     1458      371     -931    -1530    -1304     -499 
     503     1224     1495     1354      889      175     -661    -1251 
   -1232     -487      645     1385     1113     -170    -1841    -3132 
   -3605    -3335    -2893    -2542    -2025    -1375     -737     -288 
    -534    -1512    -2805    -4085    -4710    -4240    -3006    -1530 
    -328      464     1147     1804     2656     4016     5543     6455 
    6111     4405     1822     -815    -2644    -3273    -3200    -3477 
   -4668    -6291    -7458    -7747    -7372    -6886    -6558    -5956 
   -4692    -3163    -1833     -565      643     1291      943     -307 
   -1737    -2682    -3140    -3356    -3547    -3650    -3321    -2343 
    -616     1564     3481     4572     4704     4221     3676     3681 
    4612     5795     6097     5134     3115      882     -368     -499 
    -504    -1181    -2496    -3765    -4261    -4050    -3789    -3771 
   -3821    -3753    -3584    -3280    -2681    -2201    -2521    -3499 
   -4495    -5078    -5136    -4806    -4224    -3488    -2783    -2099 
   -1050      560     2316     3739     4738     5290     5220     4529 
    3542     2563     1730     1011      160    -1046    -2655    -4249 
   -5212    -5722    -6088    -5810    -4703    -3052     -861     1398 
    2887     3485     3362     2600     1557      560     -438    -1676 
   -3075    -4195    -4688    -4152    -2681    -1404    -1174    -1498 
   -1324     -394      680     1314     1350     1175     1416     2305 
    3484     4274     4473     4367     3815     2463      611     -965 
   -1729    -1645    -1300    -1602    -2749    -4183    -5387    -5846 
   -5437    -5024    -5325    -5913    -6102    -5659    -4401    -2646 
   -1545    -1602    -2150    -2593    -2876    -3198    -3699    -4286 
   -4676    -4553    -3805    -2250      260     3075     5201     6076 
    5509     3642      924    -1892    -4067    -5406    -6126    -6492 
   -6675    -6664    -6286    -5246    -3500    -1695     -448      264 
     653      899     1296     1914     2377     2581     3083     4102 
    5090     5490     5258     4700     3951     3024     2196     1325 
    -203    -2104    -3331    -3429    -2617    -1529     -901     -826 
   -1216    -2164    -3018    -3073    -2789    -2984    -3874    -4947 
   -5395    -4932    -3912    -2813    -1796     -675      396      931 
    1081     1296     1475     1233      429     -595    -1354    -1723 
   -1668    -1119     -234      780     1819     2768     3423     3515 
    2929     1888      772     -194     -712     -594     -413     -664 
    -892     -765     -801    -1314    -1641    -1117       85     1362 
    1927     1108     -985    -3423    -5219    -5908    -5543    -4710 
   -4167    -3987    -3677    -2982    -2076    -1224     -772    -1175 
   -2374    -3662    -4572    -5055    -5085    -4689    -3848    -2330 
    -263     1063      326    -2061    -4780    -7074    -8652    -9408 
   -9355    -8411    -6390    -3379     -228     1756     1992      951 
    -522    -1625    -2072    -2226    -2562    -3279    -4089    -4349 
   -3584    -1880      143     1524     1505      449     -557    -1011 
   -1294    -1876    -2470    -2197     -322     3080     6679     8770 
    8760     7210     5067     3275     2544     3060     4311     5433 
    5894     5632     4679     3150     1482       31    -1277    -2550 
   -3804    -5131    -6673    -8388    -9720   -10092    -9579    -8573 
   -7435    -6427    -5960    -6678    -8498   -10084    -9844    -7519 
   -4560    -2505    -1586     -943      337     2346     4544     6316 
    6990     6238     4457     2366      403    -1602    -3811    -5634 
   -6191    -5101    -2814     -491      737      797      787     1822 
    3983     6083     6448     4592     1588    -1451    -3865    -4997 
   -4797    -3994    -3133    -2095     -696      897     2230     2930 
    3295     3844     4735     6035     7492     8376     8217     6867 
    4355     1174    -2209    -5713    -8974   -11395   -12506   -12185 
  -10939    -9286    -7542    -6137    -5042    -3842    -2195     -292 
     675      -62    -1783    -3126    -3196    -2504    -2259    -2806 
   -3734    -4392    -4039    -2635    -1129     -280       90      760 
    2479     5034     7473     8941     8677     6741     4440     3269 
    3950     5979     7805     7971     6345     3854     1359     -716 
   -2335    -3620    -4675    -5463    -5876    -6072    -6228    -6484 
   -7072    -7804    -7951    -7024    -5269    -3449    -2668    -3711 
   -5687    -6663    -5994    -4650    -3535    -3076    -3519    -4580 
   -5737    -6454    -5954    -3932    -1189      986     1958     2216 
    2698     3634     4429     4579     4202     3643     2759     1112 
   -1162    -3267    -4267    -3819    -2578    -1705    -1863    -2652 
   -3267    -3437    -3419    -3738    -4534    -4830    -3732    -1767 
    -430    -1007    -3226    -5225    -5287    -3045      502     3643 
    5258     5742     6111     6496     6311     5238     3632     2428 
    2386     3148     3576     2961     1586      538      604     1372 
    1991     2166     2251     2479     2269      864    -1719    -4922 
   -8060   -10477   -11965   -12538   -11699    -8942    -4761     -554 
    2336     3623     3761     3003     1572     -167    -1826    -2945 
   -3319    -3245    -3333    -4016    -4953    -5362    -4919    -3894 
   -2686    -1466     -155     1073     1663     1389      785      638 
    1001     1043      180    -1229    -2660    -4125    -5533    -6312 
   -5906    -4017     -870     2637     5634     7759     8860     8637 
    6835     3869      521    -2718    -5404    -7203    -8241    -8853 
   -9204    -9250    -8939    -8264    -7258    -5995    -4604    -3504 
   -3137    -3456    -4035    -4488    -4590    -3996    -2548     -814 
     621     1695     2421     2785     2552     1305     -511    -1382 
    -135     2814     5875     7902     8788     8835     8317     7167 
    5111     2342     -417    -2490    -3728    -4256    -4132    -3315 
   -1575     1186     4382     6737     7129     5566     2813     -396 
   -3195    -4695    -4588    -3329    -2072    -1985    -3256    -5078 
   -6554    -7383    -7742    -7790    -7462    -6759    -6107    -5968 
   -6134    -5848    -4673    -2764     -646      932     1645     1946 
    2430     3083     3291     2717     1814     1350     1638     2142 
    2178     1723     1177      915     1100     1566     1838     1458 
     411     -884    -2079    -3181    -4244    -5084    -5564    -5711 
   -5539    -5202    -4837    -4364    -3758    -2897    -1547      198 
    1957     3103     3042     1868      178    -1436    -2142    -1285 
     643     2528     3793     4530     4845     4602     3655     1760 
    -957    -3485    -5008    -5502    -5220    -4691    -4500    -4695 
   -5050    -5622    -6531    -7635    -8706    -9483    -9691    -9324 
   -8526    -7290    -5809    -4591    -3651    -2573    -1246      399 
    2269     3726     4280     4087     3824     4163     5132     6238 
    6886     6762     6318     6339     6698     6426     5135     3454 
    2212     1823     2101     2311     1775      434    -1433    -3655 
   -5979    -7906    -8978    -9188    -8937    -8665    -8464    -7804 
   -6203    -3908    -1651     -225      168      183      568     1432 
    2224     2458     2211     1923     1922     1875     1220      189 
    -584    -1074    -1763    -2916    -4141    -4641    -3935    -2447 
   -1294    -1286    -2301    -3585    -4392    -4530    -4279    -3869 
   -3277    -2648    -2370    -2536    -2821    -2839    -2511    -1989 
   -1422    -1062    -1200    -1903    -3018    -4152    -4816    -4758 
   -4159    -3272    -1962      -94     2025     3983     5412     6092 
    6265     6339     6435     6255     5336     3649     1738      155 
   -1067    -2258    -3519    -4602    -5196    -5071    -4213    -3172 
   -2691    -2820    -3276    -3998    -4903    -5892    -6654    -6592 
   -5687    -4633    -3973    -3676    -3505    -3331    -2972    -2454 
   -2093    -1884    -1674    -1485    -1219     -845     -564     -392 
      41      936     1833     2153     1800     1053      220     -623 
   -1583    -2540    -3051    -2776    -1946    -1140     -724     -668 
    -753     -776     -693     -662     -892    -1345    -1657    -1537 
   -1082     -491      256     1382     2902     4314     4949     4625 
    3901     3460     3298     2874     1865      519     -729    -1696 
   -2199    -2087    -1776    -1895    -2597    -3505    -4039    -3906 
   -3260    -2257     -965      195      669      426     -229    -1151 
   -2227    -3437    -4897    -6440    -7632    -8171    -8085    -7747 
   -7496    -7238    -6581    -5308    -3585    -1887     -683       -2 
     537     1345     2531     3828     4765     5069     4973     4823 
    4675     4347     3485     2002      402     -769    -1389    -1672 
   -1991    -2573    -3254    -3550    -3114    -2176    -1256     -621 
    -176      178      270     -189    -1228    -2614    -3927    -4727 
   -4920    -4581    -3738    -2659    -1755    -1309    -1490    -2134 
   -2837    -3298    -3404    -3300    -3191    -3049    -2779    -2444 
   -2045    -1437     -673       44      700     1331     1968     2701 
    3453     4004     4155     3808     3192     2608     2118     1652 
    1044      140    -1013    -2054    -2762    -3404    -4156    -4812 
   -5116    -4872    -4116    -3213    -2629    -2656    -3067    -3130 
   -2427    -1359     -488      109      634     1185     1676     1991 
    2068     1931     1806     1919     2274     2562     2278     1310 
      81    -1004    -1775    -2165    -2392    -2901    -3771    -4661 
   -5189    -4970    -3937    -2539    -1289     -473      -24      386 
     864     1225     1421     1525     1478     1167      517     -445 
   -1435    -2146    -2527    -2693    -2790    -2845    -2852    -3009 
   -3450    -3831    -3685    -3037    -2282    -1782    -1645    -1605 
   -1426    -1341    -1572    -1983    -2339    -2533    -2686    -2930 
   -3090    -2902    -2293    -1391     -594     -232     -213     -268 
    -237     -152     -236     -669    -1360    -1931    -2016    -1688 
   -1405    -1471    -1807    -2047    -1787     -996      -35      769 
    1389     1914     2241     2421     2828     3453     3846     3626 
    2668     1364      338     -337    -1013    -1869    -2747    -3157 
   -2921    -2533    -2353    -2307    -2245    -1957    -1529    -1367 
   -1647    -2154    -2463    -2407    -2274    -2219    -2128    -1957 
   -1740    -1630    -1618    -1404    -1036     -819     -730     -727 
    -834     -789     -387      166      702     1323     1979     2346 
    2222     1759     1232      784      508      459      556      643 
     577      282     -148     -507     -770    -1131    -1667    -2258 
   -2656    -2639    -2404    -2381    -2575    -2786    -3129    -3678 
   -4141    -4301    -4125    -3611    -2836    -2022    -1414     -969 
