Origin Time       2025/01/13 21:19:00
Lat.              31.8
Long.             131.6
Depth. (km)       30
Mag.              6.9
Station Code      OIT016
Station Lat.      32.9748
Station Long.     131.9030
Station Height(m) 2
Record Time       2025/01/13 21:19:57
Sampling Freq(Hz) 100Hz
Duration Time(s)  124
Dir.              N-S
Scale Factor      7845(gal)/8223790
Max. Acc. (gal)   31.960
Last Correction   2025/01/13 21:19:56
Memo.             
[...]
   -8810    -8976    -9032    -8881    -8613    -8363    -8166    -7965 
   -7807    -7842    -8010    -8109    -8131    -8159    -8241    -8394 
   -8525    -8661    -8928    -9209    -9350    -9431    -9518    -9593 
   -9625    -9590    -9502    -9346    -9090    -8842    -8766    -8905 
   -9167    -9452    -9779   -10192   -10601   -10874   -10941   -10708 
  -10139    -9379    -8569    -7851    -7550    -7870    -8656    -9698 
  -10854   -11873   -12525   -12834   -12877   -12619   -12060   -11268 
  -10342    -9462    -8842    -8563    -8545    -8617    -8604    -8467 
   -8245    -8013    -7902    -7981    -8139    -8236    -8251    -8272 
   -8370    -8568    -8870    -9189    -9433    -9612    -9767    -9896 
   -9988   -10088   -10233   -10396   -10565   -10692   -10687   -10566 
  -10397   -10239   -10154   -10125   -10096   -10106   -10180   -10219 
  -10168   -10099   -10037    -9941    -9765    -9493    -9223    -9078 
   -9054    -9088    -9119    -9117    -9128    -9192    -9297    -9441 
   -9620    -9806    -9936    -9909    -9760    -9597    -9405    -9208 
   -9146    -9309    -9720   -10331   -10967   -11441   -11677   -11632 
  -11265   -10585    -9640    -8559    -7553    -6809    -6455    -6489 
   -6737    -7091    -7528    -7981    -8476    -9076    -9684   -10243 
  -10766   -11187   -11484   -11611   -11406   -10833   -10068    -9317 
   -8668    -8051    -7458    -7074    -7003    -7177    -7441    -7587 
   -7573    -7576    -7609    -7547    -7476    -7534    -7674    -7784 
   -7704    -7358    -7044    -7211    -8067    -9506   -11206   -12804 
  -14081   -14872   -15084   -14824   -14197   -13205   -12070   -11249 
  -10970   -11091   -11379   -11709   -11982   -12039   -11869   -11622 
  -11416   -11260   -11071   -10797   -10477   -10096    -9558    -8866 
   -8222    -7793    -7534    -7358    -7230    -7171    -7314    -7704 
   -8208    -8756    -9337    -9849   -10149   -10154    -9954    -9787 
   -9748    -9740    -9640    -9329    -8818    -8295    -7923    -7765 
   -7839    -8016    -8174    -8351    -8537    -8642    -8660    -8656 
   -8696    -8788    -8853    -8785    -8580    -8444    -8592    -9065 
   -9788   -10615   -11308   -11589   -11280   -10498    -9504    -8468 
   -7542    -6852    -6399    -6077    -5818    -5641    -5652    -6019 
   -6843    -7970    -9107   -10007   -10642   -11240   -12032   -13045 
  -14206   -15333   -16156   -16549   -16572   -16326   -15966   -15592 
  -15187   -14764   -14361   -14014   -13757   -13531   -13198   -12609 
  -11682   -10467    -9035    -7528    -6153    -4988    -4058    -3437 
   -3126    -3010    -3045    -3281    -3647    -4028    -4463    -4992 
   -5589    -6255    -6967    -7728    -8675    -9763   -10670   -11229 
  -11516   -11543   -11240   -10597    -9753    -8996    -8482    -8118 
   -7821    -7688    -7801    -8017    -8129    -8058    -7753    -7179 
   -6455    -5840    -5582    -5733    -6237    -7103    -8316    -9674 
  -10913   -11889   -12580   -12964   -13012   -12803   -12510   -12282 
  -12096   -11794   -11337   -10866   -10517   -10319   -10277   -10305 
  -10231   -10002    -9679    -9359    -9247    -9587   -10412   -11389 
  -12108   -12502   -12679   -12552   -12118   -11603   -11202   -11059 
  -11234   -11608   -11974   -12136   -12021   -11657   -11043   -10296 
   -9643    -9108    -8627    -8314    -8330    -8672    -9146    -9556 
   -9902   -10179   -10224    -9856    -9081    -8152    -7358    -6829 
   -6602    -6664    -7001    -7585    -8255    -8835    -9229    -9320 
   -9134    -8847    -8567    -8291    -7890    -7279    -6666    -6351 
   -6351    -6480    -6733    -7279    -8128    -9103   -10034   -10824 
  -11373   -11618   -11630   -11531   -11340   -11087   -10863   -10677 
  -10554   -10575   -10673   -10800   -11105   -11620   -12100   -12312 
  -12201   -11790   -11088   -10152    -9208    -8515    -8191    -8212 
   -8434    -8672    -8721    -8538    -8367    -8397    -8611    -9022 
   -9570   -10046   -10320   -10319   -10014    -9535    -8992    -8365 
   -7709    -7192    -6970    -7110    -7514    -7963    -8268    -8390 
   -8523    -8838    -9227    -9545    -9742    -9798    -9745    -9522 
   -8982    -8147    -7233    -6555    -6353    -6612    -7132    -7636 
   -7892    -7817    -7547    -7379    -7550    -8024    -8468    -8649 
   -8746    -8937    -9127    -9300    -9568    -9917   -10169   -10133 
   -9794    -9304    -8772    -8235    -7776    -7581    -7874    -8762 
  -10129   -11743   -13397   -14771   -15541   -15788   -15911   -16173 
  -16582   -16964   -17035   -16580   -15611   -14320   -12846   -11199 
   -9475    -7933    -6782    -6023    -5505    -5103    -4834    -4773 
   -4918    -5150    -5343    -5494    -5695    -5938    -6129    -6237 
   -6313    -6550    -7152    -8104    -9248   -10361   -11175   -11601 
  -11668   -11445   -11132   -10885   -10897   -11410   -12310   -13266 
  -14061   -14546   -14689   -14517   -13949   -13001   -11929   -10925 
   -9933    -8857    -7731    -6670    -5753    -5046    -4639    -4591 
   -4903    -5463    -6133    -6952    -8014    -9331   -10852   -12364 
  -13471   -13873   -13502   -12505   -11222   -10054    -9248    -8823 
   -8752    -9082    -9702   -10332   -10837   -11122   -10994   -10399 
   -9470    -8418    -7557    -7141    -7183    -7562    -8081    -8380 
   -8166    -7551    -6852    -6205    -5736    -5647    -5960    -6527 
   -7222    -7940    -8526    -8822    -8706    -8187    -7572    -7206 
   -7223    -7623    -8213    -8710    -9134    -9695   -10404   -11136 
  -11815   -12375   -12687   -12637   -12245   -11653   -11001   -10458 
  -10149   -10102   -10293   -10624   -11014   -11524   -12182   -12885 
  -13489   -13925   -14203   -14230   -13859   -13090   -12035   -10795 
   -9458    -8203    -7288    -6891    -7082    -7726    -8502    -9262 
  -10087   -10989   -11901   -12735   -13320   -13466   -13073   -12156 
  -10868    -9408    -7900    -6521    -5521    -4988    -4861    -4954 
   -5036    -5044    -5073    -5262    -5728    -6547    -7677    -8795 
   -9458    -9582    -9423    -9227    -9090    -8972    -8807    -8656 
   -8638    -8822    -9254    -9887   -10585   -11296   -11928   -12321 
  -12441   -12368   -12209   -12064   -11940   -11728   -11369   -10932 
  -10520   -10251   -10238   -10397   -10432   -10127    -9593    -9140 
   -8999    -9169    -9506    -9819    -9945    -9830    -9559    -9248 
   -9001    -8919    -9023    -9234    -9580   -10174   -10917   -11483 
  -11499   -10797    -9526    -8001    -6604    -5657    -5212    -5196 
   -5570    -6242    -7136    -8160    -9135    -9964   -10690   -11321 
  -11838   -12240   -12422   -12178   -11419   -10265    -8914    -7577 
   -6570    -6223    -6581    -7403    -8370    -9317   -10293   -11344 
  -12353   -13158   -13705   -14000   -13968   -13579   -12910   -12015 
  -10998    -9996    -9108    -8514    -8355    -8549    -8978    -9525 
  -10060   -10575   -11074   -11476   -11700   -11578   -10930    -9886 
   -8816    -7985    -7473    -7294    -7414    -7703    -7981    -8175 
   -8305    -8325    -8125    -7636    -6948    -6328    -6038    -6169 
   -6678    -7439    -8256    -9005    -9710   -10363   -10899   -11377 
  -11897   -12440   -12949   -13377   -13643   -13625   -13220   -12363 
  -11018    -9232    -7222    -5420    -4195    -3639    -3726    -4315 
   -5115    -5999    -7028    -8178    -9431   -10723   -11827   -12537 
  -12741   -12339   -11333    -9979    -8738    -8020    -7985    -8623 
   -9849   -11375   -12750   -13714   -14364   -14906   -15299   -15357 
  -15009   -14212   -12988   -11543   -10191    -9182    -8646    -8553 
   -8741    -9036    -9336    -9485    -9339    -9034    -8870    -8955 
   -9259    -9682    -9895    -9630    -9035    -8397    -7842    -7437 
   -7257    -7353    -7736    -8193    -8391    -8306    -8106    -7828 
   -7465    -7001    -6420    -5783    -5117    -4417    -3809    -3457 
   -3356    -3358    -3393    -3639    -4274    -5227    -6446    -7966 
   -9601   -10968   -11840   -12226   -12282   -12220   -12171   -12217 
  -12468   -12900   -13323   -13621   -13792   -13848   -13780   -13579 
  -13234   -12771   -12255   -11749   -11286   -10890   -10615   -10449 
  -10262    -9996    -9787    -9753    -9902   -10176   -10447   -10604 
  -10611   -10454   -10123    -9694    -9364    -9289    -9424    -9666 
   -9980   -10316   -10539   -10525   -10274    -9845    -9375    -9138 
   -9269    -9622   -10099   -10629   -10986   -11087   -11022   -10760 
  -10322    -9863    -9410    -8849    -8082    -7165    -6324    -5751 
   -5547    -5738    -6149    -6536    -6889    -7304    -7811    -8347 
   -8781    -8985    -8845    -8271    -7302    -6142    -5085    -4391 
   -4117    -4158    -4527    -5377    -6575    -7735    -8648    -9279 
   -9612    -9710    -9748    -9925   -10353   -11014   -11813   -12673 
  -13602   -14524   -15236   -15643   -15755   -15473   -14698   -13601 
  -12514   -11659   -11191   -11126   -11254   -11410   -11529   -11495 
  -11257   -10868   -10399    -9838    -9157    -8465    -7916    -7545 
   -7326    -7171    -7028    -6924    -6814    -6636    -6523    -6751 
   -7420    -8241    -8839    -9184    -9439    -9640    -9703    -9583 
   -9364    -9171    -8953    -8673    -8514    -8630    -8947    -9209 
   -9220    -9047    -8808    -8568    -8518    -8843    -9549   -10498 
  -11453   -12220   -12825   -13386   -13938   -14411   -14706   -14725 
  -14416   -13815   -12999   -12054   -11051    -9973    -8868    -7923 
   -7302    -7056    -7064    -7136    -7225    -7303    -7236    -7051 
   -6952    -6951    -6952    -6932    -6794    -6496    -6150    -5786 
   -5414    -5246    -5498    -6195    -7184    -8212    -9073    -9713 
  -10169   -10486   -10647   -10658   -10490   -10031    -9278    -8405 
   -7654    -7175    -6952    -6897    -6922    -7028    -7182    -7321 
   -7581    -8156    -8977    -9868   -10721   -11438   -11921   -12063 
  -11846   -11475   -11103   -10633   -10004    -9309    -8635    -8058 
   -7599    -7203    -6886    -6679    -6525    -6378    -6274    -6308 
   -6577    -7164    -8187    -9682   -11531   -13547   -15534   -17444 
  -19233   -20686   -21706   -22403   -22786   -22854   -22681   -22167 
  -21139   -19666   -17942   -16183   -14634   -13401   -12526   -12086 
  -12001   -12075   -12141   -12046   -11734   -11242   -10584    -9803 
   -8923    -7846    -6480    -4946    -3360    -1652      106     1632 
    2756     3470     3811     3840     3622     3195     2592     1910 
    1259      631      -47     -916    -2143    -3682    -5346    -7032 
   -8706   -10350   -11973   -13556   -15026   -16337   -17504   -18459 
  -19074   -19276   -19079   -18573   -17860   -17035   -16213   -15395 
  -14469   -13485   -12609   -11873   -11211   -10525    -9687    -8699 
   -7715    -6859    -6187    -5755    -5644    -5844    -6247    -6845 
   -7780    -9158   -10887   -12803   -14825   -16823   -18576   -20008 
  -21209   -22214   -23008   -23588   -23935   -23957   -23472   -22374 
  -20671   -18366   -15516   -12243    -8672    -5001    -1513     1605 
    4218     6143     7271     7624     7288     6459     5441     4531 
    3897     3555     3526     3785     4206     4702     5139     5263 
    4966     4252     2968     1059    -1235    -3639    -5918    -7823 
   -9154    -9772    -9653    -8953    -7924    -6837    -5953    -5463 
   -5502    -6195    -7534    -9277   -11153   -13088   -14960   -16575 
  -17923   -19090   -20158   -21239   -22387   -23573   -24741   -25766 
  -26392   -26316   -25461   -24090   -22604   -21335   -20468   -20002 
  -19853   -19807   -19494   -18754   -17797   -16879   -16198   -15846 
  -15688   -15529   -15176   -14446   -13274   -11705    -9818    -7786 
   -5873    -4334    -3379    -3099    -3431    -4226    -5254    -6197 
   -6866    -7260    -7427    -7379    -7009    -6212    -5005    -3519 
   -1960     -494      760     1744     2582     3410     4243     5011 
    5563     5749     5470     4773     3781     2598     1432      433 
    -454    -1383    -2520    -3950    -5687    -7727    -9895   -11917 
  -13593   -14796   -15547   -15923   -15950   -15720   -15346   -14891 
  -14466   -14168   -13948   -13784   -13801   -14021   -14378   -14840 
  -15234   -15383   -15255   -14782   -13996   -13105   -12244   -11499 
  -11003   -10783   -10740   -10790   -11003   -11537   -12393   -13485 
  -14775   -16129   -17284   -18029   -18324   -18327   -18129   -17640 
  -16849   -15936   -15110   -14332   -13335   -11988   -10399    -8745 
   -7250    -6039    -4947    -3958    -3315    -2999    -2916    -3195 
   -3862    -4727    -5499    -5965    -6141    -6085    -5746    -5050 
   -4014    -2728    -1275      175     1394     2257     2712     2702 
    2253     1495      623     -203     -881    -1300    -1517    -1707 
   -1885    -1949    -1844    -1605    -1404    -1475    -1979    -2960 
   -4438    -6450    -9009   -12059   -15364   -18535   -21311   -23550 
  -25093   -25990   -26473   -26725   -26939   -27218   -27541   -28063 
  -29004   -30372   -32104   -34053   -35974   -37709   -39214   -40443 
  -41337   -41820   -41744   -41004   -39588   -37519   -34960   -32196 
  -29397   -26724   -24376   -22270   -20144   -17925   -15545   -12877 
   -9946    -6808    -3487      -43     3465     6939    10195    13099 
   15600    17651    19255    20480    21352    21942    22334    22581 
   22747    22843    22928    23122    23400    23681    23904    23986 
   23920    23712    23336    22731    21753    20310    18364    15898 
   13053     9956     6601     3086     -344    -3472    -6130    -8203 
   -9771   -10920   -11599   -11902   -12112   -12487   -13146   -14048 
  -15097   -16213   -17442   -18829   -20267   -21747   -23294   -24821 
  -26345   -27888   -29361   -30769   -32086   -33205   -34156   -35046 
  -35888   -36641   -37239   -37619   -37778   -37740   -37552   -37323 
  -37058   -36587   -35797   -34780   -33502   -31884   -30069   -28062 
  -25816   -23494   -21162   -18801   -16449   -14153   -12004   -10052 
   -8213    -6346    -4378    -2409     -591     1093     2609     3805 
    4703     5320     5630     5788     5976     6282     6743     7362 
    8154     8900     9215     8874     7712     5641     2905      -59 
   -2860    -5185    -6859    -7793    -7900    -7261    -6037    -4288 
   -2205     -108     1734     3119     3873     3828     2929     1316 
    -828    -3289    -5765    -8012    -9877   -11315   -12393   -13144 
  -13601   -13778   -13655   -13294   -12799   -12283   -11867   -11630 
  -11527   -11462   -11385   -11211   -10876   -10436    -9938    -9265 
   -8267    -6941    -5425    -3963    -2832    -2349    -2697    -3805 
   -5568    -7828   -10234   -12407   -14122   -15240   -15769   -15870 
  -15603   -15075   -14586   -14399   -14659   -15361   -16353   -17506 
  -18677   -19635   -20294   -20757   -21104   -21313   -21315   -21107 
  -20819   -20572   -20209   -19149   -17170   -14971   -13147   -11850 
  -11240   -10891   -10380   -10365   -11269   -12645   -14269   -16085 
  -17814   -19174   -19965   -20079   -19352   -17693   -15349   -12471 
   -9111    -5634    -2416      432     3048     5613     8079    10296 
   12117    13277    13597    13212    12353    11092     9402     7426 
    5410     3553     2081     1088      418       -6     -287     -729 
   -1630    -3285    -5960    -9637   -13915   -18222   -22141   -25581 
  -28636   -31240   -33180   -34285   -34427   -33552   -31741   -29182 
  -26153   -22991   -19986   -17255   -14845   -12698   -10609    -8567 
   -6777    -5306    -4110    -3154    -2398    -1740     -957       24 
    1065     1968     2458     2285     1360     -248    -2246    -4210 
   -5886    -7290    -8355    -8818    -8557    -7758    -6787    -5992 
   -5543    -5575    -6234    -7454    -9105   -11165   -13547   -16019 
  -18214   -19692   -20088   -19172   -16858   -13302    -8869    -4083 
     351     4002     6822     8684     9348     8708     6922     4282 
    1071    -2469    -6134    -9644   -12915   -16055   -18949   -21416 
  -23309   -24570   -25340   -25756   -25948   -26094   -26308   -26627 
  -26966   -27143   -26989   -26399   -25242   -23373   -20800   -17612 
  -14006   -10363    -7063    -4356    -2349    -1055     -384      -87 
     126      436      897     1475     2033     2335     2099     1053 
    -815    -3285    -6124    -8992   -11583   -13845   -15723   -17016 
  -17571   -17304   -16193   -14536   -12962   -11804   -10893   -10035 
   -9220    -8449    -7678    -6813    -5842    -4935    -4197    -3680 
   -3574    -4020    -4982    -6316    -7780    -9153   -10289   -11003 
  -11098   -10554    -9474    -7956    -6245    -4676    -3435    -2610 
   -2199    -2016    -1831    -1525    -1166     -926     -846     -803 
    -695     -479     -267     -342     -841    -1722    -2894    -4225 
   -5670    -7349    -9420   -11938   -14816   -17822   -20754   -23399 
  -25550   -27221   -28305   -28638   -28273   -27217   -25527   -23274 
  -20605   -17778   -14962   -12299    -9857    -7678    -5718    -3802 
   -1911      -27     1713     2982     3659     3686     2978     1426 
   -1038    -4217    -7682   -11117   -14467   -17589   -20116   -21721 
  -22347   -22353   -22056   -21528   -20935   -20437   -19946   -19296 
  -18378   -17151   -15715   -14141   -12398   -10746    -9389    -8037 
   -6588    -5146    -3705    -2421    -1350     -461      117      276 
     -40     -851    -2180    -4032    -6359    -9057   -11916   -14686 
  -17123   -19041   -20368   -21192   -21613   -21666   -21439   -21010 
  -20409   -19599   -18492   -17016   -15252   -13379   -11414    -9342 
   -7169    -4723    -1902     1150     4230     7263    10180    12726 
   14642    15828    16335    16278    15681    14548    12978    11025 
    8722     6227     3719     1251    -1163    -3465    -5574    -7481 
   -9290   -11098   -12901   -14615   -16183   -17645   -18995   -20205 
  -21230   -21926   -22172   -21892   -21041   -19649   -17813   -15716 
  -13610   -11703   -10134    -9081    -8645    -8779    -9451   -10632 
  -12214   -14094   -16075   -17825   -19091   -19793   -19896   -19469 
  -18769   -18148   -17914   -18198   -18970   -20078   -21223   -22050 
  -22372   -22272   -21922   -21440   -20980   -20772   -20930   -21350 
  -21726   -21697   -21092   -19942   -18346   -16471   -14519   -12680 
  -10933    -9070    -6972    -4675    -2197      433     3138     5813 
    8226    10118    11380    11948    11826    11184    10123     8725 
    7218     5697     4153     2668     1317      140     -864    -1722 
   -2428    -3069    -3850    -4955    -6462    -8307   -10282   -12020 
  -13277   -14158   -14901   -15682   -16660   -17932   -19494   -21181 
  -22709   -23747   -24030   -23500   -22275   -20587   -18740   -16978 
  -15402   -13996   -12819   -11907   -11175   -10632   -10318   -10245 
  -10436   -10939   -11800   -12912   -14042   -14929   -15402   -15327 
  -14608   -13354   -11772    -9918    -7654    -4949    -2112      602 
    3103     5188     6633     7341     7292     6624     5483     3874 
    1877     -283    -2343    -4072    -5395    -6338    -6907    -7209 
   -7452    -7774    -8286    -9130   -10257   -11541   -12977   -14446 
