Origin Time       2025/01/13 21:19:00
Lat.              31.8
Long.             131.6
Depth. (km)       30
Mag.              6.9
Station Code      OIT004
Station Lat.      33.5659
Station Long.     131.7316
Station Height(m) 4
Record Time       2025/01/13 21:20:08
Sampling Freq(Hz) 100Hz
Duration Time(s)  111
Dir.              E-W
Scale Factor      7845(gal)/8223790
Max. Acc. (gal)   7.641
Last Correction   2025/01/13 21:20:08
Memo.             
[...]
   -4341    -4583    -4796    -4909    -4976    -4978    -4842    -4599 
   -4364    -4278    -4401    -4629    -4855    -5065    -5235    -5385 
   -5532    -5603    -5524    -5248    -4758    -4175    -3682    -3325 
   -3069    -2982    -3118    -3426    -3869    -4410    -4963    -5513 
   -6022    -6296    -6269    -6085    -5738    -5225    -4769    -4477 
   -4294    -4243    -4293    -4306    -4290    -4318    -4318    -4268 
   -4280    -4336    -4361    -4422    -4534    -4617    -4714    -4912 
   -5154    -5306    -5300    -5107    -4796    -4534    -4376    -4245 
   -4132    -4025    -3921    -3915    -4018    -4117    -4236    -4476 
   -4791    -5125    -5540    -5980    -6272    -6382    -6381    -6241 
   -5992    -5819    -5786    -5779    -5721    -5602    -5386    -5062 
   -4688    -4301    -3901    -3593    -3500    -3611    -3861    -4162 
   -4415    -4606    -4747    -4846    -4936    -5050    -5135    -5105 
   -4986    -4838    -4653    -4503    -4494    -4510    -4394    -4179 
   -3929    -3666    -3508    -3570    -3852    -4320    -4878    -5352 
   -5638    -5792    -5857    -5776    -5583    -5425    -5387    -5440 
   -5443    -5227    -4823    -4406    -4014    -3635    -3331    -3145 
   -3076    -3181    -3456    -3747    -3967    -4178    -4349    -4413 
   -4445    -4518    -4625    -4803    -5012    -5101    -5040    -4946 
   -4845    -4738    -4772    -5040    -5400    -5715    -5957    -6049 
   -5999    -5929    -5826    -5567    -5147    -4669    -4291    -4144 
   -4202    -4411    -4758    -5127    -5352    -5455    -5574    -5725 
   -5872    -6034    -6060    -5761    -5231    -4635    -4029    -3484 
   -3134    -3030    -3057    -3103    -3161    -3218    -3245    -3256 
   -3281    -3337    -3476    -3807    -4376    -5028    -5571    -5988 
   -6362    -6700    -6959    -7160    -7307    -7264    -6913    -6372 
   -5830    -5336    -4900    -4583    -4368    -4195    -4120    -4176 
   -4268    -4383    -4569    -4722    -4722    -4600    -4379    -4093 
   -3910    -3890    -3901    -3909    -3916    -3869    -3879    -4072 
   -4311    -4465    -4563    -4573    -4514    -4592    -4847    -5061 
   -5132    -5063    -4833    -4576    -4492    -4568    -4691    -4819 
   -4935    -5026    -5066    -4959    -4626    -4189    -3877    -3753 
   -3773    -3962    -4359    -4889    -5348    -5586    -5584    -5306 
   -4808    -4342    -4059    -3950    -4017    -4189    -4363    -4587 
   -4931    -5316    -5601    -5749    -5755    -5620    -5440    -5393 
   -5518    -5671    -5772    -5872    -5956    -5958    -5883    -5691 
   -5321    -4878    -4504    -4198    -3982    -3955    -4031    -3989 
   -3828    -3661    -3427    -3133    -2971    -3061    -3385    -3850 
   -4267    -4484    -4522    -4522    -4622    -4851    -5146    -5449 
   -5794    -6183    -6501    -6675    -6763    -6789    -6747    -6679 
   -6497    -6088    -5576    -5157    -4869    -4652    -4382    -3981 
   -3553    -3271    -3171    -3196    -3300    -3451    -3632    -3820 
   -3909    -3831    -3676    -3574    -3555    -3597    -3699    -3839 
   -3986    -4167    -4396    -4610    -4792    -5013    -5248    -5436 
   -5574    -5599    -5491    -5381    -5350    -5390    -5460    -5458 
   -5296    -5009    -4710    -4530    -4608    -4968    -5362    -5552 
   -5582    -5530    -5409    -5347    -5387    -5400    -5356    -5282 
   -5035    -4560    -4082    -3789    -3604    -3458    -3450    -3564 
   -3708    -3906    -4132    -4310    -4509    -4823    -5184    -5464 
   -5638    -5715    -5641    -5460    -5348    -5339    -5309    -5235 
   -5121    -4935    -4739    -4614    -4545    -4542    -4631    -4719 
   -4665    -4423    -4078    -3731    -3472    -3369    -3387    -3450 
   -3564    -3743    -3973    -4224    -4473    -4753    -5094    -5489 
   -5883    -6180    -6340    -6384    -6381    -6453    -6556    -6497 
   -6235    -5850    -5386    -4916    -4575    -4445    -4464    -4495 
   -4426    -4158    -3727    -3368    -3269    -3387    -3537    -3605 
   -3665    -3792    -3967    -4171    -4369    -4463    -4383    -4205 
   -4054    -3970    -3977    -4044    -4075    -4062    -4048    -4089 
   -4256    -4476    -4638    -4807    -5067    -5428    -5869    -6297 
   -6550    -6567    -6436    -6238    -6097    -6120    -6191    -6153 
   -5998    -5691    -5206    -4689    -4268    -3960    -3858    -4036 
   -4426    -4970    -5586    -6029    -6126    -5969    -5679    -5285 
   -4823    -4344    -3901    -3619    -3577    -3703    -3923    -4186 
   -4395    -4472    -4391    -4163    -3924    -3832    -3915    -4155 
   -4541    -4988    -5397    -5671    -5634    -5238    -4720    -4315 
   -4059    -3987    -4082    -4216    -4398    -4703    -4984    -5073 
   -4972    -4708    -4407    -4302    -4411    -4571    -4718    -4870 
   -5023    -5115    -5065    -4855    -4572    -4301    -4041    -3855 
   -3851    -4027    -4282    -4507    -4658    -4792    -4938    -5058 
   -5142    -5177    -5132    -5050    -5030    -5098    -5206    -5363 
   -5584    -5800    -5953    -6042    -6076    -6066    -5983    -5738 
   -5331    -4889    -4519    -4236    -4016    -3750    -3388    -3110 
   -3053    -3117    -3192    -3315    -3531    -3816    -4151    -4518 
   -4899    -5285    -5618    -5807    -5778    -5549    -5239    -4930 
   -4688    -4557    -4460    -4359    -4367    -4487    -4610    -4764 
   -5020    -5339    -5663    -5931    -6066    -6088    -6037    -5867 
   -5583    -5310    -5107    -4943    -4838    -4769    -4604    -4306 
   -3959    -3612    -3284    -3063    -3067    -3296    -3632    -3991 
   -4314    -4538    -4671    -4741    -4722    -4611    -4496    -4467 
   -4529    -4633    -4726    -4838    -5031    -5278    -5514    -5791 
   -6169    -6534    -6732    -6766    -6685    -6508    -6277    -6014 
   -5682    -5259    -4823    -4483    -4287    -4172    -4071    -3956 
   -3816    -3674    -3550    -3410    -3231    -3061    -3065    -3345 
   -3781    -4237    -4685    -5130    -5549    -5899    -6196    -6448 
   -6578    -6573    -6447    -6177    -5829    -5489    -5175    -4912 
   -4708    -4511    -4244    -3919    -3639    -3505    -3546    -3707 
   -3925    -4166    -4391    -4617    -4831    -4922    -4837    -4673 
   -4511    -4359    -4252    -4233    -4278    -4324    -4311    -4198 
   -4025    -3893    -3839    -3869    -3987    -4185    -4498    -4908 
   -5259    -5449    -5525    -5575    -5632    -5715    -5853    -6002 
   -6112    -6156    -6072    -5902    -5745    -5613    -5494    -5352 
   -5108    -4792    -4523    -4345    -4241    -4209    -4180    -4074 
   -3983    -4009    -4101    -4288    -4607    -4919    -5159    -5379 
   -5567    -5703    -5800    -5813    -5668    -5381    -5011    -4646 
   -4399    -4255    -4133    -4050    -3981    -3854    -3750    -3762 
   -3831    -3971    -4234    -4469    -4595    -4766    -5017    -5232 
   -5437    -5705    -5945    -6052    -6060    -6012    -5892    -5746 
   -5632    -5497    -5282    -5036    -4820    -4598    -4310    -3974 
   -3635    -3376    -3315    -3438    -3624    -3875    -4247    -4715 
   -5232    -5690    -5971    -6089    -6100    -6004    -5806    -5529 
   -5189    -4835    -4573    -4436    -4353    -4297    -4283    -4272 
   -4218    -4117    -3989    -3910    -3944    -4128    -4498    -4959 
   -5381    -5744    -6038    -6228    -6326    -6338    -6222    -5994 
   -5769    -5607    -5494    -5427    -5328    -5062    -4644    -4216 
   -3792    -3338    -2944    -2685    -2565    -2605    -2783    -3009 
   -3253    -3516    -3755    -4009    -4313    -4556    -4618    -4519 
   -4353    -4189    -4023    -3886    -3836    -3854    -3870    -3832 
   -3723    -3568    -3439    -3410    -3485    -3631    -3805    -3928 
   -3927    -3852    -3794    -3742    -3654    -3549    -3453    -3404 
   -3450    -3622    -3931    -4325    -4677    -4895    -5000    -5067 
   -5147    -5277    -5452    -5637    -5815    -6029    -6328    -6675 
   -6983    -7198    -7288    -7231    -7042    -6805    -6601    -6419 
   -6227    -6026    -5806    -5595    -5456    -5377    -5283    -5185 
   -5123    -5069    -4958    -4730    -4345    -3877    -3438    -3103 
   -2928    -2868    -2758    -2540    -2365    -2342    -2417    -2625 
   -3051    -3559    -3964    -4171    -4085    -3751    -3353    -2963 
   -2625    -2489    -2656    -3113    -3817    -4657    -5417    -5988 
   -6428    -6782    -7060    -7318    -7551    -7719    -7839    -7888 
   -7809    -7662    -7523    -7410    -7272    -7021    -6662    -6313 
   -6064    -5927    -5913    -6018    -6199    -6430    -6758    -7194 
   -7657    -8033    -8236    -8252    -8131    -7852    -7375    -6751 
   -6046    -5260    -4429    -3622    -2859    -2191    -1768    -1667 
   -1814    -2165    -2686    -3222    -3661    -4010    -4230    -4249 
   -4136    -4008    -3881    -3765    -3726    -3739    -3703    -3603 
   -3491    -3399    -3310    -3223    -3194    -3271    -3510    -3920 
   -4361    -4679    -4806    -4684    -4275    -3682    -3049    -2454 
   -2002    -1771    -1636    -1416    -1100     -787     -534     -340 
    -193     -129     -238     -611    -1225    -1939    -2578    -3001 
   -3125    -2975    -2664    -2262    -1858    -1602    -1552    -1723 
   -2164    -2820    -3582    -4396    -5228    -6012    -6689    -7284 
   -7857    -8407    -8872    -9132    -9065    -8603    -7788    -6790 
   -5786    -4920    -4302    -3936    -3839    -3971    -4144    -4260 
   -4328    -4302    -4236    -4324    -4654    -5120    -5605    -6119 
   -6640    -7065    -7372    -7581    -7659    -7588    -7353    -6930 
   -6417    -6027    -5871    -5898    -6052    -6328    -6706    -7121 
   -7446    -7510    -7190    -6498    -5634    -4827    -4091    -3412 
   -2903    -2565    -2351    -2322    -2428    -2467    -2326    -2097 
   -1935    -1979    -2296    -2764    -3217    -3588    -3817    -3901 
   -3942    -4018    -4203    -4560    -4985    -5301    -5522    -5786 
   -6124    -6480    -6808    -7079    -7233    -7188    -6901    -6403 
   -5830    -5364    -5103    -5049    -5134    -5219    -5209    -5132 
   -5043    -5005    -5115    -5400    -5706    -5867    -5894    -5854 
   -5771    -5733    -5869    -6141    -6349    -6367    -6205    -5907 
   -5533    -5198    -5020    -5023    -5169    -5371    -5501    -5560 
   -5675    -5836    -5910    -5841    -5701    -5570    -5432    -5231 
   -4928    -4526    -4074    -3561    -2936    -2263    -1679    -1278 
   -1125    -1256    -1578    -1875    -2016    -1961    -1682    -1328 
   -1182    -1347    -1730    -2327    -3186    -4170    -5076    -5829 
   -6419    -6839    -7118    -7292    -7353    -7345    -7373    -7457 
   -7542    -7593    -7601    -7585    -7546    -7423    -7219    -7042 
   -6893    -6704    -6544    -6516    -6540    -6524    -6482    -6335 
   -5975    -5472    -4903    -4253    -3545    -2813    -2108    -1539 
   -1225    -1223    -1444    -1730    -2025    -2340    -2681    -3034 
   -3342    -3568    -3798    -4081    -4361    -4610    -4811    -4908 
   -4904    -4896    -4980    -5200    -5572    -6035    -6416    -6538 
   -6397    -6151    -5887    -5628    -5425    -5260    -5078    -4874 
   -4638    -4359    -4078    -3879    -3856    -4013    -4264    -4518 
   -4758    -5046    -5460    -6019    -6700    -7404    -7947    -8233 
   -8286    -8124    -7798    -7433    -7101    -6772    -6380    -5919 
   -5449    -5040    -4731    -4542    -4425    -4217    -3815    -3319 
   -2817    -2268    -1695    -1140     -560       75      751     1483 
    2215     2774     3072     3146     2960     2542     2049     1456 
     549     -733    -2257    -3893    -5491    -6833    -7823    -8511 
   -8896    -9005    -9020    -9051    -9045    -8939    -8707    -8359 
   -7973    -7658    -7515    -7584    -7798    -8033    -8245    -8480 
   -8716    -8853    -8834    -8595    -8066    -7302    -6462    -5702 
   -5113    -4691    -4348    -4033    -3738    -3446    -3171    -2957 
   -2866    -2963    -3333    -3998    -4792    -5464    -5933    -6185 
   -6120    -5671    -4954    -4166    -3362    -2494    -1594     -760 
    -121      162       48     -379    -1111    -2149    -3295    -4283 
   -5076    -5779    -6458    -7133    -7769    -8343    -8850    -9205 
   -9331    -9286    -9159    -8964    -8658    -8175    -7542    -6916 
   -6421    -6126    -6070    -6181    -6261    -6187    -5984    -5698 
   -5378    -5078    -4760    -4402    -4056    -3719    -3393    -3148 
   -2940    -2628    -2174    -1649    -1136     -731     -495     -390 
    -364     -453     -662     -946    -1310    -1732    -2143    -2506 
   -2843    -3210    -3597    -3915    -4113    -4203    -4288    -4518 
   -4981    -5632    -6342    -6990    -7489    -7774    -7828    -7673 
   -7369    -6980    -6570    -6253    -6111    -6050    -5958    -5877 
   -5861    -5914    -6066    -6280    -6369    -6201    -5776    -5132 
   -4410    -3801    -3407    -3225    -3173    -3140    -3092    -3061 
   -3060    -3056    -2992    -2812    -2554    -2408    -2527    -2910 
   -3484    -4182    -4909    -5572    -6147    -6651    -7036    -7231 
   -7290    -7379    -7561    -7798    -8068    -8306    -8456    -8560 
   -8604    -8492    -8262    -8066    -7956    -7897    -7842    -7697 
   -7427    -7157    -7034    -7044    -7036    -6843    -6258    -5165 
   -3708    -2138     -619      700     1737     2502     3017     3265 
    3265     3106     2886     2679     2504     2251     1809     1120 
     149    -1067    -2421    -3800    -5139    -6408    -7573    -8576 
   -9337    -9814   -10096   -10318   -10536   -10764   -10966   -11095 
  -11156   -11168   -11209   -11313   -11433   -11527   -11496   -11178 
  -10547    -9725    -8777    -7722    -6660    -5697    -4826    -4010 
   -3207    -2369    -1516     -719       -8      594     1085     1553 
    2050     2498     2767     2751     2439     1900     1192      390 
    -324     -795    -1044    -1258    -1652    -2343    -3280    -4284 
   -5177    -5867    -6327    -6616    -6812    -6947    -7003    -6940 
   -6805    -6744    -6839    -7072    -7396    -7723    -7979    -8145 
   -8141    -7825    -7172    -6250    -5127    -4005    -3167    -2681 
   -2381    -2080    -1684    -1223     -780     -400      -41      329 
     612      652      355     -297    -1287    -2493    -3690    -4718 
   -5529    -6180    -6739    -7150    -7341    -7435    -7581    -7794 
   -8113    -8560    -8993    -9278    -9437    -9416    -9099    -8545 
   -7911    -7360    -7080    -7159    -7457    -7767    -7970    -7962 
   -7584    -6774    -5632    -4230    -2616    -1000      348     1289 
    1736     1637     1142      500     -157     -753    -1183    -1544 
   -2033    -2716    -3655    -4981    -6609    -8190    -9393    -9992 
   -9910    -9333    -8557    -7765    -7094    -6686    -6574    -6716 
   -7052    -7430    -7655    -7627    -7368    -6936    -6336    -5549 
   -4644    -3774    -3056    -2569    -2434    -2687    -3202    -3851 
   -4548    -5096    -5321    -5229    -4862    -4224    -3406    -2582 
   -1933    -1598    -1613    -1857    -2173    -2504    -2818    -3079 
   -3342    -3680    -4035    -4371    -4761    -5206    -5637    -6064 
   -6508    -6952    -7381    -7784    -8081    -8121    -7839    -7265 
   -6385    -5238    -4004    -2917    -2174    -1783    -1590    -1525 
   -1580    -1713    -1971    -2440    -3059    -3703    -4248    -4502 
   -4413    -4193    -4050    -4024    -4078    -4163    -4187    -4068 
   -3881    -3769    -3746    -3829    -4113    -4548    -4973    -5344 
   -5652    -5887    -6150    -6566    -7065    -7410    -7385    -6943 
   -6188    -5296    -4482    -4005    -4000    -4369    -4897    -5377 
   -5694    -5844    -5921    -5960    -5846    -5489    -4885    -4085 
   -3267    -2636    -2249    -2127    -2323    -2774    -3360    -4013 
   -4590    -4860    -4730    -4313    -3836    -3632    -3996    -4930 
   -6251    -7804    -9362   -10644   -11487   -11792   -11491   -10670 
   -9591    -8510    -7543    -6766    -6218    -5859    -5636    -5495 
   -5367    -5255    -5144    -4911    -4544    -4209    -4091    -4325 
   -4887    -5574    -6201    -6696    -7006    -7026    -6621    -5769 
   -4633    -3442    -2415    -1759    -1607    -1935    -2556    -3261 
   -3894    -4378    -4720    -4887    -4797    -4453    -3901    -3271 
   -2785    -2577    -2610    -2802    -3111    -3447    -3655    -3643 
   -3411    -3029    -2632    -2300    -2080    -2124    -2554    -3253 
   -3955    -4441    -4564    -4270    -3659    -2964    -2478    -2421 
   -2782    -3346    -3836    -4095    -4124    -3960    -3724    -3565 
   -3507    -3527    -3690    -4121    -4868    -5805    -6732    -7472 
   -7946    -8229    -8398    -8476    -8523    -8571    -8611    -8642 
   -8645    -8598    -8523    -8515    -8640    -8851    -8999    -8877 
   -8360    -7512    -6517    -5502    -4513    -3645    -2988    -2490 
   -2073    -1815    -1861    -2164    -2502    -2722    -2741    -2509 
   -2107    -1772    -1721    -1989    -2586    -3478    -4434    -5193 
   -5634    -5697    -5460    -5134    -4746    -4162    -3323    -2293 
   -1275     -531     -144      -25     -112     -353     -625     -764 
    -729     -589     -425     -345     -529    -1063    -1877    -2887 
   -3991    -5008    -5807    -6401    -6851    -7190    -7483    -7813 
   -8175    -8591    -9166    -9909   -10686   -11264   -11407   -11048 
  -10284    -9266    -8144    -7078    -6161    -5364    -4661    -4131 
   -3879    -3910    -4159    -4564    -5011    -5389    -5679    -5844 
   -5832    -5645    -5297    -4843    -4357    -3828    -3219    -2554 
   -1846    -1063     -283      291      503      283     -336    -1200 
   -2133    -3073    -4056    -5069    -6056    -6939    -7661    -8237 
   -8673    -8951    -9105    -9140    -9032    -8804    -8433    -7835 
   -7049    -6212    -5404    -4692    -4152    -3817    -3686    -3719 
   -3846    -3993    -4056    -3958    -3708    -3380    -3118    -3071 
   -3289    -3699    -4202    -4777    -5409    -6018    -6505    -6805 
   -6917    -6893    -6737    -6502    -6330    -6257    -6158    -5913 
   -5481    -4862    -4099    -3294    -2502    -1714    -1054     -746 
    -882    -1428    -2246    -3110    -3847    -4405    -4768    -4968 
   -5053    -5035    -4934    -4823    -4733    -4619    -4467    -4328 
   -4237    -4152    -4017    -3774    -3416    -3127    -3118    -3357 
   -3720    -4128    -4456    -4556    -4403    -4139    -3942    -3937 
   -4189    -4642    -5167    -5644    -5995    -6259    -6508    -6710 
   -6824    -6889    -6939    -6974    -7053    -7173    -7140    -6860 
   -6475    -6111    -5765    -5397    -4951    -4442    -3987    -3724 
   -3708    -3935    -4352    -4807    -5170    -5413    -5540    -5545 
   -5360    -4907    -4236    -3551    -3069    -2853    -2817    -2802 
   -2644    -2274    -1729    -1124     -649     -511     -838    -1620 
   -2667    -3674    -4402    -4842    -5109    -5270    -5383    -5528 
   -5732    -5983    -6243    -6415    -6436    -6392    -6444    -6691 
   -7125    -7614    -7927    -7951    -7776    -7535    -7321    -7206 
