Origin Time       2025/01/13 21:19:00
Lat.              31.8
Long.             131.6
Depth. (km)       30
Mag.              6.9
Station Code      OIT013
Station Lat.      33.0727
Station Long.     131.5934
Station Height(m) 85
Record Time       2025/01/13 21:19:58
Sampling Freq(Hz) 100Hz
Duration Time(s)  96
Dir.              N-S
Scale Factor      7845(gal)/8223790
Max. Acc. (gal)   6.176
Last Correction   2025/01/13 21:19:57
Memo.             
[...]
   -2022    -1090      -79      249     -371    -1398    -2011    -1864 
   -1227     -700     -766    -1367    -1987    -2137    -1721    -1017 
    -399     -120     -202     -433     -558     -553     -598     -870 
   -1405    -1996    -2259    -1957    -1237     -633     -666    -1298 
   -1921    -1984    -1412     -535      144      288      -13     -387 
    -615     -842    -1242    -1618    -1591    -1128     -591     -359 
    -619    -1324    -2092    -2365    -1823     -666      469      886 
     297     -936    -2053    -2440    -1958     -936        9      340 
     -83    -1024    -2033    -2577    -2297    -1281      -94      519 
     278     -378     -818     -788     -514     -477     -889    -1424 
   -1549    -1054     -302       98      -89     -573     -885     -774 
    -373       12      155      -36     -519    -1171    -1861    -2388 
   -2461    -2006    -1331     -855     -815    -1117    -1444    -1525 
   -1320     -965     -670     -573     -675     -892    -1124    -1252 
   -1159     -849     -521     -418     -546     -685     -710     -645 
    -535     -521     -733    -1109    -1458    -1574    -1360    -1012 
    -892    -1142    -1566    -1834    -1680    -1179     -766     -742 
    -999    -1293    -1447    -1372    -1152    -1038    -1169    -1471 
   -1826    -2007    -1729    -1063     -405     -128     -418    -1034 
   -1377    -1163     -665     -325     -452    -1034    -1669    -1923 
   -1752    -1485    -1439    -1593    -1564    -1074     -399     -129 
    -556    -1410    -2118    -2259    -1887    -1456    -1383    -1614 
   -1661    -1155     -264      498      625      -29     -946    -1362 
   -1004     -286      -17     -665    -1795    -2452    -2030     -796 
     295      448     -315    -1291    -1641    -1046      -63      310 
    -402    -1709    -2606    -2405    -1248       22      557       79 
   -1012    -1962    -2218    -1827    -1252     -978    -1260    -1919 
   -2434    -2371    -1641     -525      390      581       22     -823 
   -1354    -1178     -369      556      980      510     -787    -2232 
   -2894    -2296     -808      560      897       99    -1165    -2054 
   -2039    -1208     -214      229     -133     -931    -1476    -1451 
   -1169    -1090    -1393    -1849    -1971    -1489     -665     -113 
    -288    -1062    -1810    -1946    -1317     -307      286     -106 
   -1178    -1976    -1741     -562      569      622     -542    -2141 
   -3053    -2533     -854      796     1189     -130    -2377    -3963 
   -3794    -1987      276     1393      519    -1698    -3632    -3856 
   -2164      229     1652     1309     -326    -2092    -2895    -2446 
   -1417     -611     -240     -140     -233     -595    -1242    -1880 
   -1962    -1177      175     1336     1599      784     -730    -2236 
   -2917    -2277     -658      854     1116     -195    -2160    -3268 
   -2581     -484     1552     2093      868    -1038    -2104    -1690 
    -469      328       13    -1007    -1678    -1331     -264      483 
      63    -1221    -2241    -2231    -1269      -22      623      253 
    -668    -1320    -1296     -819     -471     -615    -1054    -1263 
    -874      -66      454       64    -1183    -2459    -2783    -1856 
    -324      662      352    -1004    -2461    -3105    -2613    -1460 
    -540     -467    -1134    -1879    -2169    -1985    -1526    -1096 
   -1016    -1196    -1221     -915     -415     -151     -608    -1663 
   -2457    -2263    -1225     -149      232     -243    -1185    -1953 
   -2153    -1877    -1429    -1081     -947     -868     -766     -891 
   -1363    -1931    -2197    -1846     -943      -48      136     -712 
   -2251    -3607    -3929    -2932    -1179      130       63    -1236 
   -2617    -2760    -1258      913     2120     1348    -1023    -3349 
   -3900    -2282      243     1744     1085    -1254    -3527    -3982 
   -2270      345     2161     2209      720    -1175    -2304    -2181 
   -1196     -295     -176     -676    -1183    -1336    -1152     -777 
    -365     -116     -152     -464     -865    -1074     -978     -567 
     125      702      568     -403    -1674    -2463    -2272    -1190 
      16      437     -129    -1139    -1861    -1852    -1355    -1007 
   -1019    -1150    -1150     -866     -352       27      -99     -720 
   -1463    -1919    -1927    -1682    -1522    -1582    -1684    -1532 
   -1043     -499     -344     -891    -1942    -2673    -2307     -922 
     585     1192      426    -1233    -2602    -2648    -1341      340 
    1286      966     -406    -2015    -2905    -2598    -1418     -214 
     294       -8     -708    -1290    -1485    -1283     -895     -634 
    -488     -206      145      180     -442    -1583    -2459    -2432 
   -1653     -689      -56      -20     -480    -1131    -1657    -1730 
   -1154     -198      506      427     -523    -1919    -2995    -3064 
   -2015     -468      634      577     -603    -2060    -2797    -2258 
    -688      754      853     -648    -2768    -3807    -2689      -74 
    2123     2207      -47    -3032    -4480    -3321     -403     2187 
    2621      733    -1917    -3311    -2550     -526      930      635 
   -1003    -2481    -2617    -1514     -291       87     -294     -631 
    -313      514     1036      540     -804    -2025    -2232    -1474 
    -629     -449    -1031    -2006    -2805    -2886    -2083     -908 
    -270     -598    -1395    -1799    -1437     -746     -500    -1040 
   -1956    -2471    -2101    -1086     -299     -526    -1686    -2855 
   -3142    -2336     -872      369      627     -135    -1417    -2458 
   -2498    -1532     -317      395      256     -549    -1362    -1679 
   -1498     -962     -175      642     1078      653     -688    -2242 
   -2974    -2401    -1043        2      -17     -980    -2000    -2153 
   -1389     -573     -394     -639     -816     -822     -788     -838 
   -1026    -1186    -1111     -857     -727    -1092    -2018    -2793 
   -2558    -1416     -286        5     -656    -1653    -2153    -1749 
    -742      182      433      -91     -849    -1116     -665      211 
     943      924      -21    -1459    -2651    -2893    -1930     -337 
     799      712     -495    -1776    -1854     -584      905     1440 
     630     -828    -1591    -1059       54      580      -93    -1466 
   -2411    -2288    -1395     -527     -225     -468     -916    -1216 
   -1255    -1236    -1448    -1890    -2223    -2133    -1614     -940 
    -553     -805    -1552    -2197    -2265    -1701     -905     -522 
    -870    -1642    -2172    -1984    -1154     -324     -318    -1297 
   -2417    -2648    -1705     -226      731      503     -719    -2062 
   -2616    -2165    -1318     -881    -1173    -1954    -2705    -2938 
   -2444    -1345      -93      643      467     -456    -1645    -2538 
   -2614    -1799     -577      382      575      -94    -1161    -1922 
   -2035    -1671    -1237    -1116    -1436    -1957    -2258    -2041 
   -1364     -580       71      558      785      572      -85     -876 
   -1301    -1144     -696     -344     -310     -665    -1148    -1463 
   -1663    -1755    -1547    -1034     -344      395      876      760 
      -1    -1123    -1991    -2047    -1420     -669     -176     -110 
    -465     -967    -1270    -1189     -816     -426     -193     -213 
    -584    -1111    -1413    -1391    -1210    -1044     -981     -973 
    -996    -1150    -1394    -1491    -1313     -880     -414     -336 
    -835    -1615    -2108    -1898    -1143     -429     -249     -675 
   -1294    -1560    -1224     -488       90       45     -634    -1665 
   -2569    -2745    -2042    -1077     -611     -950    -1726    -2062 
   -1444     -352      284      -54    -1139    -2187    -2497    -1948 
    -926      -97      -29     -729    -1618    -2000    -1440     -114 
    1073     1092     -259    -2026    -2880    -2193     -534      735 
     567     -920    -2551    -2972    -1768       95     1090      375 
   -1548    -3200    -3400    -2173     -463      599      322    -1007 
   -2259    -2384    -1286      -32       83    -1094    -2565    -3159 
   -2239     -268     1321     1418      148    -1408    -2000    -1102 
     531     1452      787    -1094    -2909    -3350    -2181     -421 
     641      363     -936    -2151    -2199     -965      607     1390 
    1005      -28     -920    -1143     -677      -79       52     -356 
   -1034    -1599    -1706    -1262     -398      575     1159      992 
     224     -615    -1096    -1109     -741     -195      145      -66 
    -899    -2130    -3200    -3403    -2411     -625      846      980 
    -240    -1968    -3125    -2953    -1615     -112      503     -149 
   -1487    -2459    -2474    -1780    -1094    -1047    -1831    -2936 
   -3377    -2681    -1441     -645     -770    -1594    -2388    -2454 
   -1829    -1229    -1163    -1505    -1863    -1918    -1613    -1287 
   -1335    -1761    -2187    -2103    -1282     -129      626      568 
    -211    -1156    -1580    -1282     -735     -621    -1259    -2277 
   -2866    -2542    -1513     -444      -45     -531    -1467    -2160 
   -2061    -1223     -432     -383     -949    -1579    -1829    -1440 
    -598        0     -162     -888    -1545    -1539     -692      468 
    1108      815     -214    -1309    -1645    -1001      -31      421 
     -35    -1104    -1918    -1757     -749      386      996      819 
      94     -573     -633     -136      168     -357    -1501    -2420 
   -2381    -1359      -99      519      184     -715    -1483    -1586 
    -901      180      905      765     -122    -1240    -1981    -1921 
   -1100       36      847      807       18     -780    -1015     -749 
    -328      -78     -211     -583     -762     -515      -36      257 
      29     -679    -1316    -1255     -425      645     1165      749 
    -152     -774     -776     -409     -205     -411     -909    -1413 
   -1552    -1247     -803     -434     -291     -598    -1237    -1818 
   -2196    -2425    -2505    -2419    -2230    -1989    -1568     -847 
     -18      465      263     -469    -1190    -1448    -1167     -683 
    -483     -766    -1221    -1466    -1480    -1383    -1188     -935 
    -706     -556     -587     -855    -1219    -1344     -949     -261 
    -121    -1132    -2860    -4129    -3939    -2216      -58     1017 
     311    -1570    -3252    -3651    -2795    -1611    -1077    -1575 
   -2678    -3545    -3661    -3094    -2365    -2158    -2736    -3645 
   -4139    -3804    -2952    -2415    -2748    -3694    -4531    -4719 
   -4233    -3514    -3126    -3280    -3738    -4075    -4005    -3651 
   -3393    -3403    -3514    -3411    -2837    -1819     -729       45 
     303       16     -611    -1194    -1413    -1170     -652     -174 
     108      189      168      286      711     1333     1907     2214 
    2181     1961     1800     1942     2519     3262     3634     3370 
    2716     2184     2168     2531     2729     2490     2072     1937 
    2479     3591     4452     4321     3235     1767      646      453 
    1150     2030     2218     1399      167     -545     -291      600 
    1336     1344      696      -79     -438      -99      688     1123 
     626     -519    -1688    -2484    -2755    -2704    -2675    -2729 
   -2733    -2655    -2524    -2369    -2297    -2354    -2423    -2473 
   -2598    -2876    -3446    -4367    -5371    -5962    -5818    -5115 
   -4351    -3920    -3919    -4164    -4445    -4696    -4891    -5031 
   -5225    -5536    -5933    -6407    -6837    -6799    -5879    -4241 
   -2685    -2064    -2614    -3736    -4386    -3890    -2555    -1404 
   -1304    -2315    -3721    -4625    -4571    -3721    -2637    -1891 
   -1669    -1753    -1834    -1665    -1177     -591     -117      202 
     345      499     1113     2238     3262     3627     3307     2627 
    2033     1871     2180     2763     3248     3217     2524     1444 
     500      102      333     1074     2080     3022     3574     3462 
    2678     1675     1084     1242     2027     2832     2820     1772 
     506       28      658     1934     2953     3076     2357     1296 
     494      386      878     1356     1179      180    -1197    -2317 
   -2768    -2489    -1891    -1541    -1601    -1885    -2145    -2155 
   -1937    -1768    -1822    -2050    -2340    -2513    -2398    -2052 
   -1663    -1352    -1170    -1142    -1316    -1782    -2515    -3331 
   -3908    -3874    -3184    -2361    -2134    -2822    -3971    -4606 
   -4101    -2797    -1714    -1719    -2937    -4645    -5767    -5755 
   -4936    -4036    -3734    -4274    -5202    -5854    -5879    -5277 
   -4437    -3975    -4179    -4702    -4876    -4255    -2948    -1520 
    -496       28      329      765     1449     2142     2524     2427 
    1856      993       86     -533     -463      410     1672     2690 
    3065     2844     2381     2103     2309     2921     3516     3773 
    3697     3451     3132     2781     2535     2579     2894     3215 
    3264     3041     2776     2628     2655     2830     2886     2539 
    1903     1254      693      336      302      450      525      444 
     249       56       72      346      585      535      144     -615 
   -1556    -2331    -2893    -3380    -3765    -3940    -3819    -3531 
   -3559    -4195    -5134    -5798    -5817    -5285    -4737    -4762 
   -5557    -6725    -7460    -7114    -5761    -4160    -3165    -3111 
   -3672    -4202    -4198    -3630    -2902    -2425    -2216    -1973 
   -1561    -1217    -1283    -1844    -2525    -2766    -2363    -1656 
   -1236    -1514    -2365    -3221    -3478    -2907    -1910    -1286 
   -1464    -2077    -2336    -1714     -372      868     1134      298 
    -839    -1231     -498      784     1605     1252     -135    -1532 
   -1803     -633     1350     3086     3738     3161     1899      791 
     427      750     1189     1250     1009      935     1158     1329 
    1190      808      541      845     1691     2370     2222     1155 
    -379    -1460    -1242      257     2110     3140     2709     1194 
    -267     -677       52     1121     1530      808     -704    -2191 
   -3045    -3154    -2714    -2116    -1760    -1777    -2041    -2219 
   -1981    -1313     -514      -60     -295    -1016    -1640    -1772 
   -1356     -535      376      966      954      305     -778    -1868 
   -2496    -2508    -2165    -1954    -2245    -2916    -3354    -3079 
   -2404    -2177    -2840    -4005    -4865    -4865    -4083    -3071 
   -2500    -2687    -3296    -3724    -3622    -2903    -1768     -706 
     -79      110       -8     -180      -67      344      791     1054 
    1009      783      631      535      288     -157     -660     -943 
    -777     -157      633     1201     1321     1024      530      163 
     163      488      719      314     -835    -2209    -3067    -2918 
   -1815     -329      831     1120      453     -634    -1432    -1755 
   -2008    -2617    -3645    -4864    -5832    -5979    -5124    -3855 
   -3025    -3018    -3572    -4039    -3828    -2889    -1752    -1055 
   -1151    -1849    -2508    -2706    -2488    -1988    -1372     -881 
    -577     -306      -27      144      213      253      298      391 
     545      743      984     1151     1140     1115     1267     1528 
    1613     1321      778      325      178      317      508      398 
    -145     -788    -1124    -1075     -814     -569     -504     -571 
    -585     -491     -403     -490     -772    -1093    -1333    -1495 
   -1509    -1144     -264      851     1584     1435      361    -1181 
   -2496    -3003    -2504    -1424     -633     -692    -1455    -2390 
   -3026    -3190    -2948    -2450    -1784     -988     -260       52 
    -218     -854    -1281     -962       32     1023     1304      652 
    -464    -1154     -846      275     1466     1888     1262      136 
    -615     -453      418     1225     1301      483     -878    -2076 
   -2563    -2350    -1760    -1163     -864     -940    -1306    -1759 
   -1980    -1876    -1610    -1355    -1332    -1740    -2509    -3238 
   -3437    -2948    -2054    -1219     -870    -1084    -1437    -1409 
    -780      141      664      333     -683    -1755    -2124    -1441 
    -195      621      303    -1005    -2326    -2686    -2012     -942 
    -238     -413    -1296    -2147    -2432    -2212    -1934    -2034 
   -2540    -3051    -3092    -2544    -1800    -1453    -1688    -2164 
   -2463    -2434    -2236    -2255    -2686    -3195    -3262    -2805 
   -2203    -1910    -2151    -2778    -3275    -3033    -1784       31 
    1412     1640      864      -60     -274      302      891      676 
    -342    -1358    -1543     -787      217      572       78     -572 
    -610       74      931     1287      938      257     -237     -291 
     -13      248      218     -122     -567     -766     -475      129 
     577      513     -106     -913    -1355    -1296    -1088    -1036 
   -1165    -1316    -1301    -1224    -1440    -2097    -2971    -3601 
   -3566    -2894    -2133    -1806    -2002    -2462    -2825    -2824 
   -2466    -2062    -1973    -2276    -2628    -2547    -1921    -1174 
    -990    -1799    -3364    -4822    -5212    -4228    -2547    -1316 
   -1215    -1973    -2620    -2299    -1057      229      680      182 
    -612     -903     -295      955     2234     3060     3203     2681 
    1814     1084      838     1034     1286     1256      870      324 
     -22      -27       85        1     -338     -650     -587     -160 
     203       66     -526    -1040     -994     -355      409      587 
    -197    -1561    -2673    -2841    -1935     -634      -12     -556 
   -1768    -2664    -2488    -1171      542     1526     1134     -319 
   -1772    -2097    -1066      371      955      118    -1582    -2864 
   -2870    -1902     -908     -606    -1082    -1817    -2177    -2016 
   -1528     -949     -618     -718    -1054    -1367    -1507    -1432 
   -1344    -1502    -1876    -2268    -2466    -2304    -1919    -1718 
   -2014    -2808    -3731    -4236    -4004    -3192    -2312    -1881 
   -2120    -2917    -3947    -4762    -4978    -4527    -3708    -2948 
   -2605    -2826    -3414    -3920    -3997    -3612    -3053    -2744 
   -2941    -3574    -4237    -4234    -3057    -1043      850     1831 
    1675      847      168       25      253      604      915     1171 
    1476     1799     2033     2234     2446     2486     2203     1765 
    1566     1887     2623     3207     3005     1929      598      -72 
     472     1833     2863     2623     1163     -565    -1444     -947 
     421     1426     1206      -27    -1367    -1996    -1734    -1096 
    -819    -1228    -1969    -2382    -2173    -1576     -958     -473 
    -110       79        2     -322     -769    -1161    -1304    -1206 
   -1171    -1436    -1946    -2397    -2411    -1903    -1244     -832 
    -710     -726     -861    -1244    -1926    -2662    -2955    -2462 
   -1398     -463     -334    -1116    -2239    -2914    -2739    -1927 
   -1155    -1082    -1750    -2559    -2817    -2255    -1202     -252 
     168      -94     -865    -1644    -1991    -1838    -1347     -734 
