Origin Time       2025/01/13 21:19:00
Lat.              31.8
Long.             131.6
Depth. (km)       30
Mag.              6.9
Station Code      OIT003
Station Lat.      33.5575
Station Long.     131.4460
Station Height(m) 5
Record Time       2025/01/13 21:20:10
Sampling Freq(Hz) 100Hz
Duration Time(s)  108
Dir.              U-D
Scale Factor      7845(gal)/8223790
Max. Acc. (gal)   2.532
Last Correction   2025/01/13 21:20:11
Memo.             
[...]
   21030    21004    21022    21016    20952    20848    20764    20745 
   20745    20715    20692    20730    20787    20756    20638    20491 
   20324    20182    20150    20208    20287    20382    20502    20637 
   20752    20818    20835    20814    20788    20779    20773    20768 
   20723    20587    20418    20295    20201    20115    20081    20125 
   20220    20340    20483    20622    20754    20968    21288    21608 
   21865    22079    22266    22434    22593    22734    22804    22778 
   22712    22661    22605    22534    22451    22334    22184    22042 
   21937    21849    21743    21621    21531    21460    21324    21092 
   20833    20603    20407    20270    20152    20011    19881    19762 
   19604    19414    19214    19021    18890    18831    18777    18705 
   18675    18728    18828    18904    18944    18991    19066    19174 
   19326    19479    19603    19745    19882    19948    19973    19996 
   20007    20009    20019    20047    20136    20304    20506    20710 
   20914    21092    21212    21267    21303    21411    21591    21790 
   21994    22212    22466    22750    22979    23101    23157    23143 
   23005    22781    22523    22206    21821    21404    20980    20576 
   20212    19878    19583    19332    19106    18922    18800    18751 
   18774    18833    18940    19129    19352    19514    19572    19568 
   19606    19734    19912    20094    20283    20495    20723    20949 
   21151    21321    21456    21568    21644    21639    21552    21467 
   21447    21450    21413    21375    21370    21357    21321    21249 
   21127    21015    20925    20831    20784    20785    20802    20864 
   20962    21073    21209    21332    21411    21486    21574    21660 
   21745    21836    21914    21952    21948    21894    21755    21527 
   21267    21039    20837    20614    20351    20079    19834    19602 
   19377    19175    18993    18846    18756    18706    18667    18639 
   18612    18565    18536    18611    18832    19124    19384    19597 
   19822    20106    20432    20707    20888    21010    21135    21319 
   21566    21832    22068    22269    22450    22596    22716    22824 
   22924    23040    23172    23284    23344    23355    23368    23414 
   23446    23423    23364    23274    23133    22954    22781    22626 
   22465    22322    22202    22064    21888    21678    21462    21293 
   21141    20945    20729    20502    20236    19948    19707    19526 
   19369    19213    19086    19047    19059    19041    19022    19066 
   19136    19215    19345    19521    19708    19899    20088    20268 
   20448    20637    20788    20875    20941    20992    21015    21074 
   21203    21365    21512    21616    21705    21778    21789    21740 
   21658    21568    21519    21516    21531    21551    21574    21597 
   21606    21581    21520    21456    21400    21320    21203    21069 
   20935    20822    20738    20641    20537    20483    20441    20387 
   20353    20331    20294    20235    20160    20102    20034    19932 
   19851    19785    19658    19462    19241    19035    18867    18727 
   18597    18492    18419    18387    18401    18436    18477    18549 
   18659    18778    18905    19101    19373    19662    19927    20177 
   20421    20634    20780    20881    20949    20965    20956    20934 
   20900    20896    20914    20907    20893    20895    20906    20962 
   21088    21213    21292    21370    21458    21533    21631    21763 
   21868    21921    21940    21917    21844    21757    21674    21600 
   21555    21528    21506    21492    21442    21354    21273    21189 
   21104    21034    20942    20849    20812    20835    20918    21057 
   21190    21330    21524    21720    21865    21975    22091    22257 
   22432    22551    22638    22732    22820    22882    22889    22775 
   22518    22189    21882    21632    21406    21169    20933    20741 
   20596    20476    20399    20395    20417    20371    20290    20289 
   20360    20428    20514    20684    20912    21123    21303    21477 
   21639    21768    21871    21944    21972    21967    21969    22014 
   22092    22169    22222    22237    22212    22173    22104    22006 
   21880    21686    21436    21197    20977    20768    20568    20366 
   20179    20044    19951    19861    19749    19638    19552    19480 
   19414    19354    19294    19194    19024    18841    18740    18736 
   18783    18868    18991    19122    19249    19363    19442    19522 
   19651    19805    19975    20194    20410    20549    20642    20742 
   20808    20838    20910    21039    21204    21375    21486    21521 
   21548    21579    21608    21685    21799    21888    21967    22076 
   22171    22212    22218    22226    22243    22198    22013    21760 
   21528    21282    21003    20690    20333    19969    19618    19310 
   19120    19039    19008    19049    19215    19465    19697    19858 
   19953    20019    20073    20097    20104    20128    20144    20106 
   20050    20032    20036    20019    19982    19932    19893    19892 
   19948    20071    20218    20363    20513    20646    20742    20833 
   20939    21078    21277    21546    21837    22064    22195    22256 
   22241    22135    22015    21965    22009    22123    22242    22312 
   22345    22364    22396    22493    22628    22728    22786    22825 
   22816    22729    22554    22300    22021    21736    21438    21145 
   20865    20606    20414    20304    20200    20044    19857    19703 
   19612    19553    19507    19512    19600    19750    19892    19973 
   20035    20166    20379    20621    20827    20983    21112    21195 
   21174    21077    20974    20871    20745    20613    20484    20347 
   20187    20011    19851    19762    19743    19747    19764    19819 
   19908    20027    20169    20272    20347    20451    20568    20700 
   20889    21088    21269    21469    21670    21863    22044    22148 
   22171    22165    22125    22050    21959    21816    21632    21444 
   21246    21058    20920    20825    20745    20659    20586    20555 
   20522    20460    20395    20309    20182    20046    19919    19808 
   19700    19589    19519    19492    19450    19369    19252    19109 
   18951    18810    18751    18794    18887    18990    19091    19197 
   19309    19387    19457    19585    19774    20019    20289    20517 
   20709    20893    21053    21180    21308    21467    21656    21876 
   22114    22306    22411    22473    22526    22580    22611    22563 
   22447    22315    22194    22087    21998    21926    21861    21793 
   21730    21701    21698    21713    21740    21775    21787    21743 
   21658    21573    21475    21366    21294    21261    21217    21153 
   21082    20999    20864    20671    20448    20224    20038    19886 
   19741    19638    19606    19607    19611    19627    19662    19728 
   19900    20205    20568    20941    21336    21733    22084    22360 
   22546    22639    22662    22666    22671    22642    22600    22611 
   22661    22708    22738    22746    22688    22523    22262    21957 
   21640    21317    20970    20595    20248    19984    19784    19603 
   19423    19238    19048    18885    18760    18638    18524    18466 
   18481    18559    18685    18819    18954    19122    19306    19445 
   19556    19712    19927    20140    20345    20559    20737    20845 
   20895    20911    20892    20807    20683    20586    20533    20509 
   20521    20568    20605    20622    20698    20833    20958    21092 
   21266    21447    21627    21809    21979    22137    22235    22264 
   22303    22373    22420    22420    22364    22260    22141    22011 
   21902    21824    21730    21633    21552    21451    21361    21331 
   21325    21354    21421    21477    21519    21563    21600    21628 
   21641    21652    21655    21595    21474    21305    21092    20892 
   20709    20501    20298    20105    19896    19704    19535    19380 
   19311    19344    19396    19422    19475    19607    19778    19966 
   20183    20386    20556    20758    20980    21142    21222    21215 
   21132    20999    20810    20590    20375    20175    20027    19951 
   19934    19963    20025    20098    20170    20218    20236    20231 
   20212    20208    20208    20183    20175    20221    20304    20380 
   20437    20479    20510    20533    20567    20622    20655    20621 
   20541    20441    20340    20260    20201    20169    20190    20267 
   20382    20530    20711    20895    21076    21257    21433    21594 
   21728    21837    21932    21991    22000    21980    21910    21771 
   21591    21371    21132    20926    20738    20555    20403    20270 
   20163    20110    20089    20079    20066    20065    20109    20179 
   20250    20347    20479    20605    20698    20777    20842    20879 
   20884    20879    20885    20885    20888    20937    20995    21006 
   20984    20950    20896    20812    20706    20607    20528    20434 
   20349    20306    20259    20182    20128    20142    20235    20366 
   20501    20655    20812    20958    21116    21251    21316    21311 
   21255    21192    21136    21065    20984    20900    20768    20601 
   20463    20352    20228    20102    20004    19931    19889    19874 
   19878    19907    19978    20108    20260    20370    20433    20486 
   20526    20551    20574    20571    20525    20479    20476    20507 
   20540    20557    20555    20505    20402    20282    20170    20078 
   20000    19930    19928    20043    20232    20429    20606    20775 
   20939    21084    21212    21324    21388    21421    21482    21590 
   21726    21902    22133    22415    22700    22923    23060    23132 
   23145    23099    23016    22897    22708    22438    22127    21832 
   21554    21234    20857    20493    20202    19994    19877    19842 
   19863    19940    20013    20013    19985    19977    19965    19934 
   19905    19896    19913    19970    20063    20171    20277    20351 
   20344    20309    20313    20321    20344    20393    20405    20406 
   20425    20418    20413    20436    20451    20494    20565    20623 
   20704    20835    21011    21217    21373    21473    21568    21643 
   21718    21798    21838    21870    21924    21976    22027    22083 
   22165    22291    22389    22443    22482    22455    22341    22179 
   21975    21744    21506    21257    21041    20879    20736    20591 
   20413    20212    20050    19913    19778    19649    19495    19299 
   19102    18937    18792    18657    18561    18528    18551    18609 
   18694    18821    18993    19194    19413    19630    19830    20016 
   20216    20429    20637    20825    20972    21060    21097    21085 
   21035    20992    20991    21022    21088    21224    21404    21562 
   21649    21674    21676    21686    21728    21849    22040    22235 
   22408    22543    22607    22582    22477    22324    22165    22019 
   21883    21737    21563    21363    21154    20943    20741    20553 
   20375    20204    20058    19966    19932    19913    19866    19823 
   19803    19807    19865    19963    20050    20113    20171    20221 
   20248    20254    20254    20237    20189    20133    20106    20104 
   20113    20123    20124    20124    20121    20117    20132    20183 
   20266    20378    20532    20710    20852    20961    21081    21207 
   21316    21405    21451    21427    21335    21199    21024    20817 
   20591    20383    20225    20113    20017    19931    19849    19764 
   19687    19653    19712    19863    20059    20275    20506    20714 
   20881    21037    21190    21346    21525    21712    21871    22009 
   22122    22196    22230    22229    22210    22183    22144    22081 
   21990    21872    21766    21689    21621    21533    21421    21289 
   21145    21008    20889    20791    20717    20652    20582    20501 
   20389    20244    20088    19932    19796    19707    19665    19650 
   19658    19695    19753    19834    19944    20051    20110    20129 
   20139    20174    20239    20298    20344    20406    20475    20499 
   20463    20425    20433    20456    20461    20457    20445    20428 
   20429    20448    20470    20480    20490    20534    20630    20761 
   20923    21119    21339    21560    21745    21879    21961    21983 
   21942    21899    21921    21978    22014    22057    22108    22154 
   22226    22327    22427    22509    22572    22605    22612    22604 
   22574    22491    22354    22188    21979    21708    21401    21092 
   20785    20503    20274    20086    19919    19770    19638    19522 
   19438    19386    19361    19354    19365    19391    19437    19533 
   19689    19867    20040    20206    20372    20557    20758    20934 
   21057    21141    21201    21234    21226    21180    21136    21131 
   21155    21209    21304    21424    21552    21705    21898    22095 
   22268    22418    22540    22617    22636    22593    22513    22427 
   22339    22222    22061    21878    21675    21451    21201    20922 
   20617    20313    20056    19874    19751    19668    19633    19647 
   19700    19773    19855    19947    20081    20264    20480    20699 
   20915    21127    21312    21466    21602    21709    21775    21821 
   21867    21898    21879    21805    21716    21628    21523    21388 
   21231    21065    20883    20661    20410    20154    19885    19608 
   19344    19111    18908    18704    18495    18320    18210    18148 
   18138    18192    18324    18536    18775    18997    19214    19437 
   19661    19908    20173    20433    20690    20953    21215    21459 
   21672    21845    21990    22098    22142    22145    22146    22145 
   22119    22065    21987    21903    21818    21705    21573    21447 
   21309    21155    21004    20842    20663    20488    20312    20121 
   19936    19758    19595    19469    19395    19364    19345    19336 
   19352    19379    19413    19480    19556    19620    19692    19768 
   19845    19935    20035    20133    20214    20285    20359    20409 
   20412    20398    20394    20386    20374    20366    20358    20356 
   20376    20416    20460    20474    20457    20444    20437    20422 
   20409    20394    20379    20376    20387    20417    20466    20524 
   20606    20700    20788    20900    21064    21253    21438    21622 
   21820    22030    22249    22469    22657    22775    22835    22852 
   22823    22750    22613    22388    22115    21832    21539    21246 
   20970    20725    20483    20228    19981    19747    19510    19283 
   19091    18943    18824    18720    18654    18650    18702    18797 
   18904    19008    19136    19309    19518    19743    19969    20196 
   20414    20613    20788    20941    21074    21182    21277    21370 
   21450    21521    21600    21681    21775    21884    21978    22021 
   21995    21906    21795    21682    21535    21362    21193    21022 
   20858    20711    20571    20449    20352    20250    20125    19988 
   19862    19781    19757    19781    19840    19903    19950    20004 
   20094    20229    20389    20555    20726    20893    21023    21126 
   21219    21289    21343    21400    21470    21560    21652    21717 
   21767    21814    21840    21852    21874    21899    21930    21964 
   21976    21956    21902    21801    21655    21485    21312    21146 
   20992    20860    20742    20615    20474    20332    20212    20117 
   20027    19938    19872    19845    19863    19930    20017    20088 
   20146    20206    20264    20314    20362    20410    20460    20514 
   20553    20553    20534    20530    20545    20582    20622    20644 
   20677    20756    20877    21045    21227    21377    21475    21537 
   21587    21635    21682    21735    21784    21830    21861    21855 
   21813    21749    21651    21514    21350    21154    20934    20702 
   20461    20240    20054    19911    19809    19750    19727    19726 
   19728    19741    19759    19770    19780    19797    19812    19823 
   19835    19840    19827    19800    19776    19732    19656    19580 
   19526    19484    19465    19481    19541    19660    19828    20015 
   20206    20412    20632    20856    21062    21255    21455    21651 
   21826    21980    22104    22203    22276    22296    22254    22165 
   22040    21895    21744    21575    21394    21213    21039    20884 
   20741    20609    20507    20440    20401    20398    20448    20552 
   20691    20839    20996    21150    21273    21359    21435    21514 
   21597    21654    21667    21670    21682    21678    21656    21627 
   21587    21550    21514    21459    21397    21351    21320    21298 
   21286    21293    21331    21393    21462    21532    21601    21645 
   21648    21606    21523    21398    21240    21062    20871    20677 
   20513    20371    20225    20082    19962    19858    19772    19727 
   19723    19750    19812    19912    20039    20193    20363    20528 
   20682    20822    20930    21007    21084    21162    21230    21276 
   21284    21269    21251    21220    21165    21089    20989    20876 
   20754    20622    20486    20358    20240    20132    20036    19961 
   19909    19880    19872    19881    19915    19963    20012    20055 
   20090    20115    20124    20127    20135    20147    20151    20162 
   20189    20221    20247    20272    20301    20328    20367    20447 
   20551    20653    20773    20929    21096    21269    21448    21609 
   21748    21879    22006    22121    22210    22256    22262    22231 
   22153    22045    21942    21840    21720    21583    21442    21300 
   21172    21060    20958    20869    20804    20764    20730    20695 
   20671    20669    20683    20706    20742    20790    20834    20877 
   20915    20947    20987    21026    21049    21047    21026    20992 
   20941    20872    20808    20737    20630    20513    20394    20264 
   20142    20038    19953    19886    19835    19800    19768    19735 
   19737    19789    19865    19938    20009    20090    20182    20260 
   20321    20387    20475    20576    20680    20775    20865    20964 
   21064    21158    21254    21346    21424    21487    21529    21554 
   21568    21574    21571    21562    21548    21536    21531    21527 
   21521    21508    21482    21448    21406    21350    21285    21216 
   21128    21022    20927    20856    20799    20746    20692    20640 
   20596    20569    20559    20567    20613    20691    20772    20853 
   20942    21030    21118    21219    21327    21424    21505    21570 
   21618    21647    21667    21694    21714    21708    21675    21629 
   21579    21533    21500    21479    21467    21452    21436    21417 
   21390    21355    21311    21246    21153    21038    20906    20748 
   20572    20391    20221    20071    19942    19832    19751    19695 
   19645    19608    19593    19584    19579    19591    19612    19637 
   19664    19705    19757    19807    19865    19946    20047    20162 
   20281    20405    20533    20653    20767    20872    20945    20970 
   20970    20962    20947    20934    20918    20887    20846    20807 
   20765    20726    20703    20684    20667    20672    20704    20740 
   20769    20810    20873    20943    20999    21037    21064    21092 
   21123    21141    21139    21132    21123    21099    21066    21026 
