Origin Time       2025/01/13 21:19:00
Lat.              31.8
Long.             131.6
Depth. (km)       30
Mag.              6.9
Station Code      OIT014
Station Lat.      33.0656
Station Long.     131.8588
Station Height(m) 8
Record Time       2025/01/13 21:19:58
Sampling Freq(Hz) 100Hz
Duration Time(s)  101
Dir.              U-D
Scale Factor      7845(gal)/8223790
Max. Acc. (gal)   5.749
Last Correction   2025/01/13 21:19:58
Memo.             
[...]
     309       45     -418     -677     -876    -1156    -1336    -1039 
      18     1506     2644     2940     2446     1633     1039      746 
     444       54     -209     -373     -534     -437      -28      228 
      85     -270     -749    -1239    -1302     -635      486     1233 
     880     -224    -1042    -1283    -1444    -1561    -1215     -675 
    -594     -765     -665     -522     -666     -691      -72     1124 
    2431     3257     3208     2519     1622      615     -247     -469 
     -62      522     1023     1534     2142     2477     2160     1580 
    1368     1489     1429      778     -383    -1340    -1360     -469 
     697     1478     1379      375     -764    -1271    -1317    -1305 
   -1250    -1406    -1961    -2448    -2451    -1950    -1057     -156 
     271      179      -82     -179     -117      -43      297     1188 
    2057     2060     1362      757      554      573      469       -6 
    -545     -642     -373      -95      209      808     1634     2181 
    2149     1853     1651     1462     1111      707      571      718 
     508     -480    -1652    -2280    -2231    -1404       94     1440 
    1946     1688     1040      411      122      122      191      387 
     639      480      -47     -486     -893    -1269    -1127     -282 
     838     1483     1217      400     -415     -915     -707      221 
    1208     1791     2097     2173     1777      859     -252    -1242 
   -2133    -2878    -2999    -2373    -1557     -770      228     1233 
    1807     1872     1483      869      441      156     -213     -313 
      89      541      815     1123     1310      970      288      -62 
     187      753     1391     1993     2286     1912      880     -267 
    -942    -1015     -641     -110       97     -233     -749    -1011 
    -816     -222      402      742      955     1167     1105      858 
     897     1023      770      342      -97     -842    -1803    -2408 
   -2259    -1412     -263      769     1525     1950     2070     1934 
    1444      849      706      912     1065     1154      982      349 
    -275     -453     -290      -24       97       41       83       98 
    -341    -1034    -1405    -1389    -1305    -1267     -977     -128 
     978     1641     1717     1729     1912     1879     1386      849 
     691      697      491      148       48      272      282     -345 
   -1136    -1435    -1291    -1051     -653      180     1309     2118 
    2189     1740     1275     1232     1845     2824     3356     2872 
    1640      387     -429     -824     -957     -900     -665     -306 
      64      318      399      445      635     1071     1756     2324 
    2312     1752      938      106     -453     -656     -757    -1004 
   -1445    -1883    -2107    -2300    -2512    -2303    -1574     -791 
    -301      -75      108      272      186      -49      -74      175 
     529      745      639      510      766     1229     1439     1397 
    1468     1744     1881     1551      820       -9     -772    -1355 
   -1578    -1494    -1458    -1657    -1848    -1657    -1012     -203 
     392      731     1134     1676     1927     1638     1125      778 
     753      907      961      988     1255     1607     1804     1903 
    1750     1066      175     -290     -213      217      922     1561 
    1649     1339     1159     1152     1046      781      407      -33 
    -440     -738     -859     -702     -394     -334     -716    -1318 
   -1838    -2039    -1802    -1324     -942     -662     -274      201 
     720     1532     2583     3181     2841     1981     1355     1097 
     886      734      826     1071     1337     1433     1051      411 
      89      135      407      947     1520     1740     1548     1152 
     851      787      766      561       99     -525    -1042    -1389 
   -1823    -2297    -2505    -2378    -1945    -1185     -340       93 
      29       86      622     1210     1617     1999     2247     2251 
    2161     1987     1690     1377     1066      627     -108    -1034 
   -1526    -1183     -459      157      552      429     -237     -815 
    -945     -780     -468     -211     -255     -630    -1269    -1848 
   -1749     -795      386     1034      992      652      238     -376 
   -1070    -1344     -977     -361        6      141      225       75 
    -368     -676     -565     -167      325      672      634      388 
     325      449      382      -75     -656     -986    -1015     -927 
    -818     -703     -683     -761     -820     -861     -855     -623 
    -199      157      356      396      249      -44     -450     -934 
   -1240    -1086     -564     -140      -98     -141      -20       55 
     149      577     1162     1663     2070     2072     1533     1085 
    1082      880      -59    -1190    -1691    -1620    -1638    -1927 
   -2131    -2141    -2223    -2378    -2110    -1161      -55      648 
    1027     1325     1498     1426     1163      904      681      294 
    -252     -722    -1011    -1071     -904     -685     -538     -513 
    -622     -642     -419     -141      112      392      549      499 
     471      594      691      518      -40     -770    -1243    -1255 
    -722      415     1590     2042     1880     1660     1551     1387 
    1043      734      743      885      889      895     1077     1283 
    1227      897      567      307       -9     -221      -83      164 
     105     -279     -712     -938     -832     -475      -55      317 
     635      866      942      870      791      761      719      684 
     688      691      687      630      441      243      229      324 
     229     -103     -322     -171      182      487      662      695 
     625      589      645      638      414       36     -325     -510 
    -351      145      834     1621     2288     2543     2500     2443 
    2300     2000     1823     1869     1756     1217      533       68 
    -160     -299     -419     -533     -523     -217      392     1104 
    1667     1975     2131     2269     2371     2423     2452     2373 
    2106     1760     1470     1248     1102     1012      934      942 
    1065     1178     1304     1414     1188      549     -174     -754 
   -1135    -1341    -1544    -1823    -2026    -2019    -1746    -1210 
    -583      -58      345      666      904     1096     1352     1610 
    1532      934       10     -943    -1701    -2176    -2415    -2362 
   -1939    -1368     -999     -865     -604      166     1337     2407 
    3110     3559     3740     3416     2617     1734     1097      687 
     252     -276     -436      148      972     1351     1393     1439 
    1417     1256     1097      934      735      638      618      572 
     626      873     1217     1591     1915     2133     2288     2358 
    2344     2378     2451     2398     2128     1628      974      378 
      21     -156     -365     -621     -658     -194      666     1478 
    2041     2413     2500     2280     1983     1815     1865     1976 
    1880     1551     1050      345     -472    -1239    -1876    -2386 
   -2778    -3007    -3119    -3237    -3237    -2968    -2598    -2214 
   -1661     -996     -446     -166     -353    -1058    -1817    -2165 
   -2199    -2166    -2074    -1915    -1748    -1579    -1351    -1027 
    -776     -733     -603     -302     -271     -494     -553     -580 
    -864    -1232    -1513    -1796    -2126    -2384    -2340    -1845 
   -1089     -378      282      935     1401     1456     1096      708 
     745     1121     1576     2043     2350     2462     2763     3353 
    3801     3850     3615     3311     3144     3130     3194     3412 
    3734     3748     3148     2110     1036      190     -319     -483 
    -378     -175      -98     -153     -147       37      469     1155 
    1833     2076     1648      726     -268    -1136    -2041    -3094 
   -3991    -4414    -4495    -4432    -4109    -3519    -2872    -2188 
   -1393     -633       -8      575     1084     1274     1053      720 
     604      468     -125    -1008    -1728    -2362    -3125    -3719 
   -3777    -3319    -2596    -1831    -1088     -445      -63      153 
     411      661      716      479       91     -144     -199     -301 
    -483     -657     -880    -1080     -931     -457     -120     -105 
    -167     -187     -228     -189      114      599      977     1209 
    1630     2448     3383     4008     4113     3780     3357     3117 
    3017     2956     2814     2448     2012     1934     2386     3145 
    3940     4572     4814     4526     3889     3385     3199     2909 
    2282     1710     1490     1429     1285     1003      638      324 
     133       13       18      155      132     -105     -203     -106 
    -148     -499    -1035    -1494    -1675    -1651    -1545    -1256 
    -741     -145      445      965     1262     1196      773      236 
    -232     -731    -1343    -1927    -2411    -2864    -3187    -3098 
   -2602    -2114    -1929    -1981    -2162    -2466    -2813    -2986 
   -2802    -2327    -1787    -1324     -799      -32      706     1003 
     918      689      225     -610    -1556    -2195    -2490    -2737 
   -3041    -3261    -3214    -2763    -1981    -1101     -298      379 
    1051     1795     2397     2683     2852     3156     3450     3437 
    3119     2751     2528     2384     2034     1445      928      712 
     791     1177     1925     2876     3720     4326     4777     5125 
    5277     5139     4838     4540     4125     3438     2670     2038 
    1491      970      560      292       40     -214     -253       12 
     398      819     1304     1636     1611     1385     1093      741 
     432      162     -213     -688    -1210    -1773    -2316    -2689 
   -2668    -2308    -2041    -2054    -2265    -2754    -3408    -3731 
   -3527    -3100    -2747    -2554    -2502    -2525    -2551    -2523 
   -2349    -2045    -1885    -1989    -2089    -1989    -1761    -1598 
   -1782    -2344    -2845    -2922    -2664    -2166    -1449     -683 
      16      598      942     1080     1231     1499     1718     1653 
    1418     1393     1584     1632     1595     1917     2574     3233 
    3763     4131     4333     4405     4290     4047     3817     3558 
    3086     2226     1074      106     -433     -859    -1347    -1540 
   -1181     -496      145      554      754      888     1085     1393 
    1718     1840     1529      816       58     -444     -652     -646 
    -480     -149      256      572      855     1194     1402     1439 
    1517     1620     1559     1370     1139      774      245     -332 
    -927    -1637    -2452    -3025    -3057    -2729    -2274    -1701 
   -1108     -614     -178      240      684     1098     1209      899 
     378     -136     -495     -576     -445     -252      -43       70 
     -89     -399     -530     -309      159      595      859     1058 
    1269     1439     1594     1877     2266     2554     2609     2412 
    2093     1881     1806     1755     1688     1510     1200     1070 
    1281     1456     1383     1418     1657     1629     1216      973 
    1302     1915     2274     2201     1900     1630     1472     1356 
    1355     1749     2486     3046     3180     3056     2658     1910 
    1073      403      -70     -441     -861    -1259    -1471    -1540 
   -1425    -1105     -723     -303      105      369      591      878 
    1201     1572     1818     1628     1246     1194     1416     1526 
    1516     1575     1611     1339      727       52     -422     -576 
    -481     -500     -927    -1552    -2000    -2209    -2276    -2189 
   -1964    -1690    -1467    -1460    -1721    -1935    -1833    -1578 
   -1478    -1649    -1958    -2215    -2511    -3019    -3488    -3500 
   -3053    -2435    -1841    -1329     -841     -205      581     1291 
    1790     2141     2415     2593     2629     2550     2301     1798 
    1170      637      236      -54     -280     -540     -749     -702 
    -399      -51      210      388      486      511      569      734 
    1016     1424     1877     2276     2467     2276     1823     1372 
     980      639      336      -25     -472     -882    -1066     -913 
    -548     -180      164      459      464       78     -541    -1210 
   -1734    -2002    -2161    -2400    -2747    -3183    -3588    -3711 
   -3450    -2948    -2331    -1691    -1151     -683     -190      176 
     195     -109     -541     -895    -1058     -988     -643      -74 
     546     1101     1561     1938     2326     2818     3368     3844 
    4199     4483     4657     4537     4155     3819     3646     3420 
    2949     2274     1559      895      357      207      572     1143 
    1661     2150     2601     2983     3353     3688     3821     3612 
    3049     2207     1201      214     -600    -1227    -1653    -1837 
   -1740    -1426    -1177    -1227    -1487    -1790    -2119    -2471 
   -2698    -2571    -2092    -1588    -1262     -999     -804     -818 
    -942    -1007     -939     -611      -58      329      367      409 
     650      819      864     1057     1366     1543     1617     1753 
    1980     2274     2605     2922     3154     3154     2826     2320 
    1817     1425     1291     1360     1371     1306     1379     1663 
    2073     2577     3186     3759     4105     4255     4326     4222 
    3736     2810     1694      710     -159    -1113    -2154    -3211 
   -4274    -5211    -5761    -5740    -5175    -4309    -3476    -2839 
   -2255    -1503     -608      141      491      409       14     -569 
   -1331    -2216    -2879    -3010    -2686    -2185    -1775    -1638 
   -1709    -1825    -1984    -2147    -2214    -2315    -2583    -2926 
   -3213    -3271    -2987    -2393    -1540     -585      319     1188 
    1946     2385     2400     2064     1692     1621     1671     1444 
    1054      719      290     -180     -337     -144      176      479 
     734     1116     1701     2178     2398     2624     3038     3531 
    3850     3881     3873     4047     4201     4164     4108     4099 
    4016     3881     3789     3595     3071     2266     1416      573 
    -338    -1165    -1584    -1637    -1648    -1736    -1869    -1988 
   -1942    -1733    -1536    -1374    -1192    -1093    -1154    -1142 
    -846     -546     -564     -733     -719     -452     -157      -86 
    -201     -306     -302     -189      -10      191      463      834 
    1174     1251     1001      517     -186     -927    -1343    -1406 
   -1385    -1351    -1247    -1101     -965     -822     -591     -240 
     167      587     1001     1289     1324     1163      918      565 
     105     -341     -654     -843     -961     -993     -909     -664 
    -237      229      614      930     1242     1660     2219     2808 
    3284     3603     3881     4172     4342     4352     4212     3850 
    3388     2990     2465     1629      666      -98     -535     -805 
   -1067    -1235    -1208     -966     -534     -167      -91      -95 
      51      171       78      -97     -186     -156      -70      -20 
     -18     -122     -496    -1115    -1813    -2505    -3056    -3314 
   -3331    -3275    -3183    -2905    -2371    -1873    -1630    -1471 
   -1231     -849     -207      737     1884     3025     3969     4692 
    5206     5539     5729     5705     5377     4737     3939     3300 
    2907     2648     2520     2485     2465     2401     2130     1597 
     986      453       -2     -432     -823    -1127    -1355    -1578 
   -1814    -2072    -2326    -2465    -2443    -2304    -1991    -1443 
    -764     -160      170      189       71      -75     -332     -668 
    -973    -1246    -1522    -1815    -2004    -1863    -1352     -700 
    -144      301      737     1073     1147     1063     1032      986 
     785      483      157      -55       43      341      560      749 
    1039     1223     1100      884      869      945      831      591 
     449      409      349      309      517     1078     1694     1881 
    1520      977      654      649      826     1073     1335     1460 
    1378     1239     1148     1048      878      635      346       79 
     -54      -58     -156     -465     -778     -962    -1156    -1467 
   -1783    -1962    -2007    -2056    -2195    -2382    -2528    -2506 
   -2135    -1390     -529      180      664      974     1194     1355 
    1475     1614     1811     2062     2300     2381     2242     2014 
    1819     1614     1355     1147     1039      903      608      172 
    -256     -598     -963    -1348    -1524    -1520    -1591    -1726 
   -1807    -1906    -2030    -2103    -2085    -1895    -1563    -1223 
    -818     -319      113      483      922     1399     1761     1923 
    1964     1981     1881     1534     1015      434      -54     -159 
     153      572      923     1240     1456     1468     1354     1306 
    1429     1709     2058     2339     2366     2054     1539      981 
     390     -213     -666     -888    -1005    -1100    -1092    -1008 
    -908     -648     -108      568     1085     1252     1206     1204 
    1251     1255     1246     1250     1229     1171     1105     1013 
     824      560      314      171      151      190      179      -20 
    -472    -1050    -1507    -1733    -1861    -2007    -2046    -1879 
   -1637    -1449    -1262     -961     -515      -54      282      589 
    1001     1344     1386     1194      992      834      664      569 
     654      849     1124     1505     1776     1725     1501     1343 
    1298     1324     1370     1321     1135      919      750      608 
     565      800     1286     1671     1669     1337      896      407 
    -279    -1235    -2216    -2906    -3257    -3519    -3831    -3948 
   -3643    -3044    -2340    -1541     -615      390     1335     1988 
    2211     2169     2139     2141     2042     1881     1694     1348 
     837      361      105      137      356      587      796      908 
     785      475       58     -388     -723     -955    -1251    -1652 
   -2042    -2396    -2809    -3165    -3222    -3040    -2729    -2154 
   -1250     -241      581     1144     1547     1800     1884     1910 
    1944     1922     1800     1476      882      261     -114     -328 
    -564     -772     -803     -660     -440     -157      205      602 
     973     1290     1548     1768     1964     2077     2004     1703 
    1318     1047      864      622      336      139       54      -40 
    -213     -409     -549     -504     -203      195      511      764 
    1040     1324     1525     1609     1632     1629     1458     1017 
     490      112      -71     -121      -94      -49      -12       17 
     -22     -108      -91      -85     -295     -610     -888    -1198 
   -1507    -1649    -1548    -1198     -645       -1      598     1038 
    1316     1501     1559     1513     1506     1547     1534     1459 
    1374     1298     1200     1008      649      118     -471     -951 
   -1202    -1208    -1115    -1162    -1374    -1547    -1533    -1318 
   -1003     -807     -837     -926     -853     -587     -222      120 
     365      542      737     1031     1371     1576     1566     1443 
    1348     1339     1328     1224     1119     1073      962      796 
