Origin Time       2025/01/13 21:19:00
Lat.              31.8
Long.             131.6
Depth. (km)       30
Mag.              6.9
Station Code      OIT005
Station Lat.      33.4524
Station Long.     131.1142
Station Height(m) 113
Record Time       2025/01/13 21:20:13
Sampling Freq(Hz) 100Hz
Duration Time(s)  83
Dir.              U-D
Scale Factor      7845(gal)/8223790
Max. Acc. (gal)   1.588
Last Correction   2025/01/13 21:20:13
Memo.             
[...]
   12434    12410    12411    12387    12391    12484    12613    12706 
   12783    12852    12865    12880    13014    13200    13288    13284 
   13275    13258    13176    13038    12891    12772    12702    12660 
   12631    12680    12847    12997    12955    12737    12479    12264 
   12110    12044    12114    12329    12594    12807    12991    13180 
   13298    13259    13139    13105    13150    13116    12984    12923 
   13004    13093    13036    12881    12798    12810    12796    12746 
   12765    12849    12865    12742    12599    12591    12652    12590 
   12468    12530    12768    12927    12897    12788    12691    12563 
   12366    12197    12131    12093    12035    12055    12232    12476 
   12663    12814    12992    13142    13177    13117    13046    13007 
   12957    12873    12795    12727    12604    12410    12233    12133 
   12064    11952    11816    11720    11665    11610    11566    11588 
   11657    11689    11722    11888    12187    12487    12708    12892 
   13049    13096    12999    12879    12861    12885    12826    12715 
   12677    12729    12745    12633    12488    12491    12594    12580 
   12434    12333    12355    12448    12533    12573    12603    12656 
   12696    12719    12772    12864    12939    12962    12968    12992 
   13012    13019    13022    12988    12915    12899    12978    13054 
   13031    12935    12862    12837    12795    12700    12595    12565 
   12687    12930    13122    13132    13024    12926    12845    12711 
   12538    12426    12405    12410    12405    12414    12463    12509 
   12471    12375    12337    12372    12422    12476    12541    12641 
   12804    12955    12999    13027    13190    13378    13401    13347 
   13367    13354    13176    12966    12908    12982    13028    12947 
   12800    12681    12611    12545    12406    12172    11975    11940 
   12021    12131    12206    12194    12164    12266    12503    12718 
   12766    12702    12696    12768    12780    12675    12542    12480 
   12468    12409    12274    12150    12143    12260    12384    12448 
   12506    12594    12668    12721    12749    12684    12513    12378 
   12379    12433    12447    12465    12573    12761    12918    12972 
   12962    12947    12923    12874    12826    12822    12881    12968 
   13016    12987    12919    12895    12923    12950    12954    12954 
   12923    12818    12691    12610    12542    12460    12420    12480 
   12627    12757    12775    12730    12707    12676    12584    12498 
   12490    12522    12507    12472    12515    12622    12730    12838 
   12926    12954    12945    12911    12857    12877    13016    13146 
   13140    13042    12946    12845    12698    12580    12590    12656 
   12644    12541    12440    12406    12434    12451    12398    12329 
   12333    12399    12407    12310    12175    12077    12032    12028 
   12046    12074    12105    12166    12309    12521    12711    12819 
   12858    12849    12841    12874    12906    12876    12806    12769 
   12819    12931    13001    12935    12772    12646    12613    12595 
   12526    12424    12359    12388    12492    12610    12695    12746 
   12781    12780    12714    12600    12471    12351    12302    12374 
   12529    12645    12636    12545    12507    12586    12692    12714 
   12691    12742    12845    12846    12735    12652    12626    12584 
   12503    12430    12415    12471    12575    12699    12795    12804 
   12766    12749    12739    12721    12694    12636    12584    12636 
   12730    12695    12537    12407    12388    12442    12478    12440 
   12349    12266    12235    12260    12307    12356    12437    12569 
   12731    12873    12941    12924    12903    12977    13123    13204 
   13153    13046    13001    13051    13090    12997    12820    12703 
   12642    12564    12523    12594    12725    12819    12852    12879 
   12965    13086    13153    13135    13126    13167    13198    13173 
   13111    13019    12896    12761    12633    12540    12523    12609 
   12771    12935    13024    13022    13001    13016    13011    12920 
   12762    12622    12541    12461    12339    12226    12202    12282 
   12414    12523    12588    12637    12661    12629    12549    12459 
   12370    12286    12216    12135    12037    12002    12035    12051 
   12029    12021    12042    12104    12228    12372    12467    12518 
   12571    12637    12696    12742    12795    12895    13050    13227 
   13360    13396    13325    13186    13020    12869    12757    12677 
   12603    12548    12552    12617    12718    12865    13035    13138 
   13132    13081    13047    13018    12969    12934    12914    12858 
   12773    12680    12583    12514    12498    12484    12460    12488 
   12576    12629    12595    12538    12510    12492    12448    12394 
   12401    12461    12509    12556    12663    12785    12857    12893 
   12916    12900    12846    12795    12777    12785    12796    12829 
   12877    12881    12823    12741    12629    12468    12303    12205 
   12162    12125    12113    12166    12244    12279    12274    12286 
   12353    12447    12537    12657    12823    12970    13047    13086 
   13111    13069    12943    12819    12756    12698    12590    12475 
   12421    12432    12447    12401    12313    12249    12222    12218 
   12276    12401    12514    12545    12532    12584    12719    12831 
   12868    12879    12883    12861    12862    12949    13034    12991 
   12881    12862    12912    12908    12852    12841    12893    12926 
   12884    12820    12792    12784    12789    12877    13069    13215 
   13158    12984    12880    12846    12768    12634    12525    12471 
   12429    12397    12434    12533    12545    12413    12289    12291 
   12374    12459    12537    12622    12683    12660    12546    12426 
   12357    12295    12232    12240    12293    12244    12063    11877 
   11786    11793    11866    11965    12054    12124    12175    12240 
   12334    12391    12357    12287    12221    12159    12140    12194 
   12280    12376    12490    12622    12756    12881    12977    13011 
   12969    12887    12846    12837    12773    12691    12665    12652 
   12588    12505    12476    12542    12652    12738    12783    12785 
   12768    12781    12815    12843    12895    12951    12930    12862 
   12927    13171    13404    13487    13494    13460    13336    13174 
   13080    13026    12928    12793    12712    12758    12881    12950 
   12901    12771    12668    12680    12765    12819    12818    12820 
   12908    13050    13078    12884    12536    12187    11965    11894 
   11904    11947    12058    12259    12503    12698    12799    12853 
   12874    12834    12756    12711    12717    12752    12804    12845 
   12860    12883    12924    12937    12908    12872    12789    12640 
   12502    12430    12390    12344    12289    12267    12329    12449 
   12595    12765    12933    13027    13008    12893    12723    12537 
   12371    12248    12159    12094    12074    12105    12152    12154 
   12081    11997    11958    11939    11928    11939    11981    12048 
   12101    12089    12070    12163    12330    12452    12553    12719 
   12906    13007    12976    12881    12835    12849    12843    12806 
   12788    12818    12869    12904    12910    12893    12858    12833 
   12852    12904    12966    13028    13068    13080    13113    13177 
   13235    13294    13394    13512    13591    13628    13597    13419 
   13115    12873    12785    12739    12618    12455    12360    12347 
   12313    12232    12218    12330    12474    12552    12606    12722 
   12862    12907    12854    12799    12742    12629    12518    12484 
   12464    12378    12266    12214    12245    12326    12395    12434 
   12521    12641    12695    12685    12676    12671    12668    12681 
   12712    12764    12820    12879    12977    13112    13185    13157 
   13126    13162    13224    13224    13150    13069    12993    12838 
   12592    12380    12314    12388    12519    12615    12646    12660 
   12684    12691    12672    12664    12676    12707    12783    12888 
   12973    12999    12946    12846    12785    12776    12745    12676 
   12630    12657    12730    12766    12737    12687    12649    12594 
   12506    12442    12495    12634    12710    12661    12607    12661 
   12729    12660    12509    12438    12461    12472    12451    12461 
   12532    12642    12761    12856    12908    12911    12880    12857 
   12853    12795    12637    12484    12451    12482    12453    12348 
   12229    12171    12201    12285    12364    12430    12513    12631 
   12766    12906    13041    13115    13089    13051    13092    13144 
   13123    13073    13032    12973    12881    12785    12694    12588 
   12465    12353    12272    12228    12225    12245    12249    12248 
   12283    12384    12529    12641    12675    12676    12712    12776 
   12831    12849    12825    12800    12818    12861    12874    12841 
   12779    12704    12630    12565    12505    12434    12368    12333 
   12328    12337    12348    12347    12321    12297    12299    12320 
   12336    12345    12351    12359    12395    12447    12460    12451 
   12475    12507    12475    12411    12424    12494    12499    12434 
   12418    12463    12465    12410    12366    12366    12368    12326 
   12278    12285    12325    12333    12330    12384    12480    12514 
   12402    12216    12116    12123    12132    12147    12256    12451 
   12636    12773    12888    12964    12988    13024    13095    13123 
   13070    12999    12946    12908    12887    12904    12964    13028 
   13058    13026    12939    12862    12846    12870    12881    12856 
   12783    12669    12588    12588    12625    12641    12649    12699 
   12788    12876    12978    13119    13223    13232    13203    13185 
   13185    13223    13288    13331    13351    13396    13468    13570 
   13682    13717    13630    13522    13478    13413    13224    12964 
   12766    12638    12522    12457    12515    12653    12789    12922 
   13082    13259    13409    13506    13552    13576    13591    13570 
   13501    13429    13367    13284    13177    13085    13018    12942 
   12852    12766    12704    12669    12692    12787    12877    12884 
   12856    12853    12814    12691    12545    12430    12357    12326 
   12351    12455    12617    12758    12849    12911    12950    12951 
   12939    12969    13036    13069    13062    13099    13198    13285 
   13327    13394    13531    13722    13905    13983    13944    13882 
   13833    13733    13559    13379    13248    13134    13015    12935 
   12904    12864    12791    12706    12617    12513    12399    12293 
   12197    12106    12035    12012    12009    11988    11979    12027 
   12094    12121    12087    12024    11969    11931    11916    11925 
   11919    11889    11885    11916    11915    11865    11831    11821 
   11782    11720    11673    11616    11554    11542    11566    11589 
   11615    11661    11732    11815    11863    11854    11816    11800 
   11828    11870    11867    11840    11888    12025    12139    12160 
   12137    12150    12226    12333    12403    12406    12367    12303 
   12205    12116    12101    12118    12094    12078    12154    12290 
   12409    12513    12627    12726    12768    12769    12775    12808 
   12845    12854    12826    12771    12733    12725    12684    12604 
   12571    12611    12650    12644    12623    12607    12582    12569 
   12587    12618    12663    12715    12741    12725    12673    12617 
   12598    12640    12707    12750    12761    12779    12820    12854 
   12860    12870    12926    13014    13081    13089    13069    13089 
   13147    13208    13279    13369    13446    13486    13508    13545 
   13597    13594    13486    13335    13239    13189    13089    12942 
   12874    12907    12922    12883    12876    12888    12837    12737 
   12646    12567    12503    12476    12468    12442    12413    12402 
   12390    12376    12366    12349    12341    12364    12387    12355 
   12298    12266    12245    12213    12163    12097    12023    11963 
   11931    11908    11862    11789    11712    11658    11643    11668 
   11720    11813    11943    12067    12121    12106    12086    12110 
   12158    12191    12213    12240    12253    12235    12204    12190 
   12208    12267    12345    12395    12413    12461    12561    12663 
   12754    12887    13069    13236    13351    13448    13562    13674 
   13720    13659    13531    13393    13265    13135    13026    12969 
   12935    12858    12752    12683    12663    12667    12712    12792 
   12869    12953    13054    13153    13247    13342    13406    13424 
   13398    13374    13401    13446    13441    13381    13284    13180 
   13138    13169    13188    13135    13053    13007    13001    12988 
   12945    12899    12895    12951    13042    13113    13130    13107 
   13093    13095    13081    13042    12995    12938    12873    12815 
   12764    12703    12648    12644    12700    12766    12793    12792 
   12816    12866    12888    12869    12847    12843    12847    12835 
   12799    12752    12703    12649    12594    12522    12409    12262 
   12139    12077    12047    12001    11931    11871    11816    11735 
   11651    11610    11610    11611    11573    11504    11461    11456 
   11410    11260    11079    11003    11033    11071    11091    11129 
   11196    11276    11381    11496    11538    11480    11418    11431 
   11480    11491    11461    11450    11510    11607    11646    11619 
   11619    11685    11755    11767    11735    11711    11746    11826 
   11907    11981    12078    12193    12294    12384    12484    12588 
   12703    12826    12934    13014    13061    13066    13054    13077 
   13146    13225    13304    13404    13520    13603    13617    13590 
   13563    13532    13474    13406    13373    13377    13367    13324 
   13284    13269    13265    13247    13219    13234    13305    13370 
   13409    13478    13581    13657    13710    13780    13864    13914 
   13921    13917    13911    13872    13784    13695    13648    13632 
   13612    13549    13441    13323    13232    13165    13107    13054 
   13003    12961    12951    12974    13026    13105    13201    13300 
   13397    13483    13528    13529    13504    13471    13443    13398 
   13304    13186    13119    13103    13084    13065    13088    13104 
   13050    12973    12928    12885    12815    12741    12677    12613 
   12532    12447    12394    12383    12361    12283    12170    12070 
   12001    11946    11890    11873    11924    11985    11997    12005 
   12063    12124    12133    12144    12217    12317    12361    12353 
   12352    12357    12305    12201    12147    12193    12280    12334 
   12356    12390    12452    12501    12511    12521    12537    12517 
   12461    12425    12425    12448    12476    12488    12478    12463 
   12451    12440    12441    12460    12490    12537    12609    12667 
   12680    12684    12725    12803    12895    12982    13031    13023 
   12999    13003    13035    13073    13086    13058    13022    13034 
   13085    13095    13046    13026    13069    13095    13081    13100 
   13161    13217    13278    13356    13414    13433    13436    13441 
   13433    13398    13325    13219    13117    13063    13030    12968 
   12900    12868    12858    12849    12841    12835    12808    12752 
   12695    12636    12544    12455    12432    12475    12542    12622 
   12707    12768    12792    12800    12795    12757    12696    12638 
   12590    12545    12487    12397    12306    12271    12280    12272 
   12255    12287    12391    12523    12619    12657    12684    12727 
   12741    12712    12676    12657    12646    12645    12663    12683 
   12671    12622    12579    12580    12640    12731    12800    12827 
   12876    12988    13113    13200    13270    13360    13448    13475 
   13459    13444    13409    13317    13200    13113    13062    13015 
   12966    12931    12904    12857    12779    12680    12583    12502 
   12418    12328    12287    12313    12325    12275    12202    12163 
   12168    12202    12245    12278    12286    12290    12330    12410 
   12482    12515    12541    12594    12669    12744    12788    12781 
   12722    12631    12544    12498    12491    12490    12490    12537 
   12675    12849    12969    13026    13073    13123    13144    13113 
   13023    12910    12829    12785    12745    12684    12618    12565 
   12530    12515    12509    12487    12445    12409    12403    12425 
   12436    12403    12355    12334    12326    12282    12222    12193 
   12191    12185    12155    12114    12096    12102    12098    12070 
   12058    12087    12162    12283    12448    12600    12691    12739 
   12827    12977    13126    13215    13250    13281    13319    13350 
   13400    13491    13579    13610    13602    13575    13535    13510 
   13505    13478    13414    13352    13316    13297    13292    13305 
   13328    13363    13404    13392    13285    13127    12976    12837 
   12699    12575    12475    12376    12264    12164    12124    12152 
   12214    12285    12374    12468    12536    12596    12692    12804 
   12874    12889    12901    12951    12989    12946    12849    12787 
   12775    12757    12719    12681    12641    12596    12565    12561 
   12564    12537    12511    12556    12650    12703    12692    12679 
   12691    12695    12656    12591    12533    12480    12410    12333 
   12295    12313    12364    12429    12502    12591    12696    12798 
   12876    12946    13005    13036    13055    13086    13109    13093 
   13057    13039    13035    13008    12950    12880    12830    12818 
   12833    12839    12796    12703    12610    12565    12588    12654 
   12708    12734    12760    12792    12827    12879    12934    12942 
   12896    12854    12853    12870    12880    12876    12876    12879 
   12858    12788    12676    12552    12445    12344    12236    12154 
   12124    12127    12136    12160    12213    12282    12341    12407 
   12519    12660    12764    12811    12846    12916    13003    13031 
   12985    12947    12958    12951    12883    12788    12708    12649 
   12599    12536    12453    12364    12295    12286    12336    12382 
   12393    12403    12411    12398    12393    12414    12437    12468 
   12521    12559    12561    12569    12607    12642    12645    12648 
   12680    12719    12738    12715    12654    12598    12557    12495 
   12407    12328    12267    12197    12114    12071    12094    12127 
   12131    12158    12233    12299    12317    12328    12371    12426 
   12474    12515    12560    12600    12617    12599    12580    12592 
   12609    12590    12556    12548    12563    12571    12573    12587 
   12609    12617    12627    12694    12820    12935    12978    12973 
   12969    12974    12951    12888    12823    12777    12725    12649 
   12573    12534    12533    12537    12537    12549    12579    12617 
   12642    12648    12661    12706    12758    12792    12819    12865 
   12928    13003    13058    13070    13047    13008    12962    12901 
