Origin Time       2025/01/13 21:19:00
Lat.              31.8
Long.             131.6
Depth. (km)       30
Mag.              6.9
Station Code      OIT002
Station Lat.      33.5691
Station Long.     131.2675
Station Height(m) 8
Record Time       2025/01/13 21:20:13
Sampling Freq(Hz) 100Hz
Duration Time(s)  114
Dir.              E-W
Scale Factor      7845(gal)/8223790
Max. Acc. (gal)   5.834
Last Correction   2025/01/13 21:20:13
Memo.             
[...]
    9655     9560     9400     9174     8897     8633     8407     8208 
    8036     7896     7766     7666     7636     7673     7788     7981 
    8213     8483     8760     8939     8982     8947     8873     8793 
    8781     8839     8914     8995     9084     9143     9155     9151 
    9127     9051     8949     8856     8738     8602     8491     8384 
    8287     8270     8352     8460     8541     8613     8679     8704 
    8739     8862     9059     9274     9472     9634     9734     9764 
    9749     9728     9756     9863     9999    10133    10260    10331 
   10322    10258    10160    10061    10003     9967     9898     9796 
    9697     9586     9451     9302     9147     8988     8865     8814 
    8779     8704     8619     8541     8429     8294     8206     8176 
    8174     8194     8228     8275     8374     8527     8665     8770 
    8904     9057     9151     9185     9205     9211     9216     9269 
    9360     9490     9679     9879    10025    10129    10212    10270 
   10305    10345    10403    10465    10505    10528    10550    10561 
   10546    10517    10467    10388    10284    10170    10052     9895 
    9710     9543     9385     9228     9111     9032     9003     9043 
    9116     9169     9209     9265     9328     9377     9374     9288 
    9142     8991     8837     8662     8521     8472     8480     8503 
    8571     8694     8857     9046     9234     9404     9576     9763 
    9941    10093    10241    10385    10478    10517    10525    10455 
   10278    10065     9872     9671     9435     9158     8837     8503 
    8218     8020     7909     7847     7792     7743     7685     7585 
    7499     7495     7565     7701     7919     8197     8487     8743 
    8926     9028     9084     9112     9107     9096     9101     9111 
    9130     9186     9256     9293     9312     9347     9367     9356 
    9324     9234     9080     8942     8845     8758     8725     8757 
    8754     8700     8672     8662     8646     8672     8753     8862 
    9012     9188     9352     9479     9548     9574     9576     9556 
    9525     9528     9560     9586     9593     9595     9618     9674 
    9733     9767     9788     9810     9783     9680     9514     9279 
    9016     8772     8514     8262     8071     7946     7875     7867 
    7888     7932     8066     8289     8538     8808     9082     9286 
    9423     9517     9526     9425     9283     9198     9165     9143 
    9144     9174     9190     9165     9103     9000     8857     8715 
    8606     8514     8452     8455     8529     8662     8845     9065 
    9288     9487     9678     9872    10071    10262    10436    10563 
   10623    10631    10598    10501    10338    10156     9998     9876 
    9809     9819     9899    10000    10116    10241    10350    10440 
   10524    10590    10629    10644    10640    10635    10617    10567 
   10500    10408    10266    10087     9883     9649     9421     9244 
    9123     9043     8997     8989     9011     9023     9009     8988 
    8945     8868     8796     8734     8653     8545     8424     8309 
    8220     8171     8159     8198     8299     8428     8532     8586 
    8563     8471     8340     8191     8051     7928     7792     7661 
    7577     7523     7479     7446     7377     7227     7037     6871 
    6755     6681     6631     6608     6637     6729     6880     7075 
    7280     7464     7608     7735     7884     8055     8255     8486 
    8722     8953     9190     9431     9659     9896    10170    10440 
   10646    10804    10948    11080    11217    11396    11588    11728 
   11826    11897    11929    11934    11917    11847    11734    11630 
   11561    11526    11527    11519    11435    11271    11043    10764 
   10461    10138     9769     9385     9063     8819     8642     8556 
    8541     8565     8634     8745     8884     9031     9127     9134 
    9069     8977     8895     8842     8827     8862     8965     9128 
    9325     9518     9663     9755     9813     9850     9855     9815 
    9749     9676     9605     9535     9454     9339     9192     9032 
    8865     8683     8498     8345     8237     8163     8128     8122 
    8131     8155     8175     8156     8071     7888     7576     7160 
    6706     6246     5771     5306     4908     4592     4378     4286 
    4326     4498     4784     5147     5583     6073     6570     7084 
    7638     8145     8552     8887     9142     9325     9513     9697 
    9852    10058    10351    10686    11091    11553    11989    12375 
   12723    13012    13212    13316    13355    13329    13234    13109 
   12980    12835    12717    12617    12492    12352    12201    12023 
   11839    11643    11418    11190    10993    10818    10665    10554 
   10455    10314    10120     9872     9571     9281     9038     8806 
    8556     8306     8064     7835     7643     7492     7375     7303 
    7280     7300     7387     7539     7717     7882     8027     8151 
    8230     8262     8310     8407     8518     8633     8766     8901 
    9026     9165     9313     9445     9582     9734     9855     9945 
   10038    10110    10143    10181    10211    10192    10127    10042 
    9922     9725     9437     9113     8829     8634     8515     8418 
    8299     8163     8031     7904     7776     7663     7600     7620 
    7732     7925     8174     8437     8684     8860     8924     8900 
    8819     8723     8657     8604     8532     8453     8391     8325 
    8239     8179     8171     8202     8329     8595     8923     9247 
    9572     9868    10077    10215    10311    10351    10366    10407 
   10454    10484    10519    10566    10598    10611    10624    10623 
   10592    10557    10516    10435    10311    10164    10004     9810 
    9563     9290     9009     8733     8507     8333     8199     8148 
    8186     8235     8252     8289     8372     8455     8515     8564 
    8600     8641     8692     8745     8799     8841     8876     8937 
    9009     9078     9147     9220     9300     9358     9359     9319 
    9267     9220     9178     9135     9080     9018     8968     8950 
    8970     9012     9059     9100     9139     9174     9193     9212 
    9248     9261     9236     9231     9263     9313     9379     9448 
    9504     9567     9660     9760     9836     9890     9931     9969 
   10011    10008     9898     9738     9612     9499     9373     9270 
    9223     9202     9194     9220     9289     9369     9433     9490 
    9560     9647     9744     9846     9930    10006    10103    10207 
   10307    10395    10443    10442    10378    10242    10064     9892 
    9749     9625     9509     9412     9329     9232     9107     8950 
    8753     8560     8424     8333     8290     8284     8260     8199 
    8140     8114     8109     8104     8110     8120     8135     8212 
    8367     8537     8665     8712     8658     8538     8382     8185 
    7985     7836     7750     7734     7808     7947     8098     8202 
    8239     8214     8140     8050     7962     7850     7743     7707 
    7728     7777     7878     8059     8280     8525     8776     9013 
    9255     9493     9726     9969    10150    10281    10385    10399 
   10363    10297    10184    10120    10123    10160    10226    10272 
   10307    10303    10238    10177    10110    10033     9969     9899 
    9877     9906     9944    10010    10079    10130    10131    10072 
   10052    10110    10227    10399    10535    10562    10489    10345 
   10152     9907     9636     9373     9116     8903     8742     8608 
    8513     8415     8282     8135     7962     7753     7507     7254 
    7055     6925     6851     6814     6782     6732     6627     6467 
    6311     6158     5995     5861     5815     5895     6091     6390 
    6781     7200     7627     8055     8429     8696     8869     8974 
    9020     9007     8959     8900     8841     8796     8746     8662 
    8554     8418     8222     7948     7646     7400     7237     7152 
    7161     7231     7319     7426     7523     7592     7666     7769 
    7889     8060     8321     8641     8966     9270     9525     9702 
    9817     9925    10039    10129    10189    10254    10311    10336 
   10354    10368    10349    10307    10269    10226    10185    10207 
   10301    10439    10628    10876    11141    11396    11626    11807 
   11963    12109    12209    12258    12270    12255    12221    12145 
   12015    11838    11611    11335    11061    10812    10590    10411 
   10261    10102     9923     9752     9612     9512     9462     9486 
    9574     9687     9805     9891     9949    10039    10157    10262 
   10355    10451    10538    10593    10592    10530    10411    10254 
   10083     9913     9722     9479     9194     8891     8554     8187 
    7812     7443     7110     6856     6694     6597     6538     6525 
    6528     6496     6424     6319     6200     6096     5992     5898 
    5872     5942     6072     6245     6481     6781     7132     7541 
    7979     8409     8829     9236     9578     9821    10004    10149 
   10241    10308    10376    10435    10486    10552    10639    10754 
   10893    11025    11117    11142    11106    11037    10941    10820 
   10686    10569    10496    10477    10488    10492    10455    10376 
   10274    10152     9983     9757     9478     9136     8756     8388 
    8046     7732     7470     7246     7030     6844     6698     6550 
    6382     6226     6093     5972     5873     5834     5861     5941 
    6066     6232     6443     6705     6983     7244     7476     7638 
    7720     7773     7805     7835     7952     8197     8561     9039 
    9589    10162    10720    11222    11642    11969    12209    12420 
   12657    12914    13190    13521    13855    14106    14250    14274 
   14153    13917    13622    13282    12927    12634    12386    12150 
   11954    11749    11464    11140    10777    10357     9936     9529 
    9132     8772     8432     8078     7751     7480     7245     7071 
    6987     6964     6978     7052     7194     7362     7545     7759 
    7974     8128     8224     8270     8256     8235     8243     8276 
    8375     8561     8777     8951     9099     9259     9432     9630 
    9856    10066    10226    10339    10413    10454    10477    10531 
   10677    10912    11172    11404    11573    11661    11658    11588 
   11473    11326    11176    11067    11013    10997    10994    10944 
   10778    10482    10087     9616     9115     8634     8172     7708 
    7250     6821     6427     6076     5773     5505     5265     5084 
    4966     4896     4896     4977     5104     5281     5522     5790 
    6045     6289     6535     6772     7005     7236     7460     7704 
    7969     8205     8388     8523     8595     8638     8725     8885 
    9117     9420     9767    10126    10471    10808    11140    11456 
   11753    12033    12297    12536    12715    12808    12831    12783 
   12648    12421    12090    11668    11171    10598     9996     9436 
    8959     8592     8332     8145     8028     8001     8046     8113 
    8183     8208     8105     7882     7619     7369     7159     7033 
    7013     7068     7182     7354     7535     7676     7793     7917 
    8052     8208     8392     8571     8679     8734     8802     8896 
    9045     9265     9487     9717     9992    10242    10466    10686 
   10810    10839    10841    10777    10643    10508    10365    10235 
   10188    10208    10258    10314    10328    10255    10104     9934 
    9807     9734     9695     9706     9752     9791     9796     9732 
    9586     9400     9186     8942     8706     8509     8338     8190 
    8073     7971     7869     7769     7665     7541     7388     7209 
    6999     6779     6600     6501     6475     6469     6462     6485 
    6532     6600     6713     6916     7246     7692     8206     8792 
    9459    10157    10848    11520    12133    12649    13069    13381 
   13556    13617    13610    13564    13495    13406    13284    13109 
   12876    12584    12220    11762    11236    10678    10110     9562 
    9086     8714     8417     8155     7920     7719     7541     7375 
    7200     6980     6708     6423     6142     5881     5687     5568 
    5514     5555     5719     6004     6431     7001     7632     8259 
    8887     9489    10000    10412    10740    11002    11226    11422 
   11583    11726    11858    11969    12055    12105    12082    11965 
   11777    11543    11272    10990    10740    10509    10260    10008 
    9801     9644     9505     9379     9302     9275     9274     9312 
    9378     9416     9418     9421     9424     9424     9420     9400 
    9342     9239     9112     8957     8753     8513     8262     8005 
    7743     7477     7191     6868     6520     6176     5856     5584 
    5412     5359     5400     5517     5729     6045     6430     6836 
    7254     7700     8174     8672     9192     9717    10219    10710 
   11210    11674    12046    12325    12536    12671    12718    12673 
   12545    12371    12201    12066    11981    11963    12016    12112 
   12218    12328    12430    12502    12537    12552    12534    12453 
   12325    12186    11983    11680    11321    10909    10453    10003 
    9545     9043     8510     7969     7453     6995     6575     6165 
    5782     5427     5063     4689     4322     3959     3616     3334 
    3138     3052     3109     3329     3690     4170     4735     5332 
    5933     6552     7176     7769     8309     8756     9086     9302 
    9450     9575     9667     9706     9663     9489     9221     8916 
    8594     8298     8090     7983     7942     7909     7843     7744 
    7576     7310     7015     6721     6446     6268     6141     6038 
    6037     6077     6149     6347     6642     7017     7503     8021 
    8542     9107     9697    10284    10881    11479    12036    12518 
   12924    13259    13493    13618    13687    13730    13743    13753 
   13770    13748    13694    13641    13608    13620    13679    13759 
   13860    13960    14014    13990    13867    13660    13417    13155 
   12872    12590    12302    11967    11549    11020    10400     9722 
    8997     8263     7553     6889     6322     5876     5553     5337 
    5182     5046     4916     4800     4710     4622     4534     4475 
    4446     4467     4575     4764     5020     5341     5732     6207 
    6766     7391     8043     8671     9243     9720    10058    10264 
   10353    10341    10255    10120     9952     9794     9695     9660 
    9690     9799     9965    10153    10350    10515    10620    10667 
   10654    10582    10455    10258    10021     9798     9595     9429 
    9348     9362     9455     9612     9780     9910     9984     9990 
    9926     9811     9672     9543     9471     9471     9544     9717 
    9957    10168    10293    10303    10156     9871     9499     9088 
    8706     8379     8102     7882     7688     7476     7258     7038 
    6817     6647     6577     6620     6779     7047     7410     7846 
    8326     8845     9402     9981    10563    11134    11685    12199 
   12667    13076    13392    13578    13618    13502    13246    12884 
   12476    12075    11676    11279    10898    10512    10114     9721 
    9296     8819     8318     7797     7237     6671     6156     5699 
    5293     4966     4739     4581     4469     4395     4337     4301 
    4325     4429     4622     4889     5192     5517     5856     6205 
    6575     6928     7210     7422     7564     7636     7681     7734 
    7821     7959     8155     8430     8758     9124     9555     9980 
   10312    10579    10801    10947    11032    11102    11156    11178 
   11191    11195    11145    11024    10821    10513    10115     9659 
    9189     8770     8456     8264     8194     8248     8463     8827 
    9238     9597     9875    10068    10199    10292    10355    10412 
   10471    10536    10633    10777    10940    11082    11195    11306 
   11419    11535    11665    11785    11853    11893    11971    12069 
   12150    12241    12336    12367    12295    12127    11863    11510 
   11101    10686    10288     9917     9607     9374     9202     9097 
    9070     9094     9165     9285     9439     9598     9725     9795 
    9828     9817     9747     9634     9486     9298     9089     8849 
    8603     8406     8263     8178     8182     8271     8417     8576 
    8719     8827     8862     8822     8757     8691     8623     8575 
    8563     8608     8727     8904     9101     9312     9512     9653 
    9747     9783     9734     9621     9494     9382     9323     9344 
    9441     9574     9695     9757     9742     9653     9490     9290 
    9085     8856     8622     8424     8255     8114     8010     7896 
    7719     7487     7229     6990     6801     6696     6712     6825 
    6979     7164     7383     7607     7823     8021     8191     8359 
    8548     8731     8877     9012     9181     9373     9560     9734 
    9873     9958     9983     9975     9960     9940     9937     9975 
   10029    10079    10118    10115    10060     9985     9895     9761 
    9590     9397     9200     9036     8916     8804     8675     8527 
    8380     8245     8105     7959     7848     7778     7731     7716 
    7750     7812     7892     7992     8109     8240     8378     8511 
    8635     8737     8826     8950     9117     9278     9409     9514 
    9578     9605     9634     9680     9726     9763     9772     9734 
    9660     9558     9410     9217     9011     8838     8722     8662 
    8656     8691     8753     8824     8876     8881     8826     8715 
    8569     8418     8297     8218     8191     8222     8299     8413 
    8575     8780     8986     9171     9356     9549     9756    10003 
   10280    10542    10760    10929    11074    11226    11402    11592 
   11778    11963    12140    12293    12407    12464    12437    12339 
   12181    11975    11750    11510    11257    11029    10841    10650 
   10451    10269    10041     9726     9375     9003     8607     8232 
    7858     7447     7041     6673     6340     6060     5837     5637 
    5439     5236     5038     4839     4633     4432     4249     4110 
    4064     4144     4337     4615     4946     5308     5713     6169 
    6660     7149     7605     8021     8418     8815     9232     9701 
   10204    10719    11269    11820    12316    12766    13134    13355 
   13451    13447    13348    13181    13028    12966    12987    13039 
   13095    13104    13032    12907    12734    12509    12270    12064 
   11886    11735    11642    11588    11530    11456    11348    11203 
   11043    10841    10573    10235     9844     9437     9058     8742 
    8510     8360     8257     8158     8050     7947     7839     7734 
    7643     7545     7439     7350     7272     7169     7028     6844 
    6610     6346     6096     5891     5736     5647     5616     5626 
    5678     5760     5849     5919     5964     5995     6027     6116 
    6288     6513     6810     7196     7605     8008     8415     8768 
    9043     9279     9475     9607     9703     9776     9825     9883 
    9973    10077    10196    10324    10451    10558    10586    10515 
