Origin Time       2025/01/13 21:19:00
Lat.              31.8
Long.             131.6
Depth. (km)       30
Mag.              6.9
Station Code      OIT011
Station Lat.      33.2468
Station Long.     131.8816
Station Height(m) 8
Record Time       2025/01/13 21:20:01
Sampling Freq(Hz) 100Hz
Duration Time(s)  105
Dir.              E-W
Scale Factor      7845(gal)/8223790
Max. Acc. (gal)   15.077
Last Correction   2025/01/13 21:20:00
Memo.             
[...]
   26092    25833    25544    25267    25077    25046    25185    25434 
   25717    26023    26400    26794    27064    27160    27145    27087 
   27043    27074    27193    27303    27303    27216    27114    27033 
   26979    26905    26739    26476    26126    25677    25168    24672 
   24263    24011    23954    24131    24584    25245    25948    26617 
   27283    27873    28244    28429    28572    28667    28636    28529 
   28448    28374    28197    27884    27544    27248    26954    26635 
   26312    25964    25554    25124    24796    24625    24601    24717 
   24941    25281    25783    26343    26763    27005    27184    27340 
   27379    27291    27175    27076    26995    26962    26955    26921 
   26874    26836    26758    26599    26414    26226    25980    25683 
   25447    25362    25420    25596    25914    26366    26871    27344 
   27693    27857    27868    27824    27787    27673    27359    26913 
   26588    26519    26654    26879    27067    27086    26921    26642 
   26276    25821    25300    24763    24289    23978    23931    24165 
   24568    24993    25392    25822    26343    26967    27691    28462 
   29126    29597    29945    30190    30184    29820    29157    28314 
   27357    26338    25328    24401    23612    23008    22608    22419 
   22438    22646    23009    23498    24075    24694    25317    25918 
   26519    27197    27916    28522    28962    29313    29625    29849 
   29944    29975    29994    29920    29656    29185    28505    27577 
   26424    25230    24201    23390    22771    22368    22216    22311 
   22623    23094    23657    24287    24973    25660    26304    26892 
   27388    27778    28077    28304    28491    28653    28756    28809 
   28910    29127    29361    29417    29203    28728    28032    27203 
   26352    25497    24661    24005    23654    23535    23541    23652 
   23917    24408    25128    25998    26921    27814    28614    29309 
   29876    30276    30470    30434    30218    29920    29560    29100 
   28536    27882    27152    26393    25702    25166    24808    24590 
   24467    24433    24494    24638    24849    25139    25527    25991 
   26480    26940    27295    27472    27486    27421    27342    27272 
   27210    27136    27025    26939    26952    27002    26948    26754 
   26541    26434    26453    26519    26565    26580    26565    26481 
   26329    26161    26001    25847    25760    25790    25893    26041 
   26250    26505    26769    27036    27314    27614    27901    28131 
   28309    28422    28421    28310    28151    28004    27926    27946 
   28032    28096    28075    27984    27895    27838    27731    27502 
   27191    26865    26554    26285    26072    25883    25671    25402 
   25104    24856    24680    24537    24447    24444    24472    24502 
   24582    24711    24841    25006    25342    25902    26581    27292 
   27984    28584    29058    29392    29502    29301    28860    28372 
   27915    27417    26870    26361    25948    25617    25336    25134 
   25045    25019    25000    25034    25223    25609    26107    26584 
   26975    27310    27646    27982    28275    28487    28614    28651 
   28567    28370    28098    27746    27292    26763    26203    25672 
   25247    24957    24769    24646    24526    24387    24345    24511 
   24821    25184    25641    26287    27147    28181    29305    30435 
   31509    32428    33095    33498    33658    33534    33081    32391 
   31654    30944    30207    29455    28746    28053    27310    26508 
   25670    24818    23938    22999    22053    21236    20677    20440 
   20545    21006    21778    22815    24169    25839    27642    29378 
   30925    32143    32908    33247    33278    33066    32655    32119 
   31530    30956    30418    29889    29386    28923    28412    27765 
   26997    26149    25220    24200    23143    22123    21204    20470 
   19974    19710    19664    19797    20061    20479    21103    21887 
   22697    23457    24236    25122    26118    27085    27866    28452 
   28853    29058    29116    29085    28980    28811    28626    28499 
   28475    28491    28422    28188    27807    27367    26929    26435 
   25759    24872    23880    22972    22295    21875    21670    21620 
   21701    21971    22469    23129    23869    24634    25342    25902 
   26306    26650    27045    27545    28163    28872    29666    30565 
   31509    32346    32962    33339    33482    33370    32968    32281 
   31386    30389    29378    28417    27583    26925    26379    25814 
   25242    24771    24443    24217    24061    23961    23946    24034 
   24196    24457    24849    25319    25837    26391    26898    27247 
   27373    27310    27166    27059    27093    27297    27599    27880 
   28082    28247    28358    28271    27888    27280    26608    25984 
   25459    25110    25002    25066    25213    25455    25801    26157 
   26345    26238    25840    25220    24436    23537    22613    21771 
   21099    20687    20644    21024    21778    22763    23827    24881 
   25857    26680    27306    27681    27819    27878    27954    28044 
   28229    28603    29133    29712    30264    30732    31032    31044 
   30713    30121    29394    28574    27638    26613    25574    24646 
   23989    23692    23753    24143    24795    25578    26393    27193 
   27913    28462    28775    28848    28705    28397    28004    27637 
   27426    27402    27490    27656    27913    28215    28455    28533 
   28408    28111    27706    27218    26636    25974    25363    25020 
   25068    25452    26034    26716    27494    28409    29452    30546 
   31534    32235    32562    32602    32506    32298    31893    31217 
   30241    29023    27639    26088    24463    22960    21614    20326 
   19122    18145    17520    17286    17442    18026    19030    20305 
   21714    23240    24802    26235    27533    28760    29911    30925 
   31698    32142    32239    31977    31378    30462    29185    27504 
   25493    23332    21277    19573    18326    17504    17068    17059 
   17524    18428    19641    20934    22083    23002    23778    24517 
   25299    26230    27383    28736    30229    31772    33254    34600 
   35734    36506    36811    36717    36290    35467    34211    32648 
   30996    29377    27768    26115    24449    22913    21670    20785 
   20251    20027    20029    20235    20684    21361    22196    23174 
   24325    25610    26901    28120    29286    30339    31149    31644 
   31770    31498    30847    29875    28687    27481    26447    25594 
   24842    24201    23724    23418    23221    23056    22906    22812 
   22828    23004    23310    23685    24123    24630    25174    25706 
   26190    26616    27036    27438    27761    28047    28350    28593 
   28694    28671    28566    28404    28155    27768    27272    26742 
   26208    25686    25158    24584    23950    23257    22577    22045 
   21739    21664    21833    22207    22674    23126    23504    23842 
   24263    24819    25361    25762    26059    26342    26693    27171 
   27769    28451    29146    29762    30289    30784    31252    31669 
   32065    32483    32827    32957    32971    33046    33127    33031 
   32684    32142    31496    30751    29852    28836    27781    26750 
   25816    24973    24182    23579    23259    23080    22905    22647 
   22184    21529    20888    20439    20237    20290    20626    21271 
   22185    23280    24447    25583    26680    27749    28671    29350 
   29852    30218    30464    30622    30659    30493    30126    29691 
   29295    28923    28590    28378    28350    28458    28561    28516 
   28232    27703    26973    26090    25128    24182    23314    22546 
   21878    21334    20961    20810    20939    21351    21928    22527 
   23080    23635    24354    25294    26318    27290    28090    28606 
   28885    29093    29347    29679    30025    30358    30700    31027 
   31320    31595    31869    32175    32458    32562    32356    31781 
   30838    29555    27988    26269    24610    23167    22029    21296 
   21080    21402    22158    23160    24270    25431    26496    27256 
   27610    27604    27365    27058    26848    26866    27180    27807 
   28709    29851    31163    32474    33555    34252    34530    34392 
   33816    32892    31855    30840    29868    29008    28318    27793 
   27407    27094    26773    26439    26077    25621    25053    24336 
   23421    22414    21514    20803    20290    20029    20065    20345 
   20752    21151    21458    21655    21790    21930    22160    22584 
   23253    24138    25200    26478    27957    29465    30840    31985 
   32782    33154    33133    32775    32140    31248    30079    28683 
   27210    25782    24476    23404    22671    22319    22362    22778 
   23495    24425    25481    26590    27715    28786    29644    30184 
   30457    30542    30376    29878    29095    28120    27083    26129 
   25299    24609    24144    23908    23818    23841    23959    24054 
   23994    23803    23662    23757    24096    24557    25095    25749 
   26526    27288    27882    28325    28788    29359    29922    30281 
   30323    30014    29401    28605    27739    26860    26009    25250 
   24679    24348    24285    24501    24927    25438    25999    26650 
   27406    28228    29062    29897    30684    31284    31629    31770 
   31780    31627    31193    30458    29520    28395    27091    25759 
   24572    23491    22341    21120    20038    19284    18909    18864 
   19161    19882    21047    22549    24219    25890    27403    28636 
   29516    30010    30144    30032    29771    29339    28686    27831 
   26838    25818    24954    24386    24129    24042    23912    23641 
   23238    22723    22084    21352    20657    20181    20074    20424 
   21219    22395    23858    25412    26821    28034    29133    30082 
   30789    31205    31337    31280    31095    30716    30133    29457 
   28806    28231    27695    27117    26478    25779    24975    24067 
   23207    22615    22354    22354    22690    23599    25201    27352 
   29729    32073    34272    36224    37758    38735    39082    38743 
   37713    36181    34447    32663    30836    29095    27623    26536 
   25907    25675    25589    25428    25105    24603    23909    23004 
   21965    21008    20364    20160    20421    21174    22401    23913 
   25435    26775    27784    28264    28057    27184    25897    24580 
   23506    22724    22304    22369    22952    24004    25404    26974 
   28567    30045    31251    32138    32729    32981    32867    32449 
   31793    30950    30015    29101    28320    27693    27129    26581 
   26067    25574    25095    24668    24304    23996    23743    23564 
   23464    23355    23130    22794    22427    22100    21820    21541 
   21246    21042    21119    21618    22562    23857    25281    26649 
   27927    29054    29890    30345    30392    30076    29490    28713 
   27777    26742    25779    24977    24241    23519    22878    22434 
   22265    22329    22504    22667    22740    22690    22513    22265 
   22046    22017    22364    23166    24368    25880    27616    29471 
   31278    32948    34485    35768    36637    37096    37165    36840 
   36144    35009    33373    31376    29230    27112    25169    23360 
   21597    19993    18659    17626    16942    16568    16449    16611 
   17115    18010    19259    20821    22717    24931    27353    29818 
   32201    34399    36205    37417    38033    38148    37795    36977 
   35772    34284    32576    30680    28607    26399    24112    21755 
   19487    17571    16002    14871    14466    14652    15292    16548 
   18168    19835    21718    23943    26388    28973    31541    33806 
   35699    37296    38464    38966    38743    37837    36286    34261 
   32107    30011    27907    25824    23888    22192    20969    20412 
   20328    20491    20970    21917    23245    24629    25983    27403 
   28721    29852    30933    31877    32514    32840    32857    32520 
   31839    30935    29884    28657    27313    26009    24740    23417 
   22160    21147    20348    19745    19406    19269    19332    19712 
   20306    21058    22040    23120    24379    25991    27841    29883 
   31961    33691    34938    35753    36159    36169    35826    35193 
   34341    33334    32190    30944    29739    28740    28034    27538 
   27009    26319    25564    24781    23974    23256    22644    22179 
   22018    22080    22291    22697    23143    23592    24093    24410 
   24412    24202    23807    23197    22519    21963    21555    21358 
   21524    22060    22914    24046    25316    26528    27576    28502 
   29349    30075    30693    31263    31795    32323    32888    33420 
   33774    33890    33785    33419    32738    31758    30423    28622 
   26430    24057    21635    19251    17028    15094    13587    12653 
   12312    12482    13180    14466    16301    18608    21320    24339 
   27500    30549    33327    35858    38098    39873    41060    41654 
   41690    41210    40311    39070    37423    35332    32899    30285 
   27689    25277    23140    21335    19853    18678    17874    17496 
   17562    18079    19035    20371    21994    23845    25886    27989 
   29992    31814    33411    34707    35648    36256    36563    36526 
   36030    34938    33226    31000    28383    25510    22550    19662 
   16974    14646    12842    11615    10928    10821    11402    12687 
   14559    16802    19267    21906    24524    26916    29114    31194 
   33172    34998    36540    37720    38591    39164    39359    39124 
   38479    37388    35757    33567    30921    28039    25216    22632 
   20290    18196    16443    15128    14335    14092    14373    15157 
   16391    17952    19708    21552    23402    25207    26878    28340 
   29640    30844    31976    33011    33856    34447    34780    34789 
   34487    33957    33139    31993    30619    29079    27494    26017 
   24553    23074    21880    21118    20733    20821    21289    21917 
   22712    23580    24555    25834    27201    28521    29880    31071 
   32020    32888    33660    34161    34264    34013    33469    32664 
   31700    30619    29384    28017    26643    25346    24070    22878 
   21810    20773    19947    19487    19309    19458    19880    20564 
   21686    23082    24584    26199    27688    28908    29967    30869 
   31457    31654    31515    31027    30198    29208    28163    27078 
   26045    25119    24279    23529    22925    22473    22092    21795 
   21641    21563    21529    21618    21813    22040    22380    22891 
   23477    24061    24657    25266    25884    26531    27130    27533 
   27704    27735    27681    27572    27473    27413    27392    27479 
   27761    28239    28833    29516    30302    31098    31795    32373 
   32803    33014    32919    32425    31518    30337    29045    27646 
   26134    24618    23206    21942    20876    20082    19634    19553 
   19823    20424    21351    22589    24066    25655    27190    28544 
   29702    30681    31473    32073    32452    32578    32463    32125 
   31564    30802    29849    28687    27333    25867    24441    23191 
   22081    20984    19917    19082    18616    18517    18765    19359 
   20314    21609    23082    24524    25882    27206    28549    29925 
   31268    32421    33264    33836    34177    34221    33972    33463 
   32668    31631    30407    29049    27703    26464    25267    24063 
   22927    21964    21186    20584    20260    20268    20545    21046 
   21730    22546    23483    24543    25701    26859    27878    28694 
   29300    29675    29802    29718    29500    29207    28906    28645 
   28452    28354    28331    28305    28247    28188    28117    27970 
   27684    27209    26574    25955    25517    25281    25270    25585 
   26169    26835    27499    28162    28807    29452    30038    30388 
   30408    30152    29763    29361    28931    28390    27727    27010 
   26337    25768    25269    24748    24201    23784    23650    23766 
   24020    24408    24997    25797    26720    27683    28645    29558 
   30341    30912    31237    31365    31375    31315    31191    30966 
   30628    30186    29581    28740    27699    26607    25570    24583 
   23593    22635    21840    21290    20964    20838    20972    21420 
   22122    22937    23754    24506    25149    25691    26146    26522 
   26815    26952    26874    26626    26239    25747    25230    24764 
   24398    24128    23949    23935    24163    24652    25346    26096 
   26779    27365    27823    28132    28296    28300    28151    27904 
   27635    27464    27484    27706    28046    28374    28611    28732 
   28676    28393    27954    27519    27183    26875    26501    26088 
   25752    25570    25544    25658    25867    26099    26334    26624 
   26970    27279    27467    27535    27526    27463    27386    27332 
   27272    27136    26885    26543    26163    25756    25315    24889 
   24553    24259    23907    23504    23180    23055    23147    23425 
   23812    24208    24575    24953    25394    25917    26488    27079 
   27685    28294    28869    29390    29862    30271    30582    30751 
   30686    30322    29702    28939    28143    27383    26682    26036 
   25417    24841    24372    24067    23934    23947    24075    24266 
   24440    24553    24628    24706    24829    25029    25323    25697 
   26106    26536    27025    27595    28229    28917    29610    30218 
   30700    31083    31363    31491    31436    31226    30927    30539 
   30007    29290    28391    27372    26374    25532    24868    24324 
   23854    23481    23279    23292    23519    23905    24348    24791 
   25213    25583    25897    26172    26410    26619    26871    27214 
   27592    27909    28142    28321    28483    28588    28539    28262 
   27760    27121    26491    25984    25643    25447    25344    25309 
   25365    25520    25736    25951    26106    26183    26234    26350 
   26554    26786    27014    27268    27573    27916    28235    28487 
   28684    28823    28857    28763    28530    28163    27687    27164 
   26640    26083    25456    24826    24268    23797    23452    23295 
   23367    23669    24189    24892    25728    26627    27544    28458 
   29331    30105    30677    30931    30840    30499    30019    29479 
   28938    28458    28057    27657    27180    26634    26067    25492 
   24873    24174    23407    22597    21783    21070    20568    20302 
   20263    20486    21042    21952    23122    24394    25639    26812 
   27918    28942    29810    30429    30793    30981    31039    30962 
   30711    30272    29704    29038    28278    27452    26595    25728 
   24880    24078    23357    22738    22242    21890    21671    21609 
   21799    22315    23107    24069    25099    26115    27041    27778 
   28281    28617    28838    28902    28775    28472    28040    27561 
   27089    26622    26167    25770    25459    25215    25034    24981 
   25123    25452    25861    26214    26469    26657    26781    26848 
   26870    26829    26761    26701    26638    26577    26584    26709 
   26974    27348    27773    28173    28463    28594    28591    28513 
