Origin Time       2025/01/13 21:19:00
Lat.              31.8
Long.             131.6
Depth. (km)       30
Mag.              6.9
Station Code      OIT007
Station Lat.      33.4169
Station Long.     131.6142
Station Height(m) 21
Record Time       2025/01/13 21:20:03
Sampling Freq(Hz) 100Hz
Duration Time(s)  106
Dir.              U-D
Scale Factor      7845(gal)/8223790
Max. Acc. (gal)   3.261
Last Correction   2025/01/13 21:20:02
Memo.             
[...]
    9020     9215     9416     9626     9784     9798     9683     9580 
    9568     9603     9628     9582     9413     9171     8958     8822 
    8741     8668     8603     8584     8625     8723     8893     9097 
    9244     9288     9262     9246     9293     9423     9625     9876 
   10146    10404    10627    10759    10716    10477    10115     9714 
    9366     9201     9270     9479     9714     9907    10026    10066 
   10038     9975     9936     9914     9853     9753     9644     9540 
    9462     9420     9412     9428     9427     9387     9350     9342 
    9339     9317     9285     9244     9159     9015     8843     8683 
    8603     8694     8924     9157     9305     9343     9259     9103 
    8949     8815     8707     8633     8567     8534     8618     8824 
    9082     9323     9504     9612     9679     9778     9946    10131 
   10235    10214    10088     9934     9840     9825     9840     9846 
    9853     9877     9869     9756     9529     9227     8891     8587 
    8368     8226     8151     8122     8124     8187     8289     8326 
    8283     8220     8202     8341     8684     9124     9532     9810 
    9894     9826     9693     9560     9491     9471     9402     9281 
    9192     9120     9005     8873     8797     8814     8915     9081 
    9258     9343     9309     9262     9283     9362     9481     9612 
    9701     9783     9936    10126    10224    10150     9921     9595 
    9225     8866     8608     8511     8511     8518     8553     8654 
    8780     8887     8968     9004     9007     9001     8970     8938 
    8980     9059     9085     9032     8912     8761     8653     8621 
    8683     8888     9196     9468     9634     9721     9737     9678 
    9579     9499     9490     9580     9755     9946    10087    10157 
   10179    10180    10174    10173    10191    10220    10215    10138 
   10010     9873     9767     9725     9699     9580     9332     8989 
    8602     8268     8125     8237     8532     8850     9073     9174 
    9180     9158     9232     9433     9648     9764     9722     9505 
    9208     8993     8927     8955     9027     9123     9258     9433 
    9633     9855    10060    10149    10092     9950     9794     9661 
    9552     9405     9163     8865     8613     8461     8417     8455 
    8530     8633     8762     8884     8986     9080     9142     9189 
    9294     9479     9655     9717     9653     9552     9501     9559 
    9730     9927    10039    10019     9882     9668     9427     9217 
    9100     9062     9045     9042     9070     9100     9113     9132 
    9158     9173     9185     9202     9213     9185     9109     9035 
    9001     9013     9058     9101     9113     9103     9111     9166 
    9251     9328     9404     9490     9531     9489     9401     9251 
    9000     8707     8507     8495     8675     8997     9387     9726 
    9894     9849     9668     9495     9413     9397     9387     9296 
    9022     8577     8108     7770     7676     7848     8187     8545 
    8834     9031     9161     9279     9406     9513     9598     9683 
    9778     9873     9923     9845     9625     9347     9089     8915 
    8888     8970     9032     9034     9067     9209     9414     9601 
    9717     9714     9591     9443     9327     9227     9153     9155 
    9255     9417     9598     9745     9784     9711     9626     9612 
    9667     9742     9798     9842     9864     9790     9578     9263 
    8891     8538     8318     8256     8293     8343     8299     8144 
    7993     7944     8013     8193     8463     8773     9043     9229 
    9359     9447     9471     9456     9447     9418     9360     9310 
    9244     9173     9188     9304     9416     9450     9410     9336 
    9292     9316     9394     9493     9553     9506     9348     9161 
    9019     8943     8972     9154     9447     9720     9890     9946 
    9927     9923     9981    10071    10160    10212    10185    10065 
    9844     9545     9269     9067     8897     8734     8583     8417 
    8244     8140     8185     8392     8676     8916     9077     9181 
    9231     9246     9281     9342     9386     9390     9362     9325 
    9296     9273     9247     9215     9173     9132     9140     9213 
    9329     9512     9772    10029    10204    10289    10311    10305 
   10304    10312    10299    10204    10014     9780     9560     9379 
    9254     9162     9051     8912     8752     8571     8425     8390 
    8479     8646     8843     9016     9107     9123     9154     9269 
    9463     9698     9934    10134    10241    10227    10122     9965 
    9792     9640     9533     9460     9375     9254     9116     8981 
    8880     8870     8945     9058     9209     9360     9423     9394 
    9344     9275     9205     9234     9360     9478     9555     9599 
    9585     9524     9452     9385     9347     9319     9236     9082 
    8884     8662     8424     8162     7924     7780     7726     7750 
    7871     8040     8183     8301     8397     8460     8502     8509 
    8440     8318     8220     8205     8303     8472     8634     8765 
    8847     8854     8808     8752     8708     8723     8810     8938 
    9101     9296     9481     9630     9782     9977    10192    10334 
   10355    10280    10138     9949     9738     9509     9250     8958 
    8664     8461     8436     8540     8675     8776     8777     8653 
    8496     8434     8521     8745     9086     9479     9813    10039 
   10177    10237    10245    10208    10100     9961     9828     9680 
    9574     9590     9694     9829     9972    10069    10123    10207 
   10349    10546    10775    10991    11175    11342    11469    11512 
   11502    11480    11448    11408    11384    11352    11271    11145 
   11007    10868    10705    10486    10208     9868     9470     9097 
    8839     8650     8448     8263     8136     8019     7901     7862 
    7942     8132     8437     8843     9324     9818    10234    10524 
   10704    10808    10872    10881    10779    10590    10373    10120 
    9849     9621     9437     9281     9155     9070     9081     9225 
    9412     9537     9621     9691     9752     9838     9965    10079 
   10123    10066     9890     9647     9428     9263     9163     9163 
    9234     9277     9254     9188     9089     8986     8942     8992 
    9089     9153     9117     8959     8749     8607     8602     8730 
    8954     9190     9359     9433     9417     9350     9301     9281 
    9247     9170     9035     8853     8667     8518     8455     8519 
    8677     8829     8905     8915     8889     8862     8874     8965 
    9134     9342     9532     9674     9768     9826     9867     9910 
    9940     9919     9837     9694     9508     9315     9138     8957 
    8757     8559     8363     8163     8001     7909     7885     7928 
    8043     8243     8506     8780     9031     9261     9497     9779 
   10147    10598    11061    11442    11662    11697    11588    11388 
   11121    10832    10559    10269     9936     9598     9270     8942 
    8652     8444     8307     8199     8100     8013     7954     7942 
    7989     8128     8357     8607     8796     8878     8861     8796 
    8777     8881     9128     9462     9776     9971     9976     9772 
    9431     9084     8831     8722     8753     8850     8903     8849 
    8710     8569     8490     8455     8440     8445     8459     8463 
    8505     8629     8807     8969     9086     9184     9275     9363 
    9460     9531     9540     9545     9606     9675     9699     9668 
    9579     9450     9333     9269     9275     9366     9512     9676 
    9856    10034    10211    10404    10581    10677    10687    10611 
   10446    10272    10183    10185    10230    10268    10288    10330 
   10435    10582    10735    10882    10983    11013    11005    10944 
   10774    10519    10245     9945     9594     9201     8791     8376 
    7978     7658     7462     7356     7263     7138     6999     6912 
    6921     7030     7222     7454     7666     7840     8004     8194 
    8432     8722     9030     9278     9424     9482     9463     9359 
    9188     8953     8629     8239     7855     7511     7222     7021 
    6891     6804     6779     6863     7069     7404     7850     8309 
    8680     8962     9219     9475     9725     9942    10068    10038 
    9841     9521     9144     8754     8383     8055     7786     7585 
    7435     7288     7132     7003     6934     6966     7173     7574 
    8085     8595     9019     9309     9490     9640     9787     9902 
    9983    10046    10053     9933     9676     9347     9003     8695 
    8486     8387     8376     8451     8588     8748     8919     9109 
    9309     9520     9821    10322    11009    11696    12199    12447 
   12448    12279    12032    11776    11533    11277    11001    10733 
   10480    10210     9915     9633     9418     9306     9278     9258 
    9170     8984     8742     8563     8538     8629     8758     8868 
    8892     8838     8802     8851     8997     9219     9454     9633 
    9753     9844     9919     9985    10052    10147    10292    10469 
   10613    10659    10600    10461    10260    10023     9806     9643 
    9516     9390     9278     9247     9329     9468     9612     9761 
    9936    10141    10351    10550    10744    10929    11078    11198 
   11287    11288    11156    10917    10627    10296     9896     9437 
    8993     8640     8405     8310     8321     8341     8320     8267 
    8187     8087     7987     7912     7889     7919     7969     8004 
    8051     8124     8187     8252     8345     8398     8378     8380 
    8449     8514     8527     8491     8413     8293     8155     8071 
    8117     8255     8394     8527     8658     8750     8802     8842 
    8865     8861     8881     8958     9054     9108     9086     8966 
    8739     8453     8190     8013     7933     7928     7989     8104 
    8198     8245     8340     8579     8932     9319     9643     9809 
    9772     9564     9274     9027     8924     8995     9224     9562 
    9952    10326    10598    10739    10833    10974    11145    11263 
   11277    11226    11168    11132    11148    11242    11387    11510 
   11531    11410    11200    11011    10875    10767    10690    10643 
   10588    10490    10362    10228    10089     9917     9674     9418 
    9261     9220     9240     9271     9283     9261     9197     9097 
    8995     8943     8962     8993     8966     8862     8704     8519 
    8341     8243     8271     8372     8478     8563     8627     8685 
    8750     8793     8814     8862     8961     9086     9250     9463 
    9683     9845     9925     9956    10012    10126    10262    10382 
   10476    10536    10569    10538    10362    10037     9649     9278 
    8954     8726     8613     8565     8518     8446     8374     8336 
    8329     8345     8417     8565     8734     8856     8919     8935 
    8928     8957     9043     9138     9154     9036     8829     8642 
    8549     8565     8696     8903     9093     9243     9369     9424 
    9406     9410     9472     9555     9629     9690     9717     9659 
    9508     9347     9248     9178     9115     9081     9034     8908 
    8749     8622     8568     8629     8764     8883     8951     8978 
    8985     9031     9144     9283     9431     9598     9745     9822 
    9815     9697     9451     9120     8770     8456     8190     7924 
    7636     7380     7175     7028     6991     7080     7221     7364 
    7499     7591     7650     7730     7854     8040     8305     8625 
    8954     9223     9355     9348     9246     9088     8946     8889 
    8939     9082     9258     9375     9397     9354     9293     9263 
    9304     9417     9551     9617     9583     9489     9362     9211 
    9065     8974     8973     9070     9238     9444     9651     9795 
    9865     9929    10061    10268    10497    10708    10887    11056 
   11237    11439    11647    11824    11920    11904    11830    11762 
   11697    11597    11452    11265    11044    10787    10503    10179 
    9802     9369     8893     8444     8113     7948     7936     8024 
    8148     8272     8392     8522     8687     8912     9196     9495 
    9765     9976    10125    10218    10280    10316    10318    10292 
   10260    10208    10120    10025     9942     9864     9806     9822 
    9910    10000    10054    10077    10081    10085    10125    10207 
   10268    10220    10057     9819     9545     9289     9105     8981 
    8823     8588     8326     8114     7983     7956     8056     8236 
    8417     8598     8826     9100     9382     9639     9841     9964 
   10034    10102    10181    10288    10413    10511    10567    10613 
   10677    10779    10922    11079    11249    11425    11545    11597 
   11620    11618    11614    11670    11812    12008    12202    12326 
   12352    12306    12201    12039    11832    11578    11284    11014 
   10836    10778    10845    10998    11149    11218    11175    11036 
   10866    10731    10631    10538    10447    10349    10233    10122 
   10037     9967     9909     9883     9906     9968    10003     9938 
    9740     9424     9074     8769     8511     8289     8118     7993 
    7943     8062     8344     8699     9039     9261     9271     9055 
    8696     8320     8024     7830     7747     7755     7753     7658 
    7469     7209     6875     6489     6139     5926     5881     5941 
    6027     6107     6160     6178     6191     6187     6124     6023 
    5950     5940     6018     6176     6365     6554     6736     6886 
    7001     7117     7253     7376     7465     7541     7605     7642 
    7663     7705     7769     7823     7842     7832     7827     7836 
    7850     7875     7935     8059     8275     8530     8741     8874 
    8919     8880     8810     8780     8811     8872     8951     9067 
    9239     9452     9641     9728     9701     9610     9501     9420 
    9409     9455     9540     9674     9852    10025    10127    10123 
   10019     9863     9724     9659     9652     9644     9585     9487 
    9408     9390     9440     9522     9590     9621     9603     9509 
    9337     9123     8873     8607     8347     8108     7921     7816 
    7769     7746     7711     7627     7492     7357     7300     7392 
    7658     8041     8468     8893     9267     9570     9834    10077 
   10269    10430    10566    10643    10648    10574    10396    10152 
    9931     9791     9715     9644     9516     9308     9061     8866 
    8792     8853     9036     9283     9520     9751    10038    10369 
   10704    11040    11357    11607    11796    11954    12048    12037 
   11909    11676    11391    11165    11063    11075    11172    11287 
   11333    11292    11205    11110    11048    11018    10970    10874 
   10762    10666    10600    10574    10552    10470    10334    10211 
   10142    10149    10258    10438    10584    10623    10569    10440 
   10241    10002     9772     9574     9441     9413     9432     9417 
    9355     9244     9080     8893     8718     8548     8380     8209 
    8039     7916     7871     7913     8044     8240     8473     8727 
    8957     9119     9197     9194     9136     9088     9100     9175 
    9281     9355     9359     9306     9244     9201     9166     9138 
    9115     9067     9007     8993     9049     9154     9300     9467 
    9629     9768     9883     9998    10149    10347    10567    10782 
   10953    11044    11041    10955    10781    10532    10265    10017 
    9790     9612     9502     9447     9436     9474     9525     9555 
    9579     9614     9641     9633     9563     9425     9240     9020 
    8765     8495     8232     8009     7870     7821     7859     7979 
    8128     8237     8309     8379     8475     8590     8695     8784 
    8895     9040     9212     9396     9568     9706     9771     9714 
    9578     9485     9485     9549     9660     9792     9890     9917 
    9873     9761     9578     9335     9092     8911     8814     8808 
    8883     8970     9009     8986     8934     8905     8927     8954 
    8959     8969     8980     8951     8891     8814     8716     8595 
    8464     8375     8359     8388     8429     8476     8527     8557 
    8573     8603     8645     8706     8810     8946     9101     9317 
    9603     9895    10122    10284    10408    10496    10531    10523 
   10473    10338    10058     9674     9323     9080     8907     8787 
    8743     8789     8901     9035     9161     9256     9290     9251 
    9154     9018     8883     8800     8758     8739     8793     8943 
    9119     9259     9362     9454     9541     9620     9671     9682 
    9639     9537     9408     9312     9301     9378     9520     9690 
    9837     9921     9934     9888     9792     9683     9614     9597 
    9589     9549     9478     9418     9409     9425     9400     9297 
    9111     8827     8472     8139     7929     7871     7925     8052 
    8198     8286     8278     8197     8073     7942     7852     7844 
    7915     8043     8202     8375     8567     8781     9007     9219 
    9389     9460     9424     9328     9212     9108     9054     9040 
    9047     9096     9182     9240     9208     9089     8934     8760 
    8571     8398     8267     8151     8010     7857     7728     7663 
    7717     7896     8149     8409     8606     8710     8758     8816 
    8919     9096     9355     9645     9923    10168    10305    10281 
   10126     9917     9711     9525     9324     9082     8820     8568 
    8375     8318     8418     8634     8907     9188     9468     9736 
    9936    10054    10150    10251    10351    10444    10507    10512 
   10476    10404    10301    10211    10177    10187    10212    10269 
   10374    10489    10548    10534    10477    10417    10372    10363 
   10393    10407    10372    10318    10268    10231    10228    10234 
   10191    10079     9926     9771     9624     9471     9296     9088 
    8835     8542     8255     8020     7867     7824     7906     8091 
    8303     8482     8608     8689     8741     8791     8866     8968 
    9061     9107     9082     8986     8842     8675     8510     8387 
    8325     8325     8372     8440     8522     8627     8749     8873 
    9011     9170     9327     9444     9513     9548     9533     9458 
    9351     9224     9073     8918     8784     8703     8708     8814 
    8989     9212     9472     9730     9937    10091    10222    10350 
   10474    10606    10781    10975    11110    11149    11122    11071 
   11007    10956    10949    10957    10917    10806    10651    10488 
   10322    10152    10011     9919     9845     9744     9616     9454 
    9236     8985     8758     8590     8482     8421     8380     8338 
    8280     8185     8064     7959     7888     7861     7900     8010 
    8176     8375     8548     8645     8653     8598     8545     8548 
    8603     8721     8920     9189     9471     9701     9828     9849 
    9817     9811     9888    10039    10224    10386    10466    10462 
   10423    10389    10366    10342    10303    10249    10189    10137 
   10091    10041     9975     9899     9830     9778     9728     9659 
