Origin Time       2025/01/13 21:19:00
Lat.              31.8
Long.             131.6
Depth. (km)       30
Mag.              6.9
Station Code      OIT017
Station Lat.      32.8579
Station Long.     131.6576
Station Height(m) 251
Record Time       2025/01/13 21:20:00
Sampling Freq(Hz) 100Hz
Duration Time(s)  84
Dir.              U-D
Scale Factor      7845(gal)/8223790
Max. Acc. (gal)   4.826
Last Correction   2025/01/13 21:20:00
Memo.             
[...]
   12820    12540    12262    12000    11772    11681    11797    12037 
   12258    12451    12727    12857    12474    11854    11496    11445 
   11699    12096    12178    12043    12104    12305    12425    12393 
   12309    12237    12032    11730    11530    11550    11797    11974 
   11896    11843    11821    11682    11587    11404    10974    10820 
   11232    11676    11859    11971    11927    11715    11676    11789 
   11893    12158    12453    12513    12455    12244    11766    11260 
   10889    10828    11298    11878    12117    12270    12405    12243 
   11915    11688    11615    11712    11824    11684    11491    11632 
   11897    11954    12027    12252    12487    12698    12640    12202 
   11820    11726    11794    11781    11389    10990    11149    11500 
   11649    11799    11867    11767    11929    12372    12542    12360 
   12217    12285    12426    12372    12145    12158    12469    12645 
   12523    12266    11935    11713    11848    12113    12069    11808 
   11770    12031    12313    12506    12707    12849    12816    12619 
   12175    11520    11044    11044    11372    11651    11734    11812 
   11843    11604    11389    11412    11291    11088    11279    11689 
   11919    12019    12170    12440    12656    12518    12120    11857 
   11812    11830    11880    11966    11998    11944    11861    11819 
   11870    11931    11885    11827    11843    11754    11449    11134 
   11117    11426    11803    12083    12244    12264    12210    12040 
   11703    11581    12000    12602    12914    12820    12476    12233 
   12139    11769    11291    11381    11877    12121    12071    11997 
   11975    11865    11506    11213    11437    11894    12120    12236 
   12298    12048    11657    11556    11726    11803    11686    11653 
   11831    12055    12175    12174    12210    12376    12434    12376 
   12532    12702    12414    11805    11300    10993    10813    10794 
   10986    11246    11283    11109    11203    11688    12069    12083 
   11846    11554    11583    11912    12052    12027    12125    12154 
   11940    11686    11557    11519    11448    11279    11151    11269 
   11603    11886    12067    12360    12673    12717    12600    12509 
   12320    12043    11794    11570    11469    11519    11519    11524 
   11754    12073    12299    12437    12366    12087    11890    11801 
   11713    11794    11965    11969    11936    11881    11788    12010 
   12167    11545    10849    11053    11759    12256    12418    12405 
   12428    12438    12322    12297    12348    12210    12160    12372 
   12339    11975    11722    11526    11272    11383    11898    11998 
   11410    10953    10945    11030    11308    11665    11653    11641 
   11961    12232    12387    12492    12395    12403    12629    12374 
   11626    11345    11711    12221    12711    12779    12110    11419 
   11257    11310    11408    11709    12152    12348    12056    11665 
   11449    11070    10669    10848    11429    11745    11558    11184 
   11261    11952    12588    12727    12677    12730    12721    12441 
   12024    11647    11335    11273    11516    11638    11535    11643 
   11936    12039    11998    11954    11789    11469    11236    11341 
   11669    11820    11612    11225    11071    11388    11726    11614 
   11465    11685    11871    11836    11986    12332    12468    12318 
   12083    11908    11912    12101    12199    12056    11951    12028 
   12105    12136    12066    11917    11975    12106    12064    12185 
   12398    12167    11774    11785    12121    12525    12712    12422 
   11857    11371    11091    11124    11356    11510    11801    12414 
   12880    13000    13163    13325    13131    12791    12586    12301 
   11919    11808    11900    11812    11605    11488    11412    11412 
   11516    11607    11769    12155    12530    12490    12039    11601 
   11410    11380    11466    11530    11453    11499    11834    12185 
   12231    11882    11537    11529    11337    10802    10781    11330 
   11596    11618    11928    12357    12579    12557    12233    11719 
   11394    11379    11445    11491    11599    11649    11495    11372 
   11456    11574    11703    11950    12274    12568    12676    12580 
   12445    12228    11857    11553    11581    11902    12226    12461 
   12522    12071    11542    11677    11889    11550    11053    10567 
   10384    10982    11739    12114    12403    12383    11874    11427 
   11307    11503    11935    12204    12189    12024    11655    11492 
   12048    12874    13257    13127    12730    12359    12168    11936 
   11685    11745    11969    12015    11880    11695    11514    11364 
   11450    11804    11924    11749    11942    12468    12611    12347 
   12280    12494    12291    11587    11379    11881    12191    12035 
   11632    10916    10343    10594    11176    11367    11500    11786 
   11875    11898    11961    11695    11249    11225    11711    12361 
   12953    13371    13231    12401    11758    11830    11782    11369 
   11514    12158    12401    12243    12316    12893    13487    13215 
   12189    11495    11520    11608    11287    11009    11269    11468 
   10936    10477    10949    11526    11410    11307    11685    12137 
   12600    12819    12440    12171    12314    12204    12132    12569 
   12791    12434    11966    11605    11637    12220    12449    11724 
   10949    10789    11011    11429    11462    10878    10804    11524 
   11720    11182    11160    11983    12688    12548    11881    11572 
   11861    11979    11691    11753    12177    12199    11854    11699 
   11871    12271    12823    13435    13738    13382    12826    12523 
   11923    10930    10570    11221    12047    12310    12218    12337 
   12490    12217    11819    11615    11516    11734    12155    12229 
   12274    12699    12826    12461    12264    11994    11187    10631 
   11001    11662    11997    12141    12123    11967    12131    12587 
   12862    13027    13158    13153    13331    13420    12843    12387 
   12627    12630    12136    11820    11695    11603    11394    10774 
   10323    10617    11028    11271    11715    12008    11958    11946 
   11672    11167    11400    12206    12528    12267    11732    11223 
   11419    12183    12405    12121    12252    12318    11597    11178 
   11827    12463    12523    12532    12321    11541    10747    10571 
   10987    11423    11458    11646    12422    12930    12575    11772 
   11018    10833    11082    11115    11514    12661    13440    13518 
   13176    12185    11244    10929    10416     9860    10258    11061 
   11362    11361    11136    10523    10107    10351    10783    11233 
   12027    12702    12622    12290    12290    12222    11871    11738 
   12002    12415    12750    12730    12550    12783    13035    12715 
   12402    12309    11950    11734    11907    12090    12492    12692 
   11947    11468    12233    12965    12750    12133    11726    11757 
   11889    11794    11925    12410    12604    12449    12256    11797 
   11184    10989    11076    11021    11006    11187    11384    11670 
   12027    12081    11959    12056    12166    12044    11952    12042 
   12185    12285    12361    12575    12853    12892    12640    12262 
   12046    12064    11874    11456    11307    11380    11573    11927 
   11975    11762    11819    11780    11383    11302    11545    11402 
   11075    11103    11156    11171    11697    12409    12839    13385 
   13724    13228    12758    12960    12893    12036    11163    10949 
   11121    11184    11245    11412    11628    12010    12063    11264 
   10519    10652    11257    12117    12919    12625    11515    11011 
   11094    11038    11029    11376    12075    12758    12754    12239 
   12039    12241    12407    12336    12224    12397    12683    12737 
   12595    12205    11487    10864    10667    10716    10951    11303 
   11306    10829    10435    10492    10828    11213    11453    11560 
   11854    12114    11790    11399    11697    12025    11659    11354 
   11684    12063    12307    12572    12474    12195    12294    12213 
   11616    11313    11496    11854    12436    12808    12629    12498 
   12530    12100    11385    11187    11657    12291    12633    12591 
   12228    11746    11512    11499    11396    11242    10967    10458 
   10238    10713    11529    12112    12047    11511    11379    12082 
   12964    13274    13054    12687    12332    11916    11395    11067 
   11179    11516    12100    12864    13120    13054    13273    13061 
   12384    12337    12387    11776    11454    11777    12101    12179 
   11747    11215    11626    12375    12164    11345    10825    10824 
   10963    10579    10023    10305    11005    11113    10993    11371 
   12012    12378    12228    11685    11321    11433    11562    11443 
   11323    11388    11684    12094    12394    12518    12492    12441 
   12586    12945    13371    13616    13360    12787    12576    12845 
   12888    12329    11631    11273    11375    11774    11986    11909 
   12109    12594    12623    12055    11627    11805    12043    11753 
   11516    11927    12290    12098    11819    11578    11358    11638 
   12286    12548    12293    11889    11562    11349    11248    11522 
   12204    12515    12194    12116    12374    12186    11869    12116 
   12388    12089    11711    11643    11568    11449    11485    11443 
   11209    10974    10727    10600    10847    11182    11346    11553 
   11807    12067    12344    12282    11983    12037    12263    12328 
   12529    12687    12349    11938    11676    11114    10551    10519 
   10681    10743    10755    10561    10227    10100    10262    10536 
   10717    10821    11025    11218    11296    11430    11591    11664 
   11557    11151    10928    11299    11529    11209    10991    11020 
   11018    11051    10959    10677    10644    10980    11318    11489 
   11704    12105    12303    11909    11292    11055    11322    11820 
   12121    11992    11551    11047    10862    11172    11461    11412 
   11497    11919    12403    12845    13036    12722    12245    11934 
   11510    10936    10573    10443    10507    10848    11090    10910 
   10751    10957    11322    11739    12197    12474    12474    12187 
   11543    10955    11133    11921    12432    12432    12483    12746 
   12873    12853    12943    13158    13405    13505    13263    12982 
   13059    13090    12613    11969    11611    11581    11784    12031 
   12028    11722    11503    11767    12229    12383    12422    12518 
   12425    12405    12636    12653    12571    12688    12522    12097 
   12032    12094    11916    11824    11865    11808    11867    12078 
   12027    11734    11696    12117    12528    12294    11657    11373 
   11476    11653    11886    11988    12060    12636    13333    13479 
   13533    13867    13933    13360    12394    11688    11624    11557 
   11056    10881    11242    11480    11781    12456    12922    13166 
   13664    13948    13618    13142    12658    12172    12240    12781 
   13030    13007    12996    12802    12569    12517    12420    12299 
   12209    11869    11430    11125    10724    10368    10247    10031 
    9833    10035    10451    11037    11828    12185    11873    11534 
   11313    10771    10084     9953    10471    11067    11460    11827 
   12297    12843    13301    13329    12877    12498    12421    12110 
   11365    10654    10277    10035     9736     9513     9418     9290 
    9150     8972     8572     8159     7958     7639     7173     7055 
    7227     7226     7230     7672     8306     8870     9563    10168 
   10396    10744    11265    11211    10867    11211    11932    12329 
   12811    13679    14422    14921    15543    16129    16206    15855 
   15487    15161    14956    15241    15932    16468    16596    16583 
   16734    16713    16131    15450    14845    13736    12341    11624 
   11812    12225    12204    11943    12004    12313    12474    12258 
   11761    11591    11965    12231    12190    12260    12386    12422 
   12550    12776    13103    13549    13756    13599    13468    13371 
   12974    12364    11770    11215    10793    10656    10750    10836 
   10849    10925    11053    11090    11226    11724    12090    11855 
   11677    12036    12383    12441    12468    12546    12842    13448 
   13782    13687    13961    14771    15414    15651    15547    14999 
   14493    14450    14243    13663    13296    13088    12850    12906 
   13003    12683    12248    11848    11342    11161    11365    11121 
   10328     9823     9778     9641     9300     9213     9583     9967 
   10050    10081    10156    10184    10270    10243     9907     9659 
    9722    10010    10702    11550    12046    12549    13315    13840 
   14067    14141    13959    13892    13984    13567    12870    12633 
   12518    12029    11410    10833    10288     9830     9350     8900 
    8761     8765     8591     8329     8000     7533     7276     7334 
    7335     7321     7469     7655     8194     9215    10012    10574 
   11317    11684    11611    11808    11978    11788    11719    11678 
   11437    11341    11219    10843    10702    10959    11396    11892 
   11965    11470    11196    11394    11408    11276    11529    11902 
   12177    12780    13664    14330    14798    15222    15527    15765 
   15992    16262    16622    16823    16792    16835    16942    16862 
   16627    16345    16178    16324    16528    16451    16363    16418 
   16146    15522    15102    14894    14662    14508    14377    14177 
   13938    13459    12849    12571    12563    12679    13088    13440 
   13285    13045    13104    13065    12812    12717    12555    12020 
   11600    11456    11070    10561    10343    10091     9663     9539 
    9647     9661     9910    10338    10138     9335     8818     8748 
    8681     8699     9036     9432     9656     9775     9749     9553 
    9359     9074     8430     7750     7603     7786     7835     7947 
    8349     8780     8997     9045     9082     9088     8807     8236 
    7674     7387     7489     7813     8158     8586     8980     9009 
    8804     8923     9513    10021    10091    10179    10735    11531 
   12235    12831    13348    13792    14137    14235    14108    14042 
   14127    14152    14146    14358    14773    15145    15348    15461 
   15565    15612    15510    15032    14125    13390    13228    13115 
   12748    12599    12846    13030    12868    12532    12236    12128 
   12222    12360    12669    13302    13896    14154    14202    14243 
   14364    14374    14108    13707    13301    13045    13165    13439 
   13597    13825    14026    13883    13753    13915    13932    13684 
   13408    12911    12282    11923    11615    11195    11016    11088 
   11256    11538    11743    11846    12096    12455    12901    13359 
   13342    12843    12387    11994    11615    11454    11118    10295 
    9707     9806    10130    10396    10489    10301    10149    10056 
    9641     9151     8850     8459     8176     8320     8494     8492 
    8687     9252     9949    10547    10932    10974    10849    11014 
   11314    11183    10837    10836    10956    11045    11562    12233 
   12344    12145    11912    11300    10674    10654    10746    10597 
   10906    11739    12347    12803    13502    14029    14138    14206 
   14264    14173    14022    13826    13648    13552    13251    12572 
   11807    11250    10974    10890    10913    11175    11669    12017 
   12150    12266    12244    12085    12156    12528    12838    12860 
   12769    12683    12441    12248    12340    12263    11977    12055 
   12158    11817    11531    11402    11136    10935    10787    10608 
   10755    11110    11199    11070    10897    10770    10781    10779 
   10867    11599    12911    13998    14566    14940    15074    14710 
   14096    13566    13116    12685    12181    11573    11110    10905 
   10658    10222    10056    10480    10949    10909    10604    10436 
   10467    10633    10897    11311    11785    11952    11863    11893 
   11990    12208    12796    13278    13356    13730    14486    14872 
   14859    14802    14613    14230    13705    13131    12880    13086 
   13185    12677    11897    11429    11114    10477     9815     9661 
    9779     9805     9855    10037    10362    10713    10593     9946 
    9598     9821     9941     9884    10177    10616    10747    10805 
   10952    10991    11070    11416    11786    12001    12344    12966 
   13537    13752    13644    13338    12942    12513    12016    11620 
   11566    11670    11750    11943    12187    12243    12133    11978 
   11749    11556    11605    11755    11809    11840    11944    12314 
   12945    13254    13050    12852    12808    12735    12619    12305 
   11738    11315    11286    11327    11159    11001    11064    11307 
   11673    11975    12140    12382    12576    12476    12476    12873 
   13181    13225    13458    13684    13451    13140    13003    12633 
   12136    11913    11851    11824    11819    11819    12125    12648 
   12580    11928    11500    11354    11276    11357    11315    11129 
   11260    11558    11790    12218    12731    13122    13489    13635 
   13491    13467    13563    13458    13267    13240    13335    13495 
   13721    13829    13628    13250    13020    13081    13393    13891 
   14413    14706    14678    14403    13876    13127    12322    11531 
   10763    10145     9737     9501     9360     9193     8989     8750 
    8384     8027     7834     7666     7584     7774     7978     7977 
    8058     8388     8761     9139     9632    10054    10320    10685 
   11142    11539    12110    12896    13539    14018    14544    15140 
   15795    16325    16395    16066    15680    15267    14733    14272 
   13967    13628    13274    13000    12714    12402    12086    11786 
   11745    11958    11982    11828    11977    12237    11977    11253 
   10639    10443    10551    10628    10548    10485    10409    10185 
   10071    10262    10512    10513    10137     9576     9167     8862 
    8680     8900     9232     9323     9478     9715     9779     9923 
   10177    10233    10330    10596    10701    10835    11344    11970 
   12557    13317    14053    14493    14931    15438    15665    15712 
   15715    15338    14658    14088    13581    13084    12752    12430 
   12056    11835    11727    11653    11677    11639    11470    11503 
   11807    12226    12937    13807    14262    14328    14343    14214 
   14022    13988    13806    13317    12933    12827    12742    12586 
   12460    12364    12218    12012    11821    11650    11414    11176 
   11036    10945    11010    11404    11944    12356    12695    12993 
   13112    13100    13001    12677    12231    11920    11724    11522 
   11273    10963    10746    10719    10608    10377    10336    10404 
   10384    10405    10436    10296    10012     9670     9424     9553 
   10072    10631    11061    11596    12185    12455    12510    12577 
   12533    12511    12590    12490    12425    12706    13014    13208 
   13346    13132    12676    12460    12333    11961    11637    11622 
