Origin Time       2025/01/13 21:19:00
Lat.              31.8
Long.             131.6
Depth. (km)       30
Mag.              6.9
Station Code      OIT003
Station Lat.      33.5575
Station Long.     131.4460
Station Height(m) 5
Record Time       2025/01/13 21:20:10
Sampling Freq(Hz) 100Hz
Duration Time(s)  108
Dir.              N-S
Scale Factor      7845(gal)/8223790
Max. Acc. (gal)   5.829
Last Correction   2025/01/13 21:20:11
Memo.             
[...]
    1647     1428     1200      961      729      529      375      328 
     419      591      746      816      812      810      861      974 
    1139     1344     1571     1765     1871     1861     1752     1582 
    1417     1318     1300     1341     1437     1597     1807     2025 
    2241     2448     2569     2543     2403     2196     1948     1655 
    1310      958      643      390      214      144      224      471 
     835     1252     1683     2089     2404     2575     2632     2646 
    2620     2532     2432     2389     2432     2547     2646     2668 
    2620     2515     2385     2272     2182     2123     2053     1914 
    1741     1587     1426     1235     1058      923      768      569 
     387      224       60      -17       79      324      626      891 
    1053     1093     1043      989     1016     1117     1213     1256 
    1291     1382     1514     1622     1690     1713     1671     1582 
    1464     1312     1163     1046      932      824      801      889 
     984      978      842      602      342      176      168      294 
     460      589      692      819      990     1192     1370     1510 
    1656     1776     1776     1655     1482     1305     1188     1183 
    1216     1185     1124     1089     1089     1143     1248     1358 
    1397     1368     1339     1264     1081      837      631      511 
     446      402      345      287      286      313      303      311 
     398      537      670      777      858      934     1044     1181 
    1274     1321     1398     1514     1611     1678     1745     1796 
    1833     1911     2053     2243     2450     2585     2587     2478 
    2324     2224     2232     2323     2496     2751     3051     3335 
    3538     3649     3747     3883     3987     3986     3916     3855 
    3829     3832     3793     3628     3358     3041     2678     2265 
    1844     1470     1208     1094     1096     1166     1309     1566 
    1933     2339     2695     2961     3118     3144     3083     3030 
    3022     3044     3078     3095     3069     3024     3006     3025 
    3067     3130     3167     3113     3001     2933     2914     2829 
    2609     2322     2049     1822     1583     1243      810      407 
     135        6      -12       36      105      190      309      444 
     575      687      730      680      600      569      598      681 
     826      997     1162     1358     1553     1641     1629     1644 
    1740     1891     2087     2336     2573     2660     2563     2381 
    2192     1980     1726     1478     1287     1155     1086     1081 
    1086     1075     1061     1005      847      618      405      240 
     103      -27     -175     -325     -469     -623     -761     -862 
    -922     -900     -737     -430      -21      461      966     1358 
    1576     1678     1702     1687     1674     1622     1490     1287 
    1023      727      508      468      585      791     1030     1251 
    1426     1548     1610     1657     1732     1827     1915     1912 
    1737     1404      966      484       71     -178     -270     -259 
    -197     -109       12      163      303      406      415      290 
      59     -249     -583     -811     -861     -741     -468      -74 
     369      724      896      893      803      772      877     1008 
    1042      992      949      982     1125     1331     1483     1570 
    1676     1825     1972     2126     2336     2609     2922     3275 
    3658     4028     4293     4417     4479     4515     4442     4207 
    3844     3416     3001     2679     2471     2332     2243     2224 
    2257     2288     2289     2253     2139     1910     1625     1444 
    1435     1506     1555     1522     1416     1336     1360     1441 
    1528     1626     1694     1647     1463     1173      801      423 
     102     -163     -386     -535     -531     -302       93      502 
     846     1165     1480     1779     2016     2143     2107     1896 
    1576     1225      892      612      403      275      247      314 
     483      778     1151     1487     1692     1733     1706     1750 
    1942     2273     2644     2928     3121     3360     3717     4104 
    4405     4565     4537     4333     4067     3825     3554     3194 
    2832     2608     2556     2674     2917     3125     3163     3051 
    2855     2589     2261     1904     1582     1333     1135      990 
     924      886      838      796      747      649      496      307 
      95     -130     -349     -531     -670     -780     -865     -926 
    -954     -953     -949     -930     -831     -600     -237      201 
     648     1073     1489     1904     2299     2614     2785     2787 
    2678     2569     2555     2666     2884     3168     3430     3585 
    3599     3473     3241     2947     2660     2420     2238     2160 
    2211     2380     2673     3067     3477     3811     3966     3902 
    3674     3366     3060     2810     2617     2469     2347     2203 
    1971     1601     1039      283     -561    -1393    -2153    -2717 
   -2970    -2930    -2690    -2343    -1961    -1563    -1131     -657 
    -129      432      950     1406     1830     2208     2531     2826 
    3091     3307     3461     3559     3631     3678     3689     3628 
    3435     3145     2893     2762     2739     2760     2770     2775 
    2848     3002     3137     3202     3225     3214     3184     3129 
    2984     2718     2344     1903     1485     1192     1070     1065 
    1061      951      696      325      -86     -449     -695     -851 
    -985    -1098    -1113     -953     -643     -272      124      529 
     918     1291     1625     1834     1834     1668     1441     1186 
     955      793      610      402      349      538      842     1135 
    1389     1566     1602     1509     1356     1201     1092     1035 
     934      711      409      112     -106     -247     -325     -313 
    -251     -209     -195     -221     -272     -283     -230     -137 
       6      198      391      564      685      724      668      525 
     334      167      136      324      654      992     1318     1719 
    2223     2756     3226     3559     3728     3774     3763     3730 
    3684     3639     3553     3348     3032     2652     2172     1606 
    1129      926     1030     1339     1679     1910     2018     2049 
    1998     1825     1543     1182      800      521      414      440 
     533      657      849     1156     1548     1922     2166     2212 
    2069     1853     1764     1914     2286     2851     3551     4328 
    5124     5780     6139     6185     5994     5653     5247     4911 
    4783     4837     4962     5053     4928     4452     3680     2745 
    1755      773     -162     -978    -1567    -1915    -2122    -2265 
   -2365    -2442    -2531    -2673    -2847    -2976    -3021    -2948 
   -2670    -2189    -1663    -1290    -1161    -1177    -1167    -1057 
    -859     -612     -319        9      337      643      912     1132 
    1343     1551     1741     1958     2199     2415     2574     2617 
    2523     2346     2164     2026     1958     1961     2019     2085 
    2079     1944     1737     1555     1421     1382     1474     1583 
    1594     1549     1580     1792     2141     2523     2911     3319 
    3800     4355     4866     5259     5536     5719     5853     5937 
    5988     6043     6080     6049     5931     5733     5435     5020 
    4544     4102     3728     3391     3103     2925     2894     2968 
    3044     3088     3106     3025     2789     2439     2058     1680 
    1313     1023      888      905     1024     1188     1356     1517 
    1633     1590     1325      918      483      149       12       45 
     172      318      382      322      172      -25     -248     -486 
    -745     -978    -1096    -1047     -851     -567     -298     -120 
     -39      -66     -193     -353     -496     -589     -581     -461 
    -321     -206      -68       67      128      114       45      -89 
    -280     -490     -631     -656     -608     -579     -649     -818 
    -990    -1123    -1223    -1254    -1185    -1032     -735     -191 
     573     1360     1962     2312     2420     2347     2274     2357 
    2600     2922     3206     3356     3388     3366     3331     3346 
    3451     3558     3557     3474     3427     3429     3338     3032 
    2542     1968     1377      874      554      379      309      403 
     726     1262     1938     2685     3422     4090     4638     4946 
    4942     4725     4421     4068     3697     3380     3152     2965 
    2747     2408     1871     1144      365     -257     -627     -785 
    -753     -552     -272       14      271      448      575      756 
    1019     1310     1605     1915     2199     2400     2548     2690 
    2849     2974     2924     2636     2135     1466      726       94 
    -256     -299     -164        6      110      101       14     -108 
    -232     -292     -259      -91      264      715     1134     1530 
    1907     2253     2612     2922     3079     3146     3180     3134 
    3064     3042     3001     2914     2822     2652     2336     1968 
    1684     1568     1611     1701     1695     1567     1412     1308 
    1192      966      654      307      -90     -508     -811     -901 
    -807     -611     -371     -124      113      387      735     1156 
    1599     1995     2365     2760     3137     3422     3599     3684 
    3766     3937     4175     4364     4403     4239     3863     3311 
    2666     2050     1570     1263     1094      978      873      769 
     625      406      116     -174     -344     -346     -257     -130 
       4       86       74      -14     -133     -233     -282     -240 
     -79      190      525      897     1278     1583     1752     1815 
    1861     1948     2070     2195     2268     2254     2145     1911 
    1557     1121      615       85     -434     -959    -1437    -1761 
   -1922    -1996    -2019    -1961    -1831    -1644    -1333     -864 
    -267      407     1105     1756     2297     2729     3110     3511 
    3986     4494     4970     5412     5810     6164     6470     6700 
    6879     7024     7047     6912     6647     6259     5823     5418 
    5013     4614     4307     4068     3774     3370     2878     2320 
    1698      986      194     -571    -1150    -1460    -1551    -1551 
   -1540    -1507    -1417    -1269    -1162    -1264    -1668    -2358 
   -3187    -3902    -4306    -4374    -4135    -3604    -2883    -2168 
   -1614    -1258    -1026     -818     -610     -398     -113      307 
     857     1456     2007     2493     2891     3154     3322     3443 
    3499     3505     3549     3701     3942     4195     4448     4737 
    5073     5418     5691     5796     5659     5260     4707     4160 
    3708     3365     3121     2948     2809     2664     2515     2370 
    2199     1992     1802     1630     1432     1248     1159     1183 
    1274     1385     1497     1587     1672     1836     2116     2462 
    2767     2978     3095     3123     3073     2934     2686     2323 
    1873     1420     1007      625      305       78      -29        1 
      75       86       35      -64     -191     -265     -261     -217 
    -179     -183     -217     -286     -429     -652     -969    -1358 
   -1705    -1908    -1919    -1717    -1343     -931     -567     -228 
      99      346      479      606      872     1310     1833     2339 
    2798     3171     3369     3357     3183     2921     2671     2556 
    2628     2825     3094     3414     3694     3839     3847     3731 
    3487     3115     2670     2293     2103     2093     2230     2465 
    2716     2963     3229     3472     3627     3700     3677     3495 
    3171     2805     2490     2230     1965     1696     1429     1148 
     945      888      943     1116     1371     1607     1814     1966 
    2043     2142     2263     2313     2315     2307     2327     2424 
    2558     2694     2871     3115     3441     3771     3964     3963 
    3785     3466     3096     2700     2258     1849     1489     1109 
     700      270     -140     -456     -688     -850     -953    -1055 
   -1169    -1271    -1362    -1416    -1467    -1574    -1703    -1786 
   -1806    -1807    -1826    -1807    -1692    -1551    -1516    -1626 
   -1814    -1971    -2022    -1952    -1791    -1578    -1314     -990 
    -645     -292       86      449      765     1016     1159     1213 
    1235     1225     1178     1108     1017      920      885      934 
     978      946      877      818      769      777      893     1101 
    1358     1621     1864     2066     2189     2193     2124     2088 
    2166     2397     2670     2778     2652     2363     2037     1807 
    1757     1861     2023     2150     2211     2209     2127     1918 
    1576     1165      769      471      345      452      785     1206 
    1549     1741     1796     1779     1730     1609     1391     1135 
     912      804      864     1075     1433     1877     2284     2585 
    2770     2814     2722     2583     2521     2596     2794     3129 
    3645     4252     4774     5098     5166     4992     4672     4290 
    3905     3613     3534     3703     4045     4422     4689     4762 
    4584     4167     3647     3136     2658     2257     1976     1783 
    1571     1262      796      112     -727    -1566    -2286    -2825 
   -3218    -3550    -3842    -4102    -4363    -4558    -4618    -4573 
   -4433    -4144    -3751    -3358    -2978    -2544    -2022    -1405 
    -716      -13      633     1121     1414     1574     1660     1761 
    2023     2501     3096     3771     4552     5382     6154     6760 
    7134     7279     7230     7060     6856     6650     6435     6214 
    6000     5806     5614     5432     5277     5151     5065     4995 
    4931     4872     4761     4591     4429     4272     4071     3875 
    3734     3558     3246     2809     2357     2000     1728     1495 
    1328     1182      931      527       18     -533    -1066    -1564 
   -2018    -2385    -2690    -2975    -3165    -3253    -3315    -3319 
   -3237    -3118    -2953    -2776    -2668    -2598    -2455    -2195 
   -1879    -1564    -1205     -734     -125      568     1250     1892 
    2481     2938     3273     3545     3689     3727     3789     3888 
    3983     4052     4023     3898     3754     3639     3616     3726 
    3925     4155     4342     4473     4564     4556     4422     4220 
    3989     3758     3497     3132     2685     2220     1764     1358 
    1030      781      633      572      537      491      365       91 
    -298     -704    -1043    -1252    -1277    -1092     -789     -515 
    -341     -268     -222     -133       -1      155      346      604 
     938     1285     1566     1741     1809     1810     1825     1968 
    2324     2894     3588     4267     4801     5104     5127     4895 
    4472     3935     3369     2821     2317     1895     1563     1287 
    1028      754      490      352      421      643      913     1132 
    1221     1119      851      518      190     -113     -361     -517 
    -584     -583     -523     -400     -195       70      328      526 
     648      672      585      433      275      168      174      294 
     477      697      931     1124     1194     1112      907      630 
     382      221      101      -24     -129     -168     -112       24 
     201      413      665      927     1178     1444     1740     2065 
    2421     2775     3114     3435     3673     3788     3832     3846 
    3827     3753     3551     3161     2628     2026     1414      835 
     325      -49     -282     -434     -517     -500     -409     -305 
    -206      -98        8      149      369      639      954     1287 
    1559     1750     1885     1979     2045     2058     2011     1971 
    1927     1790     1506     1055      479     -109     -623    -1011 
   -1208    -1182     -916     -464       32      471      831     1154 
    1491     1850     2222     2608     2972     3254     3435     3569 
    3732     3954     4202     4414     4550     4638     4677     4611 
    4437     4182     3877     3564     3285     3059     2867     2656 
    2385     2062     1744     1468     1262     1155     1127     1123 
    1136     1201     1337     1526     1717     1876     2022     2145 
    2188     2143     2023     1823     1545     1210      861      491 
      98     -229     -410     -449     -363     -184       -5      116 
     170      190      247      406      654      911     1143     1387 
    1638     1857     2035     2166     2241     2311     2442     2644 
    2882     3106     3298     3473     3632     3782     3943     4085 
    4141     4082     3942     3767     3584     3416     3275     3146 
    3049     3002     2986     2997     3019     2992     2890     2739 
    2548     2290     1931     1520     1171      962      843      691 
     441      136     -175     -459     -681     -857    -1030    -1224 
   -1435    -1605    -1687    -1667    -1555    -1406    -1259    -1070 
    -814     -527     -255       -9      191      334      440      546 
     658      764      866      963     1040     1074     1071     1044 
     985      915      885      924     1017     1127     1224     1296 
    1344     1397     1462     1525     1583     1634     1699     1806 
    1930     2020     2069     2128     2254     2425     2582     2710 
    2844     3003     3154     3237     3221     3078     2763     2288 
    1738     1212      750      322      -74     -361     -492     -465 
    -301      -60      220      548      915     1298     1682     2068 
    2447     2772     3041     3272     3418     3427     3322     3129 
    2860     2586     2386     2282     2258     2261     2273     2331 
    2424     2508     2577     2592     2500     2300     2015     1688 
    1393     1197     1108     1062     1013      984      993     1020 
    1016      954      843      699      552      450      379      287 
     168       32      -99     -163     -144      -90       -9       70 
      89       55       -2      -55      -67      -36       33      148 
     284      405      481      484      421      344      286      233 
     198      238      383      623      940     1262     1540     1821 
    2151     2525     2928     3376     3881     4407     4882     5270 
    5553     5664     5518     5135     4625     4094     3624     3223 
    2875     2578     2326     2104     1876     1605     1305      990 
     650      283     -108     -519     -955    -1394    -1790    -2091 
   -2222    -2182    -2077    -1977    -1894    -1814    -1719    -1595 
   -1435    -1246    -1059     -909     -797     -685     -584     -538 
    -529     -525     -503     -399     -153      236      708     1162 
    1517     1738     1867     1975     2107     2300     2585     2999 
    3582     4287     4972     5528     5923     6154     6239     6231 
    6145     5945     5657     5332     4980     4614     4244     3909 
    3674     3568     3582     3680     3812     3940     4018     4025 
    3970     3877     3782     3677     3514     3280     3001     2694 
    2377     2080     1810     1559     1313     1013      607      141 
