Origin Time       2025/01/13 21:19:00
Lat.              31.8
Long.             131.6
Depth. (km)       30
Mag.              6.9
Station Code      OIT009
Station Lat.      33.2568
Station Long.     131.3443
Station Height(m) 455
Record Time       2025/01/13 21:20:00
Sampling Freq(Hz) 100Hz
Duration Time(s)  157
Dir.              U-D
Scale Factor      7845(gal)/8223790
Max. Acc. (gal)   11.095
Last Correction   2025/01/13 21:19:59
Memo.             
[...]
     707      548      604      885     1229     1533     1795     2019 
    2238     2488     2770     3068     3312     3434     3397     3210 
    2998     2884     2809     2627     2261     1734     1185      783 
     664      893     1370     1875     2250     2470     2581     2639 
    2694     2826     3055     3248     3242     3021     2693     2423 
    2355     2533     2880     3241     3450     3381     3072     2741 
    2523     2451     2523     2601     2517     2250     1883     1489 
    1156     1039     1069     1013      857      626      326      112 
      78      210      448      676      932     1314     1791     2338 
    2891     3315     3565     3651     3601     3449     3195     2851 
    2479     2188     2056     2104     2355     2798     3315     3754 
    3989     3932     3577     2936     2101     1313      773      554 
     679     1063     1512     1842     2010     2076     2133     2246 
    2408     2597     2812     3013     3152     3217     3233     3211 
    3133     3033     2968     2933     2940     3009     3102     3198 
    3261     3231     3042     2647     2106     1513      903      376 
      54      -71      -22      199      514      781      972     1150 
    1370     1629     1849     2080     2448     2893     3333     3711 
    3843     3746     3577     3267     2799     2327     1938     1728 
    1722     1849     2045     2250     2474     2764     3095     3403 
    3595     3545     3265     2925     2673     2582     2636     2744 
    2782     2610     2177     1559      878      322       72      186 
     571     1067     1552     1918     2093     2119     2070     2019 
    2114     2373     2632     2817     2921     2918     2840     2722 
    2533     2231     1863     1588     1580     1802     2049     2211 
    2332     2419     2490     2627     2839     3083     3312     3370 
    3180     2859     2505     2189     1968     1825     1810     1941 
    2049     2016     1926     1823     1683     1539     1462     1525 
    1796     2259     2810     3326     3717     3900     3789     3407 
    2879     2307     1744     1314     1155     1209     1294     1320 
    1228      985      693      484      315      128      -40     -148 
    -167      -54      174      399      526      592      688      854 
    1089     1417     1850     2312     2701     2936     2975     2918 
    2940     3052     3160     3253     3362     3504     3662     3790 
    3874     3902     3873     3789     3642     3456     3277     3087 
    2851     2558     2239     1987     1840     1761     1732     1732 
    1742     1709     1552     1345     1235     1258     1343     1345 
    1231     1173     1345     1817     2517     3190     3600     3731 
    3609     3198     2594     2030     1644     1447     1472     1767 
    2255     2798     3277     3576     3626     3469     3195     2862 
    2523     2223     1968     1725     1520     1440     1503     1671 
    1899     2116     2274     2334     2215     1894     1467     1044 
     635      213     -197     -560     -853    -1026     -982     -637 
       1      835     1761     2646     3327     3809     4225     4588 
    4808     4853     4730     4511     4324     4248     4271     4268 
    4125     3825     3408     2992     2671     2459     2378     2370 
    2332     2303     2335     2394     2455     2474     2394     2209 
    1935     1629     1381     1219     1171     1250     1382     1543 
    1772     2020     2211     2347     2428     2431     2353     2231 
    2166     2238     2316     2293     2307     2431     2508     2428 
    2211     1879     1516     1285     1256     1359     1507     1686 
    1849     1887     1823     1790     1817     1892     2050     2299 
    2604     2960     3341     3639     3769     3719     3547     3314 
    3005     2693     2516     2411     2273     2097     1817     1502 
    1444     1736     2238     2825     3268     3379     3241     3002 
    2786     2678     2560     2308     1981     1637     1300     1026 
     815      654      550      460      329      176       48      -33 
     -25      137      415      653      824     1074     1518     2127 
    2728     3137     3250     3088     2829     2689     2751     3018 
    3453     3893     4170     4230     4095     3832     3528     3186 
    2749     2236     1718     1224      857      696      669      681 
     666      637      727     1021     1517     2150     2762     3203 
    3393     3323     3069     2718     2303     1863     1440     1027 
     623      322      221      311      545      915     1323     1626 
    1814     1858     1777     1784     1975     2280     2694     3150 
    3596     4085     4571     4891     4965     4780     4361     3825 
    3335     3014     2891     2951     3188     3508     3665     3559 
    3314     2995     2636     2322     2062     1845     1684     1570 
    1498     1490     1591     1860     2188     2388     2413     2277 
    2081     2052     2262     2582     2890     3082     3068     2882 
    2574     2174     1755     1389     1100      866      680      568 
     535      581      642      630      588      621      761     1009 
    1355     1721     1989     2095     2060     1979     1962     2006 
    2014     1933     1794     1672     1647     1721     1790     1780 
    1772     1912     2247     2693     3150     3549     3834     3986 
    4008     3966     4021     4276     4611     4737     4463     3827 
    2968     2073     1314      803      554      507      585      761 
    1020     1310     1579     1856     2158     2378     2446     2436 
    2357     2130     1811     1506     1212      930      710      622 
     720      961     1233     1443     1489     1345     1105      924 
     962     1278     1788     2312     2681     2832     2810     2681 
    2490     2272     2039     1802     1586     1458     1474     1610 
    1803     1976     2034     1930     1737     1593     1564     1659 
    1921     2331     2745     3060     3273     3379     3369     3238 
    2967     2601     2239     1941     1771     1769     1921     2216 
    2613     3014     3379     3728     4066     4284     4240     3920 
    3445     2947     2469     1953     1435     1065      915      907 
     924      976     1081     1154     1266     1512     1790     2119 
    2532     2874     3090     3256     3457     3721     3969     4128 
    4152     3978     3670     3383     3126     2803     2413     2039 
    1779     1745     1931     2196     2411     2497     2461     2343 
    2170     1988     1873     1880     1998     2151     2276     2357 
    2413     2440     2413     2343     2250     2142     2080     2123 
    2250     2389     2454     2430     2374     2241     1956     1576 
    1177      789      442      149      -17      -33      -16      -12 
      27      149      360      579      795     1104     1533     2093 
    2725     3229     3512     3670     3785     3901     4063     4293 
    4521     4587     4455     4257     4070     3913     3796     3672 
    3511     3289     2992     2659     2308     1937     1629     1441 
    1306     1175     1059      923      773      660      545      415 
     330      314      430      764     1270     1834     2330     2639 
    2789     2883     2987     3150     3352     3507     3543     3385 
    3009     2481     1794      973      234     -267     -491     -399 
     -62      399      934     1418     1649     1570     1312     1027 
     803      712      801      990     1135     1209     1336     1625 
    2041     2470     2870     3191     3369     3477     3572     3604 
    3566     3456     3276     3099     2995     2991     3060     3107 
    3068     2998     2968     2945     2886     2783     2636     2484 
    2347     2201     2039     1912     1900     2007     2150     2315 
    2524     2693     2731     2617     2344     1927     1397      781 
     152     -427     -947    -1363    -1621    -1668    -1456    -1063 
    -633     -195      271      761     1277     1777     2211     2535 
    2662     2594     2474     2342     2150     1960     1804     1680 
    1675     1833     2139     2597     3065     3385     3549     3574 
    3519     3439     3306     3150     3021     2859     2708     2629 
    2589     2579     2546     2407     2157     1799     1428     1190 
    1070      986      926      908      946     1017     1159     1401 
    1618     1698     1684     1632     1510     1290     1000      683 
     351       90       14      176      598     1228     1989     2826 
    3589     4187     4666     4961     4982     4835     4580     4210 
    3821     3478     3202     2997     2808     2563     2211     1752 
    1273      845      502      282      216      307      534      850 
    1220     1602     1922     2151     2320     2411     2424     2443 
    2479     2465     2359     2147     1858     1609     1480     1433 
    1408     1432     1579     1848     2197     2613     3087     3582 
    4043     4442     4779     5013     5121     5076     4816     4345 
    3770     3222     2732     2273     1895     1653     1551     1617 
    1777     1894     1926     1860     1661     1347      990      685 
     518      517      681     1016     1516     2160     2917     3721 
    4455     4969     5181     5098     4795     4405     4117     4020 
    4091     4286     4510     4698     4854     4932     4892     4780 
    4652     4550     4491     4410     4264     4075     3892     3740 
    3546     3231     2875     2566     2290     2022     1763     1512 
    1239      993      935     1152     1594     2123     2536     2736 
    2837     2940     3033     3094     3032     2775     2439     2154 
    1914     1744     1705     1750     1798     1872     2047     2289 
    2484     2577     2565     2439     2230     2022     1925     1985 
    2126     2236     2285     2241     2104     1956     1798     1513 
    1062      534       74     -195     -238     -110       78      225 
     334      415      415      322      144     -125     -422     -695 
    -927    -1016     -885     -545      -16      599     1144     1576 
    1863     1979     2010     2046     2061     1921     1594     1254 
     992      760      616      653      832     1085     1339     1490 
    1463     1274     1066      973     1003     1178     1491     1783 
    1956     2031     2029     1952     1795     1566     1296      959 
     526       66     -328     -648     -959    -1221    -1232     -927 
    -491       -4      664     1561     2500     3352     4218     4878 
    5131     5375     5638     5698     5856     6199     6504     6747 
    6886     6852     6709     6482     6146     5755     5428     5157 
    4756     4179     3615     3149     2779     2535     2398     2359 
    2393     2424     2455     2520     2666     2976     3430     3909 
    4342     4737     5096     5354     5452     5397     5182     4816 
    4357     3882     3419     2930     2415     1871     1244      544 
    -180     -869    -1421    -1771    -1934    -1887    -1536     -872 
      12      989     1908     2712     3447     4044     4375     4448 
    4333     4122     3923     3797     3759     3759     3755     3712 
    3497     3168     2917     2683     2416     2200     1945     1583 
    1217      881      572      279      -22     -236     -263     -143 
     122      541     1001     1416     1750     1964     2022     1914 
    1772     1790     1925     2124     2457     2812     3053     3233 
    3312     3223     3056     2867     2641     2454     2313     2097 
    1798     1472     1047      534       64     -356     -747    -1059 
   -1242    -1283    -1277    -1270    -1197    -1012     -702     -249 
     337      986     1513     1845     2023     2027     1935     1794 
    1501     1202     1057      913      711      529      319      -10 
    -421     -837    -1242    -1587    -1817    -1957    -2020    -1961 
   -1714    -1259     -702     -137      399      818     1088     1301 
    1478     1563     1566     1557     1505     1339     1134     1046 
    1105     1220     1371     1598     1810     1906     1885     1740 
    1486     1177      873      658      515      429      550      953 
    1548     2224     2817     3261     3604     3827     3970     4147 
    4359     4552     4726     4968     5390     5971     6640     7338 
    8006     8640     9153     9491     9720     9822     9761     9531 
    9096     8541     7960     7338     6675     5998     5363     4869 
    4509     4202     3977     3870     3840     3827     3816     3889 
    4071     4279     4492     4653     4671     4623     4588     4552 
    4500     4352     4067     3769     3582     3562     3708     3956 
    4225     4484     4742     4993     5188     5270     5223     5067 
    4819     4468     3994     3414     2813     2281     1833     1444 
    1146      905      579      126     -417    -1030    -1572    -1965 
   -2301    -2604    -2866    -3122    -3296    -3283    -3092    -2741 
   -2224    -1642    -1193     -988     -946     -904     -850     -939 
   -1274    -1885    -2745    -3684    -4495    -5057    -5393    -5645 
   -5834    -5968    -6100    -6083    -5833    -5439    -4834    -3963 
   -2979    -1979     -965       35     1027     1980     2808     3496 
    4079     4618     5262     6085     7026     8021     9028    10007 
   10956    11892    12741    13382    13741    13801    13636    13355 
   12903    12220    11438    10613     9733     8810     7770     6664 
    5586     4469     3312     2177     1086      125     -622    -1117 
   -1401    -1582    -1699    -1759    -1803    -1844    -1845    -1796 
   -1732    -1664    -1578    -1489    -1456    -1478    -1493    -1522 
   -1636    -1761    -1803    -1836    -1892    -1903    -1925    -2034 
   -2133    -2128    -2065    -2022    -1980    -1852    -1626    -1366 
   -1071     -707     -263      283      913     1530     2128     2754 
    3289     3708     4126     4514     4855     5298     5775     6070 
    6164     6091     5888     5705     5632     5599     5522     5405 
    5254     5070     4866     4608     4253     3804     3256     2691 
    2201     1737     1309     1019      835      679      588      641 
     796      981     1154     1255     1279     1324     1432     1566 
    1665     1687     1679     1725     1888     2137     2371     2674 
    3157     3743     4330     4773     4891     4768     4639     4614 
    4714     4877     4977     4949     4789     4533     4239     3954 
    3700     3435     3075     2617     2209     1983     1989     2209 
    2511     2756     2874     2841     2668     2432     2139     1665 
    1057      453     -164     -733    -1129    -1354    -1483    -1593 
   -1664    -1701    -1792    -1918    -1964    -1907    -1809    -1709 
   -1601    -1483    -1335    -1104     -723     -203      318      801 
    1279     1649     1927     2224     2443     2508     2412     2112 
    1706     1340     1069      980     1098     1302     1505     1705 
    1912     2184     2517     2871     3256     3589     3798     3960 
    4116     4220     4224     4114     3948     3792     3690     3704 
    3892     4234     4668     5201     5829     6443     6956     7361 
    7653     7736     7576     7308     7029     6750     6485     6137 
    5611     4988     4309     3595     2944     2389     1902     1478 
    1078      704      469      445      591      853     1206     1633 
    2138     2749     3427     4048     4579     5028     5278     5278 
    5143     4945     4698     4411     4067     3650     3175     2625 
    2007     1398      795      124     -584    -1329    -2080    -2631 
   -2990    -3300    -3520    -3654    -3707    -3546    -3226    -2929 
   -2567    -2053    -1497     -838      -10      870     1757     2600 
    3361     4029     4463     4595     4445     4028     3496     2910 
    2201     1561     1183      966      810      745      822     1019 
    1196     1294     1416     1574     1668     1703     1764     1899 
    2116     2398     2718     3123     3665     4264     4822     5256 
    5495     5614     5718     5775     5749     5637     5416     5167 
    4951     4733     4567     4455     4248     3959     3684     3393 
    3119     2905     2693     2520     2493     2560     2633     2764 
    3017     3369     3793     4195     4457     4592     4696     4820 
    4945     5036     5090     5069     4954     4769     4441     3935 
    3291     2432     1378      341     -567    -1372    -2096    -2677 
   -3032    -3230    -3346    -3341    -3218    -3010    -2716    -2371 
   -2023    -1695    -1451    -1323    -1289    -1341    -1424    -1449 
   -1406    -1298    -1075     -805     -561     -201      315      868 
    1470     2070     2484     2706     2890     3145     3524     3964 
    4390     4801     5182     5535     5859     6133     6378     6571 
    6621     6486     6174     5706     5143     4541     3985     3603 
    3453     3531     3831     4279     4808     5371     5896     6265 
    6346     6123     5659     4985     4202     3377     2498     1632 
     869      302        2     -102      -71      121      448      865 
    1279     1551     1633     1579     1425     1188      949      815 
     801      851      901      946     1009     1082     1163     1282 
    1428     1593     1746     1745     1525     1223      951      664 
     305      -31     -211     -255     -216      -74       95      160 
     143      156      260      411      596      922     1448     2119 
    2812     3331     3599     3730     3850     3996     4178     4407 
    4642     4788     4762     4542     4172     3728     3248     2744 
    2215     1660     1093      576      153     -238     -619     -880 
    -984     -997     -942     -785     -564     -398     -342     -396 
    -569     -796     -988    -1104    -1131    -1100    -1005     -778 
    -423       -8      445      970     1471     1744     1944     2307 
    2695     3179     3805     4245     4526     4773     4908     4988 
    5009     4970     4911     4720     4388     4045     3730     3443 
    3177     2887     2531     2095     1615     1173      872      810 
     947     1179     1497     1884     2268     2578     2762     2824 
    2781     2573     2214     1799     1378     1063      954     1017 
    1264     1667     2114     2571     3049     3572     4213     5000 
    5910     6841     7636     8320     8974     9505     9861    10095 
   10218    10249    10177     9945     9574     9080     8525     7986 
    7300     6451     5730     5035     4187     3442     2802     2126 
    1617     1343     1140      962      760      450      118      -85 
    -110        9      195      378      498      607      729      726 
     595      425      225       55     -106     -344     -496     -441 
    -318      -78      299      557      702      734      529      206 
    -298    -1084    -1979    -2992    -4110    -5116    -5977    -6710 
   -7358    -7994    -8390    -8506    -8479    -8241    -8052    -7925 
   -7414    -6847    -6538    -6003    -5313    -4768    -4118    -3419 
   -2832    -2143    -1331     -529      252     1007     1780     2627 
