Origin Time       2025/01/13 21:19:00
Lat.              31.8
Long.             131.6
Depth. (km)       30
Mag.              6.9
Station Code      OIT004
Station Lat.      33.5659
Station Long.     131.7316
Station Height(m) 4
Record Time       2025/01/13 21:20:08
Sampling Freq(Hz) 100Hz
Duration Time(s)  111
Dir.              N-S
Scale Factor      7845(gal)/8223790
Max. Acc. (gal)   10.124
Last Correction   2025/01/13 21:20:08
Memo.             
[...]
   -6497    -6575    -6656    -6724    -6770    -6786    -6785    -6745 
   -6667    -6590    -6534    -6513    -6550    -6644    -6747    -6810 
   -6836    -6808    -6671    -6411    -6010    -5524    -5152    -4976 
   -4899    -4868    -4799    -4592    -4293    -3986    -3754    -3692 
   -3865    -4301    -4922    -5478    -5805    -6004    -6218    -6446 
   -6681    -6933    -7128    -7188    -7101    -6871    -6585    -6403 
   -6436    -6687    -6976    -7065    -6941    -6664    -6196    -5640 
   -5227    -5040    -5057    -5185    -5256    -5169    -4963    -4758 
   -4722    -4958    -5343    -5707    -6034    -6342    -6600    -6768 
   -6852    -6953    -7157    -7402    -7651    -7904    -8013    -7825 
   -7339    -6652    -5938    -5436    -5294    -5458    -5753    -6106 
   -6507    -6849    -7064    -7256    -7473    -7654    -7809    -7948 
   -7979    -7830    -7439    -6822    -6083    -5275    -4502    -3942 
   -3659    -3609    -3726    -3877    -3924    -3850    -3746    -3651 
   -3511    -3327    -3157    -3011    -2924    -2933    -3092    -3454 
   -3890    -4272    -4711    -5308    -6026    -6836    -7641    -8266 
   -8634    -8749    -8644    -8401    -8046    -7601    -7187    -6853 
   -6523    -6168    -5834    -5562    -5329    -5105    -4914    -4816 
   -4919    -5271    -5752    -6196    -6492    -6625    -6729    -6840 
   -6851    -6743    -6609    -6478    -6323    -6180    -6115    -6124 
   -6142    -6097    -5913    -5549    -5094    -4726    -4580    -4645 
   -4784    -4962    -5265    -5672    -6096    -6477    -6725    -6860 
   -7005    -7123    -7121    -7032    -6986    -7079    -7227    -7276 
   -7244    -7210    -7148    -6991    -6712    -6351    -5980    -5632 
   -5283    -4868    -4374    -3905    -3558    -3375    -3424    -3728 
   -4205    -4769    -5298    -5647    -5815    -5991    -6339    -6863 
   -7449    -7954    -8345    -8689    -9011    -9325    -9586    -9711 
   -9757    -9728    -9474    -9001    -8444    -7867    -7326    -6828 
   -6299    -5729    -5173    -4634    -4167    -3889    -3816    -3901 
   -4060    -4137    -4021    -3736    -3435    -3296    -3354    -3515 
   -3730    -3985    -4239    -4484    -4787    -5132    -5406    -5566 
   -5683    -5796    -5881    -5998    -6259    -6658    -7072    -7419 
   -7634    -7651    -7477    -7218    -6993    -6826    -6689    -6575 
   -6451    -6285    -6178    -6241    -6388    -6466    -6450    -6393 
   -6296    -6091    -5788    -5520    -5379    -5309    -5273    -5278 
   -5267    -5229    -5216    -5188    -5108    -5020    -4923    -4826 
   -4814    -4943    -5179    -5467    -5742    -5930    -5969    -5860 
   -5757    -5853    -6181    -6687    -7261    -7715    -7975    -8082 
   -8033    -7879    -7695    -7468    -7215    -6945    -6571    -6149 
   -5809    -5549    -5368    -5225    -5016    -4781    -4599    -4486 
   -4484    -4558    -4644    -4745    -4877    -5019    -5130    -5197 
   -5235    -5260    -5335    -5510    -5724    -5927    -6183    -6532 
   -6933    -7236    -7338    -7317    -7291    -7315    -7372    -7369 
   -7234    -6983    -6625    -6196    -5803    -5510    -5325    -5254 
   -5296    -5481    -5768    -6046    -6292    -6459    -6455    -6299 
   -6052    -5751    -5462    -5224    -5042    -4981    -5069    -5198 
   -5279    -5314    -5305    -5265    -5258    -5341    -5539    -5807 
   -6039    -6161    -6142    -5984    -5753    -5562    -5445    -5375 
   -5356    -5412    -5553    -5796    -6156    -6606    -7071    -7479 
   -7800    -7965    -7912    -7700    -7479    -7325    -7200    -7106 
   -7144    -7269    -7290    -7123    -6795    -6367    -5954    -5595 
   -5282    -5020    -4761    -4492    -4243    -4033    -3917    -3937 
   -4070    -4287    -4518    -4660    -4693    -4675    -4702    -4837 
   -5062    -5327    -5545    -5643    -5652    -5657    -5721    -5880 
   -6102    -6307    -6442    -6497    -6570    -6752    -6994    -7229 
   -7461    -7631    -7669    -7630    -7565    -7443    -7327    -7361 
   -7566    -7792    -7879    -7824    -7677    -7412    -7061    -6740 
   -6497    -6322    -6208    -6118    -5980    -5746    -5397    -4959 
   -4522    -4175    -3928    -3815    -3940    -4324    -4862    -5462 
   -6079    -6700    -7342    -8004    -8613    -9097    -9436    -9626 
   -9622    -9328    -8731    -7924    -6952    -5929    -5051    -4367 
   -3839    -3461    -3137    -2830    -2627    -2475    -2304    -2192 
   -2162    -2100    -1957    -1826    -1796    -1856    -1993    -2218 
   -2560    -3100    -3835    -4669    -5521    -6328    -7094    -7838 
   -8487    -9001    -9487    -9921   -10138   -10156   -10045    -9776 
   -9398    -9004    -8584    -8098    -7538    -6951    -6417    -5952 
   -5526    -5166    -4914    -4784    -4745    -4712    -4600    -4407 
   -4217    -4104    -4093    -4186    -4332    -4396    -4324    -4162 
   -3969    -3863    -3997    -4401    -5013    -5749    -6497    -7192 
   -7790    -8198    -8348    -8309    -8226    -8178    -8174    -8178 
   -8162    -8160    -8171    -8129    -8033    -7921    -7813    -7794 
   -7935    -8097    -8091    -7920    -7618    -7161    -6596    -5962 
   -5198    -4282    -3323    -2457    -1764    -1321    -1156    -1219 
   -1433    -1719    -2031    -2380    -2772    -3221    -3740    -4290 
   -4797    -5266    -5730    -6142    -6444    -6656    -6756    -6733 
   -6674    -6650    -6678    -6747    -6816    -6894    -7032    -7273 
   -7658    -8195    -8807    -9336    -9664    -9741    -9572    -9251 
   -8907    -8614    -8398    -8233    -8047    -7794    -7522    -7254 
   -6961    -6701    -6517    -6345    -6169    -6039    -5953    -5865 
   -5753    -5699    -5836    -6160    -6627    -7204    -7780    -8228 
   -8533    -8725    -8820    -8814    -8669    -8320    -7761    -7060 
   -6282    -5506    -4820    -4291    -3959    -3792    -3734    -3769 
   -3805    -3761    -3672    -3547    -3427    -3474    -3742    -4153 
   -4649    -5093    -5312    -5275    -5078    -4858    -4753    -4855 
   -5177    -5620    -6085    -6555    -7006    -7383    -7668    -7869 
   -7933    -7767    -7362    -6790    -6112    -5377    -4646    -4012 
   -3504    -3057    -2610    -2143    -1665    -1289    -1186    -1424 
   -1922    -2570    -3269    -3877    -4291    -4491    -4515    -4463 
   -4434    -4455    -4486    -4471    -4423    -4375    -4276    -4168 
   -4201    -4450    -4865    -5283    -5579    -5737    -5778    -5794 
   -5967    -6331    -6752    -7134    -7361    -7325    -7091    -6756 
   -6342    -5931    -5649    -5559    -5599    -5602    -5516    -5425 
   -5391    -5468    -5680    -6042    -6623    -7358    -8017    -8499 
   -8788    -8843    -8707    -8424    -8019    -7599    -7260    -7055 
   -6991    -7022    -7130    -7263    -7327    -7344    -7402    -7519 
   -7650    -7754    -7867    -7978    -7948    -7728    -7403    -7021 
   -6598    -6097    -5432    -4645    -3866    -3156    -2563    -2192 
   -2172    -2609    -3435    -4446    -5485    -6475    -7372    -8145 
   -8773    -9251    -9556    -9568    -9248    -8741    -8209    -7792 
   -7623    -7713    -7885    -7906    -7712    -7330    -6772    -6208 
   -5926    -6048    -6481    -7030    -7469    -7649    -7553    -7277 
   -6970    -6654    -6280    -5860    -5390    -4855    -4345    -3879 
   -3353    -2758    -2207    -1773    -1463    -1282    -1283    -1529 
   -2020    -2744    -3667    -4623    -5406    -5948    -6262    -6459 
   -6709    -7042    -7361    -7616    -7819    -8013    -8251    -8513 
   -8750    -8954    -9135    -9346    -9590    -9765    -9796    -9678 
   -9455    -9227    -9000    -8637    -8068    -7296    -6369    -5458 
   -4684    -4068    -3632    -3300    -2964    -2637    -2380    -2247 
   -2284    -2492    -2875    -3404    -3978    -4525    -4938    -5119 
   -5154    -5121    -4939    -4595    -4203    -3886    -3774    -3915 
   -4228    -4718    -5420    -6199    -6951    -7662    -8218    -8571 
   -8804    -8954    -9062    -9107    -8962    -8687    -8433    -8193 
   -7913    -7572    -7132    -6609    -6007    -5265    -4403    -3586 
   -2933    -2451    -2160    -2081    -2165    -2381    -2755    -3277 
   -3923    -4623    -5224    -5624    -5857    -5992    -6151    -6507 
   -7098    -7848    -8630    -9290    -9825   -10332   -10818   -11283 
  -11699   -11928   -11851   -11449   -10785   -10015    -9310    -8760 
   -8365    -7989    -7431    -6694    -5956    -5296    -4706    -4190 
   -3709    -3206    -2694    -2286    -2093    -2146    -2415    -2851 
   -3388    -3942    -4469    -4965    -5379    -5724    -6108    -6574 
   -7021    -7380    -7682    -7904    -7954    -7832    -7684    -7655 
   -7762    -7909    -7973    -7854    -7531    -7009    -6357    -5686 
   -4999    -4280    -3572    -2789    -1902    -1046     -292      311 
     696      916      967      683      -75    -1336    -3009    -4877 
   -6666    -8100    -9007    -9428    -9553    -9589    -9676    -9790 
   -9783    -9583    -9234    -8864    -8621    -8565    -8660    -8827 
   -8997    -9170    -9336    -9408    -9333    -9063    -8518    -7757 
   -6930    -6114    -5394    -4889    -4637    -4568    -4575    -4553 
   -4455    -4302    -4140    -4001    -3956    -4052    -4298    -4745 
   -5412    -6195    -6894    -7284    -7318    -7148    -6866    -6507 
   -6108    -5701    -5336    -5053    -4880    -4823    -4806    -4753 
   -4657    -4537    -4463    -4506    -4662    -4922    -5262    -5584 
   -5764    -5738    -5555    -5328    -5178    -5181    -5352    -5682 
   -6072    -6350    -6396    -6191    -5803    -5355    -4869    -4268 
   -3562    -2883    -2343    -1968    -1840    -2038    -2493    -3095 
   -3765    -4442    -5040    -5445    -5630    -5636    -5524    -5421 
   -5432    -5586    -5863    -6150    -6338    -6453    -6579    -6794 
   -7102    -7396    -7537    -7434    -7113    -6733    -6458    -6384 
   -6571    -6983    -7501    -7998    -8425    -8792    -9070    -9148 
   -8911    -8340    -7503    -6543    -5640    -4905    -4414    -4230 
   -4345    -4630    -4888    -4973    -4891    -4731    -4560    -4388 
   -4247    -4233    -4460    -4972    -5664    -6358    -7030    -7780 
   -8580    -9313    -9846   -10045    -9913    -9547    -8995    -8343 
   -7757    -7312    -6964    -6615    -6223    -5815    -5425    -5108 
   -4901    -4776    -4684    -4590    -4542    -4608    -4716    -4733 
   -4621    -4459    -4329    -4225    -4141    -4097    -4140    -4337 
   -4656    -4982    -5247    -5413    -5501    -5530    -5508    -5495 
   -5556    -5732    -6061    -6523    -7059    -7619    -8135    -8537 
   -8765    -8784    -8649    -8453    -8229    -7994    -7753    -7469 
   -7133    -6791    -6516    -6384    -6409    -6505    -6577    -6546 
   -6338    -6027    -5807    -5697    -5583    -5420    -5194    -4880 
   -4442    -3819    -2991    -2065    -1201     -549     -191      -86 
    -176     -492     -981    -1456    -1867    -2322    -2883    -3632 
   -4684    -5980    -7306    -8410    -9072    -9224    -8943    -8382 
   -7790    -7315    -6934    -6744    -6849    -7150    -7549    -7960 
   -8253    -8449    -8656    -8915    -9212    -9458    -9553    -9459 
   -9148    -8653    -8035    -7317    -6520    -5725    -5039    -4511 
   -4171    -4093    -4245    -4475    -4650    -4641    -4407    -4109 
   -3878    -3715    -3586    -3481    -3447    -3582    -3948    -4480 
   -5003    -5387    -5624    -5760    -5938    -6316    -6920    -7730 
   -8730    -9838   -10922   -11839   -12522   -12997   -13216   -13080 
  -12552   -11623   -10338    -8900    -7565    -6496    -5792    -5468 
   -5416    -5441    -5302    -4835    -4075    -3183    -2338    -1699 
   -1393    -1399    -1578    -1833    -2072    -2180    -2154    -2093 
   -2127    -2323    -2570    -2781    -3064    -3457    -3877    -4365 
   -5012    -5817    -6729    -7584    -8104    -8081    -7542    -6712 
   -5834    -5115    -4630    -4301    -4041    -3784    -3504    -3335 
   -3469    -4016    -4897    -5860    -6671    -7264    -7653    -7911 
   -8144    -8419    -8727    -9026    -9317    -9580    -9698    -9559 
   -9157    -8622    -8136    -7738    -7387    -7015    -6535    -6015 
   -5610    -5348    -5206    -5136    -5008    -4758    -4464    -4263 
   -4330    -4769    -5483    -6284    -7024    -7661    -8228    -8706 
   -9045    -9234    -9251    -9080    -8738    -8249    -7666    -7045 
   -6444    -5886    -5340    -4862    -4536    -4267    -3942    -3519 
   -2967    -2397    -1975    -1791    -1949    -2498    -3345    -4347 
   -5383    -6336    -7099    -7634    -7943    -8019    -7905    -7761 
   -7770    -8062    -8664    -9451   -10207   -10754   -10974   -10863 
  -10523   -10021    -9359    -8540    -7580    -6517    -5487    -4707 
   -4298    -4145    -4108    -4099    -4040    -3974    -3979    -3983 
   -3948    -3954    -4028    -4101    -4055    -3813    -3424    -3034 
   -2721    -2439    -2157    -1899    -1690    -1534    -1420    -1395 
   -1605    -2124    -2937    -3985    -5157    -6396    -7678    -8869 
   -9811   -10474   -10863   -10948   -10694   -10056    -8988    -7481 
   -5602    -3577    -1807     -595       83      357      280     -114 
    -801    -1772    -2951    -4203    -5424    -6539    -7484    -8262 
   -8961    -9659   -10365   -11084   -11870   -12756   -13732   -14724 
  -15619   -16285   -16586   -16510   -16119   -15352   -14253   -12973 
  -11531    -9929    -8225    -6482    -4827    -3362    -2115    -1070 
    -144      699     1416     1991     2378     2538     2474     2122 
    1408      391     -801    -1984    -2916    -3478    -3676    -3578 
   -3391    -3279    -3276    -3381    -3601    -3970    -4486    -5078 
   -5772    -6602    -7419    -8060    -8471    -8627    -8623    -8611 
   -8657    -8754    -8861    -8908    -8865    -8749    -8608    -8534 
   -8540    -8517    -8428    -8290    -8077    -7767    -7303    -6675 
   -6049    -5514    -5049    -4675    -4382    -4163    -4086    -4189 
   -4453    -4795    -5049    -5155    -5205    -5289    -5509    -5975 
   -6690    -7520    -8287    -8918    -9421    -9775    -9940    -9907 
   -9678    -9263    -8696    -8019    -7265    -6489    -5769    -5139 
   -4576    -4050    -3555    -3152    -2949    -3001    -3249    -3549 
   -3761    -3877    -4004    -4129    -4174    -4205    -4259    -4233 
   -4179    -4241    -4413    -4661    -4953    -5119    -5082    -4931 
   -4735    -4618    -4733    -5038    -5437    -5883    -6280    -6592 
   -6814    -6897    -6858    -6798    -6762    -6766    -6829    -6941 
   -7064    -7149    -7128    -6961    -6690    -6384    -6056    -5698 
   -5382    -5170    -5038    -4984    -5022    -5049    -4900    -4534 
   -4139    -3940    -3985    -4270    -4865    -5729    -6708    -7661 
   -8436    -8892    -9065    -9153    -9323    -9595    -9873   -10022 
   -9999    -9892    -9787    -9644    -9306    -8656    -7704    -6520 
   -5189    -3838    -2567    -1410     -364      565     1335     1894 
    2205     2222     1915     1366      697      -29     -760    -1367 
   -1779    -2073    -2397    -2851    -3472    -4180    -4830    -5355 
   -5799    -6231    -6694    -7177    -7647    -8091    -8488    -8841 
   -9246    -9769   -10315   -10750   -11061   -11279   -11367   -11294 
  -11102   -10866   -10643   -10482   -10435   -10463   -10403   -10122 
   -9656    -9104    -8503    -7900    -7365    -6991    -6885    -7076 
   -7531    -8158    -8765    -9196    -9417    -9443    -9263    -8897 
   -8429    -7960    -7537    -7129    -6651    -6041    -5314    -4537 
   -3794    -3157    -2636    -2200    -1873    -1723    -1740    -1831 
   -1933    -2003    -2074    -2282    -2731    -3392    -4105    -4723 
   -5236    -5671    -6034    -6362    -6685    -7009    -7310    -7527 
   -7604    -7531    -7339    -7042    -6708    -6477    -6420    -6539 
   -6744    -6844    -6789    -6682    -6575    -6542    -6628    -6772 
   -6898    -6883    -6646    -6282    -5946    -5701    -5539    -5401 
   -5263    -5155    -5065    -4993    -5057    -5360    -5850    -6351 
   -6652    -6625    -6330    -6004    -5894    -6100    -6623    -7407 
   -8293    -9094    -9711   -10118   -10350   -10494   -10589   -10558 
  -10345    -9968    -9362    -8461    -7350    -6123    -4845    -3613 
   -2439    -1325     -324      554     1197     1439     1318      949 
     414     -118     -621    -1208    -1969    -3007    -4287    -5595 
   -6802    -7878    -8814    -9570   -10042   -10215   -10110    -9666 
   -8919    -8055    -7299    -6845    -6713    -6764    -6905    -7107 
   -7327    -7476    -7491    -7391    -7244    -7076    -6871    -6605 
   -6269    -5904    -5613    -5460    -5422    -5417    -5292    -4918 
   -4360    -3794    -3342    -3113    -3210    -3634    -4247    -4841 
   -5228    -5292    -5039    -4587    -4102    -3717    -3449    -3245 
   -3045    -2772    -2458    -2241    -2235    -2479    -2929    -3534 
   -4247    -4969    -5645    -6272    -6764    -7018    -7060    -6953 
   -6741    -6540    -6469    -6538    -6687    -6858    -7018    -7137 
   -7144    -7024    -6837    -6600    -6339    -6203    -6384    -7029 
   -8152    -9613   -11205   -12688   -13867   -14701   -15209   -15353 
  -15101   -14503   -13718   -12945   -12236   -11491   -10650    -9688 
   -8549    -7298    -6091    -4972    -3952    -3094    -2353    -1642 
   -1001     -498     -213     -247     -549    -1016    -1640    -2349 
   -3010    -3576    -4062    -4477    -4796    -5024    -5186    -5262 
   -5293    -5359    -5437    -5479    -5466    -5356    -5162    -4930 
   -4679    -4387    -3994    -3549    -3208    -3079    -3207    -3568 
   -4027    -4463    -4835    -5204    -5690    -6311    -7002    -7655 
   -8102    -8233    -8050    -7585    -6961    -6362    -5925    -5742 
   -5823    -6106    -6544    -7083    -7651    -8233    -8810    -9316 
   -9721   -10025   -10215   -10301   -10336   -10296   -10076    -9682 
   -9193    -8692    -8252    -7852    -7411    -6878    -6196    -5394 
   -4569    -3696    -2727    -1714     -739      136      885     1459 
    1744     1656     1263      703       93     -473    -1057    -1814 
   -2745    -3775    -4901    -6079    -7206    -8236    -9171    -9973 
  -10554   -10855   -10858   -10584   -10134    -9626    -9155    -8773 
   -8433    -8013    -7446    -6808    -6238    -5783    -5445    -5242 
   -5142    -5098    -5090    -5127    -5179    -5189    -5131    -5051 
   -5031    -5177    -5566    -6210    -7030    -7901    -8727    -9458 
  -10006   -10282   -10319   -10180    -9864    -9382    -8800    -8145 
   -7431    -6701    -5980    -5252    -4498    -3750    -3080    -2482 
   -1906    -1359     -866     -444     -167      -95     -201     -481 
    -953    -1545    -2204    -2953    -3785    -4654    -5506    -6242 
   -6793    -7179    -7468    -7722    -8004    -8386    -8861    -9300 
   -9595    -9806   -10075   -10471   -10982   -11556   -12118   -12525 
  -12580   -12156   -11240    -9888    -8266    -6631    -5177    -3973 
   -3028    -2277    -1641    -1181    -1003    -1092    -1377    -1830 
   -2427    -3113    -3781    -4324    -4770    -5204    -5597    -5917 
