Origin Time       2025/01/13 21:19:00
Lat.              31.8
Long.             131.6
Depth. (km)       30
Mag.              6.9
Station Code      OIT008
Station Lat.      33.2548
Station Long.     131.0197
Station Height(m) 189
Record Time       2025/01/13 21:20:08
Sampling Freq(Hz) 100Hz
Duration Time(s)  88
Dir.              U-D
Scale Factor      7845(gal)/8223790
Max. Acc. (gal)   2.489
Last Correction   2025/01/13 21:20:07
Memo.             
[...]
   10380    10454    10508    10534    10542    10535    10513    10485 
   10466    10451    10438    10442    10455    10455    10419    10318 
   10191    10096    10010     9919     9861     9849     9860     9859 
    9823     9783     9764     9749     9703     9617     9497     9333 
    9134     8947     8835     8820     8862     8904     8937     8989 
    9063     9131     9194     9267     9342     9405     9433     9413 
    9358     9279     9227     9251     9324     9391     9418     9400 
    9387     9425     9505     9601     9679     9705     9688     9666 
    9663     9694     9724     9711     9675     9653     9691     9799 
    9900     9918     9864     9787     9726     9682     9632     9576 
    9509     9432     9406     9472     9622     9838    10073    10247 
   10320    10314    10293    10312    10368    10443    10546    10648 
   10710    10736    10724    10667    10566    10432    10287    10145 
   10010     9888     9809     9783     9787     9783     9749     9672 
    9548     9414     9309     9259     9278     9356     9454     9539 
    9602     9663     9760     9895    10026    10118    10150    10116 
   10052     9996     9940     9832     9667     9499     9377     9289 
    9212     9123     9009     8919     8881     8895     8976     9108 
    9254     9400     9533     9640     9724     9792     9849     9861 
    9813     9732     9664     9629     9606     9582     9553     9540 
    9564     9598     9621     9649     9703     9783     9869     9958 
   10044    10114    10181    10251    10292    10309    10339    10361 
   10332    10228    10037     9794     9558     9358     9224     9151 
    9117     9126     9166     9196     9202     9212     9263     9371 
    9478     9521     9517     9522     9553     9607     9674     9742 
    9815     9892     9954     9999    10062    10169    10331    10517 
   10663    10729    10719    10628    10476    10303    10108     9890 
    9697     9559     9481     9464     9481     9490     9489     9482 
    9485     9524     9593     9663     9717     9751     9801     9896 
   10000    10079    10131    10143    10110    10049     9976     9909 
    9848     9779     9698     9618     9567     9560     9579     9580 
    9508     9332     9113     8937     8846     8853     8907     8955 
    8982     8977     8938     8893     8860     8861     8911     8977 
    9034     9073     9115     9178     9236     9263     9269     9275 
    9313     9374     9379     9285     9154     9078     9066     9077 
    9113     9208     9344     9472     9568     9655     9742     9802 
    9801     9738     9628     9501     9393     9308     9215     9127 
    9090     9085     9061     9039     9059     9104     9155     9216 
    9286     9377     9506     9659     9784     9865     9929    10010 
   10119    10260    10403    10498    10536    10527    10480    10428 
   10388    10351    10343    10346    10334    10320    10307    10292 
   10291    10303    10332    10392    10465    10558    10682    10790 
   10851    10858    10812    10728    10613    10492    10403    10342 
   10285    10238    10189    10135    10099    10066    10018     9963 
    9926     9934     9961     9953     9918     9900     9923     9996 
   10116    10253    10349    10370    10343    10324    10341    10376 
   10405    10436    10471    10485    10457    10405    10373    10377 
   10417    10470    10524    10577    10624    10665    10690    10673 
   10621    10558    10494    10440    10385    10328    10273    10207 
   10099     9919     9670     9390     9135     8939     8833     8803 
    8814     8850     8893     8957     9050     9143     9243     9369 
    9491     9585     9644     9686     9725     9768     9826     9880 
    9917     9936     9926     9903     9895     9907     9957    10035 
   10112    10192    10285    10378    10477    10567    10652    10741 
   10783    10756    10701    10627    10536    10409    10208     9949 
    9672     9402     9170     8986     8860     8783     8770     8851 
    8992     9121     9227     9312     9379     9454     9545     9666 
    9782     9810     9749     9651     9520     9350     9162     8984 
    8850     8750     8677     8650     8656     8679     8746     8877 
    9034     9182     9332     9491     9655     9809     9952    10069 
   10158    10246    10338    10419    10478    10509    10508    10473 
   10420    10359    10300    10281    10288    10278    10243    10177 
   10100    10042    10015    10006     9988     9999    10038    10039 
   10014     9991     9940     9856     9753     9630     9485     9317 
    9153     9035     8953     8873     8799     8716     8621     8537 
    8468     8422     8391     8379     8391     8387     8360     8355 
    8371     8406     8482     8598     8753     8939     9150     9394 
    9637     9875    10107    10264    10314    10288    10201    10084 
   10015    10015    10033    10058    10093    10158    10295    10477 
   10659    10795    10839    10824    10820    10844    10863    10827 
   10710    10521    10324    10199    10142    10107    10098    10098 
   10072    10029     9984     9944     9879     9767     9651     9563 
    9499     9463     9425     9398     9428     9506     9607     9702 
    9771     9807     9792     9729     9614     9466     9340     9242 
    9165     9135     9153     9227     9363     9501     9626     9734 
    9771     9757     9738     9710     9639     9487     9288     9108 
    8974     8910     8922     8984     9096     9243     9360     9454 
    9579     9749     9949    10169    10412    10647    10841    11017 
   11202    11377    11504    11597    11676    11776    11907    11931 
   11850    11815    11834    11843    11800    11699    11670    11759 
   11785    11727    11754    11811    11682    11468    11292    10914 
   10476    10247     9927     9487     9148     8856     8569     8289 
    8029     7803     7682     7731     7762     7788     7969     8068 
    8073     8262     8384     8382     8515     8571     8549     8603 
    8556     8453     8332     8171     8098     8047     8029     8129 
    8213     8263     8417     8662     8877     9032     9225     9420 
    9505     9512     9504     9486     9400     9270     9174     9034 
    8845     8721     8715     8757     8718     8722     8883     8974 
    8984     9104     9256     9348     9389     9383     9421     9414 
    9296     9343     9455     9381     9404     9551     9540     9506 
    9508     9444     9343     9155     8949     8793     8644     8569 
    8548     8587     8711     8721     8715     8905     9038     9092 
    9328     9512     9537     9706     9900     9969    10100    10297 
   10453    10554    10658    10735    10719    10755    10847    10851 
   10902    11090    11215    11241    11290    11327    11348    11433 
   11497    11493    11457    11376    11300    11265    11248    11242 
   11245    11257    11241    11207    11234    11315    11371    11338 
   11261    11191    11083    10903    10685    10520    10403    10291 
   10219    10120     9926     9707     9498     9292     9103     8964 
    8858     8772     8765     8772     8746     8803     8884     8935 
    9055     9197     9293     9406     9518     9582     9652     9759 
    9815     9790     9811     9961    10152    10332    10547    10731 
   10791    10809    10764    10570    10377    10200     9911     9670 
    9514     9243     8945     8757     8560     8334     8230     8245 
    8274     8345     8486     8646     8818     8984     9076     9076 
    9099     9092     8968     8889     8880     8804     8718     8704 
    8681     8633     8675     8712     8698     8792     8953     9135 
    9418     9676     9822     9903     9909     9872     9828     9769 
    9691     9556     9424     9366     9342     9381     9489     9548 
    9593     9630     9602     9605     9625     9606     9639     9674 
    9637     9621     9595     9513     9468     9460     9471     9558 
    9674     9779     9884     9938     9923     9879     9842     9852 
    9841     9768     9657     9486     9320     9200     9043     8903 
    8829     8795     8839     8904     8930     9032     9243     9452 
    9587     9624     9637     9765     9919     9868     9738     9778 
    9764     9586     9591     9657     9549     9541     9578     9483 
    9502     9605     9640     9684     9769     9930    10102    10170 
   10210    10322    10444    10482    10617    10852    10822    10727 
   10781    10662    10492    10443    10345    10235    10147    10076 
   10027     9933     9837     9763     9686     9648     9599     9520 
    9491     9512     9541     9575     9667     9848     9998    10041 
   10106    10277    10432    10536    10646    10681    10642    10602 
   10596    10647    10650    10620    10692    10700    10540    10482 
   10517    10466    10512    10662    10702    10768    10894    10876 
   10851    10881    10762    10698    10778    10655    10531    10554 
   10359    10116    10015     9817     9616     9522     9418     9321 
    9290     9248     9194     9216     9161     9039     9123     9232 
    9239     9418     9657     9778     9975    10227    10386    10544 
   10713    10804    10839    10872    10910    10918    10922    10971 
   10971    10936    10980    10982    10885    10848    10812    10678 
   10575    10532    10439    10347    10320    10278    10179    10088 
   10017     9902     9772     9701     9686     9701     9809    10018 
   10253    10508    10674    10681    10646    10566    10451    10407 
   10358    10284    10242    10120     9929     9765     9535     9259 
    9063     8853     8648     8604     8608     8630     8788     8943 
    9018     9086     9047     8905     8822     8721     8518     8425 
    8437     8378     8343     8375     8383     8403     8379     8337 
    8428     8498     8552     8779     8961     9082     9293     9420 
    9459     9564     9729     9852     9887     9911     9984    10061 
   10072    10089    10219    10318    10374    10544    10598    10488 
   10480    10412    10150     9926     9764     9558     9369     9231 
    9111     9031     8977     8928     8924     8877     8791     8777 
    8743     8675     8672     8676     8658     8649     8657     8656 
    8634     8652     8680     8652     8607     8607     8642     8665 
    8718     8851     8972     9057     9211     9370     9477     9578 
    9637     9636     9603     9570     9513     9433     9348     9178 
    8982     8846     8679     8529     8457     8390     8378     8436 
    8499     8604     8775     8930     8999     9111     9316     9424 
    9580     9906    10138    10338    10633    10825    10941    11106 
   11217    11249    11264    11272    11290    11331    11399    11412 
   11373    11398    11388    11319    11358    11415    11410    11454 
   11453    11367    11286    11128    10912    10717    10509    10312 
   10102     9877     9714     9558     9390     9251     9135     9077 
    9062     9057     9092     9127     9140     9174     9190     9213 
    9267     9263     9274     9351     9394     9468     9628     9778 
    9934    10099    10204    10299    10412    10523    10617    10679 
   10737    10733    10621    10528    10465    10401    10408    10428 
   10408    10393    10372    10315    10243    10172    10106    10003 
    9886     9828     9799     9814     9921    10076    10268    10497 
   10706    10918    11141    11304    11433    11583    11704    11750 
   11745    11708    11635    11551    11476    11354    11165    10968 
   10782    10605    10457    10363    10309    10212    10071     9953 
    9848     9715     9566     9417     9298     9247     9246     9208 
    9184     9231     9223     9180     9194     9171     9182     9297 
    9412     9532     9644     9720     9788     9829     9845     9857 
    9891     9922     9904     9973    10103    10160    10254    10355 
   10384    10459    10559    10648    10786    10926    11021    11036 
   10994    10976    10940    10874    10829    10783    10725    10656 
   10565    10439    10291    10126     9926     9725     9501     9279 
    9180     9050     8816     8688     8606     8415     8203     8012 
    7839     7767     7743     7651     7665     7848     7933     8033 
    8262     8329     8444     8719     8812     8966     9309     9536 
    9738    10004    10276    10513    10611    10663    10835    10899 
   10732    10728    10752    10531    10524    10574    10358    10242 
   10176    10017     9909     9876     9890     9794     9585     9460 
    9377     9235     9121     9065     8976     8816     8568     8313 
    8171     8079     7985     7981     8019     7975     7996     8087 
    8067     8077     8221     8332     8365     8451     8727     9004 
    9043     9135     9316     9211     9023     9053     9067     9001 
    9039     9163     9301     9386     9472     9626     9564     9408 
    9541     9598     9493     9661     9883     9937    10102    10361 
   10539    10665    10748    10785    10843    10906    10943    10960 
   10963    11029    11109    11079    11011    10993    10989    10956 
   10922    10924    10866    10754    10686    10561    10381    10257 
   10012     9686     9483     9213     8887     8733     8563     8344 
    8270     8199     8047     7954     7885     7755     7688     7696 
    7657     7605     7573     7503     7396     7271     7159     7149 
    7234     7383     7659     8001     8341     8769     9194     9514 
    9846    10166    10351    10504    10724    10937    11129    11326 
   11504    11657    11751    11792    11786    11727    11711    11697 
   11622    11597    11557    11406    11299    11207    10964    10705 
   10566    10469    10369    10253    10220    10249    10146    10041 
    9976     9818     9748     9745     9628     9556     9657     9734 
    9697     9787    10021    10183    10278    10381    10539    10687 
   10756    10810    10767    10716    10755    10617    10390    10303 
   10189    10042     9999    10038    10084    10119    10166    10154 
   10114    10157    10195    10177    10220    10381    10573    10713 
   10874    11065    11196    11246    11260    11294    11329    11371 
   11437    11402    11333    11279    11041    10751    10590    10422 
   10234    10120    10083    10115    10195    10246    10215    10174 
   10161    10110    10056    10015     9977     9950     9909     9902 
    9933     9941     9926     9887     9833     9767     9664     9535 
    9387     9251     9113     8973     8869     8741     8590     8498 
    8440     8371     8297     8244     8220     8199     8203     8259 
    8345     8402     8444     8538     8645     8718     8823     8938 
    8986     9020     9028     8984     8938     8865     8806     8811 
    8814     8853     8919     8935     9008     9128     9170     9194 
    9209     9180     9150     9096     8993     8884     8812     8770 
    8731     8727     8757     8791     8849     8928     8978     8992 
    9015     9024     9007     9065     9159     9223     9305     9401 
    9535     9695     9795     9872     9960    10015    10054    10103 
   10120    10091    10072    10046     9991     9975     9952     9899 
    9906     9919     9915     9917     9895     9910     9917     9813 
    9718     9703     9733     9782     9732     9705     9828     9859 
    9818     9892    10046    10258    10422    10552    10891    11222 
   11265    11414    11713    11826    11862    11832    11739    11777 
   11888    11832    11654    11682    11711    11479    11318    11317 
   11202    10895    10632    10586    10436    10062     9880     9795 
    9522     9292     9049     8648     8291     8070     7784     7368 
    7164     7171     7163     7275     7508     7790     8087     8334 
    8656     9016     9304     9609     9856    10000    10241    10451 
   10338    10216    10426    10447    10114    10119    10343    10242 
   10199    10426    10535    10523    10566    10640    10658    10551 
   10426    10331    10206    10162    10120     9895     9828     9980 
    9832     9617     9759     9695     9354     9390     9390     9059 
    9038     9082     8969     9088     9167     9147     9286     9391 
    9432     9505     9551     9575     9574     9609     9680     9613 
    9454     9468     9491     9238     9105     9193     9074     9003 
    9057     8972     9012     9148     9134     9161     9294     9362 
    9352     9431     9567     9593     9652     9821     9882     9864 
    9981    10149    10212    10297    10430    10449    10469    10573 
   10625    10658    10727    10766    10728    10646    10624    10550 
   10350    10197    10053     9850     9693     9572     9464     9367 
    9278     9236     9217     9175     9193     9269     9302     9360 
    9440     9464     9539     9640     9684     9774     9836     9833 
    9917     9987     9967    10026    10085    10060    10077    10056 
    9991    10088    10207    10201    10273    10417    10511    10561 
   10521    10540    10616    10484    10378    10346    10126    10019 
   10007     9803     9697     9711     9552     9420     9537     9576 
    9460     9558     9702     9622     9541     9598     9659     9597 
    9545     9643     9621     9493     9566     9591     9424     9367 
    9332     9148     8972     8839     8661     8538     8519     8484 
    8465     8530     8630     8722     8800     8955     9178     9309 
    9447     9715     9937    10076    10238    10392    10484    10488 
   10552    10716    10795    10840    10901    10929    10943    10876 
   10787    10759    10696    10596    10542    10523    10480    10395 
   10312    10258    10242    10197    10125    10188    10274    10243 
   10238    10239    10193    10131     9969     9807     9690     9506 
    9362     9271     9159     9100     9022     8876     8834     8829 
    8723     8683     8718     8694     8708     8780     8819     8869 
    8880     8827     8835     8824     8726     8698     8676     8552 
    8482     8482     8432     8394     8383     8326     8282     8279 
    8289     8330     8391     8502     8685     8885     9158     9493 
    9790    10069    10338    10563    10759    10947    11128    11223 
   11256    11322    11310    11184    11067    10889    10628    10395 
   10169     9929     9713     9548     9405     9281     9208     9147 
    9109     9082     9061     9089     9061     9004     9038     9030 
    9009     9054     9100     9178     9301     9435     9564     9686 
    9813     9919    10027    10145    10224    10268    10242    10179 
   10087     9946     9838     9779     9724     9679     9656     9643 
    9633     9659     9688     9710     9749     9778     9810     9845 
    9860     9911     9972     9981    10012    10127    10239    10319 
   10412    10480    10532    10635    10666    10629    10697    10685 
   10573    10633    10655    10575    10627    10613    10534    10516 
   10435    10362    10328    10258    10210    10180    10122    10087 
   10130    10131    10077    10118    10100     9969     9949     9915 
    9790     9751     9722     9653     9593     9508     9445     9354 
