Origin Time       2025/01/13 21:19:00
Lat.              31.8
Long.             131.6
Depth. (km)       30
Mag.              6.9
Station Code      OIT002
Station Lat.      33.5691
Station Long.     131.2675
Station Height(m) 8
Record Time       2025/01/13 21:20:13
Sampling Freq(Hz) 100Hz
Duration Time(s)  114
Dir.              U-D
Scale Factor      7845(gal)/8223790
Max. Acc. (gal)   2.276
Last Correction   2025/01/13 21:20:13
Memo.             
[...]
    7603     7643     7624     7560     7493     7419     7312     7171 
    7020     6893     6789     6718     6729     6849     7025     7165 
    7226     7242     7240     7204     7157     7130     7113     7099 
    7140     7225     7258     7222     7167     7110     7037     6926 
    6764     6581     6400     6232     6138     6120     6096     6049 
    6041     6073     6096     6122     6184     6242     6274     6319 
    6358     6376     6436     6561     6671     6717     6717     6693 
    6662     6662     6708     6760     6793     6793     6778     6802 
    6863     6878     6835     6781     6705     6606     6551     6535 
    6498     6473     6490     6497     6462     6430     6434     6447 
    6423     6331     6195     6079     6039     6053     6041     5977 
    5931     5976     6104     6250     6366     6432     6473     6551 
    6709     6914     7099     7244     7392     7543     7635     7661 
    7665     7665     7666     7668     7663     7654     7646     7669 
    7750     7851     7890     7846     7784     7758     7723     7636 
    7533     7438     7362     7322     7296     7252     7172     7059 
    6952     6890     6845     6791     6756     6754     6718     6621 
    6524     6447     6351     6265     6232     6212     6146     6057 
    5984     5906     5806     5721     5653     5576     5556     5653 
    5813     5981     6143     6238     6245     6195     6081     5919 
    5764     5643     5584     5595     5616     5602     5591     5622 
    5688     5792     5960     6183     6405     6592     6731     6836 
    6959     7099     7202     7269     7312     7298     7237     7176 
    7117     7072     7087     7173     7254     7253     7180     7060 
    6912     6802     6752     6716     6706     6731     6704     6586 
    6443     6300     6153     6031     5942     5860     5791     5768 
    5776     5779     5767     5746     5721     5698     5715     5798 
    5902     5957     5938     5875     5802     5769     5841     6031 
    6281     6527     6731     6867     6929     6947     6967     7021 
    7126     7254     7352     7416     7477     7514     7491     7415 
    7314     7190     7053     6945     6863     6785     6735     6737 
    6798     6934     7114     7236     7269     7257     7204     7114 
    7014     6926     6853     6770     6632     6451     6258     6069 
    5914     5813     5748     5688     5624     5571     5544     5562 
    5629     5714     5800     5877     5898     5857     5814     5795 
    5803     5827     5854     5888     5892     5819     5718     5633 
    5563     5547     5634     5799     5991     6177     6328     6459 
    6620     6810     6974     7082     7168     7240     7238     7173 
    7148     7179     7210     7236     7249     7229     7227     7325 
    7477     7591     7668     7732     7759     7774     7816     7844 
    7830     7794     7739     7651     7537     7407     7299     7246 
    7252     7285     7288     7223     7078     6893     6771     6705 
    6594     6458     6358     6266     6174     6099     6004     5860 
    5701     5555     5413     5294     5255     5278     5314     5382 
    5510     5660     5809     5957     6106     6262     6428     6565 
    6629     6623     6575     6529     6528     6575     6637     6675 
    6675     6662     6628     6551     6467     6420     6401     6401 
    6430     6484     6550     6610     6659     6704     6751     6810 
    6868     6905     6933     6963     6955     6885     6771     6625 
    6440     6253     6115     6026     5999     6062     6204     6357 
    6471     6556     6646     6751     6862     6947     6980     6953 
    6872     6772     6712     6704     6717     6735     6748     6737 
    6683     6589     6493     6421     6357     6309     6311     6331 
    6342     6347     6320     6232     6115     5996     5864     5734 
    5665     5636     5587     5564     5584     5572     5533     5530 
    5557     5593     5647     5710     5782     5883     5987     6050 
    6089     6122     6116     6062     5983     5903     5856     5872 
    5940     6026     6115     6215     6316     6401     6485     6602 
    6751     6893     7033     7209     7406     7572     7715     7861 
    7967     8019     8083     8172     8232     8263     8283     8256 
    8163     8051     7933     7774     7585     7403     7225     7056 
    6941     6893     6878     6871     6868     6852     6813     6782 
    6768     6745     6709     6673     6629     6589     6567     6552 
    6531     6493     6450     6428     6421     6392     6342     6296 
    6223     6108     6012     5976     5976     6023     6110     6166 
    6172     6203     6297     6392     6434     6451     6444     6407 
    6393     6421     6419     6377     6359     6366     6361     6369 
    6461     6639     6841     7024     7156     7204     7190     7192 
    7269     7414     7591     7751     7863     7923     7947     7950 
    7936     7878     7757     7628     7554     7520     7501     7468 
    7391     7302     7231     7150     7063     7005     6948     6845 
    6702     6538     6362     6222     6153     6119     6068     5991 
    5888     5776     5675     5576     5464     5381     5368     5410 
    5467     5525     5560     5559     5563     5602     5684     5817 
    5969     6115     6284     6482     6677     6867     7032     7163 
    7291     7408     7506     7618     7750     7915     8082     8183 
    8243     8268     8220     8147     8091     8031     7952     7850 
    7731     7581     7366     7134     6913     6675     6465     6326 
    6245     6230     6273     6335     6415     6509     6586     6639 
    6687     6718     6718     6718     6743     6799     6886     6970 
    7002     6972     6916     6843     6737     6604     6455     6301 
    6181     6143     6200     6334     6481     6583     6647     6681 
    6670     6617     6581     6600     6663     6735     6783     6779 
    6713     6631     6577     6552     6531     6478     6373     6230 
    6076     5915     5763     5644     5540     5444     5381     5324 
    5252     5201     5185     5188     5194     5197     5192     5186 
    5202     5279     5424     5611     5842     6100     6335     6542 
    6748     6963     7191     7433     7665     7867     8025     8120 
    8149     8122     8039     7908     7738     7527     7288     7047 
    6814     6600     6435     6355     6332     6297     6238     6150 
    6011     5856     5756     5732     5771     5856     5962     6061 
    6122     6131     6103     6041     5954     5892     5886     5914 
    5954     6011     6091     6170     6234     6293     6357     6407 
    6443     6498     6585     6670     6733     6795     6862     6913 
    6939     6933     6895     6841     6801     6781     6772     6774 
    6781     6785     6794     6795     6754     6663     6551     6439 
    6343     6276     6231     6212     6237     6308     6404     6508 
    6601     6682     6763     6849     6925     6990     7049     7067 
    7036     7002     6964     6897     6832     6779     6700     6594 
    6484     6367     6258     6184     6162     6208     6331     6505 
    6667     6798     6920     7007     7029     7030     7049     7067 
    7078     7098     7102     7042     6924     6790     6660     6542 
    6442     6363     6307     6281     6297     6351     6417     6465 
    6490     6513     6561     6629     6686     6725     6758     6755 
    6720     6698     6681     6629     6536     6403     6242     6115 
    6052     6042     6084     6164     6257     6365     6501     6647 
    6762     6856     6988     7144     7275     7393     7472     7460 
    7393     7339     7287     7217     7159     7140     7133     7110 
    7044     6917     6758     6620     6516     6432     6357     6273 
    6166     6035     5898     5780     5684     5590     5498     5427 
    5362     5282     5221     5209     5221     5277     5417     5598 
    5788     5995     6165     6280     6372     6423     6419     6416 
    6462     6562     6687     6808     6899     6926     6885     6836 
    6801     6739     6660     6581     6488     6405     6353     6304 
    6262     6246     6257     6319     6467     6701     6957     7199 
    7403     7545     7650     7749     7824     7882     7959     8050 
    8110     8116     8067     7986     7892     7784     7658     7516 
    7364     7217     7091     6963     6812     6660     6540     6444 
    6342     6228     6133     6049     5956     5871     5818     5764 
    5690     5621     5537     5409     5250     5080     4912     4793 
    4743     4734     4745     4792     4895     5034     5190     5370 
    5547     5686     5809     5944     6083     6210     6328     6465 
    6632     6799     6925     7025     7161     7344     7562     7820 
    8075     8268     8414     8530     8583     8561     8492     8382 
    8236     8063     7865     7651     7447     7263     7118     7029 
    6982     6947     6906     6866     6833     6795     6743     6671 
    6581     6492     6424     6354     6249     6103     5931     5765 
    5668     5655     5655     5637     5629     5644     5683     5759 
    5859     5975     6103     6216     6291     6351     6444     6588 
    6767     6960     7148     7303     7400     7438     7423     7371 
    7302     7214     7090     6926     6717     6462     6185     5910 
    5633     5373     5148     4958     4818     4737     4722     4796 
    4945     5121     5306     5482     5625     5757     5925     6137 
    6373     6617     6859     7099     7333     7534     7672     7744 
    7761     7719     7636     7555     7489     7441     7415     7403 
    7389     7383     7395     7404     7372     7288     7161     7049 
    7010     7041     7101     7163     7209     7227     7213     7167 
    7121     7071     7011     6955     6878     6732     6540     6363 
    6195     6011     5845     5721     5613     5524     5489     5493 
    5508     5533     5555     5555     5571     5628     5701     5788 
    5911     6049     6172     6297     6413     6458     6432     6403 
    6386     6357     6332     6335     6335     6320     6304     6284 
    6255     6222     6173     6120     6069     6003     5944     5937 
    5979     6026     6081     6166     6280     6424     6596     6760 
    6905     7037     7179     7349     7526     7665     7743     7765 
    7726     7638     7522     7369     7191     7028     6883     6752 
    6642     6551     6484     6432     6376     6305     6210     6066 
    5875     5670     5508     5413     5367     5336     5310     5309 
    5348     5428     5552     5694     5807     5884     5952     6015 
    6089     6197     6319     6434     6558     6696     6837     6983 
    7113     7213     7292     7376     7470     7531     7528     7499 
    7488     7516     7593     7688     7761     7798     7789     7724 
    7622     7473     7273     7075     6940     6870     6856     6898 
    6966     7006     7003     6967     6889     6774     6646     6511 
    6390     6326     6307     6286     6281     6331     6403     6454 
    6497     6532     6531     6494     6447     6397     6326     6232 
    6147     6072     6002     5948     5921     5899     5849     5771 
    5705     5651     5567     5485     5478     5521     5560     5609 
    5675     5749     5832     5938     6087     6257     6405     6535 
    6651     6729     6768     6781     6777     6783     6801     6826 
    6868     6905     6906     6894     6903     6930     6960     6984 
    7002     6998     6953     6897     6880     6918     7006     7137 
    7271     7372     7426     7434     7420     7425     7453     7501 
    7551     7557     7501     7426     7345     7265     7187     7090 
    6967     6840     6725     6628     6547     6453     6338     6227 
    6143     6083     6035     5994     5956     5915     5911     5992 
    6127     6238     6304     6339     6343     6350     6401     6501 
    6616     6713     6760     6755     6706     6613     6512     6465 
    6493     6569     6656     6732     6779     6825     6894     6968 
    7044     7130     7198     7230     7248     7261     7264     7268 
    7273     7275     7272     7281     7307     7327     7321     7290 
    7260     7267     7306     7337     7360     7389     7407     7406 
    7402     7393     7377     7339     7256     7115     6926     6704 
    6480     6273     6084     5910     5744     5566     5383     5215 
    5062     4949     4899     4891     4892     4908     4945     4990 
    5040     5108     5190     5277     5367     5456     5553     5659 
    5756     5836     5902     5954     6000     6046     6093     6142 
    6185     6237     6305     6365     6421     6508     6606     6678 
    6710     6721     6741     6785     6839     6887     6937     6994 
    7034     7055     7064     7042     6982     6939     6937     6945 
    6936     6914     6889     6862     6822     6774     6732     6698 
    6667     6639     6624     6628     6624     6586     6516     6412 
    6258     6065     5856     5640     5447     5309     5229     5201 
    5209     5225     5235     5252     5285     5335     5414     5510 
    5606     5717     5863     6043     6232     6405     6575     6752 
    6932     7150     7423     7704     7969     8214     8415     8550 
    8650     8748     8838     8903     8945     8977     8976     8912 
    8792     8641     8467     8274     8078     7886     7693     7489 
    7271     7047     6816     6578     6350     6134     5918     5724 
    5586     5503     5467     5476     5513     5572     5653     5741 
    5830     5918     5991     6061     6115     6134     6142     6176 
    6223     6241     6223     6192     6154     6112     6088     6092 
    6107     6130     6187     6285     6381     6439     6477     6502 
    6521     6551     6604     6675     6774     6905     7048     7157 
    7218     7242     7248     7234     7206     7179     7137     7047 
    6920     6785     6655     6551     6500     6489     6497     6513 
    6519     6504     6462     6419     6409     6419     6434     6475 
    6538     6606     6682     6744     6775     6802     6844     6899 
    6957     7006     7047     7067     7060     7037     7007     6968 
    6924     6883     6848     6814     6782     6743     6686     6623 
    6569     6535     6539     6567     6589     6594     6577     6531 
    6480     6439     6400     6378     6378     6358     6305     6257 
    6230     6226     6245     6295     6363     6427     6481     6534 
    6559     6542     6513     6502     6504     6513     6534     6554 
    6561     6558     6570     6612     6658     6686     6705     6717 
    6718     6721     6710     6659     6583     6527     6493     6488 
    6521     6571     6610     6662     6732     6794     6840     6883 
    6928     6956     6959     6966     7002     7059     7126     7195 
    7241     7253     7226     7150     7040     6925     6818     6724 
    6651     6590     6521     6443     6359     6264     6164     6060 
    5952     5850     5749     5651     5570     5495     5412     5337 
    5294     5275     5270     5274     5296     5336     5389     5462 
    5551     5638     5728     5832     5935     6033     6127     6224 
    6334     6469     6625     6801     6982     7129     7207     7234 
    7248     7268     7303     7366     7456     7554     7647     7724 
    7771     7780     7754     7728     7708     7681     7643     7597 
    7555     7511     7437     7344     7263     7195     7130     7086 
    7092     7107     7092     7098     7109     7063     6998     6926 
    6793     6605     6392     6154     5925     5724     5555     5421 
    5323     5267     5242     5233     5260     5325     5408     5510 
    5637     5775     5929     6084     6223     6366     6508     6631 
    6748     6858     6949     7056     7173     7263     7344     7446 
    7551     7635     7682     7684     7670     7651     7614     7576 
    7550     7519     7474     7396     7272     7130     6975     6813 
    6689     6605     6534     6496     6493     6488     6474     6458 
    6432     6416     6419     6416     6400     6385     6354     6282 
    6173     6057     5960     5888     5840     5806     5775     5756 
    5772     5815     5863     5922     6012     6116     6223     6334 
    6426     6489     6544     6608     6682     6754     6817     6872 
    6907     6926     6948     6968     6975     6974     6964     6951 
    6929     6889     6837     6806     6805     6822     6848     6868 
    6874     6878     6898     6921     6952     6999     7047     7087 
    7133     7176     7204     7210     7171     7079     6955     6828 
    6704     6578     6448     6301     6147     6007     5880     5769 
    5683     5644     5657     5698     5752     5822     5890     5941 
    5992     6025     6037     6064     6099     6139     6205     6282 
    6339     6390     6436     6465     6501     6559     6620     6675 
    6714     6727     6723     6708     6664     6592     6501     6399 
    6311     6262     6239     6237     6245     6255     6292     6367 
    6455     6540     6605     6628     6625     6619     6609     6597 
    6583     6559     6525     6482     6415     6331     6234     6122 
    6018     5944     5899     5894     5922     5960     6023     6116 
    6211     6301     6389     6462     6523     6575     6627     6690 
    6762     6836     6897     6929     6939     6941     6926     6886 
    6829     6770     6714     6674     6658     6660     6670     6674 
    6677     6696     6729     6771     6818     6856     6880     6895 
    6906     6917     6925     6913     6878     6840     6813     6801 
    6805     6824     6848     6878     6910     6940     6975     7011 
    7044     7094     7160     7214     7256     7284     7291     7290 
    7291     7306     7348     7404     7445     7452     7420     7349 
    7250     7157     7094     7049     7009     6967     6941     6922 
    6899     6882     6867     6841     6805     6755     6686     6619 
    6566     6512     6458     6399     6327     6257     6191     6123 
    6073     6054     6046     6038     6054     6110     6184     6269 
    6365     6466     6550     6605     6646     6683     6721     6767 
    6812     6843     6872     6906     6929     6943     6936     6903 
    6878     6876     6894     6930     6976     7021     7064     7113 
    7150     7156     7119     7056     6975     6880     6777     6652 
    6493     6304     6106     5908     5717     5541     5379     5236 
    5146     5117     5128     5177     5265     5352     5429     5512 
    5591     5659     5729     5813     5914     6031     6149     6261 
    6367     6470     6570     6656     6723     6791     6878     6976 
    7087     7188     7264     7333     7399     7439     7445     7425 
    7388     7338     7284     7227     7176     7137     7110     7101 
    7088     7041     6966     6893     6818     6732     6644     6559 
    6478     6419     6388     6376     6366     6340     6319     6322 
    6313     6285     6257     6210     6145     6104     6073     6027 
