Origin Time       2025/01/13 21:19:00
Lat.              31.8
Long.             131.6
Depth. (km)       30
Mag.              6.9
Station Code      OIT015
Station Lat.      32.9733
Station Long.     131.3998
Station Height(m) 267
Record Time       2025/01/13 21:19:54
Sampling Freq(Hz) 100Hz
Duration Time(s)  117
Dir.              N-S
Scale Factor      7845(gal)/8223790
Max. Acc. (gal)   20.219
Last Correction   2025/01/13 21:19:54
Memo.             
[...]
   -8757    -7477    -6272    -5813    -6393    -7897    -9802   -11315 
  -12012   -12054   -11718   -10881    -9525    -8629    -8993    -9913 
  -10574   -10995   -11122   -10806   -10220    -9563    -8972    -8522 
   -7994    -7252    -6979    -7960    -9643   -10768   -10852   -10057 
   -8775    -7672    -7285    -7839    -9323   -11136   -12366   -12621 
  -11982   -10662    -9224    -8438    -8521    -8969    -9225    -9043 
   -8370    -7442    -6697    -6316    -6300    -6690    -7263    -7646 
   -7734    -7647    -7820    -8596    -9424    -9620    -9498    -9699 
  -10127   -10349   -10374   -10430   -10447   -10183    -9432    -8479 
   -8295    -9443   -11203   -12428   -12615   -12035   -11310   -10909 
  -10901   -10975   -10665    -9925    -9312    -9096    -8938    -8770 
   -8920    -9408    -9906   -10150   -10188   -10296   -10546   -10633 
  -10389    -9992    -9524    -8964    -8483    -8077    -7618    -7560 
   -8459    -9855   -10428    -9333    -7122    -5393    -5522    -7443 
   -9526   -10062    -8731    -6642    -5454    -5726    -6257    -6253 
   -6511    -7495    -8537    -9058    -9054    -8857    -9018    -9802 
  -10593   -10542    -9838    -9414    -9771   -10837   -11855   -11608 
  -10069    -8550    -7879    -8021    -8580    -8753    -8309    -8297 
   -9227    -9961    -9767    -9655   -10455   -11442   -11691   -11272 
  -10740   -10602   -11223   -12367   -13132   -12792   -11346    -9440 
   -7936    -7276    -7445    -8324    -9165    -8872    -7524    -6239 
   -5842    -6204    -6282    -5694    -5752    -7516   -10010   -11225 
  -10309    -8387    -7119    -7229    -8433    -9798   -10694   -11381 
  -11658   -10687    -8677    -6700    -5633    -6065    -7442    -8257 
   -8262    -8513    -9248    -9582    -8862    -7695    -7605    -9096 
  -10806   -11438   -11335   -11454   -11731   -11449   -10831   -10808 
  -11696   -13097   -13979   -13227   -11504   -10794   -11221   -10868 
   -8972    -6669    -5001    -4434    -5193    -6679    -7819    -8170 
   -7996    -7703    -7415    -7353    -8209   -10207   -12414   -13647 
  -13556   -12644   -11560   -10494    -9352    -8526    -8745    -9819 
  -10600   -10501    -9919    -9022    -7489    -5582    -4199    -4039 
   -5296    -7522    -9428    -9768    -8787    -7924    -7758    -7651 
   -7510    -7732    -8333    -9778   -12201   -14110   -14651   -14459 
  -13095    -9818    -6286    -4954    -6100    -8364   -10681   -12357 
  -12499   -10543    -7144    -4207    -3258    -3878    -5016    -6798 
   -9433   -11719   -12402   -11967   -11371   -10481    -9410    -9088 
   -9687   -10569   -11269   -11439   -11091   -10562    -9603    -8064 
   -6913    -6768    -7099    -7663    -8584    -9170    -8600    -7539 
   -7597    -8922    -9859    -9355    -8386    -8500    -9543    -9904 
   -9059    -8194    -8348    -9262    -9926    -9629    -8449    -7118 
   -6917    -8487   -10183   -10056    -9026    -8920    -9162    -8548 
   -8010    -8868   -10477   -11323   -10712    -9018    -7369    -6662 
   -6818    -7696    -9566   -11932   -13524   -13697   -12602   -10785 
   -9475    -9632   -10307   -10025    -9325    -9564   -10597   -11488 
  -11711   -10872    -8943    -6967    -6088    -6196    -6997    -8681 
  -10242   -10026    -8347    -6951    -6959    -8495   -10593   -11614 
  -10952    -9549    -8560    -8525    -9313   -10238   -10921   -11419 
  -10914    -8554    -5953    -5675    -7701   -10193   -11939   -12198 
  -10762    -8965    -8260    -8145    -7530    -6921    -7439    -9023 
  -10598   -11128   -10586    -9751    -8976    -8557    -9363   -11314 
  -12861   -12931   -11681    -9624    -7461    -6096    -6077    -7096 
   -8043    -7938    -6856    -5729    -5405    -5722    -6022    -6624 
   -8058    -9367    -9421    -8676    -8245    -8723   -10215   -12270 
  -13757   -13635   -12052   -10085    -8428    -7431    -7668    -9185 
  -10983   -11828   -11098    -9204    -7404    -6516    -6475    -7674 
  -10527   -13473   -14175   -12310    -9389    -7186    -6960    -8640 
  -10925   -12739   -13705   -13369   -11354    -8064    -4657    -2948 
   -4414    -8071   -10854   -10889    -9012    -7034    -6039    -6455 
   -8182   -10125   -10949   -10351    -8673    -6521    -5115    -5420 
   -7480   -10723   -13670   -14596   -13193   -10378    -7176    -4592 
   -3624    -4985    -8283   -11246   -11502    -9336    -6840    -5274 
   -5035    -6374    -8536    -9969   -10002    -9096    -8090    -7573 
   -7514    -8067    -9833   -12243   -13792   -14056   -13608   -12764 
  -11713   -11083   -11237   -11376   -10748    -9863    -9347    -9040 
   -8542    -7618    -6444    -5560    -5215    -5486    -6654    -8276 
   -9262    -9562    -9869   -10288   -10974   -12275   -13836   -15184 
  -15896   -15075   -12982   -11396   -10995   -11049   -11082   -10662 
   -9315    -7523    -6245    -5784    -5945    -6404    -6728    -6602 
   -5952    -4978    -4472    -5489    -8006   -10623   -12209   -12595 
  -11696    -9850    -8252    -7730    -8334    -9894   -11691   -12723 
  -12646   -11441    -9266    -7207    -6365    -6474    -6866    -7750 
   -9394   -11007   -11624   -11236   -10102    -8464    -7352    -7568 
   -8383    -8896    -9244    -9653    -9690    -8934    -7776    -7129 
   -7501    -8722   -10368   -12137   -13856   -14901   -14135   -11475 
   -8644    -7160    -6898    -7323    -8264    -9211    -9558    -9256 
   -8248    -6554    -5146    -5027    -6019    -7308    -8237    -8766 
   -9520   -10721   -11504   -10806    -8800    -7285    -8052   -10698 
  -13047   -13648   -12677   -10655    -7836    -4734    -2432    -2258 
   -4604    -8208   -11304   -12699   -11931    -9836    -8110    -7264 
   -6593    -6454    -8090   -11061   -13200   -13197   -11730   -10154 
   -9067    -8379    -8235    -8930   -10119   -11148   -11437   -10500 
   -8969    -8374    -9117   -10378   -11137   -10600    -9127    -7973 
   -7623    -7861    -8680    -9948   -10735    -9983    -8170    -6995 
   -7026    -7418    -7746    -8541   -10142   -11769   -12444   -12174 
  -11183    -9498    -7998    -7823    -8692    -9293    -9131    -8730 
   -8370    -8063    -7994    -8191    -8649    -9053    -8595    -7473 
   -7051    -7645    -8063    -7538    -6745    -6733    -7659    -8834 
   -9508    -9693   -10044   -10562   -10540    -9910    -9281    -9103 
   -9413    -9783    -9720    -9634   -10493   -12085   -12911   -12159 
  -10712    -9752    -9441    -9406    -9455    -9518    -9487    -9115 
   -8406    -7906    -7785    -7503    -6967    -6590    -6532    -6883 
   -7560    -8083    -8448    -9274   -10814   -12533   -13320   -12382 
  -10654   -10085   -11109   -12179   -11826   -10309    -9184    -9400 
  -10454   -11357   -11520   -10831    -9649    -8522    -7531    -6566 
   -5980    -6197    -7028    -7892    -8252    -7843    -7192    -7265 
   -8066    -8822    -9431   -10048   -10222    -9888    -9724    -9950 
  -10254   -10465   -10642   -11090   -11971   -12541   -11681    -9238 
   -6264    -4456    -4900    -6856    -8743    -9687    -9497    -8496 
   -7329    -6432    -6342    -7804   -10557   -12772   -12814   -11059 
   -9238    -8711    -9555   -10324    -9574    -8090    -7662    -8237 
   -8684    -8760    -8650    -8526    -8596    -8403    -7437    -6569 
   -6924    -8125    -9208    -9747    -9352    -8046    -6890    -6589 
   -6945    -8035    -9670   -10659   -10173    -8745    -7739    -8105 
   -9414   -10604   -11288   -11668   -11794   -11584   -11079   -10353 
   -9661    -9432    -9582    -9653    -9697    -9995   -10330   -10413 
  -10318    -9867    -8660    -7003    -5906    -6273    -8290   -10999 
  -12924   -13377   -12640   -11392   -10339    -9903   -10096   -10692 
  -11315   -11637   -11670   -11349   -10162    -8191    -6405    -5293 
   -4857    -5327    -6403    -7175    -7342    -7252    -6972    -6249 
   -5080    -3871    -3395    -4363    -6489    -8656   -10273   -11736 
  -13348   -14376   -14071   -12858   -11387   -10053    -9772   -11091 
  -12960   -13763   -12946   -11136    -9121    -7223    -5606    -4672 
   -4788    -5688    -6664    -7419    -7944    -7992    -7790    -8221 
   -9479   -10786   -11692   -12573   -13608   -14277   -14250   -13633 
  -12409   -10692    -8946    -7492    -6251    -4810    -3053    -1875 
   -1972    -2619    -3256    -4490    -6180    -7109    -6936    -6443 
   -6453    -7430    -9121   -10713   -11816   -12490   -12467   -11569 
  -10330    -9327    -8668    -8525    -9124   -10079   -10589   -10504 
  -10523   -11167   -11929   -11939   -11163   -10185    -9158    -7992 
   -7006    -6586    -6890    -7804    -8642    -8784    -8521    -8344 
   -8203    -8004    -8071    -8685    -9532   -10057   -10110    -9711 
   -8691    -6968    -4939    -3528    -3416    -4112    -4606    -4668 
   -4584    -4364    -3904    -3450    -3620    -4893    -7083    -9421 
  -11151   -11874   -11670   -11236   -11340   -12077   -13289   -14952 
  -16552   -17208   -16596   -15191   -13761   -12692   -11677   -10300 
   -8834    -8005    -7913    -7762    -6843    -5348    -4009    -3356 
   -3454    -3865    -4117    -4221    -4401    -5077    -6786    -9294 
  -11803   -14029   -15878   -16978   -17442   -17986   -19010   -20432 
  -22064   -23388   -23731   -23151   -22260   -21485   -21147   -21311 
  -21331   -20661   -19545   -18247   -16702   -15078   -13703   -12619 
  -11898   -11857   -12456   -13108   -13278   -12734   -11546   -10246 
   -9468    -9356    -9467    -9126    -7861    -5759    -3586    -2232 
   -1965    -2425    -2956    -2901    -2155    -1150     -226      388 
     483      130     -541    -1686    -3253    -4716    -5618    -5903 
   -5759    -5472    -5483    -6322    -8109   -10169   -11538   -11765 
  -11194   -10589   -10393   -10404   -10309   -10152    -9837    -8957 
   -7677    -6702    -6130    -5404    -4299    -3203    -2403    -1740 
   -1240    -1262    -1771    -2251    -2304    -1979    -1566    -1202 
    -985    -1139    -1732    -2462    -2843    -2562    -1894    -1456 
   -1601    -2512    -4457    -7150    -9765   -12009   -14122   -15944 
  -17199   -18280   -19658   -20938   -21438   -20993   -19743   -18038 
  -16441   -15121   -13790   -12476   -11506   -10843   -10212    -9428 
   -8235    -6625    -5090    -3915    -3010    -2455    -2388    -2624 
   -2799    -2835    -2853    -2822    -2940    -3663    -4869    -5891 
   -6424    -6701    -6804    -6415    -5530    -4885    -5377    -7338 
  -10096   -12329   -13304   -13220   -12673   -12576   -13717   -15850 
  -18018   -19774   -21447   -23313   -24988   -25714   -25085   -23384 
  -21369   -19734   -18675   -18145   -18150   -18327   -17901   -16390 
  -13709    -9883    -5535    -1939      172     1185     1611     1478 
     985      761     1081     1503     1433      751     -373    -2084 
   -4714    -8267   -12150   -15360   -17359   -18434   -18897   -18941 
  -19195   -19944   -20578   -20818   -20958   -20830   -20152   -19002 
  -17261   -14960   -12769   -11202   -10157    -9679   -10073   -10752 
  -10285    -8033    -4627    -1290      607      376    -1381    -3453 
   -4730    -4514    -2833     -280     2289     3829     3734     2521 
    1162      -10    -1192    -2421    -3596    -4656    -5379    -5680 
   -6106    -7034    -8043    -8826    -9485    -9707    -9229    -8536 
   -7978    -7389    -6805    -6525    -6691    -7149    -7499    -7618 
   -7848    -8240    -8436    -8488    -8824    -9558   -10559   -11812 
  -13242   -14494   -15138   -14967   -14067   -12698   -11284   -10299 
   -9927   -10076   -10405   -10354    -9683    -8776    -8124    -7969 
   -8387    -9229   -10083   -10690   -11138   -11524   -11817   -12067 
  -12344   -12545   -12568   -12432   -12208   -12133   -12349   -12486 
  -12154   -11504   -10710    -9651    -8545    -7936    -7974    -8422 
   -8996    -9514    -9884    -9887    -9254    -8127    -6885    -5624 
   -4418    -3557    -2930    -2065     -822      711     2404     3651 
    3919     3595     3458     3770     4152     3946     2691      365 
   -2670    -5721    -8187   -10208   -12509   -15556   -18954   -21818 
  -23723   -24719   -24881   -24603   -24602   -25138   -25857   -26231 
  -25942   -25164   -24279   -23395   -22275   -20622   -18405   -15900 
  -13458   -11496   -10413   -10158   -10139    -9705    -8629    -7128 
   -5651    -4776    -4877    -5768    -6961    -8037    -8648    -8569 
   -7855    -6748    -5501    -4440    -3987    -4380    -5470    -6778 
   -7681    -7692    -6887    -6058    -5961    -6670    -7836    -8982 
   -9639    -9633    -9042    -8091    -7203    -6696    -6598    -6717 
   -6617    -6050    -5266    -4653    -4534    -4941    -5302    -5136 
   -4702    -4259    -3601    -2635    -1722    -1412    -1929    -2952 
   -3958    -4637    -5039    -5433    -5961    -6404    -6299    -5455 
   -4345    -3755    -4159    -5432    -7087    -8656    -9697    -9921 
   -9647    -9570   -10037   -10891   -11792   -12464   -12745   -12604 
  -12187   -11718   -11408   -11308   -11175   -10798   -10301   -10056 
  -10579   -12317   -15099   -17925   -19626   -20012   -20048   -20630 
  -21790   -23166   -24445   -25375   -25914   -26231   -26252   -25551 
  -23947   -21952   -20409   -19591   -18931   -17822   -16241   -14478 
  -12791   -11176    -9329    -7002    -4240    -1412      966     2652 
    3746     4379     4680     4977     5737     7060     8635    10200 
   11488    12008    11587    10677     9794     9112     8428     7285 
    5535     3516     1520     -438    -2505    -4990    -7950   -10758 
  -12771   -13987   -14858   -16038   -17915   -20058   -21643   -22287 
  -22115   -21317   -19977   -18237   -16341   -14550   -13066   -11943 
  -11086   -10457   -10303   -10891   -11858   -12411   -12303   -11975 
  -11875   -12324   -13543   -15118   -16106   -16168   -15777   -15372 
  -15114   -15120   -15454   -16016   -16564   -16768   -16382   -15643 
  -14958   -14143   -12858   -11302    -9782    -8461    -7593    -7168 
   -6743    -5958    -4830    -3692    -3069    -3126    -3404    -3445 
   -3312    -3198    -2972    -2619    -2488    -2675    -2799    -2571 
   -2178    -2058    -2458    -3245    -4021    -4440    -4576    -4715 
   -4892    -5078    -5298    -5352    -5038    -4542    -4189    -4199 
   -4692    -5578    -6658    -7863    -9255   -10860   -12502   -13786 
  -14368   -14330   -14076   -13879   -13834   -13987   -14192   -14378 
  -14729   -15221   -15647   -15984   -16113   -15844   -15230   -14355 
  -13228   -12015   -10980   -10312    -9998    -9764    -9209    -8163 
   -7032    -6465    -6585    -7006    -7333    -7395    -7372    -7592 
   -7931    -7942    -7643    -7528    -7867    -8548    -9366   -10102 
  -10647   -11156   -11759   -12329   -12725   -12938   -12996   -12995 
  -12987   -12718   -11935   -10933   -10228    -9838    -9633    -9910 
  -10916   -12336   -13474   -13787   -13316   -12691   -12629   -13086 
  -13265   -12835   -12179   -11458   -10523    -9240    -7522    -5570 
   -3863    -2659    -1912    -1636    -1979    -2938    -4054    -4706 
   -4727    -4432    -4220    -4293    -4617    -5078    -5524    -5787 
   -5796    -5595    -5404    -5541    -6115    -6921    -7643    -8243 
   -9035    -9965   -10295    -9533    -8083    -6839    -6540    -7269 
   -8418    -9262    -9364    -8683    -7523    -6331    -5491    -5194 
   -5302    -5495    -5589    -5628    -5822    -6315    -7044    -7840 
   -8608    -9504   -10817   -12528   -14211   -15595   -16779   -17672 
  -17849   -17307   -16614   -16264   -16430   -17116   -18223   -19483 
  -20317   -20105   -18793   -17027   -15541   -14731   -14820   -15788 
  -17108   -18071   -18326   -17914   -16991   -15642   -13929   -12077 
  -10422    -9134    -8190    -7377    -6212    -4217    -1358     1846 
    4669     6716     8054     8949     9668    10273    10358     9439 
    7658     5621     3781     2284      943     -638    -2731    -5225 
   -7678    -9686   -11178   -12181   -12841   -13513   -14195   -14451 
  -14158   -13548   -12773   -12020   -11456   -10810    -9711    -8390 
   -7464    -7172    -7088    -6642    -5825    -5101    -4741    -4851 
   -5512    -6439    -7371    -8506    -9925   -11354   -12694   -13927 
  -14725   -14732   -14138   -13441   -12881   -12769   -13529   -14868 
  -16123   -17234   -18341   -19211   -19707   -20028   -20413   -21055 
  -21922   -22615   -22819   -22551   -21824   -20718   -19674   -19099 
  -18941   -18895   -18615   -17793   -16490   -15075   -13648   -12081 
  -10447    -8808    -7214    -6116    -6000    -6804    -7987    -8818 
   -8614    -7265    -5530    -4365    -4013    -4221    -4770    -5377 
   -5715    -5601    -4927    -3832    -2663    -1590     -706     -225 
    -294     -832    -1628    -2421    -2897    -2781    -2069    -1062 
    -307     -220     -521     -634     -349      376     1470     2444 
    2686     1922      315    -1721    -3767    -5467    -6628    -7283 
   -7634    -8127    -9458   -12059   -15569   -19148   -22111   -24089 
  -24977   -25043   -24786   -24490   -24202   -23973   -23776   -23419 
  -22495   -20409   -17082   -13413   -10485    -8532    -7099    -5796 
   -4449    -3044    -1918    -1571    -2301    -4008    -6110    -7915 
   -9100    -9659    -9726    -9539    -9301    -9055    -8752    -8355 
   -7800    -6976    -5745    -4016    -2054     -454      541     1260 
    1991     2647     3006     2992     2828     2670     2467     2270 
    1918      797    -1474    -4634    -8039   -11002   -12999   -13873 
  -14087   -14581   -16047   -18449   -21261   -23835   -25656   -26374 
  -25814   -24290   -22553   -21181   -20297   -19580   -18523   -16895 
  -14940   -13085   -11387    -9418    -6932    -4193    -1738     -230 
     -74    -1044    -2602    -4229    -5472    -6200    -6633    -6983 
   -7366    -7923    -8766    -9679   -10093    -9767    -9066    -8280 
   -7318    -6158    -5016    -4105    -3450    -2826    -1956     -869 
     113      784      963      349     -908    -2282    -3707    -5371 
   -7223    -9301   -11769   -14337   -16380   -17645   -18404   -19190 
  -20486   -22333   -24213   -25508   -25891   -25378   -24325   -23290 
  -22559   -21836   -20679   -19155   -17744   -16714   -15834   -14698 
  -13080   -11129    -9458    -8618    -8411    -8172    -7470    -6138 
   -4135    -1761      368     1711     1917     1071       35     -145 
     814     2505     4403     5918     6493     6031     4861     3404 
    2035      982      272     -166     -450     -704    -1000    -1525 
   -2745    -4947    -7726   -10282   -11948   -12492   -12436   -12501 
  -12708   -12946   -13606   -14823   -16131   -17074   -17460   -17312 
  -16883   -16534   -16514   -16750   -16987   -17130   -17182   -17124 
  -17050   -16964   -16590   -15701   -14349   -12829   -11743   -11659 
  -12542   -13782   -14563   -14339   -13250   -11881   -10808   -10497 
  -11113   -12244   -13197   -13620   -13564   -12976   -11734   -10095 
   -8513    -7391    -6932    -6933    -6994    -6821    -6178    -4945 
   -3403    -2043    -1001     -114      680     1308     1594     1213 
    -137    -2339    -4734    -6621    -7797    -8586    -9451   -10687 
  -12328   -14065   -15435   -16177   -16294   -15986   -15425   -14461 
