Origin Time       2025/01/13 21:19:00
Lat.              31.8
Long.             131.6
Depth. (km)       30
Mag.              6.9
Station Code      OIT003
Station Lat.      33.5575
Station Long.     131.4460
Station Height(m) 5
Record Time       2025/01/13 21:20:10
Sampling Freq(Hz) 100Hz
Duration Time(s)  108
Dir.              E-W
Scale Factor      7845(gal)/8223790
Max. Acc. (gal)   6.379
Last Correction   2025/01/13 21:20:11
Memo.             
[...]
    8155     8344     8680     9076     9472     9828    10077    10174 
   10100     9880     9603     9293     8884     8406     8002     7781 
    7739     7819     7916     7942     7859     7672     7434     7210 
    7002     6756     6442     6130     5925     5836     5822     5895 
    6076     6318     6558     6768     6952     7137     7357     7597 
    7812     7947     7967     7871     7719     7604     7549     7476 
    7333     7129     6855     6490     6068     5653     5298     5019 
    4846     4872     5138     5539     5921     6164     6177     5931 
    5510     5020     4542     4179     4014     3982     3935     3824 
    3707     3627     3612     3690     3865     4097     4357     4629 
    4891     5134     5355     5545     5729     5914     6062     6183 
    6347     6563     6777     6934     6990     6957     6895     6832 
    6763     6674     6561     6438     6315     6197     6139     6232 
    6498     6876     7299     7668     7850     7807     7631     7427 
    7246     7138     7157     7296     7506     7723     7890     7986 
    7993     7867     7577     7160     6731     6374     6087     5850 
    5663     5533     5487     5530     5624     5752     5977     6390 
    7060     7963     8953     9801    10369    10667    10716    10498 
   10088     9666     9366     9228     9244     9342     9374     9207 
    8806     8270     7743     7312     7020     6895     6943     7103 
    7269     7326     7192     6878     6463     6030     5644     5402 
    5337     5359     5356     5323     5287     5228     5120     5031 
    5071     5260     5513     5691     5656     5359     4887     4374 
    3908     3553     3407     3547     3954     4498     5024     5421 
    5675     5834     5907     5879     5830     5869     5999     6180 
    6363     6453     6396     6251     6122     6087     6127     6139 
    6052     5890     5724     5574     5408     5209     5019     4931 
    5031     5317     5680     5980     6135     6138     5998     5737 
    5429     5158     4969     4919     5034     5244     5475     5709 
    5938     6185     6504     6886     7267     7620     7960     8306 
    8661     9024     9413     9815    10170    10404    10534    10704 
   11020    11399    11708    11901    11982    11915    11650    11222 
   10716    10162     9572     9053     8726     8644     8845     9313 
    9903    10450    10930    11396    11828    12150    12287    12190 
   11854    11365    10885    10582    10523    10652    10887    11132 
   11283    11265    11051    10659    10137     9499     8806     8155 
    7578     7024     6459     5894     5324     4741     4183     3726 
    3443     3357     3422     3616     3882     4074     4072     3921 
    3786     3796     3956     4237     4595     4935     5197     5404 
    5568     5665     5734     5849     6016     6184     6338     6515 
    6758     7096     7476     7730     7688     7326     6787     6291 
    5942     5687     5451     5209     4957     4735     4594     4499 
    4372     4198     4017     3780     3399     2941     2575     2416 
    2466     2678     3006     3402     3834     4290     4681     4896 
    4984     5101     5320     5609     5944     6292     6623     6993 
    7461     7981     8403     8615     8641     8571     8464     8361 
    8291     8222     8086     7906     7765     7676     7627     7620 
    7635     7661     7688     7722     7793     7932     8141     8371 
    8584     8818     9132     9545    10025    10478    10756    10787 
   10669    10501    10291    10058     9825     9553     9255     9022 
    8899     8837     8772     8685     8540     8235     7732     7103 
    6444     5833     5344     5031     4897     4934     5151     5566 
    6162     6856     7526     8058     8302     8151     7674     7065 
    6489     6050     5819     5775     5819     5915     6104     6396 
    6735     7020     7109     6891     6384     5728     5103     4645 
    4401     4348     4495     4826     5209     5552     5869     6127 
    6227     6170     6002     5734     5470     5356     5427     5624 
    5914     6292     6714     7132     7541     7874     7971     7788 
    7435     7028     6646     6359     6234     6295     6490     6725 
    6887     6886     6740     6570     6504     6586     6767     6964 
    7145     7312     7437     7429     7253     6997     6770     6604 
    6453     6276     6073     5857     5667     5536     5427     5321 
    5282     5344     5416     5379     5227     5022     4845     4799 
    4947     5294     5830     6524     7285     7975     8479     8761 
    8830     8718     8513     8324     8228     8280     8505     8873 
    9290     9605     9702     9560     9219     8753     8249     7761 
    7342     7051     6853     6670     6474     6265     6026     5736 
    5428     5186     5084     5159     5404     5737     6062     6345 
    6600     6824     6967     6988     6902     6739     6547     6409 
    6372     6442     6615     6835     7018     7087     6968     6706 
    6474     6331     6176     5954     5728     5578     5583     5821 
    6280     6816     7267     7524     7528     7277     6822     6265 
    5713     5246     4888     4648     4527     4509     4533     4540 
    4490     4380     4266     4233     4360     4649     5026     5454 
    5968     6542     7086     7570     7987     8294     8475     8561 
    8559     8469     8333     8197     8091     8037     8032     8035 
    7981     7824     7561     7209     6814     6474     6258     6172 
    6192     6322     6585     6948     7368     7827     8270     8592 
    8707     8627     8437     8210     8013     7877     7759     7624 
    7512     7461     7453     7465     7510     7570     7582     7519 
    7399     7267     7188     7179     7172     7145     7106     7045 
    6947     6851     6870     7096     7511     7983     8351     8545 
    8642     8704     8707     8626     8490     8355     8237     8089 
    7870     7582     7271     7065     7111     7407     7843     8341 
    8843     9246     9491     9624     9679     9621     9429     9158 
    8870     8591     8353     8170     7992     7776     7520     7214 
    6843     6462     6207     6189     6385     6685     6998     7250 
    7349     7179     6696     5988     5254     4714     4490     4577 
    4959     5593     6299     6872     7225     7393     7472     7554 
    7723     7994     8295     8536     8665     8668     8606     8581 
    8625     8669     8644     8532     8334     8055     7774     7601 
    7555     7584     7657     7774     7908     8013     8087     8113 
    8036     7848     7595     7333     7153     7150     7311     7520 
    7678     7720     7593     7254     6740     6166     5636     5208 
    4927     4772     4621     4372     4072     3812     3608     3453 
    3354     3291     3254     3289     3434     3630     3715     3534 
    3073     2471     1865     1312      841      499      357      518 
    1027     1803     2687     3526     4187     4621     4881     4999 
    4915     4639     4301     4044     3987     4198     4676     5385 
    6243     7111     7843     8363     8694     8923     9140     9362 
    9522     9580     9568     9513     9385     9165     8908     8711 
    8645     8743     8989     9327     9683    10000    10250    10430 
   10552    10619    10621    10554    10384    10077     9680     9273 
    8893     8599     8455     8410     8387     8391     8402     8345 
    8206     7959     7547     7001     6453     6049     5934     6199 
    6766     7430     7951     8149     8016     7642     7106     6534 
    6087     5873     5902     6030     6068     5923     5624     5316 
    5185     5293     5544     5854     6172     6400     6469     6420 
    6339     6259     6149     5999     5856     5738     5652     5638 
    5686     5699     5659     5620     5614     5694     5937     6335 
    6805     7330     7940     8622     9298     9844    10165    10288 
   10274    10133     9873     9556     9274     9055     8843     8600 
    8345     8074     7792     7530     7254     6868     6332     5729 
    5231     4958     4928     5088     5350     5651     5994     6376 
    6727     7021     7339     7722     8097     8434     8758     9053 
    9319     9647    10039    10376    10593    10740    10837    10829 
   10652    10303     9840     9346     8856     8376     7913     7491 
    7123     6787     6417     6008     5638     5391     5294     5331 
    5436     5470     5269     4800     4168     3497     2855     2247 
    1690     1255     1027     1055     1351     1830     2344     2789 
    3137     3397     3601     3757     3856     3919     3983     4158 
    4549     5161     5914     6678     7299     7727     8036     8306 
    8591     8939     9355     9751     9975     9983     9884     9787 
    9744     9774     9790     9707     9547     9343     9092     8795 
    8456     8132     7929     7897     8039     8355     8765     9144 
    9397     9444     9240     8823     8275     7693     7171     6795 
    6617     6604     6690     6845     7072     7326     7524     7607 
    7560     7443     7369     7385     7474     7611     7719     7678 
    7420     6948     6336     5726     5238     4915     4779     4853 
    5123     5517     5937     6346     6758     7142     7416     7569 
    7676     7786     7932     8110     8225     8176     8024     7936 
    7990     8154     8391     8633     8764     8731     8523     8135 
    7611     7037     6486     6011     5607     5217     4793     4368 
    4000     3700     3462     3271     3090     2911     2759     2643 
    2586     2632     2837     3254     3852     4523     5150     5644 
    5968     6107     6076     5961     5891     5933     6129     6493 
    6939     7294     7420     7258     6799     6089     5269     4569 
    4135     3935     3977     4344     4984     5733     6524     7323 
    8051     8652     9139     9553     9950    10370    10797    11137 
   11311    11311    11156    10866    10501    10207    10135    10307 
   10609    10959    11319    11646    11947    12249    12498    12584 
   12440    12060    11514    10917    10412    10087     9865     9606 
    9286     8959     8635     8244     7670     6891     5991     5101 
    4374     3885     3599     3485     3534     3704     3970     4342 
    4791     5229     5601     5887     6065     6116     6068     5968 
    5880     5865     5984     6272     6706     7227     7736     8085 
    8175     8006     7622     7079     6442     5718     4903     4037 
    3200     2500     1987     1613     1374     1320     1439     1680 
    2003     2347     2654     2899     3100     3279     3460     3705 
    4041     4390     4648     4747     4666     4484     4364     4415 
    4648     5012     5428     5844     6261     6650     6934     7074 
    7082     7028     7017     7106     7273     7479     7697     7892 
    8014     8059     8091     8245     8642     9300    10102    10828 
   11279    11381    11215    10940    10650    10347    10004     9598 
    9135     8661     8255     8005     7950     8036     8164     8226 
    8120     7794     7294     6731     6238     5906     5794     5933 
    6305     6852     7483     8044     8380     8426     8228     7912 
    7666     7649     7898     8360     8893     9323     9514     9451 
    9197     8834     8413     7966     7528     7159     6906     6751 
    6615     6427     6160     5846     5564     5382     5314     5333 
    5439     5668     5991     6292     6497     6637     6758     6870 
    7005     7179     7384     7611     7843     8054     8253     8480 
    8700     8806     8729     8496     8175     7828     7453     6994 
    6442     5860     5335     4923     4638     4479     4392     4266 
    4024     3685     3280     2849     2467     2216     2147     2216 
    2342     2505     2759     3137     3564     3885     4008     3964 
    3854     3773     3798     3937     4170     4515     4990     5593 
    6296     7013     7620     8019     8189     8248     8368     8640 
    9085     9717    10524    11438    12318    12996    13343    13332 
   13039    12633    12309    12170    12166    12198    12209    12164 
   12040    11824    11507    11113    10696    10251     9717     9063 
    8347     7692     7226     6998     6961     7007     6995     6816 
    6434     5817     4965     3989     3034     2220     1648     1381 
    1424     1710     2096     2463     2786     3083     3397     3812 
    4363     4999     5630     6189     6652     7055     7470     7938 
    8424     8868     9228     9512     9713     9803     9799     9721 
    9541     9250     8899     8621     8542     8672     8911     9107 
    9138     9009     8792     8529     8239     7950     7712     7537 
    7384     7244     7103     6910     6656     6374     6104     5900 
    5821     5910     6134     6408     6702     7009     7290     7543 
    7753     7858     7842     7708     7464     7180     6978     6906 
    6925     6975     7018     7030     6998     6914     6791     6673 
    6640     6760     7003     7273     7500     7666     7773     7813 
    7792     7712     7582     7419     7233     7044     6899     6798 
    6671     6492     6284     6035     5663     5128     4511     3912 
    3364     2855     2365     1885     1414      954      550      302 
     241      284      341      410      548      828     1331     2084 
    3028     4021     4958     5800     6562     7269     7969     8699 
    9441    10098    10570    10832    10933    10976    11080    11302 
   11595    11858    12001    11971    11772    11435    10989    10473 
    9945     9467     9116     8935     8900     8957     9066     9204 
    9310     9269     9023     8623     8145     7670     7287     7038 
    6917     6902     6978     7163     7506     7969     8414     8733 
    8884     8857     8665     8332     7924     7580     7423     7489 
    7727     8025     8257     8305     8102     7692     7184     6691 
    6304     6091     6054     6077     6034     5894     5699     5491 
    5304     5136     4955     4708     4344     3882     3430     3092 
    2926     2951     3138     3434     3774     4129     4525     4974 
    5425     5803     6050     6147     6176     6305     6625     7080 
    7569     7996     8322     8584     8804     8974     9074     9078 
    8958     8711     8391     8105     7915     7838     7905     8139 
    8479     8834     9105     9177     8957     8460     7805     7133 
    6570     6210     6072     6147     6396     6691     6912     7034 
    7086     7113     7172     7281     7376     7369     7229     6939 
    6455     5796     5086     4464     3977     3622     3380     3244 
    3226     3323     3516     3777     4058     4309     4518     4716 
    4963     5277     5633     6030     6458     6883     7287     7663 
    8013     8330     8613     8856     9043     9175     9262     9296 
    9270     9208     9154     9138     9161     9194     9231     9297 
    9381     9424     9401     9331     9262     9232     9225     9163 
    8941     8511     7951     7377     6853     6394     5996     5632 
    5279     4955     4708     4581     4584     4700     4924     5232 
    5559     5852     6066     6168     6185     6188     6231     6350 
    6561     6856     7217     7601     7944     8163     8208     8074 
    7770     7352     6932     6610     6434     6409     6519     6709 
    6914     7083     7161     7096     6895     6648     6459     6365 
    6340     6354     6392     6431     6454     6480     6565     6727 
    6921     7080     7167     7164     7061     6859     6586     6300 
    6056     5900     5881     5994     6176     6370     6540     6667 
    6744     6766     6731     6660     6608     6629     6747     6902 
    7007     7051     7053     7009     6939     6878     6810     6717 
    6615     6511     6420     6409     6528     6732     6932     7105 
    7294     7516     7712     7793     7720     7526     7292     7119 
    7042     7007     6959     6906     6879     6874     6878     6913 
    7014     7184     7373     7499     7485     7307     6987     6600 
    6218     5877     5589     5366     5209     5076     4951     4904 
    4976     5103     5211     5269     5263     5209     5184     5248 
    5422     5722     6122     6528     6863     7105     7241     7284 
    7308     7391     7535     7715     7940     8216     8475     8649 
    8731     8714     8598     8448     8337     8286     8301     8397 
    8565     8780     9015     9243     9428     9560     9661     9715 
    9676     9562     9432     9304     9140     8911     8611     8276 
    7994     7858     7875     7959     7994     7911     7695     7392 
    7092     6883     6795     6779     6728     6551     6210     5729 
    5200     4699     4245     3871     3619     3489     3435     3410 
    3383     3314     3192     3056     2922     2790     2722     2818 
    3117     3582     4152     4725     5190     5555     5883     6191 
    6485     6779     7065     7349     7651     7970     8295     8631 
    8985     9336     9629     9821     9890     9834     9678     9463 
    9259     9128     9078     9085     9119     9159     9194     9212 
    9213     9180     9072     8891     8677     8448     8195     7923 
    7630     7323     7030     6779     6583     6454     6399     6415 
    6482     6551     6586     6573     6517     6454     6417     6382 
    6303     6187     6073     5973     5867     5728     5578     5478 
    5482     5607     5846     6156     6478     6756     6921     6932 
    6808     6623     6485     6439     6440     6435     6394     6305 
    6177     6050     5953     5899     5907     5969     6054     6138 
    6219     6318     6461     6643     6820     6948     7040     7122 
    7202     7290     7400     7542     7723     7905     8020     8052 
    8056     8085     8152     8224     8252     8239     8206     8193 
    8230     8307     8401     8500     8604     8711     8791     8800 
    8748     8684     8629     8548     8415     8263     8139     8048 
    7963     7852     7709     7561     7429     7310     7190     7061 
    6912     6725     6534     6409     6372     6355     6295     6188 
    6075     5995     5960     5950     5958     5975     5968     5907 
    5783     5632     5520     5487     5528     5594     5624     5574 
    5455     5335     5270     5279     5366     5512     5680     5844 
    5983     6088     6160     6215     6331     6590     7011     7577 
    8253     8935     9481     9811     9914     9772     9416     8965 
    8534     8168     7882     7696     7596     7569     7616     7701 
    7776     7821     7821     7743     7595     7404     7192     6993 
    6826     6705     6647     6650     6709     6802     6876     6902 
    6871     6779     6629     6448     6293     6211     6207     6254 
    6334     6448     6606     6787     6934     6988     6909     6705 
    6417     6106     5821     5576     5366     5196     5092     5073 
    5147     5279     5398     5472     5487     5417     5254     5028 
    4791     4594     4479     4444     4472     4558     4698     4877 
