Origin Time       2025/01/13 21:19:00
Lat.              31.8
Long.             131.6
Depth. (km)       30
Mag.              6.9
Station Code      OIT004
Station Lat.      33.5659
Station Long.     131.7316
Station Height(m) 4
Record Time       2025/01/13 21:20:08
Sampling Freq(Hz) 100Hz
Duration Time(s)  111
Dir.              U-D
Scale Factor      7845(gal)/8223790
Max. Acc. (gal)   3.968
Last Correction   2025/01/13 21:20:08
Memo.             
[...]
    -579     -553     -438     -203       91      337      484      546 
     525      418      259      124       75       94      116       89 
      18      -24       20      166      395      689     1015     1323 
    1611     1899     2127     2249     2334     2423     2416     2204 
    1873     1584     1333     1054      761      465      201       60 
      14      -86     -278     -417     -430     -364     -236      -97 
     -32      -44     -106     -243     -488     -793    -1082    -1421 
   -1817    -2074    -2114    -2106    -2119    -1988    -1657    -1255 
    -830     -441     -186      -20      120      172       82     -140 
    -433     -733    -1046    -1416    -1830    -2188    -2388    -2434 
   -2369    -2254    -2189    -2138    -1980    -1764    -1576    -1379 
   -1197    -1105    -1035     -973    -1015    -1156    -1298    -1337 
   -1281    -1266    -1302    -1225     -962     -642     -468     -407 
    -197      203      587      849      996     1036      996      831 
     499      116     -164     -319     -463     -657     -816     -943 
   -1161    -1449    -1634    -1624    -1493    -1325    -1102     -795 
    -415      -17      287      464      623      855     1113     1298 
    1379     1363     1240     1004      735      564      504      432 
     294      195      202      233      201      167      182      206 
     318      595      899     1117     1266     1372     1441     1485 
    1570     1664     1602     1414     1313     1364     1462     1518 
    1502     1421     1306     1158      934      622      329      184 
     144      132      252      535      814     1027     1248     1453 
    1534     1489     1444     1494     1568     1574     1489     1316 
    1086      828      511      136     -236     -571     -814     -916 
    -922     -919     -961    -1039    -1125    -1182    -1121     -908 
    -696     -607     -569     -527     -508     -558     -757    -1080 
   -1364    -1543    -1690    -1852    -1965    -1971    -1921    -1906 
   -1912    -1892    -1826    -1661    -1370    -1058     -823     -652 
    -534     -425     -292     -230     -280     -360     -409     -421 
    -448     -495     -488     -422     -309     -125       79      216 
     248      207      135       22     -120     -191     -140      -66 
    -102     -299     -572     -783     -966    -1235    -1534    -1813 
   -2127    -2455    -2691    -2785    -2717    -2512    -2242    -1946 
   -1590    -1156     -699     -249      184      595      976     1283 
    1441     1414     1263     1146     1105     1027      800      403 
     -35     -368     -622     -847    -1050    -1264    -1436    -1413 
   -1193     -955     -849     -839     -756     -550     -364     -271 
    -243     -237     -191      -64      103      202      160       20 
    -149     -317     -471     -581     -611     -561     -492     -507 
    -677     -934    -1101    -1117    -1123    -1224    -1294    -1240 
   -1189    -1227    -1282    -1281    -1221    -1174    -1213    -1291 
   -1320    -1308    -1279    -1165     -924     -603     -226      194 
     642     1085     1431     1649     1768     1711     1486     1227 
    1009      846      673      446      233       79      -58     -260 
    -568     -861    -1026    -1116    -1167    -1152    -1146    -1201 
   -1264    -1273    -1188    -1016     -826     -684     -635     -691 
    -808     -957    -1129    -1320    -1517    -1711    -1885    -1981 
   -1887    -1544    -1035     -504       -6      499     1005     1420 
    1723     1933     1996     1881     1663     1448     1229      901 
     521      195      -70     -232     -259     -225     -176      -89 
      58      259      494      761     1021     1206     1354     1487 
    1526     1431     1251     1070      911      706      440      147 
    -180     -513     -751     -857     -855     -773     -658     -603 
    -626     -648     -614     -542     -469     -372     -295     -356 
    -484     -517     -508     -584     -662     -588     -399     -180 
     102      382      522      560      571      533      417      247 
      54     -143     -294     -380     -453     -526     -588     -668 
    -739     -770     -837     -992    -1109    -1019     -777     -610 
    -610     -662     -657     -650     -743     -899    -1005    -1009 
    -984    -1062    -1232    -1332    -1286    -1169    -1084    -1078 
   -1107    -1044     -865     -669     -523     -352      -67      249 
     372      198     -126     -402     -602     -800    -1000    -1129 
   -1077     -808     -472     -143      244      625      835      873 
     880      936      978      945      864      761      626      463 
     303      195      167      195      284      453      670      896 
    1115     1291     1437     1545     1548     1447     1318     1215 
    1097      882      591      344      207      171      198      228 
     233      166      -40     -302     -452     -425     -247       29 
     319      573      858     1219     1543     1664     1549     1332 
    1124      930      756      577      345      125       10      -22 
     -52      -85      -81      -31       21       21      -94     -288 
    -438     -510     -561     -673     -866    -1069    -1188    -1194 
   -1116    -1036    -1019    -1016     -940     -822     -750     -673 
    -529     -406     -341     -232      -45      116      216      302 
     333      268      189      133       74       14      -24      -51 
     -86      -98      -54      -16      -55     -216     -564    -1059 
   -1552    -1969    -2295    -2459    -2427    -2273    -2060    -1744 
   -1309     -861     -488     -214       -1      280      677     1092 
    1463     1787     2065     2239     2222     2053     1836     1556 
    1225      985      873      749      565      432      369      286 
     160       20     -149     -314     -406     -469     -540     -554 
    -534     -557     -660     -864    -1140    -1412    -1665    -1884 
   -1989    -1941    -1779    -1532    -1197     -841     -525     -207 
     118      325      286       29     -295     -565     -791    -1046 
   -1348    -1640    -1914    -2228    -2586    -2884    -2999    -2878 
   -2613    -2394    -2289    -2195    -2041    -1857    -1657    -1425 
   -1134     -743     -284      129      494      946     1471     1796 
    1830     1777     1705     1501     1167      808      430       37 
    -278     -461     -531     -511     -400     -172      176      557 
     827      895      842      888     1085     1273     1308     1150 
     853      557      367      287      336      568      965     1364 
    1634     1809     1880     1734     1375      868      295     -199 
    -634    -1148    -1728    -2195    -2424    -2408    -2162    -1734 
   -1290     -965     -724     -515     -313      -40      341      780 
    1229     1644     1971     2200     2322     2255     1958     1493 
    1008      608      263     -126     -558     -924    -1140    -1242 
   -1286    -1248    -1090     -885     -753     -669     -517     -286 
     -59      140      310      452      534      444      183      -66 
    -210     -298     -376     -468     -588     -675     -608     -364 
     -82       97      244      560     1039     1449     1694     1896 
    2143     2374     2504     2581     2681     2736     2656     2401 
    1961     1416      814      125     -562    -1080    -1375    -1544 
   -1653    -1661    -1517    -1266    -1007     -815     -684     -506 
    -237       -2      145      336      595      758      741      641 
     545      414      197     -140     -546     -881    -1098    -1244 
   -1377    -1518    -1671    -1888    -2138    -2312    -2434    -2542 
   -2670    -2920    -3214    -3361    -3312    -3114    -2817    -2390 
   -1790    -1127     -575     -226      -63       35      124      132 
      41      -12       56      168      314      554      768      811 
     731      602      441      314      283      317      341      310 
     228      129      -45     -379     -754     -984    -1081    -1163 
   -1255    -1316    -1366    -1485    -1622    -1661    -1675    -1794 
   -1966    -2145    -2398    -2658    -2739    -2594    -2313    -2007 
   -1655    -1228     -882     -639     -368     -130       33      265 
     619     1031     1429     1748     1971     2083     2064     1992 
    1903     1680     1277      793      318     -117     -492     -777 
    -935     -965     -905     -791     -619     -418     -275     -252 
    -353     -562     -799     -976    -1113    -1298    -1516    -1679 
   -1742    -1659    -1383     -994     -633     -402     -271      -58 
     318      727     1059     1328     1576     1826     2023     2069 
    1993     1937     1944     1900     1709     1436     1169      897 
     611      294      -33     -280     -429     -556     -662     -707 
    -661     -504     -267       10      306      556      719      816 
     876      893      820      650      535      585      731      939 
    1240     1547     1740     1880     2054     2170     2104     1919 
    1749     1642     1610     1567     1364     1001      585      189 
    -162     -453     -676     -877    -1134    -1420    -1640    -1794 
   -1999    -2300    -2577    -2728    -2802    -2816    -2712    -2532 
   -2335    -2027    -1575    -1104     -680     -275      144      558 
     904     1169     1389     1510     1464     1316     1201     1140 
    1043      878      649      292     -202     -729    -1210    -1651 
   -1989    -2178    -2257    -2236    -2041    -1690    -1328    -1034 
    -729     -334       91      427      616      708      773      818 
     819      768      670      540      371      180       64      109 
     298      602      980     1308     1533     1749     1942     1991 
    1867     1633     1360     1127      945      751      506      210 
     -79     -299     -457     -565     -642     -733     -823     -857 
    -781     -572     -301      -44      253      581      777      830 
     905     1061     1197     1228     1166     1063      892      508 
     -99     -714    -1108    -1236    -1254    -1345    -1524    -1686 
   -1745    -1698    -1625    -1544    -1439    -1378    -1390    -1417 
   -1441    -1498    -1579    -1637    -1636    -1593    -1602    -1738 
   -1925    -2015    -1930    -1645    -1196     -719     -379     -260 
    -290     -282     -167      -58      -31      -22       41      195 
     452      814     1174     1362     1335     1216     1096      907 
     603      297       60     -175     -430     -643     -796     -891 
    -935     -963     -990     -955     -789     -540     -309      -82 
     245      661     1038     1336     1598     1818     1981     2072 
    2096     2083     1980     1715     1289      753      199     -361 
    -988    -1610    -2130    -2511    -2698    -2677    -2511    -2277 
   -2012    -1764    -1593    -1499    -1471    -1491    -1541    -1564 
   -1444    -1189     -957     -804     -673     -521     -338     -159 
     -67      -97     -182     -257     -330     -469     -706     -942 
   -1098    -1188    -1223    -1183    -1093    -1031    -1054    -1127 
   -1175    -1210    -1312    -1462    -1582    -1655    -1667    -1583 
   -1383    -1051     -581       22      681     1231     1590     1787 
    1796     1606     1335     1063      761      441      176        4 
     -47       40      232      452      602      654      687      756 
     839      888      861      784      695      607      530      365 
      35     -364     -731    -1061    -1406    -1807    -2178    -2405 
   -2511    -2567    -2582    -2552    -2448    -2170    -1703    -1166 
    -604       63      814     1495     2010     2340     2540     2650 
    2614     2415     2137     1861     1618     1389     1128      843 
     587      452      469      549      611      661      693      643 
     507      336      106     -195     -522     -824    -1057    -1197 
   -1250    -1229    -1171    -1102    -1059    -1120    -1271    -1390 
   -1432    -1370    -1192    -1009     -880     -739     -573     -457 
    -481     -623     -715     -635     -436     -236      -74       93 
     275      388      361      232       81      -25     -108     -268 
    -513     -800    -1174    -1622    -2016    -2253    -2309    -2258 
   -2151    -1999    -1834    -1660    -1456    -1242    -1038     -797 
    -465      -81      290      639      922     1093     1248     1456 
    1614     1626     1587     1629     1694     1698     1669     1593 
    1421     1185      951      723      454      137     -229     -598 
    -866    -1055    -1270    -1503    -1651    -1701    -1729    -1707 
   -1571    -1352    -1080     -750     -413     -102      137      294 
     432      557      626      679      753      799      783      760 
     785      819      766      564      206     -253     -710    -1071 
   -1343    -1561    -1665    -1628    -1507    -1340    -1121     -866 
    -623     -413     -221      -79       10      141      325      460 
     521      571      652      765      870      904      858      758 
     645      576      529      464      390      295      198      124 
      47        5       31       40      -24     -108     -162     -241 
    -432     -719    -1057    -1456    -1896    -2293    -2627    -2926 
   -3161    -3272    -3217    -2906    -2326    -1641     -953     -193 
     638     1436     2154     2798     3343     3747     3964     3975 
    3804     3524     3215     2810     2195     1456      768      160 
    -375     -816    -1208    -1564    -1813    -1921    -1927    -1858 
   -1694    -1444    -1189     -934     -673     -483     -378     -297 
    -226     -207     -256     -337     -426     -511     -558     -554 
    -564     -599     -573     -496     -433     -351     -274     -278 
    -307     -290     -271     -294     -325     -291     -199     -102 
     -20        8      -28      -76     -174     -361     -561     -753 
    -958    -1101    -1135    -1131    -1158    -1190    -1163    -1017 
    -708     -257      222      645     1016     1381     1701     1922 
    2033     2033     1945     1795     1588     1344     1102      876 
     627      379      213       98      -24     -139     -205     -195 
    -151     -130     -126     -122     -180     -341     -575     -828 
   -1061    -1231    -1320    -1364    -1402    -1416    -1371    -1267 
   -1129     -994     -831     -544     -137      253      530      714 
     851      984     1124     1201     1127      984      899      823 
     641      349       16     -334     -710    -1039    -1233    -1325 
   -1381    -1421    -1485    -1575    -1614    -1588    -1559    -1503 
   -1337    -1062     -754     -423       -1      490      897     1104 
    1138     1104     1040      895      633      318       48     -136 
    -268     -399     -558     -715     -820     -909    -1066    -1266 
   -1379    -1354    -1293    -1254    -1197    -1088     -932     -761 
    -604     -486     -419     -375     -307     -222     -137      -47 
      41       85       91      136      195      198      194      229 
     279      348      445      521      540      522      473      345 
     136      -78     -276     -484     -670     -816     -958    -1105 
   -1246    -1351    -1329    -1155     -943     -760     -585     -415 
    -257     -121      -39      -62     -176     -263     -241     -152 
     -28      133      321      534      764     1000     1251     1512 
    1733     1876     1948     1989     2010     1976     1872     1740 
    1601     1422     1209      982      697      356       51     -209 
    -484     -762    -1009    -1229    -1435    -1561    -1524    -1377 
   -1197     -939     -611     -309      -81       91      243      383 
     477      484      419      351      322      309      271      243 
     229      152      -12     -228     -480     -776    -1088    -1360 
   -1583    -1738    -1790    -1763    -1728    -1755    -1865    -1993 
   -2100    -2173    -2196    -2184    -2146    -2085    -2003    -1921 
   -1876    -1838    -1721    -1518    -1316    -1132     -951     -800 
    -693     -616     -557     -479     -361     -251     -199     -186 
    -125      -27       22       18       27      103      237      357 
     406      380      314      203       36     -149     -325     -495 
    -645     -731     -723     -649     -560     -441     -279     -124 
     -29       -2      -16      -45      -66      -48       10       68 
      86       72       56       51       48       62      106      149 
     175      193      206      237      307      413      534      622 
     633      588      506      352       76     -324     -772    -1197 
   -1567    -1833    -2004    -2115    -2128    -2034    -1875    -1653 
   -1344     -963     -569     -199      145      467      764     1020 
    1197     1321     1448     1566     1636     1672     1711     1726 
    1642     1475     1287     1090      907      758      621      480 
     376      324      255      112      -64     -251     -483     -749 
    -994    -1167    -1291    -1459    -1671    -1819    -1875    -1911 
   -1976    -2016    -1964    -1806    -1590    -1363    -1144     -930 
    -677     -349       -8      247      417      533      581      575 
     521      395      217       39      -86     -133     -130     -124 
    -143     -186     -232     -275     -318     -360     -422     -506 
    -591     -679     -773     -853     -873     -835     -773     -700 
    -641     -591     -519     -469     -452     -373     -217      -43 
     136      319      486      637      770      823      743      611 
     498      334       91     -135     -317     -473     -565     -575 
    -561     -549     -500     -423     -341     -241     -143      -72 
       8      112      244      441      662      822      911      977 
    1055     1132     1167     1154     1080      920      720      508 
     249      -59     -364     -639     -886    -1109    -1297    -1394 
   -1371    -1293    -1200    -1062     -893     -745     -645     -610 
    -626     -648     -635     -621     -625     -575     -440     -322 
    -282     -276     -286     -321     -384     -473     -588     -730 
    -881    -1008    -1075    -1055     -992     -951     -923     -839 
    -680     -496     -342     -220     -112       -5       94      182 
     261      349      444      552      693      837      945     1027 
    1098     1148     1131     1027      864      639      336       14 
    -263     -503     -676     -749     -773     -783     -739     -629 
    -504     -405     -303     -178      -67       -8       41      118 
     198      247      259      253      267      309      352      352 
     280      176       99       47      -33     -152     -294     -468 
    -654     -835    -1054    -1358    -1699    -1981    -2162    -2259 
   -2285    -2245    -2130    -1939    -1705    -1470    -1248    -1030 
    -791     -554     -369     -243     -149      -95      -82      -78 
     -67      -49       -5       51       37      -59     -148     -203 
    -282     -373     -452     -540     -641     -729     -773     -733 
    -595     -403     -222      -86       13       95      170      230 
