Origin Time       2025/01/13 21:19:00
Lat.              31.8
Long.             131.6
Depth. (km)       30
Mag.              6.9
Station Code      OIT011
Station Lat.      33.2468
Station Long.     131.8816
Station Height(m) 8
Record Time       2025/01/13 21:20:01
Sampling Freq(Hz) 100Hz
Duration Time(s)  105
Dir.              U-D
Scale Factor      7845(gal)/8223790
Max. Acc. (gal)   4.264
Last Correction   2025/01/13 21:20:00
Memo.             
[...]
   10215    10439    10748    11033    11183    11146    11010    10894 
   10739    10380     9887     9571     9559     9582     9325     8849 
    8526     8610     9008     9444     9744     9933    10111    10372 
   10812    11364    11782    11920    11819    11574    11221    10682 
   10042     9645     9667     9877     9977     9923     9941    10208 
   10589    10777    10635    10345    10199    10247    10292    10160 
    9883     9729     9972    10500    10953    11265    11601    11888 
   11902    11643    11238    10760    10223     9582     8919     8461 
    8287     8299     8476     8938     9710    10530    11071    11249 
   11172    10976    10746    10520    10359    10284    10212    10084 
    9927     9830     9877    10075    10374    10646    10782    10841 
   10854    10794    10782    10944    11155    11130    10810    10449 
   10297    10292    10131     9780     9529     9466     9333     8908 
    8314     8025     8406     9201     9774     9846     9751    10012 
   10712    11357    11518    11269    10957    10800    10759    10682 
   10555    10525    10633    10708    10586    10320    10120    10153 
   10270    10052     9427     8915     8966     9552    10354    10990 
   11249    11200    11040    10922    10920    11033    11191    11246 
   11053    10554     9799     9013     8527     8506     8818     9243 
    9683    10130    10590    11056    11468    11696    11646    11400 
   11164    11063    11044    11024    10953    10758    10350     9771 
    9236     8955     8937     9070     9251     9400     9531     9695 
    9911    10200    10542    10820    10916    10812    10636    10528 
   10454    10343    10200     9981     9641     9293     9185     9463 
   10002    10457    10598    10543    10552    10743    11041    11340 
   11566    11608    11402    11091    10855    10731    10623    10400 
    9998     9478     9054     8939     9094     9335     9568     9767 
    9910     9965     9891     9778     9806     9958    10018     9925 
    9842     9891    10058    10234    10239    10075     9915     9813 
    9779     9926    10230    10528    10714    10724    10602    10557 
   10675    10787    10679    10362    10084    10002     9975     9863 
    9794     9950    10201    10219     9931     9639     9560     9629 
    9693     9633     9474     9418     9549     9819    10264    10817 
   11256    11456    11496    11499    11421    11134    10687    10228 
    9792     9362     8984     8708     8525     8503     8796     9406 
   10104    10655    11052    11466    11935    12303    12459    12384 
   12077    11604    11068    10528    10034     9625     9273     8907 
    8521     8210     8131     8413     9023     9748    10374    10820 
   11109    11357    11736    12280    12752    12865    12521    11813 
   11040    10550    10399    10373    10355    10292    10045     9648 
    9325     9139     9055     9131     9375     9753    10214    10551 
   10570    10316     9956     9624     9402     9321     9420     9721 
   10135    10455    10480    10281    10174    10297    10534    10785 
   10962    10920    10643    10349    10192    10029     9667     9204 
    8974     9166     9682    10372    11032    11371    11300    11013 
   10725    10567    10485    10305    10087    10003    10008    10007 
    9981     9864     9612     9327     9167     9251     9602    10069 
   10403    10513    10488    10363    10103     9837     9810    10081 
   10450    10702    10854    11001    11114    11092    10957    10863 
   10894    10974    10991    10940    10899    10863    10743    10613 
   10643    10809    10979    11071    10974    10617    10181     9937 
    9894     9784     9454     9120     9057     9235     9468     9637 
    9813    10143    10523    10650    10457    10146    10000    10216 
   10640    10901    10909    10839    10716    10469    10089     9674 
    9467     9601     9846     9961     9948     9929    10008    10177 
   10327    10393    10354    10235    10114    10022     9941     9891 
    9869     9788     9667     9701     9929    10166    10343    10509 
   10646    10771    10921    11022    10990    10800    10481    10150 
    9919     9829     9811     9738     9589     9497     9617    10000 
   10535    11030    11379    11504    11400    11241    11190    11219 
   11264    11250    11071    10750    10481    10444    10604    10677 
   10504    10247    10081    10008     9946     9815     9617     9433 
    9366     9481     9780    10211    10640    10955    11140    11129 
   10839    10326     9728     9263     9159     9348     9628     9964 
   10355    10720    10978    11041    10889    10632    10397    10191 
    9948     9670     9455     9423     9616     9950    10220    10268 
   10211    10322    10628    10875    10849    10617    10409    10359 
   10416    10449    10386    10265    10161    10133    10110     9979 
    9865     9980    10227    10261     9927     9462     9270     9506 
    9899    10079    10033    10106    10482    10990    11377    11470 
   11252    10851    10342     9815     9451     9285     9228     9213 
    9196     9193     9207     9155     9089     9174     9427     9715 
    9929    10087    10304    10606    10918    11186    11349    11333 
   11151    10895    10642    10435    10287    10168    10062    10019 
   10029    10011     9941     9807     9587     9379     9342     9547 
    9977    10511    10960    11275    11492    11531    11337    11028 
   10721    10420    10118     9910     9880     9940     9927     9805 
    9680     9616     9517     9432     9536     9744     9829     9833 
    9923    10146    10442    10640    10646    10600    10642    10713 
   10741    10777    10829    10739    10403     9969     9647     9497 
    9463     9451     9391     9273     9094     8893     8814     9005 
    9409     9784    10004    10174    10482    10976    11481    11809 
   11969    12058    12032    11777    11323    10845    10494    10305 
   10142     9837     9378     8884     8492     8270     8222     8451 
    8993     9639    10168    10532    10728    10747    10571    10195 
    9775     9575     9663     9918    10204    10380    10436    10532 
   10683    10739    10719    10782    10955    11126    11186    11068 
   10816    10571    10443    10423    10420    10365    10303    10304 
   10284    10110     9863     9763     9884    10100    10233    10260 
   10308    10467    10648    10714    10631    10462    10343    10312 
   10258    10106     9814     9427     9117     8915     8703     8469 
    8317     8415     8806     9252     9571     9863    10219    10558 
   10767    10849    10909    11006    11045    10930    10735    10598 
   10550    10565    10619    10627    10542    10385    10138     9826 
    9563     9381     9177     8874     8553     8351     8301     8375 
    8586     8961     9433     9859    10139    10247    10280    10482 
   10922    11310    11400    11203    10839    10476    10191     9946 
    9796     9734     9526     9081     8658     8483     8586     8908 
    9337     9791    10237    10620    10890    10991    10906    10750 
   10598    10397    10157     9942     9845    10019    10473    11010 
   11506    11931    12256    12469    12586    12637    12587    12253 
   11524    10543     9556     8754     8218     7912     7813     8000 
    8478     9063     9590    10080    10584    11036    11353    11508 
   11584    11739    11981    12140    12163    12090    11857    11453 
   11053    10810    10731    10737    10670    10401    10042     9801 
    9734     9809     9967    10196    10616    11248    11811    12028 
   11896    11554    11144    10777    10416     9992     9594     9305 
    9113     8951     8716     8437     8290     8375     8621     8892 
    9180     9580    10071    10459    10590    10478    10224     9942 
    9752     9666     9574     9431     9359     9454     9626     9774 
    9904    10052    10258    10554    10860    11055    11144    11198 
   11169    10949    10551    10041     9563     9339     9445     9806 
   10305    10800    11306    11927    12468    12552    12121    11530 
   11194    11248    11515    11799    12044    12228    12256    12078 
   11762    11435    11179    10918    10516    10008     9564     9271 
    9076     8878     8683     8619     8860     9444    10215    10971 
   11622    12152    12556    12739    12557    12105    11700    11460 
   11237    10955    10697    10584    10697    10928    11101    11286 
   11585    11819    11827    11666    11399    11075    10790    10567 
   10368    10154     9942     9799     9725     9698     9769     9936 
   10133    10353    10567    10748    11017    11407    11723    11840 
   11777    11537    11144    10704    10342    10021     9578     8982 
    8329     7707     7226     6957     6905     7082     7434     7797 
    8127     8554     9142     9780    10284    10571    10791    11107 
   11448    11645    11607    11311    10903    10563    10289    10022 
    9819     9783     9869     9860     9643     9377     9225     9157 
    9073     8942     8806     8770     8892     9093     9305     9536 
    9732     9757     9560     9292     9181     9301     9528     9752 
   10031    10453    11001    11558    11932    11996    11846    11665 
   11488    11288    11088    10905    10787    10790    10866    10912 
   10947    11068    11272    11460    11592    11693    11777    11794 
   11618    11211    10771    10517    10458    10488    10535    10586 
   10638    10663    10635    10579    10561    10579    10581    10590 
   10683    10814    10824    10617    10206     9694     9213     8761 
    8309     7975     7855     7911     8105     8397     8645     8729 
    8679     8606     8559     8536     8533     8515     8433     8274 
    8021     7674     7353     7233     7398     7781     8262     8734 
    9143     9516     9853    10003     9822     9362     8777     8181 
    7689     7520     7816     8457     9186     9833    10361    10800 
   11157    11457    11759    12019    12078    11931    11734    11589 
   11468    11318    11137    10976    10935    11044    11215    11377 
   11533    11658    11715    11701    11651    11599    11539    11449 
   11373    11410    11550    11658    11651    11519    11184    10606 
    9983     9589     9518     9671     9875    10079    10397    10920 
   11499    11912    12106    12129    11948    11488    10764     9942 
    9221     8673     8271     8071     8206     8684     9363    10104 
   10839    11461    11831    11905    11712    11298    10791    10288 
    9786     9350     9061     8961     9124     9544    10083    10620 
   11055    11292    11361    11360    11299    11144    10929    10758 
   10719    10849    11061    11165    11072    10893    10767    10706 
   10652    10559    10399    10192    10004     9817     9525     9104 
    8657     8353     8321     8511     8761     8992     9198     9343 
    9451     9598     9810    10075    10355    10575    10652    10566 
   10393    10277    10305    10443    10592    10671    10704    10777 
   10878    10898    10840    10781    10756    10816    11011    11275 
   11480    11627    11753    11800    11676    11280    10552     9603 
    8642     7843     7400     7414     7692     7948     8108     8270 
    8537     8870     9147     9404     9815    10392    10956    11375 
   11703    12040    12368    12569    12582    12457    12255    11982 
   11658    11342    11048    10768    10539    10380    10272    10297 
   10509    10774    10995    11182    11252    11114    10782    10289 
    9693     9120     8631     8155     7717     7519     7672     8093 
    8630     9163     9659    10133    10528    10748    10816    10801 
   10728    10651    10619    10592    10521    10424    10336    10215 
   10025     9942    10168    10601    10978    11163    11194    11198 
   11192    11075    10895    10806    10813    10874    10949    10868 
   10511     9991     9466     9004     8610     8276     8105     8244 
    8634     9111     9602    10098    10615    11130    11561    11844 
   11956    11900    11716    11512    11388    11303    11149    10881 
   10567    10338    10238    10288    10542    10924    11205    11221 
   10994    10721    10515    10289    10035     9879     9807     9678 
    9404     9063     8865     8903     9094     9363     9691    10004 
   10156    10135    10160    10346    10554    10687    10764    10733 
   10563    10280     9895     9487     9140     8800     8448     8208 
    8195     8406     8731     9054     9317     9479     9474     9339 
    9244     9310     9477     9610     9663     9736     9946    10254 
   10536    10756    10949    11117    11288    11543    11859    12087 
   12093    11817    11334    10856    10548    10381    10262    10214 
   10314    10563    10883    11161    11314    11360    11399    11466 
   11441    11254    11022    10785    10481    10158     9811     9352 
    8869     8546     8457     8564     8748     8934     9180     9510 
    9871    10172    10359    10463    10519    10540    10611    10778 
   10978    11151    11265    11322    11395    11491    11466    11288 
   11149    11182    11261    11171    10833    10354     9942     9711 
    9471     8985     8348     7794     7430     7314     7503     7931 
    8473     9043     9528     9841    10037    10237    10476    10759 
   11099    11499    12044    12815    13660    14334    14713    14725 
   14312    13551    12615    11608    10538     9448     8461     7685 
    7218     7148     7458     8064     8876     9772    10623    11329 
   11790    11982    12032    12094    12199    12295    12378    12534 
   12781    12980    13014    12854    12518    12082    11632    11169 
   10665    10157     9717     9433     9409     9607     9864    10116 
   10446    10963    11686    12430    13000    13366    13463    13190 
   12606    11839    10986    10193     9641     9371     9292     9320 
    9423     9545     9590     9481     9243     9003     8857     8775 
    8700     8710     8901     9185     9423     9657     9949    10201 
   10316    10253    10029     9814     9726     9660     9562     9540 
    9621     9729     9813     9877     9948     9980     9876     9667 
    9520     9545     9718     9914    10022    10054    10096    10137 
   10084     9899     9697     9622     9670     9667     9441     9023 
    8631     8363     8106     7761     7334     6934     6723     6770 
    7014     7321     7561     7797     8133     8411     8491     8529 
    8726     9130     9605     9987    10320    10694    10982    11052 
   10947    10697    10293     9802     9305     8878     8592     8444 
    8374     8371     8488     8737     9046     9351     9621     9876 
   10169    10555    11111    11857    12657    13305    13711    13960 
   14119    14150    14060    13879    13618    13358    13109    12746 
   12256    11812    11566    11504    11504    11511    11570    11719 
   11908    12042    12056    11952    11731    11404    11059    10758 
   10496    10242     9961     9709     9601     9593     9509     9351 
    9324     9579    10052    10490    10702    10743    10746    10708 
   10581    10395    10137     9641     8819     7905     7275     7087 
    7187     7337     7499     7796     8329     9076     9888    10627 
   11182    11431    11394    11219    10962    10552    10017     9513 
    9182     9078     9180     9437     9860    10440    11072    11588 
   11801    11626    11178    10667    10277    10120    10146    10193 
   10203    10304    10692    11315    11874    12140    12089    11834 
   11470    10986    10357     9678     9058     8554     8235     8222 
    8656     9547    10686    11826    12792    13440    13713    13641 
   13220    12501    11695    11010    10551    10307    10161    10083 
   10150    10358    10586    10662    10465    10069     9647     9304 
    9054     8843     8695     8725     8937     9220     9549     9976 
   10504    11076    11604    11990    12229    12420    12563    12560 
   12363    12017    11650    11313    10913    10423     9934     9580 
    9389     9229     9053     8972     9026     9131     9178     9104 
    8978     8945     9027     9139     9255     9409     9589     9718 
    9703     9513     9217     8955     8796     8691     8600     8515 
    8479     8615     9018     9609    10264    10920    11433    11578 
   11329    10883    10434    10096     9923     9913    10030    10237 
   10465    10650    10847    11102    11277    11252    11016    10592 
   10129     9755     9464     9285     9290     9505     9887    10311 
   10671    11007    11402    11859    12291    12595    12758    12826 
   12827    12814    12795    12675    12386    11974    11492    11025 
   10744    10675    10666    10628    10451    10034     9471     8931 
    8552     8348     8249     8257     8392     8668     9035     9410 
    9849    10363    10810    11102    11261    11319    11273    11099 
   10831    10527    10211     9926     9740     9717     9921    10282 
   10646    10890    10953    10916    10843    10665    10386    10029 
    9643     9352     9126     8934     8878     9018     9324     9726 
   10164    10554    10791    10833    10681    10342     9898     9450 
    9032     8700     8572     8681     8873     9065     9402     9898 
   10438    11040    11568    11853    11904    11696    11318    10903 
   10435     9936     9531     9328     9321     9440     9694    10085 
   10469    10713    10806    10779    10727    10739    10697    10467 
   10162     9972     9906     9933    10226    10774    11277    11611 
   11736    11689    11670    11632    11454    11205    10917    10660 
   10532    10539    10670    10868    11025    11009    10728    10219 
    9594     8977     8426     7904     7398     7020     6920     7125 
    7496     7889     8290     8754     9332     9994    10567    10894 
   10975    10936    10921    10995    11115    11175    11083    10831 
   10446     9999     9648     9493     9487     9564     9678     9740 
    9672     9454     9131     8777     8411     8025     7677     7422 
    7280     7265     7338     7449     7618     7862     8226     8770 
    9460    10181    10867    11522    12116    12542    12733    12685 
   12471    12162    11703    11051    10357     9794     9445     9286 
    9174     9077     9116     9288     9540     9948    10493    11032 
   11502    11880    12160    12398    12625    12818    12947    13008 
   13020    13039    13147    13321    13459    13521    13482    13267 
   12860    12314    11711    11136    10615    10162     9817     9606 
    9571     9687     9896    10250    10760    11292    11745    12124 
   12492    12804    12865    12615    12198    11755    11317    10808 
   10218     9687     9317     9046     8731     8367     8117     8090 
    8210     8310     8305     8232     8187     8278     8523     8839 
    9162     9420     9508     9441     9324     9211     9150     9216 
    9389     9544     9572     9547     9678    10057    10594    11133 
   11514    11742    11979    12226    12359    12363    12298    12221 
   12171    12087    11796    11232    10642    10160     9676     9294 
