Origin Time       2025/01/13 21:19:00
Lat.              31.8
Long.             131.6
Depth. (km)       30
Mag.              6.9
Station Code      OIT006
Station Lat.      33.4211
Station Long.     131.3173
Station Height(m) 91
Record Time       2025/01/13 21:20:15
Sampling Freq(Hz) 100Hz
Duration Time(s)  94
Dir.              E-W
Scale Factor      7845(gal)/8223790
Max. Acc. (gal)   2.883
Last Correction   2025/01/13 21:20:15
Memo.             
[...]
    4779     4776     4733     4603     4445     4369     4448     4631 
    4814     4931     4978     4961     4920     4912     4936     4930 
    4842     4689     4503     4315     4163     4075     4070     4128 
    4162     4105     4036     4083     4255     4459     4639     4795 
    4905     4974     5038     5092     5130     5136     5036     4811 
    4577     4419     4301     4167     4008     3873     3829     3881 
    3970     4058     4176     4372     4618     4827     4955     5032 
    5111     5166     5128     5008     4908     4880     4889     4897 
    4887     4862     4824     4754     4652     4545     4475     4453 
    4440     4415     4407     4415     4453     4560     4714     4846 
    4922     4928     4874     4791     4726     4722     4768     4789 
    4742     4645     4550     4496     4480     4446     4367     4274 
    4212     4202     4249     4338     4407     4388     4290     4198 
    4175     4216     4294     4405     4560     4725     4823     4847 
    4861     4887     4908     4901     4841     4715     4561     4434 
    4368     4375     4433     4491     4538     4587     4622     4635 
    4617     4561     4502     4473     4468     4459     4448     4425 
    4371     4340     4383     4461     4518     4553     4581     4603 
    4623     4664     4725     4757     4747     4737     4731     4688 
    4588     4469     4394     4387     4428     4461     4455     4467 
    4557     4680     4788     4885     4976     5071     5182     5251 
    5216     5131     5085     5042     4943     4849     4808     4789 
    4787     4824     4887     4924     4905     4824     4700     4583 
    4534     4565     4607     4571     4434     4248     4087     4023 
    4071     4156     4187     4182     4183     4191     4221     4317 
    4468     4606     4672     4648     4557     4469     4441     4472 
    4526     4571     4596     4606     4606     4617     4630     4607 
    4548     4514     4560     4635     4617     4463     4251     4083 
    4014     3987     3894     3713     3542     3491     3562     3663 
    3736     3815     3937     4093     4236     4352     4471     4662 
    4934     5167     5267     5277     5265     5252     5216     5123 
    4961     4776     4665     4672     4707     4708     4730     4818 
    4951     5077     5139     5094     4939     4706     4461     4307 
    4310     4402     4436     4363     4276     4268     4325     4363 
    4349     4334     4347     4355     4325     4286     4334     4517 
    4735     4882     4958     5015     5092     5189     5278     5325 
    5321     5308     5314     5283     5196     5155     5221     5328 
    5347     5220     5030     4887     4804     4715     4569     4407 
    4286     4201     4140     4108     4120     4202     4341     4445 
    4433     4365     4368     4450     4518     4517     4475     4457 
    4502     4580     4612     4549     4455     4421     4457     4490 
    4459     4364     4245     4193     4288     4488     4634     4645 
    4573     4513     4510     4522     4479     4392     4347     4367 
    4392     4372     4351     4396     4506     4622     4711     4791 
    4874     4953     5023     5108     5208     5308     5404     5459 
    5394     5220     5058     4963     4904     4865     4845     4815 
    4765     4710     4652     4584     4540     4531     4498     4403 
    4305     4236     4176     4143     4175     4267     4367     4428 
    4445     4472     4590     4799     4999     5123     5242     5412 
    5560     5597     5532     5422     5290     5127     4919     4669 
    4415     4207     4044     3916     3858     3879     3947     4040 
    4126     4172     4202     4275     4392     4483     4509     4503 
    4495     4469     4445     4469     4534     4580     4567     4507 
    4459     4449     4423     4328     4209     4152     4172     4217 
    4241     4243     4261     4334     4434     4499     4504     4486 
    4468     4464     4488     4534     4548     4503     4430     4348 
    4255     4172     4147     4186     4228     4226     4205     4202 
    4245     4306     4336     4369     4444     4504     4498     4442 
    4367     4287     4221     4175     4152     4180     4297     4491 
    4720     4931     5070     5120     5116     5121     5138     5104 
    4989     4831     4687     4621     4648     4695     4683     4590 
    4429     4268     4206     4267     4360     4387     4367     4407 
    4548     4723     4876     5001     5109     5196     5251     5293 
    5329     5323     5265     5198     5140     5090     5084     5130 
    5177     5182     5142     5058     4977     4953     4930     4820 
    4648     4495     4383     4288     4220     4195     4222     4313 
    4417     4477     4530     4614     4695     4741     4761     4762 
    4754     4762     4788     4789     4780     4823     4893     4908 
    4865     4816     4773     4737     4730     4725     4633     4456 
    4280     4148     4075     4075     4075     3979     3824     3713 
    3684     3723     3817     3928     3990     3994     4036     4199 
    4444     4692     4900     5046     5128     5173     5181     5143 
    5086     5070     5093     5089     5026     4936     4860     4819 
    4820     4810     4737     4653     4607     4561     4491     4440 
    4436     4453     4482     4550     4653     4773     4911     5022 
    5028     4936     4824     4773     4789     4811     4781     4692 
    4621     4657     4796     4928     5003     5071     5171     5263 
    5274     5193     5078     4995     4946     4899     4826     4743 
    4692     4673     4649     4611     4579     4560     4558     4577 
    4623     4676     4712     4752     4860     5039     5205     5298 
    5319     5262     5120     4930     4726     4522     4329     4137 
    3939     3789     3735     3762     3838     3916     3994     4120 
    4306     4490     4610     4658     4658     4642     4630     4598 
    4500     4353     4225     4140     4075     4008     3944     3921 
    3964     4041     4098     4137     4176     4190     4147     4072 
    4043     4110     4256     4394     4450     4442     4476     4622 
    4831     4985     5026     4995     4984     5034     5089     5066 
    4962     4850     4795     4764     4652     4456     4299     4274 
    4342     4394     4359     4272     4193     4118     4016     3902 
    3809     3738     3690     3689     3750     3851     3931     3950 
    3966     4063     4234     4392     4459     4448     4430     4438 
    4449     4465     4502     4530     4526     4494     4446     4403 
    4382     4376     4372     4364     4365     4386     4398     4390 
    4351     4263     4145     4059     4050     4117     4213     4278 
    4283     4239     4202     4228     4310     4395     4426     4390 
    4363     4405     4492     4592     4683     4741     4765     4777 
    4797     4824     4855     4892     4945     5038     5144     5197 
    5175     5138     5131     5162     5213     5255     5240     5171 
    5097     5070     5120     5219     5269     5202     5049     4895 
    4806     4784     4822     4889     4915     4837     4688     4576 
    4571     4630     4683     4727     4799     4903     5026     5173 
    5321     5410     5421     5374     5320     5319     5358     5371 
    5331     5289     5301     5352     5413     5478     5530     5535 
    5503     5474     5444     5391     5292     5123     4904     4692 
    4515     4357     4230     4172     4163     4137     4075     4031 
    4055     4143     4266     4396     4525     4658     4788     4884 
    4907     4842     4756     4719     4710     4656     4525     4336 
    4163     4072     4044     4036     4063     4133     4209     4263 
    4298     4325     4364     4413     4468     4538     4614     4683 
    4760     4851     4928     4965     4963     4916     4837     4754 
    4689     4645     4627     4635     4639     4638     4683     4769 
    4830     4828     4787     4741     4706     4660     4560     4413 
    4287     4243     4286     4414     4610     4810     4938     4984 
    5015     5101     5204     5229     5158     5035     4904     4780 
    4654     4515     4401     4345     4333     4324     4303     4272 
    4221     4144     4041     3913     3782     3680     3615     3568 
    3519     3477     3458     3462     3495     3541     3561     3561 
    3591     3678     3834     4017     4141     4172     4171     4193 
    4243     4320     4415     4498     4556     4630     4707     4719 
    4644     4515     4363     4209     4063     3925     3828     3829 
    3917     4012     4055     4062     4094     4197     4347     4480 
    4575     4662     4776     4903     5009     5086     5131     5097 
    4968     4812     4684     4572     4452     4298     4118     3959 
    3843     3770     3747     3773     3824     3883     3960     4093 
    4306     4553     4761     4914     5036     5139     5231     5304 
    5335     5331     5300     5233     5125     4958     4730     4464 
    4232     4124     4151     4217     4241     4257     4356     4569 
    4827     5031     5157     5273     5435     5621     5764     5786 
    5651     5433     5243     5116     5009     4872     4725     4657 
    4702     4800     4884     4915     4955     5107     5352     5597 
    5779     5899     5971     6016     6056     6081     6077     6035 
    5918     5733     5563     5452     5367     5293     5243     5224 
    5223     5221     5204     5171     5152     5175     5225     5254 
    5225     5167     5128     5108     5070     4988     4869     4741 
    4649     4604     4549     4429     4274     4163     4132     4133 
    4120     4110     4145     4203     4199     4086     3931     3846 
    3847     3840     3757     3634     3541     3488     3472     3514 
    3612     3700     3723     3704     3721     3839     4064     4329 
    4563     4764     4950     5093     5173     5211     5216     5173 
    5097     5050     5054     5065     5057     5024     4969     4941 
    4958     4972     4958     4931     4918     4950     5032     5115 
    5171     5221     5279     5328     5347     5350     5344     5310 
    5232     5117     4977     4808     4598     4353     4113     3890 
    3643     3354     3091     2933     2868     2806     2685     2523 
    2408     2396     2435     2439     2384     2284     2169     2099 
    2100     2147     2181     2138     2023     1941     1958     2020 
    2034     2015     2060     2209     2431     2673     2898     3114 
    3334     3522     3662     3777     3871     3932     3963     3996 
    4048     4118     4179     4243     4361     4563     4834     5159 
    5525     5904     6268     6608     6909     7138     7298     7395 
    7419     7365     7272     7176     7047     6866     6674     6509 
    6388     6297     6174     5977     5764     5617     5524     5436 
    5339     5239     5146     5097     5104     5163     5263     5383 
    5524     5702     5941     6235     6528     6777     6974     7091 
    7109     7049     6964     6891     6797     6643     6448     6241 
    6003     5710     5362     4995     4644     4322     4025     3778 
    3631     3585     3577     3568     3596     3711     3892     4072 
    4224     4361     4491     4600     4676     4729     4784     4837 
    4865     4861     4869     4932     5003     5004     4953     4891 
    4826     4741     4614     4484     4421     4417     4409     4355 
    4275     4251     4348     4530     4715     4865     4963     5000 
    4974     4903     4810     4696     4546     4387     4291     4313 
    4441     4595     4671     4627     4517     4436     4414     4414 
    4388     4307     4179     4036     3912     3838     3812     3789 
    3738     3662     3592     3547     3520     3492     3488     3550 
    3649     3709     3715     3731     3824     3975     4105     4152 
    4128     4091     4051     4004     4016     4151     4387     4642 
    4876     5094     5289     5416     5462     5459     5462     5483 
    5456     5314     5084     4850     4668     4531     4413     4288 
    4151     4004     3869     3788     3774     3809     3878     3944 
    3944     3847     3699     3569     3489     3478     3543     3653 
    3761     3863     3966     4067     4172     4280     4401     4550 
    4708     4823     4872     4882     4891     4885     4835     4773 
    4779     4878     5013     5115     5174     5224     5274     5340 
    5440     5547     5618     5647     5649     5651     5670     5684 
    5657     5602     5571     5570     5535     5436     5319     5242 
    5223     5235     5212     5127     5038     5000     5009     5034 
    5049     5047     5023     4976     4919     4839     4707     4544 
    4419     4375     4395     4429     4436     4419     4422     4465 
    4521     4565     4621     4708     4822     4955     5101     5236 
    5359     5472     5552     5591     5616     5657     5728     5829 
    5942     6035     6081     6065     6004     5938     5859     5717 
    5510     5279     5074     4924     4803     4654     4468     4276 
    4109     3962     3844     3778     3740     3665     3527     3368 
    3222     3092     2967     2866     2810     2786     2756     2710 
    2678     2664     2631     2538     2403     2293     2247     2220 
    2142     2004     1856     1752     1684     1618     1566     1567 
    1621     1705     1794     1861     1925     1993     2035     2052 
    2097     2174     2222     2215     2165     2107     2083     2103 
    2100     2029     1933     1867     1849     1894     2011     2200 
    2459     2755     3041     3292     3519     3740     3973     4207 
    4437     4645     4818     4972     5140     5319     5485     5641 
    5814     6004     6158     6239     6250     6227     6241     6315 
    6378     6369     6291     6168     6037     5937     5871     5809 
    5738     5664     5578     5468     5354     5281     5277     5327 
    5368     5351     5285     5246     5287     5378     5429     5378 
    5255     5150     5112     5090     5013     4885     4776     4752 
    4842     5012     5171     5277     5350     5397     5410     5378 
    5287     5136     4942     4712     4459     4212     4002     3862 
    3813     3852     3969     4158     4390     4622     4822     4992 
    5166     5337     5470     5537     5526     5437     5320     5250 
    5282     5387     5487     5540     5594     5706     5869     6031 
    6151     6242     6324     6372     6355     6319     6326     6362 
    6372     6320     6222     6118     6046     6006     5979     5972 
    5980     5981     5972     5972     5975     5931     5813     5647 
    5483     5356     5274     5221     5185     5186     5255     5383 
    5541     5728     5929     6099     6222     6327     6443     6544 
    6577     6484     6266     6021     5846     5729     5580     5352 
    5094     4884     4737     4612     4486     4367     4287     4253 
    4236     4225     4216     4171     4055     3866     3658     3519 
    3464     3418     3333     3253     3237     3284     3373     3485 
    3597     3688     3763     3842     3933     4035     4099     4095 
    4060     4036     4016     4000     3996     4027     4104     4206 
    4302     4374     4432     4509     4603     4681     4734     4799 
    4891     4970     5001     4997     4996     5012     5020     4985 
    4900     4780     4654     4534     4418     4293     4166     4077 
    4054     4055     4014     3908     3758     3593     3433     3277 
    3123     2984     2872     2766     2639     2519     2450     2428 
    2425     2452     2543     2702     2894     3053     3140     3191 
    3271     3402     3530     3599     3585     3511     3450     3462 
    3514     3528     3489     3449     3468     3535     3595     3603 
    3572     3557     3588     3642     3699     3721     3680     3586 
    3487     3450     3518     3655     3796     3901     3964     3978 
    3943     3888     3852     3871     3947     4044     4144     4272 
    4469     4741     5020     5231     5346     5374     5366     5367 
    5377     5385     5390     5389     5385     5364     5331     5312 
    5298     5294     5301     5281     5200     5080     4985     4949 
    4939     4916     4882     4877     4942     5086     5294     5529 
    5763     5977     6172     6331     6451     6559     6681     6793 
    6872     6916     6898     6816     6691     6550     6393     6218 
    6025     5802     5532     5232     4968     4776     4657     4607 
    4603     4622     4677     4820     5086     5459     5863     6197 
    6432     6604     6723     6774     6748     6652     6497     6281 
    6037     5825     5688     5636     5620     5593     5567     5567 
    5572     5567     5543     5510     5509     5540     5576     5594 
    5589     5570     5544     5514     5491     5505     5563     5630 
    5651     5603     5514     5436     5404     5400     5373     5275 
    5103     4896     4695     4515     4353     4217     4116     4036 
    3954     3866     3782     3693     3592     3499     3431     3385 
    3333     3227     3044     2818     2612     2465     2361     2245 
    2126     2066     2112     2250     2425     2600     2766     2909 
    3024     3127     3226     3314     3387     3414     3352     3229 
    3117     3059     3048     3037     2982     2910     2901     3001 
    3196     3431     3655     3843     4010     4217     4503     4819 
    5066     5173     5181     5215     5359     5556     5684     5692 
    5641     5607     5580     5494     5321     5104     4907     4758 
    4633     4498     4342     4180     4032     3901     3765     3636 
    3580     3623     3701     3742     3735     3690     3647     3651 
    3688     3700     3665     3600     3541     3514     3518     3523 
    3524     3580     3732     3944     4135     4259     4303     4293 
    4284     4307     4341     4372     4409     4464     4550     4664 
    4797     4957     5124     5248     5314     5367     5445     5549 
    5647     5692     5660     5570     5444     5287     5101     4912 
    4757     4645     4568     4503     4438     4390     4378     4396 
    4429     4445     4434     4406     4360     4299     4222     4148 
    4128     4209     4398     4641     4853     5023     5211     5437 
    5660     5846     5987     6060     6072     6064     6041     5981 
    5877     5752     5628     5533     5487     5489     5539     5616 
    5676     5707     5741     5825     5977     6176     6349     6436 
    6439     6373     6242     6062     5860     5671     5505     5355 
    5228     5105     4945     4772     4630     4529     4469     4422 
    4333     4171     3994     3867     3750     3559     3287     2984 
    2733     2589     2531     2511     2515     2575     2721     2920 
    3117     3284     3411     3514     3616     3721     3821     3893 
    3925     3955     4020     4117     4217     4282     4310     4330 
    4351     4351     4329     4330     4386     4448     4422     4290 
    4095     3871     3643     3454     3330     3277     3289     3354 
