Origin Time       2025/01/13 21:19:00
Lat.              31.8
Long.             131.6
Depth. (km)       30
Mag.              6.9
Station Code      OIT012
Station Lat.      33.0666
Station Long.     131.3729
Station Height(m) 460
Record Time       2025/01/13 21:19:57
Sampling Freq(Hz) 100Hz
Duration Time(s)  124
Dir.              N-S
Scale Factor      7845(gal)/8223790
Max. Acc. (gal)   10.773
Last Correction   2025/01/13 21:19:57
Memo.             
[...]
    6637     6577     7086     7870     8492     8627     8282     7790 
    7508     7632     8166     8812     9112     8826     8175     7716 
    7878     8635     9594    10170     9880     8799     7593     7011 
    7352     8290     9202     9655     9576     9123     8614     8441 
    8710     9113     9221     8799     8158     7994     8572     9493 
   10251    10611    10547    10057     9192     8252     7692     7747 
    8195     8572     8614     8464     8471     8766     9148     9418 
    9522     9359     8773     7863     7160     7123     7595     8086 
    8279     8059     7508     6957     6766     7084     7794     8523 
    8823     8478     7669     6912     6674     7022     7747     8557 
    9128     9247     8965     8664     8731     9063     9270     9232 
    8996     8587     8210     8174     8587     9281     9907    10131 
    9853     9278     8750     8483     8457     8577     8783     8966 
    8953     8676     8272     7933     7792     7884     8059     8054 
    7731     7317     7242     7659     8182     8280     7801     7030 
    6384     6130     6304     6851     7722     8662     9196     9058 
    8467     7861     7589     7688     7869     7884     7809     7897 
    8214     8614     9012     9445     9775     9702     9155     8433 
    7900     7817     8286     9036     9607     9786     9599     9184 
    8737     8452     8473     8797     9240     9625     9813     9652 
    9131     8498     8090     8050     8239     8472     8719     8955 
    9036     8888     8638     8449     8355     8291     8156     7854 
    7415     7052     7087     7792     9082    10388    11001    10493 
    8920     7030     5949     6273     7591     8885     9355     8926 
    8083     7468     7512     8162     8907     9209     8893     8185 
    7634     7874     9018    10477    11452    11442    10563     9383 
    8445     8027     8067     8181     8037     7709     7560     7831 
    8355     8793     8947     8653     7889     7056     6679     6912 
    7511     8066     8228     8050     8009     8445     9093     9342 
    8850     7888     7013     6594     6767     7481     8313     8610 
    8090     7119     6428     6556     7480     8699     9502     9463 
    8877     8442     8572     9128     9656     9848     9666     9157 
    8484     8047     8209     8881     9590     9853     9390     8328 
    7198     6551     6563     6905     7033     6813     6708     7126 
    7936     8733     9192     9188     8849     8394     8004     7911 
    8325     9103     9686     9516     8518     7240     6416     6349 
    6787     7387     8012     8565     8815     8664     8418     8503 
    8961     9374     9316     8799     8122     7588     7564     8330 
    9641    10743    10924    10084     8777     7657     7010     6783 
    6820     7076     7612     8279     8743     8914     9043     9337 
    9633     9602     9201     8692     8267     7950     7839     8185 
    9050    10038    10613    10619    10254     9691     8955     8176 
    7716     7846     8352     8667     8453     7916     7511     7512 
    7912     8587     9427    10195    10444     9914     8922     8158 
    8174     8943     9930    10596    10584     9779     8608     7813 
    7838     8544     9279     9308     8496     7335     6423     6169 
    6683     7703     8658     8932     8380     7546     7165     7719 
    9174    10746    11379    10631     8928     7283     6619     7129 
    8229     9080     9159     8465     7311     6085     5255     5211 
    5817     6405     6478     6362     6880     8297     9940    10957 
   11082    10562     9699     8733     8024     7948     8449     9063 
    9489     9877    10381    10701    10461     9605     8353     7184 
    6589     6686     7325     8206     8819     8676     7758     6739 
    6523     7330     8467     9140     9134     8600     7776     7069 
    6906     7427     8399     9304     9668     9309     8407     7515 
    7146     7246     7348     7153     6743     6377     6326     6737 
    7593     8689     9659    10149    10008     9386     8731     8456 
    8577     8775     8765     8596     8455     8299     8060     7796 
    7466     7013     6683     6905     7753     8820     9675    10129 
   10091     9443     8257     7272     7393     8468     9564     9903 
    9166     7863     6964     7052     8113     9548    10489    10327 
    9155     7858     7237     7357     7977     8878     9695     9985 
    9643     8988     8519     8459     8478     8235     7851     7678 
    7928     8430     8710     8491     7950     7464     7331     7639 
    8148     8561     8892     9296     9838    10438    10767    10471 
    9494     8075     6651     5702     5645     6624     8199     9570 
   10255    10285     9745     8726     7703     7244     7314     7431 
    7350     7242     7345     7665     8005     8087     7784     7312 
    7018     6979     7033     7145     7480     8008     8375     8413 
    8365     8413     8407     8224     8101     8390     8992     9499 
    9728     9747     9653     9533     9437     9439     9602     9833 
    9952     9900     9845    10053    10555    11078    11213    10660 
    9478     7987     6574     5725     5822     6739     7838     8434 
    8267     7581     6836     6343     6166     6164     6130     6138 
    6469     7290     8646    10353    11786    12325    11761    10160 
    7858     5702     4646     4999     6264     7663     8706     9202 
    9053     8487     8158     8514     9370    10119    10211     9521 
    8541     8122     8715    10015    11256    11688    10978     9335 
    7480     6300     6227     7094     8361     9354     9695     9509 
    9049     8469     8031     7992     8191     8121     7553     6875 
    6664     7041     7669     8212     8603     8877     8799     8050 
    6813     5769     5575     6386     7781     9181    10242    10756 
   10559     9710     8608     7788     7588     7974     8645     9340 
    9927    10330    10552    10698    10786    10557     9803     8926 
    8538     8633     8838     9174     9844    10601    10848    10261 
    9090     7897     7055     6547     6184     5908     5884     6272 
    6971     7672     8010     7821     7416     7269     7414     7461 
    7188     6825     6772     7209     7904     8401     8442     8170 
    7803     7334     6752     6386     6616     7361     8040     8035 
    7381     6801     6934     7792     8846     9456     9474     9362 
    9601    10304    11341    12306    12559    11713     9972     7983 
    6511     6122     6920     8347     9551    10052     9877     9323 
    8719     8164     7535     6810     6228     6150     6698     7531 
    8190     8560     8780     8834     8491     7767     7060     6592 
    6214     5868     5787     6219     7183     8353     9205     9474 
    9360     9178     9028     8874     8614     8145     7642     7551 
    8083     8915     9570     9883     9940     9836     9590     9159 
    8569     8113     8122     8515     8961     9355     9906    10813 
   11712    11866    11067     9733     8421     7578     7434     8012 
    9082    10222    10976    10970    10322     9614     9069     8452 
    7670     6890     6349     6249     6652     7445     8309     8766 
    8530     7778     6940     6370     6164     6111     6031     6014 
    6239     6716     7290     7894     8490     8756     8278     7122 
    5983     5630     6272     7497     8668     9333     9391     8993 
    8473     8203     8344     8822     9481    10089    10380    10331 
   10231    10307    10504    10694    10874    10801    10046     8745 
    7541     6949     6971     7172     7371     7659     7898     7896 
    7639     7273     7048     7172     7599     7889     7607     6898 
    6351     6450     7159     8048     8712     8822     8205     7202 
    6448     6292     6643     7182     7526     7466     7133     6905 
    7150     7843     8514     8810     8716     8388     8209     8571 
    9448    10339    10635    10180     9359     8699     8550     8946 
    9602    10041     9823     8934     7848     7091     6826     6943 
    7366     8064     8881     9602    10150    10582    10947    11141 
   10956    10409     9833     9583     9709     9873     9819     9710 
    9798    10096    10419    10547    10459    10289    10042     9610 
    9070     8681     8538     8465     8220     7820     7685     8118 
    8874     9436     9436     8857     7944     7036     6606     7110 
    8414     9898    10978    11234    10581     9410     8303     7686 
    7678     8068     8480     8676     8808     9148     9670    10103 
   10262    10145     9778     9215     8606     8118     7812     7616 
    7489     7572     7923     8340     8552     8394     7923     7380 
    6863     6295     5800     5671     5950     6458     7055     7754 
    8567     9263     9512     9177     8383     7456     6728     6335 
    6308     6713     7514     8347     8637     8091     7038     6087 
    5574     5493     5759     6319     7032     7623     7959     8128 
    8256     8444     8676     8721     8414     7869     7381     7264 
    7582     8028     8213     8059     7790     7699     8013     8696 
    9360     9598     9265     8510     7624     6717     5822     5147 
    4824     4760     4868     5163     5663     6289     6754     6673 
    6088     5540     5524     6166     7288     8459     9136     9080 
    8545     7993     7801     8063     8484     8692     8545     8171 
    7855     7819     8152     8773     9378     9680     9605     9274 
    9009     9099     9483     9842     9957     9899     9887    10061 
   10443    11002    11705    12460    13061    13348    13377    13269 
   13136    13073    13046    12997    12974    12947    12830    12509 
   11812    10930    10404    10544    11314    12415    13378    13806 
   13459    12461    11367    10720    10775    11387    12069    12422 
   12380    12078    11686    11322    10994    10674    10397    10193 
   10019     9833     9629     9481     9536     9780     9921     9680 
    9117     8487     7866     7321     7194     7763     8772     9609 
    9875     9618     9036     8329     7776     7503     7353     7215 
    7111     6983     6840     6804     6848     6813     6547     5996 
    5259     4502     3913     3721     3990     4514     5031     5401 
    5567     5472     5085     4375     3403     2454     1822     1614 
    1823     2316     2829     3134     3091     2737     2315     2035 
    1971     2085     2300     2586     2934     3235     3352     3296 
    3176     3064     3044     3206     3555     3959     4162     3967 
    3430     2820     2454     2475     2810     3289     3781     4301 
    4941     5715     6552     7317     7886     8256     8533     8918 
    9598    10546    11457    11979    12024    11728    11236    10643 
   10134     9999    10305    10728    10879    10631    10085     9443 
    8947     8781     8883     8974     8823     8453     8183     8347 
    9003     9976    10918    11466    11554    11437    11407    11627 
   12136    12760    13196    13323    13266    13143    12937    12640 
   12312    11946    11435    10714     9865     9120     8752     8899 
    9462    10125    10532    10490     9930     8849     7406     5919 
    4758     4201     4199     4456     4734     4919     4947     4888 
    4911     5208     5902     6831     7677     8336     8903     9536 
   10326    11221    12097    12808    13177    13119    12753    12302 
   11992    11969    12093    12050    11763    11394    11029    10717 
   10721    11391    12679    14045    14958    15275    15111    14608 
   13984    13570    13454    13329    12926    12353    11961    12032 
   12563    13296    13892    14130    13991    13513    12842    12306 
   12116    12144    12085    11811    11554    11632    12048    12514 
   12784    12791    12523    11907    10902     9675     8622     8164 
    8406     9100     9927    10716    11383    11815    11893    11691 
   11439    11263    11182    11156    10955    10254     8972     7385 
    5850     4596     3846     3848     4596     5536     5857     5217 
    3886     2404     1358     1046     1275     1628     1877     2100 
    2490     3082     3750     4394     4892     4916     4149     2718 
    1190      187       37      677     1790     2957     3800     4074 
    3827     3426     3250     3435     3861     4251     4368     4214 
    4000     3970     4239     4675     4978     4908     4398     3593 
    2821     2378     2409     2918     3726     4599     5498     6459 
    7360     7965     8116     7852     7376     7078     7466     8746 
   10570    12145    12760    12556    12253    12208    12395    12683 
   12777    12349    11384    10334     9765     9983    10921    12114 
   12924    12999    12550    12168    12316    13004    13882    14531 
   14775    14710    14516    14350    14338    14474    14628    14713 
   14681    14420    13911    13377    13039    12899    12741    12294 
   11485    10342     8869     7342     6313     6231     7137     8518 
    9518     9502     8517     7200     6227     5937     6345     7177 
    7920     8066     7582     6903     6423     6264     6274     6156 
    5736     5040     4245     3595     3298     3445     3928     4465 
    4750     4553     3740     2336      577    -1067    -2077    -2261 
   -1925    -1556    -1368    -1341    -1551    -2038    -2585    -2901 
   -2837    -2435    -1973    -1715    -1560    -1119     -129     1354 
    3115     4945     6532     7534     7835     7715     7730     8316 
    9504    10929    12063    12618    12730    12757    13054    13749 
   14612    15236    15375    15083    14566    14081    13938    14265 
   14821    15136    14899    14288    13755    13590    13836    14346 
   14747    14778    14623    14675    15192    16136    17274    18393 
   19167    19264    18746    17965    17305    16930    16727    16552 
   16317    15981    15585    15168    14661    14040    13382    12757 
   12140    11464    10817    10438    10412    10652    11029    11298 
   11178    10557     9504     8271     7295     6922     7098     7485 
    7786     7722     7129     6222     5455     5147     5209     5227 
    4909     4361     3919     3862     4233     4818     5262     5252 
    4741     4095     3854     4234     5086     6049     6664     6737 
    6578     6663     7171     7946     8702     9109     8915     8221 
    7510     7323     7958     9317    10910    12078    12402    11967 
   11304    11024    11317    11902    12341    12302    11839    11322 
   11086    11207    11452    11442    10863     9671     8189     6978 
    6513     6671     6809     6392     5324     4070     3225     2998 
    3353     4171     5112     5628     5371     4530     3599     2952 
    2631     2451     2308     2142     1937     1915     2377     3365 
    4577     5520     5759     5225     4351     3720     3622     3971 
    4545     5123     5493     5665     5933     6478     7130     7592 
    7742     7669     7484     7268     7101     7078     7204     7321 
    7333     7376     7608     8012     8418     8662     8714     8727 
    8999     9710    10620    11232    11254    10789    10215     9914 
   10079    10774    11854    12787    13027    12510    11647    10989 
   10821    11033    11238    11047    10405     9612     9055     9022 
    9525    10293    10875    10751     9829     8653     7803     7485 
    7654     8081     8426     8375     7796     6924     6230     6015 
    6266     6756     7169     7360     7379     7222     6801     6143 
    5520     5255     5360     5710     6277     6914     7406     7668 
    7716     7692     7719     7663     7345     6848     6488     6562 
    7028     7588     8112     8665     9266     9860    10397    10962 
   11759    12862    14056    14978    15380    15248    14755    14172 
   13698    13428    13412    13522    13460    13100    12580    12062 
   11612    11213    10813    10355     9771     9031     8248     7707 
    7645     8031     8596     8981     8919     8446     7831     7350 
    7148     7118     6988     6636     6268     6139     6255     6486 
    6836     7353     7894     8203     8155     7862     7565     7383 
    7196     6833     6288     5707     5240     4889     4523     4094 
    3717     3472     3327     3215     3153     3314     3774     4409 
    5111     5840     6488     6972     7273     7318     7111     6798 
    6490     6281     6253     6428     6814     7288     7595     7545 
    7114     6502     6053     5904     5922     6016     6313     6952 
    7933     9057     9954    10426    10544    10419    10152     9829 
    9487     9236     9180     9269     9402     9564     9886    10474 
   11133    11473    11254    10574     9790     9247     9174     9610 
   10303    10914    11237    11129    10638    10118     9937    10052 
   10039     9648     9081     8680     8610     8857     9306     9819 
   10324    10795    11254    11811    12530    13331    14076    14716 
   15306    15882    16465    17045    17508    17739    17703    17518 
   17419    17435    17259    16569    15259    13456    11469     9672 
    8432     7979     8158     8449     8402     7871     7117     6646 
    6677     6993     7194     6943     6284     5584     5170     5196 
    5584     5979     5968     5366     4410     3630     3365     3584 
    4008     4172     3682     2597     1385      596      550     1096 
    1738     2016     1763     1250      938     1084     1667     2359 
    2779     2948     3119     3362     3628     3850     3898     3755 
    3403     2848     2400     2347     2744     3447     4145     4684 
    5111     5436     5638     5688     5663     5744     5987     6304 
    6570     6714     6828     7060     7531     8222     8845     9097 
    8878     8224     7256     6172     5270     4932     5383     6494 
    7753     8573     8760     8507     8116     7774     7572     7562 
    7657     7704     7758     8050     8741     9767    10886    11827 
   12291    12110    11427    10625    10185    10492    11538    12906 
   14077    14721    14793    14443    13799    12985    12289    11966 
   11993    12255    12699    13313    14127    15030    15755    16132 
   16114    15766    15331    15074    15060    15140    15068    14663 
   13867    12885    12104    11597    11149    10578     9757     8681 
    7558     6685     6316     6583     7322     8060     8374     8158 
    7599     7117     7099     7551     8205     8738     8897     8581 
    7931     7342     7260     7821     8785     9737    10288    10188 
    9472     8506     7755     7457     7446     7268     6573     5491 
    4525     4052     4062     4272     4387     4275     3839     3040 
    2189     1776     2030     2758     3431     3600     3360     3150 
    3314     3994     5017     5976     6534     6547     6208     6015 
    6380     7256     8221     8860     9054     8986     8972     9165 
    9472     9715     9792     9724     9661     9834    10338    10997 
   11562    11932    12029    11758    11141    10376     9706     9262 
    8972     8679     8271     7697     6921     5934     4834     3825 
