Origin Time       2025/01/13 21:19:00
Lat.              31.8
Long.             131.6
Depth. (km)       30
Mag.              6.9
Station Code      OIT014
Station Lat.      33.0656
Station Long.     131.8588
Station Height(m) 8
Record Time       2025/01/13 21:19:58
Sampling Freq(Hz) 100Hz
Duration Time(s)  101
Dir.              N-S
Scale Factor      7845(gal)/8223790
Max. Acc. (gal)   17.719
Last Correction   2025/01/13 21:19:58
Memo.             
[...]
  -20237   -20547   -20737   -20781   -20706   -20447   -20023   -19619 
  -19399   -19377   -19394   -19148   -18501   -17614   -16812   -16476 
  -16741   -17282   -17685   -17744   -17424   -16892   -16453   -16221 
  -16108   -16151   -16521   -17200   -17903   -18299   -18203   -17695 
  -17118   -16841   -17074   -17779   -18520   -18729   -18327   -17772 
  -17462   -17406   -17415   -17344   -17228   -17207   -17415   -17959 
  -18715   -19228   -19136   -18624   -18258   -18412   -18960   -19357 
  -19234   -18831   -18546   -18553   -18891   -19446   -19882   -19858 
  -19375   -18716   -18177   -17945   -17790   -17170   -15978   -14673 
  -13647   -13026   -12958   -13508   -14476   -15616   -16850   -18164 
  -19427   -20491   -21258   -21573   -21475   -21250   -20849   -19958 
  -18762   -17730   -16972   -16432   -16201   -16410   -17027   -17772 
  -18409   -18867   -19099   -19025   -18613   -18009   -17356   -16789 
  -16548   -16673   -17085   -17860   -18858   -19726   -20518   -21477 
  -22300   -22432   -21798   -20613   -18991   -17212   -15714   -14558 
  -13500   -12550   -11950   -11842   -12343   -13568   -15356   -17231 
  -18858   -20202   -21157   -21520   -21315   -20707   -19838   -18978 
  -18522   -18584   -18879   -19035   -18843   -18314   -17614   -17091 
  -17099   -17598   -18091   -18096   -17543   -16703   -15920   -15372 
  -15080   -15053   -15257   -15672   -16355   -17212   -17930   -18268 
  -18210   -17950   -17821   -17925   -17949   -17667   -17240   -16887 
  -16715   -16858   -17344   -17994   -18562   -18897   -18931   -18667 
  -18246   -17888   -17698   -17706   -17963   -18376   -18721   -18917 
  -19138   -19630   -20391   -21069   -21330   -21043   -20124   -18720 
  -17305   -16312   -15967   -16266   -16800   -16939   -16383   -15430 
  -14661   -14480   -14890   -15574   -16244   -16843   -17319   -17491 
  -17321   -17028   -16934   -17257   -17911   -18678   -19511   -20275 
  -20667   -20633   -20352   -20017   -19764   -19635   -19627   -19681 
  -19568   -18983   -17880   -16634   -15812   -15643   -15862   -16139 
  -16352   -16438   -16310   -16054   -15966   -16255   -16926   -17828 
  -18654   -19118   -19097   -18682   -18281   -18279   -18597   -18974 
  -19288   -19403   -19163   -18607   -17853   -16960   -16240   -16275 
  -17199   -18449   -19291   -19423   -19129   -18863   -18868   -19047 
  -19057   -18771   -18388   -17967   -17408   -16866   -16553   -16459 
  -16555   -16730   -16796   -16923   -17394   -18002   -18283   -18045 
  -17520   -17142   -17115   -17307   -17474   -17381   -16906   -16276 
  -15939   -16089   -16617   -17208   -17458   -17331   -17230   -17463 
  -18000   -18559   -18802   -18586   -18133   -17838   -17921   -18459 
  -19452   -20561   -21230   -21267   -21057   -21092   -21524   -22080 
  -22238   -21612   -20363   -18978   -17693   -16522   -15533   -14809 
  -14454   -14536   -14836   -14943   -14705   -14268   -13786   -13493 
  -13797   -14887   -16417   -17799   -18609   -18658   -17967   -16826 
  -15765   -15194   -15237   -15997   -17356   -18720   -19665   -20263 
  -20718   -21243   -21936   -22594   -22843   -22473   -21671   -20800 
  -20110   -19741   -19589   -19356   -18921   -18411   -17923   -17505 
  -17213   -17003   -16667   -16154   -15800   -15828   -15984   -15979 
  -15828   -15711   -15811   -16154   -16646   -17155   -17531   -17786 
  -18112   -18634   -19176   -19462   -19434   -19210   -18870   -18426 
  -17907   -17506   -17500   -17834   -18090   -17887   -17190   -16313 
  -15719   -15599   -15817   -16345   -17201   -18146   -18958   -19612 
  -20164   -20787   -21451   -21775   -21519   -20892   -20220   -19511 
  -18636   -17682   -16794   -16132   -15951   -16287   -16727   -16762 
  -16294   -15664   -15238   -15219   -15595   -16094   -16498   -16853 
  -17271   -17832   -18523   -19095   -19187   -18675   -17856   -17253 
  -17271   -17944   -18912   -19801   -20495   -20961   -21172   -21157 
  -20926   -20514   -20142   -19993   -19989   -20009   -19992   -19804 
  -19342   -18678   -17902   -16999   -16070   -15415   -15174   -15161 
  -15148   -15078   -15018   -15007   -15036   -15132   -15286   -15399 
  -15480   -15755   -16522   -17868   -19407   -20457   -20606   -19927 
  -18797   -17767   -17335   -17632   -18435   -19425   -20243   -20501 
  -20061   -19191   -18249   -17413   -16784   -16453   -16426   -16633 
  -17059   -17726   -18500   -19172   -19746   -20298   -20649   -20582 
  -20056   -19093   -17806   -16463   -15273   -14347   -13747   -13425 
  -13332   -13533   -14134   -15148   -16525   -18110   -19516   -20326 
  -20491   -20240   -19828   -19521   -19477   -19646   -19849   -19890 
  -19683   -19259   -18696   -18137   -17786   -17747   -17923   -18133 
  -18285   -18378   -18366   -18227   -18112   -18247   -18711   -19286 
  -19592   -19438   -18999   -18563   -18204   -17879   -17676   -17652 
  -17632   -17355   -16725   -15874   -15018   -14257   -13544   -12897 
  -12476   -12303   -12274   -12452   -13042   -14073   -15380   -16776 
  -18076   -19074   -19672   -19953   -20067   -20216   -20655   -21440 
  -22296   -22882   -23066   -22836   -22215   -21343   -20490   -19850 
  -19457   -19251   -19016   -18519   -17788   -17082   -16600   -16457 
  -16767   -17462   -18177   -18509   -18261   -17487   -16503   -15691 
  -15226   -15080   -15168   -15379   -15618   -15942   -16495   -17230 
  -17941   -18526   -18963   -19252   -19426   -19462   -19350   -19213 
  -19213   -19417   -19722   -19909   -19847   -19565   -19136   -18665 
  -18281   -18036   -17909   -17867   -17791   -17510   -17023   -16567 
  -16308   -16121   -15858   -15616   -15627   -15951   -16384   -16722 
  -17014   -17386   -17766   -18015   -18110   -18090   -18044   -18048 
  -18025   -17814   -17408   -16984   -16710   -16642   -16757   -16957 
  -17119   -17242   -17460   -17911   -18628   -19530   -20401   -20969 
  -21151   -21066   -20848   -20634   -20592   -20699   -20691   -20337 
  -19656   -18858   -18164   -17605   -17066   -16472   -15849   -15249 
  -14729   -14374   -14300   -14551   -15003   -15442   -15676   -15606 
  -15326   -15061   -15052   -15458   -16278   -17331   -18350   -19087 
  -19434   -19430   -19195   -18898   -18658   -18478   -18331   -18225 
  -18252   -18523   -18948   -19261   -19245   -18886   -18549   -18750 
  -19506   -20331   -20860   -20989   -20718   -20201   -19658   -19070 
  -18207   -17001   -15650   -14401   -13419   -12748   -12371   -12324 
  -12667   -13478   -14824   -16560   -18306   -19708   -20596   -21003 
  -21112   -21154   -21359   -21848   -22399   -22634   -22381   -21683 
  -20682   -19569   -18532   -17682   -17039   -16517   -15985   -15383 
  -14764   -14319   -14353   -15041   -16159   -17211   -17882   -18256 
  -18527   -18719   -18789   -18802   -18891   -19028   -18982   -18535 
  -17698   -16703   -15801   -15178   -14913   -14917   -15053   -15357 
  -15904   -16676   -17604   -18512   -19168   -19522   -19755   -20034 
  -20340   -20559   -20649   -20636   -20556   -20393   -20016   -19346 
  -18566   -17909   -17452   -17289   -17463   -17763   -17991   -18103 
  -17952   -17512   -17086   -16866   -16742   -16599   -16387   -16077 
  -15819   -15900   -16355   -16961   -17582   -18184   -18738   -19321 
  -20007   -20640   -21004   -20999   -20568   -19822   -19124   -18729 
  -18493   -18162   -17680   -17100   -16490   -15981   -15811   -16216 
  -17096   -17937   -18307   -18207   -17840   -17361   -16891   -16553 
  -16495   -16806   -17420   -18208   -19036   -19677   -19908   -19689 
  -19160   -18576   -18203   -18220   -18578   -18871   -18605   -17740 
  -16656   -15770   -15414   -15670   -16264   -16758   -16837   -16513 
  -16117   -15990   -16241   -16745   -17262   -17572   -17508   -17057 
  -16447   -15969   -15804   -16081   -16896   -18141   -19498   -20690 
  -21548   -21926   -21744   -21092   -20325   -19866   -19786   -19832 
  -19830   -19830   -19971   -20245   -20455   -20426   -20077   -19356 
  -18316   -17120   -15971   -15086   -14671   -14794   -15261   -15757 
  -16120   -16393   -16592   -16703   -16852   -17158   -17563   -17950 
  -18335   -18854   -19515   -20089   -20364   -20385   -20324   -20268 
  -20236   -20325   -20582   -20748   -20491   -19813   -18991   -18330 
  -18052   -18215   -18685   -19186   -19377   -19017   -18095   -16837 
  -15645   -14997   -15156   -15984   -17045   -17825   -17983   -17487 
  -16530   -15438   -14546   -14056   -14061   -14534   -15302   -16128 
  -16845   -17431   -17972   -18461   -18765   -18851   -18813   -18657 
  -18285   -17670   -16961   -16467   -16498   -17131   -18129   -19137 
  -19888   -20214   -20106   -19638   -18798   -17636   -16422   -15439 
  -14805   -14503   -14482   -14665   -14881   -15049   -15303   -15792 
  -16598   -17741   -19040   -20190   -21003   -21463   -21659   -21693 
  -21610   -21384   -20945   -20256   -19375   -18466   -17748   -17301 
  -16943   -16432   -15649   -14627   -13468   -12258   -11159   -10476 
  -10380   -10781   -11510   -12521   -13859   -15390   -16757   -17671 
  -18100   -18195   -18154   -18223   -18609   -19354   -20366   -21471 
  -22481   -23287   -23904   -24452   -25003   -25461   -25625   -25332 
  -24560   -23480   -22403   -21575   -21018   -20669   -20506   -20433 
  -20331   -20148   -19823   -19282   -18559   -17764   -16915   -15897 
  -14644   -13267   -11940   -10839   -10185   -10177   -10847   -12112 
  -13822   -15736   -17556   -19071   -20155   -20763   -20985   -20935 
  -20642   -20160   -19681   -19348   -19084   -18867   -18786   -18767 
  -18733   -18854   -19225   -19629   -19741   -19325   -18350   -17041 
  -15719   -14651   -14010   -13761   -13691   -13579   -13301   -12869 
  -12426   -12152   -12152   -12442   -12989   -13664   -14173   -14250 
  -13915   -13471   -13308   -13672   -14624   -16085   -17844   -19647 
  -21254   -22432   -22990   -22851   -22233   -21540   -20923   -20209 
  -19291   -18256   -17227   -16405   -16043   -16212   -16773   -17545 
  -18331   -18895   -19132   -19044   -18563   -17652   -16546   -15673 
  -15445   -16090   -17398   -18744   -19580   -19782   -19568   -19357 
  -19611   -20502   -21735   -22798   -23345   -23305   -22813   -22127 
  -21577   -21309   -21219   -21142   -20873   -20262   -19407   -18524 
  -17836   -17601   -17965   -18823   -19899   -20934   -21763   -22233 
  -22241   -21886   -21432   -21087   -20850   -20547   -20013   -19217 
  -18150   -16825   -15322   -13741   -12158   -10700    -9563    -8881 
   -8677    -8986    -9742   -10678   -11465   -11888   -12008   -12012 
  -11973   -11989   -12235   -12810   -13706   -14816   -15959   -17100 
  -18353   -19730   -21096   -22262   -23049   -23376   -23391   -23480 
  -23885   -24497   -25155   -25834   -26457   -26832   -26761   -26068 
  -24659   -22684   -20498   -18435   -16653   -15120   -13722   -12390 
  -11196   -10401   -10296   -10986   -12295   -13864   -15430   -17022 
  -18820   -20839   -22860   -24570   -25672   -26127   -26164   -26055 
  -26032   -26195   -26368   -26273   -25718   -24678   -23302   -21780 
  -20294   -19125   -18308   -17527   -16588   -15456   -13987   -12201 
  -10388    -8835    -7732    -7217    -7360    -8152    -9506   -11315 
  -13481   -15796   -17896   -19372   -19924   -19476   -18137   -16119 
  -13765   -11576   -10039    -9371    -9371    -9663   -10026   -10470 
  -11103   -11946   -12808   -13423   -13632   -13452   -13128   -13142 
  -13937   -15647   -18152   -21173   -24185   -26599   -28116   -28641 
  -28102   -26732   -25049   -23422   -21946   -20657   -19630   -18844 
  -18173   -17629   -17313   -17270   -17590   -18296   -19168   -19946 
  -20505   -20826   -20938   -20898   -20885   -21103   -21504   -21806 
  -21793   -21535   -21301   -21273   -21465   -21907   -22671   -23710 
  -24783   -25590   -25867   -25404   -24140   -22192   -19773   -17232 
  -15067   -13726   -13400   -14042   -15475   -17351   -19143   -20305 
  -20552   -19973   -18874   -17572   -16357   -15411   -14766   -14461 
  -14500   -14783   -15282   -15955   -16691   -17528   -18553   -19645 
  -20551   -21107   -21274   -21045   -20389   -19305   -17780   -15826 
  -13667   -11661   -10004    -8669    -7404    -6030    -4689    -3647 
   -3121    -3287    -4178    -5576    -7159    -8706   -10130   -11416 
  -12652   -14030   -15707   -17714   -20016   -22453   -24733   -26584 
  -27818   -28416   -28506   -28210   -27715   -27214   -26777   -26439 
  -26133   -25574   -24489   -22836   -20835   -18836   -17092   -15660 
  -14519   -13633   -12962   -12510   -12274   -12268   -12622   -13433 
  -14553   -15680   -16652   -17477   -18262   -19153   -20198   -21304 
  -22341   -23161   -23695   -24089   -24544   -25170   -25895   -26320 
  -26086   -25254   -24058   -22724   -21540   -20730   -20364   -20131 
  -19395   -17840   -15631   -13023   -10264    -7626    -5368    -3723 
   -2771    -2438    -2635    -3321    -4441    -5929    -7767    -9985 
  -12448   -14817   -16849   -18520   -19858   -21051   -22476   -24264 
  -26158   -27747   -28594   -28394   -27232   -25504   -23704   -22161 
  -20771   -19276   -17739   -16372   -15321   -14647   -14222   -13787 
  -13184   -12349   -11314   -10287    -9571    -9425    -9940   -10968 
  -12325   -13902   -15480   -16804   -17778   -18415   -18729   -18659 
  -18210   -17766   -17888   -18874   -20758   -23445   -26676   -30036 
  -33034   -35244   -36420   -36459   -35418   -33565   -31295   -28941 
  -26703   -24730   -23148   -21952   -20929   -19764   -18219   -16236 
  -13967   -11720    -9639    -7672    -5830    -4257    -3152    -2650 
   -2814    -3732    -5405    -7599    -9923   -11998   -13664   -15059 
  -16420   -17859   -19435   -21327   -23661   -26280   -28804   -30888 
  -32240   -32508   -31530   -29594   -27139   -24460   -21775   -19296 
  -17248   -15715   -14558   -13549   -12407   -11021    -9691    -8784 
   -8492    -8973   -10212   -11859   -13443   -14590   -15024   -14636 
  -13609   -12328   -11223   -10575   -10359   -10373   -10459   -10600 
  -10953   -11730   -13019   -14789   -16872   -18960   -20725   -21994 
  -22744   -23093   -23396   -24042   -25139   -26512   -27807   -28626 
  -28733   -28167   -27210   -26122   -25006   -23977   -23124   -22302 
  -21250   -19792   -18021   -16293   -14877   -13828   -13200   -13011 
  -13238   -14056   -15678   -17872   -20081   -21820   -22819   -23068 
  -22781   -22221   -21589   -20980   -20313   -19348   -17941   -16195 
  -14382   -12816   -11614   -10716   -10034    -9404    -8760    -8208 
   -7797    -7707    -8283    -9618   -11530   -13787   -16154   -18455 
  -20490   -21986   -22944   -23653   -24258   -24659   -24665   -24185 
  -23404   -22662   -22142   -21752   -21270   -20583   -19755   -19013 
  -18643   -18770   -19322   -20105   -20823   -21097   -20621   -19462 
  -18094   -16945   -16198   -15935   -16063   -16239   -16071   -15383 
  -14245   -12918   -11755   -11051   -10897   -11125   -11446   -11793 
  -12372   -13398   -14891   -16633   -18319   -19819   -21244   -22705 
  -24073   -25091   -25559   -25408   -24729   -23750   -22783   -22180 
  -22111   -22322   -22272   -21548   -20156   -18528   -17149   -16150 
  -15433   -14991   -14828   -14832   -14905   -14967   -14928   -14808 
  -14791   -15109   -15890   -17153   -18770   -20336   -21309   -21367 
  -20565   -19305   -18023   -16856   -15678   -14332   -12847   -11616 
  -11113   -11493   -12579   -14091   -15838   -17656   -19340   -20741 
  -21833   -22685   -23363   -23839   -24113   -24273   -24262   -23904 
  -23112   -21938   -20652   -19596   -18862   -18289   -17686   -16895 
  -15871   -14763   -13855   -13429   -13678   -14546   -15691   -16785 
  -17741   -18497   -18948   -19168   -19352   -19650   -20132   -20669 
  -21053   -21123   -20698   -19816   -18929   -18539   -18823   -19600 
  -20416   -20764   -20312   -18918   -16748   -14320   -12220   -10794 
  -10149   -10187   -10646   -11242   -11755   -12039   -12042   -11909 
  -11920   -12186   -12627   -13248   -14126   -15340   -16912   -18658 
  -20274   -21412   -21745   -21273   -20382   -19485   -18802   -18314 
  -17855   -17401   -16987   -16521   -15977   -15492   -15307   -15714 
  -16825   -18426   -20071   -21330   -21964   -21973   -21570   -21031 
  -20536   -20169   -20135   -20698   -21829   -23284   -24892   -26439 
  -27653   -28382   -28625   -28486   -28142   -27688   -27009   -25909 
  -24268   -22076   -19485   -16798   -14376   -12603   -11701   -11605 
  -12078   -12744   -13169   -13221   -13139   -13178   -13497   -14170 
  -14994   -15585   -15749   -15539   -15144   -14855   -14920   -15390 
  -16191   -17234   -18385   -19444   -20248   -20834   -21423   -22187 
  -23079   -23899   -24409   -24447   -23969   -22979   -21519   -19599 
  -17192   -14493   -12054   -10362    -9556    -9462    -9729   -10156 
  -10754   -11492   -12283   -13088   -13926   -14783   -15506   -15979 
  -16402   -17122   -18300   -19759   -21238   -22611   -23757   -24528 
  -24877   -24771   -24159   -23211   -22360   -21965   -22025   -22206 
  -22117   -21535   -20459   -19041   -17423   -15716   -14164   -13043 
  -12433   -12148   -11897   -11473   -10903   -10446   -10320   -10525 
  -10955   -11429   -11735   -11767   -11553   -11279   -11292   -11850 
  -12942   -14457   -16320   -18330   -20124   -21377   -21992   -22179 
  -22245   -22474   -23071   -23859   -24321   -24077   -23090   -21593 
  -19948   -18499   -17518   -17166   -17347   -17797   -18231   -18465 
  -18488   -18405   -18326   -18304   -18265   -18177   -18173   -18335 
  -18646   -19080   -19537   -19993   -20656   -21691   -23086   -24617 
  -25820   -26288   -25887   -24672   -22956   -21277   -20102   -19593 
  -19446   -19147   -18427   -17308   -16019   -14962   -14404   -14338 
  -14629   -15043   -15280   -15191   -14727   -13876   -12712   -11371 
  -10018    -8912    -8428    -8772    -9701   -10814   -11882   -12845 
  -13779   -14688   -15390   -15838   -16171   -16583   -17273   -18203 
  -19113   -19896   -20618   -21307   -21915   -22366   -22712   -23156 
  -23727   -24179   -24306   -24071   -23552   -22929   -22361   -21936 
  -21589   -20972   -19751   -18023   -16239   -14840   -14072   -13996 
  -14515   -15479   -16695   -17864   -18758   -19322   -19643   -19877 
  -20117   -20359   -20587   -20745   -20740   -20574   -20355   -20167 
  -20020   -19876   -19681   -19360   -18787   -17996   -17293   -16973 
  -17024   -17250   -17536   -17837   -17986   -17725   -16892   -15599 
  -14227   -13109   -12343   -11913   -11850   -12187   -12806   -13431 
  -13834   -14083   -14477   -15210   -16237   -17383   -18455   -19318 
  -19827   -19865   -19552   -19190   -18997   -18964   -18916   -18674 
  -18158   -17367   -16452   -15768   -15643   -16213   -17338   -18621 
  -19639   -20098   -19921   -19336   -18698   -18291   -18258   -18607 
  -19219   -19893   -20366   -20401   -19869   -18775   -17290   -15685 
  -14257   -13236   -12690   -12600   -12876   -13234   -13444   -13574 
  -13807   -14374   -15481   -17086   -18939   -20811   -22549   -24112 
  -25546   -26851   -28042   -29072   -29683   -29586   -28682   -27016 
  -24803   -22414   -20186   -18451   -17456   -17181   -17386   -17663 
