Origin Time       2025/01/13 21:19:00
Lat.              31.8
Long.             131.6
Depth. (km)       30
Mag.              6.9
Station Code      OIT013
Station Lat.      33.0727
Station Long.     131.5934
Station Height(m) 85
Record Time       2025/01/13 21:19:58
Sampling Freq(Hz) 100Hz
Duration Time(s)  96
Dir.              U-D
Scale Factor      7845(gal)/8223790
Max. Acc. (gal)   4.451
Last Correction   2025/01/13 21:19:57
Memo.             
[...]
   -9408    -9166    -9026    -9193    -9574    -9837    -9909    -9931 
   -9898    -9761    -9602    -9479    -9389    -9290    -9242    -9404 
   -9633    -9636    -9574    -9714    -9892    -9899    -9772    -9607 
   -9412    -9178    -9101    -9325    -9624    -9811    -9937    -9976 
   -9903    -9792    -9698    -9676    -9709    -9749    -9906   -10206 
  -10434   -10527   -10605   -10615   -10497   -10436   -10513   -10461 
  -10143    -9860    -9861    -9990    -9952    -9724    -9536    -9491 
   -9428    -9329    -9309    -9265    -9150    -9198    -9555    -9950 
   -9992    -9698    -9404    -9213    -9069    -8991    -8920    -8756 
   -8568    -8584    -8850    -9031    -8934    -8923    -9259    -9670 
   -9894    -9985   -10103   -10278   -10346   -10235   -10125   -10057 
   -9902    -9771    -9826    -9949    -9975    -9818    -9574    -9459 
   -9394    -9196    -8934    -8704    -8588    -8638    -8745    -8850 
   -8953    -9020    -9130    -9288    -9389    -9489    -9737   -10122 
  -10382   -10322   -10203   -10318   -10507   -10543   -10435   -10281 
  -10141   -10052   -10034   -10029   -10000   -10046   -10193   -10336 
  -10440   -10550   -10727   -10952   -11080   -11022   -10816   -10511 
  -10165    -9842    -9603    -9459    -9300    -9148    -9180    -9308 
   -9325    -9337    -9471    -9575    -9549    -9529    -9570    -9528 
   -9363    -9275    -9332    -9304    -9159    -9228    -9567    -9786 
   -9699    -9531    -9425    -9243    -8946    -8746    -8698    -8699 
   -8846    -9258    -9715    -9890    -9819    -9786    -9853    -9853 
   -9691    -9381    -8996    -8723    -8769    -9165    -9629    -9832 
   -9865    -9927    -9819    -9478    -9285    -9410    -9616    -9725 
   -9771    -9815    -9794    -9625    -9468    -9466    -9468    -9424 
   -9455    -9483    -9409    -9371    -9474    -9610    -9640    -9618 
   -9765   -10021   -10031    -9852    -9903   -10239   -10548   -10654 
  -10654   -10698   -10705   -10516   -10219    -9921    -9572    -9317 
   -9333    -9420    -9329    -9112    -9023    -9220    -9472    -9551 
   -9574    -9559    -9428    -9347    -9440    -9589    -9579    -9350 
   -9170    -9180    -9151    -9073    -9161    -9367    -9553    -9728 
   -9910   -10012    -9933    -9811    -9865    -9933    -9738    -9512 
   -9633   -10021   -10354   -10519   -10617   -10735   -10770   -10665 
  -10565   -10557   -10538   -10423   -10231   -10037    -9880    -9705 
   -9427    -8996    -8507    -8226    -8197    -8243    -8363    -8586 
   -8770    -8814    -8753    -8710    -8743    -8788    -8892    -9130 
   -9416    -9749   -10143   -10399   -10427   -10363   -10285   -10206 
  -10158   -10123   -10085   -10033    -9933    -9877    -9927    -9906 
   -9691    -9440    -9321    -9238    -8997    -8688    -8552    -8564 
   -8550    -8590    -8799    -8978    -8922    -8814    -8891    -9094 
   -9297    -9533    -9871   -10216   -10347   -10199    -9956    -9711 
   -9414    -9166    -9174    -9450    -9745    -9879   -10039   -10370 
  -10581   -10485   -10336   -10304   -10262   -10107    -9953    -9952 
   -9985    -9863    -9666    -9533    -9501    -9607    -9825   -10042 
  -10126   -10042    -9981    -9995    -9844    -9482    -9074    -8753 
   -8665    -8823    -9038    -9131    -9101    -9090    -9097    -8974 
   -8820    -8866    -9117    -9405    -9629    -9875   -10169   -10301 
  -10214   -10085    -9946    -9705    -9456    -9450    -9732   -10081 
  -10395   -10705   -10928   -10991   -10959   -10908   -10827   -10623 
  -10320   -10104   -10008    -9884    -9621    -9294    -9121    -9094 
   -9003    -8943    -9116    -9297    -9250    -9161    -9232    -9404 
   -9572    -9725    -9880    -9999    -9999    -9917    -9879    -9926 
  -10023   -10135   -10238   -10296   -10241   -10108   -10012    -9960 
   -9931    -9950    -9976   -10011   -10138   -10350   -10554   -10669 
  -10686   -10721   -10818   -10872   -10845   -10801   -10767   -10716 
  -10598   -10493   -10600   -10887   -11067   -11025   -10930   -10983 
  -11179   -11302   -11298   -11349   -11446   -11438   -11313   -11160 
  -11036   -10916   -10831   -10856   -10870   -10739   -10546   -10377 
  -10253   -10222   -10260   -10311   -10336   -10242   -10088   -10057 
  -10114   -10087    -9998   -10041   -10257   -10403   -10338   -10238 
  -10210   -10157   -10069   -10017   -10014   -10003    -9941    -9913 
   -9960    -9979    -9890    -9663    -9432    -9428    -9558    -9613 
   -9626    -9616    -9579    -9575    -9548    -9526    -9597    -9702 
   -9845   -10027   -10085    -9949    -9672    -9396    -9269    -9271 
   -9343    -9472    -9537    -9458    -9262    -8980    -8711    -8517 
   -8316    -8067    -7838    -7665    -7520    -7376    -7280    -7329 
   -7476    -7558    -7558    -7620    -7801    -8036    -8289    -8519 
   -8627    -8541    -8307    -8131    -8190    -8421    -8662    -8819 
   -8833    -8766    -8745    -8723    -8617    -8491    -8397    -8371 
   -8495    -8741    -9061    -9445    -9776    -9987   -10127   -10165 
  -10118   -10050    -9926    -9761    -9613    -9427    -9184    -8980 
   -8858    -8785    -8748    -8750    -8770    -8739    -8598    -8395 
   -8225    -8090    -8002    -8048    -8194    -8324    -8433    -8592 
   -8784    -8912    -8919    -8839    -8769    -8750    -8700    -8580 
   -8500    -8545    -8621    -8604    -8561    -8662    -8897    -9059 
   -9077    -9039    -8993    -8964    -8982    -9124    -9435    -9714 
   -9763    -9775    -9969   -10176   -10195   -10120   -10080   -10007 
   -9840    -9688    -9730    -9945   -10133   -10173   -10111   -10058 
  -10131   -10322   -10503   -10673   -10908   -11237   -11658   -12033 
  -12233   -12351   -12464   -12465   -12336   -12209   -12101   -11904 
  -11724   -11786   -12008   -12131   -12093   -11982   -11792   -11387 
  -10852   -10523   -10424   -10303   -10187   -10301   -10652   -11055 
  -11437   -11840   -12160   -12199   -11962   -11615   -11238   -10814 
  -10417   -10177   -10039    -9848    -9513    -9040    -8536    -8133 
   -7897    -7776    -7649    -7573    -7665    -7773    -7731    -7654 
   -7657    -7657    -7570    -7507    -7565    -7618    -7568    -7510 
   -7466    -7319    -7034    -6793    -6764    -6870    -6913    -6893 
   -6906    -6867    -6697    -6585    -6675    -6829    -6916    -6967 
   -7102    -7402    -7790    -8164    -8510    -8761    -8911    -9132 
   -9479    -9826   -10134   -10482   -10876   -11213   -11479   -11750 
  -11989   -12081   -12079   -12067   -11997   -11909   -11898   -11939 
  -12035   -12179   -12236   -12182   -12140   -12139   -12093   -11912 
  -11622   -11394   -11284   -11159   -10975   -10848   -10774   -10604 
  -10336   -10161   -10162   -10212   -10176   -10118   -10106   -10038 
   -9894    -9676    -9274    -8829    -8613    -8511    -8328    -8116 
   -7966    -7858    -7704    -7553    -7587    -7751    -7846    -7936 
   -8113    -8224    -8194    -8159    -8210    -8259    -8230    -8245 
   -8364    -8347    -8071    -7846    -7912    -8120    -8305    -8550 
   -8953    -9402    -9720    -9873    -9937    -9921    -9818    -9657 
   -9504    -9417    -9393    -9425    -9575    -9856   -10218   -10592 
  -10967   -11384   -11803   -12132   -12339   -12349   -12085   -11623 
  -11114   -10654   -10277    -9946    -9624    -9386    -9374    -9539 
   -9660    -9609    -9467    -9386    -9343    -9204    -9040    -9043 
   -9215    -9423    -9630    -9890   -10133   -10189   -10134   -10223 
  -10413   -10413   -10183    -9910    -9687    -9485    -9336    -9289 
   -9278    -9263    -9294    -9387    -9529    -9661    -9707    -9757 
   -9914   -10042   -10025    -9950    -9913    -9904    -9906    -9960 
  -10095   -10250   -10374   -10476   -10602   -10789   -10909   -10891 
  -10930   -11142   -11396   -11628   -11913   -12322   -12839   -13293 
  -13595   -13764   -13698   -13450   -13219   -12976   -12637   -12285 
  -12017   -11817   -11551   -11221   -11029   -10967   -10821   -10654 
  -10658   -10752   -10737   -10569   -10334   -10123    -9979    -9948 
  -10026   -10072    -9967    -9811    -9722    -9626    -9471    -9324 
   -9181    -8974    -8700    -8453    -8390    -8604    -8982    -9308 
   -9490    -9612    -9782    -9942    -9976    -9930    -9883    -9768 
   -9549    -9340    -9246    -9169    -8856    -8298    -7773    -7317 
   -6750    -6170    -5798    -5583    -5416    -5395    -5599    -5846 
   -5925    -5872    -5809    -5738    -5713    -5813    -5937    -5962 
   -5930    -5908    -5958    -6131    -6423    -6868    -7389    -7735 
   -7859    -7946    -8114    -8360    -8550    -8606    -8687    -8895 
   -9121    -9261    -9288    -9262    -9298    -9433    -9630    -9840 
  -10014   -10183   -10397   -10606   -10736   -10729   -10578   -10328 
   -9996    -9657    -9481    -9481    -9536    -9583    -9595    -9602 
   -9647    -9678    -9649    -9636    -9738    -9933   -10098   -10237 
  -10451   -10656   -10705   -10696   -10809   -11003   -11121   -11163 
  -11187   -11095   -10809   -10449   -10180   -10007    -9856    -9790 
   -9857    -9907    -9821    -9725    -9836   -10102   -10214   -10135 
  -10083   -10004    -9813    -9733    -9875   -10039   -10091   -10103 
  -10160   -10227   -10238   -10210   -10120    -9884    -9612    -9459 
   -9342    -9147    -8899    -8711    -8731    -8881    -8985    -9103 
   -9309    -9502    -9607    -9697    -9819    -9841    -9657    -9481 
   -9575    -9865   -10098   -10246   -10485   -10794   -11049   -11368 
  -11820   -12159   -12185   -12029   -11916   -11774   -11403   -10945 
  -10670   -10482   -10189    -9882    -9694    -9582    -9432    -9285 
   -9279    -9416    -9508    -9472    -9482    -9629    -9769    -9814 
   -9861    -9998   -10143   -10200   -10228   -10262   -10249   -10231 
  -10246   -10197   -10022    -9829    -9811    -9945   -10014    -9992 
   -9977    -9964    -9934    -9940   -10006   -10092   -10145   -10210 
  -10324   -10377   -10297   -10211   -10222   -10243   -10231   -10287 
  -10393   -10346   -10052    -9670    -9397    -9181    -8869    -8527 
   -8267    -8056    -7886    -7834    -7951    -8147    -8248    -8290 
   -8401    -8548    -8691    -8874    -9132    -9402    -9539    -9589 
   -9753   -10000   -10189   -10311   -10462   -10686   -10847   -10855 
  -10812   -10713   -10525   -10335   -10170   -10006    -9877    -9856 
   -9961   -10093   -10207   -10451   -10862   -11213   -11387   -11476 
  -11564   -11585   -11433   -11200   -11065   -11007   -10962   -10945 
  -10891   -10739   -10521   -10272   -10041    -9856    -9694    -9589 
   -9505    -9304    -8991    -8658    -8375    -8182    -7996    -7809 
   -7767    -7816    -7747    -7496    -7234    -7242    -7468    -7618 
   -7755    -8005    -8140    -7974    -7662    -7489    -7465    -7335 
   -7156    -7177    -7233    -7059    -6781    -6617    -6561    -6493 
   -6444    -6593    -6936    -7226    -7420    -7661    -7873    -7904 
   -7823    -7777    -7805    -7830    -7774    -7744    -7858    -7979 
   -7985    -7981    -8048    -8083    -7998    -7869    -7848    -7947 
   -8040    -8118    -8276    -8480    -8600    -8657    -8810    -9080 
   -9327    -9549    -9867   -10289   -10701   -11017   -11219   -11304 
  -11358   -11496   -11649   -11736   -11804   -11834   -11824   -11831 
  -11839   -11797   -11655   -11476   -11419   -11400   -11226   -10953 
  -10704   -10455   -10180    -9921    -9779    -9763    -9752    -9755 
   -9894   -10106   -10296   -10546   -10837   -11005   -11040   -11098 
  -11232   -11360   -11410   -11435   -11488   -11443   -11254   -11159 
  -11275   -11425   -11543   -11740   -11948   -11956   -11753   -11526 
  -11335   -11070   -10747   -10516   -10372   -10180    -9927    -9686 
   -9437    -9134    -8872    -8770    -8773    -8754    -8752    -8812 
   -8793    -8559    -8240    -7998    -7811    -7709    -7844    -8224 
   -8598    -8726    -8687    -8688    -8758    -8814    -8830    -8846 
   -8915    -9038    -9170    -9254    -9296    -9333    -9317    -9259 
   -9252    -9278    -9293    -9337    -9440    -9595    -9697    -9644 
   -9494    -9305    -9069    -8802    -8595    -8580    -8745    -8901 
   -8938    -8897    -8853    -8841    -8837    -8858    -8982    -9185 
   -9375    -9533    -9672    -9823   -10044   -10314   -10536   -10665 
  -10756   -10879   -10995   -11067   -11103   -11083   -11048   -11064 
  -11064   -10990   -10868   -10709   -10562   -10474   -10436   -10471 
  -10552   -10550   -10467   -10400   -10265    -9968    -9661    -9466 
   -9335    -9266    -9288    -9370    -9479    -9601    -9771    -9957 
  -10014   -10029   -10251   -10592   -10789   -10810   -10779   -10818 
  -10943   -11063   -11164   -11234   -11256   -11265   -11265   -11254 
  -11275   -11260   -11099   -10773   -10396   -10118    -9903    -9663 
   -9439    -9267    -9147    -9109    -9093    -9007    -8857    -8649 
   -8392    -8156    -7912    -7639    -7473    -7420    -7338    -7176 
   -6971    -6814    -6816    -6957    -7144    -7335    -7554    -7803 
   -7987    -8005    -7915    -7828    -7786    -7831    -7992    -8270 
   -8654    -9047    -9325    -9529    -9737    -9833    -9687    -9431 
   -9254    -9162    -9100    -9093    -9196    -9371    -9498    -9543 
   -9566    -9594    -9660    -9772    -9876    -9972   -10091   -10219 
  -10351   -10494   -10709   -11006   -11233   -11365   -11610   -12024 
  -12501   -13000   -13505   -13946   -14229   -14310   -14239   -14022 
  -13614   -13126   -12754   -12557   -12494   -12483   -12411   -12233 
  -11994   -11769   -11604   -11475   -11314   -11086   -10790   -10438 
  -10061    -9724    -9486    -9327    -9111    -8698    -8154    -7726 
   -7493    -7258    -6922    -6666    -6654    -6781    -6843    -6903 
   -7161    -7496    -7700    -7888    -8160    -8390    -8456    -8375 
   -8324    -8388    -8353    -8160    -8020    -8000    -7996    -7935 
   -7892    -7956    -8031    -8052    -8102    -8181    -8217    -8195 
   -8199    -8349    -8587    -8758    -8860    -8962    -9043    -9031 
   -8964    -9012    -9196    -9316    -9279    -9207    -9220    -9319 
   -9437    -9547    -9639    -9666    -9593    -9498    -9475    -9421 
   -9223    -8989    -8900    -8939    -8958    -8897    -8873    -9024 
   -9329    -9626    -9825    -9991   -10180   -10345   -10453   -10574 
  -10752   -10914   -11029   -11217   -11457   -11539   -11475   -11492 
  -11665   -11827   -11788   -11592   -11367   -11057   -10697   -10474 
  -10393   -10309   -10143    -9919    -9732    -9535    -9228    -8955 
   -8846    -8822    -8806    -8797    -8792    -8741    -8673    -8737 
   -8941    -9089    -9100    -9092    -9177    -9363    -9586    -9815 
  -10056   -10250   -10354   -10381   -10311   -10123    -9957    -9930 
   -9923    -9815    -9672    -9570    -9493    -9379    -9240    -9217 
   -9327    -9428    -9497    -9568    -9628    -9691    -9795    -9958 
  -10206   -10516   -10845   -11161   -11427   -11655   -11896   -12108 
  -12194   -12078   -11793   -11538   -11404   -11238   -10978   -10743 
  -10571   -10357   -10038    -9724    -9524    -9359    -9111    -8818 
   -8553    -8309    -8060    -7808    -7577    -7410    -7303    -7218 
   -7144    -7128    -7213    -7344    -7415    -7454    -7546    -7657 
   -7758    -7933    -8195    -8437    -8637    -8853    -9045    -9104 
   -9020    -8895    -8804    -8696    -8502    -8305    -8243    -8271 
   -8306    -8402    -8592    -8830    -9020    -9111    -9157    -9175 
   -9157    -9180    -9205    -9109    -8930    -8753    -8626    -8526 
   -8397    -8347    -8486    -8718    -9011    -9386    -9736   -10007 
  -10219   -10361   -10450   -10476   -10417   -10350   -10318   -10251 
  -10095    -9887    -9771    -9783    -9826    -9867    -9930    -9995 
  -10018   -10018   -10116   -10331   -10512   -10571   -10530   -10431 
  -10355   -10357   -10413   -10470   -10450   -10327   -10170   -10033 
   -9936    -9882    -9883    -9981   -10133   -10224   -10237   -10242 
  -10342   -10543   -10713   -10801   -10874   -10949   -11022   -11132 
  -11288   -11419   -11371   -11092   -10791   -10655   -10651   -10747 
  -10921   -11079   -11153   -11094   -10951   -10854   -10785   -10669 
  -10489   -10237    -9948    -9652    -9359    -9142    -9023    -8931 
   -8845    -8780    -8687    -8495    -8210    -7863    -7523    -7283 
   -7160    -7122    -7156    -7257    -7474    -7838    -8263    -8675 
   -9050    -9370    -9651    -9906   -10149   -10384   -10598   -10809 
  -11002   -11102   -11088   -11018   -10955   -10955   -11045   -11180 
  -11238   -11148   -10960   -10777   -10647   -10527   -10350   -10098 
   -9776    -9462    -9248    -9088    -8965    -8978    -9131    -9323 
   -9485    -9617    -9717    -9690    -9532    -9374    -9258    -9174 
   -9111    -9036    -9008    -9036    -9020    -8968    -8916    -8853 
   -8827    -8877    -8974    -9131    -9367    -9644    -9907   -10126 
  -10301   -10415   -10434   -10315   -10093    -9945    -9927    -9933 
   -9923    -9923    -9927    -9934    -9940    -9987   -10119   -10227 
  -10228   -10226   -10322   -10469   -10620   -10774   -10885   -10902 
  -10864   -10893   -10991   -11017   -10957   -10937   -10979   -11020 
  -11060   -11202   -11457   -11665   -11732   -11719   -11673   -11607 
  -11495   -11298   -11030   -10721   -10354    -9953    -9606    -9371 
   -9254    -9190    -9120    -9061    -8985    -8791    -8515    -8320 
   -8274    -8370    -8525    -8591    -8542    -8467    -8418    -8451 
   -8561    -8712    -8919    -9073    -8977    -8723    -8594    -8646 
   -8710    -8668    -8598    -8591    -8581    -8514    -8465    -8465 
   -8440    -8378    -8356    -8364    -8276    -8082    -7967    -8006 
   -8052    -8012    -7936    -7897    -7904    -7867    -7774    -7790 
   -7948    -8040    -8008    -7996    -8037    -8070    -8078    -8137 
   -8356    -8668    -8904    -9077    -9235    -9336    -9354    -9332 
   -9382    -9547    -9756    -9973   -10160   -10245   -10291   -10412 
  -10601   -10747   -10778   -10746   -10737   -10717   -10655   -10666 
  -10768   -10835   -10851   -10894   -10967   -11047   -11115   -11159 
  -11165   -11086   -10939   -10832   -10777   -10689   -10578   -10552 
  -10590   -10539   -10396   -10336   -10392   -10423   -10417   -10488 
  -10592   -10581   -10442   -10274   -10141   -10039   -10014   -10153 
  -10419   -10616   -10674   -10701   -10762   -10825   -10871   -10886 
  -10874   -10864   -10854   -10832   -10856   -10914   -10868   -10683 
  -10463   -10250   -10018    -9755    -9455    -9181    -9015    -8927 
   -8881    -8908    -8976    -9030    -9127    -9294    -9445    -9529 
   -9564    -9548    -9478    -9352    -9178    -8995    -8810    -8580 
   -8357    -8252    -8216    -8100    -7913    -7803    -7809    -7839 
   -7835    -7889    -8077    -8289    -8410    -8525    -8689    -8810 
   -8857    -8888    -8892    -8846    -8838    -8984    -9242    -9485 
   -9684    -9863    -9999   -10114   -10258   -10453   -10693   -10905 
  -11007   -11053   -11126   -11215   -11311   -11394   -11411   -11387 
  -11358   -11286   -11192   -11179   -11242   -11315   -11354   -11290 
  -11137   -10984   -10806   -10612   -10486   -10420   -10393   -10422 
