Origin Time       2025/01/13 21:19:00
Lat.              31.8
Long.             131.6
Depth. (km)       30
Mag.              6.9
Station Code      OIT014
Station Lat.      33.0656
Station Long.     131.8588
Station Height(m) 8
Record Time       2025/01/13 21:19:58
Sampling Freq(Hz) 100Hz
Duration Time(s)  101
Dir.              E-W
Scale Factor      7845(gal)/8223790
Max. Acc. (gal)   12.539
Last Correction   2025/01/13 21:19:58
Memo.             
[...]
   13386    13716    14320    15040    15583    15842    15939    16021 
   16117    16098    15917    15754    15720    15836    16127    16472 
   16731    16942    17165    17278    17076    16534    15874    15313 
   14916    14701    14713    14989    15476    15955    16206    16168 
   15777    14991    14034    13201    12631    12418    12645    13320 
   14322    15337    16013    16187    15849    15172    14574    14428 
   14821    15655    16677    17502    17933    18076    18083    17926 
   17527    17046    16829    16974    17319    17707    17959    17845 
   17328    16545    15646    14805    14226    13973    13922    13911 
   13873    13842    13857    13868    13772    13559    13381    13370 
   13385    13190    12933    13047    13649    14396    15026    15657 
   16438    17230    17830    18219    18446    18528    18453    18187 
   17756    17221    16640    16121    15835    15815    15885    15876 
   15730    15426    15063    14854    14889    15032    15072    14917 
   14636    14370    14278    14523    15118    15874    16545    16978 
   17172    17194    17042    16692    16264    15970    15836    15596 
   15032    14257    13509    12946    12752    13051    13643    14172 
   14515    14696    14674    14521    14476    14604    14682    14558 
   14345    14256    14488    15091    15909    16822    17791    18598 
   18895    18620    18075    17581    17212    16815    16266    15731 
   15485    15477    15423    15230    15045    14990    15066    15221 
   15394    15542    15622    15527    15161    14592    14041    13776 
   13948    14380    14623    14380    13836    13450    13543    14126 
   14982    15942    17023    18138    18966    19271    19125    18763 
   18384    18114    17987    17879    17625    17246    16815    16301 
   15722    15191    14716    14184    13590    13086    12812    12803 
   12960    13144    13387    13717    14007    14226    14450    14625 
   14662    14584    14455    14373    14488    14920    15552    16065 
   16375    16675    16977    17145    17174    17082    16829    16453 
   16081    15826    15770    15984    16445    16947    17304    17556 
   17782    17933    17946    17768    17392    16888    16312    15763 
   15350    14943    14384    13817    13447    13297    13248    13090 
   12808    12590    12464    12393    12514    12958    13694    14635 
   15643    16549    17173    17343    17068    16505    15823    15342 
   15391    15935    16687    17342    17629    17458    17005    16579 
   16321    16150    16006    15947    15923    15786    15510    15129 
   14666    14173    13717    13356    13143    13038    12977    12997 
   13184    13560    14065    14625    15259    15909    16344    16503 
   16644    16895    17038    16811    16222    15577    15169    15034 
   15142    15515    16044    16557    17016    17425    17709    17788 
   17601    17097    16402    15846    15643    15673    15657    15363 
   14704    13799    12866    12136    11812    12001    12649    13479 
   14110    14472    14848    15453    16308    17263    17999    18303 
   18243    17965    17523    16954    16410    16082    15952    15842 
   15728    15724    15846    16008    16044    15753    15237    14916 
   14972    15141    15132    14956    14732    14399    13945    13675 
   13851    14345    14860    15222    15388    15365    15245    15228 
   15448    15769    15944    15955    15961    16011    15958    15755 
   15712    16198    17169    18283    19226    19724    19626    18951 
   17849    16627    15653    15141    15053    15133    15049    14678 
   14262    14158    14476    15041    15587    15962    16140    16097 
   15909    15736    15592    15462    15506    15768    15942    15700 
   15095    14513    14238    14256    14426    14590    14651    14669 
   14752    14925    15148    15391    15635    15789    15664    15132 
   14314    13541    13073    12984    13305    14035    15083    16363 
   17793    19082    19832    19890    19392    18632    17991    17672 
   17529    17385    17205    16927    16468    15912    15499    15331 
   15201    14872    14353    13824    13506    13564    14015    14744 
   15556    16287    16887    17231    17143    16722    16309    16174 
   16421    17054    18000    18990    19589    19558    18966    17946 
   16737    15786    15441    15591    15839    15951    15966    15974 
   15951    15877    15907    16189    16599    16907    16987    16825 
   16596    16549    16696    16829    16737    16355    15770    15090 
   14215    12985    11547    10200     9127     8521     8546     9193 
   10336    11846    13583    15309    16761    17929    18860    19404 
   19430    18970    18273    17802    17725    17747    17598    17207 
   16594    15805    14806    13498    11857    10100     8712     8122 
    8374     9247    10520    12019    13544    14905    16020    16904 
   17543    17741    17255    16224    15174    14493    14264    14361 
   14558    14708    14762    14593    14021    13041    11966    11242 
   11213    12070    13670    15468    17051    18492    19904    21108 
   21905    22291    22368    22258    22080    21956    21952    21988 
   21976    21906    21633    20852    19386    17289    14712    11943 
    9513     8077     8047     9304    11344    13640    15807    17643 
   19067    20102    20875    21493    21979    22403    22893    23473 
   23994    24213    23877    22758    20802    18338    15944    14050 
   12818    12245    12151    12276    12436    12479    12290    11832 
   11182    10494     9915     9513     9348     9533    10197    11422 
   13197    15345    17451    18993    19672    19467    18503    17005 
   15236    13495    12139    11325    11045    11422    12487    13921 
   15226    15969    15966    15365    14577    14094    14127    14458 
   14802    15083    15299    15381    15257    14895    14353    13814 
   13383    12968    12652    12721    13292    14308    15603    16853 
   17802    18428    18739    18692    18355    17902    17506    17339 
   17455    17782    18328    19122    19966    20540    20644    20262 
   19481    18392    17016    15356    13532    11815    10476     9659 
    9350     9362     9428     9410     9267     8969     8667     8694 
    9250    10188    11163    12006    12834    13678    14445    15165 
   15896    16596    17285    18026    18777    19583    20630    21830 
   22832    23356    23242    22574    21658    20637    19539    18503 
   17697    17316    17508    18246    19371    20545    21413    21870 
   21956    21681    21042    20093    19009    17999    17234    16964 
   17427    18484    19569    20123    19957    19191    18006    16549 
   14980    13474    12139    10970     9876     8810     7921     7469 
    7465     7676     7902     8189     8745     9639    10666    11577 
   12285    12866    13328    13528    13491    13498    13779    14369 
   15199    16096    16776    17100    17240    17537    18122    18767 
   19215    19386    19268    18837    18063    16985    15743    14473 
   13316    12420    11761    11202    10729    10324     9882     9371 
    8858     8526     8610     9108     9865    10818    11943    13157 
   14350    15506    16726    18085    19511    20772    21618    21951 
   21741    20966    19638    17795    15587    13379    11691    10899 
   11001    11753    12834    13834    14430    14517    14193    13798 
   13648    13792    14235    14825    15161    15137    14980    14779 
   14526    14273    14004    13794    13907    14469    15346    16451 
   17860    19585    21315    22593    23141    22828    21717    20121 
   18320    16497    14881    13618    12676    11955    11426    11130 
   11098    11291    11576    11832    12114    12556    13180    13900 
   14642    15395    16147    16730    16910    16653    16101    15457 
   14958    14706    14617    14563    14462    14288    14042    13660 
   13104    12463    11871    11466    11391    11736    12526    13740 
   15219    16700    17967    18952    19719    20349    20875    21267 
   21521    21709    21802    21609    21004    20002    18751    17500 
   16433    15633    15184    15102    15249    15375    15190    14659 
   14030    13513    13269    13290    13284    12970    12339    11642 
   11256    11465    12383    13879    15599    17120    18126    18488 
   18328    17922    17467    17018    16600    16212    15823    15406 
   14953    14569    14376    14449    14705    14879    14804    14446 
   13891    13486    13536    14095    15187    16586    17694    18111 
   17874    17246    16636    16401    16625    17258    18183    19130 
   19866    20326    20582    20726    20760    20587    20078    19117 
   17648    15754    13675    11622     9715     8191     7331     7217 
    7618     8075     8260     8272     8505     9347    10989    13382 
   16316    19383    22010    23788    24621    24614    24019    23107 
   22069    20979    19796    18497    17167    15961    15028    14524 
   14562    15057    15765    16367    16511    16023    14983    13749 
   12856    12515    12569    12943    13495    13909    14099    14207 
   14357    14778    15700    17101    18891    20969    23059    24779 
   25849    26249    26131    25602    24771    23809    22832    21856 
   20838    19813    18962    18378    17971    17610    17150    16399 
   15280    13830    12078    10168     8424     7022     5935     5186 
    4828     4834     5151     5784     6716     7920     9518    11735 
   14513    17356    19637    20988    21440    21180    20375    19392 
   18625    18130    17810    17612    17524    17640    18002    18505 
   19037    19471    19665    19494    18909    18106    17421    17119 
   17234    17408    17159    16376    15311    14407    14029    14114 
   14301    14227    13610    12544    11421    10470     9807     9559 
    9632     9795     9890     9890    10087    10831    11954    13008 
   13842    14539    15121    15635    16202    16891    17698    18547 
   19288    19789    19944    19723    19206    18486    17653    16713 
   15488    13915    12263    10944    10332    10617    11685    13182 
   14688    15826    16389    16448    16251    16040    16089    16587 
   17423    18281    18867    18964    18477    17420    15923    14331 
   13018    12117    11674    11750    12247    12972    13825    14709 
   15418    15719    15561    15147    14868    15097    15909    17072 
   18245    19111    19495    19458    19109    18403    17304    15831 
   13995    12016    10358     9437     9454    10373    11871    13427 
   14629    15383    15714    15614    15110    14374    13705    13306 
   13161    13193    13459    14068    15040    16160    17023    17304 
   16977    16232    15375    14688    14211    13814    13385    12893 
   12526    12555    12933    13389    13733    13956    14197    14570 
   15053    15591    16129    16576    16846    16897    16808    16772 
   16856    16910    16687    16021    15044    14092    13471    13327 
   13559    14053    14775    15434    15560    14970    13830    12553 
   11732    11832    12884    14482    16077    17317    18041    18112 
   17720    17469    17798    18716    20040    21469    22739    23845 
   24811    25539    25902    25744    24952    23629    21953    20012 
   17938    16021    14515    13560    13236    13366    13510    13317 
   12685    11763    10898    10554    11210    13026    15703    18758 
   21655    23908    25273    25662    25030    23522    21463    19176 
   16883    14706    12796    11437    10876    11009    11410    11546 
   10891     9302     7236     5328     4151     4197     5586     7951 
   10750    13549    16047    18038    19426    20119    20104    19543 
   18636    17593    16652    15930    15385    14939    14457    13736 
   12640    11210     9701     8444     7641     7371     7649     8388 
    9533    11207    13533    16367    19228    21498    22661    22499 
   21330    19838    18593    17855    17662    17937    18505    19124 
   19669    20170    20528    20470    19820    18647    17167    15692 
   14616    14218    14490    15356    16722    18277    19684    20815 
   21537    21614    20877    19280    17010    14544    12387    10889 
   10234    10309    10762    11252    11458    11106    10138     8658 
    6864     5151     3979     3646     4440     6606     9853    13421 
   16710    19360    21181    22291    22959    23391    23777    24156 
   24383    24472    24588    24692    24495    23710    22277    20263 
   17675    14636    11477     8622     6539     5641     5940     7051 
    8698    10750    12776    14088    14233    13278    11850    10841 
   10817    11749    13392    15553    17998    20367    22258    23503 
   24196    24358    23896    22648    20501    17690    14775    12391 
   10963    10393    10215    10072     9910     9841     9945    10207 
   10646    11340    12388    13849    15585    17319    18781    19762 
   20167    20032    19400    18349    17151    16117    15302    14424 
   13120    11477    10068     9391     9709    11111    13477    16602 
   20096    23321    25720    26939    26932    26042    24676    23151 
   21802    20920    20617    20721    20821    20579    19969    19118 
   18033    16629    14847    12664    10160     7607     5402     3893 
    3307     3703     4915     6619     8384     9733    10446    10831 
   11435    12702    14943    18168    21867    25258    27654    28715 
   28351    26478    23394    19994    17066    15053    14376    15078 
   16676    18604    20333    21494    21995    21737    20704    19195 
   17452    15510    13555    12027    11384    11819    13146    14982 
   16910    18500    19475    19715    19103    17718    16021    14539 
   13466    12634    11832    11016    10184     9296     8384     7549 
    6875     6485     6516     7133     8490    10500    12802    14999 
   16757    17833    18273    18408    18468    18454    18300    18000 
   17722    17609    17678    18030    18634    19071    18875    17818 
   16008    13829    11718    10081     9157     8887     9124     9810 
   10949    12580    14642    16800    18621    19819    20341    20421 
   20453    20706    21216    21799    22108    21838    20902    19494 
   17968    16544    15273    14111    12870    11488    10138     9019 
    8271     7812     7312     6604     5829     5171     4716     4541 
    4770     5541     6843     8449    10138    11735    13028    13932 
   14571    15214    16144    17463    19052    20788    22572    24217 
   25585    26635    27274    27444    27321    27140    26855    26217 
   25051    23430    21612    19863    18376    17234    16330    15512 
   14709    13836    12795    11531    10053     8499     7096     6046 
    5440     5231     5462     6315     7777     9589    11519    13466 
   15349    17089    18612    19830    20687    21180    21317    21208 
   21093    21096    21105    21105    21201    21277    21145    20822 
   20417    19988    19489    18804    17841    16494    14713    12700 
   10786     9200     8094     7545     7454     7612     7819     7898 
    7838     7900     8395     9404    10713    11982    12981    13690 
   14212    14715    15385    16324    17529    18959    20474    21811 
   22797    23498    23992    24152    23739    22659    21227    19957 
   19130    18835    19068    19537    19773    19460    18446    16814 
   14976    13419    12518    12407    12829    13370    13733    13763 
   13447    12872    12172    11557    11236    11288    11670    12272 
   12966    13656    14288    14827    15233    15412    15265    14787 
   14099    13431    13015    13026    13525    14399    15477    16648 
   17755    18638    19161    19133    18501    17487    16386    15437 
   14839    14644    14747    15032    15309    15184    14372    13022 
   11484     9965     8556     7456     6994     7434     8781    10798 
   13105    15299    17092    18378    19245    19881    20413    20885 
   21303    21589    21672    21636    21658    21830    22069    22123 
   21743    20960    20028    19078    18071    16984    15836    14593 
   13185    11693    10358     9282     8424     7819     7600     7904 
    8725     9950    11580    13536    15558    17455    19099    20368 
   21215    21631    21655    21330    20668    19842    19048    18301 
   17599    16991    16514    16204    15967    15570    14879    14035 
   13328    13026    13251    13833    14443    14904    15171    15238 
   15142    15012    15064    15472    16244    17230    18235    19130 
   19823    20224    20304    20160    19997    19938    19912    19747 
   19321    18675    17984    17292    16524    15749    15041    14304 
   13446    12482    11504    10611     9840     9227     8869     8792 
    8897     9094     9324     9533     9736     9936    10112    10255 
   10318    10318    10420    10832    11646    12792    14138    15534 
   16758    17724    18558    19402    20271    21124    21868    22377 
   22576    22462    22162    21855    21618    21459    21289    20952 
   20385    19461    17990    16023    13772    11539     9753     8662 
    8199     8295     8858     9582    10193    10698    11283    12042 
   12889    13765    14720    15778    16931    18162    19325    20225 
   20808    20993    20660    19927    19051    18184    17381    16696 
   16218    15973    15958    16252    16881    17693    18396    18727 
   18582    17914    16706    15163    13726    12825    12577    12908 
   13743    14813    15714    16224    16231    15643    14615    13513 
   12603    11975    11669    11719    12127    12818    13683    14553 
   15132    15264    15125    15040    15207    15581    15994    16416 
   16918    17423    17675    17558    17277    17032    16791    16475 
   16032    15439    14817    14308    13948    13792    13899    14239 
   14760    15338    15836    16227    16561    16997    17599    18227 
   18870    19579    20256    20831    21208    21188    20630    19534 
   18091    16586    15214    14099    13328    12941    12839    12849 
   12955    13252    13738    14335    14949    15464    15759    15853 
   15878    15893    15863    15751    15549    15294    15025    14833 
   14777    14764    14674    14442    14011    13498    13242    13373 
   13671    13948    14202    14490    14866    15319    15803    16295 
   16726    16926    16811    16457    16038    15747    15765    16167 
   16814    17512    18171    18671    18906    18851    18543    18072 
   17432    16603    15716    14885    14211    13736    13284    12826 
   12556    12432    12295    12202    12206    12276    12486    12843 
   13157    13373    13590    13879    14307    14870    15543    16295 
   16968    17408    17560    17443    17209    16988    16785    16569 
   16231    15749    15283    14867    14355    13716    13077    12550 
   12264    12359    12776    13338    13945    14521    15041    15585 
   16159    16746    17419    18168    18847    19350    19718    20023 
   20278    20459    20490    20309    19958    19475    18851    18099 
   17248    16372    15631    15115    14709    14260    13740    13224 
   12791    12442    12127    11838    11539    11141    10709    10363 
