Origin Time       2025/01/13 21:19:00
Lat.              31.8
Long.             131.6
Depth. (km)       30
Mag.              6.9
Station Code      OIT009
Station Lat.      33.2568
Station Long.     131.3443
Station Height(m) 455
Record Time       2025/01/13 21:20:00
Sampling Freq(Hz) 100Hz
Duration Time(s)  157
Dir.              E-W
Scale Factor      7845(gal)/8223790
Max. Acc. (gal)   30.870
Last Correction   2025/01/13 21:19:59
Memo.             
[...]
    -576     -526     -945    -1665    -2704    -3885    -4935    -5742 
   -6183    -6230    -6039    -5616    -4909    -4091    -3331    -2687 
   -2250    -2029    -1906    -1767    -1540    -1128     -402      652 
    1908     3237     4426     5240     5630     5611     5159     4295 
    3092     1786      607     -473    -1437    -2176    -2718    -3105 
   -3377    -3599    -3808    -4095    -4477    -4835    -5074    -5115 
   -4754    -3888    -2674    -1312       31     1132     1819     2039 
    1883     1514     1005      450      -36     -490     -967    -1507 
   -2151    -2890    -3717    -4587    -5358    -5935    -6235    -6173 
   -5786    -5159    -4348    -3385    -2331    -1316     -442      278 
     839     1196     1293     1100      683      205     -199     -467 
    -603     -804    -1246    -1891    -2724    -3703    -4648    -5471 
   -6122    -6490    -6566    -6372    -5790    -4695    -3146    -1278 
     772     2704     4226     5248     5660     5456     4831     3935 
    2899     1885      958      103     -689    -1412    -2058    -2647 
   -3211    -3788    -4392    -4996    -5522    -5931    -6192    -6205 
   -5937    -5385    -4615    -3896    -3323    -2755    -2218    -1725 
   -1233     -865     -693     -722     -942    -1228    -1487    -1695 
   -1811    -1784    -1586    -1270     -881     -413       20      305 
     430      287     -148     -687    -1231    -1730    -2072    -2263 
   -2339    -2238    -1921    -1468    -1038     -646     -251        9 
      74       17     -265     -846    -1576    -2369    -3163    -3778 
   -4112    -4182    -4031    -3735    -3396    -3113    -2925    -2806 
   -2744    -2802    -3052    -3466    -3991    -4671    -5528    -6424 
   -7165    -7655    -7859    -7803    -7534    -7034    -6359    -5634 
   -4831    -3889    -2910    -2007    -1204     -565     -157       81 
     220      315      457      668      928     1269     1684     2077 
    2378     2609     2817     3063     3343     3539     3576     3429 
    3036     2415     1648      826       25     -641    -1034    -1107 
    -862     -319      394     1121     1730     2088     2164     2076 
    1937     1780     1601     1320      897      426      -95     -765 
   -1597    -2508    -3399    -4237    -4989    -5525    -5786    -5818 
   -5649    -5362    -5115    -4959    -4873    -4838    -4799    -4688 
   -4441    -4044    -3570    -3064    -2625    -2405    -2417    -2597 
   -2891    -3254    -3658    -4045    -4351    -4573    -4696    -4725 
   -4714    -4612    -4386    -4077    -3653    -3107    -2484    -1744 
    -868       64      988     1894     2695     3310     3797     4163 
    4347     4382     4294     4047     3681     3267     2814     2332 
    1838     1309      703      -37     -940    -1946    -2944    -3823 
   -4471    -4766    -4706    -4469    -4166    -3813    -3516    -3304 
   -3142    -3069    -3021    -2895    -2758    -2650    -2524    -2374 
   -2197    -2047    -1934    -1756    -1520    -1296    -1097    -1007 
   -1089    -1263    -1459    -1609    -1611    -1421    -1084     -714 
    -426     -274     -310     -607    -1142    -1813    -2536    -3214 
   -3820    -4375    -4828    -5178    -5494    -5771    -6011    -6309 
   -6656    -6936    -7152    -7296    -7257    -7028    -6691    -6355 
   -6120    -5975    -5921    -6022    -6268    -6562    -6779    -6832 
   -6733    -6442    -5891    -5192    -4465    -3744    -3072    -2455 
   -1945    -1618    -1437    -1378    -1493    -1764    -2089    -2440 
   -2853    -3343    -3925    -4526    -4993    -5244    -5244    -4965 
   -4445    -3775    -3005    -2151    -1277     -418      459     1366 
    2281     3194     4023     4625     4995     5189     5139     4806 
    4256     3553     2782     2080     1534     1193     1136     1399 
    1915     2610     3376     4095     4710     5147     5385     5498 
    5498     5447     5471     5557     5679     5861     5983     5925 
    5644     5063     4218     3238     2205     1243      422     -267 
    -792    -1152    -1404    -1563    -1624    -1597    -1493    -1317 
   -1080     -812     -533     -257      -54       45       60      -43 
    -298     -679    -1094    -1458    -1813    -2265    -2841    -3551 
   -4357    -5131    -5718    -5962    -5778    -5219    -4347    -3245 
   -2092    -1112     -480     -237     -336     -683    -1142    -1637 
   -2099    -2477    -2824    -3200    -3619    -4089    -4626    -5243 
   -5941    -6720    -7568    -8446    -9336   -10214   -10983   -11488 
  -11632   -11489   -11215   -10851   -10434   -10093    -9846    -9671 
   -9624    -9640    -9616    -9566    -9481    -9302    -9018    -8634 
   -8232    -7933    -7774    -7730    -7727    -7620    -7284    -6647 
   -5698    -4568    -3395    -2204    -1123     -342      102      186 
    -128     -703    -1385    -2077    -2627    -2997    -3221    -3176 
   -2821    -2285    -1559     -581      553     1806     3188     4610 
    6031     7408     8657     9802    10813    11596    12114    12340 
   12320    12139    11778    11229    10470     9482     8345     7076 
    5668     4197     2749     1547      726      133     -278     -402 
    -284      -27      283      565      858     1165     1340     1275 
     903       99    -1169    -2808    -4737    -6853    -8973   -10986 
  -12788   -14238   -15390   -16393   -17143   -17427   -17332   -17124 
  -16737   -15965   -14762   -13120   -11118    -8872    -6439    -4067 
   -1925        6     1575     2764     3605     3937     3842     3457 
    2781     1907      865     -378    -1711    -3063    -4364    -5451 
   -6211    -6566    -6523    -6251    -5879    -5455    -5090    -4808 
   -4459    -3892    -2970    -1607      160     2241     4441     6559 
    8444     9981    11210    12058    12353    12179    11662    10789 
    9702     8662     7774     7051     6551     6199     5867     5578 
    5364     5158     4837     4357     3782     3137     2448     1733 
     985      333      -60     -205     -175      -20      171      271 
     290      261      121      -28      -22       72      276      768 
    1433     2047     2679     3316     3785     4163     4564     4941 
    5341     5818     6195     6301     6050     5305     4014     2223 
      -8    -2521    -5167    -7888   -10562   -13028   -15159   -16922 
  -18343   -19310   -19738   -19646   -19021   -17961   -16758   -15693 
  -14963   -14683   -14899   -15549   -16447   -17336   -17942   -18052 
  -17589   -16560   -15068   -13348   -11658   -10196    -9049    -8197 
   -7570    -7025    -6412    -5742    -5000    -4081    -3060    -2027 
    -864      510     1975     3438     4872     6092     6848     7013 
    6463     5161     3303     1136    -1044    -2775    -3808    -4193 
   -3893    -2987    -1732     -346      954     2072     3038     3879 
    4567     5112     5603     6061     6536     7141     7854     8652 
    9471    10169    10694    11003    10951    10413     9327     7685 
    5545     2982      191    -2600    -5321    -7908   -10326   -12522 
  -14346   -15809   -16906   -17482   -17504   -16954   -15774   -14006 
  -11668    -8849    -5891    -3024     -278     2197     4299     6142 
    7797     9252    10509    11457    12027    12272    12112    11497 
   10577     9443     8170     6882     5645     4428     3145     1772 
     340    -1057    -2313    -3430    -4326    -4968    -5491    -5938 
   -6309    -6721    -7306    -8048    -8850    -9742   -10754   -11769 
  -12667   -13387   -13844   -13907   -13475   -12530   -11103    -9288 
   -7252    -5202    -3403    -1948     -761      121      730     1194 
    1521     1715     1881     2127     2471     2883     3423     4120 
    4857     5447     5674     5422     4727     3643     2336      994 
    -282    -1228    -1707    -1933    -1872    -1422     -780       28 
    1047     2116     3183     4247     5189     5969     6597     6961 
    7014     6856     6586     6336     6112     5699     5081     4298 
    3249     2014      746     -340    -1019    -1425    -1707    -1857 
   -2061    -2457    -3071    -4093    -5659    -7740   -10273   -13073 
  -15916   -18657   -21108   -23062   -24366   -24868   -24592   -23653 
  -21933   -19433   -16387   -12901    -9097    -5294    -1733     1475 
    4290     6797     9055    10998    12607    13906    14883    15495 
   15650    15329    14608    13563    12258    10867     9633     8600 
    7713     6945     6110     5019     3646     2026      292    -1389 
   -2862    -3973    -4747    -5266    -5530    -5702    -5983    -6416 
   -6999    -7759    -8667    -9628   -10539   -11349   -12017   -12447 
  -12579   -12452   -12056   -11407   -10581    -9575    -8403    -7182 
   -5945    -4638    -3330    -2187    -1254     -415      384     1003 
    1409     1723     1826     1518      838      -74    -1129    -2219 
   -3110    -3650    -3885    -3788    -3325    -2648    -1796     -668 
     599     1841     3065     4197     5165     5945     6345     6365 
    6307     6138     5686     5155     4706     4257     3736     2949 
    1649     -191    -2505    -5161    -7917   -10650   -13258   -15525 
  -17382   -18855   -19944   -20752   -21334   -21678   -21770   -21512 
  -20686   -19167   -17077   -14461   -11400    -8392    -5759    -3438 
   -1526      -98      951     1676     2162     2502     2670     2670 
    2587     2463     2319     2201     2158     2165     2185     2192 
    2054     1598      854      -29    -1019    -2114    -3252    -4376 
   -5373    -6112    -6567    -6725    -6619    -6345    -5915    -5336 
   -4672    -3997    -3315    -2597    -1823     -881      306     1684 
    3204     4793     6347     7844     9256    10540    11761    12935 
   13992    14924    15634    15917    15776    15219    14129    12545 
   10566     8257     5761     3165      622    -1695    -3736    -5401 
   -6623    -7464    -7908    -8031    -8074    -8091    -8010    -7912 
   -7901    -7871    -7700    -7375    -6829    -5988    -4851    -3419 
   -1706      217     2147     3777     4981     5811     6210     6075 
    5433     4418     3156     1725      270    -1013    -2034    -2793 
   -3303    -3596    -3828    -4202    -4722    -5274    -5821    -6354 
   -6860    -7344    -7767    -8024    -8050    -7963    -7848    -7514 
   -6943    -6409    -5872    -5319    -5100    -5200    -5356    -5543 
   -5742    -5935    -6104    -6169    -6050    -5671    -5011    -4085 
   -2894    -1486       -4     1367     2513     3402     4001     4244 
    4102     3709     3187     2492     1645      841      187     -330 
    -753    -1092    -1335    -1489    -1564    -1628    -1818    -2126 
   -2381    -2608    -2921    -3260    -3623    -4028    -4345    -4498 
   -4326    -3742    -3142    -2710    -2053    -1140     -376      182 
     629      877      812      452     -103     -882    -1857    -2839 
   -3809    -4842    -5830    -6669    -7258    -7393    -7056    -6315 
   -5040    -3358    -1632       -5     1460     2674     3569     4217 
    4743     5057     5140     5138     4966     4584     4141     3680 
    3210     2712     2042     1155       47    -1377    -3067    -4820 
   -6516    -8127    -9532   -10513   -10959   -10810   -10029    -8768 
   -7164    -5323    -3508    -1912     -630      202      534      437 
      37     -527    -1174    -1875    -2589    -3299    -4063    -4974 
   -6022    -7080    -8058    -8849    -9302    -9389    -9121    -8480 
   -7553    -6535    -5597    -4788    -4077    -3485    -3014    -2519 
   -1814     -776      571     2137     3915     5740     7307     8560 
    9490     9944     9919     9595     9077     8487     8004     7707 
    7643     7820     8147     8599     9103     9467     9651     9663 
    9456     9085     8541     7771     6948     6212     5556     5069 
    4797     4753     5007     5394     5630     5621     5262     4396 
    2959      940    -1533    -4186    -6782    -9262   -11577   -13535 
  -15063   -16191   -16807   -16880   -16580   -16050   -15372   -14685 
  -14220   -14134   -14457   -15078   -15793   -16486   -17026   -17209 
  -17012   -16460   -15479   -14152   -12671   -11075    -9343    -7470 
   -5456    -3391    -1378      568     2388     3963     5262     6300 
    7060     7515     7665     7550     7209     6694     6127     5584 
    5158     4995     5100     5375     5805     6280     6604     6673 
    6342     5541     4456     3257     2039      963      295      230 
     714     1582     2654     3762     4737     5308     5414     5228 
    4739     3986     3268     2739     2386     2289     2432     2628 
    2754     2844     2809     2457     1833      993      -99    -1421 
   -2971    -4735    -6689    -8784   -10905   -12960   -14831   -16393 
  -17643   -18659   -19597   -20610   -21733   -22943   -24166   -25263 
  -26033   -26246   -25926   -25304   -24036   -21590   -18646   -15867 
  -12888   -10219    -8446    -7041    -5971    -5313    -4712    -4068 
   -3218    -2042     -631     1100     3219     5633     8309    11132 
   13902    16524    18877    20875    22526    23706    24341    24575 
   24494    24146    23737    23515    23598    23950    24484    25116 
   25687    25983    25863    25215    23838    21710    19132    16270 
   13142    10046     7333     4932     2687      704    -1020    -2743 
   -4649    -6839    -9424   -12359   -15489   -18677   -21756   -24682 
  -27453   -29797   -31442   -32562   -33407   -33905   -34107   -34096 
  -33453   -32211   -30885   -29219   -27006   -24495   -21714   -19030 
  -16749   -14650   -12865   -11728   -11245   -11411   -12185   -13240 
  -14301   -15214   -15655   -15372   -14358   -12598   -10115    -7192 
   -4153    -1107     1852     4510     6741     8537     9879    10767 
   11304    11627    11832    11961    11886    11561    11167    10613 
    9697     8676     7827     6963     6007     5135     4237     3154 
    1923      530     -913    -2269    -3453    -4233    -4482    -4229 
   -3519    -2542    -1487     -310      985     2261     3643     5278 
    7009     8793    10615    12270    13678    14804    15512    15819 
   15939    15920    15634    15137    14516    13744    12798    11680 
   10547     9477     8318     7177     6220     5254     4351     3638 
    2664     1375      137    -1200    -2640    -3924    -5128    -6276 
   -7310    -8248    -9086    -9990   -11179   -12627   -14214   -15907 
  -17648   -19336   -20893   -22234   -23348   -24312   -25222   -26152 
  -27054   -27849   -28540   -29016   -29108   -28834   -28142   -26832 
  -24943   -22643   -19890   -16707   -13398   -10238    -7265    -4514 
   -2131     -145     1529     2980     4299     5629     7177     9007 
   10983    13020    15049    16888    18369    19431    20051    20209 
   19921    19183    18023    16491    14555    12232     9686     7160 
    4851     2906     1476      565       -2     -333     -387     -257 
    -287     -610     -962    -1208    -1405    -1498    -1498    -1476 
   -1414    -1356    -1348    -1352    -1345    -1293    -1219    -1242 
   -1405    -1761    -2434    -3315    -4288    -5416    -6569    -7533 
   -8294    -8850    -9161    -9243    -9205    -9148    -9057    -8891 
   -8669    -8398    -7955    -7219    -6235    -4938    -3271    -1518 
     166     1877     3492     4892     6127     7222     8244     9128 
    9653     9849     9934     9849     9364     8572     7632     6473 
    5174     3905     2631     1344      190     -735    -1512    -2226 
   -2879    -3495    -4075    -4534    -4820    -4954    -4980    -5005 
   -5071    -5179    -5464    -5907    -6465    -7354    -8541    -9590 
  -10341   -10913   -11178   -10986   -10551    -9990    -9247    -8492 
   -7817    -7121    -6428    -5767    -4978    -3952    -2795    -1583 
    -321      940     2247     3584     4820     5983     7083     7989 
    8660     9109     9224     8980     8502     7808     6882     5840 
    4800     3875     3136     2475     1838     1281      777      326 
    -151     -784    -1425    -1942    -2361    -2664    -2949    -3281 
   -3569    -3762    -3855    -3813    -3580    -3115    -2496    -1818 
   -1125     -468      118      621      982     1105      939      472 
    -264    -1156    -2192    -3393    -4588    -5576    -6378    -6995 
   -7240    -7126    -6899    -6547    -5888    -4935    -3854    -2736 
   -1529     -218     1112     2469     3867     5193     6347     7319 
    8040     8453     8617     8587     8401     8124     7720     7053 
    6087     4833     3227     1279     -888    -3183    -5555    -7958 
  -10322   -12494   -14407   -16104   -17505   -18584   -19593   -20649 
  -21514   -22183   -22975   -23816   -24440   -24910   -25204   -25116 
  -24567   -23548   -21986   -19822   -17135   -14073   -10831    -7666 
   -4725    -2029      460     2786     4822     6444     7781     8930 
    9809    10430    10871    11049    10881    10552    10193     9690 
    9045     8333     7512     6547     5505     4473     3446     2431 
    1533      801      236     -135     -341     -463     -580     -751 
   -1031    -1455    -2037    -2771    -3534    -4148    -4564    -4762 
   -4668    -4259    -3577    -2679    -1688     -683      400     1497 
    2454     3318     4114     4777     5308     5672     5853     5960 
    6091     6309     6660     7064     7388     7564     7506     7067 
    6254     5251     4205     3250     2463     1806     1304      916 
     475     -102     -828    -1686    -2596    -3515    -4440    -5301 
   -5940    -6284    -6474    -6612    -6635    -6559    -6453    -6301 
   -6129    -5979    -5718    -5285    -4834    -4351    -3717    -3032 
   -2419    -1852    -1286     -810     -460     -160       89      256 
     387      503      576      618      623      581      545      517 
     469      383      133     -348    -1000    -1764    -2637    -3596 
   -4517    -5323    -6077    -6806    -7476    -8112    -8733    -9313 
   -9887   -10492   -11053   -11554   -12069   -12590   -13069   -13501 
  -13860   -14102   -14219   -14160   -13826   -13227   -12398   -11349 
  -10228    -9169    -8185    -7352    -6658    -5948    -5140    -4156 
   -2974    -1714     -414      832     1809     2521     3078     3504 
    3951     4557     5300     6151     7091     7990     8739     9300 
    9559     9439     9042     8476     7824     7188     6636     6242 
    6076     6089     6173     6278     6374     6396     6264     5923 
    5375     4572     3497     2304     1132      -24    -1138    -2107 
   -2855    -3321    -3532    -3547    -3316    -2902    -2481    -2133 
   -1892    -1818    -1957    -2278    -2701    -3299    -4114    -4939 
   -5678    -6330    -6733    -6867    -6812    -6494    -5946    -5290 
   -4514    -3609    -2641    -1674     -753      105      839     1421 
    1957     2542     3192     4002     4985     5980     6955     7890 
    8600     9030     9167     8878     8256     7511     6602     5568 
    4575     3601     2606     1632      626     -525    -1869    -3316 
   -4784    -6345    -7977    -9556   -11156   -12819   -14391   -15871 
  -17321   -18607   -19689   -20655   -21493   -22142   -22536   -22582 
  -22172   -21234   -19786   -17855   -15502   -12928   -10331    -7827 
