Origin Time       2025/01/13 21:19:00
Lat.              31.8
Long.             131.6
Depth. (km)       30
Mag.              6.9
Station Code      OIT013
Station Lat.      33.0727
Station Long.     131.5934
Station Height(m) 85
Record Time       2025/01/13 21:19:58
Sampling Freq(Hz) 100Hz
Duration Time(s)  96
Dir.              E-W
Scale Factor      7845(gal)/8223790
Max. Acc. (gal)   7.709
Last Correction   2025/01/13 21:19:57
Memo.             
[...]
    1906     1945     2647     3519     3869     3380     2435     1838 
    2157     3194     4132     4256     3546     2656     2347     2870 
    3773     4282     3998     3222     2555     2366     2617     3001 
    3190     3083     2907     3003     3424     3834     3838     3373 
    2793     2571     2902     3550     4006     3882     3231     2517 
    2231     2535     3160     3622     3578     3083     2569     2470 
    2853     3412     3721     3555     3040     2440     1975     1844 
    2155     2739     3222     3343     3134     2840     2701     2825 
    3149     3426     3402     3127     2916     2964     3252     3677 
    4021     3990     3518     2914     2547     2555     2857     3214 
    3396     3353     3218     3203     3388     3612     3673     3537 
    3310     3098     2949     2829     2658     2394     2187     2313 
    2821     3370     3565     3338     2967     2794     2972     3316 
    3408     3045     2493     2184     2342     2862     3377     3522 
    3214     2740     2532     2748     3153     3449     3522     3396 
    3154     2913     2767     2767     2922     3181     3407     3454 
    3244     2763     2235     2106     2612     3476     4101     3970 
    3068     2037     1711     2381     3549     4407     4472     3839 
    3083     2776     3022     3447     3612     3404     3069     2937 
    3148     3435     3292     2610     1962     1996     2779     3767 
    4239     3861     3003     2403     2504     3160     3820     3896 
    3146     1999     1375     1833     2997     3963     4056     3276 
    2303     1996     2652     3750     4432     4197     3291     2465 
    2312     2824     3527     3910     3769     3296     2862     2685 
    2764     2987     3187     3244     3173     3095     3091     3138 
    3202     3291     3360     3271     3015     2828     2874     3059 
    3219     3231     3040     2762     2678     2889     3134     3144 
    2941     2759     2798     3122     3559     3685     3230     2467 
    2003     2246     3033     3743     3816     3244     2579     2473 
    3100     4039     4549     4159     3109     2150     1917     2527 
    3512     4125     3908     3053     2224     2007     2450     3079 
    3360     3149     2781     2667     2875     3133     3175     3002 
    2853     2938     3246     3541     3505     3095     2709     2813 
    3362     3839     3812     3291     2678     2462     2840     3518 
    3894     3628     2944     2313     2046     2172     2524     2903 
    3163     3223     3168     3160     3225     3269     3287     3365 
    3508     3586     3484     3261     3134     3192     3302     3345 
    3307     3142     2848     2605     2614     2880     3253     3578 
    3682     3449     3006     2682     2732     3122     3508     3472 
    2902     2127     1629     1737     2451     3406     4029     3919 
    3126     2166     1726     2191     3277     4197     4309     3622 
    2772     2496     2987     3767     4120     3705     2867     2270 
    2328     2894     3402     3388     2924     2543     2725     3389 
    3923     3808     3169     2598     2520     2837     3134     3113 
    2821     2612     2871     3607     4328     4384     3574     2473 
    1944     2296     3172     3951     4126     3667     3061     2848 
    3154     3624     3794     3589     3327     3262     3311     3231 
    2990     2825     2953     3307     3562     3399     2786     2103 
    1917     2452     3323     3863     3661     2833     1975     1819 
    2655     3939     4688     4329     3137     1935     1435     1837 
    2876     4035     4730     4615     3832     2868     2219     2139 
    2566     3233     3770     3793     3179     2269     1682     1830 
    2609     3542     4128     4113     3603     2934     2385     2072 
    2053     2312     2690     2988     3090     3014     2897     2893 
    3060     3338     3550     3501     3206     2949     3029     3430 
    3759     3623     3010     2286     1929     2196     2880     3501 
    3731     3545     3175     2983     3173     3630     3928     3681 
    3013     2482     2542     3092     3511     3287     2578     2046 
    2254     3157     4068     4128     3090     1763     1440     2632 
    4479     5482     4756     2755     1015      927     2521     4434 
    5112     4109     2327     1151     1421     2918     4511     4946 
    3908     2342     1575     2174     3528     4375     3928     2592 
    1571     1856     3480     5373     6087     5005     2868     1147 
     949     2193     3744     4388     3771     2600     1911     2104 
    2790     3342     3397     3055     2748     2801     3125     3402 
    3408     3159     2814     2647     2920     3501     3870     3700 
    3113     2447     2068     2224     2898     3689     4014     3627 
    2810     2133     2079     2686     3516     3986     3817     3310 
    2998     3095     3357     3318     2698     1765     1235     1726 
    3150     4541     4811     3804     2432     1887     2625     3960 
    4676     4120     2717     1636     1822     3181     4700     5248 
    4402     2840     1800     2031     3291     4563     4891     4241 
    3335     2798     2786     3076     3272     3115     2690     2338 
    2323     2569     2830     2982     3079     3195     3271     3172 
    2806     2270     1898     1995     2521     3148     3523     3497 
    3233     2987     2853     2847     2880     2764     2619     2830 
    3346     3578     3219     2643     2408     2685     3242     3665 
    3531     2771     1998     2124     3306     4646     5108     4348 
    2867     1675     1572     2552     3885     4696     4511     3511 
    2376     1807     2116     3122     4185     4577     4148     3414 
    2921     2845     3095     3542     3993     4118     3694     2857 
    1992     1524     1821     2902     4175     4760     4152     2664 
    1296      993     1872     3161     3904     3678     2778     1879 
    1599     2127     3071     3744     3632     2810     2077     2259 
    3287     4284     4540     4109     3492     3057     2934     3018 
    2972     2610     2254     2357     2894     3422     3555     3192 
    2531     2118     2474     3433     4163     3951     2820     1540 
    1075     1856     3395     4544     4337     2884     1468     1436 
    2889     4638     5346     4541     2917     1858     2251     3635 
    4714     4495     3038     1428      940     1956     3577     4460 
    4032     2884     2034     2070     2837     3574     3624     3025 
    2397     2470     3334     4189     4172     3229     2076     1653 
    2413     3851     4823     4503     3146     1833     1498     2232 
    3240     3519     2866     2138     2340     3472     4534     4602 
    3670     2587     2272     2984     4152     4762     4189     2875 
    1907     1891     2583     3303     3472     3064     2583     2536 
    2918     3206     3011     2562     2363     2673     3419     4249 
    4542     3940     2937     2424     2763     3593     4266     4333 
    3780     2871     2041     1706     1927     2485     3214     3952 
    4367     4135     3268     2347     2184     2957     4050     4731 
    4581     3547     2087     1062     1158     2278     3573     4175 
    3840     2902     1960     1615     2154     3299     4329     4626 
    4143     3338     2731     2547     2689     2964     3292     3669 
    4017     4099     3666     2766     1842     1506     2031     3073 
    3910     3908     3001     1918     1557     2169     3304     4244 
    4457     3991     3342     2918     2760     2794     3075     3615 
    4168     4305     3794     2932     2350     2392     2799     3129 
    3113     2727     2195     1765     1555     1602     1856     2243 
    2718     3088     3150     3032     3022     3210     3460     3562 
    3414     3102     2875     3061     3667     4094     3713     2682 
    1911     2185     3422     4716     5044     4160     2914     2347 
    2660     3302     3645     3395     2685     2033     1935     2393 
    3018     3469     3605     3466     3242     3115     3198     3589 
    4244     4816     4837     4163     3127     2268     2081     2764 
    3825     4341     3850     2704     1638     1283     1837     2929 
    3813     3820     2870     1661     1181     1850     3203     4426 
    5057     5103     4680     3811     2762     2192     2600     3801 
    5043     5467     4534     2508      610      160     1409     3321 
    4475     4136     2691     1294      999     2003     3559     4575 
    4436     3437     2362     1834     2110     3018     3982     4456 
    4330     3780     2987     2187     1756     2025     2898     3815 
    4216     3863     2890     1868     1578     2315     3531     4260 
    3912     2748     1621     1351     2197     3577     4410     4148 
    3279     2624     2519     2778     3068     3226     3335     3474 
    3550     3434     3136     2829     2759     3034     3473     3736 
    3638     3265     2808     2438     2366     2660     3067     3207 
    2992     2775     2887     3250     3618     3782     3643     3343 
    3190     3372     3757     3964     3739     3210     2687     2370 
    2332     2547     2914     3357     3732     3789     3375     2628 
    1968     1875     2532     3573     4295     4264     3638     2880 
    2390     2440     2972     3466     3430     2937     2497     2509 
    2871     3188     3283     3211     3080     3040     3223     3566 
    3713     3354     2749     2581     3188     4174     4687     4085 
    2623     1429     1563     3105     5000     5830     4999     3227 
    1875     1883     3207     4779     5184     3861     1753      553 
    1143     2928     4542     4970     4062     2407     1005      702 
    1475     2533     3118     3036     2670     2632     3211     4129 
    4761     4646     3913     3180     2983     3281     3654     3843 
    3854     3721     3522     3385     3303     3167     2955     2743 
    2617     2640     2876     3358     3925     4218     3989     3408 
    3009     3221     3935     4553     4556     4012     3512     3508 
    3827     3979     3651     2938     2304     2308     3160     4368 
    4943     4322     2928     1767     1613     2509     3758     4399 
    3936     2826     2111     2416     3434     4295     4229     3218 
    2061     1653     2215     3210     3820     3573     2728     2064 
    2088     2606     3057     3088     2795     2494     2502     2960 
    3562     3785     3487     2930     2447     2327     2593     2859 
    2774     2389     2014     1930     2215     2694     3049     2968 
    2384     1651     1298     1607     2434     3303     3673     3304 
    2489     1840     1811     2303     2743     2601     1823      963 
     720     1266     2119     2625     2462     1850     1305     1262 
    1786     2373     2317     1520      677      579     1336     2230 
    2404     1702      751      378      934     2031     2907     3049 
    2474     1684     1404     2000     3052     3654     3346     2625 
    2326     2775     3642     4252     4126     3381     2571     2254 
    2651     3447     4052     4089     3619     3037     2774     2992 
    3500     3951     4126     3973     3465     2728     2215     2363 
    3049     3600     3474     2821     2201     2106     2798     4082 
    5197     5408     4660     3647     3298     3897     4811     5123 
    4460     3329     2681     3036     4079     4897     4743     3773 
    2848     2754     3592     4707     5216     4742     3689     2949 
    3125     3869     4318     4085     3558     3369     3774     4526 
    5174     5374     5059     4529     4284     4537     4953     5040 
    4627     3932     3352     3226     3628     4284     4774     4846 
    4540     4067     3608     3208     2879     2786     3169     3974 
    4742     4972     4510     3659     2982     2929     3453     3983 
    3932     3258     2523     2434     3229     4378     5008     4658 
    3578     2417     1783     1935     2697     3650     4479     5127 
    5641     5979     6030     5763     5277     4730     4275     3998 
    3832     3597     3225     2871     2783     3040     3373     3350 
    2816     2041     1460     1426     1973     2664     2964     2678 
    1952     1185      845     1138     1819     2343     2285     1605 
     598     -240     -481      -27      864     1787     2313     2110 
    1291      506      382      963     1787     2363     2358     1626 
     436     -522     -610      234     1406     2035     1723      970 
     639     1173     2446     3920     4923     5128     4743     4240 
    3990     4029     4047     3653     2798     1857     1254     1096 
    1158     1169     1111     1131     1235     1296     1209      974 
     742      726     1013     1506     1890     1710      850      -74 
    -198      742     2199     3292     3451     2704     1653     1124 
    1475     2251     2681     2374     1559      857      788     1417 
    2350     3069     3357     3419     3580     3859     3974     3773 
    3438     3306     3634     4363     4996     4982     4325     3750 
    4067     5321     6772     7630     7591     6922     6251     6210 
    6987     8143     8950     9046     8766     8685     8954     9366 
    9733     9895     9767     9549     9494     9512     9355     9080 
    9023     9440    10237    10975    11163    10669     9811     9065 
    8712     8742     8823     8374     7064     5265     3711     2863 
    2722     3018     3396     3527     3273     2862     2683     2856 
    3094     3022     2475     1502      326     -687    -1209    -1181 
    -886     -710     -876    -1444    -2282    -2984    -3098    -2527 
   -1642     -912     -473     -205      -71     -140     -379     -540 
    -375      -54     -108     -801    -1894    -2968    -3582    -3318 
   -2155     -699      194       60     -846    -1792    -2027    -1271 
      90     1301     1806     1605     1188     1127     1574     2170 
    2509     2536     2523     2751     3273     3900     4314     4294 
    3913     3468     3240     3283     3426     3528     3613     3782 
    4106     4494     4680     4533     4159     3665     3134     2714 
    2544     2697     3175     3834     4401     4692     4621     4217 
    3723     3427     3488     3952     4681     5289     5409     5049 
    4575     4388     4641     5175     5634     5665     5146     4307 
    3627     3491     3886     4403     4553     4174     3535     3107 
    3225     3866     4618     4968     4703     4071     3589     3538 
    3684     3595     3114     2478     2126     2397     3169     3801 
    3618     2512     1112      341      654     1590     2218     1983 
    1053      128     -105      425     1208     1663     1474      776 
     147      126      723     1497     2020     2241     2371     2565 
    2826     3073     3230     3404     3882     4819     6011     6960 
    7144     6430     5302     4588     4828     5809     6723     6835 
    6031     4874     4078     3816     3688     3323     2772     2311 
    2138     2293     2604     2727     2467     2019     1764     1911 
    2238     2222     1586      691      260      726     1876     2947 
    3071     2016      621       99      916     2539     4017     4575 
    4001     2833     2007     2080     2778     3352     3325     2857 
    2521     2731     3292     3608     3362     2813     2509     2810 
    3582     4299     4396     3755     2917     2600     3025     3786 
    4256     4086     3465     2924     2841     3095     3202     2781 
    1899     1065      876     1463     2262     2527     1992      994 
     197      178      940     1795     1979     1512     1208     1725 
    2874     3863     3927     2938     1642     1050     1560     2670 
    3445     3245     2189     1057      781     1764     3456     4727 
    4812     3840     2521     1509     1026      819      460     -203 
    -853     -963     -292      961     2316     3223     3384     2999 
    2614     2635     3003     3516     4097     4572     4662     4279 
    3645     3171     3198     3736     4526     5238     5583     5481 
    5148     4881     4776     4653     4267     3721     3418     3586 
    4112     4645     4827     4567     4174     4175     4827     5881 
    6836     7218     6841     6003     5310     5143     5293     5232 
    4698     3885     3195     2940     3144     3462     3485     3204 
    2972     3065     3472     3956     4124     3740     3075     2623 
    2585     2774     2910     2855     2693     2708     3132     3827 
    4322     4212     3530     2712     2182     1999     1872     1512 
     876      167     -247      -67      631     1393     1722     1462 
     865      303       28      152      594     1071     1320     1174 
     648       85      -25      465     1173     1571     1441      949 
     496      453      932     1737     2457     2756     2713     2762 
    3226     3932     4395     4276     3626     2864     2524     2902 
    3877     4950     5530     5351     4637     3989     4043     5004 
    6486     7785     8316     7933     6922     5755     4899     4637 
    4919     5428     5737     5606     5120     4536     4052     3738 
    3573     3520     3434     3148     2768     2604     2821     3389 
    4066     4376     3963     2992     2106     1949     2651     3765 
    4729     5193     5093     4687     4417     4631     5374     6320 
    6993     7033     6340     5115     3798     2911     2799     3384 
    4247     4882     4822     3933     2775     2223     2671     3703 
    4536     4693     4178     3299     2570     2411     2805     3319 
    3476     3121     2467     1819     1412     1329     1345     1109 
     581       29     -310     -422     -391     -232      116      595 
     978     1109     1036      959     1059     1447     2212     3284 
    4230     4577     4315     3951     4039     4668     5370     5547 
    5036     4318     4145     4897     6151     6964     6716     5637 
    4529     4097     4457     5067     5182     4495     3387     2498 
    2219     2532     3134     3611     3665     3350     2974     2724 
    2573     2411     2189     1957     1791     1722     1695     1624 
    1551     1657     2095     2793     3441     3677     3335     2609 
    2118     2408     3268     3873     3595     2416      832     -365 
    -576      148     1139     1606     1285      666      450      938 
    1962     3048     3635     3504     2990     2671     2941     3816 
    4907     5610     5564     4932     4256     4066     4487     5067 
    5050     3977     2141      496      -25      762     2205     3264 
    3244     2311     1343     1189     1888     2670     2839     2442 
    2072     2293     3229     4413     5131     5144     4885     4928 
    5414     6026     6369     6282     5869     5405     5158     5113 
    4928     4282     3242     2261     1888     2365     3427     4440 
    4760     4186     3071     2008     1505     1741     2424     2903 
    2658     1773      828      302      218      297      341      436 
     681      904      835      517      299      519     1255     2242 
