Origin Time       2025/01/13 21:19:00
Lat.              31.8
Long.             131.6
Depth. (km)       30
Mag.              6.9
Station Code      OKY013
Station Lat.      34.5094
Station Long.     133.5090
Station Height(m) 9
Record Time       2025/01/13 21:21:24
Sampling Freq(Hz) 100Hz
Duration Time(s)  60
Dir.              N-S
Scale Factor      7845(gal)/8223790
Max. Acc. (gal)   1.195
Last Correction   2025/01/13 21:21:24
Memo.             
   -2529    -2455    -2484    -2581    -2724    -2883    -3022    -3106 
   -3126    -3099    -3036    -2952    -2825    -2639    -2442    -2288 
   -2222    -2270    -2390    -2463    -2430    -2355    -2322    -2377 
   -2509    -2654    -2766    -2774    -2620    -2400    -2254    -2195 
   -2196    -2276    -2417    -2539    -2600    -2612    -2608    -2636 
   -2671    -2641    -2585    -2590    -2667    -2771    -2818    -2760 
   -2698    -2731    -2818    -2898    -2899    -2774    -2602    -2513 
   -2536    -2616    -2681    -2656    -2533    -2377    -2234    -2126 
   -2047    -1975    -1926    -1934    -1988    -2072    -2154    -2201 
   -2220    -2280    -2423    -2577    -2666    -2708    -2733    -2721 
   -2671    -2637    -2623    -2587    -2494    -2317    -2174    -2188 
   -2290    -2365    -2398    -2403    -2371    -2349    -2411    -2583 
   -2787    -2921    -2963    -2948    -2911    -2884    -2841    -2725 
   -2544    -2374    -2239    -2112    -1995    -1890    -1794    -1734 
   -1688    -1640    -1660    -1800    -2046    -2322    -2540    -2685 
   -2790    -2864    -2884    -2836    -2760    -2731    -2708    -2598 
   -2427    -2235    -2103    -2087    -2084    -2100    -2214    -2340 
   -2450    -2554    -2596    -2617    -2695    -2814    -2936    -3009 
   -2974    -2866    -2754    -2616    -2459    -2374    -2392    -2489 
   -2643    -2812    -2952    -3063    -3117    -3067    -2997    -2986 
   -2944    -2898    -2898    -2845    -2791    -2779    -2725    -2700 
   -2728    -2743    -2783    -2817    -2758    -2659    -2587    -2552 
   -2581    -2668    -2727    -2674    -2555    -2462    -2412    -2388 
   -2408    -2474    -2571    -2656    -2685    -2695    -2724    -2789 
   -2868    -2870    -2745    -2546    -2357    -2254    -2250    -2301 
   -2349    -2323    -2243    -2220    -2286    -2382    -2454    -2477 
   -2512    -2600    -2690    -2790    -2863    -2795    -2636    -2478 
   -2343    -2270    -2215    -2099    -1973    -1921    -1968    -2093 
   -2212    -2250    -2201    -2115    -2057    -2052    -2089    -2178 
   -2273    -2299    -2269    -2242    -2259    -2320    -2403    -2513 
   -2619    -2668    -2698    -2712    -2666    -2605    -2592    -2555 
   -2459    -2390    -2408    -2508    -2644    -2731    -2737    -2710 
   -2686    -2670    -2671    -2686    -2691    -2689    -2701    -2728 
   -2748    -2724    -2656    -2617    -2625    -2616    -2594    -2629 
   -2716    -2782    -2758    -2640    -2516    -2471    -2474    -2448 
   -2359    -2261    -2249    -2340    -2475    -2594    -2683    -2768 
   -2843    -2875    -2852    -2785    -2697    -2613    -2556    -2555 
   -2598    -2635    -2605    -2515    -2417    -2338    -2277    -2243 
   -2228    -2228    -2261    -2322    -2408    -2535    -2636    -2656 
   -2623    -2581    -2552    -2536    -2540    -2589    -2643    -2654 
   -2643    -2650    -2674    -2698    -2702    -2690    -2677    -2659 
   -2655    -2674    -2629    -2465    -2273    -2177    -2168    -2169 
   -2169    -2176    -2201    -2289    -2440    -2587    -2668    -2706 
   -2763    -2820    -2845    -2859    -2856    -2848    -2849    -2799 
   -2681    -2592    -2587    -2637    -2737    -2879    -3024    -3163 
   -3276    -3321    -3289    -3234    -3203    -3186    -3181    -3179 
   -3161    -3160    -3157    -3084    -2976    -2910    -2843    -2732 
   -2641    -2593    -2552    -2529    -2525    -2500    -2471    -2474 
   -2484    -2467    -2409    -2340    -2295    -2236    -2139    -2085 
   -2150    -2311    -2509    -2689    -2803    -2864    -2897    -2884 
   -2810    -2710    -2659    -2675    -2706    -2704    -2632    -2490 
   -2357    -2284    -2235    -2188    -2143    -2111    -2112    -2119 
   -2127    -2180    -2261    -2319    -2353    -2381    -2393    -2377 
   -2366    -2398    -2443    -2478    -2511    -2506    -2436    -2351 
   -2300    -2277    -2273    -2292    -2322    -2323    -2278    -2234 
   -2207    -2151    -2073    -2006    -1975    -1995    -2045    -2100 
   -2174    -2280    -2377    -2415    -2396    -2369    -2350    -2323 
   -2284    -2238    -2191    -2174    -2195    -2250    -2309    -2309 
   -2265    -2239    -2257    -2300    -2313    -2266    -2176    -2073 
   -1993    -1929    -1868    -1858    -1890    -1895    -1868    -1826 
   -1757    -1687    -1664    -1694    -1780    -1884    -1961    -2046 
   -2165    -2296    -2404    -2457    -2496    -2590    -2704    -2768 
   -2782    -2737    -2625    -2482    -2340    -2241    -2226    -2300 
   -2425    -2552    -2654    -2733    -2794    -2835    -2866    -2882 
   -2887    -2894    -2884    -2836    -2762    -2675    -2574    -2457 
   -2354    -2323    -2363    -2412    -2443    -2492    -2605    -2766 
   -2914    -3021    -3060    -3029    -2968    -2924    -2909    -2887 
   -2835    -2793    -2778    -2760    -2731    -2702    -2704    -2767 
   -2874    -2956    -3014    -3071    -3113    -3106    -3036    -2936 
   -2859    -2808    -2755    -2678    -2596    -2546    -2517    -2519 
   -2566    -2596    -2579    -2598    -2701    -2843    -2960    -3034 
   -3099    -3183    -3271    -3345    -3381    -3357    -3308    -3275 
   -3238    -3171    -3080    -2983    -2879    -2768    -2679    -2598 
   -2482    -2330    -2180    -2038    -1898    -1807    -1788    -1799 
   -1811    -1806    -1769    -1730    -1703    -1696    -1730    -1815 
   -1949    -2130    -2307    -2411    -2462    -2515    -2570    -2650 
   -2781    -2921    -3009    -3048    -3061    -3046    -3007    -2963 
   -2917    -2849    -2743    -2623    -2521    -2471    -2473    -2465 
   -2421    -2386    -2401    -2498    -2633    -2701    -2689    -2651 
   -2589    -2515    -2485    -2521    -2587    -2633    -2658    -2712 
   -2793    -2862    -2933    -3028    -3100    -3113    -3095    -3082 
   -3055    -3033    -3048    -3060    -3032    -2975    -2930    -2886 
   -2794    -2664    -2554    -2482    -2461    -2488    -2506    -2485 
   -2409    -2292    -2176    -2087    -2018    -1976    -1950    -1927 
   -1919    -1922    -1919    -1931    -1968    -2006    -2031    -2050 
   -2062    -2074    -2096    -2120    -2166    -2223    -2246    -2255 
   -2269    -2274    -2284    -2289    -2280    -2289    -2323    -2355 
   -2376    -2346    -2263    -2193    -2150    -2084    -1981    -1890 
   -1837    -1756    -1636    -1559    -1547    -1582    -1684    -1833 
   -1985    -2128    -2254    -2355    -2446    -2542    -2646    -2751 
   -2826    -2833    -2774    -2678    -2560    -2454    -2393    -2366 
   -2359    -2386    -2439    -2470    -2458    -2439    -2461    -2508 
   -2520    -2481    -2421    -2358    -2289    -2222    -2162    -2106 
   -2073    -2092    -2143    -2196    -2230    -2224    -2196    -2174 
   -2166    -2174    -2189    -2192    -2195    -2222    -2268    -2305 
   -2320    -2319    -2323    -2344    -2393    -2470    -2548    -2606 
   -2641    -2682    -2774    -2903    -2992    -2999    -2964    -2940 
   -2960    -3032    -3103    -3103    -3038    -2948    -2832    -2706 
   -2594    -2485    -2409    -2377    -2346    -2312    -2268    -2207 
   -2189    -2249    -2353    -2462    -2565    -2668    -2778    -2893 
   -3009    -3080    -3061    -2999    -2987    -3028    -3065    -3095 
   -3137    -3160    -3140    -3086    -3041    -3029    -3048    -3096 
   -3176    -3244    -3279    -3319    -3403    -3531    -3665    -3758 
   -3778    -3728    -3655    -3604    -3551    -3454    -3280    -3068 
   -2916    -2837    -2783    -2718    -2635    -2565    -2562    -2627 
   -2667    -2616    -2515    -2427    -2361    -2305    -2262    -2227 
   -2192    -2153    -2091    -1989    -1883    -1802    -1767    -1786 
   -1833    -1896    -2008    -2168    -2317    -2411    -2444    -2431 
   -2407    -2403    -2421    -2434    -2405    -2366    -2362    -2378 
   -2384    -2350    -2277    -2184    -2089    -2050    -2081    -2138 
   -2178    -2185    -2166    -2142    -2114    -2074    -2041    -2030 
   -2034    -2052    -2085    -2110    -2107    -2081    -2056    -2068 
   -2126    -2199    -2263    -2327    -2380    -2398    -2423    -2490 
   -2597    -2710    -2794    -2829    -2818    -2781    -2749    -2749 
   -2778    -2839    -2917    -2967    -2967    -2947    -2921    -2901 
   -2897    -2886    -2863    -2839    -2817    -2791    -2729    -2604 
   -2466    -2408    -2424    -2447    -2452    -2459    -2469    -2474 
   -2482    -2496    -2494    -2494    -2525    -2575    -2609    -2578 
   -2463    -2301    -2151    -2052    -2000    -1960    -1906    -1844 
   -1764    -1655    -1564    -1552    -1622    -1749    -1884    -2011 
   -2128    -2214    -2289    -2386    -2478    -2558    -2646    -2736 
   -2798    -2825    -2844    -2849    -2830    -2825    -2863    -2913 
   -2936    -2932    -2916    -2928    -2982    -3063    -3192    -3345 
   -3435    -3445    -3414    -3356    -3269    -3164    -3060    -2957 
   -2870    -2824    -2805    -2771    -2732    -2693    -2641    -2585 
   -2539    -2493    -2434    -2346    -2228    -2120    -2058    -2053 
   -2072    -2066    -2016    -1935    -1837    -1723    -1624    -1568 
   -1551    -1560    -1603    -1659    -1714    -1773    -1830    -1884 
   -1945    -2004    -2057    -2123    -2203    -2269    -2312    -2362 
   -2450    -2547    -2621    -2679    -2716    -2747    -2812    -2905 
   -3013    -3122    -3203    -3245    -3276    -3294    -3265    -3231 
   -3249    -3303    -3379    -3473    -3551    -3607    -3653    -3676 
   -3669    -3643    -3596    -3507    -3377    -3215    -3044    -2893 
   -2759    -2640    -2560    -2519    -2473    -2409    -2355    -2313 
   -2281    -2280    -2320    -2380    -2419    -2430    -2424    -2424 
   -2432    -2411    -2366    -2335    -2296    -2255    -2259    -2307 
   -2376    -2478    -2593    -2664    -2686    -2701    -2714    -2705 
   -2678    -2663    -2659    -2648    -2637    -2620    -2590    -2573 
   -2565    -2550    -2523    -2477    -2405    -2327    -2255    -2187 
   -2131    -2119    -2149    -2196    -2241    -2272    -2274    -2262 
   -2253    -2251    -2251    -2241    -2216    -2197    -2215    -2272 
   -2331    -2365    -2392    -2405    -2384    -2330    -2265    -2205 
   -2177    -2177    -2185    -2208    -2257    -2308    -2343    -2343 
   -2303    -2241    -2158    -2066    -1977    -1894    -1840    -1834 
   -1887    -1993    -2119    -2251    -2370    -2439    -2463    -2473 
   -2471    -2454    -2409    -2323    -2214    -2103    -1979    -1850 
   -1725    -1606    -1539    -1536    -1566    -1593    -1602    -1621 
   -1682    -1775    -1873    -1968    -2060    -2153    -2253    -2370 
   -2501    -2636    -2766    -2889    -2990    -3045    -3042    -2997 
   -2948    -2916    -2887    -2845    -2770    -2679    -2609    -2570 
   -2546    -2498    -2431    -2400    -2436    -2520    -2612    -2663 
   -2652    -2629    -2641    -2679    -2712    -2724    -2748    -2829 
   -2945    -3036    -3073    -3068    -3063    -3088    -3140    -3192 
   -3229    -3250    -3287    -3369    -3497    -3609    -3653    -3649 
   -3638    -3636    -3651    -3670    -3680    -3685    -3682    -3662 
   -3636    -3585    -3481    -3345    -3198    -3053    -2944    -2895 
   -2898    -2922    -2956    -3002    -3049    -3076    -3072    -3048 
   -3022    -2991    -2926    -2837    -2752    -2671    -2573    -2467 
   -2388    -2358    -2353    -2349    -2335    -2319    -2324    -2344 
   -2386    -2473    -2583    -2678    -2731    -2741    -2743    -2779 
   -2830    -2841    -2836    -2828    -2786    -2732    -2674    -2560 
   -2386    -2218    -2111    -2060    -2043    -2060    -2088    -2100 
   -2097    -2119    -2165    -2185    -2181    -2188    -2211    -2235 
   -2239    -2218    -2176    -2122    -2073    -2045    -2045    -2062 
   -2089    -2110    -2080    -2008    -1935    -1853    -1755    -1690 
   -1690    -1722    -1776    -1844    -1899    -1938    -1975    -2018 
   -2076    -2123    -2151    -2189    -2228    -2245    -2265    -2300 
   -2324    -2316    -2263    -2178    -2106    -2066    -2064    -2080 
   -2089    -2096    -2128    -2189    -2263    -2338    -2416    -2493 
   -2562    -2628    -2705    -2797    -2871    -2906    -2910    -2884 
   -2847    -2793    -2704    -2583    -2479    -2430    -2398    -2346 
   -2288    -2254    -2249    -2272    -2320    -2374    -2423    -2474 
   -2524    -2558    -2569    -2581    -2614    -2650    -2656    -2628 
   -2578    -2508    -2398    -2278    -2223    -2235    -2272    -2305 
   -2331    -2350    -2369    -2398    -2431    -2443    -2459    -2513 
   -2592    -2664    -2721    -2759    -2764    -2736    -2700    -2668 
   -2650    -2641    -2651    -2689    -2758    -2845    -2930    -2986 
   -3006    -3007    -2999    -2997    -3005    -3024    -3037    -3017 
   -2953    -2879    -2828    -2798    -2758    -2690    -2606    -2516 
   -2425    -2335    -2231    -2119    -2041    -2033    -2065    -2085 
   -2089    -2111    -2170    -2241    -2277    -2285    -2292    -2308 
   -2361    -2442    -2513    -2555    -2590    -2625    -2656    -2697 
   -2740    -2775    -2818    -2857    -2871    -2864    -2859    -2859 
   -2863    -2879    -2879    -2836    -2766    -2681    -2589    -2506 
   -2431    -2351    -2266    -2157    -2035    -1956    -1912    -1856 
   -1787    -1717    -1661    -1630    -1606    -1583    -1568    -1563 
   -1587    -1659    -1777    -1938    -2124    -2316    -2489    -2646 
   -2790    -2903    -2979    -3038    -3098    -3137    -3159    -3199 
   -3269    -3345    -3410    -3464    -3520    -3581    -3611    -3584 
   -3520    -3451    -3393    -3350    -3300    -3242    -3217    -3235 
   -3267    -3285    -3292    -3303    -3334    -3388    -3458    -3524 
   -3559    -3568    -3566    -3549    -3508    -3458    -3403    -3352 
   -3308    -3252    -3179    -3106    -3042    -2988    -2953    -2937 
   -2941    -2974    -3018    -3037    -3022    -2990    -2955    -2911 
   -2857    -2779    -2662    -2531    -2408    -2281    -2149    -2014 
   -1873    -1730    -1601    -1490    -1397    -1345    -1329    -1325 
   -1354    -1394    -1417    -1443    -1491    -1537    -1556    -1586 
   -1656    -1730    -1786    -1836    -1888    -1939    -1992    -2049 
   -2103    -2168    -2224    -2255    -2276    -2289    -2303    -2344 
   -2404    -2451    -2470    -2470    -2461    -2450    -2455    -2489 
   -2538    -2578    -2605    -2631    -2652    -2679    -2714    -2743 
   -2759    -2787    -2845    -2901    -2929    -2933    -2890    -2791 
   -2685    -2594    -2513    -2469    -2454    -2421    -2362    -2301 
   -2243    -2208    -2209    -2227    -2246    -2261    -2273    -2288 
   -2299    -2286    -2249    -2212    -2197    -2193    -2185    -2184 
   -2201    -2211    -2200    -2191    -2195    -2207    -2235    -2281 
   -2342    -2413    -2488    -2556    -2621    -2675    -2694    -2678 
   -2636    -2581    -2527    -2493    -2485    -2489    -2496    -2479 
   -2436    -2393    -2361    -2323    -2289    -2263    -2226    -2177 
   -2142    -2128    -2118    -2107    -2107    -2119    -2122    -2097 
   -2076    -2085    -2115    -2160    -2227    -2324    -2440    -2547 
   -2637    -2721    -2805    -2903    -3021    -3127    -3183    -3195 
   -3195    -3196    -3202    -3207    -3206    -3184    -3136    -3071 
   -2987    -2889    -2802    -2737    -2681    -2623    -2574    -2531 
   -2489    -2452    -2424    -2417    -2440    -2479    -2525    -2550 
   -2535    -2498    -2458    -2417    -2366    -2317    -2305    -2334 
   -2377    -2415    -2455    -2481    -2482    -2486    -2504    -2525 
   -2551    -2592    -2644    -2686    -2704    -2721    -2747    -2754 
   -2724    -2654    -2543    -2430    -2363    -2320    -2268    -2200 
   -2126    -2080    -2069    -2066    -2068    -2076    -2072    -2057 
   -2056    -2065    -2080    -2093    -2104    -2151    -2251    -2350 
   -2421    -2471    -2508    -2559    -2637    -2717    -2767    -2812 
   -2862    -2887    -2878    -2836    -2751    -2633    -2535    -2467 
   -2403    -2342    -2307    -2282    -2265    -2259    -2265    -2292 
   -2343    -2412    -2484    -2556    -2644    -2733    -2824    -2887 
   -2911    -2945    -3010    -3068    -3095    -3095    -3061    -2983 
   -2884    -2797    -2733    -2691    -2658    -2643    -2654    -2687 
   -2749    -2816    -2855    -2875    -2906    -2964    -3025    -3064 
   -3068    -3028    -2965    -2893    -2817    -2751    -2689    -2602 
   -2498    -2397    -2315    -2273    -2265    -2268    -2278    -2288 
   -2284    -2276    -2284    -2308    -2322    -2332    -2351    -2376 
   -2421    -2488    -2552    -2601    -2624    -2629    -2619    -2596 
   -2577    -2569    -2560    -2548    -2544    -2548    -2543    -2501 
   -2417    -2332    -2274    -2232    -2219    -2250    -2299    -2336 
   -2389    -2471    -2556    -2631    -2702    -2776    -2856    -2929 
   -2987    -3032    -3069    -3102    -3117    -3105    -3079    -3044 
   -2997    -2934    -2852    -2754    -2662    -2587    -2517    -2462 
   -2443    -2434    -2425    -2442    -2486    -2539    -2578    -2604 
   -2612    -2602    -2574    -2515    -2443    -2363    -2268    -2178 
   -2118    -2092    -2084    -2084    -2092    -2100    -2103    -2093 
   -2074    -2060    -2073    -2126    -2200    -2269    -2328    -2371 
   -2392    -2404    -2408    -2390    -2351    -2312    -2288    -2285 
   -2300    -2312    -2335    -2357    -2346    -2330    -2315    -2292 
   -2282    -2309    -2376    -2454    -2535    -2613    -2674    -2728 
   -2797    -2889    -2970    -3014    -3025    -3014    -3003    -2990 
   -2953    -2907    -2882    -2878    -2886    -2891    -2871    -2818 
   -2748    -2687    -2640    -2597    -2540    -2477    -2435    -2435 
   -2448    -2435    -2411    -2392    -2373    -2362    -2344    -2312 
   -2276    -2255    -2277    -2305    -2312    -2317    -2330    -2338 
   -2331    -2328    -2342    -2361    -2378    -2393    -2396    -2378 
   -2365    -2384    -2421    -2459    -2485    -2496    -2497    -2481 
   -2438    -2373    -2297    -2230    -2182    -2149    -2108    -2065 
   -2049    -2062    -2089    -2126    -2189    -2293    -2411    -2529 
   -2660    -2775    -2866    -2974    -3073    -3130    -3179    -3235 
   -3269    -3279    -3285    -3311    -3354    -3370    -3346    -3295 
   -3234    -3187    -3150    -3111    -3072    -3037    -2999    -2961 
   -2944    -2971    -3038    -3113    -3160    -3177    -3168    -3136 
   -3088    -3037    -2991    -2952    -2911    -2868    -2798    -2695 
   -2610    -2567    -2516    -2450    -2416    -2400    -2384    -2369 
   -2347    -2315    -2285    -2272    -2284    -2313    -2369    -2442 
   -2511    -2577    -2658    -2741    -2809    -2860    -2899    -2917 
   -2925    -2933    -2933    -2917    -2898    -2890    -2895    -2907 
   -2921    -2924    -2928    -2936    -2913    -2855    -2797    -2767 
   -2724    -2659    -2636    -2641    -2613    -2563    -2517    -2485 
   -2479    -2498    -2508    -2497    -2494    -2500    -2498    -2493 
   -2493    -2497    -2485    -2461    -2434    -2393    -2340    -2296 
   -2288    -2315    -2342    -2343    -2316    -2268    -2215    -2174 
