Origin Time       2025/01/13 21:19:00
Lat.              31.8
Long.             131.6
Depth. (km)       30
Mag.              6.9
Station Code      OKY012
Station Lat.      34.5897
Station Long.     133.7540
Station Height(m) 3
Record Time       2025/01/13 21:21:24
Sampling Freq(Hz) 100Hz
Duration Time(s)  60
Dir.              N-S
Scale Factor      7845(gal)/8223790
Max. Acc. (gal)   1.968
Last Correction   2025/01/13 21:21:25
Memo.             
[...]
   -8500    -8507    -8526    -8532    -8523    -8472    -8356    -8259 
   -8172    -8041    -8010    -8008    -7838    -7722    -7803    -7873 
   -7848    -7793    -7804    -7965    -8151    -8185    -8171    -8290 
   -8442    -8410    -8176    -7982    -8075    -8309    -8280    -7947 
   -7661    -7653    -7870    -8044    -7950    -7730    -7647    -7663 
   -7682    -7699    -7677    -7785    -8113    -8372    -8374    -8139 
   -7850    -7743    -7823    -7963    -8008    -7859    -7705    -7746 
   -7900    -7958    -7838    -7708    -7717    -7771    -7749    -7711 
   -7767    -7852    -7890    -8009    -8158    -8093    -7884    -7765 
   -7746    -7744    -7744    -7699    -7665    -7793    -7882    -7759 
   -7724    -7834    -7851    -7844    -7875    -7905    -8001    -8148 
   -8291    -8392    -8376    -8255    -8128    -8089    -8148    -8243 
   -8360    -8441    -8413    -8371    -8334    -8235    -8125    -8002 
   -7835    -7662    -7472    -7284    -7213    -7300    -7484    -7634 
   -7626    -7528    -7506    -7570    -7649    -7774    -7962    -8117 
   -8210    -8257    -8280    -8360    -8487    -8621    -8770    -8847 
   -8748    -8540    -8440    -8503    -8532    -8424    -8347    -8353 
   -8341    -8361    -8444    -8500    -8553    -8604    -8615    -8575 
   -8436    -8252    -8181    -8232    -8249    -8197    -8152    -8035 
   -7809    -7688    -7650    -7522    -7422    -7416    -7391    -7395 
   -7416    -7337    -7280    -7338    -7399    -7445    -7491    -7516 
   -7516    -7453    -7391    -7410    -7447    -7516    -7626    -7662 
   -7651    -7670    -7651    -7592    -7574    -7591    -7657    -7820 
   -7989    -8035    -7992    -7981    -8044    -8128    -8189    -8224 
   -8270    -8370    -8467    -8486    -8486    -8518    -8499    -8440 
   -8433    -8376    -8226    -8186    -8295    -8465    -8702    -8853 
   -8775    -8648    -8575    -8471    -8429    -8484    -8515    -8518 
   -8419    -8186    -7967    -7767    -7587    -7504    -7427    -7319 
   -7253    -7211    -7272    -7453    -7553    -7573    -7639    -7685 
   -7724    -7820    -7836    -7755    -7720    -7641    -7461    -7399 
   -7491    -7573    -7626    -7699    -7763    -7757    -7711    -7722 
   -7778    -7848    -7978    -8062    -7979    -7862    -7820    -7812 
   -7854    -7929    -7954    -8005    -8143    -8236    -8247    -8212 
   -8102    -7998    -7993    -8040    -8087    -8070    -7960    -7889 
   -7827    -7681    -7574    -7473    -7356    -7356    -7268    -7125 
   -7322    -7651    -7726    -7681    -7717    -7812    -7835    -7832 
   -7969    -8079    -7997    -7938    -7969    -7942    -7947    -8023 
   -7951    -7884    -8078    -8206    -8094    -8112    -8356    -8513 
   -8511    -8517    -8473    -8402    -8487    -8559    -8434    -8267 
   -8162    -8203    -8432    -8541    -8356    -8149    -8085    -8109 
   -8109    -7960    -7753    -7673    -7735    -7873    -8001    -7969 
   -7785    -7650    -7624    -7792    -8164    -8371    -8328    -8317 
   -8370    -8409    -8432    -8459    -8448    -8320    -8156    -8052 
   -8000    -7947    -7830    -7743    -7774    -7789    -7754    -7765 
   -7866    -8068    -8305    -8453    -8554    -8660    -8689    -8644 
   -8576    -8526    -8475    -8314    -8133    -8089    -8087    -8036 
   -7912    -7730    -7635    -7619    -7568    -7558    -7719    -8002 
   -8148    -8041    -7913    -7847    -7796    -7838    -7858    -7773 
   -7750    -7720    -7561    -7403    -7280    -7238    -7333    -7304 
   -7115    -7091    -7134    -7048    -7040    -7207    -7503    -7885 
   -8078    -8087    -8270    -8540    -8681    -8800    -8877    -8892 
   -8957    -8896    -8635    -8510    -8544    -8487    -8368    -8256 
   -8174    -8181    -8249    -8403    -8633    -8745    -8757    -8826 
   -8792    -8625    -8594    -8625    -8518    -8257    -7889    -7582 
   -7314    -7018    -6863    -6723    -6585    -6631    -6613    -6453 
   -6458    -6627    -6747    -6876    -7069    -7165    -7240    -7362 
   -7339    -7287    -7350    -7435    -7635    -7912    -7982    -7870 
   -7801    -7769    -7645    -7488    -7438    -7530    -7708    -7859 
   -7940    -7975    -7977    -7965    -7894    -7831    -7975    -8260 
   -8440    -8522    -8625    -8712    -8765    -8845    -8946    -8981 
   -8883    -8745    -8679    -8646    -8680    -8783    -8819    -8775 
   -8719    -8691    -8714    -8727    -8723    -8835    -9045    -9138 
   -8999    -8702    -8453    -8401    -8428    -8398    -8349    -8199 
   -7877    -7623    -7577    -7539    -7439    -7304    -7121    -7051 
   -7155    -7219    -7214    -7291    -7403    -7433    -7339    -7182 
   -7175    -7280    -7210    -7169    -7395    -7635    -7820    -8032 
   -8124    -8147    -8282    -8397    -8421    -8548    -8719    -8752 
   -8721    -8681    -8630    -8657    -8735    -8789    -8815    -8789 
   -8741    -8672    -8573    -8517    -8536    -8577    -8626    -8626 
   -8434    -8162    -8081    -8137    -8149    -8091    -8009    -8002 
   -7983    -7793    -7639    -7661    -7647    -7584    -7636    -7719 
   -7765    -7884    -7929    -7797    -7735    -7782    -7821    -7865 
   -7915    -8017    -8095    -8068    -8085    -8136    -8137    -8154 
   -8120    -8043    -8024    -7975    -7842    -7689    -7551    -7446 
   -7337    -7183    -7048    -6997    -6937    -6853    -6897    -6979 
   -6922    -6889    -6952    -6976    -7011    -7068    -7029    -6922 
   -6883    -7026    -7260    -7350    -7308    -7211    -7074    -7142 
   -7466    -7690    -7800    -8008    -8213    -8410    -8654    -8745 
   -8667    -8625    -8711    -8954    -9189    -9085    -8726    -8505 
   -8476    -8549    -8716    -8810    -8718    -8581    -8483    -8407 
   -8403    -8405    -8302    -8194    -8102    -7927    -7731    -7585 
   -7469    -7369    -7275    -7227    -7264    -7246    -7123    -7011 
   -6941    -6940    -7040    -7122    -7161    -7245    -7361    -7518 
   -7678    -7747    -7840    -8019    -8087    -8079    -8147    -8203 
   -8187    -8141    -8100    -8067    -8041    -8066    -8137    -8209 
   -8295    -8419    -8545    -8631    -8712    -8847    -8997    -9043 
   -8992    -8924    -8914    -8955    -8918    -8816    -8770    -8684 
   -8542    -8417    -8279    -8206    -8181    -8050    -7921    -7892 
   -7851    -7812    -7811    -7789    -7807    -7863    -7861    -7817 
   -7731    -7614    -7581    -7649    -7750    -7827    -7840    -7839 
   -7861    -7875    -7948    -8120    -8262    -8283    -8270    -8316 
   -8399    -8455    -8440    -8374    -8328    -8316    -8306    -8325 
   -8364    -8349    -8263    -8166    -8101    -8066    -8040    -8025 
   -8032    -8009    -7965    -7977    -8035    -8093    -8129    -8102 
   -8064    -8074    -8063    -8028    -8012    -7960    -7858    -7728 
   -7539    -7354    -7264    -7214    -7163    -7113    -7011    -6922 
   -6972    -7103    -7214    -7303    -7318    -7279    -7268    -7284 
   -7361    -7477    -7503    -7473    -7458    -7369    -7238    -7182 
   -7144    -7082    -7075    -7134    -7237    -7371    -7480    -7605 
   -7823    -8039    -8203    -8336    -8401    -8491    -8656    -8765 
   -8808    -8780    -8625    -8476    -8376    -8221    -8112    -8118 
   -8128    -8136    -8121    -8014    -7935    -7986    -8112    -8248 
   -8316    -8283    -8236    -8208    -8170    -8136    -8079    -7994 
   -7924    -7808    -7642    -7578    -7601    -7609    -7684    -7821 
   -7881    -7913    -8024    -8116    -8158    -8236    -8329    -8424 
   -8554    -8614    -8565    -8549    -8604    -8618    -8540    -8426 
   -8313    -8248    -8299    -8448    -8588    -8641    -8610    -8519 
   -8370    -8203    -8105    -8070    -8021    -7898    -7658    -7369 
   -7207    -7146    -7030    -6906    -6835    -6778    -6754    -6737 
   -6694    -6678    -6679    -6675    -6733    -6872    -7037    -7202 
   -7303    -7323    -7366    -7456    -7562    -7715    -7873    -8004 
   -8149    -8259    -8334    -8522    -8758    -8907    -9028    -9103 
   -9067    -9054    -9086    -9085    -9093    -9088    -8996    -8868 
   -8723    -8541    -8403    -8344    -8260    -8145    -8032    -7886 
   -7758    -7693    -7635    -7584    -7554    -7495    -7384    -7261 
   -7173    -7148    -7149    -7136    -7160    -7217    -7241    -7311 
   -7438    -7511    -7576    -7684    -7762    -7811    -7835    -7796 
   -7811    -7923    -8004    -8086    -8232    -8364    -8479    -8560 
   -8573    -8634    -8761    -8872    -9020    -9171    -9228    -9269 
   -9310    -9305    -9348    -9435    -9389    -9252    -9178    -9072 
   -8920    -8904    -8958    -8982    -9023    -8974    -8800    -8640 
   -8511    -8387    -8289    -8220    -8155    -8062    -7913    -7736 
   -7622    -7568    -7523    -7474    -7415    -7384    -7398    -7365 
   -7291    -7302    -7365    -7337    -7229    -7148    -7125    -7122 
   -7114    -7084    -7061    -7087    -7051    -6897    -6818    -6889 
   -6980    -7061    -7146    -7219    -7275    -7317    -7366    -7481 
   -7672    -7851    -7947    -7994    -8089    -8252    -8392    -8494 
   -8613    -8684    -8642    -8569    -8513    -8478    -8507    -8538 
   -8496    -8471    -8561    -8668    -8694    -8680    -8661    -8642 
   -8610    -8513    -8365    -8225    -8109    -8035    -7989    -7867 
   -7662    -7522    -7474    -7402    -7264    -7113    -6982    -6852 
   -6674    -6527    -6516    -6515    -6409    -6305    -6291    -6424 
   -6724    -6956    -6929    -6818    -6891    -7214    -7654    -8014 
   -8262    -8364    -8245    -8178    -8436    -8803    -9042    -9143 
   -9074    -8919    -8895    -8986    -9030    -9026    -8992    -8973 
   -9100    -9246    -9205    -8978    -8615    -8349    -8453    -8745 
   -8864    -8721    -8418    -8085    -7809    -7680    -7761    -7952 
   -8047    -7982    -7835    -7623    -7491    -7581    -7699    -7754 
   -7915    -8077    -7973    -7717    -7654    -7750    -7839    -7978 
   -8168    -8317    -8287    -8152    -8175    -8233    -8248    -8421 
   -8549    -8397    -8190    -8113    -8024    -7950    -8019    -7947 
   -7712    -7638    -7636    -7623    -7576    -7420    -7335    -7393 
   -7549    -7693    -7596    -7453    -7566    -7777    -7843    -7759 
   -7650    -7578    -7454    -7237    -7117    -7172    -7252    -7237 
   -7117    -7049    -7146    -7200    -7144    -7249    -7527    -7646 
   -7568    -7528    -7530    -7519    -7585    -7703    -7804    -7834 
   -7716    -7549    -7538    -7690    -7893    -8024    -8051    -8079 
   -8037    -7958    -8041    -8147    -8240    -8430    -8490    -8357 
   -8264    -8260    -8260    -8316    -8507    -8642    -8552    -8425 
   -8417    -8364    -8307    -8521    -8614    -8240    -8027    -8075 
   -7911    -7793    -7825    -7740    -7682    -7707    -7616    -7491 
   -7561    -7759    -7948    -8101    -8160    -8166    -8094    -8081 
   -8239    -8240    -8209    -8359    -8357    -8262    -8297    -8424 
   -8626    -8785    -8853    -8993    -9265    -9445    -9418    -9371 
   -9417    -9483    -9509    -9482    -9436    -9409    -9309    -9049 
   -8824    -8770    -8723    -8592    -8426    -8251    -8149    -8131 
   -8082    -8031    -8035    -8035    -8025    -8037    -8031    -8017 
   -8028    -8002    -7911    -7819    -7732    -7560    -7349    -7206 
   -7068    -6948    -6924    -6906    -6872    -6903    -6978    -7064 
   -7175    -7287    -7431    -7634    -7800    -7950    -8148    -8326 
   -8464    -8542    -8483    -8368    -8291    -8208    -8114    -8025 
   -7890    -7726    -7564    -7395    -7279    -7290    -7376    -7426 
   -7422    -7433    -7474    -7510    -7533    -7569    -7662    -7788 
   -7820    -7720    -7597    -7577    -7608    -7516    -7341    -7298 
   -7376    -7373    -7280    -7237    -7250    -7223    -7138    -7096 
   -7134    -7176    -7223    -7283    -7331    -7414    -7508    -7589 
   -7701    -7804    -7893    -7983    -7985    -7933    -7923    -7905 
   -7871    -7844    -7786    -7739    -7774    -7804    -7784    -7789 
   -7785    -7761    -7773    -7771    -7788    -7886    -8010    -8071 
   -8059    -8050    -8019    -7923    -7844    -7794    -7717    -7588 
   -7389    -7248    -7271    -7271    -7196    -7137    -7107    -7349 
   -7553    -7306    -7303    -7638    -7663    -7661    -7825    -7835 
   -7753    -7707    -7708    -7850    -7979    -7965    -7998    -8086 
   -8243    -8349    -8220    -8353    -8688    -8656    -8626    -8781 
   -8816    -8807    -8811    -8811    -8887    -8931    -8903    -8955 
   -9016    -9035    -8993    -8814    -8710    -8689    -8657    -8714 
   -8743    -8629    -8413    -8347    -8438    -8256    -8090    -8278 
   -8321    -8162    -8127    -8077    -7959    -7925    -7900    -7890 
   -7938    -7938    -7862    -7662    -7495    -7516    -7433    -7352 
   -7515    -7538    -7404    -7457    -7534    -7491    -7461    -7516 
   -7634    -7686    -7731    -7874    -8020    -8190    -8364    -8413 
   -8417    -8533    -8703    -8769    -8799    -8895    -8966    -8992 
   -9012    -9024    -9076    -9107    -9073    -9089    -9111    -9055 
   -8951    -8772    -8610    -8523    -8380    -8178    -8004    -7843 
   -7668    -7476    -7326    -7296    -7280    -7172    -7091    -7029 
   -6899    -6777    -6648    -6507    -6363    -6158    -5985    -5956 
   -5976    -5944    -5907    -5969    -6134    -6330    -6493    -6655 
   -6855    -7028    -7161    -7314    -7461    -7592    -7727    -7870 
   -8012    -8133    -8225    -8282    -8361    -8464    -8538    -8613 
   -8695    -8742    -8765    -8777    -8800    -8856    -8924    -8977 
   -9009    -9009    -8976    -8937    -8893    -8834    -8758    -8653 
   -8510    -8360    -8228    -8093    -7951    -7831    -7723    -7608 
   -7510    -7430    -7350    -7279    -7240    -7256    -7277    -7254 
   -7299    -7457    -7615    -7724    -7804    -7890    -8043    -8267 
   -8496    -8665    -8810    -8932    -8992    -9042    -9115    -9196 
   -9269    -9332    -9420    -9472    -9451    -9421    -9420    -9458 
   -9497    -9477    -9400    -9259    -9073    -8931    -8895    -8911 
   -8873    -8737    -8473    -8167    -8002    -7977    -7969    -7947 
   -7913    -7867    -7830    -7811    -7838    -7917    -8040    -8203 
   -8353    -8417    -8398    -8338    -8255    -8164    -8082    -7992 
   -7893    -7786    -7603    -7327    -7096    -6995    -6978    -6988 
   -7007    -6986    -6906    -6844    -6848    -6883    -6974    -7129 
   -7267    -7337    -7353    -7353    -7360    -7381    -7462    -7604 
   -7720    -7750    -7734    -7731    -7759    -7839    -7983    -8183 
   -8424    -8614    -8676    -8677    -8696    -8758    -8864    -8947 
   -8981    -8970    -8881    -8743    -8638    -8617    -8673    -8753 
   -8787    -8760    -8703    -8635    -8579    -8586    -8653    -8738 
   -8802    -8803    -8743    -8683    -8645    -8617    -8606    -8596 
   -8510    -8329    -8121    -7906    -7697    -7541    -7435    -7331 
   -7213    -7086    -6968    -6889    -6841    -6821    -6839    -6840 
   -6774    -6670    -6556    -6431    -6323    -6251    -6207    -6192 
   -6166    -6099    -6045    -6057    -6115    -6174    -6212    -6270 
   -6381    -6496    -6597    -6744    -6944    -7121    -7271    -7427 
   -7604    -7811    -8005    -8185    -8380    -8557    -8703    -8823 
   -8887    -8901    -8888    -8861    -8860    -8870    -8842    -8785 
   -8730    -8685    -8662    -8638    -8622    -8660    -8731    -8795 
   -8861    -8973    -9107    -9186    -9223    -9283    -9378    -9440 
   -9397    -9263    -9084    -8893    -8745    -8657    -8591    -8482 
   -8328    -8172    -8031    -7935    -7917    -7951    -8006    -8037 
   -8005    -7948    -7928    -7931    -7938    -7965    -8010    -8040 
   -8016    -7931    -7823    -7750    -7724    -7715    -7684    -7608 
   -7484    -7329    -7234    -7279    -7406    -7519    -7557    -7519 
   -7487    -7497    -7545    -7670    -7842    -7978    -8056    -8067 
   -8024    -8012    -8087    -8221    -8328    -8384    -8401    -8352 
   -8245    -8132    -8075    -8109    -8179    -8209    -8163    -8067 
   -7983    -7940    -7909    -7894    -7896    -7842    -7684    -7453 
   -7195    -6979    -6845    -6752    -6669    -6578    -6462    -6381 
   -6381    -6421    -6520    -6713    -6949    -7163    -7302    -7357 
   -7399    -7480    -7588    -7711    -7817    -7879    -7908    -7893 
   -7870    -7892    -7920    -7969    -8056    -8117    -8149    -8179 
   -8178    -8212    -8338    -8465    -8537    -8580    -8576    -8517 
   -8432    -8345    -8316    -8363    -8394    -8372    -8336    -8290 
   -8275    -8333    -8417    -8498    -8577    -8600    -8569    -8523 
   -8445    -8367    -8365    -8430    -8515    -8610    -8676    -8711 
   -8770    -8834    -8860    -8881    -8892    -8864    -8806    -8699 
   -8545    -8387    -8253    -8163    -8101    -8008    -7889    -7794 
   -7703    -7597    -7528    -7519    -7527    -7491    -7396    -7272 
   -7144    -7034    -6943    -6844    -6744    -6667    -6596    -6507 
   -6430    -6389    -6362    -6361    -6396    -6419    -6443    -6513 
   -6597    -6644    -6696    -6797    -6903    -7018    -7183    -7325 
   -7411    -7507    -7608    -7726    -7915    -8140    -8333    -8472 
   -8560    -8618    -8676    -8746    -8833    -8904    -8924    -8903 
   -8837    -8729    -8629    -8545    -8465    -8413    -8378    -8330 
   -8283    -8244    -8221    -8232    -8256    -8270    -8290    -8329 
   -8363    -8401    -8457    -8505    -8517    -8502    -8490    -8522 
   -8584    -8642    -8730    -8870    -9013    -9123    -9224    -9327 
   -9381    -9391    -9405    -9414    -9412    -9389    -9310    -9209 
   -9105    -8949    -8749    -8554    -8376    -8213    -8062    -7927 
   -7827    -7757    -7704    -7669    -7643    -7619    -7589    -7561 
   -7537    -7508    -7473    -7445    -7431    -7408    -7364    -7322 
   -7300    -7287    -7260    -7238    -7280    -7371    -7470    -7585 
   -7695    -7773    -7828    -7875    -7963    -8098    -8218    -8321 
   -8403    -8417    -8390    -8367    -8338    -8332    -8345    -8322 
   -8275    -8239    -8187    -8117    -8046    -7985    -7948    -7932 
   -7916    -7879    -7830    -7767    -7696    -7623    -7534    -7423 
   -7333    -7279    -7234    -7196    -7191    -7198    -7176    -7145 
   -7117    -7086    -7092    -7146    -7186    -7190    -7198    -7225 
   -7246    -7267    -7302    -7331    -7334    -7338    -7364    -7398 
   -7410    -7412    -7465    -7560    -7638    -7700    -7758    -7830 
   -7938    -8062    -8181    -8274    -8330    -8402    -8538    -8700 
   -8837    -8945    -9047    -9161    -9262    -9331    -9385    -9440 
   -9497    -9548    -9575    -9566    -9553    -9529    -9477    -9436 
   -9416    -9366    -9271    -9131    -8995    -8907    -8797    -8644 
   -8503    -8376    -8263    -8187    -8117    -8044    -7990    -7929 
   -7879    -7863    -7834    -7770    -7696    -7618    -7564    -7533 
   -7480    -7400    -7330    -7267    -7211    -7179    -7102    -6960 
   -6849    -6768    -6663    -6581    -6531    -6477    -6454    -6484 
