Origin Time       2025/01/13 21:19:00
Lat.              31.8
Long.             131.6
Depth. (km)       30
Mag.              6.9
Station Code      OKY013
Station Lat.      34.5094
Station Long.     133.5090
Station Height(m) 9
Record Time       2025/01/13 21:21:24
Sampling Freq(Hz) 100Hz
Duration Time(s)  60
Dir.              E-W
Scale Factor      7845(gal)/8223790
Max. Acc. (gal)   1.378
Last Correction   2025/01/13 21:21:24
Memo.             
[...]
    -390     -486     -494     -383     -201      -33      106      232 
     344      442      527      595      635      648      641      610 
     535      403      241      125       64        0      -68     -108 
    -153     -210     -230     -220     -209     -232     -280     -256 
    -149      -67      -13       40       22      -60      -67       41 
     157      245      328      394      456      503      488      453 
     441      409      346      272      163       83      117      176 
     163      143      182      251      325      364      294      152 
      76      129      214      203      117       49       -2      -76 
    -160     -229     -270     -292     -344     -414     -421     -360 
    -267     -156      -52       79      283      472      537      504 
     469      465      473      452      357      207      105       97 
     122      113       64        0      -70     -140     -183     -182 
    -193     -217     -147       25      193      292      348      434 
     589      724      733      575      319       93      -35     -110 
    -191     -259     -305     -334     -260      -40      180      278 
     306      344      353      286      191      128       98       78 
      31      -43     -101     -114      -85      -39        6       87 
     205      278      302      337      369      400      479      591 
     650      608      515      445      414      392      332      207 
      56      -51      -56       18       76       40      -52      -94 
     -59        5       91      182      229      229      236      275 
     305      288      244      193      137       89       54        1 
     -82     -148     -120        4      132      187      207      261 
     365      513      687      819      884      927      957      893 
     687      418      191       48       21      114      260      375 
     436      475      480      426      341      263      201      168 
     189      234      255      249      236      203      153      124 
     129      168      256      336      337      326      391      483 
     522      533      579      646      689      679      599      452 
     256       60      -83     -153     -148      -93      -29       20 
      58      108      162      189      182      157      130      105 
      60      -25     -114     -132      -62       27       79       79 
      22      -54     -120     -194     -245     -202      -72       47 
      91       56      -47     -166     -233     -257     -274     -275 
    -255     -238     -222     -159      -32       87      140      132 
      99       67       17      -48      -91     -130     -207     -276 
    -280     -229     -141      -28       85      164      164       86 
      18        9       18        0      -47      -70      -32       20 
       5      -67     -109      -67       60      225      302      238 
     103      -31     -129     -170     -198     -283     -375     -386 
    -326     -251     -191     -156      -98        4      103      157 
     171      166      149      128      114      120      126      118 
     153      263      369      372      252      101       44       98 
     162      151       99       66       70       90       90       86 
      99       98       79       44      -41     -171     -288     -346 
    -357     -365     -382     -390     -390     -414     -468     -503 
    -504     -510     -519     -480     -352     -166       22      182 
     282      305      298      311      341      371      391      387 
     378      387      410      421      388      314      252      238 
     256      268      272      291      353      419      403      325 
     295      317      305      244      183      175      243      341 
     405      422      419      410      380      307      193       63 
     -37      -97     -128     -164     -233     -284     -260     -166 
     -33      106      236      365      496      606      665      675 
     669      661      637      587      523      442      330      216 
     118       60       67      132      251      406      529      575 
     557      499      442      427      427      434      479      522 
     513      456      360      249      195      217      259      280 
     286      298      326      346      345      338      341      364 
     409      453      457      394      288      187       91        6 
     -48      -90     -174     -287     -344     -303     -206      -91 
      36      182      349      531      700      800      818      793 
     738      650      569      511      461      426      392      353 
     334      305      232      151       98       74       45      -16 
    -105     -210     -334     -472     -594     -683     -714     -669 
    -564     -433     -303     -180      -63       21       63       97 
     144      209      282      321      318      326      379      427 
     407      310      182       74      -24     -167     -332     -437 
    -488     -545     -621     -677     -684     -630     -531     -422 
    -324     -211      -81        4       28       41       48       37 
      43       74       86       33      -75     -191     -284     -359 
    -425     -467     -457     -418     -376     -337     -287     -187 
     -43       98      197      243      247      240      251      276 
     287      247      155       58       -4      -31      -40      -14 
      70      160      168      121       95       86       79       85 
      59      -33     -149     -230     -280     -324     -353     -357 
    -341     -306     -236     -121       -4       60       86      120 
     180      248      283      256      160       25      -94     -156 
    -159     -155     -190     -244     -264     -236     -205     -205 
    -245     -302     -305     -199      -24      147      282      390 
     454      502      565      608      637      712      837      959 
    1043     1057      994      903      820      738      649      573 
     545      565      584      553      440      283      224      282 
     356      427      546      704      834      891      876      820 
     751      666      545      391      237      125       62       14 
     -41     -108     -179     -243     -278     -274     -236     -199 
    -194     -207     -211     -175      -91       -1       49       55 
      47       62       81       75       64       85      140      214 
     282      334      386      457      537      580      558      500 
     432      355      276      180       64      -32      -85      -99 
     -98     -106     -118     -103      -48        9       40       89 
     187      290      357      426      491      513      529      589 
     672      710      687      652      629      612      596      577 
     550      494      398      283      176      110       83       41 
     -20      -62      -74      -78      -87     -109     -133     -135 
    -118     -124     -153     -211     -292     -349     -363     -371 
    -390     -388     -360     -307     -225     -156     -124      -76 
       4       94      178      268      342      341      278      225 
     195      130       13      -97     -162     -199     -226     -240 
    -230     -198     -164      -91       66      244      387      537 
     695      835      939      957      909      874      868      846 
     781      697      598      463      307      171       76       12 
     -64     -182     -311     -394     -402     -363     -310     -278 
    -256     -216     -157      -98      -47      -49     -147     -267 
    -326     -345     -340     -317     -301     -302     -321     -346 
    -337     -261     -140       -2      139      274      395      510 
     615      703      777      837      874      895      888      846 
     780      712      652      602      573      556      529      459 
     359      278      211      135       58        1      -33      -74 
    -144     -226     -290     -325     -324     -278     -220     -184 
    -172     -151      -93       -6       82      176      267      318 
     313      272      214      137       52      -35     -137     -261 
    -378     -425     -364     -243     -140      -78      -33       -1 
      29       55       83      120      133       98       31      -40 
     -87     -102      -85      -37       31      102      163      217 
     264      299      328      357      387      406      392      345 
     288      228      151       85       98      191      301      375 
     410      440      487      527      541      561      619      669 
     672      658      681      750      814      819      749      619 
     496      418      332      202       68      -21      -86     -168 
    -259     -319     -344     -340     -282     -179      -78       18 
     151      301      406      456      483      463      365      233 
     117       29      -29      -59      -91     -152     -211     -233 
    -222     -201     -189     -205     -237     -253     -260     -265 
    -268     -286     -305     -299     -309     -355     -378     -340 
    -248     -125        5      114      205      283      329      329 
     295      259      233      206      184      179      163      109 
      20      -76     -151     -174     -152     -136     -144     -148 
    -130     -106      -83      -48       -5       33       62       82 
      76       16      -79     -193     -333     -481     -598     -664 
    -681     -656     -606     -544     -430     -237        2      251 
     469      616      703      770      828      846      803      703 
     560      427      378      390      375      311      261      238 
     240      265      253      193      162      203      290      363 
     417      492      607      756      922     1069     1147     1170 
    1188     1208     1189     1115     1008      893      776      669 
     585      511      410      274      130       17      -60     -116 
    -175     -264     -379     -472     -506     -511     -513     -510 
    -526     -569     -612     -614     -576     -521     -459     -392 
    -314     -216     -122      -13      136      279      407      531 
     592      576      534      459      345      229      144      106 
     108      128      143      152      184      234      256      225 
     164      106       47      -20      -78     -132     -163     -153 
    -141     -176     -222     -211     -160     -106      -31       81 
     228      386      506      571      594      594      591      584 
     567      535      495      442      388      359      346      334 
     315      295      292      309      342      380      387      349 
     278      199      133       64      -28     -148     -275     -392 
    -496     -584     -653     -668     -604     -503     -407     -325 
    -257     -197     -130      -76      -93     -191     -314     -419 
    -502     -554     -599     -658     -708     -737     -757     -753 
    -688     -560     -423     -324     -236     -137      -32       64 
     130      170      209      238      224      164      112      106 
     148      199      205      164      105       47       -6      -41 
     -37        2       71      143      210      288      391      506 
     629      760      880      972     1058     1165     1290     1425 
    1524     1547     1503     1414     1302     1204     1115     1003 
     859      702      530      342      168       29      -67     -132 
    -179     -210     -233     -243     -217     -168     -121      -56 
      35      120      179      237      280      270      220      178 
     170      182      178      137       85       71      122      197 
     238      233      228      244      247      217      170      122 
      83       41      -24      -89     -103      -66       -2       63 
     129      205      290      388      500      595      654      711 
     789      869      928      953      920      843      756      652 
     522      378      206        2     -184     -325     -423     -457 
    -433     -384     -310     -198      -64       55      144      220 
     295      376      438      468      486      496      487      467 
     444      407      348      272      206      145       82       22 
      -5       14       29       -2      -64     -118     -162     -202 
    -244     -294     -333     -356     -372     -392     -410     -399 
    -368     -356     -346     -305     -209      -86        0       41 
      47       21       -2      -10      -27      -51      -54      -43 
     -40      -24       25       93      167      252      349      433 
     481      514      541      552      537      500      452      407 
     399      438      495      544      587      630      654      658 
     672      683      664      630      600      560      510      473 
     460      459      449      414      369      329      282      233 
     207      224      253      268      263      256      265      260 
     199       98      -22     -147     -240     -294     -315     -306 
    -278     -248     -217     -184     -136      -59        6       32 
      29       18       17       12      -31     -117     -217     -299 
    -351     -367     -372     -407     -457     -487     -473     -426 
    -368     -341     -367     -414     -442     -452     -475     -531 
    -612     -707     -820     -923     -996    -1055    -1111    -1158 
   -1193    -1224    -1255    -1285    -1305    -1285    -1227    -1143 
   -1021     -880     -760     -669     -584     -494     -413     -346 
    -290     -226     -125        8      139      260      387      523 
     654      774      892     1005     1093     1140     1161     1170 
    1194     1251     1301     1309     1279     1242     1202     1155 
    1086      992      892      827      819      843      859      865 
     870      882      909      922      889      841      801      750 
     675      583      475      364      256      132       -6     -141 
    -263     -379     -506     -641     -756     -832     -868     -876 
    -893     -931     -947     -908     -838     -753     -648     -522 
    -361     -191      -58       37      112      166      194      203 
     210      229      263      299      348      411      483      562 
     615      611      576      561      579      600      612      604 
     587      588      580      527      449      367      303      276 
     253      203      125       55       24       17        8      -10 
     -36      -48      -24       12        6      -25      -39      -31 
     -20      -29      -63      -98     -113     -128     -157     -163 
    -140     -121     -105      -93      -90      -93      -91      -72 
     -24       37       90      133      164      182      202      210 
     191      166      163      199      260      319      361      361 
     333      315      301      260      214      178      144      120 
     106       94      103      125      129      141      186      251 
     333      429      515      595      708      831      909      974 
    1050     1112     1152     1170     1174     1173     1154     1116 
    1062      985      901      849      805      734      653      587 
     550      529      498      459      432      413      405      406 
     394      361      332      319      317      315      301      284 
     271      238      182      102        9      -86     -187     -309 
    -454     -595     -715     -823     -895     -918     -913     -892 
    -853     -799     -722     -629     -531     -429     -319     -222 
    -140      -76      -36      -12       -9      -29      -55      -70 
     -76      -82      -68      -14       86      199      288      360 
     426      471      486      487      486      484      476      464 
     459      469      496      541      579      579      561      541 
     508      477      461      422      340      259      222      217 
     201      171      162      186      218      253      298      352 
     418      490      529      531      542      575      604      619 
     623      619      610      602      610      627      619      587 
     540      484      440      421      411      396      373      352 
     357      378      383      394      382      306      232      186 
     144      105       39      -48     -121     -157     -172     -187 
    -213     -238     -222     -130       -4       82      105      108 
     118      125      124      120      116       97       54        1 
     -41      -72      -93     -106     -106      -94      -89     -105 
    -140     -184     -243     -292     -324     -373     -432     -469 
    -454     -407     -390     -398     -415     -441     -441     -417 
    -394     -386     -373     -341     -307     -280     -270     -278 
    -261     -201     -132      -72       -9       41       81      135 
     201      280      372      475      585      685      758      807 
     827      796      731      692      666      614      562      504 
     422      363      311      245      217      194      132       78 
      47       27       37       51       47       56       89      126 
     159      199      274      345      375      372      371      391 
     413      400      345      275      238      253      288      315 
     322      310      286      272      280      286      313      375 
     425      445      449      434      445      494      523      533 
     537      513      469      433      405      361      301      253 
     233      226      221      195      159      129       74       -6 
     -79     -137     -178     -210     -257     -329     -398     -452 
    -499     -541     -581     -621     -641     -638     -642     -661 
    -658     -634     -606     -558     -508     -457     -367     -260 
    -172      -86        9      103      195      288      379      459 
     533      610      675      697      703      719      735      738 
     712      660      623      614      587      518      440      387 
     360      337      295      243      199      167      153      163 
     194      247      291      303      288      255      213      179 
     159      139      118      109       95       66       36       24 
      24       43       81      102       94       85       81       74 
      60       54       68       89       99      108      114      132 
     168      205      218      218      228      237      229      214 
     202      174      106       12      -71     -118     -132     -145 
    -162     -157     -141     -139     -157     -178     -175     -130 
     -55       18       97      176      245      302      342      382 
     417      440      461      476      465      441      426      427 
     438      461      490      511      534      552      560      562 
     567      564      561      565      556      527      498      464 
     436      422      407      386      363      345      342      368 
     421      484      546      594      612      608      577      530 
     499      475      423      341      221       76      -47     -133 
    -189     -220     -232     -229     -205     -176     -160     -143 
    -114      -97      -97     -114     -155     -206     -229     -206 
