Origin Time       2025/01/13 21:19:00
Lat.              31.8
Long.             131.6
Depth. (km)       30
Mag.              6.9
Station Code      OKY013
Station Lat.      34.5094
Station Long.     133.5090
Station Height(m) 9
Record Time       2025/01/13 21:21:24
Sampling Freq(Hz) 100Hz
Duration Time(s)  60
Dir.              U-D
Scale Factor      7845(gal)/8223790
Max. Acc. (gal)   0.882
Last Correction   2025/01/13 21:21:24
Memo.             
[...]
   17169    17184    17216    17238    17248    17246    17226    17217 
   17240    17280    17342    17410    17448    17485    17527    17537 
   17527    17486    17401    17331    17313    17323    17336    17340 
   17320    17296    17273    17247    17230    17211    17178    17169 
   17192    17213    17216    17185    17122    17070    17049    17031 
   17041    17081    17081    17047    17008    16947    16906    16888 
   16854    16838    16854    16862    16876    16896    16902    16926 
   16978    17034    17103    17185    17244    17261    17244    17205 
   17143    17078    17034    16989    16926    16873    16831    16773 
   16714    16663    16613    16572    16561    16582    16606    16605 
   16583    16561    16541    16524    16509    16491    16468    16443 
   16428    16424    16430    16468    16538    16613    16668    16722 
   16777    16811    16821    16814    16806    16807    16803    16773 
   16730    16676    16626    16586    16549    16532    16544    16563 
   16578    16599    16636    16675    16691    16681    16688    16717 
   16730    16734    16748    16750    16733    16721    16730    16742 
   16757    16803    16869    16919    16953    16976    16987    17005 
   17051    17116    17186    17232    17240    17243    17255    17240 
   17193    17154    17149    17166    17189    17194    17181    17181 
   17203    17236    17284    17325    17342    17352    17375    17413 
   17458    17467    17417    17355    17288    17199    17119    17073 
   17064    17080    17086    17070    17043    17011    16983    16973 
   16974    16972    16977    16983    16977    16993    17028    17042 
   17028    17019    17037    17080    17128    17166    17182    17176 
   17150    17132    17136    17140    17143    17167    17201    17232 
   17255    17248    17211    17186    17184    17184    17177    17172 
   17182    17203    17201    17189    17204    17240    17274    17280 
   17254    17212    17173    17145    17136    17138    17122    17084 
   17039    17000    16976    16962    16949    16926    16924    16968 
   17000    16976    16924    16869    16819    16787    16777    16799 
   16834    16865    16885    16900    16906    16914    16943    16968 
   16983    17003    17012    17011    17032    17057    17050    17028 
   17010    16992    16981    16968    16942    16926    16920    16907 
   16888    16873    16849    16803    16744    16680    16632    16602 
   16576    16551    16529    16502    16478    16471    16482    16519 
   16590    16672    16746    16806    16861    16930    17001    17055 
   17116    17184    17239    17281    17290    17261    17217    17186 
   17176    17172    17157    17143    17143    17143    17135    17128 
   17122    17122    17136    17149    17143    17116    17059    16981 
   16897    16822    16777    16768    16780    16795    16806    16807 
   16794    16784    16796    16838    16918    17011    17080    17122 
   17159    17201    17238    17273    17297    17307    17308    17301 
   17296    17300    17313    17342    17386    17431    17454    17460 
   17478    17506    17541    17593    17660    17713    17743    17757 
   17748    17722    17705    17702    17695    17670    17643    17616 
   17567    17517    17487    17464    17450    17439    17423    17392 
   17336    17273    17231    17216    17215    17228    17243    17215 
   17145    17065    16988    16920    16895    16910    16937    16958 
   16947    16904    16868    16852    16856    16881    16889    16858 
   16811    16756    16686    16605    16541    16498    16451    16397 
   16352    16316    16285    16266    16281    16325    16383    16443 
   16487    16538    16614    16688    16750    16807    16842    16864 
   16889    16904    16923    16968    17004    17018    17042    17080 
   17103    17097    17086    17088    17077    17043    17001    16960 
   16927    16923    16927    16914    16895    16883    16879    16881 
   16865    16842    16829    16785    16722    16684    16667    16644 
   16623    16623    16627    16630    16637    16650    16675    16704 
   16734    16762    16789    16821    16857    16885    16906    16939 
   16980    16993    16977    16957    16953    16969    16993    17030 
   17068    17077    17070    17080    17101    17109    17107    17113 
   17115    17099    17069    17039    17015    16999    16997    17019 
   17046    17064    17073    17089    17112    17130    17146    17169 
   17166    17131    17089    17051    17014    16992    16992    17019 
   17074    17132    17170    17194    17193    17176    17177    17188 
   17197    17221    17247    17262    17285    17309    17312    17297 
   17277    17253    17216    17178    17155    17153    17149    17123 
   17081    17042    17005    16989    17004    17022    17022    17008 
   16992    16973    16937    16893    16854    16815    16777    16745 
   16708    16664    16630    16629    16659    16696    16737    16787 
   16827    16850    16872    16879    16862    16856    16885    16937 
   16973    16989    16997    17015    17054    17100    17138    17151 
   17151    17166    17178    17162    17112    17050    17008    16997 
   17026    17091    17155    17190    17213    17240    17271    17301 
   17334    17367    17396    17419    17454    17491    17501    17494 
   17510    17555    17602    17624    17632    17633    17609    17575 
   17560    17554    17540    17508    17439    17339    17255    17207 
   17167    17127    17093    17057    17023    16993    16958    16920 
   16881    16841    16821    16834    16860    16889    16910    16916 
   16916    16911    16908    16902    16877    16849    16827    16822 
   16835    16856    16877    16900    16906    16889    16881    16891 
   16892    16889    16888    16866    16842    16839    16829    16791 
   16746    16715    16695    16699    16744    16804    16839    16854 
   16870    16906    16956    16988    16991    16980    16958    16964 
   17011    17034    17022    17016    17012    17011    17031    17064 
   17100    17132    17157    17193    17230    17226    17205    17197 
   17176    17151    17151    17158    17159    17149    17116    17073 
   17030    16997    16970    16939    16906    16887    16883    16879 
   16869    16852    16812    16756    16698    16650    16613    16564 
   16499    16440    16395    16363    16352    16372    16383    16378 
   16389    16432    16502    16582    16660    16729    16767    16771 
   16764    16758    16745    16737    16741    16748    16756    16767 
   16784    16806    16822    16830    16826    16806    16791    16796 
   16807    16818    16850    16902    16927    16927    16931    16935 
   16950    16981    17008    17024    17045    17074    17113    17153 
   17174    17176    17186    17193    17182    17188    17207    17217 
   17231    17254    17277    17284    17275    17267    17267    17262 
   17254    17263    17266    17253    17254    17269    17290    17321 
   17352    17367    17374    17377    17377    17366    17342    17320 
   17327    17347    17347    17332    17313    17282    17263    17285 
   17331    17375    17415    17443    17475    17514    17548    17575 
   17581    17583    17613    17666    17710    17724    17714    17697 
   17670    17632    17589    17552    17520    17481    17446    17409 
   17377    17379    17412    17433    17436    17439    17429    17402 
   17379    17373    17367    17343    17297    17247    17205    17172 
   17140    17108    17068    17014    16968    16930    16892    16865 
   16841    16802    16756    16723    16710    16687    16633    16567 
   16514    16470    16429    16407    16390    16360    16335    16325 
   16328    16341    16359    16367    16356    16339    16343    16380 
   16436    16490    16540    16591    16646    16708    16765    16808 
   16838    16862    16903    16957    17003    17050    17100    17138 
   17163    17174    17176    17178    17200    17239    17273    17284 
   17285    17292    17308    17334    17371    17427    17501    17564 
   17590    17594    17585    17568    17567    17577    17571    17547 
   17525    17516    17504    17478    17455    17455    17464    17470 
   17471    17452    17408    17348    17290    17240    17207    17180 
   17142    17086    17030    16973    16919    16877    16853    16850 
   16861    16866    16869    16881    16889    16884    16879    16879 
   16869    16848    16829    16800    16752    16707    16694    16688 
   16679    16660    16637    16632    16636    16638    16659    16681 
   16677    16669    16671    16654    16634    16632    16618    16605 
   16622    16661    16704    16749    16806    16876    16950    17020 
   17089    17149    17188    17207    17232    17261    17278    17286 
   17266    17205    17136    17086    17047    17015    16992    16972 
   16958    16935    16889    16843    16802    16754    16719    16704 
   16696    16690    16673    16644    16610    16580    16557    16538 
   16515    16495    16492    16495    16490    16495    16513    16521 
   16514    16511    16514    16525    16532    16529    16532    16517 
   16475    16448    16447    16437    16434    16449    16457    16449 
   16444    16441    16448    16471    16510    16563    16606    16627 
   16650    16686    16721    16757    16789    16803    16802    16808 
   16830    16856    16868    16868    16876    16888    16899    16920 
   16958    16995    17037    17096    17161    17220    17282    17339 
   17369    17377    17393    17427    17458    17475    17500    17523 
   17531    17529    17531    17523    17497    17464    17435    17412 
   17398    17394    17388    17365    17328    17296    17271    17240 
   17205    17173    17132    17085    17050    17034    17024    17012 
   17001    17001    17007    17022    17058    17096    17116    17143 
   17189    17231    17265    17300    17340    17385    17432    17478 
   17513    17517    17493    17462    17433    17406    17379    17347 
   17305    17262    17235    17221    17193    17139    17081    17047 
   17024    17000    16988    16980    16969    16960    16957    16965 
   16987    17019    17050    17074    17095    17108    17116    17109 
   17078    17043    17027    17024    17034    17045    17038    17008 
   16969    16927    16887    16852    16822    16796    16765    16737 
   16726    16713    16687    16656    16632    16632    16649    16664 
   16687    16715    16737    16757    16789    16831    16868    16911 
   16958    16987    16996    16999    16989    16961    16935    16939 
   16965    16989    17008    17030    17039    17030    17016    17000 
   16989    16989    16991    16992    16987    16965    16946    16942 
   16933    16916    16920    16933    16946    16983    17031    17062 
   17080    17097    17115    17132    17146    17157    17169    17185 
   17200    17211    17228    17243    17247    17258    17285    17309 
   17331    17373    17415    17446    17487    17532    17564    17582 
   17582    17566    17547    17527    17501    17459    17402    17339 
   17277    17215    17177    17169    17161    17139    17122    17112 
   17096    17078    17076    17081    17081    17076    17059    17028 
   16993    16968    16957    16962    16972    16968    16969    16981 
   16981    16970    16964    16962    16980    17018    17061    17096 
   17123    17151    17169    17166    17161    17163    17158    17146 
   17145    17154    17162    17166    17169    17180    17197    17208 
   17200    17185    17177    17184    17208    17239    17255    17266 
   17278    17280    17270    17263    17247    17209    17173    17153 
   17131    17107    17078    17035    17003    16984    16956    16926 
   16906    16892    16879    16862    16841    16816    16792    16771 
   16750    16734    16731    16744    16758    16780    16806    16822 
   16830    16837    16843    16858    16881    16907    16926    16942 
   16961    16977    16989    16997    17005    17023    17057    17086 
   17089    17092    17109    17128    17149    17159    17158    17159 
   17150    17135    17127    17124    17142    17167    17189    17208 
   17216    17205    17176    17147    17142    17145    17124    17097 
   17085    17073    17057    17034    17001    16960    16911    16866 
   16829    16794    16762    16738    16718    16698    16676    16650 
   16615    16587    16575    16569    16568    16551    16525    16538 
   16584    16615    16638    16667    16686    16708    16745    16771 
   16795    16829    16861    16896    16927    16943    16943    16923 
   16908    16926    16960    16984    16987    16978    16974    16977 
   16989    17007    17016    17014    17030    17064    17084    17089 
   17096    17097    17086    17074    17064    17035    16974    16904 
   16861    16835    16798    16761    16725    16673    16632    16609 
   16578    16528    16483    16461    16443    16418    16407    16414 
   16432    16459    16502    16560    16619    16663    16690    16715 
   16752    16798    16854    16907    16931    16941    16956    16969 
   16978    17007    17041    17065    17093    17120    17140    17146 
   17134    17135    17154    17170    17186    17205    17213    17217 
   17232    17254    17280    17312    17350    17394    17442    17486 
   17536    17591    17644    17697    17756    17817    17864    17899 
   17926    17940    17942    17941    17932    17906    17869    17829 
   17771    17695    17624    17558    17489    17419    17365    17323 
   17281    17239    17190    17132    17066    17001    16939    16889 
   16846    16795    16737    16676    16614    16575    16552    16514 
   16465    16420    16397    16390    16379    16359    16336    16320 
   16313    16321    16341    16360    16383    16417    16452    16471 
   16479    16495    16513    16525    16551    16594    16634    16667 
   16695    16719    16729    16730    16745    16775    16804    16830 
   16857    16875    16880    16892    16910    16922    16935    16953 
   16974    17003    17034    17055    17059    17047    17043    17066 
   17096    17109    17107    17091    17069    17050    17043    17045 
   17037    17023    17023    17035    17046    17061    17086    17105 
   17108    17124    17158    17194    17224    17232    17223    17219 
   17230    17246    17257    17250    17234    17221    17205    17181 
   17159    17138    17109    17084    17065    17051    17028    16987 
   16937    16884    16835    16804    16781    16753    16731    16725 
   16729    16744    16758    16768    16788    16814    16833    16858 
   16893    16923    16949    16972    16991    17008    17041    17080 
   17120    17162    17201    17226    17234    17247    17266    17282 
   17294    17293    17281    17269    17251    17234    17219    17194 
   17162    17131    17103    17070    17031    16989    16960    16934 
   16915    16918    16923    16907    16873    16839    16818    16811 
   16812    16816    16825    16830    16838    16850    16861    16877 
   16903    16924    16931    16931    16934    16937    16946    16966 
   16999    17037    17059    17070    17085    17108    17138    17172 
   17201    17217    17235    17257    17277    17297    17320    17335 
   17332    17324    17320    17327    17329    17307    17274    17248 
   17211    17166    17135    17109    17078    17046    17014    16970 
   16922    16888    16856    16814    16777    16744    16700    16653 
   16617    16591    16567    16541    16514    16498    16482    16459 
   16447    16459    16483    16503    16525    16548    16564    16576 
   16587    16599    16622    16656    16694    16729    16768    16816 
   16866    16922    16983    17045    17101    17149    17196    17250 
   17311    17362    17390    17406    17415    17420    17444    17486 
   17516    17518    17525    17548    17560    17566    17577    17578 
   17581    17597    17609    17621    17635    17636    17639    17644 
   17643    17632    17621    17602    17575    17548    17521    17491 
   17460    17435    17406    17366    17328    17301    17284    17266 
   17246    17231    17217    17200    17185    17169    17145    17119 
   17101    17080    17051    17032    17018    16991    16957    16926 
   16899    16868    16831    16804    16780    16741    16690    16645 
   16615    16592    16568    16551    16549    16553    16551    16552 
   16557    16553    16553    16572    16587    16592    16610    16636 
   16657    16686    16713    16727    16742    16765    16792    16812 
   16838    16879    16912    16929    16946    16966    16983    16991 
   16992    17005    17035    17055    17064    17074    17081    17082 
   17091    17100    17100    17097    17101    17097    17078    17061 
   17045    17020    17001    16993    16985    16968    16945    16916 
   16887    16870    16860    16853    16864    16881    16887    16893 
   16907    16912    16910    16910    16914    16931    16951    16954 
   16943    16920    16892    16868    16849    16835    16834    16839 
   16843    16853    16873    16885    16884    16892    16915    16933 
   16934    16935    16934    16919    16908    16912    16918    16922 
   16929    16937    16939    16945    16950    16962    16984    17008 
   17034    17059    17070    17078    17103    17123    17128    17122 
   17109    17108    17112    17116    17132    17154    17159    17157 
   17155    17145    17135    17130    17118    17107    17112    17115 
   17115    17127    17139    17151    17177    17193    17193    17212 
   17244    17259    17269    17298    17317    17312    17312    17311 
   17298    17304    17332    17347    17342    17347    17359    17358 
   17356    17359    17358    17347    17332    17319    17302    17275 
   17243    17216    17204    17188    17172    17158    17138    17115 
   17096    17073    17050    17024    16995    16976    16961    16935 
   16904    16866    16812    16762    16729    16700    16677    16665 
   16656    16649    16648    16649    16645    16640    16640    16646 
   16657    16672    16692    16725    16754    16765    16768    16781 
   16798    16806    16822    16841    16854    16880    16922    16961 
   16991    17016    17037    17054    17089    17134    17170    17204 
   17223    17227    17234    17238    17239    17244    17248    17240 
   17231    17234    17232    17217    17204    17201    17190    17173 
   17163    17151    17128    17104    17080    17064    17054    17042 
   17028    17020    17016    17007    17000    16999    16989    16984 
   16989    16995    16996    17000    17010    17014    17016    17026 
   17034    17034    17031    17026    17019    17008    17000    17004 
   17015    17016    17014    17019    17027    17045    17070    17100 
   17128    17145    17158    17178    17192    17203    17211    17219 
   17236    17259    17281    17292    17280    17267    17265    17253 
   17236    17238    17235    17223    17212    17200    17174    17143 
   17119    17109    17109    17112    17118    17126    17124    17103 
   17073    17049    17030    17027    17042    17049    17045    17042 
   17045    17039    17022    17007    16997    16983    16964    16949 
