Origin Time       2025/01/13 21:19:00
Lat.              31.8
Long.             131.6
Depth. (km)       30
Mag.              6.9
Station Code      OKY012
Station Lat.      34.5897
Station Long.     133.7540
Station Height(m) 3
Record Time       2025/01/13 21:21:24
Sampling Freq(Hz) 100Hz
Duration Time(s)  60
Dir.              E-W
Scale Factor      7845(gal)/8223790
Max. Acc. (gal)   2.162
Last Correction   2025/01/13 21:21:25
Memo.             
[...]
   -3504    -3462    -3381    -3300    -3280    -3376    -3464    -3391 
   -3279    -3327    -3373    -3226    -3046    -2983    -3010    -3060 
   -3118    -3323    -3616    -3630    -3366    -3231    -3258    -3192 
   -3105    -3142    -3172    -3044    -2843    -2751    -2812    -2945 
   -3060    -3163    -3353    -3508    -3443    -3321    -3318    -3395 
   -3573    -3838    -4077    -4276    -4369    -4259    -3959    -3561 
   -3191    -2992    -3014    -3095    -3076    -3041    -3083    -3133 
   -3229    -3396    -3461    -3460    -3518    -3528    -3495    -3460 
   -3346    -3254    -3265    -3269    -3206    -3134    -3106    -3127 
   -3213    -3296    -3284    -3252    -3264    -3267    -3267    -3287 
   -3258    -3134    -3069    -3145    -3210    -3256    -3304    -3280 
   -3277    -3354    -3389    -3376    -3438    -3523    -3487    -3437 
   -3427    -3358    -3354    -3472    -3570    -3673    -3753    -3734 
   -3634    -3474    -3377    -3356    -3287    -3253    -3349    -3449 
   -3489    -3470    -3307    -3183    -3346    -3497    -3400    -3289 
   -3240    -3208    -3222    -3130    -2941    -2890    -2998    -3091 
   -3057    -2913    -2771    -2740    -2832    -3010    -3264    -3559 
   -3816    -3971    -3982    -3863    -3726    -3643    -3609    -3715 
   -3925    -3888    -3530    -3237    -3148    -3188    -3345    -3395 
   -3217    -3037    -2957    -2938    -3002    -3096    -3154    -3203 
   -3269    -3323    -3318    -3222    -3063    -2964    -3026    -3096 
   -3013    -2944    -3076    -3302    -3414    -3354    -3230    -3159 
   -3179    -3316    -3456    -3434    -3343    -3334    -3341    -3260 
   -3111    -3030    -3167    -3454    -3600    -3497    -3362    -3308 
   -3283    -3403    -3682    -3846    -3839    -3730    -3495    -3252 
   -3103    -3109    -3254    -3296    -3184    -3065    -2938    -2727 
   -2496    -2452    -2600    -2785    -2933    -2965    -3005    -3094 
   -3068    -3123    -3325    -3327    -3163    -3090    -3092    -3087 
   -3022    -2899    -2907    -3080    -3187    -3260    -3368    -3350 
   -3298    -3384    -3420    -3329    -3307    -3352    -3397    -3454 
   -3395    -3198    -3102    -3213    -3415    -3608    -3634    -3461 
   -3385    -3478    -3538    -3539    -3522    -3503    -3558    -3613 
   -3526    -3337    -3183    -3087    -3037    -3105    -3159    -3025 
   -2937    -3002    -3040    -3068    -3127    -3183    -3163    -3065 
   -3059    -3119    -3171    -3271    -3289    -3142    -3011    -2972 
   -2937    -2876    -2906    -3106    -3346    -3447    -3395    -3308 
   -3276    -3284    -3346    -3485    -3561    -3415    -3144    -2998 
   -3021    -3064    -3109    -3217    -3330    -3342    -3199    -3002 
   -2976    -3132    -3222    -3208    -3164    -3107    -3169    -3294 
   -3329    -3366    -3418    -3321    -3080    -2868    -2760    -2763 
   -2914    -3103    -3219    -3349    -3431    -3380    -3373    -3446 
   -3492    -3638    -3859    -3873    -3713    -3574    -3427    -3327 
   -3358    -3438    -3527    -3557    -3450    -3372    -3469    -3584 
   -3559    -3512    -3545    -3546    -3492    -3437    -3369    -3334 
   -3322    -3253    -3149    -3061    -3010    -3006    -3056    -3165 
   -3237    -3176    -3042    -2898    -2803    -2889    -3082    -3175 
   -3184    -3130    -2997    -2920    -2891    -2889    -3019    -3173 
   -3191    -3129    -3071    -3053    -3096    -3179    -3281    -3369 
   -3377    -3311    -3233    -3157    -3092    -3073    -3099    -3126 
   -3133    -3173    -3283    -3429    -3588    -3724    -3819    -3890 
   -3897    -3912    -4029    -4128    -4139    -4048    -3829    -3572 
   -3389    -3319    -3334    -3303    -3199    -3133    -3059    -3022 
   -3153    -3326    -3500    -3716    -3811    -3773    -3707    -3603 
   -3522    -3514    -3501    -3453    -3391    -3306    -3210    -3140 
   -3122    -3160    -3215    -3281    -3376    -3441    -3468    -3543 
   -3643    -3688    -3696    -3650    -3520    -3391    -3314    -3268 
   -3206    -3038    -2791    -2624    -2558    -2527    -2531    -2551 
   -2587    -2662    -2760    -2937    -3200    -3430    -3558    -3616 
   -3597    -3524    -3480    -3443    -3375    -3389    -3457    -3369 
   -3258    -3218    -3033    -2848    -2890    -2960    -3014    -3126 
   -3141    -3084    -3109    -3145    -3098    -2998    -2998    -3171 
   -3206    -2990    -2906    -2970    -2980    -3111    -3319    -3383 
   -3446    -3576    -3600    -3604    -3635    -3472    -3172    -3040 
   -3060    -3021    -2945    -3002    -3079    -2936    -2787    -2997 
   -3427    -3712    -3761    -3712    -3631    -3549    -3511    -3480 
   -3474    -3458    -3326    -3219    -3298    -3392    -3353    -3341 
   -3461    -3609    -3743    -3766    -3635    -3559    -3595    -3642 
   -3686    -3685    -3645    -3570    -3469    -3438    -3412    -3288 
   -3180    -3190    -3230    -3181    -3136    -3164    -3118    -3099 
   -3271    -3335    -3203    -3190    -3269    -3316    -3477    -3663 
   -3623    -3384    -3210    -3260    -3376    -3508    -3739    -3809 
   -3592    -3441    -3510    -3554    -3518    -3512    -3447    -3383 
   -3429    -3373    -3225    -3172    -3072    -2945    -3042    -3140 
   -3003    -2922    -2929    -2864    -2898    -3005    -3051    -3117 
   -3186    -3221    -3213    -3115    -3090    -3187    -3152    -3088 
   -3181    -3100    -2844    -2786    -2872    -2960    -3005    -2933 
   -2990    -3265    -3458    -3550    -3593    -3562    -3665    -3871 
   -3943    -3971    -4070    -4156    -4201    -4153    -4086    -4182 
   -4213    -4055    -4097    -4239    -4131    -3898    -3589    -3316 
   -3337    -3514    -3634    -3670    -3632    -3609    -3655    -3613 
   -3434    -3387    -3481    -3485    -3507    -3597    -3565    -3366 
   -3055    -2824    -2828    -2938    -3009    -2960    -2795    -2625 
   -2511    -2428    -2398    -2506    -2667    -2664    -2508    -2400 
   -2432    -2559    -2698    -2767    -2759    -2793    -2895    -2967 
   -3009    -3099    -3284    -3528    -3743    -3848    -3792    -3654 
   -3568    -3569    -3676    -3838    -3997    -4136    -4149    -4041 
   -3986    -4000    -4020    -4032    -4027    -4056    -4081    -3971 
   -3821    -3724    -3585    -3439    -3407    -3393    -3311    -3268 
   -3230    -3033    -2832    -2803    -2839    -2857    -2818    -2712 
   -2614    -2527    -2519    -2623    -2654    -2582    -2565    -2536 
   -2423    -2408    -2516    -2544    -2570    -2668    -2687    -2700 
   -2795    -2847    -2812    -2756    -2797    -2986    -3179    -3304 
   -3389    -3364    -3279    -3254    -3238    -3221    -3260    -3264 
   -3153    -3045    -3001    -2980    -2959    -2849    -2805    -2963 
   -3022    -2976    -3115    -3306    -3360    -3343    -3418    -3591 
   -3647    -3576    -3518    -3539    -3618    -3624    -3627    -3632 
   -3565    -3645    -3767    -3611    -3392    -3388    -3514    -3547 
   -3458    -3507    -3645    -3643    -3615    -3636    -3654    -3645 
   -3588    -3557    -3580    -3551    -3469    -3447    -3420    -3327 
   -3339    -3400    -3272    -3117    -3122    -3127    -3099    -3045 
   -2901    -2871    -3006    -3059    -3065    -3110    -3009    -2797 
   -2732    -2840    -3032    -3140    -3017    -2893    -2961    -3038 
   -3111    -3289    -3370    -3434    -3781    -4105    -4191    -4309 
   -4438    -4449    -4472    -4565    -4689    -4810    -4792    -4664 
   -4625    -4590    -4492    -4523    -4631    -4625    -4546    -4464 
   -4347    -4239    -4149    -4018    -3855    -3650    -3456    -3314 
   -3146    -2982    -2862    -2735    -2654    -2590    -2451    -2366 
   -2397    -2398    -2366    -2323    -2236    -2201    -2218    -2201 
   -2174    -2145    -2122    -2150    -2187    -2145    -2101    -2201 
   -2378    -2473    -2509    -2648    -2872    -3002    -3061    -3211 
   -3410    -3512    -3557    -3618    -3674    -3807    -4014    -4113 
   -4085    -4050    -4078    -4186    -4268    -4234    -4163    -4122 
   -4031    -3838    -3655    -3561    -3488    -3360    -3227    -3140 
   -3048    -2944    -2852    -2776    -2781    -2829    -2824    -2810 
   -2797    -2691    -2555    -2494    -2474    -2452    -2407    -2305 
   -2195    -2158    -2209    -2301    -2392    -2479    -2573    -2658 
   -2745    -2883    -3064    -3227    -3345    -3441    -3547    -3692 
   -3875    -4062    -4226    -4352    -4407    -4446    -4534    -4617 
   -4644    -4642    -4641    -4666    -4693    -4658    -4621    -4637 
   -4638    -4604    -4544    -4403    -4187    -3951    -3743    -3634 
   -3568    -3456    -3366    -3289    -3144    -3010    -2903    -2759 
   -2664    -2616    -2525    -2486    -2501    -2454    -2390    -2370 
   -2413    -2558    -2718    -2837    -2957    -3079    -3206    -3345 
   -3431    -3468    -3573    -3709    -3762    -3755    -3685    -3595 
   -3565    -3466    -3262    -3079    -2934    -2852    -2821    -2763 
   -2712    -2727    -2810    -2974    -3133    -3154    -3123    -3149 
   -3177    -3210    -3250    -3241    -3195    -3148    -3100    -3033 
   -2970    -3025    -3175    -3275    -3334    -3399    -3404    -3357 
   -3366    -3477    -3661    -3855    -3991    -4044    -4008    -3905 
   -3805    -3782    -3825    -3816    -3738    -3727    -3801    -3816 
   -3754    -3711    -3676    -3639    -3631    -3622    -3616    -3581 
   -3430    -3310    -3346    -3387    -3353    -3292    -3210    -3119 
   -3007    -2906    -2889    -2901    -2840    -2724    -2639    -2608 
   -2566    -2525    -2569    -2674    -2756    -2797    -2853    -2909 
   -2905    -2917    -3017    -3176    -3353    -3524    -3680    -3788 
   -3823    -3871    -4005    -4147    -4244    -4324    -4402    -4480 
   -4534    -4513    -4407    -4288    -4191    -4114    -4093    -4114 
   -4086    -4012    -3952    -3852    -3755    -3773    -3819    -3840 
   -3896    -3894    -3755    -3564    -3429    -3389    -3403    -3370 
   -3262    -3114    -2929    -2785    -2747    -2675    -2493    -2292 
   -2095    -1950    -1944    -1956    -1927    -1984    -2081    -2118 
   -2195    -2344    -2454    -2497    -2513    -2540    -2621    -2701 
   -2739    -2778    -2774    -2700    -2651    -2627    -2565    -2527 
   -2539    -2542    -2558    -2567    -2509    -2571    -2848    -3076 
   -3203    -3366    -3478    -3555    -3672    -3720    -3748    -3865 
   -3947    -3928    -3890    -3885    -3906    -3896    -3820    -3755 
   -3705    -3608    -3520    -3474    -3380    -3333    -3424    -3485 
   -3493    -3554    -3546    -3447    -3446    -3561    -3694    -3808 
   -3829    -3724    -3608    -3566    -3593    -3673    -3713    -3639 
   -3554    -3522    -3460    -3434    -3569    -3734    -3817    -3886 
   -3871    -3748    -3663    -3666    -3746    -3829    -3771    -3599 
   -3431    -3288    -3186    -3141    -3102    -3033    -2965    -2921 
   -2889    -2837    -2778    -2783    -2862    -2943    -3018    -3125 
   -3268    -3416    -3546    -3647    -3704    -3724    -3693    -3593 
   -3523    -3564    -3647    -3639    -3519    -3416    -3385    -3369 
   -3350    -3346    -3361    -3346    -3238    -3083    -2961    -2925 
   -2970    -2972    -2897    -2890    -2997    -3073    -3051    -3006 
   -3021    -3103    -3206    -3325    -3447    -3465    -3364    -3208 
   -3067    -3061    -3119    -3138    -3215    -3264    -3164    -3096 
   -3157    -3191    -3142    -3130    -3164    -3184    -3231    -3234 
   -3071    -2868    -2837    -2914    -2902    -2872    -2979    -3033 
   -2809    -2556    -2581    -2705    -2731    -2797    -2921    -2971 
   -3037    -3094    -2930    -2913    -3269    -3392    -3330    -3559 
   -3640    -3361    -3106    -3127    -3460    -3655    -3628    -3905 
   -4187    -4041    -3985    -4143    -4203    -4419    -4565    -4153 
   -3797    -3808    -3609    -3334    -3380    -3523    -3568    -3491 
   -3262    -3111    -3202    -3381    -3559    -3632    -3670    -3840 
   -3871    -3839    -4091    -4394    -4509    -4515    -4550    -4656 
   -4725    -4720    -4683    -4662    -4635    -4610    -4518    -4212 
   -4054    -4129    -4009    -3901    -3871    -3623    -3321    -3063 
   -2803    -2689    -2720    -2623    -2295    -2108    -2139    -1999 
   -1822    -1965    -2169    -2172    -2157    -2178    -2060    -1979 
   -2158    -2303    -2299    -2413    -2501    -2334    -2268    -2596 
   -2883    -2847    -2916    -3167    -3186    -3113    -3244    -3354 
   -3311    -3268    -3397    -3672    -3715    -3558    -3584    -3769 
   -3878    -3788    -3717    -3866    -3997    -3935    -3771    -3655 
   -3639    -3721    -3792    -3775    -3842    -3898    -3800    -3739 
   -3898    -4117    -4010    -3796    -3792    -3699    -3562    -3534 
   -3303    -2938    -2739    -2678    -2698    -2702    -2559    -2367 
   -2243    -2205    -2290    -2442    -2542    -2592    -2578    -2504 
   -2496    -2551    -2594    -2641    -2664    -2605    -2512    -2496 
   -2546    -2575    -2605    -2647    -2712    -2863    -3060    -3204 
   -3358    -3596    -3871    -4163    -4432    -4572    -4639    -4749 
   -4876    -5004    -5146    -5213    -5171    -5120    -5146    -5169 
   -5007    -4714    -4500    -4330    -4079    -3790    -3487    -3137 
   -2791    -2515    -2255    -1980    -1768    -1651    -1512    -1294 
   -1098    -1039    -1098    -1138    -1138    -1200    -1356    -1521 
   -1622    -1719    -1900    -2127    -2308    -2513    -2787    -3010 
   -3172    -3325    -3464    -3634    -3834    -3987    -4108    -4282 
   -4492    -4672    -4834    -4936    -4997    -5121    -5243    -5244 
   -5194    -5165    -5136    -5136    -5098    -4914    -4711    -4594 
   -4463    -4305    -4185    -4112    -4056    -4008    -3967    -3908 
   -3813    -3715    -3647    -3537    -3365    -3219    -3100    -2949 
   -2763    -2596    -2475    -2411    -2416    -2423    -2373    -2393 
   -2473    -2428    -2411    -2670    -2882    -2812    -2926    -3321 
   -3392    -3303    -3507    -3601    -3623    -3861    -3936    -3929 
   -4055    -4050    -3951    -3937    -4024    -4054    -3877    -3793 
   -3898    -3786    -3631    -3763    -3802    -3700    -3715    -3685 
   -3711    -3819    -3739    -3667    -3670    -3546    -3470    -3477 
   -3349    -3229    -3204    -3099    -3038    -3034    -2916    -2878 
   -2864    -2731    -2710    -2683    -2550    -2516    -2478    -2388 
   -2384    -2415    -2413    -2386    -2371    -2439    -2451    -2334 
   -2319    -2335    -2274    -2300    -2278    -2227    -2316    -2371 
   -2401    -2496    -2631    -2820    -2975    -3102    -3242    -3314 
   -3376    -3477    -3511    -3497    -3458    -3395    -3407    -3468 
   -3474    -3461    -3461    -3469    -3488    -3534    -3586    -3635 
   -3721    -3798    -3862    -3989    -4077    -4023    -3962    -4009 
   -4126    -4226    -4234    -4168    -4121    -4063    -3963    -3910 
   -3967    -4086    -4128    -4090    -4098    -4126    -4089    -4047 
   -4068    -4129    -4176    -4132    -3963    -3771    -3616    -3461 
   -3303    -3160    -3021    -2874    -2725    -2604    -2505    -2447 
   -2482    -2571    -2644    -2693    -2749    -2848    -2968    -3098 
   -3299    -3541    -3700    -3748    -3773    -3817    -3855    -3866 
   -3848    -3805    -3767    -3719    -3634    -3528    -3449    -3429 
   -3441    -3457    -3493    -3532    -3572    -3624    -3663    -3688 
   -3738    -3793    -3793    -3777    -3765    -3667    -3480    -3285 
   -3098    -2921    -2762    -2559    -2354    -2224    -2116    -2016 
   -1939    -1848    -1795    -1842    -1968    -2087    -2138    -2203 
   -2335    -2479    -2654    -2871    -2980    -2956    -3001    -3140 
   -3225    -3254    -3257    -3241    -3238    -3207    -3117    -2999 
   -2883    -2797    -2785    -2856    -2894    -2822    -2745    -2748 
   -2809    -2889    -2986    -3154    -3346    -3424    -3472    -3638 
   -3817    -3940    -4108    -4309    -4480    -4592    -4617    -4590 
   -4568    -4560    -4561    -4571    -4531    -4390    -4191    -4018 
   -3873    -3709    -3527    -3385    -3284    -3111    -2812    -2505 
   -2320    -2222    -2143    -2106    -2100    -2060    -1942    -1784 
   -1699    -1753    -1876    -1993    -2118    -2232    -2266    -2276 
   -2380    -2589    -2872    -3184    -3458    -3689    -3850    -3937 
   -4017    -4102    -4222    -4392    -4527    -4579    -4571    -4534 
   -4517    -4514    -4517    -4529    -4490    -4345    -4143    -3952 
   -3793    -3654    -3520    -3369    -3203    -3030    -2836    -2625 
   -2434    -2297    -2215    -2143    -2025    -1841    -1636    -1459 
   -1343    -1312    -1337    -1358    -1367    -1382    -1395    -1428 
   -1501    -1614    -1779    -1987    -2184    -2299    -2347    -2417 
   -2525    -2670    -2891    -3150    -3391    -3622    -3828    -4000 
   -4193    -4428    -4665    -4891    -5098    -5262    -5366    -5412 
   -5427    -5437    -5455    -5466    -5409    -5269    -5144    -5051 
   -4918    -4761    -4621    -4486    -4372    -4272    -4141    -3983 
   -3850    -3755    -3681    -3582    -3434    -3267    -3109    -2968 
   -2860    -2739    -2573    -2408    -2255    -2138    -2084    -2062 
   -2037    -1965    -1863    -1840    -1917    -1985    -2019    -2068 
   -2162    -2319    -2513    -2671    -2762    -2852    -2968    -3086 
   -3225    -3380    -3520    -3645    -3734    -3808    -3942    -4147 
   -4345    -4487    -4584    -4660    -4716    -4741    -4726    -4684 
   -4626    -4575    -4544    -4494    -4391    -4266    -4137    -4035 
   -3994    -3989    -3940    -3827    -3730    -3688    -3638    -3532 
   -3389    -3245    -3134    -3044    -2930    -2812    -2709    -2629 
   -2594    -2583    -2574    -2587    -2610    -2636    -2695    -2809 
   -2986    -3202    -3400    -3559    -3711    -3877    -4063    -4251 
   -4411    -4521    -4595    -4660    -4698    -4684    -4637    -4572 
   -4479    -4365    -4225    -4062    -3912    -3777    -3639    -3507 
   -3373    -3249    -3153    -3071    -2998    -2949    -2903    -2845 
   -2764    -2663    -2585    -2524    -2439    -2357    -2288    -2212 
   -2165    -2135    -2072    -2015    -1969    -1919    -1933    -1999 
   -2054    -2108    -2157    -2187    -2230    -2296    -2366    -2440 
   -2531    -2628    -2714    -2767    -2783    -2806    -2868    -2956 
   -3057    -3167    -3273    -3373    -3449    -3507    -3595    -3713 
   -3821    -3912    -4002    -4071    -4082    -4070    -4094    -4124 
   -4098    -4040    -4009    -4017    -4033    -4033    -4043    -4077 
   -4091    -4064    -4018    -3969    -3935    -3909    -3856    -3788 
   -3715    -3650    -3604    -3543    -3462    -3407    -3397    -3418 
   -3430    -3424    -3427    -3446    -3478    -3532    -3600    -3673 
   -3746    -3819    -3882    -3931    -3970    -4002    -4039    -4082 
   -4071    -3983    -3878    -3784    -3673    -3561    -3480    -3410 
   -3314    -3211    -3127    -3060    -2999    -2938    -2890    -2863 
   -2833    -2798    -2760    -2702    -2639    -2589    -2527    -2427 
   -2308    -2181    -2045    -1908    -1777    -1664    -1586    -1524 
