Origin Time       2025/01/13 21:19:00
Lat.              31.8
Long.             131.6
Depth. (km)       30
Mag.              6.9
Station Code      OKY012
Station Lat.      34.5897
Station Long.     133.7540
Station Height(m) 3
Record Time       2025/01/13 21:21:24
Sampling Freq(Hz) 100Hz
Duration Time(s)  60
Dir.              U-D
Scale Factor      7845(gal)/8223790
Max. Acc. (gal)   0.785
Last Correction   2025/01/13 21:21:25
Memo.             
[...]
    3550     3532     3466     3439     3554     3704     3715     3600 
    3508     3460     3388     3362     3397     3418     3456     3520 
    3559     3566     3553     3572     3677     3773     3755     3688 
    3685     3723     3738     3762     3825     3831     3754     3703 
    3678     3593     3491     3516     3628     3672     3667     3694 
    3732     3723     3620     3492     3443     3466     3531     3596 
    3595     3530     3478     3520     3600     3580     3501     3510 
    3600     3626     3543     3477     3503     3581     3663     3659 
    3562     3501     3546     3654     3707     3658     3651     3726 
    3766     3762     3694     3538     3476     3591     3681     3654 
    3592     3565     3631     3738     3761     3721     3721     3731 
    3719     3773     3816     3713     3616     3653     3680     3626 
    3547     3460     3456     3546     3542     3458     3420     3356 
    3249     3234     3329     3423     3464     3469     3465     3507 
    3589     3615     3586     3550     3531     3559     3526     3400 
    3387     3526     3645     3635     3547     3534     3547     3460 
    3384     3408     3468     3491     3507     3624     3762     3716 
    3589     3581     3622     3618     3582     3539     3512     3477 
    3391     3311     3331     3379     3384     3411     3407     3350 
    3392     3461     3410     3435     3607     3649     3558     3551 
    3568     3523     3499     3489     3511     3609     3615     3483 
    3462     3549     3586     3654     3738     3739     3744     3800 
    3811     3785     3812     3851     3839     3815     3782     3732 
    3689     3628     3555     3558     3657     3711     3631     3570 
    3615     3651     3632     3588     3545     3514     3472     3423 
    3376     3360     3416     3456     3365     3246     3234     3316 
    3404     3420     3360     3321     3357     3387     3396     3492 
    3638     3667     3600     3568     3570     3582     3605     3647 
    3701     3709     3651     3578     3551     3582     3599     3643 
    3744     3758     3704     3678     3638     3632     3682     3672 
    3638     3651     3696     3781     3844     3802     3696     3599 
    3542     3504     3458     3473     3553     3604     3618     3605 
    3539     3464     3478     3576     3690     3785     3820     3786 
    3723     3669     3663     3716     3782     3809     3797     3767 
    3721     3677     3696     3761     3775     3712     3649     3661 
    3697     3676     3601     3530     3488     3493     3541     3597 
    3643     3640     3573     3538     3574     3600     3592     3589 
    3592     3607     3643     3678     3709     3731     3720     3619 
    3461     3484     3661     3638     3477     3426     3307     3144 
    3177     3253     3307     3420     3419     3323     3335     3429 
    3496     3454     3397     3546     3728     3666     3604     3638 
    3512     3472     3693     3805     3721     3572     3396     3389 
    3524     3541     3488     3491     3549     3632     3593     3415 
    3329     3385     3485     3589     3618     3526     3392     3322 
    3426     3640     3666     3456     3352     3485     3591     3505 
    3407     3430     3483     3526     3553     3511     3430     3372 
    3350     3385     3472     3524     3488     3478     3562     3615 
    3593     3584     3624     3681     3640     3573     3658     3704 
    3564     3557     3790     3913     3739     3514     3484     3542 
    3632     3751     3721     3624     3613     3551     3442     3499 
    3661     3643     3485     3474     3532     3460     3370     3383 
    3430     3512     3640     3638     3474     3395     3438     3484 
    3451     3354     3397     3530     3526     3481     3508     3569 
    3662     3709     3707     3704     3662     3643     3678     3684 
    3751     3889     3817     3619     3670     3794     3685     3578 
    3636     3643     3562     3569     3608     3537     3450     3458 
    3460     3353     3304     3454     3507     3339     3302     3397 
    3395     3383     3414     3408     3443     3547     3519     3337 
    3218     3233     3284     3253     3192     3204     3149     3065 
    3172     3310     3330     3326     3300     3306     3399     3507 
    3558     3489     3360     3318     3370     3443     3526     3565 
    3476     3370     3404     3499     3538     3523     3464     3402 
    3393     3408     3396     3395     3384     3343     3383     3497 
    3537     3465     3383     3385     3445     3523     3626     3663 
    3551     3419     3414     3512     3630     3680     3619     3570 
    3608     3635     3636     3684     3761     3796     3763     3730 
    3731     3732     3743     3778     3767     3727     3713     3655 
    3576     3588     3615     3551     3496     3547     3595     3511 
    3430     3468     3508     3522     3565     3591     3580     3576 
    3591     3585     3561     3586     3603     3546     3550     3640 
    3696     3738     3805     3889     3955     3937     3889     3877 
    3875     3888     3862     3748     3669     3705     3750     3730 
    3699     3672     3673     3717     3667     3562     3622     3758 
    3784     3762     3762     3750     3705     3640     3604     3622 
    3659     3667     3607     3526     3545     3663     3663     3476 
    3397     3576     3748     3769     3744     3705     3632     3585 
    3608     3620     3595     3603     3589     3512     3507     3589 
    3612     3549     3508     3573     3643     3603     3565     3593 
    3543     3441     3466     3528     3484     3454     3465     3393 
    3299     3262     3257     3246     3268     3375     3422     3319 
    3257     3254     3196     3163     3208     3258     3246     3223 
    3312     3426     3433     3435     3492     3537     3607     3688 
    3661     3527     3473     3582     3684     3712     3750     3726 
    3618     3569     3599     3627     3651     3646     3604     3573 
    3531     3532     3630     3674     3632     3620     3626     3597 
    3543     3511     3523     3534     3527     3514     3489     3496 
    3564     3651     3663     3565     3515     3627     3736     3701 
    3611     3586     3627     3669     3686     3677     3666     3709 
    3759     3704     3592     3574     3636     3658     3612     3586 
    3657     3744     3716     3630     3611     3647     3669     3682 
    3697     3669     3615     3591     3582     3574     3559     3546 
    3542     3491     3418     3392     3387     3368     3318     3250 
    3223     3213     3210     3279     3356     3370     3343     3283 
    3272     3326     3319     3238     3175     3190     3287     3387 
    3429     3443     3478     3554     3635     3682     3723     3777 
    3828     3879     3928     3952     3947     3925     3905     3912 
    3931     3937     3935     3901     3829     3767     3724     3693 
    3677     3663     3638     3585     3507     3431     3369     3318 
    3299     3292     3254     3211     3173     3133     3136     3163 
    3146     3114     3111     3149     3199     3200     3150     3127 
    3172     3258     3319     3321     3319     3353     3388     3396 
    3396     3415     3464     3530     3542     3487     3476     3542 
    3588     3576     3526     3487     3499     3510     3454     3397 
    3406     3458     3519     3538     3505     3470     3458     3469 
    3515     3572     3616     3672     3740     3750     3703     3690 
    3748     3824     3877     3896     3889     3874     3878     3910 
    3915     3844     3732     3646     3620     3628     3586     3493 
    3438     3419     3381     3349     3334     3334     3368     3414 
    3443     3485     3565     3657     3709     3715     3719     3751 
    3777     3769     3755     3732     3715     3751     3811     3820 
    3758     3663     3618     3662     3730     3744     3738     3751 
    3742     3705     3712     3770     3805     3762     3670     3619 
    3616     3597     3562     3537     3512     3485     3466     3483 
    3516     3505     3460     3443     3476     3516     3532     3545 
    3578     3607     3597     3586     3573     3522     3487     3505 
    3505     3472     3478     3512     3512     3519     3559     3574 
    3569     3580     3568     3551     3569     3569     3543     3524 
    3514     3534     3553     3520     3477     3464     3474     3523 
    3584     3586     3538     3511     3528     3541     3522     3491 
    3457     3407     3323     3222     3172     3198     3226     3184 
    3080     3014     3071     3195     3289     3299     3242     3226 
    3311     3418     3453     3420     3387     3414     3495     3553 
    3537     3523     3581     3643     3632     3574     3559     3618 
    3680     3717     3750     3792     3854     3886     3846     3800 
    3808     3851     3892     3904     3900     3878     3829     3811 
    3840     3835     3769     3720     3704     3673     3624     3591 
    3603     3661     3721     3758     3751     3705     3686     3716 
    3738     3736     3727     3712     3707     3708     3716     3715 
    3684     3672     3711     3744     3693     3592     3565     3627 
    3685     3735     3785     3750     3640     3603     3654     3699 
    3735     3777     3767     3703     3653     3636     3639     3709 
    3834     3878     3802     3713     3717     3788     3800     3754 
    3727     3709     3688     3649     3565     3507     3522     3550 
    3538     3492     3442     3370     3273     3200     3191     3231 
    3258     3217     3146     3152     3217     3213     3103     2998 
    3010     3138     3223     3172     3084     3009     2944     2992 
    3141     3272     3339     3227     2967     2876     3079     3375 
    3528     3497     3451     3469     3473     3492     3550     3558 
    3564     3688     3840     3896     3817     3569     3318     3361 
    3674     3974     4052     3858     3535     3289     3238     3414 
    3677     3844     3856     3700     3458     3306     3304     3420 
    3585     3703     3677     3505     3381     3397     3408     3474 
    3699     3811     3696     3600     3593     3613     3630     3651 
    3743     3774     3645     3501     3422     3427     3561     3699 
    3703     3670     3636     3464     3277     3372     3682     3854 
    3757     3609     3591     3696     3790     3759     3784     3962 
    4001     3829     3763     3923     4075     4104     4122     4148 
    4171     4194     4109     3917     3812     3919     4009     3869 
    3715     3694     3605     3431     3400     3523     3585     3451 
    3213     3113     3203     3300     3312     3279     3277     3277 
    3194     3125     3136     3186     3267     3345     3388     3385 
    3368     3380     3411     3497     3645     3707     3647     3658 
    3716     3673     3658     3724     3731     3721     3804     3939 
    3894     3623     3562     3778     3865     3700     3433     3321 
    3396     3411     3311     3244     3281     3303     3268     3244 
    3234     3246     3163     3075     3240     3466     3456     3223 
    3056     3149     3303     3326     3244     3164     3163     3173 
    3152     3140     3207     3280     3267     3329     3503     3576 
    3514     3399     3306     3357     3524     3613     3581     3541 
    3500     3420     3381     3443     3537     3589     3586     3539 
    3477     3465     3516     3592     3634     3585     3528     3562 
    3595     3573     3601     3665     3672     3654     3649     3616 
    3569     3549     3549     3555     3584     3601     3574     3554 
    3557     3527     3481     3469     3500     3573     3631     3630 
    3627     3647     3681     3770     3881     3932     3951     3969 
    3956     3910     3890     3952     4023     4000     3969     4001 
    4014     3962     3890     3877     3909     3875     3754     3672 
    3673     3666     3619     3568     3516     3478     3469     3429 
    3314     3254     3323     3331     3230     3234     3334     3326 
    3265     3318     3393     3370     3333     3352     3389     3385 
    3334     3329     3389     3408     3375     3360     3385     3442 
    3500     3478     3438     3504     3581     3551     3515     3586 
    3665     3651     3620     3609     3599     3597     3592     3586 
    3589     3593     3531     3422     3539     3681     3397     3240 
    3523     3512     3354     3451     3379     3308     3387     3300 
    3306     3357     3207     3163     3204     3223     3283     3118 
    2967     3153     3161     3015     3117     3125     3013     3014 
    3028     3100     3130     3014     3059     3230     3225     3107 
    3063     3153     3271     3299     3410     3504     3318     3298 
    3623     3720     3632     3707     3753     3766     3867     3871 
    3869     3936     3913     3871     3861     3932     4064     3981 
    3883     4036     4081     3963     3974     3985     3915     3870 
    3827     3855     3889     3785     3761     3846     3858     3883 
    3942     3916     3859     3893     3998     4095     4172     4172 
    4058     3998     4063     4117     4137     4160     4166     4183 
    4187     4140     4140     4191     4230     4295     4351     4364 
    4359     4318     4298     4338     4374     4360     4252     4093 
    4044     4059     4020     4010     4056     4078     4060     4006 
    3971     4018     4083     4148     4203     4185     4105     4005 
    3954     4004     4024     3936     3829     3732     3624     3534 
    3465     3420     3385     3315     3225     3171     3149     3125 
    3103     3118     3164     3190     3164     3103     3044     3025 
    3064     3126     3163     3157     3106     3032     2987     2984 
    3001     3019     3009     2968     2909     2849     2836     2860 
    2887     2924     2947     2929     2920     2949     2992     3003 
    2970     2965     3041     3122     3141     3126     3100     3076 
    3084     3117     3140     3149     3148     3167     3218     3272 
    3284     3229     3187     3262     3403     3447     3368     3314 
    3338     3348     3333     3345     3384     3388     3338     3304 
    3296     3304     3333     3341     3361     3422     3461     3464 
    3433     3391     3449     3620     3747     3730     3654     3662 
    3758     3847     3881     3888     3916     3954     3959     3932 
    3900     3867     3856     3885     3916     3885     3798     3721 
    3700     3697     3653     3636     3726     3807     3758     3655 
    3630     3701     3770     3765     3755     3820     3894     3886 
    3821     3796     3835     3900     3960     3983     3969     3937 
    3908     3901     3910     3902     3873     3824     3753     3665 
    3582     3547     3557     3558     3537     3499     3462     3433 
    3393     3346     3323     3339     3397     3451     3449     3406 
    3376     3391     3446     3514     3577     3619     3627     3624 
    3627     3628     3628     3632     3632     3631     3615     3568 
    3507     3460     3430     3415     3400     3379     3360     3342 
    3331     3335     3353     3372     3383     3379     3361     3333 
    3292     3246     3218     3210     3199     3165     3119     3084 
    3067     3063     3076     3098     3107     3106     3114     3134 
    3142     3142     3179     3254     3319     3341     3342     3376 
    3437     3477     3510     3549     3589     3653     3719     3747 
    3759     3784     3811     3829     3834     3835     3851     3881 
    3910     3917     3904     3902     3919     3920     3916     3936 
    3981     4012     3987     3942     3940     3978     3987     3921 
    3812     3739     3727     3724     3682     3601     3514     3439 
    3388     3360     3331     3277     3210     3152     3105     3075 
    3075     3090     3110     3118     3100     3086     3121     3168 
    3169     3138     3123     3153     3210     3254     3277     3292 
    3335     3415     3491     3524     3518     3505     3535     3605 
    3682     3747     3769     3750     3744     3773     3809     3832 
    3834     3808     3780     3770     3785     3811     3838     3852 
    3852     3836     3808     3775     3753     3739     3732     3724 
    3715     3704     3680     3640     3616     3618     3626     3628 
    3626     3607     3578     3562     3554     3542     3531     3514 
    3485     3462     3458     3469     3485     3495     3504     3528 
    3554     3566     3566     3564     3558     3555     3555     3551 
    3524     3473     3419     3369     3303     3226     3159     3099 
    3049     3014     2984     2951     2924     2909     2905     2909 
    2913     2905     2910     2941     2983     3030     3079     3126 
    3180     3235     3292     3354     3412     3461     3512     3572 
    3624     3677     3742     3809     3859     3882     3908     3967 
    4023     4043     4064     4099     4117     4121     4128     4145 
    4166     4164     4149     4136     4124     4125     4132     4110 
    4072     4043     4013     3971     3920     3863     3813     3775 
    3753     3744     3742     3724     3692     3655     3624     3612 
    3619     3626     3631     3639     3627     3612     3632     3666 
    3693     3709     3717     3717     3716     3713     3692     3665 
    3658     3639     3588     3539     3511     3493     3489     3489 
    3487     3493     3510     3531     3558     3584     3603     3613 
    3619     3623     3628     3639     3640     3619     3582     3551 
    3514     3454     3399     3366     3342     3314     3285     3276 
    3288     3308     3335     3375     3412     3443     3470     3496 
    3522     3539     3549     3555     3568     3580     3572     3549 
    3528     3510     3495     3493     3496     3493     3484     3487 
    3497     3504     3510     3503     3495     3515     3539     3543 
    3547     3558     3559     3551     3550     3549     3531     3516 
    3515     3528     3549     3557     3554     3564     3593     3642 
    3688     3717     3739     3755     3771     3786     3794     3805 
    3819     3817     3801     3769     3731     3707     3693     3678 
    3662     3642     3615     3586     3559     3547     3550     3549 
    3538     3519     3492     3474     3466     3465     3489     3524 
    3545     3555     3561     3564     3573     3589     3611     3620 
    3605     3597     3597     3592     3593     3584     3568     3561 
    3546     3522     3499     3477     3487     3528     3580     3619 
    3638     3643     3650     3666     3694     3732     3763     3780 
    3777     3743     3709     3699     3694     3688     3674     3643 
    3620     3618     3608     3600     3592     3580     3584     3591 
    3586     3599     3631     3658     3672     3674     3662     3632 
    3597     3568     3546     3530     3522     3503     3457     3402 
    3372     3373     3384     3376     3366     3385     3410     3411 
    3403     3411     3435     3468     3511     3561     3580     3559 
