Origin Time       2025/01/13 21:19:00
Lat.              31.8
Long.             131.6
Depth. (km)       30
Mag.              6.9
Station Code      OSK003
Station Lat.      34.7668
Station Long.     135.4684
Station Height(m) 4
Record Time       2025/01/13 21:22:21
Sampling Freq(Hz) 100Hz
Duration Time(s)  71
Dir.              N-S
Scale Factor      7845(gal)/8223790
Max. Acc. (gal)   1.297
Last Correction   2025/01/13 21:22:22
Memo.             
[...]
    1389     1399     1413     1437     1464     1487     1509     1529 
    1547     1570     1591     1611     1634     1651     1667     1696 
    1722     1729     1732     1745     1764     1776     1790     1803 
    1802     1809     1826     1830     1823     1821     1823     1831 
    1837     1845     1857     1861     1865     1872     1875     1883 
    1895     1906     1927     1945     1950     1965     1988     2004 
    2022     2039     2054     2079     2103     2112     2120     2135 
    2155     2174     2188     2203     2216     2224     2242     2261 
    2262     2261     2265     2272     2277     2281     2286     2295 
    2307     2320     2313     2307     2312     2299     2288     2297 
    2296     2297     2312     2313     2295     2272     2255     2241 
    2226     2223     2222     2215     2201     2182     2170     2169 
    2161     2151     2149     2149     2147     2142     2135     2131 
    2120     2107     2107     2104     2087     2076     2077     2076 
    2068     2052     2033     2022     2019     2019     2011     1996 
    1976     1957     1950     1945     1933     1933     1931     1917 
    1904     1903     1910     1917     1919     1919     1919     1923 
    1927     1938     1954     1966     1987     2012     2037     2058 
    2070     2089     2118     2137     2155     2182     2203     2208 
    2216     2226     2226     2230     2238     2231     2215     2207 
    2200     2182     2158     2138     2116     2097     2093     2077 
    2045     2016     1993     1971     1946     1911     1880     1864 
    1852     1833     1811     1796     1776     1745     1723     1705 
    1671     1641     1622     1598     1572     1549     1532     1506 
    1472     1453     1441     1432     1425     1409     1399     1395 
    1371     1345     1345     1356     1355     1351     1363     1377 
    1383     1405     1420     1414     1413     1428     1452     1476 
    1495     1509     1526     1545     1559     1574     1593     1613 
    1625     1637     1659     1678     1684     1692     1705     1721 
    1748     1783     1809     1827     1860     1899     1931     1965 
    1999     2034     2079     2119     2158     2205     2245     2281 
    2319     2354     2400     2435     2455     2482     2501     2504 
    2508     2509     2505     2506     2497     2484     2470     2450 
    2432     2419     2398     2373     2335     2297     2270     2236 
    2207     2185     2147     2107     2085     2060     2035     2027 
    2012     1983     1961     1948     1931     1911     1902     1899 
    1891     1875     1864     1852     1834     1823     1822     1821 
    1806     1787     1782     1773     1757     1745     1730     1713 
    1705     1699     1691     1686     1684     1680     1672     1661 
    1648     1640     1641     1632     1615     1611     1620     1621 
    1622     1632     1647     1661     1664     1664     1679     1696 
    1706     1714     1726     1733     1737     1752     1760     1763 
    1776     1786     1787     1796     1804     1813     1826     1831 
    1831     1838     1838     1831     1826     1821     1830     1840 
    1831     1815     1788     1768     1769     1768     1750     1740 
    1740     1734     1711     1686     1665     1642     1620     1606 
    1580     1548     1522     1494     1464     1444     1432     1413 
    1389     1377     1378     1377     1374     1374     1368     1364 
    1368     1382     1404     1410     1397     1413     1458     1476 
    1467     1479     1513     1544     1570     1591     1611     1636 
    1660     1679     1695     1711     1726     1741     1768     1803 
    1823     1840     1868     1895     1910     1919     1941     1980 
    2012     2022     2034     2064     2092     2112     2122     2131 
    2153     2180     2195     2207     2223     2236     2243     2251 
    2266     2278     2288     2295     2296     2299     2292     2270 
    2259     2258     2246     2218     2192     2182     2181     2162 
    2137     2126     2123     2110     2096     2089     2084     2077 
    2066     2046     2029     2019     2006     1998     1993     1985 
    1979     1973     1965     1950     1933     1922     1911     1891 
    1877     1875     1868     1860     1856     1857     1858     1853 
    1850     1849     1836     1825     1827     1830     1830     1829 
    1818     1803     1800     1807     1803     1792     1798     1809 
    1809     1803     1794     1788     1798     1798     1786     1783 
    1784     1776     1767     1763     1745     1719     1714     1722 
    1714     1705     1711     1718     1718     1717     1714     1718 
    1726     1726     1723     1732     1746     1750     1746     1755 
    1760     1757     1760     1756     1745     1742     1738     1718 
    1692     1683     1691     1680     1656     1648     1652     1645 
    1629     1607     1597     1595     1590     1586     1584     1568 
    1544     1533     1536     1540     1534     1529     1544     1568 
    1588     1602     1611     1629     1663     1707     1746     1779 
    1817     1871     1912     1930     1957     2004     2054     2097 
    2131     2173     2216     2235     2251     2288     2319     2335 
    2354     2371     2389     2415     2436     2446     2454     2465 
    2471     2467     2465     2466     2463     2458     2454     2444 
    2447     2451     2427     2401     2396     2398     2401     2400 
    2398     2403     2396     2378     2367     2370     2369     2355 
    2350     2354     2350     2355     2358     2340     2330     2327 
    2315     2305     2296     2290     2290     2284     2282     2280 
    2255     2238     2232     2220     2204     2196     2188     2174 
    2155     2135     2111     2085     2061     2034     2007     1972 
    1929     1881     1848     1821     1782     1737     1703     1674 
    1634     1590     1552     1517     1483     1444     1397     1356 
    1325     1283     1232     1186     1150     1111     1074     1051 
    1024      976      927      903      881      857      843      831 
     819      818      818      816      818      819      822      830 
     839      850      873      903      927      951      978     1001 
    1028     1057     1084     1112     1143     1177     1212     1248 
    1286     1320     1345     1374     1413     1445     1462     1479 
    1499     1509     1522     1547     1563     1571     1576     1583 
    1595     1609     1626     1651     1674     1695     1713     1728 
    1756     1791     1817     1841     1872     1900     1930     1969 
    2007     2042     2081     2119     2150     2184     2219     2253 
    2285     2313     2343     2373     2403     2430     2457     2478 
    2494     2515     2535     2543     2543     2544     2550     2551 
    2546     2535     2528     2535     2532     2519     2515     2513 
    2505     2493     2485     2484     2479     2470     2459     2448 
    2440     2435     2427     2421     2415     2403     2400     2408 
    2408     2401     2400     2401     2400     2398     2398     2397 
    2401     2408     2412     2412     2404     2392     2394     2404 
    2396     2392     2403     2407     2412     2419     2419     2412 
    2401     2398     2403     2404     2401     2386     2370     2367 
    2371     2361     2336     2308     2284     2269     2255     2219 
    2173     2145     2116     2084     2050     2015     1976     1934 
    1894     1865     1837     1806     1763     1715     1680     1644 
    1602     1566     1526     1486     1448     1410     1383     1363 
    1335     1300     1255     1219     1204     1183     1147     1120 
    1094     1067     1051     1036     1019     1003      985      963 
     950      939      924      911      904      885      864      858 
     850      828      815      808      799      788      776      765 
     761      768      778      785      785      778      773      777 
     799      820      831      850      882      907      922      939 
     965      988     1007     1031     1061     1086     1109     1127 
    1143     1162     1185     1212     1239     1260     1287     1320 
    1350     1370     1387     1406     1417     1426     1455     1480 
    1486     1505     1533     1553     1570     1584     1611     1642 
    1664     1691     1732     1769     1798     1814     1834     1861 
    1887     1921     1960     1981     2000     2025     2052     2080 
    2104     2133     2170     2204     2232     2265     2296     2332 
    2376     2419     2465     2511     2542     2566     2602     2646 
    2681     2714     2758     2798     2824     2852     2883     2899 
    2921     2953     2976     2992     3011     3024     3029     3036 
    3049     3063     3061     3056     3060     3059     3052     3048 
    3040     3024     3003     2980     2967     2963     2949     2925 
    2901     2880     2853     2814     2775     2745     2721     2690 
    2655     2635     2627     2602     2562     2521     2482     2450 
    2424     2397     2371     2343     2305     2258     2201     2138 
    2076     2027     1981     1925     1863     1802     1741     1682 
    1618     1547     1485     1435     1381     1323     1271     1224 
    1174     1125     1090     1063     1023      976      942      912 
     891      880      869      854      839      820      805      799 
     800      812      824      828      830      832      843      866 
     892      915      938      970     1008     1040     1073     1107 
    1135     1170     1215     1260     1304     1341     1378     1428 
    1483     1533     1582     1624     1663     1705     1745     1783 
    1825     1872     1912     1944     1977     2004     2027     2054 
    2083     2101     2115     2127     2143     2154     2161     2168 
    2166     2160     2158     2150     2134     2126     2116     2092 
    2066     2050     2025     1988     1969     1961     1935     1899 
    1863     1819     1780     1755     1721     1671     1624     1593 
    1559     1522     1493     1470     1447     1429     1406     1370 
    1341     1327     1312     1291     1283     1282     1275     1277 
    1279     1278     1286     1298     1308     1317     1332     1352 
    1366     1382     1405     1432     1468     1502     1520     1544 
    1582     1613     1640     1664     1686     1711     1736     1755 
    1777     1804     1831     1861     1890     1914     1931     1946 
    1968     1991     2015     2045     2070     2093     2116     2133 
    2154     2172     2178     2195     2223     2236     2243     2253 
    2255     2255     2257     2254     2251     2261     2273     2265 
    2259     2262     2253     2234     2216     2195     2182     2178 
    2164     2143     2120     2087     2058     2039     2010     1976 
    1958     1950     1934     1918     1910     1898     1869     1833 
    1804     1807     1822     1819     1799     1763     1733     1744 
    1771     1760     1721     1711     1744     1757     1749     1760 
    1786     1799     1798     1802     1811     1818     1831     1857 
    1876     1880     1892     1912     1923     1926     1934     1942 
    1953     1965     1975     1980     2000     2034     2060     2076 
    2091     2110     2135     2164     2185     2195     2189     2188 
    2205     2228     2238     2234     2234     2226     2211     2205 
    2201     2187     2166     2149     2138     2130     2110     2076 
    2042     2019     1999     1975     1942     1912     1884     1853 
    1818     1777     1738     1709     1686     1667     1644     1613 
    1590     1576     1555     1529     1505     1480     1460     1449 
    1449     1448     1441     1439     1435     1426     1417     1417 
    1433     1443     1441     1445     1449     1452     1459     1459 
    1460     1475     1487     1497     1512     1524     1536     1545 
    1553     1566     1580     1599     1621     1640     1655     1665 
    1688     1725     1752     1768     1791     1810     1827     1854 
    1880     1907     1934     1958     1987     2019     2049     2073 
    2095     2111     2133     2165     2200     2232     2266     2292 
    2307     2320     2339     2354     2363     2374     2390     2398 
    2401     2401     2400     2400     2404     2400     2393     2389 
    2382     2367     2355     2353     2343     2319     2289     2261 
    2228     2199     2172     2137     2101     2073     2042     2004 
    1962     1922     1881     1845     1821     1791     1749     1713 
    1678     1638     1606     1584     1561     1526     1490     1467 
    1453     1437     1416     1397     1390     1383     1360     1345 
    1336     1316     1294     1283     1279     1275     1264     1252 
    1251     1256     1263     1260     1252     1258     1263     1263 
    1273     1279     1275     1274     1283     1300     1308     1320 
    1341     1350     1351     1370     1397     1422     1445     1463 
    1487     1513     1532     1559     1599     1638     1679     1717 
    1755     1802     1850     1899     1953     2007     2058     2107 
    2155     2209     2268     2328     2386     2435     2489     2551 
    2604     2647     2697     2759     2818     2864     2907     2948 
    2979     3009     3044     3079     3103     3125     3149     3168 
    3180     3188     3192     3198     3203     3203     3202     3196 
    3181     3157     3130     3098     3061     3021     2986     2955 
    2911     2853     2795     2744     2693     2635     2570     2502 
    2438     2380     2327     2273     2214     2149     2081     2011 
    1946     1891     1834     1769     1703     1645     1591     1539 
    1485     1433     1382     1327     1275     1227     1183     1146 
    1100     1053     1009      969      938      908      876      849 
     827      808      791      774      766      761      751      750 
     753      753      754      758      760      761      758      758 
     765      770      774      780      789      799      808      823 
     835      842      859      884      897      912      931      949 
     965      977      994     1021     1043     1058     1080     1104 
    1128     1155     1183     1215     1246     1273     1297     1328 
    1362     1383     1399     1426     1455     1482     1513     1533 
    1545     1559     1572     1590     1613     1629     1644     1663 
    1679     1690     1703     1718     1723     1721     1723     1729 
    1730     1738     1749     1752     1755     1763     1769     1772 
    1772     1773     1777     1783     1790     1790     1788     1788 
    1790     1798     1799     1790     1784     1787     1782     1776 
    1780     1783     1782     1777     1772     1776     1783     1788 
    1798     1806     1813     1821     1827     1840     1857     1871 
    1887     1915     1946     1965     1983     2004     2023     2038 
    2058     2084     2110     2133     2153     2172     2191     2207 
    2227     2253     2270     2281     2297     2308     2319     2335 
    2344     2354     2369     2378     2384     2385     2386     2382 
    2374     2373     2377     2377     2381     2382     2373     2363 
    2357     2349     2346     2346     2343     2335     2324     2320 
    2323     2326     2326     2324     2322     2316     2311     2308 
    2300     2286     2284     2285     2281     2276     2270     2265 
    2255     2249     2249     2246     2235     2238     2246     2253 
    2268     2276     2277     2290     2309     2323     2332     2350 
    2373     2386     2396     2419     2447     2461     2470     2482 
    2496     2512     2520     2524     2532     2539     2544     2548 
    2552     2555     2551     2546     2540     2529     2519     2505 
    2494     2481     2461     2436     2412     2384     2351     2323 
    2297     2268     2238     2207     2172     2139     2108     2073 
    2042     2016     1983     1953     1927     1892     1852     1814 
    1783     1767     1753     1717     1674     1652     1641     1614 
    1583     1561     1537     1501     1462     1439     1422     1402 
    1385     1371     1348     1321     1301     1285     1266     1247 
    1231     1217     1202     1189     1179     1181     1183     1170 
    1152     1148     1148     1148     1151     1152     1150     1151 
    1154     1156     1165     1171     1167     1167     1178     1193 
    1204     1216     1237     1256     1273     1290     1305     1321 
    1343     1368     1397     1417     1443     1479     1509     1539 
    1572     1603     1637     1676     1714     1759     1802     1833 
    1867     1903     1938     1980     2025     2068     2103     2138 
    2178     2211     2231     2254     2272     2282     2299     2317 
    2335     2351     2358     2365     2373     2377     2373     2358 
    2343     2335     2324     2311     2296     2278     2251     2214 
    2178     2160     2146     2116     2079     2053     2030     1995 
    1960     1937     1911     1883     1863     1846     1827     1807 
    1791     1769     1749     1744     1740     1722     1706     1703 
    1699     1694     1698     1694     1680     1682     1682     1671 
    1669     1672     1676     1684     1686     1690     1701     1705 
    1705     1711     1725     1740     1756     1769     1780     1788 
    1790     1796     1811     1823     1836     1853     1864     1869 
    1876     1879     1879     1884     1888     1891     1898     1899 
    1902     1908     1903     1885     1879     1881     1875     1864 
    1857     1857     1844     1822     1821     1819     1802     1790 
    1782     1768     1764     1763     1755     1744     1730     1715 
    1702     1691     1682     1668     1656     1655     1649     1638 
    1628     1610     1587     1567     1559     1560     1559     1560 
    1559     1551     1545     1541     1533     1525     1518     1524 
    1530     1524     1516     1517     1509     1501     1509     1512 
    1498     1489     1489     1487     1486     1494     1503     1497 
    1489     1489     1480     1471     1476     1478     1466     1459 
    1464     1463     1444     1431     1431     1431     1432     1429 
    1420     1410     1409     1417     1425     1422     1420     1424 
    1426     1424     1421     1416     1416     1432     1449     1459 
    1468     1485     1499     1513     1524     1529     1541     1561 
    1579     1597     1620     1633     1644     1669     1687     1695 
    1714     1733     1749     1776     1800     1806     1814     1836 
    1858     1869     1875     1884     1899     1912     1917     1921 
    1931     1945     1956     1965     1962     1957     1972     1983 
    1977     1980     1991     1999     2004     2011     2016     2014 
    2015     2035     2052     2061     2083     2104     2118     2137 
    2151     2157     2168     2185     2204     2223     2251     2286 
    2308     2319     2338     2353     2370     2404     2435     2459 
    2493     2529     2560     2582     2601     2624     2639     2651 
    2667     2678     2686     2697     2701     2702     2698     2689 
