Origin Time       2025/01/13 21:19:00
Lat.              31.8
Long.             131.6
Depth. (km)       30
Mag.              6.9
Station Code      OSK008
Station Lat.      34.4404
Station Long.     135.3918
Station Height(m) 36
Record Time       2025/01/13 21:21:58
Sampling Freq(Hz) 100Hz
Duration Time(s)  60
Dir.              N-S
Scale Factor      7845(gal)/8223790
Max. Acc. (gal)   1.422
Last Correction   2025/01/13 21:21:59
Memo.             
[...]
   -6119    -6147    -6157    -6161    -6181    -6183    -6188    -6208 
   -6214    -6231    -6245    -6247    -6272    -6285    -6289    -6307 
   -6307    -6319    -6343    -6336    -6349    -6363    -6354    -6366 
   -6367    -6355    -6366    -6358    -6347    -6354    -6338    -6326 
   -6315    -6280    -6259    -6231    -6183    -6156    -6123    -6092 
   -6070    -6025    -5998    -5995    -5972    -5962    -5960    -5946 
   -5952    -5949    -5944    -5956    -5944    -5938    -5957    -5950 
   -5949    -5960    -5958    -5968    -5975    -5980    -6003    -6007 
   -6021    -6057    -6068    -6093    -6135    -6145    -6169    -6199 
   -6205    -6227    -6234    -6230    -6243    -6243    -6246    -6258 
   -6257    -6261    -6258    -6249    -6255    -6247    -6235    -6243 
   -6227    -6216    -6226    -6212    -6208    -6210    -6195    -6204 
   -6205    -6185    -6195    -6193    -6177    -6188    -6189    -6188 
   -6189    -6173    -6169    -6165    -6149    -6151    -6138    -6122 
   -6126    -6112    -6107    -6112    -6092    -6089    -6087    -6057 
   -6060    -6065    -6045    -6049    -6043    -6025    -6023    -6016 
   -6022    -6029    -6015    -6021    -6025    -6021    -6037    -6030 
   -6022    -6037    -6027    -6022    -6030    -6010    -6007    -6010 
   -5988    -5987    -5980    -5964    -5973    -5967    -5960    -5976 
   -5972    -5979    -6002    -6004    -6015    -6025    -6030    -6050 
   -6046    -6043    -6070    -6076    -6079    -6097    -6100    -6122 
   -6146    -6150    -6172    -6185    -6185    -6205    -6210    -6210 
   -6220    -6216    -6220    -6220    -6204    -6214    -6215    -6200 
   -6212    -6210    -6199    -6212    -6210    -6205    -6214    -6203 
   -6212    -6224    -6216    -6223    -6219    -6207    -6216    -6207 
   -6201    -6212    -6195    -6188    -6192    -6178    -6181    -6174 
   -6158    -6158    -6138    -6123    -6122    -6088    -6073    -6070 
   -6030    -6008    -5995    -5954    -5931    -5908    -5879    -5863 
   -5830    -5805    -5787    -5751    -5730    -5711    -5678    -5661 
   -5636    -5605    -5593    -5560    -5533    -5529    -5506    -5486 
   -5476    -5456    -5455    -5451    -5436    -5449    -5456    -5459 
   -5485    -5498    -5509    -5530    -5544    -5571    -5591    -5597 
   -5621    -5636    -5649    -5679    -5675    -5686    -5722    -5724 
   -5736    -5763    -5763    -5780    -5800    -5807    -5837    -5857 
   -5865    -5891    -5907    -5930    -5964    -5984    -6018    -6054 
   -6080    -6118    -6145    -6180    -6234    -6250    -6269    -6311 
   -6331    -6354    -6376    -6380    -6407    -6426    -6427    -6443 
   -6442    -6443    -6470    -6474    -6470    -6470    -6463    -6471 
   -6462    -6447    -6466    -6454    -6428    -6436    -6424    -6411 
   -6407    -6376    -6365    -6361    -6327    -6311    -6296    -6272 
   -6270    -6255    -6235    -6237    -6223    -6219    -6218    -6200 
   -6208    -6210    -6189    -6196    -6188    -6166    -6169    -6154 
   -6147    -6161    -6146    -6137    -6141    -6134    -6141    -6139 
   -6130    -6143    -6142    -6135    -6149    -6150    -6157    -6164 
   -6153    -6170    -6188    -6180    -6181    -6174    -6178    -6199 
   -6188    -6191    -6215    -6210    -6218    -6232    -6224    -6238 
   -6251    -6243    -6245    -6246    -6251    -6247    -6216    -6216 
   -6238    -6234    -6227    -6215    -6208    -6230    -6223    -6204 
   -6216    -6220    -6230    -6234    -6212    -6219    -6231    -6223 
   -6230    -6223    -6201    -6208    -6199    -6181    -6180    -6162 
   -6156    -6149    -6126    -6129    -6115    -6076    -6065    -6056 
   -6042    -6022    -5980    -5961    -5950    -5910    -5884    -5861 
   -5825    -5813    -5792    -5759    -5748    -5733    -5728    -5728 
   -5711    -5721    -5736    -5726    -5738    -5756    -5771    -5798 
   -5800    -5813    -5845    -5853    -5872    -5899    -5903    -5927 
   -5957    -5971    -5998    -6012    -6025    -6057    -6066    -6075 
   -6091    -6093    -6108    -6106    -6092    -6123    -6131    -6100 
   -6097    -6100    -6110    -6120    -6091    -6096    -6123    -6107 
   -6099    -6106    -6102    -6107    -6102    -6102    -6118    -6119 
   -6130    -6146    -6138    -6147    -6165    -6166    -6169    -6157 
   -6158    -6178    -6165    -6153    -6158    -6149    -6147    -6146 
   -6126    -6126    -6123    -6103    -6096    -6080    -6062    -6056 
   -6027    -6008    -5996    -5969    -5958    -5935    -5895    -5883 
   -5856    -5823    -5813    -5782    -5756    -5740    -5697    -5670 
   -5653    -5624    -5613    -5593    -5562    -5549    -5529    -5509 
   -5497    -5472    -5466    -5462    -5436    -5432    -5427    -5414 
   -5429    -5436    -5440    -5464    -5472    -5494    -5528    -5540 
   -5574    -5611    -5632    -5680    -5722    -5751    -5799    -5841 
   -5886    -5938    -5969    -6012    -6058    -6100    -6165    -6196 
   -6214    -6266    -6284    -6291    -6328    -6331    -6335    -6355 
   -6345    -6349    -6353    -6334    -6332    -6323    -6303    -6297 
   -6281    -6272    -6261    -6228    -6208    -6187    -6150    -6133 
   -6095    -6053    -6043    -6010    -5976    -5969    -5934    -5913 
   -5913    -5891    -5883    -5881    -5863    -5859    -5852    -5845 
   -5857    -5853    -5856    -5868    -5863    -5872    -5876    -5865 
   -5879    -5880    -5867    -5873    -5869    -5867    -5875    -5864 
   -5865    -5875    -5868    -5876    -5880    -5877    -5891    -5892 
   -5898    -5914    -5907    -5919    -5946    -5953    -5979    -6006 
   -6019    -6058    -6088    -6114    -6169    -6208    -6253    -6315 
   -6351    -6408    -6471    -6502    -6550    -6605    -6658    -6714 
   -6741    -6774    -6822    -6839    -6866    -6905    -6909    -6921 
   -6936    -6936    -6947    -6936    -6918    -6929    -6916    -6890 
   -6883    -6864    -6847    -6822    -6786    -6775    -6758    -6728 
   -6717    -6687    -6663    -6655    -6627    -6613    -6602    -6566 
   -6554    -6546    -6523    -6511    -6478    -6446    -6436    -6397 
   -6359    -6342    -6304    -6273    -6241    -6192    -6174    -6158 
   -6123    -6096    -6061    -6038    -6021    -5987    -5973    -5961 
   -5931    -5930    -5919    -5894    -5898    -5890    -5873    -5883 
   -5876    -5872    -5886    -5888    -5908    -5930    -5934    -5958 
   -5979    -5995    -6025    -6035    -6052    -6080    -6092    -6124 
   -6154    -6156    -6183    -6208    -6215    -6234    -6238    -6247 
   -6273    -6272    -6273    -6281    -6268    -6269    -6265    -6246 
   -6249    -6231    -6207    -6203    -6183    -6172    -6161    -6122 
   -6107    -6096    -6065    -6050    -6026    -5994    -5981    -5948 
   -5914    -5907    -5881    -5860    -5844    -5818    -5814    -5800 
   -5773    -5773    -5757    -5737    -5740    -5724    -5713    -5706 
   -5680    -5676    -5671    -5648    -5648    -5634    -5618    -5632 
   -5630    -5633    -5648    -5643    -5657    -5680    -5680    -5692 
   -5694    -5687    -5710    -5715    -5714    -5733    -5732    -5742 
   -5765    -5761    -5769    -5780    -5782    -5800    -5805    -5805 
   -5817    -5810    -5819    -5845    -5837    -5834    -5848    -5853 
   -5869    -5879    -5888    -5921    -5934    -5956    -5998    -6019 
   -6049    -6087    -6114    -6158    -6191    -6212    -6262    -6284 
   -6289    -6323    -6335    -6331    -6347    -6351    -6353    -6345 
   -6326    -6331    -6318    -6293    -6293    -6272    -6258    -6264 
   -6239    -6230    -6231    -6212    -6212    -6203    -6185    -6192 
   -6184    -6178    -6195    -6183    -6174    -6185    -6177    -6178 
   -6185    -6176    -6181    -6183    -6177    -6181    -6165    -6160 
   -6166    -6146    -6142    -6135    -6097    -6087    -6083    -6061 
   -6046    -6014    -5979    -5971    -5946    -5915    -5890    -5854 
   -5829    -5798    -5759    -5742    -5717    -5690    -5684    -5660 
   -5640    -5641    -5625    -5622    -5624    -5611    -5633    -5649 
   -5643    -5661    -5676    -5690    -5718    -5726    -5742    -5769 
   -5780    -5805    -5833    -5841    -5854    -5867    -5888    -5913 
   -5907    -5914    -5931    -5933    -5961    -5991    -5995    -6021 
   -6046    -6064    -6103    -6127    -6151    -6189    -6214    -6246 
   -6277    -6292    -6335    -6369    -6382    -6413    -6432    -6454 
   -6485    -6489    -6504    -6523    -6513    -6521    -6521    -6497 
   -6494    -6477    -6450    -6444    -6412    -6382    -6373    -6336 
   -6308    -6289    -6253    -6234    -6214    -6183    -6165    -6135 
   -6123    -6133    -6111    -6103    -6108    -6092    -6100    -6114 
   -6112    -6139    -6154    -6160    -6191    -6210    -6223    -6246 
   -6258    -6286    -6316    -6335    -6370    -6399    -6424    -6466 
   -6497    -6539    -6598    -6628    -6671    -6731    -6772    -6824 
   -6862    -6891    -6952    -6993    -7018    -7068    -7103    -7142 
   -7192    -7213    -7237    -7269    -7288    -7315    -7327    -7333 
   -7357    -7364    -7372    -7391    -7377    -7376    -7380    -7356 
   -7346    -7333    -7292    -7261    -7222    -7176    -7133    -7061 
   -6995    -6936    -6853    -6783    -6702    -6605    -6531    -6446 
   -6346    -6257    -6146    -6048    -5969    -5863    -5772    -5691 
   -5587    -5516    -5440    -5343    -5275    -5208    -5134    -5070 
   -4995    -4936    -4887    -4812    -4766    -4729    -4671    -4639 
   -4617    -4592    -4590    -4579    -4581    -4595    -4590    -4608 
   -4633    -4638    -4665    -4684    -4692    -4729    -4747    -4760 
   -4785    -4791    -4810    -4835    -4842    -4877    -4911    -4920 
   -4951    -4973    -4985    -5017    -5036    -5057    -5086    -5100 
   -5132    -5162    -5170    -5200    -5224    -5242    -5281    -5304 
   -5327    -5364    -5387    -5418    -5449    -5464    -5493    -5518 
   -5545    -5579    -5580    -5584    -5609    -5605    -5603    -5611 
   -5597    -5595    -5593    -5574    -5575    -5567    -5553    -5559 
   -5549    -5547    -5562    -5556    -5562    -5571    -5570    -5589 
   -5609    -5628    -5663    -5676    -5694    -5734    -5760    -5800 
   -5850    -5875    -5918    -5972    -6014    -6069    -6118    -6164 
   -6231    -6284    -6335    -6390    -6428    -6485    -6546    -6583 
   -6636    -6682    -6709    -6745    -6771    -6804    -6839    -6847 
   -6875    -6914    -6929    -6957    -6982    -6995    -7040    -7071 
   -7091    -7132    -7153    -7180    -7221    -7234    -7252    -7277 
   -7291    -7310    -7310    -7296    -7303    -7285    -7263    -7253 
   -7221    -7198    -7180    -7132    -7092    -7052    -6994    -6956 
   -6905    -6840    -6786    -6709    -6648    -6613    -6542    -6467 
   -6419    -6367    -6319    -6264    -6210    -6164    -6099    -6053 
   -6016    -5949    -5913    -5891    -5837    -5807    -5787    -5760 
   -5759    -5741    -5717    -5713    -5694    -5682    -5679    -5651 
   -5641    -5640    -5618    -5611    -5602    -5591    -5597    -5583 
   -5583    -5602    -5597    -5607    -5629    -5630    -5655    -5679 
   -5698    -5738    -5768    -5811    -5877    -5921    -5977    -6052 
   -6100    -6166    -6231    -6277    -6342    -6396    -6444    -6502 
   -6536    -6574    -6621    -6640    -6666    -6685    -6678    -6686 
   -6686    -6666    -6652    -6620    -6585    -6558    -6505    -6462 
   -6421    -6354    -6301    -6245    -6178    -6130    -6070    -6010 
   -5965    -5899    -5842    -5806    -5764    -5742    -5719    -5687 
   -5688    -5682    -5663    -5668    -5661    -5655    -5660    -5653 
   -5661    -5661    -5637    -5648    -5656    -5648    -5659    -5657 
   -5659    -5680    -5686    -5701    -5722    -5724    -5751    -5783 
   -5795    -5826    -5857    -5886    -5921    -5944    -5973    -6011 
   -6030    -6056    -6075    -6085    -6110    -6119    -6124    -6145 
   -6145    -6158    -6187    -6189    -6205    -6227    -6227    -6246 
   -6265    -6273    -6296    -6304    -6311    -6336    -6339    -6345 
   -6362    -6363    -6376    -6386    -6377    -6386    -6392    -6385 
   -6392    -6377    -6363    -6361    -6338    -6330    -6326    -6297 
   -6288    -6277    -6255    -6250    -6237    -6218    -6211    -6193 
   -6181    -6172    -6151    -6154    -6147    -6120    -6119    -6102 
   -6077    -6075    -6045    -6016    -6010    -5979    -5953    -5929 
   -5888    -5865    -5833    -5790    -5769    -5733    -5691    -5665 
   -5625    -5601    -5579    -5526    -5495    -5468    -5422    -5400 
   -5366    -5321    -5294    -5254    -5220    -5193    -5148    -5123 
   -5093    -5042    -5022    -5009    -4982    -4970    -4955    -4949 
   -4949    -4941    -4951    -4965    -4958    -4974    -4988    -4992 
   -5022    -5039    -5054    -5089    -5108    -5135    -5175    -5200 
   -5238    -5282    -5319    -5373    -5422    -5468    -5532    -5582 
   -5637    -5710    -5761    -5815    -5873    -5927    -6002    -6054 
   -6095    -6160    -6200    -6243    -6307    -6345    -6392    -6447 
   -6481    -6527    -6565    -6589    -6633    -6663    -6682    -6717 
   -6739    -6760    -6787    -6806    -6844    -6867    -6872    -6910 
   -6941    -6957    -6994    -7018    -7045    -7086    -7110    -7146 
   -7188    -7210    -7253    -7298    -7333    -7387    -7419    -7443 
   -7488    -7515    -7534    -7551    -7547    -7551    -7550    -7523 
   -7507    -7474    -7429    -7395    -7337    -7276    -7226    -7152 
   -7088    -7029    -6952    -6890    -6825    -6754    -6704    -6646 
   -6589    -6546    -6492    -6455    -6423    -6370    -6354    -6342 
   -6307    -6301    -6293    -6272    -6274    -6262    -6253    -6264 
   -6254    -6254    -6261    -6249    -6255    -6258    -6246    -6250 
   -6239    -6226    -6223    -6203    -6195    -6188    -6157    -6146 
   -6130    -6092    -6081    -6056    -6016    -6002    -5962    -5919 
   -5898    -5854    -5814    -5782    -5733    -5699    -5659    -5611 
   -5582    -5541    -5498    -5467    -5427    -5402    -5378    -5337 
   -5328    -5314    -5283    -5285    -5275    -5260    -5274    -5269 
   -5263    -5275    -5271    -5290    -5309    -5306    -5327    -5341 
   -5347    -5374    -5391    -5412    -5439    -5444    -5472    -5506 
   -5512    -5537    -5567    -5587    -5624    -5644    -5663    -5703 
   -5721    -5741    -5778    -5794    -5822    -5857    -5875    -5907 
   -5931    -5953    -5991    -6014    -6039    -6066    -6076    -6103 
   -6130    -6133    -6154    -6166    -6161    -6178    -6177    -6169 
   -6184    -6172    -6156    -6157    -6137    -6120    -6107    -6080 
   -6066    -6048    -6027    -6016    -5984    -5964    -5958    -5929 
   -5918    -5911    -5886    -5880    -5869    -5856    -5867    -5849 
   -5826    -5834    -5821    -5810    -5810    -5795    -5803    -5805 
   -5790    -5805    -5810    -5806    -5818    -5819    -5825    -5830 
   -5814    -5819    -5819    -5807    -5819    -5810    -5796    -5817 
   -5807    -5792    -5802    -5794    -5792    -5798    -5782    -5786 
   -5784    -5772    -5783    -5775    -5769    -5787    -5783    -5790 
   -5803    -5794    -5806    -5818    -5817    -5838    -5838    -5829 
   -5849    -5845    -5838    -5859    -5854    -5854    -5859    -5849 
   -5864    -5872    -5864    -5877    -5872    -5871    -5898    -5900 
   -5904    -5923    -5930    -5950    -5961    -5958    -5980    -5987 
   -5985    -6007    -6008    -6012    -6026    -6022    -6038    -6058 
   -6060    -6081    -6102    -6118    -6157    -6178    -6207    -6255 
   -6286    -6335    -6393    -6435    -6494    -6544    -6583    -6651 
   -6705    -6752    -6813    -6849    -6890    -6936    -6953    -6983 
   -7010    -7018    -7038    -7037    -7028    -7040    -7024    -7005 
   -7003    -6978    -6960    -6948    -6917    -6902    -6878    -6844 
   -6829    -6798    -6762    -6744    -6708    -6673    -6644    -6597 
   -6570    -6539    -6489    -6461    -6428    -6384    -6354    -6309 
   -6274    -6243    -6189    -6164    -6146    -6104    -6084    -6060 
   -6022    -6007    -5985    -5968    -5968    -5944    -5937    -5944 
   -5930    -5931    -5934    -5929    -5941    -5935    -5935    -5957 
   -5950    -5950    -5964    -5954    -5961    -5967    -5952    -5953 
   -5946    -5931    -5942    -5937    -5927    -5934    -5918    -5913 
   -5922    -5908    -5907    -5906    -5894    -5898    -5890    -5880 
   -5881    -5861    -5853    -5857    -5838    -5834    -5833    -5817 
   -5827    -5825    -5814    -5832    -5833    -5836    -5859    -5859 
   -5869    -5892    -5898    -5918    -5933    -5935    -5958    -5965 
   -5973    -5996    -5991    -5994    -6004    -5995    -6002    -6000 
   -5985    -5998    -5994    -5977    -5987    -5981    -5977    -5988 
   -5984    -5994    -6007    -6004    -6018    -6027    -6030    -6043 
   -6039    -6042    -6060    -6052    -6053    -6062    -6043    -6039 
   -6048    -6045    -6029    -6004    -6012    -6026    -5989    -5976 
   -5999    -5980    -5957    -5964    -5967    -5967    -5954    -5945 
   -5961    -5961    -5957    -5968    -5961    -5969    -5979    -5958 
   -5964    -5971    -5946    -5938    -5940    -5952    -5961    -5933 
   -5923    -5946    -5953    -5961    -5957    -5948    -5969    -5980 
   -5989    -6019    -6029    -6042    -6065    -6073    -6106    -6137 
   -6137    -6158    -6187    -6208    -6239    -6247    -6258    -6288 
   -6296    -6311    -6328    -6320    -6318    -6315    -6299    -6295 
   -6269    -6237    -6223    -6187    -6150    -6129    -6089    -6065 
   -6043    -6006    -5991    -5971    -5944    -5938    -5911    -5886 
   -5886    -5861    -5840    -5833    -5811    -5800    -5783    -5763 
   -5756    -5724    -5701    -5706    -5682    -5661    -5653    -5626 
   -5622    -5617    -5597    -5603    -5599    -5583    -5591    -5583 
   -5579    -5590    -5580    -5590    -5610    -5603    -5610    -5620 
   -5621    -5636    -5630    -5629    -5649    -5645    -5653    -5670 
   -5659    -5660    -5664    -5651    -5651    -5641    -5632    -5638 
   -5624    -5621    -5637    -5633    -5641    -5663    -5671    -5690 
   -5701    -5717    -5757    -5773    -5799    -5852    -5879    -5917 
   -5973    -6006    -6054    -6110    -6147    -6200    -6245    -6289 
   -6347    -6380    -6419    -6467    -6490    -6531    -6574    -6593 
   -6629    -6659    -6679    -6716    -6732    -6750    -6778    -6782 
   -6802    -6828    -6831    -6853    -6874    -6876    -6897    -6903 
   -6903    -6917    -6907    -6902    -6910    -6897    -6887    -6879 
   -6853    -6837    -6812    -6783    -6768    -6731    -6698    -6681 
   -6637    -6605    -6588    -6543    -6509    -6474    -6428    -6397 
   -6353    -6308    -6280    -6235    -6196    -6161    -6114    -6092 
   -6061    -6018    -6004    -5985    -5960    -5948    -5921    -5908 
   -5914    -5891    -5887    -5888    -5868    -5873    -5877    -5869 
   -5883    -5884    -5883    -5894    -5886    -5891    -5899    -5887 
   -5896    -5903    -5891    -5894    -5883    -5873    -5883    -5861 
   -5844    -5848    -5827    -5817    -5809    -5775    -5760    -5746 
