Origin Time       2025/01/13 21:19:00
Lat.              31.8
Long.             131.6
Depth. (km)       30
Mag.              6.9
Station Code      OSK008
Station Lat.      34.4404
Station Long.     135.3918
Station Height(m) 36
Record Time       2025/01/13 21:21:58
Sampling Freq(Hz) 100Hz
Duration Time(s)  60
Dir.              U-D
Scale Factor      7845(gal)/8223790
Max. Acc. (gal)   0.734
Last Correction   2025/01/13 21:21:59
Memo.             
[...]
   12420    12425    12429    12434    12432    12425    12421    12417 
   12411    12401    12383    12374    12368    12351    12343    12340 
   12326    12317    12309    12301    12294    12282    12278    12274 
   12259    12249    12243    12235    12232    12224    12217    12217 
   12213    12209    12208    12202    12198    12194    12189    12190 
   12190    12182    12182    12187    12193    12197    12199    12201 
   12202    12208    12214    12214    12217    12228    12231    12226 
   12229    12228    12224    12224    12226    12225    12217    12218 
   12226    12225    12220    12222    12226    12228    12231    12237 
   12247    12249    12258    12274    12276    12279    12297    12298 
   12295    12306    12309    12309    12320    12326    12325    12328 
   12329    12332    12336    12336    12336    12336    12343    12343 
   12334    12336    12341    12340    12343    12352    12355    12353 
   12352    12351    12351    12355    12367    12376    12371    12371 
   12379    12383    12387    12384    12383    12387    12384    12383 
   12390    12391    12388    12387    12394    12405    12405    12406 
   12415    12414    12411    12417    12421    12426    12430    12425 
   12424    12425    12421    12417    12410    12403    12399    12391 
   12388    12384    12372    12374    12378    12372    12376    12384 
   12387    12391    12401    12409    12414    12424    12438    12444 
   12448    12464    12474    12475    12482    12486    12492    12506 
   12513    12517    12523    12528    12528    12529    12533    12541 
   12540    12537    12546    12550    12555    12567    12569    12571 
   12577    12583    12591    12600    12600    12598    12599    12603 
   12603    12600    12609    12618    12614    12613    12617    12614 
   12611    12611    12610    12604    12594    12594    12591    12577 
   12575    12572    12563    12555    12542    12538    12538    12521 
   12507    12507    12499    12482    12469    12463    12456    12437 
   12424    12424    12410    12395    12394    12379    12361    12353 
   12340    12325    12322    12318    12306    12293    12287    12280 
   12264    12256    12249    12235    12232    12233    12226    12224 
   12222    12220    12220    12214    12210    12213    12210    12204 
   12201    12193    12185    12177    12170    12166    12155    12147 
   12143    12131    12121    12123    12120    12118    12121    12125 
   12128    12127    12127    12131    12135    12145    12151    12140 
   12137    12148    12155    12158    12158    12156    12154    12143 
   12137    12137    12129    12118    12113    12105    12101    12096 
   12078    12067    12062    12051    12048    12046    12037    12029 
   12021    12015    12004    11992    11988    11981    11969    11954 
   11935    11924    11915    11894    11882    11877    11865    11854 
   11846    11842    11850    11854    11857    11867    11873    11881 
   11905    11921    11936    11963    11989    12012    12039    12073 
   12106    12139    12172    12208    12236    12263    12295    12328 
   12356    12383    12413    12440    12461    12487    12517    12542 
   12569    12596    12619    12646    12676    12699    12723    12746 
   12772    12799    12816    12831    12849    12862    12879    12899 
   12911    12910    12911    12922    12927    12923    12920    12924 
   12922    12916    12912    12907    12899    12891    12884    12874 
   12858    12843    12830    12810    12795    12783    12758    12739 
   12726    12702    12677    12658    12637    12615    12592    12572 
   12556    12534    12518    12506    12492    12487    12480    12468 
   12460    12459    12459    12457    12451    12455    12459    12449 
   12447    12453    12452    12448    12444    12440    12444    12444 
   12441    12444    12440    12436    12437    12434    12434    12433 
   12426    12429    12426    12418    12415    12403    12395    12395 
   12383    12370    12361    12347    12334    12329    12321    12316 
   12309    12301    12297    12289    12283    12282    12276    12276 
   12270    12258    12255    12243    12222    12213    12202    12186 
   12167    12148    12136    12123    12109    12105    12100    12087 
   12082    12074    12067    12066    12056    12040    12029    12017 
   12002    11983    11969    11962    11948    11935    11928    11917 
   11908    11902    11894    11892    11892    11893    11897    11898 
   11901    11911    11916    11927    11943    11950    11963    11979 
   11986    12002    12023    12036    12048    12059    12081    12105 
   12106    12114    12139    12148    12151    12171    12194    12209 
   12224    12247    12264    12275    12293    12314    12328    12345 
   12367    12383    12397    12405    12414    12429    12434    12441 
   12457    12457    12457    12464    12463    12463    12465    12465 
   12472    12478    12478    12487    12494    12498    12507    12517 
   12534    12548    12556    12577    12598    12609    12623    12641 
   12656    12667    12679    12698    12711    12714    12727    12745 
   12748    12754    12766    12768    12768    12772    12775    12771 
   12761    12756    12752    12745    12738    12729    12715    12703 
   12692    12685    12671    12649    12640    12630    12613    12600 
   12587    12571    12557    12544    12525    12505    12480    12463 
   12444    12414    12391    12375    12348    12320    12302    12286 
   12266    12241    12222    12206    12182    12166    12147    12124 
   12105    12085    12062    12044    12024    12005    11990    11967 
   11944    11931    11916    11897    11885    11878    11874    11869 
   11862    11861    11861    11866    11875    11878    11890    11909 
   11925    11943    11963    11983    12006    12029    12052    12077 
   12106    12143    12174    12199    12237    12275    12303    12339 
   12375    12405    12438    12472    12509    12545    12576    12611 
   12642    12665    12694    12723    12741    12757    12773    12787 
   12791    12789    12795    12795    12785    12788    12785    12771 
   12756    12737    12722    12711    12691    12676    12660    12630 
   12610    12592    12565    12549    12538    12522    12506    12494 
   12487    12472    12456    12453    12449    12441    12444    12444 
   12433    12429    12425    12424    12426    12428    12436    12444 
   12444    12451    12457    12457    12461    12469    12480    12490 
   12494    12498    12498    12498    12503    12505    12502    12501 
   12496    12492    12487    12478    12475    12471    12453    12447 
   12448    12434    12424    12418    12409    12402    12394    12388 
   12382    12370    12363    12356    12339    12326    12318    12305 
   12293    12275    12259    12248    12233    12218    12209    12194 
   12178    12160    12141    12129    12112    12093    12081    12060 
   12042    12028    12013    12001    11989    11975    11969    11956 
   11943    11940    11936    11929    11928    11927    11927    11927 
   11923    11929    11938    11934    11932    11938    11944    11943 
   11938    11947    11961    11969    11989    12010    12028    12052 
   12078    12105    12139    12168    12199    12239    12271    12298 
   12325    12351    12378    12401    12420    12445    12463    12471 
   12483    12494    12498    12501    12501    12501    12495    12484 
   12479    12468    12452    12440    12421    12401    12388    12368 
   12347    12329    12309    12290    12267    12244    12232    12216 
   12197    12181    12166    12151    12139    12127    12117    12104 
   12091    12093    12090    12085    12089    12093    12098    12116 
   12128    12136    12152    12172    12193    12208    12222    12248 
   12268    12289    12313    12333    12351    12374    12395    12418 
   12438    12460    12483    12496    12509    12533    12557    12577 
   12598    12615    12636    12657    12675    12691    12706    12718 
   12734    12749    12757    12758    12758    12766    12775    12776 
   12781    12783    12781    12785    12784    12784    12784    12775 
   12775    12785    12784    12784    12785    12781    12787    12788 
   12787    12796    12795    12789    12791    12784    12777    12775 
   12765    12758    12748    12729    12722    12712    12695    12684 
   12669    12645    12626    12609    12591    12567    12537    12517 
   12495    12471    12459    12445    12425    12407    12391    12379 
   12364    12345    12340    12332    12312    12303    12294    12275 
   12264    12249    12235    12224    12208    12193    12179    12159 
   12147    12133    12116    12104    12090    12075    12066    12052 
   12042    12032    12024    12019    12013    12010    12017    12015 
   12009    12015    12020    12020    12023    12024    12023    12019 
   12012    12016    12015    12005    12005    12005    11998    11994 
   11992    11992    11992    11989    11996    12004    12005    12017 
   12032    12046    12063    12079    12098    12123    12139    12156 
   12175    12191    12213    12232    12244    12267    12291    12312 
   12333    12351    12370    12391    12407    12424    12437    12452 
   12471    12482    12496    12519    12534    12549    12569    12587 
   12599    12615    12633    12646    12656    12672    12685    12691 
   12700    12708    12708    12715    12721    12715    12715    12711 
   12695    12681    12669    12650    12634    12615    12591    12571 
   12552    12530    12499    12469    12447    12417    12384    12359 
   12325    12290    12263    12226    12193    12162    12125    12093 
   12060    12029    12008    11979    11946    11923    11902    11882 
   11869    11855    11847    11843    11839    11838    11839    11847 
   11858    11867    11882    11896    11909    11931    11950    11967 
   11994    12012    12031    12063    12089    12106    12127    12144 
   12170    12202    12224    12239    12256    12285    12316    12328 
   12343    12376    12399    12407    12424    12442    12459    12465 
   12469    12482    12488    12492    12496    12488    12484    12488 
   12487    12482    12475    12465    12459    12444    12434    12438 
   12429    12410    12403    12393    12379    12371    12355    12343 
   12336    12330    12328    12314    12307    12316    12312    12305 
   12309    12306    12306    12312    12320    12326    12328    12332 
   12344    12345    12351    12364    12364    12360    12366    12367 
   12367    12372    12376    12379    12382    12391    12403    12403 
   12407    12418    12422    12434    12449    12461    12475    12486 
   12498    12511    12519    12536    12552    12559    12575    12592 
   12599    12610    12626    12636    12646    12658    12671    12679 
   12684    12691    12699    12703    12706    12707    12706    12712 
   12711    12704    12703    12698    12688    12683    12673    12664 
   12656    12646    12641    12627    12614    12607    12594    12579 
   12571    12560    12546    12536    12523    12510    12495    12480 
   12463    12442    12426    12410    12387    12370    12348    12320 
   12303    12283    12252    12232    12216    12194    12182    12170 
   12154    12139    12125    12110    12090    12071    12056    12039 
   12024    12016    12000    11988    11981    11970    11962    11959 
   11958    11961    11965    11970    11985    12000    12016    12042 
   12059    12082    12118    12147    12171    12204    12232    12260 
   12290    12317    12344    12366    12391    12417    12430    12448 
   12471    12478    12487    12503    12511    12515    12523    12530 
   12529    12525    12534    12537    12523    12526    12534    12525 
   12523    12526    12522    12517    12511    12510    12507    12499 
   12496    12494    12483    12483    12484    12474    12464    12456 
   12445    12437    12430    12429    12425    12410    12405    12407 
   12406    12407    12405    12399    12406    12414    12410    12409 
   12418    12425    12420    12420    12432    12430    12418    12420 
   12417    12409    12407    12401    12391    12380    12370    12363 
   12351    12341    12337    12332    12329    12328    12318    12320 
   12326    12326    12330    12341    12349    12361    12375    12386 
   12399    12411    12429    12451    12459    12467    12482    12488 
   12495    12503    12506    12505    12503    12505    12502    12491 
   12487    12484    12474    12460    12445    12430    12415    12398 
   12383    12370    12344    12320    12306    12282    12259    12240 
   12220    12197    12172    12151    12133    12108    12082    12064 
   12037    12016    11998    11970    11947    11928    11904    11880 
   11854    11834    11817    11794    11780    11766    11742    11732 
   11732    11720    11711    11707    11707    11704    11703    11711 
   11715    11713    11726    11740    11746    11761    11780    11792 
   11812    11831    11847    11863    11881    11902    11923    11942 
   11969    11997    12024    12054    12085    12118    12152    12183 
   12221    12260    12295    12340    12387    12421    12460    12502 
   12540    12580    12621    12656    12690    12722    12764    12803 
   12833    12865    12900    12924    12954    12985    13009    13031 
   13050    13069    13082    13090    13104    13112    13111    13115 
   13115    13112    13109    13097    13081    13066    13047    13030 
   13009    12985    12972    12947    12911    12884    12856    12822 
   12796    12765    12734    12707    12680    12661    12640    12607 
   12583    12559    12530    12509    12491    12472    12452    12430 
   12418    12409    12397    12388    12382    12376    12375    12368 
   12364    12361    12357    12355    12352    12344    12339    12336 
   12330    12324    12321    12318    12314    12310    12303    12297 
   12291    12289    12279    12260    12248    12232    12213    12205 
   12187    12164    12151    12132    12113    12096    12075    12064 
   12052    12027    12008    11994    11981    11973    11958    11947 
   11942    11925    11920    11923    11915    11911    11912    11912 
   11917    11928    11939    11947    11952    11965    11978    11986 
   12000    12010    12017    12032    12044    12055    12073    12083 
   12093    12109    12121    12133    12145    12152    12167    12179 
   12187    12195    12202    12216    12232    12240    12249    12262 
   12267    12279    12294    12299    12306    12318    12328    12344 
   12359    12366    12380    12398    12415    12429    12437    12455 
   12474    12483    12490    12501    12513    12521    12523    12532 
   12537    12536    12541    12542    12534    12533    12529    12517 
   12510    12506    12492    12479    12467    12456    12442    12425 
   12413    12401    12383    12372    12360    12344    12333    12325 
   12320    12307    12293    12294    12289    12275    12274    12271 
   12270    12274    12274    12270    12272    12279    12287    12285 
   12285    12297    12305    12314    12329    12334    12341    12357 
   12368    12378    12390    12399    12411    12424    12437    12449 
   12457    12471    12486    12492    12499    12510    12522    12533 
   12540    12555    12575    12583    12591    12606    12613    12621 
   12634    12646    12654    12658    12665    12677    12681    12681 
   12690    12694    12694    12692    12687    12685    12679    12668 
   12668    12656    12631    12625    12615    12592    12576    12559 
   12534    12511    12488    12468    12442    12415    12398    12378 
   12352    12333    12309    12279    12260    12244    12220    12197 
   12183    12171    12154    12139    12132    12124    12121    12124 
   12117    12114    12116    12113    12114    12121    12127    12129 
   12131    12140    12154    12160    12167    12182    12197    12212 
   12226    12241    12264    12283    12294    12316    12337    12351 
   12366    12379    12388    12397    12410    12426    12436    12441 
   12455    12460    12465    12479    12482    12480    12484    12492 
   12501    12499    12505    12514    12510    12511    12519    12514 
   12515    12521    12510    12503    12501    12496    12487    12474 
   12467    12456    12434    12422    12414    12397    12375    12357 
   12344    12329    12307    12290    12275    12252    12231    12214 
   12194    12171    12156    12139    12120    12102    12083    12071 
   12058    12042    12032    12025    12013    12005    12000    11994 
   11985    11979    11985    11981    11975    11983    11989    11989 
   12002    12012    12021    12036    12052    12069    12081    12097 
   12124    12145    12168    12198    12224    12251    12276    12301 
   12329    12353    12379    12407    12425    12442    12468    12487 
   12501    12515    12530    12541    12549    12555    12557    12559 
   12556    12553    12549    12541    12530    12519    12507    12492 
   12476    12464    12449    12430    12413    12393    12372    12364 
   12349    12334    12326    12310    12299    12298    12290    12283 
   12285    12283    12285    12285    12285    12290    12291    12295 
   12303    12307    12314    12326    12333    12339    12349    12357 
   12368    12379    12386    12394    12399    12409    12420    12422 
   12430    12442    12447    12452    12459    12467    12475    12479 
   12484    12487    12480    12480    12483    12478    12468    12461 
   12460    12456    12445    12440    12433    12415    12405    12398 
   12384    12372    12364    12355    12341    12325    12316    12307 
   12294    12282    12270    12251    12240    12237    12228    12214 
   12208    12204    12195    12191    12193    12197    12197    12202 
   12212    12217    12224    12233    12245    12258    12264    12276 
   12290    12291    12297    12313    12320    12329    12334    12334 
   12345    12349    12349    12364    12368    12372    12390    12394 
   12401    12414    12414    12424    12436    12442    12459    12469 
   12475    12482    12486    12502    12513    12509    12517    12525 
   12525    12530    12529    12529    12534    12528    12521    12521 
   12513    12502    12498    12495    12484    12469    12463    12456 
   12437    12421    12417    12409    12395    12387    12378    12366 
   12357    12349    12339    12330    12326    12318    12313    12310 
   12298    12282    12276    12272    12263    12255    12245    12239 
   12235    12224    12217    12217    12209    12205    12208    12209 
   12213    12217    12221    12229    12231    12239    12252    12253 
   12262    12278    12285    12289    12295    12299    12302    12306 
   12317    12324    12322    12324    12326    12324    12326    12329 
   12328    12332    12334    12341    12345    12347    12352    12353 
   12352    12360    12366    12371    12379    12379    12380    12391 
   12393    12393    12402    12406    12406    12411    12417    12420 
   12413    12411    12417    12415    12417    12420    12410    12406 
   12402    12399    12402    12394    12387    12390    12387    12382 
   12376    12366    12357    12352    12347    12347    12334    12318 
