Origin Time       2025/01/13 21:19:00
Lat.              31.8
Long.             131.6
Depth. (km)       30
Mag.              6.9
Station Code      OSK003
Station Lat.      34.7668
Station Long.     135.4684
Station Height(m) 4
Record Time       2025/01/13 21:22:21
Sampling Freq(Hz) 100Hz
Duration Time(s)  71
Dir.              E-W
Scale Factor      7845(gal)/8223790
Max. Acc. (gal)   1.375
Last Correction   2025/01/13 21:22:22
Memo.             
[...]
   -1764    -1763    -1753    -1744    -1740    -1741    -1736    -1726 
   -1723    -1717    -1707    -1703    -1690    -1679    -1682    -1682 
   -1678    -1674    -1664    -1647    -1629    -1629    -1638    -1640 
   -1640    -1647    -1645    -1641    -1642    -1642    -1637    -1640 
   -1647    -1649    -1653    -1664    -1665    -1652    -1652    -1657 
   -1651    -1645    -1649    -1651    -1647    -1641    -1637    -1632 
   -1622    -1615    -1610    -1599    -1590    -1579    -1568    -1561 
   -1552    -1537    -1525    -1518    -1512    -1503    -1499    -1497 
   -1486    -1468    -1464    -1467    -1463    -1460    -1458    -1456 
   -1455    -1447    -1444    -1456    -1464    -1458    -1452    -1464 
   -1480    -1485    -1482    -1495    -1510    -1513    -1517    -1522 
   -1522    -1522    -1529    -1543    -1556    -1566    -1571    -1571 
   -1580    -1606    -1625    -1636    -1651    -1663    -1680    -1702 
   -1718    -1737    -1753    -1765    -1776    -1786    -1804    -1827 
   -1842    -1858    -1876    -1888    -1903    -1914    -1919    -1937 
   -1954    -1964    -1973    -1984    -1987    -1992    -2010    -2033 
   -2045    -2052    -2062    -2064    -2064    -2069    -2074    -2079 
   -2081    -2080    -2074    -2061    -2049    -2049    -2046    -2039 
   -2027    -2008    -1991    -1973    -1949    -1923    -1906    -1891 
   -1875    -1854    -1834    -1815    -1788    -1760    -1740    -1721 
   -1699    -1672    -1636    -1599    -1568    -1543    -1520    -1498 
   -1472    -1443    -1418    -1406    -1382    -1344    -1320    -1310 
   -1294    -1275    -1269    -1271    -1266    -1255    -1250    -1250 
   -1239    -1229    -1231    -1235    -1236    -1242    -1248    -1262 
   -1277    -1285    -1286    -1287    -1296    -1306    -1313    -1329 
   -1350    -1351    -1347    -1350    -1355    -1368    -1385    -1394 
   -1410    -1431    -1439    -1447    -1466    -1486    -1495    -1505 
   -1528    -1551    -1566    -1572    -1580    -1597    -1613    -1618 
   -1622    -1636    -1648    -1657    -1665    -1672    -1676    -1669 
   -1659    -1660    -1668    -1665    -1659    -1660    -1660    -1652 
   -1652    -1656    -1661    -1668    -1671    -1668    -1675    -1684 
   -1692    -1707    -1722    -1728    -1734    -1742    -1755    -1768 
   -1786    -1807    -1826    -1838    -1854    -1872    -1885    -1903 
   -1930    -1961    -1988    -2007    -2031    -2057    -2083    -2116 
   -2146    -2160    -2184    -2215    -2227    -2232    -2249    -2272 
   -2289    -2303    -2319    -2330    -2338    -2350    -2358    -2365 
   -2378    -2392    -2408    -2419    -2420    -2428    -2439    -2439 
   -2443    -2455    -2463    -2475    -2485    -2484    -2479    -2479 
   -2479    -2473    -2459    -2452    -2448    -2448    -2454    -2451 
   -2439    -2424    -2412    -2403    -2382    -2361    -2358    -2351 
   -2330    -2311    -2286    -2257    -2231    -2191    -2137    -2092 
   -2056    -2020    -1983    -1929    -1863    -1799    -1746    -1696 
   -1640    -1578    -1512    -1444    -1385    -1332    -1275    -1224 
   -1170    -1107    -1050    -1001     -946     -895     -851     -805 
    -762     -718     -673     -637     -607     -577     -546     -518 
    -496     -469     -441     -422     -409     -392     -382     -372 
    -357     -348     -355     -359     -349     -352     -375     -395 
    -414     -437     -454     -479     -517     -557     -596     -631 
    -669     -719     -773     -818     -864     -912     -969    -1028 
   -1074    -1127    -1186    -1236    -1293    -1360    -1422    -1483 
   -1545    -1599    -1652    -1714    -1786    -1856    -1921    -1984 
   -2046    -2104    -2166    -2228    -2290    -2359    -2427    -2475 
   -2513    -2567    -2628    -2675    -2713    -2751    -2779    -2809 
   -2847    -2871    -2882    -2895    -2920    -2941    -2940    -2937 
   -2952    -2953    -2947    -2949    -2940    -2926    -2929    -2929 
   -2920    -2917    -2909    -2886    -2870    -2859    -2841    -2825 
   -2818    -2809    -2782    -2751    -2729    -2706    -2678    -2650 
   -2619    -2590    -2565    -2529    -2492    -2461    -2431    -2393 
   -2351    -2309    -2262    -2216    -2177    -2133    -2084    -2039 
   -1996    -1946    -1891    -1837    -1787    -1738    -1695    -1655 
   -1607    -1556    -1512    -1468    -1422    -1377    -1340    -1306 
   -1274    -1239    -1208    -1183    -1159    -1136    -1116    -1096 
   -1080    -1067    -1054    -1036    -1017    -1003     -984     -963 
    -953     -943     -936     -945     -951     -951     -955     -954 
    -949     -950     -951     -954     -958     -957     -959     -967 
    -980     -996    -1000     -994    -1004    -1016    -1027    -1048 
   -1069    -1078    -1085    -1098    -1107    -1102    -1108    -1124 
   -1134    -1147    -1170    -1193    -1224    -1254    -1266    -1277 
   -1296    -1314    -1339    -1366    -1402    -1445    -1479    -1510 
   -1544    -1571    -1598    -1626    -1653    -1691    -1733    -1775 
   -1817    -1844    -1863    -1892    -1929    -1961    -1988    -2010 
   -2033    -2056    -2080    -2107    -2128    -2149    -2165    -2176 
   -2188    -2201    -2215    -2239    -2261    -2277    -2293    -2301 
   -2300    -2311    -2330    -2349    -2366    -2377    -2382    -2389 
   -2385    -2378    -2378    -2388    -2398    -2404    -2405    -2409 
   -2409    -2408    -2408    -2398    -2382    -2374    -2371    -2365 
   -2357    -2347    -2336    -2323    -2303    -2284    -2263    -2242 
   -2227    -2222    -2216    -2203    -2185    -2168    -2147    -2127 
   -2111    -2084    -2057    -2041    -2026    -2006    -1980    -1946 
   -1911    -1873    -1834    -1798    -1760    -1729    -1702    -1663 
   -1624    -1597    -1571    -1540    -1507    -1474    -1433    -1394 
   -1367    -1340    -1306    -1282    -1260    -1236    -1216    -1194 
   -1162    -1143    -1143    -1138    -1120    -1101    -1088    -1077 
   -1071    -1077    -1073    -1058    -1054    -1051    -1042    -1043 
   -1044    -1044    -1055    -1066    -1067    -1070    -1082    -1100 
   -1111    -1121    -1135    -1136    -1139    -1163    -1193    -1216 
   -1236    -1247    -1251    -1260    -1281    -1310    -1339    -1371 
   -1398    -1413    -1440    -1472    -1485    -1494    -1513    -1532 
   -1559    -1591    -1618    -1640    -1659    -1672    -1671    -1672 
   -1688    -1713    -1738    -1761    -1776    -1784    -1798    -1813 
   -1821    -1825    -1825    -1823    -1838    -1856    -1857    -1852 
   -1852    -1852    -1846    -1848    -1849    -1844    -1840    -1830 
   -1807    -1795    -1794    -1782    -1772    -1768    -1759    -1742 
   -1725    -1706    -1692    -1684    -1674    -1665    -1668    -1676 
   -1680    -1684    -1690    -1690    -1686    -1694    -1701    -1707 
   -1719    -1728    -1740    -1759    -1771    -1782    -1800    -1821 
   -1829    -1830    -1857    -1896    -1925    -1954    -1985    -2002 
   -2011    -2027    -2052    -2076    -2101    -2135    -2162    -2174 
   -2185    -2199    -2215    -2234    -2243    -2250    -2270    -2292 
   -2308    -2320    -2331    -2349    -2366    -2370    -2381    -2397 
   -2404    -2407    -2415    -2424    -2420    -2412    -2413    -2419 
   -2416    -2401    -2382    -2369    -2359    -2347    -2338    -2324 
   -2292    -2254    -2227    -2203    -2189    -2187    -2174    -2147 
   -2110    -2070    -2037    -2015    -2008    -2006    -1989    -1960 
   -1926    -1894    -1877    -1875    -1864    -1846    -1830    -1811 
   -1788    -1763    -1741    -1718    -1692    -1676    -1659    -1634 
   -1610    -1584    -1556    -1533    -1520    -1506    -1486    -1463 
   -1449    -1437    -1422    -1413    -1406    -1390    -1367    -1345 
   -1329    -1316    -1306    -1300    -1290    -1274    -1254    -1239 
   -1232    -1235    -1239    -1237    -1235    -1229    -1225    -1224 
   -1224    -1224    -1223    -1216    -1213    -1221    -1227    -1228 
   -1227    -1223    -1227    -1229    -1221    -1212    -1209    -1212 
   -1212    -1201    -1190    -1186    -1188    -1189    -1192    -1198 
   -1208    -1212    -1217    -1223    -1225    -1235    -1250    -1264 
   -1278    -1289    -1306    -1325    -1333    -1339    -1351    -1377 
   -1416    -1451    -1478    -1506    -1528    -1552    -1591    -1632 
   -1669    -1714    -1755    -1796    -1838    -1875    -1919    -1968 
   -2010    -2061    -2115    -2157    -2195    -2238    -2276    -2304 
   -2332    -2367    -2411    -2455    -2488    -2504    -2519    -2540 
   -2563    -2586    -2602    -2605    -2609    -2612    -2608    -2605 
   -2601    -2590    -2587    -2583    -2569    -2550    -2531    -2515 
   -2504    -2484    -2457    -2430    -2404    -2386    -2369    -2336 
   -2301    -2282    -2273    -2250    -2218    -2184    -2155    -2145 
   -2145    -2130    -2103    -2072    -2043    -2022    -2016    -2010 
   -1992    -1976    -1961    -1945    -1927    -1908    -1888    -1876 
   -1873    -1871    -1858    -1837    -1810    -1784    -1775    -1761 
   -1737    -1723    -1715    -1690    -1661    -1645    -1637    -1626 
   -1607    -1590    -1574    -1560    -1563    -1568    -1563    -1552 
   -1536    -1524    -1524    -1526    -1528    -1530    -1534    -1545 
   -1551    -1551    -1560    -1563    -1556    -1571    -1588    -1588 
   -1594    -1611    -1626    -1630    -1620    -1607    -1607    -1620 
   -1628    -1625    -1621    -1611    -1597    -1587    -1571    -1549 
   -1545    -1540    -1526    -1525    -1512    -1471    -1436    -1417 
   -1405    -1399    -1391    -1378    -1362    -1341    -1318    -1289 
   -1262    -1248    -1244    -1251    -1251    -1235    -1208    -1173 
   -1140    -1125    -1131    -1142    -1156    -1170    -1167    -1151 
   -1135    -1127    -1128    -1138    -1152    -1158    -1163    -1186 
   -1209    -1213    -1208    -1212    -1233    -1266    -1301    -1331 
   -1351    -1368    -1395    -1422    -1449    -1480    -1512    -1548 
   -1599    -1651    -1687    -1714    -1744    -1782    -1818    -1854 
   -1891    -1927    -1973    -2022    -2060    -2089    -2118    -2146 
   -2178    -2208    -2230    -2251    -2276    -2303    -2327    -2350 
   -2382    -2411    -2413    -2412    -2415    -2405    -2412    -2447 
   -2473    -2473    -2451    -2425    -2412    -2408    -2411    -2403 
   -2369    -2335    -2327    -2312    -2290    -2277    -2245    -2201 
   -2178    -2160    -2130    -2103    -2080    -2043    -2002    -1965 
   -1926    -1884    -1844    -1804    -1763    -1721    -1678    -1642 
   -1613    -1580    -1541    -1483    -1416    -1364    -1332    -1318 
   -1306    -1277    -1247    -1227    -1189    -1132    -1097    -1093 
   -1081    -1050    -1035    -1035    -1024    -1017    -1011     -985 
    -959     -957     -961     -976     -996    -1007    -1008    -1004 
    -993     -984     -992    -1017    -1046    -1074    -1098    -1109 
   -1112    -1125    -1144    -1169    -1192    -1202    -1208    -1225 
   -1252    -1277    -1294    -1309    -1328    -1340    -1350    -1371 
   -1395    -1410    -1424    -1432    -1441    -1475    -1514    -1528 
   -1534    -1552    -1571    -1594    -1622    -1653    -1687    -1718 
   -1748    -1777    -1802    -1823    -1857    -1902    -1930    -1946 
   -1975    -2011    -2047    -2087    -2120    -2141    -2161    -2195 
   -2230    -2263    -2299    -2330    -2351    -2371    -2390    -2411 
   -2443    -2482    -2515    -2542    -2563    -2582    -2602    -2623 
   -2648    -2677    -2698    -2714    -2731    -2740    -2749    -2766 
   -2790    -2810    -2818    -2826    -2839    -2847    -2852    -2862 
   -2871    -2882    -2886    -2878    -2876    -2875    -2871    -2875 
   -2880    -2875    -2870    -2856    -2832    -2822    -2818    -2803 
   -2786    -2766    -2744    -2720    -2698    -2681    -2658    -2632 
   -2609    -2582    -2544    -2505    -2470    -2436    -2394    -2350 
   -2316    -2276    -2227    -2189    -2141    -2083    -2034    -1983 
   -1923    -1868    -1813    -1756    -1698    -1642    -1584    -1520 
   -1463    -1413    -1356    -1300    -1247    -1197    -1146    -1100 
   -1062    -1026     -989     -957     -927     -888     -847     -822 
    -807     -792     -778     -768     -756     -741     -724     -708 
    -699     -704     -714     -710     -707     -707     -706     -708 
    -706     -696     -687     -675     -676     -689     -692     -688 
    -684     -675     -669     -668     -662     -658     -650     -634 
    -622     -622     -619     -608     -600     -596     -596     -598 
    -596     -592     -591     -592     -596     -602     -608     -610 
    -612     -619     -633     -646     -652     -661     -676     -693 
    -712     -729     -742     -768     -793     -811     -837     -859 
    -876     -905     -943     -980    -1015    -1043    -1067    -1100 
   -1131    -1165    -1206    -1240    -1273    -1313    -1348    -1390 
   -1439    -1479    -1512    -1552    -1601    -1644    -1690    -1749 
   -1798    -1837    -1884    -1931    -1976    -2022    -2062    -2107 
   -2161    -2212    -2258    -2305    -2350    -2392    -2430    -2467 
   -2513    -2562    -2604    -2646    -2685    -2714    -2741    -2774 
   -2814    -2853    -2882    -2906    -2929    -2955    -2979    -2997 
   -3017    -3044    -3067    -3082    -3087    -3095    -3109    -3122 
   -3138    -3153    -3159    -3163    -3168    -3169    -3172    -3167 
   -3150    -3134    -3118    -3098    -3084    -3075    -3065    -3044 
   -3007    -2975    -2947    -2913    -2880    -2853    -2826    -2786 
   -2735    -2689    -2647    -2601    -2559    -2520    -2479    -2442 
   -2397    -2343    -2290    -2241    -2192    -2153    -2114    -2064 
   -2012    -1968    -1923    -1875    -1829    -1788    -1745    -1698 
   -1657    -1622    -1579    -1540    -1505    -1459    -1414    -1383 
   -1356    -1321    -1289    -1259    -1213    -1167    -1140    -1117 
   -1089    -1063    -1036    -1008     -980     -949     -922     -895 
    -865     -839     -814     -787     -768     -745     -718     -702 
    -687     -669     -653     -633     -614     -606     -608     -615 
    -621     -618     -610     -599     -596     -603     -612     -627 
    -639     -650     -666     -677     -688     -710     -735     -769 
    -807     -835     -861     -886     -915     -950     -981    -1005 
   -1039    -1084    -1132    -1170    -1198    -1240    -1283    -1314 
   -1348    -1389    -1431    -1474    -1513    -1552    -1591    -1632 
   -1672    -1709    -1744    -1786    -1821    -1849    -1883    -1915 
   -1941    -1969    -2002    -2029    -2050    -2072    -2095    -2110 
   -2118    -2128    -2138    -2151    -2165    -2172    -2178    -2189 
   -2192    -2192    -2193    -2191    -2187    -2185    -2188    -2187 
   -2177    -2169    -2164    -2151    -2137    -2122    -2107    -2100 
   -2095    -2077    -2060    -2046    -2025    -1999    -1979    -1962 
   -1941    -1915    -1894    -1868    -1838    -1811    -1787    -1765 
   -1746    -1725    -1695    -1667    -1642    -1618    -1586    -1561 
   -1553    -1541    -1517    -1491    -1468    -1456    -1453    -1449 
   -1445    -1440    -1431    -1421    -1414    -1412    -1421    -1429 
   -1435    -1441    -1448    -1458    -1474    -1491    -1505    -1517 
   -1533    -1560    -1584    -1599    -1629    -1665    -1688    -1713 
   -1748    -1786    -1815    -1846    -1885    -1922    -1950    -1980 
   -2006    -2038    -2080    -2114    -2145    -2172    -2197    -2228 
   -2255    -2278    -2304    -2320    -2330    -2347    -2358    -2361 
   -2371    -2389    -2405    -2411    -2413    -2421    -2425    -2424 
   -2423    -2419    -2415    -2411    -2400    -2396    -2398    -2392 
   -2381    -2361    -2338    -2323    -2309    -2289    -2269    -2258 
   -2242    -2212    -2185    -2165    -2135    -2103    -2080    -2052 
   -2015    -1985    -1962    -1933    -1899    -1869    -1837    -1802 
   -1771    -1746    -1717    -1684    -1655    -1621    -1586    -1556 
   -1522    -1489    -1459    -1426    -1397    -1372    -1352    -1325 
   -1296    -1269    -1237    -1210    -1201    -1193    -1178    -1170 
   -1165    -1147    -1131    -1124    -1120    -1125    -1135    -1139 
   -1147    -1156    -1161    -1165    -1175    -1190    -1200    -1210 
   -1235    -1255    -1262    -1278    -1301    -1320    -1337    -1355 
   -1372    -1387    -1401    -1413    -1421    -1433    -1456    -1471 
   -1476    -1479    -1476    -1480    -1490    -1498    -1501    -1497 
   -1502    -1512    -1502    -1495    -1506    -1509    -1506    -1509 
   -1503    -1502    -1509    -1509    -1505    -1505    -1501    -1503 
   -1510    -1514    -1522    -1536    -1548    -1551    -1551    -1559 
   -1566    -1579    -1605    -1624    -1642    -1674    -1694    -1699 
   -1705    -1717    -1734    -1753    -1775    -1798    -1819    -1840 
   -1854    -1872    -1894    -1908    -1918    -1937    -1950    -1957 
   -1973    -1979    -1981    -1991    -1995    -1995    -1995    -1989 
   -1987    -1979    -1964    -1957    -1953    -1942    -1933    -1925 
   -1919    -1911    -1885    -1864    -1867    -1865    -1854    -1850 
   -1844    -1833    -1831    -1827    -1815    -1806    -1802    -1799 
   -1809    -1810    -1798    -1795    -1792    -1784    -1794    -1792 
   -1765    -1748    -1741    -1734    -1746    -1763    -1750    -1734 
   -1725    -1702    -1682    -1678    -1674    -1672    -1674    -1669 
   -1664    -1661    -1663    -1660    -1649    -1641    -1636    -1625 
   -1621    -1628    -1641    -1659    -1675    -1678    -1665    -1660 
   -1669    -1676    -1686    -1710    -1733    -1750    -1777    -1807 
   -1825    -1836    -1846    -1863    -1884    -1918    -1961    -1991 
   -2007    -2030    -2053    -2070    -2089    -2115    -2146    -2177 
   -2203    -2220    -2227    -2234    -2247    -2259    -2268    -2280 
   -2293    -2308    -2309    -2301    -2297    -2292    -2286    -2289 
   -2282    -2263    -2249    -2241    -2231    -2215    -2193    -2176 
   -2160    -2139    -2119    -2092    -2072    -2064    -2047    -2026 
   -2014    -1998    -1971    -1939    -1917    -1903    -1880    -1861 
   -1850    -1827    -1806    -1795    -1772    -1756    -1748    -1721 
   -1694    -1682    -1667    -1657    -1656    -1640    -1617    -1606 
   -1594    -1574    -1564    -1557    -1543    -1543    -1541    -1521 
   -1512    -1518    -1514    -1516    -1516    -1493    -1474    -1471 
   -1467    -1466    -1471    -1478    -1480    -1472    -1449    -1439 
   -1451    -1464    -1468    -1463    -1444    -1435    -1435    -1431 
   -1428    -1432    -1432    -1424    -1416    -1405    -1393    -1393 
   -1399    -1395    -1398    -1402    -1385    -1370    -1375    -1377 
   -1375    -1381    -1379    -1364    -1350    -1345    -1343    -1337 
   -1337    -1332    -1318    -1312    -1305    -1287    -1277    -1273 
   -1269    -1269    -1258    -1248    -1244    -1232    -1229    -1236 
   -1236    -1221    -1202    -1205    -1216    -1213    -1216    -1225 
   -1227    -1223    -1213    -1208    -1215    -1216    -1223    -1239 
   -1244    -1255    -1269    -1269    -1277    -1291    -1294    -1302 
