Origin Time       2025/01/13 21:19:00
Lat.              31.8
Long.             131.6
Depth. (km)       30
Mag.              6.9
Station Code      OSK008
Station Lat.      34.4404
Station Long.     135.3918
Station Height(m) 36
Record Time       2025/01/13 21:21:58
Sampling Freq(Hz) 100Hz
Duration Time(s)  60
Dir.              E-W
Scale Factor      7845(gal)/8223790
Max. Acc. (gal)   0.720
Last Correction   2025/01/13 21:21:59
Memo.             
[...]
     907      896      878      862      849      834      830      823 
     807      805      804      792      785      780      773      768 
     754      741      729      722      718      706      691      681 
     673      668      664      656      658      666      658      646 
     641      638      641      637      635      646      650      650 
     660      668      677      691      702      724      751      770 
     788      799      808      827      832      832      837      841 
     851      857      857      864      872      882      901      911 
     918      932      936      935      934      930      935      932 
     912      903      899      886      878      870      859      853 
     847      842      835      834      842      846      847      855 
     861      872      886      891      896      915      928      934 
     935      938      939      931      923      915      889      865 
     847      818      792      772      743      712      680      657 
     635      603      579      568      549      531      522      507 
     494      484      483      487      481      479      486      496 
     514      535      554      580      610      634      665      689 
     708      730      745      758      772      776      778      777 
     766      761      764      761      754      746      747      746 
     727      714      707      693      684      672      652      639 
     618      588      571      548      518      492      468      450 
     433      409      396      392      384      383      390      402 
     403      405      426      448      454      471      490      500 
     518      533      541      548      549      553      560      548 
     538      541      533      518      511      507      498      475 
     459      454      442      429      421      413      410      407 
     403      398      392      392      395      388      394      403 
     406      417      425      430      452      469      480      495 
     513      531      553      565      580      600      616      634 
     652      675      703      724      745      769      788      805 
     820      828      838      845      855      870      876      882 
     893      896      909      926      928      940      958      969 
     982      994     1003     1016     1031     1046     1063     1077 
    1092     1104     1113     1129     1142     1144     1151     1156 
    1159     1162     1159     1155     1147     1134     1128     1116 
    1094     1078     1061     1039     1019      996      982      961 
     928      920      913      884      861      845      828      819 
     803      789      785      766      751      747      729      708 
     699      681      665      653      638      621      606      598 
     585      568      560      549      534      535      533      518 
     514      507      496      492      486      475      467      463 
     468      461      453      464      468      464      469      475 
     487      500      503      513      525      530      538      544 
     546      560      572      583      591      592      606      625 
     635      650      665      673      683      689      696      706 
     712      722      726      722      727      731      729      729 
     720      704      702      696      684      672      657      656 
     656      645      642      643      642      648      646      645 
     652      656      665      673      670      676      685      693 
     703      706      704      707      706      706      700      688 
     689      697      689      675      666      664      660      646 
     630      608      583      561      531      492      465      440 
     405      376      342      310      288      267      240      216 
     191      171      152      125      102       81       62       48 
      32       16        4       -6       -9       -9       -8        0 
       2       14       37       54       74      105      133      172 
     221      260      306      356      406      460      517      573 
     630      684      743      800      847      899      951      997 
    1043     1078     1108     1146     1173     1193     1216     1231 
    1244     1255     1263     1273     1270     1262     1264     1262 
    1252     1247     1232     1216     1198     1174     1155     1134 
    1102     1077     1047     1013      988      962      940      923 
     899      882      870      853      847      845      832      828 
     826      826      831      837      847      857      859      878 
     897      904      919      930      936      953      965      970 
     976      984     1001     1013     1020     1036     1047     1053 
    1063     1069     1071     1082     1088     1089     1088     1084 
    1080     1070     1061     1055     1039     1020     1007      981 
     954      931      905      878      850      816      791      764 
     735      712      687      664      641      614      592      568 
     540      519      498      476      465      448      430      427 
     417      405      400      396      390      386      382      376 
     367      365      373      369      361      365      368      364 
     359      357      364      357      340      332      324      324 
     326      317      313      317      318      326      332      330 
     336      344      351      361      367      378      395      409 
     427      449      467      490      510      540      577      608 
     634      662      687      718      747      766      787      800 
     811      826      828      828      834      828      824      823 
     814      804      795      784      781      773      762      758 
     753      758      761      753      758      772      774      783 
     792      795      801      803      797      795      793      788 
     772      754      743      726      700      687      668      639 
     618      596      577      560      534      511      496      483 
     472      467      471      476      471      477      500      514 
     525      549      579      607      627      650      689      716 
     738      774      803      826      854      876      899      920 
     934      950      963      966      970      965      957      950 
     931      905      885      873      865      849      827      824 
     820      814      810      795      788      787      770      756 
     745      730      718      703      684      670      657      643 
     630      611      600      596      585      572      558      548 
     540      519      510      507      491      481      483      469 
     453      446      438      436      427      417      421      421 
     409      405      405      406      407      402      405      409 
     406      410      413      417      427      437      453      475 
     486      498      517      538      556      562      573      594 
     606      618      634      643      657      668      673      685 
     688      687      696      700      697      702      703      704 
     706      703      711      720      720      722      726      735 
     753      768      787      804      818      841      861      873 
     893      907      913      931      939      939      949      959 
     965      967      967      965      955      949      947      938 
     927      918      903      896      888      870      857      841 
     824      814      793      774      765      745      723      711 
     693      679      669      656      643      629      623      622 
     611      606      610      604      604      606      602      608 
     608      598      598      595      588      595      594      588 
     585      587      595      596      596      606      610      611 
     622      627      641      661      670      693      729      753 
     783      816      853      892      920      957     1003     1034 
    1063     1093     1112     1138     1158     1161     1163     1165 
    1166     1159     1138     1125     1116     1089     1061     1031 
     996      967      935      900      870      831      793      764 
     724      693      673      648      629      608      583      567 
     546      523      511      495      477      460      433      410 
     391      365      342      324      302      286      268      257 
     257      249      244      251      257      265      274      282 
     294      307      322      342      355      372      398      421 
     449      472      491      523      549      569      602      627 
     646      673      688      696      706      716      722      720 
     718      716      710      707      707      696      696      699 
     689      685      684      675      669      664      657      648 
     634      634      633      619      622      633      634      646 
     669      688      708      735      774      812      841      877 
     922      961     1004     1039     1065     1096     1123     1147 
    1171     1182     1196     1210     1209     1209     1204     1192 
    1183     1166     1143     1121     1092     1062     1032      994 
     963      934      896      868      834      796      769      741 
     706      677      648      623      599      572      554      534 
     506      491      477      461      446      427      421      421 
     407      406      411      407      413      419      421      432 
     441      448      460      475      492      500      502      526 
     548      545      550      572      589      588      583      604 
     631      631      635      658      677      695      706      715 
     737      757      772      780      787      804      822      822 
     824      830      831      831      822      810      799      780 
     758      731      696      668      637      599      565      531 
     492      459      422      390      365      338      315      297 
     280      267      248      238      247      244      241      251 
     259      270      279      282      291      299      307      324 
     332      337      352      361      369      380      387      400 
     414      418      430      444      453      469      476      480 
     490      495      506      515      514      522      529      529 
     538      545      546      552      549      548      549      545 
     544      537      526      527      529      522      519      518 
     518      525      530      540      552      564      585      604 
     622      650      679      706      738      773      820      861 
     891      938      985     1016     1063     1109     1146     1188 
    1221     1248     1279     1302     1327     1345     1356     1375 
    1391     1399     1404     1398     1391     1393     1389     1382 
    1367     1345     1332     1313     1289     1275     1252     1223 
    1197     1167     1144     1123     1081     1047     1026      999 
     973      943      911      891      865      839      819      793 
     770      749      727      718      706      689      685      669 
     654      656      648      637      629      618      621      614 
     591      583      573      557      556      550      537      527 
     517      507      498      492      495      486      477      483 
     480      484      496      494      496      514      523      526 
     529      534      546      545      540      544      538      526 
     514      491      472      448      411      390      368      338 
     311      287      272      261      238      230      226      216 
     221      232      226      232      249      264      278      292 
     310      330      349      373      392      406      430      454 
     468      483      499      521      544      557      572      587 
     603      622      630      638      658      668      673      688 
     702      716      727      737      758      778      793      810 
     826      846      873      886      896      919      939      954 
     962      969      990     1003     1000     1011     1017     1016 
    1026     1032     1034     1027     1021     1031     1034     1020 
    1015     1005      996      994      976      955      947      928 
     903      877      847      816      778      738      700      656 
     608      572      533      491      454      417      382      345 
     313      294      270      245      230      211      201      199 
     189      171      157      157      168      162      145      144 
     145      149      156      156      160      164      170      187 
     194      195      216      228      236      252      257      270 
     297      310      322      337      346      361      373      384 
     395      403      415      430      436      445      453      454 
     457      454      457      471      469      464      471      473 
     477      484      491      502      511      518      538      557 
     572      594      612      631      650      669      691      708 
     722      743      761      781      805      822      846      877 
     895      919      951      977     1009     1038     1059     1093 
    1127     1155     1185     1206     1239     1275     1297     1321 
    1350     1371     1387     1395     1408     1426     1425     1420 
    1425     1421     1410     1399     1385     1371     1347     1324 
    1310     1285     1259     1243     1215     1185     1158     1120 
    1093     1067     1035     1012      980      939      908      869 
     831      793      741      696      662      614      558      506 
     463      422      372      332      298      251      216      195 
     166      136      112       94       86       74       67       74 
      74       75       93      114      132      152      174      199 
     225      252      284      314      342      373      403      427 
     449      473      504      525      538      561      575      584 
     603      616      631      648      657      672      692      707 
     724      735      746      764      773      780      791      791 
     796      808      811      810      808      814      828      837 
     841      851      859      877      899      908      915      927 
     938      946      950      957      966      962      957      958 
     953      943      931      918      904      880      855      837 
     805      776      751      719      689      665      630      598 
     575      553      530      500      476      468      457      452 
     454      452      454      465      476      492      510      533 
     561      581      606      637      660      689      716      729 
     750      773      792      810      811      811      823      834 
     841      839      830      831      830      818      814      808 
     797      791      780      765      749      727      715      706 
     681      660      641      615      589      558      530      500 
     460      430      402      361      332      311      283      252 
     226      213      202      180      168      160      145      147 
     149      137      135      137      139      147      149      151 
     157      171      187      198      209      229      245      261 
     287      307      330      363      387      407      432      457 
     490      519      552      587      615      650      689      722 
     761      800      834      874      907      932      970      999 
    1013     1038     1065     1085     1093     1093     1105     1113 
    1108     1111     1113     1108     1107     1100     1090     1084 
    1071     1059     1044     1021     1009      996      967      942 
     923      900      876      843      812      787      758      735 
     716      691      669      649      630      622      614      606 
     604      607      621      635      641      660      688      708 
     738      768      789      815      845      876      903      919 
     945      974      990     1009     1024     1031     1040     1046 
    1046     1040     1023     1008      994      967      942      909 
     872      842      810      773      742      708      677      653 
     626      604      587      569      560      548      531      525 
     519      514      517      515      518      518      510      511 
     510      498      494      494      486      475      463      457 
     450      437      430      423      413      409      396      382 
     375      363      351      344      332      324      314      298 
     292      286      274      265      255      247      243      233 
     229      230      229      228      228      234      249      260 
     270      284      301      322      344      365      398      425 
     442      475      508      534      560      585      616      642 
     665      700      724      745      780      808      832      868 
     891      913      940      958      981     1001     1007     1024 
    1040     1048     1059     1062     1063     1070     1062     1051 
    1044     1031     1015     1000      984      973      954      930 
     911      891      874      857      828      810      792      766 
     753      738      712      699      689      676      670      669 
     664      658      654      657      656      653      660      660 
     660      668      665      662      672      677      683      684 
     675      677      680      672      672      670      665      664 
     658      657      661      658      657      658      658      654 
     646      645      649      643      637      633      621      614 
     612      602      599      599      594      594      589      581 
     588      596      594      592      592      595      599      598 
     596      585      579      580      569      553      548      545 
     538      526      513      504      494      486      483      469 
     456      453      444      438      438      427      419      421 
     425      422      414      419      433      430      430      441 
     444      452      469      483      494      498      502      519 
     540      553      568      581      600      619      633      650 
     664      681      712      734      749      774      796      814 
     839      862      884      903      918      936      954      967 
     988     1003     1015     1030     1042     1062     1080     1082 
    1094     1108     1113     1119     1123     1125     1128     1123 
    1121     1119     1104     1098     1096     1081     1075     1065 
    1047     1036     1023     1004      986      969      953      930 
     909      899      877      851      838      818      796      784 
     772      765      761      751      750      753      753      762 
     772      780      796      810      823      839      855      877 
     900      919      942      965      985     1008     1020     1038 
    1061     1066     1073     1086     1084     1081     1082     1074 
    1065     1054     1039     1026     1004      978      950      919 
     889      849      803      766      716      660      615      562 
