Origin Time       2025/01/13 21:19:00
Lat.              31.8
Long.             131.6
Depth. (km)       30
Mag.              6.9
Station Code      OSK003
Station Lat.      34.7668
Station Long.     135.4684
Station Height(m) 4
Record Time       2025/01/13 21:22:21
Sampling Freq(Hz) 100Hz
Duration Time(s)  71
Dir.              U-D
Scale Factor      7845(gal)/8223790
Max. Acc. (gal)   0.788
Last Correction   2025/01/13 21:22:22
Memo.             
[...]
   -6934    -6924    -6917    -6913    -6909    -6901    -6893    -6885 
   -6878    -6879    -6887    -6897    -6897    -6890    -6890    -6891 
   -6887    -6891    -6902    -6910    -6913    -6913    -6913    -6917 
   -6926    -6929    -6926    -6922    -6918    -6914    -6917    -6924 
   -6928    -6924    -6912    -6902    -6902    -6898    -6889    -6885 
   -6880    -6870    -6860    -6849    -6835    -6829    -6831    -6825 
   -6810    -6790    -6768    -6751    -6743    -6739    -6735    -6735 
   -6731    -6710    -6693    -6689    -6683    -6677    -6675    -6669 
   -6662    -6651    -6635    -6628    -6627    -6616    -6600    -6594 
   -6594    -6589    -6589    -6592    -6574    -6548    -6532    -6527 
   -6521    -6511    -6504    -6502    -6497    -6490    -6481    -6470 
   -6461    -6450    -6439    -6436    -6428    -6426    -6427    -6420 
   -6415    -6413    -6408    -6407    -6405    -6404    -6408    -6419 
   -6427    -6431    -6431    -6438    -6450    -6455    -6454    -6457 
   -6462    -6469    -6481    -6489    -6493    -6500    -6516    -6528 
   -6536    -6546    -6556    -6573    -6594    -6609    -6621    -6633 
   -6642    -6646    -6658    -6670    -6678    -6691    -6709    -6721 
   -6725    -6729    -6731    -6733    -6740    -6748    -6756    -6755 
   -6750    -6756    -6763    -6764    -6766    -6767    -6768    -6771 
   -6770    -6767    -6772    -6775    -6767    -6766    -6771    -6771 
   -6766    -6763    -6763    -6766    -6764    -6764    -6763    -6752 
   -6741    -6739    -6739    -6741    -6755    -6760    -6758    -6754 
   -6745    -6751    -6770    -6774    -6771    -6777    -6786    -6795 
   -6805    -6817    -6837    -6849    -6848    -6859    -6882    -6899 
   -6918    -6937    -6945    -6951    -6966    -6983    -6995    -7013 
   -7025    -7028    -7044    -7063    -7075    -7091    -7106    -7117 
   -7130    -7142    -7153    -7169    -7184    -7198    -7207    -7214 
   -7217    -7218    -7218    -7221    -7226    -7230    -7230    -7225 
   -7209    -7200    -7213    -7218    -7204    -7191    -7175    -7163 
   -7161    -7153    -7142    -7132    -7113    -7091    -7072    -7053 
   -7032    -7015    -6997    -6961    -6934    -6930    -6916    -6887 
   -6867    -6843    -6821    -6806    -6782    -6754    -6732    -6718 
   -6705    -6687    -6670    -6648    -6635    -6627    -6616    -6612 
   -6598    -6573    -6554    -6547    -6536    -6527    -6523    -6525 
   -6523    -6515    -6508    -6504    -6504    -6509    -6515    -6521 
   -6534    -6539    -6542    -6551    -6562    -6571    -6586    -6602 
   -6613    -6619    -6625    -6635    -6647    -6662    -6683    -6704 
   -6714    -6721    -6731    -6733    -6737    -6750    -6763    -6778 
   -6787    -6789    -6787    -6789    -6794    -6791    -6787    -6798 
   -6805    -6797    -6791    -6787    -6782    -6781    -6779    -6770 
   -6763    -6759    -6755    -6756    -6758    -6755    -6750    -6743 
   -6731    -6728    -6733    -6737    -6744    -6750    -6743    -6733 
   -6740    -6747    -6750    -6758    -6762    -6760    -6766    -6772 
   -6778    -6789    -6799    -6798    -6798    -6816    -6829    -6826 
   -6833    -6852    -6859    -6864    -6882    -6894    -6893    -6893 
   -6893    -6878    -6868    -6876    -6883    -6885    -6898    -6901 
   -6886    -6883    -6891    -6885    -6878    -6885    -6889    -6882 
   -6868    -6859    -6858    -6851    -6841    -6843    -6849    -6847 
   -6844    -6851    -6863    -6867    -6862    -6855    -6845    -6836 
   -6831    -6828    -6829    -6833    -6836    -6844    -6853    -6855 
   -6851    -6845    -6837    -6835    -6841    -6849    -6856    -6860 
   -6851    -6839    -6832    -6826    -6825    -6832    -6837    -6836 
   -6837    -6845    -6844    -6841    -6851    -6851    -6844    -6847 
   -6843    -6840    -6847    -6845    -6839    -6844    -6845    -6836 
   -6839    -6845    -6844    -6847    -6847    -6841    -6841    -6839 
   -6835    -6835    -6832    -6825    -6818    -6808    -6791    -6785 
   -6779    -6779    -6777    -6763    -6754    -6745    -6727    -6717 
   -6716    -6704    -6693    -6691    -6685    -6674    -6664    -6655 
   -6650    -6642    -6627    -6606    -6594    -6583    -6573    -6574 
   -6578    -6574    -6566    -6556    -6556    -6558    -6550    -6544 
   -6546    -6538    -6525    -6527    -6529    -6524    -6521    -6524 
   -6529    -6538    -6539    -6539    -6544    -6544    -6547    -6561 
   -6573    -6569    -6566    -6573    -6570    -6562    -6563    -6565 
   -6570    -6575    -6575    -6577    -6579    -6578    -6571    -6565 
   -6566    -6569    -6569    -6575    -6578    -6571    -6563    -6561 
   -6552    -6550    -6556    -6559    -6559    -6563    -6567    -6567 
   -6567    -6567    -6567    -6566    -6566    -6574    -6589    -6601 
   -6606    -6608    -6610    -6623    -6636    -6647    -6662    -6670 
   -6671    -6675    -6679    -6677    -6682    -6704    -6723    -6735 
   -6744    -6745    -6740    -6745    -6755    -6750    -6747    -6756 
   -6764    -6771    -6782    -6790    -6791    -6794    -6802    -6816 
   -6828    -6833    -6826    -6821    -6825    -6826    -6821    -6821 
   -6818    -6812    -6817    -6831    -6837    -6833    -6831    -6829 
   -6824    -6821    -6822    -6822    -6818    -6818    -6816    -6806 
   -6805    -6813    -6810    -6808    -6812    -6808    -6795    -6790 
   -6787    -6786    -6783    -6785    -6791    -6794    -6801    -6814 
   -6812    -6804    -6804    -6795    -6786    -6786    -6790    -6804 
   -6812    -6806    -6801    -6801    -6808    -6816    -6813    -6808 
   -6806    -6810    -6824    -6840    -6847    -6845    -6843    -6844 
   -6849    -6860    -6872    -6878    -6887    -6901    -6912    -6921 
   -6934    -6948    -6960    -6970    -6978    -6993    -7009    -7018 
   -7028    -7038    -7037    -7036    -7047    -7048    -7040    -7041 
   -7053    -7064    -7074    -7084    -7083    -7067    -7056    -7059 
   -7057    -7057    -7061    -7059    -7052    -7042    -7042    -7048 
   -7042    -7028    -7013    -6999    -6990    -6988    -6993    -6993 
   -6983    -6978    -6984    -6990    -6983    -6968    -6952    -6941 
   -6936    -6921    -6905    -6901    -6902    -6898    -6883    -6863 
   -6845    -6833    -6821    -6808    -6797    -6777    -6745    -6720 
   -6702    -6687    -6670    -6651    -6631    -6608    -6579    -6556 
   -6539    -6513    -6486    -6474    -6459    -6431    -6408    -6394 
   -6377    -6350    -6331    -6322    -6301    -6269    -6247    -6241 
   -6239    -6235    -6226    -6208    -6187    -6165    -6153    -6156 
   -6164    -6165    -6154    -6135    -6122    -6111    -6107    -6116 
   -6133    -6141    -6139    -6134    -6130    -6126    -6123    -6135 
   -6153    -6162    -6168    -6174    -6192    -6210    -6222    -6241 
   -6265    -6281    -6293    -6305    -6312    -6332    -6378    -6432 
   -6473    -6496    -6511    -6527    -6551    -6592    -6644    -6691 
   -6729    -6755    -6770    -6791    -6828    -6872    -6918    -6967 
   -7003    -7029    -7053    -7071    -7091    -7133    -7179    -7213 
   -7234    -7245    -7257    -7276    -7298    -7323    -7350    -7366 
   -7369    -7375    -7381    -7380    -7380    -7395    -7411    -7420 
   -7423    -7415    -7398    -7387    -7389    -7406    -7415    -7412 
   -7406    -7395    -7375    -7356    -7346    -7344    -7341    -7334 
   -7322    -7300    -7277    -7257    -7241    -7238    -7241    -7230 
   -7218    -7204    -7176    -7150    -7142    -7145    -7145    -7132 
   -7113    -7101    -7091    -7076    -7061    -7048    -7032    -7024 
   -7025    -7015    -6994    -6976    -6953    -6928    -6914    -6906 
   -6899    -6895    -6886    -6876    -6866    -6839    -6816    -6814 
   -6814    -6805    -6795    -6786    -6777    -6766    -6751    -6743 
   -6739    -6736    -6744    -6745    -6725    -6704    -6693    -6687 
   -6685    -6689    -6698    -6702    -6702    -6702    -6694    -6686 
   -6686    -6689    -6689    -6687    -6683    -6681    -6678    -6678 
   -6678    -6677    -6663    -6648    -6647    -6652    -6652    -6648 
   -6643    -6629    -6609    -6592    -6586    -6593    -6600    -6602 
   -6594    -6569    -6540    -6529    -6540    -6555    -6563    -6561 
   -6540    -6516    -6505    -6508    -6513    -6520    -6523    -6513 
   -6493    -6478    -6471    -6477    -6489    -6490    -6477    -6467 
   -6470    -6478    -6481    -6475    -6465    -6454    -6446    -6438 
   -6432    -6439    -6462    -6474    -6469    -6459    -6454    -6458 
   -6471    -6484    -6488    -6478    -6466    -6463    -6475    -6494 
   -6513    -6525    -6532    -6532    -6531    -6540    -6550    -6550 
   -6554    -6563    -6565    -6565    -6573    -6592    -6616    -6639 
   -6647    -6650    -6651    -6637    -6616    -6605    -6600    -6602 
   -6627    -6650    -6652    -6644    -6627    -6604    -6604    -6617 
   -6625    -6636    -6643    -6639    -6636    -6639    -6644    -6652 
   -6669    -6691    -6704    -6706    -6712    -6718    -6728    -6745 
   -6764    -6782    -6797    -6817    -6841    -6864    -6876    -6879 
   -6880    -6887    -6899    -6925    -6959    -6987    -7003    -7010 
   -7011    -7010    -7018    -7042    -7086    -7128    -7149    -7153 
   -7136    -7103    -7099    -7129    -7160    -7190    -7210    -7217 
   -7222    -7229    -7233    -7242    -7257    -7265    -7260    -7246 
   -7242    -7253    -7263    -7258    -7254    -7258    -7264    -7265 
   -7264    -7260    -7248    -7233    -7226    -7217    -7195    -7165 
   -7133    -7107    -7099    -7091    -7068    -7042    -7018    -6983 
   -6951    -6937    -6914    -6876    -6844    -6825    -6808    -6791 
   -6777    -6764    -6740    -6702    -6671    -6648    -6635    -6639 
   -6646    -6636    -6620    -6596    -6562    -6544    -6554    -6566 
   -6573    -6579    -6577    -6562    -6550    -6548    -6550    -6548 
   -6551    -6563    -6573    -6570    -6573    -6588    -6592    -6573 
   -6562    -6578    -6602    -6623    -6627    -6613    -6601    -6592 
   -6581    -6589    -6612    -6621    -6619    -6615    -6608    -6604 
   -6620    -6640    -6635    -6617    -6604    -6583    -6569    -6575 
   -6594    -6606    -6613    -6613    -6605    -6601    -6601    -6600 
   -6602    -6615    -6627    -6633    -6636    -6640    -6644    -6642 
   -6639    -6650    -6670    -6689    -6704    -6713    -6728    -6741 
   -6743    -6743    -6762    -6783    -6801    -6824    -6840    -6843 
   -6844    -6847    -6853    -6867    -6879    -6889    -6905    -6924 
   -6932    -6945    -6961    -6963    -6957    -6952    -6952    -6967 
   -6990    -7006    -7021    -7028    -7026    -7033    -7045    -7056 
   -7063    -7067    -7072    -7086    -7091    -7095    -7114    -7137 
   -7149    -7156    -7155    -7148    -7150    -7163    -7179    -7192 
   -7196    -7196    -7199    -7203    -7210    -7218    -7218    -7211 
   -7204    -7195    -7184    -7183    -7187    -7187    -7186    -7179 
   -7164    -7161    -7167    -7153    -7134    -7123    -7109    -7094 
   -7080    -7065    -7052    -7038    -7026    -7024    -7014    -6994 
   -6976    -6957    -6939    -6925    -6914    -6906    -6898    -6885 
   -6874    -6868    -6859    -6845    -6839    -6836    -6829    -6817 
   -6806    -6797    -6783    -6771    -6759    -6745    -6741    -6736 
   -6725    -6718    -6708    -6683    -6664    -6651    -6629    -6616 
   -6617    -6610    -6592    -6581    -6567    -6548    -6539    -6524 
   -6502    -6493    -6484    -6467    -6459    -6450    -6430    -6413 
   -6405    -6393    -6385    -6386    -6388    -6385    -6381    -6372 
   -6361    -6345    -6330    -6322    -6315    -6311    -6309    -6311 
   -6309    -6307    -6305    -6309    -6318    -6320    -6312    -6308 
   -6312    -6313    -6319    -6338    -6357    -6361    -6367    -6374 
   -6369    -6367    -6370    -6374    -6384    -6394    -6404    -6421 
   -6442    -6451    -6448    -6455    -6474    -6489    -6501    -6525 
   -6547    -6558    -6565    -6578    -6597    -6623    -6654    -6678 
   -6698    -6717    -6731    -6748    -6778    -6805    -6828    -6853 
   -6883    -6910    -6937    -6971    -6999    -7010    -7024    -7051 
   -7075    -7094    -7119    -7146    -7175    -7207    -7229    -7246 
   -7271    -7295    -7318    -7338    -7354    -7372    -7389    -7408 
   -7425    -7435    -7445    -7450    -7452    -7453    -7454    -7465 
   -7476    -7481    -7487    -7487    -7484    -7487    -7485    -7477 
   -7476    -7473    -7468    -7461    -7453    -7439    -7427    -7415 
   -7400    -7383    -7373    -7365    -7349    -7331    -7314    -7299 
   -7285    -7268    -7250    -7233    -7207    -7182    -7167    -7150 
   -7133    -7115    -7094    -7074    -7053    -7032    -7014    -6995 
   -6972    -6955    -6941    -6924    -6906    -6891    -6875    -6858 
   -6832    -6799    -6775    -6763    -6754    -6745    -6741    -6732 
   -6712    -6689    -6664    -6643    -6633    -6625    -6612    -6608 
   -6594    -6566    -6547    -6529    -6509    -6502    -6494    -6484 
   -6477    -6466    -6444    -6423    -6397    -6376    -6365    -6350 
   -6328    -6313    -6296    -6274    -6259    -6245    -6223    -6203 
   -6192    -6180    -6164    -6146    -6124    -6108    -6091    -6061 
   -6037    -6030    -6026    -6016    -6002    -5987    -5975    -5967 
   -5967    -5969    -5965    -5956    -5952    -5957    -5969    -5980 
   -5994    -6004    -6014    -6018    -6016    -6027    -6049    -6068 
   -6091    -6116    -6135    -6150    -6165    -6180    -6205    -6241 
   -6276    -6307    -6340    -6370    -6394    -6423    -6453    -6474 
   -6504    -6538    -6577    -6628    -6675    -6710    -6747    -6772 
   -6794    -6826    -6853    -6882    -6918    -6952    -6987    -7021 
   -7047    -7069    -7094    -7125    -7157    -7184    -7209    -7236 
   -7268    -7292    -7310    -7335    -7361    -7384    -7408    -7426 
   -7445    -7460    -7466    -7479    -7493    -7503    -7519    -7534 
   -7541    -7547    -7543    -7542    -7557    -7564    -7568    -7578 
   -7572    -7566    -7568    -7558    -7551    -7543    -7520    -7508 
   -7497    -7477    -7465    -7452    -7431    -7416    -7396    -7371 
   -7350    -7322    -7296    -7275    -7249    -7226    -7209    -7183 
   -7146    -7110    -7087    -7067    -7047    -7026    -7002    -6970 
   -6936    -6917    -6903    -6890    -6870    -6832    -6795    -6777 
   -6760    -6747    -6736    -6717    -6700    -6678    -6658    -6644 
   -6627    -6610    -6602    -6590    -6573    -6556    -6544    -6534 
   -6519    -6504    -6500    -6492    -6474    -6455    -6442    -6435 
   -6430    -6435    -6446    -6440    -6434    -6434    -6420    -6412 
   -6419    -6420    -6420    -6427    -6438    -6453    -6458    -6458 
   -6463    -6470    -6477    -6492    -6508    -6515    -6516    -6521 
   -6534    -6546    -6555    -6562    -6573    -6579    -6585    -6596 
   -6615    -6633    -6633    -6619    -6610    -6616    -6621    -6624 
   -6632    -6636    -6624    -6615    -6610    -6605    -6604    -6601 
   -6596    -6600    -6604    -6596    -6581    -6574    -6569    -6558 
   -6551    -6547    -6539    -6531    -6527    -6523    -6512    -6502 
   -6493    -6484    -6485    -6480    -6469    -6470    -6473    -6469 
   -6469    -6465    -6461    -6459    -6459    -6465    -6475    -6482 
   -6488    -6496    -6509    -6523    -6536    -6548    -6563    -6571 
   -6582    -6600    -6612    -6620    -6640    -6659    -6670    -6683 
   -6701    -6718    -6740    -6760    -6777    -6794    -6817    -6840 
   -6855    -6868    -6879    -6898    -6925    -6948    -6960    -6974 
   -6995    -7010    -7017    -7034    -7053    -7061    -7071    -7082 
   -7091    -7111    -7125    -7126    -7130    -7133    -7133    -7134 
   -7138    -7145    -7155    -7160    -7160    -7155    -7148    -7145 
   -7150    -7148    -7136    -7138    -7145    -7132    -7115    -7110 
   -7103    -7106    -7109    -7099    -7095    -7091    -7068    -7053 
   -7057    -7053    -7038    -7028    -7018    -6998    -6980    -6978 
   -6975    -6968    -6966    -6961    -6945    -6928    -6925    -6924 
   -6914    -6899    -6887    -6875    -6860    -6851    -6841    -6825 
   -6821    -6822    -6806    -6782    -6764    -6751    -6743    -6737 
   -6728    -6714    -6693    -6663    -6639    -6631    -6625    -6620 
   -6617    -6609    -6590    -6571    -6554    -6532    -6519    -6516 
   -6517    -6529    -6532    -6515    -6488    -6465    -6450    -6444 
   -6448    -6463    -6475    -6467    -6450    -6442    -6443    -6440 
   -6430    -6409    -6392    -6382    -6386    -6409    -6439    -6459 
   -6461    -6442    -6416    -6386    -6362    -6369    -6405    -6440 
   -6459    -6459    -6446    -6431    -6420    -6420    -6424    -6424 
   -6428    -6444    -6463    -6482    -6502    -6517    -6519    -6508 
   -6497    -6498    -6516    -6547    -6579    -6605    -6631    -6651 
   -6663    -6674    -6685    -6697    -6708    -6721    -6743    -6771 
   -6794    -6820    -6845    -6853    -6859    -6876    -6883    -6886 
   -6907    -6929    -6937    -6947    -6955    -6955    -6961    -6976 
   -6988    -6998    -7007    -7010    -7003    -6995    -6994    -6999 
   -7014    -7029    -7026    -7013    -7001    -6997    -6995    -6990 
   -6988    -6991    -6982    -6971    -6970    -6960    -6947    -6949 
   -6949    -6936    -6922    -6909    -6893    -6886    -6893    -6901 
   -6903    -6894    -6882    -6880    -6876    -6867    -6868    -6875 
   -6874    -6866    -6864    -6870    -6870    -6863    -6859    -6855 
   -6847    -6849    -6855    -6858    -6864    -6862    -6844    -6828 
   -6825    -6824    -6825    -6841    -6853    -6853    -6851    -6841 
   -6829    -6822    -6822    -6837    -6852    -6851    -6845    -6837 
   -6825    -6822    -6820    -6820    -6821    -6808    -6797    -6805 
   -6810    -6809    -6812    -6813    -6804    -6786    -6766    -6754 
   -6750    -6751    -6748    -6737    -6727    -6713    -6694    -6687 
   -6696    -6697    -6690    -6683    -6667    -6652    -6648    -6646 
   -6640    -6633    -6616    -6600    -6596    -6592    -6586    -6586 
   -6585    -6585    -6585    -6582    -6575    -6556    -6543    -6550 
   -6558    -6556    -6551    -6543    -6536    -6534    -6540    -6555 
   -6558    -6554    -6554    -6555    -6559    -6563    -6565    -6566 
   -6565    -6570    -6586    -6598    -6596    -6590    -6589    -6593 
   -6600    -6610    -6631    -6640    -6636    -6635    -6636    -6640 
   -6656    -6670    -6670    -6670    -6664    -6652    -6664    -6686 
   -6697    -6708    -6720    -6716    -6704    -6702    -6712    -6716 
   -6723    -6731    -6727    -6720    -6717    -6717    -6727    -6744 
   -6752    -6743    -6731    -6724    -6720    -6720    -6731    -6737 
   -6732    -6727    -6725    -6721    -6727    -6741    -6740    -6725 
   -6716    -6712    -6708    -6709    -6718    -6724    -6720    -6724 
   -6728    -6723    -6723    -6731    -6732    -6729    -6732    -6736 
   -6737    -6741    -6744    -6751    -6768    -6778    -6778    -6786 
   -6806    -6825    -6835    -6840    -6844    -6849    -6859    -6878 
