Origin Time       2025/01/13 21:19:00
Lat.              31.8
Long.             131.6
Depth. (km)       30
Mag.              6.9
Station Code      SAG006
Station Lat.      33.1917
Station Long.     130.0317
Station Height(m) 9
Record Time       2025/01/13 21:20:46
Sampling Freq(Hz) 100Hz
Duration Time(s)  60
Dir.              E-W
Scale Factor      7845(gal)/8223790
Max. Acc. (gal)   1.709
Last Correction   2025/01/13 21:20:47
Memo.             
[...]
   -1998    -2066    -2124    -2174    -2223    -2276    -2331    -2380 
   -2411    -2430    -2447    -2461    -2469    -2477    -2481    -2475 
   -2454    -2421    -2390    -2373    -2369    -2367    -2363    -2359 
   -2365    -2378    -2393    -2401    -2397    -2394    -2393    -2371 
   -2330    -2286    -2250    -2220    -2199    -2173    -2139    -2110 
   -2091    -2083    -2079    -2072    -2065    -2065    -2066    -2069 
   -2072    -2072    -2065    -2060    -2062    -2076    -2089    -2104 
   -2124    -2151    -2177    -2189    -2189    -2180    -2160    -2126 
   -2080    -2041    -2007    -1973    -1942    -1919    -1907    -1906 
   -1907    -1898    -1879    -1846    -1803    -1761    -1722    -1675 
   -1622    -1574    -1525    -1483    -1448    -1418    -1393    -1375 
   -1367    -1371    -1383    -1391    -1397    -1402    -1409    -1418 
   -1431    -1443    -1463    -1490    -1517    -1533    -1537    -1536 
   -1526    -1506    -1480    -1456    -1425    -1393    -1358    -1317 
   -1285    -1267    -1252    -1236    -1224    -1215    -1202    -1179 
   -1144    -1101    -1058    -1021     -985     -946     -908     -870 
    -843     -835     -837     -845     -859     -880     -903     -931 
    -963     -993    -1016    -1027    -1035    -1040    -1030    -1012 
   -1000     -990     -986     -988     -984     -981     -990     -996 
    -996    -1003    -1013    -1019    -1021    -1021    -1021    -1032 
   -1059    -1090    -1125    -1175    -1237    -1297    -1360    -1432 
   -1503    -1570    -1633    -1694    -1749    -1784    -1796    -1787 
   -1769    -1756    -1749    -1740    -1721    -1692    -1657    -1625 
   -1598    -1560    -1509    -1452    -1394    -1347    -1321    -1313 
   -1317    -1332    -1355    -1386    -1421    -1458    -1486    -1498 
   -1495    -1483    -1463    -1429    -1394    -1362    -1325    -1289 
   -1263    -1246    -1233    -1225    -1224    -1232    -1250    -1278 
   -1312    -1343    -1372    -1404    -1432    -1451    -1453    -1437 
   -1413    -1397    -1385    -1377    -1374    -1378    -1393    -1418 
   -1448    -1480    -1509    -1532    -1564    -1614    -1671    -1726 
   -1776    -1821    -1865    -1914    -1962    -2007    -2050    -2097 
   -2147    -2189    -2222    -2245    -2265    -2296    -2335    -2373 
   -2404    -2427    -2447    -2466    -2488    -2506    -2512    -2501 
   -2479    -2448    -2408    -2363    -2305    -2234    -2154    -2074 
   -2004    -1949    -1899    -1852    -1813    -1787    -1775    -1775 
   -1776    -1777    -1787    -1813    -1848    -1887    -1922    -1950 
   -1983    -2026    -2070    -2110    -2139    -2161    -2180    -2197 
   -2216    -2238    -2255    -2262    -2263    -2268    -2272    -2269 
   -2266    -2258    -2232    -2185    -2128    -2069    -2006    -1939 
   -1872    -1809    -1752    -1699    -1652    -1613    -1574    -1533 
   -1497    -1467    -1445    -1431    -1418    -1406    -1391    -1377 
   -1367    -1368    -1381    -1399    -1417    -1433    -1452    -1476 
   -1505    -1533    -1553    -1571    -1594    -1624    -1661    -1698 
   -1733    -1767    -1795    -1819    -1849    -1877    -1903    -1923 
   -1937    -1950    -1968    -1979    -1979    -1972    -1956    -1930 
   -1899    -1864    -1822    -1772    -1722    -1678    -1638    -1610 
   -1587    -1563    -1534    -1507    -1483    -1462    -1447    -1447 
   -1459    -1485    -1516    -1553    -1609    -1678    -1750    -1825 
   -1898    -1975    -2056    -2130    -2196    -2253    -2293    -2317 
   -2328    -2330    -2328    -2317    -2295    -2268    -2236    -2197 
   -2157    -2128    -2110    -2097    -2099    -2112    -2133    -2154 
   -2178    -2204    -2236    -2263    -2281    -2286    -2285    -2284 
   -2273    -2251    -2215    -2166    -2110    -2046    -1973    -1898 
   -1826    -1756    -1687    -1626    -1575    -1530    -1499    -1476 
   -1451    -1426    -1399    -1363    -1327    -1291    -1262    -1237 
   -1212    -1182    -1154    -1128    -1108    -1090    -1077    -1071 
   -1069    -1063    -1059    -1061    -1069    -1080    -1081    -1070 
   -1055    -1030    -1000     -972     -945     -920     -900     -885 
    -873     -862     -853     -841     -826     -815     -818     -820 
    -812     -801     -800     -811     -826     -845     -862     -881 
    -912     -951     -993    -1039    -1084    -1120    -1151    -1188 
   -1224    -1252    -1273    -1289    -1306    -1331    -1359    -1379 
   -1391    -1394    -1395    -1402    -1399    -1374    -1327    -1270 
   -1210    -1152    -1100    -1051    -1007     -982     -980     -990 
   -1012    -1053    -1127    -1232    -1337    -1431    -1516    -1598 
   -1667    -1723    -1777    -1822    -1860    -1900    -1937    -1957 
   -1975    -1996    -2014    -2016    -2014    -2030    -2058    -2076 
   -2083    -2080    -2081    -2095    -2114    -2128    -2135    -2134 
   -2124    -2104    -2076    -2039    -1998    -1952    -1903    -1853 
   -1798    -1744    -1691    -1642    -1599    -1570    -1552    -1532 
   -1505    -1479    -1455    -1420    -1378    -1344    -1314    -1293 
   -1285    -1281    -1281    -1301    -1344    -1413    -1497    -1583 
   -1668    -1749    -1826    -1894    -1958    -2035    -2110    -2162 
   -2199    -2231    -2259    -2282    -2305    -2324    -2336    -2343 
   -2355    -2363    -2362    -2358    -2350    -2338    -2327    -2307 
   -2276    -2250    -2228    -2196    -2155    -2118    -2073    -2022 
   -1976    -1929    -1880    -1836    -1795    -1768    -1753    -1738 
   -1728    -1721    -1711    -1709    -1709    -1694    -1680    -1678 
   -1675    -1663    -1638    -1610    -1591    -1579    -1557    -1528 
   -1505    -1489    -1485    -1495    -1512    -1526    -1540    -1549 
   -1552    -1549    -1540    -1525    -1513    -1501    -1485    -1471 
   -1456    -1437    -1420    -1409    -1409    -1417    -1428    -1441 
   -1456    -1478    -1503    -1529    -1563    -1598    -1626    -1655 
   -1679    -1698    -1715    -1726    -1734    -1737    -1730    -1713 
   -1690    -1663    -1633    -1598    -1556    -1514    -1480    -1460 
   -1444    -1422    -1397    -1368    -1348    -1337    -1329    -1325 
   -1324    -1328    -1335    -1339    -1335    -1324    -1313    -1301 
   -1287    -1274    -1263    -1256    -1250    -1239    -1233    -1240 
   -1251    -1270    -1297    -1321    -1348    -1381    -1409    -1436 
   -1462    -1479    -1490    -1490    -1475    -1456    -1431    -1394 
   -1355    -1314    -1273    -1235    -1209    -1193    -1175    -1156 
   -1148    -1151    -1154    -1156    -1167    -1182    -1204    -1237 
   -1271    -1308    -1358    -1410    -1460    -1514    -1574    -1641 
   -1717    -1784    -1845    -1906    -1960    -2000    -2038    -2079 
   -2122    -2172    -2226    -2278    -2327    -2369    -2400    -2424 
   -2436    -2431    -2412    -2386    -2354    -2312    -2262    -2204 
   -2139    -2074    -2012    -1953    -1894    -1834    -1782    -1737 
   -1707    -1694    -1690    -1698    -1718    -1748    -1782    -1823 
   -1872    -1921    -1968    -2011    -2056    -2091    -2112    -2127 
   -2131    -2123    -2114    -2100    -2073    -2046    -2022    -1998 
   -1991    -1988    -1979    -1973    -1975    -1977    -1985    -2006 
   -2031    -2056    -2080    -2099    -2111    -2119    -2114    -2093 
   -2066    -2033    -1998    -1972    -1941    -1904    -1873    -1846 
   -1825    -1811    -1810    -1814    -1823    -1837    -1853    -1867 
   -1879    -1892    -1926    -1971    -2000    -2022    -2035    -2023 
   -2010    -2000    -1965    -1911    -1871    -1837    -1794    -1734 
   -1671    -1622    -1580    -1529    -1471    -1401    -1309    -1212 
   -1123    -1026     -907     -784     -670     -562     -461     -375 
    -313     -263     -213     -175     -163     -167     -184     -232 
    -298     -356     -394     -426     -460     -496     -531     -561 
    -588     -621     -654     -693     -749     -800     -838     -899 
   -1001    -1109    -1200    -1293    -1391    -1485    -1575    -1669 
   -1769    -1873    -1968    -2042    -2089    -2124    -2164    -2188 
   -2185    -2165    -2127    -2087    -2054    -2016    -1969    -1922 
   -1896    -1890    -1869    -1842    -1838    -1857    -1885    -1918 
   -1956    -1998    -2034    -2072    -2122    -2162    -2196    -2236 
   -2273    -2307    -2330    -2330    -2327    -2331    -2334    -2327 
   -2297    -2251    -2204    -2160    -2122    -2084    -2042    -2007 
   -1975    -1925    -1869    -1831    -1806    -1782    -1757    -1722 
   -1667    -1599    -1534    -1475    -1413    -1360    -1318    -1260 
   -1181    -1101    -1036     -990     -962     -928     -866     -787 
    -741     -750     -777     -788     -788     -797     -832     -885 
    -934     -984    -1055    -1144    -1231    -1308    -1370    -1440 
   -1551    -1672    -1749    -1795    -1864    -1958    -2046    -2099 
   -2134    -2188    -2234    -2247    -2272    -2300    -2278    -2254 
   -2265    -2243    -2182    -2162    -2185    -2184    -2138    -2085 
   -2070    -2081    -2060    -2031    -2041    -2039    -2012    -2007 
   -2010    -1989    -1983    -2007    -2003    -1960    -1925    -1912 
   -1925    -1933    -1919    -1914    -1923    -1931    -1938    -1934 
   -1923    -1931    -1945    -1930    -1902    -1891    -1902    -1915 
   -1922    -1930    -1952    -1972    -1988    -2004    -2012    -2018 
   -2034    -2049    -2033    -1996    -1980    -1981    -1976    -1956 
   -1931    -1912    -1894    -1871    -1848    -1826    -1799    -1772 
   -1757    -1746    -1729    -1726    -1738    -1732    -1701    -1679 
   -1680    -1687    -1671    -1636    -1603    -1561    -1509    -1472 
   -1445    -1408    -1377    -1364    -1341    -1305    -1279    -1271 
   -1270    -1255    -1209    -1154    -1113    -1080    -1053    -1030 
    -994     -959     -938     -928     -931     -930     -908     -891 
    -891     -891     -878     -859     -839     -828     -827     -820 
    -804     -777     -756     -753     -770     -800     -828     -857 
    -903     -970    -1038    -1094    -1144    -1179    -1189    -1194 
   -1192    -1166    -1138    -1125    -1112    -1075    -1039    -1035 
   -1043    -1036    -1043    -1073    -1112    -1150    -1186    -1223 
   -1258    -1302    -1359    -1408    -1443    -1483    -1544    -1611 
   -1655    -1676    -1711    -1757    -1783    -1784    -1775    -1757 
   -1748    -1748    -1741    -1732    -1730    -1740    -1753    -1767 
   -1787    -1813    -1834    -1860    -1890    -1925    -1968    -2008 
   -2045    -2080    -2116    -2170    -2242    -2305    -2353    -2404 
   -2467    -2528    -2579    -2624    -2668    -2710    -2745    -2783 
   -2824    -2860    -2901    -2947    -2984    -3013    -3030    -3036 
   -3030    -3024    -3007    -2984    -2955    -2921    -2905    -2897 
   -2878    -2857    -2835    -2802    -2764    -2729    -2693    -2658 
   -2624    -2592    -2562    -2529    -2493    -2452    -2400    -2330 
   -2251    -2166    -2069    -1966    -1861    -1755    -1649    -1547 
   -1441    -1340    -1250    -1171    -1109    -1061    -1017     -981 
    -953     -935     -928     -924     -923     -919     -912     -908 
    -899     -877     -850     -818     -776     -727     -673     -615 
    -558     -502     -444     -390     -346     -309     -275     -245 
    -218     -195     -183     -179     -183     -198     -224     -259 
    -303     -346     -390     -438     -491     -545     -600     -653 
    -702     -737     -766     -797     -824     -853     -885     -916 
    -953     -997    -1042    -1089    -1140    -1183    -1225    -1269 
   -1308    -1339    -1368    -1395    -1421    -1448    -1474    -1499 
   -1521    -1537    -1551    -1566    -1579    -1598    -1617    -1636 
   -1657    -1679    -1701    -1729    -1764    -1799    -1840    -1883 
   -1923    -1961    -1998    -2033    -2060    -2066    -2061    -2043 
   -2011    -1972    -1925    -1872    -1822    -1776    -1740    -1717 
   -1696    -1683    -1683    -1688    -1695    -1705    -1715    -1725 
   -1730    -1730    -1733    -1738    -1740    -1737    -1729    -1711 
   -1694    -1676    -1657    -1640    -1621    -1595    -1564    -1528 
   -1489    -1449    -1408    -1362    -1316    -1281    -1250    -1212 
   -1177    -1147    -1115    -1089    -1074    -1063    -1063    -1078 
   -1100    -1125    -1150    -1175    -1201    -1224    -1242    -1259 
   -1274    -1287    -1305    -1323    -1335    -1348    -1360    -1372 
   -1390    -1420    -1456    -1497    -1548    -1606    -1661    -1714 
   -1768    -1823    -1876    -1933    -1993    -2052    -2114    -2176 
   -2234    -2290    -2343    -2386    -2425    -2462    -2494    -2524 
   -2551    -2569    -2579    -2579    -2571    -2556    -2538    -2520 
   -2506    -2500    -2497    -2492    -2481    -2466    -2447    -2424 
   -2394    -2362    -2328    -2284    -2234    -2180    -2111    -2031 
   -1949    -1860    -1772    -1694    -1626    -1572    -1533    -1506 
   -1487    -1483    -1494    -1522    -1571    -1638    -1722    -1819 
   -1921    -2022    -2115    -2191    -2253    -2297    -2319    -2322 
   -2308    -2276    -2227    -2160    -2070    -1965    -1846    -1721 
   -1591    -1455    -1310    -1162    -1021     -886     -750     -619 
    -500     -394     -294     -203     -120      -44       18       74 
     120      148      156      152      133       98       47       -6 
     -64     -135     -210     -287     -372     -454     -535     -618 
    -703     -796     -892     -985    -1089    -1202    -1314    -1428 
   -1537    -1640    -1737    -1826    -1911    -1998    -2081    -2173 
   -2276    -2377    -2482    -2589    -2683    -2774    -2857    -2926 
   -2994    -3057    -3106    -3145    -3159    -3146    -3130    -3099 
   -3051    -2998    -2934    -2870    -2813    -2755    -2705    -2659 
   -2617    -2579    -2539    -2506    -2481    -2447    -2417    -2396 
   -2367    -2343    -2320    -2292    -2269    -2246    -2211    -2181 
   -2154    -2120    -2091    -2058    -2029    -2007    -1983    -1957 
   -1933    -1903    -1873    -1844    -1807    -1780    -1759    -1734 
   -1719    -1706    -1692    -1680    -1660    -1641    -1628    -1599 
   -1572    -1553    -1524    -1487    -1445    -1390    -1341    -1287 
   -1220    -1152    -1081    -1004     -931     -850     -773     -711 
    -648     -595     -556     -525     -507     -499     -490     -496 
    -511     -531     -560     -584     -612     -660     -715     -772 
    -827     -885     -958    -1036    -1111    -1196    -1286    -1375 
   -1463    -1540    -1615    -1694    -1760    -1814    -1860    -1892 
   -1918    -1934    -1946    -1966    -1987    -2004    -2031    -2058 
   -2088    -2127    -2161    -2193    -2219    -2224    -2234    -2247 
   -2246    -2236    -2218    -2193    -2168    -2124    -2070    -2020 
   -1962    -1902    -1849    -1791    -1729    -1669    -1607    -1541 
   -1471    -1402    -1337    -1273    -1213    -1161    -1113    -1075 
   -1040    -1008     -986     -963     -939     -922     -904     -891 
    -888     -874     -864     -873     -889     -913     -949     -988 
   -1036    -1085    -1136    -1188    -1225    -1258    -1296    -1327 
   -1355    -1377    -1382    -1385    -1386    -1381    -1377    -1363 
   -1354    -1351    -1341    -1335    -1331    -1318    -1308    -1301 
   -1297    -1305    -1317    -1339    -1375    -1414    -1462    -1521 
   -1582    -1648    -1722    -1798    -1884    -1971    -2054    -2139 
   -2220    -2305    -2390    -2461    -2527    -2589    -2637    -2679 
   -2712    -2724    -2731    -2729    -2721    -2712    -2695    -2678 
   -2668    -2654    -2637    -2621    -2600    -2586    -2575    -2552 
   -2531    -2508    -2486    -2465    -2436    -2403    -2373    -2344 
   -2324    -2301    -2270    -2249    -2230    -2203    -2181    -2149 
   -2111    -2081    -2039    -1992    -1946    -1894    -1842    -1792 
   -1736    -1688    -1642    -1584    -1529    -1474    -1408    -1347 
   -1290    -1243    -1213    -1192    -1178    -1175    -1175    -1185 
   -1202    -1217    -1239    -1264    -1286    -1304    -1308    -1304 
   -1306    -1297    -1277    -1258    -1243    -1232    -1227    -1220 
   -1223    -1232    -1248    -1271    -1290    -1310    -1332    -1348 
   -1366    -1386    -1405    -1431    -1451    -1479    -1522    -1560 
   -1597    -1640    -1671    -1706    -1748    -1773    -1799    -1827 
   -1849    -1868    -1879    -1887    -1900    -1915    -1934    -1958 
   -1979    -2004    -2038    -2072    -2111    -2150    -2188    -2230 
   -2266    -2307    -2355    -2394    -2430    -2461    -2486    -2516 
   -2536    -2535    -2525    -2509    -2481    -2450    -2409    -2359 
   -2303    -2241    -2182    -2123    -2057    -1996    -1934    -1873 
   -1822    -1765    -1706    -1653    -1588    -1520    -1448    -1363 
   -1279    -1196    -1109    -1038     -969     -901     -850     -805 
    -768     -745     -730     -724     -730     -745     -778     -826 
    -880     -942    -1005    -1070    -1138    -1201    -1266    -1331 
   -1386    -1436    -1476    -1509    -1539    -1556    -1564    -1571 
   -1564    -1552    -1537    -1506    -1467    -1425    -1375    -1321 
   -1264    -1208    -1161    -1117    -1084    -1065    -1057    -1065 
   -1085    -1112    -1150    -1193    -1244    -1297    -1343    -1389 
   -1437    -1476    -1521    -1571    -1610    -1655    -1701    -1744 
   -1794    -1845    -1898    -1948    -1992    -2035    -2080    -2115 
   -2146    -2164    -2165    -2164    -2150    -2123    -2089    -2045 
   -1993    -1934    -1860    -1779    -1691    -1593    -1498    -1409 
   -1324    -1251    -1182    -1123    -1075    -1039    -1016    -1004 
   -1003    -1017    -1042    -1075    -1123    -1173    -1221    -1271 
   -1317    -1364    -1416    -1463    -1510    -1555    -1598    -1638 
   -1668    -1691    -1709    -1715    -1721    -1717    -1705    -1694 
   -1672    -1642    -1618    -1588    -1563    -1551    -1543    -1539 
   -1547    -1559    -1582    -1614    -1655    -1710    -1773    -1842 
   -1919    -2002    -2093    -2188    -2285    -2390    -2493    -2592 
   -2689    -2775    -2859    -2930    -2979    -3014    -3038    -3044 
   -3040    -3022    -2995    -2960    -2911    -2860    -2812    -2755 
   -2695    -2629    -2560    -2501    -2439    -2374    -2315    -2249 
   -2178    -2116    -2047    -1980    -1925    -1873    -1825    -1780 
   -1738    -1698    -1653    -1610    -1568    -1521    -1476    -1429 
   -1382    -1344    -1305    -1264    -1231    -1193    -1159    -1134 
   -1104    -1078    -1058    -1034    -1016    -1005     -992     -984 
    -976     -969     -966     -959     -949     -939     -923     -905 
    -893     -885     -888     -889     -891     -900     -905     -911 
    -920     -923     -931     -945     -959     -977     -996    -1013 
   -1035    -1050    -1058    -1063    -1065    -1070    -1071    -1062 
   -1057    -1053    -1043    -1038    -1031    -1024    -1031    -1038 
   -1046    -1061    -1074    -1085    -1098    -1115    -1134    -1154 
   -1179    -1206    -1228    -1259    -1298    -1333    -1375    -1417 
