Origin Time       2025/01/13 21:19:00
Lat.              31.8
Long.             131.6
Depth. (km)       30
Mag.              6.9
Station Code      SAG004
Station Lat.      33.2649
Station Long.     129.8813
Station Height(m) 32
Record Time       2025/01/13 21:20:48
Sampling Freq(Hz) 100Hz
Duration Time(s)  60
Dir.              U-D
Scale Factor      7845(gal)/8223790
Max. Acc. (gal)   0.772
Last Correction   2025/01/13 21:20:48
Memo.             
[...]
   -6561    -6590    -6609    -6625    -6640    -6655    -6666    -6674 
   -6678    -6677    -6678    -6681    -6683    -6687    -6694    -6708 
   -6733    -6763    -6790    -6813    -6832    -6841    -6849    -6863 
   -6883    -6903    -6922    -6943    -6970    -7001    -7034    -7065 
   -7096    -7126    -7145    -7148    -7145    -7145    -7152    -7163 
   -7180    -7203    -7227    -7248    -7257    -7272    -7290    -7290 
   -7279    -7271    -7258    -7237    -7214    -7192    -7171    -7152 
   -7146    -7157    -7177    -7195    -7210    -7225    -7236    -7236 
   -7229    -7225    -7219    -7213    -7206    -7203    -7196    -7184 
   -7171    -7155    -7129    -7095    -7063    -7032    -6998    -6963 
   -6916    -6845    -6758    -6670    -6582    -6498    -6424    -6357 
   -6292    -6235    -6197    -6172    -6153    -6141    -6127    -6111 
   -6096    -6085    -6079    -6076    -6077    -6077    -6080    -6080 
   -6073    -6064    -6054    -6052    -6066    -6093    -6127    -6162 
   -6184    -6188    -6183    -6177    -6174    -6174    -6178    -6181 
   -6184    -6193    -6214    -6239    -6264    -6281    -6291    -6300 
   -6311    -6319    -6320    -6318    -6315    -6301    -6281    -6262 
   -6246    -6237    -6235    -6242    -6249    -6250    -6246    -6243 
   -6241    -6241    -6238    -6234    -6235    -6242    -6246    -6251 
   -6264    -6282    -6309    -6346    -6384    -6417    -6440    -6450 
   -6448    -6442    -6424    -6399    -6372    -6346    -6326    -6316 
   -6315    -6315    -6318    -6319    -6315    -6309    -6301    -6285 
   -6277    -6286    -6313    -6358    -6416    -6480    -6544    -6604 
   -6651    -6686    -6710    -6736    -6767    -6797    -6820    -6836 
   -6847    -6848    -6837    -6814    -6789    -6762    -6736    -6716 
   -6696    -6674    -6655    -6642    -6632    -6625    -6619    -6612 
   -6597    -6575    -6555    -6543    -6539    -6546    -6561    -6570 
   -6573    -6577    -6578    -6569    -6556    -6551    -6551    -6551 
   -6558    -6562    -6565    -6569    -6573    -6573    -6574    -6578 
   -6585    -6601    -6623    -6642    -6650    -6650    -6642    -6627 
   -6604    -6578    -6546    -6505    -6466    -6430    -6397    -6372 
   -6351    -6332    -6313    -6291    -6269    -6247    -6239    -6250 
   -6265    -6270    -6266    -6253    -6228    -6203    -6184    -6181 
   -6199    -6232    -6269    -6305    -6339    -6365    -6381    -6396 
   -6416    -6442    -6475    -6512    -6551    -6593    -6636    -6674 
   -6708    -6737    -6768    -6805    -6847    -6893    -6940    -6974 
   -6991    -7001    -7010    -7022    -7032    -7022    -6988    -6944 
   -6901    -6863    -6843    -6835    -6828    -6821    -6810    -6802 
   -6799    -6795    -6785    -6772    -6762    -6762    -6777    -6801 
   -6824    -6837    -6837    -6832    -6824    -6813    -6805    -6798 
   -6793    -6793    -6793    -6791    -6786    -6777    -6767    -6755 
   -6737    -6718    -6702    -6690    -6685    -6689    -6698    -6698 
   -6686    -6662    -6629    -6597    -6566    -6532    -6502    -6480 
   -6457    -6434    -6404    -6366    -6328    -6288    -6250    -6226 
   -6211    -6208    -6226    -6262    -6312    -6385    -6465    -6542 
   -6610    -6669    -6714    -6752    -6779    -6789    -6782    -6767 
   -6750    -6732    -6716    -6698    -6687    -6681    -6677    -6686 
   -6712    -6745    -6786    -6824    -6853    -6870    -6868    -6855 
   -6839    -6826    -6821    -6829    -6847    -6866    -6890    -6920 
   -6952    -6983    -7011    -7030    -7032    -7011    -6978    -6924 
   -6859    -6795    -6739    -6697    -6677    -6673    -6681    -6696 
   -6710    -6720    -6728    -6737    -6745    -6752    -6756    -6766 
   -6779    -6793    -6812    -6832    -6848    -6864    -6883    -6895 
   -6905    -6910    -6907    -6902    -6895    -6879    -6853    -6818 
   -6768    -6704    -6628    -6548    -6474    -6411    -6369    -6353 
   -6357    -6374    -6403    -6440    -6482    -6525    -6565    -6590 
   -6598    -6590    -6573    -6548    -6525    -6509    -6500    -6497 
   -6502    -6515    -6535    -6567    -6608    -6652    -6694    -6732 
   -6763    -6787    -6804    -6810    -6808    -6795    -6777    -6755 
   -6735    -6721    -6716    -6718    -6727    -6735    -6740    -6735 
   -6717    -6697    -6674    -6647    -6616    -6579    -6543    -6497 
   -6443    -6389    -6340    -6307    -6292    -6296    -6309    -6323 
   -6327    -6320    -6305    -6280    -6250    -6227    -6205    -6181 
   -6153    -6115    -6068    -6014    -5962    -5926    -5913    -5917 
   -5938    -5972    -6006    -6037    -6054    -6056    -6053    -6048 
   -6042    -6042    -6048    -6060    -6077    -6096    -6120    -6149 
   -6178    -6207    -6234    -6258    -6281    -6299    -6315    -6331 
   -6338    -6338    -6336    -6331    -6330    -6338    -6358    -6390 
   -6435    -6486    -6538    -6579    -6612    -6637    -6656    -6664 
   -6666    -6663    -6658    -6646    -6628    -6613    -6601    -6589 
   -6579    -6577    -6582    -6589    -6592    -6593    -6594    -6589 
   -6577    -6566    -6554    -6536    -6524    -6517    -6512    -6515 
   -6525    -6546    -6578    -6610    -6639    -6660    -6666    -6652 
   -6624    -6588    -6547    -6504    -6465    -6436    -6423    -6424 
   -6439    -6457    -6474    -6488    -6496    -6500    -6494    -6482 
   -6474    -6474    -6475    -6477    -6475    -6470    -6463    -6461 
   -6462    -6466    -6471    -6481    -6497    -6519    -6548    -6581 
   -6609    -6629    -6640    -6632    -6606    -6570    -6529    -6492 
   -6465    -6447    -6436    -6427    -6417    -6409    -6411    -6417 
   -6428    -6444    -6455    -6451    -6435    -6405    -6363    -6326 
   -6297    -6278    -6276    -6285    -6296    -6307    -6316    -6322 
   -6328    -6345    -6377    -6423    -6480    -6534    -6575    -6598 
   -6601    -6586    -6562    -6534    -6507    -6485    -6473    -6473 
   -6478    -6482    -6485    -6488    -6493    -6504    -6524    -6544 
   -6562    -6582    -6596    -6600    -6604    -6612    -6627    -6658 
   -6710    -6778    -6852    -6922    -6983    -7026    -7048    -7048 
   -7029    -7002    -6975    -6952    -6939    -6932    -6918    -6902 
   -6895    -6901    -6916    -6940    -6971    -7002    -7032    -7057 
   -7075    -7086    -7082    -7065    -7042    -7015    -6988    -6963 
   -6932    -6895    -6862    -6835    -6813    -6794    -6777    -6763 
   -6752    -6744    -6739    -6731    -6718    -6706    -6702    -6705 
   -6710    -6710    -6698    -6682    -6663    -6646    -6635    -6624 
   -6612    -6609    -6617    -6629    -6644    -6658    -6664    -6662 
   -6644    -6613    -6566    -6502    -6428    -6350    -6277    -6215 
   -6165    -6130    -6114    -6111    -6122    -6145    -6169    -6187 
   -6191    -6187    -6172    -6146    -6116    -6087    -6058    -6030 
   -6010    -6002    -6006    -6029    -6077    -6147    -6231    -6319 
   -6396    -6457    -6504    -6539    -6565    -6590    -6620    -6650 
   -6679    -6714    -6756    -6804    -6863    -6932    -7003    -7068 
   -7129    -7180    -7218    -7237    -7249    -7256    -7250    -7236 
   -7215    -7195    -7179    -7168    -7155    -7138    -7119    -7091 
   -7053    -7015    -6968    -6916    -6867    -6828    -6795    -6772 
   -6754    -6729    -6700    -6667    -6637    -6612    -6585    -6563 
   -6554    -6559    -6577    -6601    -6624    -6640    -6643    -6629 
   -6600    -6562    -6519    -6480    -6453    -6431    -6408    -6388 
   -6369    -6355    -6351    -6353    -6355    -6363    -6373    -6381 
   -6386    -6393    -6396    -6389    -6376    -6359    -6340    -6316 
   -6292    -6262    -6227    -6195    -6172    -6151    -6141    -6137 
   -6137    -6141    -6147    -6149    -6141    -6126    -6107    -6085 
   -6075    -6075    -6081    -6097    -6120    -6143    -6166    -6185 
   -6188    -6174    -6153    -6127    -6100    -6076    -6064    -6065 
   -6072    -6081    -6091    -6096    -6089    -6072    -6054    -6038 
   -6025    -6026    -6048    -6088    -6142    -6208    -6278    -6340 
   -6388    -6428    -6459    -6482    -6502    -6523    -6546    -6577 
   -6615    -6652    -6691    -6727    -6755    -6779    -6805    -6831 
   -6855    -6879    -6903    -6929    -6959    -6987    -7011    -7026 
   -7025    -7017    -7007    -6999    -6995    -6997    -7001    -7007 
   -7015    -7022    -7029    -7028    -7020    -7005    -6982    -6955 
   -6925    -6894    -6859    -6824    -6789    -6755    -6731    -6713 
   -6704    -6700    -6700    -6710    -6727    -6740    -6754    -6762 
   -6759    -6748    -6736    -6721    -6708    -6701    -6705    -6723 
   -6751    -6787    -6826    -6863    -6891    -6909    -6914    -6906 
   -6886    -6859    -6831    -6806    -6787    -6775    -6772    -6777 
   -6781    -6789    -6794    -6789    -6774    -6747    -6713    -6678 
   -6643    -6604    -6565    -6524    -6480    -6435    -6392    -6350 
   -6313    -6286    -6270    -6257    -6242    -6227    -6211    -6192 
   -6174    -6158    -6143    -6124    -6110    -6099    -6088    -6081 
   -6083    -6091    -6106    -6124    -6142    -6160    -6174    -6183 
   -6191    -6204    -6216    -6223    -6231    -6238    -6243    -6246 
   -6250    -6255    -6265    -6284    -6312    -6346    -6378    -6401 
   -6411    -6412    -6400    -6381    -6361    -6342    -6326    -6313 
   -6307    -6308    -6315    -6330    -6354    -6392    -6440    -6489 
   -6531    -6565    -6589    -6592    -6578    -6558    -6535    -6508 
   -6486    -6467    -6450    -6428    -6411    -6404    -6413    -6435 
   -6473    -6519    -6561    -6602    -6642    -6673    -6701    -6729 
   -6755    -6778    -6799    -6820    -6841    -6859    -6867    -6874 
   -6880    -6885    -6885    -6882    -6868    -6852    -6840    -6829 
   -6818    -6812    -6809    -6802    -6797    -6789    -6768    -6743 
   -6718    -6693    -6671    -6655    -6642    -6635    -6636    -6635 
   -6636    -6642    -6643    -6643    -6644    -6639    -6624    -6606 
   -6583    -6555    -6527    -6496    -6469    -6448    -6435    -6423 
   -6412    -6404    -6400    -6396    -6385    -6373    -6361    -6349 
   -6343    -6342    -6342    -6340    -6334    -6324    -6311    -6296 
   -6280    -6261    -6238    -6215    -6195    -6177    -6172    -6176 
   -6184    -6201    -6226    -6242    -6257    -6273    -6285    -6303 
   -6323    -6340    -6357    -6372    -6386    -6404    -6428    -6459 
   -6498    -6540    -6579    -6613    -6642    -6663    -6678    -6690 
   -6704    -6721    -6747    -6781    -6816    -6847    -6868    -6883 
   -6894    -6907    -6932    -6964    -7001    -7038    -7076    -7109 
   -7130    -7137    -7133    -7118    -7098    -7075    -7061    -7059 
   -7061    -7069    -7079    -7083    -7078    -7064    -7044    -7014 
   -6979    -6947    -6920    -6905    -6903    -6914    -6930    -6947 
   -6957    -6957    -6943    -6914    -6874    -6822    -6768    -6721 
   -6685    -6662    -6651    -6656    -6677    -6704    -6729    -6751 
   -6770    -6782    -6787    -6793    -6795    -6793    -6782    -6763 
   -6744    -6729    -6721    -6721    -6736    -6763    -6793    -6812 
   -6813    -6799    -6772    -6737    -6691    -6635    -6577    -6520 
   -6462    -6408    -6361    -6319    -6291    -6278    -6281    -6296 
   -6320    -6345    -6359    -6367    -6367    -6350    -6320    -6286 
   -6254    -6227    -6211    -6205    -6214    -6234    -6255    -6270 
   -6282    -6297    -6301    -6297    -6293    -6282    -6262    -6250 
   -6249    -6254    -6259    -6265    -6276    -6297    -6313    -6315 
   -6312    -6311    -6303    -6286    -6270    -6251    -6218    -6174 
   -6150    -6146    -6151    -6168    -6197    -6227    -6253    -6276 
   -6299    -6315    -6316    -6305    -6293    -6288    -6276    -6257 
   -6255    -6268    -6276    -6293    -6332    -6367    -6385    -6411 
   -6451    -6484    -6493    -6494    -6509    -6528    -6524    -6501 
   -6475    -6454    -6440    -6446    -6465    -6471    -6465    -6474 
   -6485    -6462    -6423    -6399    -6385    -6361    -6315    -6273 
   -6261    -6264    -6257    -6241    -6214    -6187    -6176    -6185 
   -6200    -6191    -6170    -6169    -6170    -6161    -6154    -6147 
   -6137    -6129    -6115    -6106    -6111    -6126    -6141    -6162 
   -6183    -6197    -6231    -6295    -6354    -6399    -6440    -6474 
   -6486    -6505    -6548    -6602    -6652    -6700    -6732    -6743 
   -6748    -6764    -6777    -6775    -6770    -6775    -6802    -6831 
   -6837    -6835    -6862    -6926    -6987    -6991    -6961    -6963 
   -7013    -7069    -7086    -7053    -7025    -7018    -7007    -6999 
   -7020    -7055    -7084    -7092    -7067    -7047    -7087    -7157 
   -7161    -7113    -7091    -7107    -7122    -7106    -7064    -7044 
   -7042    -7018    -7001    -7033    -7072    -7069    -7057    -7068 
   -7099    -7128    -7138    -7142    -7153    -7144    -7105    -7078 
   -7071    -7075    -7122    -7184    -7183    -7152    -7172    -7223 
   -7237    -7214    -7202    -7219    -7214    -7140    -7080    -7122 
   -7136    -7036    -6955    -6912    -6818    -6748    -6744    -6721 
   -6655    -6543    -6446    -6497    -6625    -6601    -6453    -6347 
   -6187    -5992    -6068    -6292    -6336    -6250    -6087    -5911 
   -5868    -5911    -5979    -6004    -5886    -5764    -5842    -6002 
   -6011    -5929    -5925    -5895    -5788    -5829    -6038    -6158 
   -6070    -5904    -5827    -5852    -5921    -6033    -6129    -6150 
   -6116    -6057    -6022    -6015    -6021    -6069    -6131    -6138 
   -6106    -6107    -6151    -6178    -6183    -6192    -6200    -6218 
   -6270    -6326    -6323    -6277    -6249    -6250    -6265    -6303 
   -6362    -6392    -6381    -6373    -6374    -6404    -6457    -6474 
   -6457    -6439    -6462    -6551    -6598    -6529    -6504    -6570 
   -6615    -6654    -6723    -6768    -6787    -6806    -6818    -6840 
   -6914    -6995    -6990    -6951    -6987    -7056    -7090    -7094 
   -7080    -7111    -7161    -7118    -7022    -6998    -7051    -7086 
   -7028    -6956    -6990    -7086    -7121    -7087    -7084    -7148 
   -7198    -7196    -7173    -7161    -7192    -7230    -7210    -7163 
   -7145    -7157    -7159    -7133    -7146    -7191    -7176    -7146 
   -7186    -7222    -7195    -7155    -7137    -7144    -7169    -7180 
   -7161    -7152    -7144    -7102    -7068    -7088    -7153    -7225 
   -7229    -7142    -7061    -7045    -7045    -7028    -7003    -6997 
   -7020    -7028    -7009    -6994    -6982    -6976    -6986    -7020 
   -7088    -7156    -7184    -7194    -7190    -7157    -7153    -7206 
   -7204    -7109    -6998    -6925    -6926    -6963    -6959    -6920 
   -6824    -6725    -6720    -6743    -6720    -6635    -6494    -6434 
   -6501    -6551    -6485    -6340    -6196    -6104    -6134    -6249 
   -6266    -6164    -6042    -5972    -6056    -6210    -6238    -6193 
   -6123    -5994    -5973    -6122    -6230    -6203    -6100    -5977 
   -5968    -6134    -6301    -6301    -6146    -5996    -6045    -6235 
   -6340    -6319    -6259    -6196    -6143    -6116    -6131    -6205 
   -6231    -6131    -6014    -5975    -6035    -6107    -6053    -5987 
   -6046    -6064    -5983    -5996    -6073    -6045    -5994    -6021 
   -6002    -5927    -5950    -6007    -5987    -5975    -6007    -6049 
   -6075    -6080    -6150    -6268    -6273    -6223    -6274    -6351 
   -6367    -6381    -6409    -6407    -6409    -6474    -6556    -6594 
   -6623    -6674    -6747    -6840    -6924    -6959    -6978    -7029 
   -7098    -7137    -7134    -7138    -7164    -7190    -7210    -7217 
   -7221    -7244    -7245    -7214    -7209    -7249    -7276    -7264 
   -7241    -7206    -7164    -7155    -7159    -7153    -7160    -7171 
   -7182    -7188    -7179    -7177    -7200    -7218    -7209    -7184 
   -7183    -7184    -7146    -7106    -7076    -7040    -7014    -6986 
   -6960    -6956    -6944    -6910    -6890    -6890    -6880    -6860 
   -6858    -6848    -6814    -6794    -6779    -6741    -6705    -6675 
   -6651    -6632    -6586    -6532    -6521    -6516    -6471    -6448 
   -6450    -6421    -6393    -6390    -6382    -6365    -6346    -6312 
   -6272    -6237    -6204    -6183    -6162    -6119    -6076    -6073 
   -6068    -6046    -6052    -6065    -6053    -6052    -6064    -6070 
   -6073    -6077    -6073    -6069    -6076    -6087    -6096    -6104 
   -6103    -6088    -6073    -6064    -6054    -6054    -6072    -6089 
   -6089    -6096    -6123    -6142    -6154    -6166    -6161    -6149 
   -6142    -6133    -6135    -6141    -6118    -6110    -6126    -6119 
   -6108    -6134    -6157    -6160    -6176    -6207    -6224    -6246 
   -6282    -6312    -6350    -6407    -6453    -6489    -6532    -6563 
   -6590    -6625    -6658    -6697    -6745    -6793    -6836    -6879 
   -6910    -6925    -6929    -6926    -6920    -6918    -6920    -6913 
   -6913    -6926    -6930    -6921    -6913    -6913    -6903    -6879 
   -6855    -6833    -6808    -6778    -6764    -6763    -6763    -6762 
   -6764    -6763    -6756    -6752    -6762    -6771    -6770    -6767 
   -6764    -6756    -6747    -6736    -6723    -6708    -6693    -6679 
   -6671    -6667    -6658    -6646    -6631    -6617    -6615    -6620 
   -6617    -6605    -6583    -6556    -6538    -6539    -6532    -6508 
   -6473    -6432    -6390    -6359    -6346    -6334    -6313    -6286 
   -6268    -6272    -6286    -6293    -6295    -6289    -6282    -6288 
   -6308    -6335    -6353    -6355    -6351    -6354    -6367    -6389 
   -6412    -6430    -6444    -6469    -6509    -6558    -6602    -6637 
   -6666    -6693    -6720    -6748    -6779    -6810    -6840    -6867 
   -6894    -6922    -6947    -6961    -6971    -6978    -6984    -6994 
   -7013    -7032    -7042    -7052    -7064    -7078    -7087    -7091 
   -7087    -7082    -7078    -7074    -7061    -7048    -7036    -7021 
   -7007    -7001    -7002    -7007    -7009    -7003    -6997    -6986 
   -6972    -6963    -6951    -6933    -6921    -6912    -6894    -6872 
   -6851    -6843    -6841    -6828    -6798    -6767    -6736    -6702 
   -6671    -6640    -6604    -6569    -6544    -6520    -6486    -6448 
   -6407    -6361    -6319    -6285    -6264    -6246    -6218    -6187 
   -6165    -6151    -6141    -6134    -6134    -6139    -6151    -6170 
   -6192    -6212    -6222    -6230    -6254    -6291    -6316    -6326 
   -6339    -6355    -6361    -6365    -6374    -6378    -6376    -6374 
   -6380    -6390    -6400    -6405    -6412    -6420    -6431    -6459 
   -6498    -6521    -6528    -6546    -6575    -6589    -6589    -6596 
   -6608    -6617    -6621    -6628    -6637    -6650    -6663    -6677 
   -6691    -6705    -6713    -6718    -6716    -6702    -6690    -6679 
   -6669    -6659    -6652    -6639    -6620    -6610    -6609    -6604 
   -6605    -6621    -6640    -6656    -6673    -6687    -6697    -6697 
   -6693    -6693    -6693    -6686    -6682    -6685    -6685    -6679 
   -6679    -6678    -6667    -6654    -6637    -6617    -6606    -6604 
