Origin Time       2025/01/13 21:19:00
Lat.              31.8
Long.             131.6
Depth. (km)       30
Mag.              6.9
Station Code      SAG007
Station Lat.      33.2626
Station Long.     130.3005
Station Height(m) 4
Record Time       2025/01/13 21:20:16
Sampling Freq(Hz) 100Hz
Duration Time(s)  201
Dir.              U-D
Scale Factor      7845(gal)/8223790
Max. Acc. (gal)   2.691
Last Correction   2025/01/13 21:20:17
Memo.             
[...]
   -7596    -7589    -7511    -7416    -7361    -7308    -7250    -7182 
   -7115    -7087    -7101    -7144    -7157    -7076    -6963    -6913 
   -6917    -6928    -6907    -6839    -6781    -6797    -6829    -6798 
   -6752    -6758    -6799    -6845    -6851    -6801    -6774    -6810 
   -6867    -6893    -6859    -6813    -6817    -6849    -6855    -6797 
   -6716    -6693    -6708    -6685    -6612    -6539    -6534    -6571 
   -6565    -6497    -6416    -6370    -6382    -6419    -6427    -6389 
   -6342    -6355    -6432    -6481    -6458    -6438    -6471    -6512 
   -6532    -6539    -6535    -6554    -6596    -6606    -6596    -6569 
   -6493    -6435    -6439    -6450    -6411    -6315    -6220    -6172 
   -6169    -6183    -6165    -6126    -6123    -6172    -6251    -6324 
   -6381    -6438    -6492    -6556    -6621    -6658    -6664    -6664 
   -6696    -6756    -6810    -6840    -6843    -6828    -6845    -6897 
   -6930    -6913    -6853    -6809    -6824    -6862    -6860    -6831 
   -6822    -6833    -6822    -6794    -6782    -6805    -6852    -6903 
   -6928    -6906    -6859    -6851    -6882    -6899    -6883    -6839 
   -6782    -6754    -6759    -6764    -6750    -6741    -6751    -6750 
   -6725    -6681    -6655    -6698    -6755    -6764    -6748    -6731 
   -6731    -6744    -6752    -6767    -6789    -6799    -6793    -6789 
   -6795    -6795    -6791    -6804    -6841    -6879    -6879    -6866 
   -6879    -6914    -6948    -6971    -6974    -6984    -7022    -7071 
   -7126    -7187    -7237    -7285    -7327    -7358    -7402    -7441 
   -7476    -7528    -7597    -7685    -7773    -7836    -7901    -7955 
   -7983    -8006    -8037    -8077    -8097    -8105    -8113    -8098 
   -8091    -8104    -8118    -8156    -8172    -8145    -8118    -8090 
   -8068    -8048    -8004    -7952    -7894    -7835    -7800    -7777 
   -7763    -7742    -7685    -7638    -7619    -7587    -7557    -7551 
   -7557    -7565    -7562    -7560    -7562    -7568    -7595    -7624 
   -7647    -7676    -7686    -7693    -7709    -7709    -7697    -7676 
   -7631    -7587    -7539    -7480    -7412    -7322    -7218    -7119 
   -7028    -6930    -6821    -6700    -6583    -6480    -6378    -6276 
   -6177    -6087    -6014    -5948    -5868    -5787    -5725    -5684 
   -5653    -5602    -5536    -5479    -5435    -5402    -5382    -5360 
   -5351    -5363    -5386    -5420    -5445    -5458    -5489    -5545 
   -5634    -5756    -5859    -5934    -6014    -6096    -6176    -6254 
   -6336    -6417    -6502    -6592    -6664    -6724    -6795    -6883 
   -6972    -7045    -7099    -7142    -7179    -7229    -7267    -7277 
   -7299    -7323    -7326    -7322    -7302    -7281    -7277    -7264 
   -7244    -7227    -7207    -7192    -7184    -7163    -7129    -7110 
   -7119    -7117    -7076    -7022    -6980    -6956    -6934    -6909 
   -6866    -6779    -6690    -6636    -6579    -6509    -6438    -6366 
   -6324    -6330    -6339    -6312    -6246    -6184    -6172    -6195 
   -6208    -6207    -6204    -6218    -6264    -6324    -6362    -6374 
   -6388    -6409    -6448    -6485    -6488    -6493    -6521    -6546 
   -6556    -6559    -6555    -6555    -6570    -6590    -6610    -6644 
   -6682    -6725    -6790    -6853    -6909    -6972    -7038    -7101 
   -7153    -7202    -7263    -7342    -7430    -7516    -7595    -7662 
   -7717    -7781    -7847    -7879    -7927    -8006    -8070    -8113 
   -8140    -8158    -8193    -8240    -8293    -8353    -8407    -8467 
   -8544    -8627    -8700    -8762    -8814    -8860    -8907    -8943 
   -8965    -8977    -8992    -9019    -9027    -8991    -8943    -8889 
   -8827    -8766    -8676    -8564    -8460    -8363    -8267    -8152 
   -8025    -7915    -7798    -7688    -7608    -7514    -7400    -7296 
   -7198    -7126    -7075    -7001    -6916    -6844    -6770    -6709 
   -6691    -6671    -6656    -6702    -6744    -6720    -6642    -6544 
   -6493    -6431    -6318    -6277    -6319    -6346    -6361    -6388 
   -6435    -6486    -6480    -6407    -6323    -6273    -6266    -6247 
   -6214    -6201    -6185    -6162    -6147    -6141    -6173    -6210 
   -6203    -6214    -6262    -6272    -6204    -6116    -6048    -6016 
   -6039    -6038    -5985    -5975    -6034    -6100    -6143    -6149 
   -6127    -6139    -6196    -6220    -6210    -6189    -6135    -6104 
   -6162    -6232    -6253    -6237    -6197    -6184    -6234    -6281 
   -6250    -6203    -6261    -6388    -6474    -6519    -6554    -6567 
   -6569    -6562    -6524    -6539    -6656    -6724    -6714    -6727 
   -6710    -6687    -6720    -6731    -6717    -6731    -6705    -6624 
   -6601    -6659    -6714    -6727    -6733    -6760    -6805    -6828 
   -6822    -6878    -6960    -6925    -6853    -6860    -6885    -6929 
   -6998    -7021    -7051    -7128    -7157    -7138    -7200    -7346 
   -7469    -7545    -7609    -7676    -7707    -7736    -7851    -7985 
   -8025    -8008    -8009    -8036    -8068    -8116    -8167    -8167 
   -8139    -8139    -8112    -8068    -8068    -8050    -8000    -7992 
   -8020    -8014    -7948    -7888    -7869    -7830    -7742    -7674 
   -7663    -7632    -7551    -7477    -7426    -7388    -7379    -7356 
   -7267    -7190    -7202    -7207    -7142    -7084    -7080    -7109 
   -7134    -7123    -7095    -7091    -7094    -7075    -7033    -6984 
   -6966    -6974    -6961    -6944    -6956    -6955    -6924    -6921 
   -6955    -6972    -6948    -6917    -6924    -6944    -6936    -6890 
   -6822    -6778    -6758    -6723    -6662    -6608    -6592    -6581 
   -6544    -6512    -6484    -6430    -6381    -6359    -6327    -6266 
   -6207    -6191    -6208    -6214    -6192    -6160    -6137    -6119 
   -6104    -6093    -6087    -6100    -6129    -6160    -6203    -6241 
   -6234    -6231    -6254    -6258    -6253    -6274    -6292    -6295 
   -6324    -6359    -6343    -6326    -6351    -6380    -6400    -6428 
   -6475    -6546    -6609    -6656    -6698    -6720    -6774    -6883 
   -6964    -7003    -7049    -7111    -7187    -7258    -7321    -7364 
   -7388    -7431    -7481    -7493    -7489    -7487    -7477    -7479 
   -7507    -7541    -7566    -7596    -7647    -7707    -7746    -7773 
   -7800    -7827    -7851    -7875    -7892    -7896    -7900    -7916 
   -7942    -7966    -7997    -8048    -8110    -8166    -8214    -8271 
   -8347    -8413    -8460    -8511    -8544    -8552    -8572    -8586 
   -8571    -8546    -8536    -8540    -8533    -8511    -8482    -8452 
   -8430    -8415    -8384    -8317    -8251    -8218    -8193    -8141 
   -8074    -8006    -7927    -7838    -7758    -7662    -7541    -7438 
   -7362    -7294    -7210    -7113    -7024    -6953    -6880    -6787 
   -6686    -6596    -6511    -6426    -6334    -6234    -6143    -6070 
   -6008    -5962    -5915    -5868    -5825    -5787    -5751    -5698 
   -5644    -5617    -5587    -5540    -5485    -5414    -5340    -5277 
   -5228    -5184    -5123    -5059    -5008    -4962    -4918    -4861 
   -4808    -4781    -4764    -4742    -4706    -4653    -4612    -4600 
   -4610    -4625    -4622    -4638    -4681    -4699    -4691    -4684 
   -4699    -4726    -4725    -4729    -4761    -4780    -4816    -4887 
   -4959    -5047    -5148    -5242    -5346    -5467    -5593    -5702 
   -5833    -6004    -6158    -6289    -6436    -6589    -6754    -6920 
   -7074    -7227    -7372    -7510    -7658    -7811    -7959    -8085 
   -8203    -8329    -8424    -8498    -8586    -8689    -8799    -8884 
   -8926    -8935    -8931    -8955    -9007    -9026    -9019    -9019 
   -9019    -9020    -9022    -9026    -9034    -9034    -9045    -9066 
   -9058    -9035    -9023    -8999    -8959    -8920    -8889    -8853 
   -8815    -8808    -8791    -8731    -8672    -8613    -8546    -8491 
   -8456    -8438    -8407    -8334    -8236    -8141    -8073    -8004 
   -7921    -7852    -7773    -7681    -7607    -7524    -7442    -7384 
   -7319    -7240    -7155    -7091    -7065    -7049    -7040    -7014 
   -6955    -6910    -6895    -6913    -6960    -6955    -6898    -6867 
   -6858    -6841    -6818    -6817    -6835    -6813    -6758    -6725 
   -6728    -6736    -6721    -6701    -6696    -6689    -6679    -6662 
   -6650    -6677    -6704    -6697    -6687    -6682    -6673    -6651 
   -6625    -6610    -6606    -6602    -6593    -6605    -6662    -6710 
   -6723    -6733    -6743    -6756    -6770    -6759    -6764    -6793 
   -6793    -6793    -6837    -6893    -6924    -6918    -6890    -6887 
   -6916    -6926    -6909    -6897    -6906    -6932    -6960    -6966 
   -6947    -6945    -6964    -6970    -6971    -6972    -6964    -6960 
   -6957    -6956    -6943    -6906    -6866    -6813    -6758    -6713 
   -6651    -6593    -6561    -6527    -6494    -6462    -6438    -6421 
   -6378    -6343    -6326    -6281    -6231    -6189    -6143    -6087 
   -6008    -5952    -5917    -5863    -5807    -5757    -5721    -5701 
   -5678    -5648    -5613    -5587    -5582    -5555    -5539    -5571 
   -5602    -5633    -5668    -5670    -5672    -5726    -5807    -5848 
   -5865    -5907    -5948    -5996    -6081    -6158    -6218    -6295 
   -6386    -6466    -6548    -6658    -6771    -6885    -7014    -7126 
   -7202    -7277    -7381    -7491    -7560    -7596    -7638    -7709 
   -7796    -7884    -7974    -8060    -8149    -8255    -8351    -8432 
   -8515    -8584    -8644    -8712    -8776    -8811    -8839    -8873 
   -8899    -8899    -8851    -8781    -8721    -8671    -8634    -8594 
   -8532    -8468    -8411    -8375    -8343    -8289    -8235    -8175 
   -8121    -8075    -8016    -7959    -7908    -7858    -7812    -7770 
   -7730    -7662    -7592    -7554    -7499    -7407    -7314    -7244 
   -7190    -7115    -7030    -6952    -6872    -6805    -6743    -6679 
   -6610    -6529    -6448    -6370    -6280    -6172    -6052    -5960 
   -5921    -5892    -5814    -5709    -5668    -5651    -5564    -5420 
   -5262    -5143    -5082    -5054    -5044    -5050    -5063    -5066 
   -5039    -5009    -4989    -4969    -4968    -4986    -5022    -5066 
   -5119    -5177    -5235    -5308    -5389    -5445    -5513    -5610 
   -5706    -5798    -5872    -5946    -6041    -6130    -6224    -6313 
   -6377    -6451    -6551    -6662    -6767    -6855    -6932    -6998 
   -7068    -7149    -7211    -7269    -7333    -7384    -7437    -7492 
   -7560    -7630    -7673    -7738    -7824    -7890    -7954    -8014 
   -8082    -8148    -8189    -8244    -8294    -8318    -8343    -8348 
   -8352    -8384    -8425    -8467    -8506    -8542    -8581    -8591 
   -8563    -8525    -8509    -8521    -8522    -8517    -8526    -8544 
   -8568    -8580    -8567    -8545    -8525    -8500    -8465    -8422 
   -8403    -8426    -8452    -8440    -8394    -8347    -8313    -8274 
   -8226    -8179    -8129    -8075    -8024    -7989    -7951    -7886 
   -7823    -7785    -7740    -7682    -7605    -7511    -7443    -7412 
   -7371    -7292    -7200    -7133    -7076    -7030    -6995    -6943 
   -6898    -6878    -6835    -6768    -6709    -6667    -6632    -6588 
   -6531    -6469    -6407    -6376    -6361    -6328    -6278    -6218 
   -6165    -6123    -6073    -6027    -5967    -5891    -5837    -5783 
   -5718    -5652    -5586    -5543    -5508    -5467    -5428    -5374 
   -5324    -5298    -5277    -5235    -5175    -5140    -5121    -5097 
   -5080    -5046    -5009    -5008    -5012    -5008    -4999    -4982 
   -4984    -4992    -5000    -5024    -5046    -5078    -5131    -5182 
   -5232    -5275    -5328    -5401    -5468    -5525    -5586    -5647 
   -5707    -5787    -5888    -5995    -6088    -6185    -6301    -6409 
   -6492    -6569    -6648    -6732    -6818    -6893    -6974    -7065 
   -7145    -7229    -7308    -7379    -7458    -7526    -7585    -7663 
   -7735    -7784    -7836    -7897    -7958    -8029    -8104    -8164 
   -8229    -8299    -8359    -8411    -8459    -8484    -8487    -8476 
   -8486    -8514    -8529    -8540    -8552    -8567    -8587    -8595 
   -8600    -8613    -8626    -8648    -8673    -8696    -8714    -8716 
   -8725    -8741    -8748    -8746    -8741    -8739    -8748    -8742 
   -8729    -8703    -8664    -8652    -8649    -8610    -8565    -8540 
   -8505    -8455    -8414    -8379    -8333    -8287    -8240    -8172 
   -8083    -7986    -7886    -7778    -7653    -7516    -7388    -7279 
   -7183    -7091    -6997    -6887    -6779    -6685    -6588    -6489 
   -6380    -6251    -6135    -6030    -5914    -5799    -5688    -5589 
   -5505    -5427    -5340    -5243    -5152    -5077    -4990    -4914 
   -4847    -4762    -4691    -4646    -4588    -4526    -4473    -4426 
   -4383    -4356    -4338    -4313    -4295    -4295    -4288    -4282 
   -4295    -4315    -4359    -4423    -4491    -4569    -4662    -4761 
   -4862    -4961    -5059    -5148    -5238    -5351    -5467    -5563 
   -5643    -5709    -5794    -5894    -5988    -6102    -6215    -6327 
   -6454    -6563    -6673    -6794    -6901    -7026    -7164    -7269 
   -7366    -7485    -7622    -7740    -7819    -7882    -7954    -8051 
   -8171    -8287    -8398    -8495    -8581    -8681    -8781    -8862 
   -8937    -9003    -9073    -9154    -9227    -9288    -9342    -9418 
   -9510    -9564    -9598    -9640    -9688    -9742    -9761    -9755 
   -9767    -9788    -9805    -9803    -9783    -9760    -9726    -9697 
   -9674    -9630    -9593    -9562    -9537    -9510    -9448    -9362 
   -9281    -9216    -9169    -9105    -9028    -8961    -8900    -8839 
   -8752    -8645    -8549    -8446    -8355    -8275    -8194    -8121 
   -8024    -7906    -7803    -7674    -7524    -7381    -7241    -7118 
   -7001    -6878    -6754    -6628    -6509    -6394    -6270    -6138 
   -6002    -5883    -5765    -5640    -5520    -5395    -5297    -5229 
   -5152    -5074    -4999    -4928    -4878    -4815    -4753    -4715 
   -4692    -4695    -4698    -4668    -4641    -4634    -4649    -4662 
   -4654    -4652    -4675    -4729    -4793    -4820    -4833    -4869 
   -4911    -4947    -4968    -4992    -5044    -5116    -5211    -5281 
   -5312    -5362    -5431    -5493    -5537    -5567    -5613    -5665 
   -5732    -5803    -5844    -5907    -5987    -6039    -6100    -6160 
   -6195    -6238    -6305    -6407    -6500    -6570    -6642    -6687 
   -6728    -6791    -6858    -6932    -7006    -7088    -7177    -7236 
   -7283    -7323    -7353    -7407    -7457    -7501    -7558    -7595 
   -7626    -7661    -7693    -7746    -7798    -7839    -7875    -7905 
   -7940    -7943    -7928    -7943    -7954    -7948    -7943    -7929 
   -7917    -7897    -7874    -7851    -7816    -7798    -7797    -7789 
   -7780    -7767    -7766    -7761    -7731    -7700    -7659    -7630 
   -7627    -7597    -7564    -7558    -7553    -7554    -7550    -7547 
   -7551    -7538    -7530    -7523    -7495    -7474    -7472    -7485 
   -7510    -7524    -7546    -7577    -7622    -7668    -7685    -7705 
   -7736    -7766    -7816    -7855    -7894    -7962    -8016    -8059 
   -8098    -8117    -8133    -8131    -8120    -8122    -8128    -8147 
   -8154    -8139    -8131    -8129    -8135    -8121    -8063    -8002 
   -7946    -7892    -7846    -7794    -7753    -7709    -7658    -7615 
   -7560    -7500    -7447    -7387    -7337    -7287    -7225    -7176 
   -7133    -7086    -7026    -6951    -6891    -6839    -6790    -6741 
   -6663    -6579    -6511    -6440    -6373    -6301    -6239    -6183 
   -6111    -6039    -5960    -5875    -5811    -5744    -5676    -5617 
   -5557    -5502    -5458    -5436    -5417    -5374    -5343    -5324 
   -5293    -5266    -5220    -5171    -5154    -5147    -5157    -5157 
   -5140    -5139    -5139    -5136    -5135    -5125    -5136    -5163 
   -5196    -5220    -5225    -5246    -5279    -5317    -5363    -5412 
   -5460    -5502    -5548    -5625    -5699    -5767    -5836    -5880 
   -5925    -5980    -6038    -6108    -6172    -6227    -6285    -6340 
   -6415    -6488    -6552    -6621    -6685    -6750    -6831    -6914 
   -6988    -7057    -7144    -7223    -7281    -7345    -7392    -7429 
   -7489    -7565    -7646    -7708    -7763    -7840    -7912    -7981 
   -8047    -8082    -8120    -8181    -8245    -8307    -8361    -8417 
   -8476    -8527    -8568    -8603    -8645    -8684    -8707    -8742 
   -8779    -8797    -8814    -8826    -8841    -8846    -8824    -8812 
   -8819    -8835    -8856    -8853    -8830    -8793    -8746    -8707 
   -8654    -8595    -8561    -8548    -8544    -8522    -8473    -8417 
   -8345    -8270    -8198    -8116    -8047    -7996    -7950    -7900 
   -7835    -7778    -7730    -7676    -7622    -7551    -7473    -7403 
   -7346    -7312    -7267    -7202    -7146    -7095    -7060    -7024 
   -6975    -6947    -6936    -6921    -6893    -6853    -6833    -6824 
   -6812    -6810    -6808    -6802    -6785    -6759    -6744    -6732 
   -6737    -6759    -6766    -6763    -6748    -6737    -6751    -6758 
   -6751    -6758    -6772    -6798    -6809    -6791    -6754    -6689 
   -6633    -6610    -6590    -6571    -6555    -6550    -6544    -6516 
   -6474    -6424    -6378    -6347    -6315    -6281    -6249    -6215 
   -6200    -6191    -6174    -6146    -6104    -6072    -6060    -6054 
   -6042    -6015    -5995    -5983    -5960    -5935    -5895    -5834 
   -5786    -5751    -5728    -5707    -5674    -5647    -5637    -5624 
   -5597    -5563    -5537    -5524    -5506    -5476    -5432    -5386 
   -5358    -5348    -5352    -5346    -5336    -5363    -5409    -5433 
   -5437    -5429    -5425    -5425    -5431    -5445    -5460    -5483 
   -5532    -5602    -5665    -5703    -5737    -5787    -5849    -5918 
   -5975    -6021    -6095    -6193    -6296    -6392    -6473    -6548 
   -6620    -6686    -6745    -6789    -6837    -6902    -6986    -7067 
   -7128    -7177    -7221    -7257    -7296    -7331    -7362    -7406 
   -7468    -7539    -7609    -7668    -7720    -7773    -7831    -7892 
   -7938    -7970    -8016    -8074    -8128    -8176    -8217    -8249 
   -8301    -8383    -8453    -8499    -8538    -8581    -8649    -8739 
   -8807    -8843    -8876    -8919    -8973    -9007    -9015    -9031 
   -9065    -9115    -9173    -9219    -9254    -9294    -9335    -9348 
   -9324    -9292    -9265    -9248    -9235    -9209    -9174    -9144 
   -9126    -9094    -9030    -8951    -8889    -8831    -8779    -8718 
   -8648    -8591    -8550    -8510    -8449    -8357    -8268    -8202 
   -8141    -8064    -7974    -7882    -7793    -7711    -7626    -7522 
   -7411    -7315    -7230    -7145    -7061    -6972    -6876    -6806 
   -6750    -6670    -6575    -6501    -6453    -6411    -6366    -6309 
   -6241    -6187    -6150    -6091    -6010    -5927    -5869    -5841 
   -5810    -5755    -5692    -5651    -5640    -5638    -5616    -5579 
   -5556    -5552    -5552    -5528    -5482    -5444    -5432    -5441 
   -5440    -5410    -5375    -5352    -5347    -5358    -5347    -5304 
   -5270    -5277    -5296    -5298    -5293    -5309    -5350    -5390 
   -5404    -5400    -5402    -5422    -5464    -5516    -5553    -5586 
