Origin Time       2025/01/13 21:19:00
Lat.              31.8
Long.             131.6
Depth. (km)       30
Mag.              6.9
Station Code      SAG007
Station Lat.      33.2626
Station Long.     130.3005
Station Height(m) 4
Record Time       2025/01/13 21:20:16
Sampling Freq(Hz) 100Hz
Duration Time(s)  201
Dir.              E-W
Scale Factor      7845(gal)/8223790
Max. Acc. (gal)   9.028
Last Correction   2025/01/13 21:20:17
Memo.             
[...]
    6601     6421     6149     5796     5379     4935     4496     4098 
    3784     3559     3445     3445     3512     3615     3746     3881 
    4009     4129     4195     4214     4228     4198     4106     3973 
    3788     3578     3376     3175     2997     2866     2776     2735 
    2756     2844     3005     3235     3514     3815     4113     4415 
    4753     5108     5440     5738     5991     6191     6334     6380 
    6315     6178     5983     5744     5485     5202     4943     4754 
    4614     4529     4541     4645     4839     5132     5483     5867 
    6262     6644     7002     7317     7565     7743     7854     7908 
    7919     7894     7840     7753     7642     7545     7497     7520 
    7618     7788     8029     8340     8703     9086     9445     9745 
    9971    10119    10185    10168    10057     9841     9518     9107 
    8650     8171     7666     7164     6681     6227     5841     5544 
    5343     5232     5173     5132     5127     5170     5256     5390 
    5586     5830     6119     6473     6864     7233     7577     7892 
    8132     8287     8380     8411     8374     8256     8079     7881 
    7647     7371     7080     6763     6397     5991     5528     5017 
    4472     3862     3214     2581     1950     1336      766      255 
    -176     -472     -631     -758     -884     -928     -901     -882 
    -892     -909     -904     -857     -770     -626     -413     -160 
     118      415      720     1053     1447     1919     2436     2992 
    3616     4261     4876     5466     6038     6573     7034     7403 
    7705     7946     8062     8070     8040     7942     7757     7549 
    7304     7021     6754     6525     6327     6126     5918     5767 
    5672     5555     5394     5236     5109     5027     4986     4938 
    4861     4810     4816     4881     4977     5066     5146     5227 
    5314     5416     5520     5601     5668     5772     5900     6014 
    6119     6237     6350     6443     6532     6652     6810     6951 
    7053     7200     7447     7786     8194     8594     8965     9355 
    9724    10014    10237    10338    10287    10157     9963     9680 
    9354     9000     8629     8318     8100     7947     7842     7759 
    7701     7663     7616     7570     7526     7437     7307     7153 
    6976     6806     6648     6480     6330     6230     6160     6092 
    6049     6053     6108     6200     6315     6446     6609     6799 
    6987     7153     7319     7491     7659     7847     8060     8271 
    8452     8591     8685     8726     8716     8683     8642     8599 
    8575     8586     8617     8649     8687     8721     8735     8707 
    8623     8478     8253     7966     7635     7246     6816     6359 
    5868     5374     4911     4483     4112     3808     3573     3414 
    3314     3258     3231     3203     3156     3082     2971     2801 
    2577     2336     2107     1894     1698     1513     1341     1255 
    1329     1540     1822     2172     2589     3048     3528     4004 
    4449     4845     5167     5389     5489     5462     5320     5096 
    4801     4437     4041     3686     3387     3126     2922     2816 
    2813     2894     3006     3126     3296     3477     3612     3739 
    3897     4113     4430     4808     5205     5644     6104     6515 
    6847     7092     7214     7184     7005     6687     6269     5778 
    5227     4642     4051     3496     3032     2664     2405     2276 
    2262     2388     2655     2978     3304     3690     4151     4587 
    4946     5292     5641     5961     6243     6511     6797     7092 
    7373     7653     7958     8239     8442     8603     8737     8826 
    8880     8889     8865     8841     8803     8739     8654     8511 
    8311     8089     7857     7615     7383     7179     7021     6918 
    6867     6860     6880     6924     6998     7064     7087     7036 
    6887     6691     6463     6169     5845     5518     5182     4869 
    4588     4356     4229     4203     4236     4337     4513     4754 
    5054     5375     5680     5976     6232     6405     6454     6346 
    6124     5827     5440     5008     4579     4137     3720     3361 
    3051     2822     2689     2623     2635     2709     2808     2949 
    3095     3192     3279     3354     3403     3465     3542     3599 
    3653     3712     3761     3815     3879     3958     4074     4244 
    4467     4749     5081     5452     5844     6250     6674     7082 
    7449     7785     8062     8271     8433     8530     8538     8473 
    8383     8268     8077     7832     7619     7434     7214     6955 
    6687     6408     6103     5769     5409     5043     4693     4376 
    4113     3913     3774     3693     3655     3667     3762     3954 
    4217     4486     4743     5047     5402     5725     5985     6238 
    6480     6673     6813     6917     7002     7042     7017     6970 
    6940     6917     6899     6890     6895     6933     7010     7115 
    7244     7418     7654     7908     8106     8232     8280     8243 
    8121     7889     7530     7079     6552     5968     5356     4727 
    4094     3461     2851     2313     1863     1495     1221     1030 
     916      909     1017     1209     1459     1753     2092     2451 
    2806     3153     3469     3739     3983     4233     4523     4884 
    5300     5767     6305     6885     7470     8062     8623     9116 
    9543     9921    10258    10561    10833    11064    11248    11404 
   11549    11681    11790    11859    11893    11907    11896    11832 
   11680    11410    11013    10471     9784     9001     8175     7338 
    6528     5784     5117     4518     3994     3547     3153     2805 
    2511     2263     2083     1988     1979     2064     2258     2558 
    2959     3435     3956     4491     5009     5493     5910     6247 
    6534     6768     6948     7101     7226     7312     7364     7365 
    7315     7230     7126     7024     6944     6894     6883     6922 
    6990     7071     7148     7214     7264     7273     7221     7121 
    6984     6809     6578     6281     5931     5548     5154     4760 
    4359     3959     3591     3276     3041     2916     2891     2941 
    3044     3192     3388     3631     3901     4180     4465     4752 
    5015     5252     5472     5644     5753     5834     5892     5907 
    5884     5821     5699     5537     5385     5269     5208     5209 
    5265     5378     5555     5764     5973     6173     6339     6450 
    6489     6451     6350     6205     6018     5798     5576     5385 
    5246     5148     5069     4996     4924     4850     4747     4594 
    4413     4218     3989     3728     3454     3168     2867     2574 
    2326     2127     1961     1838     1775     1768     1806     1883 
    1987     2101     2227     2361     2513     2700     2918     3163 
    3447     3784     4162     4556     4953     5350     5757     6185 
    6624     7083     7562     8040     8529     9057     9617    10187 
   10744    11268    11719    12077    12332    12448    12420    12260 
   11962    11537    11003    10345     9543     8623     7616     6539 
    5422     4302     3226     2239     1345      577      -37     -526 
    -915    -1213    -1444    -1613    -1714    -1755    -1730    -1625 
   -1425    -1127     -734     -241      369     1089     1908     2844 
    3888     4986     6107     7222     8286     9266    10157    10928 
   11550    12021    12317    12437    12430    12348    12224    12075 
   11901    11705    11510    11311    11092    10837    10535    10187 
    9795     9375     8937     8480     8039     7618     7200     6783 
    6359     5911     5455     5013     4594     4224     3910     3619 
    3366     3210     3157     3204     3362     3601     3896     4225 
    4538     4804     5058     5301     5486     5630     5763     5850 
    5888     5903     5876     5814     5713     5520     5239     4923 
    4599     4267     3964     3736     3581     3497     3484     3527 
    3626     3750     3878     4020     4159     4257     4324     4380 
    4438     4521     4630     4758     4914     5092     5286     5483 
    5684     5883     6054     6205     6354     6486     6617     6748 
    6852     6957     7068     7157     7244     7334     7402     7433 
    7402     7294     7138     6947     6709     6462     6239     6030 
    5845     5709     5609     5506     5377     5201     4950     4619 
    4240     3832     3410     3005     2648     2369     2200     2147 
    2199     2336     2525     2756     3026     3329     3663     4035 
    4457     4953     5510     6097     6697     7284     7842     8378 
    8878     9337     9734    10056    10338    10600    10812    10986 
   11128    11211    11234    11205    11106    10941    10714    10424 
   10080     9686     9244     8769     8268     7738     7190     6619 
    6006     5360     4704     4037     3357     2691     2076     1524 
    1058      723      498      337      260      272      365      541 
     764     1016     1314     1671     2101     2600     3157     3777 
    4450     5170     5919     6674     7406     8104     8766     9375 
    9891    10288    10584    10786    10868    10843    10731    10532 
   10273     9969     9621     9252     8856     8392     7846     7204 
    6496     5751     4980     4218     3522     2897     2354     1944 
    1679     1514     1429     1433     1502     1626     1817     2035 
    2239     2427     2620     2814     2992     3168     3346     3523 
    3721     3955     4233     4558     4905     5254     5626     6018 
    6412     6801     7160     7481     7774     8020     8222     8388 
    8505     8575     8613     8633     8656     8691     8765     8899 
    9099     9383     9721    10056    10373    10654    10864    10995 
   11025    10940    10755    10489    10156     9783     9418     9085 
    8806     8604     8480     8415     8376     8344     8297     8208 
    8086     7931     7700     7368     6940     6434     5856     5239 
    4600     3935     3272     2641     2072     1595     1206      891 
     635      414      221       52      -97     -206     -282     -324 
    -298     -203      -45      197      530      961     1471     2042 
    2674     3345     4016     4673     5300     5876     6394     6836 
    7200     7483     7650     7700     7659     7558     7437     7317 
    7200     7094     7009     6957     6959     7007     7094     7209 
    7334     7465     7591     7690     7755     7757     7669     7481 
    7179     6767     6264     5665     5000     4306     3593     2887 
    2216     1578      986      457      -25     -441     -760    -1000 
   -1151    -1183    -1074     -819     -426      108      766     1497 
    2261     3022     3734     4392     4996     5533     6021     6453 
    6806     7109     7383     7626     7846     8035     8195     8370 
    8584     8841     9132     9444     9772    10112    10438    10723 
   10956    11113    11200    11237    11223    11182    11119    11036 
   10960    10894    10802    10686    10540    10320    10015     9624 
    9153     8630     8067     7480     6883     6280     5699     5151 
    4612     4085     3564     3046     2577     2187     1872     1663 
    1548     1498     1532     1610     1688     1787     1894     2003 
    2153     2355     2614     2937     3303     3696     4110     4536 
    4946     5324     5663     5944     6153     6309     6427     6501 
    6558     6624     6685     6747     6810     6829     6789     6663 
    6412     6039     5570     5012     4387     3738     3107     2531 
    2057     1699     1471     1387     1437     1611     1911     2338 
    2883     3510     4217     5003     5823     6663     7488     8263 
    9005     9695    10314    10878    11381    11824    12229    12584 
   12853    13046    13176    13230    13220    13128    12934    12661 
   12314    11888    11379    10766    10058     9259     8371     7416 
    6412     5386     4382     3430     2560     1799     1159      639 
     238      -45     -243     -355     -383     -325     -183        4 
     236      515      815     1143     1499     1860     2184     2461 
    2706     2917     3087     3207     3284     3345     3414     3522 
    3693     3935     4264     4664     5096     5539     5953     6308 
    6570     6717     6764     6686     6471     6174     5826     5468 
    5170     4950     4834     4839     4932     5103     5347     5629 
    5922     6222     6488     6693     6832     6886     6871     6806 
    6696     6574     6470     6403     6404     6494     6693     7002 
    7399     7861     8349     8819     9242     9590     9853    10042 
   10169    10239    10260    10237    10187    10145    10135    10143 
   10162    10208    10272    10341    10397    10415    10368    10246 
   10065     9836     9574     9298     9007     8691     8343     7975 
    7585     7149     6669     6156     5633     5135     4684     4278 
    3893     3527     3190     2883     2606     2350     2123     1948 
    1838     1786     1773     1802     1860     1958     2112     2309 
    2571     2910     3295     3732     4224     4745     5266     5761 
    6204     6565     6808     6910     6856     6635     6258     5784 
    5244     4666     4093     3524     2970     2416     1827     1216 
     577     -102     -780    -1440    -2076    -2623    -3072    -3423 
   -3638    -3735    -3721    -3574    -3333    -3044    -2721    -2378 
   -2019    -1625    -1205     -747     -222      368     1032     1783 
    2606     3491     4425     5390     6361     7298     8186     9030 
    9807    10525    11192    11781    12306    12780    13170    13487 
   13737    13902    13994    13998    13875    13620    13234    12721 
   12093    11360    10543     9672     8796     7952     7167     6471 
    5883     5404     5031     4756     4575     4495     4523     4642 
    4831     5116     5476     5836     6192     6552     6879     7191 
    7466     7659     7778     7824     7792     7696     7553     7365 
    7153     6961     6799     6678     6619     6594     6612     6693 
    6808     6941     7099     7269     7445     7636     7848     8062 
    8272     8499     8719     8907     9070     9200     9305     9424 
    9553     9676     9805     9941    10085    10253    10432    10592 
   10712    10774    10773    10725    10629    10462    10204     9838 
    9370     8826     8217     7543     6822     6076     5329     4622 
    3959     3337     2754     2203     1698     1240      822      437 
      76     -247     -522     -727     -832     -846     -765     -575 
    -288       90      568     1127     1756     2443     3171     3925 
    4673     5386     6046     6650     7196     7658     8019     8280 
    8434     8500     8500     8426     8289     8094     7869     7632 
    7383     7136     6901     6670     6465     6284     6092     5887 
    5651     5375     5105     4864     4646     4456     4284     4131 
    4018     3969     3975     4036     4164     4342     4563     4827 
    5108     5383     5667     5946     6219     6494     6783     7084 
    7404     7754     8098     8413     8673     8829     8881     8839 
    8653     8333     7923     7423     6855     6261     5649     5028 
    4437     3905     3446     3073     2783     2578     2461     2438 
    2528     2729     3030     3415     3873     4395     4962     5567 
    6192     6816     7434     8029     8575     9047     9435     9725 
    9907     9985     9961     9841     9660     9431     9144     8822 
    8446     7997     7499     6961     6373     5738     5070     4392 
    3721     3071     2484     1989     1578     1277     1107     1028 
    1036     1142     1323     1578     1891     2227     2558     2875 
    3179     3484     3796     4108     4414     4700     4958     5224 
    5510     5818     6141     6471     6816     7165     7501     7811 
    8066     8257     8399     8488     8505     8460     8353     8152 
    7892     7589     7240     6856     6430     5962     5491     5034 
    4602     4197     3832     3515     3256     3065     2932     2841 
    2794     2778     2775     2797     2841     2857     2853     2851 
    2818     2775     2766     2776     2759     2722     2700     2695 
    2732     2789     2839     2901     2982     3084     3191     3276 
    3329     3349     3356     3357     3353     3352     3316     3240 
    3161     3079     2986     2926     2917     2957     3048     3183 
    3353     3553     3765     3966     4164     4364     4533     4679 
    4831     4954     5031     5112     5197     5271     5356     5443 
    5490     5501     5512     5494     5440     5390     5351     5325 
    5351     5432     5547     5703     5892     6093     6312     6519 
    6673     6802     6916     6997     7044     7055     7026     6963 
    6866     6732     6573     6415     6249     6061     5871     5680 
    5464     5240     5027     4815     4630     4490     4395     4376 
    4438     4573     4797     5096     5440     5825     6235     6662 
    7105     7547     7983     8422     8841     9224     9585     9906 
   10156    10343    10509    10648    10744    10821    10878    10918 
   10990    11090    11186    11287    11365    11388    11384    11361 
   11290    11172    11016    10806    10558    10274     9958     9630 
    9304     8978     8664     8361     8060     7750     7435     7113 
    6771     6399     5984     5545     5088     4631     4233     3906 
    3646     3483     3450     3566     3813     4183     4669     5224 
    5825     6466     7105     7703     8244     8712     9116     9462 
    9737     9944    10096    10196    10249    10274    10243    10123 
    9925     9667     9325     8877     8349     7753     7069     6322 
    5543     4741     3932     3132     2367     1686     1117      660 
     333      110      -60     -171     -222     -229     -210     -197 
    -180     -149     -103      -37       47      152      286      460 
     683      939     1224     1539     1898     2284     2687     3114 
    3558     4020     4486     4935     5368     5782     6168     6525 
    6855     7153     7416     7650     7847     8023     8195     8356 
    8502     8625     8707     8752     8773     8765     8725     8669 
    8608     8544     8488     8452     8440     8432     8399     8347 
    8282     8198     8064     7881     7662     7399     7111     6813 
    6478     6123     5787     5468     5169     4893     4637     4398 
    4185     3977     3746     3487     3206     2921     2639     2382 
    2174     2018     1934     1953     2079     2288     2555     2856 
    3190     3537     3869     4187     4475     4731     5012     5319 
    5614     5899     6189     6475     6747     6995     7200     7365 
    7493     7573     7619     7658     7697     7751     7827     7908 
    7974     8027     8063     8062     8006     7884     7695     7452 
    7163     6866     6581     6292     6012     5768     5532     5270 
    4985     4675     4322     3946     3574     3195     2822     2501 
    2232     2042     1942     1925     2000     2174     2448     2813 
    3262     3792     4379     5023     5707     6423     7161     7894 
