Origin Time       2025/01/13 21:19:00
Lat.              31.8
Long.             131.6
Depth. (km)       30
Mag.              6.9
Station Code      SAG006
Station Lat.      33.1917
Station Long.     130.0317
Station Height(m) 9
Record Time       2025/01/13 21:20:46
Sampling Freq(Hz) 100Hz
Duration Time(s)  60
Dir.              N-S
Scale Factor      7845(gal)/8223790
Max. Acc. (gal)   2.975
Last Correction   2025/01/13 21:20:47
Memo.             
[...]
  -10152   -10192   -10239   -10280   -10312   -10345   -10380   -10419 
  -10466   -10509   -10539   -10559   -10582   -10623   -10679   -10728 
  -10756   -10768   -10768   -10763   -10752   -10735   -10706   -10670 
  -10629   -10593   -10575   -10574   -10567   -10543   -10512   -10478 
  -10450   -10446   -10457   -10450   -10420   -10388   -10358   -10343 
  -10342   -10322   -10282   -10242   -10200   -10162   -10134   -10104 
  -10071   -10039   -10022   -10012   -10008   -10017   -10049   -10096 
  -10147   -10199   -10253   -10309   -10377   -10458   -10546   -10629 
  -10705   -10781   -10854   -10922   -10991   -11055   -11103   -11136 
  -11145   -11138   -11119   -11094   -11067   -11043   -11013   -10974 
  -10930   -10893   -10863   -10829   -10775   -10710   -10648   -10589 
  -10528   -10470   -10417   -10372   -10332   -10291   -10257   -10237 
  -10220   -10212   -10210   -10200   -10189   -10172   -10145   -10122 
  -10096   -10065   -10039   -10023   -10007    -9984    -9952    -9903 
   -9857    -9837    -9842    -9872    -9914    -9948    -9980   -10021 
  -10072   -10137   -10219   -10303   -10384   -10466   -10544   -10621 
  -10690   -10748   -10802   -10851   -10897   -10951   -11005   -11037 
  -11052   -11045   -11026   -11010   -10994   -10967   -10928   -10876 
  -10827   -10786   -10744   -10706   -10670   -10623   -10569   -10520 
  -10478   -10436   -10396   -10351   -10288   -10212   -10145   -10091 
  -10061   -10060   -10073   -10091   -10114   -10142   -10177   -10227 
  -10281   -10330   -10385   -10454   -10530   -10609   -10683   -10743 
  -10778   -10789   -10790   -10795   -10798   -10800   -10795   -10777 
  -10750   -10724   -10698   -10681   -10669   -10656   -10647   -10636 
  -10611   -10571   -10538   -10515   -10493   -10471   -10451   -10430 
  -10405   -10374   -10341   -10299   -10245   -10188   -10134   -10080 
  -10025    -9964    -9894    -9822    -9751    -9682    -9624    -9576 
   -9528    -9479    -9440    -9405    -9377    -9351    -9316    -9271 
   -9229    -9192    -9158    -9128    -9105    -9088    -9080    -9082 
   -9094    -9112    -9140    -9174    -9207    -9239    -9273    -9310 
   -9344    -9370    -9391    -9420    -9452    -9490    -9544    -9607 
   -9678    -9760    -9853    -9946   -10042   -10143   -10250   -10365 
  -10489   -10615   -10731   -10829   -10908   -10967   -11017   -11051 
  -11065   -11065   -11049   -11020   -10978   -10932   -10882   -10833 
  -10790   -10752   -10720   -10693   -10663   -10632   -10598   -10565 
  -10539   -10523   -10504   -10485   -10467   -10449   -10431   -10419 
  -10413   -10417   -10436   -10473   -10528   -10586   -10638   -10692 
  -10747   -10805   -10866   -10916   -10953   -10982   -11006   -11029 
  -11037   -11028   -11013   -10991   -10960   -10924   -10874   -10806 
  -10732   -10665   -10604   -10547   -10494   -10453   -10409   -10365 
  -10332   -10316   -10315   -10314   -10304   -10291   -10278   -10272 
  -10266   -10265   -10276   -10291   -10304   -10327   -10355   -10385 
  -10423   -10474   -10535   -10593   -10639   -10687   -10741   -10790 
  -10829   -10862   -10882   -10893   -10898   -10885   -10855   -10820 
  -10773   -10716   -10656   -10589   -10515   -10435   -10347   -10262 
  -10185   -10110   -10037    -9968    -9898    -9828    -9756    -9691 
   -9651    -9634    -9639    -9657    -9680    -9699    -9714    -9741 
   -9794    -9887   -10021   -10172   -10319   -10455   -10578   -10693 
  -10809   -10925   -11028   -11110   -11182   -11236   -11265   -11272 
  -11257   -11219   -11176   -11140   -11097   -11040   -10982   -10930 
  -10885   -10839   -10791   -10741   -10690   -10644   -10597   -10542 
  -10484   -10432   -10386   -10346   -10318   -10304   -10309   -10326 
  -10345   -10358   -10368   -10385   -10417   -10453   -10473   -10481 
  -10481   -10471   -10450   -10424   -10396   -10363   -10328   -10288 
  -10241   -10207   -10187   -10160   -10130   -10106   -10073   -10045 
  -10034   -10029   -10023   -10025   -10022   -10008    -9984    -9953 
   -9923    -9899    -9877    -9860    -9845    -9826    -9802    -9772 
   -9741    -9726    -9728    -9734    -9742    -9764    -9796    -9836 
   -9883    -9936    -9980   -10025   -10069   -10098   -10114   -10120 
  -10126   -10123   -10107   -10092   -10080   -10060   -10038   -10015 
   -9995    -9984    -9980    -9983    -9994   -10010   -10030   -10050 
  -10073   -10110   -10145   -10180   -10222   -10266   -10319   -10378 
  -10428   -10465   -10488   -10497   -10497   -10489   -10481   -10473 
  -10459   -10436   -10403   -10358   -10311   -10268   -10223   -10173 
  -10123   -10073   -10029    -9994    -9960    -9929    -9909    -9896 
   -9888    -9883    -9888    -9913    -9950    -9992   -10033   -10071 
  -10107   -10141   -10181   -10223   -10261   -10301   -10338   -10365 
  -10393   -10423   -10458   -10507   -10562   -10616   -10675   -10736 
  -10791   -10837   -10874   -10901   -10928   -10955   -10976   -10993 
  -11001   -10994   -10979   -10956   -10933   -10913   -10894   -10875 
  -10852   -10820   -10794   -10774   -10752   -10727   -10689   -10643 
  -10600   -10563   -10532   -10505   -10477   -10444   -10419   -10399 
  -10376   -10354   -10332   -10300   -10253   -10199   -10139   -10081 
  -10033    -9991    -9948    -9902    -9855    -9809    -9769    -9736 
   -9702    -9666    -9630    -9599    -9574    -9551    -9532    -9518 
   -9504    -9490    -9483    -9489    -9508    -9540    -9582    -9629 
   -9683    -9741    -9807    -9879    -9950   -10022   -10092   -10162 
  -10243   -10327   -10400   -10476   -10554   -10620   -10677   -10732 
  -10789   -10854   -10921   -10984   -11044   -11101   -11151   -11209 
  -11265   -11317   -11369   -11419   -11458   -11497   -11527   -11539 
  -11538   -11524   -11502   -11465   -11408   -11337   -11249   -11145 
  -11033   -10916   -10782   -10642   -10509   -10386   -10272   -10158 
  -10039    -9937    -9860    -9802    -9761    -9742    -9740    -9742 
   -9756    -9788    -9844    -9922   -10018   -10123   -10226   -10328 
  -10444   -10569   -10693   -10812   -10913   -10999   -11082   -11146 
  -11191   -11223   -11230   -11209   -11179   -11144   -11105   -11072 
  -11030   -10967   -10905   -10863   -10827   -10797   -10783   -10764 
  -10737   -10721   -10705   -10685   -10675   -10659   -10623   -10567 
  -10498   -10440   -10408   -10370   -10309   -10238   -10168   -10107 
  -10066   -10045   -10029   -10002    -9960    -9921    -9903    -9903 
   -9917    -9941    -9965    -9980    -9990   -10010   -10057   -10122 
  -10177   -10216   -10258   -10297   -10318   -10349   -10393   -10401 
  -10386   -10417   -10489   -10539   -10547   -10538   -10515   -10470 
  -10442   -10430   -10376   -10277   -10169   -10065    -9965    -9864 
   -9769    -9688    -9620    -9568    -9524    -9478    -9447    -9452 
   -9481    -9514    -9555    -9598    -9637    -9676    -9730    -9806 
   -9895   -10006   -10125   -10203   -10219   -10203   -10206   -10261 
  -10342   -10404   -10447   -10474   -10484   -10484   -10496   -10532 
  -10571   -10597   -10602   -10574   -10517   -10476   -10482   -10507 
  -10494   -10453   -10397   -10328   -10277   -10246   -10206   -10172 
  -10164   -10150   -10112   -10064   -10018    -9983    -9954    -9934 
   -9918    -9887    -9863    -9873    -9887    -9876    -9888    -9918 
   -9930    -9936    -9950    -9977   -10031   -10091   -10111   -10089 
  -10071   -10099   -10152   -10172   -10146   -10110   -10089   -10092 
  -10100   -10084   -10064   -10066   -10072   -10060   -10029    -9994 
   -9985    -9996    -9990    -9960    -9906    -9855    -9849    -9852 
   -9814    -9786    -9792    -9786    -9774    -9795    -9815    -9821 
   -9837    -9853    -9869    -9886    -9890    -9914    -9938    -9899 
   -9868    -9929   -10000   -10006   -10006   -10058   -10138   -10204 
  -10250   -10314   -10408   -10497   -10590   -10690   -10750   -10787 
  -10868   -10966   -11007   -11017   -11060   -11114   -11142   -11157 
  -11167   -11167   -11153   -11138   -11125   -11106   -11095   -11094 
  -11071   -11026   -10989   -10972   -10957   -10929   -10903   -10895 
  -10881   -10839   -10787   -10750   -10725   -10720   -10729   -10717 
  -10677   -10648   -10646   -10635   -10608   -10579   -10559   -10539 
  -10507   -10463   -10422   -10369   -10309   -10273   -10241   -10185 
  -10142   -10133   -10116   -10081   -10069   -10081   -10091   -10108 
  -10146   -10183   -10216   -10265   -10323   -10372   -10419   -10490 
  -10579   -10644   -10687   -10750   -10829   -10909   -10999   -11087 
  -11140   -11182   -11249   -11321   -11364   -11394   -11434   -11476 
  -11502   -11502   -11496   -11496   -11506   -11524   -11527   -11489 
  -11429   -11365   -11307   -11249   -11173   -11080   -10975   -10851 
  -10717   -10585   -10457   -10334   -10215   -10103    -9994    -9890 
   -9796    -9714    -9653    -9610    -9574    -9541    -9506    -9490 
   -9518    -9560    -9559    -9536    -9559    -9621    -9670    -9701 
   -9738    -9788    -9845    -9902    -9938    -9948    -9964   -10008 
  -10044   -10029    -9983    -9953    -9945    -9925    -9873    -9813 
   -9761    -9714    -9666    -9605    -9525    -9450    -9405    -9381 
   -9352    -9319    -9296    -9289    -9294    -9310    -9336    -9369 
   -9413    -9471    -9529    -9582    -9632    -9684    -9740    -9801 
   -9865    -9930    -9999   -10076   -10146   -10204   -10265   -10322 
  -10365   -10399   -10422   -10432   -10440   -10446   -10444   -10446 
  -10444   -10439   -10443   -10453   -10457   -10457   -10453   -10442 
  -10431   -10422   -10415   -10412   -10401   -10382   -10363   -10341 
  -10315   -10293   -10278   -10276   -10285   -10304   -10341   -10389 
  -10446   -10517   -10609   -10710   -10820   -10937   -11059   -11176 
  -11286   -11383   -11457   -11508   -11543   -11561   -11562   -11546 
  -11518   -11483   -11431   -11365   -11295   -11226   -11156   -11088 
  -11029   -10970   -10908   -10847   -10789   -10740   -10712   -10706 
  -10713   -10728   -10751   -10774   -10801   -10835   -10868   -10895 
  -10925   -10952   -10966   -10970   -10970   -10967   -10956   -10937 
  -10909   -10871   -10825   -10775   -10725   -10671   -10617   -10565 
  -10517   -10482   -10462   -10450   -10453   -10477   -10517   -10573 
  -10643   -10716   -10790   -10864   -10925   -10971   -11009   -11033 
  -11038   -11030   -11005   -10960   -10905   -10841   -10767   -10685 
  -10596   -10501   -10405   -10318   -10235   -10149   -10071   -10007 
   -9954    -9918    -9895    -9879    -9873    -9879    -9887    -9899 
   -9911    -9929    -9956    -9981   -10000   -10017   -10025   -10029 
  -10038   -10042   -10038   -10035   -10029   -10014    -9994    -9963 
   -9925    -9883    -9829    -9763    -9676    -9568    -9450    -9329 
   -9207    -9082    -8964    -8851    -8742    -8642    -8556    -8486 
   -8437    -8413    -8407    -8424    -8461    -8514    -8581    -8668 
   -8770    -8883    -9011    -9146    -9279    -9414    -9545    -9674 
   -9794    -9902   -10003   -10085   -10146   -10189   -10218   -10230 
  -10228   -10218   -10193   -10161   -10125   -10089   -10052   -10022 
  -10008   -10004   -10015   -10057   -10125   -10208   -10305   -10412 
  -10528   -10654   -10785   -10920   -11057   -11187   -11299   -11402 
  -11491   -11560   -11608   -11632   -11642   -11634   -11600   -11554 
  -11499   -11422   -11338   -11252   -11157   -11067   -10984   -10908 
  -10841   -10785   -10737   -10701   -10673   -10660   -10665   -10687 
  -10725   -10767   -10808   -10849   -10886   -10920   -10952   -10974 
  -10991   -10998   -10991   -10983   -10978   -10974   -10972   -10980 
  -10989   -11001   -11025   -11053   -11086   -11122   -11153   -11179 
  -11203   -11223   -11238   -11253   -11267   -11276   -11284   -11295 
  -11302   -11299   -11290   -11280   -11267   -11248   -11223   -11192 
  -11151   -11106   -11071   -11041   -11007   -10975   -10944   -10905 
  -10862   -10810   -10760   -10710   -10656   -10608   -10559   -10505 
  -10451   -10397   -10347   -10301   -10260   -10224   -10192   -10158 
  -10123   -10088   -10054   -10021    -9995    -9980    -9965    -9957 
   -9956    -9949    -9958    -9977    -9994   -10010   -10019   -10023 
  -10031   -10034   -10044   -10060   -10073   -10100   -10125   -10134 
  -10153   -10173   -10184   -10200   -10201   -10191   -10179   -10147 
  -10118   -10095   -10060   -10025    -9991    -9941    -9892    -9850 
   -9809    -9782    -9769    -9771    -9791    -9825    -9873    -9925 
   -9971   -10022   -10077   -10127   -10177   -10214   -10233   -10250 
  -10258   -10260   -10251   -10222   -10192   -10170   -10129   -10087 
  -10049    -9994    -9942    -9896    -9842    -9796    -9745    -9687 
   -9641    -9591    -9541    -9505    -9463    -9424    -9397    -9366 
   -9343    -9332    -9323    -9323    -9332    -9342    -9356    -9367 
   -9371    -9374    -9360    -9340    -9329    -9309    -9285    -9258 
   -9207    -9148    -9096    -9038    -8984    -8937    -8889    -8857 
   -8826    -8803    -8799    -8792    -8793    -8818    -8843    -8870 
   -8911    -8954    -9012    -9093    -9190    -9304    -9427    -9568 
   -9729    -9886   -10054   -10234   -10409   -10600   -10798   -10978 
  -11157   -11329   -11491   -11657   -11808   -11954   -12105   -12236 
  -12367   -12514   -12653   -12791   -12922   -13045   -13165   -13263 
  -13344   -13414   -13451   -13464   -13463   -13435   -13393   -13342 
  -13261   -13173   -13077   -12962   -12850   -12737   -12610   -12486 
  -12349   -12204   -12062   -11913   -11770   -11646   -11510   -11389 
  -11295   -11192   -11091   -10994   -10889   -10789   -10687   -10585 
  -10490   -10395   -10301   -10210   -10110   -10018    -9927    -9834 
   -9763    -9690    -9616    -9560    -9504    -9455    -9424    -9393 
   -9371    -9362    -9352    -9356    -9363    -9362    -9370    -9375 
   -9387    -9410    -9424    -9441    -9459    -9458    -9459    -9459 
   -9445    -9432    -9410    -9391    -9379    -9354    -9337    -9328 
   -9310    -9310    -9324    -9339    -9382    -9428    -9472    -9531 
   -9583    -9636    -9691    -9738    -9791    -9837    -9861    -9880 
   -9886    -9876    -9867    -9846    -9823    -9795    -9753    -9725 
   -9705    -9679    -9668    -9664    -9661    -9680    -9703    -9734 
   -9790    -9855    -9941   -10054   -10169   -10295   -10427   -10550 
  -10674   -10794   -10898   -10995   -11082   -11160   -11233   -11279 
  -11307   -11323   -11315   -11298   -11267   -11215   -11165   -11106 
  -11032   -10963   -10885   -10798   -10724   -10636   -10535   -10442 
  -10346   -10247   -10153   -10056    -9973    -9907    -9848    -9805 
   -9765    -9729    -9714    -9702    -9706    -9734    -9769    -9818 
   -9876    -9925    -9984   -10048   -10106   -10181   -10257   -10322 
  -10380   -10413   -10450   -10501   -10535   -10565   -10585   -10574 
  -10563   -10540   -10500   -10470   -10424   -10361   -10305   -10247 
  -10196   -10145   -10080   -10025    -9972    -9927    -9909    -9890 
   -9872    -9873    -9865    -9871    -9898    -9917    -9946    -9992 
  -10038   -10103   -10170   -10233   -10311   -10392   -10474   -10571 
  -10658   -10728   -10786   -10839   -10901   -10949   -10986   -11026 
  -11053   -11080   -11110   -11124   -11141   -11159   -11160   -11172 
  -11176   -11161   -11151   -11125   -11083   -11051   -11010   -10970 
  -10937   -10890   -10847   -10809   -10762   -10725   -10690   -10655 
  -10636   -10615   -10593   -10585   -10563   -10547   -10544   -10532 
  -10519   -10512   -10500   -10493   -10474   -10449   -10431   -10405 
  -10378   -10361   -10331   -10303   -10270   -10226   -10181   -10133 
  -10073   -10017    -9950    -9886    -9830    -9768    -9713    -9664 
   -9610    -9571    -9537    -9508    -9498    -9493    -9493    -9513 
   -9528    -9548    -9587    -9622    -9661    -9711    -9764    -9822 
   -9882    -9940   -10002   -10061   -10127   -10189   -10239   -10293 
  -10342   -10377   -10422   -10455   -10477   -10508   -10524   -10536 
  -10566   -10578   -10582   -10593   -10592   -10592   -10600   -10602 
  -10620   -10636   -10644   -10666   -10682   -10686   -10694   -10697 
  -10694   -10690   -10681   -10678   -10671   -10660   -10654   -10642 
  -10633   -10644   -10656   -10686   -10733   -10783   -10848   -10910 
  -10975   -11056   -11122   -11183   -11252   -11295   -11330   -11360 
  -11368   -11371   -11358   -11327   -11296   -11244   -11179   -11121 
  -11048   -10968   -10889   -10793   -10687   -10574   -10451   -10335 
  -10215   -10096    -9981    -9859    -9744    -9639    -9533    -9441 
   -9356    -9277    -9217    -9159    -9104    -9069    -9043    -9031 
   -9026    -9018    -9026    -9039    -9045    -9059    -9063    -9058 
   -9059    -9051    -9045    -9045    -9040    -9047    -9050    -9054 
   -9074    -9085    -9097    -9124    -9146    -9173    -9207    -9236 
   -9277    -9317    -9352    -9394    -9435    -9490    -9551    -9602 
   -9671    -9745    -9810    -9896    -9991   -10084   -10189   -10292 
  -10390   -10497   -10598   -10694   -10791   -10887   -10982   -11065 
  -11138   -11205   -11245   -11277   -11303   -11303   -11302   -11294 
  -11261   -11233   -11195   -11138   -11082   -11013   -10935   -10856 
  -10766   -10675   -10594   -10507   -10431   -10363   -10293   -10231 
  -10169   -10108   -10062   -10014    -9969    -9944    -9921    -9906 
   -9900    -9892    -9896    -9910    -9927    -9965   -10007   -10052 
  -10103   -10145   -10187   -10230   -10269   -10316   -10353   -10381 
  -10416   -10435   -10440   -10447   -10438   -10423   -10411   -10386 
  -10365   -10338   -10304   -10284   -10261   -10238   -10231   -10223 
  -10222   -10230   -10233   -10239   -10249   -10253   -10268   -10281 
  -10293   -10315   -10326   -10331   -10341   -10342   -10342   -10338 
  -10330   -10326   -10312   -10289   -10268   -10239   -10206   -10174 
  -10143   -10118   -10089   -10061   -10046   -10030   -10015   -10022 
  -10029   -10044   -10077   -10110   -10149   -10201   -10251   -10312 
  -10377   -10436   -10497   -10548   -10590   -10632   -10660   -10689 
  -10719   -10740   -10770   -10797   -10813   -10835   -10845   -10847 
  -10858   -10862   -10870   -10885   -10890   -10905   -10922   -10925 
  -10936   -10951   -10960   -10976   -10987   -11005   -11025   -11034 
  -11052   -11078   -11098   -11125   -11151   -11171   -11186   -11190 
  -11194   -11198   -11186   -11176   -11165   -11142   -11125   -11110 
  -11090   -11074   -11049   -11022   -10995   -10956   -10920   -10879 
  -10829   -10779   -10717   -10643   -10571   -10488   -10401   -10316 
  -10226   -10147   -10073   -10004    -9953    -9895    -9836    -9794 
   -9751    -9721    -9707    -9691    -9684    -9686    -9686    -9695 
   -9707    -9722    -9741    -9759    -9784    -9811    -9841    -9884 
   -9918    -9946    -9984   -10012   -10045   -10084   -10107   -10139 
  -10183   -10211   -10247   -10289   -10328   -10385   -10442   -10498 
  -10571   -10639   -10701   -10767   -10824   -10881   -10939   -10984 
  -11018   -11041   -11052   -11059   -11053   -11043   -11024   -10994 
  -10964   -10928   -10886   -10845   -10795   -10750   -10710   -10662 
