Origin Time       2025/01/13 21:19:00
Lat.              31.8
Long.             131.6
Depth. (km)       30
Mag.              6.9
Station Code      SAG002
Station Lat.      33.4228
Station Long.     129.9192
Station Height(m) 208
Record Time       2025/01/13 21:20:39
Sampling Freq(Hz) 100Hz
Duration Time(s)  68
Dir.              N-S
Scale Factor      7845(gal)/8223790
Max. Acc. (gal)   1.311
Last Correction   2025/01/13 21:20:40
Memo.             
[...]
   -2246    -2193    -2128    -2065    -2014    -1962    -1907    -1857 
   -1806    -1755    -1706    -1686    -1710    -1759    -1796    -1804 
   -1771    -1709    -1640    -1590    -1578    -1610    -1669    -1736 
   -1792    -1823    -1814    -1783    -1763    -1767    -1794    -1822 
   -1817    -1787    -1755    -1734    -1736    -1742    -1740    -1726 
   -1695    -1651    -1617    -1610    -1637    -1688    -1734    -1761 
   -1765    -1753    -1732    -1703    -1680    -1676    -1694    -1728 
   -1771    -1821    -1861    -1860    -1811    -1737    -1669    -1649 
   -1683    -1736    -1776    -1794    -1788    -1783    -1790    -1811 
   -1842    -1863    -1869    -1877    -1894    -1918    -1941    -1956 
   -1960    -1949    -1911    -1848    -1776    -1703    -1620    -1520 
   -1418    -1336    -1287    -1290    -1367    -1512    -1688    -1861 
   -2004    -2100    -2154    -2178    -2192    -2197    -2187    -2151 
   -2084    -1984    -1856    -1722    -1605    -1514    -1459    -1448 
   -1463    -1475    -1479    -1486    -1505    -1549    -1614    -1684 
   -1753    -1811    -1850    -1883    -1906    -1912    -1907    -1900 
   -1898    -1902    -1888    -1850    -1802    -1742    -1657    -1576 
   -1521    -1487    -1472    -1470    -1460    -1441    -1408    -1362 
   -1325    -1313    -1318    -1336    -1378    -1453    -1563    -1710 
   -1890    -2066    -2215    -2320    -2378    -2389    -2371    -2340 
   -2296    -2232    -2157    -2083    -2003    -1904    -1780    -1634 
   -1480    -1356    -1283    -1250    -1248    -1278    -1337    -1428 
   -1547    -1669    -1776    -1856    -1899    -1904    -1881    -1841 
   -1783    -1717    -1655    -1594    -1541    -1510    -1509    -1526 
   -1551    -1574    -1582    -1587    -1611    -1657    -1705    -1741 
   -1756    -1749    -1736    -1713    -1682    -1653    -1648    -1675 
   -1728    -1794    -1871    -1948    -2006    -2041    -2056    -2065 
   -2077    -2085    -2070    -2031    -1980    -1921    -1861    -1811 
   -1771    -1730    -1669    -1572    -1463    -1378    -1336    -1343 
   -1394    -1476    -1571    -1660    -1737    -1788    -1813    -1838 
   -1887    -1942    -1985    -2011    -2008    -1975    -1925    -1880 
   -1857    -1858    -1891    -1946    -2002    -2052    -2089    -2106 
   -2103    -2080    -2023    -1941    -1845    -1740    -1637    -1545 
   -1471    -1422    -1387    -1362    -1355    -1366    -1394    -1437 
   -1505    -1598    -1703    -1784    -1815    -1800    -1757    -1695 
   -1636    -1586    -1537    -1486    -1431    -1372    -1321    -1296 
   -1308    -1359    -1441    -1539    -1634    -1725    -1819    -1922 
   -2038    -2162    -2258    -2307    -2304    -2250    -2153    -2029 
   -1894    -1767    -1669    -1617    -1601    -1599    -1607    -1622 
   -1633    -1647    -1671    -1701    -1741    -1786    -1821    -1848 
   -1865    -1880    -1896    -1922    -1954    -1975    -1964    -1926 
   -1869    -1804    -1742    -1687    -1638    -1593    -1555    -1544 
   -1574    -1645    -1728    -1794    -1845    -1880    -1900    -1926 
   -1952    -1954    -1941    -1918    -1890    -1869    -1863    -1877 
   -1914    -1953    -1968    -1944    -1888    -1823    -1755    -1687 
   -1626    -1557    -1485    -1436    -1420    -1424    -1444    -1489 
   -1559    -1645    -1753    -1877    -1998    -2106    -2209    -2297 
   -2357    -2385    -2396    -2397    -2405    -2419    -2423    -2398 
   -2339    -2236    -2093    -1927    -1764    -1630    -1532    -1474 
   -1452    -1441    -1421    -1368    -1286    -1206    -1156    -1152 
   -1198    -1274    -1359    -1447    -1539    -1653    -1799    -1953 
   -2076    -2147    -2168    -2141    -2073    -1975    -1857    -1738 
   -1649    -1607    -1605    -1625    -1651    -1674    -1695    -1717 
   -1733    -1750    -1771    -1792    -1811    -1829    -1852    -1875 
   -1888    -1887    -1887    -1895    -1899    -1898    -1903    -1911 
   -1925    -1923    -1891    -1848    -1813    -1783    -1761    -1750 
   -1737    -1714    -1694    -1686    -1682    -1665    -1620    -1551 
   -1478    -1406    -1327    -1250    -1196    -1170    -1175    -1206 
   -1255    -1310    -1364    -1418    -1472    -1521    -1575    -1645 
   -1734    -1826    -1910    -1980    -2045    -2115    -2188    -2249 
   -2276    -2247    -2174    -2087    -2003    -1934    -1865    -1784 
   -1706    -1641    -1593    -1556    -1520    -1480    -1443    -1406 
   -1385    -1385    -1389    -1395    -1417    -1467    -1545    -1641 
   -1740    -1833    -1907    -1948    -1961    -1965    -1968    -1965 
   -1957    -1945    -1918    -1861    -1791    -1728    -1678    -1661 
   -1686    -1733    -1777    -1800    -1804    -1795    -1775    -1760 
   -1773    -1807    -1840    -1856    -1850    -1823    -1773    -1709 
   -1663    -1657    -1676    -1694    -1694    -1678    -1655    -1629 
   -1607    -1594    -1595    -1629    -1675    -1698    -1692    -1679 
   -1679    -1702    -1741    -1787    -1836    -1873    -1892    -1898 
   -1899    -1898    -1892    -1884    -1873    -1861    -1856    -1864 
   -1871    -1861    -1837    -1811    -1810    -1836    -1884    -1946 
   -1991    -2003    -2000    -1998    -2007    -2019    -2016    -2003 
   -1979    -1948    -1919    -1883    -1831    -1775    -1732    -1721 
   -1722    -1709    -1680    -1642    -1595    -1539    -1480    -1440 
   -1435    -1459    -1495    -1533    -1564    -1584    -1601    -1620 
   -1653    -1707    -1768    -1818    -1852    -1883    -1908    -1918 
   -1922    -1922    -1918    -1921    -1927    -1937    -1950    -1973 
   -2002    -2020    -2014    -1979    -1931    -1891    -1856    -1818 
   -1782    -1738    -1668    -1580    -1497    -1413    -1324    -1243 
   -1183    -1155    -1146    -1155    -1196    -1259    -1327    -1383 
   -1435    -1502    -1583    -1657    -1711    -1745    -1763    -1775 
   -1786    -1791    -1796    -1807    -1823    -1841    -1858    -1871 
   -1879    -1887    -1899    -1915    -1934    -1962    -1996    -2022 
   -2031    -2029    -2018    -2012    -2018    -2029    -2035    -2033 
   -2010    -1968    -1927    -1902    -1885    -1883    -1904    -1946 
   -1992    -2037    -2080    -2116    -2145    -2169    -2188    -2192 
   -2174    -2130    -2056    -1956    -1854    -1767    -1706    -1669 
   -1638    -1599    -1566    -1544    -1536    -1541    -1556    -1567 
   -1563    -1545    -1522    -1493    -1453    -1408    -1345    -1263 
   -1177    -1096    -1023     -970     -949     -969    -1035    -1136 
   -1258    -1387    -1505    -1609    -1709    -1802    -1875    -1930 
   -1980    -2033    -2087    -2134    -2166    -2197    -2231    -2259 
   -2263    -2238    -2187    -2116    -2038    -1964    -1912    -1895 
   -1900    -1895    -1857    -1786    -1694    -1602    -1525    -1460 
   -1409    -1378    -1359    -1341    -1336    -1356    -1401    -1468 
   -1544    -1617    -1684    -1752    -1834    -1923    -2004    -2069 
   -2124    -2169    -2191    -2184    -2164    -2137    -2107    -2070 
   -2008    -1929    -1848    -1771    -1699    -1648    -1624    -1615 
   -1611    -1606    -1595    -1578    -1555    -1539    -1528    -1513 
   -1509    -1526    -1543    -1547    -1547    -1553    -1576    -1617 
   -1671    -1736    -1809    -1890    -1975    -2052    -2119    -2176 
   -2207    -2208    -2176    -2112    -2014    -1877    -1714    -1536 
   -1368    -1236    -1135    -1058    -1008     -989    -1013    -1089 
   -1201    -1333    -1472    -1614    -1757    -1887    -1983    -2049 
   -2101    -2147    -2187    -2216    -2239    -2254    -2251    -2227 
   -2181    -2115    -2034    -1937    -1840    -1752    -1687    -1638 
   -1591    -1533    -1464    -1387    -1313    -1266    -1250    -1271 
   -1329    -1413    -1503    -1595    -1688    -1780    -1858    -1917 
   -1961    -1998    -2014    -2003    -1968    -1921    -1871    -1809 
   -1740    -1686    -1659    -1653    -1661    -1676    -1694    -1719 
   -1764    -1823    -1891    -1949    -1989    -2014    -2023    -2011 
   -1972    -1908    -1830    -1738    -1645    -1551    -1459    -1398 
   -1383    -1409    -1470    -1556    -1652    -1753    -1871    -1995 
   -2111    -2200    -2243    -2242    -2214    -2169    -2110    -2039 
   -1953    -1853    -1746    -1645    -1560    -1495    -1448    -1420 
   -1416    -1435    -1466    -1490    -1502    -1517    -1544    -1572 
   -1591    -1605    -1624    -1671    -1753    -1854    -1968    -2079 
   -2170    -2238    -2278    -2286    -2266    -2220    -2150    -2069 
   -1989    -1911    -1831    -1750    -1668    -1570    -1448    -1312 
   -1169    -1042     -953     -907     -905     -945    -1015    -1123 
   -1260    -1418    -1583    -1732    -1846    -1919    -1966    -1991 
   -1991    -1972    -1950    -1930    -1918    -1918    -1926    -1935 
   -1942    -1931    -1900    -1856    -1813    -1775    -1746    -1734 
   -1719    -1686    -1636    -1580    -1536    -1516    -1509    -1512 
   -1526    -1560    -1613    -1686    -1772    -1869    -1980    -2095 
   -2199    -2295    -2378    -2443    -2486    -2506    -2500    -2463 
   -2397    -2307    -2196    -2073    -1933    -1775    -1609    -1452 
   -1314    -1205    -1135    -1111    -1129    -1183    -1259    -1343 
   -1426    -1506    -1586    -1676    -1777    -1879    -1980    -2081 
   -2174    -2253    -2313    -2347    -2349    -2328    -2290    -2241 
   -2181    -2110    -2018    -1899    -1746    -1567    -1395    -1244 
   -1112    -1019     -967     -934     -912     -901     -896     -912 
    -961    -1035    -1139    -1279    -1443    -1611    -1791    -1979 
   -2154    -2299    -2393    -2427    -2403    -2328    -2207    -2050 
   -1880    -1713    -1556    -1412    -1289    -1201    -1148    -1120 
   -1120    -1143    -1181    -1236    -1301    -1367    -1428    -1487 
   -1551    -1617    -1686    -1749    -1802    -1852    -1894    -1912 
   -1911    -1903    -1884    -1857    -1836    -1818    -1799    -1786 
   -1792    -1823    -1873    -1923    -1971    -2015    -2060    -2101 
   -2131    -2141    -2128    -2106    -2074    -2041    -2014    -1999 
   -1993    -1991    -1985    -1975    -1965    -1965    -1977    -1998 
   -2022    -2053    -2093    -2133    -2151    -2147    -2133    -2114 
   -2096    -2083    -2073    -2069    -2070    -2065    -2046    -2011 
   -1950    -1867    -1760    -1632    -1494    -1360    -1244    -1159 
   -1108    -1086    -1104    -1162    -1254    -1374    -1513    -1657 
   -1800    -1939    -2073    -2193    -2292    -2363    -2404    -2413 
   -2394    -2350    -2285    -2195    -2087    -1985    -1904    -1838 
   -1776    -1715    -1667    -1630    -1613    -1611    -1615    -1632 
   -1655    -1664    -1655    -1647    -1647    -1642    -1629    -1617 
   -1611    -1615    -1624    -1617    -1586    -1539    -1479    -1408 
   -1324    -1233    -1148    -1084    -1044    -1031    -1047    -1092 
   -1144    -1194    -1251    -1332    -1432    -1548    -1679    -1806 
   -1918    -2015    -2088    -2154    -2212    -2251    -2282    -2307 
   -2315    -2311    -2300    -2281    -2259    -2219    -2151    -2064 
   -1958    -1840    -1730    -1641    -1570    -1509    -1458    -1412 
   -1374    -1350    -1340    -1340    -1335    -1309    -1277    -1255 
   -1242    -1232    -1228    -1228    -1235    -1244    -1259    -1282 
   -1318    -1363    -1420    -1502    -1615    -1753    -1894    -2020 
   -2127    -2196    -2224    -2230    -2227    -2209    -2174    -2137 
   -2088    -2022    -1946    -1865    -1780    -1701    -1624    -1544 
   -1464    -1390    -1320    -1248    -1177    -1108    -1059    -1039 
   -1034    -1043    -1070    -1098    -1116    -1144    -1197    -1283 
   -1413    -1587    -1794    -2010    -2203    -2351    -2448    -2506 
   -2529    -2525    -2494    -2425    -2322    -2200    -2079    -1965 
   -1871    -1800    -1761    -1734    -1707    -1674    -1626    -1564 
   -1503    -1437    -1364    -1302    -1256    -1233    -1246    -1282 
   -1331    -1387    -1447    -1503    -1561    -1620    -1684    -1755 
   -1833    -1925    -2026    -2119    -2200    -2254    -2272    -2243 
   -2168    -2056    -1923    -1784    -1656    -1552    -1479    -1436 
   -1420    -1432    -1462    -1498    -1547    -1606    -1667    -1718 
   -1760    -1800    -1842    -1890    -1941    -1999    -2064    -2123 
   -2160    -2178    -2185    -2168    -2138    -2108    -2083    -2066 
   -2069    -2083    -2104    -2141    -2188    -2243    -2311    -2376 
   -2434    -2474    -2486    -2477    -2450    -2401    -2338    -2266 
   -2193    -2134    -2093    -2060    -2022    -1973    -1914    -1845 
   -1779    -1706    -1636    -1580    -1530    -1476    -1422    -1367 
   -1314    -1278    -1259    -1251    -1247    -1246    -1250    -1270 
   -1324    -1420    -1555    -1721    -1895    -2054    -2185    -2270 
   -2308    -2316    -2307    -2286    -2262    -2231    -2191    -2150 
   -2126    -2115    -2119    -2143    -2177    -2215    -2259    -2309 
   -2362    -2417    -2465    -2494    -2501    -2484    -2442    -2384 
   -2308    -2209    -2083    -1923    -1742    -1548    -1344    -1144 
    -966     -822     -726     -695     -727     -814     -945    -1097 
   -1256    -1413    -1557    -1683    -1787    -1868    -1921    -1942 
   -1925    -1869    -1784    -1669    -1528    -1381    -1246    -1113 
    -973     -832     -693     -565     -463     -396     -378     -419 
    -523     -692     -918    -1163    -1399    -1620    -1819    -1983 
   -2103    -2200    -2284    -2338    -2358    -2353    -2335    -2304 
   -2236    -2127    -1996    -1856    -1707    -1566    -1448    -1360 
   -1302    -1278    -1291    -1336    -1402    -1486    -1583    -1679 
   -1777    -1887    -2004    -2123    -2235    -2328    -2398    -2452 
   -2489    -2509    -2528    -2542    -2532    -2493    -2432    -2357 
   -2268    -2169    -2079    -1998    -1929    -1881    -1860    -1860 
   -1888    -1929    -1977    -2023    -2050    -2072    -2104    -2135 
   -2154    -2158    -2155    -2157    -2162    -2166    -2165    -2158 
   -2150    -2128    -2081    -2022    -1961    -1885    -1784    -1671 
   -1555    -1441    -1348    -1283    -1232    -1183    -1143    -1123 
   -1124    -1144    -1171    -1193    -1200    -1194    -1175    -1139 
   -1094    -1042     -988     -949     -935     -949     -994    -1073 
   -1170    -1283    -1428    -1606    -1802    -2003    -2203    -2380 
   -2524    -2633    -2706    -2741    -2731    -2677    -2583    -2458 
   -2305    -2135    -1962    -1792    -1629    -1486    -1356    -1235 
   -1136    -1075    -1043    -1044    -1077    -1123    -1179    -1240 
   -1297    -1352    -1391    -1417    -1448    -1480    -1502    -1517 
   -1532    -1539    -1536    -1522    -1502    -1476    -1432    -1372 
   -1310    -1254    -1210    -1182    -1167    -1185    -1231    -1302 
   -1405    -1526    -1647    -1761    -1860    -1942    -2012    -2062 
   -2096    -2116    -2131    -2130    -2104    -2068    -2026    -1973 
   -1921    -1876    -1845    -1845    -1881    -1944    -2023    -2126 
   -2254    -2393    -2535    -2675    -2799    -2894    -2947    -2952 
   -2902    -2798    -2654    -2492    -2331    -2168    -1998    -1849 
   -1733    -1634    -1541    -1453    -1367    -1281    -1205    -1147 
   -1116    -1124    -1170    -1233    -1306    -1402    -1528    -1676 
   -1844    -2011    -2155    -2282    -2393    -2485    -2562    -2616 
   -2646    -2655    -2643    -2605    -2546    -2469    -2392    -2316 
   -2241    -2173    -2115    -2058    -2002    -1937    -1868    -1800 
   -1745    -1713    -1706    -1719    -1746    -1780    -1814    -1830 
   -1836    -1830    -1807    -1772    -1723    -1668    -1607    -1543 
   -1474    -1412    -1362    -1321    -1294    -1287    -1287    -1282 
   -1266    -1242    -1220    -1196    -1167    -1146    -1131    -1108 
   -1078    -1046    -1004     -959     -927     -911     -915     -930 
    -947     -965     -981     -988     -989    -1005    -1036    -1078 
   -1134    -1202    -1283    -1367    -1448    -1525    -1591    -1634 
   -1651    -1642    -1617    -1575    -1525    -1489    -1464    -1439 
   -1408    -1370    -1340    -1317    -1294    -1273    -1255    -1240 
   -1244    -1246    -1232    -1223    -1224    -1247    -1302    -1370 
   -1447    -1545    -1645    -1714    -1741    -1736    -1699    -1634 
   -1566    -1512    -1482    -1472    -1485    -1509    -1534    -1566 
   -1607    -1665    -1740    -1830    -1930    -2034    -2143    -2258 
   -2366    -2469    -2570    -2656    -2724    -2764    -2767    -2728 
   -2659    -2571    -2473    -2363    -2246    -2119    -1989    -1865 
   -1750    -1660    -1603    -1571    -1560    -1568    -1587    -1610 
   -1641    -1684    -1742    -1806    -1876    -1952    -2020    -2080 
   -2123    -2153    -2169    -2176    -2199    -2228    -2246    -2251 
   -2242    -2212    -2174    -2133    -2093    -2064    -2043    -2033 
   -2033    -2041    -2064    -2099    -2141    -2192    -2257    -2324 
   -2390    -2443    -2484    -2523    -2555    -2565    -2558    -2528 
   -2459    -2354    -2230    -2097    -1973    -1852    -1738    -1640 
   -1555    -1483    -1428    -1395    -1385    -1375    -1366    -1368 
   -1378    -1390    -1405    -1424    -1431    -1420    -1412    -1422 
   -1456    -1509    -1574    -1648    -1714    -1756    -1784    -1802 
   -1799    -1777    -1748    -1718    -1688    -1657    -1625    -1588 
   -1541    -1491    -1463    -1456    -1451    -1444    -1448    -1459 
   -1468    -1489    -1530    -1584    -1634    -1679    -1721    -1756 
   -1772    -1775    -1776    -1782    -1779    -1772    -1771    -1765 
   -1736    -1682    -1611    -1514    -1389    -1259    -1138    -1020 
    -918     -843     -805     -808     -849     -923    -1021    -1135 
   -1256    -1390    -1529    -1671    -1809    -1933    -2043    -2145 
   -2228    -2290    -2331    -2358    -2369    -2359    -2331    -2278 
   -2204    -2110    -1992    -1860    -1722    -1580    -1441    -1325 
   -1232    -1150    -1101    -1108    -1154    -1215    -1286    -1374 
   -1470    -1563    -1653    -1734    -1811    -1887    -1958    -2014 
   -2050    -2079    -2110    -2138    -2157    -2165    -2178    -2205 
   -2228    -2238    -2239    -2228    -2200    -2157    -2106    -2053 
   -2000    -1949    -1907    -1890    -1885    -1881    -1880    -1891 
   -1900    -1899    -1891    -1887    -1881    -1873    -1872    -1873 
   -1864    -1844    -1823    -1803    -1786    -1782    -1792    -1803 
   -1799    -1788    -1784    -1788    -1798    -1814    -1827    -1833 
   -1825    -1795    -1744    -1683    -1615    -1549    -1495    -1449 
   -1417    -1414    -1440    -1476    -1521    -1568    -1611    -1640 
   -1651    -1651    -1644    -1624    -1590    -1537    -1462    -1363 
   -1255    -1156    -1071    -1000     -945     -908     -892     -893 
    -909     -942     -986    -1051    -1147    -1266    -1397    -1537 
   -1672    -1792    -1902    -2000    -2087    -2165    -2231    -2281 
   -2313    -2327    -2330    -2324    -2311    -2288    -2247    -2178 
   -2080    -1949    -1775    -1575    -1379    -1194    -1023     -878 
