Origin Time       2025/01/13 21:19:00
Lat.              31.8
Long.             131.6
Depth. (km)       30
Mag.              6.9
Station Code      SAG001
Station Lat.      33.5274
Station Long.     129.8772
Station Height(m) 40
Record Time       2025/01/13 21:20:50
Sampling Freq(Hz) 100Hz
Duration Time(s)  60
Dir.              E-W
Scale Factor      7845(gal)/8223790
Max. Acc. (gal)   1.589
Last Correction   2025/01/13 21:20:51
Memo.             
[...]
   -7832    -7838    -7857    -7866    -7875    -7894    -7905    -7908 
   -7919    -7932    -7935    -7936    -7944    -7950    -7960    -7967 
   -7958    -7955    -7958    -7950    -7952    -7963    -7967    -7973 
   -7973    -7978    -7990    -7987    -7989    -8016    -8028    -8024 
   -8043    -8051    -8021    -8019    -8032    -8000    -7977    -7982 
   -7948    -7913    -7901    -7866    -7836    -7832    -7821    -7808 
   -7800    -7782    -7762    -7755    -7753    -7738    -7727    -7735 
   -7738    -7742    -7758    -7753    -7747    -7762    -7763    -7771 
   -7794    -7788    -7786    -7801    -7781    -7755    -7755    -7731 
   -7705    -7711    -7700    -7684    -7704    -7713    -7717    -7762 
   -7792    -7798    -7840    -7870    -7873    -7902    -7921    -7925 
   -7947    -7950    -7942    -7951    -7935    -7911    -7904    -7882 
   -7858    -7844    -7828    -7816    -7803    -7778    -7761    -7738 
   -7705    -7678    -7649    -7605    -7574    -7550    -7511    -7480 
   -7464    -7441    -7423    -7420    -7412    -7411    -7429    -7441 
   -7461    -7499    -7528    -7562    -7604    -7631    -7655    -7680 
   -7701    -7742    -7778    -7817    -7877    -7927    -7977    -8037 
   -8083    -8139    -8209    -8247    -8290    -8343    -8367    -8394 
   -8433    -8441    -8448    -8467    -8463    -8455    -8457    -8438 
   -8418    -8413    -8392    -8356    -8324    -8283    -8240    -8199 
   -8151    -8100    -8055    -8005    -7962    -7927    -7884    -7842 
   -7813    -7790    -7771    -7755    -7734    -7713    -7704    -7693 
   -7678    -7677    -7680    -7677    -7684    -7696    -7696    -7700 
   -7713    -7726    -7743    -7770    -7782    -7792    -7812    -7812 
   -7807    -7820    -7808    -7789    -7798    -7776    -7731    -7724 
   -7707    -7672    -7681    -7682    -7651    -7645    -7638    -7607 
   -7600    -7600    -7589    -7607    -7627    -7619    -7632    -7649 
   -7636    -7638    -7647    -7641    -7651    -7655    -7642    -7657 
   -7681    -7681    -7703    -7747    -7762    -7780    -7816    -7816 
   -7808    -7830    -7828    -7821    -7848    -7847    -7828    -7839 
   -7834    -7816    -7820    -7812    -7809    -7836    -7840    -7835 
   -7852    -7847    -7834    -7850    -7850    -7832    -7844    -7848 
   -7835    -7843    -7842    -7825    -7823    -7817    -7808    -7813 
   -7805    -7794    -7804    -7803    -7785    -7788    -7788    -7765 
   -7753    -7750    -7734    -7724    -7734    -7736    -7742    -7763 
   -7770    -7767    -7788    -7809    -7819    -7835    -7850    -7848 
   -7842    -7839    -7836    -7820    -7803    -7796    -7776    -7743 
   -7726    -7692    -7639    -7620    -7604    -7564    -7554    -7550 
   -7516    -7504    -7507    -7487    -7488    -7510    -7506    -7507 
   -7531    -7533    -7531    -7558    -7574    -7581    -7609    -7645 
   -7674    -7712    -7747    -7771    -7804    -7850    -7882    -7916 
   -7967    -7998    -8028    -8089    -8127    -8140    -8181    -8216 
   -8239    -8284    -8317    -8330    -8357    -8372    -8378    -8392 
   -8387    -8371    -8368    -8353    -8326    -8303    -8266    -8218 
   -8182    -8143    -8093    -8054    -8016    -7977    -7948    -7919 
   -7881    -7855    -7830    -7803    -7794    -7780    -7763    -7762 
   -7755    -7750    -7750    -7734    -7731    -7746    -7743    -7749 
   -7771    -7778    -7786    -7813    -7825    -7832    -7863    -7890 
   -7900    -7924    -7954    -7966    -7986    -8006    -8012    -8016 
   -8012    -8002    -7993    -7975    -7962    -7947    -7917    -7904 
   -7882    -7840    -7816    -7796    -7749    -7712    -7693    -7655 
   -7615    -7593    -7560    -7511    -7491    -7469    -7415    -7389 
   -7383    -7349    -7341    -7361    -7353    -7361    -7402    -7423 
   -7446    -7489    -7522    -7545    -7582    -7620    -7631    -7646 
   -7673    -7682    -7685    -7697    -7696    -7682    -7681    -7692 
   -7696    -7696    -7708    -7716    -7711    -7705    -7697    -7681 
   -7663    -7636    -7605    -7572    -7534    -7511    -7485    -7447 
   -7431    -7408    -7366    -7357    -7344    -7310    -7314    -7317 
   -7298    -7311    -7323    -7317    -7337    -7356    -7360    -7385 
   -7411    -7416    -7437    -7465    -7484    -7520    -7566    -7600 
   -7641    -7677    -7708    -7754    -7792    -7817    -7863    -7898 
   -7912    -7943    -7965    -7970    -7997    -8019    -8024    -8051 
   -8075    -8083    -8117    -8154    -8162    -8187    -8220    -8216 
   -8218    -8235    -8221    -8214    -8225    -8199    -8174    -8166 
   -8131    -8097    -8095    -8077    -8052    -8058    -8051    -8044 
   -8060    -8052    -8043    -8062    -8052    -8044    -8067    -8058 
   -8044    -8063    -8063    -8055    -8063    -8051    -8040    -8058 
   -8055    -8040    -8052    -8046    -8021    -8039    -8047    -8027 
   -8040    -8056    -8056    -8081    -8083    -8064    -8086    -8098 
   -8073    -8068    -8055    -8005    -7973    -7933    -7866    -7821 
   -7776    -7695    -7642    -7603    -7531    -7481    -7452    -7404 
   -7380    -7375    -7349    -7341    -7356    -7364    -7373    -7403 
   -7442    -7466    -7493    -7537    -7565    -7582    -7618    -7639 
   -7651    -7676    -7685    -7685    -7703    -7708    -7700    -7715 
   -7731    -7727    -7747    -7771    -7767    -7784    -7803    -7803 
   -7831    -7854    -7848    -7873    -7888    -7867    -7879    -7886 
   -7854    -7850    -7851    -7824    -7823    -7824    -7792    -7777 
   -7773    -7740    -7719    -7713    -7696    -7685    -7684    -7677 
   -7665    -7649    -7645    -7650    -7642    -7636    -7642    -7634 
   -7634    -7645    -7649    -7653    -7670    -7692    -7713    -7739 
   -7766    -7790    -7832    -7882    -7912    -7948    -8005    -8046 
   -8086    -8137    -8162    -8185    -8221    -8245    -8264    -8284 
   -8303    -8320    -8336    -8367    -8394    -8399    -8415    -8440 
   -8445    -8444    -8452    -8451    -8438    -8433    -8422    -8387 
   -8360    -8341    -8303    -8282    -8279    -8245    -8210    -8209 
   -8193    -8164    -8163    -8160    -8152    -8162    -8172    -8166 
   -8160    -8155    -8135    -8116    -8102    -8067    -8029    -8004 
   -7958    -7912    -7877    -7824    -7780    -7742    -7703    -7684 
   -7665    -7643    -7638    -7639    -7650    -7670    -7685    -7707 
   -7736    -7765    -7793    -7816    -7835    -7852    -7867    -7884 
   -7892    -7886    -7882    -7878    -7866    -7850    -7836    -7821 
   -7808    -7789    -7759    -7734    -7705    -7665    -7635    -7609 
   -7561    -7518    -7479    -7418    -7366    -7323    -7256    -7199 
   -7161    -7111    -7065    -7042    -7010    -6991    -7005    -7011 
   -7017    -7041    -7071    -7110    -7157    -7198    -7237    -7261 
   -7280    -7304    -7308    -7299    -7302    -7296    -7285    -7287 
   -7272    -7250    -7249    -7249    -7248    -7269    -7279    -7287 
   -7335    -7379    -7415    -7495    -7560    -7604    -7692    -7773 
   -7817    -7884    -7936    -7956    -7994    -8016    -8005    -8008 
   -8001    -7978    -7977    -7971    -7952    -7965    -7989    -8000 
   -8032    -8081    -8112    -8148    -8203    -8243    -8279    -8333 
   -8368    -8392    -8424    -8432    -8417    -8401    -8384    -8357 
   -8313    -8275    -8249    -8205    -8159    -8133    -8094    -8046 
   -8016    -7986    -7955    -7938    -7923    -7912    -7911    -7917 
   -7938    -7946    -7947    -7971    -7990    -7987    -8010    -8029 
   -8010    -8016    -8032    -8009    -7998    -8000    -7969    -7939 
   -7916    -7878    -7855    -7839    -7827    -7840    -7855    -7870 
   -7908    -7942    -7967    -8009    -8037    -8052    -8075    -8094 
   -8108    -8116    -8112    -8110    -8105    -8075    -8044    -8027 
   -7998    -7974    -7969    -7955    -7943    -7952    -7958    -7965 
   -7990    -8016    -8037    -8066    -8097    -8124    -8139    -8151 
   -8158    -8141    -8124    -8109    -8064    -8019    -7981    -7928 
   -7881    -7840    -7789    -7750    -7709    -7663    -7647    -7631 
   -7609    -7627    -7646    -7651    -7696    -7744    -7769    -7828 
   -7886    -7908    -7948    -7987    -7985    -7992    -8002    -7979 
   -7963    -7955    -7928    -7897    -7875    -7857    -7836    -7817 
   -7808    -7796    -7788    -7794    -7803    -7824    -7865    -7900 
   -7938    -7986    -8032    -8077    -8124    -8163    -8202    -8240 
   -8276    -8309    -8325    -8338    -8359    -8370    -8367    -8367 
   -8356    -8324    -8299    -8280    -8230    -8178    -8137    -8086 
   -8035    -7990    -7933    -7869    -7805    -7749    -7692    -7627 
   -7572    -7520    -7462    -7414    -7360    -7304    -7273    -7236 
   -7191    -7172    -7140    -7101    -7083    -7057    -7028    -7022 
   -7003    -6986    -6994    -6998    -6991    -6998    -7005    -7001 
   -7003    -7020    -7022    -7021    -7037    -7048    -7051    -7076 
   -7102    -7111    -7142    -7192    -7226    -7258    -7312    -7357 
   -7395    -7450    -7496    -7518    -7550    -7582    -7597    -7624 
   -7650    -7668    -7701    -7735    -7763    -7808    -7835    -7844 
   -7877    -7905    -7911    -7927    -7948    -7956    -7967    -7985 
   -7994    -7998    -8016    -8046    -8071    -8090    -8113    -8133 
   -8151    -8176    -8197    -8203    -8224    -8251    -8263    -8282 
   -8307    -8313    -8317    -8337    -8351    -8357    -8374    -8399 
   -8426    -8452    -8482    -8518    -8549    -8568    -8599    -8627 
   -8645    -8675    -8706    -8730    -8769    -8804    -8829    -8854 
   -8862    -8868    -8880    -8862    -8839    -8822    -8775    -8722 
   -8677    -8604    -8521    -8455    -8387    -8328    -8274    -8214 
   -8176    -8143    -8093    -8059    -8025    -7975    -7948    -7923 
   -7867    -7831    -7789    -7717    -7666    -7622    -7551    -7493 
   -7445    -7377    -7331    -7287    -7206    -7145    -7105    -7036 
   -6979    -6945    -6897    -6855    -6828    -6787    -6743    -6700 
   -6654    -6613    -6582    -6551    -6513    -6482    -6467    -6450 
   -6436    -6436    -6432    -6443    -6474    -6496    -6527    -6570 
   -6609    -6669    -6737    -6793    -6867    -6949    -7017    -7106 
   -7196    -7250    -7321    -7400    -7439    -7487    -7549    -7568 
   -7587    -7627    -7635    -7631    -7645    -7641    -7630    -7639 
   -7650    -7659    -7678    -7696    -7713    -7736    -7750    -7763 
   -7780    -7790    -7815    -7844    -7857    -7882    -7924    -7954 
   -7993    -8036    -8058    -8098    -8148    -8176    -8225    -8287 
   -8322    -8372    -8445    -8482    -8511    -8565    -8591    -8606 
   -8649    -8668    -8672    -8707    -8734    -8752    -8792    -8819 
   -8835    -8881    -8916    -8930    -8966    -8985    -8973    -8978 
   -8980    -8953    -8932    -8910    -8874    -8847    -8826    -8802 
   -8780    -8762    -8753    -8742    -8730    -8725    -8711    -8680 
   -8665    -8641    -8590    -8560    -8526    -8473    -8448    -8417 
   -8359    -8334    -8311    -8264    -8243    -8221    -8189    -8189 
   -8183    -8154    -8158    -8151    -8110    -8102    -8095    -8048 
   -8020    -8004    -7954    -7912    -7877    -7804    -7726    -7663 
   -7584    -7495    -7414    -7321    -7225    -7150    -7079    -7001 
   -6924    -6858    -6809    -6767    -6728    -6706    -6694    -6689 
   -6706    -6732    -6751    -6786    -6828    -6864    -6913    -6960 
   -6987    -7028    -7069    -7084    -7109    -7136    -7130    -7133 
   -7150    -7141    -7141    -7155    -7149    -7161    -7188    -7187 
   -7202    -7244    -7258    -7283    -7337    -7371    -7403    -7453 
   -7493    -7528    -7568    -7607    -7636    -7661    -7693    -7719 
   -7728    -7751    -7778    -7788    -7803    -7815    -7808    -7801 
   -7801    -7797    -7781    -7770    -7771    -7767    -7774    -7788 
   -7777    -7774    -7789    -7781    -7781    -7800    -7797    -7790 
   -7801    -7809    -7804    -7808    -7834    -7847    -7863    -7900 
   -7919    -7932    -7971    -8000    -8016    -8058    -8102    -8125 
   -8163    -8216    -8247    -8290    -8361    -8411    -8463    -8552 
   -8619    -8676    -8760    -8814    -8854    -8923    -8962    -8977 
   -9009    -9019    -9000    -8984    -8949    -8900    -8853    -8789 
   -8722    -8656    -8576    -8492    -8422    -8351    -8270    -8199 
   -8143    -8089    -8041    -7998    -7956    -7932    -7912    -7885 
   -7871    -7857    -7831    -7817    -7811    -7794    -7793    -7801 
   -7797    -7808    -7825    -7827    -7836    -7857    -7866    -7885 
   -7915    -7932    -7951    -7974    -7985    -8000    -8013    -8008 
   -8013    -8029    -8027    -8021    -8013    -7998    -7985    -7966 
   -7943    -7923    -7894    -7870    -7842    -7797    -7750    -7695 
   -7631    -7582    -7537    -7488    -7458    -7435    -7420    -7430 
   -7439    -7446    -7481    -7523    -7554    -7591    -7622    -7650 
   -7681    -7699    -7717    -7742    -7743    -7740    -7753    -7754 
   -7747    -7753    -7743    -7722    -7711    -7690    -7646    -7609 
   -7566    -7506    -7456    -7396    -7318    -7249    -7176    -7091 
   -7015    -6934    -6843    -6760    -6675    -6592    -6527    -6454 
   -6381    -6345    -6309    -6262    -6241    -6220    -6192    -6185 
   -6176    -6157    -6158    -6177    -6196    -6227    -6280    -6335 
   -6393    -6473    -6562    -6644    -6731    -6826    -6924    -7030 
   -7145    -7246    -7341    -7449    -7547    -7627    -7719    -7807 
   -7871    -7951    -8033    -8085    -8144    -8216    -8263    -8321 
   -8386    -8421    -8463    -8519    -8548    -8569    -8603    -8617 
   -8621    -8631    -8635    -8623    -8604    -8581    -8559    -8533 
   -8509    -8494    -8482    -8471    -8471    -8491    -8511    -8526 
   -8554    -8592    -8626    -8665    -8708    -8756    -8799    -8837 
   -8876    -8903    -8919    -8934    -8941    -8935    -8926    -8907 
   -8874    -8830    -8783    -8735    -8677    -8617    -8561    -8507 
   -8451    -8391    -8336    -8286    -8225    -8171    -8127    -8066 
   -8004    -7959    -7913    -7867    -7828    -7789    -7747    -7704 
   -7673    -7647    -7607    -7578    -7566    -7542    -7533    -7537 
   -7519    -7514    -7528    -7527    -7534    -7550    -7557    -7576 
   -7595    -7603    -7618    -7627    -7618    -7619    -7627    -7620 
   -7609    -7615    -7624    -7624    -7634    -7643    -7639    -7646 
   -7663    -7662    -7668    -7689    -7686    -7686    -7715    -7716 
   -7713    -7739    -7735    -7728    -7757    -7750    -7734    -7754 
   -7743    -7723    -7726    -7690    -7653    -7635    -7591    -7550 
   -7514    -7452    -7404    -7371    -7311    -7267    -7244    -7200 
   -7171    -7169    -7156    -7145    -7160    -7180    -7215    -7267 
   -7317    -7385    -7468    -7546    -7645    -7746    -7832    -7931 
   -8037    -8124    -8210    -8290    -8340    -8392    -8441    -8461 
   -8473    -8475    -8460    -8449    -8433    -8401    -8375    -8353 
   -8326    -8313    -8303    -8287    -8280    -8271    -8262    -8257 
   -8235    -8214    -8212    -8174    -8128    -8122    -8090    -8036 
   -8024    -8006    -7962    -7947    -7942    -7905    -7888    -7900 
   -7888    -7874    -7886    -7879    -7873    -7898    -7902    -7898 
   -7940    -7977    -7989    -8035    -8087    -8109    -8144    -8201 
   -8229    -8252    -8297    -8309    -8307    -8338    -8336    -8305 
   -8313    -8301    -8257    -8249    -8233    -8183    -8167    -8156 
   -8117    -8104    -8095    -8070    -8075    -8087    -8087    -8109 
   -8125    -8135    -8167    -8183    -8182    -8197    -8201    -8199 
   -8199    -8170    -8133    -8109    -8067    -8017    -7979    -7932 
   -7877    -7843    -7817    -7777    -7746    -7746    -7744    -7747 
   -7780    -7809    -7831    -7878    -7921    -7939    -7975    -8012 
   -8006    -8012    -8025    -8000    -7978    -7955    -7909    -7884 
   -7857    -7793    -7763    -7743    -7680    -7653    -7649    -7596 
   -7561    -7553    -7500    -7456    -7434    -7369    -7304    -7265 
   -7200    -7126    -7069    -7010    -6952    -6899    -6853    -6817 
   -6777    -6747    -6737    -6728    -6723    -6724    -6732    -6758 
   -6782    -6808    -6856    -6897    -6930    -6990    -7041    -7075 
   -7137    -7195    -7231    -7299    -7373    -7404    -7449    -7523 
   -7568    -7597    -7635    -7668    -7686    -7703    -7727    -7734 
   -7713    -7720    -7724    -7689    -7677    -7672    -7626    -7604 
   -7605    -7570    -7546    -7554    -7531    -7516    -7539    -7533 
   -7516    -7528    -7526    -7511    -7508    -7496    -7483    -7472 
   -7453    -7437    -7422    -7402    -7383    -7373    -7371    -7372 
   -7375    -7388    -7419    -7457    -7499    -7561    -7628    -7696 
   -7784    -7873    -7956    -8047    -8132    -8214    -8301    -8375 
   -8448    -8522    -8581    -8631    -8673    -8695    -8704    -8700 
   -8683    -8660    -8618    -8564    -8523    -8479    -8418    -8371 
   -8333    -8280    -8236    -8212    -8179    -8136    -8118    -8108 
   -8081    -8062    -8046    -8009    -7985    -7967    -7933    -7917 
   -7911    -7885    -7878    -7892    -7881    -7873    -7890    -7892 
   -7882    -7898    -7902    -7877    -7879    -7881    -7848    -7836 
   -7828    -7778    -7746    -7730    -7678    -7632    -7600    -7541 
   -7488    -7462    -7414    -7357    -7337    -7312    -7268    -7253 
   -7240    -7196    -7175    -7168    -7130    -7101    -7101    -7083 
   -7060    -7071    -7087    -7086    -7109    -7144    -7155    -7184 
   -7223    -7227    -7242    -7273    -7269    -7265    -7265    -7244 
   -7229    -7218    -7191    -7173    -7164    -7142    -7128    -7129 
   -7126    -7121    -7126    -7137    -7142    -7160    -7187    -7204 
   -7225    -7265    -7302    -7333    -7377    -7426    -7464    -7512 
   -7574    -7620    -7657    -7715    -7774    -7819    -7869    -7920 
   -7965    -8021    -8067    -8093    -8136    -8183    -8214    -8257 
   -8307    -8345    -8388    -8436    -8478    -8515    -8542    -8571 
   -8607    -8633    -8660    -8695    -8716    -8739    -8772    -8789 
   -8803    -8826    -8837    -8846    -8856    -8858    -8860    -8851 
   -8837    -8837    -8837    -8823    -8816    -8818    -8806    -8792 
   -8787    -8764    -8730    -8708    -8687    -8657    -8619    -8577 
   -8542    -8498    -8436    -8376    -8316    -8236    -8154    -8077 
   -8001    -7921    -7831    -7750    -7688    -7614    -7530    -7464 
   -7399    -7331    -7281    -7240    -7198    -7172    -7160    -7149 
   -7152    -7164    -7175    -7204    -7236    -7261    -7302    -7341 
   -7376    -7426    -7465    -7495    -7538    -7568    -7582    -7603 
   -7608    -7605    -7604    -7593    -7584    -7581    -7588    -7601 
   -7608    -7632    -7676    -7713    -7762    -7821    -7873    -7939 
   -8012    -8075    -8152    -8230    -8291    -8361    -8436    -8475 
   -8506    -8554    -8580    -8583    -8590    -8577    -8546    -8527 
   -8487    -8417    -8361    -8293    -8199    -8120    -8040    -7933 
