Origin Time       2025/01/13 21:19:00
Lat.              31.8
Long.             131.6
Depth. (km)       30
Mag.              6.9
Station Code      SAG002
Station Lat.      33.4228
Station Long.     129.9192
Station Height(m) 208
Record Time       2025/01/13 21:20:39
Sampling Freq(Hz) 100Hz
Duration Time(s)  68
Dir.              U-D
Scale Factor      7845(gal)/8223790
Max. Acc. (gal)   0.872
Last Correction   2025/01/13 21:20:40
Memo.             
[...]
   -6982    -6987    -7020    -7088    -7184    -7290    -7376    -7415 
   -7403    -7353    -7275    -7187    -7113    -7071    -7067    -7096 
   -7130    -7138    -7111    -7053    -6966    -6879    -6833    -6833 
   -6876    -6956    -7057    -7168    -7263    -7322    -7352    -7366 
   -7364    -7339    -7300    -7265    -7249    -7238    -7215    -7179 
   -7136    -7117    -7142    -7207    -7303    -7404    -7464    -7460 
   -7399    -7314    -7249    -7229    -7234    -7240    -7227    -7182 
   -7103    -7018    -6949    -6902    -6882    -6885    -6902    -6921 
   -6933    -6936    -6928    -6902    -6859    -6812    -6778    -6783 
   -6843    -6961    -7126    -7273    -7356    -7375    -7352    -7325 
   -7349    -7438    -7562    -7681    -7742    -7695    -7541    -7325 
   -7107    -6949    -6879    -6868    -6867    -6826    -6716    -6569 
   -6454    -6421    -6478    -6592    -6705    -6790    -6843    -6879 
   -6920    -6978    -7053    -7125    -7175    -7209    -7245    -7290 
   -7333    -7365    -7375    -7349    -7304    -7256    -7196    -7142 
   -7109    -7096    -7098    -7106    -7113    -7126    -7155    -7200 
   -7245    -7271    -7277    -7271    -7264    -7256    -7229    -7182 
   -7123    -7069    -7029    -7013    -7017    -7020    -6997    -6948 
   -6899    -6872    -6875    -6890    -6893    -6883    -6862    -6829 
   -6798    -6779    -6790    -6841    -6922    -7005    -7055    -7063 
   -7055    -7065    -7110    -7175    -7227    -7245    -7219    -7180 
   -7183    -7234    -7311    -7384    -7422    -7404    -7329    -7226 
   -7140    -7084    -7059    -7063    -7072    -7057    -7007    -6934 
   -6863    -6824    -6822    -6849    -6898    -6966    -7041    -7102 
   -7129    -7114    -7069    -7005    -6926    -6852    -6794    -6755 
   -6728    -6708    -6683    -6647    -6620    -6627    -6678    -6768 
   -6874    -6960    -7021    -7056    -7090    -7145    -7221    -7303 
   -7375    -7407    -7389    -7348    -7308    -7281    -7263    -7253 
   -7240    -7217    -7180    -7134    -7109    -7115    -7142    -7184 
   -7215    -7214    -7184    -7132    -7071    -7028    -7006    -6987 
   -6959    -6914    -6864    -6832    -6836    -6879    -6944    -7015 
   -7086    -7144    -7183    -7217    -7249    -7279    -7296    -7283 
   -7242    -7188    -7138    -7118    -7122    -7110    -7052    -6959 
   -6856    -6768    -6709    -6694    -6723    -6782    -6866    -6955 
   -7025    -7069    -7103    -7130    -7161    -7206    -7256    -7292 
   -7294    -7248    -7165    -7082    -7021    -6988    -6972    -6964 
   -6948    -6924    -6907    -6917    -6959    -7021    -7065    -7069 
   -7038    -6994    -6963    -6952    -6970    -7021    -7095    -7169 
   -7217    -7215    -7175    -7136    -7122    -7138    -7182    -7252 
   -7331    -7392    -7419    -7418    -7400    -7376    -7352    -7319 
   -7269    -7213    -7157    -7110    -7086    -7096    -7137    -7188 
   -7230    -7245    -7242    -7245    -7268    -7318    -7388    -7446 
   -7447    -7375    -7249    -7109    -6995    -6936    -6920    -6916 
   -6906    -6870    -6814    -6770    -6774    -6843    -6955    -7059 
   -7109    -7087    -7020    -6957    -6947    -7001    -7091    -7169 
   -7194    -7157    -7087    -7013    -6953    -6924    -6918    -6921 
   -6917    -6901    -6875    -6847    -6821    -6802    -6790    -6783 
   -6786    -6794    -6809    -6841    -6887    -6936    -6972    -6990 
   -6997    -6999    -7002    -7013    -7037    -7067    -7088    -7101 
   -7103    -7083    -7044    -7010    -6997    -7003    -7029    -7065 
   -7105    -7137    -7152    -7149    -7145    -7157    -7192    -7234 
   -7271    -7308    -7342    -7365    -7368    -7354    -7319    -7261 
   -7191    -7117    -7045    -6995    -6974    -6978    -7001    -7020 
   -7032    -7057    -7101    -7167    -7248    -7318    -7366    -7406 
   -7437    -7454    -7480    -7524    -7574    -7611    -7619    -7580 
   -7508    -7431    -7381    -7371    -7375    -7379    -7379    -7357 
   -7311    -7268    -7244    -7233    -7231    -7222    -7176    -7078 
   -6949    -6831    -6759    -6763    -6828    -6912    -6978    -7015 
   -7034    -7056    -7105    -7180    -7272    -7360    -7398    -7368 
   -7287    -7191    -7122    -7094    -7082    -7063    -7037    -7014 
   -7013    -7030    -7064    -7114    -7167    -7202    -7210    -7200 
   -7204    -7242    -7303    -7362    -7391    -7364    -7288    -7194 
   -7106    -7036    -6980    -6926    -6875    -6831    -6794    -6768 
   -6759    -6768    -6801    -6855    -6912    -6955    -6984    -7005 
   -7028    -7065    -7125    -7190    -7229    -7231    -7214    -7195 
   -7195    -7217    -7245    -7267    -7280    -7284    -7287    -7292 
   -7291    -7284    -7283    -7275    -7249    -7207    -7146    -7069 
   -6997    -6957    -6966    -7022    -7105    -7186    -7241    -7265 
   -7269    -7279    -7307    -7334    -7339    -7303    -7219    -7118 
   -7029    -6955    -6902    -6874    -6859    -6853    -6856    -6871 
   -6894    -6926    -6966    -7014    -7072    -7125    -7149    -7142 
   -7119    -7103    -7118    -7165    -7234    -7303    -7350    -7353 
   -7304    -7227    -7146    -7080    -7047    -7053    -7067    -7059 
   -7032    -6993    -6959    -6947    -6960    -6997    -7045    -7072 
   -7052    -6993    -6907    -6824    -6777    -6766    -6785    -6822 
   -6863    -6882    -6875    -6847    -6806    -6774    -6768    -6793 
   -6836    -6879    -6894    -6864    -6804    -6748    -6731    -6774 
   -6862    -6961    -7044    -7083    -7083    -7069    -7074    -7099 
   -7142    -7183    -7198    -7182    -7152    -7126    -7119    -7133 
   -7157    -7177    -7173    -7146    -7111    -7067    -7025    -7011 
   -7034    -7086    -7161    -7231    -7267    -7271    -7253    -7223 
   -7192    -7169    -7164    -7179    -7213    -7249    -7275    -7273 
   -7257    -7256    -7273    -7299    -7325    -7341    -7341    -7321 
   -7281    -7230    -7184    -7140    -7090    -7037    -6983    -6930 
   -6880    -6828    -6771    -6729    -6725    -6762    -6831    -6926 
   -7024    -7101    -7164    -7221    -7271    -7312    -7337    -7341 
   -7322    -7292    -7264    -7245    -7229    -7203    -7157    -7090 
   -7015    -6968    -6964    -6983    -6997    -6990    -6967    -6941 
   -6932    -6951    -6991    -7034    -7063    -7064    -7049    -7044 
   -7051    -7069    -7087    -7084    -7056    -7001    -6930    -6871 
   -6847    -6851    -6868    -6895    -6932    -6970    -7011    -7071 
   -7150    -7229    -7279    -7285    -7250    -7192    -7140    -7109 
   -7102    -7117    -7137    -7149    -7148    -7140    -7133    -7125 
   -7113    -7105    -7107    -7123    -7140    -7153    -7173    -7194 
   -7215    -7234    -7254    -7268    -7258    -7211    -7138    -7053 
   -6976    -6929    -6913    -6917    -6936    -6957    -6968    -6976 
   -6995    -7021    -7045    -7072    -7086    -7069    -7028    -6971 
   -6903    -6841    -6802    -6789    -6786    -6774    -6750    -6732 
   -6744    -6794    -6874    -6959    -7022    -7061    -7091    -7117 
   -7148    -7186    -7230    -7273    -7307    -7330    -7349    -7364 
   -7375    -7389    -7404    -7429    -7481    -7547    -7597    -7616 
   -7603    -7566    -7528    -7511    -7504    -7491    -7457    -7399 
   -7318    -7234    -7177    -7153    -7141    -7106    -7032    -6928 
   -6816    -6724    -6681    -6686    -6714    -6751    -6779    -6781 
   -6771    -6785    -6839    -6926    -7020    -7088    -7123    -7132 
   -7132    -7136    -7144    -7155    -7159    -7133    -7075    -7003 
   -6952    -6945    -6983    -7047    -7115    -7169    -7194    -7204 
   -7214    -7221    -7230    -7246    -7256    -7245    -7211    -7168 
   -7123    -7094    -7091    -7114    -7155    -7200    -7222    -7203 
   -7157    -7110    -7079    -7069    -7069    -7067    -7049    -7014 
   -6974    -6936    -6914    -6916    -6933    -6951    -6953    -6941 
   -6922    -6898    -6879    -6878    -6893    -6918    -6941    -6949 
   -6944    -6936    -6933    -6944    -6966    -7001    -7057    -7136 
   -7227    -7318    -7404    -7479    -7531    -7551    -7551    -7546 
   -7533    -7510    -7484    -7452    -7410    -7369    -7331    -7295 
   -7258    -7223    -7194    -7173    -7152    -7122    -7084    -7041 
   -6986    -6925    -6874    -6836    -6813    -6812    -6824    -6829 
   -6824    -6802    -6763    -6728    -6704    -6701    -6732    -6798 
   -6887    -6987    -7088    -7184    -7267    -7341    -7412    -7465 
   -7479    -7439    -7358    -7265    -7184    -7121    -7076    -7048 
   -7028    -7003    -6966    -6920    -6878    -6843    -6809    -6777 
   -6752    -6741    -6750    -6774    -6814    -6866    -6913    -6947 
   -6964    -6975    -6993    -7017    -7040    -7049    -7038    -7011 
   -6970    -6924    -6895    -6880    -6862    -6832    -6794    -6763 
   -6741    -6729    -6729    -6729    -6724    -6725    -6741    -6763 
   -6787    -6818    -6868    -6932    -7009    -7101    -7192    -7272 
   -7339    -7392    -7429    -7447    -7446    -7418    -7369    -7306 
   -7231    -7161    -7110    -7079    -7069    -7083    -7110    -7146 
   -7179    -7188    -7163    -7109    -7037    -6961    -6895    -6844 
   -6801    -6767    -6747    -6748    -6777    -6828    -6878    -6899 
   -6893    -6879    -6878    -6901    -6953    -7030    -7115    -7182 
   -7213    -7210    -7184    -7148    -7115    -7095    -7072    -7033 
   -6990    -6956    -6937    -6934    -6940    -6943    -6933    -6909 
   -6886    -6878    -6880    -6880    -6872    -6858    -6837    -6814 
   -6789    -6778    -6804    -6859    -6925    -6995    -7074    -7149 
   -7217    -7268    -7300    -7319    -7327    -7323    -7312    -7294 
   -7267    -7244    -7222    -7202    -7184    -7168    -7145    -7121 
   -7110    -7119    -7148    -7182    -7203    -7211    -7200    -7171 
   -7137    -7109    -7095    -7096    -7107    -7123    -7141    -7145 
   -7130    -7094    -7051    -7010    -6976    -6951    -6926    -6894 
   -6853    -6813    -6785    -6777    -6783    -6801    -6824    -6833 
   -6833    -6835    -6840    -6844    -6859    -6889    -6933    -6980 
   -7022    -7072    -7128    -7183    -7236    -7276    -7296    -7310 
   -7319    -7315    -7298    -7273    -7246    -7223    -7206    -7187 
   -7167    -7152    -7142    -7137    -7140    -7148    -7160    -7177 
   -7202    -7229    -7250    -7261    -7263    -7258    -7269    -7296 
   -7326    -7354    -7383    -7408    -7430    -7447    -7464    -7487 
   -7523    -7569    -7601    -7619    -7632    -7649    -7657    -7649 
   -7624    -7589    -7553    -7520    -7495    -7470    -7438    -7393 
   -7331    -7256    -7179    -7105    -7049    -7021    -7007    -7002 
   -7005    -7009    -7018    -7034    -7051    -7052    -7047    -7042 
   -7052    -7078    -7117    -7163    -7203    -7229    -7234    -7217 
   -7188    -7163    -7144    -7136    -7145    -7159    -7168    -7173 
   -7184    -7203    -7231    -7269    -7300    -7312    -7308    -7291 
   -7268    -7252    -7246    -7241    -7221    -7177    -7117    -7055 
   -7010    -6991    -6991    -7010    -7037    -7068    -7095    -7113 
   -7126    -7156    -7202    -7249    -7291    -7326    -7354    -7372 
   -7375    -7369    -7354    -7333    -7306    -7284    -7283    -7299 
   -7326    -7352    -7356    -7335    -7300    -7260    -7217    -7173 
   -7117    -7048    -6987    -6955    -6952    -6979    -7033    -7106 
   -7183    -7252    -7308    -7352    -7366    -7348    -7306    -7249 
   -7186    -7128    -7086    -7052    -7021    -6994    -6967    -6934 
   -6906    -6893    -6890    -6885    -6871    -6841    -6789    -6729 
   -6673    -6629    -6615    -6629    -6666    -6718    -6774    -6817 
   -6844    -6860    -6859    -6848    -6844    -6845    -6845    -6847 
   -6843    -6828    -6806    -6774    -6731    -6685    -6635    -6578 
   -6525    -6478    -6432    -6399    -6386    -6401    -6443    -6504 
   -6579    -6669    -6758    -6832    -6893    -6951    -7003    -7055 
   -7114    -7179    -7241    -7296    -7341    -7366    -7375    -7369 
   -7348    -7314    -7281    -7267    -7268    -7275    -7279    -7273 
   -7252    -7217    -7180    -7157    -7152    -7160    -7168    -7156 
   -7122    -7079    -7034    -6995    -6975    -6971    -6971    -6966 
   -6948    -6924    -6909    -6913    -6933    -6978    -7036    -7087 
   -7115    -7117    -7092    -7052    -7002    -6949    -6890    -6822 
   -6755    -6698    -6669    -6669    -6689    -6716    -6743    -6763 
   -6783    -6809    -6848    -6894    -6933    -6966    -6993    -7006 
   -7018    -7036    -7051    -7069    -7098    -7128    -7149    -7163 
   -7169    -7167    -7153    -7122    -7076    -7020    -6968    -6936 
   -6922    -6925    -6937    -6941    -6928    -6907    -6886    -6867 
   -6853    -6841    -6824    -6797    -6764    -6725    -6690    -6671 
   -6673    -6689    -6708    -6729    -6759    -6794    -6825    -6839 
   -6833    -6817    -6798    -6779    -6771    -6777    -6794    -6813 
   -6812    -6787    -6756    -6739    -6740    -6766    -6812    -6866 
   -6920    -6960    -6976    -6975    -6970    -6971    -6971    -6975 
   -6994    -7029    -7072    -7123    -7171    -7206    -7238    -7265 
   -7287    -7318    -7360    -7400    -7443    -7497    -7566    -7646 
   -7736    -7824    -7904    -7967    -7997    -7994    -7975    -7943 
   -7913    -7902    -7906    -7923    -7944    -7955    -7954    -7939 
   -7917    -7897    -7871    -7848    -7832    -7820    -7817    -7813 
   -7801    -7798    -7800    -7808    -7825    -7840    -7854    -7873 
   -7896    -7912    -7906    -7877    -7832    -7780    -7730    -7682 
   -7635    -7582    -7526    -7472    -7429    -7400    -7396    -7423 
   -7461    -7487    -7492    -7470    -7429    -7372    -7307    -7240 
   -7179    -7126    -7084    -7047    -7006    -6972    -6948    -6920 
   -6885    -6849    -6806    -6756    -6704    -6662    -6625    -6592 
   -6562    -6542    -6531    -6531    -6547    -6569    -6588    -6613 
   -6642    -6666    -6696    -6729    -6768    -6816    -6862    -6895 
   -6907    -6897    -6870    -6841    -6828    -6821    -6808    -6786 
   -6752    -6720    -6694    -6664    -6632    -6608    -6588    -6571 
   -6551    -6531    -6528    -6547    -6575    -6615    -6666    -6721 
   -6779    -6839    -6895    -6949    -6994    -7029    -7059    -7075 
   -7084    -7082    -7053    -7015    -6984    -6961    -6949    -6956 
   -6975    -7003    -7041    -7086    -7121    -7148    -7167    -7175 
   -7175    -7177    -7187    -7199    -7210    -7213    -7207    -7192 
   -7157    -7109    -7068    -7042    -7028    -7028    -7040    -7063 
   -7096    -7142    -7182    -7207    -7227    -7244    -7248    -7248 
   -7257    -7272    -7283    -7292    -7299    -7299    -7299    -7298 
   -7304    -7329    -7360    -7391    -7415    -7419    -7407    -7396 
   -7380    -7356    -7344    -7330    -7298    -7256    -7214    -7171 
   -7136    -7107    -7076    -7045    -7006    -6964    -6941    -6945 
   -6956    -6967    -6984    -7010    -7041    -7072    -7103    -7134 
   -7159    -7164    -7145    -7102    -7049    -6999    -6968    -6964 
   -6984    -7026    -7078    -7130    -7179    -7213    -7231    -7240 
   -7230    -7200    -7156    -7106    -7051    -6999    -6961    -6937 
   -6924    -6922    -6928    -6936    -6953    -6975    -6995    -6999 
   -6994    -6982    -6963    -6937    -6907    -6872    -6833    -6789 
   -6745    -6710    -6685    -6663    -6644    -6633    -6628    -6627 
   -6628    -6631    -6633    -6632    -6625    -6612    -6593    -6575 
   -6570    -6573    -6578    -6588    -6597    -6609    -6628    -6655 
   -6689    -6728    -6771    -6816    -6858    -6903    -6966    -7033 
   -7092    -7144    -7179    -7188    -7184    -7182    -7184    -7182 
   -7167    -7137    -7094    -7049    -7020    -7003    -6997    -6993 
   -6983    -6961    -6941    -6933    -6940    -6949    -6956    -6956 
   -6949    -6943    -6936    -6939    -6967    -7013    -7060    -7102 
   -7133    -7153    -7165    -7172    -7175    -7167    -7145    -7106 
   -7051    -6988    -6928    -6871    -6816    -6770    -6739    -6727 
   -6731    -6748    -6770    -6795    -6817    -6824    -6817    -6799 
   -6781    -6779    -6795    -6829    -6883    -6945    -7001    -7059 
   -7122    -7187    -7252    -7310    -7342    -7339    -7308    -7271 
   -7244    -7237    -7258    -7307    -7365    -7406    -7423    -7426 
   -7422    -7419    -7419    -7410    -7385    -7339    -7273    -7200 
   -7138    -7091    -7064    -7055    -7053    -7063    -7087    -7132 
   -7202    -7288    -7368    -7422    -7443    -7445    -7434    -7415 
   -7406    -7410    -7416    -7427    -7443    -7452    -7449    -7438 
   -7420    -7393    -7364    -7346    -7338    -7341    -7357    -7371 
   -7368    -7350    -7317    -7279    -7253    -7244    -7248    -7263 
   -7273    -7275    -7268    -7260    -7261    -7275    -7298    -7330 
   -7364    -7385    -7393    -7385    -7365    -7346    -7335    -7329 
   -7321    -7311    -7302    -7292    -7284    -7281    -7281    -7280 
   -7276    -7269    -7264    -7260    -7267    -7291    -7321    -7350 
   -7372    -7381    -7383    -7373    -7344    -7294    -7231    -7159 
   -7088    -7026    -6980    -6951    -6932    -6920    -6914    -6912 
   -6907    -6909    -6917    -6925    -6925    -6921    -6912    -6901 
   -6897    -6898    -6897    -6893    -6886    -6872    -6847    -6817 
   -6791    -6767    -6744    -6723    -6708    -6691    -6666    -6631 
   -6594    -6565    -6547    -6542    -6546    -6566    -6594    -6620 
   -6643    -6671    -6698    -6725    -6755    -6787    -6816    -6829 
   -6831    -6832    -6831    -6828    -6832    -6848    -6867    -6887 
   -6898    -6894    -6872    -6851    -6832    -6822    -6832    -6863 
   -6898    -6922    -6926    -6917    -6906    -6899    -6905    -6930 
   -6971    -7018    -7065    -7119    -7176    -7223    -7267    -7311 
   -7348    -7372    -7384    -7381    -7371    -7364    -7366    -7373 
   -7381    -7392    -7398    -7400    -7404    -7411    -7408    -7388 
   -7361    -7333    -7300    -7271    -7246    -7231    -7219    -7202 
   -7182    -7167    -7153    -7142    -7138    -7134    -7128    -7128 
   -7134    -7132    -7111    -7082    -7048    -7022    -7014    -7026 
   -7056    -7090    -7113    -7115    -7106    -7088    -7072    -7064 
   -7069    -7079    -7076    -7063    -7048    -7030    -7007    -6998 
   -7003    -7001    -6984    -6959    -6930    -6903    -6880    -6863 
   -6840    -6805    -6768    -6736    -6710    -6693    -6681    -6666 
   -6642    -6606    -6575    -6566    -6589    -6637    -6693    -6735 
   -6759    -6767    -6760    -6748    -6743    -6744    -6748    -6751 
   -6752    -6748    -6750    -6764    -6791    -6821    -6845    -6867 
   -6894    -6922    -6955    -7001    -7055    -7091    -7099    -7084 
   -7057    -7036    -7029    -7033    -7045    -7053    -7052    -7048 
   -7049    -7078    -7144    -7236    -7334    -7439    -7543    -7631 
   -7695    -7744    -7784    -7809    -7816    -7801    -7766    -7720 
