Origin Time       2025/01/13 21:19:00
Lat.              31.8
Long.             131.6
Depth. (km)       30
Mag.              6.9
Station Code      SAG004
Station Lat.      33.2649
Station Long.     129.8813
Station Height(m) 32
Record Time       2025/01/13 21:20:48
Sampling Freq(Hz) 100Hz
Duration Time(s)  60
Dir.              E-W
Scale Factor      7845(gal)/8223790
Max. Acc. (gal)   1.416
Last Correction   2025/01/13 21:20:48
Memo.             
[...]
   -2361    -2328    -2315    -2307    -2304    -2301    -2297    -2289 
   -2276    -2255    -2228    -2212    -2212    -2220    -2231    -2241 
   -2246    -2257    -2273    -2281    -2270    -2259    -2249    -2231 
   -2223    -2230    -2259    -2311    -2373    -2438    -2505    -2569 
   -2629    -2685    -2721    -2732    -2722    -2683    -2612    -2516 
   -2411    -2309    -2228    -2168    -2118    -2066    -2014    -1968 
   -1926    -1880    -1829    -1795    -1779    -1761    -1738    -1722 
   -1723    -1746    -1798    -1887    -1996    -2096    -2200    -2320 
   -2404    -2416    -2388    -2347    -2293    -2242    -2227    -2232 
   -2230    -2236    -2251    -2255    -2259    -2258    -2245    -2228 
   -2208    -2193    -2200    -2242    -2305    -2384    -2469    -2511 
   -2528    -2559    -2570    -2558    -2529    -2457    -2350    -2227 
   -2095    -1965    -1849    -1760    -1715    -1699    -1703    -1753 
   -1850    -1975    -2111    -2243    -2355    -2424    -2470    -2502 
   -2497    -2458    -2401    -2326    -2242    -2168    -2110    -2073 
   -2064    -2080    -2112    -2157    -2188    -2203    -2231    -2257 
   -2258    -2255    -2245    -2205    -2158    -2114    -2079    -2064 
   -2077    -2124    -2212    -2300    -2347    -2400    -2462    -2458 
   -2424    -2412    -2380    -2338    -2326    -2331    -2357    -2385 
   -2398    -2434    -2500    -2555    -2606    -2670    -2713    -2729 
   -2735    -2704    -2633    -2563    -2489    -2415    -2385    -2407 
   -2454    -2517    -2593    -2656    -2682    -2683    -2667    -2620 
   -2554    -2489    -2421    -2349    -2285    -2243    -2222    -2223 
   -2255    -2312    -2363    -2412    -2466    -2508    -2550    -2596 
   -2606    -2570    -2497    -2407    -2311    -2185    -2019    -1908 
   -1888    -1850    -1813    -1864    -1925    -1960    -2019    -2060 
   -2088    -2133    -2116    -2077    -2069    -2034    -1998    -1989 
   -1966    -1938    -1911    -1903    -1938    -1966    -2002    -2076 
   -2122    -2133    -2120    -2077    -2053    -2037    -1987    -1952 
   -1944    -1930    -1945    -1995    -2029    -2033    -2025    -2011 
   -2006    -2014    -2033    -2056    -2064    -2033    -1966    -1900 
   -1838    -1761    -1698    -1660    -1618    -1591    -1607    -1641 
   -1672    -1702    -1723    -1734    -1738    -1748    -1772    -1798 
   -1834    -1903    -1999    -2122    -2258    -2385    -2496    -2578 
   -2625    -2659    -2668    -2647    -2616    -2571    -2525    -2511 
   -2502    -2486    -2494    -2504    -2498    -2516    -2554    -2579 
   -2604    -2637    -2656    -2658    -2662    -2647    -2617    -2602 
   -2610    -2621    -2629    -2633    -2637    -2627    -2593    -2547 
   -2478    -2382    -2278    -2165    -2050    -1968    -1903    -1842 
   -1825    -1842    -1865    -1898    -1939    -1983    -2022    -2049 
   -2066    -2084    -2089    -2073    -2061    -2057    -2061    -2076 
   -2087    -2087    -2081    -2074    -2064    -2074    -2114    -2164 
   -2212    -2257    -2286    -2307    -2319    -2308    -2277    -2246 
   -2211    -2169    -2146    -2154    -2165    -2172    -2189    -2204 
   -2200    -2197    -2199    -2201    -2215    -2242    -2286    -2340 
   -2381    -2415    -2434    -2423    -2397    -2370    -2332    -2296 
   -2273    -2261    -2254    -2255    -2272    -2297    -2320    -2335 
   -2346    -2350    -2349    -2340    -2328    -2311    -2281    -2249 
   -2219    -2188    -2160    -2137    -2124    -2128    -2155    -2204 
   -2268    -2331    -2393    -2459    -2523    -2565    -2574    -2543 
   -2474    -2382    -2284    -2178    -2073    -1968    -1883    -1836 
   -1845    -1912    -2018    -2130    -2232    -2307    -2342    -2343 
   -2319    -2265    -2191    -2108    -2029    -1968    -1930    -1914 
   -1915    -1931    -1964    -2016    -2083    -2151    -2215    -2268 
   -2303    -2315    -2297    -2246    -2168    -2077    -1989    -1923 
   -1885    -1872    -1880    -1891    -1896    -1892    -1877    -1861 
   -1856    -1865    -1895    -1944    -1995    -2046    -2103    -2160 
   -2215    -2266    -2299    -2316    -2327    -2332    -2331    -2335 
   -2343    -2351    -2361    -2362    -2342    -2301    -2250    -2188 
   -2124    -2068    -2011    -1957    -1915    -1887    -1877    -1896 
   -1941    -2008    -2095    -2185    -2251    -2293    -2317    -2320 
   -2307    -2285    -2255    -2232    -2226    -2227    -2236    -2261 
   -2292    -2323    -2361    -2411    -2469    -2532    -2594    -2659 
   -2725    -2779    -2803    -2793    -2747    -2673    -2574    -2471 
   -2380    -2308    -2262    -2241    -2253    -2288    -2335    -2390 
   -2434    -2454    -2451    -2416    -2358    -2296    -2245    -2211 
   -2200    -2211    -2231    -2259    -2295    -2332    -2378    -2432 
   -2490    -2554    -2609    -2647    -2666    -2664    -2646    -2617 
   -2587    -2562    -2546    -2533    -2535    -2552    -2589    -2633 
   -2677    -2706    -2709    -2686    -2652    -2608    -2563    -2531 
   -2502    -2474    -2455    -2446    -2439    -2424    -2396    -2350 
   -2282    -2195    -2101    -2018    -1950    -1902    -1881    -1896 
   -1942    -2000    -2056    -2106    -2150    -2176    -2188    -2196 
   -2197    -2185    -2151    -2103    -2047    -1979    -1904    -1830 
   -1750    -1669    -1609    -1564    -1524    -1486    -1449    -1417 
   -1393    -1374    -1354    -1336    -1329    -1339    -1364    -1395 
   -1436    -1487    -1553    -1636    -1725    -1817    -1894    -1938 
   -1950    -1934    -1895    -1852    -1813    -1782    -1763    -1760 
   -1775    -1809    -1854    -1910    -1976    -2050    -2127    -2201 
   -2270    -2327    -2355    -2346    -2297    -2223    -2139    -2057 
   -1989    -1944    -1925    -1937    -1969    -2010    -2050    -2074 
   -2080    -2070    -2053    -2034    -2008    -1975    -1925    -1865 
   -1811    -1763    -1718    -1686    -1680    -1703    -1755    -1837 
   -1945    -2060    -2165    -2262    -2351    -2428    -2500    -2573 
   -2648    -2722    -2789    -2848    -2895    -2921    -2930    -2920 
   -2884    -2833    -2762    -2679    -2604    -2538    -2488    -2461 
   -2448    -2446    -2465    -2508    -2548    -2579    -2612    -2628 
   -2624    -2609    -2586    -2563    -2562    -2578    -2601    -2625 
   -2644    -2646    -2632    -2601    -2547    -2485    -2439    -2405 
   -2385    -2384    -2389    -2400    -2408    -2407    -2408    -2417 
   -2446    -2500    -2578    -2674    -2781    -2883    -2967    -3024 
   -3051    -3042    -3007    -2957    -2894    -2817    -2744    -2666 
   -2577    -2492    -2404    -2301    -2192    -2091    -2003    -1944 
   -1921    -1923    -1945    -1991    -2049    -2106    -2169    -2223 
   -2263    -2307    -2344    -2363    -2377    -2378    -2349    -2301 
   -2235    -2139    -2039    -1941    -1845    -1775    -1732    -1707 
   -1713    -1752    -1790    -1814    -1829    -1823    -1800    -1771 
   -1734    -1684    -1634    -1590    -1551    -1526    -1512    -1502 
   -1498    -1506    -1532    -1575    -1633    -1706    -1787    -1852 
   -1891    -1911    -1910    -1900    -1895    -1888    -1875    -1868 
   -1871    -1881    -1898    -1910    -1908    -1900    -1892    -1880 
   -1856    -1817    -1769    -1719    -1674    -1636    -1611    -1603 
   -1610    -1638    -1686    -1753    -1842    -1938    -2023    -2099 
   -2168    -2224    -2266    -2300    -2330    -2347    -2357    -2376 
   -2403    -2438    -2479    -2519    -2540    -2542    -2532    -2520 
   -2508    -2496    -2488    -2490    -2506    -2528    -2554    -2577 
   -2583    -2583    -2582    -2585    -2600    -2636    -2691    -2760 
   -2835    -2899    -2947    -2978    -2990    -2984    -2964    -2937 
   -2914    -2893    -2862    -2824    -2775    -2712    -2639    -2565 
   -2500    -2454    -2434    -2439    -2469    -2508    -2540    -2566 
   -2573    -2555    -2520    -2475    -2420    -2358    -2304    -2257 
   -2226    -2228    -2262    -2312    -2371    -2439    -2498    -2536 
   -2556    -2552    -2512    -2444    -2347    -2219    -2073    -1927 
   -1788    -1676    -1609    -1591    -1626    -1707    -1829    -1992 
   -2180    -2374    -2554    -2698    -2793    -2839    -2836    -2794 
   -2731    -2666    -2608    -2567    -2554    -2566    -2602    -2652 
   -2705    -2752    -2791    -2817    -2816    -2781    -2727    -2654 
   -2569    -2493    -2438    -2407    -2403    -2419    -2450    -2494 
   -2547    -2596    -2639    -2674    -2694    -2687    -2648    -2569 
   -2447    -2299    -2138    -1969    -1804    -1659    -1540    -1463 
   -1441    -1472    -1548    -1651    -1760    -1854    -1922    -1957 
   -1953    -1908    -1836    -1742    -1638    -1539    -1466    -1426 
   -1424    -1453    -1497    -1540    -1572    -1588    -1582    -1548 
   -1497    -1439    -1371    -1296    -1212    -1125    -1043     -974 
    -930     -918     -945    -1013    -1116    -1244    -1381    -1510 
   -1625    -1722    -1800    -1861    -1907    -1935    -1953    -1969 
   -1985    -2007    -2042    -2091    -2162    -2255    -2357    -2455 
   -2548    -2628    -2694    -2741    -2762    -2755    -2732    -2698 
   -2662    -2635    -2629    -2644    -2682    -2741    -2813    -2890 
   -2959    -3007    -3038    -3049    -3030    -2991    -2932    -2849 
   -2759    -2675    -2610    -2577    -2574    -2597    -2643    -2697 
   -2747    -2798    -2840    -2859    -2859    -2836    -2790    -2728 
   -2659    -2585    -2513    -2448    -2386    -2338    -2308    -2293 
   -2295    -2308    -2324    -2347    -2362    -2365    -2362    -2351 
   -2332    -2311    -2292    -2277    -2270    -2285    -2326    -2381 
   -2439    -2492    -2531    -2552    -2550    -2524    -2477    -2413 
   -2340    -2268    -2200    -2147    -2115    -2100    -2100    -2108 
   -2128    -2170    -2236    -2327    -2435    -2543    -2639    -2710 
   -2747    -2744    -2710    -2652    -2587    -2535    -2505    -2497 
   -2512    -2542    -2559    -2560    -2547    -2513    -2455    -2389 
   -2315    -2238    -2172    -2119    -2081    -2066    -2072    -2092 
   -2127    -2168    -2216    -2272    -2326    -2380    -2439    -2493 
   -2540    -2583    -2612    -2616    -2586    -2523    -2424    -2304 
   -2178    -2062    -1966    -1899    -1853    -1826    -1814    -1807 
   -1795    -1776    -1746    -1707    -1669    -1640    -1626    -1633 
   -1659    -1696    -1736    -1779    -1827    -1876    -1922    -1966 
   -2019    -2068    -2103    -2134    -2158    -2161    -2146    -2122 
   -2072    -2002    -1917    -1819    -1729    -1659    -1611    -1603 
   -1642    -1714    -1810    -1925    -2041    -2145    -2228    -2288 
   -2313    -2304    -2265    -2205    -2134    -2061    -2003    -1964 
   -1938    -1930    -1938    -1953    -1979    -2010    -2030    -2039 
   -2038    -2020    -1992    -1961    -1939    -1931    -1941    -1969 
   -2014    -2066    -2118    -2166    -2205    -2226    -2227    -2215 
   -2185    -2134    -2068    -1983    -1879    -1767    -1659    -1564 
   -1501    -1470    -1474    -1518    -1594    -1695    -1817    -1937 
   -2031    -2091    -2118    -2112    -2084    -2053    -2020    -1991 
   -1973    -1976    -1999    -2035    -2079    -2133    -2196    -2266 
   -2346    -2432    -2520    -2606    -2678    -2729    -2762    -2770 
   -2737    -2666    -2565    -2434    -2290    -2153    -2029    -1946 
   -1921    -1953    -2039    -2166    -2313    -2469    -2610    -2725 
   -2797    -2816    -2785    -2713    -2606    -2473    -2334    -2208 
   -2104    -2038    -2012    -2027    -2089    -2177    -2272    -2365 
   -2435    -2463    -2451    -2397    -2311    -2201    -2084    -1979 
   -1899    -1852    -1841    -1875    -1953    -2069    -2208    -2357 
   -2502    -2627    -2709    -2744    -2737    -2686    -2606    -2525 
   -2450    -2394    -2367    -2365    -2381    -2421    -2474    -2533 
   -2596    -2648    -2683    -2705    -2702    -2675    -2631    -2577 
   -2531    -2498    -2479    -2479    -2493    -2515    -2543    -2575 
   -2604    -2627    -2652    -2673    -2682    -2690    -2682    -2652 
   -2601    -2524    -2420    -2315    -2223    -2151    -2108    -2095 
   -2111    -2149    -2189    -2230    -2268    -2299    -2319    -2319 
   -2292    -2242    -2169    -2085    -2000    -1923    -1856    -1798 
   -1755    -1725    -1711    -1714    -1738    -1786    -1848    -1910 
   -1972    -2020    -2049    -2064    -2061    -2043    -2020    -1989 
   -1958    -1946    -1957    -1993    -2061    -2150    -2246    -2338 
   -2413    -2455    -2461    -2442    -2404    -2357    -2320    -2309 
   -2324    -2366    -2420    -2477    -2520    -2538    -2533    -2517 
   -2490    -2470    -2474    -2505    -2562    -2640    -2731    -2814 
   -2879    -2913    -2909    -2868    -2803    -2728    -2659    -2610 
   -2586    -2585    -2604    -2636    -2673    -2705    -2728    -2736 
   -2736    -2729    -2714    -2685    -2636    -2570    -2479    -2367 
   -2239    -2097    -1949    -1806    -1679    -1582    -1526    -1503 
   -1494    -1494    -1494    -1480    -1459    -1439    -1420    -1408 
   -1404    -1413    -1437    -1476    -1528    -1587    -1653    -1730 
   -1821    -1914    -2011    -2111    -2201    -2284    -2369    -2454 
   -2535    -2606    -2662    -2704    -2736    -2772    -2826    -2901 
   -2999    -3117    -3244    -3377    -3505    -3611    -3681    -3704 
   -3681    -3619    -3528    -3427    -3333    -3252    -3190    -3153 
   -3129    -3106    -3088    -3065    -3030    -2987    -2930    -2866 
   -2801    -2739    -2681    -2632    -2593    -2565    -2543    -2521 
   -2505    -2492    -2484    -2481    -2479    -2475    -2455    -2409 
   -2338    -2250    -2149    -2043    -1946    -1863    -1791    -1745 
   -1730    -1744    -1779    -1822    -1863    -1888    -1892    -1876 
   -1833    -1767    -1686    -1590    -1483    -1378    -1286    -1208 
   -1150    -1115    -1098    -1096    -1105    -1124    -1146    -1167 
   -1189    -1204    -1204    -1188    -1158    -1117    -1081    -1069 
   -1088    -1140    -1228    -1336    -1449    -1560    -1652    -1719 
   -1763    -1777    -1759    -1713    -1636    -1539    -1444    -1351 
   -1267    -1202    -1158    -1132    -1129    -1151    -1198    -1274 
   -1370    -1479    -1590    -1684    -1755    -1798    -1810    -1800 
   -1773    -1737    -1705    -1680    -1665    -1669    -1692    -1729 
   -1776    -1827    -1885    -1941    -1984    -2029    -2081    -2139 
   -2208    -2285    -2353    -2411    -2452    -2469    -2461    -2439 
   -2405    -2365    -2322    -2277    -2243    -2228    -2228    -2249 
   -2280    -2311    -2339    -2362    -2378    -2388    -2392    -2385 
   -2366    -2340    -2309    -2282    -2268    -2268    -2286    -2322 
   -2369    -2421    -2475    -2525    -2565    -2594    -2613    -2628 
   -2648    -2670    -2695    -2721    -2735    -2733    -2721    -2700 
   -2666    -2623    -2573    -2520    -2475    -2444    -2427    -2427 
   -2438    -2443    -2446    -2447    -2439    -2427    -2413    -2390 
   -2370    -2366    -2382    -2416    -2478    -2562    -2652    -2752 
   -2853    -2937    -3002    -3049    -3067    -3053    -3014    -2948 
   -2867    -2789    -2714    -2656    -2621    -2605    -2605    -2623 
   -2643    -2659    -2664    -2654    -2632    -2608    -2578    -2544 
   -2504    -2452    -2398    -2340    -2266    -2187    -2112    -2047 
   -2007    -2002    -2022    -2056    -2092    -2120    -2123    -2101 
   -2053    -1979    -1898    -1830    -1787    -1780    -1815    -1877 
   -1948    -2018    -2074    -2108    -2130    -2149    -2174    -2224 
   -2311    -2435    -2589    -2755    -2922    -3079    -3207    -3294 
   -3331    -3306    -3221    -3095    -2943    -2778    -2613    -2457 
   -2320    -2205    -2118    -2070    -2065    -2097    -2157    -2231 
   -2304    -2358    -2381    -2369    -2319    -2238    -2139    -2034 
   -1938    -1869    -1838    -1849    -1900    -1983    -2080    -2180 
   -2270    -2334    -2363    -2350    -2290    -2192    -2068    -1925 
   -1769    -1624    -1503    -1408    -1348    -1332    -1345    -1377 
   -1420    -1466    -1502    -1525    -1537    -1536    -1529    -1524 
   -1522    -1526    -1540    -1557    -1576    -1597    -1613    -1625 
   -1637    -1641    -1636    -1632    -1633    -1647    -1692    -1768 
   -1854    -1957    -2092    -2249    -2400    -2532    -2637    -2701 
   -2710    -2667    -2589    -2485    -2370    -2262    -2170    -2107 
   -2076    -2088    -2146    -2234    -2331    -2432    -2521    -2579 
   -2594    -2575    -2529    -2448    -2355    -2281    -2212    -2145 
   -2107    -2126    -2187    -2258    -2344    -2455    -2582    -2705 
   -2806    -2880    -2926    -2936    -2916    -2880    -2813    -2718 
   -2651    -2619    -2578    -2532    -2508    -2513    -2520    -2498 
   -2467    -2450    -2428    -2403    -2377    -2334    -2266    -2201 
   -2162    -2142    -2126    -2118    -2139    -2187    -2253    -2338 
   -2430    -2523    -2610    -2670    -2697    -2702    -2678    -2624 
   -2555    -2467    -2359    -2263    -2193    -2123    -2046    -1975 
   -1899    -1819    -1748    -1691    -1644    -1607    -1590    -1586 
   -1584    -1594    -1620    -1657    -1691    -1696    -1669    -1634 
   -1603    -1551    -1478    -1420    -1405    -1414    -1404    -1386 
   -1401    -1458    -1547    -1625    -1671    -1714    -1759    -1794 
   -1817    -1830    -1852    -1881    -1885    -1833    -1760    -1742 
   -1765    -1745    -1702    -1694    -1707    -1740    -1772    -1777 
   -1792    -1817    -1810    -1814    -1880    -1965    -2016    -2056 
   -2103    -2157    -2241    -2350    -2479    -2632    -2756    -2824 
   -2882    -2922    -2916    -2922    -2932    -2848    -2714    -2639 
   -2601    -2539    -2478    -2455    -2469    -2461    -2384    -2362 
   -2498    -2610    -2585    -2577    -2633    -2651    -2667    -2727 
   -2776    -2759    -2590    -2339    -2297    -2485    -2590    -2610 
   -2709    -2598    -2265    -2205    -2319    -2281    -2187    -2053 
   -1926    -1935    -2014    -2141    -2251    -2107    -1780    -1668 
   -1798    -1822    -1811    -1950    -1933    -1714    -1684    -1857 
   -1996    -2006    -1877    -1752    -1711    -1671    -1644    -1694 
   -1764    -1756    -1718    -1765    -1864    -1956    -2045    -2089 
   -2099    -2106    -2112    -2151    -2197    -2185    -2162    -2137 
   -2072    -2027    -2058    -2077    -2030    -2008    -2026    -2003 
   -1985    -2026    -2049    -2043    -2060    -2099    -2170    -2228 
   -2247    -2268    -2253    -2232    -2316    -2386    -2308    -2223 
   -2223    -2189    -2110    -2096    -2126    -2103    -2058    -2034 
   -2020    -2096    -2230    -2245    -2203    -2223    -2234    -2220 
   -2236    -2258    -2309    -2394    -2417    -2394    -2444    -2555 
   -2593    -2492    -2322    -2222    -2209    -2161    -2060    -2027 
   -2043    -2006    -1937    -1906    -1927    -1999    -2056    -2041 
   -1992    -1975    -2007    -2031    -1987    -1937    -1917    -1826 
   -1728    -1787    -1919    -1972    -1972    -1944    -1922    -1988 
