Origin Time       2025/01/13 21:19:00
Lat.              31.8
Long.             131.6
Depth. (km)       30
Mag.              6.9
Station Code      SAG004
Station Lat.      33.2649
Station Long.     129.8813
Station Height(m) 32
Record Time       2025/01/13 21:20:48
Sampling Freq(Hz) 100Hz
Duration Time(s)  60
Dir.              N-S
Scale Factor      7845(gal)/8223790
Max. Acc. (gal)   1.500
Last Correction   2025/01/13 21:20:48
Memo.             
[...]
   -9532    -9629    -9729    -9814    -9873    -9899    -9904    -9898 
   -9884    -9872    -9859    -9829    -9795    -9772    -9765    -9780 
   -9814    -9855    -9896    -9926    -9933    -9913    -9859    -9778 
   -9682    -9587    -9508    -9455    -9433    -9447    -9490    -9548 
   -9609    -9661    -9699    -9721    -9737    -9748    -9752    -9752 
   -9740    -9705    -9651    -9586    -9512    -9443    -9398    -9390 
   -9421    -9490    -9585    -9683    -9765    -9829    -9865    -9871 
   -9852    -9815    -9772    -9728    -9686    -9649    -9613    -9575 
   -9547    -9533    -9532    -9553    -9590    -9630    -9672    -9711 
   -9740    -9759    -9768    -9765    -9763    -9763    -9761    -9767 
   -9780    -9790    -9802    -9818    -9832    -9855    -9882    -9902 
   -9918    -9934    -9936    -9925    -9911    -9895    -9876    -9860 
   -9838    -9810    -9772    -9726    -9680    -9640    -9610    -9601 
   -9606    -9624    -9649    -9671    -9682    -9683    -9676    -9664 
   -9655    -9656    -9670    -9701    -9744    -9794    -9850    -9904 
   -9954   -10000   -10044   -10091   -10139   -10180   -10207   -10220 
  -10214   -10187   -10152   -10115   -10077   -10041   -10000    -9953 
   -9906    -9860    -9821    -9795    -9783    -9769    -9749    -9725 
   -9699    -9661    -9616    -9566    -9504    -9439    -9375    -9327 
   -9315    -9340    -9396    -9486    -9589    -9690    -9788    -9872 
   -9937    -9994   -10044   -10081   -10102   -10100   -10083   -10058 
  -10027    -9996    -9980    -9977    -9981    -9998   -10014   -10015 
  -10010    -9991    -9953    -9909    -9859    -9814    -9788    -9775 
   -9768    -9774    -9780    -9788    -9795    -9786    -9763    -9736 
   -9702    -9664    -9632    -9606    -9590    -9590    -9599    -9617 
   -9641    -9664    -9674    -9661    -9626    -9571    -9510    -9464 
   -9444    -9445    -9463    -9494    -9529    -9558    -9580    -9602 
   -9617    -9622    -9620    -9612    -9593    -9563    -9528    -9486 
   -9450    -9425    -9408    -9402    -9417    -9450    -9502    -9578 
   -9664    -9760    -9864    -9965   -10062   -10157   -10243   -10320 
  -10378   -10415   -10438   -10446   -10436   -10422   -10400   -10366 
  -10323   -10280   -10238   -10196   -10158   -10129   -10095   -10057 
  -10021    -9984    -9948    -9906    -9856    -9805    -9753    -9697 
   -9634    -9564    -9502    -9456    -9433    -9439    -9467    -9505 
   -9551    -9590    -9610    -9613    -9603    -9589    -9579    -9585 
   -9606    -9636    -9671    -9705    -9729    -9740    -9745    -9742 
   -9738    -9744    -9745    -9744    -9737    -9714    -9683    -9647 
   -9616    -9595    -9589    -9599    -9625    -9652    -9664    -9664 
   -9648    -9622    -9606    -9607    -9633    -9695    -9790    -9904 
  -10031   -10152   -10246   -10307   -10320   -10291   -10238   -10177 
  -10118   -10069   -10033   -10008    -9983    -9944    -9900    -9857 
   -9811    -9769    -9745    -9733    -9715    -9690    -9657    -9612 
   -9552    -9486    -9425    -9383    -9366    -9373    -9400    -9435 
   -9466    -9487    -9491    -9474    -9441    -9389    -9324    -9263 
   -9217    -9188    -9181    -9194    -9228    -9282    -9350    -9424 
   -9498    -9572    -9641    -9701    -9747    -9778    -9782    -9763 
   -9725    -9663    -9587    -9517    -9462    -9436    -9439    -9468 
   -9525    -9606    -9698    -9791    -9872    -9938    -9987   -10012 
  -10022   -10014    -9985    -9948    -9917    -9898    -9891    -9899 
   -9917    -9944    -9976   -10008   -10038   -10064   -10076   -10064 
  -10015    -9930    -9823    -9710    -9607    -9525    -9467    -9441 
   -9451    -9483    -9540    -9620    -9705    -9794    -9884    -9956 
   -9995   -10003    -9977    -9925    -9849    -9755    -9659    -9576 
   -9510    -9467    -9448    -9450    -9463    -9490    -9524    -9547 
   -9562    -9572    -9575    -9570    -9559    -9555    -9568    -9603 
   -9655    -9711    -9761    -9786    -9775    -9724    -9640    -9541 
   -9448    -9381    -9347    -9337    -9350    -9378    -9410    -9437 
   -9464    -9493    -9529    -9586    -9666    -9765    -9876    -9988 
  -10092   -10173   -10216   -10222   -10200   -10164   -10131   -10099 
  -10072   -10061   -10054   -10052   -10050   -10034   -10004    -9977 
   -9960    -9964    -9996   -10050   -10120   -10183   -10219   -10227 
  -10200   -10142   -10061    -9968    -9876    -9803    -9757    -9744 
   -9752    -9771    -9796    -9822    -9853    -9892    -9940    -9990 
  -10031   -10061   -10072   -10056   -10012    -9948    -9867    -9775 
   -9680    -9590    -9518    -9482    -9481    -9513    -9572    -9645 
   -9718    -9780    -9823    -9848    -9859    -9860    -9855    -9848 
   -9837    -9822    -9803    -9783    -9764    -9755    -9760    -9783 
   -9818    -9857    -9898    -9933    -9958    -9975    -9972    -9957 
   -9938    -9921    -9913    -9925    -9956   -10004   -10065   -10126 
  -10181   -10228   -10266   -10293   -10305   -10299   -10277   -10247 
  -10212   -10183   -10169   -10166   -10166   -10169   -10161   -10143 
  -10118   -10076   -10022    -9965    -9903    -9842    -9790    -9741 
   -9699    -9664    -9629    -9602    -9597    -9612    -9645    -9703 
   -9778    -9857    -9934   -10003   -10061   -10107   -10131   -10134 
  -10115   -10077   -10021    -9956    -9896    -9848    -9817    -9817 
   -9837    -9865    -9907    -9956   -10002   -10034   -10041   -10019 
   -9975    -9910    -9841    -9786    -9742    -9718    -9711    -9717 
   -9726    -9734    -9741    -9748    -9763    -9792    -9842    -9910 
   -9977   -10025   -10045   -10037   -10003    -9957    -9919    -9890 
   -9871    -9864    -9860    -9860    -9861    -9853    -9836    -9802 
   -9745    -9683    -9624    -9571    -9536    -9522    -9520    -9525 
   -9535    -9545    -9563    -9591    -9620    -9659    -9706    -9753 
   -9807    -9869    -9929    -9984   -10027   -10045   -10035    -9999 
   -9929    -9830    -9711    -9582    -9462    -9352    -9254    -9174 
   -9107    -9046    -8999    -8965    -8941    -8942    -8966    -9003 
   -9053    -9108    -9162    -9221    -9288    -9358    -9428    -9491 
   -9536    -9553    -9536    -9485    -9408    -9320    -9232    -9155 
   -9094    -9051    -9028    -9022    -9031    -9053    -9086    -9132 
   -9186    -9246    -9313    -9383    -9452    -9517    -9570    -9597 
   -9602    -9593    -9571    -9549    -9529    -9525    -9539    -9555 
   -9564    -9570    -9575    -9578    -9579    -9583    -9594    -9606 
   -9614    -9617    -9607    -9576    -9518    -9445    -9369    -9286 
   -9224    -9208    -9235    -9306    -9410    -9524    -9630    -9717 
   -9774    -9795    -9786    -9757    -9714    -9664    -9614    -9570 
   -9540    -9529    -9531    -9545    -9576    -9606    -9624    -9637 
   -9641    -9624    -9593    -9563    -9552    -9572    -9626    -9718 
   -9842    -9979   -10104   -10203   -10268   -10303   -10301   -10266 
  -10210   -10137   -10052    -9975    -9922    -9903    -9923    -9983 
  -10079   -10195   -10320   -10438   -10534   -10602   -10647   -10662 
  -10648   -10617   -10566   -10494   -10416   -10330   -10239   -10157 
  -10080   -10003    -9923    -9840    -9749    -9656    -9566    -9482 
   -9412    -9355    -9309    -9277    -9247    -9227    -9228    -9238 
   -9255    -9290    -9339    -9398    -9474    -9562    -9659    -9760 
   -9850    -9921    -9976   -10006   -10014   -10006    -9984    -9954 
   -9923    -9886    -9842    -9799    -9752    -9713    -9698    -9707 
   -9748    -9825    -9929   -10042   -10157   -10260   -10339   -10400 
  -10440   -10458   -10453   -10435   -10404   -10358   -10303   -10237 
  -10160   -10072    -9979    -9882    -9794    -9728    -9687    -9682 
   -9715    -9778    -9853    -9930    -9995   -10034   -10041   -10021 
   -9985    -9950    -9923    -9903    -9903    -9922    -9952    -9990 
  -10033   -10075   -10112   -10147   -10183   -10224   -10270   -10312 
  -10347   -10373   -10382   -10373   -10349   -10311   -10269   -10237 
  -10207   -10179   -10152   -10126   -10091   -10044    -9983    -9903 
   -9807    -9703    -9593    -9486    -9393    -9312    -9248    -9215 
   -9211    -9244    -9323    -9435    -9567    -9718    -9863    -9983 
  -10064   -10093   -10072   -10008    -9903    -9779    -9655    -9545 
   -9468    -9436    -9444    -9486    -9549    -9617    -9680    -9722 
   -9729    -9706    -9656    -9586    -9510    -9441    -9393    -9381 
   -9410    -9474    -9566    -9678    -9788    -9883    -9949    -9976 
   -9964    -9921    -9844    -9742    -9617    -9471    -9315    -9157 
   -9011    -8895    -8826    -8811    -8853    -8950    -9085    -9246 
   -9414    -9574    -9705    -9802    -9868    -9906    -9911    -9888 
   -9846    -9792    -9740    -9702    -9684    -9690    -9722    -9776 
   -9855    -9952   -10048   -10137   -10206   -10238   -10234   -10197 
  -10135   -10065    -9999    -9944    -9906    -9886    -9879    -9879 
   -9880    -9877    -9868    -9850    -9830    -9813    -9807    -9811 
   -9823    -9841    -9857    -9867    -9871    -9868    -9861    -9863 
   -9873    -9887    -9907    -9927    -9942    -9949    -9942    -9923 
   -9883    -9823    -9751    -9661    -9555    -9439    -9325    -9221 
   -9128    -9059    -9024    -9013    -9022    -9053    -9099    -9150 
   -9204    -9255    -9290    -9310    -9312    -9297    -9274    -9254 
   -9235    -9225    -9229    -9240    -9254    -9271    -9285    -9288 
   -9286    -9289    -9300    -9333    -9394    -9475    -9576    -9693 
   -9806    -9903    -9979   -10030   -10062   -10081   -10092   -10114 
  -10156   -10219   -10307   -10412   -10519   -10619   -10696   -10739 
  -10747   -10728   -10678   -10608   -10528   -10443   -10357   -10280 
  -10214   -10157   -10106   -10057   -10007    -9950    -9886    -9818 
   -9761    -9718    -9683    -9656    -9636    -9617    -9593    -9567 
   -9545    -9531    -9520    -9516    -9517    -9517    -9516    -9510 
   -9501    -9491    -9486    -9483    -9483    -9487    -9493    -9501 
   -9509    -9514    -9517    -9512    -9495    -9478    -9462    -9456 
   -9460    -9468    -9475    -9477    -9454    -9405    -9337    -9251 
   -9162    -9089    -9036    -9019    -9047    -9119    -9232    -9371 
   -9521    -9666    -9786    -9863    -9886    -9853    -9778    -9675 
   -9556    -9439    -9339    -9263    -9215    -9200    -9219    -9269 
   -9348    -9450    -9560    -9670    -9769    -9861    -9941    -9992 
  -10025   -10038   -10023    -9991    -9950    -9911    -9883    -9871 
   -9872    -9887    -9917    -9950    -9980   -10011   -10037   -10054 
  -10064   -10062   -10052   -10030    -9996    -9953    -9907    -9863 
   -9828    -9807    -9798    -9810    -9844    -9887    -9942   -10004 
  -10061   -10111   -10154   -10183   -10195   -10193   -10177   -10143 
  -10096   -10046    -9995    -9948    -9911    -9883    -9855    -9823 
   -9790    -9747    -9701    -9659    -9624    -9599    -9593    -9607 
   -9649    -9718    -9810    -9921   -10048   -10174   -10288   -10380 
  -10449   -10488   -10498   -10484   -10440   -10369   -10276   -10170 
  -10061    -9968    -9899    -9855    -9837    -9840    -9853    -9873 
   -9906    -9948    -9996   -10049   -10098   -10138   -10166   -10177 
  -10172   -10157   -10131   -10098   -10056    -9995    -9923    -9842 
   -9760    -9693    -9647    -9625    -9629    -9651    -9690    -9740 
   -9787    -9837    -9887    -9933    -9983   -10030   -10068   -10102 
  -10130   -10143   -10142   -10133   -10116   -10099   -10091   -10100 
  -10123   -10158   -10195   -10220   -10228   -10212   -10176   -10135 
  -10100   -10077   -10071   -10080   -10093   -10100   -10095   -10066 
  -10010    -9923    -9817    -9699    -9582    -9479    -9393    -9317 
   -9250    -9189    -9126    -9058    -8997    -8953    -8928    -8923 
   -8930    -8945    -8957    -8954    -8943    -8934    -8924    -8915 
   -8904    -8899    -8892    -8874    -8847    -8807    -8745    -8673 
   -8602    -8542    -8506    -8510    -8563    -8661    -8795    -8945 
   -9092    -9220    -9320    -9381    -9408    -9409    -9397    -9389 
   -9394    -9421    -9479    -9571    -9684    -9807    -9933   -10048 
  -10142   -10216   -10273   -10307   -10319   -10308   -10269   -10199 
  -10102    -9995    -9900    -9834    -9809    -9823    -9876    -9957 
  -10050   -10142   -10212   -10254   -10262   -10237   -10187   -10123 
  -10057    -9996    -9937    -9880    -9829    -9784    -9745    -9718 
   -9702    -9693    -9694    -9707    -9734    -9778    -9840    -9923 
  -10033   -10160   -10292   -10424   -10546   -10638   -10700   -10732 
  -10732   -10713   -10685   -10650   -10621   -10604   -10598   -10612 
  -10642   -10681   -10731   -10777   -10816   -10856   -10905   -10957 
  -11016   -11072   -11118   -11148   -11148   -11115   -11061   -10995 
  -10920   -10848   -10786   -10735   -10692   -10639   -10577   -10523 
  -10473   -10419   -10365   -10303   -10233   -10166   -10098   -10029 
   -9977    -9940    -9906    -9873    -9842    -9799    -9738    -9659 
   -9562    -9444    -9304    -9161    -9032    -8927    -8864    -8854 
   -8895    -8974    -9080    -9196    -9306    -9402    -9474    -9506 
   -9494    -9431    -9316    -9169    -9009    -8849    -8710    -8606 
   -8538    -8507    -8511    -8545    -8600    -8653    -8691    -8702 
   -8676    -8615    -8527    -8426    -8324    -8240    -8199    -8194 
   -8226    -8309    -8430    -8584    -8760    -8939    -9126    -9305 
   -9445    -9545    -9614    -9630    -9601    -9553    -9497    -9436 
   -9389    -9351    -9321    -9304    -9293    -9289    -9305    -9339 
   -9381    -9444    -9531    -9622    -9713    -9811    -9917   -10010 
  -10081   -10137   -10166   -10162   -10129   -10073   -10003    -9938 
   -9887    -9853    -9836    -9813    -9778    -9742    -9694    -9630 
   -9574    -9540    -9525    -9521    -9535    -9564    -9609    -9666 
   -9722    -9760    -9776    -9775    -9747    -9702    -9657    -9620 
   -9601    -9616    -9653    -9690    -9730    -9795    -9886    -9977 
  -10052   -10096   -10115   -10141   -10169   -10168   -10137   -10087 
  -10017    -9938    -9860    -9790    -9747    -9734    -9734    -9729 
   -9736    -9779    -9818    -9822    -9811    -9813    -9860    -9958 
  -10052   -10137   -10233   -10301   -10332   -10354   -10368   -10368 
  -10376   -10388   -10392   -10408   -10439   -10463   -10493   -10530 
  -10565   -10608   -10648   -10663   -10674   -10689   -10679   -10639 
  -10588   -10540   -10503   -10471   -10454   -10462   -10488   -10511 
  -10528   -10538   -10520   -10476   -10415   -10324   -10222   -10146 
  -10083   -10022    -9969    -9917    -9913    -9972    -9987    -9958 
   -9967    -9964    -9910    -9867    -9882    -9910    -9900    -9886 
   -9867    -9838    -9832    -9829    -9815    -9771    -9695    -9670 
   -9679    -9648    -9636    -9703    -9787    -9806    -9779    -9778 
   -9769    -9703    -9636    -9586    -9529    -9487    -9463    -9462 
   -9475    -9466    -9445    -9423    -9406    -9413    -9452    -9521 
   -9579    -9605    -9632    -9690    -9768    -9836    -9877    -9887 
   -9869    -9869    -9902    -9902    -9883    -9907    -9936    -9930 
   -9923    -9919    -9900    -9876    -9844    -9803    -9768    -9747 
   -9726    -9699    -9648    -9595    -9620    -9647    -9551    -9452 
   -9424    -9369    -9294    -9248    -9208    -9178    -9148    -9074 
   -8976    -8934    -8926    -8846    -8745    -8748    -8804    -8872 
   -8962    -9046    -9162    -9317    -9391    -9381    -9412    -9506 
   -9575    -9560    -9517    -9545    -9625    -9641    -9586    -9568 
   -9603    -9616    -9579    -9518    -9468    -9447    -9432    -9393 
   -9340    -9325    -9371    -9409    -9396    -9428    -9514    -9532 
   -9551    -9703    -9873    -9950   -10003   -10057   -10118   -10226 
  -10315   -10331   -10349   -10370   -10358   -10381   -10443   -10488 
  -10536   -10566   -10536   -10528   -10567   -10585   -10566   -10539 
  -10557   -10605   -10625   -10629   -10604   -10563   -10558   -10548 
  -10561   -10640   -10677   -10652   -10656   -10650   -10596   -10546 
  -10498   -10420   -10327   -10208   -10098   -10052   -10026   -10006 
  -10014   -10025   -10030   -10046   -10077   -10099   -10091   -10031 
   -9971   -10019   -10110   -10073    -9992    -9940    -9863    -9884 
  -10011   -10083   -10103   -10062   -10006   -10103   -10245   -10241 
  -10212   -10228   -10201   -10195   -10266   -10316   -10334   -10363 
  -10334   -10257   -10281   -10413   -10480   -10342   -10066    -9880 
   -9883    -9914    -9822    -9664    -9568    -9520    -9396    -9275 
   -9317    -9402    -9366    -9240    -9162    -9225    -9286    -9200 
   -9146    -9201    -9166    -9051    -9011    -8964    -8839    -8781 
   -8758    -8613    -8496    -8565    -8634    -8598    -8600    -8718 
   -8872    -8931    -8912    -9005    -9161    -9154    -9062    -9028 
   -8993    -8964    -8968    -8942    -8884    -8856    -8893    -8980 
   -9063    -9131    -9204    -9315    -9445    -9528    -9545    -9549 
   -9570    -9594    -9603    -9616    -9664    -9706    -9717    -9763 
   -9819    -9829    -9846    -9892    -9906    -9903    -9950   -10011 
  -10021   -10010    -9994    -9996   -10049   -10103   -10139   -10166 
  -10153   -10118   -10091   -10044    -9996   -10000   -10019   -10021 
  -10042   -10092   -10108   -10103   -10122   -10129   -10129   -10168 
  -10210   -10219   -10192   -10174   -10165   -10114   -10050   -10017 
   -9961    -9857    -9761    -9690    -9614    -9528    -9454    -9413 
   -9373    -9306    -9258    -9236    -9169    -9084    -9058    -9026 
   -8949    -8903    -8874    -8841    -8841    -8842    -8824    -8850 
   -8905    -8946    -9036    -9173    -9285    -9410    -9549    -9641 
   -9717    -9794    -9811    -9790    -9772    -9729    -9674    -9641 
   -9601    -9563    -9566    -9574    -9566    -9587    -9628    -9641 
   -9647    -9661    -9660    -9645    -9641    -9637    -9605    -9571 
   -9576    -9591    -9591    -9605    -9630    -9652    -9672    -9678 
   -9675    -9687    -9694    -9699    -9729    -9751    -9775    -9841 
   -9904    -9927    -9946    -9983    -9988    -9953    -9917    -9865 
   -9799    -9765    -9751    -9737    -9764    -9838    -9936   -10050 
  -10180   -10305   -10413   -10503   -10569   -10602   -10604   -10577 
  -10536   -10486   -10417   -10342   -10273   -10211   -10162   -10147 
  -10161   -10189   -10247   -10341   -10422   -10476   -10523   -10551 
  -10534   -10481   -10419   -10361   -10296   -10237   -10207   -10200 
  -10197   -10208   -10234   -10245   -10233   -10214   -10183   -10127 
  -10072   -10030    -9985    -9936    -9886    -9832    -9774    -9709 
   -9649    -9612    -9582    -9566    -9586    -9643    -9710    -9790 
   -9861    -9906    -9950   -10022   -10102   -10166   -10218   -10250 
  -10272   -10303   -10350   -10395   -10407   -10381   -10341   -10307 
  -10276   -10249   -10223   -10188   -10137   -10083   -10039    -9994 
   -9930    -9845    -9744    -9641    -9556    -9498    -9448    -9383 
   -9310    -9242    -9178    -9119    -9063    -9000    -8924    -8841 
