Origin Time       2025/01/13 21:19:00
Lat.              31.8
Long.             131.6
Depth. (km)       30
Mag.              6.9
Station Code      SAG007
Station Lat.      33.2626
Station Long.     130.3005
Station Height(m) 4
Record Time       2025/01/13 21:20:16
Sampling Freq(Hz) 100Hz
Duration Time(s)  201
Dir.              N-S
Scale Factor      7845(gal)/8223790
Max. Acc. (gal)   7.725
Last Correction   2025/01/13 21:20:17
Memo.             
[...]
   10898    10674    10462    10276    10127    10010     9918     9863 
    9842     9845     9868     9896     9910     9911     9909     9898 
    9884     9875     9880     9922    10007    10118    10218    10274 
   10285    10268    10233    10204    10208    10247    10319    10423 
   10540    10658    10770    10882    11002    11128    11246    11358 
   11453    11512    11533    11522    11470    11362    11202    11007 
   10800    10596    10426    10307    10239    10220    10246    10304 
   10374    10439    10485    10503    10490    10474    10492    10557 
   10679    10859    11086    11344    11587    11763    11857    11877 
   11827    11703    11535    11381    11276    11246    11286    11365 
   11479    11612    11738    11835    11896    11929    11954    11962 
   11947    11923    11897    11880    11869    11851    11834    11803 
   11738    11639    11507    11353    11214    11075    10910    10739 
   10567    10405    10255    10092     9909     9714     9518     9354 
    9252     9213     9235     9327     9485     9702     9956    10216 
   10486    10770    11070    11394    11715    12000    12237    12406 
   12490    12505    12463    12359    12208    12025    11807    11553 
   11284    11022    10779    10555    10347    10157     9995     9891 
    9855     9867     9937    10056    10210    10409    10639    10852 
   11026    11124    11130    11095    11049    11011    11022    11074 
   11145    11238    11331    11414    11477    11493    11468    11415 
   11337    11261    11210    11176    11157    11141    11126    11132 
   11149    11159    11167    11167    11167    11180    11198    11217 
   11229    11214    11175    11113    11029    10948    10878    10805 
   10746    10720    10729    10787    10917    11111    11337    11553 
   11746    11909    12025    12078    12082    12027    11909    11751 
   11550    11317    11084    10872    10692    10561    10480    10431 
   10389    10350    10320    10303    10295    10273    10228    10184 
   10169    10189    10242    10328    10447    10579    10697    10790 
   10852    10886    10905    10905    10894    10903    10926    10940 
   10948    10971    11011    11037    11016    10935    10794    10636 
   10520    10465    10455    10463    10504    10612    10789    11005 
   11241    11465    11658    11817    11944    12036    12101    12162 
   12217    12270    12326    12380    12409    12411    12398    12366 
   12321    12259    12174    12069    11901    11658    11385    11088 
   10760    10428    10122     9857     9625     9425     9281     9175 
    9093     9053     9049     9055     9069     9089     9127     9170 
    9197     9204     9201     9196     9193     9196     9204     9213 
    9228     9258     9289     9298     9285     9263     9235     9232 
    9290     9397     9555     9796    10104    10438    10782    11117 
   11446    11773    12056    12285    12492    12675    12803    12904 
   12996    13078    13185    13344    13532    13732    13933    14108 
   14197    14165    14030    13795    13433    12958    12438    11932 
   11448    10949    10405     9853     9360     8958     8622     8309 
    8051     7904     7873     7909     7952     7993     8098     8310 
    8568     8804     8996     9124     9219     9339     9459     9543 
    9598     9634     9671     9718     9790     9923    10116    10342 
   10592    10852    11097    11319    11533    11726    11882    11998 
   12042    12000    11909    11794    11665    11516    11354    11218 
   11126    11057    11013    11006    11038    11130    11296    11507 
   11738    12009    12320    12609    12804    12899    12889    12776 
   12652    12528    12305    12060    11888    11735    11624    11578 
   11533    11485    11443    11375    11300    11246    11184    11144 
   11194    11281    11295    11213    11092    11002    10943    10887 
   10848    10813    10756    10673    10534    10339    10139     9949 
    9802     9738     9709     9697     9759     9883    10027    10201 
   10376    10505    10639    10802    10970    11137    11249    11273 
   11265    11254    11237    11214    11173    11148    11179    11192 
   11088    10925    10800    10708    10621    10546    10492    10486 
   10507    10501    10481    10458    10403    10324    10254    10158 
   10014     9865     9741     9614     9470     9323     9182     9076 
    9015     8993     9001     9016     9042     9080     9115     9180 
    9324     9535     9788    10049    10238    10361    10488    10582 
   10608    10615    10621    10670    10822    11003    11137    11276 
   11480    11726    11915    12012    12181    12486    12764    12988 
   13213    13386    13525    13645    13666    13609    13543    13446 
   13228    12899    12598    12348    12060    11746    11468    11296 
   11273    11342    11473    11688    11951    12240    12499    12609 
   12544    12374    12123    11776    11308    10789    10363    10004 
    9647     9386     9235     9161     9217     9373     9563     9823 
   10192    10617    11001    11345    11716    12082    12409    12723 
   13011    13271    13517    13710    13851    13944    13957    13890 
   13747    13541    13301    13032    12739    12444    12162    11921 
   11731    11564    11414    11294    11172    11011    10809    10565 
   10281     9995     9710     9423     9194     9053     8957     8919 
    8947     9008     9116     9252     9351     9408     9424     9386 
    9327     9286     9250     9202     9173     9171     9163     9158 
    9171     9157     9109     9082     9093     9115     9138     9198 
    9320     9482     9649     9810     9969    10110    10218    10292 
   10315    10295    10255    10212    10169    10122    10066    10004 
    9940     9894     9853     9795     9753     9730     9717     9751 
    9837     9950    10089    10246    10396    10496    10523    10489 
   10403    10269    10130    10004     9903     9864     9899     9995 
   10162    10374    10577    10758    10917    11040    11119    11159 
   11184    11223    11283    11371    11473    11553    11599    11628 
   11646    11639    11593    11488    11329    11141    10936    10732 
   10563    10449    10395    10400    10476    10623    10808    10999 
   11196    11381    11522    11605    11618    11557    11442    11299 
   11161    11036    10926    10866    10870    10947    11107    11340 
   11615    11923    12232    12505    12727    12883    12953    12943 
   12858    12719    12564    12415    12313    12263    12239    12236 
   12259    12295    12341    12386    12415    12433    12451    12478 
   12510    12530    12544    12550    12521    12464    12405    12340 
   12278    12232    12187    12145    12112    12081    12043    12004 
   11967    11938    11923    11924    11929    11929    11908    11848 
   11746    11589    11375    11115    10831    10554    10324    10160 
   10068    10038    10050    10103    10211    10376    10575    10783 
   10993    11192    11353    11476    11580    11651    11676    11653 
   11583    11483    11368    11242    11115    10990    10856    10719 
   10600    10490    10389    10301    10197    10061     9902     9698 
    9441     9161     8860     8560     8283     8028     7808     7623 
    7443     7268     7094     6939     6813     6702     6624     6612 
    6654     6750     6909     7115     7358     7643     7942     8229 
    8521     8811     9082     9354     9622     9872    10116    10351 
   10544    10677    10740    10744    10702    10609    10461    10276 
   10073     9873     9690     9539     9439     9404     9455     9605 
    9846    10180    10592    11059    11568    12086    12575    13015 
   13392    13684    13876    13964    13948    13844    13664    13448 
   13250    13077    12933    12820    12722    12652    12626    12617 
   12611    12607    12604    12619    12642    12667    12725    12802 
   12870    12951    13042    13123    13208    13297    13393    13512 
   13636    13748    13868    13971    14042    14122    14210    14287 
   14354    14386    14365    14295    14181    14052    13923    13805 
   13701    13598    13497    13404    13331    13302    13301    13278 
   13190    12999    12695    12297    11839    11388    10932    10411 
    9864     9333     8800     8266     7753     7273     6843     6462 
    6122     5830     5601     5437     5373     5441     5636     5938 
    6312     6712     7133     7587     8063     8544     9000     9410 
    9788    10162    10548    10949    11364    11781    12185    12546 
   12837    13041    13155    13216    13270    13304    13281    13201 
   13070    12876    12591    12222    11788    11264    10673    10087 
    9499     8896     8326     7805     7331     6955     6686     6481 
    6303     6143     6056     6108     6304     6594     6951     7358 
    7790     8249     8748     9235     9644     9963    10188    10323 
   10373    10365    10323    10223    10056     9887     9759     9644 
    9532     9443     9381     9362     9424     9576     9779     9968 
   10142    10331    10512    10675    10827    10937    11006    11070 
   11138    11202    11240    11268    11286    11240    11130    11005 
   10886    10789    10729    10731    10804    10951    11203    11593 
   12083    12627    13223    13840    14430    14978    15472    15873 
   16148    16294    16308    16191    15950    15607    15198    14732 
   14212    13705    13263    12884    12575    12345    12177    12044 
   11928    11813    11678    11495    11263    10984    10659    10328 
   10038     9807     9657     9607     9647     9756     9913    10100 
   10307    10520    10716    10871    10963    10989    10980    10970 
   10967    10984    10995    10984    10972    10949    10883    10764 
   10623    10449    10224     9958     9655     9339     9081     8915 
    8834     8847     8973     9200     9493     9832    10166    10443 
   10646    10771    10833    10859    10859    10825    10777    10729 
   10669    10633    10655    10708    10812    10998    11241    11526 
   11813    12032    12167    12232    12214    12121    11973    11759 
   11484    11196    10924    10685    10512    10396    10326    10328 
   10395    10478    10561    10633    10674    10677    10698    10763 
   10859    10998    11191    11443    11746    12074    12409    12698 
   12893    12995    12985    12869    12663    12363    11988    11581 
   11161    10720    10266     9848     9483     9150     8846     8554 
    8249     7982     7793     7632     7483     7356     7245     7184 
    7184     7260     7466     7773     8135     8573     9062     9578 
   10111    10581    10955    11272    11518    11697    11846    11966 
   12098    12280    12482    12712    12992    13288    13608    13967 
   14354    14787    15234    15645    16046    16429    16767    17073 
   17327    17496    17570    17501    17274    16933    16475    15913 
   15300    14647    13971    13306    12625    11921    11252    10629 
   10058     9553     9093     8688     8387     8176     8001     7831 
    7642     7431     7203     6956     6716     6515     6382     6359 
    6484     6763     7187     7712     8286     8889     9493    10050 
   10525    10912    11209    11422    11562    11632    11646    11619 
   11554    11434    11232    10967    10674    10370    10056     9747 
    9481     9286     9146     9030     8932     8870     8831     8779 
    8679     8525     8345     8171     8004     7851     7757     7747 
    7847     8068     8407     8849     9382     9987    10624    11252 
   11854    12417    12926    13351    13662    13841    13896    13814 
   13593    13278    12897    12442    11942    11452    10990    10559 
   10161     9795     9486     9247     9059     8916     8807     8710 
    8629     8595     8604     8633     8676     8757     8856     8928 
    9008     9128     9261     9377     9460     9520     9579     9640 
    9713     9803     9913    10068    10264    10476    10717    10989 
   11268    11537    11793    12047    12297    12541    12777    12999 
   13189    13325    13381    13324    13155    12930    12667    12367 
   12063    11780    11527    11311    11122    10984    10924    10921 
   10972    11076    11203    11350    11507    11635    11740    11844 
   11915    11938    11938    11909    11857    11807    11774    11754 
   11762    11821    11904    11985    12077    12171    12236    12247 
   12205    12127    12017    11877    11720    11573    11433    11306 
   11207    11144    11105    11075    11043    11014    10991    10980 
   11006    11079    11190    11341    11537    11777    12043    12312 
   12568    12795    12980    13130    13266    13390    13500    13601 
   13686    13740    13749    13687    13556    13354    13073    12738 
   12380    12004    11614    11223    10841    10473    10114     9768 
    9451     9170     8924     8714     8533     8370     8229     8110 
    8017     7942     7877     7838     7839     7890     8025     8239 
    8484     8742     9035     9369     9718    10075    10446    10814 
   11137    11410    11651    11859    12033    12170    12263    12324 
   12364    12375    12343    12262    12136    11958    11716    11406 
   11030    10598    10106     9549     8949     8320     7665     6997 
    6319     5651     5003     4386     3848     3427     3117     2903 
    2789     2793     2920     3164     3510     3912     4355     4835 
    5344     5867     6389     6907     7412     7901     8403     8945 
    9510    10106    10735    11375    12009    12640    13261    13856 
   14411    14912    15342    15699    15982    16166    16233    16187 
   16033    15804    15541    15259    14980    14721    14480    14272 
   14094    13918    13744    13575    13410    13254    13122    13022 
   12933    12862    12823    12796    12772    12744    12702    12660 
   12641    12658    12733    12862    13035    13269    13582    13961 
   14382    14823    15259    15666    16015    16298    16513    16625 
   16638    16561    16394    16182    15924    15589    15214    14823 
   14415    14013    13613    13200    12789    12398    12031    11685 
   11337    10975    10608    10237     9853     9448     9031     8611 
    8194     7813     7488     7191     6934     6754     6652     6624 
    6673     6798     6986     7221     7497     7819     8167     8519 
    8865     9201     9525     9823    10091    10336    10566    10779 
   10987    11188    11368    11524    11673    11834    11998    12132 
   12220    12285    12318    12302    12233    12097    11905    11661 
   11342    10962    10557    10139     9674     9157     8627     8109 
    7618     7161     6729     6355     6061     5818     5628     5518 
    5495     5544     5644     5769     5907     6070     6258     6459 
    6679     6917     7163     7423     7707     8016     8361     8742 
    9139     9556    10019    10490    10937    11371    11784    12185 
   12596    12997    13375    13732    14056    14346    14616    14860 
   15064    15219    15330    15407    15449    15465    15454    15408 
   15341    15269    15198    15133    15064    14966    14852    14717 
   14538    14335    14110    13855    13601    13363    13138    12941 
   12780    12636    12484    12313    12108    11855    11564    11245 
   10890    10504    10103     9683     9263     8860     8459     8063 
    7677     7296     6934     6605     6320     6108     5992     5994 
    6134     6400     6756     7194     7716     8298     8907     9524 
   10138    10737    11303    11821    12290    12708    13065    13359 
   13603    13813    14000    14162    14296    14415    14521    14602 
   14658    14689    14705    14688    14631    14565    14488    14404 
   14350    14327    14337    14391    14470    14559    14655    14724 
   14732    14675    14565    14435    14301    14153    13983    13764 
   13497    13207    12879    12509    12112    11692    11263    10837 
   10424    10038     9668     9306     8966     8654     8365     8109 
    7890     7708     7554     7418     7291     7149     6964     6735 
    6475     6203     5934     5683     5479     5341     5270     5270 
    5336     5443     5587     5773     5995     6261     6565     6906 
    7291     7708     8144     8607     9107     9621    10131    10629 
   11106    11543    11935    12275    12569    12825    13046    13244 
   13404    13504    13543    13518    13420    13240    12989    12688 
   12360    12023    11688    11371    11086    10825    10592    10400 
   10262    10169    10100    10038     9973     9895     9791     9651 
    9475     9292     9113     8949     8833     8793     8853     9024 
    9290     9636    10049    10494    10943    11373    11762    12091 
   12359    12565    12706    12775    12791    12760    12691    12634 
   12623    12658    12764    12943    13194    13514    13873    14245 
   14627    14990    15303    15546    15714    15803    15788    15647 
   15402    15047    14574    14015    13383    12685    11948    11194 
   10443     9718     9016     8337     7712     7165     6685     6268 
    5927     5667     5501     5436     5455     5525     5613     5711 
    5821     5918     6007     6114     6250     6438     6666     6918 
    7206     7534     7906     8330     8792     9275     9767    10235 
   10658    11036    11335    11516    11599    11603    11520    11362 
   11146    10889    10615    10342    10096     9888     9709     9562 
    9441     9342     9261     9175     9069     8943     8791     8611 
    8413     8199     7996     7796     7577     7362     7177     7030 
    6957     6975     7074     7261     7519     7825     8199     8633 
    9103     9599    10100    10594    11056    11462    11839    12202 
   12537    12843    13127    13383    13620    13857    14116    14393 
   14686    14998    15317    15646    15982    16271    16476    16591 
   16607    16537    16395    16185    15927    15635    15319    15016 
   14739    14481    14253    14060    13886    13711    13491    13208 
   12847    12375    11805    11165    10455     9722     9009     8326 
    7707     7182     6760     6446     6245     6156     6162     6259 
    6454     6756     7169     7689     8309     9005     9745    10473 
   11149    11753    12255    12636    12910    13080    13170    13240 
   13327    13448    13624    13852    14130    14461    14833    15229 
   15601    15909    16159    16326    16363    16237    15944    15495 
   14895    14165    13358    12515    11678    10914    10265     9737 
    9342     9072     8907     8835     8857     8950     9072     9200 
    9327     9443     9556     9679     9818     9973    10164    10430 
   10760    11126    11520    11923    12313    12677    12999    13281 
   13541    13775    13975    14127    14218    14242    14210    14137 
   14021    13868    13690    13477    13221    12920    12571    12171 
   11735    11283    10832    10409    10041     9730     9481     9275 
    9089     8916     8727     8494     8237     7955     7611     7222 
    6820     6409     6007     5653     5381     5225     5240     5440 
    5795     6288     6909     7599     8305     8991     9602    10106 
