Origin Time       2025/01/13 21:19:00
Lat.              31.8
Long.             131.6
Depth. (km)       30
Mag.              6.9
Station Code      SAG001
Station Lat.      33.5274
Station Long.     129.8772
Station Height(m) 40
Record Time       2025/01/13 21:20:50
Sampling Freq(Hz) 100Hz
Duration Time(s)  60
Dir.              U-D
Scale Factor      7845(gal)/8223790
Max. Acc. (gal)   0.869
Last Correction   2025/01/13 21:20:51
Memo.             
[...]
  -14835   -14818   -14790   -14756   -14735   -14712   -14688   -14682 
  -14677   -14658   -14644   -14638   -14625   -14616   -14617   -14615 
  -14608   -14616   -14628   -14634   -14629   -14623   -14621   -14620 
  -14605   -14586   -14567   -14557   -14562   -14561   -14555   -14565 
  -14581   -14596   -14615   -14636   -14659   -14686   -14705   -14705 
  -14708   -14717   -14708   -14694   -14689   -14678   -14670   -14654 
  -14624   -14605   -14592   -14563   -14538   -14513   -14478   -14461 
  -14451   -14435   -14432   -14436   -14428   -14426   -14420   -14400 
  -14380   -14364   -14337   -14310   -14285   -14250   -14212   -14175 
  -14125   -14076   -14033   -13987   -13952   -13932   -13914   -13911 
  -13925   -13940   -13964   -14007   -14054   -14100   -14158   -14214 
  -14260   -14311   -14358   -14397   -14443   -14482   -14508   -14538 
  -14567   -14586   -14601   -14623   -14642   -14655   -14663   -14665 
  -14667   -14677   -14685   -14702   -14725   -14733   -14747   -14779 
  -14796   -14802   -14817   -14827   -14820   -14810   -14802   -14785 
  -14759   -14732   -14692   -14647   -14613   -14578   -14536   -14503 
  -14476   -14458   -14443   -14428   -14428   -14436   -14443   -14459 
  -14473   -14484   -14494   -14503   -14512   -14513   -14512   -14526 
  -14532   -14531   -14548   -14565   -14571   -14584   -14601   -14616 
  -14621   -14621   -14627   -14638   -14642   -14634   -14624   -14619 
  -14607   -14594   -14589   -14571   -14557   -14563   -14561   -14553 
  -14565   -14584   -14590   -14590   -14601   -14608   -14601   -14588 
  -14566   -14547   -14531   -14503   -14469   -14438   -14407   -14372 
  -14341   -14324   -14300   -14270   -14257   -14242   -14224   -14218 
  -14214   -14215   -14226   -14239   -14253   -14265   -14276   -14289 
  -14297   -14303   -14311   -14315   -14320   -14331   -14331   -14334 
  -14347   -14353   -14350   -14353   -14351   -14339   -14328   -14319 
  -14303   -14289   -14283   -14266   -14250   -14243   -14231   -14214 
  -14210   -14204   -14195   -14193   -14191   -14185   -14185   -14189 
  -14196   -14206   -14223   -14247   -14272   -14305   -14343   -14380 
  -14420   -14453   -14477   -14507   -14527   -14540   -14563   -14582 
  -14588   -14593   -14601   -14597   -14586   -14582   -14586   -14581 
  -14566   -14547   -14530   -14513   -14490   -14476   -14469   -14457 
  -14443   -14442   -14436   -14428   -14431   -14432   -14432   -14435 
  -14435   -14438   -14449   -14451   -14458   -14463   -14466   -14478 
  -14488   -14497   -14513   -14526   -14543   -14562   -14569   -14585 
  -14609   -14625   -14643   -14663   -14692   -14731   -14769   -14800 
  -14835   -14879   -14917   -14945   -14974   -15006   -15036   -15052 
  -15049   -15043   -15030   -15014   -14997   -14976   -14958   -14956 
  -14963   -14959   -14963   -14976   -14980   -14994   -15026   -15044 
  -15057   -15080   -15097   -15111   -15124   -15124   -15122   -15124 
  -15111   -15097   -15086   -15060   -15029   -15009   -14980   -14937 
  -14902   -14881   -14851   -14817   -14791   -14766   -14735   -14712 
  -14700   -14694   -14704   -14712   -14706   -14716   -14743   -14762 
  -14777   -14796   -14801   -14802   -14804   -14800   -14791   -14779 
  -14769   -14764   -14763   -14762   -14770   -14778   -14781   -14778 
  -14767   -14739   -14702   -14659   -14611   -14566   -14532   -14499 
  -14467   -14440   -14419   -14401   -14382   -14373   -14365   -14358 
  -14364   -14369   -14376   -14391   -14401   -14415   -14428   -14431 
  -14427   -14415   -14386   -14354   -14315   -14266   -14218   -14168 
  -14110   -14057   -14010   -13967   -13933   -13907   -13892   -13891 
  -13894   -13909   -13936   -13968   -14004   -14050   -14095   -14133 
  -14172   -14208   -14233   -14251   -14268   -14278   -14288   -14297 
  -14305   -14312   -14319   -14327   -14332   -14337   -14342   -14342 
  -14338   -14334   -14327   -14319   -14307   -14293   -14288   -14284 
  -14281   -14288   -14293   -14301   -14323   -14347   -14372   -14408 
  -14440   -14462   -14488   -14516   -14531   -14539   -14550   -14546 
  -14536   -14547   -14558   -14554   -14561   -14578   -14588   -14597 
  -14607   -14613   -14617   -14608   -14585   -14566   -14550   -14517 
  -14480   -14457   -14440   -14427   -14426   -14438   -14457   -14484 
  -14515   -14540   -14562   -14582   -14589   -14593   -14600   -14596 
  -14582   -14574   -14580   -14581   -14577   -14580   -14597   -14619 
  -14627   -14635   -14644   -14642   -14636   -14623   -14588   -14555 
  -14530   -14493   -14458   -14431   -14405   -14385   -14368   -14359 
  -14358   -14354   -14349   -14346   -14345   -14345   -14341   -14339 
  -14331   -14320   -14320   -14319   -14312   -14316   -14318   -14316 
  -14326   -14337   -14339   -14343   -14347   -14343   -14338   -14334 
  -14324   -14305   -14293   -14285   -14272   -14272   -14288   -14299 
  -14318   -14347   -14370   -14400   -14439   -14472   -14501   -14535 
  -14567   -14598   -14624   -14646   -14677   -14708   -14732   -14750 
  -14773   -14805   -14825   -14848   -14871   -14882   -14894   -14902 
  -14895   -14882   -14870   -14856   -14841   -14821   -14794   -14764 
  -14737   -14715   -14697   -14681   -14659   -14629   -14607   -14592 
  -14570   -14550   -14532   -14508   -14489   -14470   -14436   -14409 
  -14385   -14349   -14318   -14291   -14253   -14223   -14202   -14179 
  -14168   -14164   -14157   -14157   -14157   -14157   -14160   -14158 
  -14156   -14153   -14143   -14129   -14118   -14107   -14096   -14087 
  -14077   -14067   -14054   -14045   -14037   -14029   -14025   -14025 
  -14022   -14017   -14013   -14010   -14000   -13995   -13998   -14000 
  -14010   -14030   -14049   -14075   -14111   -14143   -14176   -14224 
  -14272   -14316   -14370   -14419   -14454   -14493   -14538   -14574 
  -14600   -14629   -14667   -14705   -14737   -14762   -14787   -14831 
  -14870   -14906   -14959   -15005   -15040   -15086   -15142   -15194 
  -15230   -15265   -15294   -15307   -15321   -15330   -15325   -15319 
  -15318   -15313   -15307   -15299   -15298   -15303   -15307   -15323 
  -15344   -15354   -15371   -15387   -15385   -15380   -15372   -15348 
  -15319   -15290   -15248   -15202   -15167   -15129   -15086   -15048 
  -15006   -14951   -14905   -14874   -14837   -14796   -14766   -14739 
  -14709   -14690   -14675   -14663   -14656   -14640   -14616   -14598 
  -14578   -14547   -14513   -14470   -14420   -14369   -14312   -14251 
  -14188   -14126   -14067   -14004   -13949   -13905   -13860   -13822 
  -13805   -13786   -13768   -13764   -13767   -13774   -13794   -13818 
  -13840   -13875   -13914   -13945   -13983   -14029   -14068   -14106 
  -14149   -14184   -14219   -14260   -14285   -14303   -14318   -14316 
  -14301   -14288   -14268   -14235   -14206   -14173   -14139   -14118 
  -14107   -14098   -14100   -14116   -14134   -14162   -14196   -14222 
  -14249   -14280   -14303   -14324   -14349   -14365   -14376   -14397 
  -14419   -14435   -14462   -14489   -14512   -14543   -14570   -14594 
  -14625   -14648   -14659   -14677   -14692   -14701   -14715   -14721 
  -14721   -14732   -14748   -14763   -14781   -14797   -14809   -14808 
  -14802   -14797   -14778   -14758   -14736   -14709   -14688   -14674 
  -14650   -14620   -14604   -14597   -14592   -14594   -14594   -14584 
  -14588   -14602   -14602   -14601   -14611   -14624   -14636   -14648 
  -14661   -14675   -14696   -14713   -14735   -14754   -14752   -14742 
  -14729   -14717   -14697   -14671   -14647   -14621   -14601   -14592 
  -14575   -14566   -14577   -14584   -14584   -14596   -14617   -14636 
  -14651   -14665   -14688   -14705   -14715   -14737   -14759   -14764 
  -14770   -14767   -14759   -14754   -14742   -14727   -14716   -14696 
  -14666   -14640   -14627   -14598   -14548   -14508   -14472   -14422 
  -14377   -14338   -14293   -14257   -14223   -14191   -14166   -14143 
  -14123   -14104   -14095   -14083   -14064   -14057   -14049   -14037 
  -14038   -14037   -14023   -14021   -14022   -14013   -14013   -14021 
  -14023   -14029   -14045   -14061   -14076   -14102   -14135   -14166 
  -14204   -14246   -14285   -14327   -14366   -14403   -14439   -14470 
  -14496   -14520   -14542   -14565   -14586   -14611   -14648   -14677 
  -14700   -14736   -14769   -14785   -14800   -14820   -14832   -14836 
  -14831   -14821   -14805   -14778   -14748   -14719   -14685   -14661 
  -14631   -14589   -14550   -14519   -14488   -14457   -14427   -14404 
  -14385   -14374   -14374   -14386   -14401   -14420   -14449   -14478 
  -14513   -14551   -14584   -14608   -14638   -14675   -14696   -14702 
  -14712   -14724   -14728   -14725   -14724   -14728   -14737   -14744 
  -14742   -14736   -14727   -14719   -14712   -14697   -14671   -14648 
  -14624   -14592   -14547   -14500   -14466   -14436   -14397   -14362 
  -14335   -14307   -14280   -14260   -14237   -14220   -14215   -14202 
  -14189   -14187   -14180   -14172   -14166   -14162   -14161   -14168 
  -14179   -14195   -14219   -14253   -14288   -14324   -14365   -14407 
  -14443   -14474   -14500   -14521   -14535   -14544   -14544   -14535 
  -14531   -14527   -14513   -14508   -14517   -14515   -14515   -14534 
  -14539   -14535   -14555   -14573   -14573   -14581   -14600   -14602 
  -14596   -14594   -14597   -14598   -14605   -14612   -14616   -14631 
  -14650   -14659   -14671   -14694   -14710   -14719   -14740   -14764 
  -14779   -14801   -14818   -14825   -14843   -14856   -14863   -14879 
  -14902   -14924   -14956   -14990   -15009   -15029   -15052   -15061 
  -15071   -15084   -15078   -15067   -15066   -15052   -15024   -15003 
  -14990   -14968   -14939   -14910   -14881   -14852   -14836   -14813 
  -14785   -14762   -14735   -14706   -14683   -14647   -14601   -14554 
  -14507   -14461   -14407   -14349   -14297   -14250   -14203   -14165 
  -14134   -14107   -14083   -14064   -14050   -14037   -14025   -14015 
  -14006   -13996   -13987   -13977   -13973   -13975   -13983   -13996 
  -14007   -14023   -14044   -14060   -14079   -14096   -14106   -14119 
  -14127   -14119   -14112   -14100   -14079   -14062   -14048   -14027 
  -14011   -14000   -13990   -13981   -13977   -13973   -13965   -13964 
  -13967   -13959   -13961   -13975   -13986   -14010   -14045   -14080 
  -14118   -14160   -14203   -14242   -14280   -14315   -14341   -14368 
  -14397   -14420   -14446   -14477   -14508   -14551   -14597   -14634 
  -14688   -14758   -14812   -14858   -14905   -14941   -14971   -15013 
  -15060   -15090   -15115   -15138   -15156   -15175   -15182   -15178 
  -15175   -15159   -15136   -15111   -15075   -15039   -14999   -14944 
  -14902   -14870   -14824   -14773   -14724   -14674   -14623   -14577 
  -14538   -14497   -14459   -14443   -14432   -14415   -14412   -14423 
  -14427   -14439   -14455   -14461   -14466   -14469   -14467   -14463 
  -14451   -14438   -14426   -14405   -14389   -14373   -14354   -14347 
  -14347   -14342   -14345   -14355   -14366   -14373   -14386   -14399 
  -14400   -14411   -14431   -14442   -14461   -14490   -14509   -14528 
  -14561   -14590   -14612   -14632   -14651   -14667   -14693   -14705 
  -14693   -14693   -14700   -14681   -14666   -14667   -14655   -14624 
  -14598   -14574   -14542   -14521   -14501   -14465   -14450   -14446 
  -14422   -14419   -14428   -14423   -14434   -14451   -14451   -14462 
  -14480   -14490   -14500   -14515   -14530   -14538   -14546   -14561 
  -14566   -14558   -14554   -14554   -14540   -14517   -14492   -14465 
  -14428   -14388   -14354   -14320   -14281   -14251   -14229   -14207 
  -14196   -14187   -14183   -14193   -14203   -14208   -14220   -14233 
  -14238   -14243   -14250   -14249   -14245   -14242   -14235   -14230 
  -14230   -14226   -14223   -14235   -14243   -14250   -14266   -14284 
  -14299   -14324   -14349   -14369   -14396   -14420   -14446   -14482 
  -14513   -14535   -14570   -14608   -14627   -14640   -14659   -14669 
  -14678   -14681   -14670   -14677   -14690   -14689   -14706   -14746 
  -14766   -14777   -14804   -14835   -14856   -14882   -14904   -14910 
  -14920   -14932   -14936   -14937   -14929   -14913   -14904   -14891 
  -14863   -14831   -14805   -14773   -14740   -14715   -14681   -14634 
  -14597   -14573   -14544   -14521   -14500   -14473   -14458   -14455 
  -14445   -14440   -14451   -14457   -14466   -14485   -14503   -14520 
  -14538   -14554   -14567   -14566   -14561   -14558   -14542   -14523 
  -14503   -14476   -14454   -14430   -14403   -14386   -14374   -14358 
  -14346   -14338   -14328   -14316   -14304   -14288   -14269   -14253 
  -14234   -14216   -14207   -14202   -14202   -14210   -14222   -14234 
  -14243   -14250   -14251   -14246   -14233   -14212   -14185   -14154 
  -14119   -14079   -14038   -13998   -13963   -13932   -13907   -13894 
  -13890   -13891   -13900   -13915   -13933   -13952   -13971   -13988 
  -14007   -14027   -14048   -14060   -14071   -14079   -14087   -14099 
  -14108   -14116   -14138   -14165   -14183   -14208   -14239   -14265 
  -14292   -14324   -14349   -14372   -14408   -14449   -14484   -14530 
  -14580   -14620   -14662   -14715   -14762   -14814   -14868   -14898 
  -14926   -14972   -15005   -15025   -15055   -15078   -15091   -15121 
  -15152   -15164   -15192   -15236   -15253   -15275   -15315   -15329 
  -15342   -15375   -15381   -15384   -15406   -15415   -15412   -15423 
  -15433   -15429   -15427   -15427   -15412   -15394   -15381   -15357 
  -15326   -15306   -15272   -15228   -15192   -15147   -15091   -15045 
  -14990   -14926   -14882   -14840   -14793   -14767   -14752   -14737 
  -14737   -14746   -14748   -14760   -14786   -14808   -14829   -14856 
  -14877   -14894   -14914   -14918   -14912   -14910   -14909   -14898 
  -14879   -14859   -14829   -14796   -14773   -14744   -14712   -14678 
  -14629   -14578   -14539   -14496   -14446   -14400   -14354   -14307 
  -14260   -14214   -14173   -14127   -14080   -14050   -14019   -13986 
  -13967   -13950   -13938   -13941   -13946   -13952   -13971   -13992 
  -14008   -14029   -14049   -14065   -14079   -14089   -14096   -14099 
  -14096   -14091   -14083   -14076   -14073   -14071   -14067   -14065 
  -14071   -14080   -14095   -14114   -14135   -14161   -14188   -14212 
  -14237   -14262   -14288   -14315   -14345   -14376   -14408   -14445 
  -14484   -14528   -14571   -14616   -14662   -14700   -14736   -14777 
  -14804   -14824   -14854   -14872   -14887   -14902   -14912   -14922 
  -14935   -14941   -14939   -14936   -14947   -14960   -14962   -14962 
  -14967   -14955   -14937   -14937   -14936   -14921   -14914   -14920 
  -14922   -14921   -14926   -14936   -14951   -14960   -14960   -14962 
  -14960   -14944   -14936   -14944   -14940   -14931   -14933   -14933 
  -14918   -14904   -14898   -14893   -14878   -14854   -14831   -14810 
  -14789   -14766   -14750   -14737   -14719   -14708   -14710   -14712 
  -14717   -14723   -14715   -14715   -14729   -14743   -14750   -14759 
  -14769   -14774   -14781   -14787   -14790   -14794   -14796   -14782 
  -14770   -14762   -14739   -14708   -14674   -14628   -14581   -14540 
  -14493   -14438   -14382   -14328   -14274   -14219   -14169   -14129 
  -14087   -14049   -14021   -13999   -13981   -13971   -13964   -13963 
  -13967   -13975   -13986   -14003   -14029   -14056   -14080   -14107 
  -14139   -14169   -14197   -14229   -14254   -14276   -14304   -14330 
  -14347   -14373   -14399   -14415   -14435   -14461   -14480   -14497 
  -14515   -14528   -14535   -14536   -14538   -14530   -14512   -14499 
  -14480   -14454   -14432   -14407   -14376   -14347   -14319   -14289 
  -14265   -14234   -14207   -14192   -14172   -14150   -14141   -14129 
  -14110   -14103   -14104   -14098   -14103   -14123   -14137   -14160 
  -14197   -14234   -14281   -14339   -14392   -14449   -14511   -14565 
  -14616   -14666   -14704   -14732   -14762   -14787   -14804   -14820 
  -14835   -14850   -14856   -14866   -14877   -14874   -14866   -14867 
  -14859   -14845   -14841   -14829   -14804   -14790   -14773   -14735 
  -14708   -14683   -14647   -14620   -14607   -14589   -14569   -14558 
  -14554   -14553   -14555   -14557   -14563   -14586   -14605   -14615 
  -14640   -14670   -14686   -14698   -14712   -14728   -14735   -14733 
  -14732   -14731   -14728   -14723   -14706   -14685   -14669   -14659 
  -14642   -14624   -14617   -14600   -14569   -14548   -14535   -14509 
  -14489   -14473   -14451   -14438   -14430   -14428   -14438   -14453 
  -14467   -14488   -14523   -14555   -14578   -14619   -14656   -14673 
  -14696   -14721   -14729   -14736   -14750   -14758   -14766   -14767 
  -14755   -14737   -14715   -14681   -14647   -14616   -14571   -14530 
  -14497   -14451   -14407   -14385   -14354   -14326   -14319   -14307 
  -14304   -14318   -14322   -14337   -14366   -14392   -14423   -14463 
  -14500   -14536   -14582   -14627   -14655   -14683   -14724   -14742 
  -14754   -14774   -14767   -14747   -14732   -14689   -14635   -14598 
  -14547   -14486   -14440   -14393   -14339   -14303   -14272   -14235 
  -14208   -14189   -14170   -14149   -14139   -14131   -14116   -14114 
  -14112   -14104   -14110   -14116   -14116   -14129   -14148   -14156 
  -14162   -14177   -14189   -14199   -14216   -14234   -14243   -14265 
  -14293   -14310   -14330   -14355   -14370   -14384   -14403   -14418 
  -14430   -14450   -14467   -14482   -14500   -14517   -14523   -14534 
  -14546   -14544   -14548   -14557   -14550   -14546   -14550   -14550 
  -14543   -14539   -14536   -14527   -14513   -14507   -14500   -14480 
  -14462   -14455   -14443   -14426   -14419   -14413   -14403   -14401 
  -14400   -14396   -14397   -14403   -14407   -14405   -14405   -14407 
  -14404   -14405   -14407   -14408   -14409   -14409   -14408   -14409 
  -14415   -14419   -14427   -14442   -14454   -14472   -14496   -14520 
  -14544   -14574   -14613   -14639   -14662   -14694   -14717   -14742 
  -14775   -14790   -14798   -14818   -14829   -14832   -14843   -14848 
  -14851   -14860   -14870   -14877   -14893   -14910   -14926   -14940 
  -14955   -14966   -14972   -14964   -14955   -14956   -14949   -14926 
  -14912   -14897   -14863   -14828   -14800   -14773   -14748   -14728 
  -14697   -14663   -14640   -14619   -14597   -14584   -14571   -14553 
  -14534   -14524   -14517   -14499   -14481   -14466   -14446   -14420 
  -14399   -14370   -14338   -14308   -14276   -14243   -14215   -14180 
  -14148   -14122   -14094   -14067   -14045   -14029   -14014   -14004 
  -14000   -13998   -13999   -14007   -14017   -14027   -14045   -14060 
  -14081   -14110   -14131   -14156   -14185   -14207   -14231   -14264 
  -14292   -14322   -14355   -14391   -14424   -14459   -14496   -14530 
  -14562   -14597   -14634   -14667   -14694   -14725   -14756   -14778 
  -14797   -14820   -14840   -14852   -14863   -14877   -14878   -14872 
  -14870   -14855   -14835   -14824   -14802   -14767   -14740   -14720 
  -14692   -14661   -14634   -14621   -14612   -14592   -14578   -14580 
  -14582   -14586   -14594   -14602   -14619   -14642   -14658   -14673 
  -14702   -14728   -14743   -14779   -14812   -14825   -14848   -14868 
  -14872   -14887   -14904   -14905   -14904   -14895   -14881   -14874 
