Origin Time       2025/01/13 21:19:00
Lat.              31.8
Long.             131.6
Depth. (km)       30
Mag.              6.9
Station Code      SAG008
Station Lat.      33.1041
Station Long.     130.0998
Station Height(m) 7
Record Time       2025/01/13 21:20:30
Sampling Freq(Hz) 100Hz
Duration Time(s)  76
Dir.              U-D
Scale Factor      7845(gal)/8223790
Max. Acc. (gal)   1.128
Last Correction   2025/01/13 21:20:32
Memo.             
[...]
  -16698   -16660   -16625   -16591   -16560   -16536   -16521   -16518 
  -16532   -16557   -16598   -16646   -16702   -16767   -16841   -16920 
  -16993   -17053   -17093   -17112   -17099   -17051   -16978   -16889 
  -16789   -16692   -16610   -16544   -16486   -16451   -16447   -16461 
  -16484   -16524   -16572   -16621   -16669   -16721   -16771   -16818 
  -16849   -16864   -16876   -16870   -16845   -16821   -16800   -16775 
  -16744   -16719   -16694   -16659   -16622   -16596   -16579   -16565 
  -16559   -16556   -16540   -16507   -16475   -16440   -16402   -16366 
  -16343   -16332   -16324   -16318   -16317   -16322   -16339   -16362 
  -16394   -16438   -16482   -16519   -16557   -16595   -16619   -16630 
  -16634   -16634   -16636   -16637   -16640   -16644   -16645   -16646 
  -16650   -16648   -16653   -16677   -16711   -16752   -16812   -16896 
  -16983   -17073   -17172   -17273   -17373   -17477   -17582   -17679 
  -17764   -17826   -17861   -17878   -17875   -17848   -17807   -17764 
  -17705   -17629   -17550   -17471   -17398   -17340   -17294   -17255 
  -17221   -17185   -17149   -17120   -17088   -17047   -17015   -16981 
  -16926   -16862   -16804   -16752   -16702   -16656   -16618   -16586 
  -16552   -16524   -16510   -16506   -16502   -16503   -16515   -16525 
  -16528   -16544   -16571   -16596   -16630   -16676   -16715   -16744 
  -16758   -16748   -16717   -16667   -16605   -16544   -16487   -16424 
  -16355   -16287   -16229   -16177   -16132   -16100   -16081   -16070 
  -16066   -16071   -16083   -16100   -16121   -16154   -16193   -16237 
  -16298   -16375   -16444   -16505   -16565   -16617   -16661   -16708 
  -16748   -16783   -16815   -16841   -16869   -16899   -16918   -16919 
  -16910   -16887   -16843   -16794   -16744   -16684   -16619   -16564 
  -16510   -16452   -16403   -16374   -16356   -16340   -16332   -16340 
  -16349   -16356   -16372   -16390   -16401   -16414   -16438   -16464 
  -16484   -16509   -16551   -16599   -16641   -16683   -16729   -16765 
  -16788   -16803   -16816   -16819   -16810   -16792   -16772   -16745 
  -16715   -16700   -16699   -16699   -16708   -16730   -16749   -16769 
  -16803   -16852   -16904   -16976   -17062   -17142   -17209   -17267 
  -17312   -17340   -17355   -17363   -17370   -17375   -17373   -17366 
  -17359   -17335   -17302   -17275   -17247   -17213   -17188   -17178 
  -17170   -17157   -17149   -17149   -17146   -17143   -17153   -17166 
  -17166   -17155   -17150   -17140   -17119   -17089   -17065   -17037 
  -16999   -16964   -16938   -16904   -16864   -16837   -16830   -16837 
  -16862   -16911   -16970   -17027   -17082   -17135   -17172   -17200 
  -17226   -17238   -17240   -17246   -17250   -17251   -17257   -17266 
  -17285   -17321   -17363   -17409   -17464   -17514   -17554   -17591 
  -17622   -17633   -17629   -17624   -17608   -17581   -17555   -17536 
  -17514   -17487   -17463   -17442   -17419   -17390   -17352   -17307 
  -17248   -17182   -17118   -17057   -16999   -16945   -16900   -16860 
  -16816   -16775   -16744   -16717   -16690   -16672   -16675   -16687 
  -16702   -16730   -16769   -16806   -16846   -16889   -16933   -16980 
  -17024   -17061   -17085   -17100   -17104   -17096   -17081   -17065 
  -17049   -17035   -17020   -16999   -16974   -16946   -16912   -16873 
  -16825   -16768   -16702   -16627   -16551   -16476   -16403   -16341 
  -16297   -16256   -16212   -16177   -16148   -16112   -16069   -16028 
  -15986   -15944   -15920   -15912   -15908   -15909   -15924   -15943 
  -15963   -15990   -16028   -16073   -16124   -16177   -16221   -16254 
  -16276   -16297   -16310   -16325   -16347   -16375   -16405   -16440 
  -16479   -16515   -16556   -16609   -16664   -16719   -16779   -16841 
  -16902   -16962   -17018   -17065   -17107   -17146   -17170   -17180 
  -17184   -17174   -17149   -17122   -17097   -17068   -17034   -17011 
  -17004   -17001   -17007   -17034   -17070   -17101   -17135   -17172 
  -17199   -17219   -17242   -17259   -17270   -17273   -17267   -17258 
  -17242   -17212   -17170   -17130   -17086   -17041   -17000   -16966 
  -16931   -16896   -16872   -16854   -16834   -16826   -16835   -16843 
  -16850   -16870   -16899   -16927   -16961   -16999   -17034   -17064 
  -17097   -17126   -17142   -17155   -17176   -17200   -17224   -17247 
  -17266   -17282   -17292   -17281   -17257   -17221   -17165   -17099 
  -17034   -16964   -16895   -16835   -16787   -16741   -16699   -16669 
  -16652   -16636   -16622   -16615   -16603   -16584   -16567   -16553 
  -16541   -16532   -16536   -16549   -16561   -16578   -16603   -16623 
  -16632   -16626   -16606   -16565   -16505   -16429   -16356   -16285 
  -16216   -16158   -16124   -16113   -16117   -16137   -16175   -16214 
  -16247   -16276   -16291   -16282   -16254   -16213   -16162   -16097 
  -16027   -15970   -15930   -15903   -15892   -15903   -15923   -15943 
  -15971   -16005   -16036   -16067   -16106   -16154   -16205   -16260 
  -16322   -16387   -16451   -16509   -16556   -16592   -16621   -16637 
  -16650   -16663   -16665   -16673   -16688   -16699   -16706   -16715 
  -16731   -16753   -16776   -16803   -16835   -16866   -16893   -16918 
  -16933   -16933   -16927   -16923   -16918   -16908   -16906   -16910 
  -16924   -16949   -16984   -17028   -17085   -17147   -17201   -17254 
  -17311   -17354   -17378   -17398   -17409   -17393   -17365   -17338 
  -17307   -17265   -17223   -17200   -17185   -17170   -17163   -17166 
  -17165   -17163   -17169   -17173   -17173   -17170   -17173   -17185 
  -17197   -17211   -17232   -17258   -17281   -17302   -17324   -17344 
  -17370   -17408   -17455   -17504   -17554   -17605   -17655   -17697 
  -17733   -17764   -17786   -17799   -17801   -17791   -17774   -17743 
  -17702   -17656   -17605   -17547   -17485   -17429   -17373   -17307 
  -17242   -17188   -17138   -17088   -17050   -17022   -16988   -16950 
  -16919   -16887   -16857   -16842   -16850   -16869   -16892   -16923 
  -16957   -16985   -17012   -17034   -17046   -17049   -17038   -17019 
  -17003   -16980   -16945   -16912   -16881   -16842   -16795   -16749 
  -16704   -16659   -16618   -16590   -16569   -16553   -16552   -16563 
  -16572   -16579   -16587   -16590   -16583   -16573   -16563   -16546 
  -16525   -16509   -16490   -16455   -16413   -16375   -16336   -16295 
  -16263   -16252   -16260   -16275   -16299   -16333   -16360   -16378 
  -16399   -16418   -16428   -16434   -16451   -16475   -16503   -16530 
  -16563   -16606   -16649   -16691   -16737   -16780   -16818   -16856 
  -16897   -16941   -16980   -17027   -17072   -17104   -17134   -17154 
  -17154   -17131   -17096   -17057   -17014   -16962   -16911   -16858 
  -16800   -16738   -16671   -16602   -16540   -16474   -16413   -16366 
  -16314   -16254   -16197   -16143   -16079   -16017   -15966   -15920 
  -15874   -15840   -15824   -15819   -15820   -15839   -15869   -15907 
  -15965   -16036   -16114   -16201   -16291   -16383   -16482   -16579 
  -16667   -16744   -16812   -16870   -16906   -16919   -16927   -16924 
  -16904   -16875   -16843   -16804   -16757   -16711   -16663   -16607 
  -16553   -16509   -16464   -16416   -16368   -16330   -16298   -16279 
  -16282   -16309   -16351   -16403   -16465   -16530   -16588   -16641 
  -16691   -16749   -16807   -16866   -16938   -17018   -17092   -17167 
  -17250   -17315   -17367   -17419   -17458   -17483   -17502   -17517 
  -17521   -17508   -17489   -17466   -17433   -17396   -17365   -17332 
  -17296   -17267   -17243   -17221   -17205   -17185   -17163   -17145 
  -17118   -17089   -17073   -17062   -17061   -17070   -17089   -17124 
  -17167   -17215   -17270   -17324   -17371   -17419   -17466   -17504 
  -17531   -17551   -17558   -17550   -17533   -17505   -17460   -17409 
  -17352   -17290   -17227   -17162   -17103   -17047   -16991   -16938 
  -16891   -16843   -16799   -16753   -16703   -16648   -16587   -16526 
  -16471   -16428   -16393   -16367   -16356   -16359   -16374   -16407 
  -16464   -16536   -16619   -16713   -16800   -16877   -16946   -17007 
  -17059   -17109   -17159   -17211   -17262   -17311   -17352   -17382 
  -17402   -17413   -17413   -17405   -17390   -17362   -17325   -17289 
  -17247   -17194   -17140   -17085   -17018   -16934   -16843   -16752 
  -16661   -16575   -16506   -16459   -16421   -16386   -16368   -16364 
  -16360   -16362   -16380   -16405   -16424   -16443   -16465   -16483 
  -16492   -16507   -16528   -16542   -16548   -16556   -16572   -16584 
  -16599   -16618   -16632   -16632   -16617   -16587   -16544   -16492 
  -16440   -16398   -16371   -16352   -16347   -16355   -16367   -16389 
  -16428   -16478   -16534   -16599   -16663   -16717   -16768   -16819 
  -16866   -16919   -16981   -17043   -17107   -17180   -17250   -17311 
  -17365   -17412   -17446   -17466   -17478   -17481   -17464   -17429 
  -17382   -17327   -17258   -17170   -17078   -16988   -16887   -16776 
  -16668   -16563   -16456   -16356   -16282   -16222   -16173   -16146 
  -16137   -16133   -16133   -16144   -16167   -16189   -16213   -16243 
  -16276   -16318   -16366   -16411   -16470   -16536   -16602   -16676 
  -16750   -16810   -16857   -16899   -16927   -16941   -16943   -16933 
  -16906   -16866   -16821   -16769   -16710   -16640   -16572   -16514 
  -16456   -16409   -16386   -16380   -16382   -16395   -16425   -16455 
  -16479   -16503   -16521   -16522   -16511   -16501   -16483   -16456 
  -16429   -16417   -16414   -16417   -16434   -16468   -16509   -16556 
  -16613   -16663   -16700   -16735   -16771   -16800   -16815   -16825 
  -16835   -16835   -16825   -16816   -16810   -16799   -16791   -16800 
  -16819   -16839   -16873   -16926   -16985   -17045   -17113   -17192 
  -17266   -17328   -17383   -17428   -17454   -17464   -17463   -17437 
  -17398   -17358   -17311   -17247   -17178   -17113   -17046   -16974 
  -16912   -16856   -16807   -16773   -16750   -16735   -16735   -16749 
  -16775   -16806   -16835   -16866   -16893   -16920   -16951   -16988 
  -17032   -17091   -17154   -17221   -17296   -17358   -17416   -17475 
  -17521   -17547   -17563   -17568   -17550   -17517   -17481   -17432 
  -17367   -17300   -17232   -17161   -17085   -17015   -16954   -16899 
  -16864   -16845   -16835   -16843   -16869   -16900   -16939   -16991 
  -17042   -17091   -17145   -17200   -17247   -17292   -17334   -17366 
  -17390   -17409   -17423   -17428   -17429   -17427   -17415   -17392 
  -17363   -17325   -17270   -17193   -17103   -17012   -16920   -16831 
  -16750   -16676   -16614   -16557   -16497   -16436   -16375   -16308 
  -16247   -16195   -16141   -16085   -16036   -16000   -15962   -15930 
  -15912   -15900   -15889   -15896   -15919   -15948   -15990   -16050 
  -16117   -16183   -16252   -16324   -16395   -16464   -16530   -16587 
  -16638   -16686   -16719   -16744   -16771   -16789   -16808   -16831 
  -16850   -16864   -16873   -16881   -16888   -16876   -16848   -16821 
  -16792   -16752   -16713   -16681   -16649   -16622   -16611   -16609 
  -16617   -16648   -16690   -16741   -16807   -16877   -16954   -17039 
  -17128   -17219   -17308   -17388   -17458   -17521   -17571   -17609 
  -17637   -17664   -17695   -17726   -17751   -17774   -17798   -17813 
  -17824   -17837   -17837   -17829   -17825   -17826   -17826   -17821 
  -17807   -17784   -17753   -17712   -17663   -17610   -17559   -17502 
  -17451   -17413   -17385   -17363   -17354   -17359   -17373   -17388 
  -17405   -17428   -17451   -17470   -17494   -17527   -17556   -17574 
  -17585   -17590   -17579   -17555   -17525   -17486   -17439   -17392 
  -17348   -17305   -17263   -17231   -17204   -17176   -17150   -17131 
  -17111   -17078   -17045   -17010   -16961   -16904   -16848   -16787 
  -16723   -16663   -16613   -16572   -16538   -16511   -16494   -16483 
  -16478   -16479   -16480   -16476   -16472   -16467   -16456   -16445 
  -16437   -16430   -16429   -16440   -16457   -16475   -16499   -16529 
  -16552   -16571   -16587   -16594   -16583   -16568   -16557   -16545 
  -16529   -16505   -16482   -16460   -16432   -16402   -16378   -16347 
  -16313   -16282   -16248   -16212   -16185   -16156   -16124   -16092 
  -16063   -16033   -16004   -15970   -15942   -15920   -15900   -15878 
  -15865   -15862   -15873   -15894   -15930   -15981   -16038   -16093 
  -16156   -16220   -16271   -16314   -16359   -16391   -16405   -16416 
  -16417   -16395   -16360   -16324   -16283   -16243   -16206   -16175 
  -16159   -16152   -16148   -16154   -16167   -16177   -16198   -16228 
  -16255   -16282   -16302   -16313   -16328   -16332   -16325   -16321 
  -16317   -16309   -16301   -16287   -16270   -16256   -16248   -16247 
  -16252   -16266   -16289   -16320   -16352   -16389   -16428   -16464 
  -16505   -16555   -16609   -16661   -16713   -16765   -16821   -16880 
  -16939   -17004   -17072   -17130   -17180   -17223   -17254   -17274 
  -17294   -17313   -17324   -17339   -17361   -17382   -17409   -17442 
  -17481   -17527   -17578   -17629   -17686   -17747   -17801   -17844 
  -17872   -17888   -17892   -17883   -17865   -17851   -17834   -17824 
  -17821   -17815   -17806   -17802   -17797   -17786   -17774   -17763 
  -17751   -17734   -17716   -17698   -17680   -17663   -17652   -17648 
  -17644   -17641   -17641   -17637   -17632   -17633   -17640   -17652 
  -17682   -17720   -17763   -17817   -17876   -17928   -17968   -17998 
  -18021   -18031   -18027   -18015   -17991   -17953   -17918   -17883 
  -17834   -17779   -17728   -17671   -17609   -17547   -17481   -17412 
  -17335   -17250   -17165   -17086   -17008   -16938   -16880   -16827 
  -16775   -16725   -16676   -16627   -16572   -16511   -16452   -16395 
  -16347   -16313   -16295   -16282   -16283   -16309   -16341   -16378 
  -16434   -16499   -16555   -16605   -16656   -16700   -16731   -16756 
  -16775   -16775   -16761   -16742   -16721   -16691   -16661   -16644 
  -16633   -16623   -16618   -16617   -16622   -16626   -16623   -16619 
  -16611   -16584   -16549   -16518   -16478   -16425   -16379   -16341 
  -16299   -16263   -16237   -16216   -16197   -16178   -16162   -16155 
  -16154   -16158   -16163   -16171   -16182   -16195   -16206   -16217 
  -16228   -16232   -16236   -16245   -16252   -16252   -16258   -16270 
  -16272   -16262   -16245   -16235   -16224   -16206   -16186   -16170 
  -16156   -16146   -16137   -16131   -16132   -16140   -16154   -16174 
  -16202   -16235   -16283   -16344   -16416   -16499   -16599   -16710 
  -16825   -16937   -17050   -17161   -17259   -17342   -17413   -17481 
  -17536   -17579   -17617   -17644   -17659   -17660   -17663   -17664 
  -17658   -17653   -17656   -17658   -17655   -17647   -17636   -17625 
  -17613   -17605   -17604   -17610   -17620   -17639   -17668   -17693 
  -17712   -17736   -17753   -17757   -17766   -17768   -17759   -17748 
  -17737   -17717   -17690   -17660   -17626   -17586   -17544   -17500 
  -17450   -17404   -17363   -17320   -17277   -17236   -17194   -17162 
  -17145   -17123   -17099   -17088   -17086   -17078   -17064   -17059 
  -17054   -17032   -17005   -16980   -16943   -16895   -16848   -16796 
  -16742   -16694   -16652   -16611   -16573   -16538   -16505   -16476 
  -16459   -16447   -16434   -16424   -16416   -16407   -16398   -16383 
  -16367   -16349   -16332   -16314   -16289   -16267   -16259   -16251 
  -16233   -16218   -16212   -16206   -16204   -16210   -16227   -16249 
  -16283   -16325   -16375   -16428   -16482   -16541   -16596   -16642 
  -16691   -16740   -16784   -16834   -16885   -16931   -16978   -17024 
  -17066   -17115   -17162   -17204   -17246   -17284   -17311   -17324 
  -17331   -17327   -17308   -17278   -17235   -17182   -17126   -17070 
  -17014   -16954   -16896   -16848   -16812   -16792   -16780   -16775 
  -16777   -16787   -16810   -16843   -16881   -16927   -16966   -16997 
  -17028   -17045   -17043   -17037   -17023   -16999   -16968   -16942 
  -16916   -16883   -16854   -16838   -16829   -16826   -16825   -16825 
  -16830   -16835   -16837   -16839   -16846   -16846   -16839   -16841 
  -16841   -16831   -16819   -16808   -16798   -16784   -16776   -16779 
  -16785   -16794   -16806   -16818   -16826   -16826   -16816   -16803 
  -16779   -16745   -16711   -16672   -16625   -16571   -16522   -16476 
  -16424   -16380   -16356   -16339   -16326   -16325   -16336   -16355 
  -16380   -16409   -16436   -16461   -16479   -16494   -16510   -16513 
  -16502   -16497   -16486   -16461   -16441   -16426   -16405   -16384 
  -16367   -16352   -16339   -16322   -16314   -16318   -16322   -16326 
  -16339   -16349   -16352   -16359   -16371   -16378   -16384   -16394 
  -16407   -16418   -16425   -16440   -16461   -16479   -16497   -16524 
  -16559   -16592   -16629   -16676   -16727   -16772   -16819   -16872 
  -16919   -16966   -17018   -17064   -17107   -17150   -17194   -17239 
  -17273   -17296   -17312   -17317   -17317   -17312   -17305   -17305 
  -17307   -17308   -17315   -17324   -17321   -17316   -17313   -17300 
  -17275   -17255   -17239   -17213   -17181   -17151   -17115   -17062 
  -16996   -16919   -16835   -16740   -16640   -16549   -16464   -16384 
  -16320   -16271   -16231   -16198   -16178   -16173   -16173   -16177 
  -16193   -16221   -16252   -16286   -16325   -16371   -16416   -16464 
  -16517   -16565   -16614   -16659   -16700   -16741   -16780   -16811 
  -16831   -16846   -16854   -16853   -16848   -16841   -16833   -16821 
  -16808   -16798   -16789   -16784   -16779   -16780   -16785   -16791 
  -16802   -16816   -16833   -16856   -16879   -16908   -16946   -16987 
  -17027   -17070   -17118   -17159   -17194   -17235   -17274   -17305 
  -17339   -17369   -17389   -17404   -17417   -17429   -17435   -17425 
  -17408   -17388   -17356   -17311   -17253   -17189   -17120   -17049 
  -16978   -16914   -16850   -16789   -16734   -16687   -16645   -16603 
  -16565   -16534   -16502   -16465   -16433   -16406   -16379   -16357 
  -16347   -16336   -16329   -16336   -16349   -16357   -16372   -16398 
  -16418   -16432   -16449   -16470   -16487   -16506   -16519   -16530 
  -16542   -16560   -16578   -16600   -16626   -16660   -16704   -16753 
  -16799   -16850   -16914   -16977   -17037   -17093   -17145   -17190 
  -17224   -17251   -17273   -17285   -17293   -17296   -17286   -17270 
  -17255   -17232   -17203   -17173   -17143   -17118   -17097   -17086 
  -17084   -17091   -17103   -17113   -17124   -17135   -17139   -17138 
  -17134   -17126   -17112   -17101   -17091   -17076   -17058   -17045 
  -17035   -17022   -17015   -17018   -17019   -17022   -17031   -17045 
  -17057   -17068   -17084   -17101   -17111   -17118   -17128   -17138 
  -17138   -17130   -17130   -17128   -17119   -17105   -17099   -17091 
  -17080   -17069   -17062   -17057   -17054   -17057   -17062   -17062 
  -17062   -17066   -17062   -17050   -17034   -17012   -16981   -16943 
  -16907   -16873   -16842   -16815   -16798   -16788   -16784   -16788 
  -16810   -16834   -16857   -16887   -16918   -16945   -16966   -16981 
  -16985   -16980   -16969   -16949   -16919   -16885   -16849   -16808 
  -16768   -16727   -16686   -16646   -16609   -16567   -16526   -16497 
  -16472   -16449   -16437   -16437   -16443   -16452   -16464   -16479 
