Origin Time       2025/01/13 21:19:00
Lat.              31.8
Long.             131.6
Depth. (km)       30
Mag.              6.9
Station Code      SAG001
Station Lat.      33.5274
Station Long.     129.8772
Station Height(m) 40
Record Time       2025/01/13 21:20:50
Sampling Freq(Hz) 100Hz
Duration Time(s)  60
Dir.              N-S
Scale Factor      7845(gal)/8223790
Max. Acc. (gal)   1.124
Last Correction   2025/01/13 21:20:51
Memo.             
[...]
  -10118   -10161   -10203   -10250   -10295   -10334   -10369   -10390 
  -10411   -10431   -10435   -10434   -10427   -10405   -10389   -10372 
  -10339   -10311   -10278   -10238   -10200   -10162   -10120   -10075 
  -10022    -9973    -9923    -9867    -9819    -9776    -9737    -9711 
   -9691    -9679    -9678    -9672    -9671    -9683    -9688    -9697 
   -9715    -9734    -9752    -9772    -9787    -9805    -9834    -9861 
   -9883    -9910    -9937    -9958    -9984   -10010   -10025   -10042 
  -10053   -10053   -10053   -10050   -10038   -10023   -10007    -9991 
   -9969    -9948    -9933    -9910    -9888    -9880    -9863    -9845 
   -9829    -9809    -9798    -9788    -9776    -9775    -9767    -9756 
   -9757    -9756    -9756    -9769    -9780    -9790    -9809    -9823 
   -9841    -9871    -9891    -9907    -9927    -9945    -9964    -9984 
  -10000   -10018   -10031   -10041   -10053   -10069   -10085   -10096 
  -10102   -10108   -10116   -10123   -10130   -10141   -10156   -10177 
  -10210   -10242   -10262   -10288   -10309   -10316   -10324   -10318 
  -10291   -10264   -10231   -10188   -10149   -10111   -10064   -10018 
   -9972    -9921    -9875    -9834    -9784    -9733    -9682    -9624 
   -9570    -9522    -9471    -9428    -9401    -9377    -9363    -9373 
   -9397    -9431    -9479    -9539    -9603    -9674    -9747    -9813 
   -9872    -9930    -9977   -10015   -10049   -10079   -10100   -10119 
  -10134   -10145   -10147   -10141   -10137   -10134   -10116   -10096 
  -10083   -10064   -10039   -10023   -10014   -10003    -9994    -9988 
   -9981    -9976    -9979    -9973    -9960    -9960    -9956    -9942 
   -9934    -9919    -9898    -9884    -9876    -9868    -9861    -9853 
   -9853    -9857    -9852    -9848    -9848    -9837    -9825    -9819 
   -9805    -9786    -9771    -9752    -9728    -9710    -9697    -9688 
   -9686    -9694    -9721    -9760    -9807    -9871    -9937    -9999 
  -10072   -10146   -10215   -10280   -10338   -10386   -10428   -10463 
  -10500   -10534   -10562   -10592   -10616   -10636   -10656   -10666 
  -10667   -10673   -10681   -10685   -10687   -10692   -10694   -10689 
  -10674   -10660   -10638   -10597   -10558   -10516   -10457   -10401 
  -10349   -10280   -10215   -10168   -10120   -10075   -10042   -10006 
   -9976    -9960    -9938    -9914    -9895    -9871    -9845    -9826 
   -9802    -9775    -9752    -9728    -9709    -9697    -9687    -9683 
   -9684    -9695    -9713    -9730    -9752    -9775    -9795    -9815 
   -9832    -9840    -9852    -9864    -9867    -9872    -9877    -9876 
   -9882    -9888    -9894    -9917    -9937    -9945    -9968    -9992 
  -10003   -10011   -10018   -10019   -10015   -10006    -9998    -9991 
   -9987    -9991    -9996   -10000   -10011   -10022   -10030   -10034 
  -10035   -10033   -10022   -10007    -9992    -9975    -9949    -9922 
   -9894    -9856    -9815    -9771    -9717    -9675    -9639    -9589 
   -9543    -9509    -9463    -9424    -9402    -9374    -9348    -9332 
   -9317    -9312    -9312    -9315    -9319    -9320    -9332    -9354 
   -9364    -9379    -9397    -9405    -9421    -9436    -9444    -9463 
   -9481    -9495    -9521    -9544    -9563    -9593    -9621    -9647 
   -9678    -9705    -9721    -9734    -9740    -9738    -9730    -9718 
   -9699    -9678    -9666    -9657    -9651    -9653    -9660    -9667 
   -9679    -9697    -9715    -9732    -9745    -9765    -9798    -9829 
   -9856    -9883    -9913    -9941    -9958    -9973    -9994   -10012 
  -10033   -10045   -10046   -10048   -10044   -10031   -10025   -10025 
  -10019   -10018   -10023   -10021   -10015   -10012   -10000    -9984 
   -9965    -9944    -9922    -9896    -9868    -9849    -9829    -9807 
   -9796    -9794    -9791    -9796    -9809    -9818    -9830    -9846 
   -9860    -9873    -9888    -9896    -9910    -9925    -9938    -9954 
   -9963    -9969    -9985    -9996   -10002   -10012   -10012   -10010 
  -10012   -10002    -9990    -9983    -9967    -9956    -9953    -9940 
   -9933    -9937    -9931    -9937    -9950    -9954    -9963    -9973 
   -9979    -9988    -9992    -9988    -9985    -9984    -9976    -9956 
   -9931    -9906    -9865    -9821    -9786    -9744    -9695    -9659 
   -9626    -9597    -9579    -9563    -9551    -9558    -9575    -9586 
   -9605    -9624    -9626    -9632    -9633    -9621    -9616    -9602 
   -9576    -9562    -9539    -9512    -9502    -9497    -9491    -9498 
   -9506    -9510    -9521    -9532    -9543    -9559    -9575    -9603 
   -9641    -9678    -9718    -9764    -9806    -9844    -9880    -9907 
   -9927    -9948    -9968    -9991   -10012   -10035   -10060   -10080 
  -10107   -10143   -10174   -10199   -10230   -10260   -10278   -10292 
  -10304   -10308   -10303   -10300   -10299   -10292   -10289   -10288 
  -10291   -10304   -10320   -10332   -10351   -10373   -10390   -10411 
  -10426   -10426   -10428   -10436   -10431   -10420   -10416   -10403 
  -10385   -10372   -10353   -10326   -10300   -10273   -10245   -10219 
  -10196   -10172   -10149   -10134   -10125   -10115   -10116   -10133 
  -10146   -10165   -10196   -10226   -10258   -10292   -10314   -10342 
  -10376   -10389   -10400   -10417   -10417   -10416   -10413   -10390 
  -10370   -10353   -10311   -10270   -10237   -10187   -10137   -10100 
  -10060   -10025   -10002    -9983    -9965    -9950    -9938    -9933 
   -9927    -9921    -9918    -9919    -9923    -9934    -9945    -9961 
   -9981    -9992   -10000   -10004   -10003    -9999    -9984    -9961 
   -9945    -9927    -9911    -9904    -9896    -9887    -9888    -9898 
   -9909    -9917    -9927    -9937    -9938    -9937    -9940    -9931 
   -9922    -9917    -9902    -9886    -9875    -9857    -9844    -9844 
   -9838    -9829    -9834    -9840    -9836    -9832    -9823    -9815 
   -9806    -9795    -9784    -9776    -9774    -9774    -9775    -9778 
   -9784    -9791    -9798    -9807    -9813    -9810    -9806    -9802 
   -9795    -9787    -9774    -9763    -9757    -9740    -9721    -9713 
   -9695    -9672    -9655    -9639    -9628    -9614    -9603    -9605 
   -9602    -9609    -9628    -9641    -9659    -9684    -9713    -9752 
   -9794    -9838    -9891    -9936    -9977   -10014   -10035   -10053 
  -10060   -10052   -10039   -10017    -9983    -9954    -9923    -9886 
   -9859    -9838    -9818    -9811    -9814    -9817    -9832    -9850 
   -9864    -9886    -9915    -9940    -9969   -10006   -10038   -10075 
  -10114   -10139   -10166   -10197   -10219   -10237   -10254   -10266 
  -10274   -10277   -10280   -10281   -10278   -10285   -10291   -10293 
  -10304   -10315   -10316   -10320   -10322   -10322   -10323   -10316 
  -10311   -10305   -10289   -10276   -10257   -10227   -10200   -10173 
  -10142   -10116   -10088   -10058   -10033   -10003    -9975    -9953 
   -9929    -9909    -9894    -9877    -9860    -9837    -9813    -9790 
   -9764    -9734    -9709    -9678    -9648    -9634    -9622    -9605 
   -9597    -9590    -9591    -9605    -9609    -9614    -9630    -9639 
   -9640    -9641    -9630    -9618    -9606    -9583    -9562    -9537 
   -9499    -9464    -9436    -9402    -9378    -9362    -9344    -9333 
   -9329    -9332    -9343    -9351    -9362    -9375    -9385    -9396 
   -9405    -9409    -9417    -9433    -9445    -9455    -9464    -9471 
   -9472    -9474    -9477    -9475    -9474    -9478    -9479    -9482 
   -9493    -9495    -9495    -9509    -9529    -9545    -9566    -9589 
   -9616    -9645    -9672    -9699    -9725    -9751    -9780    -9803 
   -9819    -9840    -9855    -9865    -9877    -9884    -9892    -9899 
   -9898    -9902    -9902    -9888    -9879    -9871    -9852    -9841 
   -9838    -9829    -9829    -9840    -9842    -9846    -9863    -9873 
   -9884    -9906    -9925    -9940    -9969    -9999   -10019   -10046 
  -10075   -10098   -10125   -10157   -10188   -10219   -10250   -10284 
  -10323   -10366   -10404   -10440   -10484   -10528   -10569   -10613 
  -10659   -10694   -10724   -10756   -10781   -10800   -10813   -10822 
  -10832   -10837   -10837   -10839   -10839   -10837   -10839   -10840 
  -10840   -10837   -10831   -10827   -10818   -10808   -10793   -10768 
  -10740   -10708   -10665   -10617   -10563   -10501   -10435   -10366 
  -10303   -10235   -10158   -10088   -10025    -9950    -9880    -9815 
   -9747    -9678    -9616    -9563    -9516    -9471    -9439    -9413 
   -9393    -9386    -9387    -9398    -9427    -9463    -9512    -9564 
   -9618    -9686    -9753    -9809    -9876    -9941    -9994   -10054 
  -10107   -10147   -10185   -10215   -10243   -10273   -10292   -10307 
  -10319   -10334   -10346   -10347   -10355   -10359   -10343   -10336 
  -10332   -10311   -10299   -10293   -10277   -10269   -10262   -10239 
  -10214   -10188   -10150   -10107   -10062   -10011    -9968    -9923 
   -9873    -9836    -9795    -9749    -9721    -9693    -9660    -9640 
   -9617    -9591    -9575    -9555    -9537    -9522    -9504    -9491 
   -9481    -9456    -9436    -9412    -9373    -9335    -9292    -9236 
   -9182    -9128    -9076    -9036    -9001    -8980    -8986    -9005 
   -9038    -9089    -9148    -9215    -9289    -9367    -9451    -9536 
   -9624    -9707    -9792    -9882    -9969   -10053   -10135   -10214 
  -10291   -10361   -10417   -10476   -10530   -10563   -10592   -10617 
  -10625   -10627   -10631   -10623   -10613   -10609   -10600   -10592 
  -10590   -10578   -10563   -10551   -10527   -10496   -10467   -10439 
  -10407   -10382   -10370   -10358   -10347   -10349   -10343   -10336 
  -10338   -10328   -10311   -10301   -10274   -10238   -10208   -10174 
  -10131   -10100   -10069   -10034   -10012   -10000    -9976    -9963 
   -9958    -9933    -9909    -9896    -9869    -9840    -9822    -9794 
   -9767    -9753    -9740    -9726    -9726    -9732    -9737    -9744 
   -9753    -9771    -9788    -9796    -9807    -9825    -9836    -9841 
   -9844    -9845    -9838    -9823    -9813    -9792    -9763    -9741 
   -9717    -9691    -9676    -9655    -9630    -9626    -9620    -9610 
   -9614    -9617    -9618    -9625    -9621    -9614    -9612    -9591 
   -9572    -9566    -9541    -9512    -9501    -9482    -9454    -9443 
   -9432    -9416    -9406    -9400    -9398    -9406    -9418    -9437 
   -9468    -9504    -9544    -9594    -9645    -9699    -9755    -9794 
   -9828    -9861    -9883    -9890    -9888    -9888    -9883    -9857 
   -9834    -9822    -9799    -9782    -9782    -9775    -9778    -9801 
   -9809    -9817    -9845    -9860    -9872    -9894    -9906    -9915 
   -9926    -9937    -9953    -9967    -9979   -10003   -10026   -10041 
  -10061   -10076   -10077   -10083   -10096   -10106   -10112   -10118 
  -10120   -10123   -10115   -10107   -10100   -10081   -10061   -10042 
  -10010    -9976    -9950    -9913    -9877    -9855    -9826    -9795 
   -9779    -9763    -9738    -9715    -9699    -9678    -9655    -9637 
   -9625    -9603    -9579    -9567    -9555    -9544    -9544    -9541 
   -9541    -9553    -9564    -9578    -9602    -9624    -9647    -9684 
   -9732    -9782    -9837    -9903    -9975   -10052   -10125   -10192 
  -10261   -10324   -10376   -10432   -10488   -10535   -10588   -10643 
  -10692   -10740   -10791   -10840   -10885   -10929   -10971   -11003 
  -11028   -11047   -11057   -11057   -11048   -11036   -11028   -11010 
  -10984   -10964   -10940   -10901   -10863   -10820   -10758   -10694 
  -10632   -10558   -10486   -10417   -10342   -10268   -10200   -10134 
  -10069   -10017    -9967    -9913    -9872    -9837    -9792    -9760 
   -9737    -9703    -9675    -9655    -9624    -9597    -9576    -9551 
   -9532    -9529    -9525    -9520    -9526    -9539    -9540    -9547 
   -9558    -9559    -9563    -9571    -9571    -9568    -9567    -9559 
   -9556    -9558    -9551    -9558    -9578    -9591    -9609    -9640 
   -9660    -9676    -9705    -9721    -9724    -9736    -9737    -9721 
   -9706    -9688    -9659    -9626    -9591    -9553    -9514    -9479 
   -9450    -9421    -9398    -9383    -9371    -9364    -9366    -9363 
   -9363    -9367    -9364    -9367    -9375    -9381    -9390    -9406 
   -9421    -9437    -9466    -9502    -9535    -9568    -9612    -9655 
   -9698    -9747    -9791    -9832    -9871    -9906    -9936    -9965 
   -9994   -10021   -10052   -10085   -10115   -10143   -10164   -10180 
  -10201   -10220   -10237   -10255   -10273   -10296   -10318   -10335 
  -10357   -10377   -10395   -10416   -10438   -10458   -10484   -10509 
  -10535   -10563   -10589   -10613   -10629   -10642   -10659   -10674 
  -10679   -10681   -10683   -10683   -10682   -10683   -10682   -10681 
  -10678   -10674   -10667   -10656   -10646   -10633   -10623   -10608 
  -10589   -10567   -10543   -10520   -10490   -10449   -10408   -10368 
  -10318   -10270   -10222   -10166   -10114   -10064   -10010    -9965 
   -9930    -9896    -9876    -9871    -9873    -9880    -9895    -9919 
   -9949    -9981   -10012   -10045   -10073   -10100   -10127   -10152 
  -10174   -10193   -10204   -10216   -10233   -10241   -10245   -10245 
  -10241   -10238   -10224   -10204   -10191   -10172   -10143   -10123 
  -10099   -10066   -10038   -10003    -9961    -9926    -9884    -9834 
   -9788    -9744    -9691    -9633    -9579    -9518    -9447    -9379 
   -9316    -9240    -9169    -9107    -9045    -8984    -8931    -8878 
   -8834    -8807    -8781    -8758    -8754    -8758    -8766    -8788 
   -8815    -8850    -8896    -8941    -8993    -9065    -9134    -9194 
   -9271    -9358    -9435    -9514    -9601    -9680    -9757    -9844 
   -9925    -9996   -10064   -10130   -10189   -10233   -10262   -10282 
  -10292   -10293   -10287   -10272   -10251   -10233   -10216   -10199 
  -10179   -10164   -10152   -10137   -10122   -10114   -10102   -10084 
  -10073   -10058   -10042   -10034   -10026   -10017   -10015   -10014 
  -10008   -10010   -10010   -10003   -10004   -10007   -10003   -10002 
  -10008   -10017   -10025   -10038   -10046   -10048   -10057   -10061 
  -10054   -10053   -10048   -10031   -10023   -10019   -10006    -9992 
   -9981    -9969    -9958    -9942    -9922    -9902    -9883    -9869 
   -9856    -9846    -9842    -9841    -9845    -9857    -9872    -9883 
   -9902    -9929    -9950    -9968    -9995   -10022   -10042   -10065 
  -10087   -10108   -10133   -10153   -10174   -10199   -10214   -10233 
  -10255   -10269   -10281   -10299   -10311   -10316   -10320   -10323 
  -10320   -10309   -10293   -10265   -10230   -10199   -10160   -10107 
  -10058   -10010    -9953    -9902    -9853    -9796    -9745    -9691 
   -9639    -9595    -9547    -9499    -9468    -9437    -9405    -9383 
   -9362    -9337    -9327    -9316    -9300    -9286    -9275    -9263 
   -9252    -9243    -9235    -9232    -9231    -9231    -9239    -9250 
   -9265    -9285    -9309    -9331    -9355    -9386    -9412    -9441 
   -9481    -9518    -9553    -9598    -9648    -9694    -9748    -9805 
   -9849    -9906    -9965   -10011   -10061   -10107   -10137   -10173 
  -10211   -10230   -10247   -10264   -10261   -10257   -10251   -10226 
  -10192   -10162   -10119   -10064   -10014    -9958    -9894    -9840 
   -9790    -9736    -9695    -9661    -9625    -9602    -9585    -9566 
   -9555    -9551    -9548    -9549    -9556    -9568    -9582    -9599 
   -9629    -9661    -9695    -9738    -9782    -9829    -9879    -9914 
   -9949    -9990   -10014   -10035   -10053   -10054   -10056   -10060 
  -10052   -10044   -10044   -10044   -10042   -10046   -10061   -10069 
  -10079   -10108   -10138   -10165   -10210   -10250   -10287   -10336 
  -10385   -10426   -10469   -10509   -10540   -10578   -10611   -10627 
  -10644   -10659   -10660   -10656   -10652   -10639   -10623   -10606 
  -10585   -10566   -10548   -10520   -10488   -10459   -10422   -10377 
  -10339   -10295   -10239   -10192   -10147   -10092   -10037    -9987 
   -9938    -9891    -9849    -9813    -9782    -9756    -9738    -9730 
   -9724    -9725    -9736    -9749    -9771    -9795    -9818    -9849 
   -9886    -9926    -9971   -10012   -10054   -10103   -10147   -10188 
  -10238   -10280   -10318   -10359   -10389   -10413   -10442   -10455 
  -10459   -10462   -10454   -10438   -10415   -10381   -10339   -10296 
  -10249   -10197   -10142   -10091   -10038    -9975    -9914    -9857 
   -9795    -9736    -9675    -9614    -9562    -9512    -9467    -9432 
   -9400    -9370    -9350    -9332    -9313    -9306    -9304    -9293 
   -9289    -9292    -9292    -9294    -9302    -9310    -9323    -9335 
   -9347    -9364    -9382    -9398    -9416    -9429    -9445    -9462 
   -9475    -9494    -9512    -9524    -9541    -9562    -9583    -9605 
   -9621    -9636    -9651    -9660    -9672    -9680    -9678    -9679 
   -9684    -9683    -9683    -9683    -9683    -9688    -9697    -9709 
   -9721    -9729    -9741    -9759    -9778    -9799    -9817    -9832 
   -9856    -9883    -9903    -9922    -9946    -9967    -9985   -10012 
  -10034   -10048   -10065   -10085   -10095   -10102   -10104   -10100 
  -10093   -10084   -10068   -10050   -10027    -9998    -9971    -9944 
   -9910    -9880    -9855    -9829    -9807    -9794    -9786    -9778 
   -9774    -9774    -9778    -9782    -9787    -9792    -9805    -9818 
   -9832    -9855    -9873    -9886    -9913    -9941    -9963    -9996 
  -10027   -10052   -10092   -10134   -10168   -10214   -10255   -10297 
  -10350   -10389   -10434   -10488   -10527   -10567   -10613   -10644 
  -10678   -10713   -10732   -10754   -10775   -10791   -10808   -10820 
  -10829   -10839   -10839   -10837   -10839   -10828   -10814   -10804 
  -10785   -10768   -10756   -10739   -10725   -10716   -10700   -10689 
  -10683   -10674   -10667   -10662   -10655   -10652   -10647   -10635 
  -10631   -10627   -10620   -10615   -10602   -10588   -10577   -10557 
  -10528   -10500   -10454   -10407   -10361   -10295   -10228   -10166 
  -10087   -10011    -9934    -9845    -9764    -9680    -9587    -9512 
   -9441    -9363    -9298    -9242    -9184    -9138    -9092    -9045 
   -9008    -8976    -8945    -8918    -8891    -8868    -8847    -8827 
   -8815    -8810    -8810    -8819    -8838    -8865    -8904    -8951 
   -9000    -9053    -9112    -9171    -9229    -9283    -9342    -9394 
   -9440    -9489    -9537    -9572    -9612    -9651    -9676    -9705 
   -9733    -9742    -9749    -9760    -9757    -9753    -9751    -9747 
   -9747    -9748    -9745    -9753    -9768    -9775    -9780    -9792 
   -9803    -9814    -9829    -9846    -9859    -9873    -9898    -9918 
   -9944    -9975    -9996   -10022   -10052   -10073   -10091   -10108 
  -10120   -10127   -10129   -10119   -10112   -10100   -10072   -10052 
  -10037   -10008    -9981    -9964    -9942    -9923    -9915    -9909 
   -9898    -9896    -9904    -9913    -9925    -9937    -9942    -9956 
   -9973    -9981    -9992   -10000   -10008   -10027   -10038   -10041 
  -10056   -10062   -10065   -10076   -10079   -10071   -10066   -10062 
  -10056   -10045   -10035   -10030   -10027   -10029   -10033   -10031 
  -10037   -10048   -10052   -10060   -10073   -10076   -10075   -10077 
  -10071   -10064   -10061   -10046   -10023   -10017   -10007    -9981 
