Origin Time       2025/01/13 21:19:00
Lat.              31.8
Long.             131.6
Depth. (km)       30
Mag.              6.9
Station Code      SAG006
Station Lat.      33.1917
Station Long.     130.0317
Station Height(m) 9
Record Time       2025/01/13 21:20:46
Sampling Freq(Hz) 100Hz
Duration Time(s)  60
Dir.              U-D
Scale Factor      7845(gal)/8223790
Max. Acc. (gal)   1.009
Last Correction   2025/01/13 21:20:47
Memo.             
   -1583    -1601    -1613    -1620    -1625    -1630    -1641    -1659 
   -1682    -1713    -1748    -1782    -1814    -1844    -1858    -1867 
   -1869    -1863    -1846    -1831    -1826    -1822    -1819    -1821 
   -1822    -1826    -1833    -1834    -1834    -1836    -1844    -1858 
   -1879    -1902    -1925    -1944    -1949    -1939    -1923    -1904 
   -1881    -1861    -1845    -1822    -1799    -1792    -1796    -1802 
   -1817    -1838    -1861    -1885    -1910    -1929    -1942    -1950 
   -1954    -1949    -1930    -1907    -1883    -1857    -1823    -1783 
   -1736    -1686    -1637    -1597    -1568    -1547    -1536    -1533 
   -1528    -1520    -1524    -1524    -1518    -1513    -1506    -1502 
   -1512    -1530    -1555    -1582    -1609    -1637    -1664    -1687 
   -1706    -1723    -1730    -1732    -1733    -1736    -1733    -1728 
   -1723    -1721    -1718    -1718    -1723    -1734    -1748    -1768 
   -1792    -1810    -1829    -1849    -1861    -1863    -1854    -1841 
   -1825    -1803    -1780    -1761    -1749    -1748    -1759    -1779 
   -1813    -1860    -1912    -1977    -2056    -2135    -2205    -2272 
   -2331    -2382    -2421    -2444    -2455    -2461    -2455    -2436 
   -2409    -2373    -2328    -2284    -2235    -2181    -2127    -2079 
   -2033    -1988    -1950    -1917    -1876    -1834    -1791    -1742 
   -1694    -1653    -1618    -1583    -1555    -1540    -1532    -1532 
   -1539    -1539    -1530    -1533    -1540    -1533    -1518    -1509 
   -1503    -1503    -1512    -1524    -1539    -1553    -1574    -1597 
   -1620    -1648    -1676    -1701    -1728    -1755    -1768    -1779 
   -1791    -1798    -1802    -1806    -1813    -1814    -1810    -1802 
   -1791    -1782    -1776    -1769    -1760    -1748    -1742    -1742 
   -1742    -1745    -1761    -1783    -1800    -1819    -1840    -1860 
   -1883    -1904    -1911    -1917    -1918    -1903    -1875    -1834 
   -1777    -1715    -1648    -1570    -1490    -1412    -1333    -1260 
   -1198    -1151    -1116    -1089    -1071    -1070    -1078    -1094 
   -1115    -1134    -1151    -1169    -1185    -1201    -1217    -1240 
   -1264    -1287    -1310    -1325    -1335    -1350    -1358    -1356 
   -1360    -1368    -1370    -1372    -1378    -1375    -1374    -1379 
   -1387    -1399    -1417    -1437    -1460    -1487    -1517    -1548 
   -1576    -1603    -1634    -1665    -1705    -1750    -1800    -1863 
   -1935    -2008    -2077    -2138    -2191    -2239    -2278    -2300 
   -2309    -2312    -2309    -2300    -2284    -2266    -2243    -2211 
   -2172    -2122    -2065    -2007    -1953    -1896    -1836    -1787 
   -1748    -1709    -1682    -1664    -1647    -1632    -1625    -1624 
   -1632    -1647    -1668    -1691    -1711    -1726    -1744    -1760 
   -1771    -1772    -1772    -1773    -1776    -1773    -1764    -1753 
   -1741    -1728    -1715    -1705    -1686    -1663    -1641    -1615 
   -1584    -1548    -1516    -1489    -1458    -1420    -1386    -1359 
   -1333    -1314    -1304    -1301    -1301    -1306    -1325    -1352 
   -1374    -1394    -1425    -1462    -1495    -1528    -1568    -1618 
   -1665    -1710    -1759    -1810    -1860    -1907    -1953    -2007 
   -2066    -2119    -2168    -2219    -2270    -2312    -2344    -2381 
   -2424    -2463    -2498    -2535    -2563    -2590    -2620    -2647 
   -2668    -2690    -2717    -2740    -2759    -2776    -2791    -2806 
   -2820    -2826    -2825    -2816    -2801    -2787    -2774    -2749 
   -2712    -2670    -2627    -2577    -2521    -2469    -2412    -2336 
   -2257    -2184    -2103    -2014    -1926    -1837    -1753    -1672 
   -1588    -1510    -1447    -1397    -1360    -1335    -1317    -1310 
   -1314    -1328    -1358    -1404    -1449    -1490    -1532    -1579 
   -1624    -1661    -1698    -1741    -1776    -1802    -1826    -1850 
   -1867    -1867    -1854    -1838    -1807    -1769    -1742    -1719 
   -1691    -1669    -1661    -1659    -1660    -1665    -1679    -1698 
   -1714    -1733    -1763    -1794    -1821    -1853    -1894    -1935 
   -1971    -2002    -2030    -2041    -2031    -2023    -2014    -1983 
   -1944    -1910    -1869    -1826    -1790    -1764    -1742    -1730 
   -1736    -1749    -1769    -1796    -1822    -1849    -1884    -1925 
   -1958    -1981    -1992    -1988    -1971    -1937    -1881    -1815 
   -1752    -1688    -1624    -1566    -1524    -1498    -1485    -1479 
   -1489    -1507    -1536    -1564    -1590    -1621    -1648    -1667 
   -1687    -1706    -1719    -1737    -1760    -1767    -1755    -1744 
   -1737    -1721    -1686    -1645    -1603    -1553    -1498    -1445 
   -1399    -1354    -1308    -1259    -1221    -1206    -1206    -1217 
   -1236    -1262    -1287    -1316    -1358    -1402    -1435    -1456 
   -1472    -1482    -1490    -1499    -1501    -1493    -1475    -1453 
   -1428    -1398    -1372    -1345    -1310    -1271    -1236    -1202 
   -1173    -1151    -1134    -1113    -1101    -1098    -1102    -1116 
   -1140    -1175    -1221    -1279    -1339    -1398    -1462    -1521 
   -1571    -1610    -1636    -1653    -1665    -1668    -1661    -1653 
   -1648    -1638    -1626    -1613    -1606    -1609    -1618    -1625 
   -1640    -1672    -1713    -1750    -1787    -1821    -1849    -1868 
   -1877    -1879    -1872    -1858    -1840    -1821    -1795    -1764 
   -1736    -1710    -1684    -1660    -1637    -1618    -1605    -1598 
   -1595    -1602    -1614    -1632    -1659    -1695    -1734    -1780 
   -1826    -1869    -1917    -1961    -2000    -2042    -2085    -2112 
   -2126    -2141    -2154    -2162    -2168    -2166    -2160    -2160 
   -2160    -2154    -2150    -2146    -2134    -2124    -2120    -2115 
   -2111    -2104    -2093    -2084    -2073    -2056    -2038    -2018 
   -1989    -1960    -1941    -1930    -1927    -1939    -1960    -1973 
   -1980    -1980    -1975    -1969    -1964    -1953    -1937    -1921 
   -1900    -1883    -1869    -1853    -1830    -1807    -1782    -1756 
   -1729    -1707    -1684    -1656    -1632    -1615    -1605    -1595 
   -1594    -1594    -1593    -1591    -1590    -1591    -1601    -1615 
   -1628    -1649    -1686    -1723    -1756    -1788    -1822    -1850 
   -1873    -1898    -1923    -1945    -1964    -1980    -1992    -2006 
   -2016    -2029    -2041    -2058    -2083    -2111    -2143    -2185 
   -2234    -2288    -2344    -2397    -2443    -2481    -2505    -2517 
   -2520    -2513    -2502    -2489    -2474    -2462    -2446    -2427 
   -2405    -2381    -2353    -2322    -2289    -2259    -2226    -2192 
   -2168    -2146    -2119    -2099    -2081    -2058    -2041    -2029 
   -2020    -2016    -2015    -2019    -2033    -2045    -2053    -2068 
   -2083    -2092    -2104    -2112    -2112    -2112    -2112    -2101 
   -2087    -2070    -2049    -2026    -2007    -1991    -1977    -1966 
   -1960    -1956    -1957    -1960    -1964    -1968    -1968    -1962 
   -1954    -1938    -1917    -1895    -1872    -1848    -1815    -1780 
   -1750    -1723    -1698    -1674    -1642    -1609    -1575    -1536 
   -1491    -1451    -1414    -1385    -1370    -1362    -1354    -1354 
   -1364    -1379    -1397    -1414    -1428    -1444    -1458    -1468 
   -1479    -1489    -1502    -1513    -1522    -1532    -1540    -1548 
   -1553    -1549    -1536    -1525    -1516    -1499    -1478    -1463 
   -1452    -1436    -1417    -1394    -1368    -1345    -1321    -1294 
   -1266    -1240    -1223    -1210    -1200    -1200    -1206    -1206 
   -1202    -1194    -1183    -1169    -1147    -1117    -1088    -1061 
   -1034    -1008     -984     -963     -951     -949     -958     -978 
   -1008    -1042    -1078    -1123    -1170    -1213    -1254    -1287 
   -1317    -1337    -1345    -1350    -1355    -1362    -1378    -1401 
   -1421    -1437    -1460    -1486    -1510    -1543    -1580    -1621 
   -1660    -1692    -1730    -1768    -1798    -1822    -1845    -1864 
   -1885    -1908    -1925    -1935    -1948    -1962    -1975    -1984 
   -1993    -2002    -2004    -2004    -1999    -1988    -1969    -1952 
   -1939    -1930    -1917    -1899    -1881    -1865    -1849    -1833 
   -1829    -1829    -1829    -1834    -1846    -1858    -1871    -1892 
   -1915    -1937    -1960    -1980    -1992    -1998    -2000    -2007 
   -2008    -2000    -1992    -1984    -1971    -1958    -1953    -1949 
   -1946    -1944    -1938    -1931    -1921    -1911    -1904    -1903 
   -1902    -1902    -1904    -1906    -1908    -1918    -1927    -1938 
   -1950    -1954    -1953    -1950    -1946    -1942    -1941    -1946 
   -1952    -1958    -1973    -1991    -2010    -2033    -2047    -2057 
   -2066    -2073    -2074    -2077    -2077    -2074    -2070    -2068 
   -2060    -2053    -2049    -2039    -2027    -2016    -2004    -1993 
   -1979    -1961    -1945    -1926    -1903    -1880    -1850    -1818 
   -1783    -1745    -1713    -1680    -1648    -1624    -1605    -1586 
   -1572    -1566    -1566    -1571    -1575    -1579    -1591    -1607 
   -1620    -1636    -1657    -1675    -1692    -1710    -1722    -1736 
   -1744    -1744    -1745    -1740    -1725    -1707    -1691    -1672 
   -1652    -1629    -1601    -1570    -1543    -1514    -1489    -1471 
   -1453    -1433    -1416    -1393    -1371    -1351    -1325    -1297 
   -1270    -1244    -1215    -1182    -1148    -1116    -1088    -1062 
   -1036    -1017    -1007    -1001    -1003    -1007    -1007    -1015 
   -1030    -1047    -1066    -1092    -1121    -1162    -1219    -1287 
   -1360    -1439    -1522    -1610    -1699    -1786    -1869    -1952 
   -2027    -2091    -2143    -2182    -2212    -2238    -2253    -2255 
   -2255    -2249    -2234    -2218    -2195    -2165    -2130    -2089 
   -2043    -1999    -1962    -1934    -1914    -1908    -1912    -1922 
   -1942    -1973    -2008    -2049    -2096    -2146    -2196    -2246 
   -2295    -2339    -2380    -2409    -2427    -2432    -2421    -2400 
   -2376    -2342    -2296    -2249    -2205    -2162    -2122    -2095 
   -2074    -2053    -2038    -2027    -2018    -2011    -2003    -1991 
   -1979    -1962    -1946    -1929    -1908    -1887    -1864    -1838 
   -1811    -1783    -1753    -1725    -1698    -1679    -1669    -1664 
   -1668    -1691    -1730    -1776    -1831    -1898    -1960    -2019 
   -2083    -2139    -2185    -2219    -2235    -2231    -2208    -2172 
   -2119    -2052    -1975    -1892    -1807    -1728    -1659    -1605 
   -1566    -1536    -1512    -1498    -1501    -1505    -1498    -1491 
   -1487    -1470    -1445    -1425    -1399    -1370    -1348    -1328 
   -1308    -1293    -1285    -1273    -1255    -1237    -1229    -1232 
   -1237    -1247    -1270    -1301    -1331    -1366    -1409    -1459 
   -1509    -1548    -1574    -1595    -1620    -1647    -1669    -1679 
   -1682    -1680    -1669    -1657    -1652    -1644    -1625    -1599 
   -1571    -1544    -1529    -1526    -1532    -1541    -1552    -1557 
   -1566    -1588    -1620    -1648    -1684    -1737    -1784    -1822 
   -1871    -1933    -1973    -1996    -2047    -2120    -2166    -2185 
   -2214    -2247    -2254    -2250    -2266    -2285    -2282    -2269 
   -2254    -2226    -2187    -2153    -2112    -2060    -2014    -1971 
   -1918    -1865    -1830    -1809    -1784    -1769    -1775    -1768 
   -1737    -1715    -1717    -1709    -1688    -1688    -1696    -1667 
   -1620    -1595    -1578    -1548    -1516    -1495    -1479    -1441 
   -1385    -1352    -1340    -1313    -1287    -1273    -1242    -1202 
   -1178    -1162    -1154    -1155    -1166    -1173    -1171    -1192 
   -1229    -1254    -1287    -1347    -1391    -1421    -1470    -1524 
   -1559    -1597    -1649    -1687    -1698    -1709    -1730    -1741 
   -1749    -1782    -1807    -1802    -1795    -1810    -1829    -1837 
   -1848    -1856    -1840    -1822    -1836    -1854    -1860    -1872 
   -1895    -1908    -1921    -1939    -1957    -1969    -1985    -2003 
   -2000    -1975    -1954    -1954    -1944    -1911    -1884    -1864 
   -1841    -1818    -1798    -1792    -1799    -1786    -1782    -1813 
   -1827    -1822    -1861    -1918    -1926    -1937    -2002    -2064 
   -2077    -2079    -2108    -2150    -2153    -2141    -2166    -2196 
   -2182    -2174    -2192    -2182    -2145    -2135    -2133    -2085 
   -2004    -1934    -1881    -1806    -1705    -1622    -1555    -1474 
   -1390    -1329    -1289    -1251    -1220    -1208    -1200    -1189 
   -1186    -1201    -1209    -1200    -1197    -1202    -1194    -1179 
   -1173    -1178    -1188    -1204    -1221    -1233    -1248    -1278 
   -1306    -1329    -1359    -1381    -1389    -1399    -1413    -1416 
   -1410    -1413    -1422    -1431    -1432    -1445    -1476    -1502 
   -1525    -1560    -1602    -1640    -1684    -1733    -1767    -1796 
   -1829    -1856    -1873    -1873    -1868    -1864    -1848    -1821 
   -1802    -1792    -1788    -1798    -1807    -1798    -1787    -1791 
   -1788    -1776    -1764    -1750    -1732    -1707    -1687    -1672 
   -1655    -1633    -1614    -1597    -1566    -1522    -1480    -1443 
   -1408    -1377    -1347    -1317    -1291    -1269    -1256    -1260 
   -1264    -1270    -1286    -1304    -1325    -1366    -1414    -1462 
   -1520    -1582    -1636    -1684    -1734    -1786    -1834    -1861 
   -1869    -1891    -1919    -1926    -1931    -1954    -1965    -1966 
   -1985    -2003    -2008    -2026    -2060    -2092    -2111    -2123 
   -2158    -2209    -2243    -2269    -2316    -2366    -2412    -2462 
   -2512    -2551    -2579    -2610    -2639    -2651    -2654    -2656 
   -2660    -2660    -2663    -2673    -2683    -2690    -2695    -2700 
   -2698    -2697    -2690    -2668    -2641    -2612    -2578    -2544 
   -2508    -2467    -2430    -2398    -2371    -2347    -2320    -2293 
   -2274    -2259    -2249    -2243    -2247    -2255    -2265    -2276 
   -2286    -2296    -2301    -2309    -2315    -2312    -2305    -2297 
   -2285    -2262    -2235    -2203    -2164    -2122    -2074    -2023 
   -1969    -1910    -1848    -1787    -1721    -1653    -1597    -1547 
   -1499    -1458    -1422    -1391    -1366    -1343    -1323    -1308 
   -1294    -1285    -1278    -1271    -1267    -1267    -1271    -1279 
   -1291    -1304    -1318    -1335    -1350    -1362    -1374    -1381 
   -1379    -1375    -1374    -1372    -1374    -1377    -1383    -1385 
   -1385    -1390    -1389    -1386    -1385    -1378    -1367    -1358 
   -1347    -1335    -1328    -1318    -1310    -1306    -1298    -1289 
   -1282    -1279    -1279    -1281    -1289    -1300    -1313    -1329 
   -1348    -1368    -1391    -1418    -1444    -1467    -1486    -1497 
   -1498    -1489    -1472    -1449    -1422    -1394    -1371    -1352 
   -1333    -1321    -1318    -1323    -1331    -1340    -1354    -1375 
   -1399    -1425    -1453    -1480    -1506    -1534    -1561    -1583 
   -1603    -1622    -1636    -1645    -1655    -1661    -1663    -1664 
   -1661    -1657    -1655    -1648    -1645    -1641    -1637    -1641 
   -1653    -1667    -1683    -1703    -1725    -1746    -1769    -1792 
   -1811    -1826    -1833    -1836    -1837    -1829    -1821    -1814 
   -1804    -1798    -1795    -1798    -1813    -1834    -1863    -1903 
   -1948    -1995    -2045    -2091    -2131    -2166    -2187    -2195 
   -2195    -2182    -2165    -2145    -2118    -2091    -2062    -2033 
   -2014    -1996    -1976    -1964    -1960    -1961    -1962    -1966 
   -1973    -1980    -1988    -1999    -2007    -2015    -2020    -2025 
   -2029    -2029    -2020    -2008    -1991    -1965    -1939    -1921 
   -1902    -1880    -1863    -1848    -1836    -1823    -1817    -1806 
   -1795    -1791    -1783    -1771    -1760    -1752    -1738    -1728 
   -1721    -1713    -1703    -1696    -1690    -1678    -1660    -1638 
   -1613    -1580    -1545    -1513    -1482    -1449    -1418    -1391 
   -1364    -1341    -1327    -1318    -1316    -1320    -1332    -1355 
   -1390    -1432    -1476    -1526    -1580    -1633    -1687    -1745 
   -1809    -1872    -1935    -2000    -2061    -2118    -2172    -2218 
   -2255    -2288    -2313    -2328    -2332    -2328    -2316    -2290 
   -2255    -2212    -2161    -2107    -2054    -1999    -1944    -1895 
   -1850    -1809    -1769    -1728    -1679    -1626    -1572    -1516 
   -1459    -1406    -1363    -1329    -1305    -1293    -1290    -1297 
   -1312    -1331    -1352    -1383    -1416    -1440    -1467    -1499 
   -1526    -1551    -1580    -1606    -1625    -1647    -1671    -1692 
   -1717    -1741    -1764    -1782    -1796    -1814    -1830    -1842 
   -1853    -1864    -1876    -1883    -1881    -1873    -1858    -1840 
   -1823    -1803    -1782    -1767    -1756    -1752    -1756    -1763 
   -1777    -1799    -1822    -1852    -1891    -1938    -1995    -2058 
   -2126    -2200    -2274    -2350    -2430    -2506    -2581    -2648 
   -2706    -2755    -2794    -2816    -2825    -2824    -2816    -2797 
   -2766    -2727    -2685    -2637    -2586    -2535    -2481    -2434 
   -2396    -2367    -2351    -2346    -2351    -2366    -2386    -2409 
   -2436    -2458    -2482    -2512    -2538    -2563    -2597    -2632 
   -2666    -2697    -2727    -2749    -2766    -2771    -2770    -2755 
   -2727    -2689    -2641    -2585    -2524    -2457    -2381    -2308 
   -2235    -2164    -2096    -2033    -1975    -1919    -1868    -1830 
   -1795    -1767    -1749    -1733    -1722    -1722    -1723    -1726 
   -1734    -1740    -1742    -1744    -1741    -1737    -1728    -1717 
   -1705    -1684    -1660    -1638    -1610    -1574    -1533    -1495 
   -1456    -1416    -1377    -1339    -1302    -1277    -1254    -1229 
   -1216    -1206    -1192    -1179    -1171    -1161    -1150    -1139 
   -1124    -1108    -1093    -1078    -1066    -1055    -1047    -1039 
   -1027    -1019    -1009     -996     -989     -984     -977     -973 
    -974     -980     -990    -1001    -1011    -1021    -1036    -1054 
   -1073    -1092    -1109    -1127    -1139    -1148    -1156    -1161 
   -1162    -1165    -1167    -1173    -1181    -1190    -1200    -1215 
   -1235    -1255    -1278    -1304    -1332    -1363    -1397    -1431 
   -1464    -1498    -1529    -1557    -1583    -1605    -1621    -1632 
   -1642    -1656    -1667    -1683    -1703    -1725    -1746    -1771 
   -1796    -1823    -1848    -1869    -1890    -1907    -1926    -1937 
   -1942    -1950    -1952    -1949    -1946    -1939    -1929    -1918 
   -1900    -1881    -1864    -1842    -1826    -1813    -1800    -1802 
   -1810    -1823    -1845    -1871    -1900    -1938    -1975    -2012 
   -2049    -2080    -2115    -2145    -2164    -2180    -2192    -2193 
   -2189    -2178    -2164    -2142    -2118    -2092    -2066    -2042 
   -2022    -2008    -2003    -2007    -2018    -2037    -2060    -2085 
   -2122    -2160    -2191    -2223    -2251    -2272    -2290    -2307 
   -2313    -2319    -2319    -2315    -2309    -2300    -2290    -2281 
   -2270    -2255    -2239    -2227    -2214    -2196    -2177    -2155 
   -2131    -2100    -2069    -2038    -2010    -1983    -1960    -1941 
