Origin Time       2025/01/13 21:19:00
Lat.              31.8
Long.             131.6
Depth. (km)       30
Mag.              6.9
Station Code      SAG008
Station Lat.      33.1041
Station Long.     130.0998
Station Height(m) 7
Record Time       2025/01/13 21:20:30
Sampling Freq(Hz) 100Hz
Duration Time(s)  76
Dir.              E-W
Scale Factor      7845(gal)/8223790
Max. Acc. (gal)   2.471
Last Correction   2025/01/13 21:20:32
Memo.             
[...]
  -17813   -18002   -18179   -18327   -18424   -18473   -18490   -18468 
  -18403   -18318   -18216   -18102   -17996   -17911   -17826   -17744 
  -17675   -17613   -17548   -17487   -17437   -17398   -17373   -17362 
  -17361   -17365   -17379   -17405   -17450   -17518   -17608   -17710 
  -17820   -17905   -17955   -17984   -18000   -17991   -17965   -17944 
  -17921   -17896   -17891   -17906   -17913   -17907   -17915   -17910 
  -17875   -17841   -17818   -17801   -17801   -17828   -17874   -17925 
  -17986   -18060   -18121   -18160   -18185   -18184   -18148   -18088 
  -18003   -17903   -17801   -17686   -17568   -17471   -17385   -17312 
  -17269   -17243   -17219   -17211   -17209   -17204   -17201   -17205 
  -17199   -17158   -17096   -17037   -16983   -16933   -16902   -16881 
  -16861   -16856   -16870   -16885   -16899   -16916   -16931   -16947 
  -16972   -16995   -17000   -16992   -16981   -16969   -16978   -17012 
  -17050   -17093   -17155   -17212   -17258   -17315   -17367   -17392 
  -17409   -17432   -17451   -17483   -17544   -17624   -17706   -17783 
  -17836   -17849   -17833   -17801   -17744   -17675   -17616   -17550 
  -17470   -17389   -17294   -17192   -17112   -17047   -16991   -16966 
  -16969   -16976   -16981   -16991   -17003   -17018   -17023   -17011 
  -16985   -16945   -16903   -16876   -16862   -16856   -16865   -16885 
  -16912   -16946   -16980   -17014   -17054   -17104   -17181   -17293 
  -17416   -17548   -17703   -17872   -18044   -18222   -18385   -18507 
  -18584   -18631   -18647   -18625   -18578   -18524   -18461   -18381 
  -18295   -18212   -18131   -18048   -17967   -17886   -17797   -17709 
  -17632   -17564   -17487   -17397   -17307   -17216   -17134   -17074 
  -17026   -16978   -16938   -16906   -16895   -16910   -16943   -16989 
  -17057   -17150   -17263   -17392   -17514   -17620   -17713   -17798 
  -17861   -17907   -17941   -17946   -17928   -17898   -17863   -17821 
  -17768   -17699   -17626   -17550   -17464   -17383   -17317   -17248 
  -17161   -17066   -16972   -16861   -16746   -16660   -16599   -16556 
  -16540   -16546   -16568   -16615   -16687   -16773   -16872   -16965 
  -17053   -17150   -17250   -17350   -17463   -17571   -17664   -17757 
  -17836   -17880   -17898   -17911   -17942   -17991   -18052   -18131 
  -18220   -18291   -18338   -18376   -18401   -18407   -18416   -18427 
  -18419   -18399   -18373   -18338   -18299   -18266   -18229   -18185 
  -18152   -18126   -18110   -18121   -18157   -18211   -18283   -18357 
  -18418   -18459   -18476   -18469   -18445   -18414   -18378   -18339 
  -18319   -18314   -18300   -18281   -18258   -18214   -18158   -18108 
  -18060   -18022   -17999   -17991   -18003   -18029   -18058   -18096 
  -18138   -18169   -18193   -18227   -18272   -18324   -18380   -18426 
  -18453   -18461   -18434   -18368   -18269   -18131   -17968   -17809 
  -17659   -17524   -17415   -17332   -17278   -17255   -17253   -17259 
  -17275   -17309   -17344   -17359   -17351   -17329   -17288   -17234 
  -17185   -17122   -17039   -16953   -16872   -16788   -16700   -16610 
  -16521   -16440   -16374   -16324   -16293   -16286   -16299   -16337 
  -16403   -16463   -16491   -16506   -16515   -16501   -16467   -16432 
  -16382   -16325   -16290   -16276   -16268   -16264   -16272   -16291 
  -16309   -16344   -16416   -16507   -16611   -16733   -16862   -16988 
  -17111   -17205   -17265   -17296   -17290   -17263   -17242   -17221 
  -17193   -17177   -17173   -17167   -17163   -17170   -17174   -17181 
  -17203   -17234   -17266   -17301   -17340   -17388   -17433   -17477 
  -17514   -17556   -17617   -17683   -17766   -17874   -17986   -18107 
  -18245   -18382   -18513   -18621   -18696   -18742   -18746   -18712 
  -18661   -18597   -18517   -18415   -18296   -18164   -18018   -17872 
  -17743   -17629   -17532   -17454   -17394   -17347   -17296   -17248 
  -17223   -17209   -17186   -17172   -17167   -17154   -17149   -17167 
  -17194   -17221   -17243   -17251   -17246   -17232   -17220   -17216 
  -17209   -17203   -17205   -17209   -17201   -17173   -17136   -17099 
  -17057   -17027   -17020   -17028   -17042   -17066   -17104   -17147 
  -17169   -17173   -17186   -17197   -17196   -17196   -17188   -17165 
  -17139   -17115   -17091   -17062   -17035   -17023   -17038   -17085 
  -17163   -17266   -17385   -17514   -17651   -17784   -17902   -17986 
  -18033   -18052   -18041   -18006   -17950   -17880   -17801   -17717 
  -17635   -17566   -17520   -17498   -17513   -17568   -17645   -17737 
  -17830   -17901   -17946   -17972   -17964   -17937   -17906   -17859 
  -17799   -17745   -17697   -17645   -17591   -17555   -17547   -17567 
  -17629   -17736   -17865   -18006   -18148   -18274   -18366   -18404 
  -18388   -18337   -18257   -18156   -18050   -17952   -17849   -17744 
  -17655   -17590   -17550   -17544   -17578   -17639   -17714   -17801 
  -17887   -17960   -18009   -18036   -18052   -18057   -18054   -18057 
  -18071   -18102   -18152   -18207   -18247   -18261   -18245   -18216 
  -18187   -18146   -18094   -18030   -17940   -17830   -17699   -17544 
  -17374   -17203   -17053   -16946   -16880   -16870   -16922   -17012 
  -17136   -17282   -17432   -17577   -17691   -17771   -17826   -17855 
  -17853   -17834   -17802   -17748   -17660   -17544   -17412   -17263 
  -17115   -16991   -16907   -16861   -16858   -16908   -16987   -17093 
  -17244   -17419   -17598   -17787   -17971   -18133   -18268   -18364 
  -18420   -18441   -18420   -18372   -18300   -18203   -18099   -18011 
  -17940   -17894   -17879   -17894   -17936   -17999   -18081   -18184 
  -18289   -18384   -18473   -18561   -18632   -18690   -18747   -18786 
  -18808   -18828   -18835   -18823   -18809   -18789   -18760   -18729 
  -18684   -18612   -18522   -18416   -18295   -18172   -18052   -17921 
  -17776   -17631   -17474   -17311   -17155   -17014   -16883   -16787 
  -16734   -16704   -16688   -16698   -16726   -16760   -16791   -16816 
  -16826   -16821   -16794   -16748   -16688   -16603   -16498   -16399 
  -16316   -16248   -16200   -16168   -16155   -16162   -16201   -16282 
  -16383   -16502   -16638   -16787   -16946   -17119   -17296   -17463 
  -17612   -17740   -17851   -17946   -18031   -18110   -18196   -18285 
  -18369   -18450   -18509   -18539   -18543   -18513   -18451   -18349 
  -18207   -18041   -17861   -17672   -17493   -17324   -17166   -17035 
  -16933   -16858   -16816   -16810   -16841   -16912   -17008   -17120 
  -17244   -17367   -17473   -17554   -17608   -17625   -17605   -17564 
  -17517   -17458   -17379   -17289   -17197   -17104   -17010   -16927 
  -16862   -16800   -16753   -16733   -16719   -16710   -16714   -16718 
  -16722   -16737   -16765   -16810   -16872   -16950   -17045   -17150 
  -17243   -17317   -17374   -17392   -17371   -17338   -17290   -17231 
  -17180   -17149   -17142   -17154   -17193   -17269   -17367   -17485 
  -17628   -17793   -17963   -18137   -18319   -18485   -18604   -18682 
  -18723   -18712   -18655   -18570   -18453   -18303   -18121   -17926 
  -17745   -17581   -17433   -17331   -17281   -17265   -17284   -17342 
  -17423   -17505   -17587   -17674   -17751   -17805   -17848   -17879 
  -17879   -17861   -17841   -17820   -17798   -17787   -17794   -17807 
  -17826   -17853   -17888   -17923   -17953   -17986   -18010   -18015 
  -18009   -17990   -17965   -17957   -17961   -17960   -17965   -17964 
  -17946   -17934   -17932   -17925   -17919   -17918   -17913   -17907 
  -17902   -17895   -17888   -17886   -17887   -17894   -17902   -17902 
  -17894   -17867   -17817   -17747   -17648   -17520   -17377   -17224 
  -17061   -16892   -16722   -16553   -16390   -16240   -16100   -15973 
  -15877   -15809   -15773   -15778   -15812   -15866   -15951   -16059 
  -16177   -16302   -16426   -16529   -16600   -16637   -16642   -16623 
  -16595   -16573   -16580   -16625   -16710   -16827   -16978   -17159 
  -17354   -17556   -17771   -17986   -18189   -18381   -18562   -18732 
  -18886   -19026   -19152   -19240   -19288   -19306   -19283   -19206 
  -19072   -18898   -18697   -18478   -18261   -18061   -17879   -17724 
  -17606   -17527   -17486   -17482   -17500   -17536   -17595   -17658 
  -17734   -17830   -17928   -18036   -18156   -18258   -18333   -18381 
  -18414   -18424   -18415   -18399   -18384   -18370   -18366   -18373 
  -18393   -18412   -18419   -18431   -18450   -18465   -18488   -18520 
  -18554   -18589   -18620   -18635   -18625   -18592   -18532   -18445 
  -18327   -18184   -18019   -17847   -17674   -17513   -17378   -17274 
  -17193   -17123   -17081   -17070   -17084   -17132   -17211   -17300 
  -17402   -17502   -17579   -17636   -17651   -17621   -17562   -17467 
  -17336   -17178   -17005   -16826   -16637   -16445   -16259   -16086 
  -15921   -15763   -15634   -15538   -15453   -15396   -15396   -15425 
  -15462   -15533   -15631   -15716   -15793   -15877   -15958   -16033 
  -16121   -16217   -16314   -16414   -16518   -16622   -16722   -16810 
  -16884   -16953   -17015   -17068   -17126   -17188   -17253   -17323 
  -17412   -17524   -17643   -17759   -17886   -18011   -18118   -18223 
  -18333   -18427   -18501   -18566   -18612   -18623   -18609   -18586 
  -18549   -18501   -18455   -18404   -18341   -18272   -18200   -18123 
  -18042   -17950   -17849   -17741   -17632   -17529   -17436   -17352 
  -17285   -17239   -17209   -17208   -17231   -17265   -17312   -17383 
  -17467   -17556   -17644   -17717   -17766   -17790   -17794   -17779 
  -17744   -17705   -17672   -17643   -17618   -17594   -17567   -17537 
  -17501   -17464   -17429   -17393   -17356   -17339   -17339   -17342 
  -17359   -17390   -17408   -17413   -17413   -17400   -17369   -17327 
  -17286   -17259   -17240   -17228   -17231   -17258   -17294   -17342 
  -17410   -17481   -17529   -17570   -17602   -17617   -17613   -17591 
  -17562   -17536   -17524   -17541   -17585   -17652   -17756   -17898 
  -18068   -18256   -18449   -18638   -18820   -18981   -19120   -19232 
  -19300   -19315   -19287   -19215   -19087   -18920   -18719   -18485 
  -18237   -17976   -17725   -17498   -17297   -17142   -17031   -16943 
  -16885   -16856   -16843   -16854   -16888   -16942   -17022   -17119 
  -17216   -17316   -17417   -17502   -17568   -17635   -17698   -17745 
  -17793   -17855   -17918   -17979   -18057   -18152   -18247   -18337 
  -18409   -18454   -18465   -18450   -18418   -18369   -18303   -18229 
  -18139   -18040   -17930   -17811   -17694   -17581   -17474   -17381 
  -17292   -17203   -17113   -17014   -16897   -16767   -16622   -16470 
  -16320   -16181   -16067   -15986   -15950   -15961   -16009   -16092 
  -16217   -16368   -16522   -16692   -16865   -17026   -17180   -17316 
  -17431   -17531   -17625   -17712   -17784   -17845   -17905   -17959 
  -18000   -18057   -18127   -18184   -18242   -18322   -18414   -18524 
  -18644   -18756   -18859   -18933   -18971   -18982   -18956   -18890 
  -18802   -18692   -18562   -18422   -18277   -18129   -17973   -17821 
  -17683   -17552   -17429   -17327   -17240   -17163   -17097   -17039 
  -16993   -16958   -16923   -16892   -16868   -16845   -16812   -16768 
  -16719   -16669   -16603   -16526   -16453   -16376   -16309   -16270 
  -16251   -16239   -16251   -16291   -16357   -16441   -16546   -16679 
  -16827   -16997   -17199   -17421   -17641   -17852   -18054   -18250 
  -18426   -18578   -18719   -18841   -18931   -18983   -19014   -19017 
  -18976   -18906   -18821   -18711   -18578   -18420   -18243   -18050 
  -17847   -17641   -17439   -17238   -17042   -16877   -16753   -16669 
  -16629   -16623   -16640   -16669   -16708   -16744   -16788   -16837 
  -16876   -16916   -16957   -16969   -16950   -16906   -16827   -16733 
  -16648   -16590   -16564   -16583   -16652   -16760   -16903   -17081 
  -17274   -17466   -17660   -17845   -18004   -18139   -18238   -18295 
  -18333   -18350   -18335   -18288   -18214   -18115   -17998   -17855 
  -17701   -17551   -17394   -17236   -17103   -16980   -16868   -16785 
  -16718   -16671   -16656   -16654   -16672   -16721   -16779   -16833 
  -16891   -16956   -17024   -17103   -17193   -17280   -17356   -17429 
  -17498   -17556   -17602   -17635   -17651   -17668   -17685   -17687 
  -17687   -17702   -17718   -17740   -17778   -17832   -17903   -18000 
  -18122   -18264   -18416   -18569   -18713   -18833   -18920   -18954 
  -18924   -18831   -18679   -18488   -18268   -18023   -17772   -17525 
  -17281   -17051   -16843   -16656   -16487   -16335   -16212   -16119 
  -16042   -15984   -15939   -15898   -15869   -15865   -15881   -15908 
  -15957   -16036   -16137   -16255   -16383   -16517   -16645   -16765 
  -16884   -17003   -17111   -17212   -17308   -17386   -17448   -17483 
  -17483   -17450   -17378   -17273   -17143   -16992   -16833   -16688 
  -16564   -16465   -16406   -16384   -16390   -16429   -16509   -16627 
  -16784   -16977   -17180   -17383   -17582   -17751   -17878   -17980 
  -18069   -18139   -18215   -18306   -18382   -18451   -18542   -18636 
  -18725   -18816   -18891   -18949   -18990   -19014   -19029   -19025 
  -19001   -18972   -18929   -18856   -18758   -18634   -18486   -18330 
  -18183   -18061   -17965   -17901   -17875   -17876   -17901   -17956 
  -18038   -18146   -18277   -18428   -18598   -18783   -18968   -19153 
  -19345   -19523   -19685   -19838   -19954   -20021   -20073   -20117 
  -20133   -20121   -20096   -20047   -19961   -19843   -19708   -19549 
  -19368   -19187   -19010   -18829   -18650   -18488   -18350   -18225 
  -18108   -18011   -17934   -17857   -17782   -17716   -17651   -17579 
  -17510   -17442   -17356   -17248   -17119   -16980   -16838   -16708 
  -16615   -16556   -16507   -16480   -16483   -16506   -16545   -16603 
  -16679   -16761   -16852   -16964   -17080   -17180   -17266   -17329 
  -17356   -17355   -17319   -17244   -17142   -17014   -16864   -16706 
  -16533   -16347   -16158   -15978   -15817   -15676   -15558   -15472 
  -15417   -15387   -15377   -15383   -15394   -15400   -15418   -15448 
  -15477   -15525   -15595   -15670   -15750   -15822   -15886   -15947 
  -15997   -16040   -16090   -16152   -16231   -16321   -16424   -16553 
  -16702   -16862   -17042   -17226   -17396   -17562   -17721   -17849 
  -17945   -18017   -18052   -18052   -18025   -17955   -17848   -17710 
  -17540   -17343   -17140   -16937   -16729   -16528   -16362   -16222 
  -16109   -16051   -16056   -16100   -16174   -16283   -16418   -16568 
  -16731   -16910   -17100   -17297   -17497   -17690   -17876   -18041 
  -18184   -18326   -18459   -18574   -18688   -18805   -18912   -19010 
  -19102   -19180   -19259   -19337   -19398   -19462   -19530   -19575 
  -19606   -19630   -19634   -19620   -19595   -19558   -19502   -19434 
  -19375   -19306   -19219   -19137   -19055   -18949   -18837   -18721 
  -18582   -18415   -18233   -18054   -17894   -17749   -17620   -17512 
  -17421   -17351   -17312   -17307   -17336   -17389   -17448   -17521 
  -17601   -17656   -17703   -17756   -17803   -17848   -17910   -17980 
  -18048   -18115   -18173   -18210   -18223   -18218   -18188   -18130 
  -18054   -17967   -17860   -17741   -17614   -17482   -17348   -17215 
  -17086   -16968   -16845   -16711   -16567   -16413   -16249   -16082 
  -15911   -15746   -15608   -15503   -15441   -15444   -15496   -15587 
  -15730   -15905   -16078   -16259   -16452   -16629   -16783   -16922 
  -17035   -17120   -17185   -17223   -17234   -17220   -17180   -17115 
  -17039   -16965   -16885   -16800   -16719   -16641   -16553   -16467 
  -16387   -16294   -16189   -16094   -16012   -15930   -15859   -15822 
  -15800   -15792   -15815   -15858   -15909   -15992   -16105   -16232 
  -16371   -16521   -16669   -16808   -16945   -17074   -17192   -17304 
  -17412   -17509   -17601   -17697   -17787   -17867   -17956   -18050 
  -18134   -18223   -18324   -18420   -18508   -18590   -18666   -18725 
  -18770   -18801   -18814   -18808   -18789   -18754   -18709   -18657 
  -18582   -18497   -18419   -18339   -18257   -18187   -18127   -18083 
  -18053   -18049   -18069   -18100   -18149   -18222   -18296   -18377 
  -18473   -18566   -18655   -18743   -18812   -18852   -18864   -18835 
  -18775   -18708   -18631   -18550   -18484   -18431   -18399   -18395 
  -18412   -18435   -18453   -18454   -18439   -18400   -18335   -18264 
  -18200   -18142   -18103   -18092   -18117   -18161   -18199   -18247 
  -18299   -18326   -18342   -18351   -18331   -18288   -18237   -18172 
  -18091   -17992   -17884   -17776   -17667   -17571   -17494   -17425 
  -17367   -17335   -17305   -17259   -17216   -17180   -17131   -17081 
  -17032   -16969   -16887   -16808   -16733   -16649   -16564   -16484 
  -16406   -16336   -16281   -16236   -16205   -16193   -16208   -16258 
  -16333   -16418   -16514   -16621   -16719   -16810   -16893   -16953 
  -16995   -17030   -17058   -17080   -17081   -17070   -17062   -17038 
  -16989   -16933   -16868   -16792   -16723   -16667   -16603   -16533 
  -16476   -16437   -16407   -16393   -16398   -16420   -16456   -16503 
  -16578   -16680   -16787   -16904   -17041   -17182   -17323   -17463 
  -17609   -17757   -17891   -18026   -18156   -18258   -18337   -18399 
  -18436   -18457   -18451   -18422   -18392   -18351   -18288   -18230 
  -18181   -18133   -18096   -18081   -18096   -18123   -18153   -18204 
  -18264   -18307   -18349   -18395   -18420   -18415   -18396   -18373 
  -18338   -18296   -18266   -18234   -18187   -18150   -18125   -18087 
  -18058   -18044   -18026   -18010   -17996   -17965   -17921   -17876 
  -17824   -17768   -17732   -17707   -17693   -17693   -17707   -17736 
  -17770   -17795   -17809   -17810   -17795   -17768   -17729   -17678 
  -17621   -17571   -17527   -17486   -17451   -17412   -17371   -17332 
  -17284   -17230   -17173   -17112   -17055   -17000   -16941   -16887 
  -16837   -16771   -16698   -16627   -16552   -16482   -16426   -16371 
  -16325   -16299   -16289   -16291   -16316   -16363   -16433   -16529 
  -16661   -16819   -16989   -17166   -17339   -17490   -17625   -17756 
  -17868   -17959   -18038   -18098   -18141   -18171   -18177   -18160 
  -18130   -18088   -18038   -17996   -17960   -17923   -17886   -17857 
  -17837   -17820   -17807   -17806   -17818   -17844   -17891   -17955 
  -18040   -18156   -18285   -18426   -18570   -18700   -18817   -18925 
  -19009   -19079   -19133   -19153   -19155   -19147   -19118   -19071 
  -19009   -18932   -18843   -18748   -18652   -18547   -18442   -18345 
  -18249   -18164   -18099   -18040   -17980   -17938   -17917   -17902 
  -17906   -17933   -17972   -18023   -18088   -18158   -18222   -18262 
  -18283   -18281   -18246   -18184   -18106   -18009   -17905   -17805 
  -17717   -17649   -17598   -17551   -17531   -17539   -17552   -17587 
  -17649   -17720   -17791   -17864   -17933   -17987   -18021   -18038 
  -18046   -18037   -18013   -17976   -17929   -17875   -17820   -17767 
  -17726   -17690   -17651   -17614   -17574   -17521   -17463   -17404 
  -17331   -17240   -17153   -17057   -16942   -16823   -16702   -16584 
  -16488   -16414   -16357   -16337   -16359   -16413   -16502   -16627 
  -16772   -16916   -17053   -17166   -17248   -17300   -17317   -17307 
