Origin Time       2025/01/13 21:19:00
Lat.              31.8
Long.             131.6
Depth. (km)       30
Mag.              6.9
Station Code      SAG002
Station Lat.      33.4228
Station Long.     129.9192
Station Height(m) 208
Record Time       2025/01/13 21:20:39
Sampling Freq(Hz) 100Hz
Duration Time(s)  68
Dir.              E-W
Scale Factor      7845(gal)/8223790
Max. Acc. (gal)   1.588
Last Correction   2025/01/13 21:20:40
Memo.             
[...]
   13814    13786    13776    13787    13814    13853    13907    13979 
   14071    14187    14322    14454    14555    14621    14659    14673 
   14667    14652    14639    14635    14648    14671    14679    14648 
   14596    14542    14489    14450    14426    14392    14332    14246 
   14142    14057    14011    13999    14007    14017    14008    13973 
   13918    13860    13807    13755    13706    13670    13648    13649 
   13679    13734    13814    13918    14026    14108    14160    14183 
   14180    14183    14204    14237    14265    14268    14241    14200 
   14166    14138    14108    14069    14025    13987    13968    13975 
   14018    14098    14180    14243    14291    14323    14334    14332 
   14324    14323    14343    14368    14384    14382    14366    14351 
   14343    14342    14362    14409    14473    14553    14654    14750 
   14820    14866    14885    14867    14810    14712    14577    14422 
   14261    14108    13964    13829    13702    13582    13478    13398 
   13350    13339    13359    13409    13486    13570    13640    13697 
   13748    13792    13822    13834    13824    13798    13767    13733 
   13703    13682    13663    13645    13637    13641    13663    13705 
   13763    13829    13907    14007    14130    14270    14403    14493 
   14532    14538    14527    14520    14534    14569    14607    14631 
   14629    14600    14544    14480    14428    14391    14347    14291 
   14233    14188    14176    14193    14215    14224    14216    14188 
   14143    14092    14045    14017    14003    13992    13977    13968 
   13964    13976    14030    14118    14204    14289    14368    14424 
   14473    14517    14542    14551    14544    14519    14484    14445 
   14405    14368    14337    14331    14355    14389    14428    14467 
   14496    14516    14527    14520    14499    14455    14377    14277 
   14175    14085    14031    14023    14052    14099    14148    14184 
   14204    14210    14197    14181    14181    14204    14241    14276 
   14305    14323    14328    14330    14339    14362    14391    14409 
   14424    14451    14485    14523    14566    14602    14625    14627 
   14601    14561    14523    14492    14473    14451    14415    14362 
   14310    14273    14254    14251    14261    14269    14268    14249 
   14216    14176    14149    14148    14153    14145    14125    14098 
   14057    14006    13956    13909    13860    13821    13794    13764 
   13721    13679    13647    13624    13617    13636    13682    13751 
   13837    13933    14026    14095    14130    14139    14145    14149 
   14148    14141    14127    14112    14115    14121    14122    14141 
   14180    14227    14292    14378    14482    14589    14674    14729 
   14763    14778    14771    14758    14737    14697    14635    14548 
   14449    14366    14312    14272    14233    14188    14121    14025 
   13910    13786    13662    13541    13419    13292    13171    13065 
   12996    12980    13008    13074    13185    13329    13490    13663 
   13836    14006    14177    14342    14486    14617    14732    14828 
   14904    14951    14971    14966    14933    14883    14823    14748 
   14658    14554    14434    14304    14180    14075    13990    13917 
   13849    13790    13733    13668    13606    13566    13559    13597 
   13660    13718    13761    13807    13869    13942    14010    14067 
   14104    14111    14103    14081    14053    14034    14025    14015 
   14015    14006    13983    13987    14040    14126    14220    14315 
   14403    14473    14524    14555    14553    14519    14458    14378 
   14299    14238    14188    14141    14099    14073    14067    14076 
   14102    14158    14256    14374    14494    14601    14685    14748 
   14800    14841    14868    14870    14852    14820    14775    14724 
   14654    14557    14446    14339    14239    14143    14053    13972 
   13903    13852    13819    13807    13818    13867    13964    14081 
   14203    14324    14430    14516    14585    14636    14662    14658 
   14631    14589    14532    14465    14413    14382    14347    14301 
   14251    14199    14146    14089    14027    13946    13840    13726 
   13626    13552    13508    13493    13493    13495    13501    13501 
   13500    13506    13531    13591    13706    13865    14050    14243 
   14438    14623    14778    14909    15041    15183    15313    15400 
   15441    15435    15376    15259    15094    14909    14712    14507 
   14315    14139    13979    13828    13684    13571    13514    13514 
   13552    13621    13709    13788    13863    13940    14010    14072 
   14115    14138    14153    14152    14130    14102    14079    14065 
   14058    14064    14084    14122    14177    14237    14289    14330 
   14342    14330    14310    14287    14265    14246    14231    14224 
   14223    14220    14216    14220    14233    14254    14281    14314 
   14346    14368    14380    14393    14405    14401    14368    14311 
   14246    14181    14133    14118    14123    14138    14160    14168 
   14160    14141    14118    14084    14049    14015    13975    13936 
   13914    13898    13903    13941    13988    14040    14087    14125 
   14169    14222    14280    14349    14427    14499    14547    14570 
   14581    14580    14562    14542    14526    14511    14489    14458 
   14426    14393    14347    14284    14200    14102    13999    13906 
   13838    13802    13788    13794    13811    13852    13929    14031 
   14137    14234    14324    14405    14470    14508    14507    14489 
   14482    14493    14535    14611    14706    14801    14874    14921 
   14949    14941    14874    14754    14597    14415    14226    14044 
   13879    13761    13698    13686    13721    13782    13851    13926 
   13992    14056    14129    14204    14285    14374    14458    14527 
   14565    14557    14501    14403    14281    14158    14054    13980 
   13933    13896    13863    13824    13776    13724    13660    13606 
   13582    13589    13608    13635    13682    13749    13826    13919 
   14027    14131    14231    14328    14407    14458    14488    14490 
   14473    14445    14404    14343    14268    14187    14119    14077 
   14054    14038    14029    14038    14061    14085    14108    14121 
   14114    14081    14027    13968    13914    13876    13872    13910 
   13984    14084    14196    14310    14427    14544    14648    14728 
   14766    14754    14705    14632    14538    14431    14322    14216 
   14116    14017    13921    13845    13795    13768    13763    13778 
   13797    13806    13818    13830    13825    13803    13779    13763 
   13755    13756    13779    13815    13853    13883    13895    13888 
   13879    13884    13918    13979    14064    14165    14270    14370 
   14459    14542    14619    14683    14735    14763    14764    14756 
   14743    14710    14662    14608    14539    14459    14385    14318 
   14251    14188    14133    14084    14035    13999    13979    13965 
   13956    13960    13971    13984    14008    14044    14080    14110 
   14139    14177    14223    14276    14334    14395    14442    14465 
   14473    14474    14470    14457    14432    14396    14341    14273 
   14199    14100    13984    13871    13767    13672    13598    13549 
   13522    13518    13548    13612    13706    13833    13984    14146 
   14327    14530    14746    14966    15176    15354    15496    15589 
   15607    15553    15448    15299    15109    14883    14634    14361 
   14085    13837    13618    13446    13331    13250    13194    13169 
   13157    13158    13182    13224    13288    13381    13493    13613 
   13737    13856    13964    14057    14129    14177    14214    14250 
   14301    14391    14508    14632    14746    14833    14891    14922 
   14928    14899    14831    14712    14555    14391    14227    14067 
   13925    13805    13695    13610    13562    13552    13595    13690 
   13822    13975    14119    14243    14350    14438    14507    14563 
   14612    14646    14655    14640    14607    14569    14543    14536 
   14521    14504    14497    14489    14458    14399    14315    14208 
   14089    13977    13876    13797    13749    13720    13693    13663 
   13616    13560    13513    13475    13458    13463    13475    13502 
   13540    13570    13591    13609    13629    13680    13767    13868 
   13984    14092    14162    14189    14180    14133    14065    13999 
   13937    13873    13825    13792    13755    13733    13740    13745 
   13743    13752    13776    13821    13892    13975    14060    14150 
   14253    14357    14439    14501    14551    14580    14586    14571 
   14528    14455    14362    14269    14188    14115    14054    14013 
   13995    13999    14003    14006    14022    14042    14045    14021 
   13967    13887    13792    13694    13608    13556    13543    13556 
   13591    13641    13706    13775    13844    13937    14054    14172 
   14284    14389    14478    14557    14623    14670    14693    14683 
   14650    14602    14538    14447    14347    14266    14223    14224 
   14261    14332    14435    14554    14683    14829    14979    15124 
   15256    15348    15395    15421    15419    15395    15364    15317 
   15241    15156    15061    14953    14848    14756    14671    14600 
   14530    14447    14354    14257    14162    14092    14056    14044 
   14062    14104    14156    14211    14278    14361    14450    14534 
   14600    14640    14654    14650    14640    14621    14594    14563 
   14520    14463    14401    14342    14287    14239    14211    14211 
   14227    14242    14256    14268    14273    14269    14251    14224 
   14197    14168    14133    14092    14042    13979    13902    13811 
   13720    13622    13516    13414    13333    13261    13176    13076 
   12991    12931    12874    12812    12769    12750    12765    12827 
   12920    13023    13131    13224    13298    13369    13447    13533 
   13624    13711    13802    13900    14004    14103    14187    14245 
   14266    14257    14230    14187    14137    14100    14085    14080 
   14079    14068    14046    14021    13983    13938    13900    13861 
   13829    13824    13838    13878    13960    14071    14181    14281 
   14354    14386    14388    14373    14334    14272    14214    14162 
   14098    14015    13937    13883    13859    13883    13967    14098 
   14254    14416    14581    14744    14894    15028    15144    15230 
   15294    15357    15426    15491    15546    15585    15614    15622 
   15601    15562    15516    15458    15394    15315    15222    15120 
   15013    14905    14813    14751    14705    14659    14602    14535 
   14465    14401    14343    14292    14253    14220    14193    14179 
   14169    14165    14183    14207    14220    14235    14245    14234 
   14211    14187    14154    14115    14080    14053    14033    14018 
   14011    14017    14027    14025    13994    13944    13880    13815 
   13767    13736    13732    13751    13770    13790    13806    13805 
   13801    13805    13805    13818    13848    13872    13890    13906 
   13903    13886    13859    13818    13780    13753    13733    13722 
   13724    13733    13747    13771    13802    13842    13898    13963 
   14022    14061    14089    14100    14087    14060    14033    14008 
   13991    13990    14004    14030    14064    14102    14149    14204 
   14258    14314    14377    14440    14507    14571    14611    14604 
   14558    14477    14369    14246    14118    13991    13869    13745 
   13624    13516    13420    13333    13266    13231    13234    13275 
   13348    13446    13562    13679    13798    13915    14013    14084 
   14142    14191    14227    14269    14330    14389    14430    14449 
   14446    14413    14351    14264    14156    14030    13896    13761 
   13632    13512    13396    13281    13176    13085    13016    12982 
   12985    13020    13080    13169    13301    13467    13660    13883 
   14130    14385    14619    14821    14994    15126    15214    15277 
   15310    15290    15219    15122    15003    14872    14751    14652 
   14573    14501    14435    14381    14330    14270    14216    14170 
   14126    14076    14025    13990    13983    14003    14056    14145 
   14254    14373    14501    14629    14737    14825    14906    14983 
   15063    15141    15202    15229    15207    15140    15044    14935 
   14813    14693    14578    14462    14351    14261    14195    14150 
   14122    14104    14099    14099    14099    14102    14110    14112 
   14108    14108    14121    14138    14161    14196    14245    14287 
   14320    14355    14389    14423    14461    14504    14562    14634 
   14701    14747    14763    14751    14725    14697    14661    14611 
   14543    14450    14331    14199    14069    13938    13806    13691 
   13601    13508    13413    13338    13288    13262    13263    13293 
   13335    13393    13479    13587    13713    13840    13954    14075 
   14191    14283    14355    14427    14490    14531    14540    14527 
   14490    14438    14391    14361    14337    14305    14258    14187 
   14098    14004    13902    13795    13694    13601    13514    13435 
   13360    13312    13305    13336    13382    13425    13466    13508 
   13556    13608    13660    13729    13811    13896    13996    14116 
   14239    14359    14497    14656    14833    15026    15228    15422 
   15595    15734    15824    15849    15799    15692    15549    15377 
   15192    15018    14863    14717    14580    14459    14347    14241 
   14149    14071    14010    13971    13932    13891    13859    13824 
   13787    13771    13775    13780    13780    13775    13784    13817 
   13863    13927    14021    14142    14278    14412    14543    14669 
   14771    14858    14941    15009    15045    15044    14998    14917 
   14821    14706    14570    14415    14254    14099    13965    13863 
   13799    13772    13775    13806    13869    13952    14041    14152 
   14272    14384    14493    14592    14654    14677    14682    14677 
   14650    14601    14535    14451    14350    14239    14126    13996 
   13845    13697    13563    13447    13346    13247    13151    13072 
   13023    13007    13026    13072    13127    13207    13327    13473 
   13633    13801    13959    14104    14238    14349    14434    14501 
   14554    14600    14631    14636    14625    14592    14521    14432 
   14330    14206    14075    13948    13837    13752    13698    13680 
   13698    13747    13825    13938    14071    14199    14322    14423 
   14477    14497    14489    14447    14386    14319    14246    14173 
   14102    14038    13998    13987    14006    14041    14087    14130 
   14169    14207    14223    14218    14212    14202    14188    14180 
   14175    14173    14175    14173    14172    14161    14131    14099 
   14072    14061    14065    14064    14048    14018    13979    13940 
   13895    13838    13778    13718    13652    13568    13468    13359 
   13248    13151    13074    13035    13058    13147    13285    13450 
   13633    13828    14017    14191    14362    14524    14666    14802 
   14925    15014    15080    15145    15198    15246    15306    15364 
   15408    15426    15404    15346    15257    15122    14949    14770 
   14575    14361    14142    13919    13701    13512    13358    13227 
   13146    13120    13132    13196    13311    13450    13603    13776 
   13960    14158    14377    14601    14808    14990    15138    15252 
   15338    15404    15434    15410    15333    15207    15041    14850 
   14651    14463    14285    14133    13996    13872    13791    13759 
   13755    13779    13813    13828    13818    13788    13760    13743 
   13726    13722    13736    13756    13780    13809    13828    13840 
   13860    13890    13919    13946    13973    14002    14033    14080 
   14156    14238    14310    14355    14381    14405    14440    14478 
   14507    14521    14520    14501    14472    14420    14328    14210 
   14084    13964    13880    13840    13821    13834    13883    13944 
   14008    14061    14077    14062    14037    13994    13948    13915 
   13886    13855    13819    13774    13729    13694    13680    13694 
   13720    13752    13788    13825    13859    13878    13882    13905 
   13953    14018    14110    14220    14342    14467    14589    14715 
   14835    14932    15006    15059    15094    15113    15122    15132 
   15138    15142    15141    15132    15126    15118    15099    15068 
   15020    14959    14895    14820    14732    14650    14559    14438 
   14307    14179    14053    13957    13913    13921    13988    14114 
   14283    14481    14694    14902    15087    15242    15364    15452 
   15500    15504    15487    15458    15411    15342    15255    15145 
   15013    14848    14659    14453    14216    13971    13759    13585 
   13437    13321    13240    13193    13173    13177    13203    13254 
   13333    13436    13555    13678    13801    13913    13994    14040 
   14058    14049    14030    14022    14026    14029    14018    14003 
   13983    13949    13892    13813    13718    13622    13537    13468 
   13424    13413    13427    13455    13508    13589    13687    13791 
   13892    13981    14054    14126    14202    14261    14293    14304 
   14307    14299    14278    14241    14177    14106    14049    13992 
   13921    13840    13759    13683    13629    13626    13660    13705 
   13776    13894    14037    14177    14297    14403    14501    14592 
   14677    14742    14764    14767    14777    14786    14793    14805 
   14802    14771    14752    14756    14751    14732    14700    14658 
   14619    14590    14555    14508    14462    14416    14368    14312 
   14253    14204    14175    14172    14192    14211    14218    14219 
   14224    14239    14262    14274    14274    14264    14258    14270 
   14296    14327    14355    14369    14359    14335    14311    14301 
   14318    14357    14404    14443    14474    14492    14492    14482 
   14473    14470    14470    14480    14497    14515    14532    14540 
   14535    14530    14519    14478    14419    14366    14323    14289 
   14272    14278    14312    14361    14396    14411    14430    14463 
   14501    14538    14584    14640    14685    14698    14694    14671 
   14611    14511    14372    14218    14073    13938    13805    13687 
   13599    13525    13462    13414    13367    13300    13227    13167 
   13112    13053    12978    12895    12830    12793    12779    12780 
   12793    12819    12860    12915    12993    13090    13193    13296 
   13416    13568    13741    13917    14091    14262    14440    14629 
   14805    14962    15101    15202    15260    15295    15303    15268 
   15190    15075    14951    14837    14715    14557    14386    14243 
   14149    14091    14056    14035    14018    14010    14026    14062 
   14094    14116    14141    14175    14231    14301    14347    14372 
   14404    14449    14480    14492    14466    14413    14377    14355 
   14318    14274    14235    14185    14134    14094    14052    14007 
   13964    13927    13907    13895    13867    13841    13845    13868 
   13886    13896    13905    13910    13921    13926    13929    13938 
