Origin Time       2025/01/13 21:19:00
Lat.              31.8
Long.             131.6
Depth. (km)       30
Mag.              6.9
Station Code      SAG008
Station Lat.      33.1041
Station Long.     130.0998
Station Height(m) 7
Record Time       2025/01/13 21:20:30
Sampling Freq(Hz) 100Hz
Duration Time(s)  76
Dir.              N-S
Scale Factor      7845(gal)/8223790
Max. Acc. (gal)   2.662
Last Correction   2025/01/13 21:20:32
Memo.             
[...]
  -16726   -16683   -16622   -16557   -16495   -16429   -16363   -16299 
  -16236   -16158   -16070   -15971   -15854   -15736   -15641   -15552 
  -15464   -15399   -15360   -15330   -15331   -15365   -15403   -15442 
  -15488   -15535   -15576   -15610   -15637   -15647   -15661   -15676 
  -15680   -15700   -15746   -15793   -15854   -15934   -16011   -16081 
  -16163   -16255   -16325   -16378   -16430   -16467   -16491   -16532 
  -16587   -16638   -16694   -16762   -16834   -16897   -16962   -17022 
  -17047   -17032   -16989   -16916   -16812   -16691   -16565   -16444 
  -16329   -16227   -16140   -16070   -16015   -15973   -15946   -15932 
  -15927   -15925   -15923   -15923   -15915   -15882   -15838   -15788 
  -15724   -15653   -15576   -15489   -15398   -15309   -15219   -15129 
  -15044   -14966   -14901   -14852   -14812   -14787   -14787   -14810 
  -14845   -14881   -14918   -14968   -15033   -15105   -15171   -15225 
  -15269   -15291   -15279   -15233   -15156   -15056   -14939   -14800 
  -14670   -14566   -14469   -14393   -14361   -14374   -14420   -14481 
  -14567   -14675   -14785   -14918   -15072   -15233   -15404   -15581 
  -15759   -15927   -16071   -16191   -16276   -16329   -16367   -16393 
  -16407   -16413   -16407   -16395   -16386   -16374   -16366   -16371 
  -16382   -16398   -16437   -16503   -16573   -16641   -16708   -16760 
  -16779   -16779   -16765   -16733   -16696   -16665   -16630   -16595 
  -16584   -16592   -16609   -16645   -16708   -16781   -16864   -16976 
  -17100   -17221   -17350   -17478   -17591   -17680   -17736   -17753 
  -17732   -17666   -17574   -17466   -17350   -17226   -17093   -16962 
  -16841   -16731   -16638   -16575   -16540   -16519   -16521   -16553 
  -16594   -16622   -16646   -16660   -16649   -16630   -16619   -16603 
  -16582   -16559   -16528   -16487   -16443   -16397   -16351   -16309 
  -16272   -16233   -16194   -16168   -16156   -16155   -16173   -16200 
  -16229   -16274   -16330   -16378   -16424   -16478   -16514   -16529 
  -16528   -16511   -16471   -16405   -16322   -16225   -16102   -15965 
  -15827   -15669   -15485   -15302   -15118   -14941   -14800   -14688 
  -14593   -14543   -14551   -14605   -14700   -14827   -14975   -15142 
  -15315   -15481   -15647   -15805   -15942   -16069   -16177   -16262 
  -16326   -16375   -16418   -16456   -16483   -16502   -16510   -16519 
  -16536   -16557   -16582   -16606   -16630   -16654   -16684   -16707 
  -16711   -16710   -16704   -16687   -16661   -16633   -16600   -16565 
  -16533   -16502   -16468   -16434   -16405   -16374   -16339   -16301 
  -16262   -16221   -16177   -16127   -16074   -16021   -15971   -15917 
  -15870   -15840   -15819   -15800   -15797   -15805   -15817   -15839 
  -15866   -15890   -15916   -15954   -16006   -16065   -16129   -16200 
  -16262   -16316   -16359   -16382   -16401   -16418   -16428   -16428 
  -16417   -16395   -16360   -16314   -16262   -16200   -16125   -16051 
  -15982   -15913   -15859   -15823   -15788   -15755   -15732   -15711 
  -15677   -15638   -15603   -15561   -15519   -15492   -15462   -15418 
  -15369   -15304   -15222   -15130   -15020   -14883   -14740   -14592 
  -14445   -14319   -14234   -14168   -14106   -14072   -14060   -14044 
  -14048   -14077   -14111   -14172   -14266   -14369   -14494   -14663 
  -14859   -15084   -15349   -15623   -15890   -16170   -16452   -16725 
  -16981   -17220   -17443   -17648   -17820   -17953   -18057   -18114 
  -18110   -18053   -17945   -17783   -17581   -17356   -17124   -16892 
  -16669   -16464   -16283   -16139   -16031   -15955   -15920   -15924 
  -15961   -16023   -16106   -16209   -16316   -16414   -16511   -16598 
  -16669   -16734   -16784   -16818   -16852   -16893   -16924   -16943 
  -16957   -16949   -16929   -16915   -16884   -16830   -16773   -16714 
  -16646   -16568   -16488   -16409   -16324   -16240   -16166   -16073 
  -15957   -15842   -15722   -15600   -15491   -15392   -15299   -15221 
  -15165   -15121   -15078   -15045   -15018   -14980   -14931   -14883 
  -14848   -14821   -14804   -14798   -14809   -14833   -14864   -14897 
  -14926   -14953   -14970   -14974   -14975   -14990   -15025   -15074 
  -15137   -15228   -15342   -15469   -15595   -15718   -15835   -15946 
  -16059   -16187   -16325   -16474   -16633   -16780   -16900   -16989 
  -17047   -17072   -17064   -17037   -16995   -16934   -16862   -16800 
  -16737   -16671   -16618   -16573   -16524   -16484   -16459   -16436 
  -16421   -16426   -16451   -16484   -16525   -16567   -16603   -16629 
  -16642   -16640   -16621   -16599   -16588   -16576   -16573   -16591 
  -16610   -16638   -16684   -16738   -16800   -16862   -16924   -16977 
  -17003   -17010   -17003   -16977   -16939   -16895   -16842   -16779 
  -16708   -16636   -16564   -16494   -16424   -16348   -16268   -16191 
  -16116   -16043   -15988   -15950   -15928   -15927   -15939   -15954 
  -15982   -16013   -16025   -16029   -16027   -16004   -15966   -15928 
  -15885   -15843   -15808   -15793   -15801   -15824   -15870   -15939 
  -16031   -16144   -16266   -16398   -16537   -16673   -16815   -16954 
  -17076   -17177   -17254   -17296   -17300   -17266   -17200   -17109 
  -17001   -16895   -16798   -16706   -16632   -16575   -16528   -16492 
  -16459   -16418   -16386   -16355   -16310   -16262   -16221   -16187 
  -16162   -16146   -16127   -16101   -16065   -16020   -15966   -15894 
  -15820   -15747   -15662   -15581   -15504   -15414   -15327   -15248 
  -15167   -15093   -15030   -14985   -14962   -14952   -14949   -14964 
  -14999   -15049   -15097   -15138   -15194   -15256   -15310   -15361 
  -15421   -15466   -15493   -15514   -15519   -15495   -15444   -15361 
  -15256   -15151   -15057   -14980   -14918   -14871   -14843   -14825 
  -14797   -14747   -14682   -14616   -14553   -14486   -14419   -14388 
  -14408   -14445   -14511   -14624   -14747   -14871   -15006   -15133 
  -15240   -15331   -15427   -15535   -15641   -15750   -15878   -16013 
  -16143   -16267   -16379   -16475   -16557   -16633   -16703   -16764 
  -16818   -16877   -16943   -17007   -17062   -17109   -17140   -17153 
  -17146   -17119   -17076   -17024   -16973   -16931   -16897   -16858 
  -16819   -16780   -16733   -16672   -16605   -16541   -16476   -16422 
  -16391   -16372   -16359   -16370   -16402   -16437   -16475   -16522 
  -16569   -16623   -16690   -16756   -16812   -16860   -16897   -16916 
  -16920   -16915   -16889   -16852   -16818   -16775   -16723   -16673 
  -16623   -16578   -16545   -16521   -16498   -16480   -16475   -16482 
  -16502   -16534   -16583   -16653   -16737   -16834   -16938   -17039 
  -17146   -17261   -17366   -17458   -17533   -17582   -17602   -17601 
  -17571   -17509   -17423   -17316   -17188   -17035   -16861   -16673 
  -16476   -16270   -16055   -15835   -15612   -15396   -15191   -15002 
  -14839   -14706   -14604   -14531   -14489   -14476   -14473   -14474 
  -14496   -14513   -14516   -14530   -14546   -14559   -14604   -14667 
  -14728   -14797   -14871   -14949   -15017   -15070   -15130   -15203 
  -15272   -15334   -15395   -15460   -15525   -15592   -15666   -15746 
  -15830   -15907   -15979   -16051   -16108   -16150   -16174   -16177 
  -16160   -16135   -16098   -16052   -16001   -15951   -15904   -15865 
  -15843   -15830   -15826   -15840   -15862   -15881   -15900   -15911 
  -15912   -15920   -15942   -15967   -15993   -16042   -16105   -16163 
  -16218   -16267   -16298   -16321   -16341   -16344   -16329   -16306 
  -16286   -16259   -16228   -16202   -16178   -16150   -16127   -16101 
  -16071   -16038   -16004   -15966   -15920   -15876   -15839   -15795 
  -15749   -15712   -15678   -15654   -15660   -15687   -15728   -15796 
  -15884   -15979   -16092   -16212   -16337   -16487   -16654   -16821 
  -16978   -17138   -17292   -17431   -17560   -17687   -17801   -17888 
  -17952   -18007   -18037   -18033   -18026   -18004   -17950   -17891 
  -17824   -17724   -17608   -17502   -17405   -17304   -17207   -17119 
  -17032   -16951   -16887   -16821   -16749   -16676   -16588   -16484 
  -16375   -16255   -16129   -16021   -15931   -15840   -15758   -15685 
  -15604   -15512   -15421   -15329   -15241   -15171   -15118   -15074 
  -15034   -15009   -14976   -14943   -14925   -14897   -14850   -14796 
  -14727   -14647   -14563   -14477   -14395   -14314   -14222   -14126 
  -14031   -13938   -13851   -13776   -13710   -13656   -13620   -13613 
  -13645   -13716   -13817   -13954   -14129   -14334   -14562   -14802 
  -15047   -15279   -15502   -15723   -15921   -16081   -16222   -16352 
  -16456   -16536   -16594   -16632   -16636   -16607   -16552   -16468 
  -16371   -16283   -16216   -16181   -16182   -16220   -16302   -16417 
  -16546   -16688   -16843   -17012   -17181   -17338   -17470   -17574 
  -17653   -17710   -17743   -17747   -17730   -17697   -17644   -17578 
  -17504   -17416   -17324   -17236   -17153   -17077   -17012   -16962 
  -16926   -16899   -16877   -16864   -16854   -16848   -16853   -16872 
  -16887   -16895   -16915   -16938   -16951   -16973   -17011   -17042 
  -17062   -17078   -17081   -17054   -17008   -16953   -16883   -16806 
  -16733   -16669   -16617   -16568   -16514   -16456   -16390   -16317 
  -16235   -16141   -16040   -15925   -15816   -15730   -15646   -15558 
  -15477   -15402   -15325   -15246   -15174   -15088   -15003   -14941 
  -14885   -14833   -14827   -14872   -14949   -15064   -15214   -15376 
  -15549   -15747   -15957   -16162   -16382   -16599   -16796   -16989 
  -17166   -17304   -17408   -17469   -17485   -17467   -17409   -17321 
  -17223   -17109   -16980   -16841   -16686   -16507   -16314   -16108 
  -15888   -15669   -15461   -15264   -15079   -14912   -14762   -14615 
  -14481   -14376   -14291   -14222   -14181   -14169   -14180   -14224 
  -14305   -14408   -14536   -14694   -14859   -15022   -15192   -15360 
  -15514   -15668   -15805   -15911   -16002   -16083   -16148   -16216 
  -16287   -16359   -16429   -16498   -16567   -16637   -16694   -16733 
  -16775   -16814   -16837   -16848   -16846   -16833   -16807   -16761 
  -16702   -16619   -16506   -16368   -16216   -16044   -15866   -15695 
  -15527   -15358   -15203   -15066   -14937   -14837   -14778   -14739 
  -14701   -14694   -14732   -14785   -14837   -14898   -14972   -15055 
  -15137   -15207   -15249   -15272   -15286   -15282   -15277   -15277 
  -15283   -15321   -15391   -15479   -15584   -15705   -15831   -15947 
  -16043   -16106   -16121   -16105   -16073   -16032   -16000   -15977 
  -15969   -15985   -16017   -16056   -16106   -16168   -16233   -16309 
  -16405   -16511   -16619   -16731   -16843   -16946   -17042   -17139 
  -17219   -17280   -17343   -17402   -17446   -17473   -17481   -17473 
  -17448   -17405   -17340   -17261   -17177   -17084   -16977   -16879 
  -16777   -16660   -16548   -16440   -16329   -16243   -16189   -16162 
  -16164   -16205   -16281   -16382   -16501   -16633   -16762   -16895 
  -17028   -17157   -17269   -17361   -17432   -17482   -17501   -17504 
  -17493   -17455   -17417   -17392   -17362   -17334   -17319   -17293 
  -17253   -17211   -17146   -17042   -16935   -16845   -16746   -16640 
  -16542   -16441   -16324   -16195   -16051   -15893   -15732   -15565 
  -15396   -15232   -15064   -14906   -14770   -14646   -14532   -14443 
  -14378   -14328   -14285   -14239   -14207   -14187   -14169   -14172 
  -14188   -14203   -14219   -14241   -14266   -14274   -14264   -14246 
  -14224   -14214   -14226   -14264   -14335   -14432   -14558   -14716 
  -14891   -15068   -15238   -15394   -15534   -15655   -15749   -15827 
  -15889   -15911   -15911   -15905   -15882   -15847   -15822   -15809 
  -15800   -15800   -15836   -15909   -16000   -16102   -16222   -16349 
  -16474   -16609   -16750   -16887   -17016   -17142   -17269   -17392 
  -17506   -17616   -17713   -17790   -17853   -17902   -17940   -17963 
  -17960   -17944   -17921   -17883   -17837   -17794   -17748   -17694 
  -17643   -17587   -17509   -17410   -17311   -17219   -17135   -17064 
  -17019   -16996   -16989   -16997   -17032   -17095   -17169   -17248 
  -17334   -17423   -17512   -17604   -17717   -17848   -17977   -18100 
  -18212   -18307   -18377   -18427   -18453   -18443   -18407   -18350 
  -18266   -18148   -18010   -17883   -17753   -17614   -17496   -17385 
  -17263   -17151   -17051   -16943   -16825   -16704   -16590   -16470 
  -16329   -16182   -16047   -15917   -15780   -15637   -15492   -15333 
  -15156   -14971   -14793   -14631   -14496   -14393   -14322   -14264 
  -14219   -14195   -14184   -14179   -14175   -14168   -14165   -14168 
  -14175   -14193   -14220   -14250   -14285   -14326   -14359   -14377 
  -14385   -14386   -14372   -14338   -14292   -14234   -14165   -14095 
  -14026   -13950   -13890   -13849   -13824   -13821   -13832   -13861 
  -13915   -13975   -14045   -14141   -14247   -14368   -14509   -14643 
  -14778   -14924   -15040   -15142   -15272   -15395   -15495   -15601 
  -15703   -15781   -15844   -15903   -15944   -15967   -15962   -15913 
  -15826   -15711   -15568   -15403   -15245   -15093   -14939   -14793 
  -14677   -14601   -14555   -14528   -14550   -14631   -14759   -14918 
  -15091   -15288   -15518   -15753   -15979   -16205   -16421   -16621 
  -16806   -16973   -17118   -17250   -17383   -17506   -17620   -17732 
  -17852   -17972   -18096   -18235   -18370   -18493   -18613   -18721 
  -18806   -18859   -18870   -18836   -18771   -18682   -18562   -18419 
  -18269   -18118   -17967   -17821   -17682   -17550   -17425   -17301 
  -17177   -17059   -16941   -16830   -16740   -16657   -16565   -16465 
  -16353   -16227   -16083   -15927   -15755   -15566   -15368   -15169 
  -14974   -14777   -14596   -14432   -14288   -14181   -14112   -14054 
  -14017   -14015   -14031   -14061   -14116   -14192   -14280   -14378 
  -14469   -14540   -14608   -14671   -14725   -14791   -14871   -14951 
  -15044   -15159   -15272   -15385   -15502   -15603   -15692   -15776 
  -15835   -15865   -15882   -15896   -15890   -15863   -15815   -15755 
  -15692   -15622   -15542   -15457   -15371   -15286   -15206   -15140 
  -15086   -15051   -15049   -15067   -15087   -15137   -15223   -15326 
  -15456   -15623   -15804   -15990   -16194   -16398   -16578   -16740 
  -16879   -16995   -17089   -17155   -17207   -17242   -17250   -17238 
  -17220   -17204   -17169   -17123   -17088   -17039   -16981   -16935 
  -16885   -16829   -16783   -16742   -16698   -16650   -16602   -16557 
  -16528   -16503   -16476   -16460   -16455   -16451   -16460   -16491 
  -16534   -16588   -16665   -16760   -16862   -16977   -17101   -17235 
  -17378   -17518   -17640   -17747   -17853   -17940   -17994   -18027 
  -18049   -18053   -18027   -17987   -17946   -17886   -17822   -17776 
  -17728   -17668   -17621   -17587   -17547   -17505   -17469   -17428 
  -17382   -17342   -17296   -17242   -17188   -17122   -17045   -16970 
  -16888   -16785   -16679   -16576   -16464   -16341   -16228   -16117 
  -15993   -15873   -15769   -15670   -15573   -15489   -15419   -15356 
  -15306   -15272   -15246   -15238   -15242   -15244   -15249   -15265 
  -15273   -15259   -15236   -15215   -15192   -15171   -15171   -15190 
  -15218   -15273   -15364   -15477   -15611   -15778   -15950   -16113 
  -16299   -16492   -16667   -16829   -16980   -17109   -17213   -17301 
  -17366   -17406   -17443   -17478   -17505   -17518   -17523   -17513 
  -17478   -17415   -17325   -17215   -17089   -16954   -16810   -16653 
  -16495   -16329   -16160   -16008   -15867   -15730   -15604   -15495 
  -15395   -15304   -15245   -15221   -15232   -15283   -15367   -15476 
  -15608   -15757   -15915   -16073   -16217   -16336   -16436   -16507 
  -16540   -16541   -16515   -16468   -16413   -16341   -16236   -16105 
  -15954   -15784   -15599   -15404   -15203   -15001   -14810   -14638 
  -14484   -14357   -14258   -14187   -14148   -14146   -14169   -14219 
  -14303   -14409   -14542   -14685   -14835   -14994   -15152   -15295 
  -15419   -15525   -15611   -15677   -15712   -15715   -15700   -15666 
  -15600   -15519   -15431   -15317   -15190   -15071   -14951   -14836 
  -14737   -14658   -14608   -14597   -14624   -14690   -14786   -14899 
  -15043   -15207   -15375   -15542   -15699   -15840   -15978   -16094 
  -16195   -16301   -16389   -16460   -16544   -16627   -16695   -16764 
  -16822   -16854   -16866   -16864   -16845   -16812   -16776   -16738 
  -16687   -16632   -16582   -16525   -16465   -16403   -16333   -16258 
  -16179   -16101   -16020   -15954   -15916   -15896   -15890   -15912 
  -15950   -15988   -16035   -16106   -16185   -16272   -16391   -16519 
  -16642   -16771   -16887   -16974   -17039   -17077   -17088   -17080 
  -17046   -16993   -16933   -16865   -16780   -16680   -16579   -16472 
  -16351   -16231   -16114   -15997   -15889   -15782   -15662   -15542 
  -15418   -15284   -15153   -15025   -14897   -14773   -14648   -14521 
  -14408   -14312   -14226   -14150   -14087   -14040   -14006   -13984 
  -13983   -13994   -14014   -14042   -14077   -14123   -14175   -14222 
  -14272   -14331   -14395   -14462   -14536   -14613   -14694   -14770 
  -14833   -14912   -14998   -15066   -15149   -15267   -15380   -15502 
  -15649   -15799   -15955   -16132   -16302   -16459   -16621   -16784 
  -16942   -17111   -17289   -17444   -17593   -17755   -17887   -17984 
  -18073   -18127   -18142   -18139   -18107   -18050   -17984   -17907 
  -17814   -17705   -17587   -17458   -17305   -17139   -16964   -16767 
  -16556   -16349   -16150   -15955   -15778   -15618   -15461   -15319 
  -15199   -15098   -15024   -14978   -14936   -14913   -14933   -14968 
  -15005   -15061   -15125   -15194   -15272   -15356   -15448   -15554 
  -15665   -15769   -15880   -15986   -16090   -16201   -16289   -16356 
  -16422   -16471   -16503   -16533   -16556   -16571   -16572   -16564 
  -16548   -16513   -16460   -16401   -16337   -16256   -16167   -16079 
  -15993   -15917   -15859   -15819   -15796   -15795   -15813   -15850 
  -15898   -15951   -16015   -16082   -16144   -16201   -16245   -16286 
  -16317   -16322   -16325   -16322   -16301   -16282   -16266   -16231 
  -16185   -16144   -16105   -16059   -16016   -15988   -15958   -15923 
  -15898   -15885   -15871   -15869   -15878   -15894   -15913   -15919 
  -15913   -15911   -15901   -15890   -15896   -15912   -15936   -15962 
  -15993   -16035   -16074   -16120   -16187   -16258   -16317   -16378 
  -16444   -16511   -16580   -16653   -16730   -16803   -16862   -16915 
  -16964   -17000   -17022   -17034   -17038   -17024   -17000   -16961 
  -16903   -16834   -16750   -16659   -16573   -16495   -16426   -16367 
  -16313   -16271   -16251   -16251   -16251   -16249   -16249   -16236 
  -16216   -16205   -16200   -16186   -16164   -16137   -16096   -16042 
  -15997   -15965   -15935   -15909   -15893   -15880   -15858   -15840 
  -15839   -15838   -15836   -15857   -15894   -15940   -16004   -16083 
  -16164   -16252   -16347   -16432   -16513   -16584   -16632   -16660 
  -16680   -16684   -16669   -16645   -16615   -16584   -16561   -16545 
  -16529   -16519   -16530   -16551   -16564   -16582   -16606   -16622 
  -16633   -16650   -16660   -16654   -16654   -16657   -16654   -16652 
