Origin Time       2025/01/13 21:19:00
Lat.              31.8
Long.             131.6
Depth. (km)       30
Mag.              6.9
Station Code      SMN006
Station Lat.      35.1908
Station Long.     132.4981
Station Height(m) 36
Record Time       2025/01/13 21:21:27
Sampling Freq(Hz) 100Hz
Duration Time(s)  60
Dir.              E-W
Scale Factor      7845(gal)/8223790
Max. Acc. (gal)   1.608
Last Correction   2025/01/13 21:21:28
Memo.             
[...]
     633      652      665      675      679      677      670      661 
     649      634      608      579      556      542      538      545 
     572      612      654      700      746      780      807      832 
     850      864      873      881      891      904      920      945 
     973     1003     1031     1044     1046     1043     1035     1019 
     996      962      920      880      847      830      827      828 
     824      812      792      766      739      706      673      650 
     634      627      627      621      600      584      565      542 
     529      519      507      499      496      502      515      538 
     569      608      654      702      742      772      795      812 
     834      859      877      895      913      930      943      959 
     976      985      992      999     1003     1004      997      980 
     961      942      922      899      878      858      835      814 
     793      777      764      749      733      711      684      654 
     625      594      567      540      514      495      483      473 
     475      486      506      538      577      615      648      670 
     681      687      688      680      665      650      631      608 
     589      579      573      579      587      591      592      589 
     583      581      591      616      657      699      734      758 
     772      776      773      758      730      695      661      637 
     623      618      619      623      633      649      668      688 
     702      706      697      684      681      688      700      724 
     754      787      820      847      870      891      896      889 
     878      859      839      826      816      812      807      801 
     801      799      791      778      764      756      742      720 
     704      696      696      699      699      695      679      648 
     608      568      535      513      496      486      484      488 
     503      537      587      648      712      778      839      895 
     943      982     1024     1071     1117     1163     1204     1242 
    1267     1275     1273     1262     1232     1181     1115     1046 
     978      913      853      793      737      689      652      623 
     603      581      557      534      511      494      481      472 
     465      459      452      446      448      459      476      499 
     523      548      569      587      603      623      643      661 
     677      688      688      681      672      662      656      645 
     631      623      616      606      598      602      616      631 
     648      668      687      710      733      746      751      750 
     743      742      743      747      751      751      751      753 
     765      785      799      804      804      799      780      749 
     722      702      684      665      646      627      602      572 
     542      510      481      463      450      452      467      488 
     502      506      506      503      499      502      517      538 
     567      600      635      676      718      749      769      780 
     780      768      742      711      677      639      614      607 
     619      639      665      691      711      719      719      708 
     693      672      642      614      592      577      575      591 
     621      658      702      739      765      780      787      797 
     816      835      850      862      861      847      834      823 
     818      819      818      807      787      762      737      715 
     697      689      688      683      666      650      637      621 
     610      607      602      598      602      603      596      588 
     580      565      557      556      556      557      562      569 
     575      587      615      658      710      761      808      850 
     884      907      916      922      926      930      935      938 
     936      938      935      927      920      913      903      885 
     859      828      791      751      712      669      630      598 
     583      599      634      679      729      774      808      827 
     828      819      803      783      760      738      718      697 
     683      679      680      685      688      683      668      642 
     603      557      506      456      411      375      346      332 
     328      337      360      386      417      453      480      495 
     507      518      519      519      523      527      540      564 
     594      631      673      711      743      766      780      788 
     795      797      801      803      797      793      793      792 
     789      787      788      789      789      799      811      810 
     799      783      761      739      723      706      691      685 
     687      691      697      707      714      727      746      765 
     777      783      789      800      803      801      803      801 
     801      815      828      841      855      868      876      886 
     889      884      869      849      826      804      785      778 
     778      784      795      810      816      810      792      773 
     751      727      714      714      723      742      774      810 
     834      851      861      855      847      843      832      822 
     814      810      810      812      819      828      837      838 
     831      807      770      738      715      699      693      692 
     695      699      697      700      707      716      727      737 
     747      765      789      820      861      904      945      980 
    1008     1031     1048     1059     1059     1057     1051     1046 
    1039     1024     1004      982      954      918      873      824 
     776      733      700      680      672      675      687      714 
     746      784      824      858      888      908      916      912 
     912      916      918      912      905      896      880      862 
     851      850      854      861      868      866      859      850 
     837      819      796      772      742      712      687      666 
     649      635      625      614      604      594      573      542 
     506      472      440      410      384      364      348      341 
     345      363      394      434      475      508      535      554 
     572      592      612      631      645      650      654      661 
     668      669      670      673      680      692      711      733 
     754      774      793      810      823      839      858      872 
     886      908      930      943      959      982     1007     1024 
    1034     1038     1038     1036     1032     1024     1016     1005 
     997      996     1000     1013     1035     1063     1096     1129 
    1161     1196     1231     1260     1286     1305     1317     1318 
    1302     1271     1229     1181     1129     1078     1027      972 
     913      855      800      750      704      661      625      588 
     553      519      486      454      437      430      430      432 
     429      419      409      396      379      359      340      318 
     297      280      276      280      290      310      336      360 
     379      402      433      464      491      515      540      561 
     584      615      645      677      714      749      780      810 
     834      850      857      850      835      816      797      772 
     749      726      695      670      649      626      610      598 
     583      575      576      580      588      606      634      664 
     697      738      784      831      877      920      961      994 
    1020     1046     1074     1096     1116     1132     1140     1142 
    1138     1127     1119     1115     1109     1096     1078     1059 
    1044     1035     1024     1015      999      974      949      919 
     886      857      826      795      762      724      681      633 
     588      549      522      502      480      452      422      396 
     375      359      359      373      394      418      445      476 
     519      572      626      689      753      805      847      877 
     896      907      913      913      897      872      839      796 
     753      718      687      660      633      603      576      553 
     527      498      468      433      396      364      332      305 
     290      279      270      264      256      249      252      252 
     252      257      267      275      286      294      297      305 
     314      321      336      353      368      392      426      460 
     490      521      553      581      598      608      618      623 
     618      602      579      550      519      492      467      445 
     426      409      391      379      375      376      378      379 
     378      372      369      367      369      378      394      414 
     442      476      506      534      562      589      612      633 
     649      654      653      645      626      603      584      561 
     541      526      523      535      553      577      611      645 
     670      693      707      704      692      680      662      642 
     621      600      581      564      557      561      572      587 
     606      625      639      653      675      707      746      791 
     838      886      943     1015     1092     1171     1250     1314 
    1363     1401     1425     1439     1444     1445     1443     1433 
    1421     1414     1412     1414     1414     1413     1409     1398 
    1385     1370     1345     1306     1259     1204     1143     1081 
    1015      947      881      819      764      711      661      619 
     587      562      537      515      498      481      467      452 
     436      418      403      388      372      355      337      318 
     297      276      256      238      232      230      229      228 
     226      232      248      265      283      305      325      342 
     369      400      419      432      444      456      461      467 
     480      496      511      527      545      556      569      587 
     611      642      683      735      793      855      928     1004 
    1074     1139     1200     1255     1302     1341     1377     1409 
    1444     1486     1530     1578     1625     1664     1695     1722 
    1749     1773     1795     1813     1817     1806     1784     1757 
    1728     1692     1655     1613     1566     1521     1472     1420 
    1368     1317     1263     1206     1147     1090     1036      985 
     936      892      850      815      787      760      730      702 
     672      637      607      581      557      544      538      540 
     544      549      550      550      549      545      540      534 
     523      508      491      471      450      434      417      394 
     368      336      299      263      229      195      166      135 
      97       58       24       -2      -31      -51      -63      -75 
     -90     -106     -121     -135     -147     -157     -162     -160 
    -162     -163     -163     -159     -151     -137     -117      -85 
     -45       -2       39       79      118      153      179      193 
     194      187      176      162      144      130      120      113 
     114      120      129      143      153      156      149      141 
     136      133      132      132      136      139      139      147 
     166      189      216      247      278      313      349      383 
     422      465      508      552      602      653      703      754 
     804      854      899      943      990     1034     1070     1105 
    1134     1148     1154     1150     1142     1132     1121     1098 
    1070     1048     1028     1012     1003      994      985      978 
     973      966      961      955      959      973      989     1013 
    1048     1086     1129     1175     1216     1254     1291     1321 
    1340     1352     1356     1355     1344     1327     1314     1297 
    1273     1248     1227     1202     1179     1158     1138     1120 
    1101     1082     1066     1048     1031     1012      985      947 
     904      855      807      761      718      677      641      614 
     600      588      581      589      610      635      668      704 
     742      785      827      862      896      934      969     1004 
    1035     1057     1071     1081     1078     1066     1054     1035 
    1009      981      946      908      869      830      791      753 
     718      684      652      616      579      546      515      487 
     467      448      422      391      359      318      275      236 
     199      162      130      102       75       64       64       70 
      85      112      143      184      237      299      368      441 
     517      596      683      772      864      961     1051     1128 
    1196     1259     1312     1352     1382     1405     1420     1428 
    1433     1437     1443     1451     1460     1467     1475     1489 
    1509     1530     1544     1556     1571     1583     1591     1606 
    1621     1637     1653     1661     1665     1664     1653     1636 
    1618     1594     1561     1521     1470     1408     1337     1259 
    1179     1101     1020      934      846      760      677      600 
     531      469      413      353      290      224      156       86 
      17      -44     -105     -166     -232     -305     -369     -430 
    -496     -557     -612     -675     -734     -784     -827     -859 
    -889     -915     -934     -949     -961     -969     -970     -955 
    -926     -885     -828     -756     -669     -567     -448     -321 
    -183      -40      102      244      379      508      633      747 
     861      974     1089     1200     1305     1399     1482     1548 
    1598     1633     1656     1668     1669     1661     1648     1629 
    1606     1584     1561     1537     1510     1482     1445     1406 
    1360     1309     1254     1194     1139     1090     1044     1003 
     970      945      918      892      872      851      834      819 
     804      791      777      764      758      760      760      762 
     765      762      756      747      734      720      704      684 
     660      637      611      585      558      533      503      469 
     434      399      363      330      301      278      257      237 
     216      187      151      114       81       45       16      -12 
     -43      -64      -76      -81      -76      -66      -45      -18 
       4       21       40       49       56       66       74       76 
      79       91      113      136      162      191      218      241 
     264      287      313      346      384      429      484      548 
     622      707      800      893      985     1080     1170     1254 
    1333     1416     1494     1561     1624     1688     1744     1784 
    1821     1848     1858     1861     1854     1836     1810     1768 
    1717     1660     1595     1526     1451     1375     1305     1236 
    1173     1120     1081     1055     1044     1047     1062     1089 
    1121     1147     1169     1183     1189     1186     1173     1144 
    1107     1065     1020      981      945      908      877      847 
     816      780      742      700      656      608      560      504 
     446      384      324      270      221      176      133       94 
      60       29        2      -18      -43      -66      -81      -94 
    -103      -93      -71      -48      -13       35       93      166 
     251      345      448      558      673      785      893      997 
    1097     1189     1270     1337     1391     1433     1463     1479 
    1480     1474     1458     1425     1383     1336     1279     1212 
    1138     1053      961      870      787      708      637      575 
     521      479      446      432      427      432      449      476 
     504      537      569      600      635      666      691      712 
     724      729      733      727      722      722      730      743 
     756      765      774      785      793      796      797      796 
     788      770      753      735      714      696      681      662 
     643      622      596      569      546      519      487      463 
     446      434      433      442      453      469      490      508 
     531      558      577      600      631      662      695      727 
     762      804      846      884      918      943      965      976 
     973      969      958      939      919      896      872      846 
     819      792      769      751      737      726      715      707 
     704      703      707      722      743      776      814      851 
     893      936      981     1027     1073     1124     1178     1235 
    1301     1374     1445     1514     1579     1634     1686     1728 
    1763     1791     1811     1825     1836     1837     1823     1802 
    1772     1732     1680     1625     1566     1501     1432     1360 
    1291     1225     1158     1094     1035      976      913      849 
     783      720      656      591      527      464      406      361 
     319      283      257      236      222      217      214      224 
     244      270      305      349      394      440      487      537 
     588      638      685      727      769      808      841      868 
     895      916      930      932      927      912      892      868 
     838      800      753      706      666      626      587      556 
     525      494      467      434      396      359      319      279 
     234      191      149      106       66       31        2      -24 
     -52      -86     -122     -162     -207     -251     -290     -329 
    -369     -403     -426     -441     -448     -446     -436     -418 
    -391     -357     -319     -276     -228     -174     -110      -32 
      52      140      230      322      413      499      581      657 
     724      784      837      884      924      957      988     1017 
    1038     1055     1074     1088     1100     1117     1129     1143 
    1163     1188     1212     1237     1260     1281     1304     1328 
    1347     1363     1382     1394     1399     1408     1413     1413 
    1410     1399     1374     1341     1300     1250     1196     1139 
    1086     1036      990      950      916      891      873      866 
     868      873      880      886      893      901      907      909 
     913      913      908      899      886      873      857      845 
     835      827      824      824      814      795      773      742 
     706      664      612      557      496      434      373      311 
     253      197      139       74        5      -74     -162     -253 
    -346     -440     -527     -608     -683     -746     -795     -830 
    -849     -847     -830     -800     -758     -707     -650     -591 
    -526     -448     -360     -270     -174      -74       22      120 
     220      313      398      475      548      607      656      702 
     738      765      787      812      839      866      891      915 
     942      969      992     1020     1044     1061     1080     1105 
    1132     1159     1193     1231     1269     1310     1360     1412 
    1463     1518     1572     1624     1674     1726     1776     1822 
    1865     1899     1926     1948     1956     1949     1937     1921 
