Origin Time       2025/01/13 21:19:00
Lat.              31.8
Long.             131.6
Depth. (km)       30
Mag.              6.9
Station Code      SMN014
Station Lat.      34.4668
Station Long.     131.7747
Station Height(m) 157
Record Time       2025/01/13 21:21:01
Sampling Freq(Hz) 100Hz
Duration Time(s)  60
Dir.              N-S
Scale Factor      7845(gal)/8223790
Max. Acc. (gal)   1.289
Last Correction   2025/01/13 21:21:01
Memo.             
   12626    12627    12613    12594    12582    12579    12569    12549 
   12530    12510    12486    12483    12506    12533    12559    12569 
   12548    12492    12417    12329    12241    12174    12144    12141 
   12145    12147    12151    12162    12187    12239    12297    12355 
   12421    12486    12540    12594    12648    12681    12688    12685 
   12675    12654    12634    12611    12583    12572    12592    12629 
   12672    12730    12780    12808    12816    12803    12775    12746 
   12708    12645    12576    12532    12510    12484    12463    12459 
   12461    12467    12482    12503    12538    12591    12646    12687 
   12712    12727    12726    12708    12681    12637    12564    12472 
   12393    12336    12303    12298    12309    12313    12321    12348 
   12386    12432    12491    12546    12588    12629    12661    12668 
   12653    12625    12583    12544    12526    12523    12530    12557 
   12595    12617    12609    12576    12525    12476    12455    12444 
   12432    12425    12421    12410    12384    12353    12329    12302 
   12271    12264    12280    12290    12290    12282    12282    12312 
   12374    12444    12510    12575    12617    12629    12627    12621 
   12599    12582    12576    12571    12569    12569    12546    12502 
   12456    12417    12383    12370    12401    12475    12568    12667 
   12753    12795    12785    12752    12703    12638    12568    12498 
   12430    12378    12345    12324    12312    12320    12356    12410 
   12469    12530    12586    12636    12677    12699    12692    12668 
   12634    12617    12622    12629    12634    12634    12618    12588 
   12553    12518    12488    12457    12433    12422    12410    12388 
   12372    12370    12370    12376    12391    12397    12395    12409 
   12437    12478    12540    12614    12683    12726    12737    12712 
   12654    12583    12511    12442    12386    12344    12305    12272 
   12256    12259    12290    12363    12461    12565    12671    12764 
   12820    12854    12887    12911    12933    12964    12980    12957 
   12893    12783    12622    12440    12271    12143    12070    12048 
   12066    12104    12151    12213    12283    12351    12422    12496 
   12564    12629    12685    12729    12756    12762    12746    12715 
   12677    12629    12560    12468    12356    12226    12101    11998 
   11929    11894    11886    11907    11962    12050    12167    12307 
   12455    12602    12756    12906    13035    13146    13227    13258 
   13238    13166    13046    12912    12788    12668    12548    12437 
   12334    12245    12193    12170    12158    12163    12202    12276 
   12367    12449    12534    12625    12715    12820    12930    13005 
   13061    13122    13169    13163    13108    13012    12884    12748 
   12618    12490    12360    12231    12112    12012    11944    11921 
   11940    11996    12085    12199    12330    12464    12575    12656 
   12731    12806    12864    12908    12946    12960    12939    12895 
   12830    12750    12669    12590    12511    12438    12371    12306 
   12245    12186    12129    12087    12074    12083    12113    12145 
   12166    12179    12201    12245    12313    12397    12490    12579 
   12654    12714    12752    12758    12744    12725    12692    12637 
   12573    12525    12501    12491    12478    12472    12487    12505 
   12509    12509    12505    12501    12518    12556    12596    12627 
   12645    12630    12582    12523    12465    12403    12343    12291 
   12259    12247    12252    12264    12287    12333    12405    12490 
   12576    12645    12673    12665    12633    12584    12530    12475 
   12402    12303    12210    12148    12113    12089    12066    12052 
   12082    12156    12248    12356    12484    12617    12748    12876 
   12988    13074    13139    13180    13184    13154    13103    13023 
   12910    12776    12629    12467    12307    12186    12118    12093 
   12096    12118    12148    12171    12191    12209    12220    12224 
   12240    12270    12299    12329    12364    12395    12424    12453 
   12482    12514    12561    12621    12687    12757    12829    12896 
   12954    12991    12991    12949    12869    12764    12653    12556 
   12471    12391    12337    12310    12301    12312    12341    12371 
   12397    12430    12460    12469    12465    12457    12438    12406 
   12376    12367    12382    12425    12484    12542    12594    12652 
   12717    12772    12798    12803    12793    12769    12746    12726 
   12692    12645    12591    12529    12474    12457    12495    12568 
   12653    12733    12785    12814    12826    12816    12793    12768 
   12745    12729    12722    12722    12719    12707    12685    12656 
   12619    12587    12563    12544    12540    12557    12584    12609 
   12633    12660    12677    12685    12695    12690    12673    12667 
   12675    12690    12711    12729    12733    12721    12704    12687 
   12669    12660    12657    12656    12656    12641    12596    12534 
   12460    12372    12283    12205    12136    12079    12051    12051 
   12054    12056    12079    12118    12159    12205    12255    12302 
   12348    12391    12422    12438    12447    12449    12451    12461 
   12482    12502    12502    12486    12468    12448    12422    12411 
   12430    12478    12560    12660    12741    12792    12811    12804 
   12798    12806    12823    12845    12864    12861    12818    12739 
   12649    12561    12494    12456    12433    12418    12417    12421 
   12424    12432    12464    12522    12588    12649    12698    12718 
   12711    12699    12675    12625    12560    12494    12433    12393 
   12386    12405    12433    12474    12523    12564    12584    12592 
   12583    12555    12521    12490    12469    12478    12519    12576 
   12625    12660    12679    12680    12680    12685    12692    12695 
   12679    12645    12602    12555    12503    12445    12390    12333 
   12275    12224    12185    12154    12135    12137    12166    12217 
   12307    12451    12623    12789    12927    13030    13090    13115 
   13115    13082    13018    12937    12837    12714    12591    12480 
   12363    12225    12075    11925    11803    11713    11654    11650 
   11726    11851    12008    12201    12390    12530    12626    12677 
   12681    12663    12642    12630    12622    12604    12568    12511 
   12432    12348    12291    12266    12262    12266    12258    12233 
   12222    12232    12259    12307    12378    12452    12525    12591 
   12636    12652    12645    12626    12586    12522    12448    12374 
   12305    12256    12231    12206    12181    12160    12158    12177 
   12226    12295    12351    12387    12414    12428    12430    12426 
   12410    12382    12357    12351    12359    12357    12337    12303 
   12247    12167    12086    11997    11894    11816    11784    11800 
   11863    11961    12073    12193    12322    12456    12591    12735 
   12889    13024    13140    13225    13251    13242    13220    13184 
   13142    13095    13032    12949    12850    12742    12638    12552 
   12498    12471    12469    12501    12561    12625    12672    12703 
   12729    12745    12753    12758    12742    12700    12648    12586 
   12511    12440    12390    12366    12361    12378    12397    12405 
   12411    12424    12447    12501    12579    12646    12700    12750 
   12792    12804    12783    12727    12644    12561    12506    12464 
   12434    12436    12465    12513    12592    12692    12775    12825 
   12845    12845    12837    12827    12815    12792    12781    12785 
   12775    12745    12723    12708    12684    12649    12595    12507 
   12399    12310    12248    12195    12148    12101    12042    11981 
   11938    11911    11909    11948    12019    12105    12198    12299 
   12410    12530    12668    12803    12911    12989    13036    13047 
   13026    12980    12901    12800    12702    12625    12580    12569 
   12567    12550    12540    12538    12528    12509    12483    12420 
   12318    12212    12114    12023    11950    11901    11873    11862 
   11863    11863    11870    11909    11971    12035    12104    12193 
   12299    12421    12538    12625    12679    12700    12699    12690 
   12669    12644    12627    12618    12627    12663    12692    12694 
   12671    12631    12586    12549    12530    12523    12519    12518 
   12510    12505    12518    12545    12568    12576    12556    12507 
   12442    12386    12336    12293    12266    12247    12216    12171 
   12125    12073    12004    11940    11912    11916    11956    12044 
   12168    12343    12560    12765    12937    13100    13257    13401 
   13522    13612    13651    13640    13595    13518    13404    13273 
   13153    13046    12961    12911    12885    12865    12858    12868 
   12888    12911    12937    12951    12935    12877    12792    12691 
   12575    12464    12374    12299    12247    12241    12282    12357 
   12471    12610    12738    12833    12895    12928    12950    12958 
   12924    12850    12746    12609    12453    12312    12190    12089 
   12023    11986    11955    11919    11885    11865    11880    11938 
   12028    12143    12270    12407    12553    12687    12783    12825 
   12804    12738    12649    12530    12371    12191    12010    11835 
   11689    11595    11539    11523    11551    11599    11642    11688 
   11746    11826    11931    12060    12199    12328    12449    12571 
   12683    12773    12822    12804    12729    12634    12542    12482 
   12459    12464    12494    12541    12587    12630    12663    12696 
   12745    12796    12839    12879    12889    12856    12804    12758 
   12712    12681    12681    12691    12688    12677    12657    12617 
   12575    12560    12582    12636    12721    12822    12915    13001 
   13074    13128    13170    13205    13228    13228    13219    13204 
   13174    13128    13059    12953    12818    12680    12544    12410 
   12289    12171    12052    11946    11863    11813    11811    11848 
   11919    12024    12163    12326    12496    12645    12762    12846 
   12885    12884    12845    12775    12680    12568    12459    12368 
   12293    12226    12182    12167    12191    12260    12366    12511 
   12694    12897    13108    13308    13464    13548    13552    13478 
   13347    13182    12999    12807    12623    12461    12320    12187 
   12081    12016    11996    12019    12069    12125    12178    12226 
   12268    12295    12299    12279    12237    12186    12133    12070 
   11996    11912    11824    11758    11732    11745    11793    11859 
   11923    11970    11993    11994    11990    11988    11981    11975 
   11983    11998    12029    12089    12168    12253    12340    12421 
   12492    12565    12645    12710    12758    12803    12838    12865 
   12904    12949    12982    13005    13011    12984    12950    12923 
   12896    12874    12873    12884    12889    12895    12900    12884 
   12847    12815    12780    12742    12725    12737    12777    12853 
   12955    13072    13190    13301    13392    13456    13493    13498 
   13478    13444    13397    13339    13277    13204    13111    12997 
   12873    12738    12596    12461    12349    12263    12205    12189 
   12213    12270    12348    12425    12476    12496    12488    12457 
   12398    12306    12205    12108    12039    12024    12055    12121 
   12226    12364    12502    12618    12706    12758    12783    12811 
   12856    12911    12965    13012    13030    13014    12976    12920 
   12843    12752    12641    12517    12399    12297    12214    12167 
   12162    12193    12247    12309    12363    12384    12364    12305 
   12205    12086    11985    11913    11877    11869    11862    11848 
   11842    11851    11882    11929    11996    12071    12144    12216 
   12289    12356    12420    12494    12564    12609    12631    12629 
   12595    12548    12506    12471    12428    12376    12333    12309 
   12314    12347    12379    12393    12397    12402    12403    12397 
   12393    12376    12341    12302    12282    12291    12334    12413 
   12511    12603    12681    12735    12768    12785    12783    12739 
   12646    12526    12413    12324    12267    12248    12247    12256 
   12275    12295    12321    12374    12453    12561    12714    12897 
   13076    13224    13328    13382    13390    13371    13331    13267 
   13190    13116    13045    12968    12883    12787    12695    12636 
   12627    12660    12722    12804    12892    12973    13036    13072 
   13070    13032    12968    12881    12779    12675    12586    12514 
   12459    12428    12421    12432    12451    12478    12515    12559 
   12599    12611    12580    12521    12451    12386    12340    12309 
   12291    12285    12276    12276    12290    12307    12316    12297 
   12241    12151    12039    11912    11774    11627    11473    11334 
   11236    11180    11164    11184    11234    11306    11396    11510 
   11639    11774    11915    12054    12186    12313    12428    12519 
   12582    12607    12591    12533    12449    12360    12274    12199 
   12141    12102    12100    12141    12231    12359    12505    12644 
   12762    12854    12923    12980    13022    13054    13073    13080 
   13076    13055    13011    12950    12879    12806    12741    12676 
   12600    12532    12488    12474    12491    12544    12621    12703 
   12791    12880    12962    13042    13112    13166    13205    13236 
   13262    13284    13300    13312    13327    13342    13335    13300 
   13247    13171    13074    12960    12833    12719    12630    12568 
   12530    12506    12488    12460    12409    12347    12293    12259 
   12252    12275    12314    12376    12474    12586    12692    12780 
   12833    12842    12818    12773    12712    12642    12576    12521 
   12480    12456    12436    12411    12390    12366    12326    12283 
   12247    12217    12194    12181    12166    12145    12124    12110 
   12104    12094    12081    12069    12052    12035    12019    11996 
   11979    12000    12054    12141    12274    12429    12583    12727 
   12869    12993    13084    13142    13166    13147    13085    12992 
   12880    12757    12640    12525    12402    12282    12181    12094 
   12012    11928    11838    11742    11651    11568    11500    11468 
   11470    11502    11554    11624    11716    11831    11966    12101 
   12214    12309    12397    12467    12501    12499    12464    12399 
   12325    12249    12171    12110    12082    12086    12121    12187 
   12279    12401    12560    12746    12926    13069    13176    13252 
   13296    13329    13362    13373    13362    13335    13282    13205 
   13122    13045    12981    12941    12927    12931    12946    12978 
   13023    13065    13099    13117    13116    13093    13042    12966 
   12872    12760    12644    12544    12471    12426    12407    12425 
   12472    12530    12602    12691    12787    12889    12992    13081 
   13140    13176    13180    13138    13068    12980    12865    12734 
   12621    12521    12428    12361    12320    12275    12224    12183 
   12159    12151    12160    12177    12187    12201    12214    12209 
   12195    12181    12150    12109    12066    12008    11942    11867 
   11782    11707    11650    11610    11592    11600    11642    11735 
   11869    12010    12136    12235    12307    12367    12432    12510 
   12577    12633    12679    12711    12725    12726    12707    12664 
   12617    12588    12573    12555    12518    12461    12394    12329 
   12272    12221    12170    12131    12116    12121    12132    12147 
   12168    12205    12266    12352    12452    12548    12634    12707 
   12775    12842    12899    12941    12950    12911    12834    12746 
   12653    12553    12445    12339    12248    12185    12141    12116 
   12110    12113    12112    12110    12113    12118    12135    12159 
   12186    12221    12278    12361    12468    12591    12723    12850 
   12964    13062    13149    13211    13239    13238    13217    13181 
   13131    13069    13003    12937    12861    12777    12696    12621 
   12553    12502    12465    12434    12415    12420    12449    12498 
   12546    12571    12573    12556    12525    12498    12479    12474 
   12480    12503    12537    12569    12600    12641    12690    12737 
   12781    12812    12820    12806    12768    12723    12688    12668 
   12661    12669    12683    12685    12679    12668    12650    12636 
   12633    12642    12669    12708    12752    12802    12849    12887 
   12915    12933    12955    12997    13049    13096    13138    13167 
   13170    13149    13100    13020    12911    12799    12698    12604 
   12522    12453    12386    12317    12237    12140    12037    11936 
   11847    11792    11777    11797    11858    11958    12085    12239 
   12424    12622    12807    12966    13088    13170    13235    13290 
   13332    13358    13362    13344    13327    13315    13298    13262 
   13194    13089    12949    12793    12664    12584    12553    12550 
   12560    12576    12590    12586    12560    12522    12482    12436 
   12386    12332    12267    12187    12091    11988    11888    11794 
   11708    11626    11554    11504    11481    11488    11523    11592 
   11699    11836    11977    12102    12199    12271    12318    12344 
   12351    12340    12317    12289    12270    12259    12253    12249 
   12247    12247    12251    12262    12279    12309    12359    12424 
   12502    12587    12671    12744    12799    12831    12826    12768 
   12669    12548    12415    12293    12191    12108    12039    11990 
   11961    11946    11952    11974    12004    12051    12118    12193 
   12263    12322    12368    12409    12445    12479    12507    12541 
   12587    12630    12656    12677    12712    12739    12757    12796 
   12856    12915    12978    13038    13081    13109    13126    13120 
   13089    13042    12974    12884    12789    12707    12637    12595 
   12594    12613    12650    12714    12795    12877    12958    13032 
   13096    13150    13198    13236    13275    13327    13365    13374 
   13369    13342    13289    13220    13142    13046    12941    12834 
   12729    12636    12563    12511    12484    12482    12502    12529 
   12553    12576    12600    12627    12644    12641    12626    12607 
   12594    12598    12613    12630    12654    12684    12718    12764 
   12816    12852    12865    12856    12823    12769    12692    12591 
   12478    12349    12201    12036    11878    11740    11623    11524 
   11453    11423    11442    11508    11622    11772    11929    12090 
   12255    12395    12498    12579    12637    12673    12704    12727 
   12729    12717    12698    12671    12638    12595    12525    12415 
   12274    12121    11979    11853    11754    11701    11693    11726 
   11793    11881    11981    12091    12204    12294    12357    12390 
   12380    12341    12295    12252    12226    12232    12268    12324 
   12386    12453    12526    12595    12654    12698    12721    12729 
   12727    12717    12688    12641    12587    12548    12534    12550 
