Origin Time       2025/01/13 21:19:00
Lat.              31.8
Long.             131.6
Depth. (km)       30
Mag.              6.9
Station Code      SMN008
Station Lat.      34.8521
Station Long.     132.5308
Station Height(m) 335
Record Time       2025/01/13 21:21:14
Sampling Freq(Hz) 100Hz
Duration Time(s)  60
Dir.              E-W
Scale Factor      7845(gal)/8223790
Max. Acc. (gal)   2.067
Last Correction   2025/01/13 21:21:14
Memo.             
[...]
   -1728    -1734    -1645    -1637    -1749    -1907    -2050    -2120 
   -2064    -1948    -1917    -1987    -2039    -2022    -1923    -1715 
   -1502    -1453    -1532    -1544    -1435    -1317    -1293    -1387 
   -1609    -1927    -2191    -2250    -2153    -2041    -1971    -1946 
   -1917    -1773    -1480    -1174    -1048    -1148    -1341    -1536 
   -1694    -1738    -1686    -1691    -1788    -1834    -1814    -1888 
   -2088    -2230    -2196    -2026    -1787    -1588    -1563    -1651 
   -1715    -1787    -1930    -2056    -2095    -2077    -2022    -1929 
   -1826    -1732    -1636    -1588    -1636    -1717    -1771    -1819 
   -1900    -2006    -2118    -2195    -2142    -1900    -1556    -1255 
   -1063    -1005    -1070    -1212    -1453    -1760    -1902    -1814 
   -1678    -1557    -1439    -1397    -1470    -1583    -1642    -1622 
   -1597    -1641    -1765    -1973    -2169    -2153    -1934    -1764 
   -1753    -1769    -1721    -1642    -1549    -1452    -1417    -1468 
   -1566    -1641    -1679    -1768    -1907    -1944    -1872    -1873 
   -2004    -2130    -2154    -2060    -1825    -1493    -1231    -1181 
   -1282    -1355    -1325    -1259    -1262    -1428    -1764    -2118 
   -2308    -2304    -2207    -2153    -2219    -2323    -2265    -1983 
   -1702    -1649    -1767    -1908    -2004    -1953    -1683    -1375 
   -1232    -1212    -1233    -1333    -1514    -1699    -1857    -1991 
   -2065    -2058    -2019    -1989    -1941    -1831    -1705    -1641 
   -1684    -1763    -1744    -1660    -1652    -1690    -1691    -1674 
   -1649    -1641    -1694    -1745    -1748    -1803    -1949    -2081 
   -2112    -2022    -1823    -1599    -1480    -1505    -1575    -1663 
   -1821    -1977    -1985    -1853    -1726    -1719    -1814    -1876 
   -1790    -1590    -1418    -1343    -1345    -1395    -1445    -1486 
   -1633    -1915    -2103    -2027    -1810    -1601    -1414    -1225 
   -1089    -1111    -1267    -1464    -1703    -1946    -2091    -2160 
   -2223    -2270    -2276    -2180    -1906    -1489    -1090     -880 
    -897    -1090    -1410    -1756    -1941    -1910    -1841    -1902 
   -2053    -2100    -1906    -1548    -1239    -1102    -1120    -1236 
   -1382    -1513    -1671    -1868    -1993    -2012    -2030    -2061 
   -1976    -1761    -1605    -1586    -1598    -1595    -1587    -1505 
   -1328    -1178    -1163    -1304    -1533    -1753    -1942    -2101 
   -2188    -2222    -2270    -2300    -2227    -2047    -1837    -1660 
   -1522    -1422    -1374    -1329    -1271    -1297    -1448    -1625 
   -1696    -1641    -1586    -1620    -1732    -1915    -2072    -2054 
   -1919    -1811    -1722    -1606    -1541    -1633    -1848    -2029 
   -2064    -1979    -1854    -1705    -1512    -1312    -1155    -1078 
   -1140    -1339    -1561    -1684    -1702    -1715    -1802    -1945 
   -2068    -2056    -1881    -1719    -1777    -2033    -2324    -2575 
   -2783    -2913    -2887    -2660    -2299    -1941    -1694    -1555 
   -1463    -1418    -1463    -1580    -1709    -1831    -1989    -2205 
   -2416    -2556    -2620    -2548    -2312    -2095    -2030    -1935 
   -1728    -1611    -1663    -1730    -1799    -1969    -2169    -2254 
   -2238    -2242    -2344    -2506    -2570    -2380    -1954    -1502 
   -1262    -1327    -1561    -1705    -1637    -1502    -1490    -1628 
   -1834    -2010    -2072    -2042    -2027    -2033    -1969    -1849 
   -1764    -1738    -1741    -1761    -1783    -1741    -1615    -1476 
   -1405    -1455    -1605    -1710    -1710    -1744    -1883    -2052 
   -2145    -2127    -2079    -2093    -2155    -2182    -2116    -1917 
   -1603    -1298    -1086     -958     -924    -1036    -1243    -1437 
   -1607    -1787    -1934    -1966    -1881    -1717    -1495    -1291 
   -1183    -1129    -1085    -1077    -1162    -1372    -1688    -1985 
   -2142    -2135    -2010    -1844    -1709    -1645    -1679    -1755 
   -1767    -1713    -1695    -1764    -1833    -1786    -1602    -1382 
   -1244    -1236    -1313    -1374    -1367    -1389    -1541    -1749 
   -1888    -1958    -2000    -2004    -1995    -1989    -1971    -1976 
   -2011    -1993    -1933    -1915    -1964    -2076    -2197    -2176 
   -1980    -1786    -1769    -1907    -2034    -2060    -2016    -1987 
   -2061    -2265    -2494    -2578    -2450    -2227    -2080    -2037 
   -1998    -1966    -2022    -2093    -2076    -2033    -2037    -2000 
   -1841    -1634    -1509    -1543    -1709    -1875    -1964    -2012 
   -2050    -2047    -1984    -1888    -1833    -1860    -1930    -2012 
   -2089    -2118    -2083    -2025    -1960    -1875    -1810    -1776 
   -1713    -1634    -1586    -1556    -1591    -1690    -1728    -1715 
   -1775    -1869    -1880    -1829    -1825    -1849    -1809    -1718 
   -1644    -1588    -1526    -1498    -1544    -1602    -1622    -1664 
   -1760    -1842    -1880    -1896    -1857    -1686    -1379    -1059 
    -826     -689     -693     -888    -1189    -1452    -1644    -1829 
   -1987    -2057    -2095    -2106    -1969    -1752    -1647    -1599 
   -1441    -1215    -1054    -1005    -1098    -1362    -1651    -1729 
   -1606    -1485    -1471    -1540    -1632    -1691    -1691    -1648 
   -1620    -1648    -1679    -1647    -1566    -1486    -1439    -1409 
   -1312    -1058     -706     -456     -483     -778    -1188    -1522 
   -1661    -1597    -1445    -1363    -1377    -1393    -1372    -1360 
   -1401    -1551    -1764    -1850    -1776    -1672    -1529    -1300 
   -1088    -1004    -1066    -1208    -1277    -1216    -1144    -1151 
   -1225    -1279    -1175     -938     -810     -920    -1163    -1445 
   -1759    -2022    -2104    -1992    -1803    -1628    -1458    -1302 
   -1216    -1186    -1156    -1107    -1027     -955     -959    -1036 
   -1134    -1194    -1205    -1274    -1483    -1730    -1876    -1896 
   -1803    -1633    -1466    -1379    -1368    -1343    -1239    -1121 
   -1086    -1156    -1281    -1359    -1318    -1196    -1102    -1120 
   -1317    -1642    -1873    -1883    -1803    -1759    -1701    -1595 
   -1521    -1494    -1449    -1410    -1435    -1483    -1498    -1448 
   -1341    -1283    -1312    -1323    -1305    -1379    -1576    -1795 
   -1938    -2008    -2070    -2126    -2151    -2205    -2320    -2358 
   -2181    -1867    -1580    -1417    -1409    -1561    -1819    -2052 
   -2160    -2184    -2209    -2254    -2257    -2137    -1926    -1790 
   -1830    -1981    -2123    -2160    -2081    -1965    -1915    -1939 
   -1922    -1809    -1729    -1796    -1873    -1783    -1625    -1597 
   -1678    -1729    -1741    -1753    -1744    -1767    -1890    -2039 
   -2111    -2092    -2047    -2041    -2052    -2035    -2004    -1989 
   -1965    -1884    -1771    -1699    -1672    -1667    -1705    -1779 
   -1838    -1865    -1925    -2046    -2153    -2177    -2135    -2087 
   -2073    -2065    -2039    -2037    -2050    -1992    -1865    -1791 
   -1815    -1849    -1848    -1853    -1908    -2008    -2073    -2052 
   -2043    -2143    -2269    -2323    -2319    -2282    -2254    -2269 
   -2261    -2173    -2053    -1888    -1686    -1567    -1561    -1547 
   -1514    -1580    -1710    -1779    -1830    -1971    -2149    -2243 
   -2201    -2045    -1811    -1597    -1522    -1582    -1620    -1570 
   -1556    -1672    -1806    -1831    -1763    -1653    -1543    -1462 
   -1431    -1468    -1547    -1597    -1610    -1640    -1657    -1621 
   -1586    -1576    -1489    -1302    -1169    -1155    -1154    -1070 
    -930     -789     -733     -816     -982    -1119    -1179    -1200 
   -1286    -1476    -1669    -1817    -1979    -2153    -2290    -2398 
   -2465    -2461    -2431    -2436    -2450    -2439    -2434    -2412 
   -2324    -2235    -2216    -2211    -2151    -2092    -2087    -2092 
   -2088    -2134    -2222    -2277    -2288    -2286    -2293    -2293 
   -2274    -2265    -2257    -2224    -2207    -2262    -2376    -2470 
   -2448    -2309    -2161    -2083    -2046    -1976    -1867    -1788 
   -1787    -1842    -1917    -1938    -1854    -1726    -1651    -1640 
   -1706    -1899    -2169    -2400    -2527    -2506    -2370    -2236 
   -2112    -1929    -1738    -1636    -1621    -1652    -1726    -1830 
   -1885    -1863    -1852    -1933    -2011    -1949    -1788    -1672 
   -1645    -1678    -1741    -1790    -1741    -1595    -1487    -1510 
   -1583    -1591    -1549    -1534    -1552    -1591    -1659    -1687 
   -1651    -1656    -1736    -1804    -1842    -1849    -1752    -1541 
   -1325    -1179    -1105    -1120    -1243    -1389    -1468    -1530 
   -1628    -1707    -1746    -1786    -1807    -1814    -1876    -1998 
   -2073    -2062    -2041    -2057    -2122    -2254    -2404    -2442 
   -2327    -2158    -2014    -1876    -1750    -1652    -1559    -1479 
   -1467    -1522    -1567    -1530    -1440    -1406    -1459    -1534 
   -1621    -1726    -1750    -1652    -1556    -1534    -1509    -1451 
   -1389    -1314    -1219    -1123    -1080    -1132    -1267    -1422 
   -1549    -1649    -1755    -1837    -1826    -1763    -1760    -1826 
   -1904    -1988    -2066    -2089    -2081    -2138    -2272    -2408 
   -2502    -2554    -2566    -2538    -2459    -2332    -2184    -2014 
   -1826    -1691    -1647    -1620    -1541    -1471    -1501    -1638 
   -1831    -1995    -2061    -2050    -2027    -2038    -2079    -2087 
   -2023    -1946    -1945    -2020    -2083    -2039    -1865    -1628 
   -1441    -1358    -1352    -1382    -1413    -1420    -1436    -1532 
   -1740    -1999    -2236    -2431    -2586    -2706    -2795    -2849 
   -2853    -2806    -2739    -2674    -2604    -2519    -2436    -2371 
   -2308    -2257    -2268    -2317    -2312    -2192    -1977    -1722 
   -1494    -1324    -1188    -1059     -966     -942     -994    -1094 
   -1179    -1208    -1197    -1205    -1279    -1399    -1491    -1505 
   -1436    -1296    -1129    -1021     -996    -1011    -1065    -1182 
   -1327    -1455    -1547    -1603    -1664    -1733    -1788    -1834 
   -1852    -1773    -1609    -1455    -1366    -1298    -1205    -1070 
    -876     -631     -426     -333     -319     -305     -256     -170 
     -64       20       58       58       27      -18      -78     -189 
    -364     -557     -735     -885     -967     -985    -1001    -1046 
   -1107    -1188    -1290    -1374    -1410    -1440    -1537    -1691 
   -1818    -1873    -1845    -1729    -1582    -1495    -1497    -1549 
   -1628    -1701    -1669    -1526    -1424    -1439    -1522    -1615 
   -1652    -1583    -1464    -1387    -1378    -1412    -1478    -1578 
   -1687    -1817    -2008    -2215    -2357    -2430    -2470    -2473 
   -2451    -2461    -2528    -2616    -2666    -2659    -2621    -2592 
   -2560    -2490    -2405    -2346    -2297    -2227    -2143    -2066 
   -1985    -1888    -1795    -1715    -1638    -1599    -1644    -1729 
   -1786    -1822    -1898    -2019    -2115    -2116    -2047    -1965 
   -1881    -1822    -1799    -1777    -1714    -1625    -1588    -1663 
   -1796    -1908    -1983    -2046    -2111    -2177    -2242    -2286 
   -2317    -2381    -2471    -2519    -2492    -2435    -2419    -2448 
   -2443    -2335    -2145    -1939    -1782    -1717    -1730    -1759 
   -1755    -1732    -1744    -1831    -1968    -2084    -2151    -2170 
   -2141    -2073    -1989    -1918    -1881    -1871    -1861    -1850 
   -1844    -1814    -1757    -1725    -1736    -1787    -1871    -1931 
   -1919    -1846    -1749    -1690    -1718    -1807    -1908    -2000 
   -2079    -2143    -2204    -2277    -2332    -2319    -2272    -2254 
   -2222    -2166    -2181    -2266    -2331    -2388    -2512    -2671 
   -2771    -2770    -2695    -2592    -2488    -2452    -2532    -2647 
   -2705    -2725    -2754    -2790    -2799    -2758    -2677    -2569 
   -2461    -2413    -2448    -2513    -2574    -2613    -2605    -2560 
   -2506    -2450    -2373    -2257    -2137    -2046    -1993    -1972 
   -1948    -1865    -1715    -1530    -1360    -1252    -1223    -1216 
   -1173    -1128    -1111    -1053     -916     -753     -599     -473 
    -410     -405     -426     -473     -544     -611     -668     -727 
    -792     -854     -913     -961    -1016    -1116    -1259    -1426 
   -1610    -1788    -1957    -2127    -2270    -2339    -2346    -2328 
   -2255    -2115    -1985    -1914    -1876    -1871    -1892    -1879 
   -1825    -1815    -1888    -1980    -2045    -2065    -2011    -1904 
   -1829    -1795    -1740    -1657    -1593    -1563    -1583    -1661 
   -1750    -1807    -1826    -1802    -1732    -1634    -1536    -1433 
   -1325    -1251    -1260    -1343    -1467    -1595    -1694    -1749 
   -1746    -1679    -1590    -1521    -1474    -1444    -1412    -1321 
   -1167    -1019     -909     -811     -706     -616     -585     -618 
    -699     -800     -855     -838     -776     -695     -606     -535 
    -519     -554     -618     -684     -730     -750     -766     -795 
    -818     -826     -793     -729     -711     -789     -920    -1081 
   -1278    -1463    -1582    -1690    -1823    -1918    -1946    -1969 
   -2022    -2097    -2201    -2343    -2482    -2552    -2536    -2469 
   -2366    -2238    -2116    -2047    -2050    -2081    -2123    -2215 
   -2349    -2498    -2697    -2965    -3257    -3500    -3689    -3832 
   -3902    -3901    -3856    -3748    -3555    -3318    -3060    -2795 
   -2556    -2343    -2166    -2074    -2050    -2027    -1998    -1992 
   -1980    -1950    -1979    -2076    -2124    -2114    -2141    -2184 
   -2176    -2160    -2141    -2039    -1849    -1638    -1432    -1242 
   -1121    -1093    -1093    -1047     -951     -877     -889     -984 
   -1097    -1173    -1210    -1235    -1275    -1345    -1401    -1410 
   -1401    -1374    -1333    -1339    -1401    -1487    -1579    -1641 
   -1638    -1602    -1555    -1459    -1309    -1185    -1140    -1155 
   -1202    -1264    -1302    -1283    -1227    -1161    -1088     -994 
    -930     -938     -965     -939     -900     -922    -1003    -1088 
   -1159    -1209    -1194    -1132    -1102    -1112    -1119    -1123 
   -1136    -1193    -1327    -1533    -1765    -1933    -1981    -1950 
   -1880    -1777    -1698    -1687    -1705    -1711    -1726    -1748 
   -1767    -1853    -2035    -2199    -2278    -2324    -2376    -2423 
   -2457    -2463    -2435    -2400    -2392    -2415    -2444    -2454 
   -2434    -2398    -2357    -2299    -2245    -2239    -2281    -2331 
   -2343    -2286    -2188    -2087    -1979    -1868    -1780    -1740 
   -1742    -1776    -1814    -1849    -1910    -2008    -2091    -2133 
   -2180    -2247    -2293    -2316    -2340    -2370    -2431    -2559 
   -2708    -2799    -2824    -2817    -2795    -2749    -2662    -2516 
   -2332    -2164    -2053    -1998    -1961    -1922    -1857    -1734 
   -1576    -1440    -1324    -1201    -1057     -899     -791     -770 
    -785     -810     -850     -886     -932    -1021    -1132    -1200 
   -1198    -1158    -1136    -1161    -1208    -1274    -1394    -1540 
   -1655    -1729    -1769    -1786    -1806    -1815    -1767    -1665 
   -1537    -1378    -1200    -1028     -885     -785     -722     -680 
    -665     -683     -742     -845     -939     -982     -984     -974 
    -982    -1047    -1161    -1262    -1348    -1462    -1588    -1691 
   -1784    -1873    -1944    -1988    -2002    -1969    -1903    -1846 
   -1826    -1822    -1809    -1803    -1829    -1879    -1922    -1937 
   -1957    -2034    -2116    -2122    -2039    -1927    -1854    -1823 
   -1772    -1655    -1490    -1332    -1242    -1243    -1282    -1304 
   -1309    -1310    -1310    -1314    -1324    -1341    -1395    -1497 
   -1618    -1710    -1738    -1710    -1675    -1675    -1703    -1733 
   -1750    -1763    -1795    -1848    -1902    -1946    -1962    -1957 
   -1966    -1993    -2022    -2076    -2153    -2191    -2189    -2201 
   -2230    -2247    -2236    -2193    -2138    -2092    -2057    -2037 
   -2031    -2022    -2020    -2050    -2083    -2095    -2110    -2133 
   -2151    -2180    -2214    -2239    -2251    -2253    -2254    -2261 
   -2277    -2300    -2295    -2251    -2208    -2164    -2099    -2039 
   -2006    -1969    -1911    -1845    -1767    -1669    -1578    -1529 
   -1521    -1530    -1547    -1528    -1420    -1247    -1086     -977 
    -936     -977    -1071    -1156    -1192    -1177    -1134    -1073 
    -990     -918     -905     -954    -1021    -1096    -1198    -1333 
   -1475    -1594    -1686    -1760    -1821    -1865    -1906    -1950 
   -1984    -2003    -2029    -2069    -2111    -2147    -2165    -2160 
   -2135    -2101    -2087    -2126    -2199    -2258    -2293    -2313 
   -2307    -2276    -2261    -2305    -2388    -2471    -2563    -2687 
   -2822    -2926    -2976    -2983    -2970    -2929    -2848    -2724 
   -2538    -2295    -2052    -1857    -1694    -1548    -1439    -1379 
   -1379    -1453    -1566    -1663    -1730    -1748    -1688    -1591 
   -1503    -1417    -1321    -1232    -1166    -1143    -1166    -1212 
   -1269    -1327    -1352    -1316    -1227    -1139    -1081    -1034 
    -988     -961     -951     -939     -949    -1020    -1132    -1233 
   -1336    -1458    -1580    -1678    -1744    -1784    -1813    -1827 
   -1815    -1771    -1706    -1640    -1606    -1628    -1676    -1718 
   -1749    -1777    -1802    -1825    -1854    -1890    -1912    -1895 
   -1849    -1800    -1764    -1753    -1786    -1861    -1941    -1988 
   -2018    -2045    -2049    -2027    -2010    -1993    -1961    -1935 
   -1938    -1966    -2004    -2038    -2047    -2035    -2030    -2056 
   -2108    -2166    -2200    -2189    -2150    -2130    -2168    -2230 
   -2266    -2277    -2281    -2286    -2299    -2317    -2327    -2316 
   -2292    -2258    -2211    -2139    -2069    -2046    -2081    -2124 
   -2143    -2145    -2130    -2095    -2066    -2043    -1988    -1906 
   -1836    -1800    -1802    -1802    -1769    -1718    -1671    -1622 
   -1566    -1495    -1395    -1290    -1223    -1200    -1205    -1213 
   -1204    -1194    -1221    -1290    -1363    -1414    -1447    -1443 
   -1416    -1433    -1503    -1560    -1588    -1597    -1570    -1543 
   -1560    -1587    -1564    -1509    -1468    -1448    -1429    -1404 
   -1356    -1290    -1228    -1186    -1152    -1115    -1085    -1085 
   -1128    -1198    -1260    -1302    -1354    -1406    -1429    -1426 
   -1402    -1341    -1262    -1201    -1159    -1121    -1088    -1084 
   -1109    -1135    -1138    -1146    -1178    -1204    -1205    -1196 
   -1183    -1169    -1155    -1173    -1244    -1335    -1409    -1483 
   -1582    -1701    -1829    -1956    -2052    -2104    -2161    -2251 
   -2339    -2378    -2366    -2328    -2299    -2292    -2289    -2285 
   -2311    -2359    -2407    -2459    -2524    -2597    -2694    -2795 
   -2853    -2864    -2851    -2802    -2709    -2614    -2547    -2496 
   -2442    -2376    -2300    -2243    -2193    -2131    -2079    -2031 
   -1958    -1871    -1802    -1738    -1647    -1514    -1359    -1205 
   -1074    -1000     -993    -1013    -1021    -1038    -1090    -1140 
