Origin Time       2025/01/13 21:19:00
Lat.              31.8
Long.             131.6
Depth. (km)       30
Mag.              6.9
Station Code      SMN013
Station Lat.      34.6696
Station Long.     131.8461
Station Height(m) 36
Record Time       2025/01/13 21:21:12
Sampling Freq(Hz) 100Hz
Duration Time(s)  60
Dir.              N-S
Scale Factor      7845(gal)/8223790
Max. Acc. (gal)   1.440
Last Correction   2025/01/13 21:21:12
Memo.             
    4060     4020     3981     3931     3866     3809     3759     3716 
    3690     3673     3662     3673     3703     3746     3797     3843 
    3885     3925     3962     4000     4029     4044     4058     4075 
    4091     4108     4126     4145     4163     4179     4186     4185 
    4179     4175     4170     4159     4148     4136     4116     4097 
    4087     4086     4102     4133     4166     4201     4240     4267 
    4287     4301     4306     4299     4280     4260     4247     4236 
    4226     4222     4224     4221     4220     4224     4224     4218 
    4212     4199     4183     4162     4141     4126     4109     4094 
    4082     4066     4048     4033     4024     4020     4020     4020 
    4024     4027     4025     4020     4010     4008     4016     4024 
    4041     4079     4122     4164     4195     4209     4203     4185 
    4162     4140     4124     4112     4102     4095     4089     4081 
    4078     4071     4056     4045     4050     4060     4070     4079 
    4093     4113     4145     4185     4225     4266     4298     4321 
    4334     4330     4317     4306     4299     4294     4288     4279 
    4270     4257     4248     4248     4249     4253     4257     4249 
    4239     4229     4212     4191     4163     4118     4075     4043 
    4016     3996     3985     3971     3955     3950     3964     3989 
    4023     4062     4085     4085     4078     4062     4035     4006 
    3979     3950     3925     3910     3908     3920     3939     3955 
    3970     3985     3985     3966     3937     3897     3847     3812 
    3792     3775     3767     3770     3781     3800     3829     3867 
    3904     3931     3948     3956     3952     3944     3937     3929 
    3925     3925     3932     3954     3989     4036     4087     4136 
    4191     4257     4322     4394     4465     4513     4540     4556 
    4550     4529     4504     4476     4437     4394     4360     4324 
    4275     4220     4153     4087     4035     3990     3964     3960 
    3966     3978     3993     4001     4009     4027     4047     4066 
    4075     4072     4064     4047     4017     3983     3946     3902 
    3854     3802     3761     3738     3732     3742     3755     3767 
    3785     3804     3828     3861     3889     3917     3948     3978 
    4021     4072     4116     4155     4193     4226     4259     4294 
    4328     4349     4359     4361     4353     4336     4315     4293 
    4257     4214     4167     4106     4041     3993     3964     3951 
    3952     3963     3982     4014     4047     4075     4102     4118 
    4114     4098     4077     4058     4063     4095     4147     4209 
    4278     4348     4407     4450     4483     4506     4523     4530 
    4519     4499     4472     4438     4411     4387     4359     4321 
    4272     4224     4182     4143     4112     4091     4083     4083 
    4095     4112     4126     4144     4163     4172     4164     4133 
    4081     4029     3991     3967     3960     3962     3962     3954 
    3939     3920     3901     3886     3871     3852     3839     3834 
    3839     3862     3883     3890     3890     3874     3839     3798 
    3753     3708     3680     3669     3672     3688     3713     3747 
    3790     3839     3889     3940     3996     4052     4106     4160 
    4206     4253     4317     4379     4432     4476     4504     4515 
    4517     4514     4503     4484     4457     4423     4378     4325 
    4279     4237     4205     4198     4212     4228     4234     4234 
    4225     4195     4151     4102     4052     4008     3985     3978 
    3981     4002     4043     4085     4121     4149     4162     4149 
    4117     4070     4027     4006     4008     4025     4048     4071 
    4087     4098     4113     4131     4145     4158     4164     4152 
    4117     4070     4013     3956     3919     3893     3867     3847 
    3838     3834     3842     3865     3902     3960     4016     4055 
    4082     4085     4070     4056     4043     4036     4040     4054 
    4079     4108     4128     4144     4147     4133     4117     4101 
    4085     4067     4040     3997     3948     3897     3847     3801 
    3754     3716     3701     3709     3731     3765     3809     3861 
    3909     3959     4013     4064     4114     4159     4199     4245 
    4295     4344     4403     4465     4521     4572     4615     4644 
    4653     4646     4631     4602     4560     4510     4445     4379 
    4326     4274     4222     4174     4125     4085     4060     4051 
    4051     4059     4067     4072     4081     4091     4114     4152 
    4197     4248     4297     4330     4352     4365     4365     4349 
    4313     4267     4226     4198     4182     4170     4160     4152 
    4147     4151     4158     4171     4195     4220     4233     4233 
    4230     4225     4216     4210     4217     4232     4261     4305 
    4352     4387     4401     4387     4351     4291     4220     4143 
    4066     3990     3919     3847     3777     3711     3640     3566 
    3499     3435     3391     3370     3372     3391     3427     3480 
    3539     3599     3658     3716     3761     3788     3809     3838 
    3875     3921     3969     4010     4054     4090     4114     4133 
    4145     4159     4170     4168     4163     4168     4179     4186 
    4190     4191     4183     4159     4128     4105     4101     4114 
    4137     4172     4221     4278     4344     4421     4498     4557 
    4602     4637     4650     4638     4618     4595     4558     4503 
    4422     4320     4218     4131     4040     3942     3843     3758 
    3682     3623     3574     3535     3505     3470     3430     3399 
    3375     3369     3397     3457     3547     3657     3770     3893 
    4016     4125     4218     4286     4333     4386     4442     4498 
    4557     4612     4661     4702     4723     4719     4692     4656 
    4618     4579     4545     4526     4507     4480     4456     4426 
    4396     4378     4356     4328     4294     4241     4176     4113 
    4047     3981     3931     3901     3886     3890     3909     3937 
    3971     4010     4052     4097     4144     4190     4228     4259 
    4288     4315     4342     4367     4382     4387     4378     4344 
    4286     4209     4113     4005     3902     3815     3748     3708 
    3684     3670     3661     3650     3654     3684     3736     3811 
    3897     3979     4043     4086     4117     4143     4156     4164 
    4180     4202     4222     4232     4222     4194     4151     4099 
    4054     4021     4005     3997     3982     3964     3963     3983 
    4029     4098     4179     4271     4371     4457     4525     4576 
    4606     4610     4595     4569     4549     4537     4531     4536 
    4546     4557     4556     4538     4507     4464     4407     4337 
    4267     4199     4135     4077     4031     3996     3979     3979 
    3982     3983     3975     3952     3915     3856     3790     3730 
    3677     3636     3605     3591     3600     3623     3666     3724 
    3788     3855     3913     3960     4016     4068     4113     4149 
    4179     4209     4239     4259     4268     4278     4293     4309 
    4315     4302     4275     4239     4190     4149     4124     4108 
    4106     4118     4140     4172     4206     4229     4244     4259 
    4287     4332     4378     4410     4415     4394     4363     4337 
    4332     4344     4365     4382     4391     4395     4401     4413 
    4430     4442     4442     4425     4384     4326     4252     4153 
    4045     3946     3866     3807     3761     3723     3681     3623 
    3570     3527     3485     3464     3466     3483     3516     3568 
    3616     3653     3676     3685     3681     3684     3707     3738 
    3769     3811     3863     3902     3931     3967     3998     4024 
    4051     4068     4075     4078     4077     4078     4083     4090 
    4089     4074     4047     4004     3952     3906     3866     3829 
    3802     3780     3762     3757     3767     3789     3816     3836 
    3838     3808     3754     3689     3630     3588     3576     3589 
    3613     3654     3713     3777     3852     3944     4028     4108 
    4198     4286     4357     4418     4472     4514     4552     4591 
    4629     4664     4698     4725     4733     4716     4688     4656 
    4617     4581     4553     4522     4479     4418     4351     4286 
    4220     4160     4114     4075     4039     3994     3932     3858 
    3778     3704     3646     3605     3593     3600     3618     3651 
    3696     3731     3758     3780     3788     3782     3777     3780 
    3789     3796     3807     3829     3859     3897     3939     3969 
    3991     4004     3994     3969     3944     3920     3901     3893 
    3888     3882     3879     3889     3910     3935     3956     3977 
    3998     4013     4010     3987     3950     3909     3877     3854 
    3838     3820     3807     3808     3820     3842     3889     3962 
    4037     4098     4149     4190     4213     4228     4237     4237 
    4222     4195     4158     4106     4058     4035     4039     4068 
    4112     4152     4186     4222     4256     4275     4280     4282 
    4280     4284     4301     4320     4338     4363     4387     4409 
    4428     4440     4453     4469     4483     4499     4507     4500 
    4488     4475     4464     4453     4441     4433     4419     4391 
    4356     4311     4256     4205     4159     4106     4062     4028 
    4002     3981     3959     3933     3909     3882     3851     3817 
    3780     3743     3717     3700     3693     3705     3734     3785 
    3854     3923     3994     4064     4131     4190     4233     4264 
    4287     4298     4298     4282     4253     4232     4222     4220 
    4229     4236     4234     4241     4260     4286     4317     4349 
    4376     4392     4399     4394     4375     4348     4311     4261 
    4202     4147     4109     4085     4071     4074     4085     4102 
    4128     4149     4163     4180     4190     4191     4191     4186 
    4178     4172     4170     4164     4158     4151     4141     4118 
    4097     4087     4082     4079     4087     4091     4090     4089 
    4093     4102     4116     4125     4131     4137     4139     4124 
    4087     4050     4017     3987     3963     3944     3925     3915 
    3908     3901     3900     3908     3920     3933     3960     4005 
    4058     4117     4178     4240     4309     4376     4441     4496 
    4541     4565     4567     4560     4553     4552     4554     4564 
    4571     4569     4565     4558     4545     4533     4517     4488 
    4446     4399     4351     4309     4280     4268     4268     4280 
    4305     4329     4340     4333     4299     4247     4189     4128 
    4066     4008     3950     3892     3835     3789     3766     3763 
    3771     3782     3782     3773     3747     3694     3628     3557 
    3492     3454     3443     3451     3473     3500     3527     3554 
    3589     3624     3654     3688     3724     3754     3777     3805 
    3836     3870     3910     3966     4029     4091     4151     4210 
    4280     4367     4449     4527     4599     4644     4653     4626 
    4572     4509     4448     4394     4353     4321     4295     4274 
    4243     4199     4159     4125     4097     4077     4070     4072 
    4079     4099     4135     4166     4187     4195     4182     4155 
    4129     4106     4085     4062     4037     4028     4036     4059 
    4094     4124     4141     4162     4194     4226     4247     4253 
    4247     4228     4198     4166     4133     4099     4081     4083 
    4099     4135     4190     4261     4352     4445     4529     4602 
    4660     4698     4715     4718     4719     4715     4699     4671 
    4629     4576     4527     4487     4461     4453     4455     4467 
    4482     4492     4496     4500     4510     4521     4523     4519 
    4515     4504     4477     4430     4369     4307     4257     4225 
    4206     4202     4193     4166     4136     4098     4052     4012 
    3966     3898     3808     3708     3609     3505     3396     3294 
    3186     3060     2933     2816     2712     2636     2596     2586 
    2598     2628     2677     2748     2844     2968     3115     3267 
    3415     3558     3694     3813     3913     4001     4074     4140 
    4201     4243     4266     4280     4291     4302     4311     4318 
    4315     4311     4309     4313     4329     4365     4411     4450 
    4486     4523     4563     4619     4702     4791     4865     4914 
    4939     4942     4923     4891     4853     4808     4758     4712 
    4681     4653     4621     4585     4538     4482     4409     4321 
    4234     4147     4051     3955     3861     3769     3678     3581 
    3487     3400     3327     3272     3231     3203     3176     3146 
    3126     3123     3130     3145     3173     3217     3258     3302 
    3341     3373     3402     3427     3457     3497     3541     3595 
    3658     3707     3746     3789     3835     3882     3933     3987 
    4045     4112     4186     4261     4330     4390     4442     4488 
    4530     4560     4583     4600     4614     4627     4649     4676 
    4710     4746     4776     4801     4823     4830     4815     4780 
    4733     4672     4608     4542     4465     4390     4317     4243 
    4168     4095     4013     3928     3847     3771     3704     3655 
    3630     3623     3635     3661     3694     3736     3794     3863 
    3932     3991     4043     4090     4129     4149     4148     4135 
    4117     4109     4110     4114     4109     4099     4095     4101 
    4124     4159     4201     4252     4313     4380     4448     4507 
    4560     4611     4654     4679     4672     4633     4580     4519 
    4453     4387     4322     4266     4214     4152     4078     4002 
    3925     3847     3771     3703     3647     3600     3559     3535 
    3526     3528     3541     3562     3597     3649     3712     3780 
    3844     3904     3952     3998     4048     4098     4143     4178 
    4212     4248     4283     4317     4349     4372     4395     4419 
    4441     4475     4521     4571     4629     4695     4758     4810 
    4864     4923     4978     5027     5058     5067     5063     5044 
    5008     4958     4887     4801     4712     4618     4525     4434 
    4341     4256     4182     4121     4072     4025     3985     3951 
    3920     3893     3873     3861     3856     3861     3873     3896 
    3913     3923     3928     3920     3897     3866     3817     3748 
    3667     3574     3473     3368     3268     3168     3072     2997 
    2959     2951     2965     3009     3080     3168     3269     3375 
    3472     3557     3642     3727     3815     3913     4024     4133 
    4236     4334     4423     4494     4544     4573     4580     4573 
    4561     4552     4550     4546     4536     4527     4517     4495 
    4469     4444     4414     4387     4361     4338     4322     4314 
    4310     4322     4353     4391     4437     4487     4536     4585 
    4637     4688     4733     4760     4776     4785     4774     4746 
    4704     4642     4569     4488     4396     4297     4185     4066 
    3936     3788     3635     3492     3364     3254     3165     3094 
    3042     3009     2984     2975     2988     3011     3028     3041 
    3052     3060     3075     3109     3167     3248     3350     3472 
    3613     3770     3931     4082     4221     4347     4465     4583 
    4684     4760     4816     4860     4889     4899     4882     4851 
    4807     4754     4699     4644     4581     4514     4446     4383 
    4329     4288     4249     4209     4172     4143     4122     4104 
    4083     4052     3998     3932     3859     3784     3717     3655 
    3601     3564     3546     3555     3589     3638     3692     3750 
    3816     3886     3950     4005     4058     4109     4153     4202 
    4260     4321     4375     4410     4421     4413     4379     4322 
    4253     4175     4091     4017     3952     3893     3838     3785 
    3738     3709     3697     3692     3696     3715     3735     3751 
    3778     3824     3894     3982     4083     4191     4294     4387 
    4469     4534     4591     4642     4691     4734     4769     4789 
    4792     4787     4774     4750     4712     4662     4602     4530 
    4448     4357     4263     4171     4083     4000     3921     3855 
    3790     3719     3650     3592     3542     3514     3510     3520 
    3542     3578     3620     3663     3713     3766     3816     3870 
    3929     3987     4047     4106     4160     4205     4240     4276 
    4315     4351     4378     4395     4402     4396     4380     4342 
    4278     4193     4093     3982     3874     3774     3676     3578 
    3491     3411     3338     3284     3252     3237     3244     3272 
    3318     3376     3442     3505     3562     3613     3659     3696 
    3721     3744     3761     3769     3780     3792     3802     3820 
    3847     3885     3929     3982     4039     4090     4143     4202 
    4251     4290     4318     4321     4311     4283     4234     4183 
    4133     4089     4054     4021     3996     3974     3954     3936 
    3924     3924     3944     3983     4037     4091     4143     4193 
    4232     4264     4291     4302     4307     4315     4324     4333 
    4351     4365     4388     4423     4459     4496     4541     4581 
    4606     4618     4623     4625     4631     4642     4654     4666 
    4671     4668     4666     4669     4672     4669     4657     4638 
    4608     4563     4514     4471     4428     4390     4353     4310 
    4261     4201     4140     4093     4058     4037     4035     4039 
    4050     4070     4102     4153     4216     4278     4349     4425 
    4502     4584     4665     4739     4807     4854     4877     4874 
    4843     4783     4703     4627     4550     4467     4383     4288 
    4186     4097     4018     3948     3889     3823     3751     3686 
    3615     3550     3499     3445     3391     3343     3299     3260 
    3227     3199     3175     3161     3159     3163     3168     3173 
    3198     3245     3302     3380     3469     3550     3630     3711 
    3790     3870     3947     4028     4101     4170     4252     4337 
    4414     4487     4542     4573     4584     4576     4542     4491 
    4437     4376     4311     4248     4194     4153     4125     4105 
    4087     4071     4055     4036     4016     4001     3991     3991 
    3996     3991     3985     3983     3985     3989     4006     4036 
    4063     4091     4124     4153     4174     4189     4210     4236 
    4259     4280     4301     4314     4326     4336     4338     4342 
    4347     4344     4332     4318     4306     4298     4294     4291 
    4286     4288     4302     4320     4337     4342     4325     4299 
    4275     4255     4239     4214     4174     4124     4070     4010 
    3955     3905     3855     3800     3747     3699     3653     3612 
    3569     3522     3476     3430     3388     3362     3341     3321 
    3310     3303     3292     3285     3292     3312     3346     3402 
