Origin Time       2025/01/13 21:19:00
Lat.              31.8
Long.             131.6
Depth. (km)       30
Mag.              6.9
Station Code      SMN008
Station Lat.      34.8521
Station Long.     132.5308
Station Height(m) 335
Record Time       2025/01/13 21:21:14
Sampling Freq(Hz) 100Hz
Duration Time(s)  60
Dir.              N-S
Scale Factor      7845(gal)/8223790
Max. Acc. (gal)   1.389
Last Correction   2025/01/13 21:21:14
Memo.             
[...]
   -4492    -4328    -4440    -4630    -4773    -4903    -4958    -4853 
   -4742    -4783    -4919    -5123    -5359    -5404    -5162    -4866 
   -4727    -4727    -4806    -4958    -5138    -5233    -5233    -5224 
   -5208    -5100    -4912    -4753    -4675    -4673    -4738    -4762 
   -4657    -4558    -4654    -4927    -5233    -5433    -5441    -5325 
   -5233    -5175    -5097    -5094    -5262    -5452    -5458    -5290 
   -5057    -4816    -4666    -4702    -4864    -4999    -5036    -5042 
   -5062    -5070    -5034    -4935    -4772    -4641    -4658    -4780 
   -4932    -5161    -5416    -5517    -5444    -5332    -5228    -5085 
   -4924    -4830    -4837    -4872    -4846    -4749    -4599    -4449 
   -4418    -4518    -4642    -4788    -5001    -5171    -5151    -5039 
   -4988    -4936    -4824    -4770    -4819    -4868    -4891    -4915 
   -4920    -4932    -5015    -5121    -5128    -4962    -4677    -4407 
   -4248    -4225    -4356    -4590    -4797    -4904    -4911    -4854 
   -4815    -4854    -4923    -4996    -5136    -5297    -5310    -5124 
   -4850    -4669    -4706    -4962    -5293    -5470    -5343    -4954 
   -4530    -4347    -4434    -4588    -4710    -4811    -4801    -4656 
   -4540    -4576    -4772    -5088    -5343    -5340    -5125    -4888 
   -4752    -4723    -4722    -4675    -4637    -4661    -4731    -4931 
   -5289    -5571    -5599    -5455    -5197    -4858    -4641    -4683 
   -4838    -4893    -4797    -4672    -4592    -4492    -4386    -4437 
   -4672    -4914    -5061    -5154    -5244    -5378    -5537    -5628 
   -5640    -5641    -5605    -5409    -5000    -4546    -4303    -4306 
   -4419    -4581    -4745    -4823    -4835    -4849    -4807    -4679 
   -4622    -4770    -5009    -5134    -5101    -5009    -4920    -4854 
   -4854    -4908    -4985    -5146    -5387    -5485    -5282    -4978 
   -4831    -4804    -4766    -4691    -4572    -4450    -4456    -4591 
   -4725    -4807    -4853    -4881    -4953    -5050    -5082    -5107 
   -5219    -5316    -5233    -4893    -4383    -4021    -4009    -4160 
   -4256    -4376    -4638    -4982    -5340    -5667    -5821    -5705 
   -5459    -5260    -5107    -4915    -4699    -4519    -4398    -4342 
   -4379    -4506    -4692    -4866    -4945    -4922    -4851    -4762 
   -4730    -4857    -5115    -5341    -5383    -5188    -4820    -4418 
   -4183    -4320    -4693    -4907    -4846    -4716    -4603    -4514 
   -4511    -4527    -4465    -4465    -4610    -4702    -4684    -4810 
   -5136    -5360    -5312    -5166    -5069    -4996    -4962    -5027 
   -5170    -5324    -5433    -5458    -5366    -5193    -5080    -5132 
   -5204    -5081    -4804    -4563    -4411    -4341    -4446    -4752 
   -5073    -5238    -5281    -5320    -5362    -5363    -5335    -5302 
   -5269    -5258    -5285    -5312    -5277    -5154    -5012    -4949 
   -4904    -4766    -4576    -4455    -4492    -4703    -4981    -5186 
   -5260    -5242    -5217    -5221    -5193    -5071    -4901    -4758 
   -4677    -4700    -4866    -5096    -5297    -5466    -5528    -5373 
   -5071    -4769    -4518    -4356    -4294    -4338    -4482    -4604 
   -4618    -4618    -4669    -4715    -4735    -4814    -5020    -5260 
   -5367    -5304    -5127    -4962    -4941    -5013    -5042    -4986 
   -4878    -4756    -4661    -4641    -4703    -4791    -4812    -4796 
   -4851    -4950    -4959    -4853    -4722    -4718    -4955    -5331 
   -5549    -5470    -5256    -5100    -4985    -4843    -4689    -4511 
   -4279    -4093    -4104    -4283    -4461    -4588    -4766    -4990 
   -5140    -5198    -5173    -4996    -4700    -4484    -4523    -4812 
   -5143    -5283    -5208    -5078    -5007    -4958    -4853    -4664 
   -4500    -4560    -4846    -5100    -5132    -5013    -4869    -4731 
   -4645    -4650    -4685    -4696    -4745    -4847    -4900    -4847 
   -4773    -4747    -4739    -4698    -4596    -4480    -4507    -4760 
   -5077    -5271    -5341    -5366    -5347    -5244    -5085    -4942 
   -4849    -4770    -4731    -4789    -4903    -5046    -5302    -5593 
   -5703    -5649    -5575    -5487    -5422    -5468    -5518    -5394 
   -5127    -4874    -4746    -4801    -5000    -5178    -5221    -5189 
   -5243    -5417    -5541    -5503    -5377    -5252    -5165    -5159 
   -5265    -5406    -5449    -5329    -5124    -5013    -5128    -5402 
   -5605    -5552    -5243    -4846    -4576    -4525    -4633    -4795 
   -4934    -5049    -5155    -5178    -5055    -4862    -4698    -4607 
   -4626    -4761    -4924    -4989    -4918    -4729    -4491    -4406 
   -4580    -4853    -5026    -4999    -4780    -4568    -4548    -4634 
   -4688    -4781    -4953    -5038    -4953    -4800    -4671    -4581 
   -4531    -4498    -4468    -4461    -4483    -4457    -4357    -4268 
   -4221    -4152    -4089    -4137    -4286    -4419    -4545    -4703 
   -4776    -4706    -4646    -4726    -4874    -4954    -4923    -4839 
   -4747    -4649    -4533    -4437    -4460    -4583    -4631    -4614 
   -4735    -4988    -5140    -5085    -4889    -4671    -4602    -4753 
   -4947    -5011    -4931    -4761    -4614    -4631    -4808    -5028 
   -5232    -5400    -5460    -5335    -5117    -5012    -5049    -5162 
   -5363    -5528    -5413    -5093    -4885    -4876    -4963    -5158 
   -5400    -5464    -5313    -5159    -5134    -5185    -5252    -5363 
   -5471    -5425    -5224    -5027    -4931    -4916    -4943    -4978 
   -4981    -4938    -4941    -5031    -5070    -4965    -4841    -4769 
   -4725    -4777    -4938    -5019    -4935    -4837    -4837    -4884 
   -4877    -4769    -4619    -4580    -4714    -4919    -5055    -5058 
   -4924    -4691    -4498    -4491    -4622    -4720    -4764    -4882 
   -5127    -5386    -5522    -5486    -5287    -5022    -4820    -4766 
   -4853    -4972    -5023    -5030    -5057    -5096    -5130    -5154 
   -5142    -5130    -5186    -5265    -5258    -5142    -4918    -4646 
   -4536    -4720    -5066    -5352    -5508    -5568    -5570    -5495 
   -5352    -5211    -5082    -4939    -4919    -5112    -5289    -5256 
   -5123    -5034    -5019    -5043    -5050    -5008    -4955    -4932 
   -4951    -4977    -4978    -5012    -5084    -5067    -4927    -4750 
   -4590    -4475    -4463    -4581    -4780    -4941    -5008    -5015 
   -4946    -4792    -4594    -4379    -4247    -4342    -4642    -5001 
   -5304    -5440    -5382    -5190    -4927    -4734    -4696    -4662 
   -4633    -4738    -4784    -4561    -4270    -4180    -4306    -4499 
   -4625    -4638    -4569    -4469    -4364    -4293    -4326    -4433 
   -4472    -4459    -4531    -4630    -4634    -4584    -4533    -4515 
   -4560    -4602    -4652    -4780    -4857    -4777    -4695    -4700 
   -4704    -4723    -4804    -4858    -4842    -4830    -4855    -4934 
   -5090    -5232    -5236    -5131    -5026    -4941    -4868    -4885 
   -5035    -5186    -5254    -5308    -5308    -5138    -4892    -4768 
   -4828    -5015    -5232    -5445    -5609    -5611    -5476    -5354 
   -5202    -4962    -4843    -4961    -5103    -5136    -5105    -5019 
   -4914    -4908    -5003    -5066    -5031    -4938    -4877    -4950 
   -5174    -5400    -5429    -5233    -4966    -4752    -4617    -4612 
   -4704    -4757    -4753    -4760    -4738    -4635    -4500    -4396 
   -4390    -4475    -4531    -4556    -4704    -4974    -5157    -5139 
   -5015    -4850    -4629    -4452    -4499    -4742    -4969    -5017 
   -4876    -4676    -4542    -4490    -4463    -4440    -4455    -4503 
   -4537    -4607    -4781    -4924    -4920    -4893    -4942    -4966 
   -4908    -4842    -4828    -4843    -4866    -4945    -5107    -5255 
   -5274    -5139    -4893    -4661    -4623    -4803    -5042    -5185 
   -5201    -5154    -5080    -5022    -5065    -5190    -5313    -5378 
   -5323    -5208    -5200    -5293    -5352    -5370    -5374    -5298 
   -5119    -4907    -4723    -4608    -4642    -4826    -4970    -4926 
   -4804    -4737    -4680    -4604    -4567    -4598    -4693    -4828 
   -5001    -5189    -5267    -5186    -5088    -5057    -5053    -5050 
   -5026    -4961    -4923    -4969    -5050    -5112    -5154    -5161 
   -5112    -4985    -4795    -4629    -4561    -4615    -4770    -4901 
   -4896    -4838    -4834    -4812    -4704    -4567    -4533    -4695 
   -4963    -5189    -5293    -5227    -5011    -4722    -4457    -4334 
   -4392    -4573    -4774    -4857    -4757    -4580    -4468    -4492 
   -4637    -4808    -4928    -4988    -4976    -4893    -4804    -4722 
   -4626    -4610    -4688    -4749    -4741    -4614    -4387    -4313 
   -4523    -4814    -4982    -5004    -4851    -4579    -4372    -4321 
   -4391    -4542    -4730    -4903    -4995    -4961    -4899    -4958 
   -5135    -5266    -5294    -5329    -5379    -5351    -5305    -5340 
   -5413    -5485    -5575    -5598    -5476    -5316    -5182    -5001 
   -4828    -4834    -5031    -5309    -5609    -5853    -5911    -5752 
   -5470    -5170    -4999    -5078    -5340    -5559    -5593    -5501 
   -5427    -5366    -5247    -5146    -5105    -5047    -4962    -4842 
   -4639    -4490    -4522    -4575    -4492    -4395    -4392    -4418 
   -4468    -4629    -4884    -5123    -5275    -5301    -5192    -5035 
   -4924    -4819    -4684    -4587    -4590    -4688    -4795    -4810 
   -4791    -4861    -4950    -4957    -4916    -4846    -4756    -4707 
   -4702    -4720    -4792    -4907    -5039    -5200    -5371    -5501 
   -5535    -5497    -5510    -5564    -5486    -5271    -5120    -5111 
   -5171    -5270    -5379    -5414    -5296    -5051    -4811    -4665 
   -4615    -4648    -4718    -4743    -4708    -4662    -4610    -4514 
   -4432    -4448    -4549    -4635    -4653    -4668    -4730    -4776 
   -4766    -4757    -4792    -4872    -4963    -5023    -5063    -5117 
   -5182    -5239    -5221    -5100    -5001    -5034    -5121    -5158 
   -5136    -5089    -5063    -5082    -5105    -5066    -4953    -4834 
   -4769    -4754    -4749    -4689    -4534    -4324    -4163    -4102 
   -4121    -4166    -4197    -4226    -4293    -4418    -4576    -4708 
   -4772    -4737    -4622    -4515    -4469    -4446    -4414    -4379 
   -4372    -4409    -4418    -4342    -4259    -4270    -4409    -4637 
   -4860    -5019    -5109    -5115    -5034    -4928    -4841    -4801 
   -4861    -4974    -5042    -5085    -5182    -5292    -5310    -5212 
   -5044    -4861    -4707    -4629    -4639    -4649    -4553    -4432 
   -4441    -4610    -4891    -5211    -5456    -5575    -5628    -5680 
   -5732    -5778    -5864    -5971    -5985    -5873    -5717    -5593 
   -5525    -5522    -5582    -5645    -5630    -5509    -5350    -5258 
   -5235    -5227    -5243    -5262    -5235    -5212    -5269    -5358 
   -5437    -5553    -5682    -5710    -5597    -5408    -5238    -5134 
   -5069    -5016    -4957    -4828    -4626    -4475    -4425    -4403 
   -4375    -4367    -4364    -4349    -4345    -4360    -4396    -4503 
   -4673    -4820    -4892    -4888    -4854    -4853    -4919    -5036 
   -5130    -5119    -5011    -4864    -4693    -4523    -4411    -4374 
   -4355    -4348    -4432    -4606    -4764    -4839    -4862    -4908 
   -5001    -5065    -5050    -5017    -4999    -4942    -4865    -4824 
   -4828    -4893    -5020    -5112    -5111    -5061    -5005    -5009 
   -5154    -5386    -5547    -5535    -5332    -5007    -4742    -4688 
   -4804    -4980    -5151    -5239    -5162    -4936    -4689    -4572 
   -4638    -4816    -5003    -5135    -5211    -5242    -5248    -5256 
   -5283    -5319    -5348    -5362    -5327    -5240    -5189    -5217 
   -5269    -5298    -5293    -5223    -5115    -5063    -5120    -5259 
   -5401    -5449    -5371    -5219    -5053    -4918    -4853    -4889 
   -5031    -5213    -5343    -5408    -5433    -5421    -5366    -5274 
   -5112    -4830    -4464    -4133    -3942    -3925    -4018    -4074 
   -4031    -3986    -3994    -3998    -3969    -3919    -3846    -3786 
   -3777    -3789    -3809    -3861    -3912    -3913    -3929    -4039 
   -4143    -4151    -4172    -4286    -4382    -4380    -4342    -4345 
   -4382    -4402    -4392    -4382    -4368    -4361    -4421    -4506 
   -4542    -4602    -4749    -4899    -4982    -5034    -5057    -4976 
   -4784    -4598    -4504    -4525    -4641    -4757    -4780    -4750 
   -4750    -4773    -4741    -4637    -4546    -4536    -4572    -4598 
   -4599    -4608    -4662    -4739    -4762    -4743    -4792    -4927 
   -5039    -5074    -5042    -4957    -4888    -4895    -4946    -5011 
   -5074    -5094    -5066    -5051    -5044    -4999    -4930    -4877 
   -4869    -4924    -5011    -5084    -5155    -5224    -5270    -5308 
   -5352    -5375    -5355    -5314    -5242    -5096    -4935    -4842 
   -4784    -4718    -4696    -4734    -4769    -4816    -4908    -4974 
   -4949    -4878    -4828    -4827    -4896    -5004    -5086    -5135 
   -5182    -5265    -5401    -5548    -5637    -5629    -5553    -5476 
   -5417    -5340    -5256    -5202    -5158    -5107    -5054    -4990 
   -4930    -4927    -4988    -5058    -5103    -5109    -5081    -5063 
   -5078    -5117    -5201    -5305    -5379    -5464    -5602    -5722 
   -5767    -5765    -5730    -5626    -5467    -5333    -5263    -5215 
   -5177    -5177    -5200    -5197    -5152    -5086    -5039    -5078 
   -5255    -5518    -5778    -6018    -6243    -6372    -6316    -6116 
   -5904    -5790    -5783    -5814    -5833    -5796    -5663    -5478 
   -5324    -5221    -5127    -5000    -4846    -4691    -4548    -4469 
   -4465    -4441    -4371    -4344    -4380    -4399    -4398    -4437 
   -4492    -4502    -4491    -4548    -4676    -4804    -4877    -4864 
   -4745    -4564    -4418    -4348    -4309    -4247    -4168    -4101 
   -4002    -3852    -3744    -3744    -3834    -3966    -4064    -4077 
   -4043    -4008    -3975    -3939    -3894    -3832    -3763    -3705 
   -3659    -3649    -3736    -3923    -4095    -4191    -4252    -4276 
   -4247    -4229    -4279    -4365    -4445    -4504    -4549    -4630 
   -4800    -5043    -5271    -5371    -5313    -5189    -5070    -4951 
   -4873    -4882    -4946    -5028    -5098    -5094    -5008    -4942 
   -4986    -5104    -5215    -5285    -5310    -5314    -5344    -5404 
   -5463    -5535    -5644    -5728    -5701    -5609    -5548    -5545 
   -5572    -5587    -5583    -5559    -5509    -5463    -5470    -5509 
   -5556    -5655    -5787    -5817    -5702    -5529    -5382    -5301 
   -5310    -5397    -5503    -5562    -5548    -5448    -5260    -5061 
   -4954    -4941    -4918    -4831    -4752    -4733    -4741    -4769 
   -4822    -4864    -4907    -4968    -4995    -5009    -5116    -5258 
   -5278    -5215    -5179    -5135    -5007    -4843    -4710    -4631 
   -4611    -4598    -4518    -4391    -4272    -4189    -4171    -4230 
   -4329    -4425    -4495    -4521    -4525    -4553    -4607    -4661 
   -4722    -4811    -4909    -5007    -5100    -5171    -5219    -5266 
   -5309    -5301    -5223    -5116    -5058    -5080    -5115    -5100 
   -5093    -5144    -5189    -5189    -5192    -5197    -5173    -5132 
   -5077    -4988    -4895    -4826    -4743    -4633    -4553    -4534 
   -4530    -4494    -4433    -4392    -4387    -4415    -4440    -4378 
   -4240    -4145    -4147    -4209    -4287    -4344    -4398    -4509 
   -4646    -4737    -4819    -4950    -5076    -5139    -5148    -5131 
   -5113    -5120    -5138    -5142    -5119    -5066    -5022    -5005 
   -4973    -4941    -4958    -5013    -5094    -5184    -5220    -5215 
   -5263    -5375    -5475    -5526    -5536    -5535    -5539    -5502 
   -5401    -5271    -5161    -5103    -5063    -4959    -4806    -4707 
   -4649    -4546    -4423    -4345    -4333    -4372    -4386    -4314 
   -4237    -4248    -4325    -4399    -4446    -4476    -4521    -4576 
   -4606    -4590    -4550    -4513    -4480    -4452    -4429    -4378 
   -4295    -4228    -4178    -4120    -4068    -4059    -4121    -4259 
   -4425    -4558    -4668    -4791    -4911    -5024    -5185    -5368 
   -5503    -5583    -5628    -5655    -5729    -5859    -5953    -5977 
   -5967    -5935    -5896    -5873    -5865    -5876    -5917    -5954 
   -5953    -5915    -5840    -5728    -5634    -5605    -5625    -5667 
   -5724    -5767    -5769    -5761    -5776    -5756    -5644    -5516 
   -5458    -5448    -5427    -5356    -5246    -5146    -5082    -5047 
   -5044    -5065    -5050    -4961    -4804    -4635    -4510    -4428 
   -4368    -4333    -4314    -4301    -4309    -4306    -4241    -4137 
   -4060    -4051    -4094    -4135    -4171    -4244    -4333    -4401 
   -4410    -4340    -4251    -4245    -4306    -4361    -4414    -4461 
   -4461    -4430    -4405    -4369    -4321    -4295    -4318    -4382 
   -4472    -4585    -4723    -4851    -4922    -4938    -4970    -5053 
   -5134    -5170    -5194    -5239    -5278    -5274    -5216    -5100 
   -4927    -4743    -4619    -4606    -4687    -4779    -4833    -4869 
   -4919    -4986    -5057    -5111    -5138    -5159    -5212    -5293 
   -5366    -5414    -5479    -5602    -5738    -5813    -5819    -5807 
   -5826    -5877    -5906    -5875    -5805    -5703    -5568    -5440 
   -5327    -5211    -5103    -5011    -4945    -4915    -4900    -4897 
   -4914    -4931    -4934    -4932    -4914    -4873    -4860    -4887 
   -4927    -4972    -5007    -5022    -5043    -5084    -5107    -5116 
   -5152    -5198    -5228    -5251    -5254    -5243    -5239    -5225 
   -5190    -5150    -5090    -4977    -4811    -4671    -4650    -4726 
   -4819    -4920    -5015    -5035    -4953    -4819    -4699    -4608 
   -4552    -4527    -4510    -4464    -4387    -4303    -4252    -4245 
   -4276    -4325    -4363    -4361    -4328    -4290    -4274    -4283 
   -4297    -4299    -4290    -4271    -4263    -4303    -4383    -4457 
   -4533    -4656    -4777    -4807    -4745    -4656    -4568    -4486 
   -4433    -4413    -4391    -4359    -4321    -4271    -4230    -4230 
   -4243    -4202    -4131    -4086    -4062    -4033    -4009    -4028 
   -4125    -4298    -4504    -4680    -4788    -4850    -4916    -5005 
   -5123    -5274    -5401    -5451    -5460    -5490    -5548    -5605 
   -5630    -5632    -5620    -5570    -5497    -5463    -5451    -5400 
   -5313    -5239    -5185    -5124    -5039    -4930    -4822    -4761 
   -4762    -4806    -4891    -5008    -5121    -5225    -5323    -5377 
   -5377    -5381    -5421    -5470    -5490    -5475    -5444    -5421 
   -5409    -5390    -5358    -5316    -5251    -5155    -5063    -4990 
   -4920    -4838    -4725    -4573    -4440    -4391    -4403    -4415 
   -4436    -4484    -4548    -4623    -4687    -4725    -4774    -4868 
   -5008    -5185    -5336    -5422    -5474    -5506    -5512    -5490 
   -5445    -5374    -5296    -5259    -5304    -5410    -5528    -5629 
   -5732    -5823    -5852    -5811    -5752    -5718    -5722    -5768 
   -5821    -5821    -5764    -5690    -5614    -5521    -5405    -5275 
   -5138    -4990    -4838    -4700    -4612    -4575    -4540    -4486 
   -4417    -4349    -4307    -4314    -4380    -4496    -4626    -4720 
