Origin Time       2025/01/13 21:19:00
Lat.              31.8
Long.             131.6
Depth. (km)       30
Mag.              6.9
Station Code      SMN006
Station Lat.      35.1908
Station Long.     132.4981
Station Height(m) 36
Record Time       2025/01/13 21:21:27
Sampling Freq(Hz) 100Hz
Duration Time(s)  60
Dir.              U-D
Scale Factor      7845(gal)/8223790
Max. Acc. (gal)   0.824
Last Correction   2025/01/13 21:21:28
Memo.             
[...]
    2631     2640     2654     2667     2678     2685     2687     2685 
    2679     2675     2675     2675     2674     2666     2652     2631 
    2605     2585     2570     2552     2538     2529     2524     2520 
    2523     2531     2531     2517     2500     2484     2466     2450 
    2439     2431     2427     2425     2427     2432     2442     2452 
    2463     2470     2477     2485     2492     2500     2508     2515 
    2525     2536     2542     2542     2542     2540     2539     2538 
    2529     2516     2508     2502     2500     2500     2500     2498 
    2494     2486     2474     2462     2458     2457     2451     2452 
    2459     2465     2474     2488     2502     2517     2524     2525 
    2521     2512     2508     2506     2502     2505     2512     2509 
    2504     2500     2494     2492     2494     2494     2493     2490 
    2479     2466     2458     2446     2425     2404     2388     2376 
    2363     2355     2350     2349     2353     2357     2367     2386 
    2404     2424     2447     2461     2471     2488     2504     2515 
    2527     2539     2550     2558     2555     2547     2539     2533 
    2536     2546     2554     2559     2565     2571     2574     2573 
    2570     2566     2559     2552     2544     2535     2528     2525 
    2527     2525     2520     2515     2509     2501     2485     2463 
    2440     2424     2415     2411     2407     2398     2389     2380 
    2367     2353     2336     2327     2322     2319     2319     2326 
    2342     2365     2385     2404     2420     2434     2440     2448 
    2454     2452     2451     2452     2451     2452     2458     2461 
    2458     2451     2444     2438     2430     2425     2424     2427 
    2435     2444     2451     2455     2461     2465     2467     2467 
    2463     2457     2457     2463     2469     2467     2462     2454 
    2448     2451     2459     2467     2471     2474     2479     2484 
    2485     2486     2492     2498     2506     2515     2525     2538 
    2552     2574     2600     2628     2655     2675     2687     2697 
    2704     2705     2704     2698     2685     2670     2654     2636 
    2627     2631     2639     2647     2656     2662     2662     2662 
    2663     2663     2666     2671     2674     2670     2670     2671 
    2664     2654     2641     2625     2612     2601     2592     2589 
    2589     2586     2583     2583     2583     2577     2565     2550 
    2529     2504     2484     2469     2459     2461     2463     2461 
    2458     2451     2439     2423     2403     2385     2374     2358 
    2340     2326     2313     2305     2300     2296     2289     2281 
    2269     2254     2241     2234     2228     2224     2224     2226 
    2227     2227     2228     2234     2239     2247     2255     2259 
    2262     2266     2263     2257     2253     2257     2263     2273 
    2286     2297     2308     2322     2336     2351     2366     2381 
    2393     2403     2413     2424     2435     2450     2466     2479 
    2492     2502     2511     2515     2521     2536     2554     2569 
    2585     2597     2601     2596     2581     2565     2550     2533 
    2519     2505     2489     2478     2471     2458     2440     2431 
    2427     2423     2421     2420     2419     2421     2424     2425 
    2424     2423     2423     2421     2419     2413     2407     2401 
    2392     2380     2373     2367     2357     2343     2335     2330 
    2328     2335     2351     2369     2392     2419     2440     2451 
    2452     2452     2455     2459     2465     2469     2467     2469 
    2471     2470     2467     2467     2470     2471     2474     2477 
    2474     2470     2469     2467     2466     2466     2469     2473 
    2478     2488     2500     2513     2531     2546     2554     2563 
    2573     2575     2579     2589     2600     2610     2617     2625 
    2640     2650     2648     2641     2637     2633     2629     2623 
    2617     2614     2606     2593     2577     2560     2548     2543 
    2543     2546     2546     2543     2542     2542     2542     2543 
    2551     2556     2560     2566     2569     2570     2575     2581 
    2585     2587     2592     2594     2593     2593     2600     2601 
    2602     2606     2605     2604     2609     2614     2619     2625 
    2632     2637     2641     2643     2639     2636     2631     2620 
    2609     2594     2581     2574     2569     2565     2563     2555 
    2543     2533     2529     2528     2529     2533     2532     2528 
    2527     2524     2523     2524     2525     2520     2513     2506 
    2504     2504     2509     2520     2536     2555     2573     2592 
    2609     2627     2643     2654     2660     2664     2660     2655 
    2654     2650     2641     2636     2635     2633     2633     2632 
    2628     2624     2621     2613     2605     2596     2582     2560 
    2542     2528     2516     2508     2509     2512     2511     2508 
    2504     2502     2500     2498     2500     2500     2502     2512 
    2521     2528     2538     2546     2554     2567     2582     2593 
    2604     2612     2613     2616     2616     2612     2614     2625 
    2632     2633     2628     2616     2602     2587     2567     2548 
    2533     2516     2498     2477     2452     2435     2424     2417 
    2416     2416     2419     2424     2431     2434     2431     2420 
    2408     2398     2385     2366     2355     2350     2346     2346 
    2343     2343     2344     2344     2347     2358     2378     2403 
    2423     2438     2446     2447     2439     2432     2427     2427 
    2432     2432     2432     2436     2439     2442     2447     2452 
    2450     2446     2440     2434     2430     2428     2427     2425 
    2423     2416     2411     2407     2405     2407     2411     2416 
    2420     2417     2412     2405     2400     2394     2389     2382 
    2380     2386     2394     2404     2416     2428     2442     2455 
    2465     2467     2465     2462     2459     2461     2465     2471 
    2479     2485     2492     2494     2496     2496     2497     2497 
    2497     2498     2501     2505     2513     2524     2532     2543 
    2555     2562     2565     2566     2570     2573     2575     2573 
    2570     2566     2560     2559     2563     2573     2585     2597 
    2605     2610     2616     2623     2627     2633     2643     2648 
    2651     2659     2677     2693     2709     2728     2741     2751 
    2762     2768     2774     2782     2791     2798     2799     2798 
    2794     2786     2781     2785     2795     2806     2812     2816 
    2816     2803     2791     2787     2783     2770     2749     2724 
    2695     2664     2635     2606     2577     2548     2524     2501 
    2478     2463     2455     2451     2450     2451     2448     2439 
    2428     2420     2416     2413     2408     2398     2389     2380 
    2373     2373     2377     2386     2400     2411     2425     2443 
    2455     2467     2482     2493     2502     2509     2512     2511 
    2504     2501     2500     2493     2485     2471     2451     2436 
    2428     2417     2411     2405     2401     2403     2404     2404 
    2411     2420     2427     2428     2428     2427     2430     2436 
    2446     2459     2473     2482     2489     2492     2498     2508 
    2516     2527     2539     2548     2558     2571     2585     2601 
    2616     2627     2635     2639     2633     2620     2606     2592 
    2574     2552     2535     2521     2511     2502     2498     2497 
    2494     2492     2490     2493     2494     2494     2490     2481 
    2466     2450     2431     2417     2412     2404     2397     2398 
    2400     2401     2408     2415     2421     2430     2440     2454 
    2469     2484     2497     2506     2512     2513     2516     2519 
    2523     2524     2524     2524     2524     2525     2531     2539 
    2550     2559     2565     2567     2570     2575     2577     2574 
    2570     2560     2547     2532     2517     2501     2484     2469 
    2459     2447     2436     2427     2413     2397     2384     2374 
    2363     2357     2353     2354     2357     2357     2357     2355 
    2353     2350     2351     2349     2342     2335     2324     2313 
    2303     2290     2277     2266     2258     2246     2231     2212 
    2196     2182     2168     2150     2135     2122     2107     2097 
    2088     2073     2060     2047     2035     2027     2020     2012 
    2012     2015     2016     2019     2025     2025     2022     2023 
    2025     2016     2012     2016     2026     2037     2054     2074 
    2099     2124     2151     2181     2212     2236     2258     2282 
    2305     2326     2344     2365     2385     2404     2420     2434 
    2448     2466     2482     2501     2523     2550     2578     2604 
    2627     2647     2667     2683     2697     2709     2714     2717 
    2720     2722     2729     2737     2747     2759     2772     2781 
    2781     2778     2778     2779     2779     2774     2767     2760 
    2747     2733     2722     2710     2700     2691     2683     2681 
    2685     2687     2689     2695     2701     2704     2702     2698 
    2698     2698     2695     2691     2694     2700     2702     2705 
    2709     2716     2722     2728     2728     2727     2731     2735 
    2732     2724     2716     2704     2689     2673     2659     2647 
    2639     2629     2617     2605     2589     2565     2546     2528 
    2506     2482     2459     2439     2423     2412     2407     2401 
    2394     2393     2396     2397     2401     2408     2411     2416 
    2425     2436     2446     2457     2470     2477     2484     2496 
    2502     2508     2512     2511     2506     2500     2489     2477 
    2463     2452     2443     2435     2427     2419     2412     2400 
    2385     2371     2361     2350     2340     2332     2320     2303 
    2284     2263     2243     2224     2207     2188     2172     2160 
    2147     2139     2137     2139     2145     2150     2158     2172 
    2189     2208     2227     2246     2268     2290     2309     2330 
    2359     2385     2403     2419     2436     2450     2463     2477 
    2489     2500     2512     2524     2533     2543     2556     2573 
    2583     2592     2598     2601     2604     2605     2602     2594 
    2587     2582     2577     2569     2560     2551     2544     2542 
    2543     2546     2551     2560     2573     2579     2586     2592 
    2593     2594     2597     2597     2596     2596     2593     2592 
    2593     2593     2590     2590     2590     2590     2589     2586 
    2585     2586     2585     2582     2586     2593     2598     2604 
    2609     2613     2619     2623     2629     2635     2640     2650 
    2658     2662     2667     2675     2683     2691     2704     2720 
    2737     2756     2779     2798     2809     2817     2824     2825 
    2826     2826     2822     2817     2812     2808     2801     2791 
    2783     2775     2770     2764     2756     2747     2741     2733 
    2725     2721     2716     2708     2695     2683     2673     2663 
    2651     2644     2637     2628     2619     2606     2594     2585 
    2574     2562     2551     2540     2527     2511     2498     2489 
    2478     2463     2446     2428     2407     2386     2371     2353 
    2334     2315     2293     2272     2257     2242     2226     2214 
    2204     2195     2188     2188     2188     2191     2199     2207 
    2218     2232     2247     2265     2288     2313     2340     2362 
    2378     2400     2423     2443     2462     2482     2498     2513 
    2527     2542     2559     2575     2589     2600     2608     2610 
    2610     2608     2604     2602     2604     2600     2590     2583 
    2574     2563     2556     2550     2547     2547     2551     2554 
    2559     2569     2583     2606     2632     2654     2677     2701 
    2727     2752     2776     2802     2826     2848     2866     2880 
    2895     2907     2920     2930     2940     2943     2938     2936 
    2930     2920     2909     2894     2872     2849     2829     2803 
    2774     2747     2724     2701     2681     2660     2639     2623 
    2609     2589     2565     2544     2528     2512     2496     2478 
    2457     2436     2413     2386     2363     2347     2331     2312 
    2296     2280     2259     2241     2224     2207     2197     2189 
    2182     2180     2181     2182     2188     2193     2201     2212 
    2224     2241     2258     2272     2288     2307     2328     2353 
    2380     2404     2428     2450     2467     2484     2501     2519 
    2538     2554     2565     2571     2571     2565     2560     2559 
    2560     2563     2560     2555     2550     2543     2538     2539 
    2536     2531     2528     2528     2528     2531     2538     2547 
    2555     2566     2579     2590     2602     2613     2621     2628 
    2636     2646     2651     2652     2651     2651     2652     2651 
    2648     2650     2652     2654     2654     2658     2667     2675 
    2679     2682     2679     2670     2658     2644     2624     2597 
    2566     2532     2494     2452     2413     2377     2339     2300 
    2255     2212     2173     2130     2088     2046     2004     1964 
    1922     1881     1846     1811     1777     1750     1722     1695 
    1674     1653     1641     1636     1633     1637     1649     1660 
    1678     1703     1730     1753     1779     1803     1825     1845 
    1861     1875     1891     1912     1935     1961     1992     2022 
    2054     2088     2118     2147     2182     2215     2246     2281 
    2320     2361     2400     2439     2481     2521     2563     2604 
    2643     2686     2727     2764     2802     2837     2875     2911 
    2947     2980     3011     3041     3072     3099     3123     3144 
    3156     3160     3164     3165     3159     3150     3146     3134 
    3115     3102     3088     3072     3057     3042     3022     3001 
    2980     2961     2941     2920     2901     2880     2853     2824 
    2793     2764     2735     2706     2678     2652     2629     2609 
    2593     2583     2577     2567     2560     2559     2556     2550 
    2546     2539     2528     2516     2502     2485     2466     2451 
    2435     2415     2396     2377     2358     2342     2330     2320 
    2315     2311     2304     2296     2286     2277     2266     2255 
    2247     2239     2231     2226     2222     2220     2219     2220 
    2223     2227     2234     2239     2245     2255     2265     2270 
    2277     2285     2290     2297     2307     2317     2330     2346 
    2365     2390     2415     2438     2465     2492     2517     2543 
    2565     2583     2604     2627     2652     2682     2709     2736 
    2766     2787     2803     2822     2840     2853     2871     2884 
    2895     2911     2925     2937     2951     2959     2964     2972 
    2976     2972     2968     2961     2952     2937     2920     2898 
    2871     2843     2809     2772     2731     2685     2639     2594 
    2548     2502     2461     2420     2377     2338     2305     2273 
    2245     2219     2195     2172     2150     2131     2115     2100 
    2087     2074     2064     2054     2047     2045     2043     2045 
    2050     2064     2080     2097     2122     2145     2168     2191 
    2214     2238     2265     2288     2313     2340     2369     2394 
    2424     2455     2488     2523     2554     2585     2613     2639 
    2663     2685     2695     2702     2712     2714     2710     2709 
    2713     2717     2724     2729     2739     2754     2768     2782 
    2794     2806     2822     2840     2855     2867     2875     2879 
    2883     2883     2880     2880     2880     2879     2879     2875 
    2872     2874     2871     2864     2851     2833     2810     2785 
    2755     2718     2682     2646     2604     2562     2527     2489 
    2451     2419     2386     2354     2323     2292     2265     2242 
    2222     2204     2184     2168     2157     2143     2130     2120 
    2111     2104     2095     2087     2079     2073     2073     2073 
    2073     2072     2068     2060     2047     2034     2016     1999 
    1981     1962     1949     1939     1927     1918     1912     1910 
    1912     1914     1917     1923     1937     1950     1966     1987 
    2011     2034     2060     2087     2115     2149     2184     2218 
    2257     2299     2343     2388     2434     2475     2511     2546 
    2579     2616     2654     2694     2737     2779     2821     2863 
    2898     2929     2964     2991     3013     3032     3049     3061 
    3071     3076     3080     3082     3080     3076     3069     3057 
    3044     3029     3014     2998     2978     2953     2930     2909 
    2886     2864     2843     2820     2801     2785     2770     2759 
    2748     2741     2739     2736     2733     2733     2736     2741 
    2751     2760     2770     2779     2793     2806     2818     2826 
    2835     2840     2844     2847     2844     2839     2833     2821 
    2805     2794     2781     2764     2748     2729     2706     2677 
    2644     2612     2578     2540     2502     2462     2419     2376 
    2330     2282     2241     2204     2170     2141     2112     2088 
    2068     2049     2033     2020     2018     2015     2011     2011 
    2014     2015     2022     2031     2043     2060     2076     2093 
    2114     2138     2164     2193     2228     2262     2296     2330 
    2362     2393     2421     2448     2471     2492     2511     2525 
    2538     2546     2550     2548     2544     2539     2531     2520 
    2506     2492     2478     2463     2442     2419     2400     2384 
    2366     2344     2326     2308     2284     2259     2243     2226 
    2204     2192     2184     2177     2176     2184     2196     2214 
    2235     2262     2290     2319     2350     2384     2413     2444 
    2478     2509     2540     2575     2609     2640     2674     2708 
    2739     2770     2801     2828     2855     2883     2906     2926 
    2948     2967     2987     3005     3018     3030     3045     3055 
    3059     3063     3063     3061     3061     3057     3051     3042 
    3030     3018     3005     2987     2967     2947     2928     2909 
    2886     2860     2833     2806     2775     2741     2706     2673 
    2637     2608     2578     2550     2525     2506     2484     2461 
    2440     2420     2403     2389     2376     2363     2355     2351 
    2349     2344     2340     2334     2328     2320     2303     2289 
    2278     2265     2253     2242     2231     2219     2208     2201 
    2199     2196     2196     2197     2196     2197     2204     2212 
    2220     2228     2239     2254     2269     2284     2300     2313 
    2332     2357     2376     2392     2408     2420     2428     2436 
    2439     2438     2438     2435     2432     2434     2436     2442 
    2448     2455     2459     2462     2465     2467     2466     2467 
    2473     2477     2477     2478     2478     2477     2479     2482 
    2485     2492     2500     2508     2515     2525     2538     2547 
