Origin Time       2025/01/13 21:19:00
Lat.              31.8
Long.             131.6
Depth. (km)       30
Mag.              6.9
Station Code      SMN012
Station Lat.      34.3551
Station Long.     131.9354
Station Height(m) 314
Record Time       2025/01/13 21:20:58
Sampling Freq(Hz) 100Hz
Duration Time(s)  60
Dir.              E-W
Scale Factor      7845(gal)/8223790
Max. Acc. (gal)   1.958
Last Correction   2025/01/13 21:20:57
Memo.             
[...]
   -7458    -7458    -7457    -7445    -7411    -7375    -7350    -7333 
   -7319    -7306    -7294    -7284    -7276    -7273    -7272    -7280 
   -7303    -7323    -7321    -7298    -7287    -7287    -7284    -7303 
   -7339    -7344    -7337    -7356    -7352    -7312    -7288    -7272 
   -7263    -7267    -7249    -7233    -7237    -7234    -7240    -7252 
   -7250    -7261    -7283    -7295    -7319    -7350    -7372    -7402 
   -7437    -7457    -7476    -7501    -7531    -7578    -7623    -7641 
   -7654    -7661    -7638    -7612    -7616    -7628    -7620    -7599 
   -7574    -7549    -7516    -7470    -7437    -7418    -7393    -7393 
   -7418    -7426    -7431    -7461    -7500    -7535    -7562    -7572 
   -7562    -7550    -7545    -7537    -7514    -7485    -7458    -7416 
   -7361    -7326    -7304    -7299    -7321    -7349    -7364    -7373 
   -7395    -7423    -7456    -7492    -7503    -7483    -7445    -7402 
   -7371    -7352    -7335    -7326    -7334    -7346    -7357    -7375 
   -7395    -7429    -7465    -7485    -7519    -7562    -7582    -7600 
   -7638    -7674    -7697    -7704    -7685    -7639    -7576    -7501 
   -7434    -7381    -7322    -7236    -7136    -7051    -6983    -6953 
   -6988    -7061    -7161    -7283    -7404    -7522    -7627    -7713 
   -7773    -7804    -7808    -7778    -7723    -7653    -7576    -7506 
   -7447    -7379    -7292    -7210    -7146    -7098    -7074    -7083 
   -7111    -7150    -7195    -7227    -7248    -7271    -7285    -7296 
   -7306    -7303    -7306    -7312    -7318    -7345    -7383    -7423 
   -7476    -7518    -7537    -7549    -7572    -7614    -7658    -7692 
   -7699    -7669    -7612    -7549    -7496    -7452    -7404    -7364 
   -7312    -7231    -7149    -7079    -7007    -6956    -6949    -6983 
   -7056    -7153    -7246    -7334    -7416    -7496    -7587    -7680 
   -7770    -7852    -7902    -7904    -7865    -7784    -7661    -7542 
   -7449    -7362    -7285    -7230    -7184    -7148    -7122    -7118 
   -7152    -7204    -7265    -7338    -7411    -7473    -7528    -7581 
   -7628    -7665    -7677    -7669    -7647    -7624    -7604    -7577 
   -7545    -7518    -7506    -7501    -7481    -7447    -7408    -7372 
   -7353    -7366    -7411    -7464    -7512    -7564    -7624    -7670 
   -7690    -7709    -7724    -7711    -7685    -7649    -7566    -7457 
   -7350    -7241    -7137    -7055    -7005    -6990    -7003    -7036 
   -7087    -7137    -7171    -7200    -7222    -7244    -7291    -7361 
   -7439    -7534    -7638    -7724    -7790    -7836    -7852    -7830 
   -7767    -7674    -7576    -7489    -7420    -7369    -7334    -7304 
   -7279    -7254    -7240    -7244    -7263    -7291    -7337    -7393 
   -7450    -7504    -7551    -7572    -7549    -7487    -7391    -7277 
   -7188    -7146    -7141    -7164    -7215    -7281    -7338    -7396 
   -7464    -7528    -7604    -7709    -7816    -7904    -7970    -8001 
   -7996    -7958    -7901    -7844    -7786    -7724    -7655    -7580 
   -7489    -7385    -7272    -7136    -7002    -6917    -6885    -6901 
   -6968    -7052    -7118    -7164    -7194    -7231    -7277    -7321 
   -7376    -7443    -7493    -7510    -7501    -7472    -7431    -7406 
   -7380    -7331    -7283    -7238    -7187    -7163    -7160    -7153 
   -7161    -7191    -7222    -7258    -7296    -7325    -7358    -7384 
   -7398    -7431    -7473    -7510    -7550    -7572    -7570    -7569 
   -7543    -7495    -7450    -7403    -7350    -7303    -7252    -7188 
   -7118    -7057    -7018    -6997    -6999    -7040    -7105    -7159 
   -7202    -7233    -7252    -7280    -7337    -7418    -7515    -7599 
   -7657    -7709    -7751    -7782    -7828    -7861    -7858    -7854 
   -7850    -7812    -7747    -7676    -7600    -7524    -7443    -7358 
   -7279    -7215    -7173    -7138    -7118    -7123    -7138    -7148 
   -7161    -7161    -7130    -7096    -7079    -7076    -7087    -7110 
   -7130    -7156    -7191    -7227    -7265    -7291    -7302    -7318 
   -7341    -7376    -7446    -7551    -7665    -7782    -7889    -7969 
   -8009    -8009    -7974    -7906    -7812    -7711    -7635    -7573 
   -7512    -7473    -7437    -7380    -7299    -7203    -7111    -7047 
   -7026    -7052    -7099    -7142    -7182    -7218    -7253    -7298 
   -7353    -7415    -7489    -7569    -7626    -7666    -7711    -7759 
   -7815    -7873    -7923    -7943    -7929    -7892    -7830    -7767 
   -7730    -7724    -7732    -7735    -7712    -7661    -7607    -7551 
   -7492    -7443    -7410    -7371    -7326    -7281    -7218    -7138 
   -7059    -6984    -6928    -6901    -6895    -6913    -6967    -7025 
   -7072    -7111    -7136    -7149    -7173    -7213    -7254    -7296 
   -7323    -7322    -7307    -7302    -7317    -7353    -7396    -7423 
   -7449    -7473    -7483    -7495    -7514    -7530    -7538    -7539 
   -7541    -7547    -7557    -7570    -7576    -7560    -7541    -7530 
   -7515    -7504    -7488    -7441    -7379    -7327    -7279    -7241 
   -7230    -7229    -7211    -7184    -7150    -7111    -7107    -7155 
   -7234    -7312    -7380    -7438    -7484    -7507    -7512    -7514 
   -7510    -7514    -7549    -7612    -7686    -7746    -7759    -7723 
   -7646    -7538    -7439    -7377    -7338    -7311    -7296    -7277 
   -7246    -7203    -7156    -7126    -7129    -7169    -7236    -7317 
   -7388    -7447    -7515    -7582    -7636    -7689    -7730    -7743 
   -7749    -7746    -7731    -7723    -7727    -7736    -7762    -7804 
   -7835    -7846    -7843    -7828    -7798    -7755    -7716    -7678 
   -7651    -7635    -7608    -7568    -7501    -7393    -7253    -7109 
   -6991    -6917    -6875    -6844    -6814    -6778    -6735    -6706 
   -6720    -6778    -6870    -7001    -7152    -7303    -7446    -7574 
   -7672    -7736    -7773    -7780    -7758    -7707    -7649    -7587 
   -7504    -7415    -7334    -7238    -7142    -7092    -7092    -7113 
   -7163    -7231    -7296    -7360    -7427    -7483    -7518    -7555 
   -7595    -7604    -7596    -7591    -7585    -7588    -7611    -7628 
   -7636    -7650    -7654    -7647    -7650    -7658    -7665    -7672 
   -7661    -7639    -7634    -7649    -7666    -7678    -7658    -7592 
   -7510    -7434    -7387    -7381    -7402    -7423    -7423    -7396 
   -7350    -7303    -7263    -7226    -7177    -7115    -7059    -7028 
   -7011    -7024    -7069    -7114    -7150    -7190    -7218    -7250 
   -7306    -7372    -7452    -7541    -7627    -7711    -7784    -7823 
   -7816    -7777    -7720    -7658    -7593    -7515    -7433    -7360 
   -7280    -7196    -7136    -7082    -7026    -6991    -6970    -6964 
   -6993    -7028    -7057    -7090    -7117    -7137    -7169    -7219 
   -7285    -7354    -7412    -7457    -7496    -7526    -7541    -7562 
   -7576    -7551    -7501    -7458    -7430    -7435    -7496    -7588 
   -7661    -7688    -7680    -7639    -7574    -7516    -7483    -7466 
   -7462    -7446    -7407    -7348    -7260    -7171    -7123    -7119 
   -7132    -7157    -7195    -7225    -7236    -7233    -7219    -7202 
   -7192    -7202    -7237    -7291    -7346    -7406    -7458    -7484 
   -7476    -7446    -7392    -7308    -7217    -7129    -7034    -6940 
   -6862    -6798    -6747    -6729    -6743    -6756    -6779    -6818 
   -6866    -6943    -7044    -7138    -7250    -7391    -7537    -7677 
   -7825    -7970    -8098    -8189    -8244    -8295    -8349    -8398 
   -8463    -8533    -8569    -8580    -8584    -8552    -8487    -8418 
   -8347    -8274    -8206    -8147    -8090    -8031    -7963    -7866 
   -7742    -7619    -7504    -7406    -7358    -7357    -7373    -7400 
   -7426    -7438    -7445    -7454    -7476    -7503    -7524    -7558 
   -7601    -7651    -7704    -7727    -7717    -7688    -7630    -7562 
   -7506    -7454    -7418    -7412    -7416    -7425    -7449    -7483 
   -7519    -7550    -7557    -7550    -7539    -7533    -7557    -7600 
   -7623    -7607    -7541    -7430    -7299    -7164    -7040    -6957 
   -6930    -6940    -6968    -6988    -6978    -6930    -6851    -6764 
   -6686    -6635    -6623    -6639    -6687    -6768    -6859    -6951 
   -7029    -7071    -7084    -7080    -7064    -7055    -7061    -7083 
   -7119    -7150    -7163    -7157    -7140    -7099    -7034    -6959 
   -6880    -6806    -6745    -6710    -6706    -6735    -6808    -6910 
   -7024    -7156    -7304    -7450    -7603    -7754    -7869    -7955 
   -8041    -8128    -8198    -8251    -8280    -8267    -8224    -8164 
   -8085    -8004    -7939    -7875    -7808    -7761    -7726    -7699 
   -7703    -7761    -7863    -7975    -8055    -8091    -8090    -8064 
   -8064    -8108    -8167    -8237    -8309    -8367    -8406    -8401 
   -8325    -8190    -8021    -7838    -7674    -7549    -7457    -7399 
   -7371    -7352    -7333    -7312    -7288    -7275    -7281    -7300 
   -7334    -7375    -7398    -7408    -7427    -7450    -7480    -7530 
   -7591    -7636    -7657    -7654    -7631    -7599    -7589    -7608 
   -7636    -7672    -7685    -7638    -7528    -7371    -7179    -6998 
   -6862    -6763    -6690    -6648    -6632    -6639    -6667    -6698 
   -6736    -6783    -6817    -6835    -6856    -6874    -6883    -6895 
   -6907    -6914    -6921    -6934    -6959    -6975    -6974    -6971 
   -6959    -6934    -6932    -6956    -7005    -7091    -7183    -7264 
   -7338    -7403    -7460    -7528    -7596    -7654    -7712    -7749 
   -7751    -7713    -7614    -7466    -7310    -7163    -7037    -6937 
   -6851    -6771    -6712    -6674    -6674    -6721    -6798    -6901 
   -7028    -7153    -7250    -7322    -7380    -7426    -7458    -7462 
   -7435    -7407    -7393    -7395    -7414    -7439    -7457    -7469 
   -7491    -7518    -7549    -7593    -7631    -7654    -7665    -7661 
   -7638    -7608    -7587    -7581    -7582    -7574    -7565    -7568 
   -7574    -7601    -7655    -7711    -7751    -7786    -7813    -7835 
   -7863    -7901    -7963    -8058    -8174    -8293    -8405    -8502 
   -8571    -8608    -8613    -8584    -8527    -8457    -8405    -8379 
   -8359    -8326    -8267    -8174    -8052    -7927    -7815    -7711 
   -7611    -7520    -7442    -7385    -7365    -7393    -7469    -7566 
   -7673    -7755    -7788    -7788    -7758    -7673    -7547    -7427 
   -7318    -7236    -7215    -7238    -7272    -7306    -7337    -7346 
   -7337    -7331    -7338    -7335    -7307    -7276    -7250    -7209 
   -7169    -7148    -7113    -7061    -7030    -7021    -7009    -6998 
   -6979    -6936    -6879    -6824    -6763    -6714    -6685    -6650 
   -6616    -6588    -6566    -6570    -6600    -6644    -6725    -6844 
   -6966    -7084    -7202    -7269    -7254    -7184    -7091    -6994 
   -6918    -6866    -6825    -6793    -6785    -6812    -6867    -6939 
   -7032    -7140    -7244    -7333    -7392    -7414    -7388    -7315 
   -7229    -7153    -7098    -7071    -7059    -7052    -7048    -7049 
   -7053    -7060    -7068    -7072    -7082    -7094    -7095    -7096 
   -7122    -7160    -7207    -7261    -7295    -7299    -7280    -7240 
   -7191    -7155    -7137    -7130    -7121    -7094    -7061    -7024 
   -6993    -6997    -7042    -7142    -7295    -7454    -7580    -7662 
   -7690    -7676    -7651    -7636    -7636    -7647    -7653    -7651 
   -7649    -7651    -7688    -7762    -7839    -7905    -7954    -7970 
   -7955    -7915    -7840    -7744    -7647    -7551    -7452    -7349 
   -7231    -7101    -6982    -6905    -6874    -6895    -6968    -7065 
   -7159    -7246    -7335    -7416    -7484    -7546    -7588    -7592 
   -7560    -7506    -7439    -7387    -7344    -7302    -7285    -7294 
   -7307    -7339    -7393    -7446    -7496    -7527    -7526    -7528 
   -7533    -7527    -7538    -7551    -7553    -7551    -7533    -7510 
   -7504    -7496    -7474    -7445    -7400    -7344    -7287    -7231 
   -7161    -7061    -6961    -6891    -6858    -6871    -6941    -7034 
   -7125    -7214    -7277    -7304    -7321    -7330    -7303    -7254 
   -7198    -7132    -7076    -7047    -7038    -7047    -7068    -7105 
   -7164    -7253    -7345    -7423    -7479    -7507    -7514    -7496 
   -7454    -7404    -7379    -7383    -7422    -7503    -7628    -7771 
   -7911    -8047    -8179    -8309    -8430    -8537    -8635    -8718 
   -8768    -8761    -8707    -8617    -8495    -8382    -8318    -8287 
   -8271    -8271    -8264    -8220    -8154    -8089    -8023    -7955 
   -7913    -7906    -7916    -7924    -7933    -7956    -7989    -8036 
   -8118    -8233    -8345    -8438    -8506    -8538    -8533    -8490 
   -8414    -8317    -8199    -8048    -7862    -7663    -7462    -7271 
   -7110    -6997    -6922    -6874    -6849    -6826    -6789    -6747 
   -6693    -6605    -6497    -6385    -6270    -6174    -6119    -6108 
   -6146    -6222    -6320    -6450    -6606    -6770    -6934    -7087 
   -7210    -7319    -7418    -7491    -7542    -7573    -7587    -7596 
   -7603    -7589    -7568    -7557    -7551    -7549    -7550    -7547 
   -7526    -7473    -7396    -7322    -7275    -7268    -7295    -7348 
   -7414    -7468    -7511    -7565    -7649    -7762    -7896    -8055 
   -8224    -8372    -8495    -8594    -8671    -8729    -8781    -8846 
   -8914    -8981    -9053    -9111    -9170    -9251    -9328    -9402 
   -9463    -9481    -9440    -9337    -9181    -8989    -8788    -8633 
   -8537    -8461    -8398    -8351    -8286    -8202    -8129    -8046 
   -7938    -7825    -7707    -7592    -7473    -7339    -7203    -7047 
   -6863    -6667    -6481    -6326    -6193    -6077    -5968    -5849 
   -5729    -5620    -5553    -5535    -5559    -5632    -5713    -5764 
   -5811    -5867    -5935    -6027    -6129    -6201    -6238    -6268 
   -6293    -6331    -6397    -6447    -6455    -6436    -6381    -6293 
   -6193    -6091    -5991    -5903    -5832    -5773    -5738    -5748 
   -5803    -5895    -6046    -6246    -6446    -6644    -6860    -7067 
   -7256    -7425    -7551    -7635    -7701    -7761    -7820    -7881 
   -7935    -7978    -8016    -8052    -8101    -8170    -8249    -8318 
   -8355    -8367    -8355    -8317    -8282    -8255    -8221    -8201 
   -8178    -8120    -8047    -7955    -7836    -7712    -7576    -7435 
   -7317    -7215    -7134    -7090    -7069    -7064    -7075    -7088 
   -7087    -7102    -7126    -7141    -7165    -7198    -7236    -7287 
   -7344    -7400    -7446    -7487    -7551    -7623    -7678    -7738 
   -7797    -7843    -7875    -7886    -7877    -7870    -7875    -7882 
   -7894    -7904    -7896    -7892    -7902    -7912    -7931    -7973 
   -8028    -8101    -8191    -8283    -8394    -8525    -8640    -8723 
   -8773    -8776    -8741    -8707    -8691    -8679    -8660    -8618 
   -8533    -8428    -8336    -8268    -8230    -8226    -8232    -8213 
   -8170    -8116    -8046    -7952    -7840    -7722    -7607    -7503 
   -7422    -7364    -7311    -7249    -7175    -7101    -7053    -7040 
   -7060    -7125    -7214    -7300    -7383    -7465    -7570    -7708 
   -7869    -8058    -8251    -8418    -8556    -8653    -8716    -8758 
   -8757    -8714    -8635    -8505    -8330    -8129    -7902    -7651 
   -7383    -7115    -6870    -6652    -6480    -6349    -6224    -6100 
   -5975    -5836    -5699    -5597    -5544    -5532    -5540    -5553 
   -5567    -5578    -5575    -5567    -5570    -5564    -5563    -5582 
   -5605    -5629    -5657    -5683    -5705    -5722    -5737    -5752 
   -5784    -5837    -5892    -5942    -5996    -6057    -6123    -6215 
   -6336    -6473    -6637    -6824    -6997    -7153    -7302    -7418 
   -7511    -7623    -7742    -7843    -7929    -7997    -8048    -8091 
   -8145    -8224    -8316    -8414    -8502    -8560    -8592    -8607 
   -8598    -8564    -8521    -8467    -8406    -8343    -8286    -8253 
   -8251    -8267    -8289    -8317    -8351    -8384    -8433    -8506 
   -8594    -8683    -8760    -8814    -8847    -8870    -8887    -8891 
   -8874    -8829    -8758    -8665    -8554    -8452    -8372    -8309 
   -8259    -8205    -8139    -8043    -7917    -7788    -7662    -7538 
   -7411    -7269    -7113    -6943    -6771    -6625    -6513    -6442 
   -6426    -6457    -6528    -6627    -6729    -6829    -6916    -6976 
   -7026    -7076    -7111    -7130    -7134    -7115    -7078    -7032 
   -6976    -6917    -6868    -6832    -6799    -6764    -6721    -6685 
   -6667    -6669    -6685    -6717    -6756    -6797    -6839    -6870 
   -6875    -6852    -6804    -6752    -6708    -6670    -6632    -6590 
   -6543    -6498    -6453    -6421    -6447    -6532    -6636    -6744 
   -6860    -6941    -6983    -7010    -7025    -7036    -7041    -7029 
   -7006    -6979    -6945    -6914    -6906    -6929    -6991    -7083 
   -7173    -7279    -7404    -7531    -7661    -7817    -7989    -8162 
   -8343    -8526    -8687    -8800    -8865    -8893    -8896    -8896 
   -8892    -8856    -8766    -8654    -8540    -8410    -8297    -8212 
   -8141    -8098    -8074    -8054    -8040    -8033    -8033    -8039 
   -8063    -8108    -8154    -8198    -8232    -8239    -8236    -8235 
   -8222    -8191    -8148    -8087    -8010    -7916    -7803    -7685 
   -7568    -7456    -7373    -7323    -7285    -7242    -7194    -7129 
   -7049    -6976    -6925    -6897    -6882    -6866    -6843    -6802 
   -6732    -6656    -6592    -6531    -6496    -6486    -6489    -6502 
   -6504    -6482    -6466    -6447    -6385    -6334    -6323    -6312 
   -6293    -6277    -6251    -6212    -6164    -6107    -6070    -6058 
   -6041    -6030    -6037    -6049    -6061    -6088    -6150    -6232 
   -6305    -6400    -6527    -6658    -6794    -6932    -7053    -7169 
   -7290    -7384    -7456    -7527    -7597    -7668    -7747    -7840 
   -7954    -8077    -8205    -8321    -8419    -8499    -8560    -8626 
   -8696    -8743    -8765    -8757    -8725    -8683    -8625    -8545 
   -8482    -8432    -8390    -8378    -8376    -8363    -8334    -8286 
   -8225    -8170    -8109    -8052    -8017    -7993    -7982    -7992 
   -8021    -8081    -8163    -8247    -8316    -8348    -8348    -8340 
   -8316    -8279    -8233    -8172    -8102    -8020    -7919    -7797 
   -7670    -7535    -7381    -7223    -7064    -6921    -6808    -6731 
   -6693    -6686    -6717    -6786    -6883    -7003    -7125    -7234 
   -7338    -7442    -7533    -7604    -7654    -7681    -7685    -7662 
   -7607    -7526    -7431    -7335    -7253    -7182    -7121    -7074 
   -7036    -7026    -7063    -7118    -7177    -7252    -7326    -7385 
   -7435    -7480    -7522    -7531    -7497    -7453    -7395    -7330 
   -7294    -7291    -7307    -7341    -7387    -7437    -7499    -7566 
   -7636    -7709    -7793    -7884    -7960    -8033    -8110    -8174 
   -8206    -8208    -8172    -8101    -7997    -7863    -7703    -7519 
   -7329    -7137    -6957    -6808    -6681    -6590    -6547    -6548 
   -6593    -6683    -6817    -6968    -7121    -7267    -7404    -7537 
   -7676    -7821    -7978    -8148    -8311    -8461    -8603    -8727 
   -8812    -8869    -8914    -8937    -8926    -8883    -8814    -8707 
