Origin Time       2025/01/13 21:19:00
Lat.              31.8
Long.             131.6
Depth. (km)       30
Mag.              6.9
Station Code      SMN005
Station Lat.      35.3608
Station Long.     132.7449
Station Height(m) 8
Record Time       2025/01/13 21:21:34
Sampling Freq(Hz) 100Hz
Duration Time(s)  90
Dir.              N-S
Scale Factor      7845(gal)/8223790
Max. Acc. (gal)   5.244
Last Correction   2025/01/13 21:21:34
Memo.             
[...]
   -7345    -7271    -7194    -7165    -7160    -7128    -7067    -7033 
   -7038    -7034    -7020    -7036    -7051    -7034    -7042    -7109 
   -7191    -7229    -7231    -7254    -7323    -7393    -7414    -7379 
   -7342    -7323    -7302    -7287    -7272    -7210    -7114    -7025 
   -6963    -6912    -6844    -6772    -6724    -6700    -6705    -6740 
   -6767    -6778    -6793    -6839    -6932    -7044    -7155    -7264 
   -7372    -7495    -7630    -7735    -7812    -7888    -7979    -8091 
   -8198    -8289    -8365    -8414    -8468    -8571    -8685    -8772 
   -8827    -8860    -8916    -9008    -9089    -9146    -9194    -9247 
   -9320    -9398    -9451    -9482    -9508    -9552    -9616    -9656 
   -9647    -9606    -9589    -9625    -9675    -9678    -9639    -9617 
   -9647    -9702    -9725    -9699    -9657    -9625    -9612    -9602 
   -9552    -9454    -9354    -9266    -9177    -9076    -8941    -8789 
   -8649    -8530    -8422    -8290    -8122    -7978    -7871    -7776 
   -7685    -7597    -7510    -7418    -7317    -7218    -7128    -7032 
   -6932    -6839    -6743    -6651    -6558    -6457    -6363    -6262 
   -6142    -6053    -6004    -5942    -5854    -5796    -5837    -5958 
   -6042    -6038    -6008    -6002    -6042    -6156    -6318    -6478 
   -6581    -6592    -6612    -6731    -6878    -6978    -7071    -7242 
   -7462    -7580    -7585    -7626    -7738    -7870    -8010    -8135 
   -8224    -8264    -8248    -8257    -8376    -8522    -8564    -8540 
   -8583    -8672    -8706    -8699    -8702    -8696    -8675    -8664 
   -8667    -8650    -8576    -8463    -8382    -8356    -8326    -8237 
   -8137    -8097    -8093    -8087    -8083    -8078    -8090    -8133 
   -8174    -8209    -8257    -8297    -8305    -8297    -8282    -8263 
   -8225    -8151    -8059    -7958    -7844    -7732    -7620    -7489 
   -7358    -7236    -7109    -6991    -6885    -6763    -6643    -6554 
   -6467    -6377    -6324    -6296    -6259    -6223    -6185    -6153 
   -6161    -6211    -6230    -6205    -6203    -6219    -6218    -6223 
   -6243    -6258    -6282    -6303    -6309    -6323    -6349    -6361 
   -6361    -6372    -6386    -6382    -6365    -6367    -6404    -6443 
   -6448    -6443    -6477    -6551    -6646    -6741    -6841    -6959 
   -7084    -7206    -7334    -7483    -7631    -7773    -7948    -8166 
   -8372    -8545    -8696    -8841    -9007    -9178    -9324    -9458 
   -9576    -9667    -9756    -9830    -9856    -9869    -9891    -9909 
   -9931    -9937    -9938    -9975    -9995    -9972    -9957    -9980 
  -10008   -10012   -10004    -9990    -9953    -9941    -9975    -9984 
   -9942    -9873    -9779    -9699    -9647    -9558    -9429    -9316 
   -9215    -9097    -8954    -8780    -8586    -8405    -8230    -8014 
   -7797    -7672    -7599    -7457    -7210    -6933    -6725    -6590 
   -6463    -6285    -6060    -5841    -5675    -5528    -5306    -5023 
   -4845    -4799    -4745    -4652    -4504    -4309    -4225    -4261 
   -4256    -4190    -4133    -4109    -4126    -4183    -4221    -4213 
   -4260    -4361    -4391    -4398    -4426    -4426    -4488    -4619 
   -4654    -4614    -4595    -4579    -4565    -4564    -4576    -4596 
   -4600    -4606    -4646    -4704    -4766    -4837    -4927    -5054 
   -5211    -5359    -5497    -5649    -5822    -6010    -6215    -6420 
   -6621    -6820    -6998    -7180    -7387    -7595    -7784    -7938 
   -8094    -8278    -8425    -8537    -8672    -8807    -8912    -9000 
   -9088    -9192    -9262    -9270    -9306    -9382    -9436    -9463 
   -9470    -9489    -9525    -9560    -9633    -9713    -9742    -9798 
   -9902   -10003   -10111   -10199   -10281   -10405   -10509   -10593 
  -10704   -10779   -10813   -10870   -10943   -10994   -11007   -10998 
  -10989   -10983   -10968   -10949   -10941   -10906   -10818   -10747 
  -10708   -10650   -10584   -10512   -10424   -10343   -10262   -10189 
  -10131   -10073   -10015    -9940    -9861    -9798    -9701    -9586 
   -9497    -9394    -9281    -9184    -9070    -8951    -8858    -8733 
   -8581    -8476    -8378    -8244    -8121    -8004    -7867    -7719 
   -7581    -7465    -7349    -7206    -7057    -6936    -6845    -6748 
   -6639    -6563    -6502    -6426    -6362    -6297    -6187    -6072 
   -5991    -5900    -5782    -5667    -5557    -5454    -5368    -5283 
   -5213    -5165    -5107    -5053    -5034    -5036    -5046    -5053 
   -5077    -5113    -5115    -5104    -5138    -5205    -5267    -5302 
   -5335    -5405    -5476    -5526    -5597    -5668    -5724    -5791 
   -5853    -5919    -5994    -6045    -6123    -6251    -6343    -6411 
   -6521    -6642    -6775    -6917    -7036    -7152    -7280    -7430 
   -7577    -7665    -7740    -7851    -7963    -8100    -8245    -8303 
   -8316    -8351    -8375    -8428    -8492    -8483    -8464    -8451 
   -8352    -8230    -8174    -8143    -8117    -8089    -8028    -7939 
   -7827    -7722    -7666    -7615    -7526    -7430    -7346    -7260 
   -7165    -7057    -6963    -6905    -6859    -6808    -6750    -6682 
   -6619    -6577    -6524    -6440    -6365    -6324    -6312    -6334 
   -6359    -6358    -6343    -6347    -6390    -6462    -6543    -6629 
   -6718    -6798    -6849    -6889    -6948    -7028    -7094    -7138 
   -7203    -7281    -7333    -7368    -7427    -7497    -7577    -7709 
   -7884    -8050    -8187    -8310    -8471    -8679    -8901    -9143 
   -9369    -9559    -9764    -9981   -10201   -10447   -10650   -10802 
  -10980   -11137   -11249   -11361   -11446   -11493   -11539   -11581 
  -11619   -11619   -11566   -11515   -11480   -11442   -11399   -11329 
  -11241   -11184   -11141   -11092   -11030   -10930   -10839   -10787 
  -10724   -10616   -10489   -10362   -10254   -10160   -10039    -9864 
   -9657    -9455    -9266    -9074    -8869    -8654    -8432    -8214 
   -8010    -7803    -7584    -7381    -7203    -7014    -6795    -6577 
   -6384    -6204    -6018    -5829    -5645    -5468    -5297    -5131 
   -4978    -4839    -4696    -4567    -4471    -4383    -4295    -4234 
   -4190    -4158    -4143    -4125    -4121    -4136    -4144    -4175 
   -4232    -4271    -4307    -4352    -4388    -4433    -4483    -4522 
   -4575    -4637    -4683    -4739    -4822    -4905    -4990    -5092 
   -5212    -5354    -5494    -5632    -5800    -5989    -6166    -6354 
   -6544    -6724    -6905    -7068    -7223    -7399    -7562    -7693 
   -7811    -7912    -8000    -8083    -8154    -8210    -8253    -8276 
   -8316    -8376    -8438    -8532    -8641    -8742    -8847    -8943 
   -9034    -9142    -9247    -9346    -9439    -9506    -9566    -9622 
   -9664    -9690    -9680    -9645    -9613    -9570    -9502    -9427 
   -9342    -9246    -9138    -9005    -8876    -8757    -8633    -8505 
   -8375    -8236    -8083    -7927    -7782    -7635    -7477    -7330 
   -7191    -7038    -6880    -6724    -6563    -6421    -6296    -6158 
   -6030    -5927    -5823    -5726    -5660    -5611    -5563    -5535 
   -5526    -5522    -5522    -5537    -5578    -5641    -5710    -5788 
   -5880    -5979    -6097    -6239    -6397    -6569    -6731    -6876 
   -7025    -7183    -7362    -7550    -7724    -7905    -8109    -8302 
   -8483    -8673    -8873    -9084    -9302    -9517    -9717    -9906 
  -10096   -10274   -10434   -10582   -10706   -10804   -10886   -10937 
  -10949   -10937   -10921   -10912   -10881   -10813   -10747   -10687 
  -10612   -10548   -10489   -10397   -10278   -10158   -10060    -9988 
   -9911    -9817    -9718    -9621    -9529    -9410    -9246    -9099 
   -8996    -8883    -8727    -8549    -8365    -8206    -8067    -7919 
   -7746    -7553    -7364    -7194    -7022    -6849    -6685    -6520 
   -6361    -6227    -6091    -5935    -5788    -5659    -5549    -5447 
   -5313    -5174    -5069    -4984    -4884    -4760    -4633    -4527 
   -4425    -4322    -4225    -4104    -3983    -3901    -3816    -3726 
   -3666    -3630    -3600    -3595    -3608    -3632    -3662    -3707 
   -3785    -3870    -3947    -4055    -4182    -4309    -4456    -4621 
   -4781    -4939    -5104    -5283    -5460    -5632    -5815    -5995 
   -6151    -6315    -6492    -6664    -6845    -7041    -7233    -7402 
   -7558    -7724    -7896    -8055    -8224    -8402    -8561    -8698 
   -8837    -8997    -9182    -9366    -9540    -9728    -9925   -10122 
  -10334   -10539   -10748   -10978   -11192   -11387   -11576   -11736 
  -11867   -11975   -12055   -12118   -12168   -12186   -12163   -12094 
  -11983   -11853   -11708   -11542   -11341   -11128   -10925   -10716 
  -10489   -10255   -10022    -9787    -9562    -9356    -9166    -8977 
   -8764    -8546    -8356    -8159    -7960    -7784    -7600    -7418 
   -7275    -7155    -7029    -6887    -6743    -6612    -6485    -6366 
   -6266    -6158    -6035    -5940    -5868    -5795    -5722    -5651 
   -5591    -5545    -5513    -5498    -5490    -5482    -5498    -5530 
   -5556    -5595    -5652    -5711    -5779    -5863    -5956    -6062 
   -6184    -6313    -6442    -6569    -6698    -6832    -6972    -7111 
   -7248    -7383    -7501    -7608    -7713    -7808    -7884    -7951 
   -8006    -8043    -8078    -8110    -8117    -8108    -8112    -8124 
   -8131    -8139    -8154    -8171    -8186    -8197    -8209    -8217 
   -8220    -8232    -8243    -8228    -8209    -8194    -8174    -8152 
   -8114    -8058    -7989    -7904    -7805    -7707    -7608    -7510 
   -7410    -7299    -7202    -7123    -7059    -7005    -6945    -6895 
   -6864    -6812    -6756    -6728    -6706    -6691    -6681    -6667 
   -6677    -6683    -6667    -6667    -6677    -6673    -6669    -6656 
   -6640    -6639    -6631    -6623    -6633    -6643    -6643    -6643 
   -6637    -6615    -6582    -6555    -6528    -6507    -6496    -6486 
   -6475    -6474    -6481    -6486    -6494    -6496    -6496    -6515 
   -6543    -6571    -6617    -6687    -6767    -6863    -6986    -7121 
   -7248    -7377    -7526    -7678    -7816    -7952    -8090    -8202 
   -8293    -8388    -8499    -8618    -8737    -8854    -8964    -9069 
   -9184    -9297    -9391    -9477    -9564    -9652    -9730    -9798 
   -9861    -9914    -9963   -10012   -10053   -10080   -10111   -10150 
  -10192   -10224   -10243   -10257   -10277   -10296   -10300   -10287 
  -10253   -10211   -10184   -10164   -10127   -10080   -10027    -9960 
   -9891    -9825    -9748    -9659    -9549    -9414    -9274    -9139 
   -8995    -8835    -8672    -8509    -8340    -8168    -8012    -7858 
   -7696    -7545    -7422    -7319    -7227    -7145    -7063    -6978 
   -6909    -6864    -6840    -6835    -6837    -6837    -6839    -6840 
   -6835    -6824    -6810    -6798    -6789    -6775    -6747    -6689 
   -6612    -6532    -6447    -6359    -6264    -6164    -6070    -5983 
   -5908    -5830    -5711    -5582    -5475    -5386    -5314    -5246 
   -5158    -5086    -5043    -5015    -5008    -4999    -4984    -4988 
   -4985    -4982    -5011    -5050    -5100    -5173    -5242    -5310 
   -5385    -5448    -5520    -5598    -5668    -5744    -5805    -5850 
   -5925    -6004    -6065    -6127    -6185    -6239    -6301    -6363 
   -6428    -6500    -6555    -6617    -6717    -6820    -6894    -6945 
   -7002    -7087    -7195    -7302    -7381    -7439    -7524    -7642 
   -7750    -7852    -7974    -8105    -8230    -8363    -8487    -8580 
   -8646    -8712    -8810    -8926    -9020    -9078    -9124    -9167 
   -9205    -9251    -9309    -9366    -9418    -9467    -9499    -9520 
   -9551    -9595    -9637    -9695    -9786    -9884    -9960   -10027 
  -10107   -10191   -10284   -10404   -10538   -10663   -10779   -10897 
  -11011   -11125   -11240   -11335   -11398   -11442   -11481   -11510 
  -11522   -11523   -11493   -11419   -11329   -11222   -11075   -10894 
  -10700   -10503   -10295   -10081    -9877    -9674    -9459    -9256 
   -9070    -8891    -8718    -8540    -8370    -8220    -8082    -7940 
   -7780    -7593    -7406    -7245    -7113    -6983    -6831    -6643 
   -6417    -6188    -5998    -5842    -5697    -5544    -5359    -5150 
   -4959    -4793    -4635    -4476    -4330    -4218    -4117    -4005 
   -3910    -3832    -3761    -3728    -3720    -3704    -3680    -3654 
   -3645    -3655    -3663    -3688    -3748    -3832    -3927    -4016 
   -4093    -4183    -4293    -4409    -4538    -4669    -4796    -4924 
   -5044    -5163    -5296    -5422    -5535    -5640    -5753    -5891 
   -6031    -6141    -6215    -6258    -6307    -6401    -6515    -6613 
   -6708    -6808    -6920    -7047    -7172    -7308    -7476    -7669 
   -7885    -8109    -8316    -8505    -8706    -8935    -9185    -9436 
   -9690    -9930   -10133   -10316   -10521   -10732   -10921   -11102 
  -11273   -11427   -11572   -11697   -11820   -11955   -12077   -12178 
  -12249   -12279   -12287   -12289   -12290   -12280   -12232   -12145 
  -12050   -11954   -11851   -11723   -11564   -11399   -11242   -11097 
  -10949   -10775   -10600   -10449   -10278   -10068    -9855    -9655 
   -9464    -9269    -9051    -8815    -8564    -8305    -8054    -7804 
   -7542    -7284    -7024    -6724    -6389    -6061    -5763    -5472 
   -5170    -4870    -4588    -4330    -4097    -3859    -3605    -3364 
   -3154    -2964    -2797    -2674    -2590    -2506    -2404    -2305 
   -2234    -2188    -2161    -2134    -2123    -2138    -2146    -2168 
   -2249    -2385    -2559    -2743    -2916    -3096    -3300    -3531 
   -3824    -4182    -4549    -4864    -5136    -5451    -5841    -6243 
   -6613    -6972    -7322    -7636    -7913    -8166    -8438    -8757 
   -9076    -9329    -9528    -9722    -9937   -10164   -10377   -10584 
  -10797   -10995   -11180   -11364   -11538   -11696   -11834   -11963 
  -12102   -12228   -12329   -12422   -12509   -12582   -12631   -12661 
  -12672   -12673   -12679   -12649   -12537   -12394   -12301   -12240 
  -12150   -11997   -11785   -11581   -11426   -11252   -11036   -10829 
  -10615   -10366   -10102    -9833    -9582    -9329    -9031    -8711 
   -8419    -8147    -7881    -7635    -7396    -7145    -6883    -6627 
   -6397    -6196    -6033    -5888    -5702    -5486    -5305    -5158 
   -5024    -4908    -4791    -4668    -4550    -4436    -4341    -4267 
   -4198    -4122    -4041    -3990    -3987    -3993    -3982    -3991 
   -4032    -4066    -4059    -4056    -4120    -4220    -4306    -4386 
   -4476    -4565    -4654    -4754    -4872    -4993    -5107    -5211 
   -5312    -5421    -5551    -5675    -5782    -5906    -6052    -6193 
   -6307    -6384    -6461    -6567    -6681    -6798    -6917    -7025 
   -7142    -7267    -7391    -7535    -7674    -7780    -7892    -8043 
   -8213    -8363    -8473    -8579    -8716    -8872    -9027    -9171 
   -9279    -9377    -9481    -9589    -9717    -9848    -9934    -9999 
  -10080   -10166   -10253   -10338   -10396   -10424   -10424   -10413 
  -10431   -10465   -10466   -10434   -10399   -10372   -10349   -10315 
  -10268   -10215   -10137   -10022    -9907    -9823    -9760    -9687 
   -9594    -9487    -9381    -9282    -9205    -9143    -9061    -8953 
   -8831    -8698    -8569    -8463    -8364    -8262    -8158    -8047 
   -7921    -7803    -7686    -7558    -7442    -7334    -7200    -7053 
   -6913    -6763    -6601    -6453    -6316    -6184    -6058    -5949 
   -5859    -5778    -5692    -5591    -5499    -5435    -5370    -5279 
   -5188    -5104    -5013    -4939    -4880    -4799    -4714    -4653 
   -4602    -4572    -4561    -4522    -4472    -4430    -4384    -4396 
   -4472    -4502    -4471    -4438    -4430    -4480    -4561    -4623 
   -4687    -4783    -4932    -5111    -5254    -5389    -5560    -5730 
   -5898    -6079    -6270    -6488    -6669    -6789    -6924    -7078 
   -7252    -7476    -7673    -7807    -7929    -8046    -8179    -8334 
   -8446    -8554    -8698    -8841    -9001    -9170    -9319    -9467 
   -9613    -9751    -9892   -10025   -10160   -10303   -10430   -10543 
  -10652   -10750   -10863   -10991   -11094   -11172   -11250   -11321 
  -11361   -11365   -11358   -11348   -11317   -11276   -11215   -11126 
  -11026   -10897   -10739   -10586   -10436   -10296   -10193   -10066 
   -9863    -9636    -9437    -9261    -9094    -8949    -8819    -8658 
   -8471    -8294    -8133    -7996    -7873    -7730    -7589    -7466 
   -7327    -7209    -7132    -7026    -6903    -6817    -6741    -6681 
   -6633    -6567    -6493    -6409    -6324    -6272    -6251    -6257 
   -6254    -6228    -6210    -6191    -6153    -6146    -6201    -6259 
   -6281    -6289    -6331    -6400    -6432    -6455    -6538    -6628 
   -6679    -6717    -6731    -6732    -6763    -6801    -6841    -6876 
   -6863    -6858    -6891    -6870    -6808    -6786    -6783    -6764 
   -6727    -6683    -6663    -6631    -6570    -6507    -6457    -6442 
   -6444    -6442    -6435    -6397    -6338    -6312    -6304    -6307 
   -6338    -6354    -6353    -6350    -6318    -6285    -6291    -6309 
   -6322    -6327    -6335    -6370    -6415    -6443    -6466    -6485 
   -6511    -6567    -6621    -6658    -6693    -6732    -6789    -6845 
   -6902    -7015    -7160    -7258    -7346    -7466    -7607    -7754 
   -7885    -7996    -8109    -8229    -8357    -8495    -8618    -8749 
   -8918    -9072    -9189    -9298    -9406    -9513    -9616    -9706 
   -9786    -9850    -9899    -9926    -9914    -9872    -9842    -9814 
   -9768    -9702    -9614    -9526    -9439    -9333    -9229    -9148 
   -9078    -9015    -8931    -8811    -8689    -8599    -8544    -8505 
   -8452    -8384    -8337    -8299    -8245    -8198    -8148    -8066 
   -7978    -7919    -7869    -7801    -7712    -7624    -7538    -7426 
   -7322    -7267    -7217    -7136    -7048    -6968    -6918    -6891 
   -6844    -6786    -6732    -6677    -6654    -6651    -6632    -6605 
   -6552    -6485    -6453    -6435    -6400    -6343    -6257    -6154 
   -6053    -5971    -5900    -5805    -5699    -5610    -5520    -5431 
   -5368    -5335    -5308    -5279    -5259    -5239    -5200    -5163 
   -5163    -5205    -5271    -5355    -5451    -5518    -5559    -5628 
   -5728    -5856    -6023    -6197    -6350    -6481    -6585    -6683 
   -6810    -6978    -7182    -7372    -7527    -7699    -7889    -8062 
   -8229    -8415    -8621    -8812    -8961    -9096    -9223    -9306 
   -9382    -9510    -9710    -9954   -10116   -10120   -10108   -10206 
  -10361   -10481   -10531   -10554   -10619   -10705   -10750   -10725 
  -10690   -10747   -10847   -10863   -10802   -10667   -10508   -10458 
  -10461   -10404   -10316   -10179   -10010    -9891    -9787    -9659 
   -9513    -9335    -9153    -9012    -8884    -8716    -8546    -8429 
   -8316    -8189    -8082    -7946    -7774    -7628    -7503    -7393 
   -7312    -7225    -7113    -6966    -6805    -6690    -6590    -6448 
   -6274    -6110    -5987    -5888    -5792    -5710    -5613    -5498 
   -5409    -5354    -5310    -5277    -5244    -5213    -5211    -5238 
   -5256    -5266    -5282    -5305    -5354    -5413    -5436    -5472 
   -5571    -5664    -5713    -5761    -5827    -5910    -6000    -6088 
