Origin Time       2025/01/13 21:19:00
Lat.              31.8
Long.             131.6
Depth. (km)       30
Mag.              6.9
Station Code      SMN002
Station Lat.      35.4713
Station Long.     133.0681
Station Height(m) 3
Record Time       2025/01/13 21:21:31
Sampling Freq(Hz) 100Hz
Duration Time(s)  78
Dir.              U-D
Scale Factor      7845(gal)/8223790
Max. Acc. (gal)   0.701
Last Correction   2025/01/13 21:21:32
Memo.             
[...]
  -15817   -15828   -15842   -15857   -15871   -15889   -15912   -15935 
  -15954   -15971   -15986   -16005   -16025   -16044   -16070   -16093 
  -16110   -16127   -16141   -16150   -16151   -16148   -16144   -16139 
  -16128   -16116   -16105   -16093   -16077   -16059   -16039   -16013 
  -15986   -15962   -15935   -15904   -15874   -15840   -15808   -15780 
  -15750   -15724   -15708   -15697   -15693   -15691   -15688   -15696 
  -15709   -15722   -15732   -15747   -15766   -15789   -15811   -15830 
  -15850   -15871   -15890   -15907   -15925   -15954   -15979   -16004 
  -16035   -16069   -16100   -16132   -16163   -16190   -16214   -16236 
  -16259   -16278   -16289   -16294   -16299   -16303   -16301   -16297 
  -16287   -16274   -16264   -16248   -16228   -16210   -16191   -16171 
  -16151   -16131   -16109   -16089   -16069   -16050   -16036   -16021 
  -16001   -15982   -15965   -15947   -15927   -15901   -15878   -15851 
  -15816   -15782   -15751   -15723   -15693   -15670   -15657   -15646 
  -15641   -15642   -15645   -15647   -15653   -15661   -15666   -15669 
  -15673   -15674   -15670   -15668   -15661   -15651   -15641   -15628 
  -15615   -15606   -15600   -15596   -15592   -15591   -15587   -15585 
  -15588   -15587   -15589   -15599   -15612   -15624   -15639   -15650 
  -15658   -15670   -15678   -15688   -15701   -15714   -15730   -15750 
  -15770   -15793   -15817   -15842   -15867   -15897   -15924   -15944 
  -15965   -15981   -15990   -15997   -16001   -16002   -16002   -16001 
  -16000   -15998   -16000   -16002   -16005   -16005   -16004   -16005 
  -16009   -16009   -16005   -15997   -15984   -15969   -15947   -15923 
  -15894   -15865   -15832   -15799   -15761   -15726   -15693   -15658 
  -15626   -15599   -15572   -15552   -15537   -15520   -15510   -15502 
  -15498   -15495   -15489   -15485   -15484   -15483   -15481   -15481 
  -15485   -15495   -15508   -15520   -15533   -15546   -15561   -15580 
  -15601   -15622   -15646   -15673   -15697   -15726   -15753   -15777 
  -15805   -15835   -15859   -15884   -15909   -15935   -15965   -15994 
  -16023   -16051   -16081   -16112   -16143   -16171   -16200   -16229 
  -16258   -16287   -16309   -16329   -16348   -16363   -16374   -16383 
  -16389   -16390   -16390   -16383   -16371   -16359   -16344   -16321 
  -16298   -16276   -16255   -16232   -16208   -16187   -16170   -16155 
  -16143   -16133   -16128   -16128   -16131   -16135   -16146   -16158 
  -16163   -16171   -16185   -16194   -16201   -16206   -16213   -16221 
  -16228   -16232   -16233   -16229   -16225   -16222   -16218   -16213 
  -16205   -16200   -16193   -16181   -16167   -16156   -16146   -16132 
  -16120   -16106   -16096   -16085   -16074   -16066   -16056   -16044 
  -16036   -16029   -16020   -16009   -15998   -15989   -15982   -15978 
  -15975   -15971   -15978   -15990   -16004   -16012   -16023   -16043 
  -16058   -16067   -16075   -16082   -16087   -16089   -16081   -16069 
  -16054   -16036   -16009   -15979   -15948   -15919   -15892   -15863 
  -15836   -15816   -15803   -15795   -15789   -15789   -15797   -15808 
  -15819   -15831   -15846   -15863   -15881   -15896   -15905   -15909 
  -15913   -15915   -15908   -15894   -15877   -15855   -15831   -15804 
  -15768   -15731   -15696   -15661   -15624   -15587   -15553   -15516 
  -15481   -15452   -15422   -15394   -15369   -15349   -15334   -15322 
  -15315   -15318   -15322   -15329   -15344   -15361   -15379   -15400 
  -15422   -15441   -15461   -15483   -15499   -15518   -15539   -15557 
  -15570   -15580   -15592   -15610   -15624   -15635   -15642   -15653 
  -15665   -15674   -15678   -15680   -15681   -15680   -15672   -15662 
  -15651   -15639   -15626   -15612   -15596   -15580   -15566   -15556 
  -15547   -15539   -15526   -15519   -15516   -15510   -15510   -15514 
  -15518   -15530   -15542   -15554   -15569   -15591   -15611   -15628 
  -15645   -15662   -15682   -15701   -15714   -15726   -15741   -15755 
  -15765   -15769   -15778   -15790   -15797   -15807   -15817   -15830 
  -15847   -15867   -15889   -15912   -15940   -15973   -16002   -16035 
  -16067   -16100   -16129   -16159   -16185   -16206   -16231   -16249 
  -16266   -16283   -16298   -16310   -16322   -16332   -16341   -16349 
  -16353   -16356   -16362   -16362   -16356   -16351   -16341   -16324 
  -16305   -16285   -16266   -16244   -16218   -16195   -16170   -16147 
  -16129   -16113   -16093   -16073   -16056   -16043   -16025   -16013 
  -16005   -15998   -15990   -15982   -15977   -15967   -15959   -15957 
  -15955   -15950   -15944   -15943   -15944   -15942   -15939   -15938 
  -15935   -15932   -15932   -15936   -15938   -15943   -15948   -15952 
  -15958   -15962   -15963   -15969   -15975   -15979   -15986   -15992 
  -15996   -16002   -16011   -16013   -16016   -16023   -16025   -16027 
  -16031   -16033   -16035   -16033   -16031   -16031   -16027   -16020 
  -16012   -16000   -15986   -15973   -15957   -15936   -15917   -15896 
  -15874   -15851   -15826   -15800   -15774   -15747   -15724   -15707 
  -15691   -15677   -15668   -15660   -15653   -15649   -15649   -15650 
  -15651   -15655   -15665   -15674   -15682   -15695   -15708   -15718 
  -15726   -15734   -15742   -15749   -15758   -15770   -15781   -15795 
  -15807   -15820   -15839   -15850   -15865   -15885   -15901   -15917 
  -15932   -15947   -15965   -15981   -15994   -16009   -16025   -16039 
  -16050   -16062   -16070   -16075   -16082   -16087   -16090   -16092 
  -16100   -16109   -16113   -16117   -16125   -16137   -16152   -16164 
  -16178   -16193   -16205   -16220   -16236   -16248   -16256   -16266 
  -16276   -16285   -16290   -16293   -16293   -16291   -16286   -16282 
  -16278   -16270   -16262   -16256   -16254   -16249   -16247   -16248 
  -16249   -16256   -16260   -16259   -16263   -16268   -16271   -16271 
  -16268   -16263   -16255   -16243   -16229   -16220   -16212   -16198 
  -16186   -16171   -16151   -16132   -16109   -16081   -16054   -16023 
  -15988   -15955   -15923   -15888   -15853   -15820   -15790   -15761 
  -15735   -15714   -15693   -15673   -15657   -15646   -15634   -15622 
  -15608   -15595   -15583   -15566   -15553   -15541   -15527   -15514 
  -15504   -15493   -15477   -15464   -15453   -15444   -15433   -15425 
  -15418   -15407   -15394   -15385   -15380   -15371   -15358   -15350 
  -15344   -15337   -15329   -15318   -15302   -15296   -15292   -15276 
  -15260   -15249   -15238   -15230   -15223   -15218   -15210   -15207 
  -15207   -15211   -15215   -15219   -15232   -15245   -15260   -15277 
  -15298   -15323   -15350   -15376   -15408   -15448   -15485   -15520 
  -15556   -15589   -15626   -15662   -15699   -15736   -15774   -15807 
  -15835   -15869   -15904   -15940   -15971   -15998   -16027   -16055 
  -16082   -16106   -16127   -16144   -16160   -16175   -16185   -16193 
  -16204   -16208   -16208   -16212   -16214   -16214   -16218   -16220 
  -16220   -16227   -16236   -16241   -16254   -16266   -16275   -16289 
  -16301   -16313   -16324   -16332   -16344   -16356   -16360   -16363 
  -16367   -16370   -16368   -16364   -16360   -16351   -16341   -16330 
  -16317   -16301   -16282   -16268   -16251   -16227   -16204   -16183 
  -16166   -16147   -16125   -16102   -16079   -16056   -16032   -16006 
  -15986   -15967   -15948   -15932   -15919   -15907   -15893   -15878 
  -15863   -15851   -15843   -15835   -15830   -15826   -15822   -15822 
  -15822   -15819   -15817   -15820   -15828   -15835   -15843   -15850 
  -15858   -15867   -15877   -15885   -15889   -15893   -15897   -15896 
  -15892   -15886   -15877   -15869   -15857   -15842   -15828   -15813 
  -15796   -15777   -15754   -15731   -15712   -15693   -15672   -15660 
  -15647   -15635   -15630   -15626   -15622   -15622   -15620   -15619 
  -15619   -15618   -15618   -15618   -15616   -15612   -15607   -15599 
  -15587   -15574   -15560   -15546   -15533   -15516   -15502   -15488 
  -15477   -15469   -15462   -15457   -15458   -15464   -15471   -15484 
  -15503   -15523   -15546   -15572   -15596   -15619   -15642   -15668 
  -15695   -15722   -15745   -15765   -15782   -15801   -15817   -15832 
  -15846   -15857   -15869   -15876   -15881   -15886   -15889   -15894 
  -15903   -15908   -15911   -15915   -15920   -15921   -15921   -15919 
  -15916   -15917   -15916   -15912   -15908   -15904   -15897   -15892 
  -15892   -15896   -15900   -15907   -15916   -15927   -15942   -15959 
  -15975   -15994   -16017   -16040   -16056   -16070   -16086   -16102 
  -16116   -16121   -16127   -16131   -16128   -16124   -16121   -16114 
  -16108   -16100   -16089   -16075   -16066   -16052   -16038   -16023 
  -16005   -15990   -15979   -15963   -15947   -15936   -15930   -15920 
  -15912   -15912   -15913   -15915   -15917   -15921   -15927   -15934 
  -15943   -15950   -15955   -15963   -15973   -15979   -15985   -15993 
  -15998   -16001   -16008   -16013   -16019   -16028   -16036   -16046 
  -16055   -16065   -16077   -16087   -16096   -16105   -16114   -16123 
  -16127   -16131   -16132   -16129   -16129   -16132   -16129   -16127 
  -16124   -16121   -16117   -16112   -16104   -16094   -16086   -16079 
  -16071   -16056   -16039   -16025   -16011   -15994   -15978   -15959 
  -15943   -15928   -15907   -15884   -15859   -15835   -15807   -15778 
  -15753   -15726   -15697   -15673   -15651   -15633   -15616   -15599 
  -15584   -15570   -15558   -15547   -15538   -15530   -15520   -15514 
  -15511   -15508   -15504   -15499   -15496   -15493   -15492   -15492 
  -15488   -15489   -15489   -15485   -15483   -15480   -15475   -15471 
  -15466   -15458   -15450   -15444   -15435   -15427   -15421   -15414 
  -15406   -15395   -15390   -15388   -15384   -15383   -15384   -15390 
  -15399   -15411   -15421   -15434   -15454   -15473   -15489   -15512 
  -15537   -15561   -15588   -15612   -15637   -15662   -15688   -15715 
  -15739   -15762   -15786   -15808   -15828   -15851   -15871   -15890 
  -15908   -15925   -15943   -15959   -15969   -15979   -15996   -16008 
  -16015   -16023   -16031   -16036   -16039   -16042   -16043   -16040 
  -16039   -16038   -16036   -16035   -16028   -16023   -16019   -16013 
  -16005   -15997   -15993   -15985   -15978   -15974   -15969   -15961 
  -15948   -15940   -15934   -15925   -15919   -15915   -15909   -15911 
  -15917   -15923   -15928   -15940   -15957   -15969   -15985   -16004 
  -16021   -16044   -16070   -16093   -16114   -16139   -16163   -16183 
  -16205   -16228   -16251   -16279   -16305   -16328   -16352   -16375 
  -16397   -16418   -16437   -16456   -16474   -16490   -16501   -16511 
  -16517   -16519   -16524   -16525   -16526   -16524   -16515   -16511 
  -16505   -16494   -16484   -16475   -16464   -16451   -16437   -16420 
  -16398   -16375   -16348   -16320   -16295   -16264   -16231   -16200 
  -16164   -16125   -16083   -16044   -16004   -15966   -15927   -15878 
  -15831   -15790   -15755   -15719   -15681   -15646   -15614   -15583 
  -15556   -15531   -15504   -15483   -15465   -15448   -15434   -15425 
  -15414   -15406   -15402   -15396   -15391   -15390   -15391   -15392 
  -15394   -15398   -15402   -15402   -15407   -15410   -15414   -15421 
  -15431   -15444   -15456   -15471   -15487   -15506   -15526   -15549 
  -15574   -15600   -15623   -15649   -15677   -15704   -15730   -15753 
  -15774   -15797   -15820   -15842   -15861   -15884   -15908   -15930 
  -15951   -15974   -15998   -16021   -16039   -16052   -16063   -16071 
  -16075   -16078   -16078   -16074   -16069   -16058   -16044   -16028 
  -16012   -16000   -15982   -15965   -15948   -15928   -15911   -15897 
  -15884   -15870   -15858   -15849   -15839   -15828   -15822   -15822 
  -15819   -15813   -15813   -15816   -15817   -15820   -15823   -15824 
  -15826   -15827   -15835   -15840   -15840   -15843   -15844   -15842 
  -15838   -15832   -15830   -15826   -15819   -15808   -15795   -15782 
  -15772   -15757   -15739   -15726   -15714   -15697   -15685   -15674 
  -15658   -15646   -15638   -15630   -15620   -15612   -15610   -15604 
  -15597   -15592   -15589   -15587   -15584   -15583   -15583   -15584 
  -15588   -15591   -15595   -15604   -15618   -15631   -15645   -15664 
  -15688   -15708   -15728   -15750   -15766   -15780   -15793   -15804 
  -15811   -15816   -15822   -15824   -15823   -15820   -15815   -15811 
  -15805   -15804   -15804   -15799   -15796   -15797   -15797   -15796 
  -15796   -15796   -15796   -15795   -15790   -15788   -15788   -15788 
  -15786   -15785   -15781   -15778   -15778   -15781   -15785   -15789 
  -15796   -15803   -15808   -15813   -15822   -15832   -15843   -15850 
  -15859   -15870   -15881   -15890   -15907   -15928   -15951   -15973 
  -15994   -16020   -16046   -16071   -16100   -16125   -16152   -16183 
  -16209   -16228   -16247   -16267   -16285   -16298   -16310   -16324 
  -16335   -16343   -16348   -16352   -16356   -16357   -16364   -16372 
  -16378   -16382   -16386   -16384   -16378   -16372   -16367   -16362 
  -16355   -16344   -16329   -16317   -16305   -16289   -16267   -16247 
  -16228   -16205   -16183   -16160   -16137   -16116   -16089   -16060 
  -16036   -16009   -15982   -15954   -15923   -15889   -15853   -15812 
  -15772   -15730   -15684   -15639   -15601   -15561   -15518   -15479 
  -15442   -15408   -15377   -15346   -15318   -15292   -15267   -15244 
  -15223   -15202   -15187   -15178   -15164   -15153   -15149   -15147 
  -15141   -15140   -15148   -15157   -15167   -15182   -15198   -15214 
  -15230   -15250   -15269   -15287   -15311   -15338   -15360   -15385 
  -15411   -15434   -15461   -15487   -15511   -15537   -15560   -15581 
  -15606   -15628   -15643   -15660   -15678   -15696   -15708   -15716 
  -15726   -15739   -15750   -15758   -15765   -15773   -15781   -15789 
  -15793   -15796   -15804   -15809   -15811   -15816   -15826   -15834 
  -15840   -15849   -15858   -15867   -15878   -15890   -15900   -15907 
  -15917   -15930   -15936   -15943   -15952   -15963   -15973   -15985 
  -15996   -16009   -16027   -16044   -16060   -16077   -16094   -16109 
  -16125   -16143   -16158   -16171   -16189   -16206   -16220   -16231 
  -16241   -16249   -16256   -16264   -16270   -16272   -16272   -16271 
  -16271   -16267   -16260   -16256   -16252   -16245   -16237   -16233 
  -16227   -16216   -16208   -16201   -16187   -16168   -16150   -16131 
  -16112   -16094   -16077   -16058   -16042   -16025   -16009   -15992 
  -15971   -15959   -15947   -15932   -15921   -15909   -15900   -15893 
  -15882   -15871   -15863   -15862   -15861   -15857   -15855   -15858 
  -15862   -15870   -15881   -15893   -15908   -15925   -15942   -15959 
  -15974   -15989   -16009   -16028   -16039   -16050   -16062   -16070 
  -16074   -16078   -16079   -16075   -16070   -16065   -16058   -16047 
  -16035   -16023   -16006   -15985   -15961   -15935   -15908   -15877 
  -15840   -15808   -15780   -15753   -15724   -15695   -15672   -15654 
  -15637   -15622   -15610   -15604   -15597   -15592   -15591   -15591 
  -15591   -15596   -15601   -15603   -15608   -15618   -15622   -15624 
  -15633   -15642   -15649   -15660   -15670   -15678   -15687   -15695 
  -15701   -15708   -15715   -15722   -15728   -15728   -15724   -15723 
  -15722   -15716   -15709   -15703   -15699   -15693   -15689   -15685 
  -15681   -15681   -15682   -15681   -15678   -15678   -15681   -15682 
  -15687   -15697   -15707   -15715   -15726   -15738   -15751   -15762 
  -15773   -15792   -15811   -15824   -15838   -15851   -15861   -15867 
  -15881   -15893   -15900   -15904   -15905   -15905   -15907   -15905 
  -15901   -15897   -15893   -15886   -15878   -15865   -15850   -15839 
  -15826   -15811   -15799   -15785   -15773   -15761   -15746   -15727 
  -15714   -15707   -15697   -15687   -15680   -15676   -15674   -15676 
  -15676   -15680   -15687   -15696   -15705   -15715   -15724   -15741 
  -15759   -15777   -15796   -15813   -15831   -15850   -15867   -15884 
  -15901   -15921   -15938   -15948   -15961   -15975   -15989   -16000 
  -16012   -16024   -16033   -16043   -16052   -16059   -16063   -16067 
  -16070   -16075   -16075   -16071   -16069   -16066   -16065   -16060 
  -16056   -16051   -16044   -16036   -16027   -16016   -16008   -15998 
  -15990   -15985   -15978   -15970   -15965   -15959   -15950   -15943 
  -15938   -15931   -15924   -15915   -15907   -15904   -15898   -15892 
  -15888   -15882   -15880   -15876   -15874   -15876   -15874   -15877 
  -15884   -15888   -15896   -15907   -15916   -15927   -15943   -15959 
  -15977   -15997   -16016   -16032   -16050   -16066   -16082   -16097 
  -16110   -16125   -16140   -16158   -16167   -16170   -16177   -16182 
  -16183   -16181   -16178   -16174   -16167   -16159   -16151   -16141 
  -16129   -16114   -16104   -16092   -16071   -16054   -16038   -16019 
  -16000   -15984   -15965   -15947   -15934   -15921   -15907   -15892 
  -15878   -15865   -15853   -15842   -15832   -15819   -15807   -15797 
  -15790   -15781   -15770   -15762   -15755   -15751   -15747   -15741 
  -15736   -15738   -15738   -15736   -15736   -15736   -15738   -15738 
  -15738   -15738   -15738   -15738   -15743   -15751   -15753   -15754 
  -15761   -15763   -15763   -15768   -15776   -15782   -15784   -15789 
  -15795   -15797   -15797   -15795   -15793   -15792   -15790   -15790 
  -15785   -15780   -15778   -15780   -15778   -15777   -15774   -15774 
  -15776   -15773   -15770   -15769   -15766   -15765   -15765   -15761 
  -15755   -15754   -15751   -15750   -15749   -15749   -15750   -15750 
  -15753   -15757   -15761   -15763   -15769   -15777   -15782   -15789 
  -15797   -15800   -15803   -15811   -15819   -15828   -15836   -15840 
  -15846   -15850   -15854   -15858   -15865   -15867   -15869   -15874 
  -15877   -15881   -15882   -15885   -15890   -15893   -15896   -15901 
  -15909   -15916   -15923   -15930   -15943   -15959   -15969   -15975 
  -15989   -16004   -16015   -16029   -16047   -16066   -16087   -16104 
  -16120   -16136   -16155   -16177   -16195   -16213   -16231   -16249 
  -16268   -16283   -16295   -16309   -16321   -16328   -16333   -16339 
  -16344   -16345   -16343   -16340   -16336   -16330   -16325   -16318 
  -16308   -16298   -16289   -16279   -16266   -16252   -16241   -16225 
  -16205   -16183   -16159   -16137   -16112   -16081   -16052   -16025 
  -16000   -15975   -15948   -15921   -15898   -15878   -15854   -15832 
  -15813   -15790   -15773   -15759   -15743   -15728   -15714   -15704 
  -15700   -15693   -15692   -15691   -15692   -15696   -15699   -15701 
  -15707   -15715   -15720   -15726   -15735   -15745   -15751   -15759 
  -15763   -15768   -15773   -15778   -15780   -15782   -15786   -15790 
  -15793   -15797   -15803   -15809   -15815   -15819   -15824   -15830 
  -15836   -15844   -15850   -15855   -15863   -15874   -15884   -15892 
  -15900   -15908   -15921   -15931   -15936   -15943   -15947   -15950 
  -15955   -15957   -15958   -15959   -15961   -15961   -15961   -15962 
  -15962   -15963   -15965   -15965   -15967   -15970   -15970   -15974 
  -15977   -15977   -15973   -15971   -15969   -15965   -15962   -15958 
  -15951   -15942   -15936   -15930   -15920   -15913   -15905   -15894 
  -15886   -15877   -15866   -15858   -15851   -15844   -15839   -15834 
