Origin Time       2025/01/13 21:19:00
Lat.              31.8
Long.             131.6
Depth. (km)       30
Mag.              6.9
Station Code      SMN012
Station Lat.      34.3551
Station Long.     131.9354
Station Height(m) 314
Record Time       2025/01/13 21:20:58
Sampling Freq(Hz) 100Hz
Duration Time(s)  60
Dir.              N-S
Scale Factor      7845(gal)/8223790
Max. Acc. (gal)   1.377
Last Correction   2025/01/13 21:20:57
Memo.             
[...]
   -3866    -3905    -3919    -3910    -3878    -3817    -3735    -3639 
   -3541    -3450    -3381    -3330    -3300    -3299    -3327    -3384 
   -3464    -3569    -3690    -3807    -3904    -3983    -4048    -4090 
   -4105    -4093    -4056    -4002    -3932    -3858    -3788    -3727 
   -3693    -3708    -3761    -3842    -3952    -4077    -4198    -4305 
   -4384    -4432    -4448    -4429    -4379    -4294    -4168    -4017 
   -3856    -3701    -3573    -3485    -3453    -3485    -3570    -3701 
   -3855    -4000    -4128    -4236    -4310    -4353    -4365    -4342 
   -4297    -4251    -4216    -4185    -4153    -4124    -4091    -4055 
   -4027    -4009    -3987    -3978    -3990    -4001    -3994    -3970 
   -3931    -3873    -3792    -3709    -3642    -3593    -3566    -3561 
   -3576    -3618    -3674    -3728    -3762    -3773    -3763    -3746 
   -3738    -3736    -3746    -3770    -3800    -3820    -3825    -3816 
   -3798    -3765    -3712    -3654    -3596    -3549    -3537    -3569 
   -3630    -3717    -3825    -3927    -4000    -4047    -4054    -4016 
   -3947    -3865    -3775    -3699    -3643    -3605    -3574    -3537 
   -3483    -3414    -3326    -3237    -3168    -3126    -3123    -3180 
   -3272    -3373    -3488    -3600    -3689    -3757    -3804    -3824 
   -3815    -3801    -3798    -3801    -3804    -3825    -3874    -3925 
   -3963    -3975    -3956    -3910    -3850    -3796    -3766    -3754 
   -3762    -3802    -3859    -3906    -3951    -3987    -4002    -4001 
   -4001    -4006    -4006    -4002    -4005    -4004    -3991    -3979 
   -3964    -3943    -3908    -3856    -3813    -3786    -3771    -3766 
   -3770    -3774    -3786    -3816    -3861    -3912    -3966    -4027 
   -4109    -4199    -4270    -4320    -4357    -4375    -4379    -4378 
   -4359    -4325    -4282    -4222    -4149    -4067    -3981    -3894 
   -3815    -3738    -3655    -3578    -3511    -3456    -3415    -3404 
   -3431    -3472    -3515    -3564    -3611    -3639    -3657    -3676 
   -3696    -3711    -3711    -3711    -3734    -3786    -3859    -3951 
   -4052    -4147    -4226    -4280    -4299    -4284    -4241    -4183 
   -4122    -4059    -3991    -3929    -3879    -3831    -3771    -3713 
   -3665    -3638    -3649    -3696    -3775    -3877    -3985    -4082 
   -4151    -4185    -4197    -4206    -4214    -4216    -4212    -4195 
   -4149    -4067    -3956    -3831    -3693    -3555    -3441    -3358 
   -3319    -3318    -3337    -3368    -3412    -3462    -3510    -3545 
   -3549    -3523    -3487    -3443    -3397    -3366    -3353    -3346 
   -3342    -3352    -3370    -3393    -3415    -3433    -3457    -3480 
   -3487    -3497    -3524    -3570    -3624    -3673    -3715    -3734 
   -3720    -3700    -3689    -3672    -3657    -3658    -3665    -3663 
   -3654    -3638    -3622    -3618    -3620    -3624    -3634    -3657 
   -3701    -3766    -3839    -3921    -4004    -4083    -4162    -4241 
   -4324    -4407    -4487    -4550    -4577    -4565    -4519    -4448 
   -4369    -4305    -4261    -4228    -4191    -4159    -4131    -4102 
   -4081    -4060    -4028    -3983    -3924    -3847    -3757    -3655 
   -3558    -3474    -3412    -3391    -3426    -3503    -3599    -3704 
   -3811    -3910    -3991    -4056    -4104    -4141    -4176    -4205 
   -4234    -4255    -4256    -4241    -4210    -4151    -4068    -3977 
   -3878    -3785    -3692    -3604    -3539    -3507    -3515    -3573 
   -3673    -3786    -3892    -3970    -3994    -3958    -3874    -3763 
   -3649    -3557    -3510    -3516    -3573    -3665    -3778    -3898 
   -4010    -4093    -4143    -4158    -4135    -4078    -4000    -3910 
   -3811    -3701    -3593    -3492    -3399    -3302    -3204    -3125 
   -3063    -3019    -3018    -3069    -3176    -3337    -3522    -3708 
   -3893    -4055    -4179    -4264    -4305    -4298    -4253    -4178 
   -4075    -3956    -3838    -3739    -3661    -3597    -3551    -3519 
   -3496    -3480    -3469    -3465    -3480    -3518    -3559    -3595 
   -3622    -3635    -3631    -3611    -3578    -3542    -3505    -3477 
   -3462    -3473    -3515    -3581    -3661    -3740    -3802    -3832 
   -3823    -3790    -3754    -3721    -3694    -3674    -3666    -3670 
   -3696    -3748    -3819    -3892    -3958    -4010    -4037    -4037 
   -4013    -3985    -3959    -3928    -3904    -3908    -3933    -3963 
   -3986    -3989    -3967    -3917    -3840    -3747    -3651    -3562 
   -3497    -3456    -3422    -3397    -3392    -3412    -3458    -3523 
   -3599    -3673    -3740    -3816    -3900    -3989    -4078    -4159 
   -4234    -4297    -4338    -4372    -4403    -4418    -4407    -4361 
   -4283    -4174    -4027    -3852    -3658    -3453    -3261    -3118 
   -3034    -3006    -3038    -3115    -3210    -3316    -3420    -3501 
   -3553    -3578    -3584    -3572    -3549    -3539    -3555    -3591 
   -3643    -3719    -3805    -3883    -3958    -4031    -4082    -4105 
   -4099    -4060    -3983    -3885    -3771    -3646    -3516    -3404 
   -3325    -3289    -3295    -3333    -3387    -3449    -3515    -3564 
   -3566    -3538    -3481    -3383    -3268    -3173    -3125    -3141 
   -3218    -3333    -3470    -3630    -3794    -3950    -4093    -4217 
   -4318    -4395    -4433    -4425    -4383    -4310    -4205    -4075 
   -3939    -3811    -3712    -3658    -3634    -3631    -3647    -3680 
   -3736    -3809    -3893    -3982    -4066    -4120    -4137    -4121 
   -4066    -3978    -3861    -3726    -3574    -3410    -3253    -3134 
   -3073    -3069    -3115    -3190    -3276    -3370    -3473    -3573 
   -3661    -3751    -3846    -3931    -4008    -4077    -4124    -4135 
   -4110    -4071    -4028    -3978    -3928    -3889    -3855    -3823 
   -3789    -3770    -3778    -3800    -3816    -3824    -3813    -3769 
   -3699    -3604    -3489    -3370    -3262    -3179    -3134    -3130 
   -3165    -3238    -3341    -3453    -3566    -3688    -3811    -3925 
   -4020    -4077    -4097    -4101    -4101    -4105    -4125    -4156 
   -4191    -4224    -4240    -4226    -4182    -4109    -4025    -3944 
   -3888    -3869    -3873    -3890    -3931    -3978    -4008    -4020 
   -4006    -3960    -3897    -3821    -3736    -3659    -3604    -3580 
   -3576    -3586    -3607    -3631    -3667    -3720    -3792    -3877 
   -3956    -4025    -4094    -4159    -4212    -4241    -4243    -4225 
   -4197    -4160    -4122    -4086    -4036    -3960    -3877    -3807 
   -3757    -3719    -3700    -3701    -3705    -3700    -3709    -3739 
   -3767    -3802    -3867    -3951    -4036    -4112    -4175    -4216 
   -4220    -4194    -4159    -4118    -4066    -4012    -3963    -3906 
   -3848    -3809    -3792    -3789    -3800    -3824    -3852    -3879 
   -3901    -3909    -3902    -3882    -3858    -3840    -3840    -3875 
   -3958    -4077    -4202    -4305    -4376    -4407    -4395    -4355 
   -4299    -4225    -4121    -3981    -3812    -3639    -3483    -3354 
   -3264    -3215    -3204    -3233    -3292    -3366    -3439    -3495 
   -3515    -3507    -3488    -3464    -3443    -3457    -3511    -3591 
   -3699    -3831    -3954    -4037    -4081    -4095    -4091    -4067 
   -4021    -3963    -3892    -3808    -3732    -3672    -3615    -3564 
   -3518    -3473    -3424    -3381    -3354    -3341    -3327    -3307 
   -3295    -3300    -3311    -3329    -3360    -3399    -3437    -3470 
   -3488    -3481    -3460    -3437    -3419    -3419    -3439    -3480 
   -3534    -3600    -3682    -3774    -3861    -3946    -4017    -4060 
   -4083    -4094    -4086    -4066    -4036    -4001    -3970    -3944 
   -3912    -3870    -3823    -3769    -3715    -3681    -3685    -3721 
   -3777    -3831    -3881    -3921    -3947    -3970    -4000    -4018 
   -4031    -4062    -4094    -4106    -4117    -4129    -4136    -4143 
   -4145    -4152    -4163    -4156    -4136    -4108    -4063    -4017 
   -3974    -3925    -3889    -3865    -3844    -3855    -3885    -3902 
   -3927    -3960    -3990    -4014    -4029    -4048    -4072    -4091 
   -4124    -4178    -4230    -4279    -4332    -4336    -4293    -4252 
   -4194    -4132    -4110    -4098    -4083    -4097    -4110    -4108 
   -4105    -4090    -4055    -4008    -3943    -3875    -3819    -3767 
   -3739    -3746    -3778    -3832    -3901    -3977    -4067    -4159 
   -4244    -4332    -4395    -4417    -4403    -4352    -4259    -4132 
   -3987    -3832    -3667    -3501    -3343    -3203    -3080    -2976 
   -2916    -2899    -2924    -2984    -3082    -3215    -3357    -3477 
   -3570    -3624    -3632    -3622    -3604    -3576    -3553    -3546 
   -3553    -3574    -3607    -3655    -3724    -3796    -3854    -3901 
   -3929    -3927    -3902    -3867    -3817    -3755    -3684    -3607 
   -3524    -3449    -3385    -3337    -3312    -3315    -3337    -3377 
   -3434    -3489    -3539    -3591    -3638    -3686    -3747    -3808 
   -3856    -3902    -3942    -3969    -3994    -4013    -4016    -4010 
   -4010    -4013    -4023    -4055    -4102    -4159    -4230    -4294 
   -4326    -4332    -4311    -4270    -4216    -4141    -4041    -3923 
   -3785    -3623    -3442    -3262    -3107    -2986    -2903    -2864 
   -2874    -2929    -3029    -3167    -3339    -3534    -3726    -3909 
   -4082    -4224    -4324    -4388    -4414    -4407    -4368    -4293 
   -4199    -4112    -4023    -3928    -3844    -3771    -3711    -3676 
   -3670    -3697    -3765    -3861    -3979    -4112    -4237    -4338 
   -4406    -4430    -4401    -4322    -4209    -4077    -3932    -3781 
   -3626    -3484    -3373    -3283    -3211    -3153    -3096    -3045 
   -2995    -2941    -2906    -2895    -2905    -2945    -3009    -3090 
   -3184    -3267    -3343    -3427    -3505    -3581    -3661    -3727 
   -3771    -3813    -3838    -3825    -3796    -3747    -3661    -3557 
   -3456    -3356    -3268    -3204    -3160    -3137    -3125    -3125 
   -3149    -3190    -3246    -3330    -3429    -3519    -3604    -3689 
   -3767    -3828    -3855    -3838    -3784    -3703    -3600    -3496 
   -3406    -3333    -3285    -3268    -3288    -3352    -3456    -3600 
   -3777    -3969    -4160    -4330    -4463    -4554    -4599    -4602 
   -4573    -4510    -4414    -4311    -4228    -4167    -4118    -4090 
   -4077    -4064    -4067    -4085    -4101    -4116    -4122    -4114 
   -4087    -4035    -3966    -3896    -3821    -3744    -3670    -3604 
   -3557    -3522    -3510    -3547    -3624    -3732    -3888    -4066 
   -4236    -4380    -4498    -4585    -4630    -4635    -4623    -4581 
   -4494    -4378    -4260    -4139    -4017    -3913    -3835    -3784 
   -3763    -3775    -3805    -3852    -3905    -3936    -3948    -3952 
   -3935    -3902    -3869    -3821    -3762    -3711    -3663    -3616 
   -3588    -3569    -3558    -3573    -3612    -3673    -3761    -3873 
   -3989    -4090    -4178    -4244    -4283    -4302    -4306    -4282 
   -4220    -4128    -4027    -3931    -3846    -3782    -3736    -3716 
   -3716    -3720    -3744    -3809    -3878    -3932    -3996    -4055 
   -4085    -4094    -4087    -4052    -3994    -3928    -3844    -3754 
   -3678    -3599    -3516    -3449    -3393    -3353    -3348    -3380 
   -3435    -3499    -3559    -3611    -3639    -3643    -3626    -3592 
   -3561    -3523    -3466    -3412    -3366    -3321    -3283    -3254 
   -3230    -3215    -3218    -3244    -3288    -3346    -3408    -3477 
   -3561    -3653    -3735    -3813    -3888    -3936    -3956    -3952 
   -3932    -3901    -3858    -3801    -3731    -3642    -3534    -3414 
   -3292    -3168    -3055    -2967    -2895    -2847    -2833    -2852 
   -2891    -2947    -3034    -3150    -3289    -3458    -3646    -3828 
   -3998    -4152    -4278    -4376    -4448    -4494    -4522    -4525 
   -4491    -4415    -4302    -4168    -4027    -3882    -3757    -3666 
   -3623    -3636    -3688    -3757    -3854    -3977    -4086    -4170 
   -4248    -4297    -4306    -4301    -4280    -4256    -4236    -4218 
   -4207    -4206    -4218    -4241    -4259    -4276    -4284    -4272 
   -4270    -4272    -4253    -4244    -4237    -4216    -4198    -4170 
   -4125    -4082    -4041    -4018    -4014    -4025    -4060    -4112 
   -4163    -4201    -4218    -4214    -4185    -4140    -4085    -4021 
   -3954    -3890    -3834    -3792    -3767    -3751    -3743    -3747 
   -3757    -3778    -3821    -3890    -3973    -4064    -4158    -4232 
   -4287    -4330    -4355    -4357    -4353    -4344    -4321    -4298 
   -4291    -4283    -4263    -4243    -4207    -4149    -4089    -4028 
   -3959    -3879    -3798    -3732    -3681    -3642    -3624    -3622 
   -3642    -3672    -3693    -3732    -3786    -3844    -3910    -3962 
   -3977    -3959    -3908    -3817    -3701    -3570    -3415    -3253 
   -3098    -2945    -2803    -2687    -2596    -2524    -2475    -2440 
   -2413    -2403    -2409    -2435    -2488    -2570    -2679    -2825 
   -2991    -3159    -3331    -3495    -3622    -3716    -3798    -3851 
   -3871    -3867    -3840    -3790    -3728    -3666    -3607    -3555 
   -3511    -3472    -3431    -3379    -3327    -3277    -3237    -3219 
   -3218    -3226    -3245    -3272    -3303    -3330    -3350    -3364 
   -3365    -3369    -3375    -3380    -3411    -3476    -3572    -3705 
   -3869    -4052    -4259    -4469    -4672    -4864    -5020    -5132 
   -5209    -5239    -5221    -5175    -5103    -5008    -4896    -4772 
   -4635    -4480    -4307    -4131    -3954    -3777    -3604    -3434 
   -3268    -3119    -2998    -2899    -2817    -2755    -2705    -2668 
   -2656    -2673    -2721    -2817    -2965    -3161    -3392    -3640 
   -3897    -4133    -4330    -4482    -4591    -4660    -4699    -4704 
   -4677    -4629    -4560    -4482    -4419    -4369    -4332    -4314 
   -4310    -4298    -4279    -4263    -4232    -4187    -4135    -4064 
   -3974    -3875    -3774    -3670    -3564    -3462    -3370    -3300 
   -3260    -3249    -3267    -3308    -3361    -3420    -3485    -3551 
   -3608    -3645    -3662    -3654    -3622    -3569    -3511    -3451 
   -3389    -3334    -3303    -3299    -3321    -3365    -3422    -3480 
   -3547    -3616    -3677    -3734    -3786    -3827    -3851    -3861 
   -3863    -3859    -3846    -3820    -3775    -3708    -3616    -3510 
   -3397    -3280    -3177    -3110    -3079    -3088    -3134    -3203 
   -3285    -3373    -3456    -3537    -3616    -3701    -3802    -3915 
   -4027    -4139    -4256    -4375    -4494    -4611    -4722    -4818 
   -4892    -4939    -4962    -4962    -4935    -4895    -4849    -4792 
   -4726    -4652    -4561    -4457    -4345    -4230    -4110    -3977 
   -3838    -3709    -3585    -3461    -3342    -3235    -3144    -3068 
   -3021    -3003    -3010    -3038    -3086    -3136    -3181    -3230 
   -3300    -3402    -3534    -3672    -3798    -3919    -4024    -4108 
   -4178    -4252    -4329    -4407    -4488    -4554    -4602    -4633 
   -4645    -4634    -4608    -4584    -4569    -4571    -4583    -4587 
   -4575    -4531    -4459    -4364    -4256    -4140    -4020    -3909 
   -3815    -3723    -3636    -3569    -3505    -3447    -3407    -3387 
   -3383    -3397    -3426    -3461    -3493    -3516    -3534    -3549 
   -3565    -3586    -3622    -3669    -3720    -3774    -3835    -3902 
   -3971    -4041    -4114    -4185    -4259    -4344    -4429    -4518 
   -4618    -4720    -4828    -4935    -5017    -5063    -5077    -5065 
   -5038    -5001    -4970    -4943    -4903    -4845    -4772    -4684 
   -4569    -4445    -4332    -4230    -4135    -4045    -3960    -3875 
   -3781    -3694    -3612    -3526    -3456    -3408    -3379    -3369 
   -3370    -3369    -3365    -3352    -3326    -3298    -3277    -3256 
   -3235    -3221    -3207    -3203    -3210    -3231    -3264    -3304 
   -3348    -3393    -3431    -3456    -3465    -3468    -3474    -3491 
   -3511    -3532    -3553    -3566    -3562    -3541    -3503    -3451 
   -3388    -3319    -3244    -3160    -3076    -2995    -2914    -2837 
   -2772    -2720    -2685    -2668    -2667    -2681    -2700    -2733 
   -2785    -2843    -2911    -2998    -3096    -3202    -3307    -3404 
   -3492    -3570    -3642    -3712    -3770    -3816    -3851    -3874 
   -3897    -3912    -3917    -3917    -3921    -3935    -3959    -3996 
   -4045    -4110    -4182    -4244    -4295    -4338    -4361    -4361 
   -4345    -4314    -4275    -4251    -4252    -4274    -4307    -4356 
   -4411    -4465    -4517    -4564    -4600    -4629    -4645    -4648 
   -4639    -4610    -4554    -4472    -4361    -4233    -4112    -4004 
   -3908    -3828    -3767    -3720    -3680    -3643    -3619    -3605 
   -3609    -3634    -3678    -3738    -3820    -3924    -4028    -4118 
   -4186    -4218    -4213    -4182    -4132    -4078    -4033    -3993 
   -3956    -3927    -3896    -3869    -3851    -3836    -3823    -3809 
   -3786    -3757    -3724    -3680    -3631    -3586    -3550    -3520 
   -3501    -3496    -3503    -3519    -3547    -3589    -3636    -3688 
   -3738    -3778    -3804    -3813    -3802    -3781    -3762    -3747 
   -3732    -3721    -3716    -3717    -3723    -3723    -3707    -3670 
   -3615    -3545    -3476    -3429    -3403    -3399    -3414    -3442 
   -3473    -3505    -3538    -3572    -3600    -3615    -3627    -3639 
   -3646    -3650    -3657    -3659    -3655    -3649    -3634    -3612 
   -3582    -3543    -3507    -3473    -3442    -3422    -3414    -3411 
   -3414    -3419    -3429    -3443    -3468    -3500    -3542    -3585 
   -3631    -3681    -3730    -3782    -3843    -3916    -3994    -4072 
   -4148    -4214    -4270    -4325    -4384    -4442    -4494    -4533 
   -4550    -4534    -4486    -4411    -4314    -4202    -4087    -3970 
   -3858    -3762    -3686    -3623    -3566    -3519    -3481    -3453 
   -3434    -3437    -3469    -3526    -3605    -3713    -3846    -3991 
   -4137    -4278    -4402    -4490    -4536    -4550    -4533    -4475 
   -4387    -4283    -4164    -4035    -3908    -3797    -3699    -3609 
   -3539    -3488    -3453    -3424    -3388    -3353    -3327    -3306 
   -3302    -3325    -3365    -3422    -3492    -3573    -3653    -3723 
   -3788    -3840    -3873    -3890    -3896    -3888    -3873    -3840 
   -3785    -3724    -3663    -3607    -3558    -3515    -3478    -3446 
   -3416    -3392    -3375    -3353    -3323    -3292    -3260    -3222 
   -3181    -3148    -3117    -3088    -3065    -3055    -3049    -3048 
   -3059    -3082    -3118    -3183    -3273    -3377    -3496    -3630 
   -3757    -3865    -3948    -4006    -4041    -4062    -4070    -4074 
   -4072    -4060    -4043    -4027    -4012    -4009    -4016    -4031 
   -4062    -4101    -4153    -4218    -4288    -4360    -4429    -4486 
   -4537    -4577    -4598    -4599    -4590    -4572    -4550    -4525 
   -4496    -4469    -4442    -4417    -4401    -4394    -4395    -4402 
   -4406    -4407    -4413    -4425    -4445    -4477    -4515    -4540 
   -4541    -4515    -4464    -4384    -4282    -4172    -4070    -3975 
   -3885    -3801    -3731    -3674    -3631    -3595    -3564    -3543 
   -3537    -3545    -3566    -3603    -3649    -3693    -3740    -3790 
