Origin Time       2025/01/13 21:19:00
Lat.              31.8
Long.             131.6
Depth. (km)       30
Mag.              6.9
Station Code      SMN014
Station Lat.      34.4668
Station Long.     131.7747
Station Height(m) 157
Record Time       2025/01/13 21:21:01
Sampling Freq(Hz) 100Hz
Duration Time(s)  60
Dir.              U-D
Scale Factor      7845(gal)/8223790
Max. Acc. (gal)   0.680
Last Correction   2025/01/13 21:21:01
Memo.             
   19606    19600    19595    19592    19591    19602    19629    19658 
   19680    19691    19681    19657    19631    19604    19573    19552 
   19543    19538    19534    19527    19511    19485    19461    19454 
   19464    19483    19508    19518    19515    19523    19545    19575 
   19612    19661    19710    19741    19757    19761    19745    19716 
   19691    19669    19645    19619    19592    19557    19527    19514 
   19510    19519    19535    19545    19552    19565    19577    19593 
   19623    19664    19687    19677    19661    19650    19627    19603 
   19593    19583    19560    19539    19531    19530    19534    19542 
   19546    19558    19588    19626    19662    19693    19708    19712 
   19716    19711    19683    19641    19599    19546    19491    19469 
   19487    19516    19548    19575    19587    19587    19592    19610 
   19639    19681    19731    19764    19777    19792    19811    19824 
   19830    19822    19793    19768    19758    19741    19723    19723 
   19720    19701    19681    19666    19653    19637    19607    19550 
   19480    19423    19388    19373    19376    19386    19386    19387 
   19411    19452    19471    19467    19465    19468    19469    19484 
   19508    19525    19535    19545    19554    19558    19560    19558 
   19560    19573    19592    19603    19614    19641    19673    19689 
   19681    19661    19643    19643    19672    19716    19754    19774 
   19778    19781    19784    19770    19738    19705    19680    19646 
   19607    19583    19572    19557    19550    19573    19608    19633 
   19653    19670    19670    19664    19657    19651    19662    19695 
   19726    19738    19742    19745    19741    19730    19710    19668 
   19611    19561    19529    19514    19525    19558    19595    19630 
   19664    19676    19665    19654    19643    19623    19611    19611 
   19606    19595    19588    19580    19569    19569    19579    19584 
   19589    19599    19602    19603    19627    19674    19716    19735 
   19737    19722    19693    19662    19635    19607    19569    19534 
   19516    19526    19543    19554    19565    19570    19556    19533 
   19525    19534    19545    19554    19575    19596    19608    19623 
   19653    19676    19685    19696    19710    19723    19749    19778 
   19796    19804    19808    19788    19753    19727    19707    19677 
   19653    19653    19661    19662    19669    19678    19674    19656 
   19637    19620    19612    19615    19620    19629    19646    19669 
   19697    19731    19755    19762    19768    19770    19754    19723 
   19696    19676    19654    19641    19627    19608    19591    19576 
   19557    19557    19581    19606    19634    19687    19750    19788 
   19789    19772    19745    19700    19656    19633    19615    19592 
   19573    19556    19527    19495    19481    19481    19481    19491 
   19515    19530    19529    19527    19531    19535    19535    19534 
   19539    19553    19558    19552    19545    19558    19575    19585 
   19597    19607    19600    19591    19585    19587    19603    19620 
   19619    19602    19583    19579    19588    19606    19638    19670 
   19687    19705    19730    19745    19750    19747    19742    19739 
   19732    19707    19661    19620    19595    19580    19588    19616 
   19643    19666    19695    19722    19732    19732    19737    19743 
   19753    19778    19801    19801    19792    19784    19768    19743 
   19716    19681    19634    19588    19554    19533    19523    19518 
   19506    19500    19511    19531    19550    19570    19592    19606 
   19610    19607    19591    19568    19554    19553    19552    19549 
   19548    19533    19511    19508    19504    19477    19452    19448 
   19453    19469    19511    19557    19584    19612    19653    19677 
   19683    19684    19672    19634    19577    19512    19457    19423 
   19415    19438    19479    19518    19556    19595    19639    19689 
   19726    19745    19762    19773    19766    19750    19742    19742 
   19749    19764    19780    19782    19777    19773    19762    19745 
   19728    19704    19681    19668    19651    19638    19630    19603 
   19569    19579    19619    19649    19670    19695    19714    19719 
   19724    19732    19720    19684    19646    19620    19593    19575 
   19577    19600    19630    19661    19691    19719    19735    19730 
   19704    19673    19654    19635    19614    19600    19587    19566 
   19569    19589    19604    19618    19639    19656    19662    19674 
   19697    19714    19722    19730    19726    19710    19696    19684 
   19668    19658    19647    19630    19624    19639    19641    19620 
   19606    19597    19573    19535    19499    19464    19425    19400 
   19400    19421    19460    19504    19545    19589    19641    19676 
   19693    19703    19708    19700    19684    19673    19654    19619 
   19585    19564    19543    19530    19531    19543    19573    19618 
   19654    19680    19704    19723    19719    19692    19658    19623 
   19595    19583    19584    19585    19596    19624    19650    19658 
   19666    19687    19704    19723    19741    19747    19739    19719 
   19689    19672    19674    19684    19693    19703    19707    19700 
   19681    19656    19630    19616    19627    19651    19673    19691 
   19707    19716    19715    19710    19715    19742    19788    19830 
   19853    19865    19863    19846    19824    19820    19827    19804 
   19761    19737    19731    19732    19757    19796    19835    19876 
   19919    19943    19944    19931    19908    19876    19838    19788 
   19726    19670    19631    19596    19568    19564    19581    19596 
   19606    19618    19619    19599    19558    19514    19485    19473 
   19473    19477    19480    19495    19525    19548    19565    19579 
   19573    19550    19529    19515    19506    19495    19483    19471 
   19464    19460    19454    19465    19503    19549    19589    19633 
   19658    19657    19654    19658    19650    19623    19579    19522 
   19458    19411    19388    19383    19391    19417    19442    19468 
   19512    19556    19570    19572    19573    19550    19503    19450 
   19406    19379    19380    19410    19454    19504    19554    19587 
   19595    19599    19603    19599    19602    19631    19678    19720 
   19753    19781    19796    19796    19792    19780    19743    19693 
   19637    19580    19537    19514    19500    19495    19496    19485 
   19462    19467    19489    19496    19491    19487    19475    19464 
   19476    19511    19557    19600    19624    19624    19608    19588 
   19572    19572    19599    19638    19669    19697    19730    19764 
   19796    19816    19822    19801    19751    19691    19633    19576 
   19527    19488    19467    19471    19491    19510    19537    19572 
   19597    19606    19614    19616    19599    19583    19580    19579 
   19576    19584    19606    19638    19680    19712    19727    19724 
   19715    19697    19687    19711    19755    19793    19830    19859 
   19862    19843    19812    19761    19691    19607    19522    19460 
   19434    19435    19462    19514    19575    19631    19673    19701 
   19710    19683    19642    19622    19614    19592    19569    19565 
   19569    19575    19579    19576    19569    19573    19580    19576 
   19568    19562    19554    19554    19572    19596    19612    19629 
   19649    19665    19685    19707    19715    19708    19700    19703 
   19701    19678    19637    19600    19576    19569    19573    19579 
   19588    19606    19614    19612    19610    19595    19568    19549 
   19533    19496    19467    19464    19473    19494    19521    19527 
   19506    19488    19483    19473    19467    19483    19518    19553 
   19588    19633    19677    19708    19731    19758    19774    19774 
   19765    19743    19726    19711    19687    19673    19683    19695 
   19716    19755    19784    19788    19789    19803    19820    19832 
   19846    19863    19877    19888    19890    19880    19849    19809 
   19772    19735    19703    19672    19634    19611    19615    19619 
   19606    19595    19591    19581    19576    19579    19569    19546 
   19529    19523    19518    19506    19502    19510    19523    19557 
   19593    19611    19620    19638    19651    19670    19700    19728 
   19751    19759    19755    19749    19732    19703    19680    19677 
   19684    19685    19678    19672    19664    19642    19611    19577 
   19545    19522    19516    19526    19539    19562    19599    19638 
   19666    19678    19673    19651    19618    19572    19521    19483 
   19472    19471    19472    19489    19507    19494    19458    19430 
   19413    19394    19381    19379    19376    19379    19399    19427 
   19458    19503    19552    19584    19597    19592    19560    19503 
   19438    19387    19354    19345    19359    19384    19417    19456 
   19496    19543    19589    19614    19610    19588    19556    19516 
   19480    19452    19434    19427    19435    19450    19464    19481 
   19495    19494    19489    19498    19518    19539    19557    19575 
   19597    19634    19683    19722    19753    19795    19835    19858 
   19881    19912    19927    19928    19947    19982    20016    20047 
   20073    20097    20128    20152    20155    20128    20082    20032 
   19985    19946    19920    19907    19903    19911    19915    19911 
   19912    19930    19954    19978    20002    20023    20031    20036 
   20046    20056    20079    20117    20151    20166    20160    20133 
   20082    20009    19934    19877    19840    19819    19808    19804 
   19804    19800    19797    19804    19804    19777    19734    19691 
   19646    19596    19553    19519    19487    19457    19422    19369 
   19302    19236    19174    19124    19103    19109    19118    19128 
   19145    19164    19175    19170    19157    19136    19103    19060 
   19013    18972    18941    18922    18912    18922    18948    18968 
   18986    19005    19013    19001    18989    18994    19021    19070 
   19130    19188    19238    19284    19325    19359    19383    19402 
   19411    19418    19427    19421    19381    19332    19284    19230 
   19171    19122    19087    19068    19080    19124    19172    19215 
   19260    19309    19359    19411    19446    19458    19462    19472 
   19479    19488    19508    19526    19526    19519    19515    19499 
   19467    19442    19446    19479    19534    19602    19677    19769 
   19877    19978    20058    20110    20136    20146    20159    20173 
   20170    20151    20116    20075    20046    20039    20043    20046 
   20054    20062    20056    20042    20029    20005    19975    19961 
   19944    19909    19888    19889    19884    19863    19849    19846 
   19843    19832    19832    19840    19839    19831    19818    19786 
   19749    19716    19692    19680    19674    19658    19634    19619 
   19614    19600    19587    19576    19557    19533    19510    19489 
   19465    19442    19433    19434    19438    19442    19438    19422 
   19399    19372    19338    19307    19287    19283    19288    19299 
   19303    19300    19302    19300    19300    19323    19363    19400 
   19430    19461    19496    19515    19516    19510    19487    19449 
   19419    19402    19392    19395    19408    19427    19460    19515 
   19579    19639    19703    19762    19805    19836    19861    19866 
   19855    19855    19872    19886    19908    19936    19953    19953 
   19944    19932    19919    19908    19900    19901    19905    19917 
   19938    19955    19970    19988    20001    20008    20008    20002 
   20005    20020    20038    20048    20056    20061    20061    20063 
   20074    20075    20071    20073    20086    20106    20128    20146 
   20144    20120    20083    20047    20015    19984    19946    19894 
   19842    19812    19788    19757    19728    19696    19653    19619 
   19608    19603    19593    19596    19611    19626    19646    19678 
   19704    19726    19742    19741    19724    19718    19731    19751 
   19770    19796    19827    19855    19877    19894    19907    19912 
   19915    19927    19948    19970    19984    19989    19984    19975 
   19963    19934    19889    19835    19770    19708    19665    19643 
   19639    19643    19643    19639    19635    19616    19583    19545 
   19510    19473    19431    19391    19361    19340    19329    19332 
   19340    19354    19379    19392    19387    19369    19344    19325 
   19330    19357    19391    19431    19483    19535    19575    19603 
   19629    19647    19651    19646    19629    19596    19565    19537 
   19495    19449    19414    19396    19392    19396    19400    19404 
   19415    19430    19444    19462    19484    19500    19510    19511 
   19502    19481    19465    19462    19467    19480    19507    19545 
   19581    19615    19654    19699    19741    19776    19788    19773 
   19747    19727    19720    19727    19742    19774    19820    19870 
   19912    19948    19978    19993    19990    19981    19977    19981 
   19982    19969    19935    19890    19839    19789    19750    19716 
   19680    19639    19600    19575    19576    19602    19637    19674 
   19707    19731    19754    19773    19770    19745    19714    19691 
   19669    19654    19654    19658    19666    19681    19688    19683 
   19662    19611    19548    19500    19473    19462    19464    19462 
   19453    19460    19492    19529    19565    19600    19604    19565 
   19507    19449    19394    19338    19296    19279    19283    19309 
   19350    19395    19430    19450    19446    19426    19395    19354 
   19313    19282    19272    19275    19278    19287    19309    19323 
   19326    19329    19330    19315    19290    19272    19263    19259 
   19265    19287    19313    19348    19384    19410    19425    19433 
   19430    19422    19418    19411    19402    19402    19403    19400 
   19406    19421    19437    19452    19465    19472    19473    19475 
   19471    19450    19422    19395    19375    19367    19365    19353 
   19317    19282    19275    19288    19299    19314    19338    19361 
   19377    19398    19426    19462    19506    19546    19581    19616 
   19653    19677    19689    19693    19684    19666    19660    19654 
   19639    19623    19611    19611    19623    19645    19666    19692 
   19731    19774    19813    19850    19881    19888    19869    19847 
   19831    19807    19797    19820    19851    19873    19901    19935 
   19954    19954    19946    19935    19924    19927    19938    19950 
   19958    19959    19958    19967    19989    20005    20007    19996 
   19977    19946    19903    19861    19827    19800    19789    19789 
   19785    19777    19770    19761    19755    19759    19772    19786 
   19808    19831    19846    19863    19882    19897    19913    19932 
   19940    19943    19953    19965    19974    19975    19955    19915 
   19866    19813    19761    19728    19726    19731    19732    19735 
   19735    19724    19710    19699    19685    19660    19629    19596 
   19554    19500    19452    19421    19398    19376    19364    19353 
   19327    19295    19272    19251    19213    19175    19156    19157 
   19172    19186    19194    19211    19230    19242    19246    19244 
   19232    19209    19180    19156    19137    19124    19109    19091 
   19099    19140    19176    19211    19261    19311    19344    19371 
   19384    19375    19353    19336    19322    19321    19323    19313 
   19295    19296    19314    19340    19365    19391    19425    19453 
   19476    19507    19538    19560    19575    19583    19588    19593 
   19592    19585    19585    19602    19627    19657    19692    19720 
   19737    19755    19778    19797    19812    19824    19827    19823 
   19819    19819    19824    19823    19813    19803    19792    19786 
   19789    19801    19823    19858    19900    19938    19981    20024 
   20055    20085    20116    20142    20159    20167    20167    20167 
   20170    20171    20171    20171    20163    20146    20127    20124 
   20135    20147    20156    20166    20162    20146    20129    20113 
   20089    20069    20044    19992    19920    19849    19781    19723 
   19678    19638    19596    19552    19511    19480    19461    19464 
   19487    19507    19516    19521    19511    19489    19469    19450 
   19429    19411    19403    19403    19404    19403    19407    19423 
   19448    19473    19488    19487    19473    19456    19438    19423 
   19414    19403    19390    19376    19364    19357    19360    19367 
   19383    19415    19457    19502    19560    19618    19654    19672 
   19677    19670    19653    19638    19626    19610    19592    19579 
   19558    19534    19515    19504    19496    19495    19496    19496 
   19492    19483    19464    19446    19438    19434    19422    19408 
   19413    19431    19454    19476    19487    19495    19521    19557 
   19592    19629    19664    19697    19724    19741    19757    19768 
   19770    19780    19801    19827    19858    19893    19917    19936 
   19957    19969    19970    19967    19954    19928    19907    19900 
   19903    19912    19921    19921    19924    19932    19931    19913 
   19890    19859    19818    19772    19732    19704    19678    19651 
   19639    19649    19660    19660    19645    19616    19575    19519 
   19456    19391    19326    19263    19214    19184    19179    19197 
   19225    19249    19259    19257    19252    19244    19237    19241 
   19249    19256    19271    19302    19340    19375    19402    19411 
   19403    19391    19375    19360    19359    19365    19376    19400 
   19445    19504    19572    19634    19684    19715    19732    19746 
   19757    19758    19758    19766    19774    19785    19815    19859 
   19901    19944    19993    20038    20070    20098    20115    20113 
   20104    20092    20079    20073    20059    20034    20023    20029 
   20035    20036    20035    20011    19963    19909    19849    19781 
   19715    19656    19602    19552    19518    19508    19508    19506 
   19499    19484    19460    19423    19383    19357    19345    19327 
   19315    19319    19340    19360    19380    19396    19398    19375 
   19333    19286    19240    19198    19167    19155    19152    19152 
   19156    19151    19134    19134    19153    19174    19194    19218 
   19242    19268    19298    19317    19327    19346    19373    19402 
   19429    19460    19489    19515    19550    19606    19673    19741 
   19800    19838    19858    19872    19882    19892    19905    19915 
   19908    19893    19886    19885    19890    19908    19932    19963 
   20007    20048    20075    20088    20088    20079    20070    20075 
   20094    20102    20094    20085    20081    20082    20092    20108 
   20128    20148    20162    20167    20174    20183    20194    20205 
   20216    20213    20193    20179    20175    20160    20137    20112 
   20081    20044    20004    19965    19936    19912    19896    19889 
   19888    19892    19903    19907    19888    19854    19823    19800 
   19786    19776    19755    19716    19661    19596    19541    19494 
