Origin Time       2025/01/13 21:19:00
Lat.              31.8
Long.             131.6
Depth. (km)       30
Mag.              6.9
Station Code      SMN008
Station Lat.      34.8521
Station Long.     132.5308
Station Height(m) 335
Record Time       2025/01/13 21:21:14
Sampling Freq(Hz) 100Hz
Duration Time(s)  60
Dir.              U-D
Scale Factor      7845(gal)/8223790
Max. Acc. (gal)   0.892
Last Correction   2025/01/13 21:21:14
Memo.             
[...]
   14250    14241    14229    14212    14193    14197    14218    14211 
   14191    14189    14202    14214    14239    14273    14292    14287 
   14249    14197    14204    14338    14544    14654    14580    14408 
   14264    14199    14226    14327    14423    14431    14338    14195 
   14098    14110    14181    14226    14193    14084    13979    13965 
   14058    14230    14395    14443    14403    14385    14401    14416 
   14440    14499    14578    14605    14544    14432    14305    14211 
   14210    14265    14299    14326    14381    14403    14369    14341 
   14327    14283    14210    14173    14208    14277    14308    14237 
   14080    13981    14022    14148    14299    14404    14395    14316 
   14270    14312    14447    14600    14651    14565    14420    14323 
   14316    14372    14416    14435    14466    14503    14492    14442 
   14385    14354    14377    14451    14544    14593    14530    14380 
   14239    14157    14150    14222    14324    14399    14361    14206 
   14065    14037    14103    14210    14272    14247    14168    14069 
   14000    13995    14022    14077    14158    14200    14207    14251 
   14345    14432    14455    14412    14349    14284    14258    14305 
   14361    14355    14304    14245    14162    14053    14025    14172 
   14355    14368    14258    14207    14256    14350    14415    14411 
   14407    14440    14431    14364    14319    14297    14262    14207 
   14154    14168    14254    14345    14399    14416    14395    14359 
   14335    14327    14305    14256    14233    14289    14372    14373 
   14289    14196    14152    14208    14337    14364    14272    14237 
   14304    14382    14431    14455    14445    14415    14396    14386 
   14374    14346    14254    14125    14088    14177    14287    14365 
   14416    14400    14307    14226    14216    14250    14270    14261 
   14256    14273    14305    14364    14458    14559    14600    14536 
   14449    14424    14451    14504    14580    14639    14609    14458 
   14272    14188    14242    14369    14485    14517    14442    14349 
   14337    14431    14546    14557    14467    14354    14212    14087 
   14108    14289    14472    14474    14291    14068    13942    14002 
   14224    14446    14531    14472    14323    14192    14199    14353 
   14505    14526    14432    14323    14262    14235    14214    14246 
   14372    14493    14505    14422    14314    14253    14260    14280 
   14262    14203    14137    14108    14091    14057    14062    14127 
   14173    14158    14127    14139    14206    14283    14338    14395 
   14461    14500    14519    14542    14539    14493    14434    14372 
   14289    14219    14223    14296    14374    14420    14400    14304 
   14234    14280    14391    14504    14608    14650    14593    14455 
   14287    14184    14215    14323    14380    14346    14268    14138 
   13969    13871    13880    13952    14089    14281    14407    14369 
   14254    14199    14233    14299    14350    14401    14454    14440 
   14341    14242    14239    14310    14374    14391    14345    14266 
   14219    14227    14283    14361    14399    14351    14246    14164 
   14168    14235    14272    14233    14168    14153    14211    14276 
   14257    14166    14116    14175    14332    14508    14559    14431 
   14215    14048    14018    14080    14092    14041    14030    14068 
   14089    14100    14108    14099    14104    14172    14284    14372 
   14381    14289    14156    14089    14130    14237    14338    14365 
   14337    14316    14307    14324    14424    14569    14650    14607 
   14486    14404    14420    14493    14557    14562    14513    14467 
   14449    14428    14369    14264    14154    14106    14133    14168 
   14184    14238    14322    14338    14273    14199    14164    14184 
   14256    14308    14276    14208    14207    14285    14372    14412 
   14427    14458    14485    14465    14427    14432    14458    14428 
   14326    14216    14185    14231    14285    14319    14345    14328 
   14250    14170    14164    14246    14370    14431    14358    14222 
   14164    14254    14416    14497    14439    14331    14292    14347 
   14443    14504    14469    14327    14180    14149    14243    14380 
   14480    14486    14386    14257    14199    14234    14328    14412 
   14446    14447    14451    14454    14393    14239    14088    14060 
   14150    14261    14311    14280    14216    14185    14180    14176 
   14211    14293    14338    14277    14137    14029    14060    14176 
   14243    14207    14121    14048    14035    14104    14203    14258 
   14216    14057    13886    13828    13867    13921    13942    13913 
   13830    13726    13676    13709    13790    13887    13968    14002 
   13994    13933    13851    13842    13923    14002    14014    14011 
   14041    14042    13991    13954    13956    13981    14029    14073 
   14110    14170    14235    14243    14218    14231    14265    14303 
   14373    14442    14423    14345    14312    14364    14445    14493 
   14492    14440    14350    14256    14187    14138    14134    14226 
   14353    14374    14278    14169    14112    14122    14210    14351 
   14459    14436    14304    14192    14196    14285    14355    14369 
   14345    14285    14215    14187    14197    14235    14301    14343 
   14327    14320    14366    14385    14335    14281    14273    14300 
   14346    14420    14484    14450    14332    14235    14220    14281 
   14323    14247    14127    14087    14115    14142    14153    14183 
   14269    14385    14447    14416    14316    14202    14129    14145 
   14266    14442    14528    14418    14170    13952    13869    13937 
   14103    14277    14396    14409    14293    14141    14073    14096 
   14185    14330    14461    14519    14536    14527    14488    14459 
   14472    14508    14538    14550    14597    14698    14751    14671 
   14519    14397    14339    14324    14339    14392    14455    14459 
   14420    14424    14507    14631    14728    14735    14678    14636 
   14629    14623    14607    14634    14736    14837    14839    14758 
   14671    14616    14577    14520    14449    14407    14424    14509 
   14619    14662    14619    14536    14473    14481    14557    14650 
   14719    14712    14584    14396    14299    14350    14454    14504 
   14505    14507    14474    14342    14166    14088    14150    14276 
   14353    14354    14322    14251    14161    14102    14077    14064 
   14017    13936    13910    13963    14019    14072    14160    14262 
   14332    14362    14378    14391    14395    14393    14407    14445 
   14482    14480    14445    14393    14311    14200    14116    14116 
   14176    14204    14166    14119    14118    14156    14207    14268 
   14322    14346    14380    14463    14547    14561    14507    14450 
   14400    14328    14260    14246    14278    14354    14454    14497 
   14463    14430    14440    14500    14573    14601    14617    14689 
   14775    14793    14710    14581    14477    14422    14405    14408 
   14372    14266    14157    14100    14095    14137    14188    14188 
   14149    14103    14056    14057    14119    14164    14150    14114 
   14080    14021    13923    13864    13907    14006    14076    14073 
   14023    13998    14017    14031    14041    14088    14142    14156 
   14139    14118    14106    14106    14099    14095    14087    14038 
   13948    13868    13830    13805    13782    13829    13956    14046 
   14029    13953    13871    13821    13861    13990    14142    14250 
   14277    14245    14173    14083    14067    14192    14391    14536 
   14547    14458    14392    14418    14508    14627    14709    14685 
   14578    14488    14461    14480    14538    14608    14609    14523 
   14435    14385    14342    14334    14392    14465    14500    14500 
   14492    14486    14465    14438    14462    14534    14574    14553 
   14501    14450    14400    14359    14339    14322    14318    14362 
   14411    14389    14328    14301    14292    14283    14292    14308 
   14297    14272    14220    14102    13975    13956    14041    14135 
   14210    14269    14312    14341    14331    14285    14284    14362 
   14462    14515    14482    14369    14222    14111    14095    14168 
   14262    14312    14310    14291    14269    14257    14284    14331 
   14374    14422    14458    14443    14393    14335    14308    14358 
   14451    14511    14538    14558    14557    14515    14462    14473 
   14578    14713    14781    14754    14698    14685    14747    14878 
   14976    14952    14890    14889    14897    14867    14837    14836 
   14835    14825    14801    14736    14673    14686    14739    14754 
   14742    14746    14769    14798    14844    14902    14939    14910 
   14816    14717    14681    14712    14767    14804    14794    14736 
   14644    14559    14527    14588    14697    14764    14743    14652 
   14559    14538    14593    14656    14678    14647    14555    14416 
   14301    14291    14361    14413    14380    14293    14234    14211 
   14179    14134    14100    14091    14119    14184    14230    14212 
   14160    14123    14098    14076    14096    14169    14203    14141 
   14048    14002    14014    14056    14089    14099    14083    14046 
   14010    13991    14002    14017    13980    13918    13890    13884 
   13884    13909    13959    13999    13994    13945    13913    13932 
   13980    14025    14049    14052    14038    14003    13946    13902 
   13895    13883    13844    13809    13797    13792    13802    13817 
   13813    13790    13759    13737    13733    13763    13836    13910 
   13923    13882    13821    13763    13753    13805    13867    13902 
   13909    13867    13786    13736    13764    13841    13907    13919 
   13879    13825    13806    13821    13809    13753    13699    13676 
   13672    13667    13672    13703    13741    13760    13779    13817 
   13851    13856    13848    13848    13851    13852    13853    13859 
   13871    13878    13859    13833    13821    13824    13849    13883 
   13905    13946    14026    14076    14058    14015    13986    13984 
   14030    14119    14211    14280    14330    14332    14293    14281 
   14319    14366    14397    14416    14434    14428    14374    14310 
   14296    14345    14428    14521    14590    14600    14569    14557 
   14596    14670    14746    14786    14769    14713    14674    14698 
   14783    14877    14921    14897    14812    14698    14615    14601 
   14627    14638    14639    14619    14551    14453    14366    14324 
   14341    14374    14376    14347    14322    14324    14358    14400 
   14420    14426    14422    14378    14297    14245    14220    14172 
   14100    14041    13981    13906    13846    13834    13848    13861 
   13868    13859    13845    13848    13853    13833    13806    13833 
   13927    14023    14072    14069    14029    14002    14054    14173 
   14293    14401    14511    14574    14558    14526    14554    14631 
   14697    14721    14715    14705    14678    14624    14589    14612 
   14652    14665    14632    14566    14493    14453    14466    14532 
   14629    14712    14729    14661    14512    14338    14234    14258 
   14373    14492    14539    14474    14337    14211    14158    14202 
   14311    14405    14453    14467    14446    14392    14347    14353 
   14418    14521    14615    14647    14598    14519    14488    14543 
   14655    14770    14860    14898    14887    14867    14872    14924 
   15010    15079    15074    14979    14812    14659    14629    14735 
   14870    14909    14837    14737    14677    14659    14670    14685 
   14681    14663    14624    14547    14469    14418    14388    14373 
   14354    14311    14224    14089    13949    13857    13806    13770 
   13733    13684    13635    13579    13508    13463    13502    13602 
   13675    13709    13757    13818    13838    13830    13834    13861 
   13891    13909    13932    13968    13973    13932    13898    13925 
   14003    14098    14172    14188    14154    14130    14145    14175 
   14193    14189    14177    14173    14175    14185    14208    14226 
   14227    14219    14207    14197    14218    14277    14346    14401 
   14463    14546    14613    14639    14644    14669    14736    14821 
   14885    14929    14949    14917    14843    14789    14805    14863 
   14899    14891    14866    14843    14820    14797    14778    14743 
   14697    14669    14654    14646    14643    14624    14590    14571 
   14573    14584    14609    14631    14611    14547    14476    14431 
   14415    14422    14438    14440    14413    14365    14311    14264 
   14234    14216    14191    14149    14095    14062    14102    14187 
   14242    14251    14237    14219    14219    14241    14250    14220 
   14179    14173    14208    14234    14211    14137    14031    13936 
   13878    13857    13860    13853    13810    13728    13644    13608 
   13610    13601    13568    13522    13482    13489    13548    13594 
   13605    13625    13655    13653    13632    13628    13645    13670 
   13690    13711    13744    13778    13791    13771    13734    13740 
   13815    13919    14015    14091    14138    14168    14212    14300 
   14411    14504    14577    14661    14774    14898    14970    14978 
   14979    15018    15080    15129    15152    15165    15180    15209 
   15228    15199    15132    15072    15029    14998    14974    14936 
   14862    14748    14631    14559    14534    14508    14458    14409 
   14377    14345    14300    14264    14253    14254    14278    14326 
   14339    14291    14243    14256    14318    14376    14384    14341 
   14281    14227    14197    14206    14238    14251    14224    14164 
   14089    14034    14021    14030    14033    14031    14049    14072 
   14072    14075    14116    14179    14218    14235    14260    14292 
   14319    14342    14378    14403    14370    14293    14191    14060 
   13937    13876    13876    13880    13822    13690    13533    13423 
   13416    13517    13652    13745    13771    13745    13725    13771 
   13880    14018    14150    14224    14229    14214    14219    14247 
   14285    14345    14423    14476    14486    14490    14517    14563 
   14627    14708    14778    14794    14779    14787    14813    14824 
   14829    14851    14881    14893    14868    14802    14713    14656 
   14652    14654    14604    14508    14415    14353    14323    14331 
   14366    14397    14378    14288    14172    14110    14129    14160 
   14127    14049    13980    13918    13849    13802    13794    13817 
   13855    13860    13828    13801    13794    13801    13825    13865 
   13909    13941    13946    13919    13886    13880    13905    13932 
   13961    13988    14015    14062    14133    14202    14262    14315 
   14351    14366    14374    14408    14482    14584    14688    14764 
   14810    14837    14864    14913    14993    15068    15088    15052 
   14998    14956    14925    14891    14845    14790    14756    14763 
   14785    14796    14790    14750    14681    14632    14632    14656 
   14667    14650    14604    14550    14511    14493    14485    14463 
   14419    14386    14407    14457    14485    14473    14445    14431 
   14449    14484    14503    14499    14484    14449    14400    14364 
   14327    14281    14260    14262    14260    14241    14193    14134 
   14111    14125    14145    14153    14148    14137    14125    14111 
   14111    14139    14160    14133    14061    13984    13954    13979 
   13998    13971    13930    13907    13913    13942    13969    13986 
   14031    14123    14214    14277    14334    14395    14459    14526 
   14594    14655    14690    14692    14682    14689    14710    14724 
   14710    14673    14619    14559    14507    14472    14453    14438 
   14415    14396    14389    14386    14384    14384    14374    14353 
   14349    14374    14386    14372    14349    14332    14328    14342 
   14350    14342    14343    14357    14365    14368    14355    14319 
   14281    14268    14266    14253    14224    14199    14183    14183 
   14187    14180    14172    14183    14220    14268    14297    14315 
   14339    14355    14350    14346    14349    14346    14330    14303 
   14283    14262    14216    14134    14041    13979    13957    13961 
   13963    13940    13906    13890    13919    13984    14045    14089 
   14116    14110    14068    14027    14040    14095    14137    14116 
   14040    13959    13923    13933    13945    13933    13894    13834 
   13760    13687    13632    13598    13574    13559    13551    13544 
   13541    13560    13613    13671    13698    13703    13736    13811 
   13896    13963    14017    14072    14119    14149    14181    14214 
   14212    14173    14152    14183    14237    14261    14243    14196 
   14145    14111    14098    14088    14068    14038    14003    13973 
   13959    13973    14027    14092    14131    14146    14165    14212 
   14281    14342    14366    14376    14388    14391    14373    14362 
   14370    14386    14395    14395    14391    14393    14418    14467 
   14536    14601    14635    14651    14651    14636    14624    14628 
   14652    14682    14686    14650    14598    14571    14577    14615 
   14689    14771    14841    14895    14935    14975    15034    15091 
   15141    15187    15213    15205    15182    15174    15187    15188 
   15157    15121    15091    15037    14945    14850    14774    14705 
   14639    14570    14485    14377    14260    14156    14092    14067 
   14045    14008    13959    13896    13838    13803    13795    13802 
   13806    13810    13821    13833    13855    13891    13932    13975 
   14038    14110    14149    14135    14104    14107    14148    14195 
   14230    14249    14251    14246    14253    14284    14335    14392 
   14435    14443    14413    14354    14273    14199    14169    14183 
   14199    14192    14169    14154    14164    14191    14220    14253 
   14295    14339    14372    14380    14386    14408    14430    14438 
   14436    14424    14395    14350    14311    14301    14303    14281 
   14247    14237    14241    14229    14187    14135    14115    14126 
   14149    14179    14222    14277    14330    14374    14426    14476 
   14512    14559    14629    14702    14769    14814    14825    14821 
   14835    14864    14887    14870    14800    14710    14654    14638 
   14636    14616    14548    14440    14339    14289    14265    14238 
   14222    14215    14203    14185    14164    14146    14137    14141 
   14169    14215    14251    14264    14257    14237    14226    14246 
   14280    14281    14246    14211    14208    14250    14305    14353 
   14386    14389    14353    14311    14312    14354    14389    14395 
   14373    14334    14289    14254    14235    14220    14199    14177 
   14150    14102    14056    14038    14042    14046    14031    13998 
   13961    13919    13875    13856    13876    13906    13927    13932 
   13915    13891    13890    13922    13965    14000    14027    14038 
   14037    14045    14060    14054    14037    14030    14041    14052 
   14046    14033    14027    14038    14058    14083    14118    14170 
