Origin Time       2025/01/13 21:19:00
Lat.              31.8
Long.             131.6
Depth. (km)       30
Mag.              6.9
Station Code      SMN005
Station Lat.      35.3608
Station Long.     132.7449
Station Height(m) 8
Record Time       2025/01/13 21:21:34
Sampling Freq(Hz) 100Hz
Duration Time(s)  90
Dir.              E-W
Scale Factor      7845(gal)/8223790
Max. Acc. (gal)   6.711
Last Correction   2025/01/13 21:21:34
Memo.             
[...]
   -2018    -2015    -2006    -1984    -1957    -1941    -1935    -1923 
   -1900    -1872    -1826    -1763    -1707    -1683    -1678    -1684 
   -1701    -1713    -1711    -1718    -1738    -1769    -1807    -1850 
   -1892    -1929    -1966    -2002    -2020    -2018    -2002    -1971 
   -1922    -1864    -1803    -1755    -1702    -1637    -1583    -1537 
   -1486    -1441    -1421    -1414    -1394    -1348    -1302    -1274 
   -1246    -1206    -1170    -1144    -1124    -1104    -1086    -1067 
   -1043    -1019    -1008    -1007    -1001    -1003    -1026    -1066 
   -1107    -1125    -1129    -1140    -1171    -1217    -1262    -1287 
   -1293    -1289    -1282    -1294    -1336    -1389    -1421    -1418 
   -1398    -1381    -1364    -1340    -1305    -1262    -1212    -1155 
   -1117    -1121    -1156    -1223    -1328    -1455    -1570    -1664 
   -1745    -1809    -1853    -1877    -1885    -1883    -1880    -1868 
   -1841    -1806    -1764    -1701    -1632    -1584    -1559    -1524 
   -1478    -1439    -1428    -1449    -1495    -1543    -1575    -1603 
   -1634    -1656    -1656    -1642    -1648    -1668    -1671    -1660 
   -1649    -1644    -1652    -1665    -1671    -1678    -1686    -1674 
   -1632    -1590    -1564    -1534    -1491    -1458    -1441    -1428 
   -1402    -1359    -1308    -1281    -1286    -1293    -1283    -1267 
   -1246    -1216    -1190    -1166    -1125    -1069    -1011     -949 
    -882     -841     -818     -804     -808     -838     -878     -913 
    -945     -980    -1003    -1004     -989     -969     -951     -943 
    -926     -882     -823     -764     -699     -639     -594     -561 
    -540     -530     -546     -576     -614     -668     -737     -815 
    -907    -1020    -1146    -1266    -1371    -1466    -1551    -1629 
   -1695    -1760    -1831    -1894    -1952    -2004    -2045    -2079 
   -2126    -2200    -2276    -2312    -2313    -2305    -2297    -2304 
   -2331    -2361    -2377    -2400    -2438    -2461    -2462    -2461 
   -2447    -2412    -2381    -2365    -2335    -2281    -2219    -2150 
   -2069    -1993    -1948    -1922    -1894    -1857    -1818    -1777 
   -1742    -1718    -1698    -1668    -1638    -1611    -1572    -1518 
   -1470    -1447    -1440    -1437    -1453    -1489    -1520    -1541 
   -1559    -1570    -1578    -1590    -1599    -1597    -1591    -1598 
   -1606    -1605    -1597    -1588    -1586    -1597    -1629    -1669 
   -1698    -1717    -1745    -1782    -1830    -1880    -1912    -1934 
   -1954    -1968    -1988    -2031    -2089    -2137    -2151    -2146 
   -2124    -2087    -2042    -1987    -1923    -1872    -1822    -1763 
   -1707    -1651    -1576    -1499    -1440    -1405    -1375    -1341 
   -1316    -1305    -1313    -1341    -1383    -1424    -1458    -1505 
   -1568    -1625    -1668    -1713    -1742    -1738    -1710    -1686 
   -1664    -1628    -1576    -1520    -1459    -1399    -1345    -1297 
   -1250    -1215    -1204    -1196    -1193    -1200    -1194    -1178 
   -1175    -1182    -1178    -1166    -1166    -1182    -1210    -1254 
   -1302    -1344    -1386    -1439    -1502    -1570    -1633    -1696 
   -1753    -1790    -1829    -1871    -1903    -1939    -1981    -2019 
   -2049    -2074    -2099    -2126    -2158    -2187    -2205    -2231 
   -2269    -2307    -2344    -2378    -2398    -2403    -2396    -2385 
   -2366    -2355    -2358    -2357    -2330    -2285    -2232    -2169 
   -2110    -2073    -2047    -2018    -1969    -1896    -1814    -1749 
   -1691    -1615    -1516    -1413    -1328    -1273    -1242    -1223 
   -1201    -1161    -1109    -1066    -1044    -1035    -1028    -1036 
   -1047    -1050    -1048    -1035    -1011     -984     -953     -934 
    -938     -959     -986    -1008    -1007     -976     -939     -927 
    -935     -950     -980    -1021    -1065    -1101    -1144    -1189 
   -1208    -1212    -1225    -1254    -1293    -1333    -1370    -1391 
   -1398    -1413    -1429    -1428    -1429    -1443    -1452    -1451 
   -1451    -1449    -1431    -1406    -1395    -1395    -1410    -1447 
   -1493    -1528    -1555    -1583    -1610    -1626    -1645    -1675 
   -1701    -1713    -1715    -1698    -1648    -1582    -1524    -1483 
   -1458    -1444    -1422    -1371    -1290    -1206    -1143    -1098 
   -1055    -1015     -986     -957     -928     -915     -908     -886 
    -843     -810     -801     -803     -814     -818     -788     -754 
    -750     -762     -772     -792     -823     -838     -847     -884 
    -926     -945     -963    -1005    -1050    -1089    -1134    -1189 
   -1239    -1274    -1305    -1332    -1359    -1395    -1440    -1483 
   -1517    -1549    -1584    -1607    -1629    -1660    -1692    -1725 
   -1759    -1794    -1815    -1825    -1827    -1822    -1807    -1798 
   -1787    -1768    -1753    -1744    -1742    -1740    -1733    -1730 
   -1732    -1741    -1773    -1818    -1869    -1934    -2002    -2064 
   -2127    -2197    -2255    -2290    -2312    -2332    -2355    -2373 
   -2369    -2350    -2324    -2296    -2272    -2249    -2214    -2176 
   -2149    -2119    -2080    -2056    -2050    -2038    -2016    -2015 
   -2029    -2025    -2016    -2038    -2088    -2143    -2201    -2258 
   -2312    -2369    -2436    -2502    -2558    -2614    -2687    -2785 
   -2890    -2983    -3048    -3076    -3087    -3103    -3125    -3138 
   -3122    -3076    -3015    -2938    -2849    -2748    -2627    -2486 
   -2339    -2203    -2065    -1904    -1740    -1584    -1428    -1275 
   -1121     -972     -849     -745     -648     -562     -502     -469 
    -440     -414     -419     -453     -483     -500     -519     -544 
    -564     -575     -571     -558     -548     -542     -537     -522 
    -495     -467     -436     -405     -378     -345     -310     -286 
    -270     -259     -252     -257     -271     -272     -267     -268 
    -278     -302     -334     -383     -445     -508     -577     -658 
    -731     -792     -849     -920    -1038    -1183    -1318    -1436 
   -1563    -1710    -1857    -1999    -2145    -2296    -2430    -2527 
   -2585    -2616    -2621    -2602    -2573    -2551    -2531    -2496 
   -2434    -2363    -2317    -2292    -2268    -2238    -2209    -2188 
   -2187    -2215    -2265    -2327    -2403    -2481    -2556    -2636 
   -2713    -2772    -2820    -2876    -2945    -3001    -3034    -3052 
   -3057    -3052    -3037    -3009    -2956    -2882    -2797    -2722 
   -2675    -2629    -2554    -2454    -2344    -2243    -2169    -2111 
   -2056    -1998    -1921    -1840    -1779    -1736    -1688    -1626 
   -1570    -1533    -1506    -1476    -1435    -1375    -1324    -1313 
   -1324    -1333    -1336    -1314    -1260    -1197    -1142    -1105 
   -1071    -1008     -913     -822     -727     -602     -473     -369 
    -268     -167      -94      -32       52      143      203      229 
     229      191      144      121       75      -20     -103     -162 
    -241     -324     -396     -507     -638     -729     -774     -827 
    -924    -1040    -1136    -1206    -1254    -1309    -1404    -1494 
   -1525    -1526    -1560    -1626    -1694    -1763    -1825    -1868 
   -1904    -1961    -2056    -2158    -2235    -2297    -2384    -2492 
   -2589    -2666    -2722    -2787    -2895    -3018    -3123    -3217 
   -3298    -3358    -3415    -3487    -3551    -3581    -3593    -3599 
   -3580    -3537    -3488    -3442    -3400    -3357    -3288    -3172 
   -3040    -2933    -2849    -2778    -2708    -2627    -2539    -2451 
   -2373    -2312    -2247    -2170    -2101    -2047    -1995    -1926 
   -1850    -1794    -1756    -1709    -1660    -1625    -1590    -1541 
   -1475    -1405    -1333    -1266    -1221    -1204    -1185    -1151 
   -1093    -1016     -954     -913     -876     -832     -807     -812 
    -818     -797     -764     -745     -770     -835     -897     -930 
    -939     -953     -974     -980     -953     -920     -897     -870 
    -828     -761     -665     -575     -519     -480     -422     -333 
    -228     -132      -63      -16       36       85      105      103 
     116      167      243      303      329      325      292      243 
     199      179      179      180      172      149      113       74 
      36        1      -33      -71     -109     -160     -249     -361 
    -450     -527     -627     -731     -826     -928    -1039    -1132 
   -1193    -1240    -1309    -1397    -1455    -1444    -1391    -1379 
   -1410    -1414    -1399    -1444    -1583    -1749    -1830    -1817 
   -1827    -1949    -2142    -2332    -2471    -2569    -2664    -2752 
   -2830    -2909    -2956    -2988    -3086    -3271    -3410    -3338 
   -3149    -3109    -3245    -3342    -3280    -3153    -3095    -3095 
   -3057    -2971    -2901    -2867    -2839    -2786    -2710    -2592 
   -2415    -2263    -2209    -2182    -2064    -1868    -1725    -1655 
   -1557    -1417    -1312    -1263    -1219    -1134    -1032     -966 
    -927     -877     -826     -797     -769     -720     -675     -658 
    -615     -527     -471     -457     -454     -448     -419     -407 
    -457     -522     -564     -623     -708     -773     -816     -892 
    -992    -1062    -1120    -1221    -1360    -1487    -1576    -1656 
   -1786    -1953    -2060    -2084    -2099    -2168    -2285    -2365 
   -2336    -2250    -2216    -2249    -2259    -2200    -2097    -2019 
   -1995    -1973    -1921    -1871    -1842    -1833    -1821    -1786 
   -1763    -1783    -1819    -1841    -1854    -1857    -1849    -1864 
   -1919    -1984    -2014    -2027    -2080    -2150    -2184    -2168 
   -2126    -2112    -2138    -2185    -2249    -2262    -2185    -2110 
   -2084    -2076    -2106    -2174    -2199    -2145    -2076    -2054 
   -2101    -2169    -2135    -2041    -2035    -2069    -2065    -2065 
   -2018    -1891    -1788    -1745    -1719    -1657    -1512    -1320 
   -1174    -1127    -1104     -996     -834     -684     -569     -530 
    -495     -356     -236     -271     -351     -303     -132      -22 
    -110     -234     -148       54       74      -68     -149     -170 
    -183     -151     -109     -152     -270     -356     -364     -396 
    -557     -743     -788     -773     -888    -1098    -1281    -1398 
   -1485    -1644    -1856    -1995    -2092    -2241    -2431    -2621 
   -2760    -2820    -2890    -3088    -3337    -3470    -3523    -3595 
   -3684    -3794    -3939    -4072    -4174    -4294    -4434    -4549 
   -4635    -4696    -4734    -4781    -4837    -4864    -4853    -4808 
   -4761    -4716    -4657    -4583    -4463    -4338    -4274    -4186 
   -4029    -3869    -3719    -3577    -3457    -3335    -3200    -3078 
   -2945    -2810    -2706    -2602    -2454    -2274    -2127    -2010 
   -1804    -1503    -1242    -1031     -816     -558     -225      109 
     357      588      864     1156     1431     1629     1757     1912 
    2141     2370     2504     2562     2636     2716     2755     2764 
    2749     2735     2733     2685     2532     2316     2137     2018 
    1868     1633     1345     1080      839      572      302       40 
    -253     -544     -795    -1043    -1318    -1615    -1884    -2070 
   -2232    -2469    -2701    -2817    -2918    -3068    -3173    -3231 
   -3302    -3388    -3474    -3541    -3605    -3724    -3869    -3939 
   -3974    -4077    -4190    -4272    -4375    -4490    -4558    -4575 
   -4579    -4604    -4633    -4639    -4634    -4619    -4557    -4446 
   -4355    -4295    -4217    -4113    -3996    -3870    -3746    -3626 
   -3512    -3397    -3269    -3123    -2980    -2856    -2721    -2555 
   -2377    -2226    -2114    -2022    -1922    -1814    -1721    -1653 
   -1613    -1583    -1533    -1447    -1355    -1310    -1321    -1327 
   -1285    -1236    -1215    -1205    -1192    -1175    -1156    -1148 
   -1132    -1078     -993     -891     -805     -761     -673     -500 
    -332     -209      -89       62      240      425      571      668 
     766      896     1024     1125     1178     1151     1111     1108 
    1078     1023     1003      980      930      876      793      710 
     696      696      653      600      564      535      513      495 
     495      517      550      580      595      587      556      522 
     491      434      356      271      171       72      -29     -174 
    -368     -567     -715     -845    -1001    -1163    -1328    -1520 
   -1728    -1921    -2084    -2241    -2394    -2528    -2646    -2764 
   -2891    -3001    -3063    -3084    -3103    -3121    -3117    -3117 
   -3134    -3148    -3144    -3137    -3129    -3080    -3002    -2928 
   -2870    -2828    -2766    -2648    -2492    -2326    -2155    -1987 
   -1809    -1614    -1399    -1167     -923     -677     -421     -140 
     149      419      658      882     1129     1387     1625     1838 
    2026     2173     2307     2463     2623     2744     2839     2933 
    3013     3069     3100     3107     3105     3100     3076     3009 
    2909     2797     2660     2496     2305     2088     1860     1620 
    1350     1053      738      405       54     -318     -718    -1147 
   -1578    -1996    -2430    -2897    -3373    -3827    -4239    -4625 
   -5012    -5394    -5749    -6076    -6381    -6678    -6967    -7231 
   -7453    -7641    -7828    -8020    -8187    -8320    -8419    -8494 
   -8549    -8579    -8586    -8565    -8517    -8449    -8382    -8303 
   -8195    -8064    -7933    -7809    -7685    -7547    -7388    -7210 
   -7024    -6831    -6621    -6404    -6189    -5972    -5737    -5498 
   -5269    -5027    -4757    -4465    -4160    -3846    -3511    -3160 
   -2821    -2498    -2185    -1872    -1559    -1250     -957     -702 
    -496     -318     -152      -12      109      240      378      513 
     645      768      884      992     1105     1223     1339     1470 
    1617     1759     1902     2038     2150     2254     2366     2478 
    2577     2659     2732     2793     2836     2862     2879     2887 
    2879     2852     2822     2781     2712     2613     2493     2373 
    2253     2122     1971     1798     1621     1433     1224     1013 
     814      622      440      265       79     -132     -342     -525 
    -683     -834     -990    -1152    -1316    -1466    -1590    -1713 
   -1825    -1899    -1950    -1993    -2039    -2104    -2176    -2228 
   -2249    -2232    -2216    -2235    -2285    -2342    -2386    -2427 
   -2473    -2536    -2624    -2705    -2772    -2855    -2944    -3014 
   -3051    -3065    -3099    -3137    -3153    -3167    -3169    -3149 
   -3105    -3028    -2925    -2818    -2736    -2683    -2624    -2532 
   -2396    -2235    -2138    -2124    -2110    -2042    -1939    -1845 
   -1795    -1779    -1764    -1729    -1659    -1540    -1402    -1318 
   -1296    -1251    -1142    -1016     -905     -792     -687     -614 
    -535     -427     -332     -263     -195     -135      -81      -22 
      22       40       32       31       58       85       78       12 
    -112     -226     -299     -387     -535     -738     -980    -1231 
   -1453    -1661    -1910    -2216    -2528    -2802    -3049    -3289 
   -3535    -3761    -3937    -4086    -4240    -4387    -4502    -4594 
   -4662    -4714    -4776    -4838    -4881    -4907    -4934    -4976 
   -5024    -5073    -5120    -5159    -5189    -5215    -5238    -5255 
   -5259    -5256    -5248    -5216    -5144    -5042    -4916    -4765 
   -4596    -4399    -4167    -3908    -3622    -3310    -2974    -2620 
   -2277    -1950    -1630    -1323    -1032     -750     -473     -209 
      27      232      411      560      679      780      864      936 
    1013     1082     1131     1178     1233     1283     1327     1372 
    1405     1425     1444     1448     1431     1405     1370     1312 
    1239     1156     1066      958      823      673      525      380 
     243      101      -45     -201     -365     -531     -696     -854 
    -999    -1148    -1305    -1447    -1575    -1702    -1829    -1945 
   -2046    -2147    -2242    -2309    -2359    -2394    -2400    -2389 
   -2384    -2361    -2323    -2290    -2231    -2141    -2064    -2002 
   -1939    -1883    -1834    -1779    -1710    -1651    -1620    -1606 
   -1609    -1624    -1617    -1586    -1561    -1555    -1551    -1545 
   -1537    -1520    -1487    -1447    -1424    -1412    -1404    -1410 
   -1431    -1445    -1464    -1490    -1520    -1568    -1641    -1718 
   -1780    -1838    -1917    -2012    -2114    -2222    -2334    -2430 
   -2516    -2602    -2673    -2729    -2793    -2851    -2879    -2897 
   -2920    -2930    -2934    -2944    -2940    -2921    -2897    -2868 
   -2832    -2789    -2743    -2700    -2641    -2570    -2492    -2405 
   -2309    -2208    -2100    -1987    -1872    -1757    -1625    -1467 
   -1305    -1154    -1019     -899     -783     -662     -544     -434 
    -336     -261     -206     -151      -91      -39        2       47 
     110      176      234      294      349      399      452      503 
     544      576      598      612      626      633      633      623 
     602      567      526      480      434      403      367      315 
     263      210      148       86       37        4      -29      -60 
     -75      -86     -112     -144     -172     -211     -263     -303 
    -340     -394     -454     -510     -569     -646     -719     -778 
    -843     -915     -988    -1063    -1135    -1205    -1290    -1398 
   -1513    -1618    -1725    -1845    -1968    -2093    -2234    -2371 
   -2492    -2606    -2716    -2817    -2898    -2956    -3009    -3053 
   -3080    -3087    -3075    -3045    -3005    -2959    -2926    -2905 
   -2867    -2808    -2745    -2689    -2647    -2627    -2621    -2624 
   -2629    -2631    -2641    -2658    -2673    -2697    -2732    -2776 
   -2826    -2864    -2886    -2910    -2932    -2938    -2944    -2940 
   -2910    -2866    -2832    -2802    -2756    -2693    -2627    -2559 
   -2486    -2407    -2327    -2255    -2193    -2135    -2080    -2026 
   -1975    -1944    -1931    -1927    -1927    -1926    -1930    -1945 
   -1957    -1965    -1973    -1975    -1960    -1945    -1958    -1988 
   -1998    -1983    -1961    -1942    -1926    -1902    -1856    -1792 
   -1728    -1653    -1557    -1447    -1341    -1233    -1116     -989 
    -846     -703     -588     -503     -434     -378     -334     -307 
    -309     -338     -395     -499     -642     -774     -889    -1013 
   -1154    -1302    -1455    -1618    -1792    -1946    -2060    -2157 
   -2258    -2357    -2448    -2533    -2616    -2693    -2766    -2844 
   -2928    -2995    -3052    -3114    -3184    -3272    -3370    -3435 
   -3460    -3493    -3547    -3586    -3582    -3565    -3566    -3562 
   -3530    -3487    -3429    -3354    -3283    -3210    -3107    -2976 
   -2853    -2756    -2671    -2573    -2451    -2316    -2176    -2033 
   -1895    -1764    -1636    -1501    -1345    -1174    -1000     -812 
    -608     -411     -233      -59      125      314      495      665 
     823      953     1051     1139     1210     1250     1270     1275 
    1258     1217     1155     1078     1007      943      870      781 
