Origin Time       2025/01/13 21:19:00
Lat.              31.8
Long.             131.6
Depth. (km)       30
Mag.              6.9
Station Code      SMN002
Station Lat.      35.4713
Station Long.     133.0681
Station Height(m) 3
Record Time       2025/01/13 21:21:31
Sampling Freq(Hz) 100Hz
Duration Time(s)  78
Dir.              E-W
Scale Factor      7845(gal)/8223790
Max. Acc. (gal)   2.664
Last Correction   2025/01/13 21:21:32
Memo.             
[...]
   -4698    -4704    -4707    -4692    -4669    -4646    -4619    -4590 
   -4560    -4536    -4521    -4513    -4509    -4509    -4515    -4525 
   -4538    -4552    -4563    -4569    -4579    -4587    -4592    -4595 
   -4602    -4606    -4608    -4618    -4627    -4634    -4644    -4648 
   -4644    -4637    -4619    -4596    -4583    -4577    -4571    -4568 
   -4572    -4576    -4577    -4581    -4590    -4599    -4612    -4625 
   -4633    -4639    -4641    -4635    -4625    -4608    -4583    -4549 
   -4514    -4472    -4425    -4382    -4341    -4295    -4248    -4202 
   -4158    -4114    -4081    -4063    -4059    -4060    -4064    -4071 
   -4086    -4105    -4129    -4156    -4189    -4224    -4260    -4297 
   -4337    -4378    -4421    -4471    -4526    -4580    -4635    -4699 
   -4764    -4823    -4884    -4954    -5026    -5085    -5140    -5194 
   -5232    -5254    -5266    -5269    -5255    -5231    -5201    -5166 
   -5125    -5089    -5049    -5005    -4973    -4950    -4928    -4911 
   -4903    -4900    -4899    -4897    -4892    -4885    -4869    -4843 
   -4815    -4781    -4750    -4726    -4708    -4695    -4685    -4680 
   -4684    -4699    -4720    -4743    -4772    -4800    -4818    -4827 
   -4830    -4830    -4822    -4807    -4791    -4764    -4731    -4702 
   -4671    -4639    -4614    -4595    -4581    -4577    -4569    -4564 
   -4567    -4568    -4560    -4553    -4545    -4531    -4515    -4492 
   -4468    -4445    -4422    -4405    -4392    -4386    -4390    -4405 
   -4428    -4450    -4468    -4486    -4502    -4522    -4545    -4565 
   -4584    -4598    -4594    -4583    -4571    -4546    -4514    -4483 
   -4452    -4422    -4390    -4355    -4315    -4270    -4220    -4172 
   -4121    -4075    -4037    -4009    -3987    -3969    -3951    -3943 
   -3937    -3937    -3950    -3975    -4010    -4055    -4102    -4158 
   -4225    -4284    -4336    -4392    -4445    -4490    -4534    -4575 
   -4614    -4656    -4693    -4725    -4757    -4780    -4795    -4810 
   -4818    -4815    -4795    -4761    -4723    -4677    -4625    -4571 
   -4510    -4448    -4387    -4330    -4283    -4243    -4199    -4166 
   -4143    -4126    -4114    -4113    -4120    -4136    -4159    -4185 
   -4217    -4251    -4286    -4333    -4391    -4455    -4522    -4588 
   -4652    -4716    -4770    -4810    -4845    -4880    -4905    -4927 
   -4949    -4963    -4966    -4961    -4950    -4930    -4899    -4854 
   -4803    -4753    -4707    -4665    -4633    -4599    -4563    -4538 
   -4537    -4548    -4560    -4575    -4591    -4610    -4630    -4645 
   -4662    -4683    -4703    -4731    -4754    -4764    -4770    -4780 
   -4789    -4799    -4816    -4846    -4874    -4903    -4934    -4966 
   -4997    -5028    -5046    -5059    -5082    -5101    -5112    -5125 
   -5130    -5125    -5120    -5105    -5088    -5066    -5034    -5004 
   -4972    -4928    -4878    -4826    -4776    -4715    -4648    -4581 
   -4515    -4448    -4383    -4326    -4283    -4251    -4222    -4209 
   -4217    -4236    -4270    -4324    -4395    -4479    -4572    -4680 
   -4799    -4922    -5050    -5173    -5294    -5414    -5513    -5593 
   -5659    -5707    -5740    -5759    -5761    -5756    -5741    -5714 
   -5680    -5640    -5595    -5539    -5472    -5405    -5331    -5252 
   -5171    -5081    -4984    -4889    -4781    -4662    -4550    -4434 
   -4321    -4221    -4128    -4045    -3981    -3931    -3892    -3865 
   -3862    -3874    -3896    -3940    -4001    -4063    -4135    -4207 
   -4279    -4353    -4421    -4477    -4529    -4579    -4619    -4658 
   -4696    -4722    -4738    -4754    -4769    -4773    -4783    -4799 
   -4807    -4811    -4804    -4780    -4749    -4708    -4652    -4592 
   -4538    -4477    -4407    -4347    -4301    -4261    -4241    -4243 
   -4257    -4280    -4311    -4352    -4399    -4452    -4503    -4550 
   -4592    -4630    -4661    -4691    -4727    -4768    -4796    -4822 
   -4854    -4882    -4901    -4919    -4934    -4941    -4943    -4942 
   -4934    -4920    -4903    -4876    -4839    -4796    -4749    -4707 
   -4675    -4645    -4619    -4603    -4590    -4568    -4550    -4545 
   -4548    -4558    -4573    -4592    -4617    -4641    -4661    -4677 
   -4688    -4696    -4703    -4712    -4727    -4743    -4760    -4779 
   -4795    -4804    -4810    -4814    -4827    -4847    -4864    -4882 
   -4905    -4920    -4927    -4924    -4916    -4901    -4873    -4838 
   -4796    -4735    -4665    -4594    -4518    -4437    -4357    -4274 
   -4187    -4104    -4025    -3952    -3885    -3827    -3778    -3728 
   -3686    -3650    -3609    -3577    -3553    -3535    -3527    -3522 
   -3523    -3538    -3559    -3589    -3631    -3681    -3734    -3790 
   -3854    -3917    -3977    -4041    -4109    -4175    -4226    -4272 
   -4321    -4363    -4398    -4441    -4487    -4521    -4549    -4573 
   -4583    -4585    -4576    -4554    -4540    -4527    -4509    -4486 
   -4467    -4449    -4418    -4384    -4357    -4329    -4302    -4287 
   -4282    -4284    -4291    -4299    -4311    -4324    -4330    -4333 
   -4338    -4340    -4332    -4326    -4320    -4305    -4287    -4275 
   -4267    -4259    -4251    -4244    -4244    -4244    -4237    -4232 
   -4229    -4228    -4228    -4233    -4249    -4271    -4290    -4311 
   -4333    -4351    -4371    -4396    -4422    -4450    -4486    -4521 
   -4553    -4588    -4631    -4675    -4718    -4769    -4822    -4881 
   -4953    -5022    -5082    -5143    -5197    -5238    -5271    -5304 
   -5333    -5359    -5377    -5390    -5400    -5402    -5395    -5379 
   -5354    -5321    -5289    -5252    -5216    -5182    -5147    -5111 
   -5066    -5012    -4958    -4900    -4843    -4789    -4734    -4684 
   -4645    -4617    -4594    -4575    -4568    -4565    -4563    -4567 
   -4581    -4603    -4629    -4660    -4696    -4737    -4779    -4820 
   -4864    -4909    -4950    -4989    -5032    -5076    -5109    -5138 
   -5166    -5185    -5188    -5177    -5165    -5143    -5105    -5061 
   -5009    -4955    -4895    -4823    -4747    -4665    -4569    -4468 
   -4372    -4279    -4186    -4104    -4033    -3971    -3916    -3867 
   -3828    -3794    -3758    -3731    -3717    -3708    -3705    -3713 
   -3735    -3771    -3816    -3866    -3920    -3977    -4032    -4078 
   -4128    -4191    -4257    -4326    -4406    -4487    -4563    -4641 
   -4720    -4801    -4884    -4965    -5055    -5146    -5225    -5300 
   -5368    -5418    -5466    -5518    -5566    -5602    -5630    -5652 
   -5667    -5676    -5675    -5664    -5653    -5643    -5624    -5602 
   -5584    -5566    -5539    -5509    -5475    -5433    -5390    -5348 
   -5304    -5259    -5221    -5194    -5171    -5151    -5134    -5125 
   -5125    -5130    -5136    -5151    -5171    -5197    -5227    -5254 
   -5273    -5290    -5309    -5323    -5340    -5360    -5373    -5381 
   -5389    -5391    -5383    -5367    -5354    -5340    -5320    -5293 
   -5263    -5227    -5177    -5117    -5058    -4999    -4939    -4884 
   -4835    -4793    -4752    -4712    -4677    -4644    -4618    -4599 
   -4592    -4594    -4594    -4591    -4592    -4596    -4600    -4606 
   -4617    -4637    -4654    -4668    -4688    -4715    -4742    -4774 
   -4814    -4854    -4892    -4926    -4957    -4981    -4988    -4981 
   -4966    -4941    -4901    -4851    -4793    -4720    -4638    -4541 
   -4434    -4325    -4207    -4087    -3974    -3865    -3754    -3647 
   -3551    -3469    -3392    -3331    -3289    -3256    -3229    -3214 
   -3204    -3199    -3203    -3214    -3229    -3250    -3277    -3306 
   -3335    -3368    -3397    -3426    -3465    -3515    -3565    -3623 
   -3690    -3754    -3813    -3875    -3937    -3994    -4052    -4113 
   -4175    -4240    -4303    -4364    -4426    -4488    -4550    -4612 
   -4675    -4735    -4795    -4853    -4911    -4968    -5026    -5082 
   -5135    -5184    -5221    -5242    -5247    -5247    -5243    -5232 
   -5227    -5220    -5206    -5192    -5177    -5159    -5134    -5107 
   -5084    -5058    -5023    -4984    -4947    -4912    -4868    -4812 
   -4756    -4704    -4652    -4599    -4556    -4517    -4477    -4433 
   -4388    -4355    -4322    -4290    -4267    -4249    -4230    -4212 
   -4201    -4194    -4185    -4176    -4168    -4159    -4152    -4148 
   -4147    -4152    -4162    -4180    -4205    -4237    -4282    -4332 
   -4391    -4461    -4531    -4603    -4681    -4760    -4834    -4904 
   -4970    -5030    -5080    -5120    -5157    -5184    -5198    -5209 
   -5219    -5224    -5228    -5227    -5223    -5216    -5202    -5181 
   -5152    -5123    -5085    -5036    -4980    -4914    -4835    -4750 
   -4656    -4550    -4445    -4336    -4225    -4121    -4024    -3933 
   -3852    -3777    -3700    -3628    -3566    -3512    -3468    -3435 
   -3411    -3397    -3388    -3384    -3389    -3399    -3416    -3446 
   -3487    -3541    -3605    -3669    -3735    -3801    -3863    -3923 
   -3975    -4023    -4064    -4098    -4128    -4151    -4163    -4164 
   -4167    -4171    -4167    -4162    -4158    -4160    -4172    -4186 
   -4210    -4240    -4271    -4301    -4328    -4351    -4369    -4376 
   -4379    -4379    -4375    -4365    -4351    -4336    -4320    -4305 
   -4299    -4298    -4301    -4309    -4332    -4365    -4401    -4441 
   -4491    -4540    -4580    -4618    -4654    -4688    -4722    -4757 
   -4789    -4820    -4850    -4872    -4895    -4922    -4945    -4970 
   -5005    -5044    -5081    -5120    -5157    -5186    -5216    -5235 
   -5248    -5263    -5266    -5260    -5260    -5260    -5254    -5244 
   -5239    -5232    -5217    -5200    -5188    -5174    -5159    -5144 
   -5128    -5109    -5086    -5053    -5019    -4982    -4935    -4882 
   -4831    -4774    -4712    -4650    -4588    -4525    -4463    -4405 
   -4349    -4295    -4241    -4193    -4144    -4098    -4056    -4004 
   -3947    -3896    -3836    -3778    -3734    -3694    -3663    -3645 
   -3630    -3626    -3638    -3663    -3707    -3780    -3874    -3987 
   -4122    -4270    -4425    -4583    -4747    -4916    -5084    -5250 
   -5422    -5591    -5755    -5917    -6061    -6188    -6304    -6404 
   -6484    -6554    -6612    -6651    -6678    -6685    -6673    -6647 
   -6608    -6555    -6492    -6416    -6332    -6243    -6150    -6043 
   -5927    -5806    -5678    -5548    -5425    -5305    -5185    -5069 
   -4962    -4862    -4768    -4676    -4590    -4513    -4437    -4374 
   -4325    -4287    -4259    -4245    -4243    -4247    -4257    -4278 
   -4310    -4353    -4406    -4469    -4544    -4622    -4700    -4780 
   -4866    -4953    -5031    -5107    -5179    -5242    -5293    -5335 
   -5373    -5404    -5427    -5436    -5431    -5414    -5382    -5332 
   -5275    -5213    -5144    -5067    -4984    -4892    -4792    -4698 
   -4606    -4515    -4436    -4376    -4329    -4299    -4287    -4288 
   -4315    -4367    -4426    -4500    -4598    -4707    -4827    -4958 
   -5100    -5246    -5390    -5539    -5684    -5815    -5940    -6062 
   -6173    -6274    -6358    -6420    -6467    -6493    -6488    -6461 
   -6416    -6346    -6257    -6157    -6042    -5908    -5761    -5607 
   -5437    -5252    -5063    -4872    -4673    -4479    -4291    -4109 
   -3937    -3771    -3611    -3465    -3341    -3237    -3154    -3102 
   -3078    -3079    -3099    -3137    -3202    -3283    -3370    -3474 
   -3591    -3707    -3813    -3917    -4016    -4097    -4174    -4241 
   -4288    -4328    -4356    -4363    -4359    -4347    -4310    -4268 
   -4229    -4172    -4101    -4024    -3936    -3838    -3730    -3618 
   -3504    -3388    -3271    -3159    -3051    -2956    -2870    -2790 
   -2729    -2683    -2644    -2625    -2628    -2641    -2668    -2720 
   -2785    -2859    -2944    -3036    -3134    -3242    -3350    -3462 
   -3584    -3712    -3839    -3967    -4098    -4229    -4359    -4482 
   -4598    -4708    -4811    -4900    -4984    -5062    -5128    -5184 
   -5233    -5267    -5279    -5286    -5292    -5289    -5283    -5279 
   -5271    -5259    -5243    -5224    -5204    -5182    -5152    -5119 
   -5080    -5028    -4969    -4908    -4847    -4781    -4714    -4657 
   -4603    -4553    -4514    -4487    -4467    -4461    -4464    -4473 
   -4495    -4525    -4553    -4583    -4619    -4654    -4683    -4710 
   -4735    -4754    -4765    -4773    -4774    -4766    -4754    -4739 
   -4715    -4689    -4664    -4634    -4604    -4579    -4552    -4527 
   -4509    -4486    -4463    -4449    -4442    -4441    -4446    -4464 
   -4486    -4507    -4537    -4575    -4617    -4660    -4714    -4773 
   -4830    -4887    -4936    -4980    -5016    -5040    -5058    -5069 
   -5071    -5067    -5057    -5038    -5016    -4989    -4962    -4931 
   -4896    -4855    -4812    -4769    -4722    -4669    -4619    -4568 
   -4514    -4459    -4403    -4356    -4315    -4282    -4260    -4249 
   -4252    -4271    -4303    -4348    -4413    -4492    -4576    -4672 
   -4779    -4880    -4986    -5098    -5204    -5304    -5401    -5491 
   -5574    -5648    -5713    -5767    -5809    -5830    -5826    -5799 
   -5759    -5698    -5609    -5505    -5387    -5247    -5082    -4903 
   -4704    -4488    -4266    -4039    -3808    -3580    -3354    -3136 
   -2921    -2716    -2525    -2350    -2196    -2066    -1961    -1887 
   -1841    -1815    -1815    -1841    -1891    -1965    -2064    -2180 
   -2320    -2484    -2662    -2855    -3056    -3262    -3473    -3686 
   -3898    -4108    -4321    -4536    -4745    -4950    -5144    -5325 
   -5497    -5652    -5783    -5899    -5999    -6075    -6130    -6170 
   -6196    -6203    -6193    -6169    -6129    -6083    -6034    -5976 
   -5918    -5856    -5784    -5707    -5628    -5533    -5433    -5335 
   -5228    -5117    -5013    -4914    -4815    -4727    -4653    -4595 
   -4553    -4531    -4531    -4549    -4585    -4639    -4710    -4795 
   -4884    -4972    -5063    -5159    -5248    -5325    -5395    -5449 
   -5489    -5516    -5522    -5510    -5489    -5447    -5383    -5306 
   -5215    -5103    -4982    -4851    -4703    -4541    -4365    -4185 
   -4000    -3811    -3627    -3449    -3277    -3115    -2961    -2822 
   -2695    -2577    -2474    -2397    -2339    -2295    -2272    -2266 
   -2274    -2292    -2316    -2353    -2401    -2454    -2515    -2585 
   -2660    -2739    -2822    -2911    -3003    -3098    -3195    -3307 
   -3434    -3561    -3694    -3842    -3991    -4139    -4294    -4455 
   -4612    -4765    -4916    -5061    -5196    -5327    -5445    -5548 
   -5647    -5737    -5813    -5886    -5952    -6004    -6053    -6104 
   -6145    -6177    -6207    -6231    -6254    -6269    -6278    -6285 
   -6282    -6280    -6277    -6264    -6246    -6230    -6208    -6192 
   -6177    -6156    -6133    -6115    -6096    -6069    -6041    -6012 
   -5983    -5945    -5895    -5838    -5776    -5705    -5624    -5539 
   -5452    -5364    -5281    -5206    -5143    -5094    -5057    -5034 
   -5026    -5024    -5039    -5063    -5098    -5143    -5192    -5243 
   -5290    -5336    -5379    -5417    -5447    -5478    -5506    -5529 
   -5547    -5557    -5555    -5543    -5520    -5482    -5432    -5368 
   -5293    -5201    -5093    -4976    -4849    -4712    -4572    -4426 
   -4280    -4139    -4002    -3881    -3778    -3684    -3597    -3530 
   -3477    -3426    -3383    -3353    -3333    -3319    -3314    -3321 
   -3331    -3345    -3366    -3393    -3431    -3477    -3527    -3586 
   -3657    -3730    -3805    -3890    -3985    -4081    -4178    -4284 
   -4396    -4506    -4608    -4712    -4811    -4899    -4984    -5063 
   -5135    -5198    -5250    -5286    -5314    -5327    -5325    -5321 
   -5310    -5287    -5265    -5242    -5212    -5178    -5139    -5094 
   -5047    -4997    -4947    -4897    -4845    -4799    -4757    -4715 
   -4676    -4645    -4618    -4596    -4576    -4554    -4533    -4514 
   -4486    -4452    -4423    -4391    -4353    -4320    -4287    -4249 
   -4220    -4191    -4160    -4141    -4128    -4116    -4117    -4132 
   -4149    -4170    -4203    -4253    -4306    -4367    -4437    -4507 
   -4576    -4652    -4729    -4800    -4864    -4924    -4977    -5027 
   -5077    -5121    -5161    -5201    -5238    -5266    -5293    -5321 
   -5348    -5373    -5401    -5431    -5455    -5479    -5502    -5517 
   -5525    -5532    -5539    -5539    -5528    -5506    -5472    -5431 
   -5378    -5310    -5231    -5148    -5055    -4945    -4828    -4714 
   -4591    -4467    -4345    -4222    -4102    -3986    -3871    -3770 
   -3681    -3595    -3511    -3441    -3380    -3323    -3271    -3230 
   -3194    -3156    -3117    -3083    -3049    -3014    -2979    -2951 
   -2926    -2906    -2897    -2895    -2903    -2917    -2940    -2971 
   -3014    -3069    -3129    -3198    -3279    -3362    -3454    -3558 
   -3667    -3786    -3910    -4044    -4185    -4324    -4465    -4618 
   -4773    -4922    -5071    -5223    -5371    -5514    -5647    -5765 
   -5869    -5957    -6023    -6066    -6092    -6102    -6092    -6068 
   -6023    -5962    -5891    -5809    -5718    -5622    -5522    -5414 
   -5306    -5201    -5094    -4986    -4881    -4776    -4672    -4565 
   -4459    -4359    -4260    -4166    -4077    -4001    -3937    -3879 
   -3838    -3809    -3790    -3785    -3789    -3808    -3838    -3877 
   -3936    -4005    -4075    -4153    -4236    -4315    -4392    -4476 
   -4561    -4648    -4735    -4823    -4909    -4999    -5086    -5169 
   -5248    -5323    -5394    -5455    -5510    -5552    -5578    -5597 
   -5601    -5590    -5568    -5532    -5482    -5425    -5359    -5283 
   -5208    -5131    -5053    -4981    -4908    -4837    -4773    -4714 
   -4662    -4615    -4572    -4533    -4494    -4459    -4432    -4401 
   -4369    -4344    -4321    -4305    -4295    -4290    -4290    -4298 
   -4307    -4321    -4340    -4359    -4378    -4399    -4418    -4429 
   -4433    -4434    -4429    -4417    -4399    -4375    -4344    -4313 
   -4280    -4243    -4210    -4190    -4170    -4148    -4143    -4143 
   -4147    -4164    -4180    -4195    -4214    -4240    -4267    -4297 
   -4328    -4361    -4401    -4444    -4491    -4536    -4580    -4631 
   -4677    -4715    -4749    -4776    -4793    -4803    -4801    -4791 
   -4764    -4725    -4681    -4629    -4568    -4507    -4449    -4390 
   -4328    -4271    -4218    -4168    -4126    -4089    -4058    -4036 
   -4020    -4006    -4000    -4001    -4006    -4016    -4032    -4056 
   -4089    -4126    -4168    -4218    -4274    -4340    -4414    -4486 
   -4565    -4649    -4727    -4804    -4880    -4947    -5011    -5071 
   -5124    -5173    -5221    -5262    -5298    -5333    -5359    -5379 
   -5398    -5410    -5409    -5402    -5390    -5368    -5332    -5285 
   -5229    -5163    -5089    -5013    -4934    -4850    -4772    -4700 
   -4637    -4580    -4529    -4499    -4484    -4477    -4487    -4504 
   -4527    -4557    -4583    -4611    -4645    -4675    -4696    -4723 
   -4746    -4758    -4760    -4756    -4739    -4711    -4673    -4629 
   -4576    -4514    -4442    -4364    -4282    -4197    -4109    -4024 
