Origin Time       2025/01/13 21:19:00
Lat.              31.8
Long.             131.6
Depth. (km)       30
Mag.              6.9
Station Code      SMN006
Station Lat.      35.1908
Station Long.     132.4981
Station Height(m) 36
Record Time       2025/01/13 21:21:27
Sampling Freq(Hz) 100Hz
Duration Time(s)  60
Dir.              N-S
Scale Factor      7845(gal)/8223790
Max. Acc. (gal)   2.306
Last Correction   2025/01/13 21:21:28
Memo.             
[...]
    3692     3681     3677     3673     3669     3669     3667     3667 
    3667     3663     3657     3642     3622     3604     3592     3584 
    3577     3574     3576     3581     3589     3596     3597     3592 
    3582     3577     3572     3566     3561     3555     3546     3539 
    3539     3539     3546     3562     3582     3604     3626     3643 
    3659     3667     3662     3650     3638     3619     3589     3561 
    3535     3504     3466     3433     3404     3388     3392     3404 
    3415     3430     3445     3451     3454     3464     3473     3474 
    3470     3461     3443     3420     3399     3383     3369     3352 
    3337     3327     3323     3327     3337     3349     3375     3411 
    3447     3489     3537     3586     3636     3681     3717     3747 
    3767     3775     3773     3771     3767     3759     3753     3751 
    3757     3766     3781     3800     3817     3831     3843     3852 
    3859     3861     3863     3865     3859     3854     3847     3835 
    3823     3815     3807     3796     3784     3773     3759     3738 
    3715     3692     3662     3628     3597     3566     3537     3512 
    3492     3478     3469     3465     3472     3485     3497     3507 
    3515     3520     3526     3534     3543     3547     3553     3562 
    3572     3581     3595     3615     3639     3666     3692     3709 
    3713     3716     3719     3720     3717     3712     3707     3699 
    3693     3692     3697     3700     3701     3697     3689     3676 
    3655     3630     3601     3569     3537     3508     3481     3458 
    3441     3430     3429     3433     3449     3468     3481     3487 
    3481     3468     3449     3419     3383     3349     3314     3279 
    3246     3219     3194     3179     3175     3175     3179     3184 
    3188     3184     3177     3167     3148     3125     3106     3090 
    3076     3060     3042     3034     3038     3046     3061     3080 
    3102     3126     3156     3194     3238     3291     3348     3400 
    3442     3477     3503     3514     3522     3531     3534     3537 
    3542     3555     3585     3627     3674     3732     3798     3856 
    3909     3966     4020     4062     4102     4135     4153     4163 
    4166     4163     4149     4129     4117     4113     4112     4114 
    4125     4140     4159     4180     4205     4228     4249     4264 
    4272     4278     4280     4278     4274     4274     4267     4251 
    4229     4205     4174     4145     4124     4101     4075     4048 
    4009     3963     3920     3874     3825     3782     3744     3708 
    3680     3654     3627     3596     3559     3519     3478     3430 
    3375     3321     3264     3204     3157     3118     3079     3049 
    3034     3028     3026     3025     3025     3025     3019     3010 
    2995     2971     2940     2902     2860     2820     2785     2754 
    2733     2721     2718     2725     2731     2736     2747     2755 
    2764     2778     2790     2801     2809     2812     2814     2816 
    2820     2829     2843     2857     2882     2911     2941     2979 
    3024     3069     3113     3149     3180     3202     3215     3214 
    3200     3186     3165     3146     3141     3150     3172     3207 
    3257     3321     3391     3462     3535     3611     3684     3748 
    3802     3844     3874     3897     3913     3921     3923     3923 
    3920     3910     3900     3894     3893     3890     3886     3879 
    3870     3866     3863     3862     3862     3862     3858     3854 
    3851     3852     3855     3859     3867     3875     3877     3875 
    3878     3875     3869     3865     3863     3858     3855     3858 
    3862     3861     3856     3848     3832     3811     3780     3744 
    3716     3690     3670     3659     3657     3659     3669     3688 
    3711     3731     3753     3780     3809     3840     3873     3906 
    3942     3969     3990     4006     4014     4016     4012     4005 
    4001     3998     4000     3997     3990     3983     3974     3959 
    3937     3906     3866     3821     3770     3711     3650     3589 
    3524     3465     3419     3385     3362     3350     3346     3350 
    3362     3379     3397     3418     3433     3441     3446     3447 
    3442     3435     3429     3424     3433     3451     3478     3514 
    3562     3619     3674     3732     3793     3850     3902     3950 
    3987     4018     4039     4050     4062     4077     4090     4098 
    4108     4110     4099     4078     4050     4008     3948     3882 
    3805     3716     3620     3527     3435     3350     3277     3217 
    3172     3140     3119     3103     3087     3072     3059     3046 
    3033     3025     3021     3021     3026     3037     3052     3072 
    3103     3141     3181     3225     3273     3322     3369     3418 
    3457     3489     3519     3550     3580     3603     3619     3631 
    3636     3635     3634     3636     3636     3632     3628     3630 
    3632     3635     3638     3640     3639     3638     3634     3628 
    3627     3627     3627     3631     3638     3647     3662     3676 
    3684     3693     3705     3715     3723     3735     3747     3755 
    3769     3789     3807     3820     3832     3843     3847     3846 
    3846     3844     3840     3835     3831     3823     3809     3792 
    3769     3742     3709     3676     3643     3605     3561     3512 
    3466     3424     3387     3356     3334     3315     3296     3285 
    3279     3269     3261     3256     3254     3257     3261     3269 
    3285     3310     3341     3376     3416     3460     3503     3547 
    3593     3639     3684     3728     3767     3800     3834     3866 
    3893     3920     3946     3970     3990     4005     4013     4018 
    4024     4023     4014     4004     3982     3951     3916     3878 
    3840     3801     3765     3727     3692     3661     3634     3609 
    3591     3577     3566     3557     3547     3538     3519     3493 
    3469     3443     3415     3388     3361     3334     3311     3294 
    3280     3271     3269     3276     3283     3289     3295     3303 
    3314     3327     3337     3341     3343     3345     3342     3339 
    3338     3331     3326     3316     3303     3288     3272     3257 
    3241     3225     3208     3191     3175     3157     3134     3113 
    3102     3095     3092     3100     3123     3153     3184     3218 
    3253     3289     3331     3377     3422     3468     3512     3557 
    3605     3657     3709     3769     3831     3893     3958     4028 
    4098     4167     4230     4284     4329     4369     4402     4428 
    4455     4480     4496     4511     4526     4540     4557     4571 
    4577     4579     4571     4553     4530     4502     4467     4425 
    4374     4318     4263     4205     4143     4082     4028     3978 
    3928     3879     3835     3786     3736     3692     3654     3618 
    3581     3545     3503     3456     3404     3346     3281     3214 
    3144     3069     2991     2914     2840     2771     2712     2664 
    2628     2601     2587     2583     2590     2608     2636     2673 
    2713     2747     2772     2798     2821     2843     2866     2890 
    2913     2933     2956     2982     3005     3022     3036     3053 
    3072     3090     3113     3142     3176     3217     3254     3294 
    3337     3384     3429     3473     3519     3564     3605     3646 
    3685     3719     3751     3785     3817     3851     3888     3920 
    3948     3974     3997     4010     4014     4014     4009     3998 
    3985     3969     3951     3933     3921     3912     3904     3897 
    3896     3894     3892     3888     3882     3874     3861     3838 
    3809     3777     3740     3699     3654     3611     3566     3519 
    3472     3424     3377     3335     3298     3262     3231     3196 
    3157     3118     3078     3034     2995     2953     2909     2866 
    2824     2783     2748     2718     2694     2679     2673     2670 
    2678     2693     2716     2744     2778     2817     2859     2902 
    2945     2987     3028     3067     3105     3141     3173     3203 
    3240     3280     3319     3356     3392     3427     3457     3480 
    3501     3520     3538     3557     3573     3592     3619     3650 
    3682     3719     3759     3797     3825     3850     3870     3882 
    3892     3893     3889     3882     3877     3871     3869     3866 
    3859     3851     3843     3824     3797     3765     3731     3696 
    3658     3619     3588     3568     3559     3566     3581     3599 
    3623     3653     3680     3711     3743     3770     3793     3809 
    3820     3825     3823     3808     3789     3765     3730     3692 
    3657     3618     3582     3555     3530     3511     3510     3516 
    3523     3539     3564     3591     3623     3661     3701     3744 
    3790     3842     3898     3963     4039     4121     4205     4293 
    4374     4442     4502     4552     4590     4618     4633     4635 
    4634     4629     4618     4604     4595     4588     4583     4579 
    4580     4580     4580     4583     4584     4577     4564     4544 
    4519     4495     4471     4446     4423     4406     4390     4374 
    4359     4338     4317     4294     4266     4232     4194     4151 
    4106     4063     4025     3993     3963     3937     3917     3900 
    3886     3878     3875     3875     3881     3886     3892     3894 
    3890     3883     3875     3865     3848     3824     3793     3758 
    3716     3666     3612     3553     3483     3397     3306     3204 
    3094     2970     2837     2701     2562     2428     2300     2177 
    2065     1962     1869     1784     1710     1649     1601     1561 
    1537     1524     1521     1526     1534     1551     1576     1606 
    1636     1669     1709     1746     1787     1834     1888     1949 
    2016     2092     2172     2253     2339     2431     2519     2605 
    2695     2789     2883     2976     3075     3175     3269     3361 
    3454     3541     3624     3707     3788     3867     3946     4023 
    4101     4183     4266     4347     4423     4490     4542     4581 
    4607     4622     4629     4629     4623     4617     4612     4611 
    4615     4622     4631     4642     4652     4657     4658     4658 
    4656     4649     4637     4626     4618     4607     4598     4594 
    4590     4580     4567     4545     4511     4469     4419     4363 
    4299     4226     4145     4062     3975     3888     3796     3705 
    3618     3527     3442     3368     3299     3234     3177     3122 
    3068     3024     2984     2944     2907     2880     2860     2844 
    2832     2825     2820     2812     2797     2776     2749     2721 
    2691     2659     2624     2587     2556     2531     2519     2523 
    2540     2567     2606     2656     2710     2772     2836     2897 
    2959     3019     3075     3129     3180     3227     3273     3322 
    3368     3410     3454     3499     3546     3596     3645     3690 
    3735     3770     3800     3817     3817     3802     3769     3720 
    3662     3595     3518     3446     3383     3330     3288     3261 
    3249     3254     3273     3308     3357     3411     3468     3532 
    3601     3665     3730     3802     3881     3962     4048     4141 
    4234     4330     4429     4523     4612     4696     4769     4833 
    4882     4918     4939     4950     4950     4935     4908     4878 
    4845     4807     4768     4729     4692     4665     4642     4625 
    4611     4603     4598     4592     4585     4577     4565     4545 
    4521     4496     4469     4437     4406     4379     4353     4332 
    4313     4295     4278     4255     4228     4195     4152     4104 
    4048     3983     3910     3829     3742     3650     3549     3441 
    3327     3208     3090     2970     2844     2717     2587     2455 
    2328     2208     2093     1989     1887     1790     1703     1622 
    1552     1501     1467     1448     1445     1456     1482     1521 
    1570     1630     1701     1777     1858     1942     2025     2108 
    2197     2286     2377     2469     2558     2646     2733     2817 
    2897     2974     3049     3123     3194     3260     3325     3391 
    3453     3510     3561     3611     3662     3713     3762     3809 
    3858     3906     3952     3997     4035     4068     4104     4135 
    4159     4179     4199     4214     4225     4236     4241     4243 
    4247     4249     4247     4243     4237     4228     4224     4225 
    4226     4228     4232     4239     4253     4271     4286     4303 
    4325     4345     4361     4375     4387     4402     4417     4434 
    4455     4475     4499     4527     4548     4561     4571     4567 
    4546     4511     4465     4405     4326     4236     4136     4025 
    3909     3788     3666     3549     3433     3323     3214     3107 
    3010     2920     2833     2751     2675     2608     2548     2496 
    2451     2417     2394     2378     2369     2369     2371     2377 
    2388     2403     2419     2440     2469     2497     2528     2566 
    2612     2662     2716     2775     2840     2909     2984     3065 
    3156     3253     3360     3474     3599     3732     3875     4027 
    4185     4349     4514     4679     4838     4992     5140     5283 
    5413     5533     5643     5738     5821     5890     5940     5968 
    5984     5985     5967     5935     5892     5834     5765     5691 
    5606     5516     5420     5313     5201     5082     4958     4830 
    4698     4563     4433     4310     4186     4066     3951     3838 
    3724     3615     3503     3385     3265     3141     3011     2878 
    2741     2602     2470     2339     2209     2088     1977     1877 
    1788     1714     1652     1595     1548     1512     1480     1455 
    1432     1413     1398     1389     1385     1387     1402     1429 
    1463     1506     1561     1625     1694     1761     1825     1891 
    1957     2016     2080     2157     2231     2304     2386     2475 
    2562     2647     2733     2818     2899     2978     3056     3130 
    3199     3268     3341     3414     3491     3570     3650     3730 
    3811     3894     3978     4056     4131     4202     4268     4328 
    4380     4429     4468     4494     4517     4536     4548     4550 
    4546     4537     4523     4502     4479     4453     4422     4390 
    4352     4310     4266     4221     4176     4126     4072     4018 
    3967     3920     3874     3832     3796     3767     3746     3731 
    3723     3719     3720     3726     3730     3734     3735     3732 
    3724     3713     3704     3690     3673     3657     3642     3630 
    3622     3616     3609     3605     3603     3595     3586     3574 
    3554     3531     3505     3474     3442     3414     3385     3356 
    3330     3306     3283     3269     3258     3249     3245     3242 
    3237     3229     3217     3207     3198     3191     3186     3188 
    3200     3221     3253     3299     3352     3412     3481     3555 
    3636     3719     3796     3867     3935     3994     4045     4085 
    4112     4126     4135     4132     4118     4097     4066     4027 
    3983     3933     3877     3812     3744     3676     3607     3541 
    3481     3429     3385     3349     3322     3303     3295     3296 
    3304     3321     3343     3369     3397     3430     3462     3496 
    3534     3574     3612     3649     3685     3724     3755     3780 
    3802     3820     3831     3836     3835     3828     3821     3811 
    3798     3790     3789     3789     3790     3802     3819     3832 
    3851     3871     3890     3912     3935     3952     3969     3983 
    3991     3996     3998     3998     3996     3994     3997     3997 
    3993     3993     3994     3991     3987     3979     3970     3956 
    3937     3913     3882     3840     3792     3742     3684     3623 
    3562     3503     3443     3387     3337     3292     3253     3223 
    3202     3186     3176     3171     3172     3176     3176     3177 
    3180     3181     3181     3184     3194     3204     3213     3223 
    3246     3276     3306     3341     3384     3427     3474     3522 
    3566     3611     3650     3680     3701     3719     3730     3732 
    3730     3726     3720     3713     3704     3699     3701     3703 
    3704     3711     3720     3732     3744     3748     3753     3755 
    3744     3731     3717     3697     3670     3640     3612     3582 
    3549     3514     3483     3454     3431     3410     3389     3372 
    3357     3346     3342     3338     3337     3334     3330     3325 
    3318     3310     3299     3287     3277     3271     3262     3256 
    3253     3252     3253     3258     3262     3269     3276     3280 
    3283     3281     3277     3275     3271     3261     3252     3241 
    3226     3210     3195     3181     3167     3160     3161     3161 
    3163     3172     3187     3202     3223     3248     3272     3298 
    3322     3346     3375     3399     3420     3442     3466     3493 
    3516     3538     3565     3593     3620     3651     3685     3712 
    3740     3765     3782     3798     3813     3824     3829     3832 
    3832     3824     3812     3800     3785     3765     3740     3712 
    3682     3654     3627     3604     3588     3578     3573     3572 
    3576     3589     3611     3636     3666     3696     3730     3763 
    3793     3819     3844     3862     3867     3870     3866     3851 
    3829     3804     3777     3744     3705     3663     3620     3576 
    3528     3477     3420     3368     3314     3254     3196     3144 
    3091     3038     2998     2965     2940     2929     2933     2945 
    2967     3009     3064     3126     3198     3275     3356     3438 
    3518     3596     3676     3751     3821     3886     3947     4002 
    4048     4083     4114     4136     4145     4145     4140     4128 
    4106     4078     4051     4024     3996     3969     3943     3916 
    3888     3863     3846     3824     3804     3788     3769     3748 
    3728     3705     3681     3655     3630     3601     3572     3545 
    3519     3492     3462     3431     3399     3358     3315     3271 
    3222     3169     3118     3065     3009     2953     2905     2860 
    2822     2794     2775     2768     2767     2768     2779     2794 
    2810     2828     2845     2863     2878     2894     2911     2924 
    2941     2961     2982     3009     3044     3079     3122     3175 
    3227     3280     3334     3381     3424     3465     3501     3538 
    3573     3607     3643     3685     3731     3784     3842     3905 
    3974     4045     4117     4187     4253     4317     4378     4428 
    4468     4503     4526     4534     4533     4518     4492     4461 
    4422     4376     4329     4282     4234     4186     4137     4093 
    4047     4000     3955     3913     3869     3828     3788     3742 
    3703     3672     3638     3608     3584     3559     3541     3527 
    3516     3515     3516     3516     3512     3505     3493     3480 
    3464     3446     3429     3415     3402     3387     3375     3370 
    3370     3370     3369     3364     3357     3350     3335     3314 
