Origin Time       2025/01/13 21:19:00
Lat.              31.8
Long.             131.6
Depth. (km)       30
Mag.              6.9
Station Code      SMN014
Station Lat.      34.4668
Station Long.     131.7747
Station Height(m) 157
Record Time       2025/01/13 21:21:01
Sampling Freq(Hz) 100Hz
Duration Time(s)  60
Dir.              E-W
Scale Factor      7845(gal)/8223790
Max. Acc. (gal)   1.567
Last Correction   2025/01/13 21:21:01
Memo.             
[...]
   -4615    -4550    -4510    -4498    -4513    -4531    -4544    -4572 
   -4625    -4680    -4739    -4803    -4857    -4893    -4919    -4934 
   -4941    -4947    -4950    -4947    -4941    -4931    -4923    -4901 
   -4881    -4878    -4866    -4837    -4812    -4785    -4746    -4720 
   -4710    -4704    -4712    -4734    -4758    -4785    -4822    -4862 
   -4892    -4905    -4923    -4953    -4980    -4986    -4962    -4919 
   -4881    -4843    -4799    -4757    -4727    -4723    -4737    -4749 
   -4747    -4738    -4743    -4770    -4795    -4822    -4869    -4927 
   -4988    -5044    -5084    -5094    -5085    -5055    -4997    -4912 
   -4811    -4706    -4607    -4510    -4407    -4313    -4251    -4241 
   -4271    -4326    -4417    -4526    -4641    -4768    -4900    -5019 
   -5120    -5200    -5243    -5248    -5227    -5173    -5070    -4934 
   -4783    -4625    -4479    -4369    -4298    -4243    -4217    -4236 
   -4282    -4352    -4450    -4563    -4673    -4784    -4899    -5000 
   -5080    -5134    -5162    -5166    -5151    -5113    -5051    -4984 
   -4915    -4843    -4780    -4741    -4718    -4687    -4654    -4630 
   -4598    -4563    -4549    -4557    -4573    -4602    -4637    -4658 
   -4672    -4691    -4715    -4742    -4768    -4785    -4793    -4800 
   -4808    -4803    -4779    -4749    -4727    -4718    -4719    -4720 
   -4706    -4676    -4648    -4631    -4617    -4599    -4583    -4564 
   -4558    -4591    -4642    -4700    -4780    -4866    -4946    -5020 
   -5082    -5123    -5143    -5148    -5132    -5084    -5015    -4926 
   -4808    -4687    -4581    -4494    -4425    -4367    -4313    -4271 
   -4253    -4272    -4325    -4411    -4522    -4652    -4797    -4957 
   -5103    -5213    -5287    -5320    -5300    -5232    -5154    -5078 
   -4997    -4932    -4900    -4887    -4891    -4920    -4969    -5008 
   -5031    -5038    -5012    -4949    -4878    -4816    -4756    -4692 
   -4629    -4560    -4500    -4472    -4464    -4472    -4519    -4596 
   -4688    -4799    -4908    -4989    -5047    -5074    -5057    -5001 
   -4930    -4845    -4752    -4662    -4592    -4552    -4545    -4573 
   -4633    -4699    -4766    -4830    -4877    -4903    -4915    -4912 
   -4892    -4865    -4841    -4810    -4768    -4718    -4662    -4603 
   -4545    -4502    -4468    -4449    -4460    -4507    -4585    -4677 
   -4760    -4822    -4854    -4846    -4792    -4720    -4653    -4588 
   -4536    -4506    -4499    -4514    -4556    -4627    -4718    -4819 
   -4932    -5042    -5131    -5201    -5239    -5232    -5194    -5132 
   -5036    -4916    -4797    -4675    -4538    -4409    -4310    -4255 
   -4248    -4294    -4387    -4510    -4656    -4807    -4934    -5035 
   -5120    -5175    -5190    -5175    -5132    -5044    -4931    -4814 
   -4689    -4571    -4477    -4411    -4383    -4398    -4444    -4519 
   -4619    -4730    -4835    -4920    -4993    -5058    -5092    -5090 
   -5051    -4972    -4878    -4797    -4730    -4677    -4644    -4630 
   -4629    -4653    -4703    -4762    -4822    -4895    -4992    -5105 
   -5233    -5360    -5443    -5468    -5454    -5405    -5325    -5229 
   -5117    -4995    -4877    -4787    -4722    -4676    -4658    -4664 
   -4687    -4729    -4780    -4818    -4834    -4828    -4796    -4723 
   -4625    -4521    -4423    -4349    -4305    -4279    -4279    -4320 
   -4387    -4473    -4579    -4693    -4795    -4880    -4968    -5058 
   -5143    -5219    -5297    -5364    -5408    -5421    -5389    -5314 
   -5219    -5104    -4976    -4847    -4725    -4607    -4506    -4436 
   -4394    -4378    -4394    -4442    -4509    -4592    -4699    -4814 
   -4911    -4982    -5028    -5051    -5062    -5065    -5044    -5008 
   -4974    -4928    -4846    -4731    -4600    -4469    -4351    -4259 
   -4194    -4163    -4179    -4244    -4332    -4438    -4557    -4660 
   -4743    -4831    -4908    -4951    -4989    -5026    -5036    -5031 
   -5009    -4946    -4839    -4706    -4561    -4426    -4310    -4222 
   -4182    -4180    -4205    -4252    -4310    -4382    -4473    -4579 
   -4695    -4819    -4934    -5020    -5063    -5069    -5054    -5035 
   -5027    -5027    -5024    -5030    -5044    -5069    -5105    -5135 
   -5128    -5092    -5043    -4986    -4923    -4860    -4806    -4764 
   -4743    -4761    -4819    -4896    -4982    -5062    -5115    -5151 
   -5162    -5116    -5016    -4893    -4756    -4619    -4507    -4430 
   -4379    -4365    -4403    -4464    -4523    -4584    -4625    -4634 
   -4641    -4665    -4698    -4741    -4791    -4838    -4876    -4899 
   -4900    -4870    -4818    -4781    -4772    -4773    -4797    -4851 
   -4918    -4985    -5049    -5096    -5131    -5152    -5148    -5112 
   -5053    -4988    -4920    -4843    -4764    -4687    -4623    -4592 
   -4595    -4612    -4638    -4681    -4741    -4816    -4907    -4992 
   -5059    -5119    -5161    -5173    -5173    -5169    -5165    -5163 
   -5162    -5157    -5134    -5080    -5008    -4936    -4872    -4818 
   -4773    -4735    -4723    -4734    -4746    -4746    -4734    -4712 
   -4689    -4654    -4596    -4517    -4432    -4355    -4301    -4276 
   -4283    -4313    -4371    -4456    -4552    -4649    -4738    -4820 
   -4897    -4961    -5009    -5042    -5057    -5050    -5030    -5003 
   -4962    -4907    -4834    -4742    -4644    -4556    -4486    -4428 
   -4380    -4340    -4307    -4297    -4313    -4342    -4391    -4463 
   -4530    -4594    -4671    -4749    -4816    -4876    -4928    -4966 
   -4982    -4974    -4953    -4916    -4860    -4800    -4738    -4662 
   -4603    -4576    -4577    -4617    -4700    -4810    -4927    -5024 
   -5077    -5090    -5077    -5035    -4958    -4858    -4752    -4648 
   -4546    -4461    -4391    -4329    -4298    -4320    -4379    -4460 
   -4549    -4623    -4684    -4750    -4816    -4881    -4951    -5024 
   -5097    -5152    -5173    -5166    -5144    -5117    -5096    -5084 
   -5088    -5112    -5136    -5144    -5139    -5113    -5054    -4980 
   -4908    -4833    -4762    -4720    -4693    -4676    -4684    -4718 
   -4750    -4766    -4772    -4766    -4745    -4730    -4734    -4749 
   -4769    -4803    -4846    -4882    -4912    -4931    -4934    -4924 
   -4905    -4874    -4847    -4850    -4873    -4900    -4938    -4977 
   -4990    -4974    -4942    -4897    -4846    -4796    -4760    -4731 
   -4718    -4730    -4770    -4839    -4926    -5013    -5100    -5186 
   -5256    -5292    -5286    -5229    -5130    -5005    -4872    -4749 
   -4653    -4588    -4561    -4564    -4576    -4603    -4641    -4679 
   -4720    -4768    -4808    -4845    -4881    -4904    -4896    -4865 
   -4814    -4730    -4618    -4490    -4342    -4193    -4071    -3989 
   -3948    -3969    -4064    -4234    -4455    -4692    -4909    -5076 
   -5200    -5278    -5293    -5251    -5175    -5080    -4984    -4895 
   -4797    -4700    -4610    -4534    -4486    -4463    -4465    -4494 
   -4545    -4614    -4689    -4753    -4806    -4857    -4915    -4978 
   -5034    -5065    -5066    -5038    -4992    -4949    -4920    -4904 
   -4905    -4923    -4958    -5011    -5053    -5070    -5073    -5061 
   -5019    -4958    -4878    -4772    -4657    -4560    -4473    -4405 
   -4372    -4371    -4391    -4455    -4557    -4666    -4780    -4896 
   -5000    -5081    -5120    -5109    -5063    -5004    -4932    -4857 
   -4780    -4710    -4649    -4604    -4588    -4608    -4656    -4726 
   -4816    -4896    -4954    -4993    -5008    -4989    -4932    -4847 
   -4745    -4633    -4527    -4434    -4348    -4284    -4252    -4241 
   -4252    -4288    -4348    -4426    -4529    -4642    -4739    -4818 
   -4869    -4884    -4866    -4826    -4770    -4716    -4685    -4691 
   -4720    -4758    -4807    -4850    -4874    -4889    -4876    -4822 
   -4753    -4691    -4642    -4608    -4603    -4626    -4668    -4725 
   -4792    -4851    -4891    -4908    -4904    -4885    -4860    -4830 
   -4793    -4745    -4683    -4617    -4552    -4498    -4464    -4450 
   -4459    -4488    -4527    -4564    -4595    -4625    -4652    -4666 
   -4677    -4684    -4688    -4704    -4711    -4692    -4669    -4649 
   -4627    -4625    -4657    -4716    -4796    -4889    -4992    -5104 
   -5213    -5313    -5394    -5441    -5448    -5420    -5346    -5232 
   -5109    -4988    -4870    -4773    -4693    -4638    -4611    -4600 
   -4614    -4657    -4710    -4762    -4810    -4838    -4851    -4858 
   -4866    -4877    -4887    -4908    -4959    -5035    -5127    -5224 
   -5309    -5358    -5366    -5348    -5316    -5282    -5258    -5240 
   -5227    -5229    -5239    -5240    -5228    -5200    -5155    -5109 
   -5076    -5046    -5015    -4986    -4965    -4939    -4895    -4838 
   -4772    -4695    -4623    -4561    -4500    -4449    -4430    -4441 
   -4476    -4556    -4695    -4873    -5073    -5274    -5443    -5559 
   -5614    -5603    -5536    -5443    -5337    -5224    -5115    -5022 
   -4942    -4872    -4811    -4756    -4702    -4652    -4611    -4571 
   -4538    -4536    -4573    -4645    -4733    -4815    -4880    -4916 
   -4916    -4881    -4818    -4741    -4661    -4595    -4554    -4542 
   -4546    -4560    -4580    -4590    -4576    -4541    -4469    -4359 
   -4239    -4137    -4056    -4000    -3975    -3986    -4031    -4099 
   -4183    -4261    -4324    -4375    -4418    -4446    -4469    -4495 
   -4517    -4534    -4567    -4607    -4641    -4679    -4723    -4761 
   -4804    -4866    -4927    -4980    -5032    -5088    -5144    -5197 
   -5243    -5273    -5271    -5251    -5216    -5162    -5085    -5001 
   -4919    -4847    -4789    -4750    -4734    -4741    -4770    -4828 
   -4905    -4993    -5093    -5194    -5275    -5324    -5339    -5316 
   -5259    -5174    -5076    -4982    -4892    -4808    -4754    -4729 
   -4710    -4704    -4716    -4719    -4708    -4708    -4720    -4738 
   -4769    -4797    -4801    -4795    -4781    -4745    -4673    -4581 
   -4490    -4411    -4348    -4291    -4225    -4148    -4079    -4023 
   -3975    -3935    -3919    -3935    -3979    -4047    -4126    -4193 
   -4236    -4257    -4267    -4282    -4320    -4378    -4452    -4546 
   -4645    -4733    -4807    -4865    -4907    -4936    -4954    -4947 
   -4905    -4824    -4702    -4540    -4363    -4197    -4048    -3924 
   -3839    -3797    -3785    -3804    -3850    -3902    -3971    -4064 
   -4166    -4268    -4376    -4469    -4530    -4560    -4556    -4527 
   -4488    -4452    -4417    -4376    -4325    -4271    -4218    -4183 
   -4185    -4217    -4271    -4351    -4453    -4568    -4700    -4851 
   -5004    -5136    -5244    -5321    -5356    -5354    -5316    -5232 
   -5115    -4984    -4849    -4707    -4565    -4434    -4324    -4253 
   -4234    -4266    -4336    -4442    -4577    -4727    -4901    -5100 
   -5293    -5464    -5621    -5761    -5865    -5925    -5948    -5934 
   -5890    -5837    -5783    -5733    -5701    -5687    -5683    -5691 
   -5710    -5733    -5752    -5772    -5780    -5763    -5738    -5722 
   -5701    -5691    -5718    -5768    -5826    -5902    -5995    -6093 
   -6185    -6254    -6277    -6249    -6178    -6081    -5964    -5848 
   -5755    -5683    -5632    -5602    -5575    -5545    -5518    -5493 
   -5462    -5437    -5422    -5409    -5385    -5346    -5286    -5193 
   -5071    -4941    -4814    -4702    -4621    -4573    -4550    -4557 
   -4591    -4638    -4691    -4742    -4783    -4812    -4827    -4820 
   -4793    -4753    -4703    -4637    -4561    -4483    -4411    -4355 
   -4298    -4234    -4167    -4098    -4047    -4028    -4033    -4055 
   -4090    -4132    -4171    -4198    -4194    -4153    -4098    -4033 
   -3967    -3913    -3879    -3858    -3847    -3859    -3901    -3977 
   -4085    -4209    -4333    -4460    -4581    -4676    -4746    -4796 
   -4816    -4815    -4803    -4787    -4758    -4718    -4666    -4610 
   -4554    -4511    -4499    -4506    -4530    -4576    -4627    -4675 
   -4716    -4745    -4754    -4752    -4746    -4734    -4715    -4700 
   -4688    -4675    -4665    -4677    -4719    -4791    -4880    -4988 
   -5109    -5236    -5348    -5432    -5483    -5505    -5494    -5458 
   -5405    -5341    -5270    -5201    -5150    -5120    -5109    -5123 
   -5154    -5186    -5224    -5265    -5293    -5306    -5310    -5302 
   -5289    -5271    -5238    -5182    -5127    -5084    -5054    -5039 
   -5043    -5059    -5088    -5136    -5189    -5227    -5238    -5219 
   -5163    -5071    -4963    -4854    -4737    -4626    -4530    -4436 
   -4349    -4286    -4243    -4214    -4216    -4245    -4279    -4307 
   -4340    -4361    -4357    -4344    -4315    -4249    -4163    -4079 
   -3985    -3874    -3780    -3699    -3618    -3559    -3530    -3512 
   -3515    -3537    -3558    -3595    -3658    -3724    -3769    -3809 
   -3848    -3874    -3909    -3973    -4048    -4124    -4199    -4272 
   -4334    -4383    -4415    -4434    -4434    -4418    -4379    -4317 
   -4247    -4194    -4166    -4160    -4187    -4244    -4318    -4409 
   -4513    -4614    -4719    -4841    -4976    -5123    -5275    -5401 
   -5478    -5516    -5520    -5490    -5431    -5373    -5328    -5287 
   -5255    -5224    -5182    -5144    -5113    -5082    -5063    -5070 
   -5112    -5194    -5319    -5483    -5674    -5873    -6066    -6232 
   -6351    -6419    -6435    -6393    -6297    -6154    -5967    -5745 
   -5518    -5320    -5158    -5040    -4972    -4946    -4963    -5026 
   -5116    -5219    -5333    -5458    -5576    -5668    -5725    -5740 
   -5711    -5644    -5541    -5409    -5267    -5127    -4985    -4846 
   -4723    -4625    -4563    -4550    -4587    -4648    -4715    -4789 
   -4864    -4927    -4993    -5058    -5116    -5182    -5254    -5323 
   -5391    -5444    -5458    -5433    -5378    -5292    -5169    -5020 
   -4869    -4720    -4580    -4459    -4348    -4249    -4172    -4128 
   -4118    -4145    -4220    -4338    -4488    -4653    -4812    -4955 
   -5077    -5171    -5227    -5233    -5197    -5113    -4984    -4827 
   -4668    -4514    -4380    -4288    -4236    -4216    -4241    -4307 
   -4388    -4477    -4585    -4700    -4806    -4914    -5024    -5116 
   -5174    -5194    -5165    -5094    -5011    -4927    -4847    -4779 
   -4742    -4738    -4754    -4777    -4795    -4784    -4746    -4699 
   -4639    -4571    -4507    -4452    -4402    -4367    -4348    -4330 
   -4324    -4326    -4326    -4333    -4361    -4406    -4460    -4530 
   -4623    -4733    -4858    -4990    -5108    -5206    -5285    -5335 
   -5356    -5362    -5363    -5352    -5324    -5294    -5274    -5269 
   -5296    -5359    -5443    -5532    -5616    -5678    -5728    -5769 
   -5795    -5803    -5805    -5798    -5767    -5691    -5553    -5356 
   -5113    -4853    -4604    -4376    -4167    -3997    -3882    -3825 
   -3825    -3870    -3939    -4032    -4139    -4237    -4315    -4371 
   -4388    -4360    -4305    -4247    -4197    -4162    -4147    -4148 
   -4153    -4174    -4213    -4244    -4260    -4278    -4291    -4298 
   -4310    -4322    -4334    -4355    -4384    -4417    -4448    -4486 
   -4538    -4603    -4689    -4791    -4896    -5008    -5134    -5260 
   -5374    -5471    -5543    -5563    -5526    -5439    -5302    -5136 
   -4959    -4780    -4607    -4449    -4310    -4187    -4086    -4013 
   -3958    -3909    -3881    -3888    -3916    -3955    -4002    -4054 
   -4125    -4243    -4401    -4569    -4741    -4909    -5062    -5188 
   -5273    -5304    -5270    -5175    -5031    -4850    -4652    -4453 
   -4270    -4114    -4012    -3975    -3990    -4045    -4140    -4260 
   -4388    -4534    -4693    -4847    -4992    -5123    -5215    -5259 
   -5283    -5285    -5255    -5215    -5167    -5104    -5054    -5030 
   -5007    -4989    -4997    -5023    -5051    -5092    -5146    -5186 
   -5209    -5224    -5216    -5178    -5116    -5032    -4931    -4834 
   -4754    -4679    -4598    -4522    -4456    -4402    -4372    -4369 
   -4394    -4456    -4558    -4687    -4820    -4953    -5074    -5163 
   -5225    -5269    -5282    -5252    -5189    -5082    -4932    -4754 
   -4556    -4348    -4163    -4024    -3923    -3859    -3843    -3871 
   -3950    -4068    -4206    -4352    -4502    -4656    -4800    -4922 
   -5027    -5117    -5178    -5211    -5225    -5209    -5157    -5085 
   -5001    -4904    -4806    -4725    -4665    -4631    -4623    -4627 
   -4648    -4696    -4779    -4878    -4986    -5098    -5209    -5310 
   -5393    -5441    -5445    -5402    -5324    -5221    -5096    -4963 
   -4828    -4683    -4537    -4409    -4287    -4183    -4125    -4110 
   -4129    -4186    -4272    -4369    -4476    -4595    -4706    -4793 
   -4853    -4884    -4893    -4893    -4873    -4816    -4729    -4629 
   -4519    -4403    -4291    -4186    -4081    -3987    -3935    -3920 
   -3929    -3963    -4014    -4082    -4167    -4266    -4371    -4471 
   -4564    -4658    -4750    -4839    -4943    -5061    -5182    -5316 
   -5447    -5556    -5649    -5724    -5765    -5775    -5775    -5773 
   -5771    -5768    -5764    -5767    -5780    -5805    -5827    -5841 
   -5844    -5827    -5784    -5722    -5644    -5551    -5455    -5364 
   -5285    -5224    -5192    -5184    -5186    -5209    -5258    -5312 
   -5356    -5390    -5393    -5362    -5319    -5246    -5125    -4977 
   -4823    -4662    -4506    -4364    -4245    -4158    -4108    -4086 
   -4078    -4097    -4156    -4233    -4309    -4391    -4471    -4537 
   -4598    -4646    -4671    -4681    -4679    -4657    -4621    -4580 
   -4546    -4515    -4488    -4479    -4483    -4483    -4479    -4468 
   -4445    -4419    -4401    -4371    -4318    -4260    -4207    -4166 
   -4125    -4074    -4021    -3989    -3989    -4016    -4068    -4152 
   -4261    -4390    -4548    -4742    -4957    -5169    -5363    -5529 
   -5656    -5736    -5765    -5737    -5649    -5529    -5400    -5254 
   -5092    -4935    -4792    -4676    -4608    -4587    -4598    -4635 
   -4695    -4765    -4839    -4915    -4982    -5028    -5073    -5115 
   -5139    -5143    -5116    -5046    -4954    -4868    -4799    -4752 
   -4727    -4725    -4738    -4758    -4768    -4762    -4752    -4752 
   -4766    -4796    -4839    -4897    -4958    -5005    -5027    -5017 
   -4980    -4928    -4865    -4795    -4734    -4695    -4664    -4631 
   -4608    -4596    -4592    -4599    -4611    -4622    -4635    -4641 
   -4631    -4617    -4612    -4615    -4619    -4633    -4656    -4671 
   -4673    -4679    -4679    -4666    -4656    -4656    -4665    -4685 
   -4715    -4739    -4749    -4752    -4761    -4766    -4750    -4720 
   -4677    -4602    -4514    -4429    -4332    -4240    -4172    -4125 
   -4105    -4124    -4170    -4228    -4299    -4382    -4452    -4510 
   -4568    -4618    -4648    -4653    -4635    -4599    -4552    -4510 
   -4476    -4448    -4446    -4473    -4499    -4526    -4567    -4614 
   -4676    -4761    -4855    -4949    -5047    -5144    -5228    -5294 
   -5344    -5366    -5359    -5336    -5306    -5259    -5201    -5154 
   -5117    -5096    -5103    -5135    -5188    -5269    -5373    -5483 
