Origin Time       2025/01/13 21:19:00
Lat.              31.8
Long.             131.6
Depth. (km)       30
Mag.              6.9
Station Code      SMN002
Station Lat.      35.4713
Station Long.     133.0681
Station Height(m) 3
Record Time       2025/01/13 21:21:31
Sampling Freq(Hz) 100Hz
Duration Time(s)  78
Dir.              N-S
Scale Factor      7845(gal)/8223790
Max. Acc. (gal)   2.619
Last Correction   2025/01/13 21:21:32
Memo.             
[...]
   -4318    -4330    -4342    -4355    -4367    -4378    -4387    -4398 
   -4411    -4426    -4437    -4446    -4456    -4467    -4477    -4490 
   -4500    -4510    -4521    -4530    -4533    -4525    -4511    -4492 
   -4463    -4423    -4378    -4325    -4261    -4191    -4113    -4028 
   -3933    -3838    -3740    -3643    -3547    -3454    -3360    -3273 
   -3194    -3113    -3040    -2974    -2916    -2863    -2826    -2805 
   -2794    -2799    -2821    -2855    -2902    -2965    -3038    -3123 
   -3217    -3310    -3408    -3507    -3596    -3677    -3750    -3816 
   -3869    -3910    -3937    -3948    -3947    -3935    -3905    -3856 
   -3798    -3724    -3631    -3527    -3411    -3281    -3141    -2999 
   -2855    -2709    -2566    -2425    -2290    -2166    -2054    -1954 
   -1867    -1794    -1734    -1687    -1655    -1640    -1636    -1649 
   -1679    -1718    -1767    -1826    -1892    -1961    -2030    -2100 
   -2176    -2250    -2324    -2403    -2485    -2565    -2650    -2740 
   -2837    -2943    -3053    -3173    -3298    -3423    -3558    -3697 
   -3834    -3963    -4094    -4225    -4342    -4455    -4558    -4649 
   -4730    -4796    -4850    -4896    -4926    -4938    -4942    -4939 
   -4922    -4893    -4854    -4806    -4747    -4679    -4606    -4526 
   -4433    -4340    -4249    -4149    -4047    -3947    -3844    -3738 
   -3632    -3528    -3422    -3318    -3219    -3121    -3029    -2943 
   -2866    -2795    -2731    -2679    -2633    -2601    -2589    -2592 
   -2608    -2641    -2689    -2754    -2833    -2922    -3022    -3141 
   -3276    -3422    -3572    -3732    -3905    -4078    -4248    -4411 
   -4563    -4700    -4824    -4930    -5013    -5077    -5117    -5128 
   -5107    -5059    -4986    -4893    -4780    -4646    -4502    -4348 
   -4176    -3998    -3823    -3646    -3465    -3291    -3123    -2961 
   -2806    -2656    -2519    -2397    -2278    -2168    -2076    -1993 
   -1922    -1867    -1831    -1813    -1813    -1829    -1858    -1908 
   -1973    -2049    -2141    -2249    -2365    -2482    -2605    -2733 
   -2859    -2982    -3102    -3217    -3326    -3426    -3519    -3607 
   -3688    -3759    -3824    -3886    -3943    -3991    -4040    -4085 
   -4125    -4160    -4185    -4199    -4209    -4205    -4190    -4168 
   -4139    -4097    -4048    -3993    -3927    -3859    -3790    -3723 
   -3663    -3604    -3547    -3501    -3460    -3419    -3389    -3368 
   -3350    -3341    -3338    -3346    -3365    -3389    -3419    -3458 
   -3505    -3562    -3627    -3701    -3784    -3870    -3962    -4056 
   -4149    -4240    -4322    -4398    -4467    -4521    -4561    -4591 
   -4608    -4612    -4602    -4579    -4541    -4488    -4425    -4355 
   -4274    -4183    -4089    -3990    -3888    -3782    -3680    -3577 
   -3477    -3381    -3289    -3202    -3121    -3044    -2972    -2914 
   -2864    -2817    -2776    -2745    -2722    -2705    -2698    -2700 
   -2702    -2716    -2733    -2754    -2779    -2808    -2836    -2862 
   -2886    -2910    -2929    -2947    -2964    -2978    -2986    -2991 
   -2997    -3005    -3014    -3026    -3037    -3053    -3073    -3098 
   -3126    -3161    -3207    -3256    -3306    -3362    -3419    -3469 
   -3518    -3565    -3609    -3647    -3680    -3704    -3723    -3738 
   -3748    -3754    -3755    -3754    -3748    -3736    -3720    -3696 
   -3663    -3630    -3588    -3539    -3489    -3438    -3387    -3334 
   -3280    -3230    -3184    -3144    -3114    -3092    -3079    -3076 
   -3087    -3109    -3137    -3177    -3231    -3298    -3370    -3454 
   -3547    -3639    -3732    -3824    -3908    -3987    -4063    -4128 
   -4183    -4226    -4257    -4276    -4291    -4293    -4287    -4282 
   -4266    -4240    -4212    -4178    -4133    -4083    -4028    -3963 
   -3889    -3811    -3726    -3638    -3547    -3454    -3364    -3275 
   -3192    -3121    -3060    -3011    -2972    -2937    -2913    -2898 
   -2889    -2884    -2893    -2902    -2914    -2934    -2957    -2986 
   -3018    -3055    -3098    -3145    -3196    -3260    -3329    -3403 
   -3485    -3573    -3661    -3747    -3825    -3900    -3969    -4031 
   -4083    -4126    -4158    -4182    -4201    -4210    -4213    -4209 
   -4202    -4198    -4190    -4179    -4175    -4174    -4174    -4172 
   -4170    -4162    -4148    -4131    -4109    -4081    -4048    -4016 
   -3977    -3928    -3881    -3834    -3782    -3732    -3688    -3651 
   -3618    -3586    -3561    -3542    -3532    -3527    -3524    -3531 
   -3545    -3558    -3573    -3589    -3607    -3624    -3642    -3657 
   -3670    -3685    -3700    -3716    -3736    -3758    -3785    -3819 
   -3858    -3898    -3944    -3994    -4043    -4091    -4133    -4166 
   -4190    -4203    -4201    -4186    -4158    -4117    -4066    -4008 
   -3943    -3874    -3805    -3735    -3667    -3600    -3537    -3476 
   -3418    -3369    -3327    -3289    -3258    -3233    -3214    -3206 
   -3204    -3211    -3229    -3256    -3292    -3338    -3391    -3447 
   -3505    -3568    -3631    -3690    -3743    -3789    -3825    -3847 
   -3859    -3858    -3839    -3813    -3775    -3728    -3682    -3630 
   -3572    -3514    -3457    -3406    -3357    -3319    -3288    -3257 
   -3233    -3219    -3208    -3200    -3195    -3190    -3183    -3171 
   -3153    -3130    -3102    -3064    -3019    -2967    -2910    -2845 
   -2774    -2701    -2628    -2550    -2467    -2386    -2308    -2230 
   -2155    -2087    -2022    -1966    -1918    -1884    -1860    -1842 
   -1840    -1846    -1861    -1894    -1937    -1985    -2041    -2103 
   -2177    -2255    -2334    -2415    -2500    -2583    -2663    -2744 
   -2826    -2906    -2987    -3068    -3148    -3229    -3312    -3395 
   -3478    -3565    -3653    -3740    -3825    -3905    -3983    -4055 
   -4118    -4178    -4232    -4275    -4309    -4334    -4351    -4353 
   -4348    -4330    -4303    -4268    -4218    -4156    -4089    -4013 
   -3931    -3840    -3744    -3649    -3553    -3460    -3370    -3284 
   -3208    -3145    -3091    -3044    -3010    -2994    -2990    -3005 
   -3037    -3079    -3137    -3206    -3285    -3379    -3483    -3595 
   -3719    -3852    -3989    -4128    -4266    -4398    -4523    -4639 
   -4743    -4834    -4903    -4954    -4986    -4990    -4974    -4932 
   -4864    -4774    -4665    -4533    -4387    -4224    -4041    -3846 
   -3643    -3438    -3233    -3022    -2816    -2620    -2432    -2257 
   -2100    -1960    -1842    -1746    -1669    -1620    -1594    -1594 
   -1617    -1661    -1730    -1819    -1926    -2050    -2192    -2353 
   -2533    -2728    -2926    -3136    -3352    -3566    -3782    -4001 
   -4217    -4428    -4634    -4831    -5019    -5197    -5363    -5514 
   -5653    -5778    -5887    -5979    -6050    -6106    -6147    -6176 
   -6189    -6189    -6180    -6161    -6127    -6087    -6035    -5971 
   -5891    -5802    -5703    -5594    -5475    -5347    -5211    -5073 
   -4930    -4779    -4623    -4468    -4315    -4164    -4018    -3879 
   -3742    -3607    -3478    -3353    -3230    -3114    -3003    -2897 
   -2798    -2710    -2628    -2555    -2490    -2432    -2384    -2347 
   -2322    -2299    -2286    -2290    -2299    -2315    -2336    -2363 
   -2398    -2440    -2481    -2524    -2569    -2613    -2656    -2695 
   -2729    -2759    -2785    -2803    -2814    -2822    -2828    -2828 
   -2821    -2812    -2795    -2775    -2758    -2737    -2717    -2702 
   -2690    -2686    -2693    -2705    -2722    -2748    -2779    -2812 
   -2848    -2893    -2941    -2994    -3046    -3105    -3165    -3225 
   -3287    -3350    -3411    -3468    -3522    -3573    -3620    -3661 
   -3699    -3731    -3755    -3774    -3788    -3790    -3788    -3784 
   -3770    -3751    -3728    -3699    -3665    -3622    -3574    -3526 
   -3472    -3416    -3362    -3308    -3254    -3204    -3157    -3113 
   -3072    -3037    -3002    -2974    -2953    -2936    -2921    -2911 
   -2910    -2911    -2913    -2928    -2949    -2974    -3003    -3037 
   -3073    -3114    -3156    -3199    -3242    -3292    -3343    -3395 
   -3445    -3493    -3541    -3582    -3623    -3658    -3689    -3721 
   -3751    -3774    -3793    -3812    -3831    -3846    -3858    -3863 
   -3866    -3873    -3875    -3875    -3875    -3875    -3875    -3874 
   -3869    -3861    -3852    -3851    -3848    -3846    -3846    -3847 
   -3847    -3846    -3844    -3847    -3850    -3854    -3856    -3856 
   -3859    -3862    -3861    -3859    -3861    -3859    -3858    -3861 
   -3863    -3867    -3870    -3875    -3885    -3900    -3921    -3946 
   -3970    -3998    -4031    -4062    -4091    -4118    -4147    -4175 
   -4199    -4222    -4241    -4261    -4276    -4283    -4287    -4290 
   -4293    -4291    -4288    -4287    -4276    -4259    -4239    -4206 
   -4166    -4117    -4062    -4001    -3933    -3862    -3785    -3707 
   -3630    -3551    -3474    -3402    -3331    -3265    -3202    -3145 
   -3094    -3046    -3006    -2974    -2948    -2928    -2916    -2911 
   -2917    -2932    -2952    -2979    -3014    -3055    -3099    -3148 
   -3199    -3249    -3294    -3338    -3379    -3407    -3424    -3433 
   -3431    -3419    -3395    -3362    -3318    -3264    -3200    -3130 
   -3055    -2971    -2883    -2795    -2709    -2617    -2524    -2440 
   -2359    -2278    -2207    -2146    -2093    -2049    -2015    -1998 
   -1992    -1995    -2006    -2029    -2062    -2104    -2160    -2224 
   -2299    -2385    -2475    -2571    -2681    -2793    -2907    -3025 
   -3145    -3269    -3389    -3508    -3632    -3753    -3863    -3974 
   -4082    -4183    -4276    -4363    -4437    -4500    -4549    -4590 
   -4618    -4626    -4623    -4610    -4579    -4534    -4486    -4430 
   -4367    -4298    -4230    -4158    -4082    -4013    -3947    -3878 
   -3809    -3743    -3680    -3619    -3561    -3507    -3460    -3415 
   -3373    -3341    -3308    -3276    -3253    -3230    -3210    -3196 
   -3184    -3176    -3176    -3176    -3176    -3183    -3196    -3213 
   -3229    -3252    -3283    -3311    -3342    -3379    -3412    -3446 
   -3480    -3508    -3534    -3558    -3578    -3592    -3593    -3592 
   -3591    -3581    -3569    -3554    -3532    -3507    -3477    -3443 
   -3411    -3373    -3334    -3298    -3261    -3222    -3181    -3145 
   -3113    -3084    -3065    -3053    -3042    -3036    -3038    -3045 
   -3057    -3073    -3096    -3123    -3159    -3203    -3248    -3298 
   -3357    -3416    -3477    -3546    -3618    -3688    -3761    -3839 
   -3919    -3998    -4075    -4148    -4222    -4298    -4365    -4428 
   -4484    -4534    -4576    -4611    -4639    -4660    -4673    -4680 
   -4677    -4662    -4639    -4611    -4572    -4523    -4471    -4411 
   -4344    -4268    -4185    -4098    -4002    -3900    -3797    -3692 
   -3584    -3469    -3354    -3241    -3123    -3005    -2889    -2772 
   -2658    -2543    -2431    -2327    -2230    -2141    -2065    -1996 
   -1930    -1877    -1842    -1817    -1803    -1811    -1833    -1867 
   -1911    -1968    -2038    -2115    -2203    -2299    -2398    -2502 
   -2614    -2733    -2849    -2967    -3086    -3202    -3316    -3426 
   -3530    -3631    -3727    -3813    -3892    -3963    -4028    -4083 
   -4129    -4167    -4198    -4224    -4243    -4259    -4270    -4272 
   -4271    -4268    -4266    -4260    -4253    -4249    -4241    -4233 
   -4226    -4218    -4209    -4207    -4209    -4210    -4216    -4225 
   -4240    -4257    -4271    -4283    -4293    -4295    -4295    -4293 
   -4287    -4274    -4251    -4229    -4205    -4167    -4125    -4082 
   -4037    -3990    -3942    -3897    -3851    -3802    -3755    -3709 
   -3665    -3620    -3578    -3541    -3503    -3470    -3439    -3414 
   -3396    -3385    -3384    -3383    -3387    -3403    -3422    -3442 
   -3466    -3493    -3519    -3545    -3573    -3601    -3627    -3653 
   -3670    -3684    -3697    -3704    -3705    -3707    -3700    -3690 
   -3681    -3665    -3645    -3627    -3601    -3568    -3534    -3495 
   -3451    -3408    -3362    -3311    -3252    -3195    -3136    -3073 
   -3015    -2960    -2906    -2859    -2812    -2763    -2718    -2678 
   -2639    -2604    -2573    -2542    -2511    -2485    -2459    -2436 
   -2413    -2396    -2382    -2370    -2365    -2366    -2370    -2382 
   -2401    -2425    -2461    -2504    -2555    -2614    -2681    -2751 
   -2830    -2917    -3006    -3098    -3191    -3281    -3370    -3457 
   -3542    -3624    -3700    -3774    -3842    -3900    -3956    -4010 
   -4055    -4093    -4126    -4149    -4167    -4179    -4179    -4174 
   -4164    -4145    -4117    -4086    -4052    -4010    -3962    -3913 
   -3863    -3811    -3759    -3704    -3653    -3604    -3555    -3507 
   -3466    -3429    -3392    -3365    -3342    -3325    -3314    -3308 
   -3316    -3334    -3357    -3392    -3438    -3491    -3557    -3635 
   -3723    -3821    -3927    -4036    -4148    -4261    -4371    -4479 
   -4584    -4680    -4770    -4851    -4919    -4974    -5019    -5047 
   -5062    -5063    -5051    -5019    -4974    -4920    -4846    -4760 
   -4662    -4552    -4428    -4291    -4139    -3978    -3813    -3639 
   -3457    -3268    -3069    -2872    -2675    -2479    -2290    -2104 
   -1925    -1756    -1597    -1447    -1312    -1189    -1077     -982 
    -905     -842     -796     -769     -757     -764     -789     -832 
    -897     -977    -1080    -1204    -1344    -1498    -1671    -1860 
   -2062    -2273    -2489    -2709    -2938    -3169    -3397    -3623 
   -3839    -4045    -4241    -4426    -4599    -4756    -4900    -5031 
   -5146    -5244    -5324    -5382    -5425    -5447    -5445    -5429 
   -5393    -5335    -5259    -5170    -5066    -4951    -4828    -4698 
   -4561    -4423    -4283    -4144    -4008    -3875    -3747    -3631 
   -3523    -3426    -3342    -3269    -3206    -3161    -3129    -3109 
   -3106    -3117    -3137    -3168    -3214    -3271    -3338    -3414 
   -3493    -3581    -3672    -3762    -3854    -3946    -4035    -4121 
   -4203    -4282    -4352    -4418    -4479    -4529    -4569    -4606 
   -4634    -4648    -4656    -4656    -4641    -4619    -4591    -4550 
   -4500    -4437    -4368    -4295    -4209    -4116    -4018    -3917 
   -3808    -3694    -3576    -3454    -3333    -3211    -3091    -2978 
   -2867    -2763    -2670    -2585    -2512    -2451    -2403    -2365 
   -2336    -2322    -2317    -2322    -2335    -2357    -2386    -2424 
   -2463    -2504    -2551    -2606    -2662    -2724    -2787    -2849 
   -2911    -2974    -3032    -3090    -3145    -3196    -3242    -3283 
   -3316    -3342    -3364    -3381    -3388    -3391    -3391    -3381 
   -3366    -3350    -3329    -3303    -3275    -3244    -3208    -3171 
   -3129    -3086    -3041    -2998    -2956    -2914    -2874    -2832 
   -2795    -2767    -2737    -2713    -2697    -2689    -2690    -2697 
   -2713    -2740    -2775    -2814    -2864    -2920    -2980    -3051 
   -3127    -3208    -3298    -3388    -3483    -3584    -3685    -3786 
   -3892    -3998    -4102    -4195    -4283    -4365    -4437    -4499 
   -4552    -4598    -4633    -4653    -4661    -4653    -4630    -4602 
   -4564    -4514    -4457    -4396    -4329    -4255    -4178    -4098 
   -4017    -3935    -3854    -3774    -3696    -3624    -3557    -3495 
   -3443    -3400    -3362    -3341    -3327    -3321    -3326    -3342 
   -3365    -3396    -3437    -3483    -3532    -3585    -3642    -3700 
   -3757    -3811    -3865    -3913    -3958    -3998    -4029    -4054 
   -4075    -4093    -4099    -4101    -4098    -4086    -4063    -4040 
   -4013    -3977    -3939    -3902    -3867    -3828    -3788    -3748 
   -3709    -3670    -3634    -3600    -3572    -3545    -3515    -3492 
   -3473    -3451    -3431    -3415    -3400    -3385    -3373    -3362 
   -3353    -3346    -3341    -3338    -3335    -3335    -3333    -3333 
   -3335    -3335    -3335    -3335    -3335    -3335    -3339    -3341 
   -3345    -3354    -3361    -3368    -3377    -3387    -3396    -3406 
   -3411    -3416    -3424    -3435    -3441    -3443    -3447    -3449 
   -3449    -3449    -3442    -3434    -3426    -3412    -3396    -3381 
   -3362    -3338    -3316    -3295    -3272    -3250    -3223    -3195 
   -3175    -3153    -3132    -3114    -3099    -3088    -3079    -3072 
   -3067    -3067    -3071    -3080    -3094    -3109    -3123    -3144 
   -3164    -3186    -3206    -3226    -3250    -3276    -3300    -3327 
   -3349    -3368    -3391    -3414    -3430    -3443    -3456    -3465 
   -3474    -3480    -3485    -3492    -3492    -3489    -3488    -3487 
   -3484    -3480    -3478    -3476    -3470    -3468    -3462    -3458 
   -3460    -3460    -3460    -3462    -3468    -3473    -3476    -3485 
   -3496    -3504    -3514    -3526    -3538    -3549    -3564    -3581 
   -3595    -3608    -3624    -3635    -3646    -3657    -3663    -3670 
   -3678    -3685    -3693    -3700    -3707    -3716    -3728    -3738 
   -3753    -3766    -3782    -3805    -3823    -3842    -3869    -3894 
   -3919    -3948    -3982    -4013    -4044    -4079    -4114    -4148 
   -4182    -4214    -4236    -4255    -4274    -4283    -4287    -4286 
   -4272    -4253    -4226    -4186    -4140    -4086    -4021    -3948 
   -3867    -3774    -3674    -3573    -3468    -3360    -3249    -3141 
   -3036    -2932    -2835    -2747    -2664    -2590    -2528    -2479 
   -2444    -2419    -2407    -2413    -2431    -2461    -2508    -2566 
   -2636    -2717    -2808    -2909    -3018    -3132    -3248    -3368 
   -3491    -3613    -3728    -3838    -3946    -4043    -4135    -4221 
   -4294    -4352    -4401    -4441    -4469    -4482    -4483    -4475 
   -4449    -4411    -4364    -4302    -4226    -4145    -4055    -3956 
   -3855    -3747    -3631    -3519    -3407    -3294    -3186    -3084 
   -2990    -2899    -2816    -2739    -2673    -2617    -2571    -2539 
   -2515    -2501    -2505    -2519    -2540    -2574    -2621    -2675 
   -2733    -2805    -2883    -2961    -3046    -3136    -3215    -3298 
   -3380    -3454    -3524    -3595    -3654    -3707    -3755    -3792 
   -3819    -3839    -3850    -3855    -3854    -3840    -3825    -3804 
   -3775    -3743    -3708    -3669    -3628    -3584    -3542    -3501 
   -3461    -3423    -3387    -3354    -3329    -3304    -3285    -3275 
   -3269    -3272    -3284    -3303    -3327    -3360    -3396    -3437 
   -3485    -3538    -3595    -3654    -3715    -3773    -3832    -3890 
   -3943    -3993    -4036    -4075    -4109    -4140    -4167    -4183 
   -4195    -4206    -4207    -4202    -4191    -4175    -4153    -4125 
   -4091    -4058    -4018    -3975    -3929    -3882    -3828    -3773 
   -3713    -3650    -3588    -3524    -3458    -3396    -3334    -3271 
   -3206    -3142    -3082    -3022    -2965    -2916    -2864    -2813 
   -2768    -2731    -2695    -2666    -2641    -2617    -2600    -2589 
   -2582    -2582    -2587    -2598    -2614    -2633    -2656    -2678 
   -2704    -2735    -2767    -2803    -2845    -2889    -2938    -2992 
   -3044    -3098    -3156    -3214    -3273    -3334    -3392    -3449 
