Origin Time       2025/01/13 21:19:00
Lat.              31.8
Long.             131.6
Depth. (km)       30
Mag.              6.9
Station Code      SMN013
Station Lat.      34.6696
Station Long.     131.8461
Station Height(m) 36
Record Time       2025/01/13 21:21:12
Sampling Freq(Hz) 100Hz
Duration Time(s)  60
Dir.              E-W
Scale Factor      7845(gal)/8223790
Max. Acc. (gal)   1.727
Last Correction   2025/01/13 21:21:12
Memo.             
[...]
   -7087    -7059    -7051    -7052    -7060    -7072    -7090    -7117 
   -7153    -7186    -7206    -7214    -7217    -7210    -7191    -7168 
   -7149    -7140    -7148    -7169    -7198    -7223    -7225    -7198 
   -7149    -7090    -7037    -7009    -6999    -6995    -6990    -6980 
   -6970    -6966    -6971    -6991    -7029    -7075    -7119    -7153 
   -7172    -7177    -7177    -7168    -7155    -7132    -7094    -7051 
   -7011    -6983    -6970    -6970    -6982    -7011    -7059    -7110 
   -7155    -7183    -7186    -7159    -7114    -7064    -7006    -6951 
   -6920    -6914    -6916    -6920    -6918    -6907    -6905    -6917 
   -6947    -6994    -7041    -7071    -7086    -7096    -7103    -7113 
   -7136    -7169    -7206    -7240    -7260    -7269    -7269    -7265 
   -7267    -7275    -7287    -7298    -7312    -7331    -7349    -7372 
   -7411    -7446    -7468    -7474    -7458    -7419    -7364    -7294 
   -7222    -7160    -7110    -7074    -7048    -7037    -7042    -7057 
   -7082    -7110    -7142    -7187    -7246    -7317    -7387    -7446 
   -7493    -7524    -7537    -7538    -7533    -7516    -7487    -7452 
   -7408    -7357    -7304    -7254    -7214    -7190    -7187    -7190 
   -7182    -7161    -7132    -7107    -7103    -7122    -7150    -7177 
   -7196    -7202    -7203    -7209    -7207    -7202    -7199    -7184 
   -7157    -7134    -7111    -7090    -7068    -7041    -7020    -7009 
   -7006    -6997    -6976    -6953    -6944    -6948    -6966    -6995 
   -7028    -7052    -7075    -7103    -7140    -7182    -7225    -7260 
   -7292    -7319    -7329    -7329    -7330    -7330    -7318    -7300 
   -7281    -7250    -7217    -7192    -7175    -7167    -7173    -7184 
   -7198    -7215    -7238    -7264    -7287    -7299    -7302    -7292 
   -7273    -7252    -7222    -7180    -7125    -7060    -7003    -6967 
   -6933    -6898    -6875    -6864    -6860    -6866    -6879    -6890 
   -6901    -6907    -6913    -6921    -6934    -6955    -6987    -7030 
   -7082    -7132    -7182    -7231    -7267    -7279    -7277    -7264 
   -7241    -7214    -7187    -7169    -7153    -7128    -7098    -7061 
   -7014    -6972    -6945    -6930    -6937    -6964    -6999    -7030 
   -7055    -7063    -7052    -7029    -7006    -6982    -6960    -6939 
   -6912    -6882    -6856    -6841    -6832    -6825    -6822    -6817 
   -6810    -6810    -6822    -6832    -6837    -6847    -6864    -6893 
   -6936    -6980    -7014    -7032    -7034    -7041    -7053    -7063 
   -7064    -7052    -7028    -7007    -7003    -7010    -7030    -7052 
   -7069    -7090    -7117    -7145    -7179    -7223    -7269    -7298 
   -7306    -7310    -7308    -7304    -7307    -7317    -7318    -7310 
   -7302    -7295    -7285    -7276    -7264    -7257    -7263    -7275 
   -7281    -7287    -7299    -7319    -7344    -7368    -7389    -7404 
   -7404    -7393    -7376    -7357    -7348    -7342    -7333    -7323 
   -7308    -7280    -7242    -7194    -7138    -7096    -7068    -7047 
   -7041    -7048    -7063    -7078    -7092    -7110    -7130    -7153 
   -7182    -7206    -7221    -7231    -7230    -7217    -7206    -7202 
   -7199    -7204    -7222    -7242    -7265    -7275    -7260    -7237 
   -7213    -7190    -7168    -7136    -7092    -7045    -7001    -6963 
   -6926    -6909    -6917    -6940    -6974    -7022    -7076    -7142 
   -7223    -7315    -7406    -7476    -7515    -7534    -7537    -7523 
   -7510    -7503    -7507    -7531    -7573    -7619    -7659    -7686 
   -7693    -7677    -7642    -7605    -7566    -7511    -7449    -7396 
   -7350    -7321    -7321    -7335    -7353    -7371    -7379    -7376 
   -7357    -7323    -7284    -7242    -7209    -7186    -7164    -7138 
   -7095    -7037    -6988    -6955    -6926    -6913    -6910    -6899 
   -6879    -6845    -6801    -6756    -6706    -6648    -6592    -6543 
   -6502    -6478    -6458    -6450    -6459    -6488    -6525    -6569 
   -6610    -6656    -6709    -6767    -6832    -6891    -6939    -6972 
   -6995    -7010    -7021    -7017    -6994    -6961    -6922    -6878 
   -6844    -6835    -6843    -6858    -6870    -6880    -6901    -6936 
   -6982    -7030    -7069    -7095    -7109    -7114    -7118    -7123 
   -7130    -7141    -7163    -7202    -7260    -7333    -7415    -7496 
   -7564    -7615    -7670    -7739    -7804    -7848    -7881    -7904 
   -7908    -7897    -7885    -7875    -7871    -7866    -7847    -7815 
   -7762    -7699    -7636    -7580    -7537    -7519    -7514    -7506 
   -7496    -7497    -7516    -7546    -7568    -7561    -7520    -7465 
   -7423    -7396    -7375    -7354    -7327    -7290    -7252    -7221 
   -7200    -7188    -7176    -7160    -7132    -7084    -7013    -6926 
   -6841    -6771    -6720    -6682    -6648    -6608    -6551    -6485 
   -6427    -6377    -6339    -6319    -6308    -6308    -6318    -6330 
   -6339    -6347    -6366    -6401    -6440    -6494    -6562    -6631 
   -6704    -6787    -6874    -6961    -7056    -7144    -7226    -7307 
   -7380    -7441    -7489    -7524    -7541    -7535    -7526    -7522 
   -7512    -7496    -7477    -7450    -7418    -7379    -7334    -7287 
   -7233    -7179    -7133    -7105    -7098    -7105    -7114    -7114 
   -7103    -7092    -7091    -7096    -7092    -7080    -7065    -7048 
   -7036    -7026    -7020    -7034    -7080    -7144    -7215    -7294 
   -7364    -7423    -7466    -7491    -7506    -7506    -7487    -7462 
   -7439    -7423    -7419    -7420    -7422    -7429    -7443    -7462 
   -7477    -7484    -7485    -7473    -7441    -7396    -7353    -7307 
   -7267    -7226    -7179    -7136    -7099    -7067    -7049    -7056 
   -7082    -7122    -7169    -7207    -7229    -7244    -7264    -7296 
   -7346    -7399    -7439    -7457    -7461    -7460    -7437    -7396 
   -7350    -7285    -7206    -7125    -7040    -6955    -6887    -6863 
   -6882    -6922    -6966    -6997    -7015    -7044    -7088    -7142 
   -7195    -7234    -7244    -7222    -7176    -7103    -7007    -6901 
   -6795    -6708    -6648    -6613    -6605    -6625    -6654    -6682 
   -6717    -6758    -6791    -6816    -6821    -6802    -6766    -6725 
   -6690    -6663    -6642    -6633    -6643    -6678    -6740    -6813 
   -6883    -6943    -6984    -7006    -7005    -6984    -6963    -6948 
   -6936    -6933    -6934    -6940    -6951    -6956    -6956    -6948 
   -6928    -6910    -6893    -6866    -6844    -6835    -6835    -6851 
   -6890    -6953    -7034    -7121    -7203    -7272    -7314    -7331 
   -7335    -7335    -7348    -7372    -7408    -7458    -7516    -7558 
   -7576    -7587    -7603    -7624    -7643    -7653    -7653    -7638 
   -7615    -7591    -7562    -7534    -7510    -7481    -7449    -7407 
   -7349    -7275    -7188    -7101    -7029    -6979    -6957    -6953 
   -6949    -6939    -6936    -6945    -6967    -6994    -7015    -7034 
   -7048    -7038    -7010    -6986    -6974    -6974    -6971    -6963 
   -6953    -6934    -6912    -6895    -6886    -6886    -6886    -6885 
   -6894    -6912    -6928    -6937    -6943    -6944    -6947    -6956 
   -6971    -6994    -7029    -7068    -7099    -7130    -7156    -7161 
   -7145    -7129    -7126    -7138    -7167    -7206    -7231    -7237 
   -7244    -7272    -7322    -7384    -7443    -7492    -7523    -7539 
   -7551    -7558    -7560    -7561    -7570    -7585    -7605    -7627 
   -7654    -7674    -7684    -7689    -7686    -7686    -7693    -7690 
   -7678    -7669    -7655    -7645    -7642    -7638    -7626    -7600 
   -7554    -7493    -7433    -7371    -7317    -7275    -7248    -7231 
   -7214    -7194    -7183    -7182    -7182    -7177    -7169    -7163 
   -7150    -7128    -7106    -7094    -7088    -7094    -7111    -7144 
   -7188    -7230    -7257    -7272    -7281    -7287    -7292    -7291 
   -7284    -7281    -7275    -7250    -7231    -7221    -7204    -7192 
   -7196    -7206    -7225    -7254    -7294    -7327    -7348    -7357 
   -7371    -7387    -7407    -7426    -7442    -7452    -7450    -7433 
   -7406    -7364    -7303    -7237    -7179    -7137    -7107    -7087 
   -7079    -7079    -7079    -7075    -7067    -7047    -7022    -7002 
   -6983    -6951    -6899    -6843    -6790    -6739    -6686    -6632 
   -6575    -6515    -6462    -6423    -6403    -6394    -6394    -6412 
   -6446    -6493    -6554    -6625    -6704    -6783    -6845    -6887 
   -6917    -6944    -6976    -7020    -7074    -7133    -7186    -7217 
   -7236    -7245    -7240    -7231    -7221    -7209    -7207    -7210 
   -7207    -7196    -7187    -7191    -7203    -7211    -7223    -7227 
   -7223    -7227    -7245    -7269    -7303    -7342    -7385    -7423 
   -7446    -7468    -7492    -7510    -7523    -7541    -7557    -7570 
   -7588    -7604    -7628    -7668    -7703    -7723    -7736    -7743 
   -7747    -7762    -7784    -7804    -7820    -7824    -7823    -7819 
   -7808    -7800    -7790    -7759    -7722    -7688    -7638    -7584 
   -7542    -7503    -7465    -7427    -7383    -7339    -7295    -7249 
   -7209    -7176    -7153    -7129    -7095    -7060    -7017    -6961 
   -6902    -6845    -6795    -6759    -6736    -6720    -6709    -6698 
   -6683    -6673    -6666    -6656    -6648    -6635    -6624    -6627 
   -6633    -6642    -6650    -6654    -6659    -6662    -6648    -6624 
   -6594    -6566    -6543    -6527    -6519    -6534    -6566    -6612 
   -6667    -6721    -6774    -6821    -6863    -6909    -6956    -6991 
   -7009    -7007    -6997    -6988    -6988    -6998    -7022    -7060 
   -7114    -7188    -7271    -7352    -7425    -7483    -7531    -7576 
   -7627    -7696    -7771    -7850    -7935    -8020    -8094    -8154 
   -8189    -8205    -8205    -8178    -8122    -8056    -7986    -7923 
   -7861    -7789    -7709    -7632    -7558    -7497    -7458    -7426 
   -7387    -7329    -7254    -7175    -7084    -6988    -6897    -6802 
   -6714    -6643    -6581    -6527    -6485    -6459    -6455    -6461 
   -6461    -6455    -6451    -6451    -6457    -6471    -6489    -6509 
   -6532    -6565    -6613    -6677    -6745    -6825    -6921    -7040 
   -7168    -7292    -7415    -7523    -7600    -7651    -7678    -7678 
   -7668    -7651    -7618    -7573    -7523    -7466    -7403    -7327 
   -7242    -7160    -7092    -7056    -7053    -7064    -7074    -7074 
   -7064    -7060    -7063    -7060    -7048    -7017    -6971    -6918 
   -6859    -6794    -6729    -6662    -6608    -6575    -6565    -6577 
   -6606    -6644    -6693    -6745    -6799    -6853    -6905    -6952 
   -6997    -7028    -7033    -7017    -6979    -6924    -6859    -6781 
   -6696    -6616    -6547    -6489    -6439    -6400    -6385    -6400 
   -6435    -6488    -6552    -6627    -6698    -6762    -6820    -6876 
   -6926    -6961    -6978    -6991    -7009    -7029    -7057    -7088 
   -7118    -7144    -7165    -7192    -7234    -7284    -7322    -7361 
   -7415    -7469    -7523    -7580    -7622    -7649    -7680    -7719 
   -7758    -7784    -7786    -7777    -7765    -7750    -7746    -7750 
   -7754    -7757    -7755    -7754    -7769    -7804    -7838    -7861 
   -7877    -7885    -7885    -7881    -7867    -7846    -7809    -7749 
   -7674    -7596    -7528    -7466    -7395    -7326    -7265    -7210 
   -7167    -7138    -7119    -7136    -7186    -7240    -7277    -7296 
   -7306    -7318    -7334    -7356    -7385    -7419    -7446    -7468 
   -7485    -7497    -7501    -7496    -7484    -7468    -7439    -7398 
   -7345    -7287    -7231    -7182    -7134    -7096    -7071    -7045 
   -7021    -6990    -6937    -6874    -6817    -6777    -6763    -6764 
   -6768    -6782    -6802    -6837    -6893    -6955    -7021    -7092 
   -7157    -7214    -7272    -7331    -7398    -7468    -7530    -7589 
   -7647    -7701    -7755    -7798    -7819    -7824    -7813    -7792 
   -7773    -7754    -7731    -7705    -7677    -7662    -7672    -7701 
   -7740    -7767    -7765    -7734    -7676    -7605    -7539    -7476 
   -7416    -7360    -7296    -7231    -7169    -7111    -7051    -6987 
   -6914    -6835    -6758    -6687    -6635    -6613    -6625    -6655 
   -6687    -6727    -6770    -6805    -6849    -6901    -6939    -6967 
   -6987    -6995    -6987    -6968    -6944    -6924    -6905    -6898 
   -6906    -6917    -6932    -6957    -6998    -7063    -7145    -7236 
   -7331    -7427    -7504    -7566    -7620    -7663    -7696    -7712 
   -7716    -7720    -7732    -7742    -7744    -7736    -7722    -7703 
   -7680    -7661    -7642    -7620    -7607    -7596    -7581    -7569 
   -7561    -7558    -7554    -7538    -7506    -7468    -7425    -7383 
   -7345    -7300    -7250    -7209    -7176    -7153    -7141    -7130 
   -7121    -7111    -7092    -7067    -7042    -7021    -6999    -6976 
   -6944    -6909    -6880    -6841    -6793    -6745    -6698    -6651 
   -6608    -6573    -6539    -6504    -6475    -6459    -6446    -6436 
   -6428    -6419    -6411    -6401    -6384    -6361    -6327    -6285 
   -6253    -6224    -6192    -6164    -6145    -6122    -6087    -6038 
   -5984    -5925    -5860    -5802    -5753    -5705    -5656    -5607 
   -5543    -5475    -5433    -5427    -5444    -5476    -5521    -5582 
   -5645    -5715    -5809    -5926    -6057    -6201    -6362    -6539 
   -6712    -6876    -7041    -7198    -7352    -7520    -7696    -7871 
   -8060    -8255    -8442    -8614    -8756    -8862    -8934    -8964 
   -8959    -8920    -8853    -8769    -8676    -8572    -8468    -8372 
   -8289    -8214    -8152    -8093    -8031    -7958    -7871    -7771 
   -7669    -7569    -7474    -7392    -7327    -7285    -7264    -7265 
   -7294    -7329    -7366    -7404    -7422    -7418    -7411    -7402 
   -7388    -7377    -7371    -7372    -7377    -7379    -7387    -7408 
   -7431    -7445    -7445    -7433    -7418    -7407    -7398    -7392 
   -7389    -7384    -7379    -7381    -7396    -7419    -7450    -7481 
   -7499    -7496    -7474    -7437    -7392    -7331    -7246    -7157 
   -7064    -6970    -6893    -6821    -6744    -6683    -6628    -6565 
   -6517    -6478    -6436    -6397    -6353    -6300    -6253    -6216 
   -6197    -6191    -6187    -6188    -6191    -6201    -6231    -6265 
   -6300    -6342    -6373    -6394    -6411    -6413    -6413    -6430 
   -6467    -6523    -6586    -6640    -6687    -6729    -6763    -6795 
   -6816    -6813    -6797    -6775    -6752    -6729    -6709    -6698 
   -6700    -6714    -6743    -6797    -6875    -6972    -7083    -7192 
   -7300    -7410    -7518    -7623    -7726    -7823    -7908    -7970 
   -8005    -8020    -8028    -8032    -8031    -8025    -8021    -8021 
   -8021    -8012    -8001    -8001    -8014    -8035    -8059    -8079 
   -8085    -8079    -8073    -8071    -8059    -8021    -7956    -7873 
   -7782    -7684    -7568    -7441    -7321    -7214    -7099    -6978 
   -6856    -6735    -6619    -6515    -6417    -6328    -6253    -6193 
   -6150    -6115    -6081    -6058    -6052    -6054    -6062    -6081 
   -6099    -6106    -6107    -6108    -6112    -6124    -6138    -6157 
   -6183    -6211    -6249    -6291    -6334    -6377    -6416    -6465 
   -6521    -6579    -6642    -6712    -6789    -6864    -6947    -7033 
   -7119    -7211    -7308    -7403    -7500    -7599    -7692    -7771 
   -7831    -7863    -7877    -7884    -7893    -7898    -7894    -7888 
   -7875    -7862    -7859    -7867    -7879    -7897    -7915    -7932 
   -7962    -8005    -8051    -8098    -8141    -8174    -8197    -8206 
   -8206    -8202    -8186    -8159    -8121    -8073    -8024    -7973 
   -7906    -7828    -7757    -7705    -7670    -7634    -7587    -7541 
   -7501    -7468    -7438    -7420    -7408    -7396    -7375    -7346 
   -7321    -7296    -7277    -7263    -7250    -7242    -7229    -7210 
   -7191    -7179    -7179    -7188    -7203    -7219    -7229    -7233 
   -7242    -7258    -7279    -7298    -7312    -7326    -7333    -7323 
   -7292    -7254    -7215    -7171    -7113    -7045    -6967    -6883 
   -6805    -6739    -6690    -6659    -6628    -6594    -6562    -6543 
   -6548    -6566    -6590    -6615    -6644    -6689    -6737    -6779 
   -6820    -6849    -6874    -6895    -6912    -6929    -6940    -6945 
   -6955    -6964    -6967    -6968    -6968    -6963    -6963    -6976 
   -6999    -7032    -7082    -7149    -7230    -7300    -7350    -7398 
   -7438    -7470    -7499    -7514    -7511    -7492    -7457    -7416 
   -7387    -7373    -7377    -7393    -7412    -7435    -7462    -7491 
   -7506    -7506    -7500    -7489    -7483    -7484    -7484    -7477 
   -7453    -7407    -7348    -7279    -7203    -7123    -7042    -6967 
   -6890    -6821    -6763    -6712    -6667    -6629    -6592    -6562 
   -6546    -6535    -6523    -6515    -6515    -6523    -6532    -6548 
   -6575    -6616    -6681    -6756    -6835    -6921    -7011    -7094 
   -7173    -7254    -7338    -7416    -7485    -7545    -7585    -7603 
   -7614    -7612    -7592    -7565    -7537    -7506    -7474    -7449 
   -7426    -7407    -7399    -7402    -7404    -7404    -7403    -7399 
   -7387    -7371    -7350    -7323    -7296    -7269    -7246    -7230 
   -7215    -7199    -7182    -7155    -7133    -7134    -7148    -7172 
   -7210    -7249    -7306    -7376    -7434    -7492    -7547    -7593 
   -7635    -7670    -7685    -7685    -7670    -7641    -7607    -7568 
   -7526    -7483    -7435    -7398    -7376    -7361    -7352    -7349 
   -7356    -7380    -7418    -7454    -7483    -7508    -7524    -7537 
   -7546    -7549    -7539    -7511    -7454    -7376    -7283    -7176 
   -7059    -6932    -6801    -6671    -6543    -6417    -6303    -6205 
   -6131    -6076    -6038    -6018    -6011    -6012    -6019    -6041 
   -6070    -6097    -6123    -6150    -6183    -6216    -6249    -6282 
   -6319    -6362    -6411    -6462    -6513    -6558    -6590    -6617 
   -6642    -6670    -6710    -6752    -6787    -6818    -6848    -6871 
   -6891    -6912    -6936    -6957    -6974    -6980    -6980    -6978 
   -6986    -6998    -7001    -6998    -6997    -6993    -6994    -7014 
   -7042    -7067    -7090    -7119    -7164    -7221    -7272    -7317 
   -7362    -7404    -7438    -7460    -7466    -7456    -7437    -7411 
   -7379    -7337    -7295    -7258    -7230    -7218    -7225    -7233 
   -7241    -7257    -7288    -7322    -7356    -7389    -7422    -7450 
   -7477    -7495    -7504    -7511    -7511    -7506    -7496    -7473 
   -7430    -7376    -7321    -7268    -7218    -7188    -7175    -7165 
   -7157    -7157    -7171    -7194    -7231    -7280    -7329    -7383 
   -7437    -7483    -7520    -7550    -7565    -7572    -7572    -7562 
   -7550    -7524    -7485    -7443    -7396    -7341    -7280    -7211 
   -7130    -7052    -6982    -6924    -6889    -6878    -6882    -6895 
   -6925    -6979    -7045    -7113    -7187    -7268    -7344    -7410 
   -7466    -7516    -7561    -7604    -7642    -7668    -7682    -7692 
   -7696    -7686    -7665    -7645    -7623    -7595    -7562    -7528 
   -7497    -7466    -7429    -7393    -7364    -7342    -7331    -7326 
   -7315    -7304    -7290    -7271    -7252    -7233    -7209    -7179 
