Origin Time       2025/01/13 21:19:00
Lat.              31.8
Long.             131.6
Depth. (km)       30
Mag.              6.9
Station Code      SMN005
Station Lat.      35.3608
Station Long.     132.7449
Station Height(m) 8
Record Time       2025/01/13 21:21:34
Sampling Freq(Hz) 100Hz
Duration Time(s)  90
Dir.              U-D
Scale Factor      7845(gal)/8223790
Max. Acc. (gal)   2.143
Last Correction   2025/01/13 21:21:34
Memo.             
[...]
  -11704   -11692   -11686   -11669   -11662   -11693   -11722   -11715 
  -11695   -11688   -11704   -11722   -11740   -11766   -11773   -11763 
  -11749   -11731   -11719   -11712   -11716   -11743   -11765   -11774 
  -11794   -11801   -11785   -11773   -11769   -11762   -11754   -11734 
  -11705   -11677   -11638   -11615   -11628   -11643   -11639   -11631 
  -11623   -11614   -11615   -11626   -11641   -11647   -11646   -11654 
  -11668   -11680   -11692   -11701   -11707   -11704   -11681   -11647 
  -11622   -11600   -11589   -11599   -11623   -11653   -11682   -11705 
  -11707   -11704   -11708   -11705   -11699   -11708   -11724   -11743 
  -11762   -11765   -11754   -11742   -11736   -11762   -11801   -11817 
  -11815   -11807   -11796   -11797   -11811   -11809   -11788   -11765 
  -11745   -11728   -11728   -11746   -11755   -11761   -11778   -11785 
  -11774   -11766   -11763   -11769   -11788   -11803   -11799   -11786 
  -11772   -11746   -11716   -11680   -11631   -11604   -11615   -11626 
  -11624   -11624   -11624   -11632   -11653   -11670   -11672   -11662 
  -11650   -11646   -11654   -11666   -11674   -11685   -11700   -11713 
  -11716   -11703   -11678   -11668   -11668   -11661   -11655   -11657 
  -11661   -11661   -11654   -11645   -11634   -11626   -11623   -11626 
  -11638   -11649   -11646   -11639   -11630   -11628   -11643   -11657 
  -11653   -11641   -11642   -11650   -11659   -11669   -11670   -11643 
  -11588   -11518   -11461   -11430   -11423   -11423   -11425   -11434 
  -11452   -11465   -11473   -11479   -11493   -11524   -11565   -11597 
  -11616   -11631   -11641   -11638   -11627   -11622   -11620   -11608 
  -11588   -11576   -11578   -11588   -11593   -11589   -11570   -11550 
  -11546   -11554   -11553   -11557   -11585   -11616   -11637   -11649 
  -11665   -11676   -11669   -11657   -11654   -11658   -11665   -11673 
  -11669   -11650   -11634   -11634   -11639   -11643   -11659   -11684 
  -11705   -11728   -11749   -11758   -11763   -11766   -11765   -11762 
  -11745   -11715   -11699   -11696   -11712   -11743   -11754   -11751 
  -11763   -11780   -11796   -11809   -11807   -11819   -11853   -11861 
  -11834   -11809   -11805   -11811   -11817   -11827   -11844   -11861 
  -11862   -11869   -11886   -11901   -11908   -11917   -11924   -11896 
  -11843   -11794   -11751   -11708   -11676   -11661   -11649   -11616 
  -11580   -11568   -11562   -11545   -11537   -11545   -11545   -11537 
  -11533   -11533   -11530   -11518   -11508   -11492   -11462   -11435 
  -11411   -11383   -11357   -11335   -11315   -11291   -11268   -11259 
  -11260   -11250   -11230   -11210   -11192   -11176   -11163   -11156 
  -11153   -11153   -11149   -11149   -11155   -11151   -11134   -11129 
  -11133   -11130   -11125   -11137   -11155   -11169   -11194   -11227 
  -11257   -11281   -11300   -11314   -11329   -11346   -11362   -11367 
  -11358   -11346   -11340   -11348   -11367   -11379   -11385   -11396 
  -11404   -11406   -11404   -11403   -11403   -11402   -11400   -11410 
  -11441   -11484   -11522   -11547   -11564   -11572   -11588   -11623 
  -11657   -11678   -11691   -11705   -11728   -11751   -11767   -11774 
  -11767   -11770   -11792   -11800   -11792   -11792   -11782   -11762 
  -11753   -11757   -11762   -11772   -11781   -11774   -11774   -11789 
  -11801   -11808   -11820   -11828   -11839   -11874   -11913   -11938 
  -11963   -11998   -12029   -12046   -12055   -12066   -12085   -12112 
  -12137   -12156   -12163   -12166   -12170   -12166   -12158   -12162 
  -12170   -12175   -12168   -12152   -12132   -12116   -12106   -12098 
  -12090   -12089   -12081   -12056   -12032   -12009   -11979   -11952 
  -11925   -11893   -11855   -11820   -11797   -11788   -11789   -11788 
  -11773   -11765   -11769   -11762   -11750   -11746   -11738   -11723 
  -11715   -11703   -11681   -11664   -11639   -11603   -11574   -11554 
  -11534   -11527   -11524   -11520   -11520   -11514   -11503   -11506 
  -11514   -11508   -11489   -11469   -11449   -11426   -11404   -11375 
  -11331   -11286   -11252   -11225   -11203   -11198   -11202   -11190 
  -11171   -11168   -11183   -11202   -11229   -11249   -11246   -11248 
  -11275   -11299   -11304   -11302   -11302   -11310   -11319   -11327 
  -11344   -11357   -11360   -11357   -11361   -11368   -11376   -11385 
  -11387   -11380   -11377   -11389   -11415   -11446   -11479   -11507 
  -11523   -11539   -11576   -11623   -11661   -11688   -11719   -11759 
  -11811   -11866   -11905   -11929   -11970   -12017   -12048   -12074 
  -12097   -12112   -12113   -12113   -12124   -12133   -12131   -12132 
  -12132   -12116   -12097   -12096   -12112   -12117   -12102   -12093 
  -12094   -12082   -12060   -12043   -12029   -12006   -11989   -11978 
  -11962   -11935   -11913   -11905   -11886   -11850   -11827   -11832 
  -11844   -11839   -11831   -11828   -11816   -11799   -11801   -11819 
  -11824   -11815   -11815   -11835   -11848   -11842   -11827   -11816 
  -11794   -11762   -11731   -11700   -11659   -11622   -11601   -11584 
  -11561   -11556   -11569   -11585   -11604   -11619   -11623   -11624 
  -11623   -11626   -11632   -11632   -11637   -11651   -11668   -11673 
  -11673   -11677   -11692   -11713   -11734   -11739   -11730   -11718 
  -11705   -11705   -11709   -11701   -11697   -11692   -11672   -11655 
  -11655   -11662   -11668   -11670   -11680   -11704   -11728   -11750 
  -11763   -11769   -11765   -11766   -11784   -11792   -11793   -11808 
  -11811   -11796   -11801   -11815   -11815   -11808   -11800   -11788 
  -11781   -11782   -11785   -11774   -11765   -11762   -11746   -11712 
  -11677   -11631   -11573   -11520   -11464   -11404   -11364   -11337 
  -11299   -11259   -11229   -11198   -11167   -11145   -11136   -11134 
  -11133   -11132   -11130   -11122   -11111   -11107   -11117   -11133 
  -11156   -11190   -11222   -11245   -11273   -11314   -11353   -11377 
  -11391   -11406   -11423   -11448   -11477   -11497   -11506   -11520 
  -11542   -11565   -11577   -11574   -11577   -11595   -11616   -11641 
  -11653   -11643   -11634   -11637   -11634   -11620   -11614   -11626 
  -11645   -11654   -11657   -11661   -11664   -11653   -11632   -11627 
  -11637   -11657   -11676   -11685   -11699   -11720   -11731   -11740 
  -11762   -11792   -11827   -11853   -11855   -11859   -11874   -11880 
  -11878   -11885   -11896   -11904   -11907   -11894   -11874   -11859 
  -11846   -11838   -11834   -11826   -11815   -11797   -11761   -11736 
  -11736   -11738   -11732   -11732   -11735   -11734   -11742   -11759 
  -11776   -11805   -11832   -11834   -11838   -11853   -11847   -11828 
  -11815   -11807   -11794   -11780   -11767   -11747   -11712   -11673 
  -11647   -11630   -11607   -11580   -11554   -11531   -11514   -11503 
  -11503   -11507   -11507   -11503   -11493   -11483   -11477   -11468 
  -11457   -11450   -11452   -11456   -11453   -11448   -11450   -11448 
  -11431   -11430   -11449   -11461   -11456   -11439   -11423   -11419 
  -11422   -11418   -11399   -11373   -11361   -11360   -11348   -11326 
  -11311   -11304   -11306   -11314   -11323   -11322   -11315   -11319 
  -11338   -11361   -11377   -11392   -11402   -11410   -11431   -11470 
  -11515   -11554   -11583   -11610   -11643   -11681   -11716   -11745 
  -11763   -11788   -11835   -11900   -11962   -12033   -12117   -12183 
  -12243   -12305   -12353   -12390   -12410   -12415   -12430   -12456 
  -12478   -12483   -12469   -12459   -12452   -12447   -12448   -12445 
  -12436   -12424   -12415   -12410   -12401   -12378   -12344   -12325 
  -12329   -12320   -12280   -12236   -12189   -12148   -12123   -12094 
  -12050   -12001   -11959   -11915   -11857   -11794   -11743   -11696 
  -11651   -11627   -11612   -11583   -11553   -11533   -11518   -11508 
  -11499   -11485   -11473   -11460   -11439   -11415   -11408   -11419 
  -11426   -11418   -11400   -11388   -11387   -11383   -11364   -11329 
  -11292   -11279   -11292   -11308   -11308   -11291   -11287   -11314 
  -11356   -11394   -11423   -11445   -11460   -11480   -11504   -11520 
  -11523   -11516   -11516   -11534   -11551   -11543   -11510   -11480 
  -11468   -11458   -11448   -11449   -11452   -11437   -11426   -11445 
  -11480   -11502   -11506   -11512   -11516   -11512   -11519   -11539 
  -11553   -11546   -11515   -11476   -11462   -11466   -11460   -11453 
  -11470   -11485   -11458   -11402   -11365   -11365   -11376   -11376 
  -11368   -11345   -11335   -11354   -11368   -11369   -11373   -11381 
  -11408   -11460   -11484   -11454   -11426   -11466   -11547   -11596 
  -11597   -11576   -11558   -11580   -11646   -11696   -11708   -11716 
  -11739   -11782   -11840   -11896   -11932   -11954   -11988   -12033 
  -12074   -12097   -12079   -12028   -12000   -12029   -12064   -12046 
  -11993   -11961   -11954   -11948   -11924   -11888   -11861   -11861 
  -11882   -11877   -11817   -11757   -11750   -11784   -11812   -11793 
  -11722   -11646   -11632   -11655   -11646   -11611   -11591   -11595 
  -11614   -11618   -11600   -11578   -11574   -11600   -11653   -11695 
  -11697   -11674   -11651   -11639   -11653   -11681   -11701   -11708 
  -11707   -11701   -11705   -11718   -11723   -11709   -11696   -11711 
  -11726   -11722   -11709   -11689   -11689   -11712   -11736   -11749 
  -11731   -11704   -11708   -11734   -11766   -11790   -11804   -11823 
  -11846   -11862   -11886   -11898   -11888   -11886   -11909   -11932 
  -11936   -11927   -11893   -11843   -11813   -11803   -11778   -11742 
  -11705   -11677   -11637   -11569   -11503   -11442   -11379   -11333 
  -11315   -11303   -11265   -11199   -11141   -11102   -11070   -11053 
  -11055   -11051   -11040   -11037   -11036   -11020   -11002   -11006 
  -11026   -11040   -11041   -11036   -11029   -11029   -11029   -11017 
  -11001   -10987   -10978   -10990   -11060   -11167   -11222   -11190 
  -11142   -11151   -11210   -11276   -11319   -11348   -11402   -11473 
  -11503   -11493   -11497   -11534   -11608   -11708   -11784   -11786 
  -11745   -11745   -11799   -11834   -11840   -11873   -11938   -12004 
  -12025   -11973   -11913   -11934   -11998   -12037   -12033   -12004 
  -11981   -11994   -12009   -11975   -11932   -11944   -11996   -12015 
  -11963   -11863   -11773   -11766   -11835   -11882   -11854   -11803 
  -11769   -11763   -11778   -11788   -11780   -11767   -11757   -11747 
  -11724   -11693   -11673   -11650   -11620   -11596   -11568   -11545 
  -11529   -11480   -11435   -11434   -11437   -11434   -11445   -11461 
  -11476   -11502   -11541   -11580   -11607   -11628   -11647   -11678 
  -11735   -11784   -11801   -11819   -11857   -11897   -11927   -11942 
  -11962   -12021   -12106   -12159   -12150   -12110   -12117   -12209 
  -12313   -12349   -12330   -12310   -12312   -12347   -12402   -12442 
  -12452   -12447   -12448   -12483   -12534   -12548   -12534   -12521 
  -12496   -12467   -12455   -12438   -12388   -12322   -12266   -12212 
  -12158   -12097   -12006   -11896   -11805   -11766   -11757   -11704 
  -11585   -11465   -11361   -11257   -11207   -11209   -11163   -11071 
  -10999   -10935   -10854   -10813   -10833   -10836   -10775   -10692 
  -10644   -10681   -10747   -10714   -10631   -10600   -10590   -10612 
  -10686   -10725   -10685   -10636   -10667   -10786   -10906   -10944 
  -10899   -10874   -10935   -11025   -11080   -11088   -11065   -11102 
  -11222   -11281   -11214   -11167   -11238   -11321   -11310   -11283 
  -11335   -11446   -11533   -11527   -11485   -11487   -11491   -11533 
  -11677   -11786   -11718   -11583   -11618   -11777   -11803   -11724 
  -11739   -11846   -11928   -11916   -11858   -11834   -11863   -11929 
  -11967   -11982   -12002   -11947   -11880   -11938   -12024   -12047 
  -12070   -12067   -11985   -11925   -11971   -12025   -12032   -12040 
  -12020   -11977   -12009   -12056   -12027   -12009   -12055   -12110 
  -12159   -12156   -12090   -12059   -12089   -12137   -12181   -12185 
  -12171   -12166   -12174   -12222   -12255   -12222   -12231   -12287 
  -12307   -12313   -12314   -12299   -12322   -12347   -12321   -12321 
  -12352   -12337   -12316   -12337   -12344   -12301   -12274   -12321 
  -12361   -12317   -12264   -12267   -12299   -12332   -12302   -12202 
  -12156   -12190   -12198   -12162   -12090   -11983   -11924   -11958 
  -11971   -11904   -11850   -11840   -11793   -11727   -11700   -11696 
  -11715   -11755   -11755   -11700   -11662   -11661   -11676   -11696 
  -11664   -11584   -11572   -11597   -11537   -11453   -11435   -11425 
  -11381   -11331   -11290   -11252   -11198   -11156   -11187   -11221 
  -11126   -11009   -11022   -11051   -10979   -10897   -10858   -10806 
  -10735   -10683   -10666   -10623   -10496   -10384   -10407   -10447 
  -10384   -10309   -10277   -10214   -10134   -10122   -10158   -10153 
  -10093   -10038   -10029   -10038   -10034   -10062   -10126   -10137 
  -10100   -10107   -10164   -10207   -10239   -10299   -10369   -10407 
  -10434   -10473   -10511   -10565   -10636   -10687   -10741   -10820 
  -10867   -10875   -10918   -11007   -11097   -11179   -11245   -11273 
  -11300   -11368   -11465   -11570   -11661   -11712   -11765   -11867 
  -11998   -12123   -12232   -12339   -12463   -12586   -12669   -12737 
  -12850   -12989   -13108   -13176   -13190   -13231   -13356   -13483 
  -13533   -13556   -13603   -13683   -13776   -13817   -13794   -13803 
  -13857   -13894   -13903   -13879   -13819   -13790   -13815   -13830 
  -13807   -13771   -13725   -13680   -13637   -13568   -13500   -13495 
  -13520   -13471   -13352   -13246   -13182   -13119   -13027   -12934 
  -12854   -12762   -12646   -12526   -12406   -12293   -12205   -12123 
  -12021   -11900   -11772   -11661   -11572   -11466   -11330   -11210 
  -11144   -11098   -11037   -10947   -10844   -10755   -10696   -10663 
  -10647   -10628   -10585   -10524   -10477   -10444   -10411   -10385 
  -10390   -10424   -10458   -10482   -10508   -10530   -10544   -10571 
  -10628   -10721   -10829   -10903   -10940   -10974   -11021   -11074 
  -11138   -11223   -11302   -11344   -11356   -11367   -11404   -11464 
  -11515   -11546   -11572   -11591   -11605   -11626   -11643   -11650 
  -11659   -11677   -11695   -11712   -11715   -11691   -11650   -11624 
  -11614   -11587   -11551   -11523   -11492   -11460   -11437   -11412 
  -11377   -11340   -11308   -11290   -11260   -11213   -11165   -11132 
  -11109   -11072   -11007   -10944   -10913   -10891   -10855   -10814 
  -10773   -10733   -10706   -10690   -10675   -10659   -10636   -10617 
  -10616   -10620   -10602   -10585   -10592   -10608   -10612   -10606 
  -10605   -10616   -10636   -10654   -10660   -10667   -10696   -10733 
  -10770   -10798   -10824   -10859   -10908   -10963   -11013   -11059 
  -11111   -11161   -11205   -11248   -11292   -11330   -11375   -11429 
  -11477   -11522   -11560   -11591   -11628   -11680   -11735   -11780 
  -11824   -11881   -11938   -11978   -12020   -12078   -12132   -12181 
  -12233   -12291   -12351   -12403   -12456   -12521   -12590   -12648 
  -12695   -12734   -12775   -12808   -12818   -12815   -12825   -12834 
  -12829   -12822   -12811   -12780   -12745   -12721   -12707   -12673 
  -12615   -12559   -12501   -12436   -12383   -12334   -12278   -12229 
  -12193   -12158   -12129   -12114   -12105   -12105   -12116   -12116 
  -12112   -12116   -12125   -12127   -12123   -12121   -12120   -12117 
  -12120   -12123   -12114   -12096   -12067   -12043   -12021   -11994 
  -11952   -11900   -11857   -11836   -11813   -11770   -11722   -11691 
  -11673   -11657   -11655   -11658   -11642   -11639   -11653   -11653 
  -11647   -11651   -11662   -11666   -11669   -11677   -11678   -11664 
  -11645   -11634   -11620   -11605   -11592   -11587   -11596   -11615 
  -11639   -11664   -11680   -11691   -11718   -11754   -11782   -11809 
  -11846   -11886   -11913   -11931   -11954   -11971   -11986   -12027 
  -12075   -12093   -12082   -12069   -12075   -12104   -12117   -12093 
  -12050   -12025   -12029   -12033   -12019   -11986   -11931   -11878 
  -11855   -11832   -11786   -11730   -11677   -11631   -11578   -11511 
  -11441   -11379   -11303   -11202   -11091   -11007   -10964   -10917 
  -10829   -10712   -10593   -10524   -10516   -10500   -10412   -10280 
  -10192   -10179   -10177   -10122   -10007    -9894    -9853    -9880 
   -9902    -9873    -9818    -9795    -9840    -9937   -10014   -10022 
  -10011   -10068   -10189   -10300   -10368   -10423   -10504   -10617 
  -10752   -10890   -11007   -11099   -11183   -11280   -11395   -11510 
  -11611   -11716   -11831   -11934   -12036   -12148   -12247   -12337 
  -12437   -12540   -12630   -12717   -12810   -12896   -12970   -13042 
  -13104   -13155   -13203   -13240   -13277   -13316   -13344   -13360 
  -13370   -13373   -13379   -13382   -13367   -13346   -13313   -13267 
  -13217   -13165   -13101   -13028   -12945   -12858   -12771   -12668 
  -12564   -12472   -12375   -12267   -12163   -12067   -11978   -11884 
  -11785   -11700   -11616   -11523   -11439   -11371   -11307   -11246 
  -11182   -11102   -11018   -10945   -10879   -10820   -10783   -10758 
  -10729   -10705   -10694   -10697   -10709   -10728   -10747   -10777 
  -10822   -10876   -10914   -10933   -10951   -10971   -10989   -11010 
  -11043   -11074   -11101   -11125   -11146   -11163   -11175   -11187 
  -11196   -11215   -11245   -11271   -11292   -11321   -11349   -11379 
  -11416   -11449   -11472   -11495   -11526   -11561   -11593   -11622 
  -11646   -11665   -11686   -11722   -11765   -11816   -11863   -11902 
  -11948   -11993   -12024   -12067   -12124   -12167   -12199   -12225 
  -12247   -12271   -12297   -12312   -12321   -12329   -12330   -12330 
  -12339   -12352   -12366   -12380   -12388   -12393   -12401   -12405 
  -12407   -12417   -12424   -12433   -12455   -12472   -12487   -12517 
  -12555   -12588   -12623   -12650   -12663   -12669   -12671   -12671 
  -12668   -12649   -12625   -12603   -12573   -12534   -12490   -12448 
  -12407   -12360   -12303   -12241   -12179   -12125   -12073   -12010 
  -11955   -11901   -11839   -11792   -11743   -11670   -11599   -11542 
  -11477   -11402   -11331   -11267   -11209   -11161   -11121   -11090 
  -11068   -11044   -11022   -10999   -10956   -10903   -10855   -10813 
  -10777   -10739   -10696   -10658   -10628   -10592   -10546   -10496 
  -10451   -10415   -10384   -10346   -10304   -10272   -10242   -10210 
  -10180   -10153   -10129   -10112   -10098   -10089   -10085   -10081 
  -10092   -10116   -10142   -10173   -10210   -10245   -10288   -10343 
  -10396   -10449   -10508   -10563   -10615   -10669   -10727   -10782 
  -10841   -10916   -11002   -11094   -11178   -11257   -11348   -11438 
  -11514   -11589   -11678   -11770   -11851   -11924   -12009   -12108 
  -12195   -12267   -12336   -12399   -12459   -12522   -12586   -12642 
  -12691   -12737   -12787   -12835   -12883   -12923   -12953   -12977 
  -12989   -12981   -12966   -12951   -12930   -12900   -12861   -12816 
  -12765   -12710   -12657   -12607   -12552   -12495   -12434   -12371 
  -12312   -12248   -12182   -12110   -12039   -11988   -11944   -11894 
  -11847   -11789   -11716   -11642   -11576   -11515   -11445   -11369 
