Origin Time       2025/01/13 21:19:00
Lat.              31.8
Long.             131.6
Depth. (km)       30
Mag.              6.9
Station Code      SMN012
Station Lat.      34.3551
Station Long.     131.9354
Station Height(m) 314
Record Time       2025/01/13 21:20:58
Sampling Freq(Hz) 100Hz
Duration Time(s)  60
Dir.              U-D
Scale Factor      7845(gal)/8223790
Max. Acc. (gal)   1.480
Last Correction   2025/01/13 21:20:57
Memo.             
[...]
    7337     7318     7263     7188     7119     7060     6998     6936 
    6891     6872     6883     6916     6948     6987     7045     7102 
    7140     7157     7167     7182     7199     7202     7188     7163 
    7125     7084     7052     7029     7013     6988     6956     6925 
    6909     6914     6928     6948     6974     6999     7026     7065 
    7096     7110     7110     7109     7109     7102     7084     7065 
    7057     7072     7110     7140     7138     7115     7080     7032 
    6983     6953     6952     6971     7001     7028     7051     7076 
    7105     7133     7161     7190     7214     7229     7234     7242 
    7248     7246     7237     7222     7213     7213     7206     7175 
    7128     7076     7022     6976     6937     6901     6875     6862 
    6862     6880     6914     6941     6944     6924     6916     6941 
    6986     7030     7079     7130     7172     7198     7204     7180 
    7125     7051     6968     6890     6825     6783     6754     6714 
    6660     6602     6547     6501     6470     6463     6480     6498 
    6515     6555     6620     6691     6768     6849     6916     6951 
    6960     6955     6943     6922     6905     6897     6899     6916 
    6943     6966     6972     6957     6940     6937     6947     6951 
    6945     6926     6909     6907     6913     6909     6898     6878 
    6852     6833     6824     6814     6808     6801     6786     6783 
    6801     6814     6816     6840     6901     6970     7029     7087 
    7146     7194     7227     7258     7295     7330     7352     7371 
    7391     7404     7408     7391     7345     7291     7256     7245 
    7238     7219     7194     7172     7153     7128     7090     7051 
    7018     6991     6972     6971     6984     6998     6995     6972 
    6936     6905     6891     6889     6893     6910     6926     6930 
    6933     6930     6928     6940     6966     6998     7045     7099 
    7148     7187     7209     7206     7184     7152     7121     7095 
    7084     7096     7123     7144     7156     7159     7150     7140 
    7144     7159     7171     7171     7153     7134     7128     7130 
    7126     7101     7056     6999     6937     6875     6826     6798 
    6791     6798     6822     6858     6894     6926     6956     6975 
    6983     6993     7010     7034     7064     7096     7129     7159 
    7167     7150     7129     7109     7088     7069     7048     7021 
    6994     6966     6939     6917     6901     6880     6845     6805 
    6785     6786     6813     6867     6922     6953     6961     6966 
    6967     6961     6960     6960     6959     6966     6984     7003 
    7003     6976     6928     6887     6875     6880     6890     6898 
    6901     6912     6937     6964     6980     6984     6987     6997 
    7005     6998     6980     6964     6967     6986     7009     7028 
    7041     7052     7068     7091     7103     7095     7080     7076 
    7076     7072     7069     7075     7086     7092     7087     7069 
    7040     6997     6961     6951     6953     6968     6994     7025 
    7056     7082     7102     7118     7125     7119     7111     7111 
    7126     7146     7157     7150     7126     7095     7084     7098 
    7107     7095     7068     7026     6980     6933     6879     6822 
    6778     6752     6754     6793     6840     6862     6851     6822 
    6794     6774     6764     6763     6766     6768     6764     6763 
    6772     6778     6754     6720     6698     6675     6643     6615 
    6593     6579     6575     6570     6565     6569     6586     6627 
    6686     6744     6787     6824     6852     6871     6889     6909 
    6926     6947     6978     7014     7042     7056     7069     7094 
    7126     7152     7171     7202     7260     7329     7375     7387 
    7377     7346     7295     7234     7165     7098     7037     6990 
    6963     6963     6988     7024     7056     7079     7096     7107 
    7103     7091     7083     7080     7083     7099     7122     7142 
    7146     7130     7110     7095     7071     7026     6976     6943 
    6926     6918     6924     6941     6961     6975     6980     6976 
    6947     6899     6849     6802     6762     6733     6702     6674 
    6658     6648     6623     6577     6520     6462     6417     6384 
    6354     6331     6324     6342     6386     6447     6528     6621 
    6705     6786     6879     6972     7045     7110     7172     7215 
    7244     7272     7306     7337     7361     7384     7406     7422 
    7443     7477     7495     7485     7473     7470     7465     7454 
    7435     7407     7383     7376     7383     7395     7407     7415 
    7425     7435     7450     7472     7499     7518     7523     7514 
    7491     7474     7470     7473     7485     7514     7538     7539 
    7534     7542     7558     7573     7582     7582     7574     7554 
    7510     7447     7391     7353     7348     7362     7375     7373 
    7357     7330     7312     7325     7357     7373     7360     7329 
    7294     7257     7225     7203     7194     7184     7171     7168 
    7183     7200     7206     7195     7157     7096     7036     6987 
    6956     6947     6947     6940     6930     6930     6943     6955 
    6940     6894     6825     6739     6647     6579     6547     6528 
    6505     6486     6496     6531     6573     6605     6624     6621 
    6597     6573     6566     6575     6596     6635     6685     6745 
    6825     6913     7009     7109     7191     7241     7271     7292 
    7306     7315     7327     7342     7357     7364     7356     7322 
    7263     7194     7122     7057     7017     7009     7014     7014 
    7010     7015     7037     7064     7088     7103     7103     7102 
    7114     7133     7145     7137     7117     7107     7113     7128 
    7146     7164     7176     7188     7200     7218     7256     7308 
    7362     7425     7493     7549     7587     7624     7659     7678 
    7672     7654     7647     7654     7654     7639     7607     7538 
    7438     7334     7238     7153     7095     7056     7025     7005 
    6999     7002     7011     7011     6994     6976     6971     6968 
    6949     6924     6907     6891     6866     6835     6810     6802 
    6798     6797     6804     6801     6779     6754     6729     6705 
    6687     6683     6687     6694     6712     6747     6787     6820 
    6844     6876     6916     6951     6984     7022     7064     7110 
    7148     7168     7177     7180     7182     7183     7171     7137 
    7094     7053     7015     6976     6932     6874     6799     6727 
    6670     6629     6600     6582     6579     6589     6606     6633 
    6664     6701     6747     6791     6821     6837     6852     6868 
    6891     6922     6945     6941     6914     6859     6779     6697 
    6623     6554     6507     6490     6508     6558     6616     6648 
    6658     6666     6677     6690     6710     6729     6751     6781 
    6818     6864     6917     6971     7025     7072     7113     7145 
    7171     7188     7188     7167     7134     7105     7086     7075 
    7068     7074     7095     7119     7145     7177     7202     7210 
    7206     7202     7192     7168     7132     7086     7026     6957 
    6885     6820     6778     6758     6756     6786     6853     6939 
    7017     7071     7102     7125     7152     7186     7222     7246 
    7254     7248     7242     7246     7261     7268     7246     7198 
    7142     7090     7025     6955     6887     6822     6774     6744 
    6735     6751     6774     6797     6831     6878     6924     6971 
    7020     7067     7123     7186     7240     7277     7287     7276 
    7263     7252     7248     7257     7257     7238     7210     7188 
    7176     7171     7176     7186     7192     7211     7245     7272 
    7279     7261     7215     7148     7078     7011     6940     6870 
    6813     6762     6717     6696     6697     6702     6701     6689 
    6673     6660     6643     6613     6582     6570     6579     6586 
    6592     6616     6651     6683     6721     6768     6829     6903 
    6979     7045     7106     7168     7244     7330     7407     7472 
    7527     7568     7589     7597     7599     7599     7593     7582 
    7569     7547     7526     7512     7492     7461     7426     7391 
    7365     7356     7352     7344     7321     7284     7248     7217 
    7177     7129     7080     7032     6987     6945     6898     6843 
    6793     6736     6667     6598     6524     6442     6354     6265 
    6183     6111     6060     6025     5987     5945     5904     5873 
    5856     5833     5802     5772     5755     5757     5791     5846 
    5903     5965     6046     6142     6246     6347     6424     6480 
    6548     6644     6758     6879     6995     7096     7196     7303 
    7400     7473     7515     7534     7542     7551     7558     7558 
    7560     7561     7562     7564     7570     7580     7581     7577 
    7565     7530     7462     7391     7345     7329     7331     7345 
    7372     7419     7483     7555     7636     7722     7801     7869 
    7924     7975     8021     8060     8094     8118     8125     8118 
    8110     8097     8079     8056     8017     7962     7901     7848 
    7812     7786     7759     7720     7672     7616     7555     7484 
    7398     7295     7182     7065     6952     6837     6729     6623 
    6501     6365     6232     6116     6012     5919     5837     5772 
    5729     5698     5679     5680     5703     5744     5795     5850 
    5903     5945     5980     6019     6061     6099     6138     6192 
    6264     6339     6412     6486     6558     6619     6669     6712 
    6762     6833     6918     6998     7076     7164     7253     7341 
    7434     7514     7565     7595     7616     7636     7647     7653 
    7658     7659     7649     7634     7636     7663     7700     7724 
    7732     7734     7723     7699     7670     7646     7632     7627 
    7623     7616     7596     7555     7504     7438     7361     7296 
    7248     7207     7186     7192     7221     7269     7339     7414 
    7474     7519     7551     7561     7549     7528     7511     7493 
    7484     7480     7466     7445     7418     7383     7338     7292 
    7252     7218     7186     7153     7128     7111     7111     7132 
    7157     7179     7195     7209     7214     7209     7206     7210 
    7214     7213     7198     7156     7103     7042     6972     6903 
    6840     6774     6714     6664     6620     6575     6542     6517 
    6490     6462     6435     6419     6411     6412     6423     6426 
    6408     6380     6353     6328     6308     6288     6268     6254 
    6245     6235     6230     6234     6239     6235     6237     6253 
    6269     6277     6273     6269     6278     6285     6289     6300 
    6303     6291     6274     6261     6258     6276     6303     6331 
    6358     6380     6399     6427     6466     6508     6544     6581 
    6633     6714     6813     6918     7025     7133     7246     7360 
    7468     7566     7651     7719     7769     7800     7811     7816 
    7821     7824     7823     7815     7790     7742     7677     7609 
    7538     7461     7391     7330     7281     7257     7257     7271 
    7281     7287     7299     7327     7366     7406     7445     7489 
    7538     7577     7599     7605     7604     7595     7573     7535 
    7485     7427     7354     7269     7182     7096     7014     6944 
    6897     6866     6858     6889     6941     7007     7078     7128 
    7157     7173     7165     7133     7106     7090     7071     7047 
    7009     6967     6933     6894     6839     6781     6727     6685 
    6659     6654     6670     6697     6735     6787     6848     6910 
    6968     7033     7105     7169     7221     7261     7296     7345 
    7395     7438     7474     7491     7489     7474     7442     7398 
    7346     7292     7245     7217     7200     7190     7190     7187 
    7176     7155     7121     7083     7042     6997     6947     6895 
    6843     6794     6756     6724     6690     6652     6619     6589 
    6558     6527     6501     6497     6509     6525     6554     6600 
    6652     6704     6770     6855     6945     7032     7117     7184 
    7229     7258     7275     7275     7273     7269     7248     7211 
    7163     7107     7051     6986     6918     6852     6786     6728 
    6691     6673     6670     6689     6721     6763     6822     6903 
    6999     7101     7192     7275     7353     7425     7488     7539 
    7568     7573     7565     7555     7543     7516     7473     7427 
    7396     7379     7365     7348     7337     7327     7310     7287 
    7271     7268     7269     7268     7261     7250     7226     7198 
    7176     7165     7159     7148     7138     7137     7145     7157 
    7168     7186     7217     7258     7317     7400     7499     7596 
    7686     7763     7831     7898     7962     8010     8040     8040 
    8001     7940     7866     7778     7685     7592     7495     7391 
    7295     7214     7156     7119     7094     7075     7056     7029 
    7001     6974     6949     6932     6918     6905     6890     6868 
    6845     6837     6841     6844     6832     6801     6747     6667 
    6570     6469     6363     6242     6112     5987     5872     5769 
    5684     5614     5555     5510     5482     5470     5483     5517 
    5555     5609     5694     5795     5900     6007     6110     6204 
    6286     6363     6431     6484     6529     6583     6632     6671 
    6710     6747     6783     6821     6864     6910     6955     6993 
    7022     7057     7095     7130     7182     7258     7352     7453 
    7555     7642     7711     7767     7817     7861     7890     7908 
    7917     7909     7882     7854     7838     7811     7759     7696 
    7632     7562     7491     7425     7369     7323     7283     7252 
    7233     7222     7218     7215     7207     7202     7198     7196 
    7199     7192     7167     7129     7095     7069     7044     7017 
    6990     6955     6924     6916     6921     6925     6932     6939 
    6944     6956     6984     7021     7053     7083     7115     7159 
    7206     7246     7279     7302     7321     7337     7344     7345 
    7344     7333     7307     7267     7219     7180     7146     7117 
    7088     7060     7034     7015     6997     6971     6944     6917 
    6879     6835     6787     6728     6655     6574     6482     6376 
    6262     6168     6096     6031     5979     5946     5937     5953 
    5984     6023     6066     6116     6172     6243     6332     6426 
    6511     6588     6659     6724     6789     6852     6902     6932 
    6945     6951     6953     6960     6972     6987     7010     7047 
    7099     7171     7257     7352     7442     7530     7614     7689 
    7751     7804     7842     7863     7878     7888     7897     7897 
    7879     7851     7817     7778     7738     7704     7673     7635 
    7584     7535     7499     7473     7456     7435     7410     7391 
    7376     7360     7338     7304     7263     7214     7157     7095 
    7030     6967     6909     6860     6820     6783     6750     6723 
    6702     6682     6670     6664     6660     6651     6639     6628 
    6623     6625     6639     6654     6667     6673     6667     6655 
    6650     6654     6669     6701     6747     6794     6844     6893 
    6936     6984     7042     7102     7160     7226     7308     7396 
    7474     7546     7615     7670     7709     7743     7773     7793 
    7801     7794     7774     7750     7734     7717     7696     7685 
    7684     7674     7655     7638     7623     7612     7601     7588 
    7568     7538     7497     7446     7393     7342     7290     7227 
    7153     7067     6974     6875     6774     6666     6551     6436 
    6334     6250     6192     6154     6123     6100     6097     6112 
    6134     6157     6178     6204     6235     6276     6319     6354 
    6380     6399     6413     6424     6444     6475     6511     6548 
    6582     6616     6659     6709     6754     6791     6831     6871 
    6913     6955     6990     7013     7026     7037     7042     7040 
    7020     6994     6975     6961     6949     6932     6910     6894 
    6887     6885     6889     6895     6906     6925     6960     7002 
    7037     7055     7055     7045     7026     6994     6952     6899 
    6836     6775     6720     6670     6631     6593     6544     6488 
    6435     6390     6355     6332     6319     6316     6323     6332 
    6343     6369     6405     6448     6501     6563     6631     6697 
    6756     6808     6860     6907     6934     6948     6966     6993 
    7028     7069     7115     7161     7203     7240     7277     7310 
    7338     7371     7407     7441     7481     7527     7578     7635 
    7693     7757     7825     7885     7935     7977     8012     8044 
    8073     8094     8110     8117     8116     8105     8090     8071 
    8051     8023     7971     7897     7809     7726     7649     7574 
    7506     7439     7375     7318     7263     7204     7138     7067 
    6990     6916     6843     6771     6697     6627     6565     6502 
    6439     6385     6342     6307     6284     6276     6269     6259 
    6250     6245     6243     6245     6257     6270     6282     6300 
    6323     6349     6377     6409     6443     6481     6521     6563 
    6605     6648     6683     6705     6718     6732     6745     6755 
    6766     6779     6789     6795     6801     6805     6812     6818 
    6821     6839     6874     6917     6966     7017     7064     7105 
    7137     7164     7183     7192     7190     7179     7161     7140 
    7123     7113     7105     7096     7087     7079     7087     7110 
    7130     7134     7123     7107     7094     7082     7076     7072 
    7059     7040     7021     7009     7001     6995     6990     6978 
    6967     6975     6994     7011     7028     7044     7065     7094 
    7123     7145     7159     7172     7191     7215     7249     7287 
    7318     7337     7349     7354     7350     7335     7322     7321 
    7329     7341     7353     7360     7354     7339     7323     7300 
    7275     7249     7222     7199     7183     7177     7172     7156 
    7119     7068     7021     6976     6928     6876     6821     6766 
    6718     6678     6648     6632     6623     6624     6639     6663 
    6700     6743     6793     6848     6902     6960     7018     7060 
    7087     7107     7122     7140     7164     7186     7200     7213 
    7223     7229     7225     7211     7194     7184     7187     7192 
    7194     7195     7203     7218     7236     7253     7256     7240 
    7218     7200     7188     7177     7161     7138     7111     7079 
    7040     6999     6966     6924     6874     6832     6790     6745 
    6712     6691     6683     6686     6700     6721     6754     6791 
    6829     6868     6902     6924     6936     6940     6940     6940 
    6929     6910     6898     6885     6872     6872     6880     6880 
    6874     6868     6875     6893     6907     6928     6951     6970 
