Origin Time       2025/01/13 21:19:00
Lat.              31.8
Long.             131.6
Depth. (km)       30
Mag.              6.9
Station Code      SMN013
Station Lat.      34.6696
Station Long.     131.8461
Station Height(m) 36
Record Time       2025/01/13 21:21:12
Sampling Freq(Hz) 100Hz
Duration Time(s)  60
Dir.              U-D
Scale Factor      7845(gal)/8223790
Max. Acc. (gal)   0.808
Last Correction   2025/01/13 21:21:12
Memo.             
    5363     5375     5389     5398     5405     5414     5424     5431 
    5432     5425     5425     5439     5451     5459     5472     5487 
    5503     5512     5514     5520     5524     5532     5543     5548 
    5545     5529     5509     5506     5518     5533     5556     5586 
    5605     5607     5595     5570     5539     5510     5487     5463 
    5441     5443     5463     5482     5501     5521     5536     5536 
    5524     5510     5491     5470     5459     5449     5440     5441 
    5443     5436     5429     5427     5424     5422     5422     5421 
    5417     5413     5405     5387     5362     5336     5316     5302 
    5301     5300     5293     5305     5335     5358     5386     5425 
    5460     5487     5516     5541     5576     5626     5667     5691 
    5706     5711     5707     5692     5670     5644     5621     5607 
    5603     5602     5605     5617     5634     5653     5678     5695 
    5694     5678     5657     5634     5611     5593     5583     5575 
    5566     5555     5540     5526     5520     5520     5517     5506 
    5493     5487     5482     5463     5447     5437     5418     5397 
    5382     5375     5374     5379     5385     5387     5386     5382 
    5381     5395     5436     5474     5494     5510     5522     5518 
    5512     5505     5497     5497     5502     5494     5474     5459 
    5462     5472     5470     5470     5487     5505     5514     5521 
    5514     5503     5491     5478     5466     5445     5406     5367 
    5340     5323     5309     5301     5301     5313     5333     5358 
    5385     5410     5422     5421     5413     5408     5406     5405 
    5406     5409     5405     5397     5390     5389     5404     5433 
    5463     5486     5506     5517     5517     5508     5487     5463 
    5443     5432     5418     5395     5381     5381     5381     5377 
    5371     5360     5354     5347     5328     5304     5278     5252 
    5238     5233     5240     5259     5281     5301     5331     5377 
    5427     5468     5506     5541     5564     5572     5578     5587 
    5591     5591     5586     5570     5557     5562     5564     5566 
    5571     5571     5560     5544     5535     5526     5510     5483 
    5449     5421     5413     5421     5429     5444     5464     5489 
    5512     5524     5526     5529     5524     5502     5470     5436 
    5404     5378     5352     5332     5319     5302     5287     5278 
    5267     5267     5282     5298     5312     5328     5352     5387 
    5431     5464     5479     5483     5487     5501     5520     5540 
    5562     5587     5613     5630     5633     5626     5618     5602 
    5584     5563     5522     5482     5458     5455     5468     5482 
    5493     5502     5508     5505     5501     5498     5493     5474 
    5448     5422     5386     5347     5320     5305     5305     5313 
    5312     5298     5279     5254     5228     5206     5185     5170 
    5157     5146     5150     5165     5178     5184     5186     5192 
    5197     5204     5223     5255     5292     5332     5379     5420 
    5452     5486     5525     5557     5575     5580     5584     5589 
    5595     5602     5609     5626     5652     5675     5682     5672 
    5659     5653     5655     5657     5663     5667     5664     5659 
    5653     5649     5647     5641     5634     5640     5649     5649 
    5647     5637     5622     5611     5597     5575     5557     5545 
    5532     5514     5494     5475     5470     5459     5433     5412 
    5395     5371     5341     5316     5304     5305     5313     5319 
    5316     5298     5265     5227     5196     5170     5147     5132 
    5121     5109     5111     5125     5138     5157     5179     5194 
    5205     5206     5197     5190     5186     5179     5169     5155 
    5150     5144     5127     5111     5109     5115     5127     5150 
    5173     5196     5220     5242     5262     5289     5312     5320 
    5319     5317     5321     5327     5335     5346     5351     5355 
    5356     5354     5347     5339     5335     5348     5371     5397 
    5431     5466     5495     5520     5533     5545     5570     5591 
    5613     5652     5697     5737     5776     5806     5825     5837 
    5844     5852     5854     5846     5840     5830     5811     5791 
    5771     5752     5733     5707     5679     5651     5620     5576 
    5530     5490     5460     5445     5436     5422     5413     5406 
    5406     5420     5440     5464     5483     5482     5472     5463 
    5444     5421     5406     5394     5379     5383     5409     5439 
    5475     5514     5547     5578     5603     5617     5625     5625 
    5616     5605     5591     5583     5586     5598     5617     5633 
    5636     5634     5641     5651     5655     5653     5641     5617 
    5591     5563     5539     5528     5529     5543     5555     5560 
    5557     5543     5518     5490     5454     5417     5391     5371 
    5360     5362     5363     5362     5362     5368     5381     5394 
    5401     5410     5435     5459     5476     5486     5483     5467 
    5444     5416     5393     5377     5362     5347     5328     5305 
    5287     5274     5252     5228     5208     5192     5179     5178 
    5190     5204     5213     5217     5215     5212     5212     5206 
    5190     5167     5143     5127     5124     5135     5140     5142 
    5143     5135     5119     5103     5082     5073     5078     5086 
    5085     5071     5061     5067     5084     5101     5127     5150 
    5163     5178     5201     5239     5289     5352     5428     5502 
    5564     5617     5672     5741     5803     5842     5861     5867 
    5867     5867     5863     5854     5841     5811     5771     5736 
    5705     5682     5675     5675     5679     5678     5668     5660 
    5661     5676     5701     5721     5729     5724     5709     5687 
    5667     5653     5638     5621     5601     5580     5560     5540 
    5510     5472     5448     5441     5440     5433     5425     5410 
    5385     5356     5331     5308     5298     5301     5304     5305 
    5305     5301     5298     5298     5300     5305     5316     5335 
    5352     5356     5359     5359     5355     5348     5340     5332 
    5335     5340     5339     5335     5333     5328     5321     5321 
    5324     5327     5325     5319     5313     5305     5290     5277 
    5263     5247     5228     5212     5204     5204     5217     5242 
    5270     5305     5352     5395     5420     5435     5451     5459 
    5455     5445     5436     5418     5389     5359     5329     5301 
    5290     5289     5278     5258     5231     5206     5192     5181 
    5173     5163     5151     5144     5151     5165     5175     5192 
    5213     5236     5260     5283     5304     5319     5339     5375 
    5427     5476     5525     5576     5625     5657     5676     5690 
    5703     5707     5705     5710     5721     5732     5751     5779 
    5814     5850     5871     5875     5868     5857     5848     5848 
    5854     5867     5884     5910     5937     5958     5985     6022 
    6050     6079     6118     6150     6173     6189     6197     6204 
    6211     6222     6232     6249     6274     6295     6296     6293 
    6296     6296     6278     6250     6223     6193     6156     6106 
    6057     6010     5962     5918     5873     5823     5775     5730 
    5684     5648     5617     5583     5548     5517     5485     5444 
    5405     5371     5341     5316     5296     5286     5283     5285 
    5296     5323     5363     5404     5435     5463     5476     5479 
    5476     5463     5440     5422     5412     5406     5402     5386 
    5362     5340     5321     5304     5283     5263     5235     5196 
    5151     5104     5055     5008     4966     4930     4900     4881 
    4865     4855     4854     4854     4853     4861     4881     4904 
    4930     4965     5015     5076     5138     5201     5260     5306 
    5340     5358     5362     5359     5355     5358     5363     5366 
    5367     5370     5375     5389     5405     5416     5421     5431 
    5440     5441     5428     5409     5391     5366     5332     5305 
    5292     5294     5308     5319     5329     5332     5324     5309 
    5285     5247     5212     5188     5170     5162     5152     5136 
    5125     5127     5139     5155     5173     5193     5217     5227 
    5233     5250     5267     5285     5304     5324     5343     5356 
    5360     5371     5393     5422     5449     5471     5489     5499 
    5510     5526     5545     5564     5586     5625     5680     5734 
    5779     5810     5830     5850     5865     5868     5865     5864 
    5869     5869     5863     5869     5883     5891     5899     5910 
    5908     5890     5863     5837     5810     5783     5763     5741 
    5719     5698     5674     5644     5607     5566     5536     5520 
    5508     5497     5485     5472     5459     5449     5449     5452 
    5458     5475     5495     5505     5509     5510     5505     5490 
    5476     5464     5452     5440     5416     5377     5331     5282 
    5236     5194     5154     5120     5088     5059     5050     5051 
    5057     5073     5088     5092     5089     5078     5061     5044 
    5028     5009     4982     4953     4935     4931     4931     4934 
    4936     4943     4957     4973     4986     5000     5013     5028 
    5046     5058     5059     5062     5076     5090     5104     5123 
    5144     5169     5201     5242     5282     5324     5364     5401 
    5427     5452     5474     5485     5494     5503     5502     5502 
    5505     5503     5502     5501     5503     5516     5536     5553 
    5559     5556     5551     5547     5541     5533     5525     5517 
    5517     5522     5532     5544     5549     5559     5580     5598 
    5609     5624     5649     5682     5711     5733     5746     5753 
    5755     5756     5755     5749     5742     5725     5699     5679 
    5668     5665     5663     5660     5660     5657     5651     5641 
    5634     5630     5624     5607     5590     5578     5564     5552 
    5553     5567     5580     5587     5591     5587     5575     5559 
    5540     5522     5501     5475     5449     5421     5398     5375 
    5339     5297     5267     5243     5217     5200     5197     5205 
    5212     5216     5223     5227     5232     5240     5240     5235 
    5231     5219     5208     5202     5192     5181     5175     5174 
    5185     5208     5231     5260     5296     5323     5348     5368 
    5373     5370     5362     5339     5314     5298     5283     5271 
    5270     5275     5286     5294     5297     5301     5310     5319 
    5328     5341     5359     5374     5383     5395     5413     5435 
    5459     5476     5491     5509     5522     5530     5539     5543 
    5541     5539     5536     5540     5551     5567     5593     5624 
    5649     5678     5713     5744     5767     5776     5763     5736 
    5702     5667     5636     5610     5587     5559     5529     5510 
    5503     5495     5485     5472     5460     5449     5429     5406 
    5394     5386     5375     5374     5373     5370     5375     5383 
    5390     5395     5397     5398     5408     5412     5400     5383 
    5371     5363     5359     5355     5344     5331     5320     5304 
    5287     5275     5263     5255     5255     5256     5256     5262 
    5278     5302     5344     5394     5444     5494     5536     5570 
    5597     5618     5633     5640     5647     5657     5668     5684 
    5705     5710     5706     5703     5690     5674     5667     5664 
    5660     5645     5628     5610     5587     5564     5544     5528 
    5514     5497     5468     5439     5410     5381     5354     5339 
    5332     5328     5331     5343     5359     5378     5393     5401 
    5412     5420     5410     5390     5368     5350     5332     5310 
    5286     5266     5248     5233     5223     5211     5194     5177 
    5161     5152     5146     5136     5127     5115     5111     5123 
    5138     5146     5152     5157     5151     5142     5139     5139 
    5142     5155     5177     5198     5225     5266     5316     5367 
    5421     5478     5528     5570     5616     5674     5733     5784 
    5827     5869     5910     5946     5973     5998     6026     6062 
    6095     6124     6156     6185     6212     6243     6264     6272 
    6270     6268     6270     6273     6272     6266     6258     6247 
    6230     6205     6177     6142     6096     6052     6012     5968 
    5918     5867     5815     5763     5706     5649     5602     5566 
    5537     5509     5471     5429     5390     5358     5339     5323 
    5305     5290     5271     5246     5227     5212     5193     5167 
    5147     5136     5128     5115     5101     5094     5094     5097 
    5094     5089     5088     5093     5104     5119     5132     5146 
    5161     5169     5174     5186     5194     5205     5233     5270 
    5309     5344     5367     5387     5414     5437     5464     5499 
    5530     5559     5584     5601     5611     5621     5625     5626 
    5618     5603     5587     5566     5545     5528     5509     5489 
    5462     5432     5404     5381     5363     5351     5337     5321 
    5304     5289     5277     5274     5283     5297     5304     5304 
    5305     5314     5319     5320     5332     5350     5371     5402 
    5432     5455     5478     5498     5505     5501     5494     5481 
    5451     5413     5378     5339     5293     5250     5202     5152 
    5111     5070     5034     5003     4974     4958     4951     4943 
    4935     4932     4938     4954     4968     4963     4957     4950 
    4942     4930     4911     4892     4880     4869     4865     4873 
    4891     4916     4938     4953     4973     5005     5046     5093 
    5147     5212     5286     5356     5414     5470     5526     5583 
    5632     5671     5707     5745     5779     5817     5854     5888 
    5923     5957     5987     6015     6033     6046     6058     6057 
    6046     6035     6016     5995     5984     5976     5950     5908 
    5868     5837     5811     5791     5775     5757     5732     5702 
    5664     5618     5578     5549     5536     5524     5506     5493 
    5474     5444     5424     5412     5391     5377     5379     5387 
    5400     5413     5422     5436     5455     5471     5485     5495 
    5506     5520     5528     5526     5528     5528     5526     5528 
    5524     5514     5499     5487     5482     5486     5501     5529 
    5564     5595     5624     5659     5695     5729     5761     5791 
    5814     5834     5849     5852     5845     5829     5806     5784 
    5759     5729     5697     5660     5610     5555     5501     5445 
    5385     5321     5259     5206     5163     5130     5113     5115 
    5123     5140     5166     5189     5220     5256     5286     5319 
    5355     5389     5432     5485     5540     5591     5638     5678 
    5709     5729     5738     5745     5742     5732     5709     5674 
    5637     5601     5556     5510     5467     5431     5405     5386 
    5379     5385     5389     5395     5402     5395     5389     5390 
    5390     5398     5416     5433     5458     5489     5524     5574 
    5620     5649     5676     5698     5709     5717     5719     5714 
    5711     5718     5722     5717     5698     5664     5626     5586 
    5543     5494     5443     5395     5356     5321     5287     5251 
    5219     5190     5173     5162     5154     5147     5152     5167 
    5184     5201     5227     5259     5290     5317     5339     5358 
    5379     5402     5436     5472     5501     5526     5552     5574 
    5593     5606     5610     5609     5606     5603     5599     5591 
    5580     5568     5552     5539     5526     5505     5481     5459 
    5436     5422     5412     5391     5371     5354     5336     5313 
    5279     5244     5217     5192     5169     5150     5131     5119 
    5116     5116     5124     5134     5148     5178     5216     5254 
    5285     5308     5324     5333     5335     5332     5323     5309 
    5300     5275     5236     5204     5174     5140     5111     5090 
    5070     5057     5058     5070     5088     5104     5125     5152 
    5177     5208     5242     5273     5310     5352     5394     5441 
    5483     5518     5553     5587     5625     5667     5706     5744 
    5784     5825     5869     5919     5971     6019     6060     6087 
    6104     6110     6114     6118     6106     6072     6033     5989 
    5938     5891     5837     5773     5711     5651     5586     5517 
    5454     5401     5347     5301     5274     5250     5228     5229 
    5243     5265     5304     5352     5401     5452     5502     5548 
    5589     5622     5643     5657     5670     5675     5672     5661 
    5652     5640     5625     5611     5597     5580     5566     5545 
    5521     5508     5493     5475     5463     5441     5408     5379 
    5355     5335     5320     5305     5289     5273     5256     5243 
    5224     5200     5178     5162     5143     5127     5113     5100 
    5089     5082     5066     5050     5035     5015     5004     5003 
    5003     5005     5009     5007     5007     5009     5008     5004 
    4997     4992     4986     4980     4972     4968     4973     4985 
    4995     5009     5028     5053     5082     5121     5170     5209 
    5247     5297     5348     5395     5441     5471     5489     5510 
    5532     5548     5566     5584     5599     5613     5633     5652 
    5667     5684     5697     5702     5707     5713     5717     5722 
    5714     5692     5675     5651     5622     5598     5574     5545 
    5516     5489     5459     5429     5405     5383     5366     5354 
    5340     5319     5293     5267     5240     5208     5177     5151 
    5131     5115     5105     5107     5113     5130     5152     5178 
    5206     5240     5271     5305     5341     5378     5405     5421 
    5439     5458     5472     5486     5506     5535     5566     5599 
    5640     5688     5732     5776     5829     5872     5907     5949 
    5981     6003     6029     6052     6057     6054     6052     6043 
    6027     6011     5995     5973     5952     5931     5908     5880 
    5856     5837     5815     5795     5783     5776     5772     5779 
    5791     5800     5805     5796     5783     5763     5733     5702 
    5665     5629     5601     5582     5559     5533     5514     5498 
    5483     5478     5481     5481     5479     5481     5476     5470 
    5464     5459     5449     5440     5421     5395     5374     5354 
    5340     5333     5325     5312     5302     5289     5271     5258 
    5247     5235     5224     5219     5219     5217     5216     5220 
    5227     5229     5231     5231     5227     5227     5227     5223 
    5221     5223     5224     5227     5232     5232     5224     5213 
    5205     5194     5189     5190     5186     5181     5185     5194 
    5205     5221     5243     5271     5306     5344     5385     5425 
    5464     5505     5537     5553     5562     5563     5555     5552 
