Origin Time       2025/01/13 21:19:00
Lat.              31.8
Long.             131.6
Depth. (km)       30
Mag.              6.9
Station Code      TKS012
Station Lat.      34.0317
Station Long.     133.8064
Station Height(m) 128
Record Time       2025/01/13 21:21:15
Sampling Freq(Hz) 100Hz
Duration Time(s)  60
Dir.              N-S
Scale Factor      7845(gal)/8223790
Max. Acc. (gal)   1.333
Last Correction   2025/01/13 21:21:15
Memo.             
[...]
    5892     5934     6026     6133     6196     6185     6133     6084 
    6029     5971     5981     6068     6164     6238     6285     6284 
    6237     6200     6196     6154     6088     6065     6034     5981 
    5976     6007     6026     6041     6056     6062     6065     6054 
    6019     5995     5985     5926     5815     5709     5621     5557 
    5555     5602     5633     5660     5752     5872     5957     6012 
    6043     6048     6049     6062     6066     6043     6012     5979 
    5933     5894     5872     5868     5873     5852     5813     5791 
    5779     5788     5865     5988     6084     6112     6073     6007 
    5938     5864     5822     5838     5883     5919     5933     5918 
    5891     5861     5826     5779     5742     5711     5655     5593 
    5555     5533     5536     5567     5589     5575     5587     5679 
    5796     5879     5929     5933     5898     5873     5865     5869 
    5883     5875     5838     5810     5806     5805     5807     5861 
    5926     5935     5921     5926     5961     6014     6076     6161 
    6242     6291     6311     6303     6322     6420     6525     6563 
    6556     6536     6509     6481     6462     6474     6497     6471 
    6408     6385     6419     6467     6496     6474     6404     6331 
    6319     6372     6419     6428     6474     6579     6640     6609 
    6550     6484     6385     6280     6215     6166     6106     6045 
    5991     5962     5968     5979     5994     6003     5973     5884 
    5772     5667     5547     5444     5452     5536     5614     5702 
    5822     5948     6049     6099     6089     6064     6049     6019 
    5957     5886     5827     5771     5715     5683     5661     5661 
    5732     5856     5980     6062     6115     6172     6222     6224 
    6208     6205     6203     6224     6276     6299     6311     6377 
    6447     6443     6347     6192     6056     6007     6014     6012 
    6014     6029     6022     6003     5998     5967     5942     5996 
    6081     6115     6127     6141     6115     6050     5956     5848 
    5775     5794     5891     5987     6042     6053     6006     5952 
    5915     5865     5822     5815     5818     5832     5871     5879 
    5815     5751     5742     5745     5722     5715     5746     5787 
    5848     5957     6048     6043     5996     5958     5926     5911 
    5914     5914     5927     5952     5965     5992     6038     6065 
    6072     6099     6131     6122     6106     6104     6079     6029 
    5984     5938     5915     5950     6010     6060     6106     6127 
    6119     6102     6083     6065     6052     6049     6070     6099 
    6111     6099     6080     6100     6169     6230     6261     6278 
    6286     6270     6254     6259     6259     6232     6191     6137 
    6045     5933     5842     5779     5748     5746     5748     5757 
    5759     5732     5694     5663     5632     5590     5547     5549 
    5622     5741     5867     5957     6007     6046     6077     6112 
    6166     6219     6273     6338     6382     6401     6392     6340 
    6280     6242     6237     6266     6312     6340     6334     6328 
    6319     6266     6214     6185     6164     6180     6231     6242 
    6200     6150     6096     6025     5968     5926     5873     5842 
    5837     5813     5767     5751     5763     5771     5773     5779 
    5798     5849     5927     6006     6052     6054     6033     6016 
    6023     6029     6026     6053     6119     6200     6253     6254 
    6247     6269     6281     6281     6280     6246     6193     6169 
    6164     6168     6169     6164     6177     6205     6214     6192 
    6160     6142     6115     6077     6043     5989     5908     5830 
    5782     5771     5773     5794     5850     5898     5886     5853 
    5857     5886     5899     5892     5879     5864     5840     5825 
    5811     5767     5724     5694     5640     5594     5572     5532 
    5497     5525     5593     5645     5675     5691     5710     5745 
    5792     5860     5953     6062     6146     6199     6243     6265 
    6255     6247     6264     6313     6385     6448     6507     6565 
    6605     6636     6664     6659     6636     6650     6660     6620 
    6559     6490     6392     6274     6154     6056     6027     6068 
    6119     6178     6232     6232     6166     6069     5977     5880 
    5792     5764     5738     5652     5548     5437     5324     5260 
    5251     5246     5219     5193     5186     5211     5260     5297 
    5302     5329     5401     5468     5524     5602     5710     5841 
    5981     6112     6222     6305     6367     6424     6484     6570 
    6702     6835     6930     6979     6967     6912     6839     6750 
    6655     6575     6512     6455     6407     6365     6315     6262 
    6223     6189     6164     6158     6158     6147     6135     6138 
    6135     6110     6088     6058     5973     5873     5823     5813 
    5802     5788     5779     5761     5748     5745     5734     5728 
    5728     5721     5726     5760     5787     5782     5786     5802 
    5802     5809     5834     5849     5861     5888     5919     5938 
    5961     5995     5995     5961     5926     5879     5818     5780 
    5768     5746     5715     5702     5703     5706     5702     5692 
    5687     5717     5780     5837     5898     5989     6057     6072 
    6096     6151     6207     6265     6326     6355     6354     6336 
    6293     6241     6200     6170     6172     6214     6269     6331 
    6405     6470     6501     6502     6492     6475     6457     6430 
    6404     6374     6322     6262     6210     6172     6162     6162 
    6145     6131     6133     6111     6070     6057     6060     6062 
    6077     6092     6104     6141     6204     6247     6264     6313 
    6400     6474     6527     6559     6573     6588     6612     6620 
    6582     6515     6459     6394     6323     6286     6245     6178 
    6129     6073     5988     5907     5857     5840     5837     5833 
    5827     5822     5825     5826     5827     5846     5887     5937 
    5979     5999     5998     5976     5962     5995     6033     6045 
    6064     6089     6111     6143     6161     6156     6157     6157 
    6146     6138     6112     6050     5985     5946     5921     5921 
    5967     5991     5935     5884     5883     5879     5887     5914 
    5921     5923     5923     5884     5814     5736     5672     5626 
    5591     5584     5614     5660     5695     5718     5744     5787 
    5876     6004     6118     6189     6245     6285     6285     6253 
    6212     6192     6203     6222     6222     6218     6227     6219 
    6193     6203     6245     6286     6319     6335     6338     6343 
    6347     6319     6255     6178     6100     6039     6006     5965 
    5918     5908     5910     5879     5837     5815     5809     5806 
    5823     5840     5842     5876     5931     5971     6006     6025 
    6007     6002     6034     6070     6095     6133     6189     6249 
    6291     6309     6324     6346     6380     6421     6431     6374 
    6282     6192     6089     5980     5899     5833     5755     5710 
    5713     5713     5703     5719     5734     5734     5765     5802 
    5802     5826     5886     5908     5918     5957     5973     5968 
    5983     5994     5987     5992     6000     5988     5977     5972 
    5934     5888     5860     5815     5753     5734     5752     5749 
    5732     5724     5705     5674     5665     5690     5737     5803 
    5877     5930     5975     6057     6149     6214     6276     6308 
    6285     6276     6315     6338     6322     6315     6319     6322 
    6339     6347     6335     6340     6357     6345     6323     6339 
    6367     6370     6386     6428     6453     6477     6539     6583 
    6579     6573     6543     6457     6382     6349     6323     6311 
    6303     6262     6224     6212     6183     6137     6108     6081 
    6038     5995     5954     5896     5834     5795     5773     5764 
    5769     5756     5726     5709     5713     5721     5714     5687 
    5667     5674     5701     5751     5819     5875     5914     5934 
    5919     5894     5871     5826     5775     5760     5772     5771 
    5767     5783     5809     5834     5865     5891     5902     5917 
    5941     5965     5972     5948     5911     5906     5902     5867 
    5849     5859     5845     5803     5772     5729     5648     5594 
    5591     5589     5601     5651     5690     5694     5688     5698 
    5728     5771     5799     5782     5745     5748     5782     5802 
    5818     5841     5859     5902     5953     5953     5931     5948 
    5991     6019     6034     6048     6064     6077     6087     6102 
    6111     6092     6057     6006     5940     5894     5863     5813 
    5756     5694     5626     5579     5547     5522     5532     5563 
    5587     5622     5676     5724     5744     5767     5822     5879 
    5913     5956     6010     6046     6054     6049     6037     6033 
    6048     6058     6053     6057     6069     6065     6039     6008 
    5987     5981     5989     5995     6004     6029     6050     6107 
    6228     6354     6442     6523     6623     6714     6786     6845 
    6902     6951     6961     6944     6933     6914     6890     6874 
    6868     6879     6891     6882     6852     6808     6750     6702 
    6675     6648     6596     6529     6478     6428     6384     6358 
    6307     6223     6150     6085     6015     5948     5890     5837 
    5778     5705     5620     5532     5460     5398     5329     5267 
    5216     5174     5162     5178     5197     5208     5235     5282 
    5340     5416     5503     5593     5686     5791     5886     5926 
    5948     6008     6089     6158     6237     6316     6378     6451 
    6534     6596     6651     6710     6756     6786     6804     6790 
    6755     6733     6713     6667     6617     6567     6488     6392 
    6322     6272     6219     6205     6205     6156     6097     6065 
    6022     5967     5913     5857     5811     5795     5803     5809 
    5814     5841     5865     5869     5880     5911     5945     5972 
    5987     5991     5996     6007     6012     6007     6010     6018 
    6006     5994     5994     5973     5937     5900     5861     5815 
    5794     5805     5814     5823     5844     5849     5860     5899 
    5931     5940     5954     5988     6012     6025     6043     6068 
    6085     6083     6080     6103     6110     6107     6119     6141 
    6183     6215     6222     6258     6312     6339     6365     6396 
    6407     6412     6419     6415     6426     6474     6538     6594 
    6663     6754     6826     6870     6907     6945     6976     6987 
    6980     6964     6924     6868     6816     6754     6681     6625 
    6597     6586     6588     6582     6548     6507     6462     6389 
    6299     6201     6087     5964     5848     5736     5629     5537 
    5474     5431     5391     5351     5296     5232     5170     5105 
    5049     5019     5013     5015     5023     5057     5111     5162 
    5231     5308     5362     5406     5449     5485     5499     5499 
    5532     5597     5656     5724     5795     5859     5933     6003 
    6065     6129     6180     6212     6238     6258     6270     6288 
    6316     6340     6362     6403     6442     6458     6471     6486 
    6478     6435     6384     6331     6246     6146     6092     6050 
    5991     5969     5972     5946     5922     5919     5908     5888 
    5864     5834     5815     5809     5786     5737     5701     5697 
    5679     5640     5622     5597     5532     5468     5416     5355 
    5309     5298     5293     5286     5302     5328     5337     5336 
    5329     5314     5309     5319     5335     5364     5412     5447 
    5454     5472     5521     5571     5641     5736     5811     5879 
    5969     6057     6114     6146     6188     6231     6262     6309 
    6365     6407     6440     6444     6424     6432     6446     6439 
    6438     6439     6421     6407     6403     6396     6393     6411 
    6438     6453     6471     6508     6524     6516     6524     6543 
    6532     6494     6453     6419     6403     6396     6394     6397 
    6405     6412     6409     6415     6450     6474     6470     6485 
    6512     6508     6492     6505     6544     6583     6627     6669 
    6708     6763     6806     6813     6812     6806     6781     6733 
    6669     6589     6493     6409     6340     6243     6134     6039 
    5925     5800     5705     5626     5537     5449     5386     5313 
    5212     5123     5040     4936     4846     4789     4742     4718 
    4734     4774     4834     4916     5003     5080     5154     5219 
    5254     5271     5289     5297     5302     5340     5400     5439 
    5468     5509     5548     5582     5614     5637     5661     5709 
    5776     5849     5930     6016     6107     6210     6318     6415 
    6508     6620     6725     6797     6868     6959     7024     7053 
    7091     7144     7172     7179     7183     7152     7094     7056 
    7026     6971     6905     6826     6709     6583     6466     6328 
    6210     6141     6076     5998     5937     5884     5796     5705 
    5640     5570     5502     5448     5366     5252     5152     5063 
    4969     4881     4803     4716     4644     4629     4648     4657 
    4677     4722     4766     4816     4862     4887     4918     4972 
    5036     5113     5197     5271     5328     5381     5452     5517 
    5570     5648     5748     5841     5940     6054     6157     6234 
    6312     6377     6408     6447     6508     6562     6597     6623 
    6632     6625     6619     6615     6597     6571     6544     6496 
    6428     6384     6357     6322     6297     6288     6282     6292 
    6332     6374     6385     6403     6442     6462     6458     6459 
    6453     6431     6404     6369     6330     6299     6261     6222 
    6208     6204     6201     6210     6208     6191     6164     6129 
    6102     6091     6083     6069     6053     6033     6007     5984 
    5975     5976     5985     6010     6050     6114     6191     6250 
    6299     6338     6349     6355     6376     6396     6427     6466 
    6509     6552     6598     6637     6652     6651     6640     6615 
    6600     6601     6577     6535     6493     6421     6313     6227 
    6164     6079     5987     5914     5853     5798     5755     5734 
    5721     5711     5714     5706     5690     5699     5713     5710 
    5721     5746     5756     5752     5738     5717     5688     5664 
    5655     5641     5625     5624     5621     5632     5653     5655 
    5651     5672     5699     5699     5683     5684     5675     5648 
    5643     5640     5628     5628     5638     5659     5709     5782 
    5838     5876     5935     6002     6035     6077     6138     6176 
    6215     6292     6361     6408     6461     6497     6516     6571 
    6656     6708     6735     6781     6821     6843     6872     6905 
    6921     6925     6930     6933     6941     6970     6999     7003 
    6993     6984     6953     6887     6831     6763     6648     6544 
    6465     6354     6220     6124     6073     6022     5961     5891 
    5819     5769     5719     5648     5590     5564     5547     5535 
    5552     5584     5603     5645     5715     5767     5800     5840 
    5852     5829     5810     5782     5724     5656     5594     5524 
    5444     5371     5314     5271     5255     5251     5258     5308 
    5375     5440     5524     5616     5682     5730     5794     5872 
    5953     6038     6145     6278     6399     6488     6585     6696 
    6795     6882     6955     7024     7071     7084     7102     7126 
    7123     7079     7020     6980     6909     6785     6709     6679 
    6613     6539     6489     6423     6343     6259     6166     6073 
    6006     5964     5906     5838     5796     5748     5682     5628 
    5579     5526     5490     5478     5466     5459     5486     5510 
    5524     5566     5614     5647     5692     5752     5794     5815 
    5819     5800     5771     5753     5726     5674     5653     5674 
    5675     5671     5690     5699     5698     5711     5736     5745 
    5740     5737     5732     5707     5661     5598     5533     5472 
    5398     5309     5231     5169     5117     5094     5111     5135 
    5159     5198     5243     5283     5325     5391     5466     5530 
    5616     5721     5821     5923     6037     6142     6235     6336 
    6447     6544     6629     6706     6763     6806     6831     6835 
    6835     6839     6840     6828     6814     6805     6802     6804 
    6798     6779     6752     6737     6744     6740     6716     6700 
    6671     6602     6539     6490     6423     6339     6264     6193 
    6126     6048     5962     5896     5857     5817     5756     5717 
    5734     5752     5736     5730     5742     5763     5795     5826 
    5833     5832     5836     5829     5807     5791     5776     5760 
    5784     5838     5873     5908     5958     5992     6004     6019 
    6022     5999     5992     6014     6035     6054     6091     6108 
    6097     6104     6099     6049     6018     6008     5975     5944 
    5921     5872     5811     5768     5717     5640     5584     5556 
    5517     5490     5494     5486     5472     5493     5526     5535 
    5545     5584     5617     5628     5640     5653     5655     5645 
    5640     5649     5663     5676     5692     5714     5738     5748 
    5752     5778     5817     5844     5856     5848     5826     5810 
    5807     5809     5818     5842     5875     5894     5900     5904 
    5908     5902     5898     5914     5941     5964     5999     6041 
    6056     6050     6058     6081     6107     6141     6157     6157 
    6180     6193     6178     6188     6208     6215     6226     6226 
    6203     6180     6169     6150     6112     6087     6075     6045 
    6014     5983     5942     5908     5884     5861     5842     5822 
    5813     5814     5800     5788     5803     5809     5809     5832 
    5861     5894     5941     5987     6027     6084     6124     6135 
    6157     6201     6246     6285     6307     6316     6346     6394 
    6434     6473     6529     6583     6625     6663     6701     6728 
    6741     6745     6750     6745     6733     6720     6701     6674 
    6652     6629     6596     6575     6547     6475     6404     6361 
    6299     6204     6133     6081     6007     5913     5834     5769 
    5714     5668     5622     5574     5533     5481     5406     5335 
    5275     5196     5105     5057     5024     4959     4905     4888 
    4870     4860     4870     4891     4926     4982     5043     5103 
    5179     5269     5350     5429     5517     5614     5730     5853 
    5967     6068     6161     6253     6330     6404     6500     6589 
    6660     6752     6845     6903     6952     7007     7053     7082 
    7110     7150     7187     7210     7234     7240     7217     7195 
    7171     7129     7087     7067     7060     7047     7013     6968 
