Origin Time       2025/01/13 21:19:00
Lat.              31.8
Long.             131.6
Depth. (km)       30
Mag.              6.9
Station Code      TKS006
Station Lat.      33.6689
Station Long.     134.4191
Station Height(m) 2
Record Time       2025/01/13 21:20:57
Sampling Freq(Hz) 100Hz
Duration Time(s)  60
Dir.              U-D
Scale Factor      7845(gal)/8223790
Max. Acc. (gal)   0.900
Last Correction   2025/01/13 21:20:57
Memo.             
[...]
   17046    17030    17010    17007    17003    16966    16931    16947 
   16987    16988    16950    16922    16924    16931    16923    16910 
   16891    16862    16860    16899    16929    16953    17020    17084 
   17070    17015    16988    16991    16984    16969    16951    16935 
   16931    16949    16976    16995    17010    17018    17011    17003 
   17005    17020    17039    17026    16983    16956    16942    16923 
   16918    16935    16951    16933    16881    16856    16884    16911 
   16892    16854    16833    16818    16803    16811    16838    16860 
   16883    16897    16881    16873    16903    16939    16981    17043 
   17082    17049    16978    16962    17010    17031    17011    17026 
   17076    17095    17089    17093    17084    17049    17015    16983 
   16953    16935    16931    16951    16973    16966    16945    16923 
   16911    16906    16900    16888    16864    16858    16892    16918 
   16897    16866    16866    16883    16891    16910    16950    16984 
   16992    16992    17001    17030    17055    17066    17062    17050 
   17045    17035    17037    17066    17070    17053    17072    17085 
   17078    17084    17092    17093    17104    17095    17031    16950 
   16910    16912    16938    16965    16968    16945    16930    16947 
   16981    17008    17034    17049    17035    16999    16958    16916 
   16884    16883    16907    16923    16927    16951    17003    17031 
   16992    16954    16980    16992    16930    16869    16860    16877 
   16903    16923    16939    16950    16958    17001    17050    17054 
   17061    17088    17069    17008    16960    16937    16927    16924 
   16947    17012    17062    17073    17077    17073    17039    17015 
   17007    16966    16906    16899    16916    16891    16862    16888 
   16933    16953    16961    16977    16997    17014    17010    16964 
   16906    16870    16853    16875    16930    16951    16935    16933 
   16943    16950    16992    17064    17091    17051    16983    16907 
   16841    16803    16810    16845    16881    16927    16950    16923 
   16900    16903    16903    16910    16939    16949    16922    16904 
   16911    16915    16941    16981    16968    16926    16916    16914 
   16900    16911    16949    16985    17000    16980    16933    16900 
   16924    16980    17011    17011    17010    17022    17027    17003 
   16984    17008    17030    17012    16989    16999    17039    17066 
   17053    17038    17050    17070    17100    17130    17124    17088 
   17070    17069    17061    17053    17022    16966    16947    16958 
   16953    16942    16956    16980    16985    16968    16964    16985 
   16988    16953    16931    16951    16969    16935    16864    16795 
   16762    16783    16839    16896    16933    16945    16930    16877 
   16815    16794    16811    16846    16893    16919    16899    16862 
   16853    16884    16954    17050    17119    17127    17104    17064 
   17027    17038    17061    17043    17018    17010    17018    17045 
   17076    17112    17140    17113    17053    17016    17012    17011 
   16997    16978    16949    16897    16877    16911    16935    16922 
   16902    16885    16858    16830    16823    16825    16791    16752 
   16781    16845    16861    16868    16911    16956    16968    16958 
   16946    16935    16915    16895    16893    16897    16897    16908 
   16922    16915    16906    16927    16961    16995    17039    17070 
   17082    17097    17112    17119    17112    17100    17089    17068 
   17023    16978    16953    16927    16892    16891    16933    16950 
   16916    16887    16910    16962    16983    16954    16912    16891 
   16897    16923    16958    17008    17046    17042    17031    17042 
   17058    17070    17072    17046    16995    16960    16960    16965 
   16966    16985    17027    17086    17131    17134    17095    17043 
   17023    17039    17041    17011    16995    16993    16991    17026 
   17073    17074    17053    17028    16995    16970    16958    16941 
   16926    16922    16927    16934    16911    16865    16835    16827 
   16823    16831    16861    16876    16849    16819    16812    16825 
   16862    16927    16964    16946    16937    16976    17014    17020 
   17037    17068    17084    17074    17012    16919    16892    16924 
   16934    16953    17015    17059    17059    17061    17059    17003 
   16931    16923    16946    16953    16976    16991    16962    16943 
   16987    17045    17039    16999    17007    17031    17020    17019 
   17026    17004    16993    17026    17058    17059    17049    17038 
   17010    16984    17004    17046    17055    17012    16945    16903 
   16884    16864    16861    16885    16877    16823    16779    16794 
   16853    16920    16969    16980    16957    16930    16910    16893 
   16881    16869    16857    16853    16854    16872    16908    16953 
   16984    16983    16954    16926    16899    16891    16900    16881 
   16860    16876    16893    16896    16918    16957    16992    17024 
   17072    17123    17128    17085    17049    17039    17043    17053 
   17039    16988    16954    16985    17041    17066    17050    17014 
   16987    16988    17010    17007    16954    16896    16876    16883 
   16900    16933    16960    16960    16972    17010    17034    17018 
   16993    17011    17039    17031    17008    16992    16976    16977 
   16988    17015    17076    17119    17099    17064    17057    17066 
   17069    17066    17057    17027    16992    16976    16969    16989 
   17024    17020    16983    16964    16966    16968    16978    16996 
   16988    16968    16962    16976    17011    17046    17073    17099 
   17099    17061    17010    16970    16954    16950    16938    16902 
   16846    16808    16812    16839    16864    16873    16846    16802 
   16804    16850    16899    16930    16924    16902    16912    16939 
   16957    16984    17004    17001    17007    17004    16976    16970 
   16988    16976    16916    16837    16776    16753    16776    16830 
   16854    16848    16870    16903    16904    16915    16951    16973 
   16987    17014    17032    17005    16951    16941    16981    17012 
   17014    17031    17070    17088    17062    17032    17049    17088 
   17095    17080    17059    17005    16942    16934    16970    16978 
   16943    16914    16937    16980    17000    17003    16987    16943 
   16904    16887    16879    16879    16875    16822    16750    16754 
   16812    16860    16926    16993    17012    17000    16987    16988 
   17000    17010    17004    16965    16941    16987    17050    17081 
   17091    17085    17078    17077    17074    17073    17073    17085 
   17122    17155    17173    17186    17188    17169    17131    17086 
   17059    17069    17092    17066    16995    16931    16893    16864 
   16849    16877    16933    16938    16876    16852    16911    16947 
   16912    16880    16881    16883    16899    16957    17001    16989 
   16987    17022    17041    17042    17057    17054    17024    17011 
   17028    17050    17031    16961    16902    16900    16919    16916 
   16897    16875    16866    16896    16934    16930    16903    16910 
   16961    17030    17086    17101    17054    16978    16937    16930 
   16910    16870    16854    16848    16819    16780    16746    16726 
   16726    16734    16741    16737    16725    16734    16773    16811 
   16842    16865    16865    16873    16903    16924    16945    16987 
   17015    17003    16984    16999    17051    17120    17166    17136 
   17080    17093    17139    17126    17070    17028    17003    16991 
   16993    17003    17018    17027    17035    17070    17093    17061 
   17018    17024    17066    17101    17109    17074    16993    16908 
   16881    16919    16962    16980    16983    16953    16904    16888 
   16900    16915    16912    16876    16853    16872    16889    16889 
   16892    16880    16850    16835    16848    16875    16914    16962 
   17019    17081    17116    17104    17085    17081    17057    17031 
   17042    17046    17015    16997    17005    17016    17027    17019 
   16960    16910    16935    16964    16927    16879    16857    16839 
   16819    16819    16811    16775    16776    16814    16811    16788 
   16803    16841    16877    16912    16968    17041    17074    17062 
   17043    17046    17095    17154    17165    17136    17100    17082 
   17104    17136    17154    17149    17120    17101    17124    17163 
   17185    17184    17159    17115    17051    16981    16931    16919 
   16923    16914    16858    16785    16776    16808    16815    16812 
   16835    16858    16870    16888    16911    16945    17003    17031 
   16995    16957    16974    17037    17081    17073    17055    17061 
   17059    17062    17080    17080    17061    17037    17015    17027 
   17088    17138    17118    17065    17045    17053    17074    17127 
   17159    17127    17069    17024    16983    16954    16970    16996 
   16961    16892    16853    16848    16872    16937    16995    16966 
   16865    16822    16881    16937    16951    16969    16962    16922 
   16908    16935    16974    16995    16984    16977    16958    16884 
   16823    16849    16902    16915    16892    16875    16910    16983 
   17037    17053    17032    17004    17010    17022    17001    16996 
   17024    17041    17038    17051    17072    17066    17032    16996 
   16976    16973    16973    16951    16935    16960    16997    17037 
   17069    17054    17004    16965    16937    16910    16899    16889 
   16881    16896    16915    16934    16987    17065    17101    17064 
   17010    16984    16943    16895    16888    16881    16818    16752 
   16733    16726    16711    16700    16687    16684    16713    16745 
   16762    16779    16812    16862    16902    16914    16912    16923 
   16949    16939    16879    16839    16839    16843    16870    16918 
   16918    16899    16920    16930    16892    16872    16858    16799 
   16718    16680    16723    16818    16902    16935    16938    16949 
   16989    17076    17188    17263    17258    17201    17153    17119 
   17085    17100    17136    17095    17030    17049    17082    17069 
   17050    17047    17032    16997    16958    16941    16918    16880 
   16892    16942    16962    16995    17054    17080    17073    17080 
   17077    17022    16929    16850    16849    16935    17027    17066 
   17093    17120    17120    17100    17066    17032    17028    17024 
   16987    16937    16900    16896    16953    17041    17122    17185 
   17186    17134    17111    17126    17120    17104    17101    17088 
   17049    17003    16965    16945    16953    16957    16915    16880 
   16916    16972    16995    17008    17010    16981    16951    16935 
   16916    16902    16899    16899    16903    16934    16991    17015 
   17005    17014    16988    16910    16848    16796    16726    16692 
   16715    16731    16726    16752    16796    16802    16807    16892 
   17012    17084    17118    17123    17101    17077    17032    16950 
   16868    16791    16737    16777    16877    16946    16995    17047 
   17077    17080    17081    17093    17088    17027    16930    16880 
   16899    16941    17010    17097    17161    17223    17313    17381 
   17374    17332    17285    17185    17058    16974    16903    16831 
   16800    16787    16758    16757    16827    16934    17000    17005 
   16984    16984    17024    17077    17111    17118    17100    17073 
   17028    16942    16846    16811    16852    16929    16987    17004 
   17004    16983    16942    16920    16896    16819    16726    16690 
   16717    16796    16899    16943    16904    16860    16854    16864 
   16875    16904    16977    17049    17064    17062    17070    17070 
   17096    17150    17154    17092    17031    17003    16989    16996 
   17014    17023    17058    17119    17147    17127    17081    17011 
   16946    16934    16973    17030    17072    17050    16945    16806 
   16707    16679    16727    16834    16958    17065    17135    17154 
   17136    17118    17085    17015    16960    16930    16841    16725 
   16703    16771    16864    16939    16966    16978    17031    17119 
   17201    17238    17207    17126    17019    16896    16768    16679 
   16667    16696    16713    16757    16858    16951    17000    17019 
   16999    16951    16907    16876    16860    16849    16848    16877 
   16918    16942    16950    16961    17000    17068    17122    17145 
   17135    17115    17108    17092    17038    16983    16942    16896 
   16869    16861    16839    16822    16816    16802    16762    16727 
   16762    16860    16937    16960    16933    16879    16861    16910 
   16973    16985    16929    16857    16852    16911    16965    17001 
   17022    17012    17007    17051    17097    17116    17149    17208 
   17238    17208    17184    17209    17172    17000    16800    16677 
   16633    16630    16646    16654    16621    16595    16668    16841 
   17055    17270    17419    17454    17435    17406    17328    17227 
   17123    16970    16819    16762    16776    16825    16889    16929 
   16924    16934    16996    17043    17028    17000    17000    17026 
   17081    17162    17209    17176    17093    16996    16902    16864 
   16930    17076    17234    17365    17431    17410    17347    17259 
   17101    16879    16638    16403    16197    16060    16023    16085 
   16217    16389    16587    16812    17020    17157    17217    17200 
   17107    17008    16968    16946    16888    16845    16885    16966 
   17051    17154    17246    17294    17304    17284    17251    17231 
   17213    17149    17035    16951    16929    16916    16903    16914 
   16920    16858    16792    16850    16997    17119    17186    17189 
   17112    16996    16903    16837    16753    16644    16559    16494 
   16430    16399    16428    16546    16735    16914    17065    17215 
   17347    17444    17464    17379    17239    17096    16970    16904 
   16885    16866    16846    16835    16841    16879    16934    16978 
   16988    16957    16919    16897    16876    16879    16962    17078 
   17142    17140    17095    17027    16987    16969    16970    16988 
   16962    16910    16939    17043    17145    17238    17308    17290 
   17192    17084    16977    16837    16708    16654    16656    16691 
   16785    16915    16999    17024    17073    17163    17226    17240 
   17223    17189    17186    17192    17145    17065    17011    16996 
   17000    16977    16923    16856    16784    16734    16714    16681 
   16636    16615    16610    16619    16665    16730    16837    16980 
   17046    17024    17024    17072    17150    17201    17163    17070 
   16978    16892    16864    16920    16987    17022    17046    17035 
   16977    16931    16927    16965    17024    17072    17078    17023 
   16961    16966    16997    17016    17047    17049    16996    16965 
   17005    17077    17119    17104    17059    17032    17041    17061 
   17072    17047    16997    17000    17078    17159    17200    17194 
   17113    16969    16823    16702    16605    16579    16630    16695 
   16741    16764    16740    16699    16721    16808    16903    16977 
   17046    17085    17055    16992    16938    16880    16837    16856 
   16923    16993    17051    17112    17178    17234    17286    17332 
   17335    17298    17259    17216    17140    17045    16957    16865 
   16792    16779    16835    16930    17012    17062    17097    17128 
   17146    17120    17065    17028    17011    17005    17018    16992 
   16880    16734    16619    16565    16599    16713    16861    17028 
   17207    17336    17408    17446    17429    17334    17185    17018 
   16846    16707    16645    16660    16718    16787    16858    16920 
   16961    17001    17070    17172    17266    17298    17266    17213 
   17123    16984    16845    16740    16659    16595    16559    16537 
   16532    16588    16722    16888    17050    17169    17174    17054 
   16903    16831    16845    16861    16858    16907    17018    17101 
   17140    17200    17270    17304    17309    17293    17255    17217 
   17150    17022    16865    16756    16758    16854    16939    16966 
   16966    16983    17026    17095    17188    17281    17313    17228 
   17047    16876    16804    16848    16969    17099    17182    17203 
   17138    17008    16884    16821    16814    16831    16842    16852 
   16870    16877    16857    16823    16784    16753    16761    16812 
   16876    16915    16916    16914    16941    16985    17020    17046 
   17058    17050    17018    16957    16893    16837    16771    16740 
   16795    16910    17059    17217    17328    17367    17361    17309 
   17190    17043    16912    16795    16698    16676    16733    16815 
   16881    16933    16988    17030    16989    16875    16768    16672 
   16591    16575    16610    16642    16675    16707    16727    16772 
   16876    17032    17212    17356    17406    17388    17346    17270 
   17174    17108    17093    17105    17104    17080    17074    17104 
   17124    17100    17016    16896    16780    16715    16745    16830 
   16902    16947    16995    17049    17097    17120    17096    17030 
   16939    16862    16821    16798    16811    16889    16997    17074 
   17084    17041    16965    16877    16810    16781    16800    16826 
   16810    16803    16838    16868    16915    17012    17085    17081 
   17043    17011    16974    16933    16942    17030    17131    17184 
   17201    17184    17130    17069    16987    16864    16768    16748 
   16749    16740    16792    16903    16950    16924    16931    16999 
   17073    17124    17155    17172    17189    17201    17147    17038 
   16931    16829    16730    16663    16632    16646    16702    16788 
   16912    17014    17020    16985    16969    16949    16910    16866 
   16819    16779    16781    16849    16968    17118    17257    17348 
   17409    17444    17425    17352    17261    17157    17011    16838 
   16699    16614    16563    16557    16614    16707    16803    16895 
   17012    17139    17232    17308    17340    17271    17159    17074 
   16995    16941    16945    16957    16961    16985    17034    17072 
   17047    16991    16965    16958    16934    16896    16858    16814 
   16752    16696    16660    16642    16644    16667    16742    16875 
   17000    17101    17169    17163    17139    17154    17163    17146 
   17122    17105    17101    17093    17095    17122    17135    17132 
   17143    17158    17174    17199    17228    17259    17255    17189 
   17084    16976    16891    16835    16804    16807    16827    16812 
   16753    16681    16614    16541    16494    16514    16553    16583 
   16671    16812    16930    16993    17020    17034    17068    17128 
   17182    17190    17155    17107    17072    17066    17070    17065 
   17065    17076    17080    17072    17047    17027    17047    17076 
   17076    17057    17011    16943    16908    16915    16934    16962 
   16989    17011    17035    17059    17101    17184    17248    17228 
   17161    17088    16999    16919    16877    16831    16780    16756 
