Origin Time       2025/01/13 21:19:00
Lat.              31.8
Long.             131.6
Depth. (km)       30
Mag.              6.9
Station Code      TKS006
Station Lat.      33.6689
Station Long.     134.4191
Station Height(m) 2
Record Time       2025/01/13 21:20:57
Sampling Freq(Hz) 100Hz
Duration Time(s)  60
Dir.              N-S
Scale Factor      7845(gal)/8223790
Max. Acc. (gal)   1.500
Last Correction   2025/01/13 21:20:57
Memo.             
[...]
   -5108    -5089    -5071    -5067    -5062    -5035    -4992    -4928 
   -4870    -4862    -4877    -4876    -4872    -4870    -4892    -4974 
   -5070    -5117    -5134    -5113    -5040    -4970    -4947    -4968 
   -5000    -5061    -5169    -5267    -5348    -5431    -5420    -5325 
   -5258    -5213    -5186    -5216    -5267    -5277    -5262    -5244 
   -5224    -5223    -5246    -5252    -5243    -5212    -5155    -5128 
   -5111    -5058    -5004    -4934    -4861    -4855    -4866    -4865 
   -4876    -4854    -4834    -4873    -4896    -4876    -4862    -4849 
   -4831    -4845    -4905    -4982    -5027    -5061    -5098    -5124 
   -5151    -5177    -5189    -5197    -5208    -5247    -5316    -5370 
   -5391    -5390    -5371    -5341    -5331    -5360    -5375    -5356 
   -5323    -5248    -5167    -5117    -5058    -5009    -4984    -4923 
   -4851    -4812    -4808    -4831    -4819    -4749    -4683    -4638 
   -4611    -4621    -4648    -4700    -4788    -4857    -4918    -4976 
   -5000    -5026    -5071    -5111    -5144    -5186    -5238    -5275 
   -5308    -5346    -5374    -5413    -5447    -5428    -5409    -5413 
   -5381    -5331    -5285    -5235    -5227    -5270    -5313    -5337 
   -5336    -5329    -5309    -5232    -5135    -5063    -4958    -4811 
   -4695    -4618    -4577    -4592    -4642    -4706    -4745    -4725 
   -4680    -4639    -4602    -4596    -4635    -4675    -4707    -4773 
   -4878    -4985    -5085    -5163    -5213    -5260    -5289    -5302 
   -5351    -5401    -5422    -5449    -5501    -5560    -5598    -5586 
   -5557    -5540    -5529    -5524    -5486    -5404    -5300    -5174 
   -5049    -4961    -4939    -4978    -4990    -4938    -4843    -4714 
   -4625    -4638    -4681    -4704    -4739    -4745    -4685    -4634 
   -4645    -4687    -4716    -4731    -4749    -4781    -4873    -5012 
   -5117    -5178    -5193    -5181    -5221    -5304    -5368    -5429 
   -5472    -5462    -5435    -5440    -5458    -5478    -5518    -5543 
   -5522    -5495    -5462    -5385    -5282    -5202    -5155    -5132 
   -5132    -5150    -5175    -5178    -5131    -5053    -4973    -4892 
   -4815    -4750    -4689    -4652    -4671    -4727    -4772    -4799 
   -4784    -4718    -4660    -4662    -4723    -4797    -4846    -4881 
   -4923    -4980    -5051    -5104    -5140    -5181    -5194    -5212 
   -5266    -5319    -5360    -5393    -5405    -5440    -5502    -5520 
   -5502    -5478    -5435    -5378    -5312    -5244    -5146    -5019 
   -4943    -4930    -4947    -5015    -5078    -5053    -4963    -4882 
   -4838    -4827    -4850    -4862    -4846    -4851    -4878    -4897 
   -4919    -4949    -4974    -4993    -5007    -5016    -5031    -5036 
   -5012    -5000    -5009    -5015    -5042    -5092    -5134    -5175 
   -5228    -5282    -5300    -5290    -5301    -5302    -5300    -5313 
   -5283    -5209    -5135    -5061    -4997    -4976    -4997    -5051 
   -5112    -5120    -5073    -5038    -5015    -4982    -4976    -4974 
   -4957    -4959    -4993    -5049    -5107    -5135    -5111    -5063 
   -5012    -4950    -4930    -4968    -5001    -5011    -5027    -5038 
   -5022    -5005    -5030    -5096    -5165    -5215    -5233    -5231 
   -5235    -5259    -5306    -5363    -5387    -5371    -5309    -5223 
   -5181    -5181    -5166    -5162    -5165    -5127    -5092    -5094 
   -5104    -5078    -5022    -4973    -4938    -4914    -4896    -4860 
   -4841    -4872    -4912    -4959    -5012    -5044    -5050    -5013 
   -4974    -4973    -4980    -4980    -4988    -4974    -4942    -4945 
   -4972    -4974    -4968    -4969    -4981    -5020    -5062    -5074 
   -5069    -5036    -5008    -5028    -5062    -5103    -5161    -5213 
   -5262    -5300    -5310    -5324    -5367    -5416    -5440    -5458 
   -5456    -5402    -5343    -5297    -5247    -5236    -5221    -5150 
   -5086    -5030    -4955    -4915    -4884    -4823    -4772    -4747 
   -4743    -4758    -4758    -4733    -4708    -4718    -4785    -4877 
   -4951    -5005    -5044    -5086    -5127    -5143    -5151    -5148 
   -5128    -5127    -5152    -5200    -5290    -5391    -5424    -5375 
   -5306    -5240    -5147    -5067    -5054    -5073    -5109    -5143 
   -5143    -5146    -5178    -5188    -5157    -5105    -5026    -4950 
   -4896    -4835    -4795    -4800    -4823    -4854    -4897    -4938 
   -4951    -4930    -4891    -4884    -4916    -4949    -4965    -4973 
   -5009    -5094    -5190    -5260    -5286    -5259    -5209    -5194 
   -5217    -5223    -5231    -5267    -5290    -5316    -5354    -5375 
   -5379    -5351    -5286    -5225    -5198    -5202    -5233    -5262 
   -5258    -5240    -5215    -5173    -5125    -5049    -4955    -4893 
   -4826    -4745    -4698    -4691    -4729    -4787    -4842    -4895 
   -4922    -4926    -4919    -4893    -4873    -4866    -4861    -4884 
   -4919    -4923    -4930    -4973    -5039    -5125    -5194    -5224 
   -5250    -5270    -5306    -5374    -5404    -5371    -5321    -5286 
   -5310    -5390    -5440    -5444    -5412    -5341    -5300    -5298 
   -5254    -5186    -5128    -5051    -4993    -4973    -4958    -4957 
   -4963    -4976    -5013    -5063    -5065    -5003    -4935    -4885 
   -4862    -4877    -4855    -4800    -4781    -4766    -4747    -4766 
   -4808    -4861    -4907    -4903    -4872    -4880    -4919    -4920 
   -4868    -4806    -4777    -4811    -4900    -5039    -5188    -5296 
   -5368    -5398    -5378    -5343    -5302    -5252    -5228    -5239 
   -5263    -5310    -5373    -5410    -5431    -5436    -5410    -5359 
   -5278    -5194    -5121    -5053    -5004    -4970    -4946    -4946 
   -4953    -4953    -4950    -4931    -4899    -4880    -4882    -4888 
   -4904    -4946    -5008    -5066    -5100    -5111    -5116    -5121 
   -5119    -5120    -5132    -5138    -5142    -5174    -5233    -5277 
   -5271    -5217    -5142    -5084    -5031    -4947    -4880    -4858 
   -4838    -4839    -4870    -4897    -4932    -4958    -4947    -4935 
   -4928    -4928    -4951    -4969    -4988    -5043    -5086    -5101 
   -5148    -5219    -5277    -5350    -5397    -5351    -5271    -5208 
   -5161    -5194    -5278    -5309    -5306    -5298    -5250    -5169 
   -5119    -5128    -5150    -5157    -5165    -5165    -5157    -5165 
   -5159    -5109    -5024    -4919    -4868    -4889    -4909    -4918 
   -4951    -4970    -4942    -4907    -4882    -4851    -4818    -4801 
   -4791    -4803    -4839    -4864    -4872    -4874    -4904    -4973 
   -5036    -5088    -5134    -5143    -5148    -5179    -5205    -5208 
   -5198    -5209    -5247    -5263    -5263    -5258    -5202    -5143 
   -5124    -5104    -5078    -5069    -5055    -5047    -5077    -5096 
   -5061    -5055    -5093    -5098    -5100    -5088    -5030    -4962 
   -4897    -4845    -4820    -4795    -4757    -4718    -4730    -4831 
   -4914    -4928    -4928    -4870    -4784    -4766    -4772    -4757 
   -4757    -4799    -4893    -5000    -5081    -5127    -5128    -5143 
   -5201    -5262    -5331    -5404    -5463    -5516    -5547    -5551 
   -5539    -5490    -5404    -5306    -5224    -5177    -5146    -5113 
   -5070    -5013    -4970    -4932    -4874    -4816    -4764    -4703 
   -4657    -4630    -4614    -4646    -4739    -4845    -4923    -4950 
   -4927    -4893    -4876    -4878    -4880    -4839    -4793    -4801 
   -4862    -4943    -4996    -5020    -5050    -5043    -4989    -4953 
   -4931    -4915    -4914    -4934    -4999    -5066    -5085    -5108 
   -5146    -5171    -5220    -5286    -5308    -5279    -5256    -5266 
   -5298    -5359    -5377    -5313    -5266    -5265    -5270    -5282 
   -5247    -5124    -4978    -4880    -4851    -4878    -4909    -4938 
   -4953    -4915    -4860    -4843    -4845    -4839    -4826    -4820 
   -4849    -4911    -4981    -5031    -5062    -5089    -5117    -5154 
   -5182    -5200    -5227    -5262    -5297    -5324    -5324    -5310 
   -5305    -5305    -5300    -5316    -5374    -5427    -5435    -5416 
   -5387    -5343    -5305    -5273    -5233    -5200    -5157    -5120 
   -5120    -5116    -5097    -5109    -5117    -5090    -5049    -4996 
   -4958    -4963    -4978    -4980    -4963    -4934    -4919    -4911 
   -4899    -4888    -4851    -4795    -4754    -4741    -4776    -4857 
   -4918    -4939    -4951    -4963    -4990    -5054    -5147    -5228 
   -5258    -5250    -5252    -5267    -5281    -5325    -5395    -5459 
   -5506    -5525    -5536    -5537    -5510    -5468    -5410    -5350 
   -5340    -5368    -5400    -5414    -5354    -5189    -4989    -4823 
   -4712    -4652    -4600    -4538    -4502    -4518    -4588    -4683 
   -4729    -4684    -4592    -4507    -4491    -4584    -4742    -4914 
   -5090    -5273    -5456    -5598    -5651    -5629    -5536    -5398 
   -5285    -5225    -5225    -5262    -5312    -5358    -5350    -5308 
   -5316    -5331    -5254    -5111    -4936    -4723    -4558    -4552 
   -4676    -4857    -4990    -4986    -4914    -4843    -4787    -4783 
   -4799    -4799    -4801    -4797    -4806    -4865    -4958    -5073 
   -5204    -5306    -5370    -5387    -5348    -5277    -5213    -5177 
   -5194    -5294    -5427    -5491    -5452    -5344    -5198    -5049 
   -4984    -5008    -5043    -5098    -5193    -5294    -5341    -5309 
   -5251    -5163    -5028    -4936    -4901    -4865    -4857    -4896 
   -4931    -4942    -4939    -4895    -4795    -4660    -4521    -4438 
   -4463    -4576    -4722    -4850    -4927    -4962    -5005    -5058 
   -5080    -5081    -5103    -5144    -5197    -5273    -5404    -5557 
   -5665    -5732    -5719    -5595    -5466    -5383    -5320    -5282 
   -5240    -5215    -5319    -5528    -5722    -5822    -5761    -5508 
   -5107    -4680    -4368    -4253    -4322    -4522    -4737    -4828 
   -4819    -4810    -4777    -4677    -4542    -4417    -4324    -4298 
   -4368    -4494    -4635    -4781    -4889    -4985    -5104    -5224 
   -5328    -5366    -5306    -5243    -5259    -5336    -5418    -5489 
   -5568    -5684    -5848    -6006    -6069    -6035    -5913    -5691 
   -5443    -5216    -4996    -4823    -4718    -4673    -4714    -4837 
   -4992    -5090    -5043    -4882    -4691    -4490    -4359    -4379 
   -4486    -4615    -4735    -4849    -4995    -5125    -5200    -5225 
   -5204    -5200    -5260    -5367    -5518    -5641    -5643    -5579 
   -5490    -5382    -5351    -5436    -5559    -5684    -5798    -5838 
   -5765    -5601    -5400    -5204    -5069    -5062    -5179    -5320 
   -5408    -5418    -5294    -5055    -4792    -4519    -4311    -4261 
   -4301    -4344    -4432    -4606    -4837    -5058    -5219    -5265 
   -5165    -4982    -4797    -4622    -4521    -4554    -4657    -4792 
   -4976    -5152    -5275    -5341    -5328    -5255    -5204    -5185 
   -5167    -5152    -5162    -5179    -5175    -5158    -5177    -5283 
   -5428    -5532    -5553    -5444    -5231    -5017    -4876    -4822 
   -4833    -4900    -5026    -5151    -5243    -5301    -5301    -5263 
   -5221    -5157    -5066    -4962    -4843    -4734    -4675    -4677 
   -4716    -4756    -4806    -4892    -4980    -5023    -5020    -4981 
   -4916    -4872    -4924    -5066    -5186    -5244    -5265    -5246 
   -5250    -5306    -5321    -5297    -5352    -5482    -5628    -5719 
   -5613    -5332    -5084    -4945    -4930    -5054    -5184    -5201 
   -5124    -4997    -4850    -4687    -4565    -4521    -4515    -4600 
   -4781    -4922    -5019    -5080    -4992    -4803    -4646    -4554 
   -4592    -4792    -4999    -5107    -5157    -5185    -5229    -5309 
   -5375    -5377    -5287    -5123    -4927    -4756    -4699    -4770 
   -4888    -5040    -5192    -5287    -5351    -5382    -5368    -5319 
   -5250    -5223    -5219    -5216    -5252    -5298    -5341    -5410 
   -5431    -5332    -5140    -4880    -4612    -4430    -4341    -4359 
   -4521    -4757    -4955    -5081    -5152    -5211    -5266    -5296 
   -5278    -5221    -5128    -4965    -4773    -4658    -4664    -4730 
   -4812    -4918    -5049    -5169    -5240    -5271    -5287    -5302 
   -5360    -5474    -5576    -5613    -5567    -5472    -5395    -5381 
   -5414    -5413    -5297    -5023    -4630    -4274    -4079    -4055 
   -4158    -4351    -4618    -4949    -5266    -5468    -5506    -5366 
   -5092    -4768    -4542    -4554    -4783    -5084    -5325    -5428 
   -5428    -5414    -5400    -5317    -5055    -4642    -4286    -4186 
   -4402    -4835    -5296    -5655    -5877    -6008    -6116    -6227 
   -6288    -6214    -5987    -5687    -5416    -5252    -5225    -5258 
   -5233    -5134    -5020    -4930    -4831    -4719    -4576    -4357 
   -4110    -3933    -3873    -3952    -4159    -4468    -4849    -5179 
   -5329    -5296    -5200    -5135    -5098    -5104    -5159    -5175 
   -5086    -4977    -4993    -5194    -5520    -5821    -5915    -5756 
   -5481    -5233    -5113    -5162    -5325    -5501    -5579    -5485 
   -5260    -5039    -4935    -4941    -4950    -4907    -4795    -4644 
   -4526    -4471    -4484    -4567    -4673    -4760    -4803    -4820 
   -4851    -4888    -4909    -4927    -4924    -4878    -4807    -4726 
   -4653    -4598    -4542    -4477    -4425    -4460    -4617    -4835 
   -5053    -5209    -5289    -5371    -5481    -5566    -5611    -5663 
   -5776    -5984    -6249    -6492    -6646    -6647    -6417    -5980 
   -5487    -5096    -4911    -4920    -4957    -4877    -4658    -4324 
   -3983    -3769    -3712    -3823    -4083    -4415    -4754    -5007 
   -5135    -5211    -5283    -5390    -5564    -5786    -5988    -6091 
   -6061    -5921    -5726    -5557    -5468    -5468    -5512    -5518 
   -5463    -5358    -5175    -4919    -4691    -4584    -4612    -4772 
   -5001    -5205    -5328    -5358    -5364    -5375    -5316    -5123 
   -4808    -4484    -4310    -4351    -4573    -4873    -5097    -5144 
   -5085    -5074    -5139    -5235    -5335    -5383    -5363    -5294 
   -5157    -4945    -4681    -4436    -4342    -4430    -4571    -4656 
   -4677    -4658    -4625    -4610    -4668    -4854    -5152    -5468 
   -5684    -5706    -5543    -5327    -5166    -5085    -5098    -5175 
   -5197    -5081    -4854    -4557    -4261    -4121    -4197    -4428 
   -4753    -5074    -5279    -5339    -5305    -5290    -5412    -5609 
   -5737    -5732    -5567    -5351    -5316    -5501    -5772    -6022 
   -6124    -6002    -5703    -5336    -5035    -4927    -5013    -5190 
   -5337    -5360    -5213    -4935    -4619    -4357    -4217    -4222 
   -4326    -4479    -4652    -4789    -4864    -4893    -4855    -4756 
   -4641    -4503    -4341    -4216    -4168    -4210    -4361    -4654 
   -5040    -5395    -5698    -5976    -6160    -6201    -6119    -5915 
   -5626    -5327    -5063    -4892    -4873    -4976    -5103    -5186 
   -5190    -5063    -4853    -4646    -4455    -4311    -4229    -4167 
   -4139    -4201    -4406    -4757    -5155    -5472    -5616    -5578 
   -5433    -5243    -5050    -4932    -4900    -4911    -4985    -5159 
   -5431    -5745    -6002    -6081    -5925    -5552    -5094    -4746 
   -4602    -4629    -4733    -4815    -4868    -4927    -4942    -4887 
   -4847    -4851    -4853    -4846    -4841    -4837    -4862    -4949 
   -5109    -5300    -5448    -5530    -5549    -5528    -5522    -5535 
   -5493    -5386    -5221    -5026    -4873    -4819    -4900    -5097 
   -5296    -5427    -5490    -5454    -5309    -5120    -4932    -4743 
   -4568    -4465    -4504    -4770    -5208    -5564    -5706    -5690 
   -5571    -5471    -5524    -5698    -5836    -5798    -5557    -5196 
   -4810    -4530    -4475    -4608    -4827    -5065    -5246    -5300 
   -5209    -5032    -4873    -4764    -4688    -4679    -4800    -5067 
   -5405    -5680    -5761    -5571    -5158    -4668    -4297    -4207 
   -4428    -4833    -5244    -5539    -5678    -5632    -5420    -5194 
   -5062    -5019    -5070    -5194    -5297    -5319    -5213    -4976 
   -4715    -4536    -4471    -4527    -4631    -4676    -4669    -4642 
   -4581    -4510    -4464    -4494    -4652    -4846    -4954    -5038 
   -5174    -5313    -5435    -5524    -5502    -5400    -5294    -5212 
   -5162    -5150    -5154    -5146    -5120    -5061    -4968    -4893 
   -4800    -4657    -4612    -4737    -4993    -5340    -5614    -5688 
   -5601    -5381    -5104    -4858    -4650    -4545    -4606    -4720 
   -4734    -4598    -4391    -4286    -4383    -4645    -4954    -5189 
   -5317    -5352    -5301    -5209    -5148    -5167    -5252    -5344 
   -5454    -5601    -5749    -5880    -5979    -6006    -5937    -5736 
   -5429    -5116    -4828    -4599    -4483    -4472    -4569    -4770 
   -5000    -5189    -5267    -5167    -4924    -4672    -4513    -4487 
   -4592    -4752    -4896    -4982    -4942    -4792    -4652    -4602 
   -4676    -4873    -5082    -5158    -5097    -4972    -4838    -4770 
   -4810    -4947    -5111    -5196    -5255    -5412    -5686    -6007 
   -6288    -6489    -6592    -6511    -6227    -5856    -5528    -5308 
   -5198    -5157    -5121    -5047    -4908    -4731    -4513    -4222 
   -3951    -3780    -3686    -3676    -3785    -4016    -4371    -4810 
   -5217    -5463    -5539    -5499    -5358    -5185    -5092    -5090 
   -5177    -5341    -5490    -5566    -5602    -5593    -5532    -5505 
   -5489    -5408    -5302    -5155    -4922    -4683    -4511    -4440 
   -4503    -4722    -5054    -5390    -5636    -5725    -5605    -5371 
   -5188    -5086    -5051    -5077    -5128    -5205    -5317    -5394 
   -5371    -5265    -5144    -5066    -5035    -5057    -5081    -5031 
   -4891    -4700    -4490    -4311    -4240    -4286    -4449    -4714 
   -4999    -5252    -5456    -5579    -5617    -5553    -5393    -5204 
   -5032    -4926    -4946    -5062    -5186    -5275    -5282    -5173 
   -5005    -4822    -4645    -4544    -4537    -4610    -4758    -4963 
   -5217    -5464    -5603    -5643    -5653    -5671    -5698    -5682 
   -5552    -5283    -4920    -4612    -4504    -4580    -4729    -4882 
   -4990    -5012    -4939    -4788    -4638    -4550    -4530    -4638 
   -4872    -5140    -5393    -5530    -5533    -5510    -5470    -5448 
   -5533    -5640    -5698    -5748    -5776    -5753    -5668    -5539 
   -5402    -5262    -5128    -4981    -4816    -4718    -4666    -4626 
   -4661    -4756    -4864    -4977    -5022    -4968    -4866    -4766 
   -4746    -4834    -4965    -5117    -5294    -5433    -5502    -5485 
   -5350    -5127    -4878    -4664    -4563    -4585    -4679    -4826 
   -4968    -5038    -5074    -5096    -5100    -5109    -5142    -5225 
   -5346    -5435    -5458    -5382    -5255    -5206    -5254    -5309 
   -5319    -5283    -5243    -5189    -5116    -5058    -5007    -5017 
   -5123    -5225    -5286    -5298    -5243    -5144    -5028    -4912 
   -4812    -4753    -4789    -4927    -5119    -5283    -5294    -5113 
   -4845    -4639    -4579    -4633    -4735    -4834    -4860    -4770 
   -4615    -4518    -4592    -4826    -5140    -5445    -5636    -5671 
   -5586    -5445    -5297    -5169    -5093    -5035    -4939    -4849 
