Origin Time       2025/01/13 21:19:00
Lat.              31.8
Long.             131.6
Depth. (km)       30
Mag.              6.9
Station Code      TKS004
Station Lat.      33.7750
Station Long.     134.5907
Station Height(m) 3
Record Time       2025/01/13 21:21:00
Sampling Freq(Hz) 100Hz
Duration Time(s)  60
Dir.              E-W
Scale Factor      7845(gal)/8223790
Max. Acc. (gal)   1.441
Last Correction   2025/01/13 21:20:59
Memo.             
[...]
   -1582    -1514    -1472    -1432    -1356    -1255    -1150    -1094 
   -1096    -1063    -1005     -974     -965     -986    -1065    -1182 
   -1273    -1308    -1290    -1190    -1050     -957     -940     -947 
    -945     -993    -1101    -1166    -1150    -1143    -1161    -1154 
   -1148    -1192    -1293    -1387    -1448    -1476    -1424    -1329 
   -1254    -1188    -1151    -1136    -1117    -1092    -1035    -1004 
   -1017     -993     -915     -873     -949    -1066    -1088    -1040 
    -963     -893     -934    -1038    -1102    -1159    -1229    -1267 
   -1267    -1298    -1343    -1370    -1453    -1571    -1641    -1629 
   -1528    -1417    -1374    -1382    -1390    -1385    -1341    -1212 
   -1075     -993     -911     -854     -842     -872     -932     -967 
    -951     -885     -837     -861     -915     -966    -1036    -1142 
   -1185    -1179    -1270    -1340    -1287    -1300    -1401    -1422 
   -1360    -1313    -1273    -1188    -1100    -1086    -1131    -1183 
   -1231    -1289    -1317    -1243    -1155    -1134    -1085    -1031 
   -1023    -1005     -950     -924    -1015    -1116    -1098    -1069 
   -1136    -1252    -1335    -1366    -1398    -1462    -1478    -1370 
   -1258    -1277    -1350    -1341    -1282    -1248    -1200    -1169 
   -1192    -1205    -1223    -1262    -1246    -1132     -955     -769 
    -639     -641     -770     -931    -1043    -1148    -1260    -1305 
   -1285    -1302    -1404    -1441    -1321    -1175    -1113    -1071 
    -973     -886     -880     -901     -942    -1067    -1194    -1192 
   -1155    -1182    -1239    -1309    -1340    -1313    -1285    -1263 
   -1248    -1240    -1204    -1162    -1167    -1208    -1250    -1243 
   -1158    -1073    -1051    -1075    -1115    -1134    -1159    -1235 
   -1277    -1201    -1111    -1071    -1038    -1028    -1047    -1071 
   -1138    -1254    -1372    -1414    -1351    -1286    -1306    -1351 
   -1354    -1333    -1333    -1324    -1225    -1074     -994    -1019 
   -1092    -1108    -1073    -1044    -1026    -1054    -1097    -1102 
   -1128    -1220    -1359    -1420    -1309    -1179    -1136    -1096 
   -1051    -1065    -1163    -1269    -1296    -1252    -1113     -982 
    -982    -1031    -1088    -1150    -1147    -1144    -1225    -1270 
   -1198    -1129    -1109    -1138    -1206    -1201    -1152    -1162 
   -1196    -1252    -1337    -1410    -1439    -1371    -1262    -1173 
   -1096    -1081    -1135    -1219    -1281    -1273    -1289    -1343 
   -1294    -1174    -1074     -973     -882     -845     -842     -841 
    -865     -932    -1035    -1148    -1189    -1155    -1132    -1166 
   -1260    -1313    -1321    -1374    -1387    -1309    -1232    -1228 
   -1286    -1316    -1304    -1320    -1332    -1286    -1266    -1301 
   -1313    -1298    -1270    -1213    -1151    -1057     -939     -926 
    -978     -986     -992    -1019    -1081    -1120    -1092    -1100 
   -1112    -1075    -1067    -1101    -1170    -1220    -1206    -1206 
   -1264    -1347    -1399    -1393    -1341    -1283    -1244    -1215 
   -1204    -1212    -1192    -1202    -1256    -1242    -1210    -1215 
   -1192    -1163    -1117    -1036     -976     -973     -999     -946 
    -862     -878     -928     -928     -919     -972    -1063    -1155 
   -1263    -1339    -1363    -1377    -1375    -1413    -1462    -1432 
   -1363    -1298    -1247    -1224    -1221    -1216    -1193    -1179 
   -1186    -1210    -1216    -1170    -1136    -1124    -1051     -954 
    -908     -888     -846     -830     -918    -1038    -1120    -1210 
   -1333    -1447    -1470    -1412    -1363    -1351    -1379    -1404 
   -1387    -1359    -1298    -1244    -1240    -1175    -1096    -1131 
   -1198    -1228    -1193    -1098    -1032    -1026    -1035    -1015 
    -994    -1003     -997     -976     -961    -1007    -1105    -1198 
   -1317    -1428    -1428    -1367    -1325    -1300    -1278    -1259 
   -1283    -1339    -1328    -1298    -1277    -1188    -1128    -1158 
   -1167    -1136    -1134    -1136    -1069     -955     -913     -953 
    -999    -1034    -1054    -1054    -1057    -1094    -1140    -1161 
   -1189    -1256    -1325    -1356    -1347    -1300    -1260    -1264 
   -1274    -1294    -1289    -1208    -1129    -1096    -1059    -1063 
   -1129    -1178    -1178    -1144    -1067     -955     -923    -1042 
   -1158    -1193    -1212    -1190    -1124    -1035     -957     -984 
   -1101    -1205    -1270    -1323    -1352    -1345    -1370    -1409 
   -1426    -1487    -1548    -1513    -1414    -1285    -1140    -1065 
   -1065    -1075    -1055    -1011     -978     -893     -808     -850 
    -911     -958    -1042    -1061    -1008     -965     -939     -950 
   -1004    -1067    -1167    -1279    -1325    -1343    -1412    -1468 
   -1458    -1482    -1543    -1521    -1470    -1416    -1300    -1204 
   -1174    -1139    -1108    -1080    -1016     -981     -984     -978 
    -978     -985     -996    -1054    -1119    -1085    -1047    -1089 
   -1150    -1223    -1286    -1335    -1382    -1372    -1316    -1262 
   -1266    -1327    -1340    -1298    -1262    -1189    -1124    -1092 
   -1023    -1005    -1084    -1179    -1277    -1281    -1196    -1169 
   -1170    -1094    -1027    -1066    -1148    -1181    -1166    -1138 
   -1093    -1030     -977     -992    -1084    -1167    -1217    -1258 
   -1255    -1190    -1131    -1159    -1227    -1263    -1278    -1281 
   -1259    -1193    -1135    -1154    -1185    -1215    -1266    -1258 
   -1171    -1073    -1019    -1026    -1050    -1096    -1202    -1305 
   -1306    -1198    -1124    -1139    -1123    -1159    -1310    -1381 
   -1348    -1310    -1240    -1140    -1074    -1077    -1123    -1150 
   -1155    -1190    -1231    -1201    -1094    -1008     -985     -950 
    -909     -926     -950     -970    -1035    -1134    -1221    -1252 
   -1252    -1256    -1221    -1162    -1140    -1135    -1135    -1159 
   -1194    -1221    -1205    -1166    -1219    -1339    -1359    -1314 
   -1324    -1327    -1264    -1171    -1115    -1098    -1059    -1023 
   -1009     -951     -873     -876     -927     -949     -988    -1043 
   -1069    -1094    -1101    -1100    -1143    -1224    -1332    -1394 
   -1356    -1317    -1332    -1324    -1256    -1232    -1310    -1412 
   -1489    -1543    -1541    -1478    -1364    -1217    -1071     -951 
    -918     -984    -1023    -1007    -1019    -1067    -1085    -1067 
   -1104    -1194    -1271    -1328    -1325    -1286    -1273    -1216 
   -1121    -1115    -1151    -1147    -1179    -1258    -1285    -1277 
   -1267    -1256    -1270    -1281    -1258    -1202    -1138    -1113 
   -1128    -1144    -1102    -1040    -1078    -1163    -1143    -1050 
    -981     -946     -970    -1038    -1100    -1156    -1202    -1220 
   -1204    -1144    -1047     -970     -958     -992    -1061    -1138 
   -1161    -1161    -1175    -1159    -1111    -1075    -1109    -1163 
   -1152    -1120    -1093    -1104    -1188    -1260    -1302    -1351 
   -1393    -1382    -1296    -1200    -1169    -1228    -1313    -1317 
   -1286    -1250    -1139    -1067    -1105    -1166    -1266    -1377 
   -1385    -1293    -1197    -1144    -1078     -986     -986    -1073 
   -1136    -1167    -1170    -1139    -1120    -1154    -1210    -1216 
   -1178    -1129    -1074    -1043    -1020    -1024    -1090    -1144 
   -1178    -1208    -1189    -1139    -1108    -1119    -1129    -1094 
   -1059    -1077    -1132    -1156    -1140    -1135    -1146    -1170 
   -1181    -1169    -1166    -1140    -1085    -1047    -1062    -1100 
   -1088    -1074    -1123    -1177    -1235    -1310    -1293    -1193 
   -1170    -1206    -1179    -1124    -1090    -1067    -1081    -1125 
   -1166    -1185    -1177    -1146    -1127    -1121    -1094    -1086 
   -1136    -1154    -1129    -1159    -1220    -1231    -1239    -1296 
   -1320    -1296    -1287    -1262    -1223    -1225    -1209    -1147 
   -1113    -1092    -1073    -1142    -1248    -1283    -1297    -1343 
   -1343    -1285    -1247    -1235    -1213    -1200    -1213    -1208 
   -1197    -1213    -1229    -1219    -1170    -1111    -1093    -1124 
   -1179    -1209    -1232    -1290    -1281    -1166    -1089    -1100 
   -1142    -1178    -1169    -1155    -1182    -1193    -1185    -1198 
   -1197    -1159    -1105    -1035     -950     -896     -918    -1001 
   -1089    -1159    -1227    -1264    -1258    -1232    -1210    -1209 
   -1221    -1243    -1243    -1233    -1256    -1273    -1255    -1227 
   -1189    -1175    -1202    -1227    -1227    -1198    -1194    -1236 
   -1231    -1162    -1104    -1066    -1050    -1024    -1000    -1000 
    -969     -945     -943     -958    -1024    -1124    -1250    -1289 
   -1224    -1225    -1289    -1333    -1356    -1344    -1324    -1339 
   -1345    -1290    -1202    -1169    -1209    -1232    -1228    -1236 
   -1213    -1167    -1092    -1004     -958     -967    -1035    -1094 
   -1124    -1183    -1233    -1197    -1092    -1000    -1026    -1105 
   -1124    -1131    -1104    -1004     -946     -927     -913     -981 
   -1127    -1289    -1385    -1383    -1374    -1416    -1468    -1491 
   -1441    -1333    -1251    -1188    -1107    -1089    -1112    -1089 
   -1093    -1116    -1096    -1093    -1116    -1134    -1129    -1097 
   -1098    -1112    -1120    -1167    -1258    -1340    -1343    -1320 
   -1345    -1363    -1412    -1520    -1553    -1528    -1528    -1539 
   -1555    -1534    -1478    -1433    -1355    -1244    -1147    -1098 
   -1080    -1069    -1111    -1131    -1081    -1027     -953     -911 
    -963    -1034    -1062    -1069    -1092    -1127    -1132    -1104 
   -1086    -1111    -1200    -1324    -1379    -1340    -1279    -1228 
   -1186    -1216    -1332    -1399    -1402    -1409    -1336    -1189 
   -1096    -1059    -1077    -1121    -1107    -1051     -967     -877 
    -865     -878     -874     -916     -958     -951     -924     -882 
    -865     -893     -955    -1069    -1198    -1297    -1370    -1414 
   -1432    -1475    -1559    -1648    -1721    -1715    -1634    -1534 
   -1408    -1278    -1170    -1105    -1125    -1135    -1046     -958 
    -911     -868     -831     -816     -823     -842     -849     -831 
    -822     -846     -880     -947    -1086    -1219    -1273    -1275 
   -1229    -1181    -1212    -1274    -1321    -1371    -1416    -1444 
   -1440    -1374    -1273    -1197    -1161    -1154    -1161    -1154 
   -1148    -1173    -1206    -1177    -1046     -903     -843     -831 
    -812     -832     -892     -935     -950     -908     -843     -870 
    -972    -1069    -1171    -1286    -1355    -1389    -1431    -1447 
   -1401    -1291    -1152    -1053    -1023    -1000     -970     -981 
   -1004    -1027    -1062    -1100    -1177    -1224    -1135    -1021 
    -953     -895     -877     -908     -953     -936     -865     -843 
    -849     -858     -901     -967    -1046    -1073    -1053    -1040 
   -1020     -992     -918     -842     -893    -1003    -1104    -1217 
   -1282    -1283    -1251    -1193    -1166    -1208    -1297    -1394 
   -1425    -1358    -1239    -1175    -1233    -1291    -1287    -1321 
   -1364    -1352    -1335    -1348    -1368    -1389    -1413    -1405 
   -1381    -1414    -1460    -1435    -1394    -1422    -1497    -1543 
   -1487    -1345    -1212    -1048     -870     -859     -982    -1084 
   -1181    -1264    -1264    -1264    -1316    -1350    -1352    -1308 
   -1209    -1094     -981     -973    -1069    -1111    -1093    -1081 
   -1053     -932     -745     -685     -823     -993    -1167    -1413 
   -1630    -1705    -1638    -1528    -1455    -1398    -1405    -1483 
   -1480    -1401    -1358    -1356    -1367    -1402    -1435    -1381 
   -1236    -1096    -1027    -1003     -984    -1046    -1181    -1316 
   -1449    -1453    -1298    -1128     -978     -884     -870     -869 
    -897     -965    -1054    -1169    -1283    -1402    -1459    -1426 
   -1386    -1290    -1135    -1063    -1121    -1233    -1327    -1417 
   -1513    -1598    -1684    -1763    -1804    -1795    -1722    -1578 
   -1405    -1213     -913     -591     -382     -213     -126     -176 
    -261     -359     -472     -634     -837     -958    -1020    -1104 
   -1155    -1170    -1213    -1263    -1269    -1215    -1155    -1198 
   -1309    -1385    -1489    -1630    -1703    -1777    -1917    -2074 
   -2204    -2157    -1885    -1572    -1320    -1100     -905     -681 
    -399     -159      -29        2      -35     -129     -267     -453 
    -689     -922    -1151    -1386    -1474    -1366    -1194    -1089 
   -1143    -1290    -1397    -1459    -1522    -1603    -1744    -1875 
   -1877    -1811    -1788    -1777    -1713    -1564    -1335    -1040 
    -754     -604     -577     -486     -259      -10      103       24 
    -143     -325     -595     -951    -1320    -1588    -1657    -1605 
   -1580    -1645    -1752    -1888    -2095    -2246    -2203    -2042 
   -1853    -1683    -1584    -1521    -1375    -1132     -942     -841 
    -712     -552     -449     -441     -480     -508     -518     -511 
    -502     -518     -575     -679     -851    -1096    -1318    -1399 
   -1381    -1410    -1470    -1490    -1537    -1626    -1725    -1819 
   -1864    -1845    -1772    -1680    -1640    -1622    -1576    -1451 
   -1204     -905     -588     -218      124      309      344      295 
     137     -162     -473     -706     -915    -1098    -1221    -1296 
   -1323    -1320    -1308    -1331    -1433    -1563    -1641    -1719 
   -1863    -1996    -2002    -1899    -1768    -1611    -1447    -1309 
   -1186    -1071    -1004    -1023    -1047     -943     -738     -549 
    -405     -302     -315     -477     -695     -874     -969     -984 
   -1015    -1161    -1383    -1549    -1652    -1802    -2027    -2262 
   -2454    -2531    -2434    -2195    -1925    -1769    -1707    -1613 
   -1453    -1213     -932     -741     -675     -719     -831     -926 
    -963     -918     -803     -710     -681     -693     -683     -611 
    -537     -513     -544     -634     -815    -1067    -1306    -1506 
   -1694    -1846    -1934    -1987    -2041    -2045    -1912    -1633 
   -1254     -892     -629     -376     -113       52       81      -22 
    -213     -445     -692     -830     -857     -934    -1085    -1208 
   -1242    -1254    -1377    -1570    -1702    -1804    -1884    -1844 
   -1748    -1737    -1752    -1664    -1468    -1301    -1258    -1313 
   -1410    -1517    -1598    -1579    -1449    -1291    -1069     -758 
    -488     -318     -276     -388     -537     -641     -746     -892 
   -1101    -1364    -1568    -1614    -1534    -1394    -1267    -1235 
   -1274    -1354    -1447    -1522    -1607    -1741    -1919    -2060 
   -2079    -2020    -1872    -1613    -1350    -1154    -1017     -831 
    -517     -201       16      175      214       22     -305     -608 
    -884    -1166    -1383    -1449    -1439    -1483    -1539    -1572 
   -1626    -1641    -1568    -1475    -1445    -1528    -1723    -2004 
   -2304    -2489    -2425    -2085    -1637    -1264     -945     -654 
    -410     -160       62      162      125      -43     -301     -585 
    -909    -1205    -1331    -1267    -1104     -981    -1011    -1227 
   -1552    -1825    -1907    -1776    -1537    -1306    -1125    -1021 
   -1016    -1143    -1383    -1593    -1696    -1719    -1615    -1385 
   -1109     -795     -454     -209     -152     -243     -445     -788 
   -1193    -1478    -1543    -1455    -1306    -1158    -1053    -1007 
   -1065    -1161    -1209    -1237    -1297    -1467    -1694    -1846 
   -1833    -1613    -1314    -1027     -805     -751     -800     -900 
   -1067    -1208    -1235    -1104     -843     -654     -648     -747 
    -915    -1120    -1300    -1421    -1541    -1611    -1528    -1394 
   -1291    -1236    -1205    -1084     -873     -706     -696     -807 
    -954    -1155    -1333    -1431    -1485    -1455    -1350    -1206 
   -1058    -1013    -1119    -1309    -1479    -1506    -1377    -1188 
    -992     -855     -851     -918    -1015    -1185    -1309    -1323 
   -1301    -1169     -874     -567     -353     -257     -303     -494 
    -758    -1003    -1186    -1351    -1510    -1590    -1528    -1329 
   -1142    -1066    -1059    -1119    -1232    -1459    -1860    -2277 
   -2517    -2484    -2199    -1810    -1449    -1147     -911     -765 
    -718     -760     -783     -661     -463     -309     -218     -184 
    -216     -257     -294     -436     -747    -1174    -1590    -1922 
   -2138    -2189    -2043    -1732    -1440    -1293    -1267    -1452 
   -1827    -2169    -2392    -2497    -2432    -2199    -1806    -1337 
    -967     -749     -619     -504     -384     -338     -371     -391 
    -364     -297     -228     -133      -18      -24     -247     -675 
   -1223    -1713    -2004    -2115    -2107    -2006    -1810    -1576 
   -1371    -1134     -907     -854    -1003    -1318    -1701    -1993 
   -2155    -2211    -2176    -2065    -1900    -1729    -1551    -1293 
    -970     -650     -330      -43      130      190      166       25 
    -232     -552     -853    -1092    -1297    -1467    -1576    -1651 
   -1694    -1711    -1665    -1480    -1232    -1012     -853     -847 
   -1017    -1309    -1723    -2106    -2204    -1996    -1632    -1260 
   -1030     -945     -892     -864     -827     -711     -538     -371 
    -259     -276     -453     -695     -962    -1264    -1468    -1463 
   -1302    -1167    -1233    -1462    -1736    -2002    -2133    -2037 
   -1860    -1705    -1513    -1335    -1282    -1301    -1291    -1259 
   -1233    -1210    -1152    -1058     -997     -972     -918     -837 
    -685     -438     -164       62      179      141      -71     -349 
    -607     -900    -1127    -1200    -1179    -1120    -1116    -1196 
   -1356    -1617    -1834    -1926    -1977    -2027    -2072    -2050 
   -1975    -1895    -1723    -1458    -1190     -901     -604     -407 
    -388     -514     -629     -668     -665     -598     -488     -448 
    -515     -689    -1011    -1448    -1887    -2223    -2425    -2494 
   -2409    -2215    -2056    -1984    -1939    -1869    -1698    -1367 
    -977     -676     -504     -417     -363     -353     -388     -434 
    -529     -656     -727     -770     -820     -828     -791     -766 
    -801     -888    -1017    -1231    -1478    -1671    -1830    -1938 
   -1939    -1834    -1659    -1509    -1463    -1529    -1630    -1674 
   -1629    -1466    -1185     -861     -581     -391     -334     -415 
    -562     -774    -1036    -1263    -1410    -1432    -1359    -1275 
   -1196    -1144    -1101    -1013     -953     -955    -1017    -1197 
   -1510    -1890    -2173    -2242    -2124    -1860    -1530    -1248 
   -1047     -936     -905     -908     -913     -957     -997     -920 
    -784     -707     -688     -734     -837     -967    -1101    -1154 
   -1143    -1165    -1175    -1190    -1282    -1391    -1478    -1564 
   -1648    -1757    -1860    -1890    -1879    -1818    -1680    -1525 
   -1393    -1297    -1251    -1228    -1228    -1221    -1139    -1011 
