Origin Time       2025/01/13 21:19:00
Lat.              31.8
Long.             131.6
Depth. (km)       30
Mag.              6.9
Station Code      TKS008
Station Lat.      33.9341
Station Long.     134.2113
Station Height(m) 337
Record Time       2025/01/13 21:20:57
Sampling Freq(Hz) 100Hz
Duration Time(s)  60
Dir.              N-S
Scale Factor      7845(gal)/8223790
Max. Acc. (gal)   2.102
Last Correction   2025/01/13 21:20:56
Memo.             
[...]
     201      249      261      236      205      156       82        2 
     -40        0      106      210      247      199      145      151 
     179      180      151      108       75       44       13        8 
      40      114      218      314      348      311      236      145 
      62      -17      -78      -90      -43       52      149      222 
     282      310      292      236      155       70      -18      -98 
    -121      -83      -22       18       -1      -81     -156     -187 
    -183     -170     -157     -114      -22       79      151      180 
     205      253      309      341      336      294      247      199 
     143       76        6      -31      -25        4       68      152 
     220      248      207      108       -4      -90     -113      -71 
     -28      -17        5       78      162      214      248      271 
     261      249      267      299      318      303      256      205 
     179      174      180      195      237      321      388      379 
     279      125       -2      -60      -51       -6       21       33 
      58       90      106      105      110      153      222      251 
     224      163       89       27      -12      -32      -35      -41 
     -37      -16        5       28       71      139      199      210 
     168       98       25      -31      -56      -43       13       99 
     179      228      225      163       71        9       33      125 
     206      249      282      305      294      252      224      224 
     241      255      249      234      233      241      244      226 
     182      124       89       91      128      174      189      157 
     108       56       18       -9      -27       -2       68      144 
     182      156       68      -17      -37       12       93      166 
     207      222      210      172      118       64       21       -5 
       2       52      121      191      245      247      203      164 
     130       93       90      143      230      325      402      432 
     400      326      230      139       78       60       75      103 
     125      147      182      195      148       54      -41      -95 
     -76        0       56       82      124      167      167       98 
      -9      -82      -82      -36       -4       -6      -36      -64 
     -55      -14       32       78      122      168      171      109 
      28       -9      -14      -27      -51      -55       -9       75 
     144      182      211      243      264      256      228      198 
     155       94       47       41       86      163      243      290 
     290      255      186      105       44       13        1        6 
      29       63      101      140      180      240      332      441 
     504      476      380      291      252      233      184      121 
      83       83      108      132      144      162      194      217 
     178       55      -81     -151     -139      -87      -36       35 
     143      263      361      398      373      356      373      372 
     298      178       83       52       76      117      148      171 
     187      207      230      225      198      164      105        9 
    -105     -201     -234     -201     -126      -51        0       27 
      40       36       13        4       45      126      186      184 
     133       62      -14      -95     -152     -162     -140      -90 
     -20       36       60       54        8      -62     -120     -136 
    -116      -94      -82      -56      -10       44       78       64 
       9      -45      -39       35      116      178      230      268 
     271      228      143       52       -1        1       60      139 
     191      216      228      245      284      326      352      353 
     332      292      236      179      147      144      171      234 
     325      419      503      562      576      533      444      330 
     234      193      197      202      167      101       24      -74 
    -168     -184      -75      112      275      357      348      270 
     182      113       51       -1      -10       36      110      167 
     194      194      156       95       40       27       70      140 
     199      228      240      260      267      236      201      199 
     218      225      203      156       98       56       35       14 
      -6       -6       22       68      102      105       66        0 
     -67     -122     -162     -159      -79       64      218      325 
     355      295      162       14      -94     -163     -189     -148 
     -32      114      247      322      318      259      184      110 
      44        2        8       63      153      238      267      233 
     183      159      159      166      182      207      207      168 
     118       93      103      125      126      108       99      106 
     101       90      102      135      168      217      279      313 
     310      287      260      248      243      244      251      260 
     274      275      245      193      152      136      141      145 
     139      144      174      189      145       47      -68     -144 
    -141      -82      -13       43       86      116      141      174 
     211      238      243      222      178      116       83      108 
     159      203      232      249      272      298      287      238 
     194      160      101        8      -82     -129     -112      -49 
      13       54       56       14      -40      -70      -62      -12 
      64      141      197      209      175      112       29      -35 
     -17       75      201      321      405      437      422      371 
     292      217      182      166      157      176      203      221 
     244      282      305      284      222      153      117       98 
      93      112      133      137      108       37      -24      -44 
     -36       -8       37       78       85       72       59       48 
      59       98      153      214      245      225      183      168 
     206      275      329      333      279      206      168      171 
     197      222      245      263      255      202       99      -22 
    -101      -86        4      105      160      157      124       94 
      74       83      132      189      247      319      371      351 
     278      214      179      147       99       62       72      106 
     126      125      102       62       18      -20      -70     -122 
    -128      -87      -29       35       76       87       89       87 
      90       89       89       99      106       86       31      -32 
     -68      -71      -44       -6       -1      -40     -106     -184 
    -234     -216     -124       27      189      275      249      175 
     126      148      213      252      230      182      147      133 
     136      174      241      298      306      275      234      183 
     124       94      120      184      232      221      157       76 
       5      -55      -75      -18       86      190      265      299 
     274      191      106       63       58       72       82       67 
      18      -18        5       81      163      221      245      241 
     207      148       86       43       63      152      211      174 
      93       37       28       54       82      102      140      175 
     159       94       59      110      203      247      213      135 
      63       27       10       21      102      255      423      502 
     415      207        4     -125     -190     -209     -176      -70 
      86      199      209      144       72       40       63      105 
      99       27      -55      -70       -1      108      214      279 
     301      284      243      206      203      236      252      209 
     133       52        2       36      139      244      305      313 
     282      260      274      314      364      414      467      488 
     409      218        8     -121     -170     -180     -157      -97 
      -5       99      182      218      214      178      112       21 
     -55      -60        5       82      120      106       47       -9 
     -12       39      108      186      271      361      433      432 
     307       90     -114     -221     -210     -108       14      103 
     162      191      205      248      298      274      176       54 
     -75     -199     -261     -228     -133      -36       24       27 
     -37     -126     -152      -49      130      288      373      364 
     271      160       87       52       32       47       91      113 
      60      -74     -224     -283     -225     -132      -95     -102 
    -108     -112     -106      -66       20      164      351      481 
     487      411      333      301      333      391      399      311 
     148      -18     -120     -140      -67       90      260      383 
     456      480      437      346      259      182       89      -27 
    -143     -229     -278     -311     -349     -337     -189       70 
     310      427      402      341      356      445      546      584 
     511      376      280      275      314      295      186       51 
     -59     -141     -148      -28      170      363      502      556 
     519      413      245       55      -95     -202     -314     -441 
    -480     -333      -39      240      338      218       -1     -156 
    -145       10      205      310      268      126      -14      -90 
    -102      -97      -90      -27      160      457      723      807 
     675      384        2     -380     -656     -739     -626     -395 
    -168      -29       -1      -32      -21       63      172      318 
     583      927     1175     1170      897      442      -63     -479 
    -718     -754     -587     -255      143      473      637      626 
     538      444      306      103      -75     -124      -54       55 
     148      183      110      -82     -357     -587     -592     -303 
     149      542      764      826      774      623      359       40 
    -186     -210      -47      164      299      352      392      419 
     317       47     -190     -191       12      260      422      418 
     260       36     -184     -338     -333     -143      160      468 
     680      710      519      214      -47     -230     -351     -359 
    -224      -10      228      457      599      621      584      535 
     487      413      257        8     -257     -465     -583     -556 
    -390     -207      -66       93      294      477      572      594 
     645      764      822      652      257     -162     -376     -329 
    -168      -12      140      292      400      394      267      121 
      59       93      174      202      106      -70     -252     -387 
    -421     -318      -86      234      515      558      299      -93 
    -414     -580     -616     -533     -328      -45      232      436 
     554      654      776      880      849      626      328       79 
    -126     -324     -471     -480     -334     -103      167      418 
     546      522      421      255       24     -174     -251     -179 
       8      198      334      423      477      479      353       89 
    -236     -510     -657     -631     -445     -248     -139      -51 
      44      120      174      168      109      113      229      353 
     386      336      318      426      577      630      542      337 
      55     -224     -384     -332      -99      166      337      398 
     392      333      190      -47     -313     -473     -418     -203 
     -16       44       35        2      -78     -191     -294     -317 
    -179      118      486      800      965      955      797      552 
     302       85     -147     -399     -584     -629     -518     -275 
      13      261      444      568      600      531      436      324 
     167       83      157      299      402      433      348      129 
    -121     -303     -405     -419     -317     -116       85      221 
     279      274      278      330      328      164      -75     -194 
     -87      252      781     1316     1626     1599     1220      541 
    -248     -912    -1344    -1483    -1252     -711      -74      437 
     691      654      394       44     -220     -251      -60      206 
     430      598      745      796      591      156     -268     -461 
    -332       20      365      598      769      847      739      409 
     -99     -611     -940    -1054    -1004     -866     -703     -468 
     -66      459      873      965      770      483      237       63 
     -97     -298     -473     -494     -309       63      529      924 
    1108     1003      626      141     -253     -494     -580     -479 
    -216      105      379      529      546      448      253       24 
    -151     -197      -91      105      287      410      496      530 
     467      301       74     -117     -189     -121       21      112 
      83        6        2      106      259      423      626      841 
     913      691      183     -400     -769     -746     -367      189 
     665      913      994      957      766      461      135     -194 
    -523     -838    -1109    -1113     -579      394     1368     1894 
    1746     1040      114     -664    -1078    -1081     -747     -228 
     292      673      853      820      571      157     -311     -800 
   -1274    -1564    -1487    -1007     -210      679     1286     1345 
     924      287     -333     -783     -954     -799     -307      468 
    1336     2018     2322     2153     1497      507     -465    -1094 
   -1344    -1370    -1233     -923     -475       41      496      741 
     764      697      676      738      820      804      650      449 
     248      -39     -430     -772     -911     -801     -460       55 
     604      982     1016      658       74     -411     -596     -540 
    -361     -163      -56       21      248      579      799      862 
     888      881      715      341      -91     -396     -526     -468 
    -234       78      396      630      650      445      126     -205 
    -511     -733     -745     -488        2      704     1503     2068 
    2072     1495      589     -319    -1011    -1390    -1391    -1005 
    -325      463     1077     1318     1224      993      766      481 
      49     -471     -885     -954     -616     -116      260      425 
     418      278       71      -70      -52       95      272      359 
     267       37     -163     -191      -14      328      723      996 
     999      727      334      -45     -403     -719     -880     -735 
    -244      407      918     1152     1144      897      414     -172 
    -646     -888     -936     -846     -641     -371       10      592 
    1121     1227      877      305     -210     -427     -334     -106 
      85      140       82       33      114      340      577      652 
     483      108     -322     -599     -576     -249      271      831 
    1220     1240      837      183     -410     -764     -877     -796 
    -491       62      751     1340     1591     1429      945      271 
    -391     -835     -970     -780     -309      237      595      685 
     572      336       94      -62     -167     -203      -48      298 
     681      928      926      668      248     -205     -572     -734 
    -631     -349       -8      314      526      561      429      217 
      17     -105      -98       47      317      673      951      954 
     688      265     -218     -583     -675     -572     -423     -287 
    -159       27      291      484      425      108     -340     -727 
    -845     -619     -159      409      943     1217     1131      842 
     502      178      -27     -124     -222     -313     -330     -292 
    -211      -49      218      540      758      742      480      118 
    -162     -305     -365     -372     -287     -112       60      155 
     164      106        5     -124     -275     -391     -376     -232 
      -1      278      515      641      638      517      340      202 
     144      103        8     -144     -330     -471     -456     -291 
    -108       16      124      284      517      722      760      612 
     337       22     -245     -436     -498     -394     -172       87 
     348      623      942     1221     1270      973      426     -193 
    -746    -1120    -1198     -949     -496        2      422      660 
     706      626      454      175     -191     -577     -880     -965 
    -791     -413       81      546      861      984      908      681 
     373       60     -156     -216     -152      -10      214      444 
     490      294      -21     -284     -371     -301     -182      -45 
     121      280      363      321      152      -95     -338     -495 
    -499     -355     -136       74      251      360      361      319 
     301      288      264      182       -4     -226     -334     -224 
      49      324      472      469      340      171       86      105 
     155      213      299      413      535      656      751      735 
     565      282      -97     -525     -853     -934     -742     -364 
      62      417      662      823      895      820      567      152 
    -317     -706     -907     -861     -596     -220      171      491 
     681      720      599      318      -28     -240     -233     -116 
     -14       32       45       29       -6      -31      -10      122 
     394      677      787      654      391      128     -133     -422 
    -670     -756     -633     -386     -133       74      248      402 
     507      518      436      294      105      -60      -85       12 
      78       56        8       -8       44      147      229      265 
     295      313      251      121        9      -52      -49       21 
     109      164      176      129       10     -145     -279     -332 
    -260      -76      155      369      518      558      488      383 
     346      384      407      330      147      -91     -314     -441 
    -402     -164      189      492      646      653      583      507 
     441      379      328      276      205      102      -32     -157 
    -228     -222     -148      -56       29      157      338      511 
     607      573      390      125      -99     -206     -207     -148 
     -28      157      344      457      427      252       48      -82 
    -149     -162      -95       22      137      271      423      496 
     425      249       21     -210     -367     -383     -233       48 
     361      579      677      692      614      445      232       16 
    -157     -264     -315     -328     -283     -167       16      205 
     255       98     -162     -365     -437     -386     -278     -148 
      60      372      635      726      681      599      498      342 
     143      -36     -122      -93       10      133      230      292 
     326      318      263      190      116       22      -91     -193 
    -248     -243     -153       25      260      481      618      641 
     553      379      193       64       22       32       21      -36 
    -108     -164     -180     -136      -45       63      198      355 
     510      616      585      433      274      136      -13     -145 
    -221     -255     -253     -213     -160     -128      -93      -12 
     116      244      298      251      159       91       58       40 
