Origin Time       2025/01/13 21:19:00
Lat.              31.8
Long.             131.6
Depth. (km)       30
Mag.              6.9
Station Code      TKS006
Station Lat.      33.6689
Station Long.     134.4191
Station Height(m) 2
Record Time       2025/01/13 21:20:57
Sampling Freq(Hz) 100Hz
Duration Time(s)  60
Dir.              E-W
Scale Factor      7845(gal)/8223790
Max. Acc. (gal)   1.667
Last Correction   2025/01/13 21:20:57
Memo.             
[...]
   -3450    -3549    -3623    -3662    -3711    -3765    -3780    -3754 
   -3709    -3631    -3541    -3503    -3510    -3511    -3510    -3516 
   -3519    -3515    -3537    -3576    -3547    -3438    -3341    -3281 
   -3213    -3179    -3237    -3319    -3365    -3418    -3468    -3457 
   -3412    -3380    -3369    -3369    -3369    -3387    -3439    -3485 
   -3510    -3543    -3572    -3565    -3532    -3483    -3442    -3453 
   -3519    -3620    -3726    -3796    -3848    -3889    -3885    -3870 
   -3850    -3790    -3728    -3686    -3674    -3709    -3742    -3734 
   -3716    -3701    -3688    -3684    -3684    -3657    -3612    -3566 
   -3503    -3447    -3418    -3402    -3423    -3451    -3438    -3418 
   -3400    -3377    -3388    -3419    -3411    -3360    -3300    -3256 
   -3246    -3288    -3358    -3420    -3462    -3483    -3470    -3430 
   -3402    -3407    -3449    -3505    -3519    -3481    -3433    -3418 
   -3451    -3493    -3503    -3499    -3516    -3554    -3607    -3697 
   -3785    -3784    -3713    -3639    -3581    -3559    -3562    -3566 
   -3555    -3523    -3478    -3453    -3454    -3457    -3438    -3408 
   -3361    -3310    -3268    -3237    -3246    -3306    -3389    -3462 
   -3500    -3532    -3569    -3577    -3562    -3573    -3593    -3551 
   -3462    -3420    -3457    -3534    -3624    -3711    -3750    -3711 
   -3626    -3546    -3489    -3457    -3445    -3429    -3399    -3388 
   -3424    -3468    -3496    -3514    -3470    -3388    -3360    -3396 
   -3461    -3526    -3558    -3562    -3559    -3547    -3557    -3620 
   -3694    -3739    -3771    -3784    -3762    -3761    -3809    -3852 
   -3850    -3819    -3775    -3727    -3685    -3667    -3672    -3674 
   -3645    -3576    -3501    -3449    -3430    -3461    -3510    -3526 
   -3499    -3433    -3362    -3330    -3304    -3269    -3260    -3281 
   -3314    -3365    -3418    -3446    -3474    -3504    -3493    -3460 
   -3472    -3514    -3534    -3546    -3550    -3537    -3537    -3562 
   -3595    -3586    -3532    -3483    -3442    -3393    -3370    -3383 
   -3423    -3477    -3515    -3516    -3488    -3484    -3516    -3534 
   -3538    -3566    -3607    -3643    -3686    -3712    -3709    -3686 
   -3635    -3561    -3501    -3451    -3407    -3404    -3445    -3489 
   -3508    -3489    -3454    -3408    -3352    -3323    -3353    -3407 
   -3461    -3524    -3577    -3595    -3608    -3651    -3699    -3743 
   -3801    -3839    -3821    -3782    -3736    -3655    -3546    -3462 
   -3420    -3384    -3338    -3318    -3327    -3306    -3233    -3186 
   -3169    -3123    -3061    -3033    -3061    -3156    -3269    -3346 
   -3379    -3393    -3430    -3485    -3537    -3582    -3616    -3626 
   -3620    -3626    -3662    -3717    -3750    -3757    -3770    -3790 
   -3794    -3786    -3789    -3785    -3753    -3709    -3674    -3638 
   -3592    -3578    -3615    -3639    -3622    -3589    -3564    -3561 
   -3566    -3565    -3558    -3550    -3553    -3569    -3578    -3558 
   -3523    -3492    -3447    -3402    -3392    -3408    -3430    -3462 
   -3492    -3507    -3523    -3543    -3545    -3530    -3491    -3423 
   -3341    -3273    -3242    -3260    -3308    -3345    -3364    -3387 
   -3385    -3337    -3295    -3307    -3345    -3357    -3350    -3389 
   -3488    -3595    -3663    -3696    -3726    -3765    -3780    -3793 
   -3861    -3942    -3981    -4006    -4047    -4066    -4050    -4032 
   -4005    -3958    -3916    -3850    -3738    -3639    -3570    -3520 
   -3488    -3443    -3366    -3287    -3244    -3241    -3258    -3264 
   -3234    -3192    -3165    -3159    -3188    -3273    -3392    -3519 
   -3635    -3697    -3700    -3694    -3696    -3707    -3754    -3847 
   -3931    -3946    -3916    -3861    -3770    -3670    -3586    -3523 
   -3501    -3510    -3519    -3519    -3505    -3466    -3406    -3362 
   -3384    -3460    -3519    -3535    -3554    -3593    -3616    -3627 
   -3645    -3657    -3658    -3650    -3613    -3538    -3464    -3412 
   -3350    -3261    -3173    -3125    -3113    -3119    -3138    -3145 
   -3127    -3118    -3141    -3160    -3179    -3262    -3396    -3505 
   -3601    -3700    -3762    -3800    -3846    -3898    -3956    -4002 
   -4006    -3982    -3947    -3883    -3811    -3766    -3730    -3659 
   -3564    -3476    -3414    -3372    -3325    -3257    -3187    -3137 
   -3117    -3127    -3173    -3244    -3294    -3287    -3250    -3246 
   -3300    -3387    -3460    -3474    -3442    -3403    -3384    -3407 
   -3450    -3484    -3505    -3515    -3516    -3534    -3576    -3601 
   -3566    -3445    -3262    -3110    -3040    -3048    -3111    -3206 
   -3331    -3481    -3582    -3582    -3522    -3415    -3241    -3094 
   -3088    -3204    -3376    -3555    -3704    -3788    -3758    -3659 
   -3616    -3630    -3616    -3554    -3451    -3341    -3280    -3300 
   -3418    -3607    -3738    -3693    -3520    -3299    -3080    -2963 
   -3006    -3132    -3234    -3271    -3273    -3280    -3303    -3335 
   -3345    -3322    -3316    -3368    -3445    -3503    -3559    -3634 
   -3685    -3700    -3703    -3680    -3628    -3564    -3480    -3395 
   -3377    -3454    -3586    -3728    -3855    -3954    -4000    -3956 
   -3819    -3624    -3453    -3368    -3357    -3376    -3427    -3492 
   -3508    -3496    -3504    -3510    -3483    -3411    -3315    -3268 
   -3321    -3453    -3618    -3762    -3831    -3812    -3769    -3762 
   -3786    -3827    -3881    -3947    -4031    -4155    -4293    -4349 
   -4287    -4147    -3964    -3790    -3701    -3713    -3784    -3858 
   -3890    -3869    -3789    -3646    -3474    -3284    -3061    -2860 
   -2728    -2651    -2640    -2701    -2812    -2953    -3088    -3160 
   -3175    -3192    -3207    -3196    -3184    -3186    -3198    -3218 
   -3217    -3214    -3250    -3314    -3418    -3626    -3910    -4194 
   -4401    -4387    -4114    -3746    -3446    -3316    -3427    -3712 
   -4013    -4232    -4333    -4313    -4221    -4132    -4041    -3917 
   -3785    -3655    -3512    -3397    -3334    -3308    -3323    -3365 
   -3392    -3372    -3329    -3329    -3391    -3474    -3561    -3674 
   -3773    -3809    -3774    -3658    -3487    -3322    -3177    -3060 
   -3028    -3150    -3407    -3676    -3846    -3854    -3709    -3535 
   -3464    -3487    -3484    -3387    -3265    -3207    -3195    -3210 
   -3272    -3364    -3411    -3381    -3342    -3391    -3518    -3628 
   -3676    -3696    -3707    -3723    -3777    -3827    -3807    -3732 
   -3624    -3481    -3352    -3294    -3289    -3307    -3358    -3435 
   -3466    -3427    -3326    -3176    -3063    -3078    -3242    -3507 
   -3775    -3977    -4126    -4248    -4322    -4325    -4264    -4145 
   -3971    -3759    -3568    -3465    -3461    -3497    -3555    -3647 
   -3709    -3672    -3565    -3426    -3277    -3194    -3204    -3222 
   -3169    -3073    -2998    -2995    -3061    -3164    -3283    -3400 
   -3493    -3530    -3547    -3630    -3738    -3774    -3719    -3597 
   -3411    -3163    -2909    -2710    -2589    -2560    -2646    -2817 
   -3003    -3200    -3429    -3631    -3748    -3778    -3738    -3701 
   -3746    -3855    -4014    -4253    -4487    -4549    -4390    -4087 
   -3758    -3473    -3275    -3219    -3326    -3503    -3613    -3620 
   -3511    -3267    -2990    -2805    -2712    -2721    -2925    -3295 
   -3638    -3781    -3701    -3499    -3287    -3086    -2905    -2816 
   -2875    -3071    -3352    -3616    -3788    -3882    -3925    -3863 
   -3647    -3391    -3249    -3238    -3304    -3429    -3593    -3753 
   -3865    -3901    -3847    -3732    -3651    -3669    -3731    -3754 
   -3716    -3639    -3559    -3512    -3495    -3466    -3430    -3412 
   -3385    -3285    -3152    -3098    -3150    -3230    -3260    -3250 
   -3203    -3100    -3011    -3022    -3140    -3345    -3657    -4056 
   -4434    -4691    -4843    -4935    -4969    -4955    -4887    -4704 
   -4399    -4044    -3727    -3496    -3341    -3227    -3156    -3136 
   -3138    -3141    -3167    -3235    -3352    -3489    -3592    -3609 
   -3554    -3462    -3366    -3287    -3262    -3325    -3469    -3665 
   -3831    -3915    -3973    -4035    -4041    -3958    -3805    -3676 
   -3650    -3658    -3574    -3399    -3200    -3044    -3010    -3113 
   -3235    -3237    -3078    -2856    -2704    -2664    -2705    -2772 
   -2826    -2882    -3003    -3234    -3554    -3888    -4170    -4357 
   -4382    -4260    -4106    -3916    -3631    -3316    -3051    -2852 
   -2771    -2857    -3026    -3126    -3084    -2925    -2754    -2702 
   -2856    -3188    -3595    -3996    -4280    -4320    -4117    -3834 
   -3618    -3501    -3503    -3619    -3797    -3974    -4055    -3997 
   -3920    -3937    -4037    -4122    -4070    -3832    -3472    -3013 
   -2500    -2088    -1969    -2238    -2758    -3242    -3512    -3592 
   -3595    -3588    -3604    -3672    -3812    -3986    -4089    -4095 
   -4044    -3948    -3843    -3734    -3650    -3699    -3847    -3943 
   -3915    -3796    -3658    -3561    -3468    -3306    -3065    -2799 
   -2565    -2404    -2324    -2309    -2392    -2592    -2886    -3258 
   -3674    -4024    -4201    -4217    -4117    -3915    -3685    -3550 
   -3514    -3505    -3532    -3631    -3771    -3923    -4059    -4125 
   -4097    -3993    -3875    -3850    -3937    -4020    -3991    -3866 
   -3694    -3514    -3365    -3334    -3470    -3705    -3863    -3858 
   -3777    -3744    -3778    -3792    -3715    -3596    -3474    -3280 
   -3032    -2893    -2899    -2922    -2921    -2967    -3115    -3384 
   -3650    -3704    -3454    -2990    -2577    -2474    -2748    -3370 
   -4193    -4891    -5213    -5157    -4868    -4533    -4247    -3996 
   -3801    -3715    -3744    -3874    -4035    -4077    -3933    -3639 
   -3267    -2952    -2787    -2693    -2575    -2451    -2384    -2417 
   -2558    -2776    -2967    -3007    -2889    -2706    -2566    -2542 
   -2683    -2971    -3296    -3537    -3639    -3607    -3468    -3298 
   -3225    -3331    -3555    -3769    -3888    -3931    -4036    -4310 
   -4650    -4884    -4941    -4788    -4437    -4000    -3673    -3605 
   -3758    -3977    -4141    -4166    -3985    -3627    -3213    -2818 
   -2438    -2084    -1857    -1880    -2203    -2743    -3260    -3512 
   -3481    -3338    -3217    -3196    -3384    -3800    -4221    -4414 
   -4394    -4309    -4239    -4206    -4221    -4233    -4153    -3974 
   -3809    -3726    -3604    -3357    -3064    -2790    -2536    -2388 
   -2401    -2492    -2559    -2574    -2575    -2691    -2988    -3385 
   -3759    -4033    -4183    -4244    -4282    -4355    -4429    -4392 
   -4237    -4039    -3836    -3662    -3564    -3591    -3731    -3813 
   -3699    -3446    -3188    -2995    -2887    -2867    -2894    -2926 
   -2970    -3007    -2998    -2968    -2971    -3055    -3284    -3665 
   -4106    -4506    -4772    -4819    -4625    -4290    -4014    -3933 
   -4004    -4120    -4206    -4174    -3981    -3693    -3384    -3094 
   -2878    -2772    -2818    -3037    -3350    -3616    -3766    -3831 
   -3888    -3993    -4126    -4212    -4156    -3892    -3503    -3191 
   -3041    -3003    -3019    -3059    -3134    -3271    -3447    -3565 
   -3462    -3092    -2652    -2394    -2435    -2760    -3246    -3667 
   -3858    -3844    -3736    -3630    -3615    -3712    -3846    -3942 
   -3994    -4005    -3932    -3797    -3662    -3543    -3470    -3442 
   -3368    -3244    -3168    -3207    -3372    -3588    -3742    -3766 
   -3657    -3458    -3275    -3227    -3330    -3439    -3449    -3350 
   -3159    -2918    -2710    -2559    -2455    -2463    -2689    -3148 
   -3692    -4109    -4251    -4105    -3817    -3616    -3674    -4021 
   -4463    -4685    -4530    -4153    -3866    -3836    -3978    -4126 
   -4149    -3936    -3499    -3056    -2849    -2925    -3127    -3258 
   -3214    -2990    -2682    -2477    -2465    -2569    -2756    -3098 
   -3574    -4024    -4301    -4368    -4228    -3865    -3358    -2938 
   -2794    -2929    -3233    -3577    -3871    -4087    -4218    -4288 
   -4302    -4212    -4021    -3808    -3619    -3464    -3348    -3276 
   -3237    -3211    -3217    -3264    -3330    -3380    -3366    -3262 
   -3118    -3018    -2999    -3011    -2994    -2940    -2872    -2768 
   -2620    -2512    -2535    -2705    -3021    -3400    -3704    -3924 
   -4139    -4326    -4411    -4386    -4342    -4391    -4536    -4685 
   -4783    -4815    -4781    -4654    -4438    -4183    -3900    -3562 
   -3145    -2675    -2292    -2138    -2216    -2436    -2693    -2910 
   -3072    -3187    -3245    -3268    -3303    -3389    -3551    -3767 
   -3986    -4186    -4334    -4380    -4326    -4240    -4117    -3910 
   -3647    -3375    -3118    -2937    -2880    -2926    -2983    -2990 
   -2990    -3034    -3106    -3172    -3211    -3215    -3219    -3280 
   -3410    -3553    -3663    -3736    -3747    -3709    -3705    -3766 
   -3828    -3829    -3747    -3650    -3653    -3751    -3847    -3863 
   -3782    -3649    -3557    -3578    -3690    -3854    -4077    -4315 
   -4472    -4544    -4545    -4433    -4197    -3893    -3627    -3446 
   -3307    -3190    -3092    -2968    -2790    -2625    -2565    -2635 
   -2743    -2748    -2616    -2436    -2331    -2393    -2627    -2955 
   -3334    -3744    -4098    -4336    -4540    -4797    -5081    -5267 
   -5267    -5098    -4824    -4526    -4261    -3998    -3688    -3306 
   -2836    -2373    -2089    -2035    -2157    -2378    -2616    -2813 
   -2924    -2895    -2766    -2636    -2575    -2633    -2841    -3130 
   -3414    -3694    -3967    -4183    -4325    -4356    -4243    -4027 
   -3785    -3609    -3520    -3468    -3460    -3499    -3496    -3433 
   -3410    -3457    -3483    -3419    -3321    -3237    -3175    -3203 
   -3387    -3661    -3897    -3996    -3944    -3786    -3582    -3441 
   -3458    -3613    -3804    -3967    -4091    -4148    -4140    -4097 
   -4006    -3862    -3635    -3273    -2878    -2659    -2666    -2785 
   -2945    -3106    -3186    -3141    -3051    -3041    -3107    -3177 
   -3258    -3341    -3397    -3469    -3574    -3689    -3753    -3743 
   -3746    -3785    -3788    -3746    -3704    -3681    -3663    -3615 
   -3555    -3519    -3472    -3385    -3269    -3144    -3024    -2987 
   -3080    -3223    -3342    -3445    -3557    -3697    -3843    -3919 
   -3874    -3731    -3545    -3393    -3348    -3447    -3700    -4027 
   -4276    -4332    -4189    -3942    -3708    -3574    -3535    -3514 
   -3480    -3431    -3334    -3194    -3098    -3110    -3213    -3335 
   -3430    -3477    -3468    -3433    -3442    -3501    -3569    -3628 
   -3688    -3761    -3839    -3866    -3846    -3843    -3855    -3834 
   -3753    -3615    -3461    -3358    -3345    -3368    -3339    -3215 
   -3022    -2835    -2718    -2732    -2889    -3094    -3235    -3292 
   -3284    -3261    -3300    -3414    -3520    -3564    -3545    -3473 
   -3391    -3389    -3528    -3731    -3877    -3958    -4013    -4029 
   -3987    -3920    -3893    -3910    -3923    -3892    -3816    -3720 
   -3632    -3578    -3551    -3516    -3501    -3568    -3688    -3780 
   -3807    -3766    -3673    -3568    -3505    -3532    -3642    -3732 
   -3665    -3447    -3234    -3095    -3025    -3033    -3065    -3061 
   -3042    -3040    -3056    -3109    -3215    -3353    -3445    -3469 
   -3485    -3492    -3484    -3532    -3670    -3831    -3963    -4051 
   -4040    -3898    -3712    -3591    -3537    -3500    -3461    -3418 
   -3400    -3445    -3558    -3726    -3863    -3893    -3851    -3774 
   -3663    -3574    -3541    -3519    -3468    -3406    -3381    -3404 
   -3446    -3501    -3569    -3597    -3558    -3496    -3431    -3368 
   -3353    -3373    -3366    -3352    -3385    -3461    -3522    -3531 
   -3495    -3429    -3366    -3337    -3321    -3315    -3357    -3422 
   -3465    -3487    -3464    -3397    -3335    -3262    -3188    -3195 
   -3291    -3408    -3484    -3520    -3526    -3457    -3345    -3265 
   -3219    -3211    -3272    -3372    -3458    -3515    -3543    -3546 
   -3550    -3557    -3562    -3589    -3635    -3676    -3723    -3790 
   -3865    -3905    -3870    -3798    -3765    -3753    -3709    -3638 
   -3581    -3570    -3607    -3672    -3724    -3750    -3778    -3821 
   -3863    -3915    -3981    -4025    -4033    -4009    -3951    -3915 
   -3902    -3873    -3842    -3789    -3628    -3379    -3126    -2902 
   -2718    -2623    -2640    -2724    -2797    -2799    -2763    -2771 
   -2828    -2899    -2970    -3028    -3083    -3146    -3207    -3296 
   -3483    -3746    -3979    -4120    -4175    -4185    -4180    -4139 
   -4041    -3943    -3878    -3815    -3746    -3693    -3645    -3558 
   -3407    -3230    -3079    -2963    -2920    -2978    -3067    -3110 
   -3118    -3134    -3169    -3200    -3235    -3294    -3395    -3543 
   -3717    -3886    -4041    -4166    -4256    -4332    -4361    -4284 
   -4133    -3986    -3846    -3705    -3613    -3588    -3569    -3539 
   -3534    -3511    -3416    -3265    -3095    -2965    -2926    -2970 
   -3083    -3254    -3414    -3484    -3484    -3485    -3503    -3476 
   -3384    -3273    -3192    -3167    -3219    -3337    -3445    -3496 
   -3514    -3510    -3492    -3508    -3535    -3541    -3547    -3551 
   -3570    -3630    -3684    -3701    -3705    -3734    -3796    -3846 
   -3840    -3770    -3645    -3532    -3530    -3615    -3694    -3769 
   -3846    -3870    -3834    -3773    -3699    -3615    -3516    -3458 
   -3516    -3636    -3743    -3815    -3789    -3661    -3535    -3453 
   -3400    -3388    -3381    -3326    -3252    -3191    -3134    -3083 
   -3053    -3057    -3082    -3094    -3117    -3173    -3231    -3273 
   -3304    -3325    -3335    -3338    -3329    -3316    -3330    -3397 
   -3503    -3584    -3611    -3611    -3613    -3643    -3678    -3685 
   -3699    -3750    -3801    -3823    -3847    -3917    -3993    -4010 
   -3979    -3928    -3878    -3870    -3923    -4001    -4025    -3956 
   -3829    -3734    -3727    -3790    -3854    -3871    -3850    -3808 
   -3754    -3715    -3717    -3727    -3701    -3649    -3591    -3543 
   -3510    -3481    -3456    -3434    -3400    -3358    -3292    -3181 
   -3084    -3055    -3052    -3014    -2928    -2829    -2775    -2798 
   -2903    -3084    -3302    -3493    -3605    -3630    -3636    -3686 
   -3754    -3825    -3925    -4021    -4077    -4091    -4058    -3994 
   -3929    -3848    -3747    -3632    -3508    -3400    -3329    -3298 
   -3294    -3271    -3217    -3168    -3132    -3095    -3072    -3083 
   -3121    -3173    -3227    -3298    -3377    -3446    -3495    -3493 
   -3441    -3400    -3404    -3419    -3416    -3415    -3434    -3447 
   -3453    -3493    -3559    -3603    -3628    -3649    -3651    -3661 
   -3681    -3677    -3647    -3600    -3543    -3520    -3550    -3603 
   -3642    -3640    -3586    -3491    -3388    -3281    -3192    -3152 
   -3118    -3044    -2990    -3024    -3123    -3231    -3315    -3372 
   -3385    -3348    -3314    -3312    -3337    -3412    -3530    -3612 
