Origin Time       2025/01/13 21:19:00
Lat.              31.8
Long.             131.6
Depth. (km)       30
Mag.              6.9
Station Code      TKS008
Station Lat.      33.9341
Station Long.     134.2113
Station Height(m) 337
Record Time       2025/01/13 21:20:57
Sampling Freq(Hz) 100Hz
Duration Time(s)  60
Dir.              E-W
Scale Factor      7845(gal)/8223790
Max. Acc. (gal)   2.271
Last Correction   2025/01/13 21:20:56
Memo.             
[...]
    6168     6130     6019     5868     5721     5601     5536     5579 
    5733     5931     6115     6257     6355     6403     6392     6350 
    6308     6274     6254     6234     6184     6107     6033     5952 
    5875     5844     5849     5876     5929     6007     6079     6093 
    6043     5983     5950     5915     5849     5760     5678     5634 
    5659     5734     5827     5914     5988     6045     6077     6087 
    6052     5957     5838     5742     5692     5675     5661     5657 
    5691     5779     5911     6042     6129     6161     6146     6126 
    6115     6084     6015     5931     5865     5857     5917     6022 
    6166     6307     6376     6367     6322     6247     6151     6085 
    6065     6073     6107     6146     6169     6172     6146     6075 
    5965     5871     5837     5861     5917     5996     6087     6149 
    6160     6126     6058     5976     5910     5857     5805     5761 
    5757     5825     5945     6065     6151     6208     6235     6210 
    6123     6003     5873     5753     5692     5711     5775     5854 
    5950     6058     6141     6165     6130     6046     5954     5902 
    5915     5989     6088     6162     6197     6195     6149     6069 
    5958     5833     5759     5786     5890     6035     6197     6324 
    6381     6362     6274     6139     5991     5872     5818     5849 
    5962     6100     6210     6257     6205     6064     5890     5749 
    5672     5655     5697     5782     5896     6031     6130     6149 
    6110     6038     5956     5886     5827     5772     5726     5717 
    5767     5854     5934     5981     6003     6000     5969     5908 
    5848     5822     5842     5914     6038     6195     6324     6377 
    6340     6228     6065     5900     5768     5683     5655     5694 
    5784     5899     6012     6091     6112     6110     6103     6081 
    6049     6011     5967     5934     5914     5911     5946     5994 
    5995     5956     5910     5869     5857     5910     6031     6189 
    6328     6411     6412     6328     6199     6064     5944     5863 
    5850     5896     5971     6057     6133     6170     6177     6174 
    6151     6096     6041     6014     6006     6010     6035     6080 
    6137     6207     6261     6247     6142     5976     5813     5707 
    5686     5721     5780     5850     5899     5890     5818     5699 
    5587     5562     5645     5783     5922     6060     6189     6265 
    6261     6189     6072     5945     5848     5779     5738     5753 
    5822     5914     5996     6042     6069     6081     6039     5946 
    5864     5825     5810     5805     5795     5776     5761     5763 
    5771     5782     5784     5772     5753     5749     5769     5802 
    5829     5842     5875     5961     6081     6178     6212     6168 
    6046     5890     5768     5718     5751     5868     6030     6177 
    6274     6286     6226     6129     6018     5934     5933     6008 
    6115     6220     6309     6353     6324     6242     6143     6058 
    6016     6003     5983     5942     5908     5914     5968     6049 
    6112     6139     6138     6114     6088     6068     6045     6031 
    6043     6073     6120     6157     6122     6011     5879     5764 
    5680     5652     5701     5798     5914     6039     6146     6205 
    6222     6187     6092     5975     5900     5891     5917     5958 
    6023     6110     6195     6259     6272     6220     6146     6080 
    5996     5892     5834     5830     5821     5795     5768     5728 
    5682     5665     5688     5757     5887     6056     6208     6281 
    6247     6143     6022     5918     5869     5900     5964     6003 
    6002     5954     5867     5794     5795     5873     5989     6107 
    6201     6257     6237     6139     6006     5875     5773     5719 
    5719     5784     5886     5967     6002     6007     6008     6016 
    6029     6052     6093     6127     6106     6011     5883     5783 
    5757     5802     5876     5953     6039     6124     6184     6211 
    6184     6095     5977     5863     5783     5765     5815     5904 
    5989     6053     6131     6211     6226     6162     6079     6034 
    6030     6034     6030     6007     5948     5881     5859     5881 
    5933     5992     6023     6016     5992     5965     5954     5958 
    5962     5972     6000     6033     6019     5914     5757     5640 
    5603     5634     5711     5821     5962     6133     6272     6297 
    6219     6103     5973     5860     5792     5749     5709     5688 
    5702     5757     5863     5995     6106     6157     6130     6043 
    5949     5892     5879     5875     5850     5829     5827     5832 
    5837     5857     5891     5940     6010     6075     6102     6096 
    6068     6031     6016     6026     6052     6073     6057     5991 
    5899     5810     5749     5737     5786     5892     6011     6075 
    6065     6025     5987     5964     5965     5967     5930     5873 
    5825     5794     5791     5788     5757     5725     5724     5765 
    5845     5926     5976     5987     5985     5992     5992     5981 
    5968     5950     5948     5976     6008     6011     5981     5940 
    5908     5904     5931     5976     6033     6096     6137     6143 
    6119     6075     6033     5992     5946     5926     5946     5981 
    6003     6019     6048     6103     6176     6232     6251     6237 
    6204     6169     6131     6081     6021     5975     5968     5988 
    5999     5977     5946     5938     5950     5969     5989     5984 
    5934     5867     5811     5763     5715     5683     5679     5725 
    5842     6022     6201     6311     6355     6350     6280     6162 
    6064     6016     6011     6008     5994     5981     5977     5989 
    6031     6088     6115     6099     6058     5991     5904     5859 
    5902     6006     6110     6168     6160     6076     5941     5814 
    5756     5779     5872     6026     6201     6327     6357     6280 
    6137     5975     5823     5733     5724     5753     5769     5771 
    5809     5926     6110     6312     6480     6554     6496     6332 
    6149     6007     5921     5890     5918     5984     6058     6119 
    6143     6110     6049     6026     6053     6091     6124     6124 
    6037     5877     5757     5756     5834     5910     5953     5962 
    5953     5940     5930     5942     5996     6064     6097     6092 
    6091     6104     6093     6046     5995     5960     5948     5948 
    5942     5946     5981     6043     6106     6150     6174     6178 
    6133     6018     5886     5799     5782     5819     5869     5914 
    5977     6058     6139     6212     6274     6330     6343     6266 
    6120     5991     5921     5894     5877     5873     5904     5962 
    6007     6033     6062     6091     6118     6139     6135     6097 
    6050     6010     5995     6037     6146     6211     6129     5991 
    5948     6007     6100     6196     6289     6350     6330     6226 
    6092     5950     5788     5651     5599     5633     5709     5783 
    5837     5875     5918     5965     6002     6041     6104     6156 
    6133     6037     5952     5911     5871     5840     5865     5925 
    5954     5964     6004     6053     6052     6004     5925     5795 
    5648     5571     5611     5741     5934     6141     6242     6161 
    5968     5790     5691     5713     5871     6116     6343     6450 
    6365     6114     5823     5624     5559     5609     5724     5861 
    5976     5994     5894     5784     5786     5921     6123     6303 
    6376     6289     6077     5853     5742     5787     5935     6119 
    6285     6330     6224     6092     6033     6033     6046     6060 
    6048     5972     5829     5649     5452     5294     5286     5451 
    5714     6003     6220     6258     6106     5869     5705     5705 
    5844     6046     6259     6407     6401     6297     6249     6276 
    6285     6235     6124     5967     5814     5724     5730     5819 
    5923     5989     6002     5954     5838     5671     5526     5506 
    5668     5995     6372     6651     6733     6581     6237     5836 
    5536     5421     5454     5521     5578     5640     5679     5705 
    5799     6011     6303     6565     6685     6631     6419     6112 
    5841     5724     5779     5898     5935     5886     5836     5836 
    5838     5799     5761     5771     5783     5788     5859     6012 
    6154     6231     6280     6322     6311     6162     5860     5532 
    5329     5309     5498     5876     6335     6745     6986     6978 
    6767     6439     6073     5764     5552     5432     5422     5509 
    5622     5756     5942     6157     6340     6488     6648     6853 
    7041     7086     6876     6427     5880     5416     5170     5186 
    5390     5647     5840     5929     5984     6104     6307     6563 
    6829     7009     7002     6810     6512     6203     5922     5625 
    5273     4901     4576     4368     4395     4731     5328     6060 
    6786     7348     7565     7308     6640     5836     5229     5051 
    5336     5871     6330     6516     6407     6039     5570     5258 
    5298     5698     6286     6797     6998     6808     6282     5541 
    4811     4398     4469     4959     5675     6411     6963     7177 
    7051     6735     6396     6107     5906     5796     5684     5520 
    5386     5373     5503     5744     6011     6261     6502     6694 
    6759     6674     6473     6223     6003     5850     5768     5728 
    5675     5599     5549     5570     5718     6034     6432     6724 
    6816     6762     6597     6350     6099     5821     5464     5104 
    4854     4783     4892     5101     5354     5674     6114     6666 
    7183     7485     7481     7141     6519     5803     5198     4781 
    4591     4730     5213     5867     6447     6805     6875     6646 
    6246     5922     5771     5729     5745     5745     5629     5436 
    5352     5503     5849     6301     6783     7128     7113     6666 
    5918     5109     4483     4213     4372     4865     5471     6048 
    6524     6804     6906     6949     6968     6949     6887     6768 
    6552     6235     5935     5773     5710     5643     5574     5506 
    5416     5324     5246     5185     5175     5224     5336     5582 
    6000     6501     6934     7177     7167     6941     6586     6195 
    5884     5719     5703     5857     6145     6446     6640     6636 
    6378     5933     5471     5159     5082     5194     5401     5691 
    6112     6637     7092     7295     7172     6710     6002     5347 
    4982     4874     4889     4996     5250     5661     6150     6621 
    6959     7038     6824     6397     5887     5431     5130     5009 
    5077     5366     5836     6330     6685     6770     6550     6137 
    5702     5449     5593     6110     6712     7175     7400     7302 
    6864     6232     5649     5274     5121     5136     5231     5308 
    5359     5451     5611     5775     5857     5896     5995     6158 
    6320     6413     6382     6288     6253     6251     6197     6091 
    5964     5877     5934     6187     6529     6755     6705     6342 
    5773     5212     4828     4685     4758     4976     5306     5753 
    6249     6696     7047     7245     7227     7007     6651     6247 
    5840     5404     4970     4671     4602     4860     5533     6471 
    7307     7720     7542     6808     5759     4768     4217     4299 
    4887     5678     6389     6813     6879     6652     6239     5794 
    5516     5505     5705     6027     6419     6795     7028     6999 
    6694     6204     5670     5197     4850     4710     4835     5171 
    5590     6007     6388     6727     7011     7159     7082     6786 
    6304     5730     5312     5285     5656     6208     6633     6795 
    6752     6552     6239     5896     5582     5363     5281     5233 
    5143     5138     5395     5926     6594     7218     7568     7452 
    6855     5962     5074     4513     4517     5097     6025     6956 
    7531     7530     7052     6423     5954     5742     5636     5459 
    5165     4795     4506     4544     5038     5911     6922     7726 
    8037     7803     7099     6097     5146     4580     4426     4595 
    5093     5837     6577     7056     7167     6960     6519     5944 
    5445     5146     4961     4799     4681     4685     4908     5436 
    6241     7113     7707     7736     7269     6651     6116     5744 
    5625     5772     6010     6099     5950     5601     5108     4622 
    4426     4711     5408     6262     6974     7364     7433     7276 
    6970     6559     6127     5709     5255     4826     4629     4819 
    5368     6053     6666     7156     7506     7669     7549     7033 
    6166     5185     4411     4132     4406     4955     5429     5670 
    5679     5586     5611     5921     6519     7290     7989     8278 
    7940     7071     5960     4905     4170     3955     4364     5242 
    6124     6589     6531     6139     5771     5691     5859     6052 
    6130     6100     5962     5721     5564     5661     5930     6214 
    6455     6596     6548     6315     6037     5895     5952     6115 
    6255     6291     6215     6060     5832     5590     5503     5641 
    5854     6042     6250     6448     6547     6562     6583     6642 
    6723     6837     6933     6794     6224     5305     4338     3676 
    3603     4243     5464     6856     7919     8287     7846     6820 
    5649     4710     4207     4195     4615     5333     6153     6847 
    7234     7244     6928     6397     5850     5601     5741     5994 
    6053     5884     5655     5516     5517     5686     5960     6120 
    5946     5463     4932     4661     4874     5529     6367     7206 
    7873     8159     7990     7384     6438     5436     4642     4128 
    3900     3993     4438     5179     6048     6902     7657     8105 
    8000     7310     6257     5200     4472     4245     4565     5293 
    6106     6760     7167     7218     6853     6199     5497     4984 
    4841     5112     5648     6204     6550     6516     6110     5556 
    5120     4928     4996     5267     5648     6061     6440     6778 
    7061     7183     7059     6718     6245     5757     5364     5093 
    4912     4843     4995     5429     6068     6674     7003     6972 
    6613     6039     5521     5292     5347     5572     5906     6336 
    6824     7240     7438     7357     7005     6438     5772     5131 
    4629     4425     4596     5034     5611     6220     6667     6755 
    6442     5929     5482     5254     5366     5886     6642     7312 
    7628     7479     6886     6010     5157     4627     4529     4846 
    5454     6134     6735     7165     7285     7020     6440     5751 
    5170     4820     4730     4904     5313     5853     6336     6635 
    6762     6794     6766     6631     6303     5788     5247     4878 
    4792     4972     5332     5776     6207     6517     6625     6532 
    6323     6072     5832     5728     5903     6322     6714     6809 
    6574     6160     5699     5317     5146     5246     5547     5881 
    6097     6237     6471     6833     7157     7248     7028     6539 
    5880     5201     4684     4421     4418     4689     5204     5911 
    6756     7528     7911     7771     7214     6436     5698     5223 
    5107     5281     5582     5861     6027     6064     6058     6089 
    6168     6273     6359     6401     6385     6249     5944     5551 
    5274     5258     5425     5625     5792     5890     5890     5841 
    5892     6138     6481     6775     6921     6837     6544     6142 
    5706     5335     5193     5416     5938     6504     6902     6999 
    6681     6006     5314     4942     4972     5358     5983     6573 
    6840     6720     6319     5794     5374     5301     5601     6068 
    6485     6735     6758     6573     6324     6165     6134     6160 
    6116     5930     5652     5447     5451     5668     6053     6492 
    6805     6918     6847     6574     6126     5628     5211     4986 
    5007     5229     5545     5822     5962     5988     5991     6033 
    6106     6211     6381     6597     6733     6671     6473     6304 
    6151     5879     5493     5161     5027     5108     5366     5782 
    6261     6674     6984     7206     7315     7260     7002     6544 
    5964     5421     5086     4977     5038     5270     5664     6135 
    6571     6882     6984     6813     6385     5841     5359     5105 
    5188     5559     6011     6297     6315     6133     5849     5572 
    5459     5579     5806     5960     6003     6031     6096     6091 
    5933     5705     5518     5409     5420     5579     5837     6111 
    6370     6602     6777     6843     6709     6309     5715     5097 
    4629     4504     4868     5609     6417     7047     7388     7402 
    7130     6689     6228     5888     5701     5622     5647     5783 
    5904     5845     5643     5493     5510     5667     5857     6004 
    6080     6100     6112     6153     6250     6385     6473     6448 
    6301     6058     5802     5603     5498     5530     5697     5906 
    6079     6178     6169     6043     5863     5701     5617     5655 
    5810     6007     6145     6220     6303     6423     6543     6558 
    6362     5942     5429     5030     4887     5035     5429     5944 
    6377     6563     6494     6261     5960     5719     5665     5825 
    6123     6409     6507     6345     6027     5726     5518     5409 
    5413     5553     5805     6099     6377     6627     6826     6897 
    6793     6561     6251     5918     5606     5340     5194     5278 
    5584     6011     6432     6683     6669     6458     6204     6004 
    5886     5875     5998     6211     6381     6423     6376     6289 
    6141     5945     5763     5610     5508     5489     5556     5691 
    5895     6178     6493     6687     6666     6454     6103     5683 
    5332     5196     5319     5610     5929     6176     6311     6303 
    6141     5914     5759     5730     5806     5940     6087     6187 
    6176     6077     5996     5984     6016     6054     6087     6102 
    6076     5984     5806     5602     5510     5601     5826     6102 
    6345     6492     6480     6270     5938     5664     5576     5683 
    5915     6189     6407     6465     6326     6042     5742     5560 
    5503     5526     5641     5826     6022     6197     6291     6265 
    6183     6112     6061     5999     5944     5922     5890     5792 
    5657     5552     5493     5481     5522     5624     5794     6008 
    6220     6409     6542     6542     6399     6195     6008     5861 
    5746     5661     5617     5652     5775     5931     6080     6195 
    6247     6235     6180     6114     6056     6007     5981     5988 
    6004     5991     5948     5913     5894     5883     5923     6019 
    6118     6224     6358     6475     6527     6515     6453     6318 
    6111     5931     5868     5892     5935     5952     5906     5778 
    5636     5572     5605     5715     5872     6007     6054     5992 
    5860     5744     5676     5649     5701     5865     6099     6300 
    6386     6308     6079     5806     5621     5607     5775     6038 
