Origin Time       2025/01/13 21:19:00
Lat.              31.8
Long.             131.6
Depth. (km)       30
Mag.              6.9
Station Code      TKS007
Station Lat.      34.0903
Station Long.     134.2854
Station Height(m) 50
Record Time       2025/01/13 21:21:29
Sampling Freq(Hz) 100Hz
Duration Time(s)  68
Dir.              E-W
Scale Factor      7845(gal)/8223790
Max. Acc. (gal)   1.597
Last Correction   2025/01/13 21:21:29
Memo.             
[...]
   -6019    -6045    -6070    -6099    -6135    -6180    -6226    -6273 
   -6323    -6388    -6469    -6550    -6627    -6712    -6802    -6895 
   -6991    -7090    -7191    -7298    -7404    -7503    -7597    -7688 
   -7766    -7846    -7920    -7977    -8028    -8078    -8113    -8135 
   -8143    -8136    -8121    -8100    -8068    -8033    -8004    -7974 
   -7928    -7869    -7805    -7743    -7688    -7630    -7564    -7495 
   -7427    -7354    -7287    -7217    -7134    -7041    -6947    -6856 
   -6775    -6693    -6602    -6516    -6431    -6340    -6261    -6197 
   -6133    -6072    -6025    -5981    -5938    -5903    -5867    -5833 
   -5818    -5811    -5805    -5809    -5818    -5834    -5864    -5895 
   -5933    -5987    -6052    -6115    -6180    -6238    -6292    -6355 
   -6419    -6469    -6504    -6531    -6550    -6573    -6598    -6609 
   -6609    -6606    -6590    -6567    -6555    -6538    -6512    -6490 
   -6473    -6461    -6457    -6450    -6436    -6423    -6409    -6393 
   -6393    -6399    -6401    -6413    -6428    -6432    -6434    -6442 
   -6458    -6484    -6513    -6529    -6543    -6566    -6597    -6633 
   -6670    -6697    -6718    -6739    -6744    -6735    -6721    -6700 
   -6674    -6650    -6616    -6562    -6501    -6436    -6372    -6312 
   -6254    -6203    -6165    -6131    -6089    -6046    -6006    -5964 
   -5934    -5911    -5886    -5864    -5837    -5805    -5783    -5764 
   -5738    -5724    -5724    -5736    -5763    -5807    -5860    -5919 
   -5981    -6043    -6116    -6199    -6285    -6376    -6470    -6561 
   -6660    -6770    -6876    -6982    -7078    -7157    -7222    -7283 
   -7337    -7377    -7399    -7419    -7439    -7446    -7441    -7429 
   -7408    -7383    -7358    -7338    -7325    -7307    -7292    -7276 
   -7256    -7246    -7256    -7267    -7275    -7281    -7279    -7269 
   -7267    -7263    -7257    -7257    -7261    -7264    -7267    -7273 
   -7284    -7284    -7272    -7257    -7249    -7242    -7225    -7199 
   -7179    -7160    -7141    -7110    -7064    -7009    -6955    -6903 
   -6851    -6794    -6736    -6670    -6594    -6517    -6438    -6351 
   -6280    -6226    -6184    -6151    -6126    -6115    -6115    -6112 
   -6118    -6138    -6169    -6214    -6266    -6320    -6384    -6461 
   -6539    -6616    -6696    -6771    -6848    -6933    -7014    -7083 
   -7148    -7202    -7242    -7285    -7331    -7371    -7410    -7442 
   -7456    -7462    -7472    -7464    -7450    -7443    -7437    -7435 
   -7431    -7408    -7385    -7373    -7350    -7323    -7303    -7277 
   -7248    -7223    -7199    -7175    -7157    -7141    -7115    -7091 
   -7067    -7037    -7010    -6982    -6937    -6883    -6832    -6775 
   -6716    -6663    -6609    -6558    -6515    -6469    -6430    -6411 
   -6399    -6372    -6339    -6307    -6270    -6235    -6201    -6158 
   -6116    -6080    -6048    -6019    -5992    -5956    -5919    -5887 
   -5850    -5815    -5776    -5730    -5690    -5660    -5634    -5617 
   -5610    -5603    -5597    -5593    -5587    -5587    -5595    -5607 
   -5625    -5651    -5678    -5709    -5745    -5783    -5814    -5842 
   -5880    -5923    -5967    -6012    -6060    -6106    -6160    -6215 
   -6276    -6342    -6404    -6458    -6511    -6561    -6600    -6640 
   -6683    -6721    -6758    -6787    -6816    -6853    -6882    -6895 
   -6905    -6917    -6941    -6976    -7011    -7042    -7071    -7101 
   -7128    -7152    -7176    -7198    -7222    -7248    -7267    -7271 
   -7260    -7240    -7225    -7222    -7218    -7200    -7172    -7144 
   -7114    -7076    -7029    -6987    -6952    -6916    -6887    -6870 
   -6853    -6849    -6871    -6894    -6914    -6941    -6966    -6983 
   -7006    -7033    -7057    -7091    -7119    -7133    -7146    -7165 
   -7186    -7214    -7241    -7263    -7283    -7299    -7314    -7342 
   -7376    -7403    -7429    -7457    -7479    -7493    -7503    -7516 
   -7535    -7558    -7577    -7574    -7549    -7507    -7454    -7400 
   -7354    -7308    -7257    -7207    -7161    -7123    -7092    -7059 
   -7024    -6994    -6963    -6930    -6905    -6883    -6860    -6836 
   -6809    -6785    -6764    -6737    -6702    -6673    -6643    -6605 
   -6575    -6547    -6504    -6454    -6416    -6382    -6345    -6300 
   -6255    -6219    -6181    -6139    -6108    -6077    -6030    -5981 
   -5942    -5908    -5879    -5856    -5829    -5799    -5780    -5768 
   -5756    -5751    -5757    -5769    -5788    -5810    -5836    -5873 
   -5918    -5967    -6025    -6088    -6142    -6196    -6266    -6340 
   -6404    -6463    -6511    -6540    -6561    -6578    -6597    -6612 
   -6616    -6612    -6609    -6606    -6606    -6604    -6598    -6597 
   -6602    -6601    -6594    -6589    -6583    -6579    -6590    -6609 
   -6627    -6654    -6683    -6708    -6731    -6750    -6768    -6794 
   -6833    -6883    -6928    -6970    -7007    -7042    -7075    -7101 
   -7119    -7134    -7133    -7117    -7098    -7067    -7021    -6971 
   -6916    -6849    -6778    -6697    -6608    -6519    -6430    -6342 
   -6270    -6210    -6149    -6096    -6039    -5981    -5938    -5902 
   -5865    -5837    -5814    -5798    -5798    -5813    -5829    -5853 
   -5887    -5910    -5931    -5965    -6000    -6042    -6091    -6139 
   -6191    -6249    -6296    -6334    -6377    -6423    -6458    -6490 
   -6525    -6561    -6597    -6633    -6662    -6678    -6687    -6689 
   -6683    -6690    -6702    -6706    -6705    -6691    -6666    -6646 
   -6629    -6615    -6606    -6592    -6563    -6542    -6520    -6500 
   -6489    -6475    -6459    -6440    -6409    -6374    -6345    -6313 
   -6286    -6265    -6232    -6196    -6168    -6145    -6133    -6120 
   -6096    -6076    -6072    -6080    -6093    -6107    -6123    -6147 
   -6180    -6216    -6254    -6297    -6346    -6396    -6450    -6519 
   -6597    -6674    -6756    -6843    -6926    -7002    -7074    -7140 
   -7204    -7272    -7337    -7406    -7477    -7538    -7596    -7651 
   -7693    -7730    -7753    -7757    -7765    -7777    -7780    -7782 
   -7781    -7773    -7761    -7750    -7736    -7709    -7678    -7643 
   -7604    -7565    -7519    -7466    -7419    -7373    -7323    -7277 
   -7230    -7183    -7141    -7102    -7059    -7014    -6970    -6928 
   -6885    -6836    -6778    -6721    -6675    -6632    -6588    -6551 
   -6512    -6477    -6463    -6447    -6428    -6423    -6408    -6381 
   -6367    -6346    -6312    -6291    -6273    -6251    -6237    -6216 
   -6181    -6147    -6118    -6080    -6043    -6012    -5975    -5941 
   -5917    -5890    -5865    -5848    -5821    -5798    -5790    -5782 
   -5771    -5772    -5778    -5786    -5811    -5840    -5865    -5906 
   -5958    -6007    -6066    -6146    -6223    -6297    -6374    -6444 
   -6513    -6588    -6656    -6718    -6778    -6828    -6864    -6901 
   -6932    -6943    -6944    -6940    -6928    -6920    -6920    -6920 
   -6928    -6943    -6945    -6940    -6934    -6924    -6912    -6907 
   -6906    -6898    -6887    -6878    -6867    -6863    -6867    -6874 
   -6885    -6902    -6916    -6929    -6943    -6952    -6961    -6970 
   -6971    -6968    -6967    -6960    -6956    -6955    -6945    -6936 
   -6928    -6917    -6909    -6897    -6875    -6855    -6841    -6839 
   -6847    -6853    -6844    -6832    -6821    -6814    -6814    -6810 
   -6804    -6809    -6817    -6818    -6825    -6836    -6843    -6860 
   -6890    -6916    -6930    -6936    -6939    -6948    -6966    -6978 
   -6982    -6980    -6976    -6970    -6966    -6960    -6957    -6964 
   -6979    -6991    -6997    -7001    -7006    -7010    -7018    -7024 
   -7021    -7018    -7017    -7011    -6997    -6972    -6941    -6910 
   -6870    -6825    -6787    -6751    -6717    -6687    -6652    -6608 
   -6569    -6535    -6500    -6467    -6434    -6388    -6345    -6307 
   -6265    -6223    -6193    -6165    -6139    -6122    -6110    -6091 
   -6076    -6061    -6042    -6037    -6033    -6023    -6022    -6016 
   -6008    -6021    -6035    -6043    -6062    -6088    -6114    -6150 
   -6187    -6218    -6269    -6336    -6397    -6461    -6535    -6601 
   -6673    -6763    -6847    -6920    -6999    -7071    -7136    -7206 
   -7263    -7303    -7345    -7372    -7377    -7387    -7387    -7373 
   -7371    -7362    -7330    -7303    -7281    -7233    -7180    -7134 
   -7075    -7024    -6979    -6917    -6859    -6820    -6770    -6729 
   -6706    -6671    -6633    -6609    -6579    -6551    -6532    -6496 
   -6444    -6408    -6370    -6326    -6299    -6285    -6270    -6266 
   -6272    -6266    -6264    -6266    -6265    -6277    -6295    -6304 
   -6323    -6354    -6390    -6427    -6466    -6512    -6563    -6613 
   -6663    -6721    -6774    -6813    -6847    -6878    -6912    -6940 
   -6956    -6968    -6976    -6982    -6987    -6974    -6943    -6910 
   -6878    -6839    -6791    -6735    -6670    -6610    -6547    -6475 
   -6411    -6346    -6278    -6227    -6180    -6126    -6083    -6050 
   -6015    -5988    -5969    -5952    -5944    -5945    -5942    -5935 
   -5926    -5910    -5891    -5875    -5857    -5837    -5818    -5800 
   -5783    -5761    -5736    -5722    -5722    -5719    -5715    -5713 
   -5710    -5713    -5722    -5734    -5742    -5752    -5773    -5803 
   -5841    -5886    -5927    -5969    -6022    -6069    -6118    -6180 
   -6241    -6300    -6366    -6430    -6490    -6551    -6602    -6652 
   -6705    -6754    -6798    -6849    -6894    -6926    -6964    -7003 
   -7041    -7074    -7096    -7125    -7164    -7204    -7245    -7285 
   -7325    -7361    -7398    -7434    -7466    -7493    -7518    -7535 
   -7553    -7569    -7584    -7593    -7596    -7593    -7592    -7593 
   -7591    -7584    -7580    -7580    -7591    -7600    -7605    -7612 
   -7619    -7626    -7634    -7631    -7622    -7607    -7582    -7558 
   -7537    -7510    -7474    -7438    -7400    -7353    -7299    -7249 
   -7206    -7163    -7128    -7094    -7060    -7032    -6998    -6959 
   -6925    -6891    -6856    -6833    -6814    -6787    -6764    -6737 
   -6696    -6660    -6628    -6581    -6535    -6496    -6457    -6427 
   -6416    -6409    -6405    -6408    -6407    -6400    -6394    -6382 
   -6367    -6354    -6339    -6330    -6326    -6313    -6304    -6301 
   -6293    -6285    -6285    -6285    -6281    -6280    -6282    -6286 
   -6286    -6295    -6312    -6320    -6320    -6328    -6339    -6345 
   -6359    -6378    -6390    -6400    -6416    -6442    -6473    -6515 
   -6566    -6624    -6683    -6748    -6817    -6890    -6970    -7051 
   -7128    -7202    -7277    -7360    -7443    -7523    -7597    -7670 
   -7731    -7782    -7831    -7865    -7893    -7927    -7950    -7956 
   -7959    -7959    -7946    -7923    -7892    -7852    -7805    -7750 
   -7681    -7600    -7515    -7425    -7325    -7218    -7109    -7001 
   -6906    -6816    -6723    -6635    -6554    -6469    -6388    -6315 
   -6241    -6172    -6112    -6052    -5991    -5942    -5887    -5822 
   -5759    -5694    -5632    -5583    -5540    -5495    -5459    -5431 
   -5406    -5393    -5385    -5377    -5379    -5383    -5391    -5416 
   -5443    -5466    -5493    -5528    -5566    -5603    -5647    -5695 
   -5753    -5815    -5872    -5930    -5988    -6035    -6085    -6146 
   -6205    -6269    -6330    -6381    -6430    -6469    -6500    -6529 
   -6550    -6563    -6575    -6571    -6556    -6543    -6529    -6516 
   -6509    -6500    -6492    -6484    -6471    -6465    -6463    -6465 
   -6465    -6455    -6439    -6427    -6413    -6393    -6373    -6358 
   -6340    -6320    -6312    -6305    -6297    -6304    -6324    -6342 
   -6370    -6404    -6424    -6447    -6478    -6505    -6540    -6589 
   -6639    -6687    -6741    -6793    -6844    -6906    -6968    -7024 
   -7088    -7160    -7234    -7306    -7375    -7443    -7506    -7551 
   -7591    -7632    -7666    -7690    -7711    -7724    -7730    -7735 
   -7735    -7728    -7715    -7695    -7670    -7645    -7608    -7569 
   -7545    -7518    -7480    -7446    -7407    -7366    -7346    -7329 
   -7303    -7285    -7275    -7257    -7248    -7244    -7244    -7254 
   -7268    -7273    -7283    -7299    -7311    -7326    -7339    -7349 
   -7360    -7369    -7375    -7385    -7403    -7422    -7441    -7458 
   -7469    -7473    -7484    -7497    -7504    -7501    -7493    -7485 
   -7474    -7452    -7415    -7366    -7312    -7254    -7184    -7111 
   -7036    -6952    -6866    -6783    -6701    -6623    -6546    -6465 
   -6388    -6313    -6241    -6185    -6139    -6095    -6064    -6037 
   -6004    -5973    -5945    -5911    -5881    -5859    -5833    -5807 
   -5779    -5741    -5705    -5674    -5640    -5610    -5586    -5560 
   -5543    -5533    -5516    -5502    -5495    -5478    -5456    -5444 
   -5437    -5433    -5435    -5437    -5445    -5460    -5471    -5476 
   -5482    -5478    -5471    -5474    -5478    -5482    -5486    -5485 
   -5479    -5483    -5489    -5495    -5514    -5541    -5570    -5610 
   -5656    -5702    -5764    -5840    -5914    -5991    -6072    -6149 
   -6223    -6305    -6390    -6465    -6540    -6619    -6687    -6762 
   -6840    -6916    -6999    -7082    -7153    -7230    -7307    -7377 
   -7452    -7528    -7603    -7686    -7778    -7854    -7920    -7994 
   -8056    -8113    -8182    -8240    -8278    -8314    -8338    -8347 
   -8348    -8334    -8316    -8301    -8276    -8245    -8216    -8172 
   -8118    -8064    -8000    -7924    -7851    -7778    -7696    -7616 
   -7538    -7449    -7358    -7268    -7169    -7075    -6991    -6899 
   -6801    -6709    -6625    -6546    -6467    -6390    -6320    -6258 
   -6211    -6174    -6138    -6107    -6085    -6077    -6083    -6085 
   -6092    -6107    -6116    -6124    -6139    -6161    -6191    -6226 
   -6265    -6312    -6367    -6416    -6466    -6525    -6574    -6621 
   -6681    -6739    -6789    -6837    -6871    -6897    -6928    -6957 
   -6982    -7010    -7030    -7036    -7037    -7038    -7036    -7030 
   -7020    -6998    -6970    -6943    -6913    -6885    -6859    -6828 
   -6795    -6764    -6731    -6698    -6674    -6648    -6621    -6602 
   -6582    -6556    -6534    -6507    -6473    -6446    -6420    -6394 
   -6377    -6367    -6355    -6346    -6340    -6332    -6318    -6305 
   -6295    -6284    -6269    -6257    -6253    -6250    -6238    -6226 
   -6222    -6216    -6208    -6200    -6193    -6187    -6193    -6203 
   -6204    -6204    -6196    -6185    -6178    -6170    -6162    -6164 
   -6166    -6165    -6177    -6189    -6195    -6212    -6238    -6262 
   -6297    -6338    -6369    -6399    -6428    -6462    -6501    -6540 
   -6579    -6619    -6660    -6700    -6728    -6755    -6779    -6795 
   -6809    -6821    -6835    -6849    -6851    -6844    -6841    -6837 
   -6828    -6814    -6799    -6781    -6755    -6729    -6708    -6686 
   -6674    -6669    -6664    -6660    -6655    -6655    -6659    -6666 
   -6675    -6689    -6704    -6723    -6744    -6763    -6782    -6798 
   -6805    -6809    -6818    -6832    -6847    -6863    -6879    -6898 
   -6921    -6943    -6966    -6986    -7001    -7014    -7030    -7044 
   -7052    -7068    -7090    -7102    -7117    -7140    -7156    -7163 
   -7172    -7172    -7169    -7175    -7173    -7175    -7180    -7176 
   -7176    -7186    -7183    -7175    -7168    -7150    -7125    -7099 
   -7067    -7029    -6998    -6966    -6924    -6883    -6843    -6793 
   -6747    -6708    -6666    -6623    -6585    -6547    -6512    -6482 
   -6453    -6424    -6403    -6377    -6354    -6340    -6328    -6308 
   -6282    -6257    -6237    -6223    -6212    -6200    -6187    -6177 
   -6168    -6165    -6170    -6180    -6195    -6215    -6232    -6251 
   -6274    -6296    -6318    -6338    -6354    -6369    -6382    -6393 
   -6403    -6408    -6411    -6419    -6432    -6438    -6436    -6439 
   -6448    -6454    -6458    -6463    -6465    -6467    -6471    -6473 
   -6471    -6469    -6461    -6457    -6453    -6444    -6440    -6447 
   -6451    -6461    -6471    -6471    -6475    -6500    -6528    -6551 
   -6581    -6613    -6643    -6677    -6708    -6735    -6764    -6799 
   -6836    -6878    -6920    -6951    -6984    -7021    -7049    -7075 
   -7110    -7146    -7190    -7240    -7277    -7308    -7342    -7361 
   -7366    -7379    -7388    -7392    -7398    -7402    -7389    -7375 
   -7358    -7333    -7303    -7267    -7227    -7204    -7187    -7165 
   -7146    -7129    -7109    -7096    -7087    -7076    -7074    -7071 
   -7065    -7071    -7080    -7082    -7083    -7092    -7102    -7109 
   -7125    -7148    -7173    -7196    -7207    -7217    -7231    -7246 
   -7253    -7258    -7260    -7253    -7240    -7225    -7210    -7188 
   -7155    -7113    -7065    -7014    -6961    -6906    -6851    -6794 
   -6741    -6685    -6620    -6559    -6500    -6436    -6378    -6330 
   -6281    -6235    -6193    -6147    -6100    -6061    -6012    -5961 
   -5926    -5895    -5864    -5840    -5817    -5795    -5782    -5769 
   -5759    -5752    -5741    -5729    -5725    -5725    -5725    -5730 
   -5736    -5733    -5733    -5737    -5738    -5748    -5771    -5795 
   -5817    -5845    -5880    -5917    -5957    -6000    -6042    -6088 
   -6141    -6189    -6230    -6268    -6309    -6353    -6392    -6426 
   -6458    -6490    -6524    -6559    -6589    -6606    -6625    -6646 
   -6658    -6674    -6686    -6690    -6700    -6712    -6721    -6731 
   -6745    -6755    -6764    -6783    -6797    -6798    -6804    -6809 
   -6806    -6808    -6813    -6814    -6817    -6825    -6828    -6836 
   -6843    -6844    -6851    -6853    -6849    -6848    -6851    -6862 
   -6872    -6878    -6880    -6880    -6883    -6885    -6889    -6893 
   -6893    -6897    -6898    -6890    -6882    -6880    -6872    -6858 
   -6844    -6829    -6817    -6813    -6813    -6816    -6822    -6829 
   -6833    -6837    -6841    -6848    -6859    -6875    -6894    -6916 
   -6939    -6957    -6975    -6994    -7010    -7029    -7057    -7086 
   -7111    -7141    -7168    -7191    -7217    -7237    -7249    -7267 
   -7285    -7295    -7299    -7302    -7304    -7310    -7310    -7299 
   -7288    -7275    -7250    -7225    -7195    -7160    -7125    -7087 
   -7045    -7007    -6968    -6922    -6885    -6852    -6814    -6783 
   -6760    -6741    -6727    -6714    -6702    -6691    -6685    -6677 
   -6670    -6667    -6664    -6663    -6671    -6678    -6683    -6696 
   -6710    -6727    -6748    -6768    -6786    -6808    -6832    -6853 
   -6882    -6913    -6937    -6957    -6978    -6993    -7006    -7025 
   -7041    -7052    -7071    -7091    -7109    -7130    -7150    -7168 
   -7191    -7211    -7223    -7241    -7258    -7261    -7260    -7261 
   -7256    -7244    -7234    -7222    -7203    -7176    -7152    -7128 
   -7098    -7059    -7022    -6984    -6940    -6898    -6862    -6825 
   -6785    -6748    -6713    -6674    -6633    -6594    -6555    -6524 
   -6493    -6450    -6411    -6374    -6330    -6281    -6235    -6188 
   -6141    -6089    -6034    -5987    -5944    -5899    -5860    -5825 
