Origin Time       2025/01/13 21:19:00
Lat.              31.8
Long.             131.6
Depth. (km)       30
Mag.              6.9
Station Code      TKS003
Station Lat.      33.8716
Station Long.     134.6040
Station Height(m) 13
Record Time       2025/01/13 21:21:00
Sampling Freq(Hz) 100Hz
Duration Time(s)  60
Dir.              U-D
Scale Factor      7845(gal)/8223790
Max. Acc. (gal)   0.374
Last Correction   2025/01/13 21:20:59
Memo.             
[...]
     -90     -130     -117     -105     -126     -157     -179     -175 
    -125      -76      -85     -120     -147     -172     -174     -137 
    -108     -105     -126     -189     -247     -225     -149     -117 
    -147     -183     -198     -182     -133     -110     -148     -182 
    -170     -152     -147     -140     -145     -168     -180     -172 
    -157     -140     -133     -129     -105      -64      -33      -31 
     -48      -68      -68      -14       67       72      -14      -72 
     -63      -43      -35      -64     -140     -178     -139     -117 
    -147     -159     -149     -149     -133     -105     -116     -159 
    -194     -207     -189     -144     -137     -175     -189     -162 
    -145     -136     -124     -153     -220     -244     -220     -213 
    -222     -209     -201     -194     -141      -82      -83     -110 
    -103      -79      -68      -78     -102     -117     -108     -102 
    -106      -87      -56      -54      -71      -86     -114     -159 
    -182     -172     -155     -130     -106      -94      -74      -54 
     -72     -113      -99      -36       -5      -37     -105     -157 
    -140      -66      -27      -56      -93     -109     -109      -85 
     -67     -103     -163     -195     -193     -170     -136     -105 
    -109     -132     -121      -91      -81      -78      -93     -132 
    -153     -139     -128     -147     -171     -178     -160     -125 
    -109     -144     -189     -184     -166     -180     -191     -174 
    -152     -125      -86      -79     -124     -179     -211     -194 
    -129      -82     -105     -141     -128      -93      -82      -99 
    -137     -174     -178     -171     -184     -202     -186     -141 
    -101      -93     -112     -121     -103      -81      -76      -81 
     -82      -91      -86      -39      -24      -85     -137     -136 
    -125     -114      -93      -99     -128     -121      -90      -72 
     -68      -78     -116     -148     -164     -180     -179     -145 
    -140     -187     -194     -125      -75      -75      -75      -72 
     -76      -64      -54      -75     -101     -113     -130     -153 
    -156     -157     -183     -190     -167     -170     -197     -202 
    -191     -167     -129     -120     -143     -152     -143     -129 
     -97      -64      -83     -137     -170     -159     -118      -66 
     -62     -122     -171     -162     -132      -97      -44      -33 
     -94     -149     -153     -157     -187     -207     -218     -211 
    -166     -113     -106     -117     -117     -136     -157     -135 
    -103     -102     -103     -122     -162     -157     -108      -89 
    -103     -108     -105      -94      -63      -54     -102     -157 
    -153     -106      -60      -54     -103     -143     -108      -68 
    -117     -209     -259     -244     -186     -130     -125     -153 
    -149     -116     -109     -117     -103      -91     -105      -99 
     -55      -27      -37      -85     -166     -209     -159     -114 
    -160     -222     -222     -194     -175     -170     -191     -221 
    -211     -174     -137     -101      -83     -109     -132     -114 
    -101     -116     -133     -141     -144     -128      -98      -90 
    -108     -121     -133     -147     -136     -125     -147     -166 
    -148     -121     -102      -93     -113     -148     -147     -117 
    -121     -144     -153     -167     -172     -130      -86      -90 
    -102      -98      -97      -90      -72      -78      -97      -86 
     -48      -43      -64      -74      -83      -98      -89      -71 
     -85     -105     -101      -83      -66      -71     -120     -166 
    -149     -105      -91      -93      -97     -117     -122     -102 
    -101     -128     -167     -206     -205     -160     -151     -202 
    -233     -195     -135     -105     -120     -172     -229     -228 
    -176     -159     -195     -225     -222     -201     -157     -110 
     -90      -97     -110     -128     -139     -125     -102     -106 
    -120     -125     -139     -141     -117     -101     -106     -122 
    -157     -195     -194     -176     -182     -194     -191     -166 
    -102      -28      -18      -70     -112     -116     -109     -105 
    -101     -120     -159     -194     -225     -232     -197     -175 
    -187     -178     -139     -116     -124     -125     -112     -105 
    -109     -125     -160     -183     -162     -121      -91      -58 
     -27      -25      -29      -22      -52     -108     -128     -132 
    -148     -144     -128     -133     -120      -86      -94     -122 
    -106      -62      -25        1       -6      -48      -63      -45 
     -39      -52      -72     -105     -144     -147     -120     -143 
    -202     -211     -172     -152     -152     -163     -175     -159 
    -129     -126     -133     -122     -112     -109      -94      -79 
     -93     -112     -103      -95     -103     -103      -94      -87 
     -79      -78      -94     -110     -120     -133     -136     -130 
    -152     -186     -170     -126     -135     -174     -174     -151 
    -156     -189     -224     -252     -251     -211     -174     -166 
    -171     -187     -218     -220     -172     -130     -122     -121 
    -124     -132     -124     -117     -129     -130     -118     -130 
    -145     -153     -194     -241     -225     -171     -149     -153 
    -149     -137     -117      -91      -89     -113     -124     -113 
     -94      -63      -48      -66      -56       -5        8      -28 
     -55      -63      -89     -124     -136     -132     -130     -135 
    -149     -164     -139      -91      -86     -109     -116     -124 
    -124      -91      -74      -98     -101      -78      -94     -132 
    -139     -130     -130     -125     -112      -99      -99     -121 
    -137     -108      -54      -40      -75     -113     -128     -128 
    -118     -112     -129     -155     -155     -147     -163     -166 
    -130     -108     -120     -130     -135     -141     -133     -124 
    -133     -139     -139     -139      -99      -35      -27      -71 
     -82      -51      -45      -68     -108     -178     -222     -198 
    -182     -206     -211     -203     -214     -224     -218     -220 
    -213     -176     -149     -163     -168     -151     -140     -137 
    -141     -162     -163     -125      -87      -71      -63      -63 
     -83      -94      -78      -68      -81      -98     -124     -147 
    -128      -86      -79     -106     -124     -118      -95      -68 
     -70     -110     -140     -132     -112      -94      -95     -140 
    -201     -225     -214     -205     -206     -224     -253     -256 
    -216     -182     -179     -184     -186     -186     -167     -144 
    -148     -166     -159     -152     -171     -174     -141     -106 
     -75      -39      -25      -48      -56      -20       32       60 
      45        1      -17        8       25       -8      -52      -67 
     -75      -91     -102     -101      -90      -78      -97     -147 
    -162     -137     -143     -176     -178     -163     -164     -168 
    -183     -214     -214     -189     -184     -189     -163     -136 
    -128     -106      -81      -86      -98      -81      -59      -59 
     -67      -60      -33       10       40       33       21       18 
       6       -8       -9      -16      -45      -76      -90      -95 
     -81      -47      -47      -87     -116     -108      -93      -95 
    -121     -167     -205     -206     -197     -191     -175     -167 
    -193     -210     -203     -216     -234     -226     -220     -218 
    -184     -147     -157     -184     -174     -148     -137     -124 
    -120     -145     -147      -97      -67      -85     -126     -182 
    -211     -189     -171     -191     -197     -176     -156     -124 
     -90      -90     -109      -97      -59      -39      -52      -93 
    -132     -139     -113     -102     -126     -140     -132     -125 
    -120     -112     -109      -97      -83      -98     -117     -102 
     -79      -85     -102     -113     -135     -147     -126     -112 
    -126     -145     -163     -170     -147     -121     -140     -178 
    -197     -203     -205     -193     -180     -190     -184     -159 
    -159     -151      -97      -52      -62      -89     -114     -140 
    -132      -98      -95     -113      -97      -82     -109     -118 
     -93      -82      -86      -79      -76      -85      -82      -78 
     -86      -76      -47      -32      -56     -102     -144     -151 
    -124     -129     -187     -226     -224     -225     -220     -171 
    -114      -89      -72      -52      -52      -60      -52      -55 
     -79      -91      -91      -99     -102     -109     -137     -157 
    -155     -153     -163     -164     -157     -156     -147     -130 
    -133     -130     -110     -102     -112     -117     -124     -136 
    -122      -87      -66      -54      -36      -36      -45      -32 
     -22      -48      -81     -106     -136     -155     -152     -151 
    -166     -180     -180     -170     -144     -103      -85      -91 
     -93      -94     -105     -116     -145     -201     -225     -186 
    -133     -103      -82      -70      -87     -112     -120     -130 
    -128     -110     -113     -133     -129     -105      -99     -101 
     -83      -62      -51      -37      -37      -55      -60      -62 
     -76      -87     -101     -130     -153     -167     -189     -210 
    -225     -240     -264     -265     -222     -186     -201     -236 
    -268     -286     -264     -220     -205     -218     -222     -203 
    -166     -132     -147     -182     -164     -113     -106     -140 
    -152     -130     -112     -114     -133     -149     -136      -94 
     -54      -52     -102     -162     -178     -145      -99      -83 
    -103     -126     -140     -144     -125     -110     -122     -133 
    -126     -110      -83      -66      -91     -153     -205     -214 
    -225     -256     -282     -286     -249     -179     -148     -171 
    -179     -149     -105      -55      -32      -68     -118     -117 
     -79      -51      -45      -56      -81      -86      -63      -52 
     -55      -39      -27      -49      -85     -117     -164     -206 
    -214     -213     -232     -251     -247     -207     -139      -87 
     -94     -137     -151     -144     -167     -191     -180     -175 
    -189     -184     -174     -159     -130     -122     -145     -163 
    -170     -157     -106      -56      -56      -83      -83      -55 
     -31      -10       -6      -45      -93      -94      -78      -62 
     -43      -54      -90     -103     -105     -122     -143     -143 
    -151     -172     -172     -148     -135     -139     -149     -179 
    -206     -182     -135     -125     -133     -152     -195     -207 
    -172     -147     -129     -108     -112     -139     -144     -130 
    -139     -151     -133     -116     -125     -122      -94      -85 
     -83      -49       -5       22       28       12        1       20 
      47       44       14      -24      -79     -114      -76       -8 
      22        6      -48     -116     -133      -83      -36      -40 
     -83     -126     -128      -82      -36      -29      -54      -78 
     -90      -76      -39      -27      -58      -82      -64      -17 
      21        2      -72     -124     -106      -55      -40      -86 
    -151     -168     -140     -102      -94     -114     -133     -153 
    -182     -175     -148     -163     -203     -226     -241     -247 
    -232     -224     -247     -284     -302     -280     -222     -148 
    -110     -129     -137      -95      -43        5       48       47 
       6      -18      -40      -95     -147     -148     -126     -116 
    -114     -125     -132     -101      -83     -144     -229     -267 
    -268     -259     -256     -283     -311     -309     -283     -256 
    -230     -213     -224     -237     -197     -124     -101     -135 
    -187     -247     -270     -244     -232     -252     -267     -261 
    -238     -184     -120      -94      -95      -86      -75      -82 
     -99     -136     -176     -176     -149     -135      -97      -18 
      16      -18      -49      -37      -20      -28      -90     -207 
    -287     -282     -280     -329     -364     -348     -292     -226 
    -189     -198     -245     -315     -379     -386     -315     -248 
    -268     -332     -348     -292     -203     -124      -75      -52 
     -45      -68     -136     -218     -255     -245     -229     -195 
    -132      -78      -49      -28       -9       21       64       68 
      12      -45      -71      -78      -48       17       59       78 
     102       86        6      -72     -129     -174     -182     -160 
    -162     -178     -163     -162     -186     -163      -97      -74 
    -102     -124     -103      -56      -14        1       -1       16 
      60       71       22      -45     -105     -136     -108      -44 
      -1       12        8      -14      -28      -12       25       64 
      87       78       52       47       40       -4      -67     -101 
    -106      -85      -31       17       28       21       16        1 
     -27      -81     -172     -260     -279     -245     -222     -210 
    -166      -90      -14       51       66      -33     -189     -295 
    -365     -450     -517     -511     -417     -244      -79       -2 
       6      -28     -124     -206     -182     -110      -83      -89 
    -112     -155     -180     -153     -103      -81      -98     -129 
    -149     -168     -211     -275     -306     -270     -206     -159 
    -113      -43       45      118      132       64      -35      -58 
      -6       18      -17      -99     -198     -232     -178     -121 
     -98      -75      -63      -97     -152     -211     -263     -243 
    -139      -58      -89     -180     -255     -290     -274     -206 
    -128      -76      -62      -81     -112     -109      -75      -83 
    -152     -241     -332     -380     -324     -221     -167     -141 
     -86      -10       51       86       86       79       95       89 
       9     -109     -206     -253     -244     -183     -112      -63 
     -21       36       66       35      -29      -93     -141     -171 
    -209     -255     -264     -243     -228     -206     -176     -156 
    -118      -63      -76     -174     -253     -263     -257     -279 
    -334     -390     -378     -282     -186     -126      -60        8 
      22       -4      -33      -67      -78      -60      -75     -126 
    -152     -160     -159     -114      -58      -32      -22      -36 
    -122     -236     -275     -248     -240     -249     -226     -190 
    -187     -207     -220     -207     -164     -113     -118     -163 
    -164     -124      -93      -71      -72      -98      -95      -58 
     -63     -130     -172     -151     -141     -157     -136      -75 
     -24       -6      -21      -49      -85     -160     -252     -267 
    -180      -56       51      110      124      139      163      155 
     106       16     -116     -229     -241     -162      -58       41 
     148      234      243      171       75      -27     -129     -180 
    -190     -201     -191     -137      -56       12       14      -63 
    -155     -182     -170     -203     -287     -369     -411     -373 
    -270     -214     -260     -317     -315     -280     -230     -182 
    -178     -199     -193     -197     -276     -368     -376     -298 
    -182     -103     -135     -241     -338     -391     -388     -333 
    -280     -272     -268     -224     -175     -144     -102      -66 
     -54      -47      -62     -124     -175     -172     -168     -186 
    -180     -151     -125      -89      -45      -32      -35      -21 
     -18      -58     -112     -184     -286     -360     -361     -279 
    -120       33       81       43       -2      -54     -106      -98 
     -27       45       70       49       20       14       41       66 
      45        6        1      -12      -67     -116     -143     -178 
    -201     -186     -151     -139     -191     -305     -396     -411 
    -379     -337     -253     -128      -47      -66     -124     -144 
    -129     -125     -160     -211     -230     -214     -202     -198 
    -180     -183     -217     -240     -243     -240     -201     -113 
     -16       54       95       99       51      -16      -64      -71 
     -18       62       89       37      -41     -114     -156     -149 
    -141     -207     -324     -373     -290     -124       13       62 
      48       20      -16      -95     -210     -299     -322     -298 
    -263     -224     -172     -112      -70      -64      -71      -87 
    -160     -263     -278     -183      -86      -49      -55      -44 
      16      102      137       76      -37     -120     -101       -2 
      55      -25     -182     -251     -198     -122      -93     -147 
    -245     -268     -209     -159     -145     -148     -152     -121 
     -48       12       12      -43      -89      -89      -64      -44 
     -47      -66      -68      -67     -103     -156     -195     -241 
    -286     -270     -205     -183     -216     -244     -253     -267 
    -290     -310     -319     -329     -342     -314     -191      -39 
      -2      -97     -184     -175     -121     -117     -197     -264 
    -194       -9      132      159      121       37      -91     -199 
    -243     -270     -318     -361     -367     -294     -148      -32 
     -12      -17       17       49       44       24       -4      -31 
     -13       25       14      -21      -18       -2      -25      -70 
     -63        5       48       -6     -149     -280     -310     -271 
    -233     -205     -194     -194     -139      -32       54      108 
     143      113        4     -139     -290     -406     -403     -291 
    -183     -148     -162     -175     -144      -52       35       43 
      -6      -68     -135     -183     -209     -264     -319     -259 
    -103       59      179      180       40     -137     -267     -357 
    -411     -407     -365     -326     -280     -210     -140     -101 
    -102     -135     -171     -170     -136     -132     -164     -171 
    -140     -139     -187     -243     -251     -187      -90      -29 
     -22      -25      -22      -22       20      102      132       85 
      28       -8      -41      -64      -81      -93      -64       10 
      62       67       85      114      112       68      -31     -157 
    -222     -207     -166     -121      -90      -78      -60       -2 
      70       82        4      -83     -132     -168     -220     -282 
    -329     -319     -256     -180     -106      -47      -39      -82 
    -126     -153     -186     -226     -243     -221     -178     -128 
    -112     -148     -195     -229     -272     -307     -322     -326 
    -298     -224     -164     -140     -108      -89     -112     -132 
    -135     -129     -108      -81      -85     -129     -178     -198 
    -195     -180     -163     -164     -189     -198     -186     -170 
    -151     -137     -130     -116     -110     -147     -210     -243 
